[{"zipCode":"0070880","prefectureKana":"ﾎｯｶｲﾄﾞｳ","cityKana":"ｻｯﾎﾟﾛｼﾋｶﾞｼｸ","streetKana":"ｵｶﾀﾞﾏﾁｮｳ","prefecture":"北海道","city":"札幌市東区","street":"丘珠町"},{"zipCode":"0070881","prefectureKana":"ﾎｯｶｲﾄﾞｳ","cityKana":"ｻｯﾎﾟﾛｼﾋｶﾞｼｸ","streetKana":"ｷﾀｵｶﾀﾞﾏ1ｼﾞｮｳ","prefecture":"北海道","city":"札幌市東区","street":"北丘珠一条"},{"zipCode":"0070882","prefectureKana":"ﾎｯｶｲﾄﾞｳ","cityKana":"ｻｯﾎﾟﾛｼﾋｶﾞｼｸ","streetKana":"ｷﾀｵｶﾀﾞﾏ2ｼﾞｮｳ","prefecture":"北海道","city":"札幌市東区","street":"北丘珠二条"},{"zipCode":"0070883","prefectureKana":"ﾎｯｶｲﾄﾞｳ","cityKana":"ｻｯﾎﾟﾛｼﾋｶﾞｼｸ","streetKana":"ｷﾀｵｶﾀﾞﾏ3ｼﾞｮｳ","prefecture":"北海道","city":"札幌市東区","street":"北丘珠三条"},{"zipCode":"0070884","prefectureKana":"ﾎｯｶｲﾄﾞｳ","cityKana":"ｻｯﾎﾟﾛｼﾋｶﾞｼｸ","streetKana":"ｷﾀｵｶﾀﾞﾏ4ｼﾞｮｳ","prefecture":"北海道","city":"札幌市東区","street":"北丘珠四条"},{"zipCode":"0070885","prefectureKana":"ﾎｯｶｲﾄﾞｳ","cityKana":"ｻｯﾎﾟﾛｼﾋｶﾞｼｸ","streetKana":"ｷﾀｵｶﾀﾞﾏ5ｼﾞｮｳ","prefecture":"北海道","city":"札幌市東区","street":"北丘珠五条"},{"zipCode":"0070886","prefectureKana":"ﾎｯｶｲﾄﾞｳ","cityKana":"ｻｯﾎﾟﾛｼﾋｶﾞｼｸ","streetKana":"ｷﾀｵｶﾀﾞﾏ6ｼﾞｮｳ","prefecture":"北海道","city":"札幌市東区","street":"北丘珠六条"},{"zipCode":"0070834","prefectureKana":"ﾎｯｶｲﾄﾞｳ","cityKana":"ｻｯﾎﾟﾛｼﾋｶﾞｼｸ","streetKana":"ｷﾀ34ｼﾞｮｳﾋｶﾞｼ","prefecture":"北海道","city":"札幌市東区","street":"北三十四条東"},{"zipCode":"0070835","prefectureKana":"ﾎｯｶｲﾄﾞｳ","cityKana":"ｻｯﾎﾟﾛｼﾋｶﾞｼｸ","streetKana":"ｷﾀ35ｼﾞｮｳﾋｶﾞｼ","prefecture":"北海道","city":"札幌市東区","street":"北三十五条東"},{"zipCode":"0070836","prefectureKana":"ﾎｯｶｲﾄﾞｳ","cityKana":"ｻｯﾎﾟﾛｼﾋｶﾞｼｸ","streetKana":"ｷﾀ36ｼﾞｮｳﾋｶﾞｼ","prefecture":"北海道","city":"札幌市東区","street":"北三十六条東"},{"zipCode":"0070837","prefectureKana":"ﾎｯｶｲﾄﾞｳ","cityKana":"ｻｯﾎﾟﾛｼﾋｶﾞｼｸ","streetKana":"ｷﾀ37ｼﾞｮｳﾋｶﾞｼ","prefecture":"北海道","city":"札幌市東区","street":"北三十七条東"},{"zipCode":"0070838","prefectureKana":"ﾎｯｶｲﾄﾞｳ","cityKana":"ｻｯﾎﾟﾛｼﾋｶﾞｼｸ","streetKana":"ｷﾀ38ｼﾞｮｳﾋｶﾞｼ","prefecture":"北海道","city":"札幌市東区","street":"北三十八条東"},{"zipCode":"0070839","prefectureKana":"ﾎｯｶｲﾄﾞｳ","cityKana":"ｻｯﾎﾟﾛｼﾋｶﾞｼｸ","streetKana":"ｷﾀ39ｼﾞｮｳﾋｶﾞｼ","prefecture":"北海道","city":"札幌市東区","street":"北三十九条東"},{"zipCode":"0070840","prefectureKana":"ﾎｯｶｲﾄﾞｳ","cityKana":"ｻｯﾎﾟﾛｼﾋｶﾞｼｸ","streetKana":"ｷﾀ40ｼﾞｮｳﾋｶﾞｼ","prefecture":"北海道","city":"札幌市東区","street":"北四十条東"},{"zipCode":"0070841","prefectureKana":"ﾎｯｶｲﾄﾞｳ","cityKana":"ｻｯﾎﾟﾛｼﾋｶﾞｼｸ","streetKana":"ｷﾀ41ｼﾞｮｳﾋｶﾞｼ","prefecture":"北海道","city":"札幌市東区","street":"北四十一条東"},{"zipCode":"0070842","prefectureKana":"ﾎｯｶｲﾄﾞｳ","cityKana":"ｻｯﾎﾟﾛｼﾋｶﾞｼｸ","streetKana":"ｷﾀ42ｼﾞｮｳﾋｶﾞｼ","prefecture":"北海道","city":"札幌市東区","street":"北四十二条東"},{"zipCode":"0070843","prefectureKana":"ﾎｯｶｲﾄﾞｳ","cityKana":"ｻｯﾎﾟﾛｼﾋｶﾞｼｸ","streetKana":"ｷﾀ43ｼﾞｮｳﾋｶﾞｼ","prefecture":"北海道","city":"札幌市東区","street":"北四十三条東"},{"zipCode":"0070844","prefectureKana":"ﾎｯｶｲﾄﾞｳ","cityKana":"ｻｯﾎﾟﾛｼﾋｶﾞｼｸ","streetKana":"ｷﾀ44ｼﾞｮｳﾋｶﾞｼ","prefecture":"北海道","city":"札幌市東区","street":"北四十四条東"},{"zipCode":"0070845","prefectureKana":"ﾎｯｶｲﾄﾞｳ","cityKana":"ｻｯﾎﾟﾛｼﾋｶﾞｼｸ","streetKana":"ｷﾀ45ｼﾞｮｳﾋｶﾞｼ","prefecture":"北海道","city":"札幌市東区","street":"北四十五条東"},{"zipCode":"0070846","prefectureKana":"ﾎｯｶｲﾄﾞｳ","cityKana":"ｻｯﾎﾟﾛｼﾋｶﾞｼｸ","streetKana":"ｷﾀ46ｼﾞｮｳﾋｶﾞｼ","prefecture":"北海道","city":"札幌市東区","street":"北四十六条東"},{"zipCode":"0070847","prefectureKana":"ﾎｯｶｲﾄﾞｳ","cityKana":"ｻｯﾎﾟﾛｼﾋｶﾞｼｸ","streetKana":"ｷﾀ47ｼﾞｮｳﾋｶﾞｼ","prefecture":"北海道","city":"札幌市東区","street":"北四十七条東"},{"zipCode":"0070848","prefectureKana":"ﾎｯｶｲﾄﾞｳ","cityKana":"ｻｯﾎﾟﾛｼﾋｶﾞｼｸ","streetKana":"ｷﾀ48ｼﾞｮｳﾋｶﾞｼ","prefecture":"北海道","city":"札幌市東区","street":"北四十八条東"},{"zipCode":"0070849","prefectureKana":"ﾎｯｶｲﾄﾞｳ","cityKana":"ｻｯﾎﾟﾛｼﾋｶﾞｼｸ","streetKana":"ｷﾀ49ｼﾞｮｳﾋｶﾞｼ","prefecture":"北海道","city":"札幌市東区","street":"北四十九条東"},{"zipCode":"0070850","prefectureKana":"ﾎｯｶｲﾄﾞｳ","cityKana":"ｻｯﾎﾟﾛｼﾋｶﾞｼｸ","streetKana":"ｷﾀ50ｼﾞｮｳﾋｶﾞｼ","prefecture":"北海道","city":"札幌市東区","street":"北五十条東"},{"zipCode":"0070851","prefectureKana":"ﾎｯｶｲﾄﾞｳ","cityKana":"ｻｯﾎﾟﾛｼﾋｶﾞｼｸ","streetKana":"ｷﾀ51ｼﾞｮｳﾋｶﾞｼ","prefecture":"北海道","city":"札幌市東区","street":"北五十一条東"},{"zipCode":"0070852","prefectureKana":"ﾎｯｶｲﾄﾞｳ","cityKana":"ｻｯﾎﾟﾛｼﾋｶﾞｼｸ","streetKana":"ｻｶｴﾏﾁ","prefecture":"北海道","city":"札幌市東区","street":"栄町"},{"zipCode":"0070001","prefectureKana":"ﾎｯｶｲﾄﾞｳ","cityKana":"ｻｯﾎﾟﾛｼﾋｶﾞｼｸ","streetKana":"ﾅｶﾇﾏ1ｼﾞｮｳ","prefecture":"北海道","city":"札幌市東区","street":"中沼一条"},{"zipCode":"0070002","prefectureKana":"ﾎｯｶｲﾄﾞｳ","cityKana":"ｻｯﾎﾟﾛｼﾋｶﾞｼｸ","streetKana":"ﾅｶﾇﾏ2ｼﾞｮｳ","prefecture":"北海道","city":"札幌市東区","street":"中沼二条"},{"zipCode":"0070003","prefectureKana":"ﾎｯｶｲﾄﾞｳ","cityKana":"ｻｯﾎﾟﾛｼﾋｶﾞｼｸ","streetKana":"ﾅｶﾇﾏ3ｼﾞｮｳ","prefecture":"北海道","city":"札幌市東区","street":"中沼三条"},{"zipCode":"0070004","prefectureKana":"ﾎｯｶｲﾄﾞｳ","cityKana":"ｻｯﾎﾟﾛｼﾋｶﾞｼｸ","streetKana":"ﾅｶﾇﾏ4ｼﾞｮｳ","prefecture":"北海道","city":"札幌市東区","street":"中沼四条"},{"zipCode":"0070005","prefectureKana":"ﾎｯｶｲﾄﾞｳ","cityKana":"ｻｯﾎﾟﾛｼﾋｶﾞｼｸ","streetKana":"ﾅｶﾇﾏ5ｼﾞｮｳ","prefecture":"北海道","city":"札幌市東区","street":"中沼五条"},{"zipCode":"0070006","prefectureKana":"ﾎｯｶｲﾄﾞｳ","cityKana":"ｻｯﾎﾟﾛｼﾋｶﾞｼｸ","streetKana":"ﾅｶﾇﾏ6ｼﾞｮｳ","prefecture":"北海道","city":"札幌市東区","street":"中沼六条"},{"zipCode":"0070890","prefectureKana":"ﾎｯｶｲﾄﾞｳ","cityKana":"ｻｯﾎﾟﾛｼﾋｶﾞｼｸ","streetKana":"ﾅｶﾇﾏﾁｮｳ","prefecture":"北海道","city":"札幌市東区","street":"中沼町"},{"zipCode":"0070891","prefectureKana":"ﾎｯｶｲﾄﾞｳ","cityKana":"ｻｯﾎﾟﾛｼﾋｶﾞｼｸ","streetKana":"ﾅｶﾇﾏﾆｼ1ｼﾞｮｳ","prefecture":"北海道","city":"札幌市東区","street":"中沼西一条"},{"zipCode":"0070892","prefectureKana":"ﾎｯｶｲﾄﾞｳ","cityKana":"ｻｯﾎﾟﾛｼﾋｶﾞｼｸ","streetKana":"ﾅｶﾇﾏﾆｼ2ｼﾞｮｳ","prefecture":"北海道","city":"札幌市東区","street":"中沼西二条"},{"zipCode":"0070893","prefectureKana":"ﾎｯｶｲﾄﾞｳ","cityKana":"ｻｯﾎﾟﾛｼﾋｶﾞｼｸ","streetKana":"ﾅｶﾇﾏﾆｼ3ｼﾞｮｳ","prefecture":"北海道","city":"札幌市東区","street":"中沼西三条"},{"zipCode":"0070894","prefectureKana":"ﾎｯｶｲﾄﾞｳ","cityKana":"ｻｯﾎﾟﾛｼﾋｶﾞｼｸ","streetKana":"ﾅｶﾇﾏﾆｼ4ｼﾞｮｳ","prefecture":"北海道","city":"札幌市東区","street":"中沼西四条"},{"zipCode":"0070895","prefectureKana":"ﾎｯｶｲﾄﾞｳ","cityKana":"ｻｯﾎﾟﾛｼﾋｶﾞｼｸ","streetKana":"ﾅｶﾇﾏﾆｼ5ｼﾞｮｳ","prefecture":"北海道","city":"札幌市東区","street":"中沼西五条"},{"zipCode":"0070821","prefectureKana":"ﾎｯｶｲﾄﾞｳ","cityKana":"ｻｯﾎﾟﾛｼﾋｶﾞｼｸ","streetKana":"ﾋｶﾞｼｶﾘｷ1ｼﾞｮｳ","prefecture":"北海道","city":"札幌市東区","street":"東雁来一条"},{"zipCode":"0070822","prefectureKana":"ﾎｯｶｲﾄﾞｳ","cityKana":"ｻｯﾎﾟﾛｼﾋｶﾞｼｸ","streetKana":"ﾋｶﾞｼｶﾘｷ2ｼﾞｮｳ","prefecture":"北海道","city":"札幌市東区","street":"東雁来二条"},{"zipCode":"0070823","prefectureKana":"ﾎｯｶｲﾄﾞｳ","cityKana":"ｻｯﾎﾟﾛｼﾋｶﾞｼｸ","streetKana":"ﾋｶﾞｼｶﾘｷ3ｼﾞｮｳ","prefecture":"北海道","city":"札幌市東区","street":"東雁来三条"},{"zipCode":"0070824","prefectureKana":"ﾎｯｶｲﾄﾞｳ","cityKana":"ｻｯﾎﾟﾛｼﾋｶﾞｼｸ","streetKana":"ﾋｶﾞｼｶﾘｷ4ｼﾞｮｳ","prefecture":"北海道","city":"札幌市東区","street":"東雁来四条"},{"zipCode":"0070825","prefectureKana":"ﾎｯｶｲﾄﾞｳ","cityKana":"ｻｯﾎﾟﾛｼﾋｶﾞｼｸ","streetKana":"ﾋｶﾞｼｶﾘｷ5ｼﾞｮｳ","prefecture":"北海道","city":"札幌市東区","street":"東雁来五条"},{"zipCode":"0070826","prefectureKana":"ﾎｯｶｲﾄﾞｳ","cityKana":"ｻｯﾎﾟﾛｼﾋｶﾞｼｸ","streetKana":"ﾋｶﾞｼｶﾘｷ6ｼﾞｮｳ","prefecture":"北海道","city":"札幌市東区","street":"東雁来六条"},{"zipCode":"0070827","prefectureKana":"ﾎｯｶｲﾄﾞｳ","cityKana":"ｻｯﾎﾟﾛｼﾋｶﾞｼｸ","streetKana":"ﾋｶﾞｼｶﾘｷ7ｼﾞｮｳ","prefecture":"北海道","city":"札幌市東区","street":"東雁来七条"},{"zipCode":"0070828","prefectureKana":"ﾎｯｶｲﾄﾞｳ","cityKana":"ｻｯﾎﾟﾛｼﾋｶﾞｼｸ","streetKana":"ﾋｶﾞｼｶﾘｷ8ｼﾞｮｳ","prefecture":"北海道","city":"札幌市東区","street":"東雁来八条"},{"zipCode":"0070829","prefectureKana":"ﾎｯｶｲﾄﾞｳ","cityKana":"ｻｯﾎﾟﾛｼﾋｶﾞｼｸ","streetKana":"ﾋｶﾞｼｶﾘｷ9ｼﾞｮｳ","prefecture":"北海道","city":"札幌市東区","street":"東雁来九条"},{"zipCode":"0070030","prefectureKana":"ﾎｯｶｲﾄﾞｳ","cityKana":"ｻｯﾎﾟﾛｼﾋｶﾞｼｸ","streetKana":"ﾋｶﾞｼｶﾘｷ10ｼﾞｮｳ","prefecture":"北海道","city":"札幌市東区","street":"東雁来十条"},{"zipCode":"0070031","prefectureKana":"ﾎｯｶｲﾄﾞｳ","cityKana":"ｻｯﾎﾟﾛｼﾋｶﾞｼｸ","streetKana":"ﾋｶﾞｼｶﾘｷ11ｼﾞｮｳ","prefecture":"北海道","city":"札幌市東区","street":"東雁来十一条"},{"zipCode":"0070032","prefectureKana":"ﾎｯｶｲﾄﾞｳ","cityKana":"ｻｯﾎﾟﾛｼﾋｶﾞｼｸ","streetKana":"ﾋｶﾞｼｶﾘｷ12ｼﾞｮｳ","prefecture":"北海道","city":"札幌市東区","street":"東雁来十二条"},{"zipCode":"0070033","prefectureKana":"ﾎｯｶｲﾄﾞｳ","cityKana":"ｻｯﾎﾟﾛｼﾋｶﾞｼｸ","streetKana":"ﾋｶﾞｼｶﾘｷ13ｼﾞｮｳ","prefecture":"北海道","city":"札幌市東区","street":"東雁来十三条"},{"zipCode":"0070034","prefectureKana":"ﾎｯｶｲﾄﾞｳ","cityKana":"ｻｯﾎﾟﾛｼﾋｶﾞｼｸ","streetKana":"ﾋｶﾞｼｶﾘｷ14ｼﾞｮｳ","prefecture":"北海道","city":"札幌市東区","street":"東雁来十四条"},{"zipCode":"0070820","prefectureKana":"ﾎｯｶｲﾄﾞｳ","cityKana":"ｻｯﾎﾟﾛｼﾋｶﾞｼｸ","streetKana":"ﾋｶﾞｼｶﾘｷﾁｮｳ","prefecture":"北海道","city":"札幌市東区","street":"東雁来町"},{"zipCode":"0070801","prefectureKana":"ﾎｯｶｲﾄﾞｳ","cityKana":"ｻｯﾎﾟﾛｼﾋｶﾞｼｸ","streetKana":"ﾋｶﾞｼﾅｴﾎﾞ1ｼﾞｮｳ","prefecture":"北海道","city":"札幌市東区","street":"東苗穂一条"},{"zipCode":"0070802","prefectureKana":"ﾎｯｶｲﾄﾞｳ","cityKana":"ｻｯﾎﾟﾛｼﾋｶﾞｼｸ","streetKana":"ﾋｶﾞｼﾅｴﾎﾞ2ｼﾞｮｳ","prefecture":"北海道","city":"札幌市東区","street":"東苗穂二条"},{"zipCode":"0070803","prefectureKana":"ﾎｯｶｲﾄﾞｳ","cityKana":"ｻｯﾎﾟﾛｼﾋｶﾞｼｸ","streetKana":"ﾋｶﾞｼﾅｴﾎﾞ3ｼﾞｮｳ","prefecture":"北海道","city":"札幌市東区","street":"東苗穂三条"},{"zipCode":"0070804","prefectureKana":"ﾎｯｶｲﾄﾞｳ","cityKana":"ｻｯﾎﾟﾛｼﾋｶﾞｼｸ","streetKana":"ﾋｶﾞｼﾅｴﾎﾞ4ｼﾞｮｳ","prefecture":"北海道","city":"札幌市東区","street":"東苗穂四条"},{"zipCode":"0070805","prefectureKana":"ﾎｯｶｲﾄﾞｳ","cityKana":"ｻｯﾎﾟﾛｼﾋｶﾞｼｸ","streetKana":"ﾋｶﾞｼﾅｴﾎﾞ5ｼﾞｮｳ","prefecture":"北海道","city":"札幌市東区","street":"東苗穂五条"},{"zipCode":"0070806","prefectureKana":"ﾎｯｶｲﾄﾞｳ","cityKana":"ｻｯﾎﾟﾛｼﾋｶﾞｼｸ","streetKana":"ﾋｶﾞｼﾅｴﾎﾞ6ｼﾞｮｳ","prefecture":"北海道","city":"札幌市東区","street":"東苗穂六条"},{"zipCode":"0070807","prefectureKana":"ﾎｯｶｲﾄﾞｳ","cityKana":"ｻｯﾎﾟﾛｼﾋｶﾞｼｸ","streetKana":"ﾋｶﾞｼﾅｴﾎﾞ7ｼﾞｮｳ","prefecture":"北海道","city":"札幌市東区","street":"東苗穂七条"},{"zipCode":"0070808","prefectureKana":"ﾎｯｶｲﾄﾞｳ","cityKana":"ｻｯﾎﾟﾛｼﾋｶﾞｼｸ","streetKana":"ﾋｶﾞｼﾅｴﾎﾞ8ｼﾞｮｳ","prefecture":"北海道","city":"札幌市東区","street":"東苗穂八条"},{"zipCode":"0070809","prefectureKana":"ﾎｯｶｲﾄﾞｳ","cityKana":"ｻｯﾎﾟﾛｼﾋｶﾞｼｸ","streetKana":"ﾋｶﾞｼﾅｴﾎﾞ9ｼﾞｮｳ","prefecture":"北海道","city":"札幌市東区","street":"東苗穂九条"},{"zipCode":"0070810","prefectureKana":"ﾎｯｶｲﾄﾞｳ","cityKana":"ｻｯﾎﾟﾛｼﾋｶﾞｼｸ","streetKana":"ﾋｶﾞｼﾅｴﾎﾞ10ｼﾞｮｳ","prefecture":"北海道","city":"札幌市東区","street":"東苗穂十条"},{"zipCode":"0070811","prefectureKana":"ﾎｯｶｲﾄﾞｳ","cityKana":"ｻｯﾎﾟﾛｼﾋｶﾞｼｸ","streetKana":"ﾋｶﾞｼﾅｴﾎﾞ11ｼﾞｮｳ","prefecture":"北海道","city":"札幌市東区","street":"東苗穂十一条"},{"zipCode":"0070812","prefectureKana":"ﾎｯｶｲﾄﾞｳ","cityKana":"ｻｯﾎﾟﾛｼﾋｶﾞｼｸ","streetKana":"ﾋｶﾞｼﾅｴﾎﾞ12ｼﾞｮｳ","prefecture":"北海道","city":"札幌市東区","street":"東苗穂十二条"},{"zipCode":"0070813","prefectureKana":"ﾎｯｶｲﾄﾞｳ","cityKana":"ｻｯﾎﾟﾛｼﾋｶﾞｼｸ","streetKana":"ﾋｶﾞｼﾅｴﾎﾞ13ｼﾞｮｳ","prefecture":"北海道","city":"札幌市東区","street":"東苗穂十三条"},{"zipCode":"0070814","prefectureKana":"ﾎｯｶｲﾄﾞｳ","cityKana":"ｻｯﾎﾟﾛｼﾋｶﾞｼｸ","streetKana":"ﾋｶﾞｼﾅｴﾎﾞ14ｼﾞｮｳ","prefecture":"北海道","city":"札幌市東区","street":"東苗穂十四条"},{"zipCode":"0070815","prefectureKana":"ﾎｯｶｲﾄﾞｳ","cityKana":"ｻｯﾎﾟﾛｼﾋｶﾞｼｸ","streetKana":"ﾋｶﾞｼﾅｴﾎﾞ15ｼﾞｮｳ","prefecture":"北海道","city":"札幌市東区","street":"東苗穂十五条"},{"zipCode":"0070819","prefectureKana":"ﾎｯｶｲﾄﾞｳ","cityKana":"ｻｯﾎﾟﾛｼﾋｶﾞｼｸ","streetKana":"ﾋｶﾞｼﾅｴﾎﾞﾁｮｳ","prefecture":"北海道","city":"札幌市東区","street":"東苗穂町"},{"zipCode":"0070861","prefectureKana":"ﾎｯｶｲﾄﾞｳ","cityKana":"ｻｯﾎﾟﾛｼﾋｶﾞｼｸ","streetKana":"ﾌｼｺ1ｼﾞｮｳ","prefecture":"北海道","city":"札幌市東区","street":"伏古一条"},{"zipCode":"0070862","prefectureKana":"ﾎｯｶｲﾄﾞｳ","cityKana":"ｻｯﾎﾟﾛｼﾋｶﾞｼｸ","streetKana":"ﾌｼｺ2ｼﾞｮｳ","prefecture":"北海道","city":"札幌市東区","street":"伏古二条"},{"zipCode":"0070863","prefectureKana":"ﾎｯｶｲﾄﾞｳ","cityKana":"ｻｯﾎﾟﾛｼﾋｶﾞｼｸ","streetKana":"ﾌｼｺ3ｼﾞｮｳ","prefecture":"北海道","city":"札幌市東区","street":"伏古三条"},{"zipCode":"0070864","prefectureKana":"ﾎｯｶｲﾄﾞｳ","cityKana":"ｻｯﾎﾟﾛｼﾋｶﾞｼｸ","streetKana":"ﾌｼｺ4ｼﾞｮｳ","prefecture":"北海道","city":"札幌市東区","street":"伏古四条"},{"zipCode":"0070865","prefectureKana":"ﾎｯｶｲﾄﾞｳ","cityKana":"ｻｯﾎﾟﾛｼﾋｶﾞｼｸ","streetKana":"ﾌｼｺ5ｼﾞｮｳ","prefecture":"北海道","city":"札幌市東区","street":"伏古五条"},{"zipCode":"0070866","prefectureKana":"ﾎｯｶｲﾄﾞｳ","cityKana":"ｻｯﾎﾟﾛｼﾋｶﾞｼｸ","streetKana":"ﾌｼｺ6ｼﾞｮｳ","prefecture":"北海道","city":"札幌市東区","street":"伏古六条"},{"zipCode":"0070867","prefectureKana":"ﾎｯｶｲﾄﾞｳ","cityKana":"ｻｯﾎﾟﾛｼﾋｶﾞｼｸ","streetKana":"ﾌｼｺ7ｼﾞｮｳ","prefecture":"北海道","city":"札幌市東区","street":"伏古七条"},{"zipCode":"0070868","prefectureKana":"ﾎｯｶｲﾄﾞｳ","cityKana":"ｻｯﾎﾟﾛｼﾋｶﾞｼｸ","streetKana":"ﾌｼｺ8ｼﾞｮｳ","prefecture":"北海道","city":"札幌市東区","street":"伏古八条"},{"zipCode":"0070869","prefectureKana":"ﾎｯｶｲﾄﾞｳ","cityKana":"ｻｯﾎﾟﾛｼﾋｶﾞｼｸ","streetKana":"ﾌｼｺ9ｼﾞｮｳ","prefecture":"北海道","city":"札幌市東区","street":"伏古九条"},{"zipCode":"0070870","prefectureKana":"ﾎｯｶｲﾄﾞｳ","cityKana":"ｻｯﾎﾟﾛｼﾋｶﾞｼｸ","streetKana":"ﾌｼｺ10ｼﾞｮｳ","prefecture":"北海道","city":"札幌市東区","street":"伏古十条"},{"zipCode":"0070871","prefectureKana":"ﾎｯｶｲﾄﾞｳ","cityKana":"ｻｯﾎﾟﾛｼﾋｶﾞｼｸ","streetKana":"ﾌｼｺ11ｼﾞｮｳ","prefecture":"北海道","city":"札幌市東区","street":"伏古十一条"},{"zipCode":"0070872","prefectureKana":"ﾎｯｶｲﾄﾞｳ","cityKana":"ｻｯﾎﾟﾛｼﾋｶﾞｼｸ","streetKana":"ﾌｼｺ12ｼﾞｮｳ","prefecture":"北海道","city":"札幌市東区","street":"伏古十二条"},{"zipCode":"0070873","prefectureKana":"ﾎｯｶｲﾄﾞｳ","cityKana":"ｻｯﾎﾟﾛｼﾋｶﾞｼｸ","streetKana":"ﾌｼｺ13ｼﾞｮｳ","prefecture":"北海道","city":"札幌市東区","street":"伏古十三条"},{"zipCode":"0070874","prefectureKana":"ﾎｯｶｲﾄﾞｳ","cityKana":"ｻｯﾎﾟﾛｼﾋｶﾞｼｸ","streetKana":"ﾌｼｺ14ｼﾞｮｳ","prefecture":"北海道","city":"札幌市東区","street":"伏古十四条"},{"zipCode":"0070011","prefectureKana":"ﾎｯｶｲﾄﾞｳ","cityKana":"ｻｯﾎﾟﾛｼﾋｶﾞｼｸ","streetKana":"ﾓｴﾚﾇﾏｺｳｴﾝ","prefecture":"北海道","city":"札幌市東区","street":"モエレ沼公園"}]