[{"zipCode":"0110911","prefectureKana":"ｱｷﾀｹﾝ","cityKana":"ｱｷﾀｼ","streetKana":"ｲｲｼﾞﾏ","prefecture":"秋田県","city":"秋田市","street":"飯島"},{"zipCode":"0110949","prefectureKana":"ｱｷﾀｹﾝ","cityKana":"ｱｷﾀｼ","streetKana":"ｲｲｼﾞﾏｲｲﾀﾞ","prefecture":"秋田県","city":"秋田市","street":"飯島飯田"},{"zipCode":"0110912","prefectureKana":"ｱｷﾀｹﾝ","cityKana":"ｱｷﾀｼ","streetKana":"ｲｲｼﾞﾏｶﾜﾊﾞﾀ","prefecture":"秋田県","city":"秋田市","street":"飯島川端"},{"zipCode":"0110916","prefectureKana":"ｱｷﾀｹﾝ","cityKana":"ｱｷﾀｼ","streetKana":"ｲｲｼﾞﾏｺｸﾁｮｳ","prefecture":"秋田県","city":"秋田市","street":"飯島穀丁"},{"zipCode":"0110947","prefectureKana":"ｱｷﾀｹﾝ","cityKana":"ｱｷﾀｼ","streetKana":"ｲｲｼﾞﾏｼﾝﾁｮｳ","prefecture":"秋田県","city":"秋田市","street":"飯島新町"},{"zipCode":"0110928","prefectureKana":"ｱｷﾀｹﾝ","cityKana":"ｱｷﾀｼ","streetKana":"ｲｲｼﾞﾏﾅｶﾞﾉｶﾐﾁｮｳ","prefecture":"秋田県","city":"秋田市","street":"飯島長野上町"},{"zipCode":"0110925","prefectureKana":"ｱｷﾀｹﾝ","cityKana":"ｱｷﾀｼ","streetKana":"ｲｲｼﾞﾏﾅｶﾞﾉﾅｶﾁｮｳ","prefecture":"秋田県","city":"秋田市","street":"飯島長野中町"},{"zipCode":"0110924","prefectureKana":"ｱｷﾀｹﾝ","cityKana":"ｱｷﾀｼ","streetKana":"ｲｲｼﾞﾏﾅｶﾞﾉﾎﾝﾁｮｳ","prefecture":"秋田県","city":"秋田市","street":"飯島長野本町"},{"zipCode":"0110948","prefectureKana":"ｱｷﾀｹﾝ","cityKana":"ｱｷﾀｼ","streetKana":"ｲｲｼﾞﾏﾆｼﾌﾞｸﾛ","prefecture":"秋田県","city":"秋田市","street":"飯島西袋"},{"zipCode":"0110913","prefectureKana":"ｱｷﾀｹﾝ","cityKana":"ｱｷﾀｼ","streetKana":"ｲｲｼﾞﾏﾈｽﾞﾐﾀ","prefecture":"秋田県","city":"秋田市","street":"飯島鼠田"},{"zipCode":"0110923","prefectureKana":"ｱｷﾀｹﾝ","cityKana":"ｱｷﾀｼ","streetKana":"ｲｲｼﾞﾏﾌﾞﾝｷｮｳﾁｮｳ","prefecture":"秋田県","city":"秋田市","street":"飯島文京町"},{"zipCode":"0110922","prefectureKana":"ｱｷﾀｹﾝ","cityKana":"ｱｷﾀｼ","streetKana":"ｲｲｼﾞﾏﾏﾂﾈﾋｶﾞｼﾁｮｳ","prefecture":"秋田県","city":"秋田市","street":"飯島松根東町"},{"zipCode":"0110921","prefectureKana":"ｱｷﾀｹﾝ","cityKana":"ｱｷﾀｼ","streetKana":"ｲｲｼﾞﾏﾏﾂﾈﾆｼﾁｮｳ","prefecture":"秋田県","city":"秋田市","street":"飯島松根西町"},{"zipCode":"0110914","prefectureKana":"ｱｷﾀｹﾝ","cityKana":"ｱｷﾀｼ","streetKana":"ｲｲｼﾞﾏﾐｻｺﾞﾁｮｳ","prefecture":"秋田県","city":"秋田市","street":"飯島美砂町"},{"zipCode":"0110917","prefectureKana":"ｱｷﾀｹﾝ","cityKana":"ｱｷﾀｼ","streetKana":"ｲｲｼﾞﾏﾐﾁﾋｶﾞｼ","prefecture":"秋田県","city":"秋田市","street":"飯島道東"},{"zipCode":"0110915","prefectureKana":"ｱｷﾀｹﾝ","cityKana":"ｱｷﾀｼ","streetKana":"ｲｲｼﾞﾏﾐﾄﾞﾘｶﾞｵｶﾁｮｳ","prefecture":"秋田県","city":"秋田市","street":"飯島緑丘町"},{"zipCode":"0110927","prefectureKana":"ｱｷﾀｹﾝ","cityKana":"ｱｷﾀｼ","streetKana":"ｺｳﾎｸｼﾝﾁｮｳ","prefecture":"秋田県","city":"秋田市","street":"港北新町"},{"zipCode":"0110926","prefectureKana":"ｱｷﾀｹﾝ","cityKana":"ｱｷﾀｼ","streetKana":"ｺｳﾎｸﾏﾂﾉﾁｮｳ","prefecture":"秋田県","city":"秋田市","street":"港北松野町"},{"zipCode":"0110932","prefectureKana":"ｱｷﾀｹﾝ","cityKana":"ｱｷﾀｼ","streetKana":"ｼｮｳｸﾞﾝﾉｱｵﾔﾏﾁｮｳ","prefecture":"秋田県","city":"秋田市","street":"将軍野青山町"},{"zipCode":"0110934","prefectureKana":"ｱｷﾀｹﾝ","cityKana":"ｱｷﾀｼ","streetKana":"ｼｮｳｸﾞﾝﾉｶﾂﾗﾁｮｳ","prefecture":"秋田県","city":"秋田市","street":"将軍野桂町"},{"zipCode":"0110933","prefectureKana":"ｱｷﾀｹﾝ","cityKana":"ｱｷﾀｼ","streetKana":"ｼｮｳｸﾞﾝﾉｾｷｺｼ","prefecture":"秋田県","city":"秋田市","street":"将軍野堰越"},{"zipCode":"0110935","prefectureKana":"ｱｷﾀｹﾝ","cityKana":"ｱｷﾀｼ","streetKana":"ｼｮｳｸﾞﾝﾉﾑｶｲﾔﾏ","prefecture":"秋田県","city":"秋田市","street":"将軍野向山"},{"zipCode":"0110931","prefectureKana":"ｱｷﾀｹﾝ","cityKana":"ｱｷﾀｼ","streetKana":"ｼｮｳｸﾞﾝﾉﾋｶﾞｼ","prefecture":"秋田県","city":"秋田市","street":"将軍野東"},{"zipCode":"0110936","prefectureKana":"ｱｷﾀｹﾝ","cityKana":"ｱｷﾀｼ","streetKana":"ｼｮｳｸﾞﾝﾉﾐﾅﾐ","prefecture":"秋田県","city":"秋田市","street":"将軍野南"},{"zipCode":"0110944","prefectureKana":"ｱｷﾀｹﾝ","cityKana":"ｱｷﾀｼ","streetKana":"ﾂﾁｻﾞｷﾐﾅﾄｺｸﾎﾞﾁｮｳ","prefecture":"秋田県","city":"秋田市","street":"土崎港穀保町"},{"zipCode":"0110951","prefectureKana":"ｱｷﾀｹﾝ","cityKana":"ｱｷﾀｼ","streetKana":"ﾂﾁｻﾞｷﾐﾅﾄｿｳｾﾞﾝﾏﾁ","prefecture":"秋田県","city":"秋田市","street":"土崎港相染町"},{"zipCode":"0110946","prefectureKana":"ｱｷﾀｹﾝ","cityKana":"ｱｷﾀｼ","streetKana":"ﾂﾁｻﾞｷﾐﾅﾄﾁｭｳｵｳ","prefecture":"秋田県","city":"秋田市","street":"土崎港中央"},{"zipCode":"0110942","prefectureKana":"ｱｷﾀｹﾝ","cityKana":"ｱｷﾀｼ","streetKana":"ﾂﾁｻﾞｷﾐﾅﾄﾋｶﾞｼ","prefecture":"秋田県","city":"秋田市","street":"土崎港東"},{"zipCode":"0110951","prefectureKana":"ｱｷﾀｹﾝ","cityKana":"ｱｷﾀｼ","streetKana":"ﾂﾁｻﾞｷﾐﾅﾄﾌﾙｶﾜﾏﾁ","prefecture":"秋田県","city":"秋田市","street":"土崎港古川町"},{"zipCode":"0110945","prefectureKana":"ｱｷﾀｹﾝ","cityKana":"ｱｷﾀｼ","streetKana":"ﾂﾁｻﾞｷﾐﾅﾄﾆｼ","prefecture":"秋田県","city":"秋田市","street":"土崎港西"},{"zipCode":"0110943","prefectureKana":"ｱｷﾀｹﾝ","cityKana":"ｱｷﾀｼ","streetKana":"ﾂﾁｻﾞｷﾐﾅﾄﾐﾅﾐ","prefecture":"秋田県","city":"秋田市","street":"土崎港南"},{"zipCode":"0110941","prefectureKana":"ｱｷﾀｹﾝ","cityKana":"ｱｷﾀｼ","streetKana":"ﾂﾁｻﾞｷﾐﾅﾄｷﾀ","prefecture":"秋田県","city":"秋田市","street":"土崎港北"},{"zipCode":"0110901","prefectureKana":"ｱｷﾀｹﾝ","cityKana":"ｱｷﾀｼ","streetKana":"ﾃﾗｳﾁ","prefecture":"秋田県","city":"秋田市","street":"寺内"},{"zipCode":"0110903","prefectureKana":"ｱｷﾀｹﾝ","cityKana":"ｱｷﾀｼ","streetKana":"ﾃﾗｳﾁｱﾌﾞﾗﾃﾞﾝ","prefecture":"秋田県","city":"秋田市","street":"寺内油田"},{"zipCode":"0110906","prefectureKana":"ｱｷﾀｹﾝ","cityKana":"ｱｷﾀｼ","streetKana":"ﾃﾗｳﾁｳｼﾛｼﾞｮｳ","prefecture":"秋田県","city":"秋田市","street":"寺内後城"},{"zipCode":"0110938","prefectureKana":"ｱｷﾀｹﾝ","cityKana":"ｱｷﾀｼ","streetKana":"ﾃﾗｳﾁｳﾉｷ","prefecture":"秋田県","city":"秋田市","street":"寺内鵜ノ木"},{"zipCode":"0110908","prefectureKana":"ｱｷﾀｹﾝ","cityKana":"ｱｷﾀｼ","streetKana":"ﾃﾗｳﾁｵｵｺｳｼﾞ","prefecture":"秋田県","city":"秋田市","street":"寺内大小路"},{"zipCode":"0110939","prefectureKana":"ｱｷﾀｹﾝ","cityKana":"ｱｷﾀｼ","streetKana":"ﾃﾗｳﾁｵｵﾊﾀ","prefecture":"秋田県","city":"秋田市","street":"寺内大畑"},{"zipCode":"0110905","prefectureKana":"ｱｷﾀｹﾝ","cityKana":"ｱｷﾀｼ","streetKana":"ﾃﾗｳﾁｶﾐﾔｼｷ","prefecture":"秋田県","city":"秋田市","street":"寺内神屋敷"},{"zipCode":"0110937","prefectureKana":"ｱｷﾀｹﾝ","cityKana":"ｱｷﾀｼ","streetKana":"ﾃﾗｳﾁｺｳﾔ","prefecture":"秋田県","city":"秋田市","street":"寺内高野"},{"zipCode":"0110909","prefectureKana":"ｱｷﾀｹﾝ","cityKana":"ｱｷﾀｼ","streetKana":"ﾃﾗｳﾁｺｻﾞｸﾗ","prefecture":"秋田県","city":"秋田市","street":"寺内児桜"},{"zipCode":"0110902","prefectureKana":"ｱｷﾀｹﾝ","cityKana":"ｱｷﾀｼ","streetKana":"ﾃﾗｳﾁﾄﾞｳﾉｻﾜ","prefecture":"秋田県","city":"秋田市","street":"寺内堂ノ沢"},{"zipCode":"0110904","prefectureKana":"ｱｷﾀｹﾝ","cityKana":"ｱｷﾀｼ","streetKana":"ﾃﾗｳﾁﾋﾙﾈ","prefecture":"秋田県","city":"秋田市","street":"寺内蛭根"},{"zipCode":"0110907","prefectureKana":"ｱｷﾀｹﾝ","cityKana":"ｱｷﾀｼ","streetKana":"ﾃﾗｳﾁﾔｹﾔﾏ","prefecture":"秋田県","city":"秋田市","street":"寺内焼山"}]