[{"zipCode":"0200000","prefectureKana":"ｲﾜﾃｹﾝ","cityKana":"ﾓﾘｵｶｼ","streetKana":"ｲｶﾆｹｲｻｲｶﾞﾅｲﾊﾞｱｲ","prefecture":"岩手県","city":"盛岡市","street":"以下に掲載がない場合"},{"zipCode":"0200133","prefectureKana":"ｲﾜﾃｹﾝ","cityKana":"ﾓﾘｵｶｼ","streetKana":"ｱｵﾔﾏ","prefecture":"岩手県","city":"盛岡市","street":"青山"},{"zipCode":"0200801","prefectureKana":"ｲﾜﾃｹﾝ","cityKana":"ﾓﾘｵｶｼ","streetKana":"ｱｻｷﾞｼ","prefecture":"岩手県","city":"盛岡市","street":"浅岸"},{"zipCode":"0200014","prefectureKana":"ｲﾜﾃｹﾝ","cityKana":"ﾓﾘｵｶｼ","streetKana":"ｱﾀｺﾞｼﾀ","prefecture":"岩手県","city":"盛岡市","street":"愛宕下"},{"zipCode":"0200013","prefectureKana":"ｲﾜﾃｹﾝ","cityKana":"ﾓﾘｵｶｼ","streetKana":"ｱﾀｺﾞﾁｮｳ","prefecture":"岩手県","city":"盛岡市","street":"愛宕町"},{"zipCode":"0200126","prefectureKana":"ｲﾜﾃｹﾝ","cityKana":"ﾓﾘｵｶｼ","streetKana":"ｱﾍﾞﾀﾃﾁｮｳ","prefecture":"岩手県","city":"盛岡市","street":"安倍館町"},{"zipCode":"0200852","prefectureKana":"ｲﾜﾃｹﾝ","cityKana":"ﾓﾘｵｶｼ","streetKana":"ｲｲｵｶｼﾝﾃﾞﾝ","prefecture":"岩手県","city":"盛岡市","street":"飯岡新田"},{"zipCode":"0200312","prefectureKana":"ｲﾜﾃｹﾝ","cityKana":"ﾓﾘｵｶｼ","streetKana":"ｲｻｺﾞｻﾞﾜ","prefecture":"岩手県","city":"盛岡市","street":"砂子沢"},{"zipCode":"0200054","prefectureKana":"ｲﾜﾃｹﾝ","cityKana":"ﾓﾘｵｶｼ","streetKana":"ｲｻﾘ","prefecture":"岩手県","city":"盛岡市","street":"猪去"},{"zipCode":"0200142","prefectureKana":"ｲﾜﾃｹﾝ","cityKana":"ﾓﾘｵｶｼ","streetKana":"ｲﾅﾘﾁｮｳ","prefecture":"岩手県","city":"盛岡市","street":"稲荷町"},{"zipCode":"0200012","prefectureKana":"ｲﾜﾃｹﾝ","cityKana":"ﾓﾘｵｶｼ","streetKana":"ｲﾜｼﾐｽﾞ","prefecture":"岩手県","city":"盛岡市","street":"岩清水"},{"zipCode":"0200101","prefectureKana":"ｲﾜﾃｹﾝ","cityKana":"ﾓﾘｵｶｼ","streetKana":"ｲﾜﾜｷﾁｮｳ","prefecture":"岩手県","city":"盛岡市","street":"岩脇町"},{"zipCode":"0200066","prefectureKana":"ｲﾜﾃｹﾝ","cityKana":"ﾓﾘｵｶｼ","streetKana":"ｳｴﾀﾞ(1-4ﾁｮｳﾒ､ｷﾀﾔﾏ)","prefecture":"岩手県","city":"盛岡市","street":"上田（１～４丁目、北山）"},{"zipCode":"0200204","prefectureKana":"ｲﾜﾃｹﾝ","cityKana":"ﾓﾘｵｶｼ","streetKana":"ｳｴﾀﾞ(ﾇｶﾓﾘ､ｵﾉﾏﾂ)","prefecture":"岩手県","city":"盛岡市","street":"上田（糠森、小野松）"},{"zipCode":"0200102","prefectureKana":"ｲﾜﾃｹﾝ","cityKana":"ﾓﾘｵｶｼ","streetKana":"ｳｴﾀﾞ(ｿﾉﾀ)","prefecture":"岩手県","city":"盛岡市","street":"上田（その他）"},{"zipCode":"0200113","prefectureKana":"ｲﾜﾃｹﾝ","cityKana":"ﾓﾘｵｶｼ","streetKana":"ｳｴﾀﾞﾂﾂﾐ","prefecture":"岩手県","city":"盛岡市","street":"上田堤"},{"zipCode":"0200023","prefectureKana":"ｲﾜﾃｹﾝ","cityKana":"ﾓﾘｵｶｼ","streetKana":"ｳﾁﾏﾙ","prefecture":"岩手県","city":"盛岡市","street":"内丸"},{"zipCode":"0200404","prefectureKana":"ｲﾜﾃｹﾝ","cityKana":"ﾓﾘｵｶｼ","streetKana":"ｵｵｶﾞﾕｳ","prefecture":"岩手県","city":"盛岡市","street":"大ケ生"},{"zipCode":"0200025","prefectureKana":"ｲﾜﾃｹﾝ","cityKana":"ﾓﾘｵｶｼ","streetKana":"ｵｵｻﾜｶﾜﾗ","prefecture":"岩手県","city":"盛岡市","street":"大沢川原"},{"zipCode":"0200147","prefectureKana":"ｲﾜﾃｹﾝ","cityKana":"ﾓﾘｵｶｼ","streetKana":"ｵｵﾀﾞﾃﾁｮｳ","prefecture":"岩手県","city":"盛岡市","street":"大館町"},{"zipCode":"0200022","prefectureKana":"ｲﾜﾃｹﾝ","cityKana":"ﾓﾘｵｶｼ","streetKana":"ｵｵﾄﾞｵﾘ","prefecture":"岩手県","city":"盛岡市","street":"大通"},{"zipCode":"0200403","prefectureKana":"ｲﾜﾃｹﾝ","cityKana":"ﾓﾘｵｶｼ","streetKana":"ｵﾄﾍﾞ","prefecture":"岩手県","city":"盛岡市","street":"乙部"},{"zipCode":"0200026","prefectureKana":"ｲﾜﾃｹﾝ","cityKana":"ﾓﾘｵｶｼ","streetKana":"ｶｲｳﾝﾊﾞｼﾄﾞｵﾘ","prefecture":"岩手県","city":"盛岡市","street":"開運橋通"},{"zipCode":"0200807","prefectureKana":"ｲﾜﾃｹﾝ","cityKana":"ﾓﾘｵｶｼ","streetKana":"ｶｶﾞﾉ","prefecture":"岩手県","city":"盛岡市","street":"加賀野"},{"zipCode":"0200823","prefectureKana":"ｲﾜﾃｹﾝ","cityKana":"ﾓﾘｵｶｼ","streetKana":"ｶﾄﾞ","prefecture":"岩手県","city":"盛岡市","street":"門"},{"zipCode":"0200854","prefectureKana":"ｲﾜﾃｹﾝ","cityKana":"ﾓﾘｵｶｼ","streetKana":"ｶﾐｲｲｵｶ","prefecture":"岩手県","city":"盛岡市","street":"上飯岡"},{"zipCode":"0200053","prefectureKana":"ｲﾜﾃｹﾝ","cityKana":"ﾓﾘｵｶｼ","streetKana":"ｶﾐｵｵﾀ","prefecture":"岩手県","city":"盛岡市","street":"上太田"},{"zipCode":"0200855","prefectureKana":"ｲﾜﾃｹﾝ","cityKana":"ﾓﾘｵｶｼ","streetKana":"ｶﾐｶﾂﾞﾏ","prefecture":"岩手県","city":"盛岡市","street":"上鹿妻"},{"zipCode":"0200143","prefectureKana":"ｲﾜﾃｹﾝ","cityKana":"ﾓﾘｵｶｼ","streetKana":"ｶﾐｸﾘﾔｶﾞﾜ","prefecture":"岩手県","city":"盛岡市","street":"上厨川"},{"zipCode":"0200125","prefectureKana":"ｲﾜﾃｹﾝ","cityKana":"ﾓﾘｵｶｼ","streetKana":"ｶﾐﾄﾞｳ","prefecture":"岩手県","city":"盛岡市","street":"上堂"},{"zipCode":"0200887","prefectureKana":"ｲﾜﾃｹﾝ","cityKana":"ﾓﾘｵｶｼ","streetKana":"ｶﾐﾉﾊｼﾁｮｳ","prefecture":"岩手県","city":"盛岡市","street":"上ノ橋町"},{"zipCode":"0200001","prefectureKana":"ｲﾜﾃｹﾝ","cityKana":"ﾓﾘｵｶｼ","streetKana":"ｶﾐﾖﾅｲ","prefecture":"岩手県","city":"盛岡市","street":"上米内"},{"zipCode":"0200203","prefectureKana":"ｲﾜﾃｹﾝ","cityKana":"ﾓﾘｵｶｼ","streetKana":"ｶﾜﾏﾀ","prefecture":"岩手県","city":"盛岡市","street":"川又"},{"zipCode":"0200812","prefectureKana":"ｲﾜﾃｹﾝ","cityKana":"ﾓﾘｵｶｼ","streetKana":"ｶﾜﾒ","prefecture":"岩手県","city":"盛岡市","street":"川目"},{"zipCode":"0200811","prefectureKana":"ｲﾜﾃｹﾝ","cityKana":"ﾓﾘｵｶｼ","streetKana":"ｶﾜﾒﾁｮｳ","prefecture":"岩手県","city":"盛岡市","street":"川目町"},{"zipCode":"0200857","prefectureKana":"ｲﾜﾃｹﾝ","cityKana":"ﾓﾘｵｶｼ","streetKana":"ｷﾀｲｲｵｶ","prefecture":"岩手県","city":"盛岡市","street":"北飯岡"},{"zipCode":"0200136","prefectureKana":"ｲﾜﾃｹﾝ","cityKana":"ﾓﾘｵｶｼ","streetKana":"ｷﾀﾃﾝｼｮｳｼﾞﾁｮｳ","prefecture":"岩手県","city":"盛岡市","street":"北天昌寺町"},{"zipCode":"0200105","prefectureKana":"ｲﾜﾃｹﾝ","cityKana":"ﾓﾘｵｶｼ","streetKana":"ｷﾀﾏﾂｿﾞﾉ","prefecture":"岩手県","city":"盛岡市","street":"北松園"},{"zipCode":"0200061","prefectureKana":"ｲﾜﾃｹﾝ","cityKana":"ﾓﾘｵｶｼ","streetKana":"ｷﾀﾔﾏ","prefecture":"岩手県","city":"盛岡市","street":"北山"},{"zipCode":"0200031","prefectureKana":"ｲﾜﾃｹﾝ","cityKana":"ﾓﾘｵｶｼ","streetKana":"ｷﾀﾕｳｶﾞｵｾﾁｮｳ","prefecture":"岩手県","city":"盛岡市","street":"北夕顔瀬町"},{"zipCode":"0200124","prefectureKana":"ｲﾜﾃｹﾝ","cityKana":"ﾓﾘｵｶｼ","streetKana":"ｸﾘﾔｶﾞﾜ","prefecture":"岩手県","city":"盛岡市","street":"厨川"},{"zipCode":"0200111","prefectureKana":"ｲﾜﾃｹﾝ","cityKana":"ﾓﾘｵｶｼ","streetKana":"ｸﾛｲｼﾉ","prefecture":"岩手県","city":"盛岡市","street":"黒石野"},{"zipCode":"0200402","prefectureKana":"ｲﾜﾃｹﾝ","cityKana":"ﾓﾘｵｶｼ","streetKana":"ｸﾛｶﾜ","prefecture":"岩手県","city":"盛岡市","street":"黒川"},{"zipCode":"0200815","prefectureKana":"ｲﾜﾃｹﾝ","cityKana":"ﾓﾘｵｶｼ","streetKana":"ｺｽｷﾞﾔﾏ","prefecture":"岩手県","city":"盛岡市","street":"小杉山"},{"zipCode":"0200104","prefectureKana":"ｲﾜﾃｹﾝ","cityKana":"ﾓﾘｵｶｼ","streetKana":"ｺﾄﾘｻﾞﾜ","prefecture":"岩手県","city":"盛岡市","street":"小鳥沢"},{"zipCode":"0200885","prefectureKana":"ｲﾜﾃｹﾝ","cityKana":"ﾓﾘｵｶｼ","streetKana":"ｺﾝﾔﾁｮｳ","prefecture":"岩手県","city":"盛岡市","street":"紺屋町"},{"zipCode":"0200024","prefectureKana":"ｲﾜﾃｹﾝ","cityKana":"ﾓﾘｵｶｼ","streetKana":"ｻｲｴﾝ","prefecture":"岩手県","city":"盛岡市","street":"菜園"},{"zipCode":"0200063","prefectureKana":"ｲﾜﾃｹﾝ","cityKana":"ﾓﾘｵｶｼ","streetKana":"ｻﾞｲﾓｸﾁｮｳ","prefecture":"岩手県","city":"盛岡市","street":"材木町"},{"zipCode":"0200041","prefectureKana":"ｲﾜﾃｹﾝ","cityKana":"ﾓﾘｵｶｼ","streetKana":"ｻｶｲﾀﾞﾁｮｳ","prefecture":"岩手県","city":"盛岡市","street":"境田町"},{"zipCode":"0200878","prefectureKana":"ｲﾜﾃｹﾝ","cityKana":"ﾓﾘｵｶｼ","streetKana":"ｻｶﾅﾁｮｳ","prefecture":"岩手県","city":"盛岡市","street":"肴町"},{"zipCode":"0200002","prefectureKana":"ｲﾜﾃｹﾝ","cityKana":"ﾓﾘｵｶｼ","streetKana":"ｻｸﾗﾀﾞｲ","prefecture":"岩手県","city":"盛岡市","street":"桜台"},{"zipCode":"0200821","prefectureKana":"ｲﾜﾃｹﾝ","cityKana":"ﾓﾘｵｶｼ","streetKana":"ｻﾝﾉｳﾁｮｳ","prefecture":"岩手県","city":"盛岡市","street":"山王町"},{"zipCode":"0200831","prefectureKana":"ｲﾜﾃｹﾝ","cityKana":"ﾓﾘｵｶｼ","streetKana":"ｻﾝﾎﾞﾝﾔﾅｷﾞ","prefecture":"岩手県","city":"盛岡市","street":"三本柳"},{"zipCode":"0200883","prefectureKana":"ｲﾜﾃｹﾝ","cityKana":"ﾓﾘｵｶｼ","streetKana":"ｼｹﾁｮｳ","prefecture":"岩手県","city":"盛岡市","street":"志家町"},{"zipCode":"0200875","prefectureKana":"ｲﾜﾃｹﾝ","cityKana":"ﾓﾘｵｶｼ","streetKana":"ｼﾐｽﾞﾁｮｳ","prefecture":"岩手県","city":"盛岡市","street":"清水町"},{"zipCode":"0200853","prefectureKana":"ｲﾜﾃｹﾝ","cityKana":"ﾓﾘｵｶｼ","streetKana":"ｼﾓｲｲｵｶ","prefecture":"岩手県","city":"盛岡市","street":"下飯岡"},{"zipCode":"0200877","prefectureKana":"ｲﾜﾃｹﾝ","cityKana":"ﾓﾘｵｶｼ","streetKana":"ｼﾓﾉﾊｼﾁｮｳ","prefecture":"岩手県","city":"盛岡市","street":"下ノ橋町"},{"zipCode":"0200051","prefectureKana":"ｲﾜﾃｹﾝ","cityKana":"ﾓﾘｵｶｼ","streetKana":"ｼﾓｵｵﾀ","prefecture":"岩手県","city":"盛岡市","street":"下太田"},{"zipCode":"0200856","prefectureKana":"ｲﾜﾃｹﾝ","cityKana":"ﾓﾘｵｶｼ","streetKana":"ｼﾓｶﾂﾞﾏ","prefecture":"岩手県","city":"盛岡市","street":"下鹿妻"},{"zipCode":"0200123","prefectureKana":"ｲﾜﾃｹﾝ","cityKana":"ﾓﾘｵｶｼ","streetKana":"ｼﾓｸﾘﾔｶﾞﾜ","prefecture":"岩手県","city":"盛岡市","street":"下厨川"},{"zipCode":"0200003","prefectureKana":"ｲﾜﾃｹﾝ","cityKana":"ﾓﾘｵｶｼ","streetKana":"ｼﾓﾖﾅｲ","prefecture":"岩手県","city":"盛岡市","street":"下米内"},{"zipCode":"0200044","prefectureKana":"ｲﾜﾃｹﾝ","cityKana":"ﾓﾘｵｶｼ","streetKana":"ｼﾞｮｳｾｲﾁｮｳ","prefecture":"岩手県","city":"盛岡市","street":"城西町"},{"zipCode":"0200803","prefectureKana":"ｲﾜﾃｹﾝ","cityKana":"ﾓﾘｵｶｼ","streetKana":"ｼﾝｼﾞｮｳ","prefecture":"岩手県","city":"盛岡市","street":"新庄"},{"zipCode":"0200806","prefectureKana":"ｲﾜﾃｹﾝ","cityKana":"ﾓﾘｵｶｼ","streetKana":"ｼﾝｼﾞｮｳﾁｮｳ","prefecture":"岩手県","city":"盛岡市","street":"新庄町"},{"zipCode":"0200042","prefectureKana":"ｲﾜﾃｹﾝ","cityKana":"ﾓﾘｵｶｼ","streetKana":"ｼﾝﾃﾞﾝﾁｮｳ","prefecture":"岩手県","city":"盛岡市","street":"新田町"},{"zipCode":"0200884","prefectureKana":"ｲﾜﾃｹﾝ","cityKana":"ﾓﾘｵｶｼ","streetKana":"ｼﾝﾒｲﾁｮｳ","prefecture":"岩手県","city":"盛岡市","street":"神明町"},{"zipCode":"0200882","prefectureKana":"ｲﾜﾃｹﾝ","cityKana":"ﾓﾘｵｶｼ","streetKana":"ｽﾐﾖｼﾁｮｳ","prefecture":"岩手県","city":"盛岡市","street":"住吉町"},{"zipCode":"0200127","prefectureKana":"ｲﾜﾃｹﾝ","cityKana":"ﾓﾘｵｶｼ","streetKana":"ｾﾞﾝｸﾈﾝ","prefecture":"岩手県","city":"盛岡市","street":"前九年"},{"zipCode":"0200861","prefectureKana":"ｲﾜﾃｹﾝ","cityKana":"ﾓﾘｵｶｼ","streetKana":"ｾﾝﾎﾞｸ","prefecture":"岩手県","city":"盛岡市","street":"仙北"},{"zipCode":"0200865","prefectureKana":"ｲﾜﾃｹﾝ","cityKana":"ﾓﾘｵｶｼ","streetKana":"ｾﾝﾎﾞｸﾁｮｳ","prefecture":"岩手県","city":"盛岡市","street":"仙北町"},{"zipCode":"0200828","prefectureKana":"ｲﾜﾃｹﾝ","cityKana":"ﾓﾘｵｶｼ","streetKana":"ﾀﾞｲｼﾞｼﾞﾁｮｳ","prefecture":"岩手県","city":"盛岡市","street":"大慈寺町"},{"zipCode":"0200135","prefectureKana":"ｲﾜﾃｹﾝ","cityKana":"ﾓﾘｵｶｼ","streetKana":"ﾀﾞｲｼﾝﾁｮｳ","prefecture":"岩手県","city":"盛岡市","street":"大新町"},{"zipCode":"0200825","prefectureKana":"ｲﾜﾃｹﾝ","cityKana":"ﾓﾘｵｶｼ","streetKana":"ﾀｶｸｽﾞﾚ","prefecture":"岩手県","city":"盛岡市","street":"高崩"},{"zipCode":"0200114","prefectureKana":"ｲﾜﾃｹﾝ","cityKana":"ﾓﾘｵｶｼ","streetKana":"ﾀｶﾏﾂ","prefecture":"岩手県","city":"盛岡市","street":"高松"},{"zipCode":"0200115","prefectureKana":"ｲﾜﾃｹﾝ","cityKana":"ﾓﾘｵｶｼ","streetKana":"ﾀﾃﾑｶｲﾁｮｳ","prefecture":"岩手県","city":"盛岡市","street":"館向町"},{"zipCode":"0200202","prefectureKana":"ｲﾜﾃｹﾝ","cityKana":"ﾓﾘｵｶｼ","streetKana":"ﾀﾏﾔﾏ","prefecture":"岩手県","city":"盛岡市","street":"玉山"},{"zipCode":"0200822","prefectureKana":"ｲﾜﾃｹﾝ","cityKana":"ﾓﾘｵｶｼ","streetKana":"ﾁｬﾊﾞﾀｹ","prefecture":"岩手県","city":"盛岡市","street":"茶畑"},{"zipCode":"0200021","prefectureKana":"ｲﾜﾃｹﾝ","cityKana":"ﾓﾘｵｶｼ","streetKana":"ﾁｭｳｵｳﾄﾞｵﾘ","prefecture":"岩手県","city":"盛岡市","street":"中央通"},{"zipCode":"0200121","prefectureKana":"ｲﾜﾃｹﾝ","cityKana":"ﾓﾘｵｶｼ","streetKana":"ﾂｷｶﾞｵｶ","prefecture":"岩手県","city":"盛岡市","street":"月が丘"},{"zipCode":"0200835","prefectureKana":"ｲﾜﾃｹﾝ","cityKana":"ﾓﾘｵｶｼ","streetKana":"ﾂｼﾀﾞ","prefecture":"岩手県","city":"盛岡市","street":"津志田"},{"zipCode":"0200838","prefectureKana":"ｲﾜﾃｹﾝ","cityKana":"ﾓﾘｵｶｼ","streetKana":"ﾂｼﾀﾞﾁｭｳｵｳ","prefecture":"岩手県","city":"盛岡市","street":"津志田中央"},{"zipCode":"0200836","prefectureKana":"ｲﾜﾃｹﾝ","cityKana":"ﾓﾘｵｶｼ","streetKana":"ﾂｼﾀﾞﾆｼ","prefecture":"岩手県","city":"盛岡市","street":"津志田西"},{"zipCode":"0200837","prefectureKana":"ｲﾜﾃｹﾝ","cityKana":"ﾓﾘｵｶｼ","streetKana":"ﾂｼﾀﾞﾁｮｳ","prefecture":"岩手県","city":"盛岡市","street":"津志田町"},{"zipCode":"0200839","prefectureKana":"ｲﾜﾃｹﾝ","cityKana":"ﾓﾘｵｶｼ","streetKana":"ﾂｼﾀﾞﾐﾅﾐ","prefecture":"岩手県","city":"盛岡市","street":"津志田南"},{"zipCode":"0200144","prefectureKana":"ｲﾜﾃｹﾝ","cityKana":"ﾓﾘｵｶｼ","streetKana":"ﾂﾁﾌﾞﾁ","prefecture":"岩手県","city":"盛岡市","street":"土淵"},{"zipCode":"0200802","prefectureKana":"ｲﾜﾃｹﾝ","cityKana":"ﾓﾘｵｶｼ","streetKana":"ﾂﾂｼﾞｶﾞｵｶ","prefecture":"岩手県","city":"盛岡市","street":"つつじが丘"},{"zipCode":"0200055","prefectureKana":"ｲﾜﾃｹﾝ","cityKana":"ﾓﾘｵｶｼ","streetKana":"ﾂﾅｷﾞ","prefecture":"岩手県","city":"盛岡市","street":"繋"},{"zipCode":"0200401","prefectureKana":"ｲﾜﾃｹﾝ","cityKana":"ﾓﾘｵｶｼ","streetKana":"ﾃｼﾛﾓﾘ","prefecture":"岩手県","city":"盛岡市","street":"手代森"},{"zipCode":"0200137","prefectureKana":"ｲﾜﾃｹﾝ","cityKana":"ﾓﾘｵｶｼ","streetKana":"ﾃﾝｼｮｳｼﾞﾁｮｳ","prefecture":"岩手県","city":"盛岡市","street":"天昌寺町"},{"zipCode":"0200881","prefectureKana":"ｲﾜﾃｹﾝ","cityKana":"ﾓﾘｵｶｼ","streetKana":"ﾃﾝｼﾞﾝﾁｮｳ","prefecture":"岩手県","city":"盛岡市","street":"天神町"},{"zipCode":"0200052","prefectureKana":"ｲﾜﾃｹﾝ","cityKana":"ﾓﾘｵｶｼ","streetKana":"ﾅｶｵｵﾀ","prefecture":"岩手県","city":"盛岡市","street":"中太田"},{"zipCode":"0200043","prefectureKana":"ｲﾜﾃｹﾝ","cityKana":"ﾓﾘｵｶｼ","streetKana":"ﾅｶｶﾞﾜﾁｮｳ","prefecture":"岩手県","city":"盛岡市","street":"中川町"},{"zipCode":"0200131","prefectureKana":"ｲﾜﾃｹﾝ","cityKana":"ﾓﾘｵｶｼ","streetKana":"ﾅｶﾂﾂﾐﾁｮｳ","prefecture":"岩手県","city":"盛岡市","street":"中堤町"},{"zipCode":"0200816","prefectureKana":"ｲﾜﾃｹﾝ","cityKana":"ﾓﾘｵｶｼ","streetKana":"ﾅｶﾉ","prefecture":"岩手県","city":"盛岡市","street":"中野"},{"zipCode":"0200871","prefectureKana":"ｲﾜﾃｹﾝ","cityKana":"ﾓﾘｵｶｼ","streetKana":"ﾅｶﾉﾊｼﾄﾞｵﾘ","prefecture":"岩手県","city":"盛岡市","street":"中ノ橋通"},{"zipCode":"0200141","prefectureKana":"ｲﾜﾃｹﾝ","cityKana":"ﾓﾘｵｶｼ","streetKana":"ﾅｶﾔｼｷﾁｮｳ","prefecture":"岩手県","city":"盛岡市","street":"中屋敷町"},{"zipCode":"0200834","prefectureKana":"ｲﾜﾃｹﾝ","cityKana":"ﾓﾘｵｶｼ","streetKana":"ﾅｶﾞｲ","prefecture":"岩手県","city":"盛岡市","street":"永井"},{"zipCode":"0200062","prefectureKana":"ｲﾜﾃｹﾝ","cityKana":"ﾓﾘｵｶｼ","streetKana":"ﾅｶﾞﾀﾁｮｳ","prefecture":"岩手県","city":"盛岡市","street":"長田町"},{"zipCode":"0200146","prefectureKana":"ｲﾜﾃｹﾝ","cityKana":"ﾓﾘｵｶｼ","streetKana":"ﾅｶﾞﾊｼﾁｮｳ","prefecture":"岩手県","city":"盛岡市","street":"長橋町"},{"zipCode":"0200064","prefectureKana":"ｲﾜﾃｹﾝ","cityKana":"ﾓﾘｵｶｼ","streetKana":"ﾅｼﾉｷﾁｮｳ","prefecture":"岩手県","city":"盛岡市","street":"梨木町"},{"zipCode":"0200016","prefectureKana":"ｲﾜﾃｹﾝ","cityKana":"ﾓﾘｵｶｼ","streetKana":"ﾅｽｶﾜﾁｮｳ","prefecture":"岩手県","city":"盛岡市","street":"名須川町"},{"zipCode":"0200827","prefectureKana":"ｲﾜﾃｹﾝ","cityKana":"ﾓﾘｵｶｼ","streetKana":"ﾅﾀﾔﾁｮｳ","prefecture":"岩手県","city":"盛岡市","street":"鉈屋町"},{"zipCode":"0200132","prefectureKana":"ｲﾜﾃｹﾝ","cityKana":"ﾓﾘｵｶｼ","streetKana":"ﾆｼｱｵﾔﾏ","prefecture":"岩手県","city":"盛岡市","street":"西青山"},{"zipCode":"0200065","prefectureKana":"ｲﾜﾃｹﾝ","cityKana":"ﾓﾘｵｶｼ","streetKana":"ﾆｼｼﾀﾀﾞｲﾁｮｳ","prefecture":"岩手県","city":"盛岡市","street":"西下台町"},{"zipCode":"0200864","prefectureKana":"ｲﾜﾃｹﾝ","cityKana":"ﾓﾘｵｶｼ","streetKana":"ﾆｼｾﾝﾎﾞｸ","prefecture":"岩手県","city":"盛岡市","street":"西仙北"},{"zipCode":"0200103","prefectureKana":"ｲﾜﾃｹﾝ","cityKana":"ﾓﾘｵｶｼ","streetKana":"ﾆｼﾏﾂｿﾞﾉ","prefecture":"岩手県","city":"盛岡市","street":"西松園"},{"zipCode":"0200833","prefectureKana":"ｲﾜﾃｹﾝ","cityKana":"ﾓﾘｵｶｼ","streetKana":"ﾆｼﾐﾙﾏｴ","prefecture":"岩手県","city":"盛岡市","street":"西見前"},{"zipCode":"0200313","prefectureKana":"ｲﾜﾃｹﾝ","cityKana":"ﾓﾘｵｶｼ","streetKana":"ﾈﾀﾞﾓ","prefecture":"岩手県","city":"盛岡市","street":"根田茂"},{"zipCode":"0200116","prefectureKana":"ｲﾜﾃｹﾝ","cityKana":"ﾓﾘｵｶｼ","streetKana":"ﾊｺｼﾐｽﾞ","prefecture":"岩手県","city":"盛岡市","street":"箱清水"},{"zipCode":"0200872","prefectureKana":"ｲﾜﾃｹﾝ","cityKana":"ﾓﾘｵｶｼ","streetKana":"ﾊﾁﾏﾝﾁｮｳ","prefecture":"岩手県","city":"盛岡市","street":"八幡町"},{"zipCode":"0200841","prefectureKana":"ｲﾜﾃｹﾝ","cityKana":"ﾓﾘｵｶｼ","streetKana":"ﾊﾊﾞ","prefecture":"岩手県","city":"盛岡市","street":"羽場"},{"zipCode":"0200876","prefectureKana":"ｲﾜﾃｹﾝ","cityKana":"ﾓﾘｵｶｼ","streetKana":"ﾊﾞﾊﾞﾁｮｳ","prefecture":"岩手県","city":"盛岡市","street":"馬場町"},{"zipCode":"0200824","prefectureKana":"ｲﾜﾃｹﾝ","cityKana":"ﾓﾘｵｶｼ","streetKana":"ﾋｶﾞｼｱﾆﾜ","prefecture":"岩手県","city":"盛岡市","street":"東安庭"},{"zipCode":"0200108","prefectureKana":"ｲﾜﾃｹﾝ","cityKana":"ﾓﾘｵｶｼ","streetKana":"ﾋｶﾞｼｸﾛｲｼﾉ","prefecture":"岩手県","city":"盛岡市","street":"東黒石野"},{"zipCode":"0200804","prefectureKana":"ｲﾜﾃｹﾝ","cityKana":"ﾓﾘｵｶｼ","streetKana":"ﾋｶﾞｼｻｸﾗﾔﾏ","prefecture":"岩手県","city":"盛岡市","street":"東桜山"},{"zipCode":"0200805","prefectureKana":"ｲﾜﾃｹﾝ","cityKana":"ﾓﾘｵｶｼ","streetKana":"ﾋｶﾞｼｼﾝｼﾞｮｳ","prefecture":"岩手県","city":"盛岡市","street":"東新庄"},{"zipCode":"0200862","prefectureKana":"ｲﾜﾃｹﾝ","cityKana":"ﾓﾘｵｶｼ","streetKana":"ﾋｶﾞｼｾﾝﾎﾞｸ","prefecture":"岩手県","city":"盛岡市","street":"東仙北"},{"zipCode":"0200817","prefectureKana":"ｲﾜﾃｹﾝ","cityKana":"ﾓﾘｵｶｼ","streetKana":"ﾋｶﾞｼﾅｶﾉ","prefecture":"岩手県","city":"盛岡市","street":"東中野"},{"zipCode":"0200814","prefectureKana":"ｲﾜﾃｹﾝ","cityKana":"ﾓﾘｵｶｼ","streetKana":"ﾋｶﾞｼﾅｶﾉﾁｮｳ","prefecture":"岩手県","city":"盛岡市","street":"東中野町"},{"zipCode":"0200106","prefectureKana":"ｲﾜﾃｹﾝ","cityKana":"ﾓﾘｵｶｼ","streetKana":"ﾋｶﾞｼﾏﾂｿﾞﾉ","prefecture":"岩手県","city":"盛岡市","street":"東松園"},{"zipCode":"0200112","prefectureKana":"ｲﾜﾃｹﾝ","cityKana":"ﾓﾘｵｶｼ","streetKana":"ﾋｶﾞｼﾐﾄﾞﾘｶﾞｵｶ","prefecture":"岩手県","city":"盛岡市","street":"東緑が丘"},{"zipCode":"0200832","prefectureKana":"ｲﾜﾃｹﾝ","cityKana":"ﾓﾘｵｶｼ","streetKana":"ﾋｶﾞｼﾐﾙﾏｴ","prefecture":"岩手県","city":"盛岡市","street":"東見前"},{"zipCode":"0200813","prefectureKana":"ｲﾜﾃｹﾝ","cityKana":"ﾓﾘｵｶｼ","streetKana":"ﾋｶﾞｼﾔﾏ","prefecture":"岩手県","city":"盛岡市","street":"東山"},{"zipCode":"0200201","prefectureKana":"ｲﾜﾃｹﾝ","cityKana":"ﾓﾘｵｶｼ","streetKana":"ﾋﾉﾄ","prefecture":"岩手県","city":"盛岡市","street":"日戸"},{"zipCode":"0200145","prefectureKana":"ｲﾜﾃｹﾝ","cityKana":"ﾓﾘｵｶｼ","streetKana":"ﾋﾗｶｼﾝﾃﾞﾝ","prefecture":"岩手県","city":"盛岡市","street":"平賀新田"},{"zipCode":"0200015","prefectureKana":"ｲﾜﾃｹﾝ","cityKana":"ﾓﾘｵｶｼ","streetKana":"ﾎﾝﾁｮｳﾄﾞｵﾘ","prefecture":"岩手県","city":"盛岡市","street":"本町通"},{"zipCode":"0200148","prefectureKana":"ｲﾜﾃｹﾝ","cityKana":"ﾓﾘｵｶｼ","streetKana":"ﾏｴｶﾞﾀ","prefecture":"岩手県","city":"盛岡市","street":"前潟"},{"zipCode":"0200873","prefectureKana":"ｲﾜﾃｹﾝ","cityKana":"ﾓﾘｵｶｼ","streetKana":"ﾏﾂｵﾁｮｳ","prefecture":"岩手県","city":"盛岡市","street":"松尾町"},{"zipCode":"0200107","prefectureKana":"ｲﾜﾃｹﾝ","cityKana":"ﾓﾘｵｶｼ","streetKana":"ﾏﾂｿﾞﾉ","prefecture":"岩手県","city":"盛岡市","street":"松園"},{"zipCode":"0200826","prefectureKana":"ｲﾜﾃｹﾝ","cityKana":"ﾓﾘｵｶｼ","streetKana":"ﾐｺﾀﾞﾁｮｳ","prefecture":"岩手県","city":"盛岡市","street":"神子田町"},{"zipCode":"0200122","prefectureKana":"ｲﾜﾃｹﾝ","cityKana":"ﾓﾘｵｶｼ","streetKana":"ﾐﾀｹ","prefecture":"岩手県","city":"盛岡市","street":"みたけ"},{"zipCode":"0200011","prefectureKana":"ｲﾜﾃｹﾝ","cityKana":"ﾓﾘｵｶｼ","streetKana":"ﾐﾂﾜﾘ","prefecture":"岩手県","city":"盛岡市","street":"三ツ割"},{"zipCode":"0200117","prefectureKana":"ｲﾜﾃｹﾝ","cityKana":"ﾓﾘｵｶｼ","streetKana":"ﾐﾄﾞﾘｶﾞｵｶ","prefecture":"岩手県","city":"盛岡市","street":"緑が丘"},{"zipCode":"0200134","prefectureKana":"ｲﾜﾃｹﾝ","cityKana":"ﾓﾘｵｶｼ","streetKana":"ﾐﾅﾐｱｵﾔﾏﾁｮｳ","prefecture":"岩手県","city":"盛岡市","street":"南青山町"},{"zipCode":"0200874","prefectureKana":"ｲﾜﾃｹﾝ","cityKana":"ﾓﾘｵｶｼ","streetKana":"ﾐﾅﾐｵｵﾄﾞｵﾘ","prefecture":"岩手県","city":"盛岡市","street":"南大通"},{"zipCode":"0200863","prefectureKana":"ｲﾜﾃｹﾝ","cityKana":"ﾓﾘｵｶｼ","streetKana":"ﾐﾅﾐｾﾝﾎﾞｸ","prefecture":"岩手県","city":"盛岡市","street":"南仙北"},{"zipCode":"0200851","prefectureKana":"ｲﾜﾃｹﾝ","cityKana":"ﾓﾘｵｶｼ","streetKana":"ﾑｶｲﾅｶﾉ","prefecture":"岩手県","city":"盛岡市","street":"向中野"},{"zipCode":"0200866","prefectureKana":"ｲﾜﾃｹﾝ","cityKana":"ﾓﾘｵｶｼ","streetKana":"ﾓﾄﾐﾔ","prefecture":"岩手県","city":"盛岡市","street":"本宮"},{"zipCode":"0200005","prefectureKana":"ｲﾜﾃｹﾝ","cityKana":"ﾓﾘｵｶｼ","streetKana":"ﾓﾐｼﾞｶﾞｵｶ","prefecture":"岩手県","city":"盛岡市","street":"紅葉が丘"},{"zipCode":"0200045","prefectureKana":"ｲﾜﾃｹﾝ","cityKana":"ﾓﾘｵｶｼ","streetKana":"ﾓﾘｵｶｴｷﾆｼﾄｵﾘ","prefecture":"岩手県","city":"盛岡市","street":"盛岡駅西通"},{"zipCode":"0200033","prefectureKana":"ｲﾜﾃｹﾝ","cityKana":"ﾓﾘｵｶｼ","streetKana":"ﾓﾘｵｶｴｷﾏｴｷﾀﾄﾞｵﾘ","prefecture":"岩手県","city":"盛岡市","street":"盛岡駅前北通"},{"zipCode":"0200034","prefectureKana":"ｲﾜﾃｹﾝ","cityKana":"ﾓﾘｵｶｼ","streetKana":"ﾓﾘｵｶｴｷﾏｴﾄﾞｵﾘ","prefecture":"岩手県","city":"盛岡市","street":"盛岡駅前通"},{"zipCode":"0200311","prefectureKana":"ｲﾜﾃｹﾝ","cityKana":"ﾓﾘｵｶｼ","streetKana":"ﾔﾅｶﾞﾜ","prefecture":"岩手県","city":"盛岡市","street":"簗川"},{"zipCode":"0200004","prefectureKana":"ｲﾜﾃｹﾝ","cityKana":"ﾓﾘｵｶｼ","streetKana":"ﾔﾏｷﾞｼ","prefecture":"岩手県","city":"盛岡市","street":"山岸"},{"zipCode":"0200032","prefectureKana":"ｲﾜﾃｹﾝ","cityKana":"ﾓﾘｵｶｼ","streetKana":"ﾕｳｶﾞｵｾﾁｮｳ","prefecture":"岩手県","city":"盛岡市","street":"夕顔瀬町"},{"zipCode":"0200842","prefectureKana":"ｲﾜﾃｹﾝ","cityKana":"ﾓﾘｵｶｼ","streetKana":"ﾕｻﾞﾜ","prefecture":"岩手県","city":"盛岡市","street":"湯沢"},{"zipCode":"0200844","prefectureKana":"ｲﾜﾃｹﾝ","cityKana":"ﾓﾘｵｶｼ","streetKana":"ﾕｻﾞﾜﾋｶﾞｼ","prefecture":"岩手県","city":"盛岡市","street":"湯沢東"},{"zipCode":"0200843","prefectureKana":"ｲﾜﾃｹﾝ","cityKana":"ﾓﾘｵｶｼ","streetKana":"ﾕｻﾞﾜﾆｼ","prefecture":"岩手県","city":"盛岡市","street":"湯沢西"},{"zipCode":"0200845","prefectureKana":"ｲﾜﾃｹﾝ","cityKana":"ﾓﾘｵｶｼ","streetKana":"ﾕｻﾞﾜﾐﾅﾐ","prefecture":"岩手県","city":"盛岡市","street":"湯沢南"},{"zipCode":"0200846","prefectureKana":"ｲﾜﾃｹﾝ","cityKana":"ﾓﾘｵｶｼ","streetKana":"ﾘｭｳﾂｳｾﾝﾀｰｷﾀ","prefecture":"岩手県","city":"盛岡市","street":"流通センター北"},{"zipCode":"0200886","prefectureKana":"ｲﾜﾃｹﾝ","cityKana":"ﾓﾘｵｶｼ","streetKana":"ﾜｶｿﾉﾁｮｳ","prefecture":"岩手県","city":"盛岡市","street":"若園町"},{"zipCode":"0200600","prefectureKana":"ｲﾜﾃｹﾝ","cityKana":"ﾀｷｻﾞﾜｼ","streetKana":"ｲｶﾆｹｲｻｲｶﾞﾅｲﾊﾞｱｲ","prefecture":"岩手県","city":"滝沢市","street":"以下に掲載がない場合"},{"zipCode":"0200633","prefectureKana":"ｲﾜﾃｹﾝ","cityKana":"ﾀｷｻﾞﾜｼ","streetKana":"ｱﾅｸﾞﾁ","prefecture":"岩手県","city":"滝沢市","street":"穴口"},{"zipCode":"0200604","prefectureKana":"ｲﾜﾃｹﾝ","cityKana":"ﾀｷｻﾞﾜｼ","streetKana":"ｲｯﾎﾟﾝｷﾞ","prefecture":"岩手県","city":"滝沢市","street":"一本木"},{"zipCode":"0200618","prefectureKana":"ｲﾜﾃｹﾝ","cityKana":"ﾀｷｻﾞﾜｼ","streetKana":"ｲﾜﾃｻﾝ","prefecture":"岩手県","city":"滝沢市","street":"岩手山"},{"zipCode":"0200685","prefectureKana":"ｲﾜﾃｹﾝ","cityKana":"ﾀｷｻﾞﾜｼ","streetKana":"ｳｶｲｱﾀﾞﾁ","prefecture":"岩手県","city":"滝沢市","street":"鵜飼安達"},{"zipCode":"0200673","prefectureKana":"ｲﾜﾃｹﾝ","cityKana":"ﾀｷｻﾞﾜｼ","streetKana":"ｳｶｲｲｼﾄﾞﾒ","prefecture":"岩手県","city":"滝沢市","street":"鵜飼石留"},{"zipCode":"0200681","prefectureKana":"ｲﾜﾃｹﾝ","cityKana":"ﾀｷｻﾞﾜｼ","streetKana":"ｳｶｲｳﾊﾞﾔｼｷ","prefecture":"岩手県","city":"滝沢市","street":"鵜飼姥屋敷"},{"zipCode":"0200662","prefectureKana":"ｲﾜﾃｹﾝ","cityKana":"ﾀｷｻﾞﾜｼ","streetKana":"ｳｶｲｵｵﾀﾞﾙﾐ","prefecture":"岩手県","city":"滝沢市","street":"鵜飼大緩"},{"zipCode":"0200686","prefectureKana":"ｲﾜﾃｹﾝ","cityKana":"ﾀｷｻﾞﾜｼ","streetKana":"ｳｶｲｵﾆｺｼ","prefecture":"岩手県","city":"滝沢市","street":"鵜飼鬼越"},{"zipCode":"0200655","prefectureKana":"ｲﾜﾃｹﾝ","cityKana":"ﾀｷｻﾞﾜｼ","streetKana":"ｳｶｲｵﾆﾜﾀﾞ","prefecture":"岩手県","city":"滝沢市","street":"鵜飼御庭田"},{"zipCode":"0200657","prefectureKana":"ｲﾜﾃｹﾝ","cityKana":"ﾀｷｻﾞﾜｼ","streetKana":"ｳｶｲｶｼﾞｶﾓﾘ","prefecture":"岩手県","city":"滝沢市","street":"鵜飼鰍森"},{"zipCode":"0200671","prefectureKana":"ｲﾜﾃｹﾝ","cityKana":"ﾀｷｻﾞﾜｼ","streetKana":"ｳｶｲｶﾐﾀｶﾔﾅｷﾞ","prefecture":"岩手県","city":"滝沢市","street":"鵜飼上高柳"},{"zipCode":"0200656","prefectureKana":"ｲﾜﾃｹﾝ","cityKana":"ﾀｷｻﾞﾜｼ","streetKana":"ｳｶｲｶﾐﾉﾔﾏ","prefecture":"岩手県","city":"滝沢市","street":"鵜飼上山"},{"zipCode":"0200688","prefectureKana":"ｲﾜﾃｹﾝ","cityKana":"ﾀｷｻﾞﾜｼ","streetKana":"ｳｶｲｶﾐﾏｴﾀﾞ","prefecture":"岩手県","city":"滝沢市","street":"鵜飼上前田"},{"zipCode":"0200668","prefectureKana":"ｲﾜﾃｹﾝ","cityKana":"ﾀｷｻﾞﾜｼ","streetKana":"ｳｶｲｷﾂﾈﾎﾗ","prefecture":"岩手県","city":"滝沢市","street":"鵜飼狐洞"},{"zipCode":"0200664","prefectureKana":"ｲﾜﾃｹﾝ","cityKana":"ﾀｷｻﾞﾜｼ","streetKana":"ｳｶｲｻｻﾓﾘ","prefecture":"岩手県","city":"滝沢市","street":"鵜飼笹森"},{"zipCode":"0200658","prefectureKana":"ｲﾜﾃｹﾝ","cityKana":"ﾀｷｻﾞﾜｼ","streetKana":"ｳｶｲｼﾐｽﾞｻﾜ","prefecture":"岩手県","city":"滝沢市","street":"鵜飼清水沢"},{"zipCode":"0200672","prefectureKana":"ｲﾜﾃｹﾝ","cityKana":"ﾀｷｻﾞﾜｼ","streetKana":"ｳｶｲｼﾓﾀｶﾔﾅｷﾞ","prefecture":"岩手県","city":"滝沢市","street":"鵜飼下高柳"},{"zipCode":"0200661","prefectureKana":"ｲﾜﾃｹﾝ","cityKana":"ﾀｷｻﾞﾜｼ","streetKana":"ｳｶｲｼﾛｲｼ","prefecture":"岩手県","city":"滝沢市","street":"鵜飼白石"},{"zipCode":"0200666","prefectureKana":"ｲﾜﾃｹﾝ","cityKana":"ﾀｷｻﾞﾜｼ","streetKana":"ｳｶｲｾﾝｺｶﾞﾜ","prefecture":"岩手県","city":"滝沢市","street":"鵜飼先古川"},{"zipCode":"0200659","prefectureKana":"ｲﾜﾃｹﾝ","cityKana":"ﾀｷｻﾞﾜｼ","streetKana":"ｳｶｲｿﾄｸﾎﾞ","prefecture":"岩手県","city":"滝沢市","street":"鵜飼外久保"},{"zipCode":"0200674","prefectureKana":"ｲﾜﾃｹﾝ","cityKana":"ﾀｷｻﾞﾜｼ","streetKana":"ｳｶｲﾀｶﾔﾅｷﾞ","prefecture":"岩手県","city":"滝沢市","street":"鵜飼高柳"},{"zipCode":"0200675","prefectureKana":"ｲﾜﾃｹﾝ","cityKana":"ﾀｷｻﾞﾜｼ","streetKana":"ｳｶｲﾀｷﾑｶｲ","prefecture":"岩手県","city":"滝沢市","street":"鵜飼滝向"},{"zipCode":"0200677","prefectureKana":"ｲﾜﾃｹﾝ","cityKana":"ﾀｷｻﾞﾜｼ","streetKana":"ｳｶｲﾄｲﾉｸﾁ","prefecture":"岩手県","city":"滝沢市","street":"鵜飼樋の口"},{"zipCode":"0200652","prefectureKana":"ｲﾜﾃｹﾝ","cityKana":"ﾀｷｻﾞﾜｼ","streetKana":"ｳｶｲﾄﾞｳﾊﾀ","prefecture":"岩手県","city":"滝沢市","street":"鵜飼洞畑"},{"zipCode":"0200678","prefectureKana":"ｲﾜﾃｹﾝ","cityKana":"ﾀｷｻﾞﾜｼ","streetKana":"ｳｶｲﾄｼﾓｳ","prefecture":"岩手県","city":"滝沢市","street":"鵜飼年毛"},{"zipCode":"0200684","prefectureKana":"ｲﾜﾃｹﾝ","cityKana":"ﾀｷｻﾞﾜｼ","streetKana":"ｳｶｲﾇﾏﾓﾘ","prefecture":"岩手県","city":"滝沢市","street":"鵜飼沼森"},{"zipCode":"0200653","prefectureKana":"ｲﾜﾃｹﾝ","cityKana":"ﾀｷｻﾞﾜｼ","streetKana":"ｳｶｲﾊｻﾏ","prefecture":"岩手県","city":"滝沢市","street":"鵜飼迫"},{"zipCode":"0200676","prefectureKana":"ｲﾜﾃｹﾝ","cityKana":"ﾀｷｻﾞﾜｼ","streetKana":"ｳｶｲﾊﾁﾆﾝｳﾁ","prefecture":"岩手県","city":"滝沢市","street":"鵜飼八人打"},{"zipCode":"0200683","prefectureKana":"ｲﾜﾃｹﾝ","cityKana":"ﾀｷｻﾞﾜｼ","streetKana":"ｳｶｲﾊﾅﾀﾞｲﾗ","prefecture":"岩手県","city":"滝沢市","street":"鵜飼花平"},{"zipCode":"0200651","prefectureKana":"ｲﾜﾃｹﾝ","cityKana":"ﾀｷｻﾞﾜｼ","streetKana":"ｳｶｲﾎｿﾔﾁ","prefecture":"岩手県","city":"滝沢市","street":"鵜飼細谷地"},{"zipCode":"0200667","prefectureKana":"ｲﾜﾃｹﾝ","cityKana":"ﾀｷｻﾞﾜｼ","streetKana":"ｳｶｲﾑｶｲｼﾝﾃﾞﾝ","prefecture":"岩手県","city":"滝沢市","street":"鵜飼向新田"},{"zipCode":"0200663","prefectureKana":"ｲﾜﾃｹﾝ","cityKana":"ﾀｷｻﾞﾜｼ","streetKana":"ｳｶｲﾓﾛｸｽﾞｶﾞﾜ","prefecture":"岩手県","city":"滝沢市","street":"鵜飼諸葛川"},{"zipCode":"0200682","prefectureKana":"ｲﾜﾃｹﾝ","cityKana":"ﾀｷｻﾞﾜｼ","streetKana":"ｳｶｲﾘﾝｱﾝ","prefecture":"岩手県","city":"滝沢市","street":"鵜飼臨安"},{"zipCode":"0200601","prefectureKana":"ｲﾜﾃｹﾝ","cityKana":"ﾀｷｻﾞﾜｼ","streetKana":"ｳｼﾛ","prefecture":"岩手県","city":"滝沢市","street":"後"},{"zipCode":"0200615","prefectureKana":"ｲﾜﾃｹﾝ","cityKana":"ﾀｷｻﾞﾜｼ","streetKana":"ｳﾄｳｻﾞｶ","prefecture":"岩手県","city":"滝沢市","street":"卯遠坂"},{"zipCode":"0200627","prefectureKana":"ｲﾜﾃｹﾝ","cityKana":"ﾀｷｻﾞﾜｼ","streetKana":"ｵｲﾉｸﾎﾞ","prefecture":"岩手県","city":"滝沢市","street":"狼久保"},{"zipCode":"0200613","prefectureKana":"ｲﾜﾃｹﾝ","cityKana":"ﾀｷｻﾞﾜｼ","streetKana":"ｵｵｲｼﾜﾀﾘ","prefecture":"岩手県","city":"滝沢市","street":"大石渡"},{"zipCode":"0200769","prefectureKana":"ｲﾜﾃｹﾝ","cityKana":"ﾀｷｻﾞﾜｼ","streetKana":"ｵｵｶﾞﾏｱﾗﾔｼｷ","prefecture":"岩手県","city":"滝沢市","street":"大釜荒屋敷"},{"zipCode":"0200754","prefectureKana":"ｲﾜﾃｹﾝ","cityKana":"ﾀｷｻﾞﾜｼ","streetKana":"ｵｵｶﾞﾏｳﾜｶﾞﾏ","prefecture":"岩手県","city":"滝沢市","street":"大釜上釜"},{"zipCode":"0200758","prefectureKana":"ｲﾜﾃｹﾝ","cityKana":"ﾀｷｻﾞﾜｼ","streetKana":"ｵｵｶﾞﾏｵｵｼﾐｽﾞ","prefecture":"岩手県","city":"滝沢市","street":"大釜大清水"},{"zipCode":"0200763","prefectureKana":"ｲﾜﾃｹﾝ","cityKana":"ﾀｷｻﾞﾜｼ","streetKana":"ｵｵｶﾞﾏｵｵﾊﾞﾀｹ","prefecture":"岩手県","city":"滝沢市","street":"大釜大畑"},{"zipCode":"0200776","prefectureKana":"ｲﾜﾃｹﾝ","cityKana":"ﾀｷｻﾞﾜｼ","streetKana":"ｵｵｶﾞﾏｵﾆｶﾞﾀｷ","prefecture":"岩手県","city":"滝沢市","street":"大釜鬼が滝"},{"zipCode":"0200757","prefectureKana":"ｲﾜﾃｹﾝ","cityKana":"ﾀｷｻﾞﾜｼ","streetKana":"ｵｵｶﾞﾏｶｻﾞﾊﾞﾔｼ","prefecture":"岩手県","city":"滝沢市","street":"大釜風林"},{"zipCode":"0200755","prefectureKana":"ｲﾜﾃｹﾝ","cityKana":"ﾀｷｻﾞﾜｼ","streetKana":"ｵｵｶﾞﾏｶﾏｸﾁ","prefecture":"岩手県","city":"滝沢市","street":"大釜釜口"},{"zipCode":"0200773","prefectureKana":"ｲﾜﾃｹﾝ","cityKana":"ﾀｷｻﾞﾜｼ","streetKana":"ｵｵｶﾞﾏｶﾐﾀｹﾊﾅ","prefecture":"岩手県","city":"滝沢市","street":"大釜上竹鼻"},{"zipCode":"0200765","prefectureKana":"ｲﾜﾃｹﾝ","cityKana":"ﾀｷｻﾞﾜｼ","streetKana":"ｵｵｶﾞﾏｺﾔｼｷ","prefecture":"岩手県","city":"滝沢市","street":"大釜小屋敷"},{"zipCode":"0200774","prefectureKana":"ｲﾜﾃｹﾝ","cityKana":"ﾀｷｻﾞﾜｼ","streetKana":"ｵｵｶﾞﾏｼｵﾉﾓﾘ","prefecture":"岩手県","city":"滝沢市","street":"大釜塩の森"},{"zipCode":"0200752","prefectureKana":"ｲﾜﾃｹﾝ","cityKana":"ﾀｷｻﾞﾜｼ","streetKana":"ｵｵｶﾞﾏｼﾛﾔﾏ","prefecture":"岩手県","city":"滝沢市","street":"大釜白山"},{"zipCode":"0200751","prefectureKana":"ｲﾜﾃｹﾝ","cityKana":"ﾀｷｻﾞﾜｼ","streetKana":"ｵｵｶﾞﾏｾﾝｶﾞｸﾎﾞ","prefecture":"岩手県","city":"滝沢市","street":"大釜千が窪"},{"zipCode":"0200756","prefectureKana":"ｲﾜﾃｹﾝ","cityKana":"ﾀｷｻﾞﾜｼ","streetKana":"ｵｵｶﾞﾏﾀｶﾓﾘ","prefecture":"岩手県","city":"滝沢市","street":"大釜高森"},{"zipCode":"0200771","prefectureKana":"ｲﾜﾃｹﾝ","cityKana":"ﾀｷｻﾞﾜｼ","streetKana":"ｵｵｶﾞﾏﾀｹﾊﾅ","prefecture":"岩手県","city":"滝沢市","street":"大釜竹鼻"},{"zipCode":"0200761","prefectureKana":"ｲﾜﾃｹﾝ","cityKana":"ﾀｷｻﾞﾜｼ","streetKana":"ｵｵｶﾞﾏﾀﾉｼﾘ","prefecture":"岩手県","city":"滝沢市","street":"大釜田の尻"},{"zipCode":"0200764","prefectureKana":"ｲﾜﾃｹﾝ","cityKana":"ﾀｷｻﾞﾜｼ","streetKana":"ｵｵｶﾞﾏﾄﾞｲｼﾞﾘ","prefecture":"岩手県","city":"滝沢市","street":"大釜土井尻"},{"zipCode":"0200762","prefectureKana":"ｲﾜﾃｹﾝ","cityKana":"ﾀｷｻﾞﾜｼ","streetKana":"ｵｵｶﾞﾏﾄﾀﾞﾃ","prefecture":"岩手県","city":"滝沢市","street":"大釜外館"},{"zipCode":"0200772","prefectureKana":"ｲﾜﾃｹﾝ","cityKana":"ﾀｷｻﾞﾜｼ","streetKana":"ｵｵｶﾞﾏﾅｶｾ","prefecture":"岩手県","city":"滝沢市","street":"大釜中瀬"},{"zipCode":"0200767","prefectureKana":"ｲﾜﾃｹﾝ","cityKana":"ﾀｷｻﾞﾜｼ","streetKana":"ｵｵｶﾞﾏﾅｶﾐﾁ","prefecture":"岩手県","city":"滝沢市","street":"大釜中道"},{"zipCode":"0200777","prefectureKana":"ｲﾜﾃｹﾝ","cityKana":"ﾀｷｻﾞﾜｼ","streetKana":"ｵｵｶﾞﾏﾆｻﾜｾ","prefecture":"岩手県","city":"滝沢市","street":"大釜仁沢瀬"},{"zipCode":"0200775","prefectureKana":"ｲﾜﾃｹﾝ","cityKana":"ﾀｷｻﾞﾜｼ","streetKana":"ｵｵｶﾞﾏﾇﾏﾌﾞｸﾛ","prefecture":"岩手県","city":"滝沢市","street":"大釜沼袋"},{"zipCode":"0200766","prefectureKana":"ｲﾜﾃｹﾝ","cityKana":"ﾀｷｻﾞﾜｼ","streetKana":"ｵｵｶﾞﾏﾊﾁﾏﾝﾏｴ","prefecture":"岩手県","city":"滝沢市","street":"大釜八幡前"},{"zipCode":"0200753","prefectureKana":"ｲﾜﾃｹﾝ","cityKana":"ﾀｷｻﾞﾜｼ","streetKana":"ｵｵｶﾞﾏﾎｿﾔ","prefecture":"岩手県","city":"滝沢市","street":"大釜細屋"},{"zipCode":"0200778","prefectureKana":"ｲﾜﾃｹﾝ","cityKana":"ﾀｷｻﾞﾜｼ","streetKana":"ｵｵｶﾞﾏﾖｼﾐｽﾞ","prefecture":"岩手県","city":"滝沢市","street":"大釜吉水"},{"zipCode":"0200779","prefectureKana":"ｲﾜﾃｹﾝ","cityKana":"ﾀｷｻﾞﾜｼ","streetKana":"ｵｵｶﾞﾏﾖｼﾐｽﾞ","prefecture":"岩手県","city":"滝沢市","street":"大釜吉清水"},{"zipCode":"0200768","prefectureKana":"ｲﾜﾃｹﾝ","cityKana":"ﾀｷｻﾞﾜｼ","streetKana":"ｵｵｶﾞﾏﾜﾀﾞ","prefecture":"岩手県","city":"滝沢市","street":"大釜和田"},{"zipCode":"0200636","prefectureKana":"ｲﾜﾃｹﾝ","cityKana":"ﾀｷｻﾞﾜｼ","streetKana":"ｵｵｸﾎﾞ","prefecture":"岩手県","city":"滝沢市","street":"大久保"},{"zipCode":"0200621","prefectureKana":"ｲﾜﾃｹﾝ","cityKana":"ﾀｷｻﾞﾜｼ","streetKana":"ｵｵｻｷ","prefecture":"岩手県","city":"滝沢市","street":"大崎"},{"zipCode":"0200701","prefectureKana":"ｲﾜﾃｹﾝ","cityKana":"ﾀｷｻﾞﾜｼ","streetKana":"ｵｵｻﾜｶｺﾞﾔｼｷ","prefecture":"岩手県","city":"滝沢市","street":"大沢籠屋敷"},{"zipCode":"0200702","prefectureKana":"ｲﾜﾃｹﾝ","cityKana":"ﾀｷｻﾞﾜｼ","streetKana":"ｵｵｻﾜｶﾐﾂﾙｺ","prefecture":"岩手県","city":"滝沢市","street":"大沢上鶴子"},{"zipCode":"0200718","prefectureKana":"ｲﾜﾃｹﾝ","cityKana":"ﾀｷｻﾞﾜｼ","streetKana":"ｵｵｻﾜｺﾔﾁ","prefecture":"岩手県","city":"滝沢市","street":"大沢小谷地"},{"zipCode":"0200715","prefectureKana":"ｲﾜﾃｹﾝ","cityKana":"ﾀｷｻﾞﾜｼ","streetKana":"ｵｵｻﾜｼﾓﾔｼｷ","prefecture":"岩手県","city":"滝沢市","street":"大沢下屋敷"},{"zipCode":"0200713","prefectureKana":"ｲﾜﾃｹﾝ","cityKana":"ﾀｷｻﾞﾜｼ","streetKana":"ｵｵｻﾜｼﾝﾐﾁ","prefecture":"岩手県","city":"滝沢市","street":"大沢新道"},{"zipCode":"0200703","prefectureKana":"ｲﾜﾃｹﾝ","cityKana":"ﾀｷｻﾞﾜｼ","streetKana":"ｵｵｻﾜｾｷｱｲ","prefecture":"岩手県","city":"滝沢市","street":"大沢堰合"},{"zipCode":"0200707","prefectureKana":"ｲﾜﾃｹﾝ","cityKana":"ﾀｷｻﾞﾜｼ","streetKana":"ｵｵｻﾜﾀﾃ","prefecture":"岩手県","city":"滝沢市","street":"大沢館"},{"zipCode":"0200719","prefectureKana":"ｲﾜﾃｹﾝ","cityKana":"ﾀｷｻﾞﾜｼ","streetKana":"ｵｵｻﾜﾂﾙｺ","prefecture":"岩手県","city":"滝沢市","street":"大沢鶴子"},{"zipCode":"0200709","prefectureKana":"ｲﾜﾃｹﾝ","cityKana":"ﾀｷｻﾞﾜｼ","streetKana":"ｵｵｻﾜﾄﾔﾏﾉ","prefecture":"岩手県","city":"滝沢市","street":"大沢外山野"},{"zipCode":"0200712","prefectureKana":"ｲﾜﾃｹﾝ","cityKana":"ﾀｷｻﾞﾜｼ","streetKana":"ｵｵｻﾜﾅｶﾞﾂﾎﾞ","prefecture":"岩手県","city":"滝沢市","street":"大沢長坪"},{"zipCode":"0200708","prefectureKana":"ｲﾜﾃｹﾝ","cityKana":"ﾀｷｻﾞﾜｼ","streetKana":"ｵｵｻﾜﾊｼｷﾞﾀﾞｲﾗ","prefecture":"岩手県","city":"滝沢市","street":"大沢箸木平"},{"zipCode":"0200705","prefectureKana":"ｲﾜﾃｹﾝ","cityKana":"ﾀｷｻﾞﾜｼ","streetKana":"ｵｵｻﾜﾌﾀﾏﾀ","prefecture":"岩手県","city":"滝沢市","street":"大沢二タ又"},{"zipCode":"0200714","prefectureKana":"ｲﾜﾃｹﾝ","cityKana":"ﾀｷｻﾞﾜｼ","streetKana":"ｵｵｻﾜﾏｽﾑﾗ","prefecture":"岩手県","city":"滝沢市","street":"大沢舛村"},{"zipCode":"0200710","prefectureKana":"ｲﾜﾃｹﾝ","cityKana":"ﾀｷｻﾞﾜｼ","streetKana":"ｵｵｻﾜﾔｻｸﾊﾀ","prefecture":"岩手県","city":"滝沢市","street":"大沢弥作畑"},{"zipCode":"0200711","prefectureKana":"ｲﾜﾃｹﾝ","cityKana":"ﾀｷｻﾞﾜｼ","streetKana":"ｵｵｻﾜﾔﾁｶﾞﾐ","prefecture":"岩手県","city":"滝沢市","street":"大沢谷地上"},{"zipCode":"0200704","prefectureKana":"ｲﾜﾃｹﾝ","cityKana":"ﾀｷｻﾞﾜｼ","streetKana":"ｵｵｻﾜﾔﾁﾅｶ","prefecture":"岩手県","city":"滝沢市","street":"大沢谷地中"},{"zipCode":"0200717","prefectureKana":"ｲﾜﾃｹﾝ","cityKana":"ﾀｷｻﾞﾜｼ","streetKana":"ｵｵｻﾜﾖﾂﾔ","prefecture":"岩手県","city":"滝沢市","street":"大沢四つ家"},{"zipCode":"0200716","prefectureKana":"ｲﾜﾃｹﾝ","cityKana":"ﾀｷｻﾞﾜｼ","streetKana":"ｵｵｻﾜﾖﾈｸﾗ","prefecture":"岩手県","city":"滝沢市","street":"大沢米倉"},{"zipCode":"0200706","prefectureKana":"ｲﾜﾃｹﾝ","cityKana":"ﾀｷｻﾞﾜｼ","streetKana":"ｵｵｻﾜﾜｯﾀ","prefecture":"岩手県","city":"滝沢市","street":"大沢割田"},{"zipCode":"0200602","prefectureKana":"ｲﾜﾃｹﾝ","cityKana":"ﾀｷｻﾞﾜｼ","streetKana":"ｵｵﾓﾘﾀﾞｲﾗ","prefecture":"岩手県","city":"滝沢市","street":"大森平"},{"zipCode":"0200606","prefectureKana":"ｲﾜﾃｹﾝ","cityKana":"ﾀｷｻﾞﾜｼ","streetKana":"ｶｶﾞﾅｲ","prefecture":"岩手県","city":"滝沢市","street":"加賀内"},{"zipCode":"0200619","prefectureKana":"ｲﾜﾃｹﾝ","cityKana":"ﾀｷｻﾞﾜｼ","streetKana":"ｶﾐｲﾜﾃｻﾝ","prefecture":"岩手県","city":"滝沢市","street":"上岩手山"},{"zipCode":"0200687","prefectureKana":"ｲﾜﾃｹﾝ","cityKana":"ﾀｷｻﾞﾜｼ","streetKana":"ｶﾐｳｶｲ","prefecture":"岩手県","city":"滝沢市","street":"上鵜飼"},{"zipCode":"0200614","prefectureKana":"ｲﾜﾃｹﾝ","cityKana":"ﾀｷｻﾞﾜｼ","streetKana":"ｶﾐﾅｶﾑﾗ","prefecture":"岩手県","city":"滝沢市","street":"上中村"},{"zipCode":"0200646","prefectureKana":"ｲﾜﾃｹﾝ","cityKana":"ﾀｷｻﾞﾜｼ","streetKana":"ｸﾛｻﾜ","prefecture":"岩手県","city":"滝沢市","street":"黒沢"},{"zipCode":"0200624","prefectureKana":"ｲﾜﾃｹﾝ","cityKana":"ﾀｷｻﾞﾜｼ","streetKana":"ｻｲﾉｶﾐ","prefecture":"岩手県","city":"滝沢市","street":"妻の神"},{"zipCode":"0200723","prefectureKana":"ｲﾜﾃｹﾝ","cityKana":"ﾀｷｻﾞﾜｼ","streetKana":"ｼﾉｷﾞｱﾔｵﾘ","prefecture":"岩手県","city":"滝沢市","street":"篠木綾織"},{"zipCode":"0200726","prefectureKana":"ｲﾜﾃｹﾝ","cityKana":"ﾀｷｻﾞﾜｼ","streetKana":"ｼﾉｷﾞｱﾗﾔ","prefecture":"岩手県","city":"滝沢市","street":"篠木荒屋"},{"zipCode":"0200745","prefectureKana":"ｲﾜﾃｹﾝ","cityKana":"ﾀｷｻﾞﾜｼ","streetKana":"ｼﾉｷﾞｵｵﾃﾗｻﾜ","prefecture":"岩手県","city":"滝沢市","street":"篠木大寺沢"},{"zipCode":"0200742","prefectureKana":"ｲﾜﾃｹﾝ","cityKana":"ﾀｷｻﾞﾜｼ","streetKana":"ｼﾉｷﾞｵﾎﾞｹｻﾞﾜ","prefecture":"岩手県","city":"滝沢市","street":"篠木苧桶沢"},{"zipCode":"0200722","prefectureKana":"ｲﾜﾃｹﾝ","cityKana":"ﾀｷｻﾞﾜｼ","streetKana":"ｼﾉｷﾞｶﾐｱﾔｵﾘ","prefecture":"岩手県","city":"滝沢市","street":"篠木上綾織"},{"zipCode":"0200734","prefectureKana":"ｲﾜﾃｹﾝ","cityKana":"ﾀｷｻﾞﾜｼ","streetKana":"ｼﾉｷﾞｶﾐｸﾛﾊﾀ","prefecture":"岩手県","city":"滝沢市","street":"篠木上黒畑"},{"zipCode":"0200728","prefectureKana":"ｲﾜﾃｹﾝ","cityKana":"ﾀｷｻﾞﾜｼ","streetKana":"ｼﾉｷﾞｶﾐｼﾉｷﾞ","prefecture":"岩手県","city":"滝沢市","street":"篠木上篠木"},{"zipCode":"0200735","prefectureKana":"ｲﾜﾃｹﾝ","cityKana":"ﾀｷｻﾞﾜｼ","streetKana":"ｼﾉｷﾞｸﾛﾊﾀ","prefecture":"岩手県","city":"滝沢市","street":"篠木黒畑"},{"zipCode":"0200724","prefectureKana":"ｲﾜﾃｹﾝ","cityKana":"ﾀｷｻﾞﾜｼ","streetKana":"ｼﾉｷﾞｺﾔﾁ","prefecture":"岩手県","city":"滝沢市","street":"篠木小谷地"},{"zipCode":"0200736","prefectureKana":"ｲﾜﾃｹﾝ","cityKana":"ﾀｷｻﾞﾜｼ","streetKana":"ｼﾉｷﾞｻﾝｺﾞｳ","prefecture":"岩手県","city":"滝沢市","street":"篠木参郷"},{"zipCode":"0200738","prefectureKana":"ｲﾜﾃｹﾝ","cityKana":"ﾀｷｻﾞﾜｼ","streetKana":"ｼﾉｷﾞｻﾝｺﾞｳﾉﾓﾘ","prefecture":"岩手県","city":"滝沢市","street":"篠木参郷の森"},{"zipCode":"0200743","prefectureKana":"ｲﾜﾃｹﾝ","cityKana":"ﾀｷｻﾞﾜｼ","streetKana":"ｼﾉｷﾞｿﾄﾔﾏ","prefecture":"岩手県","city":"滝沢市","street":"篠木外山"},{"zipCode":"0200744","prefectureKana":"ｲﾜﾃｹﾝ","cityKana":"ﾀｷｻﾞﾜｼ","streetKana":"ｼﾉｷﾞﾀﾃｶﾞｻﾜ","prefecture":"岩手県","city":"滝沢市","street":"篠木館が沢"},{"zipCode":"0200737","prefectureKana":"ｲﾜﾃｹﾝ","cityKana":"ﾀｷｻﾞﾜｼ","streetKana":"ｼﾉｷﾞﾂﾂﾐ","prefecture":"岩手県","city":"滝沢市","street":"篠木堤"},{"zipCode":"0200732","prefectureKana":"ｲﾜﾃｹﾝ","cityKana":"ﾀｷｻﾞﾜｼ","streetKana":"ｼﾉｷﾞﾄｲﾉｸﾁ","prefecture":"岩手県","city":"滝沢市","street":"篠木樋の口"},{"zipCode":"0200727","prefectureKana":"ｲﾜﾃｹﾝ","cityKana":"ﾀｷｻﾞﾜｼ","streetKana":"ｼﾉｷﾞﾄﾔﾋﾗ","prefecture":"岩手県","city":"滝沢市","street":"篠木鳥谷平"},{"zipCode":"0200721","prefectureKana":"ｲﾜﾃｹﾝ","cityKana":"ﾀｷｻﾞﾜｼ","streetKana":"ｼﾉｷﾞﾅｶﾑﾗ","prefecture":"岩手県","city":"滝沢市","street":"篠木中村"},{"zipCode":"0200725","prefectureKana":"ｲﾜﾃｹﾝ","cityKana":"ﾀｷｻﾞﾜｼ","streetKana":"ｼﾉｷﾞﾅｶﾔｼｷ","prefecture":"岩手県","city":"滝沢市","street":"篠木中屋敷"},{"zipCode":"0200746","prefectureKana":"ｲﾜﾃｹﾝ","cityKana":"ﾀｷｻﾞﾜｼ","streetKana":"ｼﾉｷﾞﾆｻﾜｾ","prefecture":"岩手県","city":"滝沢市","street":"篠木仁沢瀬"},{"zipCode":"0200733","prefectureKana":"ｲﾜﾃｹﾝ","cityKana":"ﾀｷｻﾞﾜｼ","streetKana":"ｼﾉｷﾞﾏﾁﾊﾞ","prefecture":"岩手県","city":"滝沢市","street":"篠木待場"},{"zipCode":"0200731","prefectureKana":"ｲﾜﾃｹﾝ","cityKana":"ﾀｷｻﾞﾜｼ","streetKana":"ｼﾉｷﾞﾐｮｳﾎｳ","prefecture":"岩手県","city":"滝沢市","street":"篠木明法"},{"zipCode":"0200741","prefectureKana":"ｲﾜﾃｹﾝ","cityKana":"ﾀｷｻﾞﾜｼ","streetKana":"ｼﾉｷﾞﾔﾄﾘﾓﾘ","prefecture":"岩手県","city":"滝沢市","street":"篠木矢取森"},{"zipCode":"0200665","prefectureKana":"ｲﾜﾃｹﾝ","cityKana":"ﾀｷｻﾞﾜｼ","streetKana":"ｼﾓｳｶｲ","prefecture":"岩手県","city":"滝沢市","street":"下鵜飼"},{"zipCode":"0200611","prefectureKana":"ｲﾜﾃｹﾝ","cityKana":"ﾀｷｻﾞﾜｼ","streetKana":"ｽｺﾞ","prefecture":"岩手県","city":"滝沢市","street":"巣子"},{"zipCode":"0200605","prefectureKana":"ｲﾜﾃｹﾝ","cityKana":"ﾀｷｻﾞﾜｼ","streetKana":"ｽﾅｺﾐ","prefecture":"岩手県","city":"滝沢市","street":"砂込"},{"zipCode":"0200643","prefectureKana":"ｲﾜﾃｹﾝ","cityKana":"ﾀｷｻﾞﾜｼ","streetKana":"ｿﾄﾔﾏ","prefecture":"岩手県","city":"滝沢市","street":"外山"},{"zipCode":"0200645","prefectureKana":"ｲﾜﾃｹﾝ","cityKana":"ﾀｷｻﾞﾜｼ","streetKana":"ﾀｶﾔｼｷ","prefecture":"岩手県","city":"滝沢市","street":"高屋敷"},{"zipCode":"0200637","prefectureKana":"ｲﾜﾃｹﾝ","cityKana":"ﾀｷｻﾞﾜｼ","streetKana":"ﾀｶﾔｼｷﾀﾞｲﾗ","prefecture":"岩手県","city":"滝沢市","street":"高屋敷平"},{"zipCode":"0200608","prefectureKana":"ｲﾜﾃｹﾝ","cityKana":"ﾀｷｻﾞﾜｼ","streetKana":"ﾁｮｳﾀﾛｳﾊﾞﾔｼ","prefecture":"岩手県","city":"滝沢市","street":"長太郎林"},{"zipCode":"0200638","prefectureKana":"ｲﾜﾃｹﾝ","cityKana":"ﾀｷｻﾞﾜｼ","streetKana":"ﾂﾁｻﾞﾜ","prefecture":"岩手県","city":"滝沢市","street":"土沢"},{"zipCode":"0200616","prefectureKana":"ｲﾜﾃｹﾝ","cityKana":"ﾀｷｻﾞﾜｼ","streetKana":"ﾄｸｻｶﾞﾜ","prefecture":"岩手県","city":"滝沢市","street":"木賊川"},{"zipCode":"0200603","prefectureKana":"ｲﾜﾃｹﾝ","cityKana":"ﾀｷｻﾞﾜｼ","streetKana":"ﾄﾒｶﾞﾓﾘ","prefecture":"岩手県","city":"滝沢市","street":"留が森"},{"zipCode":"0200654","prefectureKana":"ｲﾜﾃｹﾝ","cityKana":"ﾀｷｻﾞﾜｼ","streetKana":"ﾅｶｳｶｲ","prefecture":"岩手県","city":"滝沢市","street":"中鵜飼"},{"zipCode":"0200642","prefectureKana":"ｲﾜﾃｹﾝ","cityKana":"ﾀｷｻﾞﾜｼ","streetKana":"ﾅｶﾑﾗ","prefecture":"岩手県","city":"滝沢市","street":"中村"},{"zipCode":"0200623","prefectureKana":"ｲﾜﾃｹﾝ","cityKana":"ﾀｷｻﾞﾜｼ","streetKana":"ﾅﾗﾉｷｻﾜ","prefecture":"岩手県","city":"滝沢市","street":"楢の木沢"},{"zipCode":"0200641","prefectureKana":"ｲﾜﾃｹﾝ","cityKana":"ﾀｷｻﾞﾜｼ","streetKana":"ﾈｷﾞﾔｼｷ","prefecture":"岩手県","city":"滝沢市","street":"祢宜屋敷"},{"zipCode":"0200631","prefectureKana":"ｲﾜﾃｹﾝ","cityKana":"ﾀｷｻﾞﾜｼ","streetKana":"ﾈﾎﾘｻﾞｶ","prefecture":"岩手県","city":"滝沢市","street":"根堀坂"},{"zipCode":"0200622","prefectureKana":"ｲﾜﾃｹﾝ","cityKana":"ﾀｷｻﾞﾜｼ","streetKana":"ﾉｻﾞﾜ","prefecture":"岩手県","city":"滝沢市","street":"野沢"},{"zipCode":"0200625","prefectureKana":"ｲﾜﾃｹﾝ","cityKana":"ﾀｷｻﾞﾜｼ","streetKana":"ﾊﾉｷｻﾜﾔﾏ","prefecture":"岩手県","city":"滝沢市","street":"葉の木沢山"},{"zipCode":"0200644","prefectureKana":"ｲﾜﾃｹﾝ","cityKana":"ﾀｷｻﾞﾜｼ","streetKana":"ﾍｲｿﾞｳｻﾜ","prefecture":"岩手県","city":"滝沢市","street":"平蔵沢"},{"zipCode":"0200632","prefectureKana":"ｲﾜﾃｹﾝ","cityKana":"ﾀｷｻﾞﾜｼ","streetKana":"ﾏｷﾉﾊﾞﾔｼ","prefecture":"岩手県","city":"滝沢市","street":"牧野林"},{"zipCode":"0200635","prefectureKana":"ｲﾜﾃｹﾝ","cityKana":"ﾀｷｻﾞﾜｼ","streetKana":"ﾐﾐﾄﾘﾔﾏ","prefecture":"岩手県","city":"滝沢市","street":"耳取山"},{"zipCode":"0200626","prefectureKana":"ｲﾜﾃｹﾝ","cityKana":"ﾀｷｻﾞﾜｼ","streetKana":"ﾐｮｳｼﾞﾝﾀﾞｲﾗ","prefecture":"岩手県","city":"滝沢市","street":"明神平"},{"zipCode":"0200634","prefectureKana":"ｲﾜﾃｹﾝ","cityKana":"ﾀｷｻﾞﾜｼ","streetKana":"ﾑﾛｺｳｼﾞ","prefecture":"岩手県","city":"滝沢市","street":"室小路"},{"zipCode":"0200612","prefectureKana":"ｲﾜﾃｹﾝ","cityKana":"ﾀｷｻﾞﾜｼ","streetKana":"ﾔﾅｷﾞｻﾜ","prefecture":"岩手県","city":"滝沢市","street":"柳沢"},{"zipCode":"0200609","prefectureKana":"ｲﾜﾃｹﾝ","cityKana":"ﾀｷｻﾞﾜｼ","streetKana":"ﾔﾅｷﾞﾊﾗ","prefecture":"岩手県","city":"滝沢市","street":"柳原"},{"zipCode":"0200607","prefectureKana":"ｲﾜﾃｹﾝ","cityKana":"ﾀｷｻﾞﾜｼ","streetKana":"ﾔﾍｲﾊﾞﾔｼ","prefecture":"岩手県","city":"滝沢市","street":"弥兵エ林"},{"zipCode":"0200617","prefectureKana":"ｲﾜﾃｹﾝ","cityKana":"ﾀｷｻﾞﾜｼ","streetKana":"ﾕﾌﾞﾈｻﾞﾜ","prefecture":"岩手県","city":"滝沢市","street":"湯舟沢"},{"zipCode":"0200500","prefectureKana":"ｲﾜﾃｹﾝ","cityKana":"ｲﾜﾃｸﾞﾝｼｽﾞｸｲｼﾁｮｳ","streetKana":"ｲｶﾆｹｲｻｲｶﾞﾅｲﾊﾞｱｲ","prefecture":"岩手県","city":"岩手郡雫石町","street":"以下に掲載がない場合"},{"zipCode":"0200502","prefectureKana":"ｲﾜﾃｹﾝ","cityKana":"ｲﾜﾃｸﾞﾝｼｽﾞｸｲｼﾁｮｳ","streetKana":"ｲﾀﾊﾞｼ","prefecture":"岩手県","city":"岩手郡雫石町","street":"板橋"},{"zipCode":"0200546","prefectureKana":"ｲﾜﾃｹﾝ","cityKana":"ｲﾜﾃｸﾞﾝｼｽﾞｸｲｼﾁｮｳ","streetKana":"ｲﾅﾘｼﾀ","prefecture":"岩手県","city":"岩手郡雫石町","street":"稲荷下"},{"zipCode":"0200583","prefectureKana":"ｲﾜﾃｹﾝ","cityKana":"ｲﾜﾃｸﾞﾝｼｽﾞｸｲｼﾁｮｳ","streetKana":"ｳﾜﾉ","prefecture":"岩手県","city":"岩手郡雫石町","street":"上野"},{"zipCode":"0200574","prefectureKana":"ｲﾜﾃｹﾝ","cityKana":"ｲﾜﾃｸﾞﾝｼｽﾞｸｲｼﾁｮｳ","streetKana":"ｵｳｼｭｸ","prefecture":"岩手県","city":"岩手郡雫石町","street":"鴬宿"},{"zipCode":"0200581","prefectureKana":"ｲﾜﾃｹﾝ","cityKana":"ｲﾜﾃｸﾞﾝｼｽﾞｸｲｼﾁｮｳ","streetKana":"ｵﾐｮｳｼﾞﾝ","prefecture":"岩手県","city":"岩手郡雫石町","street":"御明神"},{"zipCode":"0200544","prefectureKana":"ｲﾜﾃｹﾝ","cityKana":"ｲﾜﾃｸﾞﾝｼｽﾞｸｲｼﾁｮｳ","streetKana":"ｶｷｷ","prefecture":"岩手県","city":"岩手郡雫石町","street":"柿木"},{"zipCode":"0200559","prefectureKana":"ｲﾜﾃｹﾝ","cityKana":"ｲﾜﾃｸﾞﾝｼｽﾞｸｲｼﾁｮｳ","streetKana":"ｶﾐｻｻﾓﾘ","prefecture":"岩手県","city":"岩手郡雫石町","street":"上笹森"},{"zipCode":"0200555","prefectureKana":"ｲﾜﾃｹﾝ","cityKana":"ｲﾜﾃｸﾞﾝｼｽﾞｸｲｼﾁｮｳ","streetKana":"ｶﾐｿﾈﾀﾞ","prefecture":"岩手県","city":"岩手郡雫石町","street":"上曽根田"},{"zipCode":"0200557","prefectureKana":"ｲﾜﾃｹﾝ","cityKana":"ｲﾜﾃｸﾞﾝｼｽﾞｸｲｼﾁｮｳ","streetKana":"ｶﾐﾀﾞｲﾗ","prefecture":"岩手県","city":"岩手郡雫石町","street":"上平"},{"zipCode":"0200538","prefectureKana":"ｲﾜﾃｹﾝ","cityKana":"ｲﾜﾃｸﾞﾝｼｽﾞｸｲｼﾁｮｳ","streetKana":"ｶﾐﾏﾁｷﾀ","prefecture":"岩手県","city":"岩手郡雫石町","street":"上町北"},{"zipCode":"0200537","prefectureKana":"ｲﾜﾃｹﾝ","cityKana":"ｲﾜﾃｸﾞﾝｼｽﾞｸｲｼﾁｮｳ","streetKana":"ｶﾐﾏﾁﾆｼ","prefecture":"岩手県","city":"岩手郡雫石町","street":"上町西"},{"zipCode":"0200539","prefectureKana":"ｲﾜﾃｹﾝ","cityKana":"ｲﾜﾃｸﾞﾝｼｽﾞｸｲｼﾁｮｳ","streetKana":"ｶﾐﾏﾁﾋｶﾞｼ","prefecture":"岩手県","city":"岩手郡雫石町","street":"上町東"},{"zipCode":"0200530","prefectureKana":"ｲﾜﾃｹﾝ","cityKana":"ｲﾜﾃｸﾞﾝｼｽﾞｸｲｼﾁｮｳ","streetKana":"ｶﾐﾏﾁﾐﾅﾐ","prefecture":"岩手県","city":"岩手郡雫石町","street":"上町南"},{"zipCode":"0200534","prefectureKana":"ｲﾜﾃｹﾝ","cityKana":"ｲﾜﾃｸﾞﾝｼｽﾞｸｲｼﾁｮｳ","streetKana":"ｶﾜﾊﾗ","prefecture":"岩手県","city":"岩手郡雫石町","street":"川原"},{"zipCode":"0200517","prefectureKana":"ｲﾜﾃｹﾝ","cityKana":"ｲﾜﾃｸﾞﾝｼｽﾞｸｲｼﾁｮｳ","streetKana":"ｸﾛｻﾜｶﾞﾜ","prefecture":"岩手県","city":"岩手郡雫石町","street":"黒沢川"},{"zipCode":"0200525","prefectureKana":"ｲﾜﾃｹﾝ","cityKana":"ｲﾜﾃｸﾞﾝｼｽﾞｸｲｼﾁｮｳ","streetKana":"ｹﾞﾝﾀﾞｲﾄﾞｳ","prefecture":"岩手県","city":"岩手郡雫石町","street":"源大堂"},{"zipCode":"0200535","prefectureKana":"ｲﾜﾃｹﾝ","cityKana":"ｲﾜﾃｸﾞﾝｼｽﾞｸｲｼﾁｮｳ","streetKana":"ｺﾋﾞﾔﾁ","prefecture":"岩手県","city":"岩手郡雫石町","street":"小日谷地"},{"zipCode":"0200551","prefectureKana":"ｲﾜﾃｹﾝ","cityKana":"ｲﾜﾃｸﾞﾝｼｽﾞｸｲｼﾁｮｳ","streetKana":"ｻｻﾓﾘ","prefecture":"岩手県","city":"岩手郡雫石町","street":"笹森"},{"zipCode":"0200512","prefectureKana":"ｲﾜﾃｹﾝ","cityKana":"ｲﾜﾃｸﾞﾝｼｽﾞｸｲｼﾁｮｳ","streetKana":"ｼｵｶﾞﾓﾘ","prefecture":"岩手県","city":"岩手郡雫石町","street":"塩ケ森"},{"zipCode":"0200513","prefectureKana":"ｲﾜﾃｹﾝ","cityKana":"ｲﾜﾃｸﾞﾝｼｽﾞｸｲｼﾁｮｳ","streetKana":"ｼﾓｳｻｷﾞﾉ","prefecture":"岩手県","city":"岩手郡雫石町","street":"下兎野"},{"zipCode":"0200522","prefectureKana":"ｲﾜﾃｹﾝ","cityKana":"ｲﾜﾃｸﾞﾝｼｽﾞｸｲｼﾁｮｳ","streetKana":"ｼﾓｸﾎﾞ","prefecture":"岩手県","city":"岩手郡雫石町","street":"下久保"},{"zipCode":"0200558","prefectureKana":"ｲﾜﾃｹﾝ","cityKana":"ｲﾜﾃｸﾞﾝｼｽﾞｸｲｼﾁｮｳ","streetKana":"ｼﾓｻｻﾓﾘ","prefecture":"岩手県","city":"岩手郡雫石町","street":"下笹森"},{"zipCode":"0200553","prefectureKana":"ｲﾜﾃｹﾝ","cityKana":"ｲﾜﾃｸﾞﾝｼｽﾞｸｲｼﾁｮｳ","streetKana":"ｼﾓｿﾈﾀﾞ","prefecture":"岩手県","city":"岩手郡雫石町","street":"下曽根田"},{"zipCode":"0200552","prefectureKana":"ｲﾜﾃｹﾝ","cityKana":"ｲﾜﾃｸﾞﾝｼｽﾞｸｲｼﾁｮｳ","streetKana":"ｼﾓﾀﾞｲﾗ","prefecture":"岩手県","city":"岩手郡雫石町","street":"下平"},{"zipCode":"0200515","prefectureKana":"ｲﾜﾃｹﾝ","cityKana":"ｲﾜﾃｸﾞﾝｼｽﾞｸｲｼﾁｮｳ","streetKana":"ｼﾓﾅｶﾞﾈ","prefecture":"岩手県","city":"岩手郡雫石町","street":"下長根"},{"zipCode":"0200528","prefectureKana":"ｲﾜﾃｹﾝ","cityKana":"ｲﾜﾃｸﾞﾝｼｽﾞｸｲｼﾁｮｳ","streetKana":"ｼﾓﾏﾁ","prefecture":"岩手県","city":"岩手郡雫石町","street":"下町"},{"zipCode":"0200529","prefectureKana":"ｲﾜﾃｹﾝ","cityKana":"ｲﾜﾃｸﾞﾝｼｽﾞｸｲｼﾁｮｳ","streetKana":"ｼﾓﾏﾁﾆｼ","prefecture":"岩手県","city":"岩手郡雫石町","street":"下町西"},{"zipCode":"0200520","prefectureKana":"ｲﾜﾃｹﾝ","cityKana":"ｲﾜﾃｸﾞﾝｼｽﾞｸｲｼﾁｮｳ","streetKana":"ｼﾓﾏﾁﾋｶﾞｼ","prefecture":"岩手県","city":"岩手郡雫石町","street":"下町東"},{"zipCode":"0200541","prefectureKana":"ｲﾜﾃｹﾝ","cityKana":"ｲﾜﾃｸﾞﾝｼｽﾞｸｲｼﾁｮｳ","streetKana":"ｾﾝｶﾞﾘﾀﾞ","prefecture":"岩手県","city":"岩手郡雫石町","street":"千刈田"},{"zipCode":"0200521","prefectureKana":"ｲﾜﾃｹﾝ","cityKana":"ｲﾜﾃｸﾞﾝｼｽﾞｸｲｼﾁｮｳ","streetKana":"ｿﾂﾀﾞ","prefecture":"岩手県","city":"岩手郡雫石町","street":"麁津田"},{"zipCode":"0200543","prefectureKana":"ｲﾜﾃｹﾝ","cityKana":"ｲﾜﾃｸﾞﾝｼｽﾞｸｲｼﾁｮｳ","streetKana":"ﾀｶﾏｴﾀﾞ","prefecture":"岩手県","city":"岩手郡雫石町","street":"高前田"},{"zipCode":"0200571","prefectureKana":"ｲﾜﾃｹﾝ","cityKana":"ｲﾜﾃｸﾞﾝｼｽﾞｸｲｼﾁｮｳ","streetKana":"ﾂﾅｷﾞ","prefecture":"岩手県","city":"岩手郡雫石町","street":"繋"},{"zipCode":"0200524","prefectureKana":"ｲﾜﾃｹﾝ","cityKana":"ｲﾜﾃｸﾞﾝｼｽﾞｸｲｼﾁｮｳ","streetKana":"ﾃﾗﾉｼﾀ","prefecture":"岩手県","city":"岩手郡雫石町","street":"寺の下"},{"zipCode":"0200505","prefectureKana":"ｲﾜﾃｹﾝ","cityKana":"ｲﾜﾃｸﾞﾝｼｽﾞｸｲｼﾁｮｳ","streetKana":"ﾅｶｸﾛｻﾜｶﾞﾜ","prefecture":"岩手県","city":"岩手郡雫石町","street":"中黒沢川"},{"zipCode":"0200504","prefectureKana":"ｲﾜﾃｹﾝ","cityKana":"ｲﾜﾃｸﾞﾝｼｽﾞｸｲｼﾁｮｳ","streetKana":"ﾅｶﾇﾏ","prefecture":"岩手県","city":"岩手郡雫石町","street":"中沼"},{"zipCode":"0200527","prefectureKana":"ｲﾜﾃｹﾝ","cityKana":"ｲﾜﾃｸﾞﾝｼｽﾞｸｲｼﾁｮｳ","streetKana":"ﾅｶﾏﾁ","prefecture":"岩手県","city":"岩手郡雫石町","street":"中町"},{"zipCode":"0200511","prefectureKana":"ｲﾜﾃｹﾝ","cityKana":"ｲﾜﾃｸﾞﾝｼｽﾞｸｲｼﾁｮｳ","streetKana":"ﾅｶﾞﾊﾀ","prefecture":"岩手県","city":"岩手郡雫石町","street":"長畑"},{"zipCode":"0200585","prefectureKana":"ｲﾜﾃｹﾝ","cityKana":"ｲﾜﾃｸﾞﾝｼｽﾞｸｲｼﾁｮｳ","streetKana":"ﾅｶﾞﾔﾏ","prefecture":"岩手県","city":"岩手郡雫石町","street":"長山"},{"zipCode":"0200556","prefectureKana":"ｲﾜﾃｹﾝ","cityKana":"ｲﾜﾃｸﾞﾝｼｽﾞｸｲｼﾁｮｳ","streetKana":"ﾅｺﾞ","prefecture":"岩手県","city":"岩手郡雫石町","street":"名子"},{"zipCode":"0200503","prefectureKana":"ｲﾜﾃｹﾝ","cityKana":"ｲﾜﾃｸﾞﾝｼｽﾞｸｲｼﾁｮｳ","streetKana":"ﾅﾅﾂﾓﾘ","prefecture":"岩手県","city":"岩手郡雫石町","street":"七ツ森"},{"zipCode":"0200501","prefectureKana":"ｲﾜﾃｹﾝ","cityKana":"ｲﾜﾃｸﾞﾝｼｽﾞｸｲｼﾁｮｳ","streetKana":"ﾆｻｾ","prefecture":"岩手県","city":"岩手郡雫石町","street":"仁佐瀬"},{"zipCode":"0200572","prefectureKana":"ｲﾜﾃｹﾝ","cityKana":"ｲﾜﾃｸﾞﾝｼｽﾞｸｲｼﾁｮｳ","streetKana":"ﾆｼｱﾆﾜ","prefecture":"岩手県","city":"岩手郡雫石町","street":"西安庭"},{"zipCode":"0200584","prefectureKana":"ｲﾜﾃｹﾝ","cityKana":"ｲﾜﾃｸﾞﾝｼｽﾞｸｲｼﾁｮｳ","streetKana":"ﾆｼﾈ","prefecture":"岩手県","city":"岩手郡雫石町","street":"西根"},{"zipCode":"0200506","prefectureKana":"ｲﾜﾃｹﾝ","cityKana":"ｲﾜﾃｸﾞﾝｼｽﾞｸｲｼﾁｮｳ","streetKana":"ﾇﾏｶﾞｴｼ","prefecture":"岩手県","city":"岩手郡雫石町","street":"沼返"},{"zipCode":"0200523","prefectureKana":"ｲﾜﾃｹﾝ","cityKana":"ｲﾜﾃｸﾞﾝｼｽﾞｸｲｼﾁｮｳ","streetKana":"ﾈﾎﾘ","prefecture":"岩手県","city":"岩手郡雫石町","street":"根堀"},{"zipCode":"0200514","prefectureKana":"ｲﾜﾃｹﾝ","cityKana":"ｲﾜﾃｸﾞﾝｼｽﾞｸｲｼﾁｮｳ","streetKana":"ﾉﾅｶ","prefecture":"岩手県","city":"岩手郡雫石町","street":"野中"},{"zipCode":"0200582","prefectureKana":"ｲﾜﾃｹﾝ","cityKana":"ｲﾜﾃｸﾞﾝｼｽﾞｸｲｼﾁｮｳ","streetKana":"ﾊｼﾊﾞ","prefecture":"岩手県","city":"岩手郡雫石町","street":"橋場"},{"zipCode":"0200536","prefectureKana":"ｲﾜﾃｹﾝ","cityKana":"ｲﾜﾃｸﾞﾝｼｽﾞｸｲｼﾁｮｳ","streetKana":"ﾊﾂｹ","prefecture":"岩手県","city":"岩手郡雫石町","street":"八卦"},{"zipCode":"0200533","prefectureKana":"ｲﾜﾃｹﾝ","cityKana":"ｲﾜﾃｸﾞﾝｼｽﾞｸｲｼﾁｮｳ","streetKana":"ﾊﾔｼ","prefecture":"岩手県","city":"岩手郡雫石町","street":"林"},{"zipCode":"0200532","prefectureKana":"ｲﾜﾃｹﾝ","cityKana":"ｲﾜﾃｸﾞﾝｼｽﾞｸｲｼﾁｮｳ","streetKana":"ﾊﾗｲｶﾞﾜ","prefecture":"岩手県","city":"岩手郡雫石町","street":"払川"},{"zipCode":"0200547","prefectureKana":"ｲﾜﾃｹﾝ","cityKana":"ｲﾜﾃｸﾞﾝｼｽﾞｸｲｼﾁｮｳ","streetKana":"ﾊﾚﾔﾏ","prefecture":"岩手県","city":"岩手郡雫石町","street":"晴山"},{"zipCode":"0200554","prefectureKana":"ｲﾜﾃｹﾝ","cityKana":"ｲﾜﾃｸﾞﾝｼｽﾞｸｲｼﾁｮｳ","streetKana":"ﾏﾁｳﾗ","prefecture":"岩手県","city":"岩手郡雫石町","street":"町裏"},{"zipCode":"0200531","prefectureKana":"ｲﾜﾃｹﾝ","cityKana":"ｲﾜﾃｸﾞﾝｼｽﾞｸｲｼﾁｮｳ","streetKana":"ﾏﾐﾀﾞ","prefecture":"岩手県","city":"岩手郡雫石町","street":"麻見田"},{"zipCode":"0200507","prefectureKana":"ｲﾜﾃｹﾝ","cityKana":"ｲﾜﾃｸﾞﾝｼｽﾞｸｲｼﾁｮｳ","streetKana":"ﾏﾙﾔﾁ","prefecture":"岩手県","city":"岩手郡雫石町","street":"丸谷地"},{"zipCode":"0200542","prefectureKana":"ｲﾜﾃｹﾝ","cityKana":"ｲﾜﾃｸﾞﾝｼｽﾞｸｲｼﾁｮｳ","streetKana":"ﾏﾝﾀﾞﾜﾀﾘ","prefecture":"岩手県","city":"岩手郡雫石町","street":"万田渡"},{"zipCode":"0200573","prefectureKana":"ｲﾜﾃｹﾝ","cityKana":"ｲﾜﾃｸﾞﾝｼｽﾞｸｲｼﾁｮｳ","streetKana":"ﾐﾅﾐﾊﾀ","prefecture":"岩手県","city":"岩手郡雫石町","street":"南畑"},{"zipCode":"0200545","prefectureKana":"ｲﾜﾃｹﾝ","cityKana":"ｲﾜﾃｸﾞﾝｼｽﾞｸｲｼﾁｮｳ","streetKana":"ﾔﾁ","prefecture":"岩手県","city":"岩手郡雫石町","street":"谷地"},{"zipCode":"0200891","prefectureKana":"ｲﾜﾃｹﾝ","cityKana":"ｼﾜｸﾞﾝﾔﾊﾊﾞﾁｮｳ","streetKana":"ﾘｭｳﾂｳｾﾝﾀｰﾐﾅﾐ","prefecture":"岩手県","city":"紫波郡矢巾町","street":"流通センター南"}]