[{"zipCode":"0210000","prefectureKana":"ｲﾜﾃｹﾝ","cityKana":"ｲﾁﾉｾｷｼ","streetKana":"ｲｶﾆｹｲｻｲｶﾞﾅｲﾊﾞｱｲ","prefecture":"岩手県","city":"一関市","street":"以下に掲載がない場合"},{"zipCode":"0210853","prefectureKana":"ｲﾜﾃｹﾝ","cityKana":"ｲﾁﾉｾｷｼ","streetKana":"ｱｲｻﾘ","prefecture":"岩手県","city":"一関市","street":"相去"},{"zipCode":"0210031","prefectureKana":"ｲﾜﾃｹﾝ","cityKana":"ｲﾁﾉｾｷｼ","streetKana":"ｱｵﾊﾞ","prefecture":"岩手県","city":"一関市","street":"青葉"},{"zipCode":"0210041","prefectureKana":"ｲﾜﾃｹﾝ","cityKana":"ｲﾁﾉｾｷｼ","streetKana":"ｱｺｵｷﾞ","prefecture":"岩手県","city":"一関市","street":"赤荻"},{"zipCode":"0210864","prefectureKana":"ｲﾜﾃｹﾝ","cityKana":"ｲﾁﾉｾｷｼ","streetKana":"ｱｻﾋﾁｮｳ","prefecture":"岩手県","city":"一関市","street":"旭町"},{"zipCode":"0210008","prefectureKana":"ｲﾜﾃｹﾝ","cityKana":"ｲﾁﾉｾｷｼ","streetKana":"ｲｼﾊﾞﾀｹ","prefecture":"岩手県","city":"一関市","street":"石畑"},{"zipCode":"0210894","prefectureKana":"ｲﾜﾃｹﾝ","cityKana":"ｲﾁﾉｾｷｼ","streetKana":"ｲﾜｲﾁｮｳ","prefecture":"岩手県","city":"一関市","street":"磐井町"},{"zipCode":"0210834","prefectureKana":"ｲﾜﾃｹﾝ","cityKana":"ｲﾁﾉｾｷｼ","streetKana":"ｳﾅﾝ","prefecture":"岩手県","city":"一関市","street":"宇南"},{"zipCode":"0210867","prefectureKana":"ｲﾜﾃｹﾝ","cityKana":"ｲﾁﾉｾｷｼ","streetKana":"ｴｷﾏｴ","prefecture":"岩手県","city":"一関市","street":"駅前"},{"zipCode":"0210884","prefectureKana":"ｲﾜﾃｹﾝ","cityKana":"ｲﾁﾉｾｷｼ","streetKana":"ｵｵﾃﾏﾁ","prefecture":"岩手県","city":"一関市","street":"大手町"},{"zipCode":"0210881","prefectureKana":"ｲﾜﾃｹﾝ","cityKana":"ｲﾁﾉｾｷｼ","streetKana":"ｵｵﾏﾁ","prefecture":"岩手県","city":"一関市","street":"大町"},{"zipCode":"0210882","prefectureKana":"ｲﾜﾃｹﾝ","cityKana":"ｲﾁﾉｾｷｼ","streetKana":"ｶﾐｵｵﾂｷｺｳｼﾞ","prefecture":"岩手県","city":"一関市","street":"上大槻街"},{"zipCode":"0210007","prefectureKana":"ｲﾜﾃｹﾝ","cityKana":"ｲﾁﾉｾｷｼ","streetKana":"ｶﾐﾋﾃﾞﾘ","prefecture":"岩手県","city":"一関市","street":"上日照"},{"zipCode":"0210833","prefectureKana":"ｲﾜﾃｹﾝ","cityKana":"ｲﾁﾉｾｷｼ","streetKana":"ｶﾗｶｲ","prefecture":"岩手県","city":"一関市","street":"柄貝"},{"zipCode":"0210802","prefectureKana":"ｲﾜﾃｹﾝ","cityKana":"ｲﾁﾉｾｷｼ","streetKana":"ｷﾀｼﾞｭｯｹﾝｺｳｼﾞ","prefecture":"岩手県","city":"一関市","street":"北十軒街"},{"zipCode":"0210814","prefectureKana":"ｲﾜﾃｹﾝ","cityKana":"ｲﾁﾉｾｷｼ","streetKana":"ｷﾀﾎｳﾘｮｳ","prefecture":"岩手県","city":"一関市","street":"北ほうりょう"},{"zipCode":"0210811","prefectureKana":"ｲﾜﾃｹﾝ","cityKana":"ｲﾁﾉｾｷｼ","streetKana":"ｸﾎﾞ","prefecture":"岩手県","city":"一関市","street":"久保"},{"zipCode":"0210101","prefectureKana":"ｲﾜﾃｹﾝ","cityKana":"ｲﾁﾉｾｷｼ","streetKana":"ｹﾞﾝﾋﾞﾁｮｳ","prefecture":"岩手県","city":"一関市","street":"厳美町"},{"zipCode":"0210804","prefectureKana":"ｲﾜﾃｹﾝ","cityKana":"ｲﾁﾉｾｷｼ","streetKana":"ｺﾞｼﾞｭｳﾆﾝﾏﾁ","prefecture":"岩手県","city":"一関市","street":"五十人町"},{"zipCode":"0210022","prefectureKana":"ｲﾜﾃｹﾝ","cityKana":"ｲﾁﾉｾｷｼ","streetKana":"ｺﾞﾀﾞｲﾁｮｳ","prefecture":"岩手県","city":"一関市","street":"五代町"},{"zipCode":"0210052","prefectureKana":"ｲﾜﾃｹﾝ","cityKana":"ｲﾁﾉｾｷｼ","streetKana":"ｺﾄﾌﾞｷﾁｮｳ","prefecture":"岩手県","city":"一関市","street":"寿町"},{"zipCode":"0210024","prefectureKana":"ｲﾜﾃｹﾝ","cityKana":"ｲﾁﾉｾｷｼ","streetKana":"ｻｲﾜｲﾁｮｳ","prefecture":"岩手県","city":"一関市","street":"幸町"},{"zipCode":"0210891","prefectureKana":"ｲﾜﾃｹﾝ","cityKana":"ｲﾁﾉｾｷｼ","streetKana":"ｻｸﾗｷﾞﾁｮｳ","prefecture":"岩手県","city":"一関市","street":"桜木町"},{"zipCode":"0210801","prefectureKana":"ｲﾜﾃｹﾝ","cityKana":"ｲﾁﾉｾｷｼ","streetKana":"ｻｸﾗｺｳｼﾞ","prefecture":"岩手県","city":"一関市","street":"桜街"},{"zipCode":"0210852","prefectureKana":"ｲﾜﾃｹﾝ","cityKana":"ｲﾁﾉｾｷｼ","streetKana":"ｻﾜ","prefecture":"岩手県","city":"一関市","street":"沢"},{"zipCode":"0210832","prefectureKana":"ｲﾜﾃｹﾝ","cityKana":"ｲﾁﾉｾｷｼ","streetKana":"ｻﾝﾀ","prefecture":"岩手県","city":"一関市","street":"散田"},{"zipCode":"0210821","prefectureKana":"ｲﾜﾃｹﾝ","cityKana":"ｲﾁﾉｾｷｼ","streetKana":"ｻﾝﾉｾｷ","prefecture":"岩手県","city":"一関市","street":"三関"},{"zipCode":"0210893","prefectureKana":"ｲﾜﾃｹﾝ","cityKana":"ｲﾁﾉｾｷｼ","streetKana":"ｼﾞｼｭﾏﾁ","prefecture":"岩手県","city":"一関市","street":"地主町"},{"zipCode":"0210806","prefectureKana":"ｲﾜﾃｹﾝ","cityKana":"ｲﾁﾉｾｷｼ","streetKana":"ｼﾓｵｵﾂｷｺｳｼﾞ","prefecture":"岩手県","city":"一関市","street":"下大槻街"},{"zipCode":"0210877","prefectureKana":"ｲﾜﾃｹﾝ","cityKana":"ｲﾁﾉｾｷｼ","streetKana":"ｼﾞｮｳﾅｲ","prefecture":"岩手県","city":"一関市","street":"城内"},{"zipCode":"0210006","prefectureKana":"ｲﾜﾃｹﾝ","cityKana":"ｲﾁﾉｾｷｼ","streetKana":"ｼﾞｮｳﾎﾞｳ","prefecture":"岩手県","city":"一関市","street":"上坊"},{"zipCode":"0210883","prefectureKana":"ｲﾜﾃｹﾝ","cityKana":"ｲﾁﾉｾｷｼ","streetKana":"ｼﾝｵｵﾏﾁ","prefecture":"岩手県","city":"一関市","street":"新大町"},{"zipCode":"0210001","prefectureKana":"ｲﾜﾃｹﾝ","cityKana":"ｲﾁﾉｾｷｼ","streetKana":"ｼﾝﾏﾁ","prefecture":"岩手県","city":"一関市","street":"新町"},{"zipCode":"0210841","prefectureKana":"ｲﾜﾃｹﾝ","cityKana":"ｲﾁﾉｾｷｼ","streetKana":"ｽｲｶﾜｺｳｼﾞ","prefecture":"岩手県","city":"一関市","street":"吸川街"},{"zipCode":"0210032","prefectureKana":"ｲﾜﾃｹﾝ","cityKana":"ｲﾁﾉｾｷｼ","streetKana":"ｽｴﾋﾛ","prefecture":"岩手県","city":"一関市","street":"末広"},{"zipCode":"0210851","prefectureKana":"ｲﾜﾃｹﾝ","cityKana":"ｲﾁﾉｾｷｼ","streetKana":"ｾｷｶﾞｵｶ","prefecture":"岩手県","city":"一関市","street":"関が丘"},{"zipCode":"0210873","prefectureKana":"ｲﾜﾃｹﾝ","cityKana":"ｲﾁﾉｾｷｼ","streetKana":"ﾀﾞｲﾏﾁ","prefecture":"岩手県","city":"一関市","street":"台町"},{"zipCode":"0210875","prefectureKana":"ｲﾜﾃｹﾝ","cityKana":"ｲﾁﾉｾｷｼ","streetKana":"ﾀｶｻｷﾁｮｳ","prefecture":"岩手県","city":"一関市","street":"高崎町"},{"zipCode":"0210027","prefectureKana":"ｲﾜﾃｹﾝ","cityKana":"ｲﾁﾉｾｷｼ","streetKana":"ﾀｹﾔﾏﾁｮｳ","prefecture":"岩手県","city":"一関市","street":"竹山町"},{"zipCode":"0210885","prefectureKana":"ｲﾜﾃｹﾝ","cityKana":"ｲﾁﾉｾｷｼ","streetKana":"ﾀﾑﾗﾁｮｳ","prefecture":"岩手県","city":"一関市","street":"田村町"},{"zipCode":"0210844","prefectureKana":"ｲﾜﾃｹﾝ","cityKana":"ｲﾁﾉｾｷｼ","streetKana":"ﾀﾝﾏﾁ","prefecture":"岩手県","city":"一関市","street":"反町"},{"zipCode":"0210021","prefectureKana":"ｲﾜﾃｹﾝ","cityKana":"ｲﾁﾉｾｷｼ","streetKana":"ﾁｭｳｵｳﾁｮｳ","prefecture":"岩手県","city":"一関市","street":"中央町"},{"zipCode":"0210862","prefectureKana":"ｲﾜﾃｹﾝ","cityKana":"ｲﾁﾉｾｷｼ","streetKana":"ﾁﾖﾀﾞﾁｮｳ","prefecture":"岩手県","city":"一関市","street":"千代田町"},{"zipCode":"0210874","prefectureKana":"ｲﾜﾃｹﾝ","cityKana":"ｲﾁﾉｾｷｼ","streetKana":"ﾂﾘﾔﾏ","prefecture":"岩手県","city":"一関市","street":"釣山"},{"zipCode":"0210023","prefectureKana":"ｲﾜﾃｹﾝ","cityKana":"ｲﾁﾉｾｷｼ","streetKana":"ﾄﾞｳﾔﾁｮｳ","prefecture":"岩手県","city":"一関市","street":"銅谷町"},{"zipCode":"0210005","prefectureKana":"ｲﾜﾃｹﾝ","cityKana":"ｲﾁﾉｾｷｼ","streetKana":"ﾅｶｻﾄ(ｻﾜﾀﾞ)","prefecture":"岩手県","city":"一関市","street":"中里（沢田）"},{"zipCode":"0210002","prefectureKana":"ｲﾜﾃｹﾝ","cityKana":"ｲﾁﾉｾｷｼ","streetKana":"ﾅｶｻﾄ(ｿﾉﾀ)","prefecture":"岩手県","city":"一関市","street":"中里（その他）"},{"zipCode":"0210836","prefectureKana":"ｲﾜﾃｹﾝ","cityKana":"ｲﾁﾉｾｷｼ","streetKana":"ﾅﾙｶﾞﾐ","prefecture":"岩手県","city":"一関市","street":"鳴神"},{"zipCode":"0210865","prefectureKana":"ｲﾜﾃｹﾝ","cityKana":"ｲﾁﾉｾｷｼ","streetKana":"ﾆｲﾔﾏ","prefecture":"岩手県","city":"一関市","street":"新山"},{"zipCode":"0210854","prefectureKana":"ｲﾜﾃｹﾝ","cityKana":"ｲﾁﾉｾｷｼ","streetKana":"ﾆｼｻﾞﾜ","prefecture":"岩手県","city":"一関市","street":"西沢"},{"zipCode":"0210835","prefectureKana":"ｲﾜﾃｹﾝ","cityKana":"ｲﾁﾉｾｷｼ","streetKana":"ﾆﾎﾝｷﾞ","prefecture":"岩手県","city":"一関市","street":"二本木"},{"zipCode":"0210831","prefectureKana":"ｲﾜﾃｹﾝ","cityKana":"ｲﾁﾉｾｷｼ","streetKana":"ﾇﾏﾀ","prefecture":"岩手県","city":"一関市","street":"沼田"},{"zipCode":"0210102","prefectureKana":"ｲﾜﾃｹﾝ","cityKana":"ｲﾁﾉｾｷｼ","streetKana":"ﾊｷﾞｼｮｳ(ｱｶｲﾉｺ､ｱｼﾉｸﾁ､ｱﾏﾜﾗﾋﾞ､ｵｲﾅｶﾞﾚ､ｵｵｻﾜ､ｶﾐｳﾂﾉ､ｶﾐﾎﾝｺﾞｳ､ｶﾐﾖｳｶﾞｲ､ｹｼｮｳ","prefecture":"岩手県","city":"一関市","street":"萩荘（赤猪子、芦ノ口、甘蕨、老流、大沢、上宇津野、上本郷、上要害、化粧"},{"zipCode":"0210102","prefectureKana":"ｲﾜﾃｹﾝ","cityKana":"ｲﾁﾉｾｷｼ","streetKana":"ｻﾞｶ､ｻﾝｶﾞﾂﾀﾞ､ｼﾓｳﾂﾉ､ｼﾓﾎﾝｺﾞｳ､ｿﾃﾞﾔﾏ､ﾄﾞｳﾉｻﾜ､ﾄﾁｸﾗ､ﾄﾁｸﾗﾐﾅﾐ､ﾅｶﾞｸﾗ､ﾅｶｻﾞﾜ､","prefecture":"岩手県","city":"一関市","street":"坂、三月田、下宇津野、下本郷、外山、堂の沢、栃倉、栃倉南、長倉、中沢、"},{"zipCode":"0210102","prefectureKana":"ｲﾜﾃｹﾝ","cityKana":"ｲﾁﾉｾｷｼ","streetKana":"ﾊﾁﾓﾘ､ﾊﾞﾊﾞ､ﾋﾛｵﾓﾃ､ﾋﾗﾊﾞ､ﾌﾙｶﾏﾊﾞ､ﾏｶﾞﾘﾌﾁ､ﾏﾂﾊﾞﾗ､ﾐﾅﾐｻﾞﾜ､ﾔｷﾞ､ﾔｯｷﾘ､ﾔｾ､","prefecture":"岩手県","city":"一関市","street":"八森、馬場、広面、平場、古釜場、曲淵、松原、南沢、谷起、焼切、八瀬、"},{"zipCode":"0210102","prefectureKana":"ｲﾜﾃｹﾝ","cityKana":"ｲﾁﾉｾｷｼ","streetKana":"ﾔﾊﾀ､ﾔﾏﾉｻﾜ)","prefecture":"岩手県","city":"一関市","street":"八幡、山ノ沢）"},{"zipCode":"0210902","prefectureKana":"ｲﾜﾃｹﾝ","cityKana":"ｲﾁﾉｾｷｼ","streetKana":"ﾊｷﾞｼｮｳ(ｿﾉﾀ)","prefecture":"岩手県","city":"一関市","street":"萩荘（その他）"},{"zipCode":"0210861","prefectureKana":"ｲﾜﾃｹﾝ","cityKana":"ｲﾁﾉｾｷｼ","streetKana":"ﾊﾀｵﾘﾔﾏ","prefecture":"岩手県","city":"一関市","street":"機織山"},{"zipCode":"0210871","prefectureKana":"ｲﾜﾃｹﾝ","cityKana":"ｲﾁﾉｾｷｼ","streetKana":"ﾊﾁﾏﾝﾁｮｳ","prefecture":"岩手県","city":"一関市","street":"八幡町"},{"zipCode":"0210807","prefectureKana":"ｲﾜﾃｹﾝ","cityKana":"ｲﾁﾉｾｷｼ","streetKana":"ﾋｶﾞｼｶｵｳﾁｮｳ","prefecture":"岩手県","city":"一関市","street":"東花王町"},{"zipCode":"0210003","prefectureKana":"ｲﾜﾃｹﾝ","cityKana":"ｲﾁﾉｾｷｼ","streetKana":"ﾋｶﾞｼｺﾞﾀﾞｲ","prefecture":"岩手県","city":"一関市","street":"東五代"},{"zipCode":"0210892","prefectureKana":"ｲﾜﾃｹﾝ","cityKana":"ｲﾁﾉｾｷｼ","streetKana":"ﾋｶﾞｼｼﾞｼｭﾏﾁ","prefecture":"岩手県","city":"一関市","street":"東地主町"},{"zipCode":"0210822","prefectureKana":"ｲﾜﾃｹﾝ","cityKana":"ｲﾁﾉｾｷｼ","streetKana":"ﾋｶﾞｼﾀﾞｲ","prefecture":"岩手県","city":"一関市","street":"東台"},{"zipCode":"0210876","prefectureKana":"ｲﾜﾃｹﾝ","cityKana":"ｲﾁﾉｾｷｼ","streetKana":"ﾋﾛｺｳｼﾞ","prefecture":"岩手県","city":"一関市","street":"広街"},{"zipCode":"0210812","prefectureKana":"ｲﾜﾃｹﾝ","cityKana":"ｲﾁﾉｾｷｼ","streetKana":"ﾋﾜﾀｼ","prefecture":"岩手県","city":"一関市","street":"樋渡"},{"zipCode":"0210843","prefectureKana":"ｲﾜﾃｹﾝ","cityKana":"ｲﾁﾉｾｷｼ","streetKana":"ﾌｶﾏﾁ","prefecture":"岩手県","city":"一関市","street":"深町"},{"zipCode":"0210221","prefectureKana":"ｲﾜﾃｹﾝ","cityKana":"ｲﾁﾉｾｷｼ","streetKana":"ﾏｲｶﾜ","prefecture":"岩手県","city":"一関市","street":"舞川"},{"zipCode":"0210901","prefectureKana":"ｲﾜﾃｹﾝ","cityKana":"ｲﾁﾉｾｷｼ","streetKana":"ﾏｼﾊﾞ","prefecture":"岩手県","city":"一関市","street":"真柴"},{"zipCode":"0210004","prefectureKana":"ｲﾜﾃｹﾝ","cityKana":"ｲﾁﾉｾｷｼ","streetKana":"ﾏﾁｳﾗ","prefecture":"岩手県","city":"一関市","street":"町浦"},{"zipCode":"0210803","prefectureKana":"ｲﾜﾃｹﾝ","cityKana":"ｲﾁﾉｾｷｼ","streetKana":"ﾐﾅﾐｼﾞｭｯｹﾝｺｳｼﾞ","prefecture":"岩手県","city":"一関市","street":"南十軒街"},{"zipCode":"0210866","prefectureKana":"ｲﾜﾃｹﾝ","cityKana":"ｲﾁﾉｾｷｼ","streetKana":"ﾐﾅﾐｼﾝﾏﾁ","prefecture":"岩手県","city":"一関市","street":"南新町"},{"zipCode":"0210813","prefectureKana":"ｲﾜﾃｹﾝ","cityKana":"ｲﾁﾉｾｷｼ","streetKana":"ﾐﾅﾐﾎｳﾘｮｳ","prefecture":"岩手県","city":"一関市","street":"南ほうりょう"},{"zipCode":"0210863","prefectureKana":"ｲﾜﾃｹﾝ","cityKana":"ｲﾁﾉｾｷｼ","streetKana":"ﾐﾅﾐﾏﾁ","prefecture":"岩手県","city":"一関市","street":"南町"},{"zipCode":"0210872","prefectureKana":"ｲﾜﾃｹﾝ","cityKana":"ｲﾁﾉｾｷｼ","streetKana":"ﾐﾔｻｶﾁｮｳ","prefecture":"岩手県","city":"一関市","street":"宮坂町"},{"zipCode":"0210013","prefectureKana":"ｲﾜﾃｹﾝ","cityKana":"ｲﾁﾉｾｷｼ","streetKana":"ﾐﾔｼﾀﾁｮｳ","prefecture":"岩手県","city":"一関市","street":"宮下町"},{"zipCode":"0210012","prefectureKana":"ｲﾜﾃｹﾝ","cityKana":"ｲﾁﾉｾｷｼ","streetKana":"ﾐﾔﾏｴﾁｮｳ","prefecture":"岩手県","city":"一関市","street":"宮前町"},{"zipCode":"0210842","prefectureKana":"ｲﾜﾃｹﾝ","cityKana":"ｲﾁﾉｾｷｼ","streetKana":"ﾔﾅｷﾞﾏﾁ","prefecture":"岩手県","city":"一関市","street":"柳町"},{"zipCode":"0210063","prefectureKana":"ｲﾜﾃｹﾝ","cityKana":"ｲﾁﾉｾｷｼ","streetKana":"ﾔﾏﾉﾒ(ｵｵﾂｷ)","prefecture":"岩手県","city":"一関市","street":"山目（大槻）"},{"zipCode":"0210035","prefectureKana":"ｲﾜﾃｹﾝ","cityKana":"ｲﾁﾉｾｷｼ","streetKana":"ﾔﾏﾉﾒ(ｻｲﾃﾝ)","prefecture":"岩手県","city":"一関市","street":"山目（才天）"},{"zipCode":"0210054","prefectureKana":"ｲﾜﾃｹﾝ","cityKana":"ｲﾁﾉｾｷｼ","streetKana":"ﾔﾏﾉﾒ(ｻｶｲ)","prefecture":"岩手県","city":"一関市","street":"山目（境）"},{"zipCode":"0210033","prefectureKana":"ｲﾜﾃｹﾝ","cityKana":"ｲﾁﾉｾｷｼ","streetKana":"ﾔﾏﾉﾒ(ｻﾄﾏｴ)","prefecture":"岩手県","city":"一関市","street":"山目（里前）"},{"zipCode":"0210064","prefectureKana":"ｲﾜﾃｹﾝ","cityKana":"ｲﾁﾉｾｷｼ","streetKana":"ﾔﾏﾉﾒ(ｻﾜｳﾁ)","prefecture":"岩手県","city":"一関市","street":"山目（沢内）"},{"zipCode":"0210051","prefectureKana":"ｲﾜﾃｹﾝ","cityKana":"ｲﾁﾉｾｷｼ","streetKana":"ﾔﾏﾉﾒ(ｻﾝﾀﾝﾀﾞ)","prefecture":"岩手県","city":"一関市","street":"山目（三反田）"},{"zipCode":"0210036","prefectureKana":"ｲﾜﾃｹﾝ","cityKana":"ｲﾁﾉｾｷｼ","streetKana":"ﾔﾏﾉﾒ(ｼﾞｭｳﾆｼﾞﾝ)","prefecture":"岩手県","city":"一関市","street":"山目（十二神）"},{"zipCode":"0210034","prefectureKana":"ｲﾜﾃｹﾝ","cityKana":"ｲﾁﾉｾｷｼ","streetKana":"ﾔﾏﾉﾒ(ﾀﾁｻﾞﾜ)","prefecture":"岩手県","city":"一関市","street":"山目（立沢）"},{"zipCode":"0210061","prefectureKana":"ｲﾜﾃｹﾝ","cityKana":"ｲﾁﾉｾｷｼ","streetKana":"ﾔﾏﾉﾒ(ﾀﾃ)","prefecture":"岩手県","city":"一関市","street":"山目（館）"},{"zipCode":"0210062","prefectureKana":"ｲﾜﾃｹﾝ","cityKana":"ｲﾁﾉｾｷｼ","streetKana":"ﾔﾏﾉﾒ(ﾃﾗﾏｴ)","prefecture":"岩手県","city":"一関市","street":"山目（寺前）"},{"zipCode":"0210055","prefectureKana":"ｲﾜﾃｹﾝ","cityKana":"ｲﾁﾉｾｷｼ","streetKana":"ﾔﾏﾉﾒ(ﾄﾞﾛﾀ)","prefecture":"岩手県","city":"一関市","street":"山目（泥田）"},{"zipCode":"0210056","prefectureKana":"ｲﾜﾃｹﾝ","cityKana":"ｲﾁﾉｾｷｼ","streetKana":"ﾔﾏﾉﾒ(ﾄﾞﾛﾀﾔﾏｼﾀ)","prefecture":"岩手県","city":"一関市","street":"山目（泥田山下）"},{"zipCode":"0210053","prefectureKana":"ｲﾜﾃｹﾝ","cityKana":"ｲﾁﾉｾｷｼ","streetKana":"ﾔﾏﾉﾒ(ﾅｶﾉ)","prefecture":"岩手県","city":"一関市","street":"山目（中野）"},{"zipCode":"0210026","prefectureKana":"ｲﾜﾃｹﾝ","cityKana":"ｲﾁﾉｾｷｼ","streetKana":"ﾔﾏﾉﾒ(ﾏｴﾀﾞ)","prefecture":"岩手県","city":"一関市","street":"山目（前田）"},{"zipCode":"0210025","prefectureKana":"ｲﾜﾃｹﾝ","cityKana":"ｲﾁﾉｾｷｼ","streetKana":"ﾔﾏﾉﾒ(ﾑｶｲﾉ)","prefecture":"岩手県","city":"一関市","street":"山目（向野）"},{"zipCode":"0210011","prefectureKana":"ｲﾜﾃｹﾝ","cityKana":"ｲﾁﾉｾｷｼ","streetKana":"ﾔﾏﾉﾒﾏﾁ","prefecture":"岩手県","city":"一関市","street":"山目町"},{"zipCode":"0210805","prefectureKana":"ｲﾜﾃｹﾝ","cityKana":"ｲﾁﾉｾｷｼ","streetKana":"ﾕﾀｶﾏﾁ","prefecture":"岩手県","city":"一関市","street":"豊町"},{"zipCode":"0210815","prefectureKana":"ｲﾜﾃｹﾝ","cityKana":"ｲﾁﾉｾｷｼ","streetKana":"ﾖｳｶﾞｲ","prefecture":"岩手県","city":"一関市","street":"要害"},{"zipCode":"0210014","prefectureKana":"ｲﾜﾃｹﾝ","cityKana":"ｲﾁﾉｾｷｼ","streetKana":"ﾗﾝﾊﾞｲﾁｮｳ","prefecture":"岩手県","city":"一関市","street":"蘭梅町"}]