[{"zipCode":"0220000","prefectureKana":"ｲﾜﾃｹﾝ","cityKana":"ｵｵﾌﾅﾄｼ","streetKana":"ｲｶﾆｹｲｻｲｶﾞﾅｲﾊﾞｱｲ","prefecture":"岩手県","city":"大船渡市","street":"以下に掲載がない場合"},{"zipCode":"0220007","prefectureKana":"ｲﾜﾃｹﾝ","cityKana":"ｵｵﾌﾅﾄｼ","streetKana":"ｱｶｻｷﾁｮｳ","prefecture":"岩手県","city":"大船渡市","street":"赤崎町"},{"zipCode":"0220004","prefectureKana":"ｲﾜﾃｹﾝ","cityKana":"ｵｵﾌﾅﾄｼ","streetKana":"ｲｶﾜﾁｮｳ","prefecture":"岩手県","city":"大船渡市","street":"猪川町"},{"zipCode":"0220002","prefectureKana":"ｲﾜﾃｹﾝ","cityKana":"ｵｵﾌﾅﾄｼ","streetKana":"ｵｵﾌﾅﾄﾁｮｳ","prefecture":"岩手県","city":"大船渡市","street":"大船渡町"},{"zipCode":"0220003","prefectureKana":"ｲﾜﾃｹﾝ","cityKana":"ｵｵﾌﾅﾄｼ","streetKana":"ｻｶﾘﾁｮｳ","prefecture":"岩手県","city":"大船渡市","street":"盛町"},{"zipCode":"0220101","prefectureKana":"ｲﾜﾃｹﾝ","cityKana":"ｵｵﾌﾅﾄｼ","streetKana":"ｻﾝﾘｸﾁｮｳｵｷﾗｲ","prefecture":"岩手県","city":"大船渡市","street":"三陸町越喜来"},{"zipCode":"0220102","prefectureKana":"ｲﾜﾃｹﾝ","cityKana":"ｵｵﾌﾅﾄｼ","streetKana":"ｻﾝﾘｸﾁｮｳﾖｼﾊﾏ","prefecture":"岩手県","city":"大船渡市","street":"三陸町吉浜"},{"zipCode":"0220211","prefectureKana":"ｲﾜﾃｹﾝ","cityKana":"ｵｵﾌﾅﾄｼ","streetKana":"ｻﾝﾘｸﾁｮｳﾘｮｳﾘ","prefecture":"岩手県","city":"大船渡市","street":"三陸町綾里"},{"zipCode":"0220006","prefectureKana":"ｲﾜﾃｹﾝ","cityKana":"ｵｵﾌﾅﾄｼ","streetKana":"ﾀｯｺﾝﾁｮｳ","prefecture":"岩手県","city":"大船渡市","street":"立根町"},{"zipCode":"0220005","prefectureKana":"ｲﾜﾃｹﾝ","cityKana":"ｵｵﾌﾅﾄｼ","streetKana":"ﾋｺﾛｲﾁﾁｮｳ","prefecture":"岩手県","city":"大船渡市","street":"日頃市町"},{"zipCode":"0220001","prefectureKana":"ｲﾜﾃｹﾝ","cityKana":"ｵｵﾌﾅﾄｼ","streetKana":"ﾏｯｻｷﾁｮｳ","prefecture":"岩手県","city":"大船渡市","street":"末崎町"}]