[{"zipCode":"0300846","prefectureKana":"ｱｵﾓﾘｹﾝ","cityKana":"ｱｵﾓﾘｼ","streetKana":"ｱｵﾊﾞ","prefecture":"青森県","city":"青森市","street":"青葉"},{"zipCode":"0300811","prefectureKana":"ｱｵﾓﾘｹﾝ","cityKana":"ｱｵﾓﾘｼ","streetKana":"ｱｵﾔｷﾞ","prefecture":"青森県","city":"青森市","street":"青柳"},{"zipCode":"0300956","prefectureKana":"ｱｵﾓﾘｹﾝ","cityKana":"ｱｵﾓﾘｼ","streetKana":"ｱｶｻｶ","prefecture":"青森県","city":"青森市","street":"赤坂"},{"zipCode":"0300851","prefectureKana":"ｱｵﾓﾘｹﾝ","cityKana":"ｱｵﾓﾘｼ","streetKana":"ｱｻﾋﾁｮｳ","prefecture":"青森県","city":"青森市","street":"旭町"},{"zipCode":"0300111","prefectureKana":"ｱｵﾓﾘｹﾝ","cityKana":"ｱｵﾓﾘｼ","streetKana":"ｱﾗｶﾜ","prefecture":"青森県","city":"青森市","street":"荒川"},{"zipCode":"0300922","prefectureKana":"ｱｵﾓﾘｹﾝ","cityKana":"ｱｵﾓﾘｼ","streetKana":"ｲｽﾞﾐﾉ","prefecture":"青森県","city":"青森市","street":"泉野"},{"zipCode":"0300136","prefectureKana":"ｱｵﾓﾘｹﾝ","cityKana":"ｱｵﾓﾘｼ","streetKana":"ｳｼﾀﾃ","prefecture":"青森県","city":"青森市","street":"牛館"},{"zipCode":"0301262","prefectureKana":"ｱｵﾓﾘｹﾝ","cityKana":"ｱｵﾓﾘｼ","streetKana":"ｳｼﾛｶﾞﾀ","prefecture":"青森県","city":"青森市","street":"後潟"},{"zipCode":"0300932","prefectureKana":"ｱｵﾓﾘｹﾝ","cityKana":"ｱｵﾓﾘｼ","streetKana":"ｳｼﾛﾔﾁ","prefecture":"青森県","city":"青森市","street":"後萢"},{"zipCode":"0300842","prefectureKana":"ｱｵﾓﾘｹﾝ","cityKana":"ｱｵﾓﾘｼ","streetKana":"ｳﾗﾏﾁ","prefecture":"青森県","city":"青森市","street":"浦町"},{"zipCode":"0300141","prefectureKana":"ｱｵﾓﾘｹﾝ","cityKana":"ｱｵﾓﾘｼ","streetKana":"ｳﾜﾉ","prefecture":"青森県","city":"青森市","street":"上野"},{"zipCode":"0300155","prefectureKana":"ｱｵﾓﾘｹﾝ","cityKana":"ｱｵﾓﾘｼ","streetKana":"ｵｵﾀﾆ","prefecture":"青森県","city":"青森市","street":"大谷"},{"zipCode":"0300852","prefectureKana":"ｱｵﾓﾘｹﾝ","cityKana":"ｱｵﾓﾘｼ","streetKana":"ｵｵﾉ","prefecture":"青森県","city":"青森市","street":"大野"},{"zipCode":"0300144","prefectureKana":"ｱｵﾓﾘｹﾝ","cityKana":"ｱｵﾓﾘｼ","streetKana":"ｵｵﾍﾞﾂﾅｲ","prefecture":"青森県","city":"青森市","street":"大別内"},{"zipCode":"0300123","prefectureKana":"ｱｵﾓﾘｹﾝ","cityKana":"ｱｵﾓﾘｼ","streetKana":"ｵｵﾔｻﾜ","prefecture":"青森県","city":"青森市","street":"大矢沢"},{"zipCode":"0300914","prefectureKana":"ｱｵﾓﾘｹﾝ","cityKana":"ｱｵﾓﾘｼ","streetKana":"ｵｶﾂｸﾘﾐﾁ","prefecture":"青森県","city":"青森市","street":"岡造道"},{"zipCode":"0300841","prefectureKana":"ｱｵﾓﾘｹﾝ","cityKana":"ｱｵﾓﾘｼ","streetKana":"ｵｸﾉ","prefecture":"青森県","city":"青森市","street":"奥野"},{"zipCode":"0300143","prefectureKana":"ｱｵﾓﾘｹﾝ","cityKana":"ｱｵﾓﾘｼ","streetKana":"ｵﾊﾞﾀｹｻﾞﾜ","prefecture":"青森県","city":"青森市","street":"小畑沢"},{"zipCode":"0300137","prefectureKana":"ｱｵﾓﾘｹﾝ","cityKana":"ｱｵﾓﾘｼ","streetKana":"ｵﾛｼﾏﾁ","prefecture":"青森県","city":"青森市","street":"卸町"},{"zipCode":"0300821","prefectureKana":"ｱｵﾓﾘｹﾝ","cityKana":"ｱｵﾓﾘｼ","streetKana":"ｶｯﾀ","prefecture":"青森県","city":"青森市","street":"勝田"},{"zipCode":"0300902","prefectureKana":"ｱｵﾓﾘｹﾝ","cityKana":"ｱｵﾓﾘｼ","streetKana":"ｶﾞｯﾎﾟ","prefecture":"青森県","city":"青森市","street":"合浦"},{"zipCode":"0300844","prefectureKana":"ｱｵﾓﾘｹﾝ","cityKana":"ｱｵﾓﾘｼ","streetKana":"ｶﾂﾗｷﾞ","prefecture":"青森県","city":"青森市","street":"桂木"},{"zipCode":"0300853","prefectureKana":"ｱｵﾓﾘｹﾝ","cityKana":"ｱｵﾓﾘｼ","streetKana":"ｶﾅｻﾞﾜ","prefecture":"青森県","city":"青森市","street":"金沢"},{"zipCode":"0300145","prefectureKana":"ｱｵﾓﾘｹﾝ","cityKana":"ｱｵﾓﾘｼ","streetKana":"ｶﾈﾊﾏ","prefecture":"青森県","city":"青森市","street":"金浜"},{"zipCode":"0300855","prefectureKana":"ｱｵﾓﾘｹﾝ","cityKana":"ｱｵﾓﾘｼ","streetKana":"ｷﾀｶﾅｻﾞﾜ","prefecture":"青森県","city":"青森市","street":"北金沢"},{"zipCode":"0300935","prefectureKana":"ｱｵﾓﾘｹﾝ","cityKana":"ｱｵﾓﾘｼ","streetKana":"ｸﾜﾊﾞﾗ","prefecture":"青森県","city":"青森市","street":"桑原"},{"zipCode":"0300918","prefectureKana":"ｱｵﾓﾘｹﾝ","cityKana":"ｱｵﾓﾘｼ","streetKana":"ｹﾔｷ","prefecture":"青森県","city":"青森市","street":"けやき"},{"zipCode":"0300134","prefectureKana":"ｱｵﾓﾘｹﾝ","cityKana":"ｱｵﾓﾘｼ","streetKana":"ｺﾞｳｼｻﾞﾜ","prefecture":"青森県","city":"青森市","street":"合子沢"},{"zipCode":"0300943","prefectureKana":"ｱｵﾓﾘｹﾝ","cityKana":"ｱｵﾓﾘｼ","streetKana":"ｺｳﾊﾞﾀ","prefecture":"青森県","city":"青森市","street":"幸畑"},{"zipCode":"0300153","prefectureKana":"ｱｵﾓﾘｹﾝ","cityKana":"ｱｵﾓﾘｼ","streetKana":"ｺﾀﾞﾃ","prefecture":"青森県","city":"青森市","street":"小館"},{"zipCode":"0301272","prefectureKana":"ｱｵﾓﾘｹﾝ","cityKana":"ｱｵﾓﾘｼ","streetKana":"ｺﾊﾞｼ","prefecture":"青森県","city":"青森市","street":"小橋"},{"zipCode":"0300954","prefectureKana":"ｱｵﾓﾘｹﾝ","cityKana":"ｱｵﾓﾘｼ","streetKana":"ｺﾏｺﾞﾒ(ﾂｷﾐﾉ)","prefecture":"青森県","city":"青森市","street":"駒込（月見野）"},{"zipCode":"0300953","prefectureKana":"ｱｵﾓﾘｹﾝ","cityKana":"ｱｵﾓﾘｼ","streetKana":"ｺﾏｺﾞﾒ(ﾎﾀﾙｻﾞﾜ)","prefecture":"青森県","city":"青森市","street":"駒込（蛍沢）"},{"zipCode":"0300955","prefectureKana":"ｱｵﾓﾘｹﾝ","cityKana":"ｱｵﾓﾘｼ","streetKana":"ｺﾏｺﾞﾒ(ｿﾉﾀ)","prefecture":"青森県","city":"青森市","street":"駒込（その他）"},{"zipCode":"0300915","prefectureKana":"ｱｵﾓﾘｹﾝ","cityKana":"ｱｵﾓﾘｼ","streetKana":"ｺﾔﾅｷﾞ","prefecture":"青森県","city":"青森市","street":"小柳"},{"zipCode":"0300903","prefectureKana":"ｱｵﾓﾘｹﾝ","cityKana":"ｱｵﾓﾘｼ","streetKana":"ｻｶｴﾏﾁ","prefecture":"青森県","city":"青森市","street":"栄町"},{"zipCode":"0300945","prefectureKana":"ｱｵﾓﾘｹﾝ","cityKana":"ｱｵﾓﾘｼ","streetKana":"ｻｸﾗｶﾞﾜ","prefecture":"青森県","city":"青森市","street":"桜川"},{"zipCode":"0300942","prefectureKana":"ｱｵﾓﾘｹﾝ","cityKana":"ｱｵﾓﾘｼ","streetKana":"ｻﾜﾔﾏ","prefecture":"青森県","city":"青森市","street":"沢山"},{"zipCode":"0301261","prefectureKana":"ｱｵﾓﾘｹﾝ","cityKana":"ｱｵﾓﾘｼ","streetKana":"ｼﾄﾊﾞｼ","prefecture":"青森県","city":"青森市","street":"四戸橋"},{"zipCode":"0300941","prefectureKana":"ｱｵﾓﾘｹﾝ","cityKana":"ｱｵﾓﾘｼ","streetKana":"ｼﾞﾕｳｶﾞｵｶ","prefecture":"青森県","city":"青森市","street":"自由ケ丘"},{"zipCode":"0300801","prefectureKana":"ｱｵﾓﾘｹﾝ","cityKana":"ｱｵﾓﾘｼ","streetKana":"ｼﾝﾏﾁ","prefecture":"青森県","city":"青森市","street":"新町"},{"zipCode":"0300135","prefectureKana":"ｱｵﾓﾘｹﾝ","cityKana":"ｱｵﾓﾘｼ","streetKana":"ｼﾝﾏﾁﾉ","prefecture":"青森県","city":"青森市","street":"新町野"},{"zipCode":"0300933","prefectureKana":"ｱｵﾓﾘｹﾝ","cityKana":"ｱｵﾓﾘｼ","streetKana":"ｽﾜﾉｻﾜ","prefecture":"青森県","city":"青森市","street":"諏訪沢"},{"zipCode":"0300854","prefectureKana":"ｱｵﾓﾘｹﾝ","cityKana":"ｱｵﾓﾘｼ","streetKana":"ｾﾝﾄﾐﾁｮｳ","prefecture":"青森県","city":"青森市","street":"千富町"},{"zipCode":"0300113","prefectureKana":"ｱｵﾓﾘｹﾝ","cityKana":"ｱｵﾓﾘｼ","streetKana":"ﾀﾞｲﾆﾄﾝﾔﾏﾁ","prefecture":"青森県","city":"青森市","street":"第二問屋町"},{"zipCode":"0300931","prefectureKana":"ｱｵﾓﾘｹﾝ","cityKana":"ｱｵﾓﾘｼ","streetKana":"ﾀｲﾗｼﾝﾃﾞﾝ","prefecture":"青森県","city":"青森市","street":"平新田"},{"zipCode":"0300151","prefectureKana":"ｱｵﾓﾘｹﾝ","cityKana":"ｱｵﾓﾘｼ","streetKana":"ﾀｶﾀﾞ","prefecture":"青森県","city":"青森市","street":"高田"},{"zipCode":"0300924","prefectureKana":"ｱｵﾓﾘｹﾝ","cityKana":"ｱｵﾓﾘｼ","streetKana":"ﾀｷｻﾜ(ｼﾓｶﾜﾗ190-1)","prefecture":"青森県","city":"青森市","street":"滝沢（下川原１９０－１）"},{"zipCode":"0300124","prefectureKana":"ｱｵﾓﾘｹﾝ","cityKana":"ｱｵﾓﾘｼ","streetKana":"ﾀﾓｷﾞﾉ","prefecture":"青森県","city":"青森市","street":"田茂木野"},{"zipCode":"0300916","prefectureKana":"ｱｵﾓﾘｹﾝ","cityKana":"ｱｵﾓﾘｼ","streetKana":"ﾀﾔｼｷ","prefecture":"青森県","city":"青森市","street":"田屋敷"},{"zipCode":"0300904","prefectureKana":"ｱｵﾓﾘｹﾝ","cityKana":"ｱｵﾓﾘｼ","streetKana":"ﾁｬﾔﾏﾁ","prefecture":"青森県","city":"青森市","street":"茶屋町"},{"zipCode":"0300822","prefectureKana":"ｱｵﾓﾘｹﾝ","cityKana":"ｱｵﾓﾘｼ","streetKana":"ﾁｭｳｵｳ","prefecture":"青森県","city":"青森市","street":"中央"},{"zipCode":"0300925","prefectureKana":"ｱｵﾓﾘｹﾝ","cityKana":"ｱｵﾓﾘｼ","streetKana":"ﾂｷﾉｷﾀﾞﾃ","prefecture":"青森県","city":"青森市","street":"築木館"},{"zipCode":"0300958","prefectureKana":"ｱｵﾓﾘｹﾝ","cityKana":"ｱｵﾓﾘｼ","streetKana":"ﾂｷﾐﾉ","prefecture":"青森県","city":"青森市","street":"月見野"},{"zipCode":"0300962","prefectureKana":"ｱｵﾓﾘｹﾝ","cityKana":"ｱｵﾓﾘｼ","streetKana":"ﾂｸﾀﾞ","prefecture":"青森県","city":"青森市","street":"佃"},{"zipCode":"0300911","prefectureKana":"ｱｵﾓﾘｹﾝ","cityKana":"ｱｵﾓﾘｼ","streetKana":"ﾂｸﾘﾐﾁ","prefecture":"青森県","city":"青森市","street":"造道"},{"zipCode":"0300944","prefectureKana":"ｱｵﾓﾘｹﾝ","cityKana":"ｱｵﾓﾘｼ","streetKana":"ﾂﾂｲ","prefecture":"青森県","city":"青森市","street":"筒井"},{"zipCode":"0300812","prefectureKana":"ｱｵﾓﾘｹﾝ","cityKana":"ｱｵﾓﾘｼ","streetKana":"ﾂﾂﾐﾏﾁ","prefecture":"青森県","city":"青森市","street":"堤町"},{"zipCode":"0300934","prefectureKana":"ｱｵﾓﾘｹﾝ","cityKana":"ｱｵﾓﾘｼ","streetKana":"ﾄｻﾞｷ","prefecture":"青森県","city":"青森市","street":"戸崎"},{"zipCode":"0300952","prefectureKana":"ｱｵﾓﾘｹﾝ","cityKana":"ｱｵﾓﾘｼ","streetKana":"ﾄﾔﾏ(ｱｶｻｶ)","prefecture":"青森県","city":"青森市","street":"戸山（赤坂）"},{"zipCode":"0300951","prefectureKana":"ｱｵﾓﾘｹﾝ","cityKana":"ｱｵﾓﾘｼ","streetKana":"ﾄﾔﾏ(ｿﾉﾀ)","prefecture":"青森県","city":"青森市","street":"戸山（その他）"},{"zipCode":"0300131","prefectureKana":"ｱｵﾓﾘｹﾝ","cityKana":"ｱｵﾓﾘｼ","streetKana":"ﾄﾝﾔﾏﾁ","prefecture":"青森県","city":"青森市","street":"問屋町"},{"zipCode":"0300861","prefectureKana":"ｱｵﾓﾘｹﾝ","cityKana":"ｱｵﾓﾘｼ","streetKana":"ﾅｶﾞｼﾏ","prefecture":"青森県","city":"青森市","street":"長島"},{"zipCode":"0300963","prefectureKana":"ｱｵﾓﾘｹﾝ","cityKana":"ｱｵﾓﾘｼ","streetKana":"ﾅｶﾂｸﾀﾞ","prefecture":"青森県","city":"青森市","street":"中佃"},{"zipCode":"0300961","prefectureKana":"ｱｵﾓﾘｹﾝ","cityKana":"ｱｵﾓﾘｼ","streetKana":"ﾅﾐｳﾁ","prefecture":"青森県","city":"青森市","street":"浪打"},{"zipCode":"0300856","prefectureKana":"ｱｵﾓﾘｹﾝ","cityKana":"ｱｵﾓﾘｼ","streetKana":"ﾆｼｵｵﾉ","prefecture":"青森県","city":"青森市","street":"西大野"},{"zipCode":"0300948","prefectureKana":"ｱｵﾓﾘｹﾝ","cityKana":"ｱｵﾓﾘｼ","streetKana":"ﾆｼﾞｶﾞｵｶ","prefecture":"青森県","city":"青森市","street":"虹ケ丘"},{"zipCode":"0300154","prefectureKana":"ｱｵﾓﾘｹﾝ","cityKana":"ｱｵﾓﾘｼ","streetKana":"ﾆｭｳﾅｲ","prefecture":"青森県","city":"青森市","street":"入内"},{"zipCode":"0300142","prefectureKana":"ｱｵﾓﾘｹﾝ","cityKana":"ｱｵﾓﾘｼ","streetKana":"ﾉｷﾞ","prefecture":"青森県","city":"青森市","street":"野木"},{"zipCode":"0300152","prefectureKana":"ｱｵﾓﾘｹﾝ","cityKana":"ｱｵﾓﾘｼ","streetKana":"ﾉｻﾞﾜ","prefecture":"青森県","city":"青森市","street":"野沢"},{"zipCode":"0300122","prefectureKana":"ｱｵﾓﾘｹﾝ","cityKana":"ｱｵﾓﾘｼ","streetKana":"ﾉｼﾞﾘ","prefecture":"青森県","city":"青森市","street":"野尻"},{"zipCode":"0300823","prefectureKana":"ｱｵﾓﾘｹﾝ","cityKana":"ｱｵﾓﾘｼ","streetKana":"ﾊｼﾓﾄ","prefecture":"青森県","city":"青森市","street":"橋本"},{"zipCode":"0300966","prefectureKana":"ｱｵﾓﾘｹﾝ","cityKana":"ｱｵﾓﾘｼ","streetKana":"ﾊﾅｿﾞﾉ","prefecture":"青森県","city":"青森市","street":"花園"},{"zipCode":"0300843","prefectureKana":"ｱｵﾓﾘｹﾝ","cityKana":"ｱｵﾓﾘｼ","streetKana":"ﾊﾏﾀﾞ","prefecture":"青森県","city":"青森市","street":"浜田"},{"zipCode":"0300947","prefectureKana":"ｱｵﾓﾘｹﾝ","cityKana":"ｱｵﾓﾘｼ","streetKana":"ﾊﾏﾀﾞﾃ","prefecture":"青森県","city":"青森市","street":"浜館"},{"zipCode":"0300919","prefectureKana":"ｱｵﾓﾘｹﾝ","cityKana":"ｱｵﾓﾘｼ","streetKana":"ﾊﾏﾅｽ","prefecture":"青森県","city":"青森市","street":"はまなす"},{"zipCode":"0300921","prefectureKana":"ｱｵﾓﾘｹﾝ","cityKana":"ｱｵﾓﾘｼ","streetKana":"ﾊﾗﾍﾞﾂ","prefecture":"青森県","city":"青森市","street":"原別"},{"zipCode":"0300847","prefectureKana":"ｱｵﾓﾘｹﾝ","cityKana":"ｱｵﾓﾘｼ","streetKana":"ﾋｶﾞｼｵｵﾉ","prefecture":"青森県","city":"青森市","street":"東大野"},{"zipCode":"0300913","prefectureKana":"ｱｵﾓﾘｹﾝ","cityKana":"ｱｵﾓﾘｼ","streetKana":"ﾋｶﾞｼﾂｸﾘﾐﾁ","prefecture":"青森県","city":"青森市","street":"東造道"},{"zipCode":"0301273","prefectureKana":"ｱｵﾓﾘｹﾝ","cityKana":"ｱｵﾓﾘｼ","streetKana":"ﾋﾀﾞﾘｾﾞｷ","prefecture":"青森県","city":"青森市","street":"左堰"},{"zipCode":"0300862","prefectureKana":"ｱｵﾓﾘｹﾝ","cityKana":"ｱｵﾓﾘｼ","streetKana":"ﾌﾙｶﾜ","prefecture":"青森県","city":"青森市","street":"古川"},{"zipCode":"0300946","prefectureKana":"ｱｵﾓﾘｹﾝ","cityKana":"ｱｵﾓﾘｼ","streetKana":"ﾌﾙﾀﾞﾃ","prefecture":"青森県","city":"青森市","street":"古館"},{"zipCode":"0300957","prefectureKana":"ｱｵﾓﾘｹﾝ","cityKana":"ｱｵﾓﾘｼ","streetKana":"ﾎﾀﾙｻﾞﾜ","prefecture":"青森県","city":"青森市","street":"蛍沢"},{"zipCode":"0300802","prefectureKana":"ｱｵﾓﾘｹﾝ","cityKana":"ｱｵﾓﾘｼ","streetKana":"ﾎﾝﾁｮｳ","prefecture":"青森県","city":"青森市","street":"本町"},{"zipCode":"0300813","prefectureKana":"ｱｵﾓﾘｹﾝ","cityKana":"ｱｵﾓﾘｼ","streetKana":"ﾏﾂﾊﾞﾗ","prefecture":"青森県","city":"青森市","street":"松原"},{"zipCode":"0300965","prefectureKana":"ｱｵﾓﾘｹﾝ","cityKana":"ｱｵﾓﾘｼ","streetKana":"ﾏﾂﾓﾘ","prefecture":"青森県","city":"青森市","street":"松森"},{"zipCode":"0300845","prefectureKana":"ｱｵﾓﾘｹﾝ","cityKana":"ｱｵﾓﾘｼ","streetKana":"ﾐﾄﾞﾘ","prefecture":"青森県","city":"青森市","street":"緑"},{"zipCode":"0300901","prefectureKana":"ｱｵﾓﾘｹﾝ","cityKana":"ｱｵﾓﾘｼ","streetKana":"ﾐﾅﾄﾏﾁ","prefecture":"青森県","city":"青森市","street":"港町"},{"zipCode":"0300964","prefectureKana":"ｱｵﾓﾘｹﾝ","cityKana":"ｱｵﾓﾘｼ","streetKana":"ﾐﾅﾐﾂｸﾀﾞ","prefecture":"青森県","city":"青森市","street":"南佃"},{"zipCode":"0300121","prefectureKana":"ｱｵﾓﾘｹﾝ","cityKana":"ｱｵﾓﾘｼ","streetKana":"ﾐｮｳｹﾝ","prefecture":"青森県","city":"青森市","street":"妙見"},{"zipCode":"0300937","prefectureKana":"ｱｵﾓﾘｹﾝ","cityKana":"ｱｵﾓﾘｼ","streetKana":"ﾓﾄｲｽﾞﾐ","prefecture":"青森県","city":"青森市","street":"本泉"},{"zipCode":"0300133","prefectureKana":"ｱｵﾓﾘｹﾝ","cityKana":"ｱｵﾓﾘｼ","streetKana":"ﾓﾔ","prefecture":"青森県","city":"青森市","street":"雲谷"},{"zipCode":"0300912","prefectureKana":"ｱｵﾓﾘｹﾝ","cityKana":"ｱｵﾓﾘｼ","streetKana":"ﾔｴﾀﾞ","prefecture":"青森県","city":"青森市","street":"八重田"},{"zipCode":"0300917","prefectureKana":"ｱｵﾓﾘｹﾝ","cityKana":"ｱｵﾓﾘｼ","streetKana":"ﾔｻｸ","prefecture":"青森県","city":"青森市","street":"矢作"},{"zipCode":"0300803","prefectureKana":"ｱｵﾓﾘｹﾝ","cityKana":"ｱｵﾓﾘｼ","streetKana":"ﾔｽｶﾀ","prefecture":"青森県","city":"青森市","street":"安方"},{"zipCode":"0300936","prefectureKana":"ｱｵﾓﾘｹﾝ","cityKana":"ｱｵﾓﾘｼ","streetKana":"ﾔﾀﾞﾏｴ","prefecture":"青森県","city":"青森市","street":"矢田前"},{"zipCode":"0300112","prefectureKana":"ｱｵﾓﾘｹﾝ","cityKana":"ｱｵﾓﾘｼ","streetKana":"ﾔﾂﾔｸ","prefecture":"青森県","city":"青森市","street":"八ツ役"},{"zipCode":"0300923","prefectureKana":"ｱｵﾓﾘｹﾝ","cityKana":"ｱｵﾓﾘｼ","streetKana":"ﾔﾊﾀﾊﾞﾔｼ","prefecture":"青森県","city":"青森市","street":"八幡林"},{"zipCode":"0300132","prefectureKana":"ｱｵﾓﾘｹﾝ","cityKana":"ｱｵﾓﾘｼ","streetKana":"ﾖｺｳﾁ","prefecture":"青森県","city":"青森市","street":"横内"},{"zipCode":"0300125","prefectureKana":"ｱｵﾓﾘｹﾝ","cityKana":"ｱｵﾓﾘｼ","streetKana":"ﾖﾂｲｼ","prefecture":"青森県","city":"青森市","street":"四ツ石"},{"zipCode":"0301271","prefectureKana":"ｱｵﾓﾘｹﾝ","cityKana":"ｱｵﾓﾘｼ","streetKana":"ﾛｸﾏｴﾊﾞｼ","prefecture":"青森県","city":"青森市","street":"六枚橋"},{"zipCode":"0301500","prefectureKana":"ｱｵﾓﾘｹﾝ","cityKana":"ﾋｶﾞｼﾂｶﾞﾙｸﾞﾝｲﾏﾍﾞﾂﾏﾁ","streetKana":"ｲｶﾆｹｲｻｲｶﾞﾅｲﾊﾞｱｲ","prefecture":"青森県","city":"東津軽郡今別町","street":"以下に掲載がない場合"},{"zipCode":"0301502","prefectureKana":"ｱｵﾓﾘｹﾝ","cityKana":"ﾋｶﾞｼﾂｶﾞﾙｸﾞﾝｲﾏﾍﾞﾂﾏﾁ","streetKana":"ｲﾏﾍﾞﾂ","prefecture":"青森県","city":"東津軽郡今別町","street":"今別"},{"zipCode":"0301505","prefectureKana":"ｱｵﾓﾘｹﾝ","cityKana":"ﾋｶﾞｼﾂｶﾞﾙｸﾞﾝｲﾏﾍﾞﾂﾏﾁ","streetKana":"ｵｵｶﾜﾀﾞｲ","prefecture":"青森県","city":"東津軽郡今別町","street":"大川平"},{"zipCode":"0301512","prefectureKana":"ｱｵﾓﾘｹﾝ","cityKana":"ﾋｶﾞｼﾂｶﾞﾙｸﾞﾝｲﾏﾍﾞﾂﾏﾁ","streetKana":"ｵｵﾄﾞﾏﾘ","prefecture":"青森県","city":"東津軽郡今別町","street":"大泊"},{"zipCode":"0301515","prefectureKana":"ｱｵﾓﾘｹﾝ","cityKana":"ﾋｶﾞｼﾂｶﾞﾙｸﾞﾝｲﾏﾍﾞﾂﾏﾁ","streetKana":"ｵｸﾀｲﾗﾍ","prefecture":"青森県","city":"東津軽郡今別町","street":"奥平部"},{"zipCode":"0301514","prefectureKana":"ｱｵﾓﾘｹﾝ","cityKana":"ﾋｶﾞｼﾂｶﾞﾙｸﾞﾝｲﾏﾍﾞﾂﾏﾁ","streetKana":"ｽﾅｶﾞﾓﾘ","prefecture":"青森県","city":"東津軽郡今別町","street":"砂ケ森"},{"zipCode":"0301504","prefectureKana":"ｱｵﾓﾘｹﾝ","cityKana":"ﾋｶﾞｼﾂｶﾞﾙｸﾞﾝｲﾏﾍﾞﾂﾏﾁ","streetKana":"ﾅﾍﾞﾀ","prefecture":"青森県","city":"東津軽郡今別町","street":"鍋田"},{"zipCode":"0301501","prefectureKana":"ｱｵﾓﾘｹﾝ","cityKana":"ﾋｶﾞｼﾂｶﾞﾙｸﾞﾝｲﾏﾍﾞﾂﾏﾁ","streetKana":"ﾊﾏﾅ","prefecture":"青森県","city":"東津軽郡今別町","street":"浜名"},{"zipCode":"0301513","prefectureKana":"ｱｵﾓﾘｹﾝ","cityKana":"ﾋｶﾞｼﾂｶﾞﾙｸﾞﾝｲﾏﾍﾞﾂﾏﾁ","streetKana":"ﾎﾛﾂﾞｷ","prefecture":"青森県","city":"東津軽郡今別町","street":"袰月"},{"zipCode":"0301503","prefectureKana":"ｱｵﾓﾘｹﾝ","cityKana":"ﾋｶﾞｼﾂｶﾞﾙｸﾞﾝｲﾏﾍﾞﾂﾏﾁ","streetKana":"ﾑﾗﾓﾄ","prefecture":"青森県","city":"東津軽郡今別町","street":"村元"},{"zipCode":"0301511","prefectureKana":"ｱｵﾓﾘｹﾝ","cityKana":"ﾋｶﾞｼﾂｶﾞﾙｸﾞﾝｲﾏﾍﾞﾂﾏﾁ","streetKana":"ﾔﾏｻﾞｷ","prefecture":"青森県","city":"東津軽郡今別町","street":"山崎"},{"zipCode":"0301200","prefectureKana":"ｱｵﾓﾘｹﾝ","cityKana":"ﾋｶﾞｼﾂｶﾞﾙｸﾞﾝﾖﾓｷﾞﾀﾑﾗ","streetKana":"ｲｶﾆｹｲｻｲｶﾞﾅｲﾊﾞｱｲ","prefecture":"青森県","city":"東津軽郡蓬田村","street":"以下に掲載がない場合"},{"zipCode":"0301212","prefectureKana":"ｱｵﾓﾘｹﾝ","cityKana":"ﾋｶﾞｼﾂｶﾞﾙｸﾞﾝﾖﾓｷﾞﾀﾑﾗ","streetKana":"ｱﾐﾀﾞｶﾞﾜ","prefecture":"青森県","city":"東津軽郡蓬田村","street":"阿弥陀川"},{"zipCode":"0301203","prefectureKana":"ｱｵﾓﾘｹﾝ","cityKana":"ﾋｶﾞｼﾂｶﾞﾙｸﾞﾝﾖﾓｷﾞﾀﾑﾗ","streetKana":"ｺﾞｳｻﾜ","prefecture":"青森県","city":"東津軽郡蓬田村","street":"郷沢"},{"zipCode":"0301202","prefectureKana":"ｱｵﾓﾘｹﾝ","cityKana":"ﾋｶﾞｼﾂｶﾞﾙｸﾞﾝﾖﾓｷﾞﾀﾑﾗ","streetKana":"ｾﾍｼﾞ","prefecture":"青森県","city":"東津軽郡蓬田村","street":"瀬辺地"},{"zipCode":"0301214","prefectureKana":"ｱｵﾓﾘｹﾝ","cityKana":"ﾋｶﾞｼﾂｶﾞﾙｸﾞﾝﾖﾓｷﾞﾀﾑﾗ","streetKana":"ﾅｶｻﾞﾜ","prefecture":"青森県","city":"東津軽郡蓬田村","street":"中沢"},{"zipCode":"0301213","prefectureKana":"ｱｵﾓﾘｹﾝ","cityKana":"ﾋｶﾞｼﾂｶﾞﾙｸﾞﾝﾖﾓｷﾞﾀﾑﾗ","streetKana":"ﾅｶﾞｼﾅ","prefecture":"青森県","city":"東津軽郡蓬田村","street":"長科"},{"zipCode":"0301201","prefectureKana":"ｱｵﾓﾘｹﾝ","cityKana":"ﾋｶﾞｼﾂｶﾞﾙｸﾞﾝﾖﾓｷﾞﾀﾑﾗ","streetKana":"ﾋﾛｾ","prefecture":"青森県","city":"東津軽郡蓬田村","street":"広瀬"},{"zipCode":"0301211","prefectureKana":"ｱｵﾓﾘｹﾝ","cityKana":"ﾋｶﾞｼﾂｶﾞﾙｸﾞﾝﾖﾓｷﾞﾀﾑﾗ","streetKana":"ﾖﾓｷﾞﾀﾞ","prefecture":"青森県","city":"東津軽郡蓬田村","street":"蓬田"},{"zipCode":"0301400","prefectureKana":"ｱｵﾓﾘｹﾝ","cityKana":"ﾋｶﾞｼﾂｶﾞﾙｸﾞﾝｿﾄｶﾞﾊﾏﾏﾁ","streetKana":"ｲｶﾆｹｲｻｲｶﾞﾅｲﾊﾞｱｲ","prefecture":"青森県","city":"東津軽郡外ヶ浜町","street":"以下に掲載がない場合"},{"zipCode":"0301309","prefectureKana":"ｱｵﾓﾘｹﾝ","cityKana":"ﾋｶﾞｼﾂｶﾞﾙｸﾞﾝｿﾄｶﾞﾊﾏﾏﾁ","streetKana":"ｳｴｶﾆﾀ","prefecture":"青森県","city":"東津軽郡外ヶ浜町","street":"上蟹田"},{"zipCode":"0301303","prefectureKana":"ｱｵﾓﾘｹﾝ","cityKana":"ﾋｶﾞｼﾂｶﾞﾙｸﾞﾝｿﾄｶﾞﾊﾏﾏﾁ","streetKana":"ｶﾆﾀ","prefecture":"青森県","city":"東津軽郡外ヶ浜町","street":"蟹田"},{"zipCode":"0301301","prefectureKana":"ｱｵﾓﾘｹﾝ","cityKana":"ﾋｶﾞｼﾂｶﾞﾙｸﾞﾝｿﾄｶﾞﾊﾏﾏﾁ","streetKana":"ｶﾆﾀｲｼﾊﾏ","prefecture":"青森県","city":"東津軽郡外ヶ浜町","street":"蟹田石浜"},{"zipCode":"0301307","prefectureKana":"ｱｵﾓﾘｹﾝ","cityKana":"ﾋｶﾞｼﾂｶﾞﾙｸﾞﾝｿﾄｶﾞﾊﾏﾏﾁ","streetKana":"ｶﾆﾀｵｵﾀﾞｲ","prefecture":"青森県","city":"東津軽郡外ヶ浜町","street":"蟹田大平"},{"zipCode":"0301305","prefectureKana":"ｱｵﾓﾘｹﾝ","cityKana":"ﾋｶﾞｼﾂｶﾞﾙｸﾞﾝｿﾄｶﾞﾊﾏﾏﾁ","streetKana":"ｶﾆﾀｵｸﾞﾆ","prefecture":"青森県","city":"東津軽郡外ヶ浜町","street":"蟹田小国"},{"zipCode":"0301311","prefectureKana":"ｱｵﾓﾘｹﾝ","cityKana":"ﾋｶﾞｼﾂｶﾞﾙｸﾞﾝｿﾄｶﾞﾊﾏﾏﾁ","streetKana":"ｶﾆﾀｼｵｺｼ","prefecture":"青森県","city":"東津軽郡外ヶ浜町","street":"蟹田塩越"},{"zipCode":"0301302","prefectureKana":"ｱｵﾓﾘｹﾝ","cityKana":"ﾋｶﾞｼﾂｶﾞﾙｸﾞﾝｿﾄｶﾞﾊﾏﾏﾁ","streetKana":"ｶﾆﾀﾁｭｳｼ","prefecture":"青森県","city":"東津軽郡外ヶ浜町","street":"蟹田中師"},{"zipCode":"0301304","prefectureKana":"ｱｵﾓﾘｹﾝ","cityKana":"ﾋｶﾞｼﾂｶﾞﾙｸﾞﾝｿﾄｶﾞﾊﾏﾏﾁ","streetKana":"ｶﾆﾀﾐﾅﾐｻﾞﾜ","prefecture":"青森県","city":"東津軽郡外ヶ浜町","street":"蟹田南沢"},{"zipCode":"0301306","prefectureKana":"ｱｵﾓﾘｹﾝ","cityKana":"ﾋｶﾞｼﾂｶﾞﾙｸﾞﾝｿﾄｶﾞﾊﾏﾏﾁ","streetKana":"ｶﾆﾀﾔﾏﾓﾄ","prefecture":"青森県","city":"東津軽郡外ヶ浜町","street":"蟹田山本"},{"zipCode":"0301308","prefectureKana":"ｱｵﾓﾘｹﾝ","cityKana":"ﾋｶﾞｼﾂｶﾞﾙｸﾞﾝｿﾄｶﾞﾊﾏﾏﾁ","streetKana":"ｼﾀｶﾆﾀ","prefecture":"青森県","city":"東津軽郡外ヶ浜町","street":"下蟹田"},{"zipCode":"0301402","prefectureKana":"ｱｵﾓﾘｹﾝ","cityKana":"ﾋｶﾞｼﾂｶﾞﾙｸﾞﾝｿﾄｶﾞﾊﾏﾏﾁ","streetKana":"ﾀｲﾗﾀﾞﾃ","prefecture":"青森県","city":"東津軽郡外ヶ浜町","street":"平舘"},{"zipCode":"0301405","prefectureKana":"ｱｵﾓﾘｹﾝ","cityKana":"ﾋｶﾞｼﾂｶﾞﾙｸﾞﾝｿﾄｶﾞﾊﾏﾏﾁ","streetKana":"ﾀｲﾗﾀﾞﾃｲｼｻﾞｷｻﾜ","prefecture":"青森県","city":"東津軽郡外ヶ浜町","street":"平舘石崎沢"},{"zipCode":"0301416","prefectureKana":"ｱｵﾓﾘｹﾝ","cityKana":"ﾋｶﾞｼﾂｶﾞﾙｸﾞﾝｿﾄｶﾞﾊﾏﾏﾁ","streetKana":"ﾀｲﾗﾀﾞﾃｲｿﾔﾏ","prefecture":"青森県","city":"東津軽郡外ヶ浜町","street":"平舘磯山"},{"zipCode":"0301413","prefectureKana":"ｱｵﾓﾘｹﾝ","cityKana":"ﾋｶﾞｼﾂｶﾞﾙｸﾞﾝｿﾄｶﾞﾊﾏﾏﾁ","streetKana":"ﾀｲﾗﾀﾞﾃｲﾏﾂﾞ","prefecture":"青森県","city":"東津軽郡外ヶ浜町","street":"平舘今津"},{"zipCode":"0301411","prefectureKana":"ｱｵﾓﾘｹﾝ","cityKana":"ﾋｶﾞｼﾂｶﾞﾙｸﾞﾝｿﾄｶﾞﾊﾏﾏﾁ","streetKana":"ﾀｲﾗﾀﾞﾃﾈｷﾞｼ","prefecture":"青森県","city":"東津軽郡外ヶ浜町","street":"平舘根岸"},{"zipCode":"0301412","prefectureKana":"ｱｵﾓﾘｹﾝ","cityKana":"ﾋｶﾞｼﾂｶﾞﾙｸﾞﾝｿﾄｶﾞﾊﾏﾏﾁ","streetKana":"ﾀｲﾗﾀﾞﾃﾉﾀﾞ","prefecture":"青森県","city":"東津軽郡外ヶ浜町","street":"平舘野田"},{"zipCode":"0301415","prefectureKana":"ｱｵﾓﾘｹﾝ","cityKana":"ﾋｶﾞｼﾂｶﾞﾙｸﾞﾝｿﾄｶﾞﾊﾏﾏﾁ","streetKana":"ﾀｲﾗﾀﾞﾃﾌﾅｵｶ","prefecture":"青森県","city":"東津軽郡外ヶ浜町","street":"平舘舟岡"},{"zipCode":"0301403","prefectureKana":"ｱｵﾓﾘｹﾝ","cityKana":"ﾋｶﾞｼﾂｶﾞﾙｸﾞﾝｿﾄｶﾞﾊﾏﾏﾁ","streetKana":"ﾀｲﾗﾀﾞﾃﾓﾄｳﾀﾞ","prefecture":"青森県","city":"東津軽郡外ヶ浜町","street":"平舘元宇田"},{"zipCode":"0301404","prefectureKana":"ｱｵﾓﾘｹﾝ","cityKana":"ﾋｶﾞｼﾂｶﾞﾙｸﾞﾝｿﾄｶﾞﾊﾏﾏﾁ","streetKana":"ﾀｲﾗﾀﾞﾃﾔｿﾞｳｶﾏ","prefecture":"青森県","city":"東津軽郡外ヶ浜町","street":"平舘弥蔵釜"},{"zipCode":"0301732","prefectureKana":"ｱｵﾓﾘｹﾝ","cityKana":"ﾋｶﾞｼﾂｶﾞﾙｸﾞﾝｿﾄｶﾞﾊﾏﾏﾁ","streetKana":"ﾐﾝﾏﾔｲｴﾉｳｴ","prefecture":"青森県","city":"東津軽郡外ヶ浜町","street":"三厩家ノ上"},{"zipCode":"0301719","prefectureKana":"ｱｵﾓﾘｹﾝ","cityKana":"ﾋｶﾞｼﾂｶﾞﾙｸﾞﾝｿﾄｶﾞﾊﾏﾏﾁ","streetKana":"ﾐﾝﾏﾔｳﾃﾂﾔﾏ","prefecture":"青森県","city":"東津軽郡外ヶ浜町","street":"三厩宇鉄山"},{"zipCode":"0301724","prefectureKana":"ｱｵﾓﾘｹﾝ","cityKana":"ﾋｶﾞｼﾂｶﾞﾙｸﾞﾝｿﾄｶﾞﾊﾏﾏﾁ","streetKana":"ﾐﾝﾏﾔｶﾏﾉｻﾜ","prefecture":"青森県","city":"東津軽郡外ヶ浜町","street":"三厩釜野澤"},{"zipCode":"0301722","prefectureKana":"ｱｵﾓﾘｹﾝ","cityKana":"ﾋｶﾞｼﾂｶﾞﾙｸﾞﾝｿﾄｶﾞﾊﾏﾏﾁ","streetKana":"ﾐﾝﾏﾔｶﾐｳﾃﾂ","prefecture":"青森県","city":"東津軽郡外ヶ浜町","street":"三厩上宇鉄"},{"zipCode":"0301717","prefectureKana":"ｱｵﾓﾘｹﾝ","cityKana":"ﾋｶﾞｼﾂｶﾞﾙｸﾞﾝｿﾄｶﾞﾊﾏﾏﾁ","streetKana":"ﾐﾝﾏﾔｶﾜｼﾗ","prefecture":"青森県","city":"東津軽郡外ヶ浜町","street":"三厩川柱"},{"zipCode":"0301712","prefectureKana":"ｱｵﾓﾘｹﾝ","cityKana":"ﾋｶﾞｼﾂｶﾞﾙｸﾞﾝｿﾄｶﾞﾊﾏﾏﾁ","streetKana":"ﾐﾝﾏﾔｷｵﾄｼ","prefecture":"青森県","city":"東津軽郡外ヶ浜町","street":"三厩木落"},{"zipCode":"0301711","prefectureKana":"ｱｵﾓﾘｹﾝ","cityKana":"ﾋｶﾞｼﾂｶﾞﾙｸﾞﾝｿﾄｶﾞﾊﾏﾏﾁ","streetKana":"ﾐﾝﾏﾔｹﾞﾝﾍﾞｲﾏ","prefecture":"青森県","city":"東津軽郡外ヶ浜町","street":"三厩源兵衛間"},{"zipCode":"0301727","prefectureKana":"ｱｵﾓﾘｹﾝ","cityKana":"ﾋｶﾞｼﾂｶﾞﾙｸﾞﾝｿﾄｶﾞﾊﾏﾏﾁ","streetKana":"ﾐﾝﾏﾔｻﾝﾖｳｼ","prefecture":"青森県","city":"東津軽郡外ヶ浜町","street":"三厩算用師"},{"zipCode":"0301720","prefectureKana":"ｱｵﾓﾘｹﾝ","cityKana":"ﾋｶﾞｼﾂｶﾞﾙｸﾞﾝｿﾄｶﾞﾊﾏﾏﾁ","streetKana":"ﾐﾝﾏﾔｼﾏｲﾊﾞｼ","prefecture":"青森県","city":"東津軽郡外ヶ浜町","street":"三厩四枚橋"},{"zipCode":"0301729","prefectureKana":"ｱｵﾓﾘｹﾝ","cityKana":"ﾋｶﾞｼﾂｶﾞﾙｸﾞﾝｿﾄｶﾞﾊﾏﾏﾁ","streetKana":"ﾐﾝﾏﾔｼﾓﾀｲﾗ","prefecture":"青森県","city":"東津軽郡外ヶ浜町","street":"三厩下平"},{"zipCode":"0301716","prefectureKana":"ｱｵﾓﾘｹﾝ","cityKana":"ﾋｶﾞｼﾂｶﾞﾙｸﾞﾝｿﾄｶﾞﾊﾏﾏﾁ","streetKana":"ﾐﾝﾏﾔｼﾘｶﾐ","prefecture":"青森県","city":"東津軽郡外ヶ浜町","street":"三厩尻神"},{"zipCode":"0301733","prefectureKana":"ｱｵﾓﾘｹﾝ","cityKana":"ﾋｶﾞｼﾂｶﾞﾙｸﾞﾝｿﾄｶﾞﾊﾏﾏﾁ","streetKana":"ﾐﾝﾏﾔｼﾝﾁｮｳ","prefecture":"青森県","city":"東津軽郡外ヶ浜町","street":"三厩新町"},{"zipCode":"0301711","prefectureKana":"ｱｵﾓﾘｹﾝ","cityKana":"ﾋｶﾞｼﾂｶﾞﾙｸﾞﾝｿﾄｶﾞﾊﾏﾏﾁ","streetKana":"ﾐﾝﾏﾔﾀﾂﾊﾏ","prefecture":"青森県","city":"東津軽郡外ヶ浜町","street":"三厩龍浜"},{"zipCode":"0301728","prefectureKana":"ｱｵﾓﾘｹﾝ","cityKana":"ﾋｶﾞｼﾂｶﾞﾙｸﾞﾝｿﾄｶﾞﾊﾏﾏﾁ","streetKana":"ﾐﾝﾏﾔﾅｶﾊﾏ","prefecture":"青森県","city":"東津軽郡外ヶ浜町","street":"三厩中浜"},{"zipCode":"0301718","prefectureKana":"ｱｵﾓﾘｹﾝ","cityKana":"ﾋｶﾞｼﾂｶﾞﾙｸﾞﾝｿﾄｶﾞﾊﾏﾏﾁ","streetKana":"ﾐﾝﾏﾔﾅｼﾉｷﾏ","prefecture":"青森県","city":"東津軽郡外ヶ浜町","street":"三厩梨ノ木間"},{"zipCode":"0301715","prefectureKana":"ｱｵﾓﾘｹﾝ","cityKana":"ﾋｶﾞｼﾂｶﾞﾙｸﾞﾝｿﾄｶﾞﾊﾏﾏﾁ","streetKana":"ﾐﾝﾏﾔﾅﾙｶﾐ","prefecture":"青森県","city":"東津軽郡外ヶ浜町","street":"三厩鳴神"},{"zipCode":"0301737","prefectureKana":"ｱｵﾓﾘｹﾝ","cityKana":"ﾋｶﾞｼﾂｶﾞﾙｸﾞﾝｿﾄｶﾞﾊﾏﾏﾁ","streetKana":"ﾐﾝﾏﾔﾋｶﾞｼﾏﾁ","prefecture":"青森県","city":"東津軽郡外ヶ浜町","street":"三厩東町"},{"zipCode":"0301714","prefectureKana":"ｱｵﾓﾘｹﾝ","cityKana":"ﾋｶﾞｼﾂｶﾞﾙｸﾞﾝｿﾄｶﾞﾊﾏﾏﾁ","streetKana":"ﾐﾝﾏﾔﾋｮｳﾛｳ","prefecture":"青森県","city":"東津軽郡外ヶ浜町","street":"三厩梹榔"},{"zipCode":"0301725","prefectureKana":"ｱｵﾓﾘｹﾝ","cityKana":"ﾋｶﾞｼﾂｶﾞﾙｸﾞﾝｿﾄｶﾞﾊﾏﾏﾁ","streetKana":"ﾐﾝﾏﾔﾌｼﾞｼﾏ","prefecture":"青森県","city":"東津軽郡外ヶ浜町","street":"三厩藤嶋"},{"zipCode":"0301731","prefectureKana":"ｱｵﾓﾘｹﾝ","cityKana":"ﾋｶﾞｼﾂｶﾞﾙｸﾞﾝｿﾄｶﾞﾊﾏﾏﾁ","streetKana":"ﾐﾝﾏﾔﾎﾝﾁｮｳ","prefecture":"青森県","city":"東津軽郡外ヶ浜町","street":"三厩本町"},{"zipCode":"0301721","prefectureKana":"ｱｵﾓﾘｹﾝ","cityKana":"ﾋｶﾞｼﾂｶﾞﾙｸﾞﾝｿﾄｶﾞﾊﾏﾏﾁ","streetKana":"ﾐﾝﾏﾔﾏｻｶﾘﾄﾞﾏﾘ","prefecture":"青森県","city":"東津軽郡外ヶ浜町","street":"三厩鐇泊"},{"zipCode":"0301734","prefectureKana":"ｱｵﾓﾘｹﾝ","cityKana":"ﾋｶﾞｼﾂｶﾞﾙｸﾞﾝｿﾄｶﾞﾊﾏﾏﾁ","streetKana":"ﾐﾝﾏﾔﾏｽｶﾜ","prefecture":"青森県","city":"東津軽郡外ヶ浜町","street":"三厩増川"},{"zipCode":"0301735","prefectureKana":"ｱｵﾓﾘｹﾝ","cityKana":"ﾋｶﾞｼﾂｶﾞﾙｸﾞﾝｿﾄｶﾞﾊﾏﾏﾁ","streetKana":"ﾐﾝﾏﾔﾐﾄﾞﾘｶﾞｵｶ","prefecture":"青森県","city":"東津軽郡外ヶ浜町","street":"三厩緑ケ丘"},{"zipCode":"0301723","prefectureKana":"ｱｵﾓﾘｹﾝ","cityKana":"ﾋｶﾞｼﾂｶﾞﾙｸﾞﾝｿﾄｶﾞﾊﾏﾏﾁ","streetKana":"ﾐﾝﾏﾔﾓﾄｳﾃﾂ","prefecture":"青森県","city":"東津軽郡外ヶ浜町","street":"三厩元宇鉄"},{"zipCode":"0301736","prefectureKana":"ｱｵﾓﾘｹﾝ","cityKana":"ﾋｶﾞｼﾂｶﾞﾙｸﾞﾝｿﾄｶﾞﾊﾏﾏﾁ","streetKana":"ﾐﾝﾏﾔﾓﾓｶﾞｵｶ","prefecture":"青森県","city":"東津軽郡外ヶ浜町","street":"三厩桃ケ丘"},{"zipCode":"0301713","prefectureKana":"ｱｵﾓﾘｹﾝ","cityKana":"ﾋｶﾞｼﾂｶﾞﾙｸﾞﾝｿﾄｶﾞﾊﾏﾏﾁ","streetKana":"ﾐﾝﾏﾔﾖﾛｲｼﾞﾏ","prefecture":"青森県","city":"東津軽郡外ヶ浜町","street":"三厩鎧嶋"},{"zipCode":"0301726","prefectureKana":"ｱｵﾓﾘｹﾝ","cityKana":"ﾋｶﾞｼﾂｶﾞﾙｸﾞﾝｿﾄｶﾞﾊﾏﾏﾁ","streetKana":"ﾐﾝﾏﾔﾛｸｼﾞｮｳﾏ","prefecture":"青森県","city":"東津軽郡外ヶ浜町","street":"三厩六條間"},{"zipCode":"0301701","prefectureKana":"ｱｵﾓﾘｹﾝ","cityKana":"ｷﾀﾂｶﾞﾙｸﾞﾝﾅｶﾄﾞﾏﾘﾏﾁ","streetKana":"ｺﾄﾞﾏﾘﾎﾛﾅｲ","prefecture":"青森県","city":"北津軽郡中泊町","street":"小泊袰内"}]