[{"zipCode":"0330000","prefectureKana":"ｱｵﾓﾘｹﾝ","cityKana":"ﾐｻﾜｼ","streetKana":"ｲｶﾆｹｲｻｲｶﾞﾅｲﾊﾞｱｲ","prefecture":"青森県","city":"三沢市","street":"以下に掲載がない場合"},{"zipCode":"0330166","prefectureKana":"ｱｵﾓﾘｹﾝ","cityKana":"ﾐｻﾜｼ","streetKana":"ｱｻﾋ","prefecture":"青森県","city":"三沢市","street":"朝日"},{"zipCode":"0330101","prefectureKana":"ｱｵﾓﾘｹﾝ","cityKana":"ﾐｻﾜｼ","streetKana":"ｱﾏｶﾞﾓﾘ","prefecture":"青森県","city":"三沢市","street":"天ケ森"},{"zipCode":"0330153","prefectureKana":"ｱｵﾓﾘｹﾝ","cityKana":"ﾐｻﾜｼ","streetKana":"ｲｽﾞﾐﾁｮｳ","prefecture":"青森県","city":"三沢市","street":"泉町"},{"zipCode":"0330131","prefectureKana":"ｱｵﾓﾘｹﾝ","cityKana":"ﾐｻﾜｼ","streetKana":"ｲﾂｶﾜﾒ","prefecture":"青森県","city":"三沢市","street":"五川目"},{"zipCode":"0330134","prefectureKana":"ｱｵﾓﾘｹﾝ","cityKana":"ﾐｻﾜｼ","streetKana":"ｵｵﾂ","prefecture":"青森県","city":"三沢市","street":"大津"},{"zipCode":"0330041","prefectureKana":"ｱｵﾓﾘｹﾝ","cityKana":"ﾐｻﾜｼ","streetKana":"ｵｵﾏﾁ","prefecture":"青森県","city":"三沢市","street":"大町"},{"zipCode":"0330021","prefectureKana":"ｱｵﾓﾘｹﾝ","cityKana":"ﾐｻﾜｼ","streetKana":"ｵｶﾐｻﾜ","prefecture":"青森県","city":"三沢市","street":"岡三沢"},{"zipCode":"0330104","prefectureKana":"ｱｵﾓﾘｹﾝ","cityKana":"ﾐｻﾜｼ","streetKana":"ｵﾘｶｻ","prefecture":"青森県","city":"三沢市","street":"織笠"},{"zipCode":"0330053","prefectureKana":"ｱｵﾓﾘｹﾝ","cityKana":"ﾐｻﾜｼ","streetKana":"ｶｽｶﾞﾀﾞｲ","prefecture":"青森県","city":"三沢市","street":"春日台"},{"zipCode":"0330063","prefectureKana":"ｱｵﾓﾘｹﾝ","cityKana":"ﾐｻﾜｼ","streetKana":"ｶﾐｸﾎﾞ","prefecture":"青森県","city":"三沢市","street":"上久保"},{"zipCode":"0330162","prefectureKana":"ｱｵﾓﾘｹﾝ","cityKana":"ﾐｻﾜｼ","streetKana":"ｺｼｼﾀ","prefecture":"青森県","city":"三沢市","street":"越下"},{"zipCode":"0330011","prefectureKana":"ｱｵﾓﾘｹﾝ","cityKana":"ﾐｻﾜｼ","streetKana":"ｻｲﾜｲﾁｮｳ","prefecture":"青森県","city":"三沢市","street":"幸町"},{"zipCode":"0330042","prefectureKana":"ｱｵﾓﾘｹﾝ","cityKana":"ﾐｻﾜｼ","streetKana":"ｻｶｴﾁｮｳ","prefecture":"青森県","city":"三沢市","street":"栄町"},{"zipCode":"0330031","prefectureKana":"ｱｵﾓﾘｹﾝ","cityKana":"ﾐｻﾜｼ","streetKana":"ｻｸﾗﾁｮｳ","prefecture":"青森県","city":"三沢市","street":"桜町"},{"zipCode":"0330155","prefectureKana":"ｱｵﾓﾘｹﾝ","cityKana":"ﾐｻﾜｼ","streetKana":"ｻﾂｷｶﾞｵｶ","prefecture":"青森県","city":"三沢市","street":"さつきヶ丘"},{"zipCode":"0330113","prefectureKana":"ｱｵﾓﾘｹﾝ","cityKana":"ﾐｻﾜｼ","streetKana":"ｻﾋﾞｼﾛ","prefecture":"青森県","city":"三沢市","street":"淋代"},{"zipCode":"0330103","prefectureKana":"ｱｵﾓﾘｹﾝ","cityKana":"ﾐｻﾜｼ","streetKana":"ｼｵｶﾞﾏ","prefecture":"青森県","city":"三沢市","street":"塩釜"},{"zipCode":"0330133","prefectureKana":"ｱｵﾓﾘｹﾝ","cityKana":"ﾐｻﾜｼ","streetKana":"ｼｶﾅｶ","prefecture":"青森県","city":"三沢市","street":"鹿中"},{"zipCode":"0330023","prefectureKana":"ｱｵﾓﾘｹﾝ","cityKana":"ﾐｻﾜｼ","streetKana":"ｼﾓｸﾎﾞ","prefecture":"青森県","city":"三沢市","street":"下久保"},{"zipCode":"0330062","prefectureKana":"ｱｵﾓﾘｹﾝ","cityKana":"ﾐｻﾜｼ","streetKana":"ｼﾝﾁｮｳ","prefecture":"青森県","city":"三沢市","street":"新町"},{"zipCode":"0330105","prefectureKana":"ｱｵﾓﾘｹﾝ","cityKana":"ﾐｻﾜｼ","streetKana":"ｼﾝﾓﾘ","prefecture":"青森県","city":"三沢市","street":"新森"},{"zipCode":"0330102","prefectureKana":"ｱｵﾓﾘｹﾝ","cityKana":"ﾐｻﾜｼ","streetKana":"ｽﾅﾓﾘ","prefecture":"青森県","city":"三沢市","street":"砂森"},{"zipCode":"0330165","prefectureKana":"ｱｵﾓﾘｹﾝ","cityKana":"ﾐｻﾜｼ","streetKana":"ﾀｶﾉｻﾜ","prefecture":"青森県","city":"三沢市","street":"高野沢"},{"zipCode":"0330001","prefectureKana":"ｱｵﾓﾘｹﾝ","cityKana":"ﾐｻﾜｼ","streetKana":"ﾁｭｳｵｳﾁｮｳ","prefecture":"青森県","city":"三沢市","street":"中央町"},{"zipCode":"0330043","prefectureKana":"ｱｵﾓﾘｹﾝ","cityKana":"ﾐｻﾜｼ","streetKana":"ﾁﾖﾀﾞﾁｮｳ","prefecture":"青森県","city":"三沢市","street":"千代田町"},{"zipCode":"0330163","prefectureKana":"ｱｵﾓﾘｹﾝ","cityKana":"ﾐｻﾜｼ","streetKana":"ﾄﾐｻｷ","prefecture":"青森県","city":"三沢市","street":"富崎"},{"zipCode":"0330167","prefectureKana":"ｱｵﾓﾘｹﾝ","cityKana":"ﾐｻﾜｼ","streetKana":"ﾈｲ","prefecture":"青森県","city":"三沢市","street":"根井"},{"zipCode":"0330061","prefectureKana":"ｱｵﾓﾘｹﾝ","cityKana":"ﾐｻﾜｼ","streetKana":"ﾊﾅｿﾞﾉﾁｮｳ","prefecture":"青森県","city":"三沢市","street":"花園町"},{"zipCode":"0330024","prefectureKana":"ｱｵﾓﾘｹﾝ","cityKana":"ﾐｻﾜｼ","streetKana":"ﾋｶﾞｼｵｶﾐｻﾜ","prefecture":"青森県","city":"三沢市","street":"東岡三沢"},{"zipCode":"0330034","prefectureKana":"ｱｵﾓﾘｹﾝ","cityKana":"ﾐｻﾜｼ","streetKana":"ﾋｶﾞｼﾁｮｳ","prefecture":"青森県","city":"三沢市","street":"東町"},{"zipCode":"0330154","prefectureKana":"ｱｵﾓﾘｹﾝ","cityKana":"ﾐｻﾜｼ","streetKana":"ﾋﾉﾃﾞ","prefecture":"青森県","city":"三沢市","street":"日の出"},{"zipCode":"0330012","prefectureKana":"ｱｵﾓﾘｹﾝ","cityKana":"ﾐｻﾜｼ","streetKana":"ﾋﾗﾊﾀ","prefecture":"青森県","city":"三沢市","street":"平畑"},{"zipCode":"0330152","prefectureKana":"ｱｵﾓﾘｹﾝ","cityKana":"ﾐｻﾜｼ","streetKana":"ﾌｶﾔ","prefecture":"青森県","city":"三沢市","street":"深谷"},{"zipCode":"0330051","prefectureKana":"ｱｵﾓﾘｹﾝ","cityKana":"ﾐｻﾜｼ","streetKana":"ﾌﾙﾏｷ","prefecture":"青森県","city":"三沢市","street":"古間木"},{"zipCode":"0330044","prefectureKana":"ｱｵﾓﾘｹﾝ","cityKana":"ﾐｻﾜｼ","streetKana":"ﾌﾙﾏｷﾔﾏ","prefecture":"青森県","city":"三沢市","street":"古間木山"},{"zipCode":"0330112","prefectureKana":"ｱｵﾓﾘｹﾝ","cityKana":"ﾐｻﾜｼ","streetKana":"ﾎｿﾔ","prefecture":"青森県","city":"三沢市","street":"細谷"},{"zipCode":"0330123","prefectureKana":"ｱｵﾓﾘｹﾝ","cityKana":"ﾐｻﾜｼ","streetKana":"ﾎﾘｸﾞﾁ","prefecture":"青森県","city":"三沢市","street":"堀口"},{"zipCode":"0330052","prefectureKana":"ｱｵﾓﾘｹﾝ","cityKana":"ﾐｻﾜｼ","streetKana":"ﾎﾝﾁｮｳ","prefecture":"青森県","city":"三沢市","street":"本町"},{"zipCode":"0330143","prefectureKana":"ｱｵﾓﾘｹﾝ","cityKana":"ﾐｻﾜｼ","streetKana":"ﾏｴﾀｲ","prefecture":"青森県","city":"三沢市","street":"前平"},{"zipCode":"0330037","prefectureKana":"ｱｵﾓﾘｹﾝ","cityKana":"ﾐｻﾜｼ","streetKana":"ﾏﾂｿﾞﾉﾁｮｳ","prefecture":"青森県","city":"三沢市","street":"松園町"},{"zipCode":"0330035","prefectureKana":"ｱｵﾓﾘｹﾝ","cityKana":"ﾐｻﾜｼ","streetKana":"ﾏﾂﾊﾞﾗﾁｮｳ","prefecture":"青森県","city":"三沢市","street":"松原町"},{"zipCode":"0330142","prefectureKana":"ｱｵﾓﾘｹﾝ","cityKana":"ﾐｻﾜｼ","streetKana":"ﾐｶﾜﾒ","prefecture":"青森県","city":"三沢市","street":"三川目"},{"zipCode":"0330022","prefectureKana":"ｱｵﾓﾘｹﾝ","cityKana":"ﾐｻﾜｼ","streetKana":"ﾐｻﾜ","prefecture":"青森県","city":"三沢市","street":"三沢"},{"zipCode":"0330032","prefectureKana":"ｱｵﾓﾘｹﾝ","cityKana":"ﾐｻﾜｼ","streetKana":"ﾐﾄﾞﾘﾁｮｳ","prefecture":"青森県","city":"三沢市","street":"緑町"},{"zipCode":"0330141","prefectureKana":"ｱｵﾓﾘｹﾝ","cityKana":"ﾐｻﾜｼ","streetKana":"ﾐﾅﾄﾏﾁ","prefecture":"青森県","city":"三沢市","street":"港町"},{"zipCode":"0330036","prefectureKana":"ｱｵﾓﾘｹﾝ","cityKana":"ﾐｻﾜｼ","streetKana":"ﾐﾅﾐﾁｮｳ","prefecture":"青森県","city":"三沢市","street":"南町"},{"zipCode":"0330151","prefectureKana":"ｱｵﾓﾘｹﾝ","cityKana":"ﾐｻﾜｼ","streetKana":"ﾐﾅﾐﾔﾏ","prefecture":"青森県","city":"三沢市","street":"南山"},{"zipCode":"0330033","prefectureKana":"ｱｵﾓﾘｹﾝ","cityKana":"ﾐｻﾜｼ","streetKana":"ﾐﾉﾊﾗ","prefecture":"青森県","city":"三沢市","street":"美野原"},{"zipCode":"0330111","prefectureKana":"ｱｵﾓﾘｹﾝ","cityKana":"ﾐｻﾜｼ","streetKana":"ﾑｶﾜﾒ","prefecture":"青森県","city":"三沢市","street":"六川目"},{"zipCode":"0330045","prefectureKana":"ｱｵﾓﾘｹﾝ","cityKana":"ﾐｻﾜｼ","streetKana":"ﾔｸｼﾁｮｳ","prefecture":"青森県","city":"三沢市","street":"薬師町"},{"zipCode":"0330164","prefectureKana":"ｱｵﾓﾘｹﾝ","cityKana":"ﾐｻﾜｼ","streetKana":"ﾔﾁｶﾞｼﾗ","prefecture":"青森県","city":"三沢市","street":"谷地頭"},{"zipCode":"0330161","prefectureKana":"ｱｵﾓﾘｹﾝ","cityKana":"ﾐｻﾜｼ","streetKana":"ﾔﾜﾀ","prefecture":"青森県","city":"三沢市","street":"八幡"},{"zipCode":"0330132","prefectureKana":"ｱｵﾓﾘｹﾝ","cityKana":"ﾐｻﾜｼ","streetKana":"ﾖｶﾜﾒ","prefecture":"青森県","city":"三沢市","street":"四川目"},{"zipCode":"0330071","prefectureKana":"ｱｵﾓﾘｹﾝ","cityKana":"ｶﾐｷﾀｸﾞﾝﾛｸﾉﾍﾏﾁ","streetKana":"ｲﾇｵﾄｾ(ｳﾁｶﾅﾔ､ｳﾁﾔﾏ､ｵｶﾇﾏ､ｶﾅｻﾞﾜ､ｶﾅﾔ､ｶﾐｻﾋﾞｼﾛ､ｷｺｼ､ｺﾞﾝｹﾞﾝｻﾜ､","prefecture":"青森県","city":"上北郡六戸町","street":"犬落瀬（内金矢、内山、岡沼、金沢、金矢、上淋代、木越、権現沢、"},{"zipCode":"0330071","prefectureKana":"ｱｵﾓﾘｹﾝ","cityKana":"ｶﾐｷﾀｸﾞﾝﾛｸﾉﾍﾏﾁ","streetKana":"ｼｷ､ｼﾁﾋｬｸ､ｼﾓｸﾎﾞ<174ｦﾉｿﾞｸ>､ｼﾓｻﾋﾞｼﾛ､ﾀｶﾓﾘ､ﾂﾞﾒｷ､ﾂﾎﾞｹｻﾞﾜ<2","prefecture":"青森県","city":"上北郡六戸町","street":"四木、七百、下久保「１７４を除く」、下淋代、高森、通目木、坪毛沢「２"},{"zipCode":"0330071","prefectureKana":"ｱｵﾓﾘｹﾝ","cityKana":"ｶﾐｷﾀｸﾞﾝﾛｸﾉﾍﾏﾁ","streetKana":"5､637､641､643､647ｦﾉｿﾞｸ>､ﾅｶﾔｼｷ､ﾇﾏｸﾎﾞ､ﾈｺﾊｼ､ﾎﾘｷﾘ","prefecture":"青森県","city":"上北郡六戸町","street":"５、６３７、６４１、６４３、６４７を除く」、中屋敷、沼久保、根古橋、堀切"},{"zipCode":"0330071","prefectureKana":"ｱｵﾓﾘｹﾝ","cityKana":"ｶﾐｷﾀｸﾞﾝﾛｸﾉﾍﾏﾁ","streetKana":"ｻﾜ､ﾐﾅﾐﾀｲ､ﾔﾅｷﾞｻﾜ､ｵｵﾏｶﾞﾘ)","prefecture":"青森県","city":"上北郡六戸町","street":"沢、南平、柳沢、大曲）"},{"zipCode":"0330072","prefectureKana":"ｱｵﾓﾘｹﾝ","cityKana":"ｶﾐｷﾀｸﾞﾝﾛｸﾉﾍﾏﾁ","streetKana":"ｵﾘﾓ(ｲﾏｸﾏ<213-234､240､247､262､266､27","prefecture":"青森県","city":"上北郡六戸町","street":"折茂（今熊「２１３～２３４、２４０、２４７、２６２、２６６、２７"},{"zipCode":"0330072","prefectureKana":"ｱｵﾓﾘｹﾝ","cityKana":"ｶﾐｷﾀｸﾞﾝﾛｸﾉﾍﾏﾁ","streetKana":"5､277､280､295､1199､1206､1504ｦﾉｿﾞｸ>､","prefecture":"青森県","city":"上北郡六戸町","street":"５、２７７、２８０、２９５、１１９９、１２０６、１５０４を除く」、"},{"zipCode":"0330072","prefectureKana":"ｱｵﾓﾘｹﾝ","cityKana":"ｶﾐｷﾀｸﾞﾝﾛｸﾉﾍﾏﾁ","streetKana":"ｵｵﾊﾗ､ｵｷﾔﾏ､ｶﾐｵﾘﾓ<1-13､71-192ｦﾉｿﾞｸ>)","prefecture":"青森県","city":"上北郡六戸町","street":"大原、沖山、上折茂「１－１３、７１－１９２を除く」）"},{"zipCode":"0330073","prefectureKana":"ｱｵﾓﾘｹﾝ","cityKana":"ｶﾐｷﾀｸﾞﾝﾛｸﾉﾍﾏﾁ","streetKana":"ｶﾅﾔ","prefecture":"青森県","city":"上北郡六戸町","street":"金矢"},{"zipCode":"0330074","prefectureKana":"ｱｵﾓﾘｹﾝ","cityKana":"ｶﾐｷﾀｸﾞﾝﾛｸﾉﾍﾏﾁ","streetKana":"ｺﾏﾂｶﾞｵｶ","prefecture":"青森県","city":"上北郡六戸町","street":"小松ケ丘"}]