[{"zipCode":"0340000","prefectureKana":"ｱｵﾓﾘｹﾝ","cityKana":"ﾄﾜﾀﾞｼ","streetKana":"ｲｶﾆｹｲｻｲｶﾞﾅｲﾊﾞｱｲ","prefecture":"青森県","city":"十和田市","street":"以下に掲載がない場合"},{"zipCode":"0340071","prefectureKana":"ｱｵﾓﾘｹﾝ","cityKana":"ﾄﾜﾀﾞｼ","streetKana":"ｱｶﾇﾏ","prefecture":"青森県","city":"十和田市","street":"赤沼"},{"zipCode":"0340005","prefectureKana":"ｱｵﾓﾘｹﾝ","cityKana":"ﾄﾜﾀﾞｼ","streetKana":"ｲｯﾎﾟﾝｷﾞｻﾜ","prefecture":"青森県","city":"十和田市","street":"一本木沢"},{"zipCode":"0340011","prefectureKana":"ｱｵﾓﾘｹﾝ","cityKana":"ﾄﾜﾀﾞｼ","streetKana":"ｲﾅｵｲﾁｮｳ","prefecture":"青森県","city":"十和田市","street":"稲生町"},{"zipCode":"0340101","prefectureKana":"ｱｵﾓﾘｹﾝ","cityKana":"ﾄﾜﾀﾞｼ","streetKana":"ｳﾏｱﾗｲﾊﾞ","prefecture":"青森県","city":"十和田市","street":"馬洗場"},{"zipCode":"0340041","prefectureKana":"ｱｵﾓﾘｹﾝ","cityKana":"ﾄﾜﾀﾞｼ","streetKana":"ｵｳｻｶ","prefecture":"青森県","city":"十和田市","street":"相坂"},{"zipCode":"0340102","prefectureKana":"ｱｵﾓﾘｹﾝ","cityKana":"ﾄﾜﾀﾞｼ","streetKana":"ｵｵｻﾜﾀﾞ","prefecture":"青森県","city":"十和田市","street":"大沢田"},{"zipCode":"0340211","prefectureKana":"ｱｵﾓﾘｹﾝ","cityKana":"ﾄﾜﾀﾞｼ","streetKana":"ｵｵﾌﾄﾞｳ","prefecture":"青森県","city":"十和田市","street":"大不動"},{"zipCode":"0340301","prefectureKana":"ｱｵﾓﾘｹﾝ","cityKana":"ﾄﾜﾀﾞｼ","streetKana":"ｵｸｾ(ｿﾉﾀ)","prefecture":"青森県","city":"十和田市","street":"奥瀬（その他）"},{"zipCode":"0340061","prefectureKana":"ｱｵﾓﾘｹﾝ","cityKana":"ﾄﾜﾀﾞｼ","streetKana":"ｷﾘﾀﾞ","prefecture":"青森県","city":"十和田市","street":"切田"},{"zipCode":"0340302","prefectureKana":"ｱｵﾓﾘｹﾝ","cityKana":"ﾄﾜﾀﾞｼ","streetKana":"ｻﾜﾀﾞ","prefecture":"青森県","city":"十和田市","street":"沢田"},{"zipCode":"0340001","prefectureKana":"ｱｵﾓﾘｹﾝ","cityKana":"ﾄﾜﾀﾞｼ","streetKana":"ｻﾝﾎﾞﾝｷﾞ","prefecture":"青森県","city":"十和田市","street":"三本木"},{"zipCode":"0340213","prefectureKana":"ｱｵﾓﾘｹﾝ","cityKana":"ﾄﾜﾀﾞｼ","streetKana":"ﾀｷｻﾜ","prefecture":"青森県","city":"十和田市","street":"滝沢"},{"zipCode":"0340103","prefectureKana":"ｱｵﾓﾘｹﾝ","cityKana":"ﾄﾜﾀﾞｼ","streetKana":"ﾀﾁｻﾞｷ","prefecture":"青森県","city":"十和田市","street":"立崎"},{"zipCode":"0340051","prefectureKana":"ｱｵﾓﾘｹﾝ","cityKana":"ﾄﾜﾀﾞｼ","streetKana":"ﾃﾞﾝﾎﾟｳｼﾞ","prefecture":"青森県","city":"十和田市","street":"伝法寺"},{"zipCode":"0340104","prefectureKana":"ｱｵﾓﾘｹﾝ","cityKana":"ﾄﾜﾀﾞｼ","streetKana":"ﾄﾖｶﾞｵｶ","prefecture":"青森県","city":"十和田市","street":"豊ケ岡"},{"zipCode":"0340092","prefectureKana":"ｱｵﾓﾘｹﾝ","cityKana":"ﾄﾜﾀﾞｼ","streetKana":"ﾆｼ1ﾊﾞﾝﾁｮｳ","prefecture":"青森県","city":"十和田市","street":"西一番町"},{"zipCode":"0340082","prefectureKana":"ｱｵﾓﾘｹﾝ","cityKana":"ﾄﾜﾀﾞｼ","streetKana":"ﾆｼ2ﾊﾞﾝﾁｮｳ","prefecture":"青森県","city":"十和田市","street":"西二番町"},{"zipCode":"0340083","prefectureKana":"ｱｵﾓﾘｹﾝ","cityKana":"ﾄﾜﾀﾞｼ","streetKana":"ﾆｼ3ﾊﾞﾝﾁｮｳ","prefecture":"青森県","city":"十和田市","street":"西三番町"},{"zipCode":"0340084","prefectureKana":"ｱｵﾓﾘｹﾝ","cityKana":"ﾄﾜﾀﾞｼ","streetKana":"ﾆｼ4ﾊﾞﾝﾁｮｳ","prefecture":"青森県","city":"十和田市","street":"西四番町"},{"zipCode":"0340085","prefectureKana":"ｱｵﾓﾘｹﾝ","cityKana":"ﾄﾜﾀﾞｼ","streetKana":"ﾆｼ5ﾊﾞﾝﾁｮｳ","prefecture":"青森県","city":"十和田市","street":"西五番町"},{"zipCode":"0340038","prefectureKana":"ｱｵﾓﾘｹﾝ","cityKana":"ﾄﾜﾀﾞｼ","streetKana":"ﾆｼ6ﾊﾞﾝﾁｮｳ","prefecture":"青森県","city":"十和田市","street":"西六番町"},{"zipCode":"0340091","prefectureKana":"ｱｵﾓﾘｹﾝ","cityKana":"ﾄﾜﾀﾞｼ","streetKana":"ﾆｼ11ﾊﾞﾝﾁｮｳ","prefecture":"青森県","city":"十和田市","street":"西十一番町"},{"zipCode":"0340093","prefectureKana":"ｱｵﾓﾘｹﾝ","cityKana":"ﾄﾜﾀﾞｼ","streetKana":"ﾆｼ12ﾊﾞﾝﾁｮｳ","prefecture":"青森県","city":"十和田市","street":"西十二番町"},{"zipCode":"0340081","prefectureKana":"ｱｵﾓﾘｹﾝ","cityKana":"ﾄﾜﾀﾞｼ","streetKana":"ﾆｼ13ﾊﾞﾝﾁｮｳ","prefecture":"青森県","city":"十和田市","street":"西十三番町"},{"zipCode":"0340088","prefectureKana":"ｱｵﾓﾘｹﾝ","cityKana":"ﾄﾜﾀﾞｼ","streetKana":"ﾆｼ14ﾊﾞﾝﾁｮｳ","prefecture":"青森県","city":"十和田市","street":"西十四番町"},{"zipCode":"0340087","prefectureKana":"ｱｵﾓﾘｹﾝ","cityKana":"ﾄﾜﾀﾞｼ","streetKana":"ﾆｼ15ﾊﾞﾝﾁｮｳ","prefecture":"青森県","city":"十和田市","street":"西十五番町"},{"zipCode":"0340086","prefectureKana":"ｱｵﾓﾘｹﾝ","cityKana":"ﾄﾜﾀﾞｼ","streetKana":"ﾆｼ16ﾊﾞﾝﾁｮｳ","prefecture":"青森県","city":"十和田市","street":"西十六番町"},{"zipCode":"0340095","prefectureKana":"ｱｵﾓﾘｹﾝ","cityKana":"ﾄﾜﾀﾞｼ","streetKana":"ﾆｼ21ﾊﾞﾝﾁｮｳ","prefecture":"青森県","city":"十和田市","street":"西二十一番町"},{"zipCode":"0340094","prefectureKana":"ｱｵﾓﾘｹﾝ","cityKana":"ﾄﾜﾀﾞｼ","streetKana":"ﾆｼ22ﾊﾞﾝﾁｮｳ","prefecture":"青森県","city":"十和田市","street":"西二十二番町"},{"zipCode":"0340089","prefectureKana":"ｱｵﾓﾘｹﾝ","cityKana":"ﾄﾜﾀﾞｼ","streetKana":"ﾆｼ23ﾊﾞﾝﾁｮｳ","prefecture":"青森県","city":"十和田市","street":"西二十三番町"},{"zipCode":"0340105","prefectureKana":"ｱｵﾓﾘｹﾝ","cityKana":"ﾄﾜﾀﾞｼ","streetKana":"ﾊｯﾄｻﾞﾜ","prefecture":"青森県","city":"十和田市","street":"八斗沢"},{"zipCode":"0340012","prefectureKana":"ｱｵﾓﾘｹﾝ","cityKana":"ﾄﾜﾀﾞｼ","streetKana":"ﾋｶﾞｼ1ﾊﾞﾝﾁｮｳ","prefecture":"青森県","city":"十和田市","street":"東一番町"},{"zipCode":"0340017","prefectureKana":"ｱｵﾓﾘｹﾝ","cityKana":"ﾄﾜﾀﾞｼ","streetKana":"ﾋｶﾞｼ2ﾊﾞﾝﾁｮｳ","prefecture":"青森県","city":"十和田市","street":"東二番町"},{"zipCode":"0340031","prefectureKana":"ｱｵﾓﾘｹﾝ","cityKana":"ﾄﾜﾀﾞｼ","streetKana":"ﾋｶﾞｼ3ﾊﾞﾝﾁｮｳ","prefecture":"青森県","city":"十和田市","street":"東三番町"},{"zipCode":"0340032","prefectureKana":"ｱｵﾓﾘｹﾝ","cityKana":"ﾄﾜﾀﾞｼ","streetKana":"ﾋｶﾞｼ4ﾊﾞﾝﾁｮｳ","prefecture":"青森県","city":"十和田市","street":"東四番町"},{"zipCode":"0340033","prefectureKana":"ｱｵﾓﾘｹﾝ","cityKana":"ﾄﾜﾀﾞｼ","streetKana":"ﾋｶﾞｼ5ﾊﾞﾝﾁｮｳ","prefecture":"青森県","city":"十和田市","street":"東五番町"},{"zipCode":"0340036","prefectureKana":"ｱｵﾓﾘｹﾝ","cityKana":"ﾄﾜﾀﾞｼ","streetKana":"ﾋｶﾞｼ6ﾊﾞﾝﾁｮｳ","prefecture":"青森県","city":"十和田市","street":"東六番町"},{"zipCode":"0340013","prefectureKana":"ｱｵﾓﾘｹﾝ","cityKana":"ﾄﾜﾀﾞｼ","streetKana":"ﾋｶﾞｼ11ﾊﾞﾝﾁｮｳ","prefecture":"青森県","city":"十和田市","street":"東十一番町"},{"zipCode":"0340016","prefectureKana":"ｱｵﾓﾘｹﾝ","cityKana":"ﾄﾜﾀﾞｼ","streetKana":"ﾋｶﾞｼ12ﾊﾞﾝﾁｮｳ","prefecture":"青森県","city":"十和田市","street":"東十二番町"},{"zipCode":"0340023","prefectureKana":"ｱｵﾓﾘｹﾝ","cityKana":"ﾄﾜﾀﾞｼ","streetKana":"ﾋｶﾞｼ13ﾊﾞﾝﾁｮｳ","prefecture":"青森県","city":"十和田市","street":"東十三番町"},{"zipCode":"0340024","prefectureKana":"ｱｵﾓﾘｹﾝ","cityKana":"ﾄﾜﾀﾞｼ","streetKana":"ﾋｶﾞｼ14ﾊﾞﾝﾁｮｳ","prefecture":"青森県","city":"十和田市","street":"東十四番町"},{"zipCode":"0340034","prefectureKana":"ｱｵﾓﾘｹﾝ","cityKana":"ﾄﾜﾀﾞｼ","streetKana":"ﾋｶﾞｼ15ﾊﾞﾝﾁｮｳ","prefecture":"青森県","city":"十和田市","street":"東十五番町"},{"zipCode":"0340035","prefectureKana":"ｱｵﾓﾘｹﾝ","cityKana":"ﾄﾜﾀﾞｼ","streetKana":"ﾋｶﾞｼ16ﾊﾞﾝﾁｮｳ","prefecture":"青森県","city":"十和田市","street":"東十六番町"},{"zipCode":"0340014","prefectureKana":"ｱｵﾓﾘｹﾝ","cityKana":"ﾄﾜﾀﾞｼ","streetKana":"ﾋｶﾞｼ21ﾊﾞﾝﾁｮｳ","prefecture":"青森県","city":"十和田市","street":"東二十一番町"},{"zipCode":"0340015","prefectureKana":"ｱｵﾓﾘｹﾝ","cityKana":"ﾄﾜﾀﾞｼ","streetKana":"ﾋｶﾞｼ22ﾊﾞﾝﾁｮｳ","prefecture":"青森県","city":"十和田市","street":"東二十二番町"},{"zipCode":"0340021","prefectureKana":"ｱｵﾓﾘｹﾝ","cityKana":"ﾄﾜﾀﾞｼ","streetKana":"ﾋｶﾞｼ23ﾊﾞﾝﾁｮｳ","prefecture":"青森県","city":"十和田市","street":"東二十三番町"},{"zipCode":"0340022","prefectureKana":"ｱｵﾓﾘｹﾝ","cityKana":"ﾄﾜﾀﾞｼ","streetKana":"ﾋｶﾞｼ24ﾊﾞﾝﾁｮｳ","prefecture":"青森県","city":"十和田市","street":"東二十四番町"},{"zipCode":"0340004","prefectureKana":"ｱｵﾓﾘｹﾝ","cityKana":"ﾄﾜﾀﾞｼ","streetKana":"ﾋｶﾞｼﾉ","prefecture":"青森県","city":"十和田市","street":"ひがしの"},{"zipCode":"0340106","prefectureKana":"ｱｵﾓﾘｹﾝ","cityKana":"ﾄﾜﾀﾞｼ","streetKana":"ﾌｶﾓﾁ","prefecture":"青森県","city":"十和田市","street":"深持"},{"zipCode":"0340052","prefectureKana":"ｱｵﾓﾘｹﾝ","cityKana":"ﾄﾜﾀﾞｼ","streetKana":"ﾌｼﾞｼﾏ","prefecture":"青森県","city":"十和田市","street":"藤島"},{"zipCode":"0340303","prefectureKana":"ｱｵﾓﾘｹﾝ","cityKana":"ﾄﾜﾀﾞｼ","streetKana":"ﾎｳﾘｮｳ","prefecture":"青森県","city":"十和田市","street":"法量"},{"zipCode":"0340037","prefectureKana":"ｱｵﾓﾘｹﾝ","cityKana":"ﾄﾜﾀﾞｼ","streetKana":"ﾎﾅﾐﾁｮｳ","prefecture":"青森県","city":"十和田市","street":"穂並町"},{"zipCode":"0340107","prefectureKana":"ｱｵﾓﾘｹﾝ","cityKana":"ﾄﾜﾀﾞｼ","streetKana":"ﾎﾗﾅｲ","prefecture":"青森県","city":"十和田市","street":"洞内"},{"zipCode":"0340212","prefectureKana":"ｱｵﾓﾘｹﾝ","cityKana":"ﾄﾜﾀﾞｼ","streetKana":"ﾏｲﾀ","prefecture":"青森県","city":"十和田市","street":"米田"},{"zipCode":"0340002","prefectureKana":"ｱｵﾓﾘｹﾝ","cityKana":"ﾄﾜﾀﾞｼ","streetKana":"ﾓﾄﾏﾁﾆｼ","prefecture":"青森県","city":"十和田市","street":"元町西"},{"zipCode":"0340003","prefectureKana":"ｱｵﾓﾘｹﾝ","cityKana":"ﾄﾜﾀﾞｼ","streetKana":"ﾓﾄﾏﾁﾋｶﾞｼ","prefecture":"青森県","city":"十和田市","street":"元町東"}]