[{"zipCode":"0360000","prefectureKana":"ｱｵﾓﾘｹﾝ","cityKana":"ﾋﾛｻｷｼ","streetKana":"ｲｶﾆｹｲｻｲｶﾞﾅｲﾊﾞｱｲ","prefecture":"青森県","city":"弘前市","street":"以下に掲載がない場合"},{"zipCode":"0361516","prefectureKana":"ｱｵﾓﾘｹﾝ","cityKana":"ﾋﾛｻｷｼ","streetKana":"ｱｲﾅｲ","prefecture":"青森県","city":"弘前市","street":"藍内"},{"zipCode":"0368246","prefectureKana":"ｱｵﾓﾘｹﾝ","cityKana":"ﾋﾛｻｷｼ","streetKana":"ｱｵｷﾁｮｳ","prefecture":"青森県","city":"弘前市","street":"青樹町"},{"zipCode":"0368062","prefectureKana":"ｱｵﾓﾘｹﾝ","cityKana":"ﾋﾛｻｷｼ","streetKana":"ｱｵﾔﾏ","prefecture":"青森県","city":"弘前市","street":"青山"},{"zipCode":"0368279","prefectureKana":"ｱｵﾓﾘｹﾝ","cityKana":"ﾋﾛｻｷｼ","streetKana":"ｱｶﾈﾁｮｳ","prefecture":"青森県","city":"弘前市","street":"茜町"},{"zipCode":"0368264","prefectureKana":"ｱｵﾓﾘｹﾝ","cityKana":"ﾋﾛｻｷｼ","streetKana":"ｱｸﾄﾞ","prefecture":"青森県","city":"弘前市","street":"悪戸"},{"zipCode":"0368252","prefectureKana":"ｱｵﾓﾘｹﾝ","cityKana":"ﾋﾛｻｷｼ","streetKana":"ｱｻﾋｶﾞｵｶ","prefecture":"青森県","city":"弘前市","street":"旭ケ丘"},{"zipCode":"0361302","prefectureKana":"ｱｵﾓﾘｹﾝ","cityKana":"ﾋﾛｻｷｼ","streetKana":"ｱﾀｺﾞ","prefecture":"青森県","city":"弘前市","street":"愛宕"},{"zipCode":"0368364","prefectureKana":"ｱｵﾓﾘｹﾝ","cityKana":"ﾋﾛｻｷｼ","streetKana":"ｱﾗﾏﾁ","prefecture":"青森県","city":"弘前市","street":"新町"},{"zipCode":"0368124","prefectureKana":"ｱｵﾓﾘｹﾝ","cityKana":"ﾋﾛｻｷｼ","streetKana":"ｲｼｶﾜ","prefecture":"青森県","city":"弘前市","street":"石川"},{"zipCode":"0368316","prefectureKana":"ｱｵﾓﾘｹﾝ","cityKana":"ﾋﾛｻｷｼ","streetKana":"ｲｼﾜﾀﾘ","prefecture":"青森県","city":"弘前市","street":"石渡"},{"zipCode":"0368164","prefectureKana":"ｱｵﾓﾘｹﾝ","cityKana":"ﾋﾛｻｷｼ","streetKana":"ｲｽﾞﾐﾉ","prefecture":"青森県","city":"弘前市","street":"泉野"},{"zipCode":"0368134","prefectureKana":"ｱｵﾓﾘｹﾝ","cityKana":"ﾋﾛｻｷｼ","streetKana":"ｲﾁﾉﾜﾀﾘ","prefecture":"青森県","city":"弘前市","street":"一野渡"},{"zipCode":"0368201","prefectureKana":"ｱｵﾓﾘｹﾝ","cityKana":"ﾋﾛｻｷｼ","streetKana":"ｲﾁﾊﾞﾝﾁｮｳ","prefecture":"青森県","city":"弘前市","street":"一番町"},{"zipCode":"0361325","prefectureKana":"ｱｵﾓﾘｹﾝ","cityKana":"ﾋﾛｻｷｼ","streetKana":"ｲｯﾁｮｳﾀﾞ","prefecture":"青森県","city":"弘前市","street":"一町田"},{"zipCode":"0368097","prefectureKana":"ｱｵﾓﾘｹﾝ","cityKana":"ﾋﾛｻｷｼ","streetKana":"ｲﾅﾀﾞ","prefecture":"青森県","city":"弘前市","street":"稲田"},{"zipCode":"0368073","prefectureKana":"ｱｵﾓﾘｹﾝ","cityKana":"ﾋﾛｻｷｼ","streetKana":"ｲﾜｶ","prefecture":"青森県","city":"弘前市","street":"岩賀"},{"zipCode":"0368023","prefectureKana":"ｱｵﾓﾘｹﾝ","cityKana":"ﾋﾛｻｷｼ","streetKana":"ｳｴﾀﾞﾁｮｳ","prefecture":"青森県","city":"弘前市","street":"植田町"},{"zipCode":"0368002","prefectureKana":"ｱｵﾓﾘｹﾝ","cityKana":"ﾋﾛｻｷｼ","streetKana":"ｴｷﾏｴ","prefecture":"青森県","city":"弘前市","street":"駅前"},{"zipCode":"0368003","prefectureKana":"ｱｵﾓﾘｹﾝ","cityKana":"ﾋﾛｻｷｼ","streetKana":"ｴｷﾏｴﾁｮｳ","prefecture":"青森県","city":"弘前市","street":"駅前町"},{"zipCode":"0368132","prefectureKana":"ｱｵﾓﾘｹﾝ","cityKana":"ﾋﾛｻｷｼ","streetKana":"ｵｲﾉﾓﾘ","prefecture":"青森県","city":"弘前市","street":"狼森"},{"zipCode":"0368104","prefectureKana":"ｱｵﾓﾘｹﾝ","cityKana":"ﾋﾛｻｷｼ","streetKana":"ｵｳｷﾞﾏﾁ","prefecture":"青森県","city":"弘前市","street":"扇町"},{"zipCode":"0368346","prefectureKana":"ｱｵﾓﾘｹﾝ","cityKana":"ﾋﾛｻｷｼ","streetKana":"ｵｵｳﾗﾏﾁ","prefecture":"青森県","city":"弘前市","street":"大浦町"},{"zipCode":"0368311","prefectureKana":"ｱｵﾓﾘｹﾝ","cityKana":"ﾋﾛｻｷｼ","streetKana":"ｵｵｶﾜ","prefecture":"青森県","city":"弘前市","street":"大川"},{"zipCode":"0368071","prefectureKana":"ｱｵﾓﾘｹﾝ","cityKana":"ﾋﾛｻｷｼ","streetKana":"ｵｵｸﾎﾞ","prefecture":"青森県","city":"弘前市","street":"大久保"},{"zipCode":"0368125","prefectureKana":"ｱｵﾓﾘｹﾝ","cityKana":"ﾋﾛｻｷｼ","streetKana":"ｵｵｻﾜ","prefecture":"青森県","city":"弘前市","street":"大沢"},{"zipCode":"0368161","prefectureKana":"ｱｵﾓﾘｹﾝ","cityKana":"ﾋﾛｻｷｼ","streetKana":"ｵｵｼﾐｽﾞ","prefecture":"青森県","city":"弘前市","street":"大清水"},{"zipCode":"0361513","prefectureKana":"ｱｵﾓﾘｹﾝ","cityKana":"ﾋﾛｻｷｼ","streetKana":"ｵｵｽｹ","prefecture":"青森県","city":"弘前市","street":"大助"},{"zipCode":"0368175","prefectureKana":"ｱｵﾓﾘｹﾝ","cityKana":"ﾋﾛｻｷｼ","streetKana":"ｵｵﾄﾐﾁｮｳ","prefecture":"青森県","city":"弘前市","street":"大富町"},{"zipCode":"0368242","prefectureKana":"ｱｵﾓﾘｹﾝ","cityKana":"ﾋﾛｻｷｼ","streetKana":"ｵｵﾊﾗ","prefecture":"青森県","city":"弘前市","street":"大原"},{"zipCode":"0368247","prefectureKana":"ｱｵﾓﾘｹﾝ","cityKana":"ﾋﾛｻｷｼ","streetKana":"ｵｵﾋﾞﾗｷ","prefecture":"青森県","city":"弘前市","street":"大開"},{"zipCode":"0368004","prefectureKana":"ｱｵﾓﾘｹﾝ","cityKana":"ﾋﾛｻｷｼ","streetKana":"ｵｵﾏﾁ","prefecture":"青森県","city":"弘前市","street":"大町"},{"zipCode":"0361203","prefectureKana":"ｱｵﾓﾘｹﾝ","cityKana":"ﾋﾛｻｷｼ","streetKana":"ｵｵﾓﾘ","prefecture":"青森県","city":"弘前市","street":"大森"},{"zipCode":"0368133","prefectureKana":"ｱｵﾓﾘｹﾝ","cityKana":"ﾋﾛｻｷｼ","streetKana":"ｵｵﾜｻﾜ","prefecture":"青森県","city":"弘前市","street":"大和沢"},{"zipCode":"0368034","prefectureKana":"ｱｵﾓﾘｹﾝ","cityKana":"ﾋﾛｻｷｼ","streetKana":"ｵｶﾁﾏﾁ","prefecture":"青森県","city":"弘前市","street":"徒町"},{"zipCode":"0368033","prefectureKana":"ｱｵﾓﾘｹﾝ","cityKana":"ﾋﾛｻｷｼ","streetKana":"ｵｶﾁﾏﾁｶﾜﾊﾞﾀﾁｮｳ","prefecture":"青森県","city":"弘前市","street":"徒町川端町"},{"zipCode":"0368197","prefectureKana":"ｱｵﾓﾘｹﾝ","cityKana":"ﾋﾛｻｷｼ","streetKana":"ｵｹﾔﾏﾁ","prefecture":"青森県","city":"弘前市","street":"桶屋町"},{"zipCode":"0361205","prefectureKana":"ｱｵﾓﾘｹﾝ","cityKana":"ﾋﾛｻｷｼ","streetKana":"ｵﾆｻﾞﾜ","prefecture":"青森県","city":"弘前市","street":"鬼沢"},{"zipCode":"0368096","prefectureKana":"ｱｵﾓﾘｹﾝ","cityKana":"ﾋﾛｻｷｼ","streetKana":"ｵﾓﾃﾏﾁ","prefecture":"青森県","city":"弘前市","street":"表町"},{"zipCode":"0368191","prefectureKana":"ｱｵﾓﾘｹﾝ","cityKana":"ﾋﾛｻｷｼ","streetKana":"ｵﾔｶﾀﾏﾁ","prefecture":"青森県","city":"弘前市","street":"親方町"},{"zipCode":"0368383","prefectureKana":"ｱｵﾓﾘｹﾝ","cityKana":"ﾋﾛｻｷｼ","streetKana":"ｵﾘｶｻ","prefecture":"青森県","city":"弘前市","street":"折笠"},{"zipCode":"0361204","prefectureKana":"ｱｵﾓﾘｹﾝ","cityKana":"ﾋﾛｻｷｼ","streetKana":"ｶｲｻﾞﾜ","prefecture":"青森県","city":"弘前市","street":"貝沢"},{"zipCode":"0368152","prefectureKana":"ｱｵﾓﾘｹﾝ","cityKana":"ﾋﾛｻｷｼ","streetKana":"ｶﾞｸｴﾝﾁｮｳ","prefecture":"青森県","city":"弘前市","street":"学園町"},{"zipCode":"0368204","prefectureKana":"ｱｵﾓﾘｹﾝ","cityKana":"ﾋﾛｻｷｼ","streetKana":"ｶｸｾﾝﾁｮｳ","prefecture":"青森県","city":"弘前市","street":"覚仙町"},{"zipCode":"0368192","prefectureKana":"ｱｵﾓﾘｹﾝ","cityKana":"ﾋﾛｻｷｼ","streetKana":"ｶｼﾞﾏﾁ","prefecture":"青森県","city":"弘前市","street":"鍛冶町"},{"zipCode":"0368335","prefectureKana":"ｱｵﾓﾘｹﾝ","cityKana":"ﾋﾛｻｷｼ","streetKana":"ｶｽｶﾞﾁｮｳ","prefecture":"青森県","city":"弘前市","street":"春日町"},{"zipCode":"0368052","prefectureKana":"ｱｵﾓﾘｹﾝ","cityKana":"ﾋﾛｻｷｼ","streetKana":"ｶﾀﾀﾞ","prefecture":"青森県","city":"弘前市","street":"堅田"},{"zipCode":"0368111","prefectureKana":"ｱｵﾓﾘｹﾝ","cityKana":"ﾋﾛｻｷｼ","streetKana":"ｶﾄﾞｹ","prefecture":"青森県","city":"弘前市","street":"門外"},{"zipCode":"0361332","prefectureKana":"ｱｵﾓﾘｹﾝ","cityKana":"ﾋﾛｻｷｼ","streetKana":"ｶﾈﾋﾗ","prefecture":"青森県","city":"弘前市","street":"兼平"},{"zipCode":"0368013","prefectureKana":"ｱｵﾓﾘｹﾝ","cityKana":"ﾋﾛｻｷｼ","streetKana":"ｶﾐｶﾜﾗｹﾁｮｳ","prefecture":"青森県","city":"弘前市","street":"上瓦ケ町"},{"zipCode":"0368354","prefectureKana":"ｱｵﾓﾘｹﾝ","cityKana":"ﾋﾛｻｷｼ","streetKana":"ｶﾐｻﾔｼﾏﾁ","prefecture":"青森県","city":"弘前市","street":"上鞘師町"},{"zipCode":"0368207","prefectureKana":"ｱｵﾓﾘｹﾝ","cityKana":"ﾋﾛｻｷｼ","streetKana":"ｶﾐｼﾛｶﾞﾈﾁｮｳ","prefecture":"青森県","city":"弘前市","street":"上白銀町"},{"zipCode":"0361504","prefectureKana":"ｱｵﾓﾘｹﾝ","cityKana":"ﾋﾛｻｷｼ","streetKana":"ｶﾐｽｷｻﾜ","prefecture":"青森県","city":"弘前市","street":"紙漉沢"},{"zipCode":"0368221","prefectureKana":"ｱｵﾓﾘｹﾝ","cityKana":"ﾋﾛｻｷｼ","streetKana":"ｶﾐｽｷﾏﾁ","prefecture":"青森県","city":"弘前市","street":"紙漉町"},{"zipCode":"0368332","prefectureKana":"ｱｵﾓﾘｹﾝ","cityKana":"ﾋﾛｻｷｼ","streetKana":"ｶﾒﾉｺｳﾏﾁ","prefecture":"青森県","city":"弘前市","street":"亀甲町"},{"zipCode":"0368022","prefectureKana":"ｱｵﾓﾘｹﾝ","cityKana":"ﾋﾛｻｷｼ","streetKana":"ｶﾔﾁｮｳ","prefecture":"青森県","city":"弘前市","street":"萱町"},{"zipCode":"0368114","prefectureKana":"ｱｵﾓﾘｹﾝ","cityKana":"ﾋﾛｻｷｼ","streetKana":"ｶﾜｲ","prefecture":"青森県","city":"弘前市","street":"川合"},{"zipCode":"0368103","prefectureKana":"ｱｵﾓﾘｹﾝ","cityKana":"ﾋﾛｻｷｼ","streetKana":"ｶﾜｻｷ","prefecture":"青森県","city":"弘前市","street":"川先"},{"zipCode":"0368277","prefectureKana":"ｱｵﾓﾘｹﾝ","cityKana":"ﾋﾛｻｷｼ","streetKana":"ｶﾜﾊﾗﾁｮｳ","prefecture":"青森県","city":"弘前市","street":"河原町"},{"zipCode":"0368226","prefectureKana":"ｱｵﾓﾘｹﾝ","cityKana":"ﾋﾛｻｷｼ","streetKana":"ｶﾝｻﾞﾜﾁｮｳ","prefecture":"青森県","city":"弘前市","street":"寒沢町"},{"zipCode":"0368061","prefectureKana":"ｱｵﾓﾘｹﾝ","cityKana":"ﾋﾛｻｷｼ","streetKana":"ｶﾝﾀﾞ","prefecture":"青森県","city":"弘前市","street":"神田"},{"zipCode":"0368227","prefectureKana":"ｱｵﾓﾘｹﾝ","cityKana":"ﾋﾛｻｷｼ","streetKana":"ｷｷｮｳﾉ","prefecture":"青森県","city":"弘前市","street":"桔梗野"},{"zipCode":"0368194","prefectureKana":"ｱｵﾓﾘｹﾝ","cityKana":"ﾋﾛｻｷｼ","streetKana":"ｷﾀｶﾜﾊﾞﾀﾁｮｳ","prefecture":"青森県","city":"弘前市","street":"北川端町"},{"zipCode":"0368012","prefectureKana":"ｱｵﾓﾘｹﾝ","cityKana":"ﾋﾛｻｷｼ","streetKana":"ｷﾀｶﾜﾗｹﾁｮｳ","prefecture":"青森県","city":"弘前市","street":"北瓦ケ町"},{"zipCode":"0368213","prefectureKana":"ｱｵﾓﾘｹﾝ","cityKana":"ﾋﾛｻｷｼ","streetKana":"ｷﾀｼﾝﾃﾗﾏﾁ","prefecture":"青森県","city":"弘前市","street":"北新寺町"},{"zipCode":"0368151","prefectureKana":"ｱｵﾓﾘｹﾝ","cityKana":"ﾋﾛｻｷｼ","streetKana":"ｷﾀｿﾞﾉ","prefecture":"青森県","city":"弘前市","street":"北園"},{"zipCode":"0368031","prefectureKana":"ｱｵﾓﾘｹﾝ","cityKana":"ﾋﾛｻｷｼ","streetKana":"ｷﾀﾔﾅｷﾞﾁｮｳ","prefecture":"青森県","city":"弘前市","street":"北柳町"},{"zipCode":"0368046","prefectureKana":"ｱｵﾓﾘｹﾝ","cityKana":"ﾋﾛｻｷｼ","streetKana":"ｷﾀﾖｺﾁｮｳ","prefecture":"青森県","city":"弘前市","street":"北横町"},{"zipCode":"0368251","prefectureKana":"ｱｵﾓﾘｹﾝ","cityKana":"ﾋﾛｻｷｼ","streetKana":"ｷﾖﾄﾐﾁｮｳ","prefecture":"青森県","city":"弘前市","street":"清富町"},{"zipCode":"0368163","prefectureKana":"ｱｵﾓﾘｹﾝ","cityKana":"ﾋﾛｻｷｼ","streetKana":"ｷﾖﾊﾗ","prefecture":"青森県","city":"弘前市","street":"清原"},{"zipCode":"0368245","prefectureKana":"ｱｵﾓﾘｹﾝ","cityKana":"ﾋﾛｻｷｼ","streetKana":"ｷﾝｿﾞｸﾁｮｳ","prefecture":"青森県","city":"弘前市","street":"金属町"},{"zipCode":"0361303","prefectureKana":"ｱｵﾓﾘｹﾝ","cityKana":"ﾋﾛｻｷｼ","streetKana":"ｸｽﾞﾊﾗ","prefecture":"青森県","city":"弘前市","street":"葛原"},{"zipCode":"0361433","prefectureKana":"ｱｵﾓﾘｹﾝ","cityKana":"ﾋﾛｻｷｼ","streetKana":"ｸﾆﾖｼ","prefecture":"青森県","city":"弘前市","street":"国吉"},{"zipCode":"0361321","prefectureKana":"ｱｵﾓﾘｹﾝ","cityKana":"ﾋﾛｻｷｼ","streetKana":"ｸﾏｼﾞﾏ","prefecture":"青森県","city":"弘前市","street":"熊嶋"},{"zipCode":"0368345","prefectureKana":"ｱｵﾓﾘｹﾝ","cityKana":"ﾋﾛｻｷｼ","streetKana":"ｸﾗﾇｼﾁｮｳ","prefecture":"青森県","city":"弘前市","street":"蔵主町"},{"zipCode":"0361502","prefectureKana":"ｱｵﾓﾘｹﾝ","cityKana":"ﾋﾛｻｷｼ","streetKana":"ｸﾛﾀｷ","prefecture":"青森県","city":"弘前市","street":"黒滝"},{"zipCode":"0361434","prefectureKana":"ｱｵﾓﾘｹﾝ","cityKana":"ﾋﾛｻｷｼ","streetKana":"ｸﾛﾂﾁ","prefecture":"青森県","city":"弘前市","street":"黒土"},{"zipCode":"0368005","prefectureKana":"ｱｵﾓﾘｹﾝ","cityKana":"ﾋﾛｻｷｼ","streetKana":"ｺｳｼﾞﾏﾁ","prefecture":"青森県","city":"弘前市","street":"楮町"},{"zipCode":"0361431","prefectureKana":"ｱｵﾓﾘｹﾝ","cityKana":"ﾋﾛｻｷｼ","streetKana":"ｺｳﾔ","prefecture":"青森県","city":"弘前市","street":"高野"},{"zipCode":"0368123","prefectureKana":"ｱｵﾓﾘｹﾝ","cityKana":"ﾋﾛｻｷｼ","streetKana":"ｺｶﾞﾈｻﾞｷ","prefecture":"青森県","city":"弘前市","street":"小金崎"},{"zipCode":"0368127","prefectureKana":"ｱｵﾓﾘｹﾝ","cityKana":"ﾋﾛｻｷｼ","streetKana":"ｺｸﾞﾘﾔﾏ","prefecture":"青森県","city":"弘前市","street":"小栗山"},{"zipCode":"0368243","prefectureKana":"ｱｵﾓﾘｹﾝ","cityKana":"ﾋﾛｻｷｼ","streetKana":"ｺｻﾞﾜ","prefecture":"青森県","city":"弘前市","street":"小沢"},{"zipCode":"0368362","prefectureKana":"ｱｵﾓﾘｹﾝ","cityKana":"ﾋﾛｻｷｼ","streetKana":"ｺﾞｼﾞﾂｺｸﾏﾁ","prefecture":"青森県","city":"弘前市","street":"五十石町"},{"zipCode":"0361503","prefectureKana":"ｱｵﾓﾘｹﾝ","cityKana":"ﾋﾛｻｷｼ","streetKana":"ｺﾞｼｮ","prefecture":"青森県","city":"弘前市","street":"五所"},{"zipCode":"0361331","prefectureKana":"ｱｵﾓﾘｹﾝ","cityKana":"ﾋﾛｻｷｼ","streetKana":"ｺﾞﾀﾞｲ","prefecture":"青森県","city":"弘前市","street":"五代"},{"zipCode":"0368331","prefectureKana":"ｱｵﾓﾘｹﾝ","cityKana":"ﾋﾛｻｷｼ","streetKana":"ｺﾋﾞﾄﾁｮｳ","prefecture":"青森県","city":"弘前市","street":"小人町"},{"zipCode":"0361322","prefectureKana":"ｱｵﾓﾘｹﾝ","cityKana":"ﾋﾛｻｷｼ","streetKana":"ｺﾏｺﾞｼ","prefecture":"青森県","city":"弘前市","street":"駒越"},{"zipCode":"0368366","prefectureKana":"ｱｵﾓﾘｹﾝ","cityKana":"ﾋﾛｻｷｼ","streetKana":"ｺﾏｺﾞｼﾏﾁ","prefecture":"青森県","city":"弘前市","street":"駒越町"},{"zipCode":"0368361","prefectureKana":"ｱｵﾓﾘｹﾝ","cityKana":"ﾋﾛｻｷｼ","streetKana":"ｺﾝﾔﾏﾁ","prefecture":"青森県","city":"弘前市","street":"紺屋町"},{"zipCode":"0368216","prefectureKana":"ｱｵﾓﾘｹﾝ","cityKana":"ﾋﾛｻｷｼ","streetKana":"ｻﾞｲﾌﾁｮｳ","prefecture":"青森県","city":"弘前市","street":"在府町"},{"zipCode":"0368076","prefectureKana":"ｱｵﾓﾘｹﾝ","cityKana":"ﾋﾛｻｷｼ","streetKana":"ｻｶｲｾﾞｷ","prefecture":"青森県","city":"弘前市","street":"境関"},{"zipCode":"0361511","prefectureKana":"ｱｵﾓﾘｹﾝ","cityKana":"ﾋﾛｻｷｼ","streetKana":"ｻｶｲﾁ","prefecture":"青森県","city":"弘前市","street":"坂市"},{"zipCode":"0368336","prefectureKana":"ｱｵﾓﾘｹﾝ","cityKana":"ﾋﾛｻｷｼ","streetKana":"ｻｶｴﾏﾁ","prefecture":"青森県","city":"弘前市","street":"栄町"},{"zipCode":"0368244","prefectureKana":"ｱｵﾓﾘｹﾝ","cityKana":"ﾋﾛｻｷｼ","streetKana":"ｻｶﾓﾄ","prefecture":"青森県","city":"弘前市","street":"坂元"},{"zipCode":"0368016","prefectureKana":"ｱｵﾓﾘｹﾝ","cityKana":"ﾋﾛｻｷｼ","streetKana":"ｻｶﾓﾄﾁｮｳ","prefecture":"青森県","city":"弘前市","street":"坂本町"},{"zipCode":"0368211","prefectureKana":"ｱｵﾓﾘｹﾝ","cityKana":"ﾋﾛｻｷｼ","streetKana":"ｻｶﾞﾗﾁｮｳ","prefecture":"青森県","city":"弘前市","street":"相良町"},{"zipCode":"0368241","prefectureKana":"ｱｵﾓﾘｹﾝ","cityKana":"ﾋﾛｻｷｼ","streetKana":"ｻｸﾗｶﾞｵｶ","prefecture":"青森県","city":"弘前市","street":"桜ケ丘"},{"zipCode":"0361441","prefectureKana":"ｱｵﾓﾘｹﾝ","cityKana":"ﾋﾛｻｷｼ","streetKana":"ｻｸﾗﾊﾞ","prefecture":"青森県","city":"弘前市","street":"桜庭"},{"zipCode":"0368222","prefectureKana":"ｱｵﾓﾘｹﾝ","cityKana":"ﾋﾛｻｷｼ","streetKana":"ｻｸﾗﾊﾞﾔｼﾁｮｳ","prefecture":"青森県","city":"弘前市","street":"桜林町"},{"zipCode":"0368342","prefectureKana":"ｱｵﾓﾘｹﾝ","cityKana":"ﾋﾛｻｷｼ","streetKana":"ｻｻﾓﾘﾁｮｳ","prefecture":"青森県","city":"弘前市","street":"笹森町"},{"zipCode":"0361514","prefectureKana":"ｱｵﾓﾘｹﾝ","cityKana":"ﾋﾛｻｷｼ","streetKana":"ｻﾜﾀﾞ","prefecture":"青森県","city":"弘前市","street":"沢田"},{"zipCode":"0368312","prefectureKana":"ｱｵﾓﾘｹﾝ","cityKana":"ﾋﾛｻｷｼ","streetKana":"ｻﾝｾﾞｼﾞ","prefecture":"青森県","city":"弘前市","street":"三世寺"},{"zipCode":"0368341","prefectureKana":"ｱｵﾓﾘｹﾝ","cityKana":"ﾋﾛｻｷｼ","streetKana":"ｻﾝﾉｳﾁｮｳ","prefecture":"青森県","city":"弘前市","street":"山王町"},{"zipCode":"0368102","prefectureKana":"ｱｵﾓﾘｹﾝ","cityKana":"ﾋﾛｻｷｼ","streetKana":"ｻﾝﾋﾟﾅｲ","prefecture":"青森県","city":"弘前市","street":"小比内"},{"zipCode":"0368206","prefectureKana":"ｱｵﾓﾘｹﾝ","cityKana":"ﾋﾛｻｷｼ","streetKana":"ｼｵﾜｹﾏﾁ","prefecture":"青森県","city":"弘前市","street":"塩分町"},{"zipCode":"0368261","prefectureKana":"ｱｵﾓﾘｹﾝ","cityKana":"ﾋﾛｻｷｼ","streetKana":"ｼｹﾞﾓﾘｼﾝﾁｮｳ","prefecture":"青森県","city":"弘前市","street":"茂森新町"},{"zipCode":"0368217","prefectureKana":"ｱｵﾓﾘｹﾝ","cityKana":"ﾋﾛｻｷｼ","streetKana":"ｼｹﾞﾓﾘﾏﾁ","prefecture":"青森県","city":"弘前市","street":"茂森町"},{"zipCode":"0368183","prefectureKana":"ｱｵﾓﾘｹﾝ","cityKana":"ﾋﾛｻｷｼ","streetKana":"ｼﾅｶﾜﾏﾁ","prefecture":"青森県","city":"弘前市","street":"品川町"},{"zipCode":"0368254","prefectureKana":"ｱｵﾓﾘｹﾝ","cityKana":"ﾋﾛｻｷｼ","streetKana":"ｼﾐｽﾞ","prefecture":"青森県","city":"弘前市","street":"清水"},{"zipCode":"0368262","prefectureKana":"ｱｵﾓﾘｹﾝ","cityKana":"ﾋﾛｻｷｼ","streetKana":"ｼﾐｽﾞﾄﾐﾀ","prefecture":"青森県","city":"弘前市","street":"清水富田"},{"zipCode":"0368113","prefectureKana":"ｱｵﾓﾘｹﾝ","cityKana":"ﾋﾛｻｷｼ","streetKana":"ｼﾐｽﾞﾓﾘ","prefecture":"青森県","city":"弘前市","street":"清水森"},{"zipCode":"0368353","prefectureKana":"ｱｵﾓﾘｹﾝ","cityKana":"ﾋﾛｻｷｼ","streetKana":"ｼﾓｻﾔｼﾏﾁ","prefecture":"青森県","city":"弘前市","street":"下鞘師町"},{"zipCode":"0368356","prefectureKana":"ｱｵﾓﾘｹﾝ","cityKana":"ﾋﾛｻｷｼ","streetKana":"ｼﾓｼﾛｶﾞﾈﾁｮｳ","prefecture":"青森県","city":"弘前市","street":"下白銀町"},{"zipCode":"0368265","prefectureKana":"ｱｵﾓﾘｹﾝ","cityKana":"ﾋﾛｻｷｼ","streetKana":"ｼﾓﾕｸﾞﾁ","prefecture":"青森県","city":"弘前市","street":"下湯口"},{"zipCode":"0368266","prefectureKana":"ｱｵﾓﾘｹﾝ","cityKana":"ﾋﾛｻｷｼ","streetKana":"ｼﾞﾕｳｶﾞｵｶ","prefecture":"青森県","city":"弘前市","street":"自由ケ丘"},{"zipCode":"0368228","prefectureKana":"ｱｵﾓﾘｹﾝ","cityKana":"ﾋﾛｻｷｼ","streetKana":"ｼﾞｭﾓｸ","prefecture":"青森県","city":"弘前市","street":"樹木"},{"zipCode":"0368275","prefectureKana":"ｱｵﾓﾘｹﾝ","cityKana":"ﾋﾛｻｷｼ","streetKana":"ｼﾞｮｳｾｲ","prefecture":"青森県","city":"弘前市","street":"城西"},{"zipCode":"0368095","prefectureKana":"ｱｵﾓﾘｹﾝ","cityKana":"ﾋﾛｻｷｼ","streetKana":"ｼﾞｮｳﾄｳ","prefecture":"青森県","city":"弘前市","street":"城東"},{"zipCode":"0368093","prefectureKana":"ｱｵﾓﾘｹﾝ","cityKana":"ﾋﾛｻｷｼ","streetKana":"ｼﾞｮｳﾄｳﾁｭｳｵｳ","prefecture":"青森県","city":"弘前市","street":"城東中央"},{"zipCode":"0368092","prefectureKana":"ｱｵﾓﾘｹﾝ","cityKana":"ﾋﾛｻｷｼ","streetKana":"ｼﾞｮｳﾄｳｷﾀ","prefecture":"青森県","city":"弘前市","street":"城東北"},{"zipCode":"0368232","prefectureKana":"ｱｵﾓﾘｹﾝ","cityKana":"ﾋﾛｻｷｼ","streetKana":"ｼﾞｮｳﾅﾝ","prefecture":"青森県","city":"弘前市","street":"城南"},{"zipCode":"0368193","prefectureKana":"ｱｵﾓﾘｹﾝ","cityKana":"ﾋﾛｻｷｼ","streetKana":"ｼﾝｶｼﾞﾏﾁ","prefecture":"青森県","city":"弘前市","street":"新鍛冶町"},{"zipCode":"0368214","prefectureKana":"ｱｵﾓﾘｹﾝ","cityKana":"ﾋﾛｻｷｼ","streetKana":"ｼﾝﾃﾗﾏﾁ","prefecture":"青森県","city":"弘前市","street":"新寺町"},{"zipCode":"0368215","prefectureKana":"ｱｵﾓﾘｹﾝ","cityKana":"ﾋﾛｻｷｼ","streetKana":"ｼﾝﾃﾗﾏﾁｼﾝﾜﾘﾁｮｳ","prefecture":"青森県","city":"弘前市","street":"新寺町新割町"},{"zipCode":"0361342","prefectureKana":"ｱｵﾓﾘｹﾝ","cityKana":"ﾋﾛｻｷｼ","streetKana":"ｼﾝﾎﾞｳｼ","prefecture":"青森県","city":"弘前市","street":"新法師"},{"zipCode":"0368085","prefectureKana":"ｱｵﾓﾘｹﾝ","cityKana":"ﾋﾛｻｷｼ","streetKana":"ｽｴﾋﾛ","prefecture":"青森県","city":"弘前市","street":"末広"},{"zipCode":"0361506","prefectureKana":"ｱｵﾓﾘｹﾝ","cityKana":"ﾋﾛｻｷｼ","streetKana":"ｽﾊﾞﾙ","prefecture":"青森県","city":"弘前市","street":"昴"},{"zipCode":"0368187","prefectureKana":"ｱｵﾓﾘｹﾝ","cityKana":"ﾋﾛｻｷｼ","streetKana":"ｽﾐﾖｼﾁｮｳ","prefecture":"青森県","city":"弘前市","street":"住吉町"},{"zipCode":"0368072","prefectureKana":"ｱｵﾓﾘｹﾝ","cityKana":"ﾋﾛｻｷｼ","streetKana":"ｾｲﾉﾌｸﾛ","prefecture":"青森県","city":"弘前市","street":"清野袋"},{"zipCode":"0361515","prefectureKana":"ｱｵﾓﾘｹﾝ","cityKana":"ﾋﾛｻｷｼ","streetKana":"ｿｳﾏ","prefecture":"青森県","city":"弘前市","street":"相馬"},{"zipCode":"0368001","prefectureKana":"ｱｵﾓﾘｹﾝ","cityKana":"ﾋﾛｻｷｼ","streetKana":"ﾀﾞｲｶﾝﾁｮｳ","prefecture":"青森県","city":"弘前市","street":"代官町"},{"zipCode":"0361344","prefectureKana":"ｱｵﾓﾘｹﾝ","cityKana":"ﾋﾛｻｷｼ","streetKana":"ﾀｶｵｶ","prefecture":"青森県","city":"弘前市","street":"高岡"},{"zipCode":"0368091","prefectureKana":"ｱｵﾓﾘｹﾝ","cityKana":"ﾋﾛｻｷｼ","streetKana":"ﾀｶｻｷ","prefecture":"青森県","city":"弘前市","street":"高崎"},{"zipCode":"0368271","prefectureKana":"ｱｵﾓﾘｹﾝ","cityKana":"ﾋﾛｻｷｼ","streetKana":"ﾀｶｼﾞｮｳﾏﾁ","prefecture":"青森県","city":"弘前市","street":"鷹匠町"},{"zipCode":"0368302","prefectureKana":"ｱｵﾓﾘｹﾝ","cityKana":"ﾋﾛｻｷｼ","streetKana":"ﾀｶｽｷﾞ","prefecture":"青森県","city":"弘前市","street":"高杉"},{"zipCode":"0368084","prefectureKana":"ｱｵﾓﾘｹﾝ","cityKana":"ﾋﾛｻｷｼ","streetKana":"ﾀｶﾀﾞ","prefecture":"青森県","city":"弘前市","street":"高田"},{"zipCode":"0361312","prefectureKana":"ｱｵﾓﾘｹﾝ","cityKana":"ﾋﾛｻｷｼ","streetKana":"ﾀｶﾔ","prefecture":"青森県","city":"弘前市","street":"高屋"},{"zipCode":"0368018","prefectureKana":"ｱｵﾓﾘｹﾝ","cityKana":"ﾋﾛｻｷｼ","streetKana":"ﾀｼﾛﾁｮｳ","prefecture":"青森県","city":"弘前市","street":"田代町"},{"zipCode":"0361324","prefectureKana":"ｱｵﾓﾘｹﾝ","cityKana":"ﾋﾛｻｷｼ","streetKana":"ﾀﾂﾉｸﾁ","prefecture":"青森県","city":"弘前市","street":"龍ノ口"},{"zipCode":"0361432","prefectureKana":"ｱｵﾓﾘｹﾝ","cityKana":"ﾋﾛｻｷｼ","streetKana":"ﾀﾃｳｼﾛ","prefecture":"青森県","city":"弘前市","street":"館後"},{"zipCode":"0368234","prefectureKana":"ｱｵﾓﾘｹﾝ","cityKana":"ﾋﾛｻｷｼ","streetKana":"ﾀﾃﾉ","prefecture":"青森県","city":"弘前市","street":"館野"},{"zipCode":"0368054","prefectureKana":"ｱｵﾓﾘｹﾝ","cityKana":"ﾋﾛｻｷｼ","streetKana":"ﾀﾏﾁ","prefecture":"青森県","city":"弘前市","street":"田町"},{"zipCode":"0368055","prefectureKana":"ｱｵﾓﾘｹﾝ","cityKana":"ﾋﾛｻｷｼ","streetKana":"ﾀﾓｷﾞﾏﾁ","prefecture":"青森県","city":"弘前市","street":"田茂木町"},{"zipCode":"0368041","prefectureKana":"ｱｵﾓﾘｹﾝ","cityKana":"ﾋﾛｻｷｼ","streetKana":"ﾀﾜﾗﾓﾄ","prefecture":"青森県","city":"弘前市","street":"俵元"},{"zipCode":"0368131","prefectureKana":"ｱｵﾓﾘｹﾝ","cityKana":"ﾋﾛｻｷｼ","streetKana":"ﾁﾄｾ","prefecture":"青森県","city":"弘前市","street":"千年"},{"zipCode":"0368044","prefectureKana":"ｱｵﾓﾘｹﾝ","cityKana":"ﾋﾛｻｷｼ","streetKana":"ﾁｬﾊﾞﾀｹﾁｮｳ","prefecture":"青森県","city":"弘前市","street":"茶畑町"},{"zipCode":"0368074","prefectureKana":"ｱｵﾓﾘｹﾝ","cityKana":"ﾋﾛｻｷｼ","streetKana":"ﾂｶﾉ(ｾﾉｳｴ)","prefecture":"青森県","city":"弘前市","street":"津賀野（瀬ノ上）"},{"zipCode":"0368374","prefectureKana":"ｱｵﾓﾘｹﾝ","cityKana":"ﾋﾛｻｷｼ","streetKana":"ﾂﾁﾄﾞｳ","prefecture":"青森県","city":"弘前市","street":"土堂"},{"zipCode":"0368036","prefectureKana":"ｱｵﾓﾘｹﾝ","cityKana":"ﾋﾛｻｷｼ","streetKana":"ﾃｯﾎﾟｳﾏﾁ","prefecture":"青森県","city":"弘前市","street":"鉄砲町"},{"zipCode":"0368086","prefectureKana":"ｱｵﾓﾘｹﾝ","cityKana":"ﾋﾛｻｷｼ","streetKana":"ﾃﾞﾝｴﾝ","prefecture":"青森県","city":"弘前市","street":"田園"},{"zipCode":"0368319","prefectureKana":"ｱｵﾓﾘｹﾝ","cityKana":"ﾋﾛｻｷｼ","streetKana":"ﾄｳﾅｲﾏﾁ","prefecture":"青森県","city":"弘前市","street":"藤内町"},{"zipCode":"0368196","prefectureKana":"ｱｵﾓﾘｹﾝ","cityKana":"ﾋﾛｻｷｼ","streetKana":"ﾄﾞｳﾔﾏﾁ","prefecture":"青森県","city":"弘前市","street":"銅屋町"},{"zipCode":"0368263","prefectureKana":"ｱｵﾓﾘｹﾝ","cityKana":"ﾋﾛｻｷｼ","streetKana":"ﾄｷﾜｻﾞｶ","prefecture":"青森県","city":"弘前市","street":"常盤坂"},{"zipCode":"0361345","prefectureKana":"ｱｵﾓﾘｹﾝ","cityKana":"ﾋﾛｻｷｼ","streetKana":"ﾄｷﾜﾉ","prefecture":"青森県","city":"弘前市","street":"常盤野"},{"zipCode":"0368032","prefectureKana":"ｱｵﾓﾘｹﾝ","cityKana":"ﾋﾛｻｷｼ","streetKana":"ﾄｸﾀﾞﾁｮｳ","prefecture":"青森県","city":"弘前市","street":"徳田町"},{"zipCode":"0361201","prefectureKana":"ｱｵﾓﾘｹﾝ","cityKana":"ﾋﾛｻｷｼ","streetKana":"ﾄｺｼﾅｲ","prefecture":"青森県","city":"弘前市","street":"十腰内"},{"zipCode":"0368381","prefectureKana":"ｱｵﾓﾘｹﾝ","cityKana":"ﾋﾛｻｷｼ","streetKana":"ﾄｯｺ","prefecture":"青森県","city":"弘前市","street":"独狐"},{"zipCode":"0361202","prefectureKana":"ｱｵﾓﾘｹﾝ","cityKana":"ﾋﾛｻｷｼ","streetKana":"ﾄﾂﾗｻﾞﾜ","prefecture":"青森県","city":"弘前市","street":"十面沢"},{"zipCode":"0368182","prefectureKana":"ｱｵﾓﾘｹﾝ","cityKana":"ﾋﾛｻｷｼ","streetKana":"ﾄﾞﾃﾏﾁ","prefecture":"青森県","city":"弘前市","street":"土手町"},{"zipCode":"0368094","prefectureKana":"ｱｵﾓﾘｹﾝ","cityKana":"ﾋﾛｻｷｼ","streetKana":"ﾄﾉｻｷ","prefecture":"青森県","city":"弘前市","street":"外崎"},{"zipCode":"0368317","prefectureKana":"ｱｵﾓﾘｹﾝ","cityKana":"ﾋﾛｻｷｼ","streetKana":"ﾄﾉｾ","prefecture":"青森県","city":"弘前市","street":"外瀬"},{"zipCode":"0368382","prefectureKana":"ｱｵﾓﾘｹﾝ","cityKana":"ﾋﾛｻｷｼ","streetKana":"ﾄﾐｻｶｴ","prefecture":"青森県","city":"弘前市","street":"富栄"},{"zipCode":"0368186","prefectureKana":"ｱｵﾓﾘｹﾝ","cityKana":"ﾋﾛｻｷｼ","streetKana":"ﾄﾐﾀ","prefecture":"青森県","city":"弘前市","street":"富田"},{"zipCode":"0368173","prefectureKana":"ｱｵﾓﾘｹﾝ","cityKana":"ﾋﾛｻｷｼ","streetKana":"ﾄﾐﾀﾏﾁ","prefecture":"青森県","city":"弘前市","street":"富田町"},{"zipCode":"0368174","prefectureKana":"ｱｵﾓﾘｹﾝ","cityKana":"ﾋﾛｻｷｼ","streetKana":"ﾄﾐﾉﾁｮｳ","prefecture":"青森県","city":"弘前市","street":"富野町"},{"zipCode":"0368101","prefectureKana":"ｱｵﾓﾘｹﾝ","cityKana":"ﾋﾛｻｷｼ","streetKana":"ﾄﾖﾀﾞ","prefecture":"青森県","city":"弘前市","street":"豊田"},{"zipCode":"0368154","prefectureKana":"ｱｵﾓﾘｹﾝ","cityKana":"ﾋﾛｻｷｼ","streetKana":"ﾄﾖﾊﾗ","prefecture":"青森県","city":"弘前市","street":"豊原"},{"zipCode":"0368171","prefectureKana":"ｱｵﾓﾘｹﾝ","cityKana":"ﾋﾛｻｷｼ","streetKana":"ﾄﾘｱｹﾞ","prefecture":"青森県","city":"弘前市","street":"取上"},{"zipCode":"0361333","prefectureKana":"ｱｵﾓﾘｹﾝ","cityKana":"ﾋﾛｻｷｼ","streetKana":"ﾄﾘｲﾉ","prefecture":"青森県","city":"弘前市","street":"鳥井野"},{"zipCode":"0368075","prefectureKana":"ｱｵﾓﾘｹﾝ","cityKana":"ﾋﾛｻｷｼ","streetKana":"ﾅｲｼﾞｮｳｼ","prefecture":"青森県","city":"弘前市","street":"撫牛子"},{"zipCode":"0368015","prefectureKana":"ｱｵﾓﾘｹﾝ","cityKana":"ﾋﾛｻｷｼ","streetKana":"ﾅｶｶﾜﾗｹﾁｮｳ","prefecture":"青森県","city":"弘前市","street":"中瓦ケ町"},{"zipCode":"0368313","prefectureKana":"ｱｵﾓﾘｹﾝ","cityKana":"ﾋﾛｻｷｼ","streetKana":"ﾅｶｻﾞｷ","prefecture":"青森県","city":"弘前市","street":"中崎"},{"zipCode":"0368155","prefectureKana":"ｱｵﾓﾘｹﾝ","cityKana":"ﾋﾛｻｷｼ","streetKana":"ﾅｶﾉ(ﾁｮｳﾒ)","prefecture":"青森県","city":"弘前市","street":"中野（丁目）"},{"zipCode":"0361451","prefectureKana":"ｱｵﾓﾘｹﾝ","cityKana":"ﾋﾛｻｷｼ","streetKana":"ﾅｶﾉ(ｿﾉﾀ)","prefecture":"青森県","city":"弘前市","street":"中野（その他）"},{"zipCode":"0361452","prefectureKana":"ｱｵﾓﾘｹﾝ","cityKana":"ﾋﾛｻｷｼ","streetKana":"ﾅｶﾊﾀ","prefecture":"青森県","city":"弘前市","street":"中畑"},{"zipCode":"0368385","prefectureKana":"ｱｵﾓﾘｹﾝ","cityKana":"ﾋﾛｻｷｼ","streetKana":"ﾅｶﾍﾞｯｼｮ","prefecture":"青森県","city":"弘前市","street":"中別所"},{"zipCode":"0368344","prefectureKana":"ｱｵﾓﾘｹﾝ","cityKana":"ﾋﾛｻｷｼ","streetKana":"ﾅｶﾞｻｶﾁｮｳ","prefecture":"青森県","city":"弘前市","street":"長坂町"},{"zipCode":"0361206","prefectureKana":"ｱｵﾓﾘｹﾝ","cityKana":"ﾋﾛｻｷｼ","streetKana":"ﾅﾗﾉｷ","prefecture":"青森県","city":"弘前市","street":"楢木"},{"zipCode":"0368212","prefectureKana":"ｱｵﾓﾘｹﾝ","cityKana":"ﾋﾛｻｷｼ","streetKana":"ﾅﾝﾄｳﾁｮｳ","prefecture":"青森県","city":"弘前市","street":"南塘町"},{"zipCode":"0361304","prefectureKana":"ｱｵﾓﾘｹﾝ","cityKana":"ﾋﾛｻｷｼ","streetKana":"ﾆｲｵｶ","prefecture":"青森県","city":"弘前市","street":"新岡"},{"zipCode":"0368083","prefectureKana":"ｱｵﾓﾘｹﾝ","cityKana":"ﾋﾛｻｷｼ","streetKana":"ﾆｻﾄ","prefecture":"青森県","city":"弘前市","street":"新里"},{"zipCode":"0368017","prefectureKana":"ｱｵﾓﾘｹﾝ","cityKana":"ﾋﾛｻｷｼ","streetKana":"ﾆｼｶﾜｷﾞｼﾁｮｳ","prefecture":"青森県","city":"弘前市","street":"西川岸町"},{"zipCode":"0368225","prefectureKana":"ｱｵﾓﾘｹﾝ","cityKana":"ﾋﾛｻｷｼ","streetKana":"ﾆｼｶﾞｵｶﾁｮｳ","prefecture":"青森県","city":"弘前市","street":"西ケ丘町"},{"zipCode":"0368273","prefectureKana":"ｱｵﾓﾘｹﾝ","cityKana":"ﾋﾛｻｷｼ","streetKana":"ﾆｼｼｹﾞﾓﾘ","prefecture":"青森県","city":"弘前市","street":"西茂森"},{"zipCode":"0368065","prefectureKana":"ｱｵﾓﾘｹﾝ","cityKana":"ﾋﾛｻｷｼ","streetKana":"ﾆｼｼﾞｮｳﾎｸ","prefecture":"青森県","city":"弘前市","street":"西城北"},{"zipCode":"0368365","prefectureKana":"ｱｵﾓﾘｹﾝ","cityKana":"ﾋﾛｻｷｼ","streetKana":"ﾆｼﾀﾞｲｸﾏﾁ","prefecture":"青森県","city":"弘前市","street":"西大工町"},{"zipCode":"0368122","prefectureKana":"ｱｵﾓﾘｹﾝ","cityKana":"ﾋﾛｻｷｼ","streetKana":"ﾆｭｳｲ","prefecture":"青森県","city":"弘前市","street":"乳井"},{"zipCode":"0361334","prefectureKana":"ｱｵﾓﾘｹﾝ","cityKana":"ﾋﾛｻｷｼ","streetKana":"ﾆｮﾗｲｾ","prefecture":"青森県","city":"弘前市","street":"如来瀬"},{"zipCode":"0368301","prefectureKana":"ｱｵﾓﾘｹﾝ","cityKana":"ﾋﾛｻｷｼ","streetKana":"ﾇｶﾂﾎﾞ","prefecture":"青森県","city":"弘前市","street":"糠坪"},{"zipCode":"0368056","prefectureKana":"ｱｵﾓﾘｹﾝ","cityKana":"ﾋﾛｻｷｼ","streetKana":"ﾈｷﾞﾏﾁ","prefecture":"青森県","city":"弘前市","street":"禰宜町"},{"zipCode":"0368045","prefectureKana":"ｱｵﾓﾘｹﾝ","cityKana":"ﾋﾛｻｷｼ","streetKana":"ﾉﾀﾞ","prefecture":"青森県","city":"弘前市","street":"野田"},{"zipCode":"0368334","prefectureKana":"ｱｵﾓﾘｹﾝ","cityKana":"ﾋﾛｻｷｼ","streetKana":"ﾊﾞｸﾛﾁｮｳ","prefecture":"青森県","city":"弘前市","street":"馬喰町"},{"zipCode":"0368057","prefectureKana":"ｱｵﾓﾘｹﾝ","cityKana":"ﾋﾛｻｷｼ","streetKana":"ﾊﾁﾏﾝﾁｮｳ","prefecture":"青森県","city":"弘前市","street":"八幡町"},{"zipCode":"0361301","prefectureKana":"ｱｵﾓﾘｹﾝ","cityKana":"ﾋﾛｻｷｼ","streetKana":"ﾊﾅﾜ","prefecture":"青森県","city":"弘前市","street":"鼻和"},{"zipCode":"0368323","prefectureKana":"ｱｵﾓﾘｹﾝ","cityKana":"ﾋﾛｻｷｼ","streetKana":"ﾊﾏﾉﾏﾁﾋｶﾞｼ","prefecture":"青森県","city":"弘前市","street":"浜の町東"},{"zipCode":"0368324","prefectureKana":"ｱｵﾓﾘｹﾝ","cityKana":"ﾋﾛｻｷｼ","streetKana":"ﾊﾏﾉﾏﾁﾆｼ","prefecture":"青森県","city":"弘前市","street":"浜の町西"},{"zipCode":"0368325","prefectureKana":"ｱｵﾓﾘｹﾝ","cityKana":"ﾋﾛｻｷｼ","streetKana":"ﾊﾏﾉﾏﾁｷﾀ","prefecture":"青森県","city":"弘前市","street":"浜の町北"},{"zipCode":"0368144","prefectureKana":"ｱｵﾓﾘｹﾝ","cityKana":"ﾋﾛｻｷｼ","streetKana":"ﾊﾗｶﾞﾀｲ","prefecture":"青森県","city":"弘前市","street":"原ケ平"},{"zipCode":"0361453","prefectureKana":"ｱｵﾓﾘｹﾝ","cityKana":"ﾋﾛｻｷｼ","streetKana":"ﾊﾞﾝﾀﾞﾃ","prefecture":"青森県","city":"弘前市","street":"番館"},{"zipCode":"0368064","prefectureKana":"ｱｵﾓﾘｹﾝ","cityKana":"ﾋﾛｻｷｼ","streetKana":"ﾋｶﾞｼｼﾞｮｳﾎｸ","prefecture":"青森県","city":"弘前市","street":"東城北"},{"zipCode":"0368343","prefectureKana":"ｱｵﾓﾘｹﾝ","cityKana":"ﾋﾛｻｷｼ","streetKana":"ﾋｶﾞｼﾅｶﾞﾏﾁ","prefecture":"青森県","city":"弘前市","street":"東長町"},{"zipCode":"0368043","prefectureKana":"ｱｵﾓﾘｹﾝ","cityKana":"ﾋﾛｻｷｼ","streetKana":"ﾋｶﾞｼﾜﾄｸﾏﾁ","prefecture":"青森県","city":"弘前市","street":"東和徳町"},{"zipCode":"0368278","prefectureKana":"ｱｵﾓﾘｹﾝ","cityKana":"ﾋﾛｻｷｼ","streetKana":"ﾋﾉｸﾁ","prefecture":"青森県","city":"弘前市","street":"樋の口"},{"zipCode":"0368276","prefectureKana":"ｱｵﾓﾘｹﾝ","cityKana":"ﾋﾛｻｷｼ","streetKana":"ﾋﾉｸﾁﾏﾁ","prefecture":"青森県","city":"弘前市","street":"樋の口町"},{"zipCode":"0361343","prefectureKana":"ｱｵﾓﾘｹﾝ","cityKana":"ﾋﾛｻｷｼ","streetKana":"ﾋｬｸｻﾞﾜ","prefecture":"青森県","city":"弘前市","street":"百沢"},{"zipCode":"0368035","prefectureKana":"ｱｵﾓﾘｹﾝ","cityKana":"ﾋﾛｻｷｼ","streetKana":"ﾋｬｯｺｸﾏﾁ","prefecture":"青森県","city":"弘前市","street":"百石町"},{"zipCode":"0368351","prefectureKana":"ｱｵﾓﾘｹﾝ","cityKana":"ﾋﾛｻｷｼ","streetKana":"ﾋｬｯｺｸﾏﾁｺｳｼﾞ","prefecture":"青森県","city":"弘前市","street":"百石町小路"},{"zipCode":"0368367","prefectureKana":"ｱｵﾓﾘｹﾝ","cityKana":"ﾋﾛｻｷｼ","streetKana":"ﾋﾗｵｶﾏﾁ","prefecture":"青森県","city":"弘前市","street":"平岡町"},{"zipCode":"0361442","prefectureKana":"ｱｵﾓﾘｹﾝ","cityKana":"ﾋﾛｻｷｼ","streetKana":"ﾋﾗﾔﾏ","prefecture":"青森県","city":"弘前市","street":"平山"},{"zipCode":"0368115","prefectureKana":"ｱｵﾓﾘｹﾝ","cityKana":"ﾋﾛｻｷｼ","streetKana":"ﾋﾛﾉ","prefecture":"青森県","city":"弘前市","street":"広野"},{"zipCode":"0368081","prefectureKana":"ｱｵﾓﾘｹﾝ","cityKana":"ﾋﾛｻｷｼ","streetKana":"ﾌｸﾀﾞ","prefecture":"青森県","city":"弘前市","street":"福田"},{"zipCode":"0368082","prefectureKana":"ｱｵﾓﾘｹﾝ","cityKana":"ﾋﾛｻｷｼ","streetKana":"ﾌｸﾑﾗ","prefecture":"青森県","city":"弘前市","street":"福村"},{"zipCode":"0368363","prefectureKana":"ｱｵﾓﾘｹﾝ","cityKana":"ﾋﾛｻｷｼ","streetKana":"ﾌｸﾛﾏﾁ","prefecture":"青森県","city":"弘前市","street":"袋町"},{"zipCode":"0361512","prefectureKana":"ｱｵﾓﾘｹﾝ","cityKana":"ﾋﾛｻｷｼ","streetKana":"ﾌｼﾞｻﾜ","prefecture":"青森県","city":"弘前市","street":"藤沢"},{"zipCode":"0368373","prefectureKana":"ｱｵﾓﾘｹﾝ","cityKana":"ﾋﾛｻｷｼ","streetKana":"ﾌｼﾞｼﾛ","prefecture":"青森県","city":"弘前市","street":"藤代"},{"zipCode":"0368326","prefectureKana":"ｱｵﾓﾘｹﾝ","cityKana":"ﾋﾛｻｷｼ","streetKana":"ﾌｼﾞﾉ","prefecture":"青森県","city":"弘前市","street":"藤野"},{"zipCode":"0368143","prefectureKana":"ｱｵﾓﾘｹﾝ","cityKana":"ﾋﾛｻｷｼ","streetKana":"ﾌｼﾞﾐﾀﾞｲ","prefecture":"青森県","city":"弘前市","street":"富士見台"},{"zipCode":"0368223","prefectureKana":"ｱｵﾓﾘｹﾝ","cityKana":"ﾋﾛｻｷｼ","streetKana":"ﾌｼﾞﾐﾁｮｳ","prefecture":"青森県","city":"弘前市","street":"富士見町"},{"zipCode":"0368315","prefectureKana":"ｱｵﾓﾘｹﾝ","cityKana":"ﾋﾛｻｷｼ","streetKana":"ﾌﾅﾐｽﾞ","prefecture":"青森県","city":"弘前市","street":"船水"},{"zipCode":"0368224","prefectureKana":"ｱｵﾓﾘｹﾝ","cityKana":"ﾋﾛｻｷｼ","streetKana":"ﾌﾞﾝｷｮｳﾁｮｳ","prefecture":"青森県","city":"弘前市","street":"文京町"},{"zipCode":"0368375","prefectureKana":"ｱｵﾓﾘｹﾝ","cityKana":"ﾋﾛｻｷｼ","streetKana":"ﾎｿｺﾞｴ","prefecture":"青森県","city":"弘前市","street":"細越"},{"zipCode":"0368112","prefectureKana":"ｱｵﾓﾘｹﾝ","cityKana":"ﾋﾛｻｷｼ","streetKana":"ﾎﾘｺｼ","prefecture":"青森県","city":"弘前市","street":"堀越"},{"zipCode":"0368203","prefectureKana":"ｱｵﾓﾘｹﾝ","cityKana":"ﾋﾛｻｷｼ","streetKana":"ﾎﾝﾁｮｳ","prefecture":"青森県","city":"弘前市","street":"本町"},{"zipCode":"0368303","prefectureKana":"ｱｵﾓﾘｹﾝ","cityKana":"ﾋﾛｻｷｼ","streetKana":"ﾏｴｻﾞｶ","prefecture":"青森県","city":"弘前市","street":"前坂"},{"zipCode":"0368371","prefectureKana":"ｱｵﾓﾘｹﾝ","cityKana":"ﾋﾛｻｷｼ","streetKana":"ﾏｶﾅｴ","prefecture":"青森県","city":"弘前市","street":"蒔苗"},{"zipCode":"0368314","prefectureKana":"ｱｵﾓﾘｹﾝ","cityKana":"ﾋﾛｻｷｼ","streetKana":"ﾏﾁﾀﾞ","prefecture":"青森県","city":"弘前市","street":"町田"},{"zipCode":"0368042","prefectureKana":"ｱｵﾓﾘｹﾝ","cityKana":"ﾋﾛｻｷｼ","streetKana":"ﾏﾂｶﾞｴ","prefecture":"青森県","city":"弘前市","street":"松ケ枝"},{"zipCode":"0368126","prefectureKana":"ｱｵﾓﾘｹﾝ","cityKana":"ﾋﾛｻｷｼ","streetKana":"ﾏﾂｷﾀｲ","prefecture":"青森県","city":"弘前市","street":"松木平"},{"zipCode":"0361323","prefectureKana":"ｱｵﾓﾘｹﾝ","cityKana":"ﾋﾛｻｷｼ","streetKana":"ﾏﾂﾁ","prefecture":"青森県","city":"弘前市","street":"真土"},{"zipCode":"0368141","prefectureKana":"ｱｵﾓﾘｹﾝ","cityKana":"ﾋﾛｻｷｼ","streetKana":"ﾏﾂﾊﾞﾗﾋｶﾞｼ","prefecture":"青森県","city":"弘前市","street":"松原東"},{"zipCode":"0368142","prefectureKana":"ｱｵﾓﾘｹﾝ","cityKana":"ﾋﾛｻｷｼ","streetKana":"ﾏﾂﾊﾞﾗﾆｼ","prefecture":"青森県","city":"弘前市","street":"松原西"},{"zipCode":"0368184","prefectureKana":"ｱｵﾓﾘｹﾝ","cityKana":"ﾋﾛｻｷｼ","streetKana":"ﾏﾂﾓﾘﾏﾁ","prefecture":"青森県","city":"弘前市","street":"松森町"},{"zipCode":"0368357","prefectureKana":"ｱｵﾓﾘｹﾝ","cityKana":"ﾋﾛｻｷｼ","streetKana":"ﾏﾔﾁｮｳ","prefecture":"青森県","city":"弘前市","street":"馬屋町"},{"zipCode":"0361505","prefectureKana":"ｱｵﾓﾘｹﾝ","cityKana":"ﾋﾛｻｷｼ","streetKana":"ﾐｽﾞｷｻﾞｲｹ","prefecture":"青森県","city":"弘前市","street":"水木在家"},{"zipCode":"0368153","prefectureKana":"ｱｵﾓﾘｹﾝ","cityKana":"ﾋﾛｻｷｼ","streetKana":"ﾐﾀｹﾁｮｳ","prefecture":"青森県","city":"弘前市","street":"三岳町"},{"zipCode":"0368253","prefectureKana":"ｱｵﾓﾘｹﾝ","cityKana":"ﾋﾛｻｷｼ","streetKana":"ﾐﾄﾞﾘｶﾞｵｶ","prefecture":"青森県","city":"弘前市","street":"緑ケ丘"},{"zipCode":"0368024","prefectureKana":"ｱｵﾓﾘｹﾝ","cityKana":"ﾋﾛｻｷｼ","streetKana":"ﾐﾄﾞﾘﾁｮｳ","prefecture":"青森県","city":"弘前市","street":"緑町"},{"zipCode":"0368006","prefectureKana":"ｱｵﾓﾘｹﾝ","cityKana":"ﾋﾛｻｷｼ","streetKana":"ﾐﾅﾐｵｵﾏﾁ","prefecture":"青森県","city":"弘前市","street":"南大町"},{"zipCode":"0368195","prefectureKana":"ｱｵﾓﾘｹﾝ","cityKana":"ﾋﾛｻｷｼ","streetKana":"ﾐﾅﾐｶﾜﾊﾞﾀﾁｮｳ","prefecture":"青森県","city":"弘前市","street":"南川端町"},{"zipCode":"0368014","prefectureKana":"ｱｵﾓﾘｹﾝ","cityKana":"ﾋﾛｻｷｼ","streetKana":"ﾐﾅﾐｶﾜﾗｹﾁｮｳ","prefecture":"青森県","city":"弘前市","street":"南瓦ケ町"},{"zipCode":"0368274","prefectureKana":"ｱｵﾓﾘｹﾝ","cityKana":"ﾋﾛｻｷｼ","streetKana":"ﾐﾅﾐｼﾞｮｳｾｲ","prefecture":"青森県","city":"弘前市","street":"南城西"},{"zipCode":"0368172","prefectureKana":"ｱｵﾓﾘｹﾝ","cityKana":"ﾋﾛｻｷｼ","streetKana":"ﾐﾅﾐﾄﾐﾀﾏﾁ","prefecture":"青森県","city":"弘前市","street":"南富田町"},{"zipCode":"0368272","prefectureKana":"ｱｵﾓﾘｹﾝ","cityKana":"ﾋﾛｻｷｼ","streetKana":"ﾐﾅﾐﾌｸﾛﾏﾁ","prefecture":"青森県","city":"弘前市","street":"南袋町"},{"zipCode":"0368025","prefectureKana":"ｱｵﾓﾘｹﾝ","cityKana":"ﾋﾛｻｷｼ","streetKana":"ﾐﾅﾐﾔﾅｷﾞﾁｮｳ","prefecture":"青森県","city":"弘前市","street":"南柳町"},{"zipCode":"0368026","prefectureKana":"ｱｵﾓﾘｹﾝ","cityKana":"ﾋﾛｻｷｼ","streetKana":"ﾐﾅﾐﾖｺﾁｮｳ","prefecture":"青森県","city":"弘前市","street":"南横町"},{"zipCode":"0368231","prefectureKana":"ｱｵﾓﾘｹﾝ","cityKana":"ﾋﾛｻｷｼ","streetKana":"ﾐﾉﾘﾁｮｳ","prefecture":"青森県","city":"弘前市","street":"稔町"},{"zipCode":"0368051","prefectureKana":"ｱｵﾓﾘｹﾝ","cityKana":"ﾋﾛｻｷｼ","streetKana":"ﾐﾔｶﾜ","prefecture":"青森県","city":"弘前市","street":"宮川"},{"zipCode":"0361341","prefectureKana":"ｱｵﾓﾘｹﾝ","cityKana":"ﾋﾛｻｷｼ","streetKana":"ﾐﾔｼﾞ","prefecture":"青森県","city":"弘前市","street":"宮地"},{"zipCode":"0368063","prefectureKana":"ｱｵﾓﾘｹﾝ","cityKana":"ﾋﾛｻｷｼ","streetKana":"ﾐﾔｿﾞﾉ","prefecture":"青森県","city":"弘前市","street":"宮園"},{"zipCode":"0368384","prefectureKana":"ｱｵﾓﾘｹﾝ","cityKana":"ﾋﾛｻｷｼ","streetKana":"ﾐﾔﾀﾞﾃ","prefecture":"青森県","city":"弘前市","street":"宮舘"},{"zipCode":"0368185","prefectureKana":"ｱｵﾓﾘｹﾝ","cityKana":"ﾋﾛｻｷｼ","streetKana":"ﾐﾕｷﾁｮｳ","prefecture":"青森県","city":"弘前市","street":"御幸町"},{"zipCode":"0368066","prefectureKana":"ｱｵﾓﾘｹﾝ","cityKana":"ﾋﾛｻｷｼ","streetKana":"ﾑｶｲﾄﾉｾ","prefecture":"青森県","city":"弘前市","street":"向外瀬"},{"zipCode":"0368202","prefectureKana":"ｱｵﾓﾘｹﾝ","cityKana":"ﾋﾛｻｷｼ","streetKana":"ﾓﾄﾀﾞｲｸﾏﾁ","prefecture":"青森県","city":"弘前市","street":"元大工町"},{"zipCode":"0368355","prefectureKana":"ｱｵﾓﾘｹﾝ","cityKana":"ﾋﾛｻｷｼ","streetKana":"ﾓﾄﾃﾗﾏﾁ","prefecture":"青森県","city":"弘前市","street":"元寺町"},{"zipCode":"0368352","prefectureKana":"ｱｵﾓﾘｹﾝ","cityKana":"ﾋﾛｻｷｼ","streetKana":"ﾓﾄﾃﾗﾏﾁｺｳｼﾞ","prefecture":"青森県","city":"弘前市","street":"元寺町小路"},{"zipCode":"0368198","prefectureKana":"ｱｵﾓﾘｹﾝ","cityKana":"ﾋﾛｻｷｼ","streetKana":"ﾓﾄﾅｶﾞﾏﾁ","prefecture":"青森県","city":"弘前市","street":"元長町"},{"zipCode":"0368372","prefectureKana":"ｱｵﾓﾘｹﾝ","cityKana":"ﾋﾛｻｷｼ","streetKana":"ﾓﾄﾔｸｼﾄﾞｳ","prefecture":"青森県","city":"弘前市","street":"元薬師堂"},{"zipCode":"0368205","prefectureKana":"ｱｵﾓﾘｹﾝ","cityKana":"ﾋﾛｻｷｼ","streetKana":"ﾓﾘﾁｮｳ","prefecture":"青森県","city":"弘前市","street":"森町"},{"zipCode":"0368121","prefectureKana":"ｱｵﾓﾘｹﾝ","cityKana":"ﾋﾛｻｷｼ","streetKana":"ﾔｸｼﾄﾞｳ","prefecture":"青森県","city":"弘前市","street":"薬師堂"},{"zipCode":"0368318","prefectureKana":"ｱｵﾓﾘｹﾝ","cityKana":"ﾋﾛｻｷｼ","streetKana":"ﾔｼﾛﾏﾁ","prefecture":"青森県","city":"弘前市","street":"八代町"},{"zipCode":"0368162","prefectureKana":"ｱｵﾓﾘｹﾝ","cityKana":"ﾋﾛｻｷｼ","streetKana":"ﾔｽﾊﾗ","prefecture":"青森県","city":"弘前市","street":"安原"},{"zipCode":"0368321","prefectureKana":"ｱｵﾓﾘｹﾝ","cityKana":"ﾋﾛｻｷｼ","streetKana":"ﾔﾁﾅｶ","prefecture":"青森県","city":"弘前市","street":"萢中"},{"zipCode":"0368233","prefectureKana":"ｱｵﾓﾘｹﾝ","cityKana":"ﾋﾛｻｷｼ","streetKana":"ﾔﾏｻﾞｷ","prefecture":"青森県","city":"弘前市","street":"山崎"},{"zipCode":"0368011","prefectureKana":"ｱｵﾓﾘｹﾝ","cityKana":"ﾋﾛｻｷｼ","streetKana":"ﾔﾏｼﾀﾁｮｳ","prefecture":"青森県","city":"弘前市","street":"山下町"},{"zipCode":"0368181","prefectureKana":"ｱｵﾓﾘｹﾝ","cityKana":"ﾋﾛｻｷｼ","streetKana":"ﾔﾏﾐﾁﾁｮｳ","prefecture":"青森県","city":"弘前市","street":"山道町"},{"zipCode":"0361361","prefectureKana":"ｱｵﾓﾘｹﾝ","cityKana":"ﾋﾛｻｷｼ","streetKana":"ﾔﾖｲ","prefecture":"青森県","city":"弘前市","street":"弥生"},{"zipCode":"0361314","prefectureKana":"ｱｵﾓﾘｹﾝ","cityKana":"ﾋﾛｻｷｼ","streetKana":"ﾔﾜﾀ","prefecture":"青森県","city":"弘前市","street":"八幡"},{"zipCode":"0361501","prefectureKana":"ｱｵﾓﾘｹﾝ","cityKana":"ﾋﾛｻｷｼ","streetKana":"ﾕｸﾞﾁ","prefecture":"青森県","city":"弘前市","street":"湯口"},{"zipCode":"0361311","prefectureKana":"ｱｵﾓﾘｹﾝ","cityKana":"ﾋﾛｻｷｼ","streetKana":"ﾖｺﾏﾁ","prefecture":"青森県","city":"弘前市","street":"横町"},{"zipCode":"0361435","prefectureKana":"ｱｵﾓﾘｹﾝ","cityKana":"ﾋﾛｻｷｼ","streetKana":"ﾖｼｶﾜ","prefecture":"青森県","city":"弘前市","street":"吉川"},{"zipCode":"0361313","prefectureKana":"ｱｵﾓﾘｹﾝ","cityKana":"ﾋﾛｻｷｼ","streetKana":"ﾖｼﾀ","prefecture":"青森県","city":"弘前市","street":"賀田"},{"zipCode":"0368188","prefectureKana":"ｱｵﾓﾘｹﾝ","cityKana":"ﾋﾛｻｷｼ","streetKana":"ﾖｼﾉﾁｮｳ","prefecture":"青森県","city":"弘前市","street":"吉野町"},{"zipCode":"0361443","prefectureKana":"ｱｵﾓﾘｹﾝ","cityKana":"ﾋﾛｻｷｼ","streetKana":"ﾖﾈｶﾞﾌｸﾛ","prefecture":"青森県","city":"弘前市","street":"米ケ袋"},{"zipCode":"0368053","prefectureKana":"ｱｵﾓﾘｹﾝ","cityKana":"ﾋﾛｻｷｼ","streetKana":"ﾜｲｽﾞﾐ","prefecture":"青森県","city":"弘前市","street":"和泉"},{"zipCode":"0368333","prefectureKana":"ｱｵﾓﾘｹﾝ","cityKana":"ﾋﾛｻｷｼ","streetKana":"ﾜｶﾄﾞｳﾁｮｳ","prefecture":"青森県","city":"弘前市","street":"若党町"},{"zipCode":"0368255","prefectureKana":"ｱｵﾓﾘｹﾝ","cityKana":"ﾋﾛｻｷｼ","streetKana":"ﾜｶﾊﾞ","prefecture":"青森県","city":"弘前市","street":"若葉"},{"zipCode":"0368087","prefectureKana":"ｱｵﾓﾘｹﾝ","cityKana":"ﾋﾛｻｷｼ","streetKana":"ﾜｾﾀﾞ","prefecture":"青森県","city":"弘前市","street":"早稲田"},{"zipCode":"0368368","prefectureKana":"ｱｵﾓﾘｹﾝ","cityKana":"ﾋﾛｻｷｼ","streetKana":"ﾜﾀﾞﾁｮｳ","prefecture":"青森県","city":"弘前市","street":"和田町"},{"zipCode":"0368021","prefectureKana":"ｱｵﾓﾘｹﾝ","cityKana":"ﾋﾛｻｷｼ","streetKana":"ﾜﾄｸﾏﾁ","prefecture":"青森県","city":"弘前市","street":"和徳町"},{"zipCode":"0360300","prefectureKana":"ｱｵﾓﾘｹﾝ","cityKana":"ｸﾛｲｼｼ","streetKana":"ｲｶﾆｹｲｻｲｶﾞﾅｲﾊﾞｱｲ","prefecture":"青森県","city":"黒石市","street":"以下に掲載がない場合"},{"zipCode":"0360516","prefectureKana":"ｱｵﾓﾘｹﾝ","cityKana":"ｸﾛｲｼｼ","streetKana":"ｱｲﾉ","prefecture":"青森県","city":"黒石市","street":"相野"},{"zipCode":"0360325","prefectureKana":"ｱｵﾓﾘｹﾝ","cityKana":"ｸﾛｲｼｼ","streetKana":"ｱｵﾔﾏ","prefecture":"青森県","city":"黒石市","street":"青山"},{"zipCode":"0360537","prefectureKana":"ｱｵﾓﾘｹﾝ","cityKana":"ｸﾛｲｼｼ","streetKana":"ｱｶｻｶ","prefecture":"青森県","city":"黒石市","street":"赤坂"},{"zipCode":"0360321","prefectureKana":"ｱｵﾓﾘｹﾝ","cityKana":"ｸﾛｲｼｼ","streetKana":"ｱｹﾎﾞﾉﾁｮｳ","prefecture":"青森県","city":"黒石市","street":"あけぼの町"},{"zipCode":"0360376","prefectureKana":"ｱｵﾓﾘｹﾝ","cityKana":"ｸﾛｲｼｼ","streetKana":"ｱｻﾋﾁｮｳ","prefecture":"青森県","city":"黒石市","street":"旭町"},{"zipCode":"0360373","prefectureKana":"ｱｵﾓﾘｹﾝ","cityKana":"ｸﾛｲｼｼ","streetKana":"ｱｽﾞﾏﾁｮｳ","prefecture":"青森県","city":"黒石市","street":"東町"},{"zipCode":"0360343","prefectureKana":"ｱｵﾓﾘｹﾝ","cityKana":"ｸﾛｲｼｼ","streetKana":"ｱｾｲｼ","prefecture":"青森県","city":"黒石市","street":"浅瀬石"},{"zipCode":"0360302","prefectureKana":"ｱｵﾓﾘｹﾝ","cityKana":"ｸﾛｲｼｼ","streetKana":"ｱﾌﾞﾗﾖｺﾁｮｳ","prefecture":"青森県","city":"黒石市","street":"油横丁"},{"zipCode":"0360342","prefectureKana":"ｱｵﾓﾘｹﾝ","cityKana":"ｸﾛｲｼｼ","streetKana":"ｲｼﾅｻﾞｶ","prefecture":"青森県","city":"黒石市","street":"石名坂"},{"zipCode":"0360374","prefectureKana":"ｱｵﾓﾘｹﾝ","cityKana":"ｸﾛｲｼｼ","streetKana":"ｲｽﾞﾐﾁｮｳ","prefecture":"青森県","city":"黒石市","street":"泉町"},{"zipCode":"0360404","prefectureKana":"ｱｵﾓﾘｹﾝ","cityKana":"ｸﾛｲｼｼ","streetKana":"ｲﾀﾄﾞﾒ","prefecture":"青森県","city":"黒石市","street":"板留"},{"zipCode":"0360307","prefectureKana":"ｱｵﾓﾘｹﾝ","cityKana":"ｸﾛｲｼｼ","streetKana":"ｲﾁﾉﾏﾁ","prefecture":"青森県","city":"黒石市","street":"市ノ町"},{"zipCode":"0360301","prefectureKana":"ｱｵﾓﾘｹﾝ","cityKana":"ｸﾛｲｼｼ","streetKana":"ｲﾁﾊﾞﾝﾁｮｳ","prefecture":"青森県","city":"黒石市","street":"一番町"},{"zipCode":"0360318","prefectureKana":"ｱｵﾓﾘｹﾝ","cityKana":"ｸﾛｲｼｼ","streetKana":"ｲﾜｷﾁｮｳ","prefecture":"青森県","city":"黒石市","street":"岩木町"},{"zipCode":"0360354","prefectureKana":"ｱｵﾓﾘｹﾝ","cityKana":"ｸﾛｲｼｼ","streetKana":"ｳｼﾛﾀﾞｲｸﾏﾁ","prefecture":"青森県","city":"黒石市","street":"後大工町"},{"zipCode":"0360306","prefectureKana":"ｱｵﾓﾘｹﾝ","cityKana":"ｸﾛｲｼｼ","streetKana":"ｳﾁﾏﾁ","prefecture":"青森県","city":"黒石市","street":"内町"},{"zipCode":"0360366","prefectureKana":"ｱｵﾓﾘｹﾝ","cityKana":"ｸﾛｲｼｼ","streetKana":"ｳﾗﾏﾁ","prefecture":"青森県","city":"黒石市","street":"浦町"},{"zipCode":"0360385","prefectureKana":"ｱｵﾓﾘｹﾝ","cityKana":"ｸﾛｲｼｼ","streetKana":"ｵｵｲﾀﾏﾁ","prefecture":"青森県","city":"黒石市","street":"大板町"},{"zipCode":"0360401","prefectureKana":"ｱｵﾓﾘｹﾝ","cityKana":"ｸﾛｲｼｼ","streetKana":"ｵｵｶﾜﾗ","prefecture":"青森県","city":"黒石市","street":"大川原"},{"zipCode":"0360384","prefectureKana":"ｱｵﾓﾘｹﾝ","cityKana":"ｸﾛｲｼｼ","streetKana":"ｵｵﾏﾁ","prefecture":"青森県","city":"黒石市","street":"大町"},{"zipCode":"0360402","prefectureKana":"ｱｵﾓﾘｹﾝ","cityKana":"ｸﾛｲｼｼ","streetKana":"ｵｷｳﾗ","prefecture":"青森県","city":"黒石市","street":"沖浦"},{"zipCode":"0360357","prefectureKana":"ｱｵﾓﾘｹﾝ","cityKana":"ｸﾛｲｼｼ","streetKana":"ｵｯｺﾉｷ","prefecture":"青森県","city":"黒石市","street":"追子野木"},{"zipCode":"0360353","prefectureKana":"ｱｵﾓﾘｹﾝ","cityKana":"ｸﾛｲｼｼ","streetKana":"ｵﾂﾀﾞｲｸﾏﾁ","prefecture":"青森県","city":"黒石市","street":"乙大工町"},{"zipCode":"0360305","prefectureKana":"ｱｵﾓﾘｹﾝ","cityKana":"ｸﾛｲｼｼ","streetKana":"ｵﾂﾄｸﾍﾞｴﾏﾁ","prefecture":"青森県","city":"黒石市","street":"乙徳兵衛町"},{"zipCode":"0360337","prefectureKana":"ｱｵﾓﾘｹﾝ","cityKana":"ｸﾛｲｼｼ","streetKana":"ｶｸﾀ","prefecture":"青森県","city":"黒石市","street":"角田"},{"zipCode":"0360363","prefectureKana":"ｱｵﾓﾘｹﾝ","cityKana":"ｸﾛｲｼｼ","streetKana":"ｶｼﾞﾏﾁ","prefecture":"青森県","city":"黒石市","street":"鍛治町"},{"zipCode":"0360338","prefectureKana":"ｱｵﾓﾘｹﾝ","cityKana":"ｸﾛｲｼｼ","streetKana":"ｶｽｶﾞﾁｮｳ","prefecture":"青森県","city":"黒石市","street":"春日町"},{"zipCode":"0360323","prefectureKana":"ｱｵﾓﾘｹﾝ","cityKana":"ｸﾛｲｼｼ","streetKana":"ｶﾐﾄｶﾞﾜ","prefecture":"青森県","city":"黒石市","street":"上十川"},{"zipCode":"0360538","prefectureKana":"ｱｵﾓﾘｹﾝ","cityKana":"ｸﾛｲｼｼ","streetKana":"ｶﾐﾒﾅｲｻﾜ","prefecture":"青森県","city":"黒石市","street":"上目内澤"},{"zipCode":"0360415","prefectureKana":"ｱｵﾓﾘｹﾝ","cityKana":"ｸﾛｲｼｼ","streetKana":"ｶﾐﾔﾏｶﾞﾀ","prefecture":"青森県","city":"黒石市","street":"上山形"},{"zipCode":"0360386","prefectureKana":"ｱｵﾓﾘｹﾝ","cityKana":"ｸﾛｲｼｼ","streetKana":"ｶﾝﾏﾁ","prefecture":"青森県","city":"黒石市","street":"上町"},{"zipCode":"0360523","prefectureKana":"ｱｵﾓﾘｹﾝ","cityKana":"ｸﾛｲｼｼ","streetKana":"ｷﾀﾀﾅｶ","prefecture":"青森県","city":"黒石市","street":"北田中"},{"zipCode":"0360541","prefectureKana":"ｱｵﾓﾘｹﾝ","cityKana":"ｸﾛｲｼｼ","streetKana":"ｷﾀﾐﾁｮｳ","prefecture":"青森県","city":"黒石市","street":"北美町"},{"zipCode":"0360362","prefectureKana":"ｱｵﾓﾘｹﾝ","cityKana":"ｸﾛｲｼｼ","streetKana":"ｷｮｳﾏﾁ","prefecture":"青森県","city":"黒石市","street":"京町"},{"zipCode":"0360316","prefectureKana":"ｱｵﾓﾘｹﾝ","cityKana":"ｸﾛｲｼｼ","streetKana":"ｸﾞﾐﾉｷ","prefecture":"青森県","city":"黒石市","street":"ぐみの木"},{"zipCode":"0360381","prefectureKana":"ｱｵﾓﾘｹﾝ","cityKana":"ｸﾛｲｼｼ","streetKana":"ｸﾞﾐﾉｷ","prefecture":"青森県","city":"黒石市","street":"株梗木"},{"zipCode":"0360303","prefectureKana":"ｱｵﾓﾘｹﾝ","cityKana":"ｸﾛｲｼｼ","streetKana":"ｸﾞﾐﾉｷﾖｺﾁｮｳ","prefecture":"青森県","city":"黒石市","street":"株梗木横丁"},{"zipCode":"0360351","prefectureKana":"ｱｵﾓﾘｹﾝ","cityKana":"ｸﾛｲｼｼ","streetKana":"ｸﾛｲｼ","prefecture":"青森県","city":"黒石市","street":"黒石"},{"zipCode":"0360352","prefectureKana":"ｱｵﾓﾘｹﾝ","cityKana":"ｸﾛｲｼｼ","streetKana":"ｺｳﾀﾞｲｸﾏﾁ","prefecture":"青森県","city":"黒石市","street":"甲大工町"},{"zipCode":"0360304","prefectureKana":"ｱｵﾓﾘｹﾝ","cityKana":"ｸﾛｲｼｼ","streetKana":"ｺｳﾄｸﾍﾞｴﾏﾁ","prefecture":"青森県","city":"黒石市","street":"甲徳兵衛町"},{"zipCode":"0360344","prefectureKana":"ｱｵﾓﾘｹﾝ","cityKana":"ｸﾛｲｼｼ","streetKana":"ｺｶﾞﾉ","prefecture":"青森県","city":"黒石市","street":"高賀野"},{"zipCode":"0360315","prefectureKana":"ｱｵﾓﾘｹﾝ","cityKana":"ｸﾛｲｼｼ","streetKana":"ｺﾄﾌﾞｷﾁｮｳ","prefecture":"青森県","city":"黒石市","street":"寿町"},{"zipCode":"0360511","prefectureKana":"ｱｵﾓﾘｹﾝ","cityKana":"ｸﾛｲｼｼ","streetKana":"ｺﾔｼｷ","prefecture":"青森県","city":"黒石市","street":"小屋敷"},{"zipCode":"0360513","prefectureKana":"ｱｵﾓﾘｹﾝ","cityKana":"ｸﾛｲｼｼ","streetKana":"ｺﾔｼｷﾆｼ","prefecture":"青森県","city":"黒石市","street":"小屋敷西"},{"zipCode":"0360512","prefectureKana":"ｱｵﾓﾘｹﾝ","cityKana":"ｸﾛｲｼｼ","streetKana":"ｺﾔｼｷﾐﾅﾐ","prefecture":"青森県","city":"黒石市","street":"小屋敷南"},{"zipCode":"0360335","prefectureKana":"ｱｵﾓﾘｹﾝ","cityKana":"ｸﾛｲｼｼ","streetKana":"ｻｲﾜｲﾁｮｳ","prefecture":"青森県","city":"黒石市","street":"幸町"},{"zipCode":"0360389","prefectureKana":"ｱｵﾓﾘｹﾝ","cityKana":"ｸﾛｲｼｼ","streetKana":"ｻｶｲﾏﾂ","prefecture":"青森県","city":"黒石市","street":"境松"},{"zipCode":"0360333","prefectureKana":"ｱｵﾓﾘｹﾝ","cityKana":"ｸﾛｲｼｼ","streetKana":"ｻｸﾉｷ","prefecture":"青森県","city":"黒石市","street":"柵ノ木"},{"zipCode":"0360382","prefectureKana":"ｱｵﾓﾘｹﾝ","cityKana":"ｸﾛｲｼｼ","streetKana":"ｻｸﾊﾞﾁｮｳ","prefecture":"青森県","city":"黒石市","street":"作場町"},{"zipCode":"0360336","prefectureKana":"ｱｵﾓﾘｹﾝ","cityKana":"ｸﾛｲｼｼ","streetKana":"ｻｸﾗｷﾞﾁｮｳ","prefecture":"青森県","city":"黒石市","street":"桜木町"},{"zipCode":"0360539","prefectureKana":"ｱｵﾓﾘｹﾝ","cityKana":"ｸﾛｲｼｼ","streetKana":"ｼﾓﾒﾅｲｻﾜ","prefecture":"青森県","city":"黒石市","street":"下目内澤"},{"zipCode":"0360414","prefectureKana":"ｱｵﾓﾘｹﾝ","cityKana":"ｸﾛｲｼｼ","streetKana":"ｼﾓﾔﾏｶﾞﾀ","prefecture":"青森県","city":"黒石市","street":"下山形"},{"zipCode":"0360312","prefectureKana":"ｱｵﾓﾘｹﾝ","cityKana":"ｸﾛｲｼｼ","streetKana":"ｼｮｳﾜﾁｮｳ","prefecture":"青森県","city":"黒石市","street":"昭和町"},{"zipCode":"0360521","prefectureKana":"ｱｵﾓﾘｹﾝ","cityKana":"ｸﾛｲｼｼ","streetKana":"ｽｴﾋﾛ","prefecture":"青森県","city":"黒石市","street":"末広"},{"zipCode":"0360317","prefectureKana":"ｱｵﾓﾘｹﾝ","cityKana":"ｸﾛｲｼｼ","streetKana":"ｽﾐﾖｼﾁｮｳ","prefecture":"青森県","city":"黒石市","street":"住吉町"},{"zipCode":"0360535","prefectureKana":"ｱｵﾓﾘｹﾝ","cityKana":"ｸﾛｲｼｼ","streetKana":"ﾀｶﾀﾞﾃ","prefecture":"青森県","city":"黒石市","street":"高舘"},{"zipCode":"0360322","prefectureKana":"ｱｵﾓﾘｹﾝ","cityKana":"ｸﾛｲｼｼ","streetKana":"ﾀｹﾀﾞﾁｮｳ","prefecture":"青森県","city":"黒石市","street":"竹田町"},{"zipCode":"0360534","prefectureKana":"ｱｵﾓﾘｹﾝ","cityKana":"ｸﾛｲｼｼ","streetKana":"ﾀｹﾊﾅ","prefecture":"青森県","city":"黒石市","street":"竹鼻"},{"zipCode":"0360522","prefectureKana":"ｱｵﾓﾘｹﾝ","cityKana":"ｸﾛｲｼｼ","streetKana":"ﾀﾅｶ","prefecture":"青森県","city":"黒石市","street":"田中"},{"zipCode":"0360356","prefectureKana":"ｱｵﾓﾘｹﾝ","cityKana":"ｸﾛｲｼｼ","streetKana":"ﾁﾄｾ","prefecture":"青森県","city":"黒石市","street":"ちとせ"},{"zipCode":"0360308","prefectureKana":"ｱｵﾓﾘｹﾝ","cityKana":"ｸﾛｲｼｼ","streetKana":"ﾃﾗｺｳｼﾞ","prefecture":"青森県","city":"黒石市","street":"寺小路"},{"zipCode":"0360531","prefectureKana":"ｱｵﾓﾘｹﾝ","cityKana":"ｸﾛｲｼｼ","streetKana":"ﾄﾋﾞﾅｲ","prefecture":"青森県","city":"黒石市","street":"飛内"},{"zipCode":"0360532","prefectureKana":"ｱｵﾓﾘｹﾝ","cityKana":"ｸﾛｲｼｼ","streetKana":"ﾄﾋﾞﾅｲｷﾀ","prefecture":"青森県","city":"黒石市","street":"飛内北"},{"zipCode":"0360514","prefectureKana":"ｱｵﾓﾘｹﾝ","cityKana":"ｸﾛｲｼｼ","streetKana":"ﾄﾐﾀ","prefecture":"青森県","city":"黒石市","street":"富田"},{"zipCode":"0360341","prefectureKana":"ｱｵﾓﾘｹﾝ","cityKana":"ｸﾛｲｼｼ","streetKana":"ﾄﾖｵｶ","prefecture":"青森県","city":"黒石市","street":"豊岡"},{"zipCode":"0360345","prefectureKana":"ｱｵﾓﾘｹﾝ","cityKana":"ｸﾛｲｼｼ","streetKana":"ﾅｶｶﾞﾜ","prefecture":"青森県","city":"黒石市","street":"中川"},{"zipCode":"0360377","prefectureKana":"ｱｵﾓﾘｹﾝ","cityKana":"ｸﾛｲｼｼ","streetKana":"ﾅｶﾏﾁ","prefecture":"青森県","city":"黒石市","street":"中町"},{"zipCode":"0360365","prefectureKana":"ｱｵﾓﾘｹﾝ","cityKana":"ｸﾛｲｼｼ","streetKana":"ﾅｶﾞｻｷ","prefecture":"青森県","city":"黒石市","street":"長崎"},{"zipCode":"0360388","prefectureKana":"ｱｵﾓﾘｹﾝ","cityKana":"ｸﾛｲｼｼ","streetKana":"ﾆｼｶﾞｵｶ","prefecture":"青森県","city":"黒石市","street":"西ケ丘"},{"zipCode":"0360372","prefectureKana":"ｱｵﾓﾘｹﾝ","cityKana":"ｸﾛｲｼｼ","streetKana":"ﾆｼｷﾁｮｳ","prefecture":"青森県","city":"黒石市","street":"錦町"},{"zipCode":"0360507","prefectureKana":"ｱｵﾓﾘｹﾝ","cityKana":"ｸﾛｲｼｼ","streetKana":"ﾆｼﾊﾞﾊﾞｼﾘ","prefecture":"青森県","city":"黒石市","street":"西馬場尻"},{"zipCode":"0360403","prefectureKana":"ｱｵﾓﾘｹﾝ","cityKana":"ｸﾛｲｼｼ","streetKana":"ﾆｼｮｳﾅｲ","prefecture":"青森県","city":"黒石市","street":"二庄内"},{"zipCode":"0360533","prefectureKana":"ｱｵﾓﾘｹﾝ","cityKana":"ｸﾛｲｼｼ","streetKana":"ﾆｿｳｼ","prefecture":"青森県","city":"黒石市","street":"二双子"},{"zipCode":"0360411","prefectureKana":"ｱｵﾓﾘｹﾝ","cityKana":"ｸﾛｲｼｼ","streetKana":"ﾇﾙﾕ","prefecture":"青森県","city":"黒石市","street":"温湯"},{"zipCode":"0360542","prefectureKana":"ｱｵﾓﾘｹﾝ","cityKana":"ｸﾛｲｼｼ","streetKana":"ﾉｷﾞﾜ","prefecture":"青森県","city":"黒石市","street":"野際"},{"zipCode":"0360326","prefectureKana":"ｱｵﾓﾘｹﾝ","cityKana":"ｸﾛｲｼｼ","streetKana":"ﾉｿﾞｴﾁｮｳ","prefecture":"青森県","city":"黒石市","street":"野添町"},{"zipCode":"0360331","prefectureKana":"ｱｵﾓﾘｹﾝ","cityKana":"ｸﾛｲｼｼ","streetKana":"ﾊｯｺｳ","prefecture":"青森県","city":"黒石市","street":"八甲"},{"zipCode":"0360371","prefectureKana":"ｱｵﾓﾘｹﾝ","cityKana":"ｸﾛｲｼｼ","streetKana":"ﾊﾅｿﾞﾉﾁｮｳ","prefecture":"青森県","city":"黒石市","street":"花園町"},{"zipCode":"0360413","prefectureKana":"ｱｵﾓﾘｹﾝ","cityKana":"ｸﾛｲｼｼ","streetKana":"ﾊﾅﾏｷ","prefecture":"青森県","city":"黒石市","street":"花巻"},{"zipCode":"0360503","prefectureKana":"ｱｵﾓﾘｹﾝ","cityKana":"ｸﾛｲｼｼ","streetKana":"ﾊﾞﾊﾞｼﾘｼﾓ","prefecture":"青森県","city":"黒石市","street":"馬場尻下"},{"zipCode":"0360504","prefectureKana":"ｱｵﾓﾘｹﾝ","cityKana":"ｸﾛｲｼｼ","streetKana":"ﾊﾞﾊﾞｼﾘﾋｶﾞｼ","prefecture":"青森県","city":"黒石市","street":"馬場尻東"},{"zipCode":"0360506","prefectureKana":"ｱｵﾓﾘｹﾝ","cityKana":"ｸﾛｲｼｼ","streetKana":"ﾊﾞﾊﾞｼﾘﾆｼ","prefecture":"青森県","city":"黒石市","street":"馬場尻西"},{"zipCode":"0360505","prefectureKana":"ｱｵﾓﾘｹﾝ","cityKana":"ｸﾛｲｼｼ","streetKana":"ﾊﾞﾊﾞｼﾘﾐﾅﾐ","prefecture":"青森県","city":"黒石市","street":"馬場尻南"},{"zipCode":"0360502","prefectureKana":"ｱｵﾓﾘｹﾝ","cityKana":"ｸﾛｲｼｼ","streetKana":"ﾊﾞﾊﾞｼﾘｷﾀ","prefecture":"青森県","city":"黒石市","street":"馬場尻北"},{"zipCode":"0360378","prefectureKana":"ｱｵﾓﾘｹﾝ","cityKana":"ｸﾛｲｼｼ","streetKana":"ﾊﾏﾏﾁ","prefecture":"青森県","city":"黒石市","street":"浜町"},{"zipCode":"0360334","prefectureKana":"ｱｵﾓﾘｹﾝ","cityKana":"ｸﾛｲｼｼ","streetKana":"ﾋｶﾞｼｼﾝﾁｮｳ","prefecture":"青森県","city":"黒石市","street":"東新町"},{"zipCode":"0360324","prefectureKana":"ｱｵﾓﾘｹﾝ","cityKana":"ｸﾛｲｼｼ","streetKana":"ﾋｶﾞｼﾉｿﾞｴ","prefecture":"青森県","city":"黒石市","street":"東野添"},{"zipCode":"0360501","prefectureKana":"ｱｵﾓﾘｹﾝ","cityKana":"ｸﾛｲｼｼ","streetKana":"ﾋｶﾞｼﾊﾞﾊﾞｼﾘ","prefecture":"青森県","city":"黒石市","street":"東馬場尻"},{"zipCode":"0360412","prefectureKana":"ｱｵﾓﾘｹﾝ","cityKana":"ｸﾛｲｼｼ","streetKana":"ﾌｸﾛ","prefecture":"青森県","city":"黒石市","street":"袋"},{"zipCode":"0360355","prefectureKana":"ｱｵﾓﾘｹﾝ","cityKana":"ｸﾛｲｼｼ","streetKana":"ﾌｸﾛｲ","prefecture":"青森県","city":"黒石市","street":"袋井"},{"zipCode":"0360515","prefectureKana":"ｱｵﾓﾘｹﾝ","cityKana":"ｸﾛｲｼｼ","streetKana":"ﾌｼﾞﾐ","prefecture":"青森県","city":"黒石市","street":"富士見"},{"zipCode":"0360332","prefectureKana":"ｱｵﾓﾘｹﾝ","cityKana":"ｸﾛｲｼｼ","streetKana":"ﾎﾞﾀﾝﾀﾞｲﾗ","prefecture":"青森県","city":"黒石市","street":"牡丹平"},{"zipCode":"0360367","prefectureKana":"ｱｵﾓﾘｹﾝ","cityKana":"ｸﾛｲｼｼ","streetKana":"ﾏｴﾏﾁ","prefecture":"青森県","city":"黒石市","street":"前町"},{"zipCode":"0360313","prefectureKana":"ｱｵﾓﾘｹﾝ","cityKana":"ｸﾛｲｼｼ","streetKana":"ﾏﾂﾊﾞﾁｮｳ","prefecture":"青森県","city":"黒石市","street":"松葉町"},{"zipCode":"0360517","prefectureKana":"ｱｵﾓﾘｹﾝ","cityKana":"ｸﾛｲｼｼ","streetKana":"ﾏﾂﾊﾞﾗ","prefecture":"青森県","city":"黒石市","street":"松原"},{"zipCode":"0360536","prefectureKana":"ｱｵﾓﾘｹﾝ","cityKana":"ｸﾛｲｼｼ","streetKana":"ﾐｼﾏ","prefecture":"青森県","city":"黒石市","street":"三島"},{"zipCode":"0360314","prefectureKana":"ｱｵﾓﾘｹﾝ","cityKana":"ｸﾛｲｼｼ","streetKana":"ﾐﾁｷﾀﾁｮｳ","prefecture":"青森県","city":"黒石市","street":"道北町"},{"zipCode":"0360524","prefectureKana":"ｱｵﾓﾘｹﾝ","cityKana":"ｸﾛｲｼｼ","streetKana":"ﾐﾄﾞﾘｶﾞｵｶ","prefecture":"青森県","city":"黒石市","street":"緑ケ丘"},{"zipCode":"0360383","prefectureKana":"ｱｵﾓﾘｹﾝ","cityKana":"ｸﾛｲｼｼ","streetKana":"ﾐﾄﾞﾘﾁｮｳ","prefecture":"青森県","city":"黒石市","street":"緑町"},{"zipCode":"0360405","prefectureKana":"ｱｵﾓﾘｹﾝ","cityKana":"ｸﾛｲｼｼ","streetKana":"ﾐﾅﾐﾅｶﾉ","prefecture":"青森県","city":"黒石市","street":"南中野"},{"zipCode":"0360339","prefectureKana":"ｱｵﾓﾘｹﾝ","cityKana":"ｸﾛｲｼｼ","streetKana":"ﾐﾊﾗﾁｮｳ","prefecture":"青森県","city":"黒石市","street":"美原町"},{"zipCode":"0360387","prefectureKana":"ｱｵﾓﾘｹﾝ","cityKana":"ｸﾛｲｼｼ","streetKana":"ﾓﾄﾏﾁ","prefecture":"青森県","city":"黒石市","street":"元町"},{"zipCode":"0360364","prefectureKana":"ｱｵﾓﾘｹﾝ","cityKana":"ｸﾛｲｼｼ","streetKana":"ﾔﾏｶﾞﾀﾏﾁ","prefecture":"青森県","city":"黒石市","street":"山形町"},{"zipCode":"0360361","prefectureKana":"ｱｵﾓﾘｹﾝ","cityKana":"ｸﾛｲｼｼ","streetKana":"ﾔﾖｲﾁｮｳ","prefecture":"青森県","city":"黒石市","street":"弥生町"},{"zipCode":"0360368","prefectureKana":"ｱｵﾓﾘｹﾝ","cityKana":"ｸﾛｲｼｼ","streetKana":"ﾖｺﾏﾁ","prefecture":"青森県","city":"黒石市","street":"横町"},{"zipCode":"0360311","prefectureKana":"ｱｵﾓﾘｹﾝ","cityKana":"ｸﾛｲｼｼ","streetKana":"ﾖｼﾉﾁｮｳ","prefecture":"青森県","city":"黒石市","street":"吉乃町"},{"zipCode":"0360375","prefectureKana":"ｱｵﾓﾘｹﾝ","cityKana":"ｸﾛｲｼｼ","streetKana":"ﾜｶﾊﾞﾁｮｳ","prefecture":"青森県","city":"黒石市","street":"若葉町"},{"zipCode":"0360100","prefectureKana":"ｱｵﾓﾘｹﾝ","cityKana":"ﾋﾗｶﾜｼ","streetKana":"ｲｶﾆｹｲｻｲｶﾞﾅｲﾊﾞｱｲ","prefecture":"青森県","city":"平川市","street":"以下に掲載がない場合"},{"zipCode":"0360112","prefectureKana":"ｱｵﾓﾘｹﾝ","cityKana":"ﾋﾗｶﾜｼ","streetKana":"ｱﾗﾀｶﾐｺﾏﾀ","prefecture":"青森県","city":"平川市","street":"荒田上駒田"},{"zipCode":"0360112","prefectureKana":"ｱｵﾓﾘｹﾝ","cityKana":"ﾋﾗｶﾜｼ","streetKana":"ｱﾗﾀｷﾀｲﾅﾑﾗ","prefecture":"青森県","city":"平川市","street":"荒田北稲村"},{"zipCode":"0360112","prefectureKana":"ｱｵﾓﾘｹﾝ","cityKana":"ﾋﾗｶﾜｼ","streetKana":"ｱﾗﾀｷﾀｵｶﾍﾞ","prefecture":"青森県","city":"平川市","street":"荒田北岡部"},{"zipCode":"0360112","prefectureKana":"ｱｵﾓﾘｹﾝ","cityKana":"ﾋﾗｶﾜｼ","streetKana":"ｱﾗﾀｼﾓｺﾏﾀ","prefecture":"青森県","city":"平川市","street":"荒田下駒田"},{"zipCode":"0360112","prefectureKana":"ｱｵﾓﾘｹﾝ","cityKana":"ﾋﾗｶﾜｼ","streetKana":"ｱﾗﾀﾐﾅﾐｲﾅﾑﾗ","prefecture":"青森県","city":"平川市","street":"荒田南稲村"},{"zipCode":"0360112","prefectureKana":"ｱｵﾓﾘｹﾝ","cityKana":"ﾋﾗｶﾜｼ","streetKana":"ｱﾗﾀﾐﾅﾐｵｶﾍﾞ","prefecture":"青森県","city":"平川市","street":"荒田南岡部"},{"zipCode":"0360121","prefectureKana":"ｱｵﾓﾘｹﾝ","cityKana":"ﾋﾗｶﾜｼ","streetKana":"ｱﾗﾔｲﾅﾑﾗ","prefecture":"青森県","city":"平川市","street":"新屋稲村"},{"zipCode":"0360121","prefectureKana":"ｱｵﾓﾘｹﾝ","cityKana":"ﾋﾗｶﾜｼ","streetKana":"ｱﾗﾔｵｻﾀﾞ","prefecture":"青森県","city":"平川市","street":"新屋長田"},{"zipCode":"0360121","prefectureKana":"ｱｵﾓﾘｹﾝ","cityKana":"ﾋﾗｶﾜｼ","streetKana":"ｱﾗﾔｻｶｴﾀﾞﾃ","prefecture":"青森県","city":"平川市","street":"新屋栄館"},{"zipCode":"0360121","prefectureKana":"ｱｵﾓﾘｹﾝ","cityKana":"ﾋﾗｶﾜｼ","streetKana":"ｱﾗﾔﾀｷﾉｻﾜ","prefecture":"青森県","city":"平川市","street":"新屋滝の沢"},{"zipCode":"0360121","prefectureKana":"ｱｵﾓﾘｹﾝ","cityKana":"ﾋﾗｶﾜｼ","streetKana":"ｱﾗﾔﾄﾐﾔﾏ","prefecture":"青森県","city":"平川市","street":"新屋富山"},{"zipCode":"0360121","prefectureKana":"ｱｵﾓﾘｹﾝ","cityKana":"ﾋﾗｶﾜｼ","streetKana":"ｱﾗﾔﾋﾗｵｶ","prefecture":"青森県","city":"平川市","street":"新屋平岡"},{"zipCode":"0360121","prefectureKana":"ｱｵﾓﾘｹﾝ","cityKana":"ﾋﾗｶﾜｼ","streetKana":"ｱﾗﾔﾋﾗﾉ","prefecture":"青森県","city":"平川市","street":"新屋平野"},{"zipCode":"0360121","prefectureKana":"ｱｵﾓﾘｹﾝ","cityKana":"ﾋﾗｶﾜｼ","streetKana":"ｱﾗﾔﾌｸｼﾏ","prefecture":"青森県","city":"平川市","street":"新屋福嶋"},{"zipCode":"0360121","prefectureKana":"ｱｵﾓﾘｹﾝ","cityKana":"ﾋﾗｶﾜｼ","streetKana":"ｱﾗﾔﾔﾏｼﾀ","prefecture":"青森県","city":"平川市","street":"新屋山下"},{"zipCode":"0360213","prefectureKana":"ｱｵﾓﾘｹﾝ","cityKana":"ﾋﾗｶﾜｼ","streetKana":"ｱﾗﾔﾏﾁｶﾐｻﾜﾀﾞ","prefecture":"青森県","city":"平川市","street":"新屋町上沢田"},{"zipCode":"0360213","prefectureKana":"ｱｵﾓﾘｹﾝ","cityKana":"ﾋﾗｶﾜｼ","streetKana":"ｱﾗﾔﾏﾁｷﾀｳｽﾞﾗﾉ","prefecture":"青森県","city":"平川市","street":"新屋町北鶉野"},{"zipCode":"0360213","prefectureKana":"ｱｵﾓﾘｹﾝ","cityKana":"ﾋﾗｶﾜｼ","streetKana":"ｱﾗﾔﾏﾁｼﾓｻﾜﾀﾞ","prefecture":"青森県","city":"平川市","street":"新屋町下沢田"},{"zipCode":"0360213","prefectureKana":"ｱｵﾓﾘｹﾝ","cityKana":"ﾋﾗｶﾜｼ","streetKana":"ｱﾗﾔﾏﾁﾀｶﾞﾜ","prefecture":"青森県","city":"平川市","street":"新屋町田川"},{"zipCode":"0360213","prefectureKana":"ｱｵﾓﾘｹﾝ","cityKana":"ﾋﾗｶﾜｼ","streetKana":"ｱﾗﾔﾏﾁﾏﾂｲ","prefecture":"青森県","city":"平川市","street":"新屋町松居"},{"zipCode":"0360213","prefectureKana":"ｱｵﾓﾘｹﾝ","cityKana":"ﾋﾗｶﾜｼ","streetKana":"ｱﾗﾔﾏﾁﾏﾂｼﾀ","prefecture":"青森県","city":"平川市","street":"新屋町松下"},{"zipCode":"0360213","prefectureKana":"ｱｵﾓﾘｹﾝ","cityKana":"ﾋﾗｶﾜｼ","streetKana":"ｱﾗﾔﾏﾁﾏﾂﾋｻ","prefecture":"青森県","city":"平川市","street":"新屋町松久"},{"zipCode":"0360213","prefectureKana":"ｱｵﾓﾘｹﾝ","cityKana":"ﾋﾗｶﾜｼ","streetKana":"ｱﾗﾔﾏﾁﾐﾁﾉｼﾀ","prefecture":"青森県","city":"平川市","street":"新屋町道ノ下"},{"zipCode":"0360213","prefectureKana":"ｱｵﾓﾘｹﾝ","cityKana":"ﾋﾗｶﾜｼ","streetKana":"ｱﾗﾔﾏﾁﾐﾅﾐｳｽﾞﾗﾉ","prefecture":"青森県","city":"平川市","street":"新屋町南鶉野"},{"zipCode":"0360213","prefectureKana":"ｱｵﾓﾘｹﾝ","cityKana":"ﾋﾗｶﾜｼ","streetKana":"ｱﾗﾔﾏﾁﾑﾗﾓﾄ","prefecture":"青森県","city":"平川市","street":"新屋町村元"},{"zipCode":"0360151","prefectureKana":"ｱｵﾓﾘｹﾝ","cityKana":"ﾋﾗｶﾜｼ","streetKana":"ｲｼｺﾞｳｵｷﾅｶ","prefecture":"青森県","city":"平川市","street":"石郷沖中"},{"zipCode":"0360151","prefectureKana":"ｱｵﾓﾘｹﾝ","cityKana":"ﾋﾗｶﾜｼ","streetKana":"ｲｼｺﾞｳﾑﾗﾓﾄ","prefecture":"青森県","city":"平川市","street":"石郷村元"},{"zipCode":"0360151","prefectureKana":"ｱｵﾓﾘｹﾝ","cityKana":"ﾋﾗｶﾜｼ","streetKana":"ｲｼｺﾞｳﾔﾅｷﾞﾀﾞ","prefecture":"青森県","city":"平川市","street":"石郷柳田"},{"zipCode":"0360152","prefectureKana":"ｱｵﾓﾘｹﾝ","cityKana":"ﾋﾗｶﾜｼ","streetKana":"ｲｼﾊﾀｹｵｶﾓﾄ","prefecture":"青森県","city":"平川市","street":"石畑岡元"},{"zipCode":"0360145","prefectureKana":"ｱｵﾓﾘｹﾝ","cityKana":"ﾋﾗｶﾜｼ","streetKana":"ｲﾜﾀﾞﾃｵｻﾀﾞ","prefecture":"青森県","city":"平川市","street":"岩館長田"},{"zipCode":"0360145","prefectureKana":"ｱｵﾓﾘｹﾝ","cityKana":"ﾋﾗｶﾜｼ","streetKana":"ｲﾜﾀﾞﾃｻｶﾞﾘﾏﾂ","prefecture":"青森県","city":"平川市","street":"岩館下り松"},{"zipCode":"0360145","prefectureKana":"ｱｵﾓﾘｹﾝ","cityKana":"ﾋﾗｶﾜｼ","streetKana":"ｲﾜﾀﾞﾃﾌｼﾞﾏｷ","prefecture":"青森県","city":"平川市","street":"岩館藤巻"},{"zipCode":"0360145","prefectureKana":"ｱｵﾓﾘｹﾝ","cityKana":"ﾋﾗｶﾜｼ","streetKana":"ｲﾜﾀﾞﾃﾑﾗﾓﾄ","prefecture":"青森県","city":"平川市","street":"岩館村元"},{"zipCode":"0360145","prefectureKana":"ｱｵﾓﾘｹﾝ","cityKana":"ﾋﾗｶﾜｼ","streetKana":"ｲﾜﾀﾞﾃﾔﾏﾉｲ","prefecture":"青森県","city":"平川市","street":"岩館山の井"},{"zipCode":"0360141","prefectureKana":"ｱｵﾓﾘｹﾝ","cityKana":"ﾋﾗｶﾜｼ","streetKana":"ｵｷﾀﾞﾃｵｻﾀﾞ","prefecture":"青森県","city":"平川市","street":"沖館長田"},{"zipCode":"0360141","prefectureKana":"ｱｵﾓﾘｹﾝ","cityKana":"ﾋﾗｶﾜｼ","streetKana":"ｵｷﾀﾞﾃｻﾜﾀ","prefecture":"青森県","city":"平川市","street":"沖館沢田"},{"zipCode":"0360141","prefectureKana":"ｱｵﾓﾘｹﾝ","cityKana":"ﾋﾗｶﾜｼ","streetKana":"ｵｷﾀﾞﾃﾀｶﾀﾞ","prefecture":"青森県","city":"平川市","street":"沖館高田"},{"zipCode":"0360141","prefectureKana":"ｱｵﾓﾘｹﾝ","cityKana":"ﾋﾗｶﾜｼ","streetKana":"ｵｷﾀﾞﾃﾅｶﾞﾀ","prefecture":"青森県","city":"平川市","street":"沖館永田"},{"zipCode":"0360141","prefectureKana":"ｱｵﾓﾘｹﾝ","cityKana":"ﾋﾗｶﾜｼ","streetKana":"ｵｷﾀﾞﾃﾆｼﾀ","prefecture":"青森県","city":"平川市","street":"沖館西田"},{"zipCode":"0360141","prefectureKana":"ｱｵﾓﾘｹﾝ","cityKana":"ﾋﾗｶﾜｼ","streetKana":"ｵｷﾀﾞﾃﾋﾔﾏﾀﾞﾃ","prefecture":"青森県","city":"平川市","street":"沖館比山館"},{"zipCode":"0360141","prefectureKana":"ｱｵﾓﾘｹﾝ","cityKana":"ﾋﾗｶﾜｼ","streetKana":"ｵｷﾀﾞﾃﾐﾔｻﾞｷ","prefecture":"青森県","city":"平川市","street":"沖館宮崎"},{"zipCode":"0360141","prefectureKana":"ｱｵﾓﾘｹﾝ","cityKana":"ﾋﾗｶﾜｼ","streetKana":"ｵｷﾀﾞﾃﾑｶｲﾉ","prefecture":"青森県","city":"平川市","street":"沖館向野"},{"zipCode":"0360141","prefectureKana":"ｱｵﾓﾘｹﾝ","cityKana":"ﾋﾗｶﾜｼ","streetKana":"ｵｷﾀﾞﾃﾜﾀﾞ","prefecture":"青森県","city":"平川市","street":"沖館和田"},{"zipCode":"0360171","prefectureKana":"ｱｵﾓﾘｹﾝ","cityKana":"ﾋﾗｶﾜｼ","streetKana":"ｵｸﾞﾆｱｾｲｼﾔﾏ","prefecture":"青森県","city":"平川市","street":"小国浅瀬石山"},{"zipCode":"0360171","prefectureKana":"ｱｵﾓﾘｹﾝ","cityKana":"ﾋﾗｶﾜｼ","streetKana":"ｵｸﾞﾆｶﾜﾍﾞ","prefecture":"青森県","city":"平川市","street":"小国川辺"},{"zipCode":"0360171","prefectureKana":"ｱｵﾓﾘｹﾝ","cityKana":"ﾋﾗｶﾜｼ","streetKana":"ｵｸﾞﾆｶﾜﾗﾀﾞ","prefecture":"青森県","city":"平川市","street":"小国川原田"},{"zipCode":"0360171","prefectureKana":"ｱｵﾓﾘｹﾝ","cityKana":"ﾋﾗｶﾜｼ","streetKana":"ｵｸﾞﾆﾌｶｻﾜ","prefecture":"青森県","city":"平川市","street":"小国深沢"},{"zipCode":"0360171","prefectureKana":"ｱｵﾓﾘｹﾝ","cityKana":"ﾋﾗｶﾜｼ","streetKana":"ｵｸﾞﾆﾔﾏｼﾀ","prefecture":"青森県","city":"平川市","street":"小国山下"},{"zipCode":"0360122","prefectureKana":"ｱｵﾓﾘｹﾝ","cityKana":"ﾋﾗｶﾜｼ","streetKana":"ｵｻｷｱｻｲ","prefecture":"青森県","city":"平川市","street":"尾崎浅井"},{"zipCode":"0360122","prefectureKana":"ｱｵﾓﾘｹﾝ","cityKana":"ﾋﾗｶﾜｼ","streetKana":"ｵｻｷｲﾅﾓﾄ","prefecture":"青森県","city":"平川市","street":"尾崎稲元"},{"zipCode":"0360122","prefectureKana":"ｱｵﾓﾘｹﾝ","cityKana":"ﾋﾗｶﾜｼ","streetKana":"ｵｻｷｵｶﾀﾞ","prefecture":"青森県","city":"平川市","street":"尾崎岡田"},{"zipCode":"0360122","prefectureKana":"ｱｵﾓﾘｹﾝ","cityKana":"ﾋﾗｶﾜｼ","streetKana":"ｵｻｷｶﾜｲ","prefecture":"青森県","city":"平川市","street":"尾崎川合"},{"zipCode":"0360122","prefectureKana":"ｱｵﾓﾘｹﾝ","cityKana":"ﾋﾗｶﾜｼ","streetKana":"ｵｻｷｷﾄﾞｸﾞﾁ","prefecture":"青森県","city":"平川市","street":"尾崎木戸口"},{"zipCode":"0360122","prefectureKana":"ｱｵﾓﾘｹﾝ","cityKana":"ﾋﾗｶﾜｼ","streetKana":"ｵｻｷｻﾄﾐ","prefecture":"青森県","city":"平川市","street":"尾崎里見"},{"zipCode":"0360122","prefectureKana":"ｱｵﾓﾘｹﾝ","cityKana":"ﾋﾗｶﾜｼ","streetKana":"ｵｻｷｻﾜﾍﾞ","prefecture":"青森県","city":"平川市","street":"尾崎沢部"},{"zipCode":"0360122","prefectureKana":"ｱｵﾓﾘｹﾝ","cityKana":"ﾋﾗｶﾜｼ","streetKana":"ｵｻｷﾋﾗﾔﾏ","prefecture":"青森県","city":"平川市","street":"尾崎平山"},{"zipCode":"0360122","prefectureKana":"ｱｵﾓﾘｹﾝ","cityKana":"ﾋﾗｶﾜｼ","streetKana":"ｵｻｷﾔｽﾀ","prefecture":"青森県","city":"平川市","street":"尾崎安田"},{"zipCode":"0360222","prefectureKana":"ｱｵﾓﾘｹﾝ","cityKana":"ﾋﾗｶﾜｼ","streetKana":"ｵｻﾀﾞﾇﾏﾀ","prefecture":"青森県","city":"平川市","street":"長田沼田"},{"zipCode":"0360222","prefectureKana":"ｱｵﾓﾘｹﾝ","cityKana":"ﾋﾗｶﾜｼ","streetKana":"ｵｻﾀﾞﾉﾀﾞ","prefecture":"青森県","city":"平川市","street":"長田野田"},{"zipCode":"0360222","prefectureKana":"ｱｵﾓﾘｹﾝ","cityKana":"ﾋﾗｶﾜｼ","streetKana":"ｵｻﾀﾞﾑﾗｼﾀ","prefecture":"青森県","city":"平川市","street":"長田村下"},{"zipCode":"0360222","prefectureKana":"ｱｵﾓﾘｹﾝ","cityKana":"ﾋﾗｶﾜｼ","streetKana":"ｵｻﾀﾞﾓﾄﾑﾗ","prefecture":"青森県","city":"平川市","street":"長田元村"},{"zipCode":"0360212","prefectureKana":"ｱｵﾓﾘｹﾝ","cityKana":"ﾋﾗｶﾜｼ","streetKana":"ｵﾉｴｻｶｴﾏﾂ","prefecture":"青森県","city":"平川市","street":"尾上栄松"},{"zipCode":"0360104","prefectureKana":"ｱｵﾓﾘｹﾝ","cityKana":"ﾋﾗｶﾜｼ","streetKana":"ｶｼﾜｷﾞﾏﾁﾋｶﾞｼﾀﾞ","prefecture":"青森県","city":"平川市","street":"柏木町東田"},{"zipCode":"0360104","prefectureKana":"ｱｵﾓﾘｹﾝ","cityKana":"ﾋﾗｶﾜｼ","streetKana":"ｶｼﾜｷﾞﾏﾁﾋﾛﾀﾞ","prefecture":"青森県","city":"平川市","street":"柏木町広田"},{"zipCode":"0360104","prefectureKana":"ｱｵﾓﾘｹﾝ","cityKana":"ﾋﾗｶﾜｼ","streetKana":"ｶｼﾜｷﾞﾏﾁﾌｼﾞﾔﾏ","prefecture":"青森県","city":"平川市","street":"柏木町藤山"},{"zipCode":"0360104","prefectureKana":"ｱｵﾓﾘｹﾝ","cityKana":"ﾋﾗｶﾜｼ","streetKana":"ｶｼﾜｷﾞﾏﾁﾔﾅｷﾞﾀﾞ","prefecture":"青森県","city":"平川市","street":"柏木町柳田"},{"zipCode":"0360202","prefectureKana":"ｱｵﾓﾘｹﾝ","cityKana":"ﾋﾗｶﾜｼ","streetKana":"ｶﾅﾔｶﾐﾏﾂﾓﾄ","prefecture":"青森県","city":"平川市","street":"金屋上松元"},{"zipCode":"0360202","prefectureKana":"ｱｵﾓﾘｹﾝ","cityKana":"ﾋﾗｶﾜｼ","streetKana":"ｶﾅﾔｶﾐﾜｾﾀﾞ","prefecture":"青森県","city":"平川市","street":"金屋上早稲田"},{"zipCode":"0360202","prefectureKana":"ｱｵﾓﾘｹﾝ","cityKana":"ﾋﾗｶﾜｼ","streetKana":"ｶﾅﾔｼﾓﾏﾂﾓﾄ","prefecture":"青森県","city":"平川市","street":"金屋下松元"},{"zipCode":"0360202","prefectureKana":"ｱｵﾓﾘｹﾝ","cityKana":"ﾋﾗｶﾜｼ","streetKana":"ｶﾅﾔｼﾓﾜｾﾀﾞ","prefecture":"青森県","city":"平川市","street":"金屋下早稲田"},{"zipCode":"0360202","prefectureKana":"ｱｵﾓﾘｹﾝ","cityKana":"ﾋﾗｶﾜｼ","streetKana":"ｶﾅﾔﾅｶﾏﾂﾓﾄ","prefecture":"青森県","city":"平川市","street":"金屋中松元"},{"zipCode":"0360202","prefectureKana":"ｱｵﾓﾘｹﾝ","cityKana":"ﾋﾗｶﾜｼ","streetKana":"ｶﾅﾔﾅｶﾜｾﾀﾞ","prefecture":"青森県","city":"平川市","street":"金屋中早稲田"},{"zipCode":"0360202","prefectureKana":"ｱｵﾓﾘｹﾝ","cityKana":"ﾋﾗｶﾜｼ","streetKana":"ｶﾅﾔﾆｼﾏﾂﾓﾄ","prefecture":"青森県","city":"平川市","street":"金屋西松元"},{"zipCode":"0360232","prefectureKana":"ｱｵﾓﾘｹﾝ","cityKana":"ﾋﾗｶﾜｼ","streetKana":"ｶﾞﾏﾀｲｯﾎﾟﾝﾏﾂ","prefecture":"青森県","city":"平川市","street":"蒲田一本松"},{"zipCode":"0360232","prefectureKana":"ｱｵﾓﾘｹﾝ","cityKana":"ﾋﾗｶﾜｼ","streetKana":"ｶﾞﾏﾀﾀﾏﾀﾞ","prefecture":"青森県","city":"平川市","street":"蒲田玉田"},{"zipCode":"0360232","prefectureKana":"ｱｵﾓﾘｹﾝ","cityKana":"ﾋﾗｶﾜｼ","streetKana":"ｶﾞﾏﾀﾄﾖﾀ","prefecture":"青森県","city":"平川市","street":"蒲田豊田"},{"zipCode":"0360232","prefectureKana":"ｱｵﾓﾘｹﾝ","cityKana":"ﾋﾗｶﾜｼ","streetKana":"ｶﾞﾏﾀﾄﾖﾄﾐ","prefecture":"青森県","city":"平川市","street":"蒲田豊富"},{"zipCode":"0360232","prefectureKana":"ｱｵﾓﾘｹﾝ","cityKana":"ﾋﾗｶﾜｼ","streetKana":"ｶﾞﾏﾀﾐﾊﾗ","prefecture":"青森県","city":"平川市","street":"蒲田三原"},{"zipCode":"0360232","prefectureKana":"ｱｵﾓﾘｹﾝ","cityKana":"ﾋﾗｶﾜｼ","streetKana":"ｶﾞﾏﾀﾓﾄﾐﾔ","prefecture":"青森県","city":"平川市","street":"蒲田元宮"},{"zipCode":"0360132","prefectureKana":"ｱｵﾓﾘｹﾝ","cityKana":"ﾋﾗｶﾜｼ","streetKana":"ｶﾗﾀｹｱｼｹﾞｻﾜ","prefecture":"青森県","city":"平川市","street":"唐竹芦毛沢"},{"zipCode":"0360132","prefectureKana":"ｱｵﾓﾘｹﾝ","cityKana":"ﾋﾗｶﾜｼ","streetKana":"ｶﾗﾀｹｱｿﾀﾞｹ","prefecture":"青森県","city":"平川市","street":"唐竹阿蘇獄"},{"zipCode":"0360132","prefectureKana":"ｱｵﾓﾘｹﾝ","cityKana":"ﾋﾗｶﾜｼ","streetKana":"ｶﾗﾀｹｲｻﾞﾜ","prefecture":"青森県","city":"平川市","street":"唐竹井沢"},{"zipCode":"0360132","prefectureKana":"ｱｵﾓﾘｹﾝ","cityKana":"ﾋﾗｶﾜｼ","streetKana":"ｶﾗﾀｹｲﾁｺﾞﾊﾗ","prefecture":"青森県","city":"平川市","street":"唐竹苺原"},{"zipCode":"0360132","prefectureKana":"ｱｵﾓﾘｹﾝ","cityKana":"ﾋﾗｶﾜｼ","streetKana":"ｶﾗﾀｹｶﾜﾗﾀﾞ","prefecture":"青森県","city":"平川市","street":"唐竹川原田"},{"zipCode":"0360132","prefectureKana":"ｱｵﾓﾘｹﾝ","cityKana":"ﾋﾗｶﾜｼ","streetKana":"ｶﾗﾀｹｺｶﾞﾈﾓﾘ","prefecture":"青森県","city":"平川市","street":"唐竹小金森"},{"zipCode":"0360132","prefectureKana":"ｱｵﾓﾘｹﾝ","cityKana":"ﾋﾗｶﾜｼ","streetKana":"ｶﾗﾀｹｺﾏﾂﾊﾗ","prefecture":"青森県","city":"平川市","street":"唐竹小松原"},{"zipCode":"0360132","prefectureKana":"ｱｵﾓﾘｹﾝ","cityKana":"ﾋﾗｶﾜｼ","streetKana":"ｶﾗﾀｹﾀｶﾀﾞ","prefecture":"青森県","city":"平川市","street":"唐竹高田"},{"zipCode":"0360132","prefectureKana":"ｱｵﾓﾘｹﾝ","cityKana":"ﾋﾗｶﾜｼ","streetKana":"ｶﾗﾀｹﾋﾗﾔﾏ","prefecture":"青森県","city":"平川市","street":"唐竹平山"},{"zipCode":"0360132","prefectureKana":"ｱｵﾓﾘｹﾝ","cityKana":"ﾋﾗｶﾜｼ","streetKana":"ｶﾗﾀｹﾎﾘｱｲ","prefecture":"青森県","city":"平川市","street":"唐竹堀合"},{"zipCode":"0360132","prefectureKana":"ｱｵﾓﾘｹﾝ","cityKana":"ﾋﾗｶﾜｼ","streetKana":"ｶﾗﾀｹﾐｽﾞｶﾐ","prefecture":"青森県","city":"平川市","street":"唐竹水上"},{"zipCode":"0360132","prefectureKana":"ｱｵﾓﾘｹﾝ","cityKana":"ﾋﾗｶﾜｼ","streetKana":"ｶﾗﾀｹﾑｶｲｶﾜﾗﾀﾞ","prefecture":"青森県","city":"平川市","street":"唐竹向川原田"},{"zipCode":"0360132","prefectureKana":"ｱｵﾓﾘｹﾝ","cityKana":"ﾋﾗｶﾜｼ","streetKana":"ｶﾗﾀｹﾔｸｼｻﾞﾜ","prefecture":"青森県","city":"平川市","street":"唐竹薬師沢"},{"zipCode":"0360173","prefectureKana":"ｱｵﾓﾘｹﾝ","cityKana":"ﾋﾗｶﾜｼ","streetKana":"ｷﾘｱｹｱｾｲｼﾔﾏ","prefecture":"青森県","city":"平川市","street":"切明浅瀬石山"},{"zipCode":"0360173","prefectureKana":"ｱｵﾓﾘｹﾝ","cityKana":"ﾋﾗｶﾜｼ","streetKana":"ｷﾘｱｹｶﾐｲﾄﾞ","prefecture":"青森県","city":"平川市","street":"切明上井戸"},{"zipCode":"0360173","prefectureKana":"ｱｵﾓﾘｹﾝ","cityKana":"ﾋﾗｶﾜｼ","streetKana":"ｷﾘｱｹｺﾝﾀﾔｼｷ","prefecture":"青森県","city":"平川市","street":"切明誉田邸"},{"zipCode":"0360173","prefectureKana":"ｱｵﾓﾘｹﾝ","cityKana":"ﾋﾗｶﾜｼ","streetKana":"ｷﾘｱｹｻｶﾓﾄ","prefecture":"青森県","city":"平川市","street":"切明坂本"},{"zipCode":"0360173","prefectureKana":"ｱｵﾓﾘｹﾝ","cityKana":"ﾋﾗｶﾜｼ","streetKana":"ｷﾘｱｹﾀｷﾉﾓﾘ","prefecture":"青森県","city":"平川市","street":"切明滝の森"},{"zipCode":"0360173","prefectureKana":"ｱｵﾓﾘｹﾝ","cityKana":"ﾋﾗｶﾜｼ","streetKana":"ｷﾘｱｹﾀｯｺｳｻﾜ","prefecture":"青森県","city":"平川市","street":"切明滝候沢"},{"zipCode":"0360173","prefectureKana":"ｱｵﾓﾘｹﾝ","cityKana":"ﾋﾗｶﾜｼ","streetKana":"ｷﾘｱｹﾂﾈｶﾜﾓﾘ","prefecture":"青森県","city":"平川市","street":"切明津根川森"},{"zipCode":"0360173","prefectureKana":"ｱｵﾓﾘｹﾝ","cityKana":"ﾋﾗｶﾜｼ","streetKana":"ｷﾘｱｹﾇﾙｶﾜｻﾜ","prefecture":"青森県","city":"平川市","street":"切明温川沢"},{"zipCode":"0360173","prefectureKana":"ｱｵﾓﾘｹﾝ","cityKana":"ﾋﾗｶﾜｼ","streetKana":"ｷﾘｱｹﾇﾙｶﾜﾓﾘ","prefecture":"青森県","city":"平川市","street":"切明温川森"},{"zipCode":"0360173","prefectureKana":"ｱｵﾓﾘｹﾝ","cityKana":"ﾋﾗｶﾜｼ","streetKana":"ｷﾘｱｹﾎﾀﾙｻﾜ","prefecture":"青森県","city":"平川市","street":"切明螢沢"},{"zipCode":"0360173","prefectureKana":"ｱｵﾓﾘｹﾝ","cityKana":"ﾋﾗｶﾜｼ","streetKana":"ｷﾘｱｹﾔﾏｼﾀ","prefecture":"青森県","city":"平川市","street":"切明山下"},{"zipCode":"0360172","prefectureKana":"ｱｵﾓﾘｹﾝ","cityKana":"ﾋﾗｶﾜｼ","streetKana":"ｸｽﾞｶﾜｱｾｲｼﾔﾏ","prefecture":"青森県","city":"平川市","street":"葛川浅瀬石山"},{"zipCode":"0360172","prefectureKana":"ｱｵﾓﾘｹﾝ","cityKana":"ﾋﾗｶﾜｼ","streetKana":"ｸｽﾞｶﾜｲｯﾎﾟﾝｷﾞﾀｲﾗ","prefecture":"青森県","city":"平川市","street":"葛川一本木平"},{"zipCode":"0360172","prefectureKana":"ｱｵﾓﾘｹﾝ","cityKana":"ﾋﾗｶﾜｼ","streetKana":"ｸｽﾞｶﾜｵｵｶﾜｿﾞｴ","prefecture":"青森県","city":"平川市","street":"葛川大川添"},{"zipCode":"0360172","prefectureKana":"ｱｵﾓﾘｹﾝ","cityKana":"ﾋﾗｶﾜｼ","streetKana":"ｸｽﾞｶﾜｵﾘﾄ","prefecture":"青森県","city":"平川市","street":"葛川折戸"},{"zipCode":"0360172","prefectureKana":"ｱｵﾓﾘｹﾝ","cityKana":"ﾋﾗｶﾜｼ","streetKana":"ｸｽﾞｶﾜｶﾐﾉﾀｲﾗ","prefecture":"青森県","city":"平川市","street":"葛川上の平"},{"zipCode":"0360172","prefectureKana":"ｱｵﾓﾘｹﾝ","cityKana":"ﾋﾗｶﾜｼ","streetKana":"ｸｽﾞｶﾜｶﾗｶﾜﾀｲﾗ","prefecture":"青森県","city":"平川市","street":"葛川唐川平"},{"zipCode":"0360172","prefectureKana":"ｱｵﾓﾘｹﾝ","cityKana":"ﾋﾗｶﾜｼ","streetKana":"ｸｽﾞｶﾜｸｽﾞｶﾜｻﾜ","prefecture":"青森県","city":"平川市","street":"葛川葛川沢"},{"zipCode":"0360172","prefectureKana":"ｱｵﾓﾘｹﾝ","cityKana":"ﾋﾗｶﾜｼ","streetKana":"ｸｽﾞｶﾜｸｽﾞｶﾜﾀｲﾗ","prefecture":"青森県","city":"平川市","street":"葛川葛川平"},{"zipCode":"0360172","prefectureKana":"ｱｵﾓﾘｹﾝ","cityKana":"ﾋﾗｶﾜｼ","streetKana":"ｸｽﾞｶﾜｸｽﾞｶﾜﾃﾞｸﾞﾁ","prefecture":"青森県","city":"平川市","street":"葛川葛川出口"},{"zipCode":"0360172","prefectureKana":"ｱｵﾓﾘｹﾝ","cityKana":"ﾋﾗｶﾜｼ","streetKana":"ｸｽﾞｶﾜｹﾅｼﾓﾘ","prefecture":"青森県","city":"平川市","street":"葛川毛無森"},{"zipCode":"0360172","prefectureKana":"ｱｵﾓﾘｹﾝ","cityKana":"ﾋﾗｶﾜｼ","streetKana":"ｸｽﾞｶﾜｽﾅｺｻﾞﾜ","prefecture":"青森県","city":"平川市","street":"葛川砂子沢"},{"zipCode":"0360172","prefectureKana":"ｱｵﾓﾘｹﾝ","cityKana":"ﾋﾗｶﾜｼ","streetKana":"ｸｽﾞｶﾜﾀﾉｻﾜｸﾞﾁ","prefecture":"青森県","city":"平川市","street":"葛川田の沢口"},{"zipCode":"0360172","prefectureKana":"ｱｵﾓﾘｹﾝ","cityKana":"ﾋﾗｶﾜｼ","streetKana":"ｸｽﾞｶﾜﾅｶﾞｺﾏﾀ","prefecture":"青森県","city":"平川市","street":"葛川長小股"},{"zipCode":"0360172","prefectureKana":"ｱｵﾓﾘｹﾝ","cityKana":"ﾋﾗｶﾜｼ","streetKana":"ｸｽﾞｶﾜﾍｲﾛｸｻﾜｶﾐ","prefecture":"青森県","city":"平川市","street":"葛川平六沢上"},{"zipCode":"0360172","prefectureKana":"ｱｵﾓﾘｹﾝ","cityKana":"ﾋﾗｶﾜｼ","streetKana":"ｸｽﾞｶﾜﾍｲﾛｸﾑﾗｼﾀ","prefecture":"青森県","city":"平川市","street":"葛川平六村下"},{"zipCode":"0360172","prefectureKana":"ｱｵﾓﾘｹﾝ","cityKana":"ﾋﾗｶﾜｼ","streetKana":"ｸｽﾞｶﾜﾔｷﾞｼ","prefecture":"青森県","city":"平川市","street":"葛川家岸"},{"zipCode":"0360102","prefectureKana":"ｱｵﾓﾘｹﾝ","cityKana":"ﾋﾗｶﾜｼ","streetKana":"ｺｳｼﾞｮｳ","prefecture":"青森県","city":"平川市","street":"光城"},{"zipCode":"0360153","prefectureKana":"ｱｵﾓﾘｹﾝ","cityKana":"ﾋﾗｶﾜｼ","streetKana":"ｺｽｷﾞｲﾅﾑﾗ","prefecture":"青森県","city":"平川市","street":"小杉稲村"},{"zipCode":"0360153","prefectureKana":"ｱｵﾓﾘｹﾝ","cityKana":"ﾋﾗｶﾜｼ","streetKana":"ｺｽｷﾞｵｳｷﾞﾀﾞ","prefecture":"青森県","city":"平川市","street":"小杉扇田"},{"zipCode":"0360153","prefectureKana":"ｱｵﾓﾘｹﾝ","cityKana":"ﾋﾗｶﾜｼ","streetKana":"ｺｽｷﾞｶﾜｻｷ","prefecture":"青森県","city":"平川市","street":"小杉川崎"},{"zipCode":"0360153","prefectureKana":"ｱｵﾓﾘｹﾝ","cityKana":"ﾋﾗｶﾜｼ","streetKana":"ｺｽｷﾞﾀｹｳﾁ","prefecture":"青森県","city":"平川市","street":"小杉竹内"},{"zipCode":"0360153","prefectureKana":"ｱｵﾓﾘｹﾝ","cityKana":"ﾋﾗｶﾜｼ","streetKana":"ｺｽｷﾞﾆｼﾀ","prefecture":"青森県","city":"平川市","street":"小杉西田"},{"zipCode":"0360111","prefectureKana":"ｱｵﾓﾘｹﾝ","cityKana":"ﾋﾗｶﾜｼ","streetKana":"ｺﾜﾓﾘｶﾐﾀｶﾞﾜ","prefecture":"青森県","city":"平川市","street":"小和森上田川"},{"zipCode":"0360111","prefectureKana":"ｱｵﾓﾘｹﾝ","cityKana":"ﾋﾗｶﾜｼ","streetKana":"ｺﾜﾓﾘｶﾐﾋﾗﾀ","prefecture":"青森県","city":"平川市","street":"小和森上平田"},{"zipCode":"0360111","prefectureKana":"ｱｵﾓﾘｹﾝ","cityKana":"ﾋﾗｶﾜｼ","streetKana":"ｺﾜﾓﾘｶﾐﾏﾂｵｶ","prefecture":"青森県","city":"平川市","street":"小和森上松岡"},{"zipCode":"0360111","prefectureKana":"ｱｵﾓﾘｹﾝ","cityKana":"ﾋﾗｶﾜｼ","streetKana":"ｺﾜﾓﾘｼﾓﾀｶﾞﾜ","prefecture":"青森県","city":"平川市","street":"小和森下田川"},{"zipCode":"0360111","prefectureKana":"ｱｵﾓﾘｹﾝ","cityKana":"ﾋﾗｶﾜｼ","streetKana":"ｺﾜﾓﾘｼﾓﾋﾗﾀ","prefecture":"青森県","city":"平川市","street":"小和森下平田"},{"zipCode":"0360111","prefectureKana":"ｱｵﾓﾘｹﾝ","cityKana":"ﾋﾗｶﾜｼ","streetKana":"ｺﾜﾓﾘｼﾓﾏﾂｵｶ","prefecture":"青森県","city":"平川市","street":"小和森下松岡"},{"zipCode":"0360111","prefectureKana":"ｱｵﾓﾘｹﾝ","cityKana":"ﾋﾗｶﾜｼ","streetKana":"ｺﾜﾓﾘﾀﾈﾄﾘ","prefecture":"青森県","city":"平川市","street":"小和森種取"},{"zipCode":"0360111","prefectureKana":"ｱｵﾓﾘｹﾝ","cityKana":"ﾋﾗｶﾜｼ","streetKana":"ｺﾜﾓﾘﾅｶﾏﾂｵｶ","prefecture":"青森県","city":"平川市","street":"小和森中松岡"},{"zipCode":"0360111","prefectureKana":"ｱｵﾓﾘｹﾝ","cityKana":"ﾋﾗｶﾜｼ","streetKana":"ｺﾜﾓﾘﾌｸﾀﾞ","prefecture":"青森県","city":"平川市","street":"小和森福田"},{"zipCode":"0360111","prefectureKana":"ｱｵﾓﾘｹﾝ","cityKana":"ﾋﾗｶﾜｼ","streetKana":"ｺﾜﾓﾘﾏﾂｶﾜ","prefecture":"青森県","city":"平川市","street":"小和森松川"},{"zipCode":"0360111","prefectureKana":"ｱｵﾓﾘｹﾝ","cityKana":"ﾋﾗｶﾜｼ","streetKana":"ｺﾜﾓﾘﾏﾂﾑﾗ","prefecture":"青森県","city":"平川市","street":"小和森松村"},{"zipCode":"0360242","prefectureKana":"ｱｵﾓﾘｹﾝ","cityKana":"ﾋﾗｶﾜｼ","streetKana":"ｻﾙｶｱｻｲ","prefecture":"青森県","city":"平川市","street":"猿賀浅井"},{"zipCode":"0360242","prefectureKana":"ｱｵﾓﾘｹﾝ","cityKana":"ﾋﾗｶﾜｼ","streetKana":"ｻﾙｶｱｻﾀﾞ","prefecture":"青森県","city":"平川市","street":"猿賀浅田"},{"zipCode":"0360242","prefectureKana":"ｱｵﾓﾘｹﾝ","cityKana":"ﾋﾗｶﾜｼ","streetKana":"ｻﾙｶｲｹｶﾞﾐ","prefecture":"青森県","city":"平川市","street":"猿賀池上"},{"zipCode":"0360242","prefectureKana":"ｱｵﾓﾘｹﾝ","cityKana":"ﾋﾗｶﾜｼ","streetKana":"ｻﾙｶｲｹﾀﾞ","prefecture":"青森県","city":"平川市","street":"猿賀池田"},{"zipCode":"0360242","prefectureKana":"ｱｵﾓﾘｹﾝ","cityKana":"ﾋﾗｶﾜｼ","streetKana":"ｻﾙｶｲｼﾊﾞﾔｼ","prefecture":"青森県","city":"平川市","street":"猿賀石林"},{"zipCode":"0360242","prefectureKana":"ｱｵﾓﾘｹﾝ","cityKana":"ﾋﾗｶﾜｼ","streetKana":"ｻﾙｶｶﾐｵｶ","prefecture":"青森県","city":"平川市","street":"猿賀上岡"},{"zipCode":"0360242","prefectureKana":"ｱｵﾓﾘｹﾝ","cityKana":"ﾋﾗｶﾜｼ","streetKana":"ｻﾙｶｶﾐｶﾜ","prefecture":"青森県","city":"平川市","street":"猿賀上川"},{"zipCode":"0360242","prefectureKana":"ｱｵﾓﾘｹﾝ","cityKana":"ﾋﾗｶﾜｼ","streetKana":"ｻﾙｶｼﾓｵｶ","prefecture":"青森県","city":"平川市","street":"猿賀下岡"},{"zipCode":"0360242","prefectureKana":"ｱｵﾓﾘｹﾝ","cityKana":"ﾋﾗｶﾜｼ","streetKana":"ｻﾙｶｼﾓｶﾜ","prefecture":"青森県","city":"平川市","street":"猿賀下川"},{"zipCode":"0360242","prefectureKana":"ｱｵﾓﾘｹﾝ","cityKana":"ﾋﾗｶﾜｼ","streetKana":"ｻﾙｶｼﾓﾉ","prefecture":"青森県","city":"平川市","street":"猿賀下野"},{"zipCode":"0360242","prefectureKana":"ｱｵﾓﾘｹﾝ","cityKana":"ﾋﾗｶﾜｼ","streetKana":"ｻﾙｶﾄｵﾊﾞﾔｼ","prefecture":"青森県","city":"平川市","street":"猿賀遠林"},{"zipCode":"0360242","prefectureKana":"ｱｵﾓﾘｹﾝ","cityKana":"ﾋﾗｶﾜｼ","streetKana":"ｻﾙｶﾄﾐｵｶ","prefecture":"青森県","city":"平川市","street":"猿賀富岡"},{"zipCode":"0360242","prefectureKana":"ｱｵﾓﾘｹﾝ","cityKana":"ﾋﾗｶﾜｼ","streetKana":"ｻﾙｶﾋﾗﾂｶ","prefecture":"青森県","city":"平川市","street":"猿賀平塚"},{"zipCode":"0360242","prefectureKana":"ｱｵﾓﾘｹﾝ","cityKana":"ﾋﾗｶﾜｼ","streetKana":"ｻﾙｶﾏﾂｴﾀﾞ","prefecture":"青森県","city":"平川市","street":"猿賀松枝"},{"zipCode":"0360242","prefectureKana":"ｱｵﾓﾘｹﾝ","cityKana":"ﾋﾗｶﾜｼ","streetKana":"ｻﾙｶﾐﾅﾐﾀ","prefecture":"青森県","city":"平川市","street":"猿賀南田"},{"zipCode":"0360242","prefectureKana":"ｱｵﾓﾘｹﾝ","cityKana":"ﾋﾗｶﾜｼ","streetKana":"ｻﾙｶﾐﾅﾐﾉ","prefecture":"青森県","city":"平川市","street":"猿賀南野"},{"zipCode":"0360242","prefectureKana":"ｱｵﾓﾘｹﾝ","cityKana":"ﾋﾗｶﾜｼ","streetKana":"ｻﾙｶﾐｮｳﾄﾞｳ","prefecture":"青森県","city":"平川市","street":"猿賀明堂"},{"zipCode":"0360242","prefectureKana":"ｱｵﾓﾘｹﾝ","cityKana":"ﾋﾗｶﾜｼ","streetKana":"ｻﾙｶﾔｽｵｶ","prefecture":"青森県","city":"平川市","street":"猿賀安岡"},{"zipCode":"0360242","prefectureKana":"ｱｵﾓﾘｹﾝ","cityKana":"ﾋﾗｶﾜｼ","streetKana":"ｻﾙｶﾔｽﾀ","prefecture":"青森県","city":"平川市","street":"猿賀安田"},{"zipCode":"0360161","prefectureKana":"ｱｵﾓﾘｹﾝ","cityKana":"ﾋﾗｶﾜｼ","streetKana":"ｽｷﾞﾀﾞﾃﾀｷﾓﾄ","prefecture":"青森県","city":"平川市","street":"杉館滝元"},{"zipCode":"0360161","prefectureKana":"ｱｵﾓﾘｹﾝ","cityKana":"ﾋﾗｶﾜｼ","streetKana":"ｽｷﾞﾀﾞﾃﾏﾂﾊｼ","prefecture":"青森県","city":"平川市","street":"杉館松橋"},{"zipCode":"0360161","prefectureKana":"ｱｵﾓﾘｹﾝ","cityKana":"ﾋﾗｶﾜｼ","streetKana":"ｽｷﾞﾀﾞﾃﾐﾔﾓﾄ","prefecture":"青森県","city":"平川市","street":"杉館宮元"},{"zipCode":"0360201","prefectureKana":"ｱｵﾓﾘｹﾝ","cityKana":"ﾋﾗｶﾜｼ","streetKana":"ｽﾓﾓﾀﾞｲｶﾐﾔｽﾊﾗ","prefecture":"青森県","city":"平川市","street":"李平上安原"},{"zipCode":"0360201","prefectureKana":"ｱｵﾓﾘｹﾝ","cityKana":"ﾋﾗｶﾜｼ","streetKana":"ｽﾓﾓﾀﾞｲｶﾐﾔﾏｻﾞｷ","prefecture":"青森県","city":"平川市","street":"李平上山崎"},{"zipCode":"0360201","prefectureKana":"ｱｵﾓﾘｹﾝ","cityKana":"ﾋﾗｶﾜｼ","streetKana":"ｽﾓﾓﾀﾞｲｷﾀﾄﾖﾀﾞ","prefecture":"青森県","city":"平川市","street":"李平北豊田"},{"zipCode":"0360201","prefectureKana":"ｱｵﾓﾘｹﾝ","cityKana":"ﾋﾗｶﾜｼ","streetKana":"ｽﾓﾓﾀﾞｲｼﾓﾔｽﾊﾗ","prefecture":"青森県","city":"平川市","street":"李平下安原"},{"zipCode":"0360201","prefectureKana":"ｱｵﾓﾘｹﾝ","cityKana":"ﾋﾗｶﾜｼ","streetKana":"ｽﾓﾓﾀﾞｲﾆｼﾄﾖﾀﾞ","prefecture":"青森県","city":"平川市","street":"李平西豊田"},{"zipCode":"0360201","prefectureKana":"ｱｵﾓﾘｹﾝ","cityKana":"ﾋﾗｶﾜｼ","streetKana":"ｽﾓﾓﾀﾞｲﾆｼﾔﾏｻﾞｷ","prefecture":"青森県","city":"平川市","street":"李平西山崎"},{"zipCode":"0360201","prefectureKana":"ｱｵﾓﾘｹﾝ","cityKana":"ﾋﾗｶﾜｼ","streetKana":"ｽﾓﾓﾀﾞｲﾆｼﾜﾀﾞ","prefecture":"青森県","city":"平川市","street":"李平西和田"},{"zipCode":"0360201","prefectureKana":"ｱｵﾓﾘｹﾝ","cityKana":"ﾋﾗｶﾜｼ","streetKana":"ｽﾓﾓﾀﾞｲﾋｶﾞｼﾄﾖﾀﾞ","prefecture":"青森県","city":"平川市","street":"李平東豊田"},{"zipCode":"0360201","prefectureKana":"ｱｵﾓﾘｹﾝ","cityKana":"ﾋﾗｶﾜｼ","streetKana":"ｽﾓﾓﾀﾞｲﾋｶﾞｼﾜﾀﾞ","prefecture":"青森県","city":"平川市","street":"李平東和田"},{"zipCode":"0360201","prefectureKana":"ｱｵﾓﾘｹﾝ","cityKana":"ﾋﾗｶﾜｼ","streetKana":"ｽﾓﾓﾀﾞｲﾐﾅﾐﾄﾖﾀﾞ","prefecture":"青森県","city":"平川市","street":"李平南豊田"},{"zipCode":"0360101","prefectureKana":"ｱｵﾓﾘｹﾝ","cityKana":"ﾋﾗｶﾜｼ","streetKana":"ﾀﾞｲｺｳｼﾞｲﾁﾀｷﾓﾄ","prefecture":"青森県","city":"平川市","street":"大光寺一滝本"},{"zipCode":"0360101","prefectureKana":"ｱｵﾓﾘｹﾝ","cityKana":"ﾋﾗｶﾜｼ","streetKana":"ﾀﾞｲｺｳｼﾞｲﾁﾑﾗｲ","prefecture":"青森県","city":"平川市","street":"大光寺一村井"},{"zipCode":"0360101","prefectureKana":"ｱｵﾓﾘｹﾝ","cityKana":"ﾋﾗｶﾜｼ","streetKana":"ﾀﾞｲｺｳｼﾞｲﾁﾜｾﾀﾞ","prefecture":"青森県","city":"平川市","street":"大光寺一早稲田"},{"zipCode":"0360101","prefectureKana":"ｱｵﾓﾘｹﾝ","cityKana":"ﾋﾗｶﾜｼ","streetKana":"ﾀﾞｲｺｳｼﾞｲﾅﾀﾞ","prefecture":"青森県","city":"平川市","street":"大光寺稲田"},{"zipCode":"0360101","prefectureKana":"ｱｵﾓﾘｹﾝ","cityKana":"ﾋﾗｶﾜｼ","streetKana":"ﾀﾞｲｺｳｼﾞｲﾅﾑﾗ","prefecture":"青森県","city":"平川市","street":"大光寺稲村"},{"zipCode":"0360101","prefectureKana":"ｱｵﾓﾘｹﾝ","cityKana":"ﾋﾗｶﾜｼ","streetKana":"ﾀﾞｲｺｳｼﾞｶﾜﾗﾀﾞ","prefecture":"青森県","city":"平川市","street":"大光寺川原田"},{"zipCode":"0360101","prefectureKana":"ｱｵﾓﾘｹﾝ","cityKana":"ﾋﾗｶﾜｼ","streetKana":"ﾀﾞｲｺｳｼﾞｻﾝﾀｷﾓﾄ","prefecture":"青森県","city":"平川市","street":"大光寺三滝本"},{"zipCode":"0360101","prefectureKana":"ｱｵﾓﾘｹﾝ","cityKana":"ﾋﾗｶﾜｼ","streetKana":"ﾀﾞｲｺｳｼﾞｻﾝﾑﾗｲ","prefecture":"青森県","city":"平川市","street":"大光寺三村井"},{"zipCode":"0360101","prefectureKana":"ｱｵﾓﾘｹﾝ","cityKana":"ﾋﾗｶﾜｼ","streetKana":"ﾀﾞｲｺｳｼﾞｻﾝﾜｾﾀﾞ","prefecture":"青森県","city":"平川市","street":"大光寺三早稲田"},{"zipCode":"0360101","prefectureKana":"ｱｵﾓﾘｹﾝ","cityKana":"ﾋﾗｶﾜｼ","streetKana":"ﾀﾞｲｺｳｼﾞｼｬｶｸﾞﾁ","prefecture":"青森県","city":"平川市","street":"大光寺釈迦口"},{"zipCode":"0360101","prefectureKana":"ｱｵﾓﾘｹﾝ","cityKana":"ﾋﾗｶﾜｼ","streetKana":"ﾀﾞｲｺｳｼﾞｼﾛﾔﾏ","prefecture":"青森県","city":"平川市","street":"大光寺白山"},{"zipCode":"0360101","prefectureKana":"ｱｵﾓﾘｹﾝ","cityKana":"ﾋﾗｶﾜｼ","streetKana":"ﾀﾞｲｺｳｼﾞﾀﾈﾓﾄ","prefecture":"青森県","city":"平川市","street":"大光寺種元"},{"zipCode":"0360101","prefectureKana":"ｱｵﾓﾘｹﾝ","cityKana":"ﾋﾗｶﾜｼ","streetKana":"ﾀﾞｲｺｳｼﾞﾆｼｲﾅﾑﾗ","prefecture":"青森県","city":"平川市","street":"大光寺西稲村"},{"zipCode":"0360101","prefectureKana":"ｱｵﾓﾘｹﾝ","cityKana":"ﾋﾗｶﾜｼ","streetKana":"ﾀﾞｲｺｳｼﾞﾆﾀｷﾓﾄ","prefecture":"青森県","city":"平川市","street":"大光寺二滝本"},{"zipCode":"0360101","prefectureKana":"ｱｵﾓﾘｹﾝ","cityKana":"ﾋﾗｶﾜｼ","streetKana":"ﾀﾞｲｺｳｼﾞﾆﾑﾗｲ","prefecture":"青森県","city":"平川市","street":"大光寺二村井"},{"zipCode":"0360101","prefectureKana":"ｱｵﾓﾘｹﾝ","cityKana":"ﾋﾗｶﾜｼ","streetKana":"ﾀﾞｲｺｳｼﾞﾆﾜｾﾀﾞ","prefecture":"青森県","city":"平川市","street":"大光寺二早稲田"},{"zipCode":"0360101","prefectureKana":"ｱｵﾓﾘｹﾝ","cityKana":"ﾋﾗｶﾜｼ","streetKana":"ﾀﾞｲｺｳｼﾞﾖﾝﾀｷﾓﾄ","prefecture":"青森県","city":"平川市","street":"大光寺四滝本"},{"zipCode":"0360146","prefectureKana":"ｱｵﾓﾘｹﾝ","cityKana":"ﾋﾗｶﾜｼ","streetKana":"ﾀﾞｲﾎﾞｳﾀｹｳﾁ","prefecture":"青森県","city":"平川市","street":"大坊竹内"},{"zipCode":"0360146","prefectureKana":"ｱｵﾓﾘｹﾝ","cityKana":"ﾋﾗｶﾜｼ","streetKana":"ﾀﾞｲﾎﾞｳﾀｹﾊﾗ","prefecture":"青森県","city":"平川市","street":"大坊竹原"},{"zipCode":"0360146","prefectureKana":"ｱｵﾓﾘｹﾝ","cityKana":"ﾋﾗｶﾜｼ","streetKana":"ﾀﾞｲﾎﾞｳﾌｸﾀﾞ","prefecture":"青森県","city":"平川市","street":"大坊福田"},{"zipCode":"0360146","prefectureKana":"ｱｵﾓﾘｹﾝ","cityKana":"ﾋﾗｶﾜｼ","streetKana":"ﾀﾞｲﾎﾞｳﾏｴﾀﾞ","prefecture":"青森県","city":"平川市","street":"大坊前田"},{"zipCode":"0360211","prefectureKana":"ｱｵﾓﾘｹﾝ","cityKana":"ﾋﾗｶﾜｼ","streetKana":"ﾀｶｷｵｶｻﾞｷ","prefecture":"青森県","city":"平川市","street":"高木岡崎"},{"zipCode":"0360211","prefectureKana":"ｱｵﾓﾘｹﾝ","cityKana":"ﾋﾗｶﾜｼ","streetKana":"ﾀｶｷｵｶﾀﾞ","prefecture":"青森県","city":"平川市","street":"高木岡田"},{"zipCode":"0360211","prefectureKana":"ｱｵﾓﾘｹﾝ","cityKana":"ﾋﾗｶﾜｼ","streetKana":"ﾀｶｷｵｶﾍﾞ","prefecture":"青森県","city":"平川市","street":"高木岡部"},{"zipCode":"0360211","prefectureKana":"ｱｵﾓﾘｹﾝ","cityKana":"ﾋﾗｶﾜｼ","streetKana":"ﾀｶｷﾄﾖｵｶ","prefecture":"青森県","city":"平川市","street":"高木豊岡"},{"zipCode":"0360211","prefectureKana":"ｱｵﾓﾘｹﾝ","cityKana":"ﾋﾗｶﾜｼ","streetKana":"ﾀｶｷﾄﾖﾀﾞ","prefecture":"青森県","city":"平川市","street":"高木豊田"},{"zipCode":"0360211","prefectureKana":"ｱｵﾓﾘｹﾝ","cityKana":"ﾋﾗｶﾜｼ","streetKana":"ﾀｶｷﾊﾗﾀ","prefecture":"青森県","city":"平川市","street":"高木原田"},{"zipCode":"0360211","prefectureKana":"ｱｵﾓﾘｹﾝ","cityKana":"ﾋﾗｶﾜｼ","streetKana":"ﾀｶｷﾊﾗﾄﾐ","prefecture":"青森県","city":"平川市","street":"高木原富"},{"zipCode":"0360211","prefectureKana":"ｱｵﾓﾘｹﾝ","cityKana":"ﾋﾗｶﾜｼ","streetKana":"ﾀｶｷﾏﾂﾓﾄ","prefecture":"青森県","city":"平川市","street":"高木松元"},{"zipCode":"0360142","prefectureKana":"ｱｵﾓﾘｹﾝ","cityKana":"ﾋﾗｶﾜｼ","streetKana":"ﾀｶﾊﾀｹｸﾏｻﾞﾜ","prefecture":"青森県","city":"平川市","street":"高畑熊沢"},{"zipCode":"0360142","prefectureKana":"ｱｵﾓﾘｹﾝ","cityKana":"ﾋﾗｶﾜｼ","streetKana":"ﾀｶﾊﾀｹﾀｶﾀﾞ","prefecture":"青森県","city":"平川市","street":"高畑高田"},{"zipCode":"0360142","prefectureKana":"ｱｵﾓﾘｹﾝ","cityKana":"ﾋﾗｶﾜｼ","streetKana":"ﾀｶﾊﾀｹﾏｴﾀﾞ","prefecture":"青森県","city":"平川市","street":"高畑前田"},{"zipCode":"0360155","prefectureKana":"ｱｵﾓﾘｹﾝ","cityKana":"ﾋﾗｶﾜｼ","streetKana":"ﾀﾁﾀｲﾅﾑﾗ","prefecture":"青森県","city":"平川市","street":"館田稲村"},{"zipCode":"0360155","prefectureKana":"ｱｵﾓﾘｹﾝ","cityKana":"ﾋﾗｶﾜｼ","streetKana":"ﾀﾁﾀﾅｶﾏｴﾀﾞ","prefecture":"青森県","city":"平川市","street":"館田中前田"},{"zipCode":"0360155","prefectureKana":"ｱｵﾓﾘｹﾝ","cityKana":"ﾋﾗｶﾜｼ","streetKana":"ﾀﾁﾀﾆｼｶﾜﾗﾀﾞ","prefecture":"青森県","city":"平川市","street":"館田西川原田"},{"zipCode":"0360155","prefectureKana":"ｱｵﾓﾘｹﾝ","cityKana":"ﾋﾗｶﾜｼ","streetKana":"ﾀﾁﾀﾆｼﾜﾀﾞ","prefecture":"青森県","city":"平川市","street":"館田西和田"},{"zipCode":"0360155","prefectureKana":"ｱｵﾓﾘｹﾝ","cityKana":"ﾋﾗｶﾜｼ","streetKana":"ﾀﾁﾀﾋｶﾞｼｲﾅﾑﾗ","prefecture":"青森県","city":"平川市","street":"館田東稲村"},{"zipCode":"0360155","prefectureKana":"ｱｵﾓﾘｹﾝ","cityKana":"ﾋﾗｶﾜｼ","streetKana":"ﾀﾁﾀﾋｶﾞｼﾏｴﾀﾞ","prefecture":"青森県","city":"平川市","street":"館田東前田"},{"zipCode":"0360155","prefectureKana":"ｱｵﾓﾘｹﾝ","cityKana":"ﾋﾗｶﾜｼ","streetKana":"ﾀﾁﾀﾋｶﾞｼﾜﾀﾞ","prefecture":"青森県","city":"平川市","street":"館田東和田"},{"zipCode":"0360155","prefectureKana":"ｱｵﾓﾘｹﾝ","cityKana":"ﾋﾗｶﾜｼ","streetKana":"ﾀﾁﾀﾏｴﾀﾞ","prefecture":"青森県","city":"平川市","street":"館田前田"},{"zipCode":"0360155","prefectureKana":"ｱｵﾓﾘｹﾝ","cityKana":"ﾋﾗｶﾜｼ","streetKana":"ﾀﾁﾀﾐﾅﾐｶﾜﾗﾀﾞ","prefecture":"青森県","city":"平川市","street":"館田南川原田"},{"zipCode":"0360155","prefectureKana":"ｱｵﾓﾘｹﾝ","cityKana":"ﾋﾗｶﾜｼ","streetKana":"ﾀﾁﾀﾓﾄｶﾜﾗﾀﾞ","prefecture":"青森県","city":"平川市","street":"館田元川原田"},{"zipCode":"0360155","prefectureKana":"ｱｵﾓﾘｹﾝ","cityKana":"ﾋﾗｶﾜｼ","streetKana":"ﾀﾁﾀﾔﾅｷﾞﾊﾗ","prefecture":"青森県","city":"平川市","street":"館田柳原"},{"zipCode":"0360162","prefectureKana":"ｱｵﾓﾘｹﾝ","cityKana":"ﾋﾗｶﾜｼ","streetKana":"ﾀﾃﾔﾏｲﾀﾊﾞｼ","prefecture":"青森県","city":"平川市","street":"館山板橋"},{"zipCode":"0360162","prefectureKana":"ｱｵﾓﾘｹﾝ","cityKana":"ﾋﾗｶﾜｼ","streetKana":"ﾀﾃﾔﾏｶﾐｵｳｷﾞﾀﾞ","prefecture":"青森県","city":"平川市","street":"館山上扇田"},{"zipCode":"0360162","prefectureKana":"ｱｵﾓﾘｹﾝ","cityKana":"ﾋﾗｶﾜｼ","streetKana":"ﾀﾃﾔﾏｶﾐｶﾒｵｶ","prefecture":"青森県","city":"平川市","street":"館山上亀岡"},{"zipCode":"0360162","prefectureKana":"ｱｵﾓﾘｹﾝ","cityKana":"ﾋﾗｶﾜｼ","streetKana":"ﾀﾃﾔﾏｶﾜｲ","prefecture":"青森県","city":"平川市","street":"館山川合"},{"zipCode":"0360162","prefectureKana":"ｱｵﾓﾘｹﾝ","cityKana":"ﾋﾗｶﾜｼ","streetKana":"ﾀﾃﾔﾏｼﾓｵｳｷﾞﾀﾞ","prefecture":"青森県","city":"平川市","street":"館山下扇田"},{"zipCode":"0360162","prefectureKana":"ｱｵﾓﾘｹﾝ","cityKana":"ﾋﾗｶﾜｼ","streetKana":"ﾀﾃﾔﾏｼﾓｶﾒｵｶ","prefecture":"青森県","city":"平川市","street":"館山下亀岡"},{"zipCode":"0360162","prefectureKana":"ｱｵﾓﾘｹﾝ","cityKana":"ﾋﾗｶﾜｼ","streetKana":"ﾀﾃﾔﾏﾏｴﾀﾞ","prefecture":"青森県","city":"平川市","street":"館山前田"},{"zipCode":"0360221","prefectureKana":"ｱｵﾓﾘｹﾝ","cityKana":"ﾋﾗｶﾜｼ","streetKana":"ﾅｶｻﾄﾞｲｼﾀ","prefecture":"青森県","city":"平川市","street":"中佐渡石田"},{"zipCode":"0360221","prefectureKana":"ｱｵﾓﾘｹﾝ","cityKana":"ﾋﾗｶﾜｼ","streetKana":"ﾅｶｻﾄﾞｶﾏﾀﾞ","prefecture":"青森県","city":"平川市","street":"中佐渡鎌田"},{"zipCode":"0360221","prefectureKana":"ｱｵﾓﾘｹﾝ","cityKana":"ﾋﾗｶﾜｼ","streetKana":"ﾅｶｻﾄﾞﾏｴﾀﾞ","prefecture":"青森県","city":"平川市","street":"中佐渡前田"},{"zipCode":"0360221","prefectureKana":"ｱｵﾓﾘｹﾝ","cityKana":"ﾋﾗｶﾜｼ","streetKana":"ﾅｶｻﾄﾞﾐﾅﾐﾀﾞ","prefecture":"青森県","city":"平川市","street":"中佐渡南田"},{"zipCode":"0360221","prefectureKana":"ｱｵﾓﾘｹﾝ","cityKana":"ﾋﾗｶﾜｼ","streetKana":"ﾅｶｻﾄﾞﾑﾗﾓﾄ","prefecture":"青森県","city":"平川市","street":"中佐渡村元"},{"zipCode":"0360163","prefectureKana":"ｱｵﾓﾘｹﾝ","cityKana":"ﾋﾗｶﾜｼ","streetKana":"ﾅﾝﾊﾞｲﾏﾂｲｯﾎﾟﾝﾔﾅｷﾞ","prefecture":"青森県","city":"平川市","street":"苗生松一本柳"},{"zipCode":"0360163","prefectureKana":"ｱｵﾓﾘｹﾝ","cityKana":"ﾋﾗｶﾜｼ","streetKana":"ﾅﾝﾊﾞｲﾏﾂｶﾐﾋｶﾞｼﾀﾞ","prefecture":"青森県","city":"平川市","street":"苗生松上東田"},{"zipCode":"0360163","prefectureKana":"ｱｵﾓﾘｹﾝ","cityKana":"ﾋﾗｶﾜｼ","streetKana":"ﾅﾝﾊﾞｲﾏﾂｶﾜｻｷ","prefecture":"青森県","city":"平川市","street":"苗生松川崎"},{"zipCode":"0360163","prefectureKana":"ｱｵﾓﾘｹﾝ","cityKana":"ﾋﾗｶﾜｼ","streetKana":"ﾅﾝﾊﾞｲﾏﾂｶﾜﾗﾀﾞ","prefecture":"青森県","city":"平川市","street":"苗生松川原田"},{"zipCode":"0360163","prefectureKana":"ｱｵﾓﾘｹﾝ","cityKana":"ﾋﾗｶﾜｼ","streetKana":"ﾅﾝﾊﾞｲﾏﾂｼﾓﾋｶﾞｼﾀﾞ","prefecture":"青森県","city":"平川市","street":"苗生松下東田"},{"zipCode":"0360163","prefectureKana":"ｱｵﾓﾘｹﾝ","cityKana":"ﾋﾗｶﾜｼ","streetKana":"ﾅﾝﾊﾞｲﾏﾂﾓﾄﾋｶﾞｼﾀﾞ","prefecture":"青森県","city":"平川市","street":"苗生松元東田"},{"zipCode":"0360115","prefectureKana":"ｱｵﾓﾘｹﾝ","cityKana":"ﾋﾗｶﾜｼ","streetKana":"ﾆｲﾀﾞﾃｳｼﾛﾉ","prefecture":"青森県","city":"平川市","street":"新館後野"},{"zipCode":"0360115","prefectureKana":"ｱｵﾓﾘｹﾝ","cityKana":"ﾋﾗｶﾜｼ","streetKana":"ﾆｲﾀﾞﾃｶｼﾜｻﾞｷ","prefecture":"青森県","city":"平川市","street":"新館柏崎"},{"zipCode":"0360115","prefectureKana":"ｱｵﾓﾘｹﾝ","cityKana":"ﾋﾗｶﾜｼ","streetKana":"ﾆｲﾀﾞﾃｺﾏﾄﾞﾏﾘ","prefecture":"青森県","city":"平川市","street":"新館駒泊"},{"zipCode":"0360115","prefectureKana":"ｱｵﾓﾘｹﾝ","cityKana":"ﾋﾗｶﾜｼ","streetKana":"ﾆｲﾀﾞﾃｼﾏﾑﾗ","prefecture":"青森県","city":"平川市","street":"新館島村"},{"zipCode":"0360115","prefectureKana":"ｱｵﾓﾘｹﾝ","cityKana":"ﾋﾗｶﾜｼ","streetKana":"ﾆｲﾀﾞﾃﾉｷﾞﾜ","prefecture":"青森県","city":"平川市","street":"新館野木和"},{"zipCode":"0360115","prefectureKana":"ｱｵﾓﾘｹﾝ","cityKana":"ﾋﾗｶﾜｼ","streetKana":"ﾆｲﾀﾞﾃﾋｶﾞｼﾔﾏ","prefecture":"青森県","city":"平川市","street":"新館東山"},{"zipCode":"0360115","prefectureKana":"ｱｵﾓﾘｹﾝ","cityKana":"ﾋﾗｶﾜｼ","streetKana":"ﾆｲﾀﾞﾃﾌｼﾞﾏｷ","prefecture":"青森県","city":"平川市","street":"新館藤巻"},{"zipCode":"0360115","prefectureKana":"ｱｵﾓﾘｹﾝ","cityKana":"ﾋﾗｶﾜｼ","streetKana":"ﾆｲﾀﾞﾃﾌｼﾞﾔﾏ","prefecture":"青森県","city":"平川市","street":"新館藤山"},{"zipCode":"0360223","prefectureKana":"ｱｵﾓﾘｹﾝ","cityKana":"ﾋﾗｶﾜｼ","streetKana":"ﾆｼﾉｿﾞｴｶﾜｻｷ","prefecture":"青森県","city":"平川市","street":"西野曽江川崎"},{"zipCode":"0360223","prefectureKana":"ｱｵﾓﾘｹﾝ","cityKana":"ﾋﾗｶﾜｼ","streetKana":"ﾆｼﾉｿﾞｴﾊｼﾓﾄ","prefecture":"青森県","city":"平川市","street":"西野曽江橋元"},{"zipCode":"0360223","prefectureKana":"ｱｵﾓﾘｹﾝ","cityKana":"ﾋﾗｶﾜｼ","streetKana":"ﾆｼﾉｿﾞｴﾋﾛﾀ","prefecture":"青森県","city":"平川市","street":"西野曽江広田"},{"zipCode":"0360231","prefectureKana":"ｱｵﾓﾘｹﾝ","cityKana":"ﾋﾗｶﾜｼ","streetKana":"ﾆｲﾔﾏｵｶﾍﾞ","prefecture":"青森県","city":"平川市","street":"新山岡部"},{"zipCode":"0360231","prefectureKana":"ｱｵﾓﾘｹﾝ","cityKana":"ﾋﾗｶﾜｼ","streetKana":"ﾆｲﾔﾏﾏﾂﾊｼ","prefecture":"青森県","city":"平川市","street":"新山松橋"},{"zipCode":"0360231","prefectureKana":"ｱｵﾓﾘｹﾝ","cityKana":"ﾋﾗｶﾜｼ","streetKana":"ﾆｲﾔﾏﾑﾗﾓﾄ","prefecture":"青森県","city":"平川市","street":"新山村元"},{"zipCode":"0360231","prefectureKana":"ｱｵﾓﾘｹﾝ","cityKana":"ﾋﾗｶﾜｼ","streetKana":"ﾆｲﾔﾏﾔﾅｷﾞﾀﾞ","prefecture":"青森県","city":"平川市","street":"新山柳田"},{"zipCode":"0360231","prefectureKana":"ｱｵﾓﾘｹﾝ","cityKana":"ﾋﾗｶﾜｼ","streetKana":"ﾆｲﾔﾏﾜｾﾀﾞ","prefecture":"青森県","city":"平川市","street":"新山早稲田"},{"zipCode":"0360243","prefectureKana":"ｱｵﾓﾘｹﾝ","cityKana":"ﾋﾗｶﾜｼ","streetKana":"ﾊﾗｵｵﾉ","prefecture":"青森県","city":"平川市","street":"原大野"},{"zipCode":"0360243","prefectureKana":"ｱｵﾓﾘｹﾝ","cityKana":"ﾋﾗｶﾜｼ","streetKana":"ﾊﾗｶﾐﾊﾗ","prefecture":"青森県","city":"平川市","street":"原上原"},{"zipCode":"0360243","prefectureKana":"ｱｵﾓﾘｹﾝ","cityKana":"ﾋﾗｶﾜｼ","streetKana":"ﾊﾗｷﾀﾊﾗ","prefecture":"青森県","city":"平川市","street":"原北原"},{"zipCode":"0360144","prefectureKana":"ｱｵﾓﾘｹﾝ","cityKana":"ﾋﾗｶﾜｼ","streetKana":"ﾊﾗﾀｲﾅﾓﾄ","prefecture":"青森県","city":"平川市","street":"原田稲元"},{"zipCode":"0360144","prefectureKana":"ｱｵﾓﾘｹﾝ","cityKana":"ﾋﾗｶﾜｼ","streetKana":"ﾊﾗﾀｲﾏｲ","prefecture":"青森県","city":"平川市","street":"原田今井"},{"zipCode":"0360144","prefectureKana":"ｱｵﾓﾘｹﾝ","cityKana":"ﾋﾗｶﾜｼ","streetKana":"ﾊﾗﾀｻﾜﾀ","prefecture":"青森県","city":"平川市","street":"原田沢田"},{"zipCode":"0360144","prefectureKana":"ｱｵﾓﾘｹﾝ","cityKana":"ﾋﾗｶﾜｼ","streetKana":"ﾊﾗﾀﾑﾗﾓﾄ","prefecture":"青森県","city":"平川市","street":"原田村元"},{"zipCode":"0360233","prefectureKana":"ｱｵﾓﾘｹﾝ","cityKana":"ﾋﾗｶﾜｼ","streetKana":"ﾋﾇﾏｲｯﾎﾟﾝﾔﾅｷﾞ","prefecture":"青森県","city":"平川市","street":"日沼一本柳"},{"zipCode":"0360233","prefectureKana":"ｱｵﾓﾘｹﾝ","cityKana":"ﾋﾗｶﾜｼ","streetKana":"ﾋﾇﾏｶﾜﾗﾀﾞ","prefecture":"青森県","city":"平川市","street":"日沼河原田"},{"zipCode":"0360233","prefectureKana":"ｱｵﾓﾘｹﾝ","cityKana":"ﾋﾗｶﾜｼ","streetKana":"ﾋﾇﾏｼﾓｶﾜﾗ","prefecture":"青森県","city":"平川市","street":"日沼下川原"},{"zipCode":"0360233","prefectureKana":"ｱｵﾓﾘｹﾝ","cityKana":"ﾋﾗｶﾜｼ","streetKana":"ﾋﾇﾏｼﾓﾌｸﾛ","prefecture":"青森県","city":"平川市","street":"日沼下袋"},{"zipCode":"0360233","prefectureKana":"ｱｵﾓﾘｹﾝ","cityKana":"ﾋﾗｶﾜｼ","streetKana":"ﾋﾇﾏｽﾓﾓﾀﾞ","prefecture":"青森県","city":"平川市","street":"日沼李田"},{"zipCode":"0360233","prefectureKana":"ｱｵﾓﾘｹﾝ","cityKana":"ﾋﾗｶﾜｼ","streetKana":"ﾋﾇﾏﾀｶﾀﾞ","prefecture":"青森県","city":"平川市","street":"日沼高田"},{"zipCode":"0360233","prefectureKana":"ｱｵﾓﾘｹﾝ","cityKana":"ﾋﾗｶﾜｼ","streetKana":"ﾋﾇﾏﾂｶｺﾞｼ","prefecture":"青森県","city":"平川市","street":"日沼塚越"},{"zipCode":"0360233","prefectureKana":"ｱｵﾓﾘｹﾝ","cityKana":"ﾋﾗｶﾜｼ","streetKana":"ﾋﾇﾏﾄｲﾀﾞ","prefecture":"青森県","city":"平川市","street":"日沼樋田"},{"zipCode":"0360233","prefectureKana":"ｱｵﾓﾘｹﾝ","cityKana":"ﾋﾗｶﾜｼ","streetKana":"ﾋﾇﾏﾄﾐﾀ","prefecture":"青森県","city":"平川市","street":"日沼富田"},{"zipCode":"0360233","prefectureKana":"ｱｵﾓﾘｹﾝ","cityKana":"ﾋﾗｶﾜｼ","streetKana":"ﾋﾇﾏﾄﾐﾀｹ","prefecture":"青森県","city":"平川市","street":"日沼富岳"},{"zipCode":"0360113","prefectureKana":"ｱｵﾓﾘｹﾝ","cityKana":"ﾋﾗｶﾜｼ","streetKana":"ﾋﾗﾀﾓﾘｲﾅﾑﾗ","prefecture":"青森県","city":"平川市","street":"平田森稲村"},{"zipCode":"0360113","prefectureKana":"ｱｵﾓﾘｹﾝ","cityKana":"ﾋﾗｶﾜｼ","streetKana":"ﾋﾗﾀﾓﾘｶﾐﾐﾔﾓﾄ","prefecture":"青森県","city":"平川市","street":"平田森上宮本"},{"zipCode":"0360113","prefectureKana":"ｱｵﾓﾘｹﾝ","cityKana":"ﾋﾗｶﾜｼ","streetKana":"ﾋﾗﾀﾓﾘｼﾓﾐﾔﾓﾄ","prefecture":"青森県","city":"平川市","street":"平田森下宮本"},{"zipCode":"0360113","prefectureKana":"ｱｵﾓﾘｹﾝ","cityKana":"ﾋﾗｶﾜｼ","streetKana":"ﾋﾗﾀﾓﾘﾏｴﾀﾞ","prefecture":"青森県","city":"平川市","street":"平田森前田"},{"zipCode":"0360113","prefectureKana":"ｱｵﾓﾘｹﾝ","cityKana":"ﾋﾗｶﾜｼ","streetKana":"ﾋﾗﾀﾓﾘﾜｶﾏﾂ","prefecture":"青森県","city":"平川市","street":"平田森若松"},{"zipCode":"0360131","prefectureKana":"ｱｵﾓﾘｹﾝ","cityKana":"ﾋﾗｶﾜｼ","streetKana":"ﾋﾛﾌﾈﾋﾛｻﾜ","prefecture":"青森県","city":"平川市","street":"広船広沢"},{"zipCode":"0360131","prefectureKana":"ｱｵﾓﾘｹﾝ","cityKana":"ﾋﾗｶﾜｼ","streetKana":"ﾋﾛﾌﾈﾌｸﾀﾞ","prefecture":"青森県","city":"平川市","street":"広船福田"},{"zipCode":"0360131","prefectureKana":"ｱｵﾓﾘｹﾝ","cityKana":"ﾋﾗｶﾜｼ","streetKana":"ﾋﾛﾌﾈﾔﾏｼﾀ","prefecture":"青森県","city":"平川市","street":"広船山下"},{"zipCode":"0360143","prefectureKana":"ｱｵﾓﾘｹﾝ","cityKana":"ﾋﾗｶﾜｼ","streetKana":"ﾌｷｱｹﾞﾀｶﾀﾞ","prefecture":"青森県","city":"平川市","street":"吹上高田"},{"zipCode":"0360143","prefectureKana":"ｱｵﾓﾘｹﾝ","cityKana":"ﾋﾗｶﾜｼ","streetKana":"ﾌｷｱｹﾞﾋﾗｵｶ","prefecture":"青森県","city":"平川市","street":"吹上平岡"},{"zipCode":"0360143","prefectureKana":"ｱｵﾓﾘｹﾝ","cityKana":"ﾋﾗｶﾜｼ","streetKana":"ﾌｷｱｹﾞﾔｽﾀ","prefecture":"青森県","city":"平川市","street":"吹上安田"},{"zipCode":"0360114","prefectureKana":"ｱｵﾓﾘｹﾝ","cityKana":"ﾋﾗｶﾜｼ","streetKana":"ﾏﾁｲｲﾅﾑﾗ","prefecture":"青森県","city":"平川市","street":"町居稲村"},{"zipCode":"0360114","prefectureKana":"ｱｵﾓﾘｹﾝ","cityKana":"ﾋﾗｶﾜｼ","streetKana":"ﾏﾁｲｲﾅﾓﾄ","prefecture":"青森県","city":"平川市","street":"町居稲元"},{"zipCode":"0360114","prefectureKana":"ｱｵﾓﾘｹﾝ","cityKana":"ﾋﾗｶﾜｼ","streetKana":"ﾏﾁｲﾆｼﾀ","prefecture":"青森県","city":"平川市","street":"町居西田"},{"zipCode":"0360114","prefectureKana":"ｱｵﾓﾘｹﾝ","cityKana":"ﾋﾗｶﾜｼ","streetKana":"ﾏﾁｲﾐﾅﾐﾀ","prefecture":"青森県","city":"平川市","street":"町居南田"},{"zipCode":"0360114","prefectureKana":"ｱｵﾓﾘｹﾝ","cityKana":"ﾋﾗｶﾜｼ","streetKana":"ﾏﾁｲﾔﾏｼﾀ","prefecture":"青森県","city":"平川市","street":"町居山下"},{"zipCode":"0360114","prefectureKana":"ｱｵﾓﾘｹﾝ","cityKana":"ﾋﾗｶﾜｼ","streetKana":"ﾏﾁｲﾔﾏﾓﾄ","prefecture":"青森県","city":"平川市","street":"町居山元"},{"zipCode":"0360114","prefectureKana":"ｱｵﾓﾘｹﾝ","cityKana":"ﾋﾗｶﾜｼ","streetKana":"ﾏﾁｲﾖｺﾔﾏ","prefecture":"青森県","city":"平川市","street":"町居横山"},{"zipCode":"0360164","prefectureKana":"ｱｵﾓﾘｹﾝ","cityKana":"ﾋﾗｶﾜｼ","streetKana":"ﾏﾂｻﾞｷｶﾒｲ","prefecture":"青森県","city":"平川市","street":"松崎亀井"},{"zipCode":"0360164","prefectureKana":"ｱｵﾓﾘｹﾝ","cityKana":"ﾋﾗｶﾜｼ","streetKana":"ﾏﾂｻﾞｷﾆｼﾀﾞ","prefecture":"青森県","city":"平川市","street":"松崎西田"},{"zipCode":"0360165","prefectureKana":"ｱｵﾓﾘｹﾝ","cityKana":"ﾋﾗｶﾜｼ","streetKana":"ﾏﾂﾀﾞﾃｱｻｲ","prefecture":"青森県","city":"平川市","street":"松館浅井"},{"zipCode":"0360165","prefectureKana":"ｱｵﾓﾘｹﾝ","cityKana":"ﾋﾗｶﾜｼ","streetKana":"ﾏﾂﾀﾞﾃｲﾉｳｴ","prefecture":"青森県","city":"平川市","street":"松館井ノ上"},{"zipCode":"0360165","prefectureKana":"ｱｵﾓﾘｹﾝ","cityKana":"ﾋﾗｶﾜｼ","streetKana":"ﾏﾂﾀﾞﾃﾆｼｲﾅﾑﾗ","prefecture":"青森県","city":"平川市","street":"松館西稲村"},{"zipCode":"0360165","prefectureKana":"ｱｵﾓﾘｹﾝ","cityKana":"ﾋﾗｶﾜｼ","streetKana":"ﾏﾂﾀﾞﾃﾆｼｶﾜﾗﾀﾞ","prefecture":"青森県","city":"平川市","street":"松館西川原田"},{"zipCode":"0360165","prefectureKana":"ｱｵﾓﾘｹﾝ","cityKana":"ﾋﾗｶﾜｼ","streetKana":"ﾏﾂﾀﾞﾃﾋｶﾞｼｲﾅﾑﾗ","prefecture":"青森県","city":"平川市","street":"松館東稲村"},{"zipCode":"0360165","prefectureKana":"ｱｵﾓﾘｹﾝ","cityKana":"ﾋﾗｶﾜｼ","streetKana":"ﾏﾂﾀﾞﾃﾋｶﾞｼｶﾜﾗﾀﾞ","prefecture":"青森県","city":"平川市","street":"松館東川原田"},{"zipCode":"0360165","prefectureKana":"ｱｵﾓﾘｹﾝ","cityKana":"ﾋﾗｶﾜｼ","streetKana":"ﾏﾂﾀﾞﾃﾏﾂﾓﾄ","prefecture":"青森県","city":"平川市","street":"松館松元"},{"zipCode":"0360203","prefectureKana":"ｱｵﾓﾘｹﾝ","cityKana":"ﾋﾗｶﾜｼ","streetKana":"ﾐﾅﾐﾀﾅｶｷﾀﾊﾔｼﾓﾄ","prefecture":"青森県","city":"平川市","street":"南田中北林元"},{"zipCode":"0360203","prefectureKana":"ｱｵﾓﾘｹﾝ","cityKana":"ﾋﾗｶﾜｼ","streetKana":"ﾐﾅﾐﾀﾅｶｷﾀﾊﾗ","prefecture":"青森県","city":"平川市","street":"南田中北原"},{"zipCode":"0360203","prefectureKana":"ｱｵﾓﾘｹﾝ","cityKana":"ﾋﾗｶﾜｼ","streetKana":"ﾐﾅﾐﾀﾅｶｷﾀﾎｿﾀﾞ","prefecture":"青森県","city":"平川市","street":"南田中北細田"},{"zipCode":"0360203","prefectureKana":"ｱｵﾓﾘｹﾝ","cityKana":"ﾋﾗｶﾜｼ","streetKana":"ﾐﾅﾐﾀﾅｶｷﾀﾑﾗｲ","prefecture":"青森県","city":"平川市","street":"南田中北村井"},{"zipCode":"0360203","prefectureKana":"ｱｵﾓﾘｹﾝ","cityKana":"ﾋﾗｶﾜｼ","streetKana":"ﾐﾅﾐﾀﾅｶﾅｶﾑﾗｲ","prefecture":"青森県","city":"平川市","street":"南田中中村井"},{"zipCode":"0360203","prefectureKana":"ｱｵﾓﾘｹﾝ","cityKana":"ﾋﾗｶﾜｼ","streetKana":"ﾐﾅﾐﾀﾅｶﾆｼﾊﾔｼﾓﾄ","prefecture":"青森県","city":"平川市","street":"南田中西林元"},{"zipCode":"0360203","prefectureKana":"ｱｵﾓﾘｹﾝ","cityKana":"ﾋﾗｶﾜｼ","streetKana":"ﾐﾅﾐﾀﾅｶﾆｼﾊﾗ","prefecture":"青森県","city":"平川市","street":"南田中西原"},{"zipCode":"0360203","prefectureKana":"ｱｵﾓﾘｹﾝ","cityKana":"ﾋﾗｶﾜｼ","streetKana":"ﾐﾅﾐﾀﾅｶﾋｶﾞｼﾊﾔｼﾓﾄ","prefecture":"青森県","city":"平川市","street":"南田中東林元"},{"zipCode":"0360203","prefectureKana":"ｱｵﾓﾘｹﾝ","cityKana":"ﾋﾗｶﾜｼ","streetKana":"ﾐﾅﾐﾀﾅｶﾐﾅﾐﾊﾔｼﾓﾄ","prefecture":"青森県","city":"平川市","street":"南田中南林元"},{"zipCode":"0360203","prefectureKana":"ｱｵﾓﾘｹﾝ","cityKana":"ﾋﾗｶﾜｼ","streetKana":"ﾐﾅﾐﾀﾅｶﾑﾗｳﾁ","prefecture":"青森県","city":"平川市","street":"南田中村内"},{"zipCode":"0360103","prefectureKana":"ｱｵﾓﾘｹﾝ","cityKana":"ﾋﾗｶﾜｼ","streetKana":"ﾓﾄﾏﾁｷﾀﾔﾅｷﾞﾀﾞ","prefecture":"青森県","city":"平川市","street":"本町北柳田"},{"zipCode":"0360103","prefectureKana":"ｱｵﾓﾘｹﾝ","cityKana":"ﾋﾗｶﾜｼ","streetKana":"ﾓﾄﾏﾁﾄﾐｵｶ","prefecture":"青森県","city":"平川市","street":"本町富岡"},{"zipCode":"0360103","prefectureKana":"ｱｵﾓﾘｹﾝ","cityKana":"ﾋﾗｶﾜｼ","streetKana":"ﾓﾄﾏﾁﾆｼﾉﾐﾔ","prefecture":"青森県","city":"平川市","street":"本町西宮"},{"zipCode":"0360103","prefectureKana":"ｱｵﾓﾘｹﾝ","cityKana":"ﾋﾗｶﾜｼ","streetKana":"ﾓﾄﾏﾁﾋﾗﾉ","prefecture":"青森県","city":"平川市","street":"本町平野"},{"zipCode":"0360103","prefectureKana":"ｱｵﾓﾘｹﾝ","cityKana":"ﾋﾗｶﾜｼ","streetKana":"ﾓﾄﾏﾁﾐﾅﾐﾔﾅｷﾞﾀﾞ","prefecture":"青森県","city":"平川市","street":"本町南柳田"},{"zipCode":"0360103","prefectureKana":"ｱｵﾓﾘｹﾝ","cityKana":"ﾋﾗｶﾜｼ","streetKana":"ﾓﾄﾏﾁﾑﾗﾓﾄ","prefecture":"青森県","city":"平川市","street":"本町村元"},{"zipCode":"0360241","prefectureKana":"ｱｵﾓﾘｹﾝ","cityKana":"ﾋﾗｶﾜｼ","streetKana":"ﾔﾜﾀｻｷﾀｶﾉ","prefecture":"青森県","city":"平川市","street":"八幡崎高野"},{"zipCode":"0360241","prefectureKana":"ｱｵﾓﾘｹﾝ","cityKana":"ﾋﾗｶﾜｼ","streetKana":"ﾔﾜﾀｻｷﾀｶﾊﾗ","prefecture":"青森県","city":"平川市","street":"八幡崎高原"},{"zipCode":"0360241","prefectureKana":"ｱｵﾓﾘｹﾝ","cityKana":"ﾋﾗｶﾜｼ","streetKana":"ﾔﾜﾀｻｷﾎﾝﾊﾞﾔｼ","prefecture":"青森県","city":"平川市","street":"八幡崎本林"},{"zipCode":"0360241","prefectureKana":"ｱｵﾓﾘｹﾝ","cityKana":"ﾋﾗｶﾜｼ","streetKana":"ﾔﾜﾀｻｷﾏﾂｴﾀﾞ","prefecture":"青森県","city":"平川市","street":"八幡崎松枝"},{"zipCode":"0360241","prefectureKana":"ｱｵﾓﾘｹﾝ","cityKana":"ﾋﾗｶﾜｼ","streetKana":"ﾔﾜﾀｻｷﾏﾂﾊｼ","prefecture":"青森県","city":"平川市","street":"八幡崎松橋"},{"zipCode":"0360241","prefectureKana":"ｱｵﾓﾘｹﾝ","cityKana":"ﾋﾗｶﾜｼ","streetKana":"ﾔﾜﾀｻｷﾐﾔﾀ","prefecture":"青森県","city":"平川市","street":"八幡崎宮田"},{"zipCode":"0360241","prefectureKana":"ｱｵﾓﾘｹﾝ","cityKana":"ﾋﾗｶﾜｼ","streetKana":"ﾔﾜﾀｻｷﾐﾔﾓﾄ","prefecture":"青森県","city":"平川市","street":"八幡崎宮本"},{"zipCode":"0360241","prefectureKana":"ｱｵﾓﾘｹﾝ","cityKana":"ﾋﾗｶﾜｼ","streetKana":"ﾔﾜﾀｻｷﾓﾄﾐﾔ","prefecture":"青森県","city":"平川市","street":"八幡崎本宮"},{"zipCode":"0360154","prefectureKana":"ｱｵﾓﾘｹﾝ","cityKana":"ﾋﾗｶﾜｼ","streetKana":"ﾖﾂﾔｶﾒﾀ","prefecture":"青森県","city":"平川市","street":"四ツ屋亀田"},{"zipCode":"0361400","prefectureKana":"ｱｵﾓﾘｹﾝ","cityKana":"ﾅｶﾂｶﾞﾙｸﾞﾝﾆｼﾒﾔﾑﾗ","streetKana":"ｲｶﾆｹｲｻｲｶﾞﾅｲﾊﾞｱｲ","prefecture":"青森県","city":"中津軽郡西目屋村","street":"以下に掲載がない場合"},{"zipCode":"0361422","prefectureKana":"ｱｵﾓﾘｹﾝ","cityKana":"ﾅｶﾂｶﾞﾙｸﾞﾝﾆｼﾒﾔﾑﾗ","streetKana":"ｲﾓﾘﾀｲ","prefecture":"青森県","city":"中津軽郡西目屋村","street":"居森平"},{"zipCode":"0361424","prefectureKana":"ｱｵﾓﾘｹﾝ","cityKana":"ﾅｶﾂｶﾞﾙｸﾞﾝﾆｼﾒﾔﾑﾗ","streetKana":"ｶﾜﾗﾀｲ","prefecture":"青森県","city":"中津軽郡西目屋村","street":"川原平"},{"zipCode":"0361414","prefectureKana":"ｱｵﾓﾘｹﾝ","cityKana":"ﾅｶﾂｶﾞﾙｸﾞﾝﾆｼﾒﾔﾑﾗ","streetKana":"ｼﾗｻﾜ","prefecture":"青森県","city":"中津軽郡西目屋村","street":"白沢"},{"zipCode":"0361412","prefectureKana":"ｱｵﾓﾘｹﾝ","cityKana":"ﾅｶﾂｶﾞﾙｸﾞﾝﾆｼﾒﾔﾑﾗ","streetKana":"ｽｷﾞｶﾞｻﾜ","prefecture":"青森県","city":"中津軽郡西目屋村","street":"杉ケ沢"},{"zipCode":"0361423","prefectureKana":"ｱｵﾓﾘｹﾝ","cityKana":"ﾅｶﾂｶﾞﾙｸﾞﾝﾆｼﾒﾔﾑﾗ","streetKana":"ｽﾅｺｾ","prefecture":"青森県","city":"中津軽郡西目屋村","street":"砂子瀬"},{"zipCode":"0361413","prefectureKana":"ｱｵﾓﾘｹﾝ","cityKana":"ﾅｶﾂｶﾞﾙｸﾞﾝﾆｼﾒﾔﾑﾗ","streetKana":"ﾀｲｱｷ","prefecture":"青森県","city":"中津軽郡西目屋村","street":"大秋"},{"zipCode":"0361411","prefectureKana":"ｱｵﾓﾘｹﾝ","cityKana":"ﾅｶﾂｶﾞﾙｸﾞﾝﾆｼﾒﾔﾑﾗ","streetKana":"ﾀｼﾛ","prefecture":"青森県","city":"中津軽郡西目屋村","street":"田代"},{"zipCode":"0361421","prefectureKana":"ｱｵﾓﾘｹﾝ","cityKana":"ﾅｶﾂｶﾞﾙｸﾞﾝﾆｼﾒﾔﾑﾗ","streetKana":"ﾌｼﾞｶﾜ","prefecture":"青森県","city":"中津軽郡西目屋村","street":"藤川"},{"zipCode":"0361415","prefectureKana":"ｱｵﾓﾘｹﾝ","cityKana":"ﾅｶﾂｶﾞﾙｸﾞﾝﾆｼﾒﾔﾑﾗ","streetKana":"ﾑﾗｲﾁ","prefecture":"青森県","city":"中津軽郡西目屋村","street":"村市"}]