[{"zipCode":"0440441","prefectureKana":"ﾎｯｶｲﾄﾞｳ","cityKana":"ﾀﾞﾃｼ","streetKana":"ｵｵﾀｷｸｱｲﾁﾁｮｳ","prefecture":"北海道","city":"伊達市","street":"大滝区愛地町"},{"zipCode":"0440443","prefectureKana":"ﾎｯｶｲﾄﾞｳ","cityKana":"ﾀﾞﾃｼ","streetKana":"ｵｵﾀｷｸｷﾖﾊﾗﾁｮｳ","prefecture":"北海道","city":"伊達市","street":"大滝区清原町"},{"zipCode":"0440444","prefectureKana":"ﾎｯｶｲﾄﾞｳ","cityKana":"ﾀﾞﾃｼ","streetKana":"ｵｵﾀｷｸﾄﾖｻﾄﾁｮｳ","prefecture":"北海道","city":"伊達市","street":"大滝区豊里町"},{"zipCode":"0440442","prefectureKana":"ﾎｯｶｲﾄﾞｳ","cityKana":"ﾀﾞﾃｼ","streetKana":"ｵｵﾀｷｸﾐﾔｷﾞﾁｮｳ","prefecture":"北海道","city":"伊達市","street":"大滝区宮城町"},{"zipCode":"0440200","prefectureKana":"ﾎｯｶｲﾄﾞｳ","cityKana":"ｱﾌﾞﾀｸﾞﾝｷﾓﾍﾞﾂﾁｮｳ","streetKana":"ｲｶﾆｹｲｻｲｶﾞﾅｲﾊﾞｱｲ","prefecture":"北海道","city":"虻田郡喜茂別町","street":"以下に掲載がない場合"},{"zipCode":"0440215","prefectureKana":"ﾎｯｶｲﾄﾞｳ","cityKana":"ｱﾌﾞﾀｸﾞﾝｷﾓﾍﾞﾂﾁｮｳ","streetKana":"ｱｲｶﾜ","prefecture":"北海道","city":"虻田郡喜茂別町","street":"相川"},{"zipCode":"0440201","prefectureKana":"ﾎｯｶｲﾄﾞｳ","cityKana":"ｱﾌﾞﾀｸﾞﾝｷﾓﾍﾞﾂﾁｮｳ","streetKana":"ｱｻﾋﾁｮｳ","prefecture":"北海道","city":"虻田郡喜茂別町","street":"旭町"},{"zipCode":"0440201","prefectureKana":"ﾎｯｶｲﾄﾞｳ","cityKana":"ｱﾌﾞﾀｸﾞﾝｷﾓﾍﾞﾂﾁｮｳ","streetKana":"ｵｵﾏﾁ","prefecture":"北海道","city":"虻田郡喜茂別町","street":"大町"},{"zipCode":"0440454","prefectureKana":"ﾎｯｶｲﾄﾞｳ","cityKana":"ｱﾌﾞﾀｸﾞﾝｷﾓﾍﾞﾂﾁｮｳ","streetKana":"ｶﾅﾔﾏ","prefecture":"北海道","city":"虻田郡喜茂別町","street":"金山"},{"zipCode":"0440451","prefectureKana":"ﾎｯｶｲﾄﾞｳ","cityKana":"ｱﾌﾞﾀｸﾞﾝｷﾓﾍﾞﾂﾁｮｳ","streetKana":"ｶﾐｼﾘﾍﾞﾂ","prefecture":"北海道","city":"虻田郡喜茂別町","street":"上尻別"},{"zipCode":"0440223","prefectureKana":"ﾎｯｶｲﾄﾞｳ","cityKana":"ｱﾌﾞﾀｸﾞﾝｷﾓﾍﾞﾂﾁｮｳ","streetKana":"ｶﾜｶﾐ","prefecture":"北海道","city":"虻田郡喜茂別町","street":"川上"},{"zipCode":"0440201","prefectureKana":"ﾎｯｶｲﾄﾞｳ","cityKana":"ｱﾌﾞﾀｸﾞﾝｷﾓﾍﾞﾂﾁｮｳ","streetKana":"ｷﾓﾍﾞﾂ","prefecture":"北海道","city":"虻田郡喜茂別町","street":"喜茂別"},{"zipCode":"0440453","prefectureKana":"ﾎｯｶｲﾄﾞｳ","cityKana":"ｱﾌﾞﾀｸﾞﾝｷﾓﾍﾞﾂﾁｮｳ","streetKana":"ｷｮｳｻｶｴ","prefecture":"北海道","city":"虻田郡喜茂別町","street":"共栄"},{"zipCode":"0440201","prefectureKana":"ﾎｯｶｲﾄﾞｳ","cityKana":"ｱﾌﾞﾀｸﾞﾝｷﾓﾍﾞﾂﾁｮｳ","streetKana":"ｻｲﾜｲﾁｮｳ","prefecture":"北海道","city":"虻田郡喜茂別町","street":"幸町"},{"zipCode":"0440222","prefectureKana":"ﾎｯｶｲﾄﾞｳ","cityKana":"ｱﾌﾞﾀｸﾞﾝｷﾓﾍﾞﾂﾁｮｳ","streetKana":"ｻｶｴ","prefecture":"北海道","city":"虻田郡喜茂別町","street":"栄"},{"zipCode":"0440214","prefectureKana":"ﾎｯｶｲﾄﾞｳ","cityKana":"ｱﾌﾞﾀｸﾞﾝｷﾓﾍﾞﾂﾁｮｳ","streetKana":"ｼﾘﾍﾞﾂ","prefecture":"北海道","city":"虻田郡喜茂別町","street":"尻別"},{"zipCode":"0440201","prefectureKana":"ﾎｯｶｲﾄﾞｳ","cityKana":"ｱﾌﾞﾀｸﾞﾝｷﾓﾍﾞﾂﾁｮｳ","streetKana":"ｽｴﾋﾛﾁｮｳ","prefecture":"北海道","city":"虻田郡喜茂別町","street":"末広町"},{"zipCode":"0440451","prefectureKana":"ﾎｯｶｲﾄﾞｳ","cityKana":"ｱﾌﾞﾀｸﾞﾝｷﾓﾍﾞﾂﾁｮｳ","streetKana":"ｽｽﾞｶﾜ","prefecture":"北海道","city":"虻田郡喜茂別町","street":"鈴川"},{"zipCode":"0440224","prefectureKana":"ﾎｯｶｲﾄﾞｳ","cityKana":"ｱﾌﾞﾀｸﾞﾝｷﾓﾍﾞﾂﾁｮｳ","streetKana":"ﾁﾗｲﾍﾞﾂ","prefecture":"北海道","city":"虻田郡喜茂別町","street":"知来別"},{"zipCode":"0440461","prefectureKana":"ﾎｯｶｲﾄﾞｳ","cityKana":"ｱﾌﾞﾀｸﾞﾝｷﾓﾍﾞﾂﾁｮｳ","streetKana":"ﾅｶｻﾄ","prefecture":"北海道","city":"虻田郡喜茂別町","street":"中里"},{"zipCode":"0440462","prefectureKana":"ﾎｯｶｲﾄﾞｳ","cityKana":"ｱﾌﾞﾀｸﾞﾝｷﾓﾍﾞﾂﾁｮｳ","streetKana":"ﾊﾅｵｶ","prefecture":"北海道","city":"虻田郡喜茂別町","street":"花丘"},{"zipCode":"0440213","prefectureKana":"ﾎｯｶｲﾄﾞｳ","cityKana":"ｱﾌﾞﾀｸﾞﾝｷﾓﾍﾞﾂﾁｮｳ","streetKana":"ﾋﾗｵｶ","prefecture":"北海道","city":"虻田郡喜茂別町","street":"比羅岡"},{"zipCode":"0440452","prefectureKana":"ﾎｯｶｲﾄﾞｳ","cityKana":"ｱﾌﾞﾀｸﾞﾝｷﾓﾍﾞﾂﾁｮｳ","streetKana":"ﾌｸｵｶ","prefecture":"北海道","city":"虻田郡喜茂別町","street":"福丘"},{"zipCode":"0440461","prefectureKana":"ﾎｯｶｲﾄﾞｳ","cityKana":"ｱﾌﾞﾀｸﾞﾝｷﾓﾍﾞﾂﾁｮｳ","streetKana":"ﾌｸｻﾄ","prefecture":"北海道","city":"虻田郡喜茂別町","street":"福里"},{"zipCode":"0440225","prefectureKana":"ﾎｯｶｲﾄﾞｳ","cityKana":"ｱﾌﾞﾀｸﾞﾝｷﾓﾍﾞﾂﾁｮｳ","streetKana":"ﾌｸｼﾏ","prefecture":"北海道","city":"虻田郡喜茂別町","street":"福島"},{"zipCode":"0440221","prefectureKana":"ﾎｯｶｲﾄﾞｳ","cityKana":"ｱﾌﾞﾀｸﾞﾝｷﾓﾍﾞﾂﾁｮｳ","streetKana":"ﾌｼﾐ","prefecture":"北海道","city":"虻田郡喜茂別町","street":"伏見"},{"zipCode":"0440211","prefectureKana":"ﾎｯｶｲﾄﾞｳ","cityKana":"ｱﾌﾞﾀｸﾞﾝｷﾓﾍﾞﾂﾁｮｳ","streetKana":"ﾌｼﾞﾐﾀﾞｲ","prefecture":"北海道","city":"虻田郡喜茂別町","street":"富士見台"},{"zipCode":"0440463","prefectureKana":"ﾎｯｶｲﾄﾞｳ","cityKana":"ｱﾌﾞﾀｸﾞﾝｷﾓﾍﾞﾂﾁｮｳ","streetKana":"ﾌﾀﾊﾞ","prefecture":"北海道","city":"虻田郡喜茂別町","street":"双葉"},{"zipCode":"0440201","prefectureKana":"ﾎｯｶｲﾄﾞｳ","cityKana":"ｱﾌﾞﾀｸﾞﾝｷﾓﾍﾞﾂﾁｮｳ","streetKana":"ﾎﾝﾁｮｳ","prefecture":"北海道","city":"虻田郡喜茂別町","street":"本町"},{"zipCode":"0440453","prefectureKana":"ﾎｯｶｲﾄﾞｳ","cityKana":"ｱﾌﾞﾀｸﾞﾝｷﾓﾍﾞﾂﾁｮｳ","streetKana":"ﾐｿﾉ","prefecture":"北海道","city":"虻田郡喜茂別町","street":"御園"},{"zipCode":"0440201","prefectureKana":"ﾎｯｶｲﾄﾞｳ","cityKana":"ｱﾌﾞﾀｸﾞﾝｷﾓﾍﾞﾂﾁｮｳ","streetKana":"ﾐﾄﾞﾘﾁｮｳ","prefecture":"北海道","city":"虻田郡喜茂別町","street":"緑町"},{"zipCode":"0440212","prefectureKana":"ﾎｯｶｲﾄﾞｳ","cityKana":"ｱﾌﾞﾀｸﾞﾝｷﾓﾍﾞﾂﾁｮｳ","streetKana":"ﾙｻﾝ","prefecture":"北海道","city":"虻田郡喜茂別町","street":"留産"},{"zipCode":"0440100","prefectureKana":"ﾎｯｶｲﾄﾞｳ","cityKana":"ｱﾌﾞﾀｸﾞﾝｷｮｳｺﾞｸﾁｮｳ","streetKana":"ｲｶﾆｹｲｻｲｶﾞﾅｲﾊﾞｱｲ","prefecture":"北海道","city":"虻田郡京極町","street":"以下に掲載がない場合"},{"zipCode":"0440122","prefectureKana":"ﾎｯｶｲﾄﾞｳ","cityKana":"ｱﾌﾞﾀｸﾞﾝｷｮｳｺﾞｸﾁｮｳ","streetKana":"ｵｵﾄﾐ","prefecture":"北海道","city":"虻田郡京極町","street":"大富"},{"zipCode":"0440112","prefectureKana":"ﾎｯｶｲﾄﾞｳ","cityKana":"ｱﾌﾞﾀｸﾞﾝｷｮｳｺﾞｸﾁｮｳ","streetKana":"ｶｽｶﾞ","prefecture":"北海道","city":"虻田郡京極町","street":"春日"},{"zipCode":"0440131","prefectureKana":"ﾎｯｶｲﾄﾞｳ","cityKana":"ｱﾌﾞﾀｸﾞﾝｷｮｳｺﾞｸﾁｮｳ","streetKana":"ｶﾜﾆｼ","prefecture":"北海道","city":"虻田郡京極町","street":"川西"},{"zipCode":"0440111","prefectureKana":"ﾎｯｶｲﾄﾞｳ","cityKana":"ｱﾌﾞﾀｸﾞﾝｷｮｳｺﾞｸﾁｮｳ","streetKana":"ｷﾀｵｶ","prefecture":"北海道","city":"虻田郡京極町","street":"北岡"},{"zipCode":"0440101","prefectureKana":"ﾎｯｶｲﾄﾞｳ","cityKana":"ｱﾌﾞﾀｸﾞﾝｷｮｳｺﾞｸﾁｮｳ","streetKana":"ｷｮｳｺﾞｸ","prefecture":"北海道","city":"虻田郡京極町","street":"京極"},{"zipCode":"0440132","prefectureKana":"ﾎｯｶｲﾄﾞｳ","cityKana":"ｱﾌﾞﾀｸﾞﾝｷｮｳｺﾞｸﾁｮｳ","streetKana":"ｺｳｼﾝ","prefecture":"北海道","city":"虻田郡京極町","street":"更進"},{"zipCode":"0440125","prefectureKana":"ﾎｯｶｲﾄﾞｳ","cityKana":"ｱﾌﾞﾀｸﾞﾝｷｮｳｺﾞｸﾁｮｳ","streetKana":"ﾄｳｶ","prefecture":"北海道","city":"虻田郡京極町","street":"東花"},{"zipCode":"0440124","prefectureKana":"ﾎｯｶｲﾄﾞｳ","cityKana":"ｱﾌﾞﾀｸﾞﾝｷｮｳｺﾞｸﾁｮｳ","streetKana":"ﾆｼｷ","prefecture":"北海道","city":"虻田郡京極町","street":"錦"},{"zipCode":"0440113","prefectureKana":"ﾎｯｶｲﾄﾞｳ","cityKana":"ｱﾌﾞﾀｸﾞﾝｷｮｳｺﾞｸﾁｮｳ","streetKana":"ﾏﾂｶﾜ","prefecture":"北海道","city":"虻田郡京極町","street":"松川"},{"zipCode":"0440121","prefectureKana":"ﾎｯｶｲﾄﾞｳ","cityKana":"ｱﾌﾞﾀｸﾞﾝｷｮｳｺﾞｸﾁｮｳ","streetKana":"ﾐｻｷ","prefecture":"北海道","city":"虻田郡京極町","street":"三崎"},{"zipCode":"0440123","prefectureKana":"ﾎｯｶｲﾄﾞｳ","cityKana":"ｱﾌﾞﾀｸﾞﾝｷｮｳｺﾞｸﾁｮｳ","streetKana":"ﾜｷｶﾀ","prefecture":"北海道","city":"虻田郡京極町","street":"脇方"},{"zipCode":"0440000","prefectureKana":"ﾎｯｶｲﾄﾞｳ","cityKana":"ｱﾌﾞﾀｸﾞﾝｸｯﾁｬﾝﾁｮｳ","streetKana":"ｲｶﾆｹｲｻｲｶﾞﾅｲﾊﾞｱｲ","prefecture":"北海道","city":"虻田郡倶知安町","street":"以下に掲載がない場合"},{"zipCode":"0440083","prefectureKana":"ﾎｯｶｲﾄﾞｳ","cityKana":"ｱﾌﾞﾀｸﾞﾝｸｯﾁｬﾝﾁｮｳ","streetKana":"ｱｻﾋ","prefecture":"北海道","city":"虻田郡倶知安町","street":"旭"},{"zipCode":"0440064","prefectureKana":"ﾎｯｶｲﾄﾞｳ","cityKana":"ｱﾌﾞﾀｸﾞﾝｸｯﾁｬﾝﾁｮｳ","streetKana":"ｲｽﾞﾓ","prefecture":"北海道","city":"虻田郡倶知安町","street":"出雲"},{"zipCode":"0440082","prefectureKana":"ﾎｯｶｲﾄﾞｳ","cityKana":"ｱﾌﾞﾀｸﾞﾝｸｯﾁｬﾝﾁｮｳ","streetKana":"ｲﾜｵﾍﾞﾂ","prefecture":"北海道","city":"虻田郡倶知安町","street":"岩尾別"},{"zipCode":"0440078","prefectureKana":"ﾎｯｶｲﾄﾞｳ","cityKana":"ｱﾌﾞﾀｸﾞﾝｸｯﾁｬﾝﾁｮｳ","streetKana":"ｶﾊﾞﾔﾏ","prefecture":"北海道","city":"虻田郡倶知安町","street":"樺山"},{"zipCode":"0440071","prefectureKana":"ﾎｯｶｲﾄﾞｳ","cityKana":"ｱﾌﾞﾀｸﾞﾝｸｯﾁｬﾝﾁｮｳ","streetKana":"ｶﾝﾍﾞﾂ","prefecture":"北海道","city":"虻田郡倶知安町","street":"寒別"},{"zipCode":"0440001","prefectureKana":"ﾎｯｶｲﾄﾞｳ","cityKana":"ｱﾌﾞﾀｸﾞﾝｸｯﾁｬﾝﾁｮｳ","streetKana":"ｷﾀ1ｼﾞｮｳﾋｶﾞｼ","prefecture":"北海道","city":"虻田郡倶知安町","street":"北一条東"},{"zipCode":"0440051","prefectureKana":"ﾎｯｶｲﾄﾞｳ","cityKana":"ｱﾌﾞﾀｸﾞﾝｸｯﾁｬﾝﾁｮｳ","streetKana":"ｷﾀ1ｼﾞｮｳﾆｼ","prefecture":"北海道","city":"虻田郡倶知安町","street":"北一条西"},{"zipCode":"0440002","prefectureKana":"ﾎｯｶｲﾄﾞｳ","cityKana":"ｱﾌﾞﾀｸﾞﾝｸｯﾁｬﾝﾁｮｳ","streetKana":"ｷﾀ2ｼﾞｮｳﾋｶﾞｼ","prefecture":"北海道","city":"虻田郡倶知安町","street":"北二条東"},{"zipCode":"0440052","prefectureKana":"ﾎｯｶｲﾄﾞｳ","cityKana":"ｱﾌﾞﾀｸﾞﾝｸｯﾁｬﾝﾁｮｳ","streetKana":"ｷﾀ2ｼﾞｮｳﾆｼ","prefecture":"北海道","city":"虻田郡倶知安町","street":"北二条西"},{"zipCode":"0440003","prefectureKana":"ﾎｯｶｲﾄﾞｳ","cityKana":"ｱﾌﾞﾀｸﾞﾝｸｯﾁｬﾝﾁｮｳ","streetKana":"ｷﾀ3ｼﾞｮｳﾋｶﾞｼ","prefecture":"北海道","city":"虻田郡倶知安町","street":"北三条東"},{"zipCode":"0440053","prefectureKana":"ﾎｯｶｲﾄﾞｳ","cityKana":"ｱﾌﾞﾀｸﾞﾝｸｯﾁｬﾝﾁｮｳ","streetKana":"ｷﾀ3ｼﾞｮｳﾆｼ","prefecture":"北海道","city":"虻田郡倶知安町","street":"北三条西"},{"zipCode":"0440004","prefectureKana":"ﾎｯｶｲﾄﾞｳ","cityKana":"ｱﾌﾞﾀｸﾞﾝｸｯﾁｬﾝﾁｮｳ","streetKana":"ｷﾀ4ｼﾞｮｳﾋｶﾞｼ","prefecture":"北海道","city":"虻田郡倶知安町","street":"北四条東"},{"zipCode":"0440054","prefectureKana":"ﾎｯｶｲﾄﾞｳ","cityKana":"ｱﾌﾞﾀｸﾞﾝｸｯﾁｬﾝﾁｮｳ","streetKana":"ｷﾀ4ｼﾞｮｳﾆｼ","prefecture":"北海道","city":"虻田郡倶知安町","street":"北四条西"},{"zipCode":"0440005","prefectureKana":"ﾎｯｶｲﾄﾞｳ","cityKana":"ｱﾌﾞﾀｸﾞﾝｸｯﾁｬﾝﾁｮｳ","streetKana":"ｷﾀ5ｼﾞｮｳﾋｶﾞｼ","prefecture":"北海道","city":"虻田郡倶知安町","street":"北五条東"},{"zipCode":"0440055","prefectureKana":"ﾎｯｶｲﾄﾞｳ","cityKana":"ｱﾌﾞﾀｸﾞﾝｸｯﾁｬﾝﾁｮｳ","streetKana":"ｷﾀ5ｼﾞｮｳﾆｼ","prefecture":"北海道","city":"虻田郡倶知安町","street":"北五条西"},{"zipCode":"0440006","prefectureKana":"ﾎｯｶｲﾄﾞｳ","cityKana":"ｱﾌﾞﾀｸﾞﾝｸｯﾁｬﾝﾁｮｳ","streetKana":"ｷﾀ6ｼﾞｮｳﾋｶﾞｼ","prefecture":"北海道","city":"虻田郡倶知安町","street":"北六条東"},{"zipCode":"0440056","prefectureKana":"ﾎｯｶｲﾄﾞｳ","cityKana":"ｱﾌﾞﾀｸﾞﾝｸｯﾁｬﾝﾁｮｳ","streetKana":"ｷﾀ6ｼﾞｮｳﾆｼ","prefecture":"北海道","city":"虻田郡倶知安町","street":"北六条西"},{"zipCode":"0440007","prefectureKana":"ﾎｯｶｲﾄﾞｳ","cityKana":"ｱﾌﾞﾀｸﾞﾝｸｯﾁｬﾝﾁｮｳ","streetKana":"ｷﾀ7ｼﾞｮｳﾋｶﾞｼ","prefecture":"北海道","city":"虻田郡倶知安町","street":"北七条東"},{"zipCode":"0440057","prefectureKana":"ﾎｯｶｲﾄﾞｳ","cityKana":"ｱﾌﾞﾀｸﾞﾝｸｯﾁｬﾝﾁｮｳ","streetKana":"ｷﾀ7ｼﾞｮｳﾆｼ","prefecture":"北海道","city":"虻田郡倶知安町","street":"北七条西"},{"zipCode":"0440066","prefectureKana":"ﾎｯｶｲﾄﾞｳ","cityKana":"ｱﾌﾞﾀｸﾞﾝｸｯﾁｬﾝﾁｮｳ","streetKana":"ｺﾄﾋﾗ","prefecture":"北海道","city":"虻田郡倶知安町","street":"琴平"},{"zipCode":"0440063","prefectureKana":"ﾎｯｶｲﾄﾞｳ","cityKana":"ｱﾌﾞﾀｸﾞﾝｸｯﾁｬﾝﾁｮｳ","streetKana":"ｽｴﾋﾛ","prefecture":"北海道","city":"虻田郡倶知安町","street":"末広"},{"zipCode":"0440076","prefectureKana":"ﾎｯｶｲﾄﾞｳ","cityKana":"ｱﾌﾞﾀｸﾞﾝｸｯﾁｬﾝﾁｮｳ","streetKana":"ﾀｶｻｺﾞ","prefecture":"北海道","city":"虻田郡倶知安町","street":"高砂"},{"zipCode":"0440065","prefectureKana":"ﾎｯｶｲﾄﾞｳ","cityKana":"ｱﾌﾞﾀｸﾞﾝｸｯﾁｬﾝﾁｮｳ","streetKana":"ﾀｶﾐ","prefecture":"北海道","city":"虻田郡倶知安町","street":"高見"},{"zipCode":"0440074","prefectureKana":"ﾎｯｶｲﾄﾞｳ","cityKana":"ｱﾌﾞﾀｸﾞﾝｸｯﾁｬﾝﾁｮｳ","streetKana":"ﾀﾂﾐ","prefecture":"北海道","city":"虻田郡倶知安町","street":"巽"},{"zipCode":"0440085","prefectureKana":"ﾎｯｶｲﾄﾞｳ","cityKana":"ｱﾌﾞﾀｸﾞﾝｸｯﾁｬﾝﾁｮｳ","streetKana":"ﾄｳｹﾞｼﾀ","prefecture":"北海道","city":"虻田郡倶知安町","street":"峠下"},{"zipCode":"0440073","prefectureKana":"ﾎｯｶｲﾄﾞｳ","cityKana":"ｱﾌﾞﾀｸﾞﾝｸｯﾁｬﾝﾁｮｳ","streetKana":"ﾄﾖｵｶ","prefecture":"北海道","city":"虻田郡倶知安町","street":"豊岡"},{"zipCode":"0440080","prefectureKana":"ﾎｯｶｲﾄﾞｳ","cityKana":"ｱﾌﾞﾀｸﾞﾝｸｯﾁｬﾝﾁｮｳ","streetKana":"ﾆｾｺﾋﾗﾌ1ｼﾞｮｳ","prefecture":"北海道","city":"虻田郡倶知安町","street":"ニセコひらふ一条"},{"zipCode":"0440089","prefectureKana":"ﾎｯｶｲﾄﾞｳ","cityKana":"ｱﾌﾞﾀｸﾞﾝｸｯﾁｬﾝﾁｮｳ","streetKana":"ﾆｾｺﾋﾗﾌ2ｼﾞｮｳ","prefecture":"北海道","city":"虻田郡倶知安町","street":"ニセコひらふ二条"},{"zipCode":"0440088","prefectureKana":"ﾎｯｶｲﾄﾞｳ","cityKana":"ｱﾌﾞﾀｸﾞﾝｸｯﾁｬﾝﾁｮｳ","streetKana":"ﾆｾｺﾋﾗﾌ3ｼﾞｮｳ","prefecture":"北海道","city":"虻田郡倶知安町","street":"ニセコひらふ三条"},{"zipCode":"0440087","prefectureKana":"ﾎｯｶｲﾄﾞｳ","cityKana":"ｱﾌﾞﾀｸﾞﾝｸｯﾁｬﾝﾁｮｳ","streetKana":"ﾆｾｺﾋﾗﾌ4ｼﾞｮｳ","prefecture":"北海道","city":"虻田郡倶知安町","street":"ニセコひらふ四条"},{"zipCode":"0440086","prefectureKana":"ﾎｯｶｲﾄﾞｳ","cityKana":"ｱﾌﾞﾀｸﾞﾝｸｯﾁｬﾝﾁｮｳ","streetKana":"ﾆｾｺﾋﾗﾌ5ｼﾞｮｳ","prefecture":"北海道","city":"虻田郡倶知安町","street":"ニセコひらふ五条"},{"zipCode":"0440084","prefectureKana":"ﾎｯｶｲﾄﾞｳ","cityKana":"ｱﾌﾞﾀｸﾞﾝｸｯﾁｬﾝﾁｮｳ","streetKana":"ﾊﾅｿﾞﾉ","prefecture":"北海道","city":"虻田郡倶知安町","street":"花園"},{"zipCode":"0440077","prefectureKana":"ﾎｯｶｲﾄﾞｳ","cityKana":"ｱﾌﾞﾀｸﾞﾝｸｯﾁｬﾝﾁｮｳ","streetKana":"ﾋﾗﾌ","prefecture":"北海道","city":"虻田郡倶知安町","street":"比羅夫"},{"zipCode":"0440075","prefectureKana":"ﾎｯｶｲﾄﾞｳ","cityKana":"ｱﾌﾞﾀｸﾞﾝｸｯﾁｬﾝﾁｮｳ","streetKana":"ﾌｼﾞﾐ","prefecture":"北海道","city":"虻田郡倶知安町","street":"富士見"},{"zipCode":"0440062","prefectureKana":"ﾎｯｶｲﾄﾞｳ","cityKana":"ｱﾌﾞﾀｸﾞﾝｸｯﾁｬﾝﾁｮｳ","streetKana":"ﾌｿｳ","prefecture":"北海道","city":"虻田郡倶知安町","street":"扶桑"},{"zipCode":"0440067","prefectureKana":"ﾎｯｶｲﾄﾞｳ","cityKana":"ｱﾌﾞﾀｸﾞﾝｸｯﾁｬﾝﾁｮｳ","streetKana":"ﾐｽﾞﾎ","prefecture":"北海道","city":"虻田郡倶知安町","street":"瑞穂"},{"zipCode":"0440068","prefectureKana":"ﾎｯｶｲﾄﾞｳ","cityKana":"ｱﾌﾞﾀｸﾞﾝｸｯﾁｬﾝﾁｮｳ","streetKana":"ﾐﾄﾞﾘ","prefecture":"北海道","city":"虻田郡倶知安町","street":"緑"},{"zipCode":"0440011","prefectureKana":"ﾎｯｶｲﾄﾞｳ","cityKana":"ｱﾌﾞﾀｸﾞﾝｸｯﾁｬﾝﾁｮｳ","streetKana":"ﾐﾅﾐ1ｼﾞｮｳﾋｶﾞｼ","prefecture":"北海道","city":"虻田郡倶知安町","street":"南一条東"},{"zipCode":"0440031","prefectureKana":"ﾎｯｶｲﾄﾞｳ","cityKana":"ｱﾌﾞﾀｸﾞﾝｸｯﾁｬﾝﾁｮｳ","streetKana":"ﾐﾅﾐ1ｼﾞｮｳﾆｼ","prefecture":"北海道","city":"虻田郡倶知安町","street":"南一条西"},{"zipCode":"0440012","prefectureKana":"ﾎｯｶｲﾄﾞｳ","cityKana":"ｱﾌﾞﾀｸﾞﾝｸｯﾁｬﾝﾁｮｳ","streetKana":"ﾐﾅﾐ2ｼﾞｮｳﾋｶﾞｼ","prefecture":"北海道","city":"虻田郡倶知安町","street":"南二条東"},{"zipCode":"0440032","prefectureKana":"ﾎｯｶｲﾄﾞｳ","cityKana":"ｱﾌﾞﾀｸﾞﾝｸｯﾁｬﾝﾁｮｳ","streetKana":"ﾐﾅﾐ2ｼﾞｮｳﾆｼ","prefecture":"北海道","city":"虻田郡倶知安町","street":"南二条西"},{"zipCode":"0440013","prefectureKana":"ﾎｯｶｲﾄﾞｳ","cityKana":"ｱﾌﾞﾀｸﾞﾝｸｯﾁｬﾝﾁｮｳ","streetKana":"ﾐﾅﾐ3ｼﾞｮｳﾋｶﾞｼ","prefecture":"北海道","city":"虻田郡倶知安町","street":"南三条東"},{"zipCode":"0440033","prefectureKana":"ﾎｯｶｲﾄﾞｳ","cityKana":"ｱﾌﾞﾀｸﾞﾝｸｯﾁｬﾝﾁｮｳ","streetKana":"ﾐﾅﾐ3ｼﾞｮｳﾆｼ","prefecture":"北海道","city":"虻田郡倶知安町","street":"南三条西"},{"zipCode":"0440014","prefectureKana":"ﾎｯｶｲﾄﾞｳ","cityKana":"ｱﾌﾞﾀｸﾞﾝｸｯﾁｬﾝﾁｮｳ","streetKana":"ﾐﾅﾐ4ｼﾞｮｳﾋｶﾞｼ","prefecture":"北海道","city":"虻田郡倶知安町","street":"南四条東"},{"zipCode":"0440034","prefectureKana":"ﾎｯｶｲﾄﾞｳ","cityKana":"ｱﾌﾞﾀｸﾞﾝｸｯﾁｬﾝﾁｮｳ","streetKana":"ﾐﾅﾐ4ｼﾞｮｳﾆｼ","prefecture":"北海道","city":"虻田郡倶知安町","street":"南四条西"},{"zipCode":"0440015","prefectureKana":"ﾎｯｶｲﾄﾞｳ","cityKana":"ｱﾌﾞﾀｸﾞﾝｸｯﾁｬﾝﾁｮｳ","streetKana":"ﾐﾅﾐ5ｼﾞｮｳﾋｶﾞｼ","prefecture":"北海道","city":"虻田郡倶知安町","street":"南五条東"},{"zipCode":"0440035","prefectureKana":"ﾎｯｶｲﾄﾞｳ","cityKana":"ｱﾌﾞﾀｸﾞﾝｸｯﾁｬﾝﾁｮｳ","streetKana":"ﾐﾅﾐ5ｼﾞｮｳﾆｼ","prefecture":"北海道","city":"虻田郡倶知安町","street":"南五条西"},{"zipCode":"0440016","prefectureKana":"ﾎｯｶｲﾄﾞｳ","cityKana":"ｱﾌﾞﾀｸﾞﾝｸｯﾁｬﾝﾁｮｳ","streetKana":"ﾐﾅﾐ6ｼﾞｮｳﾋｶﾞｼ","prefecture":"北海道","city":"虻田郡倶知安町","street":"南六条東"},{"zipCode":"0440036","prefectureKana":"ﾎｯｶｲﾄﾞｳ","cityKana":"ｱﾌﾞﾀｸﾞﾝｸｯﾁｬﾝﾁｮｳ","streetKana":"ﾐﾅﾐ6ｼﾞｮｳﾆｼ","prefecture":"北海道","city":"虻田郡倶知安町","street":"南六条西"},{"zipCode":"0440021","prefectureKana":"ﾎｯｶｲﾄﾞｳ","cityKana":"ｱﾌﾞﾀｸﾞﾝｸｯﾁｬﾝﾁｮｳ","streetKana":"ﾐﾅﾐ7ｼﾞｮｳﾋｶﾞｼ","prefecture":"北海道","city":"虻田郡倶知安町","street":"南七条東"},{"zipCode":"0440041","prefectureKana":"ﾎｯｶｲﾄﾞｳ","cityKana":"ｱﾌﾞﾀｸﾞﾝｸｯﾁｬﾝﾁｮｳ","streetKana":"ﾐﾅﾐ7ｼﾞｮｳﾆｼ","prefecture":"北海道","city":"虻田郡倶知安町","street":"南七条西"},{"zipCode":"0440022","prefectureKana":"ﾎｯｶｲﾄﾞｳ","cityKana":"ｱﾌﾞﾀｸﾞﾝｸｯﾁｬﾝﾁｮｳ","streetKana":"ﾐﾅﾐ8ｼﾞｮｳﾋｶﾞｼ","prefecture":"北海道","city":"虻田郡倶知安町","street":"南八条東"},{"zipCode":"0440042","prefectureKana":"ﾎｯｶｲﾄﾞｳ","cityKana":"ｱﾌﾞﾀｸﾞﾝｸｯﾁｬﾝﾁｮｳ","streetKana":"ﾐﾅﾐ8ｼﾞｮｳﾆｼ","prefecture":"北海道","city":"虻田郡倶知安町","street":"南八条西"},{"zipCode":"0440023","prefectureKana":"ﾎｯｶｲﾄﾞｳ","cityKana":"ｱﾌﾞﾀｸﾞﾝｸｯﾁｬﾝﾁｮｳ","streetKana":"ﾐﾅﾐ9ｼﾞｮｳﾋｶﾞｼ","prefecture":"北海道","city":"虻田郡倶知安町","street":"南九条東"},{"zipCode":"0440043","prefectureKana":"ﾎｯｶｲﾄﾞｳ","cityKana":"ｱﾌﾞﾀｸﾞﾝｸｯﾁｬﾝﾁｮｳ","streetKana":"ﾐﾅﾐ9ｼﾞｮｳﾆｼ","prefecture":"北海道","city":"虻田郡倶知安町","street":"南九条西"},{"zipCode":"0440024","prefectureKana":"ﾎｯｶｲﾄﾞｳ","cityKana":"ｱﾌﾞﾀｸﾞﾝｸｯﾁｬﾝﾁｮｳ","streetKana":"ﾐﾅﾐ10ｼﾞｮｳﾋｶﾞｼ","prefecture":"北海道","city":"虻田郡倶知安町","street":"南十条東"},{"zipCode":"0440044","prefectureKana":"ﾎｯｶｲﾄﾞｳ","cityKana":"ｱﾌﾞﾀｸﾞﾝｸｯﾁｬﾝﾁｮｳ","streetKana":"ﾐﾅﾐ10ｼﾞｮｳﾆｼ","prefecture":"北海道","city":"虻田郡倶知安町","street":"南十条西"},{"zipCode":"0440025","prefectureKana":"ﾎｯｶｲﾄﾞｳ","cityKana":"ｱﾌﾞﾀｸﾞﾝｸｯﾁｬﾝﾁｮｳ","streetKana":"ﾐﾅﾐ11ｼﾞｮｳﾋｶﾞｼ","prefecture":"北海道","city":"虻田郡倶知安町","street":"南十一条東"},{"zipCode":"0440045","prefectureKana":"ﾎｯｶｲﾄﾞｳ","cityKana":"ｱﾌﾞﾀｸﾞﾝｸｯﾁｬﾝﾁｮｳ","streetKana":"ﾐﾅﾐ11ｼﾞｮｳﾆｼ","prefecture":"北海道","city":"虻田郡倶知安町","street":"南十一条西"},{"zipCode":"0440072","prefectureKana":"ﾎｯｶｲﾄﾞｳ","cityKana":"ｱﾌﾞﾀｸﾞﾝｸｯﾁｬﾝﾁｮｳ","streetKana":"ﾔﾊﾀ","prefecture":"北海道","city":"虻田郡倶知安町","street":"八幡"},{"zipCode":"0440081","prefectureKana":"ﾎｯｶｲﾄﾞｳ","cityKana":"ｱﾌﾞﾀｸﾞﾝｸｯﾁｬﾝﾁｮｳ","streetKana":"ﾔﾏﾀﾞ","prefecture":"北海道","city":"虻田郡倶知安町","street":"山田"},{"zipCode":"0440061","prefectureKana":"ﾎｯｶｲﾄﾞｳ","cityKana":"ｱﾌﾞﾀｸﾞﾝｸｯﾁｬﾝﾁｮｳ","streetKana":"ﾔﾏﾄ","prefecture":"北海道","city":"虻田郡倶知安町","street":"大和"}]