[{"zipCode":"0460200","prefectureKana":"ﾎｯｶｲﾄﾞｳ","cityKana":"ｼｬｺﾀﾝｸﾞﾝｼｬｺﾀﾝﾁｮｳ","streetKana":"ｲｶﾆｹｲｻｲｶﾞﾅｲﾊﾞｱｲ","prefecture":"北海道","city":"積丹郡積丹町","street":"以下に掲載がない場合"},{"zipCode":"0460327","prefectureKana":"ﾎｯｶｲﾄﾞｳ","cityKana":"ｼｬｺﾀﾝｸﾞﾝｼｬｺﾀﾝﾁｮｳ","streetKana":"ｲﾘｶﾁｮｳ","prefecture":"北海道","city":"積丹郡積丹町","street":"入舸町"},{"zipCode":"0460321","prefectureKana":"ﾎｯｶｲﾄﾞｳ","cityKana":"ｼｬｺﾀﾝｸﾞﾝｼｬｺﾀﾝﾁｮｳ","streetKana":"ｺｳｻﾞｷﾁｮｳ","prefecture":"北海道","city":"積丹郡積丹町","street":"神岬町"},{"zipCode":"0460324","prefectureKana":"ﾎｯｶｲﾄﾞｳ","cityKana":"ｼｬｺﾀﾝｸﾞﾝｼｬｺﾀﾝﾁｮｳ","streetKana":"ﾆｼｶﾜﾁｮｳ","prefecture":"北海道","city":"積丹郡積丹町","street":"西河町"},{"zipCode":"0460325","prefectureKana":"ﾎｯｶｲﾄﾞｳ","cityKana":"ｼｬｺﾀﾝｸﾞﾝｼｬｺﾀﾝﾁｮｳ","streetKana":"ﾉﾂﾞｶﾁｮｳ","prefecture":"北海道","city":"積丹郡積丹町","street":"野塚町"},{"zipCode":"0460201","prefectureKana":"ﾎｯｶｲﾄﾞｳ","cityKana":"ｼｬｺﾀﾝｸﾞﾝｼｬｺﾀﾝﾁｮｳ","streetKana":"ﾋﾞｸﾆﾁｮｳ","prefecture":"北海道","city":"積丹郡積丹町","street":"美国町"},{"zipCode":"0460326","prefectureKana":"ﾎｯｶｲﾄﾞｳ","cityKana":"ｼｬｺﾀﾝｸﾞﾝｼｬｺﾀﾝﾁｮｳ","streetKana":"ﾋﾂﾞｶﾁｮｳ","prefecture":"北海道","city":"積丹郡積丹町","street":"日司町"},{"zipCode":"0460202","prefectureKana":"ﾎｯｶｲﾄﾞｳ","cityKana":"ｼｬｺﾀﾝｸﾞﾝｼｬｺﾀﾝﾁｮｳ","streetKana":"ﾌﾐﾁｮｳ","prefecture":"北海道","city":"積丹郡積丹町","street":"婦美町"},{"zipCode":"0460328","prefectureKana":"ﾎｯｶｲﾄﾞｳ","cityKana":"ｼｬｺﾀﾝｸﾞﾝｼｬｺﾀﾝﾁｮｳ","streetKana":"ﾎﾛﾑｲﾁｮｳ","prefecture":"北海道","city":"積丹郡積丹町","street":"幌武意町"},{"zipCode":"0460322","prefectureKana":"ﾎｯｶｲﾄﾞｳ","cityKana":"ｼｬｺﾀﾝｸﾞﾝｼｬｺﾀﾝﾁｮｳ","streetKana":"ﾖﾍﾞﾂﾁｮｳ","prefecture":"北海道","city":"積丹郡積丹町","street":"余別町"},{"zipCode":"0460323","prefectureKana":"ﾎｯｶｲﾄﾞｳ","cityKana":"ｼｬｺﾀﾝｸﾞﾝｼｬｺﾀﾝﾁｮｳ","streetKana":"ﾗｲｷｼﾁｮｳ","prefecture":"北海道","city":"積丹郡積丹町","street":"来岸町"},{"zipCode":"0460100","prefectureKana":"ﾎｯｶｲﾄﾞｳ","cityKana":"ﾌﾙﾋﾞﾗｸﾞﾝﾌﾙﾋﾞﾗﾁｮｳ","streetKana":"ｲｶﾆｹｲｻｲｶﾞﾅｲﾊﾞｱｲ","prefecture":"北海道","city":"古平郡古平町","street":"以下に掲載がない場合"},{"zipCode":"0460104","prefectureKana":"ﾎｯｶｲﾄﾞｳ","cityKana":"ﾌﾙﾋﾞﾗｸﾞﾝﾌﾙﾋﾞﾗﾁｮｳ","streetKana":"ｲﾘﾌﾈﾁｮｳ","prefecture":"北海道","city":"古平郡古平町","street":"入船町"},{"zipCode":"0460132","prefectureKana":"ﾎｯｶｲﾄﾞｳ","cityKana":"ﾌﾙﾋﾞﾗｸﾞﾝﾌﾙﾋﾞﾗﾁｮｳ","streetKana":"ｳﾀｽﾂﾁｮｳ","prefecture":"北海道","city":"古平郡古平町","street":"歌棄町"},{"zipCode":"0460133","prefectureKana":"ﾎｯｶｲﾄﾞｳ","cityKana":"ﾌﾙﾋﾞﾗｸﾞﾝﾌﾙﾋﾞﾗﾁｮｳ","streetKana":"ｵｷﾁｮｳ","prefecture":"北海道","city":"古平郡古平町","street":"沖町"},{"zipCode":"0460111","prefectureKana":"ﾎｯｶｲﾄﾞｳ","cityKana":"ﾌﾙﾋﾞﾗｸﾞﾝﾌﾙﾋﾞﾗﾁｮｳ","streetKana":"ｸｷﾁｮｳ","prefecture":"北海道","city":"古平郡古平町","street":"群来町"},{"zipCode":"0460131","prefectureKana":"ﾎｯｶｲﾄﾞｳ","cityKana":"ﾌﾙﾋﾞﾗｸﾞﾝﾌﾙﾋﾞﾗﾁｮｳ","streetKana":"ｻﾜｴﾁｮｳ","prefecture":"北海道","city":"古平郡古平町","street":"沢江町"},{"zipCode":"0460112","prefectureKana":"ﾎｯｶｲﾄﾞｳ","cityKana":"ﾌﾙﾋﾞﾗｸﾞﾝﾌﾙﾋﾞﾗﾁｮｳ","streetKana":"ｼﾝﾁﾁｮｳ","prefecture":"北海道","city":"古平郡古平町","street":"新地町"},{"zipCode":"0460121","prefectureKana":"ﾎｯｶｲﾄﾞｳ","cityKana":"ﾌﾙﾋﾞﾗｸﾞﾝﾌﾙﾋﾞﾗﾁｮｳ","streetKana":"ﾊﾏﾁｮｳ","prefecture":"北海道","city":"古平郡古平町","street":"浜町"},{"zipCode":"0460103","prefectureKana":"ﾎｯｶｲﾄﾞｳ","cityKana":"ﾌﾙﾋﾞﾗｸﾞﾝﾌﾙﾋﾞﾗﾁｮｳ","streetKana":"ﾎﾝﾁｮｳ","prefecture":"北海道","city":"古平郡古平町","street":"本町"},{"zipCode":"0460102","prefectureKana":"ﾎｯｶｲﾄﾞｳ","cityKana":"ﾌﾙﾋﾞﾗｸﾞﾝﾌﾙﾋﾞﾗﾁｮｳ","streetKana":"ﾏﾙﾔﾏﾁｮｳ","prefecture":"北海道","city":"古平郡古平町","street":"丸山町"},{"zipCode":"0460101","prefectureKana":"ﾎｯｶｲﾄﾞｳ","cityKana":"ﾌﾙﾋﾞﾗｸﾞﾝﾌﾙﾋﾞﾗﾁｮｳ","streetKana":"ﾐｻｷﾁｮｳ","prefecture":"北海道","city":"古平郡古平町","street":"御崎町"},{"zipCode":"0460113","prefectureKana":"ﾎｯｶｲﾄﾞｳ","cityKana":"ﾌﾙﾋﾞﾗｸﾞﾝﾌﾙﾋﾞﾗﾁｮｳ","streetKana":"ﾐﾅﾄﾏﾁ","prefecture":"北海道","city":"古平郡古平町","street":"港町"},{"zipCode":"0460000","prefectureKana":"ﾎｯｶｲﾄﾞｳ","cityKana":"ﾖｲﾁｸﾞﾝﾖｲﾁﾁｮｳ","streetKana":"ｲｶﾆｹｲｻｲｶﾞﾅｲﾊﾞｱｲ","prefecture":"北海道","city":"余市郡余市町","street":"以下に掲載がない場合"},{"zipCode":"0460015","prefectureKana":"ﾎｯｶｲﾄﾞｳ","cityKana":"ﾖｲﾁｸﾞﾝﾖｲﾁﾁｮｳ","streetKana":"ｱｻﾋﾁｮｳ","prefecture":"北海道","city":"余市郡余市町","street":"朝日町"},{"zipCode":"0460011","prefectureKana":"ﾎｯｶｲﾄﾞｳ","cityKana":"ﾖｲﾁｸﾞﾝﾖｲﾁﾁｮｳ","streetKana":"ｲﾘﾌﾈﾁｮｳ","prefecture":"北海道","city":"余市郡余市町","street":"入舟町"},{"zipCode":"0460023","prefectureKana":"ﾎｯｶｲﾄﾞｳ","cityKana":"ﾖｲﾁｸﾞﾝﾖｲﾁﾁｮｳ","streetKana":"ｳﾒｶﾜﾁｮｳ","prefecture":"北海道","city":"余市郡余市町","street":"梅川町"},{"zipCode":"0460004","prefectureKana":"ﾎｯｶｲﾄﾞｳ","cityKana":"ﾖｲﾁｸﾞﾝﾖｲﾁﾁｮｳ","streetKana":"ｵｵｶﾜﾁｮｳ","prefecture":"北海道","city":"余市郡余市町","street":"大川町"},{"zipCode":"0460003","prefectureKana":"ﾎｯｶｲﾄﾞｳ","cityKana":"ﾖｲﾁｸﾞﾝﾖｲﾁﾁｮｳ","streetKana":"ｸﾛｶﾜﾁｮｳ","prefecture":"北海道","city":"余市郡余市町","street":"黒川町"},{"zipCode":"0460001","prefectureKana":"ﾎｯｶｲﾄﾞｳ","cityKana":"ﾖｲﾁｸﾞﾝﾖｲﾁﾁｮｳ","streetKana":"ｻｶｴﾏﾁ","prefecture":"北海道","city":"余市郡余市町","street":"栄町"},{"zipCode":"0460022","prefectureKana":"ﾎｯｶｲﾄﾞｳ","cityKana":"ﾖｲﾁｸﾞﾝﾖｲﾁﾁｮｳ","streetKana":"ｻﾜﾏﾁ","prefecture":"北海道","city":"余市郡余市町","street":"沢町"},{"zipCode":"0460033","prefectureKana":"ﾎｯｶｲﾄﾞｳ","cityKana":"ﾖｲﾁｸﾞﾝﾖｲﾁﾁｮｳ","streetKana":"ｼｵﾐﾁｮｳ","prefecture":"北海道","city":"余市郡余市町","street":"潮見町"},{"zipCode":"0460031","prefectureKana":"ﾎｯｶｲﾄﾞｳ","cityKana":"ﾖｲﾁｸﾞﾝﾖｲﾁﾁｮｳ","streetKana":"ｼﾛｲﾜﾁｮｳ","prefecture":"北海道","city":"余市郡余市町","street":"白岩町"},{"zipCode":"0460025","prefectureKana":"ﾎｯｶｲﾄﾞｳ","cityKana":"ﾖｲﾁｸﾞﾝﾖｲﾁﾁｮｳ","streetKana":"ﾄﾐｻﾜﾁｮｳ","prefecture":"北海道","city":"余市郡余市町","street":"富沢町"},{"zipCode":"0460013","prefectureKana":"ﾎｯｶｲﾄﾞｳ","cityKana":"ﾖｲﾁｸﾞﾝﾖｲﾁﾁｮｳ","streetKana":"ﾄﾖｵｶﾁｮｳ","prefecture":"北海道","city":"余市郡余市町","street":"豊丘町"},{"zipCode":"0460032","prefectureKana":"ﾎｯｶｲﾄﾞｳ","cityKana":"ﾖｲﾁｸﾞﾝﾖｲﾁﾁｮｳ","streetKana":"ﾄﾖﾊﾏﾁｮｳ","prefecture":"北海道","city":"余市郡余市町","street":"豊浜町"},{"zipCode":"0460002","prefectureKana":"ﾎｯｶｲﾄﾞｳ","cityKana":"ﾖｲﾁｸﾞﾝﾖｲﾁﾁｮｳ","streetKana":"ﾉﾎﾞﾘﾁｮｳ","prefecture":"北海道","city":"余市郡余市町","street":"登町"},{"zipCode":"0460021","prefectureKana":"ﾎｯｶｲﾄﾞｳ","cityKana":"ﾖｲﾁｸﾞﾝﾖｲﾁﾁｮｳ","streetKana":"ﾊﾏﾅｶﾁｮｳ","prefecture":"北海道","city":"余市郡余市町","street":"浜中町"},{"zipCode":"0460014","prefectureKana":"ﾎｯｶｲﾄﾞｳ","cityKana":"ﾖｲﾁｸﾞﾝﾖｲﾁﾁｮｳ","streetKana":"ﾐｿﾉﾁｮｳ","prefecture":"北海道","city":"余市郡余市町","street":"美園町"},{"zipCode":"0460024","prefectureKana":"ﾎｯｶｲﾄﾞｳ","cityKana":"ﾖｲﾁｸﾞﾝﾖｲﾁﾁｮｳ","streetKana":"ﾐﾅﾄﾏﾁ","prefecture":"北海道","city":"余市郡余市町","street":"港町"},{"zipCode":"0460012","prefectureKana":"ﾎｯｶｲﾄﾞｳ","cityKana":"ﾖｲﾁｸﾞﾝﾖｲﾁﾁｮｳ","streetKana":"ﾔﾏﾀﾞﾁｮｳ","prefecture":"北海道","city":"余市郡余市町","street":"山田町"},{"zipCode":"0460500","prefectureKana":"ﾎｯｶｲﾄﾞｳ","cityKana":"ﾖｲﾁｸﾞﾝｱｶｲｶﾞﾜﾑﾗ","streetKana":"ｲｶﾆｹｲｻｲｶﾞﾅｲﾊﾞｱｲ","prefecture":"北海道","city":"余市郡赤井川村","street":"以下に掲載がない場合"},{"zipCode":"0460501","prefectureKana":"ﾎｯｶｲﾄﾞｳ","cityKana":"ﾖｲﾁｸﾞﾝｱｶｲｶﾞﾜﾑﾗ","streetKana":"ｱｶｲｶﾞﾜ","prefecture":"北海道","city":"余市郡赤井川村","street":"赤井川"},{"zipCode":"0460531","prefectureKana":"ﾎｯｶｲﾄﾞｳ","cityKana":"ﾖｲﾁｸﾞﾝｱｶｲｶﾞﾜﾑﾗ","streetKana":"ｱｻﾋｵｶ","prefecture":"北海道","city":"余市郡赤井川村","street":"旭丘"},{"zipCode":"0460521","prefectureKana":"ﾎｯｶｲﾄﾞｳ","cityKana":"ﾖｲﾁｸﾞﾝｱｶｲｶﾞﾜﾑﾗ","streetKana":"ｲｹﾀﾞ","prefecture":"北海道","city":"余市郡赤井川村","street":"池田"},{"zipCode":"0460561","prefectureKana":"ﾎｯｶｲﾄﾞｳ","cityKana":"ﾖｲﾁｸﾞﾝｱｶｲｶﾞﾜﾑﾗ","streetKana":"ｵﾁｱｲ","prefecture":"北海道","city":"余市郡赤井川村","street":"落合"},{"zipCode":"0460571","prefectureKana":"ﾎｯｶｲﾄﾞｳ","cityKana":"ﾖｲﾁｸﾞﾝｱｶｲｶﾞﾜﾑﾗ","streetKana":"ﾄｷﾜ","prefecture":"北海道","city":"余市郡赤井川村","street":"常盤"},{"zipCode":"0460551","prefectureKana":"ﾎｯｶｲﾄﾞｳ","cityKana":"ﾖｲﾁｸﾞﾝｱｶｲｶﾞﾜﾑﾗ","streetKana":"ﾄﾄﾞﾛｷ","prefecture":"北海道","city":"余市郡赤井川村","street":"轟"},{"zipCode":"0460532","prefectureKana":"ﾎｯｶｲﾄﾞｳ","cityKana":"ﾖｲﾁｸﾞﾝｱｶｲｶﾞﾜﾑﾗ","streetKana":"ﾄﾐﾀ","prefecture":"北海道","city":"余市郡赤井川村","street":"富田"},{"zipCode":"0460511","prefectureKana":"ﾎｯｶｲﾄﾞｳ","cityKana":"ﾖｲﾁｸﾞﾝｱｶｲｶﾞﾜﾑﾗ","streetKana":"ﾋﾉﾃﾞ","prefecture":"北海道","city":"余市郡赤井川村","street":"日ノ出"},{"zipCode":"0460542","prefectureKana":"ﾎｯｶｲﾄﾞｳ","cityKana":"ﾖｲﾁｸﾞﾝｱｶｲｶﾞﾜﾑﾗ","streetKana":"ﾏｶﾞﾘｶﾜ","prefecture":"北海道","city":"余市郡赤井川村","street":"曲川"},{"zipCode":"0460541","prefectureKana":"ﾎｯｶｲﾄﾞｳ","cityKana":"ﾖｲﾁｸﾞﾝｱｶｲｶﾞﾜﾑﾗ","streetKana":"ﾐﾔｺ","prefecture":"北海道","city":"余市郡赤井川村","street":"都"},{"zipCode":"0460552","prefectureKana":"ﾎｯｶｲﾄﾞｳ","cityKana":"ﾖｲﾁｸﾞﾝｱｶｲｶﾞﾜﾑﾗ","streetKana":"ﾒｲｼﾞ","prefecture":"北海道","city":"余市郡赤井川村","street":"明治"},{"zipCode":"0460512","prefectureKana":"ﾎｯｶｲﾄﾞｳ","cityKana":"ﾖｲﾁｸﾞﾝｱｶｲｶﾞﾜﾑﾗ","streetKana":"ﾔﾏﾅｼ","prefecture":"北海道","city":"余市郡赤井川村","street":"山梨"}]