[{"zipCode":"0500000","prefectureKana":"ﾎｯｶｲﾄﾞｳ","cityKana":"ﾑﾛﾗﾝｼ","streetKana":"ｲｶﾆｹｲｻｲｶﾞﾅｲﾊﾞｱｲ","prefecture":"北海道","city":"室蘭市","street":"以下に掲載がない場合"},{"zipCode":"0500051","prefectureKana":"ﾎｯｶｲﾄﾞｳ","cityKana":"ﾑﾛﾗﾝｼ","streetKana":"ｲｼｶﾜﾁｮｳ","prefecture":"北海道","city":"室蘭市","street":"石川町"},{"zipCode":"0500086","prefectureKana":"ﾎｯｶｲﾄﾞｳ","cityKana":"ﾑﾛﾗﾝｼ","streetKana":"ｵｵｻﾜﾁｮｳ","prefecture":"北海道","city":"室蘭市","street":"大沢町"},{"zipCode":"0500052","prefectureKana":"ﾎｯｶｲﾄﾞｳ","cityKana":"ﾑﾛﾗﾝｼ","streetKana":"ｶｶﾞﾜﾁｮｳ","prefecture":"北海道","city":"室蘭市","street":"香川町"},{"zipCode":"0500064","prefectureKana":"ﾎｯｶｲﾄﾞｳ","cityKana":"ﾑﾛﾗﾝｼ","streetKana":"ｶｼﾜｷﾞﾁｮｳ","prefecture":"北海道","city":"室蘭市","street":"柏木町"},{"zipCode":"0500053","prefectureKana":"ﾎｯｶｲﾄﾞｳ","cityKana":"ﾑﾛﾗﾝｼ","streetKana":"ｶﾐｼﾛﾁｮｳ","prefecture":"北海道","city":"室蘭市","street":"神代町"},{"zipCode":"0500063","prefectureKana":"ﾎｯｶｲﾄﾞｳ","cityKana":"ﾑﾛﾗﾝｼ","streetKana":"ｺｳﾎｸﾁｮｳ","prefecture":"北海道","city":"室蘭市","street":"港北町"},{"zipCode":"0500082","prefectureKana":"ﾎｯｶｲﾄﾞｳ","cityKana":"ﾑﾛﾗﾝｼ","streetKana":"ｺﾄﾌﾞｷﾁｮｳ","prefecture":"北海道","city":"室蘭市","street":"寿町"},{"zipCode":"0500055","prefectureKana":"ﾎｯｶｲﾄﾞｳ","cityKana":"ﾑﾛﾗﾝｼ","streetKana":"ｻｷﾓﾘﾁｮｳ","prefecture":"北海道","city":"室蘭市","street":"崎守町"},{"zipCode":"0500067","prefectureKana":"ﾎｯｶｲﾄﾞｳ","cityKana":"ﾑﾛﾗﾝｼ","streetKana":"ｼﾞﾝﾔﾏﾁ","prefecture":"北海道","city":"室蘭市","street":"陣屋町"},{"zipCode":"0500072","prefectureKana":"ﾎｯｶｲﾄﾞｳ","cityKana":"ﾑﾛﾗﾝｼ","streetKana":"ﾀｶｻｺﾞﾁｮｳ","prefecture":"北海道","city":"室蘭市","street":"高砂町"},{"zipCode":"0500062","prefectureKana":"ﾎｯｶｲﾄﾞｳ","cityKana":"ﾑﾛﾗﾝｼ","streetKana":"ﾀｶﾋﾗﾁｮｳ","prefecture":"北海道","city":"室蘭市","street":"高平町"},{"zipCode":"0500076","prefectureKana":"ﾎｯｶｲﾄﾞｳ","cityKana":"ﾑﾛﾗﾝｼ","streetKana":"ﾁﾘﾍﾞﾂﾁｮｳ","prefecture":"北海道","city":"室蘭市","street":"知利別町"},{"zipCode":"0500077","prefectureKana":"ﾎｯｶｲﾄﾞｳ","cityKana":"ﾑﾛﾗﾝｼ","streetKana":"ﾃﾝｼﾞﾝﾁｮｳ","prefecture":"北海道","city":"室蘭市","street":"天神町"},{"zipCode":"0500074","prefectureKana":"ﾎｯｶｲﾄﾞｳ","cityKana":"ﾑﾛﾗﾝｼ","streetKana":"ﾅｶｼﾞﾏﾁｮｳ","prefecture":"北海道","city":"室蘭市","street":"中島町"},{"zipCode":"0500075","prefectureKana":"ﾎｯｶｲﾄﾞｳ","cityKana":"ﾑﾛﾗﾝｼ","streetKana":"ﾅｶｼﾞﾏﾎﾝﾁｮｳ","prefecture":"北海道","city":"室蘭市","street":"中島本町"},{"zipCode":"0500087","prefectureKana":"ﾎｯｶｲﾄﾞｳ","cityKana":"ﾑﾛﾗﾝｼ","streetKana":"ﾅｶﾏﾁ","prefecture":"北海道","city":"室蘭市","street":"仲町"},{"zipCode":"0500054","prefectureKana":"ﾎｯｶｲﾄﾞｳ","cityKana":"ﾑﾛﾗﾝｼ","streetKana":"ﾊｸﾁｮｳﾀﾞｲ","prefecture":"北海道","city":"室蘭市","street":"白鳥台"},{"zipCode":"0500061","prefectureKana":"ﾎｯｶｲﾄﾞｳ","cityKana":"ﾑﾛﾗﾝｼ","streetKana":"ﾊｯﾁｮｳﾀﾞｲﾗ","prefecture":"北海道","city":"室蘭市","street":"八丁平"},{"zipCode":"0500083","prefectureKana":"ﾎｯｶｲﾄﾞｳ","cityKana":"ﾑﾛﾗﾝｼ","streetKana":"ﾋｶﾞｼﾏﾁ","prefecture":"北海道","city":"室蘭市","street":"東町"},{"zipCode":"0500081","prefectureKana":"ﾎｯｶｲﾄﾞｳ","cityKana":"ﾑﾛﾗﾝｼ","streetKana":"ﾋﾉﾃﾞﾁｮｳ","prefecture":"北海道","city":"室蘭市","street":"日の出町"},{"zipCode":"0500066","prefectureKana":"ﾎｯｶｲﾄﾞｳ","cityKana":"ﾑﾛﾗﾝｼ","streetKana":"ﾎﾛﾓｴﾁｮｳ","prefecture":"北海道","city":"室蘭市","street":"幌萌町"},{"zipCode":"0500071","prefectureKana":"ﾎｯｶｲﾄﾞｳ","cityKana":"ﾑﾛﾗﾝｼ","streetKana":"ﾐｽﾞﾓﾄﾁｮｳ","prefecture":"北海道","city":"室蘭市","street":"水元町"},{"zipCode":"0500073","prefectureKana":"ﾎｯｶｲﾄﾞｳ","cityKana":"ﾑﾛﾗﾝｼ","streetKana":"ﾐﾔﾉﾓﾘﾁｮｳ","prefecture":"北海道","city":"室蘭市","street":"宮の森町"},{"zipCode":"0500084","prefectureKana":"ﾎｯｶｲﾄﾞｳ","cityKana":"ﾑﾛﾗﾝｼ","streetKana":"ﾐﾕｷﾁｮｳ","prefecture":"北海道","city":"室蘭市","street":"みゆき町"},{"zipCode":"0500065","prefectureKana":"ﾎｯｶｲﾄﾞｳ","cityKana":"ﾑﾛﾗﾝｼ","streetKana":"ﾓﾄﾜﾆｼﾁｮｳ","prefecture":"北海道","city":"室蘭市","street":"本輪西町"},{"zipCode":"0500085","prefectureKana":"ﾎｯｶｲﾄﾞｳ","cityKana":"ﾑﾛﾗﾝｼ","streetKana":"ﾜﾆｼﾁｮｳ","prefecture":"北海道","city":"室蘭市","street":"輪西町"}]