[{"zipCode":"0510023","prefectureKana":"ﾎｯｶｲﾄﾞｳ","cityKana":"ﾑﾛﾗﾝｼ","streetKana":"ｲﾘｴﾁｮｳ","prefecture":"北海道","city":"室蘭市","street":"入江町"},{"zipCode":"0510035","prefectureKana":"ﾎｯｶｲﾄﾞｳ","cityKana":"ﾑﾛﾗﾝｼ","streetKana":"ｴﾄﾓﾁｮｳ","prefecture":"北海道","city":"室蘭市","street":"絵鞆町"},{"zipCode":"0510033","prefectureKana":"ﾎｯｶｲﾄﾞｳ","cityKana":"ﾑﾛﾗﾝｼ","streetKana":"ｵﾊｼﾅｲﾁｮｳ","prefecture":"北海道","city":"室蘭市","street":"小橋内町"},{"zipCode":"0510022","prefectureKana":"ﾎｯｶｲﾄﾞｳ","cityKana":"ﾑﾛﾗﾝｼ","streetKana":"ｶｲｶﾞﾝﾁｮｳ","prefecture":"北海道","city":"室蘭市","street":"海岸町"},{"zipCode":"0510032","prefectureKana":"ﾎｯｶｲﾄﾞｳ","cityKana":"ﾑﾛﾗﾝｼ","streetKana":"ｺｳﾅﾝﾁｮｳ","prefecture":"北海道","city":"室蘭市","street":"港南町"},{"zipCode":"0510002","prefectureKana":"ﾎｯｶｲﾄﾞｳ","cityKana":"ﾑﾛﾗﾝｼ","streetKana":"ｺﾞｾﾞﾝｽｲﾁｮｳ","prefecture":"北海道","city":"室蘭市","street":"御前水町"},{"zipCode":"0510016","prefectureKana":"ﾎｯｶｲﾄﾞｳ","cityKana":"ﾑﾛﾗﾝｼ","streetKana":"ｻｲﾜｲﾁｮｳ","prefecture":"北海道","city":"室蘭市","street":"幸町"},{"zipCode":"0510014","prefectureKana":"ﾎｯｶｲﾄﾞｳ","cityKana":"ﾑﾛﾗﾝｼ","streetKana":"ｻｶｴﾁｮｳ","prefecture":"北海道","city":"室蘭市","street":"栄町"},{"zipCode":"0510027","prefectureKana":"ﾎｯｶｲﾄﾞｳ","cityKana":"ﾑﾛﾗﾝｼ","streetKana":"ｻﾜﾁｮｳ","prefecture":"北海道","city":"室蘭市","street":"沢町"},{"zipCode":"0510026","prefectureKana":"ﾎｯｶｲﾄﾞｳ","cityKana":"ﾑﾛﾗﾝｼ","streetKana":"ｼﾐｽﾞﾁｮｳ","prefecture":"北海道","city":"室蘭市","street":"清水町"},{"zipCode":"0510036","prefectureKana":"ﾎｯｶｲﾄﾞｳ","cityKana":"ﾑﾛﾗﾝｼ","streetKana":"ｼｭｸﾂﾞﾁｮｳ","prefecture":"北海道","city":"室蘭市","street":"祝津町"},{"zipCode":"0510005","prefectureKana":"ﾎｯｶｲﾄﾞｳ","cityKana":"ﾑﾛﾗﾝｼ","streetKana":"ｼﾝﾄﾐﾁｮｳ","prefecture":"北海道","city":"室蘭市","street":"新富町"},{"zipCode":"0510006","prefectureKana":"ﾎｯｶｲﾄﾞｳ","cityKana":"ﾑﾛﾗﾝｼ","streetKana":"ﾁｬﾂﾁｮｳ","prefecture":"北海道","city":"室蘭市","street":"茶津町"},{"zipCode":"0510011","prefectureKana":"ﾎｯｶｲﾄﾞｳ","cityKana":"ﾑﾛﾗﾝｼ","streetKana":"ﾁｭｳｵｳﾁｮｳ","prefecture":"北海道","city":"室蘭市","street":"中央町"},{"zipCode":"0510031","prefectureKana":"ﾎｯｶｲﾄﾞｳ","cityKana":"ﾑﾛﾗﾝｼ","streetKana":"ﾂｷｼﾞﾁｮｳ","prefecture":"北海道","city":"室蘭市","street":"築地町"},{"zipCode":"0510025","prefectureKana":"ﾎｯｶｲﾄﾞｳ","cityKana":"ﾑﾛﾗﾝｼ","streetKana":"ﾄｷﾜﾁｮｳ","prefecture":"北海道","city":"室蘭市","street":"常盤町"},{"zipCode":"0510028","prefectureKana":"ﾎｯｶｲﾄﾞｳ","cityKana":"ﾑﾛﾗﾝｼ","streetKana":"ﾆｼｺｳｼﾞﾁｮｳ","prefecture":"北海道","city":"室蘭市","street":"西小路町"},{"zipCode":"0510013","prefectureKana":"ﾎｯｶｲﾄﾞｳ","cityKana":"ﾑﾛﾗﾝｼ","streetKana":"ﾌﾅﾐﾁｮｳ","prefecture":"北海道","city":"室蘭市","street":"舟見町"},{"zipCode":"0510003","prefectureKana":"ﾎｯｶｲﾄﾞｳ","cityKana":"ﾑﾛﾗﾝｼ","streetKana":"ﾎﾞｺｲﾐﾅﾐﾏﾁ","prefecture":"北海道","city":"室蘭市","street":"母恋南町"},{"zipCode":"0510004","prefectureKana":"ﾎｯｶｲﾄﾞｳ","cityKana":"ﾑﾛﾗﾝｼ","streetKana":"ﾎﾞｺｲｷﾀﾏﾁ","prefecture":"北海道","city":"室蘭市","street":"母恋北町"},{"zipCode":"0510015","prefectureKana":"ﾎｯｶｲﾄﾞｳ","cityKana":"ﾑﾛﾗﾝｼ","streetKana":"ﾎﾝﾁｮｳ","prefecture":"北海道","city":"室蘭市","street":"本町"},{"zipCode":"0510024","prefectureKana":"ﾎｯｶｲﾄﾞｳ","cityKana":"ﾑﾛﾗﾝｼ","streetKana":"ﾏｸﾆｼﾁｮｳ","prefecture":"北海道","city":"室蘭市","street":"幕西町"},{"zipCode":"0510034","prefectureKana":"ﾎｯｶｲﾄﾞｳ","cityKana":"ﾑﾛﾗﾝｼ","streetKana":"ﾏｽｲﾁﾁｮｳ","prefecture":"北海道","city":"室蘭市","street":"増市町"},{"zipCode":"0510001","prefectureKana":"ﾎｯｶｲﾄﾞｳ","cityKana":"ﾑﾛﾗﾝｼ","streetKana":"ﾐｻｷﾁｮｳ","prefecture":"北海道","city":"室蘭市","street":"御崎町"},{"zipCode":"0510021","prefectureKana":"ﾎｯｶｲﾄﾞｳ","cityKana":"ﾑﾛﾗﾝｼ","streetKana":"ﾐﾄﾞﾘﾁｮｳ","prefecture":"北海道","city":"室蘭市","street":"緑町"},{"zipCode":"0510012","prefectureKana":"ﾎｯｶｲﾄﾞｳ","cityKana":"ﾑﾛﾗﾝｼ","streetKana":"ﾔﾏﾃﾁｮｳ","prefecture":"北海道","city":"室蘭市","street":"山手町"}]