[{"zipCode":"0520000","prefectureKana":"ﾎｯｶｲﾄﾞｳ","cityKana":"ﾀﾞﾃｼ","streetKana":"ｲｶﾆｹｲｻｲｶﾞﾅｲﾊﾞｱｲ","prefecture":"北海道","city":"伊達市","street":"以下に掲載がない場合"},{"zipCode":"0520015","prefectureKana":"ﾎｯｶｲﾄﾞｳ","cityKana":"ﾀﾞﾃｼ","streetKana":"ｱｻﾋﾁｮｳ","prefecture":"北海道","city":"伊達市","street":"旭町"},{"zipCode":"0520025","prefectureKana":"ﾎｯｶｲﾄﾞｳ","cityKana":"ﾀﾞﾃｼ","streetKana":"ｱｼﾞﾛﾁｮｳ","prefecture":"北海道","city":"伊達市","street":"網代町"},{"zipCode":"0520002","prefectureKana":"ﾎｯｶｲﾄﾞｳ","cityKana":"ﾀﾞﾃｼ","streetKana":"ｲﾇｲﾁｮｳ","prefecture":"北海道","city":"伊達市","street":"乾町"},{"zipCode":"0520022","prefectureKana":"ﾎｯｶｲﾄﾞｳ","cityKana":"ﾀﾞﾃｼ","streetKana":"ｳﾒﾓﾄﾁｮｳ","prefecture":"北海道","city":"伊達市","street":"梅本町"},{"zipCode":"0520312","prefectureKana":"ﾎｯｶｲﾄﾞｳ","cityKana":"ﾀﾞﾃｼ","streetKana":"ｵｵﾀｷｸｳｴﾉﾁｮｳ","prefecture":"北海道","city":"伊達市","street":"大滝区上野町"},{"zipCode":"0520316","prefectureKana":"ﾎｯｶｲﾄﾞｳ","cityKana":"ﾀﾞﾃｼ","streetKana":"ｵｵﾀｷｸｷﾀﾕｻﾞﾜｵﾝｾﾝﾁｮｳ","prefecture":"北海道","city":"伊達市","street":"大滝区北湯沢温泉町"},{"zipCode":"0520303","prefectureKana":"ﾎｯｶｲﾄﾞｳ","cityKana":"ﾀﾞﾃｼ","streetKana":"ｵｵﾀｷｸｻﾝｶﾞｲﾀｷﾁｮｳ","prefecture":"北海道","city":"伊達市","street":"大滝区三階滝町"},{"zipCode":"0520315","prefectureKana":"ﾎｯｶｲﾄﾞｳ","cityKana":"ﾀﾞﾃｼ","streetKana":"ｵｵﾀｷｸｼｮｳｴﾝﾁｮｳ","prefecture":"北海道","city":"伊達市","street":"大滝区昭園町"},{"zipCode":"0520302","prefectureKana":"ﾎｯｶｲﾄﾞｳ","cityKana":"ﾀﾞﾃｼ","streetKana":"ｵｵﾀｷｸｾｲﾘｮｳﾁｮｳ","prefecture":"北海道","city":"伊達市","street":"大滝区清陵町"},{"zipCode":"0520313","prefectureKana":"ﾎｯｶｲﾄﾞｳ","cityKana":"ﾀﾞﾃｼ","streetKana":"ｵｵﾀｷｸﾀｲｾｲﾁｮｳ","prefecture":"北海道","city":"伊達市","street":"大滝区大成町"},{"zipCode":"0520311","prefectureKana":"ﾎｯｶｲﾄﾞｳ","cityKana":"ﾀﾞﾃｼ","streetKana":"ｵｵﾀｷｸﾎﾝｺﾞｳﾁｮｳ","prefecture":"北海道","city":"伊達市","street":"大滝区本郷町"},{"zipCode":"0520301","prefectureKana":"ﾎｯｶｲﾄﾞｳ","cityKana":"ﾀﾞﾃｼ","streetKana":"ｵｵﾀｷｸﾎﾝﾁｮｳ","prefecture":"北海道","city":"伊達市","street":"大滝区本町"},{"zipCode":"0520314","prefectureKana":"ﾎｯｶｲﾄﾞｳ","cityKana":"ﾀﾞﾃｼ","streetKana":"ｵｵﾀｷｸﾏﾙﾔﾏﾁｮｳ","prefecture":"北海道","city":"伊達市","street":"大滝区円山町"},{"zipCode":"0520317","prefectureKana":"ﾎｯｶｲﾄﾞｳ","cityKana":"ﾀﾞﾃｼ","streetKana":"ｵｵﾀｷｸﾕｳﾄｸﾁｮｳ","prefecture":"北海道","city":"伊達市","street":"大滝区優徳町"},{"zipCode":"0520027","prefectureKana":"ﾎｯｶｲﾄﾞｳ","cityKana":"ﾀﾞﾃｼ","streetKana":"ｵｵﾏﾁ","prefecture":"北海道","city":"伊達市","street":"大町"},{"zipCode":"0520024","prefectureKana":"ﾎｯｶｲﾄﾞｳ","cityKana":"ﾀﾞﾃｼ","streetKana":"ｶｼﾏﾁｮｳ","prefecture":"北海道","city":"伊達市","street":"鹿島町"},{"zipCode":"0520008","prefectureKana":"ﾎｯｶｲﾄﾞｳ","cityKana":"ﾀﾞﾃｼ","streetKana":"ｶﾐﾀﾃﾔﾏﾁｮｳ","prefecture":"北海道","city":"伊達市","street":"上館山町"},{"zipCode":"0520036","prefectureKana":"ﾎｯｶｲﾄﾞｳ","cityKana":"ﾀﾞﾃｼ","streetKana":"ｶﾐﾅｶﾞﾜﾁｮｳ","prefecture":"北海道","city":"伊達市","street":"上長和町"},{"zipCode":"0520001","prefectureKana":"ﾎｯｶｲﾄﾞｳ","cityKana":"ﾀﾞﾃｼ","streetKana":"ｷﾓﾝﾍﾞﾂﾁｮｳ","prefecture":"北海道","city":"伊達市","street":"喜門別町"},{"zipCode":"0520005","prefectureKana":"ﾎｯｶｲﾄﾞｳ","cityKana":"ﾀﾞﾃｼ","streetKana":"ｷﾖｽﾞﾐﾁｮｳ","prefecture":"北海道","city":"伊達市","street":"清住町"},{"zipCode":"0520001","prefectureKana":"ﾎｯｶｲﾄﾞｳ","cityKana":"ﾀﾞﾃｼ","streetKana":"ｼﾓﾝｹﾁｮｳ","prefecture":"北海道","city":"伊達市","street":"志門気町"},{"zipCode":"0520021","prefectureKana":"ﾎｯｶｲﾄﾞｳ","cityKana":"ﾀﾞﾃｼ","streetKana":"ｽｴﾅｶﾞﾁｮｳ","prefecture":"北海道","city":"伊達市","street":"末永町"},{"zipCode":"0520011","prefectureKana":"ﾎｯｶｲﾄﾞｳ","cityKana":"ﾀﾞﾃｼ","streetKana":"ﾀｹﾊﾗﾁｮｳ","prefecture":"北海道","city":"伊達市","street":"竹原町"},{"zipCode":"0520034","prefectureKana":"ﾎｯｶｲﾄﾞｳ","cityKana":"ﾀﾞﾃｼ","streetKana":"ﾀﾃﾔﾏｼﾀﾁｮｳ","prefecture":"北海道","city":"伊達市","street":"館山下町"},{"zipCode":"0520031","prefectureKana":"ﾎｯｶｲﾄﾞｳ","cityKana":"ﾀﾞﾃｼ","streetKana":"ﾀﾃﾔﾏﾁｮｳ","prefecture":"北海道","city":"伊達市","street":"館山町"},{"zipCode":"0520035","prefectureKana":"ﾎｯｶｲﾄﾞｳ","cityKana":"ﾀﾞﾃｼ","streetKana":"ﾅｶﾞﾜﾁｮｳ","prefecture":"北海道","city":"伊達市","street":"長和町"},{"zipCode":"0520026","prefectureKana":"ﾎｯｶｲﾄﾞｳ","cityKana":"ﾀﾞﾃｼ","streetKana":"ﾆｼｷﾁｮｳ","prefecture":"北海道","city":"伊達市","street":"錦町"},{"zipCode":"0520007","prefectureKana":"ﾎｯｶｲﾄﾞｳ","cityKana":"ﾀﾞﾃｼ","streetKana":"ﾆｼｾｷﾅｲﾁｮｳ","prefecture":"北海道","city":"伊達市","street":"西関内町"},{"zipCode":"0520033","prefectureKana":"ﾎｯｶｲﾄﾞｳ","cityKana":"ﾀﾞﾃｼ","streetKana":"ﾆｼﾊﾏﾁｮｳ","prefecture":"北海道","city":"伊達市","street":"西浜町"},{"zipCode":"0520004","prefectureKana":"ﾎｯｶｲﾄﾞｳ","cityKana":"ﾀﾞﾃｼ","streetKana":"ﾊｷﾞﾜﾗﾁｮｳ","prefecture":"北海道","city":"伊達市","street":"萩原町"},{"zipCode":"0520006","prefectureKana":"ﾎｯｶｲﾄﾞｳ","cityKana":"ﾀﾞﾃｼ","streetKana":"ﾋｶﾞｼｾｷﾅｲﾁｮｳ","prefecture":"北海道","city":"伊達市","street":"東関内町"},{"zipCode":"0520016","prefectureKana":"ﾎｯｶｲﾄﾞｳ","cityKana":"ﾀﾞﾃｼ","streetKana":"ﾋｶﾞｼﾊﾏﾁｮｳ","prefecture":"北海道","city":"伊達市","street":"東浜町"},{"zipCode":"0520014","prefectureKana":"ﾎｯｶｲﾄﾞｳ","cityKana":"ﾀﾞﾃｼ","streetKana":"ﾌﾅｵｶﾁｮｳ","prefecture":"北海道","city":"伊達市","street":"舟岡町"},{"zipCode":"0520003","prefectureKana":"ﾎｯｶｲﾄﾞｳ","cityKana":"ﾀﾞﾃｼ","streetKana":"ﾎﾛﾋﾞﾅｲﾁｮｳ","prefecture":"北海道","city":"伊達市","street":"幌美内町"},{"zipCode":"0520012","prefectureKana":"ﾎｯｶｲﾄﾞｳ","cityKana":"ﾀﾞﾃｼ","streetKana":"ﾏﾂｶﾞｴﾁｮｳ","prefecture":"北海道","city":"伊達市","street":"松ケ枝町"},{"zipCode":"0520023","prefectureKana":"ﾎｯｶｲﾄﾞｳ","cityKana":"ﾀﾞﾃｼ","streetKana":"ﾓﾄﾏﾁ","prefecture":"北海道","city":"伊達市","street":"元町"},{"zipCode":"0520032","prefectureKana":"ﾎｯｶｲﾄﾞｳ","cityKana":"ﾀﾞﾃｼ","streetKana":"ﾔﾏｼﾀﾁｮｳ","prefecture":"北海道","city":"伊達市","street":"山下町"},{"zipCode":"0520013","prefectureKana":"ﾎｯｶｲﾄﾞｳ","cityKana":"ﾀﾞﾃｼ","streetKana":"ﾛｳｹﾞﾂﾁｮｳ","prefecture":"北海道","city":"伊達市","street":"弄月町"},{"zipCode":"0520100","prefectureKana":"ﾎｯｶｲﾄﾞｳ","cityKana":"ｳｽｸﾞﾝｿｳﾍﾞﾂﾁｮｳ","streetKana":"ｲｶﾆｹｲｻｲｶﾞﾅｲﾊﾞｱｲ","prefecture":"北海道","city":"有珠郡壮瞥町","street":"以下に掲載がない場合"},{"zipCode":"0520111","prefectureKana":"ﾎｯｶｲﾄﾞｳ","cityKana":"ｳｽｸﾞﾝｿｳﾍﾞﾂﾁｮｳ","streetKana":"ｶﾐｸﾎﾞﾅｲ","prefecture":"北海道","city":"有珠郡壮瞥町","street":"上久保内"},{"zipCode":"0520112","prefectureKana":"ﾎｯｶｲﾄﾞｳ","cityKana":"ｳｽｸﾞﾝｿｳﾍﾞﾂﾁｮｳ","streetKana":"ｸﾎﾞﾅｲ","prefecture":"北海道","city":"有珠郡壮瞥町","street":"久保内"},{"zipCode":"0520114","prefectureKana":"ﾎｯｶｲﾄﾞｳ","cityKana":"ｳｽｸﾞﾝｿｳﾍﾞﾂﾁｮｳ","streetKana":"ｺｳﾅｲ","prefecture":"北海道","city":"有珠郡壮瞥町","street":"幸内"},{"zipCode":"0520102","prefectureKana":"ﾎｯｶｲﾄﾞｳ","cityKana":"ｳｽｸﾞﾝｿｳﾍﾞﾂﾁｮｳ","streetKana":"ｼｮｳﾜｼﾝｻﾞﾝ","prefecture":"北海道","city":"有珠郡壮瞥町","street":"昭和新山"},{"zipCode":"0520103","prefectureKana":"ﾎｯｶｲﾄﾞｳ","cityKana":"ｳｽｸﾞﾝｿｳﾍﾞﾂﾁｮｳ","streetKana":"ｿｳﾍﾞﾂｵﾝｾﾝ","prefecture":"北海道","city":"有珠郡壮瞥町","street":"壮瞥温泉"},{"zipCode":"0520101","prefectureKana":"ﾎｯｶｲﾄﾞｳ","cityKana":"ｳｽｸﾞﾝｿｳﾍﾞﾂﾁｮｳ","streetKana":"ﾀｷﾉﾏﾁ","prefecture":"北海道","city":"有珠郡壮瞥町","street":"滝之町"},{"zipCode":"0520106","prefectureKana":"ﾎｯｶｲﾄﾞｳ","cityKana":"ｳｽｸﾞﾝｿｳﾍﾞﾂﾁｮｳ","streetKana":"ﾀﾂｶ","prefecture":"北海道","city":"有珠郡壮瞥町","street":"立香"},{"zipCode":"0520107","prefectureKana":"ﾎｯｶｲﾄﾞｳ","cityKana":"ｳｽｸﾞﾝｿｳﾍﾞﾂﾁｮｳ","streetKana":"ﾄｳﾔｺｵﾝｾﾝ(ｿﾉﾀ)","prefecture":"北海道","city":"有珠郡壮瞥町","street":"洞爺湖温泉（その他）"},{"zipCode":"0520105","prefectureKana":"ﾎｯｶｲﾄﾞｳ","cityKana":"ｳｽｸﾞﾝｿｳﾍﾞﾂﾁｮｳ","streetKana":"ﾅｶﾄｳﾔ","prefecture":"北海道","city":"有珠郡壮瞥町","street":"仲洞爺"},{"zipCode":"0520113","prefectureKana":"ﾎｯｶｲﾄﾞｳ","cityKana":"ｳｽｸﾞﾝｿｳﾍﾞﾂﾁｮｳ","streetKana":"ﾊﾞﾝｹｲ","prefecture":"北海道","city":"有珠郡壮瞥町","street":"蟠渓"},{"zipCode":"0520104","prefectureKana":"ﾎｯｶｲﾄﾞｳ","cityKana":"ｳｽｸﾞﾝｿｳﾍﾞﾂﾁｮｳ","streetKana":"ﾋｶﾞｼｺﾊﾝ","prefecture":"北海道","city":"有珠郡壮瞥町","street":"東湖畔"},{"zipCode":"0520115","prefectureKana":"ﾎｯｶｲﾄﾞｳ","cityKana":"ｳｽｸﾞﾝｿｳﾍﾞﾂﾁｮｳ","streetKana":"ﾍﾞﾝｹｲ","prefecture":"北海道","city":"有珠郡壮瞥町","street":"弁景"},{"zipCode":"0520116","prefectureKana":"ﾎｯｶｲﾄﾞｳ","cityKana":"ｳｽｸﾞﾝｿｳﾍﾞﾂﾁｮｳ","streetKana":"ﾐﾅﾐｸﾎﾞﾅｲ","prefecture":"北海道","city":"有珠郡壮瞥町","street":"南久保内"}]