[{"zipCode":"0540000","prefectureKana":"ﾎｯｶｲﾄﾞｳ","cityKana":"ﾕｳﾌﾂｸﾞﾝﾑｶﾜﾁｮｳ","streetKana":"ｲｶﾆｹｲｻｲｶﾞﾅｲﾊﾞｱｲ","prefecture":"北海道","city":"勇払郡むかわ町","street":"以下に掲載がない場合"},{"zipCode":"0540031","prefectureKana":"ﾎｯｶｲﾄﾞｳ","cityKana":"ﾕｳﾌﾂｸﾞﾝﾑｶﾜﾁｮｳ","streetKana":"ｱｵﾊﾞ","prefecture":"北海道","city":"勇払郡むかわ町","street":"青葉"},{"zipCode":"0540001","prefectureKana":"ﾎｯｶｲﾄﾞｳ","cityKana":"ﾕｳﾌﾂｸﾞﾝﾑｶﾜﾁｮｳ","streetKana":"ｱｻﾋｵｶ","prefecture":"北海道","city":"勇払郡むかわ町","street":"旭岡"},{"zipCode":"0540011","prefectureKana":"ﾎｯｶｲﾄﾞｳ","cityKana":"ﾕｳﾌﾂｸﾞﾝﾑｶﾜﾁｮｳ","streetKana":"ｱﾘｱｹ","prefecture":"北海道","city":"勇払郡むかわ町","street":"有明"},{"zipCode":"0540012","prefectureKana":"ﾎｯｶｲﾄﾞｳ","cityKana":"ﾕｳﾌﾂｸﾞﾝﾑｶﾜﾁｮｳ","streetKana":"ｲｸﾀ","prefecture":"北海道","city":"勇払郡むかわ町","street":"生田"},{"zipCode":"0540021","prefectureKana":"ﾎｯｶｲﾄﾞｳ","cityKana":"ﾕｳﾌﾂｸﾞﾝﾑｶﾜﾁｮｳ","streetKana":"ｵｵﾊﾗ","prefecture":"北海道","city":"勇払郡むかわ町","street":"大原"},{"zipCode":"0540002","prefectureKana":"ﾎｯｶｲﾄﾞｳ","cityKana":"ﾕｳﾌﾂｸﾞﾝﾑｶﾜﾁｮｳ","streetKana":"ｶｽｶﾞ","prefecture":"北海道","city":"勇払郡むかわ町","street":"春日"},{"zipCode":"0540063","prefectureKana":"ﾎｯｶｲﾄﾞｳ","cityKana":"ﾕｳﾌﾂｸﾞﾝﾑｶﾜﾁｮｳ","streetKana":"ｺﾏﾊﾞ","prefecture":"北海道","city":"勇払郡むかわ町","street":"駒場"},{"zipCode":"0540015","prefectureKana":"ﾎｯｶｲﾄﾞｳ","cityKana":"ﾕｳﾌﾂｸﾞﾝﾑｶﾜﾁｮｳ","streetKana":"ｼｵﾐ","prefecture":"北海道","city":"勇払郡むかわ町","street":"汐見"},{"zipCode":"0540023","prefectureKana":"ﾎｯｶｲﾄﾞｳ","cityKana":"ﾕｳﾌﾂｸﾞﾝﾑｶﾜﾁｮｳ","streetKana":"ｽｴﾋﾛ","prefecture":"北海道","city":"勇払郡むかわ町","street":"末広"},{"zipCode":"0540052","prefectureKana":"ﾎｯｶｲﾄﾞｳ","cityKana":"ﾕｳﾌﾂｸﾞﾝﾑｶﾜﾁｮｳ","streetKana":"ﾀｲｾｲ","prefecture":"北海道","city":"勇払郡むかわ町","street":"大成"},{"zipCode":"0540004","prefectureKana":"ﾎｯｶｲﾄﾞｳ","cityKana":"ﾕｳﾌﾂｸﾞﾝﾑｶﾜﾁｮｳ","streetKana":"ﾀｳﾗ","prefecture":"北海道","city":"勇払郡むかわ町","street":"田浦"},{"zipCode":"0540003","prefectureKana":"ﾎｯｶｲﾄﾞｳ","cityKana":"ﾕｳﾌﾂｸﾞﾝﾑｶﾜﾁｮｳ","streetKana":"ﾄﾖｼﾛ","prefecture":"北海道","city":"勇払郡むかわ町","street":"豊城"},{"zipCode":"0540005","prefectureKana":"ﾎｯｶｲﾄﾞｳ","cityKana":"ﾕｳﾌﾂｸﾞﾝﾑｶﾜﾁｮｳ","streetKana":"ﾆﾉﾐﾔ","prefecture":"北海道","city":"勇払郡むかわ町","street":"二宮"},{"zipCode":"0540013","prefectureKana":"ﾎｯｶｲﾄﾞｳ","cityKana":"ﾕｳﾌﾂｸﾞﾝﾑｶﾜﾁｮｳ","streetKana":"ﾊﾅｵｶ","prefecture":"北海道","city":"勇払郡むかわ町","street":"花岡"},{"zipCode":"0540022","prefectureKana":"ﾎｯｶｲﾄﾞｳ","cityKana":"ﾕｳﾌﾂｸﾞﾝﾑｶﾜﾁｮｳ","streetKana":"ﾊﾅｿﾞﾉ","prefecture":"北海道","city":"勇払郡むかわ町","street":"花園"},{"zipCode":"0540064","prefectureKana":"ﾎｯｶｲﾄﾞｳ","cityKana":"ﾕｳﾌﾂｸﾞﾝﾑｶﾜﾁｮｳ","streetKana":"ﾊﾙﾐ","prefecture":"北海道","city":"勇払郡むかわ町","street":"晴海"},{"zipCode":"0540032","prefectureKana":"ﾎｯｶｲﾄﾞｳ","cityKana":"ﾕｳﾌﾂｸﾞﾝﾑｶﾜﾁｮｳ","streetKana":"ﾌｸｽﾞﾐ","prefecture":"北海道","city":"勇払郡むかわ町","street":"福住"},{"zipCode":"0540051","prefectureKana":"ﾎｯｶｲﾄﾞｳ","cityKana":"ﾕｳﾌﾂｸﾞﾝﾑｶﾜﾁｮｳ","streetKana":"ﾌﾞﾝｷｮｳ","prefecture":"北海道","city":"勇払郡むかわ町","street":"文京"},{"zipCode":"0540211","prefectureKana":"ﾎｯｶｲﾄﾞｳ","cityKana":"ﾕｳﾌﾂｸﾞﾝﾑｶﾜﾁｮｳ","streetKana":"ﾎﾍﾞﾂ","prefecture":"北海道","city":"勇払郡むかわ町","street":"穂別"},{"zipCode":"0540362","prefectureKana":"ﾎｯｶｲﾄﾞｳ","cityKana":"ﾕｳﾌﾂｸﾞﾝﾑｶﾜﾁｮｳ","streetKana":"ﾎﾍﾞﾂｱｽﾞﾐ","prefecture":"北海道","city":"勇払郡むかわ町","street":"穂別安住"},{"zipCode":"0540143","prefectureKana":"ﾎｯｶｲﾄﾞｳ","cityKana":"ﾕｳﾌﾂｸﾞﾝﾑｶﾜﾁｮｳ","streetKana":"ﾎﾍﾞﾂｲｽﾞﾐ","prefecture":"北海道","city":"勇払郡むかわ町","street":"穂別和泉"},{"zipCode":"0540201","prefectureKana":"ﾎｯｶｲﾄﾞｳ","cityKana":"ﾕｳﾌﾂｸﾞﾝﾑｶﾜﾁｮｳ","streetKana":"ﾎﾍﾞﾂｲﾅｻﾄ","prefecture":"北海道","city":"勇払郡むかわ町","street":"穂別稲里"},{"zipCode":"0540202","prefectureKana":"ﾎｯｶｲﾄﾞｳ","cityKana":"ﾕｳﾌﾂｸﾞﾝﾑｶﾜﾁｮｳ","streetKana":"ﾎﾍﾞﾂｵｻﾜ","prefecture":"北海道","city":"勇払郡むかわ町","street":"穂別長和"},{"zipCode":"0540141","prefectureKana":"ﾎｯｶｲﾄﾞｳ","cityKana":"ﾕｳﾌﾂｸﾞﾝﾑｶﾜﾁｮｳ","streetKana":"ﾎﾍﾞﾂｻｶｴ","prefecture":"北海道","city":"勇払郡むかわ町","street":"穂別栄"},{"zipCode":"0540364","prefectureKana":"ﾎｯｶｲﾄﾞｳ","cityKana":"ﾕｳﾌﾂｸﾞﾝﾑｶﾜﾁｮｳ","streetKana":"ﾎﾍﾞﾂﾄﾐｳﾁ","prefecture":"北海道","city":"勇払郡むかわ町","street":"穂別富内"},{"zipCode":"0540203","prefectureKana":"ﾎｯｶｲﾄﾞｳ","cityKana":"ﾕｳﾌﾂｸﾞﾝﾑｶﾜﾁｮｳ","streetKana":"ﾎﾍﾞﾂﾄﾖﾀ(ｼﾝｺｳ)","prefecture":"北海道","city":"勇払郡むかわ町","street":"穂別豊田（新興）"},{"zipCode":"0540144","prefectureKana":"ﾎｯｶｲﾄﾞｳ","cityKana":"ﾕｳﾌﾂｸﾞﾝﾑｶﾜﾁｮｳ","streetKana":"ﾎﾍﾞﾂﾄﾖﾀ(ｿﾉﾀ)","prefecture":"北海道","city":"勇払郡むかわ町","street":"穂別豊田（その他）"},{"zipCode":"0540142","prefectureKana":"ﾎｯｶｲﾄﾞｳ","cityKana":"ﾕｳﾌﾂｸﾞﾝﾑｶﾜﾁｮｳ","streetKana":"ﾎﾍﾞﾂﾆﾜ","prefecture":"北海道","city":"勇払郡むかわ町","street":"穂別仁和"},{"zipCode":"0540204","prefectureKana":"ﾎｯｶｲﾄﾞｳ","cityKana":"ﾕｳﾌﾂｸﾞﾝﾑｶﾜﾁｮｳ","streetKana":"ﾎﾍﾞﾂﾋﾗｵｶ(ｶﾜﾑｶｲ)","prefecture":"北海道","city":"勇払郡むかわ町","street":"穂別平丘（川向）"},{"zipCode":"0540363","prefectureKana":"ﾎｯｶｲﾄﾞｳ","cityKana":"ﾕｳﾌﾂｸﾞﾝﾑｶﾜﾁｮｳ","streetKana":"ﾎﾍﾞﾂﾋﾗｵｶ(ｿﾉﾀ)","prefecture":"北海道","city":"勇払郡むかわ町","street":"穂別平丘（その他）"},{"zipCode":"0540361","prefectureKana":"ﾎｯｶｲﾄﾞｳ","cityKana":"ﾕｳﾌﾂｸﾞﾝﾑｶﾜﾁｮｳ","streetKana":"ﾎﾍﾞﾂﾌｸﾔﾏ","prefecture":"北海道","city":"勇払郡むかわ町","street":"穂別福山"},{"zipCode":"0540041","prefectureKana":"ﾎｯｶｲﾄﾞｳ","cityKana":"ﾕｳﾌﾂｸﾞﾝﾑｶﾜﾁｮｳ","streetKana":"ﾏﾂｶｾﾞ","prefecture":"北海道","city":"勇払郡むかわ町","street":"松風"},{"zipCode":"0540016","prefectureKana":"ﾎｯｶｲﾄﾞｳ","cityKana":"ﾕｳﾌﾂｸﾞﾝﾑｶﾜﾁｮｳ","streetKana":"ﾐﾔﾄ","prefecture":"北海道","city":"勇払郡むかわ町","street":"宮戸"},{"zipCode":"0540042","prefectureKana":"ﾎｯｶｲﾄﾞｳ","cityKana":"ﾕｳﾌﾂｸﾞﾝﾑｶﾜﾁｮｳ","streetKana":"ﾐﾕｷ","prefecture":"北海道","city":"勇払郡むかわ町","street":"美幸"},{"zipCode":"0540061","prefectureKana":"ﾎｯｶｲﾄﾞｳ","cityKana":"ﾕｳﾌﾂｸﾞﾝﾑｶﾜﾁｮｳ","streetKana":"ﾖｳｺｳ","prefecture":"北海道","city":"勇払郡むかわ町","street":"洋光"},{"zipCode":"0540014","prefectureKana":"ﾎｯｶｲﾄﾞｳ","cityKana":"ﾕｳﾌﾂｸﾞﾝﾑｶﾜﾁｮｳ","streetKana":"ﾖﾈﾊﾗ","prefecture":"北海道","city":"勇払郡むかわ町","street":"米原"},{"zipCode":"0540062","prefectureKana":"ﾎｯｶｲﾄﾞｳ","cityKana":"ﾕｳﾌﾂｸﾞﾝﾑｶﾜﾁｮｳ","streetKana":"ﾜｶｸｻ","prefecture":"北海道","city":"勇払郡むかわ町","street":"若草"}]