[{"zipCode":"0612274","prefectureKana":"ﾎｯｶｲﾄﾞｳ","cityKana":"ｻｯﾎﾟﾛｼﾐﾅﾐｸ","streetKana":"ｺｶﾞﾈﾕ","prefecture":"北海道","city":"札幌市南区","street":"小金湯"},{"zipCode":"0612301","prefectureKana":"ﾎｯｶｲﾄﾞｳ","cityKana":"ｻｯﾎﾟﾛｼﾐﾅﾐｸ","streetKana":"ｼﾞｮｳｻﾞﾝｹｲ","prefecture":"北海道","city":"札幌市南区","street":"定山渓"},{"zipCode":"0612302","prefectureKana":"ﾎｯｶｲﾄﾞｳ","cityKana":"ｻｯﾎﾟﾛｼﾐﾅﾐｸ","streetKana":"ｼﾞｮｳｻﾞﾝｹｲｵﾝｾﾝﾋｶﾞｼ","prefecture":"北海道","city":"札幌市南区","street":"定山渓温泉東"},{"zipCode":"0612303","prefectureKana":"ﾎｯｶｲﾄﾞｳ","cityKana":"ｻｯﾎﾟﾛｼﾐﾅﾐｸ","streetKana":"ｼﾞｮｳｻﾞﾝｹｲｵﾝｾﾝﾆｼ","prefecture":"北海道","city":"札幌市南区","street":"定山渓温泉西"},{"zipCode":"0612276","prefectureKana":"ﾎｯｶｲﾄﾞｳ","cityKana":"ｻｯﾎﾟﾛｼﾐﾅﾐｸ","streetKana":"ｼﾗｶﾜ","prefecture":"北海道","city":"札幌市南区","street":"白川"},{"zipCode":"0612275","prefectureKana":"ﾎｯｶｲﾄﾞｳ","cityKana":"ｻｯﾎﾟﾛｼﾐﾅﾐｸ","streetKana":"ﾄﾔﾏ","prefecture":"北海道","city":"札幌市南区","street":"砥山"},{"zipCode":"0612273","prefectureKana":"ﾎｯｶｲﾄﾞｳ","cityKana":"ｻｯﾎﾟﾛｼﾐﾅﾐｸ","streetKana":"ﾄﾖﾀｷ","prefecture":"北海道","city":"札幌市南区","street":"豊滝"},{"zipCode":"0612271","prefectureKana":"ﾎｯｶｲﾄﾞｳ","cityKana":"ｻｯﾎﾟﾛｼﾐﾅﾐｸ","streetKana":"ﾌｼﾞﾉ(ｿﾉﾀ)","prefecture":"北海道","city":"札幌市南区","street":"藤野（その他）"},{"zipCode":"0612281","prefectureKana":"ﾎｯｶｲﾄﾞｳ","cityKana":"ｻｯﾎﾟﾛｼﾐﾅﾐｸ","streetKana":"ﾌｼﾞﾉ1ｼﾞｮｳ","prefecture":"北海道","city":"札幌市南区","street":"藤野一条"},{"zipCode":"0612282","prefectureKana":"ﾎｯｶｲﾄﾞｳ","cityKana":"ｻｯﾎﾟﾛｼﾐﾅﾐｸ","streetKana":"ﾌｼﾞﾉ2ｼﾞｮｳ","prefecture":"北海道","city":"札幌市南区","street":"藤野二条"},{"zipCode":"0612283","prefectureKana":"ﾎｯｶｲﾄﾞｳ","cityKana":"ｻｯﾎﾟﾛｼﾐﾅﾐｸ","streetKana":"ﾌｼﾞﾉ3ｼﾞｮｳ","prefecture":"北海道","city":"札幌市南区","street":"藤野三条"},{"zipCode":"0612284","prefectureKana":"ﾎｯｶｲﾄﾞｳ","cityKana":"ｻｯﾎﾟﾛｼﾐﾅﾐｸ","streetKana":"ﾌｼﾞﾉ4ｼﾞｮｳ","prefecture":"北海道","city":"札幌市南区","street":"藤野四条"},{"zipCode":"0612285","prefectureKana":"ﾎｯｶｲﾄﾞｳ","cityKana":"ｻｯﾎﾟﾛｼﾐﾅﾐｸ","streetKana":"ﾌｼﾞﾉ5ｼﾞｮｳ","prefecture":"北海道","city":"札幌市南区","street":"藤野五条"},{"zipCode":"0612286","prefectureKana":"ﾎｯｶｲﾄﾞｳ","cityKana":"ｻｯﾎﾟﾛｼﾐﾅﾐｸ","streetKana":"ﾌｼﾞﾉ6ｼﾞｮｳ","prefecture":"北海道","city":"札幌市南区","street":"藤野六条"},{"zipCode":"0612261","prefectureKana":"ﾎｯｶｲﾄﾞｳ","cityKana":"ｻｯﾎﾟﾛｼﾐﾅﾐｸ","streetKana":"ﾐｽﾏｲ1ｼﾞｮｳ","prefecture":"北海道","city":"札幌市南区","street":"簾舞一条"},{"zipCode":"0612262","prefectureKana":"ﾎｯｶｲﾄﾞｳ","cityKana":"ｻｯﾎﾟﾛｼﾐﾅﾐｸ","streetKana":"ﾐｽﾏｲ2ｼﾞｮｳ","prefecture":"北海道","city":"札幌市南区","street":"簾舞二条"},{"zipCode":"0612263","prefectureKana":"ﾎｯｶｲﾄﾞｳ","cityKana":"ｻｯﾎﾟﾛｼﾐﾅﾐｸ","streetKana":"ﾐｽﾏｲ3ｼﾞｮｳ","prefecture":"北海道","city":"札幌市南区","street":"簾舞三条"},{"zipCode":"0612264","prefectureKana":"ﾎｯｶｲﾄﾞｳ","cityKana":"ｻｯﾎﾟﾛｼﾐﾅﾐｸ","streetKana":"ﾐｽﾏｲ4ｼﾞｮｳ","prefecture":"北海道","city":"札幌市南区","street":"簾舞四条"},{"zipCode":"0612265","prefectureKana":"ﾎｯｶｲﾄﾞｳ","cityKana":"ｻｯﾎﾟﾛｼﾐﾅﾐｸ","streetKana":"ﾐｽﾏｲ5ｼﾞｮｳ","prefecture":"北海道","city":"札幌市南区","street":"簾舞五条"},{"zipCode":"0612266","prefectureKana":"ﾎｯｶｲﾄﾞｳ","cityKana":"ｻｯﾎﾟﾛｼﾐﾅﾐｸ","streetKana":"ﾐｽﾏｲ6ｼﾞｮｳ","prefecture":"北海道","city":"札幌市南区","street":"簾舞六条"},{"zipCode":"0612272","prefectureKana":"ﾎｯｶｲﾄﾞｳ","cityKana":"ｻｯﾎﾟﾛｼﾐﾅﾐｸ","streetKana":"ﾐｽﾏｲ(ｿﾉﾀ)","prefecture":"北海道","city":"札幌市南区","street":"簾舞（その他）"},{"zipCode":"0613271","prefectureKana":"ﾎｯｶｲﾄﾞｳ","cityKana":"ｵﾀﾙｼ","streetKana":"ｾﾞﾆﾊﾞｺ(4-5ﾁｮｳﾒ)","prefecture":"北海道","city":"小樽市","street":"銭函（４～５丁目）"},{"zipCode":"0611400","prefectureKana":"ﾎｯｶｲﾄﾞｳ","cityKana":"ｴﾆﾜｼ","streetKana":"ｲｶﾆｹｲｻｲｶﾞﾅｲﾊﾞｱｲ","prefecture":"北海道","city":"恵庭市","street":"以下に掲載がない場合"},{"zipCode":"0611448","prefectureKana":"ﾎｯｶｲﾄﾞｳ","cityKana":"ｴﾆﾜｼ","streetKana":"ｱｲｵｲﾏﾁ","prefecture":"北海道","city":"恵庭市","street":"相生町"},{"zipCode":"0611431","prefectureKana":"ﾎｯｶｲﾄﾞｳ","cityKana":"ｴﾆﾜｼ","streetKana":"ｱﾘｱｹﾁｮｳ","prefecture":"北海道","city":"恵庭市","street":"有明町"},{"zipCode":"0611401","prefectureKana":"ﾎｯｶｲﾄﾞｳ","cityKana":"ｴﾆﾜｼ","streetKana":"ｲｻﾞﾘﾌﾞﾄ","prefecture":"北海道","city":"恵庭市","street":"漁太"},{"zipCode":"0611414","prefectureKana":"ﾎｯｶｲﾄﾞｳ","cityKana":"ｴﾆﾜｼ","streetKana":"ｲｻﾞﾘﾏﾁ","prefecture":"北海道","city":"恵庭市","street":"漁町"},{"zipCode":"0611415","prefectureKana":"ﾎｯｶｲﾄﾞｳ","cityKana":"ｴﾆﾜｼ","streetKana":"ｲｽﾞﾐﾏﾁ","prefecture":"北海道","city":"恵庭市","street":"泉町"},{"zipCode":"0611411","prefectureKana":"ﾎｯｶｲﾄﾞｳ","cityKana":"ｴﾆﾜｼ","streetKana":"ｴﾅﾐ","prefecture":"北海道","city":"恵庭市","street":"恵南"},{"zipCode":"0611424","prefectureKana":"ﾎｯｶｲﾄﾞｳ","cityKana":"ｴﾆﾜｼ","streetKana":"ｵｵﾏﾁ","prefecture":"北海道","city":"恵庭市","street":"大町"},{"zipCode":"0611423","prefectureKana":"ﾎｯｶｲﾄﾞｳ","cityKana":"ｴﾆﾜｼ","streetKana":"ｶｼﾜｷﾞﾁｮｳ","prefecture":"北海道","city":"恵庭市","street":"柏木町"},{"zipCode":"0611402","prefectureKana":"ﾎｯｶｲﾄﾞｳ","cityKana":"ｴﾆﾜｼ","streetKana":"ｶｽｶﾞ","prefecture":"北海道","city":"恵庭市","street":"春日"},{"zipCode":"0611404","prefectureKana":"ﾎｯｶｲﾄﾞｳ","cityKana":"ｴﾆﾜｼ","streetKana":"ｶﾐﾔﾏｸﾞﾁ","prefecture":"北海道","city":"恵庭市","street":"上山口"},{"zipCode":"0611433","prefectureKana":"ﾎｯｶｲﾄﾞｳ","cityKana":"ｴﾆﾜｼ","streetKana":"ｷﾀｶｼﾜｷﾞﾁｮｳ","prefecture":"北海道","city":"恵庭市","street":"北柏木町"},{"zipCode":"0611366","prefectureKana":"ﾎｯｶｲﾄﾞｳ","cityKana":"ｴﾆﾜｼ","streetKana":"ｷﾀｼﾞﾏ","prefecture":"北海道","city":"恵庭市","street":"北島"},{"zipCode":"0611444","prefectureKana":"ﾎｯｶｲﾄﾞｳ","cityKana":"ｴﾆﾜｼ","streetKana":"ｷｮｳﾏﾁ","prefecture":"北海道","city":"恵庭市","street":"京町"},{"zipCode":"0611432","prefectureKana":"ﾎｯｶｲﾄﾞｳ","cityKana":"ｴﾆﾜｼ","streetKana":"ｹｲｵｳﾁｮｳ","prefecture":"北海道","city":"恵庭市","street":"恵央町"},{"zipCode":"0611449","prefectureKana":"ﾎｯｶｲﾄﾞｳ","cityKana":"ｴﾆﾜｼ","streetKana":"ｺｶﾞﾈﾁｭｳｵｳ","prefecture":"北海道","city":"恵庭市","street":"黄金中央"},{"zipCode":"0611407","prefectureKana":"ﾎｯｶｲﾄﾞｳ","cityKana":"ｴﾆﾜｼ","streetKana":"ｺｶﾞﾈｷﾀ","prefecture":"北海道","city":"恵庭市","street":"黄金北"},{"zipCode":"0611409","prefectureKana":"ﾎｯｶｲﾄﾞｳ","cityKana":"ｴﾆﾜｼ","streetKana":"ｺｶﾞﾈﾐﾅﾐ","prefecture":"北海道","city":"恵庭市","street":"黄金南"},{"zipCode":"0611417","prefectureKana":"ﾎｯｶｲﾄﾞｳ","cityKana":"ｴﾆﾜｼ","streetKana":"ｺﾏﾊﾞﾁｮｳ","prefecture":"北海道","city":"恵庭市","street":"駒場町"},{"zipCode":"0611426","prefectureKana":"ﾎｯｶｲﾄﾞｳ","cityKana":"ｴﾆﾜｼ","streetKana":"ｻｲﾜｲﾁｮｳ","prefecture":"北海道","city":"恵庭市","street":"幸町"},{"zipCode":"0611443","prefectureKana":"ﾎｯｶｲﾄﾞｳ","cityKana":"ｴﾆﾜｼ","streetKana":"ｻｶｴﾏﾁ","prefecture":"北海道","city":"恵庭市","street":"栄恵町"},{"zipCode":"0611416","prefectureKana":"ﾎｯｶｲﾄﾞｳ","cityKana":"ｴﾆﾜｼ","streetKana":"ｻｸﾗﾏﾁ","prefecture":"北海道","city":"恵庭市","street":"桜町"},{"zipCode":"0611363","prefectureKana":"ﾎｯｶｲﾄﾞｳ","cityKana":"ｴﾆﾜｼ","streetKana":"ｻｸﾗﾓﾘ","prefecture":"北海道","city":"恵庭市","street":"桜森"},{"zipCode":"0611354","prefectureKana":"ﾎｯｶｲﾄﾞｳ","cityKana":"ｴﾆﾜｼ","streetKana":"ｼﾏﾏﾂｱｻﾋﾏﾁ","prefecture":"北海道","city":"恵庭市","street":"島松旭町"},{"zipCode":"0611355","prefectureKana":"ﾎｯｶｲﾄﾞｳ","cityKana":"ｴﾆﾜｼ","streetKana":"ｼﾏﾏﾂｺﾄﾌﾞｷﾁｮｳ","prefecture":"北海道","city":"恵庭市","street":"島松寿町"},{"zipCode":"0611352","prefectureKana":"ﾎｯｶｲﾄﾞｳ","cityKana":"ｴﾆﾜｼ","streetKana":"ｼﾏﾏﾂﾅｶﾏﾁ","prefecture":"北海道","city":"恵庭市","street":"島松仲町"},{"zipCode":"0611351","prefectureKana":"ﾎｯｶｲﾄﾞｳ","cityKana":"ｴﾆﾜｼ","streetKana":"ｼﾏﾏﾂﾋｶﾞｼﾏﾁ","prefecture":"北海道","city":"恵庭市","street":"島松東町"},{"zipCode":"0611353","prefectureKana":"ﾎｯｶｲﾄﾞｳ","cityKana":"ｴﾆﾜｼ","streetKana":"ｼﾏﾏﾂﾎﾝﾏﾁ","prefecture":"北海道","city":"恵庭市","street":"島松本町"},{"zipCode":"0611363","prefectureKana":"ﾎｯｶｲﾄﾞｳ","cityKana":"ｴﾆﾜｼ","streetKana":"ｼﾏﾏﾂｻﾞﾜ","prefecture":"北海道","city":"恵庭市","street":"島松沢"},{"zipCode":"0611364","prefectureKana":"ﾎｯｶｲﾄﾞｳ","cityKana":"ｴﾆﾜｼ","streetKana":"ｼﾓｼﾏﾏﾂ","prefecture":"北海道","city":"恵庭市","street":"下島松"},{"zipCode":"0611412","prefectureKana":"ﾎｯｶｲﾄﾞｳ","cityKana":"ｴﾆﾜｼ","streetKana":"ｼﾗｶﾊﾞﾁｮｳ","prefecture":"北海道","city":"恵庭市","street":"白樺町"},{"zipCode":"0611445","prefectureKana":"ﾎｯｶｲﾄﾞｳ","cityKana":"ｴﾆﾜｼ","streetKana":"ｼﾝﾏﾁ","prefecture":"北海道","city":"恵庭市","street":"新町"},{"zipCode":"0611446","prefectureKana":"ﾎｯｶｲﾄﾞｳ","cityKana":"ｴﾆﾜｼ","streetKana":"ｽｴﾋﾛﾏﾁ","prefecture":"北海道","city":"恵庭市","street":"末広町"},{"zipCode":"0611441","prefectureKana":"ﾎｯｶｲﾄﾞｳ","cityKana":"ｴﾆﾜｼ","streetKana":"ｽﾐﾖｼﾁｮｳ","prefecture":"北海道","city":"恵庭市","street":"住吉町"},{"zipCode":"0611403","prefectureKana":"ﾎｯｶｲﾄﾞｳ","cityKana":"ｴﾆﾜｼ","streetKana":"ﾁｭｳｵｳ","prefecture":"北海道","city":"恵庭市","street":"中央"},{"zipCode":"0611405","prefectureKana":"ﾎｯｶｲﾄﾞｳ","cityKana":"ｴﾆﾜｼ","streetKana":"ﾄｲｿ","prefecture":"北海道","city":"恵庭市","street":"戸磯"},{"zipCode":"0611362","prefectureKana":"ﾎｯｶｲﾄﾞｳ","cityKana":"ｴﾆﾜｼ","streetKana":"ﾅｶｼﾏﾏﾂ","prefecture":"北海道","city":"恵庭市","street":"中島松"},{"zipCode":"0611435","prefectureKana":"ﾎｯｶｲﾄﾞｳ","cityKana":"ｴﾆﾜｼ","streetKana":"ﾅｶｼﾞﾏﾁｮｳ","prefecture":"北海道","city":"恵庭市","street":"中島町"},{"zipCode":"0611356","prefectureKana":"ﾎｯｶｲﾄﾞｳ","cityKana":"ｴﾆﾜｼ","streetKana":"ﾆｼｼﾏﾏﾂ","prefecture":"北海道","city":"恵庭市","street":"西島松"},{"zipCode":"0611434","prefectureKana":"ﾎｯｶｲﾄﾞｳ","cityKana":"ｴﾆﾜｼ","streetKana":"ﾊｸﾖｳﾁｮｳ","prefecture":"北海道","city":"恵庭市","street":"柏陽町"},{"zipCode":"0611361","prefectureKana":"ﾎｯｶｲﾄﾞｳ","cityKana":"ｴﾆﾜｼ","streetKana":"ﾊﾔｼﾀﾞ","prefecture":"北海道","city":"恵庭市","street":"林田"},{"zipCode":"0611422","prefectureKana":"ﾎｯｶｲﾄﾞｳ","cityKana":"ｴﾆﾜｼ","streetKana":"ﾊﾞﾝｼﾞﾘ","prefecture":"北海道","city":"恵庭市","street":"盤尻"},{"zipCode":"0611447","prefectureKana":"ﾎｯｶｲﾄﾞｳ","cityKana":"ｴﾆﾜｼ","streetKana":"ﾌｸｽﾞﾐﾁｮｳ","prefecture":"北海道","city":"恵庭市","street":"福住町"},{"zipCode":"0611425","prefectureKana":"ﾎｯｶｲﾄﾞｳ","cityKana":"ｴﾆﾜｼ","streetKana":"ﾌﾞﾝｷｮｳﾁｮｳ","prefecture":"北海道","city":"恵庭市","street":"文京町"},{"zipCode":"0611365","prefectureKana":"ﾎｯｶｲﾄﾞｳ","cityKana":"ｴﾆﾜｼ","streetKana":"ﾎｴｲ","prefecture":"北海道","city":"恵庭市","street":"穂栄"},{"zipCode":"0611421","prefectureKana":"ﾎｯｶｲﾄﾞｳ","cityKana":"ｴﾆﾜｼ","streetKana":"ﾏｷﾊﾞ","prefecture":"北海道","city":"恵庭市","street":"牧場"},{"zipCode":"0611427","prefectureKana":"ﾎｯｶｲﾄﾞｳ","cityKana":"ｴﾆﾜｼ","streetKana":"ﾐｻｷﾉ","prefecture":"北海道","city":"恵庭市","street":"美咲野"},{"zipCode":"0611442","prefectureKana":"ﾎｯｶｲﾄﾞｳ","cityKana":"ｴﾆﾜｼ","streetKana":"ﾐﾄﾞﾘﾏﾁ","prefecture":"北海道","city":"恵庭市","street":"緑町"},{"zipCode":"0611375","prefectureKana":"ﾎｯｶｲﾄﾞｳ","cityKana":"ｴﾆﾜｼ","streetKana":"ﾐﾅﾐｼﾏﾏﾂ","prefecture":"北海道","city":"恵庭市","street":"南島松"},{"zipCode":"0611371","prefectureKana":"ﾎｯｶｲﾄﾞｳ","cityKana":"ｴﾆﾜｼ","streetKana":"ﾒｸﾞﾐﾉﾋｶﾞｼ","prefecture":"北海道","city":"恵庭市","street":"恵み野東"},{"zipCode":"0611373","prefectureKana":"ﾎｯｶｲﾄﾞｳ","cityKana":"ｴﾆﾜｼ","streetKana":"ﾒｸﾞﾐﾉﾆｼ","prefecture":"北海道","city":"恵庭市","street":"恵み野西"},{"zipCode":"0611372","prefectureKana":"ﾎｯｶｲﾄﾞｳ","cityKana":"ｴﾆﾜｼ","streetKana":"ﾒｸﾞﾐﾉﾐﾅﾐ","prefecture":"北海道","city":"恵庭市","street":"恵み野南"},{"zipCode":"0611374","prefectureKana":"ﾎｯｶｲﾄﾞｳ","cityKana":"ｴﾆﾜｼ","streetKana":"ﾒｸﾞﾐﾉｷﾀ","prefecture":"北海道","city":"恵庭市","street":"恵み野北"},{"zipCode":"0611376","prefectureKana":"ﾎｯｶｲﾄﾞｳ","cityKana":"ｴﾆﾜｼ","streetKana":"ﾒｸﾞﾐﾉｻﾄﾐ","prefecture":"北海道","city":"恵庭市","street":"恵み野里美"},{"zipCode":"0611413","prefectureKana":"ﾎｯｶｲﾄﾞｳ","cityKana":"ｴﾆﾜｼ","streetKana":"ﾓﾄﾏﾁ","prefecture":"北海道","city":"恵庭市","street":"本町"},{"zipCode":"0611406","prefectureKana":"ﾎｯｶｲﾄﾞｳ","cityKana":"ｴﾆﾜｼ","streetKana":"ﾜｺｳﾁｮｳ","prefecture":"北海道","city":"恵庭市","street":"和光町"},{"zipCode":"0611100","prefectureKana":"ﾎｯｶｲﾄﾞｳ","cityKana":"ｷﾀﾋﾛｼﾏｼ","streetKana":"ｲｶﾆｹｲｻｲｶﾞﾅｲﾊﾞｱｲ","prefecture":"北海道","city":"北広島市","street":"以下に掲載がない場合"},{"zipCode":"0611141","prefectureKana":"ﾎｯｶｲﾄﾞｳ","cityKana":"ｷﾀﾋﾛｼﾏｼ","streetKana":"ｱｵﾊﾞﾁｮｳ","prefecture":"北海道","city":"北広島市","street":"青葉町"},{"zipCode":"0611123","prefectureKana":"ﾎｯｶｲﾄﾞｳ","cityKana":"ｷﾀﾋﾛｼﾏｼ","streetKana":"ｱｻﾋﾁｮｳ","prefecture":"北海道","city":"北広島市","street":"朝日町"},{"zipCode":"0611145","prefectureKana":"ﾎｯｶｲﾄﾞｳ","cityKana":"ｷﾀﾋﾛｼﾏｼ","streetKana":"ｲｽﾞﾐﾁｮｳ","prefecture":"北海道","city":"北広島市","street":"泉町"},{"zipCode":"0611125","prefectureKana":"ﾎｯｶｲﾄﾞｳ","cityKana":"ｷﾀﾋﾛｼﾏｼ","streetKana":"ｲﾅﾎﾁｮｳﾋｶﾞｼ","prefecture":"北海道","city":"北広島市","street":"稲穂町東"},{"zipCode":"0611124","prefectureKana":"ﾎｯｶｲﾄﾞｳ","cityKana":"ｷﾀﾋﾛｼﾏｼ","streetKana":"ｲﾅﾎﾁｮｳﾆｼ","prefecture":"北海道","city":"北広島市","street":"稲穂町西"},{"zipCode":"0611270","prefectureKana":"ﾎｯｶｲﾄﾞｳ","cityKana":"ｷﾀﾋﾛｼﾏｼ","streetKana":"ｵｵﾏｶﾞﾘ","prefecture":"北海道","city":"北広島市","street":"大曲"},{"zipCode":"0611274","prefectureKana":"ﾎｯｶｲﾄﾞｳ","cityKana":"ｷﾀﾋﾛｼﾏｼ","streetKana":"ｵｵﾏｶﾞﾘｺｳｷﾞｮｳﾀﾞﾝﾁ","prefecture":"北海道","city":"北広島市","street":"大曲工業団地"},{"zipCode":"0611278","prefectureKana":"ﾎｯｶｲﾄﾞｳ","cityKana":"ｷﾀﾋﾛｼﾏｼ","streetKana":"ｵｵﾏｶﾞﾘｻｲﾜｲﾁｮｳ","prefecture":"北海道","city":"北広島市","street":"大曲幸町"},{"zipCode":"0611272","prefectureKana":"ﾎｯｶｲﾄﾞｳ","cityKana":"ｷﾀﾋﾛｼﾏｼ","streetKana":"ｵｵﾏｶﾞﾘｽｴﾋﾛ","prefecture":"北海道","city":"北広島市","street":"大曲末広"},{"zipCode":"0611271","prefectureKana":"ﾎｯｶｲﾄﾞｳ","cityKana":"ｷﾀﾋﾛｼﾏｼ","streetKana":"ｵｵﾏｶﾞﾘﾁｭｳｵｳ","prefecture":"北海道","city":"北広島市","street":"大曲中央"},{"zipCode":"0611279","prefectureKana":"ﾎｯｶｲﾄﾞｳ","cityKana":"ｷﾀﾋﾛｼﾏｼ","streetKana":"ｵｵﾏｶﾞﾘﾅﾐｷ","prefecture":"北海道","city":"北広島市","street":"大曲並木"},{"zipCode":"0611273","prefectureKana":"ﾎｯｶｲﾄﾞｳ","cityKana":"ｷﾀﾋﾛｼﾏｼ","streetKana":"ｵｵﾏｶﾞﾘﾊｸﾖｳ","prefecture":"北海道","city":"北広島市","street":"大曲柏葉"},{"zipCode":"0611277","prefectureKana":"ﾎｯｶｲﾄﾞｳ","cityKana":"ｷﾀﾋﾛｼﾏｼ","streetKana":"ｵｵﾏｶﾞﾘﾋｶﾘ","prefecture":"北海道","city":"北広島市","street":"大曲光"},{"zipCode":"0611276","prefectureKana":"ﾎｯｶｲﾄﾞｳ","cityKana":"ｷﾀﾋﾛｼﾏｼ","streetKana":"ｵｵﾏｶﾞﾘﾐﾄﾞﾘｶﾞｵｶ","prefecture":"北海道","city":"北広島市","street":"大曲緑ケ丘"},{"zipCode":"0611275","prefectureKana":"ﾎｯｶｲﾄﾞｳ","cityKana":"ｷﾀﾋﾛｼﾏｼ","streetKana":"ｵｵﾏｶﾞﾘﾐﾅﾐｶﾞｵｶ","prefecture":"北海道","city":"北広島市","street":"大曲南ケ丘"},{"zipCode":"0611111","prefectureKana":"ﾎｯｶｲﾄﾞｳ","cityKana":"ｷﾀﾋﾛｼﾏｼ","streetKana":"ｷﾀﾉｻﾄ","prefecture":"北海道","city":"北広島市","street":"北の里"},{"zipCode":"0611261","prefectureKana":"ﾎｯｶｲﾄﾞｳ","cityKana":"ｷﾀﾋﾛｼﾏｼ","streetKana":"ｷﾎﾞｳｶﾞｵｶ","prefecture":"北海道","city":"北広島市","street":"希望ケ丘"},{"zipCode":"0611112","prefectureKana":"ﾎｯｶｲﾄﾞｳ","cityKana":"ｷﾀﾋﾛｼﾏｼ","streetKana":"ｷｮｳｴｲ","prefecture":"北海道","city":"北広島市","street":"共栄"},{"zipCode":"0611113","prefectureKana":"ﾎｯｶｲﾄﾞｳ","cityKana":"ｷﾀﾋﾛｼﾏｼ","streetKana":"ｷｮｳｴｲﾁｮｳ","prefecture":"北海道","city":"北広島市","street":"共栄町"},{"zipCode":"0611134","prefectureKana":"ﾎｯｶｲﾄﾞｳ","cityKana":"ｷﾀﾋﾛｼﾏｼ","streetKana":"ｺｳﾖｳﾁｮｳ","prefecture":"北海道","city":"北広島市","street":"広葉町"},{"zipCode":"0611133","prefectureKana":"ﾎｯｶｲﾄﾞｳ","cityKana":"ｷﾀﾋﾛｼﾏｼ","streetKana":"ｻｶｴﾁｮｳ","prefecture":"北海道","city":"北広島市","street":"栄町"},{"zipCode":"0611147","prefectureKana":"ﾎｯｶｲﾄﾞｳ","cityKana":"ｷﾀﾋﾛｼﾏｼ","streetKana":"ｻﾄﾐﾁｮｳ","prefecture":"北海道","city":"北広島市","street":"里見町"},{"zipCode":"0611265","prefectureKana":"ﾎｯｶｲﾄﾞｳ","cityKana":"ｷﾀﾋﾛｼﾏｼ","streetKana":"ｼﾏﾏﾂ","prefecture":"北海道","city":"北広島市","street":"島松"},{"zipCode":"0611144","prefectureKana":"ﾎｯｶｲﾄﾞｳ","cityKana":"ｷﾀﾋﾛｼﾏｼ","streetKana":"ｼﾗｶﾊﾞﾁｮｳ","prefecture":"北海道","city":"北広島市","street":"白樺町"},{"zipCode":"0611126","prefectureKana":"ﾎｯｶｲﾄﾞｳ","cityKana":"ｷﾀﾋﾛｼﾏｼ","streetKana":"ｼﾝﾄﾐﾁｮｳﾋｶﾞｼ","prefecture":"北海道","city":"北広島市","street":"新富町東"},{"zipCode":"0611127","prefectureKana":"ﾎｯｶｲﾄﾞｳ","cityKana":"ｷﾀﾋﾛｼﾏｼ","streetKana":"ｼﾝﾄﾐﾁｮｳﾆｼ","prefecture":"北海道","city":"北広島市","street":"新富町西"},{"zipCode":"0611146","prefectureKana":"ﾎｯｶｲﾄﾞｳ","cityKana":"ｷﾀﾋﾛｼﾏｼ","streetKana":"ﾀｶﾀﾞｲﾁｮｳ","prefecture":"北海道","city":"北広島市","street":"高台町"},{"zipCode":"0611121","prefectureKana":"ﾎｯｶｲﾄﾞｳ","cityKana":"ｷﾀﾋﾛｼﾏｼ","streetKana":"ﾁｭｳｵｳ","prefecture":"北海道","city":"北広島市","street":"中央"},{"zipCode":"0611135","prefectureKana":"ﾎｯｶｲﾄﾞｳ","cityKana":"ｷﾀﾋﾛｼﾏｼ","streetKana":"ﾃﾙﾐﾁｮｳ","prefecture":"北海道","city":"北広島市","street":"輝美町"},{"zipCode":"0611153","prefectureKana":"ﾎｯｶｲﾄﾞｳ","cityKana":"ｷﾀﾋﾛｼﾏｼ","streetKana":"ﾄﾐｶﾞｵｶ","prefecture":"北海道","city":"北広島市","street":"富ケ岡"},{"zipCode":"0611152","prefectureKana":"ﾎｯｶｲﾄﾞｳ","cityKana":"ｷﾀﾋﾛｼﾏｼ","streetKana":"ﾅｶﾉｻﾜ(557-736ﾊﾞﾝﾁ)","prefecture":"北海道","city":"北広島市","street":"中の沢（５５７～７３６番地）"},{"zipCode":"0611101","prefectureKana":"ﾎｯｶｲﾄﾞｳ","cityKana":"ｷﾀﾋﾛｼﾏｼ","streetKana":"ﾅｶﾉｻﾜ(ｿﾉﾀ)","prefecture":"北海道","city":"北広島市","street":"中の沢（その他）"},{"zipCode":"0611103","prefectureKana":"ﾎｯｶｲﾄﾞｳ","cityKana":"ｷﾀﾋﾛｼﾏｼ","streetKana":"ﾆｼﾞｶﾞｵｶ","prefecture":"北海道","city":"北広島市","street":"虹ケ丘"},{"zipCode":"0611102","prefectureKana":"ﾎｯｶｲﾄﾞｳ","cityKana":"ｷﾀﾋﾛｼﾏｼ","streetKana":"ﾆｼﾉｻﾄ","prefecture":"北海道","city":"北広島市","street":"西の里"},{"zipCode":"0611105","prefectureKana":"ﾎｯｶｲﾄﾞｳ","cityKana":"ｷﾀﾋﾛｼﾏｼ","streetKana":"ﾆｼﾉｻﾄﾋｶﾞｼ","prefecture":"北海道","city":"北広島市","street":"西の里東"},{"zipCode":"0611106","prefectureKana":"ﾎｯｶｲﾄﾞｳ","cityKana":"ｷﾀﾋﾛｼﾏｼ","streetKana":"ﾆｼﾉｻﾄﾐﾅﾐ","prefecture":"北海道","city":"北広島市","street":"西の里南"},{"zipCode":"0611104","prefectureKana":"ﾎｯｶｲﾄﾞｳ","cityKana":"ｷﾀﾋﾛｼﾏｼ","streetKana":"ﾆｼﾉｻﾄｷﾀ","prefecture":"北海道","city":"北広島市","street":"西の里北"},{"zipCode":"0611267","prefectureKana":"ﾎｯｶｲﾄﾞｳ","cityKana":"ｷﾀﾋﾛｼﾏｼ","streetKana":"ﾆﾍﾞﾂ","prefecture":"北海道","city":"北広島市","street":"仁別"},{"zipCode":"0611114","prefectureKana":"ﾎｯｶｲﾄﾞｳ","cityKana":"ｷﾀﾋﾛｼﾏｼ","streetKana":"ﾋｶﾞｼｷｮｳｴｲ","prefecture":"北海道","city":"北広島市","street":"東共栄"},{"zipCode":"0611151","prefectureKana":"ﾎｯｶｲﾄﾞｳ","cityKana":"ｷﾀﾋﾛｼﾏｼ","streetKana":"ﾋｶﾞｼﾉｻﾄ","prefecture":"北海道","city":"北広島市","street":"東の里"},{"zipCode":"0611122","prefectureKana":"ﾎｯｶｲﾄﾞｳ","cityKana":"ｷﾀﾋﾛｼﾏｼ","streetKana":"ﾋﾛｼﾏ","prefecture":"北海道","city":"北広島市","street":"広島"},{"zipCode":"0611132","prefectureKana":"ﾎｯｶｲﾄﾞｳ","cityKana":"ｷﾀﾋﾛｼﾏｼ","streetKana":"ﾎｸｼﾝﾁｮｳ","prefecture":"北海道","city":"北広島市","street":"北進町"},{"zipCode":"0611136","prefectureKana":"ﾎｯｶｲﾄﾞｳ","cityKana":"ｷﾀﾋﾛｼﾏｼ","streetKana":"ﾏﾂﾊﾞﾁｮｳ","prefecture":"北海道","city":"北広島市","street":"松葉町"},{"zipCode":"0611115","prefectureKana":"ﾎｯｶｲﾄﾞｳ","cityKana":"ｷﾀﾋﾛｼﾏｼ","streetKana":"ﾐｻｷﾉ","prefecture":"北海道","city":"北広島市","street":"美咲き野"},{"zipCode":"0611131","prefectureKana":"ﾎｯｶｲﾄﾞｳ","cityKana":"ｷﾀﾋﾛｼﾏｼ","streetKana":"ﾐｻﾜ","prefecture":"北海道","city":"北広島市","street":"美沢"},{"zipCode":"0611266","prefectureKana":"ﾎｯｶｲﾄﾞｳ","cityKana":"ｷﾀﾋﾛｼﾏｼ","streetKana":"ﾐｼﾏ","prefecture":"北海道","city":"北広島市","street":"三島"},{"zipCode":"0611143","prefectureKana":"ﾎｯｶｲﾄﾞｳ","cityKana":"ｷﾀﾋﾛｼﾏｼ","streetKana":"ﾐﾅﾐﾁｮｳ","prefecture":"北海道","city":"北広島市","street":"南町"},{"zipCode":"0611154","prefectureKana":"ﾎｯｶｲﾄﾞｳ","cityKana":"ｷﾀﾋﾛｼﾏｼ","streetKana":"ﾐﾅﾐﾉｻﾄ","prefecture":"北海道","city":"北広島市","street":"南の里"},{"zipCode":"0611148","prefectureKana":"ﾎｯｶｲﾄﾞｳ","cityKana":"ｷﾀﾋﾛｼﾏｼ","streetKana":"ﾔﾏﾃﾁｮｳ","prefecture":"北海道","city":"北広島市","street":"山手町"},{"zipCode":"0611137","prefectureKana":"ﾎｯｶｲﾄﾞｳ","cityKana":"ｷﾀﾋﾛｼﾏｼ","streetKana":"ﾘｮｸﾖｳﾁｮｳ","prefecture":"北海道","city":"北広島市","street":"緑陽町"},{"zipCode":"0611264","prefectureKana":"ﾎｯｶｲﾄﾞｳ","cityKana":"ｷﾀﾋﾛｼﾏｼ","streetKana":"ﾜｯﾂ","prefecture":"北海道","city":"北広島市","street":"輪厚"},{"zipCode":"0611281","prefectureKana":"ﾎｯｶｲﾄﾞｳ","cityKana":"ｷﾀﾋﾛｼﾏｼ","streetKana":"ﾜｯﾂｺｳｷﾞｮｳﾀﾞﾝﾁ","prefecture":"北海道","city":"北広島市","street":"輪厚工業団地"},{"zipCode":"0611268","prefectureKana":"ﾎｯｶｲﾄﾞｳ","cityKana":"ｷﾀﾋﾛｼﾏｼ","streetKana":"ﾜｯﾂﾁｭｳｵｳ","prefecture":"北海道","city":"北広島市","street":"輪厚中央"},{"zipCode":"0611269","prefectureKana":"ﾎｯｶｲﾄﾞｳ","cityKana":"ｷﾀﾋﾛｼﾏｼ","streetKana":"ﾜｯﾂﾓﾄﾏﾁ","prefecture":"北海道","city":"北広島市","street":"輪厚元町"},{"zipCode":"0611142","prefectureKana":"ﾎｯｶｲﾄﾞｳ","cityKana":"ｷﾀﾋﾛｼﾏｼ","streetKana":"ﾜｶﾊﾞﾁｮｳ","prefecture":"北海道","city":"北広島市","street":"若葉町"},{"zipCode":"0613200","prefectureKana":"ﾎｯｶｲﾄﾞｳ","cityKana":"ｲｼｶﾘｼ","streetKana":"ｲｶﾆｹｲｻｲｶﾞﾅｲﾊﾞｱｲ","prefecture":"北海道","city":"石狩市","street":"以下に掲載がない場合"},{"zipCode":"0613601","prefectureKana":"ﾎｯｶｲﾄﾞｳ","cityKana":"ｲｼｶﾘｼ","streetKana":"ｱﾂﾀｸｱﾂﾀ","prefecture":"北海道","city":"石狩市","street":"厚田区厚田"},{"zipCode":"0613602","prefectureKana":"ﾎｯｶｲﾄﾞｳ","cityKana":"ｲｼｶﾘｼ","streetKana":"ｱﾂﾀｸｵｼｺﾄ","prefecture":"北海道","city":"石狩市","street":"厚田区押琴"},{"zipCode":"0613151","prefectureKana":"ﾎｯｶｲﾄﾞｳ","cityKana":"ｲｼｶﾘｼ","streetKana":"ｱﾂﾀｸｺﾞｷﾋﾞﾙ","prefecture":"北海道","city":"石狩市","street":"厚田区濃昼"},{"zipCode":"0613603","prefectureKana":"ﾎｯｶｲﾄﾞｳ","cityKana":"ｲｼｶﾘｼ","streetKana":"ｱﾂﾀｸｺﾀﾆ","prefecture":"北海道","city":"石狩市","street":"厚田区小谷"},{"zipCode":"0613521","prefectureKana":"ﾎｯｶｲﾄﾞｳ","cityKana":"ｲｼｶﾘｼ","streetKana":"ｱﾂﾀｸｺﾀﾝ","prefecture":"北海道","city":"石狩市","street":"厚田区古潭"},{"zipCode":"0613331","prefectureKana":"ﾎｯｶｲﾄﾞｳ","cityKana":"ｲｼｶﾘｼ","streetKana":"ｱﾂﾀｸｼｯﾌﾟ(ﾁｭｳｵｳ､ｼﾗﾂｶﾘ)","prefecture":"北海道","city":"石狩市","street":"厚田区聚富（中央、シラツカリ）"},{"zipCode":"0613441","prefectureKana":"ﾎｯｶｲﾄﾞｳ","cityKana":"ｲｼｶﾘｼ","streetKana":"ｱﾂﾀｸｼｯﾌﾟ(ｿﾉﾀ)","prefecture":"北海道","city":"石狩市","street":"厚田区聚富（その他）"},{"zipCode":"0613332","prefectureKana":"ﾎｯｶｲﾄﾞｳ","cityKana":"ｲｼｶﾘｼ","streetKana":"ｱﾂﾀｸﾆｼﾞｶﾞﾊﾗ","prefecture":"北海道","city":"石狩市","street":"厚田区虹が原"},{"zipCode":"0613605","prefectureKana":"ﾎｯｶｲﾄﾞｳ","cityKana":"ｲｼｶﾘｼ","streetKana":"ｱﾂﾀｸﾍﾞｯｶﾘ","prefecture":"北海道","city":"石狩市","street":"厚田区別狩"},{"zipCode":"0613522","prefectureKana":"ﾎｯｶｲﾄﾞｳ","cityKana":"ｲｼｶﾘｼ","streetKana":"ｱﾂﾀｸﾐﾈﾄﾏﾘ","prefecture":"北海道","city":"石狩市","street":"厚田区嶺泊"},{"zipCode":"0613523","prefectureKana":"ﾎｯｶｲﾄﾞｳ","cityKana":"ｲｼｶﾘｼ","streetKana":"ｱﾂﾀｸﾓｳﾗｲ","prefecture":"北海道","city":"石狩市","street":"厚田区望来"},{"zipCode":"0613606","prefectureKana":"ﾎｯｶｲﾄﾞｳ","cityKana":"ｲｼｶﾘｼ","streetKana":"ｱﾂﾀｸﾔｿｽｹ","prefecture":"北海道","city":"石狩市","street":"厚田区安瀬"},{"zipCode":"0613377","prefectureKana":"ﾎｯｶｲﾄﾞｳ","cityKana":"ｲｼｶﾘｼ","streetKana":"ｵﾔﾌﾈﾁｮｳ","prefecture":"北海道","city":"石狩市","street":"親船町"},{"zipCode":"0613365","prefectureKana":"ﾎｯｶｲﾄﾞｳ","cityKana":"ｲｼｶﾘｼ","streetKana":"ｵﾔﾌﾈﾋｶﾞｼ1ｼﾞｮｳ","prefecture":"北海道","city":"石狩市","street":"親船東一条"},{"zipCode":"0613366","prefectureKana":"ﾎｯｶｲﾄﾞｳ","cityKana":"ｲｼｶﾘｼ","streetKana":"ｵﾔﾌﾈﾋｶﾞｼ2ｼﾞｮｳ","prefecture":"北海道","city":"石狩市","street":"親船東二条"},{"zipCode":"0613367","prefectureKana":"ﾎｯｶｲﾄﾞｳ","cityKana":"ｲｼｶﾘｼ","streetKana":"ｵﾔﾌﾈﾋｶﾞｼ3ｼﾞｮｳ","prefecture":"北海道","city":"石狩市","street":"親船東三条"},{"zipCode":"0613245","prefectureKana":"ﾎｯｶｲﾄﾞｳ","cityKana":"ｲｼｶﾘｼ","streetKana":"ｵﾔﾌﾙ","prefecture":"北海道","city":"石狩市","street":"生振"},{"zipCode":"0613362","prefectureKana":"ﾎｯｶｲﾄﾞｳ","cityKana":"ｲｼｶﾘｼ","streetKana":"ｷﾀｵﾔﾌﾙ","prefecture":"北海道","city":"石狩市","street":"北生振"},{"zipCode":"0613220","prefectureKana":"ﾎｯｶｲﾄﾞｳ","cityKana":"ｲｼｶﾘｼ","streetKana":"ｼﾋﾞ","prefecture":"北海道","city":"石狩市","street":"志美"},{"zipCode":"0613373","prefectureKana":"ﾎｯｶｲﾄﾞｳ","cityKana":"ｲｼｶﾘｼ","streetKana":"ｼﾝﾏﾁ","prefecture":"北海道","city":"石狩市","street":"新町"},{"zipCode":"0613242","prefectureKana":"ﾎｯｶｲﾄﾞｳ","cityKana":"ｲｼｶﾘｼ","streetKana":"ｼﾝｺｳﾁｭｳｵｳ","prefecture":"北海道","city":"石狩市","street":"新港中央"},{"zipCode":"0613243","prefectureKana":"ﾎｯｶｲﾄﾞｳ","cityKana":"ｲｼｶﾘｼ","streetKana":"ｼﾝｺｳﾋｶﾞｼ","prefecture":"北海道","city":"石狩市","street":"新港東"},{"zipCode":"0613241","prefectureKana":"ﾎｯｶｲﾄﾞｳ","cityKana":"ｲｼｶﾘｼ","streetKana":"ｼﾝｺｳﾆｼ","prefecture":"北海道","city":"石狩市","street":"新港西"},{"zipCode":"0613244","prefectureKana":"ﾎｯｶｲﾄﾞｳ","cityKana":"ｲｼｶﾘｼ","streetKana":"ｼﾝｺｳﾐﾅﾐ","prefecture":"北海道","city":"石狩市","street":"新港南"},{"zipCode":"0613253","prefectureKana":"ﾎｯｶｲﾄﾞｳ","cityKana":"ｲｼｶﾘｼ","streetKana":"ﾀﾙｶﾜ3ｼﾞｮｳ","prefecture":"北海道","city":"石狩市","street":"樽川三条"},{"zipCode":"0613254","prefectureKana":"ﾎｯｶｲﾄﾞｳ","cityKana":"ｲｼｶﾘｼ","streetKana":"ﾀﾙｶﾜ4ｼﾞｮｳ","prefecture":"北海道","city":"石狩市","street":"樽川四条"},{"zipCode":"0613255","prefectureKana":"ﾎｯｶｲﾄﾞｳ","cityKana":"ｲｼｶﾘｼ","streetKana":"ﾀﾙｶﾜ5ｼﾞｮｳ","prefecture":"北海道","city":"石狩市","street":"樽川五条"},{"zipCode":"0613256","prefectureKana":"ﾎｯｶｲﾄﾞｳ","cityKana":"ｲｼｶﾘｼ","streetKana":"ﾀﾙｶﾜ6ｼﾞｮｳ","prefecture":"北海道","city":"石狩市","street":"樽川六条"},{"zipCode":"0613257","prefectureKana":"ﾎｯｶｲﾄﾞｳ","cityKana":"ｲｼｶﾘｼ","streetKana":"ﾀﾙｶﾜ7ｼﾞｮｳ","prefecture":"北海道","city":"石狩市","street":"樽川七条"},{"zipCode":"0613258","prefectureKana":"ﾎｯｶｲﾄﾞｳ","cityKana":"ｲｼｶﾘｼ","streetKana":"ﾀﾙｶﾜ8ｼﾞｮｳ","prefecture":"北海道","city":"石狩市","street":"樽川八条"},{"zipCode":"0613259","prefectureKana":"ﾎｯｶｲﾄﾞｳ","cityKana":"ｲｼｶﾘｼ","streetKana":"ﾀﾙｶﾜ9ｼﾞｮｳ","prefecture":"北海道","city":"石狩市","street":"樽川九条"},{"zipCode":"0613251","prefectureKana":"ﾎｯｶｲﾄﾞｳ","cityKana":"ｲｼｶﾘｼ","streetKana":"ﾀﾙｶﾜ(ｿﾉﾀ)","prefecture":"北海道","city":"石狩市","street":"樽川（その他）"},{"zipCode":"0613374","prefectureKana":"ﾎｯｶｲﾄﾞｳ","cityKana":"ｲｼｶﾘｼ","streetKana":"ﾅｶﾏﾁ","prefecture":"北海道","city":"石狩市","street":"仲町"},{"zipCode":"0613484","prefectureKana":"ﾎｯｶｲﾄﾞｳ","cityKana":"ｲｼｶﾘｼ","streetKana":"ﾊﾁﾏﾝ(5ﾁｮｳﾒ1ﾊﾞﾝﾁ)","prefecture":"北海道","city":"石狩市","street":"八幡（５丁目１番地）"},{"zipCode":"0613361","prefectureKana":"ﾎｯｶｲﾄﾞｳ","cityKana":"ｲｼｶﾘｼ","streetKana":"ﾊﾁﾏﾝ(ｿﾉﾀ)","prefecture":"北海道","city":"石狩市","street":"八幡（その他）"},{"zipCode":"0613480","prefectureKana":"ﾎｯｶｲﾄﾞｳ","cityKana":"ｲｼｶﾘｼ","streetKana":"ﾊﾁﾏﾝﾁｮｳ(ｺﾞﾉｻﾜ)","prefecture":"北海道","city":"石狩市","street":"八幡町（五の沢）"},{"zipCode":"0613481","prefectureKana":"ﾎｯｶｲﾄﾞｳ","cityKana":"ｲｼｶﾘｼ","streetKana":"ﾊﾁﾏﾝﾁｮｳ(ﾀｶｵｶ)","prefecture":"北海道","city":"石狩市","street":"八幡町（高岡）"},{"zipCode":"0613482","prefectureKana":"ﾎｯｶｲﾄﾞｳ","cityKana":"ｲｼｶﾘｼ","streetKana":"ﾊﾁﾏﾝﾁｮｳ(ｿﾉﾀ)","prefecture":"北海道","city":"石狩市","street":"八幡町（その他）"},{"zipCode":"0613219","prefectureKana":"ﾎｯｶｲﾄﾞｳ","cityKana":"ｲｼｶﾘｼ","streetKana":"ﾊﾅｶﾜ","prefecture":"北海道","city":"石狩市","street":"花川"},{"zipCode":"0613211","prefectureKana":"ﾎｯｶｲﾄﾞｳ","cityKana":"ｲｼｶﾘｼ","streetKana":"ﾊﾅｶﾜｷﾀ1ｼﾞｮｳ","prefecture":"北海道","city":"石狩市","street":"花川北一条"},{"zipCode":"0613212","prefectureKana":"ﾎｯｶｲﾄﾞｳ","cityKana":"ｲｼｶﾘｼ","streetKana":"ﾊﾅｶﾜｷﾀ2ｼﾞｮｳ","prefecture":"北海道","city":"石狩市","street":"花川北二条"},{"zipCode":"0613213","prefectureKana":"ﾎｯｶｲﾄﾞｳ","cityKana":"ｲｼｶﾘｼ","streetKana":"ﾊﾅｶﾜｷﾀ3ｼﾞｮｳ","prefecture":"北海道","city":"石狩市","street":"花川北三条"},{"zipCode":"0613214","prefectureKana":"ﾎｯｶｲﾄﾞｳ","cityKana":"ｲｼｶﾘｼ","streetKana":"ﾊﾅｶﾜｷﾀ4ｼﾞｮｳ","prefecture":"北海道","city":"石狩市","street":"花川北四条"},{"zipCode":"0613215","prefectureKana":"ﾎｯｶｲﾄﾞｳ","cityKana":"ｲｼｶﾘｼ","streetKana":"ﾊﾅｶﾜｷﾀ5ｼﾞｮｳ","prefecture":"北海道","city":"石狩市","street":"花川北五条"},{"zipCode":"0613216","prefectureKana":"ﾎｯｶｲﾄﾞｳ","cityKana":"ｲｼｶﾘｼ","streetKana":"ﾊﾅｶﾜｷﾀ6ｼﾞｮｳ","prefecture":"北海道","city":"石狩市","street":"花川北六条"},{"zipCode":"0613217","prefectureKana":"ﾎｯｶｲﾄﾞｳ","cityKana":"ｲｼｶﾘｼ","streetKana":"ﾊﾅｶﾜｷﾀ7ｼﾞｮｳ","prefecture":"北海道","city":"石狩市","street":"花川北七条"},{"zipCode":"0613248","prefectureKana":"ﾎｯｶｲﾄﾞｳ","cityKana":"ｲｼｶﾘｼ","streetKana":"ﾊﾅｶﾜﾋｶﾞｼ","prefecture":"北海道","city":"石狩市","street":"花川東"},{"zipCode":"0613261","prefectureKana":"ﾎｯｶｲﾄﾞｳ","cityKana":"ｲｼｶﾘｼ","streetKana":"ﾊﾅｶﾜﾋｶﾞｼ1ｼﾞｮｳ","prefecture":"北海道","city":"石狩市","street":"花川東一条"},{"zipCode":"0613262","prefectureKana":"ﾎｯｶｲﾄﾞｳ","cityKana":"ｲｼｶﾘｼ","streetKana":"ﾊﾅｶﾜﾋｶﾞｼ2ｼﾞｮｳ","prefecture":"北海道","city":"石狩市","street":"花川東二条"},{"zipCode":"0613210","prefectureKana":"ﾎｯｶｲﾄﾞｳ","cityKana":"ｲｼｶﾘｼ","streetKana":"ﾊﾅｶﾜﾐﾅﾐ10ｼﾞｮｳ","prefecture":"北海道","city":"石狩市","street":"花川南十条"},{"zipCode":"0613201","prefectureKana":"ﾎｯｶｲﾄﾞｳ","cityKana":"ｲｼｶﾘｼ","streetKana":"ﾊﾅｶﾜﾐﾅﾐ1ｼﾞｮｳ","prefecture":"北海道","city":"石狩市","street":"花川南一条"},{"zipCode":"0613202","prefectureKana":"ﾎｯｶｲﾄﾞｳ","cityKana":"ｲｼｶﾘｼ","streetKana":"ﾊﾅｶﾜﾐﾅﾐ2ｼﾞｮｳ","prefecture":"北海道","city":"石狩市","street":"花川南二条"},{"zipCode":"0613203","prefectureKana":"ﾎｯｶｲﾄﾞｳ","cityKana":"ｲｼｶﾘｼ","streetKana":"ﾊﾅｶﾜﾐﾅﾐ3ｼﾞｮｳ","prefecture":"北海道","city":"石狩市","street":"花川南三条"},{"zipCode":"0613204","prefectureKana":"ﾎｯｶｲﾄﾞｳ","cityKana":"ｲｼｶﾘｼ","streetKana":"ﾊﾅｶﾜﾐﾅﾐ4ｼﾞｮｳ","prefecture":"北海道","city":"石狩市","street":"花川南四条"},{"zipCode":"0613205","prefectureKana":"ﾎｯｶｲﾄﾞｳ","cityKana":"ｲｼｶﾘｼ","streetKana":"ﾊﾅｶﾜﾐﾅﾐ5ｼﾞｮｳ","prefecture":"北海道","city":"石狩市","street":"花川南五条"},{"zipCode":"0613206","prefectureKana":"ﾎｯｶｲﾄﾞｳ","cityKana":"ｲｼｶﾘｼ","streetKana":"ﾊﾅｶﾜﾐﾅﾐ6ｼﾞｮｳ","prefecture":"北海道","city":"石狩市","street":"花川南六条"},{"zipCode":"0613207","prefectureKana":"ﾎｯｶｲﾄﾞｳ","cityKana":"ｲｼｶﾘｼ","streetKana":"ﾊﾅｶﾜﾐﾅﾐ7ｼﾞｮｳ","prefecture":"北海道","city":"石狩市","street":"花川南七条"},{"zipCode":"0613208","prefectureKana":"ﾎｯｶｲﾄﾞｳ","cityKana":"ｲｼｶﾘｼ","streetKana":"ﾊﾅｶﾜﾐﾅﾐ8ｼﾞｮｳ","prefecture":"北海道","city":"石狩市","street":"花川南八条"},{"zipCode":"0613209","prefectureKana":"ﾎｯｶｲﾄﾞｳ","cityKana":"ｲｼｶﾘｼ","streetKana":"ﾊﾅｶﾜﾐﾅﾐ9ｼﾞｮｳ","prefecture":"北海道","city":"石狩市","street":"花川南九条"},{"zipCode":"0613112","prefectureKana":"ﾎｯｶｲﾄﾞｳ","cityKana":"ｲｼｶﾘｼ","streetKana":"ﾊﾏﾏｽｸｵｸﾘｹﾞ","prefecture":"北海道","city":"石狩市","street":"浜益区送毛"},{"zipCode":"0613107","prefectureKana":"ﾎｯｶｲﾄﾞｳ","cityKana":"ｲｼｶﾘｼ","streetKana":"ﾊﾏﾏｽｸｶｼﾜｷﾞ","prefecture":"北海道","city":"石狩市","street":"浜益区柏木"},{"zipCode":"0613106","prefectureKana":"ﾎｯｶｲﾄﾞｳ","cityKana":"ｲｼｶﾘｼ","streetKana":"ﾊﾏﾏｽｸｶﾜｼﾓ","prefecture":"北海道","city":"石狩市","street":"浜益区川下"},{"zipCode":"0613102","prefectureKana":"ﾎｯｶｲﾄﾞｳ","cityKana":"ｲｼｶﾘｼ","streetKana":"ﾊﾏﾏｽｸｸﾝﾍﾞﾂ","prefecture":"北海道","city":"石狩市","street":"浜益区群別"},{"zipCode":"0613113","prefectureKana":"ﾎｯｶｲﾄﾞｳ","cityKana":"ｲｼｶﾘｼ","streetKana":"ﾊﾏﾏｽｸｺﾞｷﾋﾞﾙ","prefecture":"北海道","city":"石狩市","street":"浜益区濃昼"},{"zipCode":"0613109","prefectureKana":"ﾎｯｶｲﾄﾞｳ","cityKana":"ｲｼｶﾘｼ","streetKana":"ﾊﾏﾏｽｸｺﾞﾘｮｳﾁ","prefecture":"北海道","city":"石狩市","street":"浜益区御料地"},{"zipCode":"0613105","prefectureKana":"ﾎｯｶｲﾄﾞｳ","cityKana":"ｲｼｶﾘｼ","streetKana":"ﾊﾏﾏｽｸﾁﾖｼﾍﾞﾂ","prefecture":"北海道","city":"石狩市","street":"浜益区千代志別"},{"zipCode":"0613104","prefectureKana":"ﾎｯｶｲﾄﾞｳ","cityKana":"ｲｼｶﾘｼ","streetKana":"ﾊﾏﾏｽｸﾄｺﾀﾝ","prefecture":"北海道","city":"石狩市","street":"浜益区床丹"},{"zipCode":"0613101","prefectureKana":"ﾎｯｶｲﾄﾞｳ","cityKana":"ｲｼｶﾘｼ","streetKana":"ﾊﾏﾏｽｸﾊﾏﾏｽ","prefecture":"北海道","city":"石狩市","street":"浜益区浜益"},{"zipCode":"0613111","prefectureKana":"ﾎｯｶｲﾄﾞｳ","cityKana":"ｲｼｶﾘｼ","streetKana":"ﾊﾏﾏｽｸﾋﾞｼｬﾍﾞﾂ","prefecture":"北海道","city":"石狩市","street":"浜益区毘砂別"},{"zipCode":"0613103","prefectureKana":"ﾎｯｶｲﾄﾞｳ","cityKana":"ｲｼｶﾘｼ","streetKana":"ﾊﾏﾏｽｸﾎﾛ","prefecture":"北海道","city":"石狩市","street":"浜益区幌"},{"zipCode":"0613108","prefectureKana":"ﾎｯｶｲﾄﾞｳ","cityKana":"ｲｼｶﾘｼ","streetKana":"ﾊﾏﾏｽｸﾐﾀ","prefecture":"北海道","city":"石狩市","street":"浜益区実田"},{"zipCode":"0613371","prefectureKana":"ﾎｯｶｲﾄﾞｳ","cityKana":"ｲｼｶﾘｼ","streetKana":"ﾊﾏﾏﾁ","prefecture":"北海道","city":"石狩市","street":"浜町"},{"zipCode":"0613281","prefectureKana":"ﾎｯｶｲﾄﾞｳ","cityKana":"ｲｼｶﾘｼ","streetKana":"ﾊﾞﾝﾅｸﾞﾛ1ｼﾞｮｳ","prefecture":"北海道","city":"石狩市","street":"花畔一条"},{"zipCode":"0613282","prefectureKana":"ﾎｯｶｲﾄﾞｳ","cityKana":"ｲｼｶﾘｼ","streetKana":"ﾊﾞﾝﾅｸﾞﾛ2ｼﾞｮｳ","prefecture":"北海道","city":"石狩市","street":"花畔二条"},{"zipCode":"0613283","prefectureKana":"ﾎｯｶｲﾄﾞｳ","cityKana":"ｲｼｶﾘｼ","streetKana":"ﾊﾞﾝﾅｸﾞﾛ3ｼﾞｮｳ","prefecture":"北海道","city":"石狩市","street":"花畔三条"},{"zipCode":"0613284","prefectureKana":"ﾎｯｶｲﾄﾞｳ","cityKana":"ｲｼｶﾘｼ","streetKana":"ﾊﾞﾝﾅｸﾞﾛ4ｼﾞｮｳ","prefecture":"北海道","city":"石狩市","street":"花畔四条"},{"zipCode":"0613218","prefectureKana":"ﾎｯｶｲﾄﾞｳ","cityKana":"ｲｼｶﾘｼ","streetKana":"ﾊﾞﾝﾅｸﾞﾛ(ｿﾉﾀ)","prefecture":"北海道","city":"石狩市","street":"花畔（その他）"},{"zipCode":"0613368","prefectureKana":"ﾎｯｶｲﾄﾞｳ","cityKana":"ｲｼｶﾘｼ","streetKana":"ﾋﾞﾄｲ","prefecture":"北海道","city":"石狩市","street":"美登位"},{"zipCode":"0613378","prefectureKana":"ﾎｯｶｲﾄﾞｳ","cityKana":"ｲｼｶﾘｼ","streetKana":"ﾌﾅﾊﾞﾁｮｳ","prefecture":"北海道","city":"石狩市","street":"船場町"},{"zipCode":"0613372","prefectureKana":"ﾎｯｶｲﾄﾞｳ","cityKana":"ｲｼｶﾘｼ","streetKana":"ﾍﾞﾝﾃﾝﾁｮｳ","prefecture":"北海道","city":"石狩市","street":"弁天町"},{"zipCode":"0613375","prefectureKana":"ﾎｯｶｲﾄﾞｳ","cityKana":"ｲｼｶﾘｼ","streetKana":"ﾎﾝﾁｮｳ","prefecture":"北海道","city":"石狩市","street":"本町"},{"zipCode":"0613483","prefectureKana":"ﾎｯｶｲﾄﾞｳ","cityKana":"ｲｼｶﾘｼ","streetKana":"ﾐﾄﾞﾘｶﾞﾊﾗ","prefecture":"北海道","city":"石狩市","street":"緑ケ原"},{"zipCode":"0613376","prefectureKana":"ﾎｯｶｲﾄﾞｳ","cityKana":"ｲｼｶﾘｼ","streetKana":"ﾖｺﾏﾁ","prefecture":"北海道","city":"石狩市","street":"横町"},{"zipCode":"0613230","prefectureKana":"ﾎｯｶｲﾄﾞｳ","cityKana":"ｲｼｶﾘｼ","streetKana":"ﾘｮｸｴﾝﾀﾞｲﾁｭｳｵｳ","prefecture":"北海道","city":"石狩市","street":"緑苑台中央"},{"zipCode":"0613231","prefectureKana":"ﾎｯｶｲﾄﾞｳ","cityKana":"ｲｼｶﾘｼ","streetKana":"ﾘｮｸｴﾝﾀﾞｲﾆｼ1ｼﾞｮｳ","prefecture":"北海道","city":"石狩市","street":"緑苑台西一条"},{"zipCode":"0613232","prefectureKana":"ﾎｯｶｲﾄﾞｳ","cityKana":"ｲｼｶﾘｼ","streetKana":"ﾘｮｸｴﾝﾀﾞｲﾆｼ2ｼﾞｮｳ","prefecture":"北海道","city":"石狩市","street":"緑苑台西二条"},{"zipCode":"0613221","prefectureKana":"ﾎｯｶｲﾄﾞｳ","cityKana":"ｲｼｶﾘｼ","streetKana":"ﾘｮｸｴﾝﾀﾞｲﾋｶﾞｼ1ｼﾞｮｳ","prefecture":"北海道","city":"石狩市","street":"緑苑台東一条"},{"zipCode":"0613222","prefectureKana":"ﾎｯｶｲﾄﾞｳ","cityKana":"ｲｼｶﾘｼ","streetKana":"ﾘｮｸｴﾝﾀﾞｲﾋｶﾞｼ2ｼﾞｮｳ","prefecture":"北海道","city":"石狩市","street":"緑苑台東二条"},{"zipCode":"0613223","prefectureKana":"ﾎｯｶｲﾄﾞｳ","cityKana":"ｲｼｶﾘｼ","streetKana":"ﾘｮｸｴﾝﾀﾞｲﾋｶﾞｼ3ｼﾞｮｳ","prefecture":"北海道","city":"石狩市","street":"緑苑台東三条"},{"zipCode":"0613363","prefectureKana":"ﾎｯｶｲﾄﾞｳ","cityKana":"ｲｼｶﾘｼ","streetKana":"ﾜｶｵｲﾁｮｳ","prefecture":"北海道","city":"石狩市","street":"若生町"},{"zipCode":"0610200","prefectureKana":"ﾎｯｶｲﾄﾞｳ","cityKana":"ｲｼｶﾘｸﾞﾝﾄｳﾍﾞﾂﾁｮｳ","streetKana":"ｲｶﾆｹｲｻｲｶﾞﾅｲﾊﾞｱｲ","prefecture":"北海道","city":"石狩郡当別町","street":"以下に掲載がない場合"},{"zipCode":"0610201","prefectureKana":"ﾎｯｶｲﾄﾞｳ","cityKana":"ｲｼｶﾘｸﾞﾝﾄｳﾍﾞﾂﾁｮｳ","streetKana":"ｱｵﾔﾏ","prefecture":"北海道","city":"石狩郡当別町","street":"青山"},{"zipCode":"0610253","prefectureKana":"ﾎｯｶｲﾄﾞｳ","cityKana":"ｲｼｶﾘｸﾞﾝﾄｳﾍﾞﾂﾁｮｳ","streetKana":"ｱｵﾔﾏｵｸ2ﾊﾞﾝｶﾞﾜ","prefecture":"北海道","city":"石狩郡当別町","street":"青山奥二番川"},{"zipCode":"0610252","prefectureKana":"ﾎｯｶｲﾄﾞｳ","cityKana":"ｲｼｶﾘｸﾞﾝﾄｳﾍﾞﾂﾁｮｳ","streetKana":"ｱｵﾔﾏｵｸ3ﾊﾞﾝｶﾞﾜ","prefecture":"北海道","city":"石狩郡当別町","street":"青山奥三番川"},{"zipCode":"0610251","prefectureKana":"ﾎｯｶｲﾄﾞｳ","cityKana":"ｲｼｶﾘｸﾞﾝﾄｳﾍﾞﾂﾁｮｳ","streetKana":"ｱｵﾔﾏｵｸ4ﾊﾞﾝｶﾞﾜ","prefecture":"北海道","city":"石狩郡当別町","street":"青山奥四番川"},{"zipCode":"0610254","prefectureKana":"ﾎｯｶｲﾄﾞｳ","cityKana":"ｲｼｶﾘｸﾞﾝﾄｳﾍﾞﾂﾁｮｳ","streetKana":"ｱｵﾔﾏﾁｭｳｵｳ(ｱｵﾔﾏｵｸ)","prefecture":"北海道","city":"石狩郡当別町","street":"青山中央（青山奥）"},{"zipCode":"0610232","prefectureKana":"ﾎｯｶｲﾄﾞｳ","cityKana":"ｲｼｶﾘｸﾞﾝﾄｳﾍﾞﾂﾁｮｳ","streetKana":"ｶｽｶﾞﾁｮｳ","prefecture":"北海道","city":"石狩郡当別町","street":"春日町"},{"zipCode":"0610212","prefectureKana":"ﾎｯｶｲﾄﾞｳ","cityKana":"ｲｼｶﾘｸﾞﾝﾄｳﾍﾞﾂﾁｮｳ","streetKana":"ｶﾅｻﾞﾜ","prefecture":"北海道","city":"石狩郡当別町","street":"金沢"},{"zipCode":"0610218","prefectureKana":"ﾎｯｶｲﾄﾞｳ","cityKana":"ｲｼｶﾘｸﾞﾝﾄｳﾍﾞﾂﾁｮｳ","streetKana":"ｶﾊﾞﾄﾁｮｳ","prefecture":"北海道","city":"石狩郡当別町","street":"樺戸町"},{"zipCode":"0610207","prefectureKana":"ﾎｯｶｲﾄﾞｳ","cityKana":"ｲｼｶﾘｸﾞﾝﾄｳﾍﾞﾂﾁｮｳ","streetKana":"ｶﾐﾄｳﾍﾞﾂ","prefecture":"北海道","city":"石狩郡当別町","street":"上当別"},{"zipCode":"0613774","prefectureKana":"ﾎｯｶｲﾄﾞｳ","cityKana":"ｲｼｶﾘｸﾞﾝﾄｳﾍﾞﾂﾁｮｳ","streetKana":"ｶﾜｼﾓ(782-13､5363-7-8､5382-3､5405","prefecture":"北海道","city":"石狩郡当別町","street":"川下（７８２－１３、５３６３－７～８、５３８２－３、５４０５"},{"zipCode":"0613774","prefectureKana":"ﾎｯｶｲﾄﾞｳ","cityKana":"ｲｼｶﾘｸﾞﾝﾄｳﾍﾞﾂﾁｮｳ","streetKana":"-4､5407-5､5445-5446-4ﾊﾞﾝﾁ)","prefecture":"北海道","city":"石狩郡当別町","street":"－４、５４０７－５、５４４５～５４４６－４番地）"},{"zipCode":"0610206","prefectureKana":"ﾎｯｶｲﾄﾞｳ","cityKana":"ｲｼｶﾘｸﾞﾝﾄｳﾍﾞﾂﾁｮｳ","streetKana":"ｶﾜｼﾓ(ｿﾉﾀ)","prefecture":"北海道","city":"石狩郡当別町","street":"川下（その他）"},{"zipCode":"0610217","prefectureKana":"ﾎｯｶｲﾄﾞｳ","cityKana":"ｲｼｶﾘｸﾞﾝﾄｳﾍﾞﾂﾁｮｳ","streetKana":"ｻｲﾜｲﾁｮｳ","prefecture":"北海道","city":"石狩郡当別町","street":"幸町"},{"zipCode":"0610216","prefectureKana":"ﾎｯｶｲﾄﾞｳ","cityKana":"ｲｼｶﾘｸﾞﾝﾄｳﾍﾞﾂﾁｮｳ","streetKana":"ｻｶｴﾏﾁ","prefecture":"北海道","city":"石狩郡当別町","street":"栄町"},{"zipCode":"0613772","prefectureKana":"ﾎｯｶｲﾄﾞｳ","cityKana":"ｲｼｶﾘｸﾞﾝﾄｳﾍﾞﾂﾁｮｳ","streetKana":"ｼｼﾅｲ","prefecture":"北海道","city":"石狩郡当別町","street":"獅子内"},{"zipCode":"0610205","prefectureKana":"ﾎｯｶｲﾄﾞｳ","cityKana":"ｲｼｶﾘｸﾞﾝﾄｳﾍﾞﾂﾁｮｳ","streetKana":"ｼﾓｶﾜﾁｮｳ","prefecture":"北海道","city":"石狩郡当別町","street":"下川町"},{"zipCode":"0610233","prefectureKana":"ﾎｯｶｲﾄﾞｳ","cityKana":"ｲｼｶﾘｸﾞﾝﾄｳﾍﾞﾂﾁｮｳ","streetKana":"ｼﾗｶﾊﾞﾁｮｳ","prefecture":"北海道","city":"石狩郡当別町","street":"白樺町"},{"zipCode":"0613777","prefectureKana":"ﾎｯｶｲﾄﾞｳ","cityKana":"ｲｼｶﾘｸﾞﾝﾄｳﾍﾞﾂﾁｮｳ","streetKana":"ｽｳｪｰﾃﾞﾝﾋﾙｽﾞ","prefecture":"北海道","city":"石狩郡当別町","street":"スウェーデンヒルズ"},{"zipCode":"0610224","prefectureKana":"ﾎｯｶｲﾄﾞｳ","cityKana":"ｲｼｶﾘｸﾞﾝﾄｳﾍﾞﾂﾁｮｳ","streetKana":"ｽｴﾋﾛ","prefecture":"北海道","city":"石狩郡当別町","street":"末広"},{"zipCode":"0610227","prefectureKana":"ﾎｯｶｲﾄﾞｳ","cityKana":"ｲｼｶﾘｸﾞﾝﾄｳﾍﾞﾂﾁｮｳ","streetKana":"ｿﾉｵ","prefecture":"北海道","city":"石狩郡当別町","street":"園生"},{"zipCode":"0613771","prefectureKana":"ﾎｯｶｲﾄﾞｳ","cityKana":"ｲｼｶﾘｸﾞﾝﾄｳﾍﾞﾂﾁｮｳ","streetKana":"ﾀｶｵｶ","prefecture":"北海道","city":"石狩郡当別町","street":"高岡"},{"zipCode":"0610215","prefectureKana":"ﾎｯｶｲﾄﾞｳ","cityKana":"ｲｼｶﾘｸﾞﾝﾄｳﾍﾞﾂﾁｮｳ","streetKana":"ﾂｲｼｶﾘ","prefecture":"北海道","city":"石狩郡当別町","street":"対雁"},{"zipCode":"0613773","prefectureKana":"ﾎｯｶｲﾄﾞｳ","cityKana":"ｲｼｶﾘｸﾞﾝﾄｳﾍﾞﾂﾁｮｳ","streetKana":"ﾄｳﾍﾞﾂﾌﾞﾄ","prefecture":"北海道","city":"石狩郡当別町","street":"当別太"},{"zipCode":"0610211","prefectureKana":"ﾎｯｶｲﾄﾞｳ","cityKana":"ｲｼｶﾘｸﾞﾝﾄｳﾍﾞﾂﾁｮｳ","streetKana":"ﾅｶｺﾞﾔ","prefecture":"北海道","city":"石狩郡当別町","street":"中小屋"},{"zipCode":"0610226","prefectureKana":"ﾎｯｶｲﾄﾞｳ","cityKana":"ｲｼｶﾘｸﾞﾝﾄｳﾍﾞﾂﾁｮｳ","streetKana":"ﾆｼｷﾏﾁ","prefecture":"北海道","city":"石狩郡当別町","street":"錦町"},{"zipCode":"0610234","prefectureKana":"ﾎｯｶｲﾄﾞｳ","cityKana":"ｲｼｶﾘｸﾞﾝﾄｳﾍﾞﾂﾁｮｳ","streetKana":"ﾆｼﾏﾁ","prefecture":"北海道","city":"石狩郡当別町","street":"西町"},{"zipCode":"0610213","prefectureKana":"ﾎｯｶｲﾄﾞｳ","cityKana":"ｲｼｶﾘｸﾞﾝﾄｳﾍﾞﾂﾁｮｳ","streetKana":"ﾋｶﾞｼｳﾗ","prefecture":"北海道","city":"石狩郡当別町","street":"東裏"},{"zipCode":"0610221","prefectureKana":"ﾎｯｶｲﾄﾞｳ","cityKana":"ｲｼｶﾘｸﾞﾝﾄｳﾍﾞﾂﾁｮｳ","streetKana":"ﾋｶﾞｼﾏﾁ","prefecture":"北海道","city":"石狩郡当別町","street":"東町"},{"zipCode":"0613775","prefectureKana":"ﾎｯｶｲﾄﾞｳ","cityKana":"ｲｼｶﾘｸﾞﾝﾄｳﾍﾞﾂﾁｮｳ","streetKana":"ﾋﾞﾄｴ(ｿﾉﾀ)","prefecture":"北海道","city":"石狩郡当別町","street":"ビトエ（その他）"},{"zipCode":"0613779","prefectureKana":"ﾎｯｶｲﾄﾞｳ","cityKana":"ｲｼｶﾘｸﾞﾝﾄｳﾍﾞﾂﾁｮｳ","streetKana":"ﾌﾄﾐｽﾀｰﾗｲﾄ","prefecture":"北海道","city":"石狩郡当別町","street":"太美スターライト"},{"zipCode":"0613776","prefectureKana":"ﾎｯｶｲﾄﾞｳ","cityKana":"ｲｼｶﾘｸﾞﾝﾄｳﾍﾞﾂﾁｮｳ","streetKana":"ﾌﾄﾐﾁｮｳ","prefecture":"北海道","city":"石狩郡当別町","street":"太美町"},{"zipCode":"0613778","prefectureKana":"ﾎｯｶｲﾄﾞｳ","cityKana":"ｲｼｶﾘｸﾞﾝﾄｳﾍﾞﾂﾁｮｳ","streetKana":"ﾌﾄﾐﾐﾅﾐ","prefecture":"北海道","city":"石狩郡当別町","street":"太美南"},{"zipCode":"0610208","prefectureKana":"ﾎｯｶｲﾄﾞｳ","cityKana":"ｲｼｶﾘｸﾞﾝﾄｳﾍﾞﾂﾁｮｳ","streetKana":"ﾍﾞﾝｹﾍﾞﾂ","prefecture":"北海道","city":"石狩郡当別町","street":"弁華別"},{"zipCode":"0610235","prefectureKana":"ﾎｯｶｲﾄﾞｳ","cityKana":"ｲｼｶﾘｸﾞﾝﾄｳﾍﾞﾂﾁｮｳ","streetKana":"ﾎｸｴｲﾁｮｳ","prefecture":"北海道","city":"石狩郡当別町","street":"北栄町"},{"zipCode":"0610225","prefectureKana":"ﾎｯｶｲﾄﾞｳ","cityKana":"ｲｼｶﾘｸﾞﾝﾄｳﾍﾞﾂﾁｮｳ","streetKana":"ﾐｻﾄ","prefecture":"北海道","city":"石狩郡当別町","street":"美里"},{"zipCode":"0610203","prefectureKana":"ﾎｯｶｲﾄﾞｳ","cityKana":"ｲｼｶﾘｸﾞﾝﾄｳﾍﾞﾂﾁｮｳ","streetKana":"ﾐﾄﾞﾘﾉ","prefecture":"北海道","city":"石狩郡当別町","street":"みどり野"},{"zipCode":"0610228","prefectureKana":"ﾎｯｶｲﾄﾞｳ","cityKana":"ｲｼｶﾘｸﾞﾝﾄｳﾍﾞﾂﾁｮｳ","streetKana":"ﾐﾄﾞﾘﾏﾁ","prefecture":"北海道","city":"石狩郡当別町","street":"緑町"},{"zipCode":"0610222","prefectureKana":"ﾎｯｶｲﾄﾞｳ","cityKana":"ｲｼｶﾘｸﾞﾝﾄｳﾍﾞﾂﾁｮｳ","streetKana":"ﾓﾄﾏﾁ","prefecture":"北海道","city":"石狩郡当別町","street":"元町"},{"zipCode":"0610202","prefectureKana":"ﾎｯｶｲﾄﾞｳ","cityKana":"ｲｼｶﾘｸﾞﾝﾄｳﾍﾞﾂﾁｮｳ","streetKana":"ﾓﾍｲｻﾞﾜ","prefecture":"北海道","city":"石狩郡当別町","street":"茂平沢"},{"zipCode":"0610223","prefectureKana":"ﾎｯｶｲﾄﾞｳ","cityKana":"ｲｼｶﾘｸﾞﾝﾄｳﾍﾞﾂﾁｮｳ","streetKana":"ﾔﾖｲ","prefecture":"北海道","city":"石狩郡当別町","street":"弥生"},{"zipCode":"0610231","prefectureKana":"ﾎｯｶｲﾄﾞｳ","cityKana":"ｲｼｶﾘｸﾞﾝﾄｳﾍﾞﾂﾁｮｳ","streetKana":"ﾛｯｹﾝﾁｮｳ","prefecture":"北海道","city":"石狩郡当別町","street":"六軒町"},{"zipCode":"0610204","prefectureKana":"ﾎｯｶｲﾄﾞｳ","cityKana":"ｲｼｶﾘｸﾞﾝﾄｳﾍﾞﾂﾁｮｳ","streetKana":"ﾜｶﾊﾞ","prefecture":"北海道","city":"石狩郡当別町","street":"若葉"},{"zipCode":"0610214","prefectureKana":"ﾎｯｶｲﾄﾞｳ","cityKana":"ｲｼｶﾘｸﾞﾝﾄｳﾍﾞﾂﾁｮｳ","streetKana":"ﾜﾗﾋﾞﾀｲ","prefecture":"北海道","city":"石狩郡当別町","street":"蕨岱"},{"zipCode":"0610500","prefectureKana":"ﾎｯｶｲﾄﾞｳ","cityKana":"ｶﾊﾞﾄｸﾞﾝﾂｷｶﾞﾀﾁｮｳ","streetKana":"ｲｶﾆｹｲｻｲｶﾞﾅｲﾊﾞｱｲ","prefecture":"北海道","city":"樺戸郡月形町","street":"以下に掲載がない場合"},{"zipCode":"0610518","prefectureKana":"ﾎｯｶｲﾄﾞｳ","cityKana":"ｶﾊﾞﾄｸﾞﾝﾂｷｶﾞﾀﾁｮｳ","streetKana":"ｱｶｶﾞﾜ","prefecture":"北海道","city":"樺戸郡月形町","street":"赤川"},{"zipCode":"0610514","prefectureKana":"ﾎｯｶｲﾄﾞｳ","cityKana":"ｶﾊﾞﾄｸﾞﾝﾂｷｶﾞﾀﾁｮｳ","streetKana":"ｱｻﾞﾌﾞ","prefecture":"北海道","city":"樺戸郡月形町","street":"麻生"},{"zipCode":"0610517","prefectureKana":"ﾎｯｶｲﾄﾞｳ","cityKana":"ｶﾊﾞﾄｸﾞﾝﾂｷｶﾞﾀﾁｮｳ","streetKana":"ｷﾀｺﾞｳ","prefecture":"北海道","city":"樺戸郡月形町","street":"北郷"},{"zipCode":"0610502","prefectureKana":"ﾎｯｶｲﾄﾞｳ","cityKana":"ｶﾊﾞﾄｸﾞﾝﾂｷｶﾞﾀﾁｮｳ","streetKana":"ｷﾀﾉｳｼﾞｮｳ","prefecture":"北海道","city":"樺戸郡月形町","street":"北農場"},{"zipCode":"0610527","prefectureKana":"ﾎｯｶｲﾄﾞｳ","cityKana":"ｶﾊﾞﾄｸﾞﾝﾂｷｶﾞﾀﾁｮｳ","streetKana":"ｷｮｳﾜ","prefecture":"北海道","city":"樺戸郡月形町","street":"共和"},{"zipCode":"0610508","prefectureKana":"ﾎｯｶｲﾄﾞｳ","cityKana":"ｶﾊﾞﾄｸﾞﾝﾂｷｶﾞﾀﾁｮｳ","streetKana":"ｺｳｴｲ","prefecture":"北海道","city":"樺戸郡月形町","street":"厚栄"},{"zipCode":"0610515","prefectureKana":"ﾎｯｶｲﾄﾞｳ","cityKana":"ｶﾊﾞﾄｸﾞﾝﾂｷｶﾞﾀﾁｮｳ","streetKana":"ｺﾞｺｳﾁﾔﾏ","prefecture":"北海道","city":"樺戸郡月形町","street":"五耕地山"},{"zipCode":"0610505","prefectureKana":"ﾎｯｶｲﾄﾞｳ","cityKana":"ｶﾊﾞﾄｸﾞﾝﾂｷｶﾞﾀﾁｮｳ","streetKana":"ｻｯﾋﾟﾅｲ","prefecture":"北海道","city":"樺戸郡月形町","street":"札比内"},{"zipCode":"0610512","prefectureKana":"ﾎｯｶｲﾄﾞｳ","cityKana":"ｶﾊﾞﾄｸﾞﾝﾂｷｶﾞﾀﾁｮｳ","streetKana":"ｼﾅﾝ","prefecture":"北海道","city":"樺戸郡月形町","street":"市南"},{"zipCode":"0610511","prefectureKana":"ﾎｯｶｲﾄﾞｳ","cityKana":"ｶﾊﾞﾄｸﾞﾝﾂｷｶﾞﾀﾁｮｳ","streetKana":"ｼﾎｸ","prefecture":"北海道","city":"樺戸郡月形町","street":"市北"},{"zipCode":"0610523","prefectureKana":"ﾎｯｶｲﾄﾞｳ","cityKana":"ｶﾊﾞﾄｸﾞﾝﾂｷｶﾞﾀﾁｮｳ","streetKana":"ｼｮｳｴｲ","prefecture":"北海道","city":"樺戸郡月形町","street":"昭栄"},{"zipCode":"0610525","prefectureKana":"ﾎｯｶｲﾄﾞｳ","cityKana":"ｶﾊﾞﾄｸﾞﾝﾂｷｶﾞﾀﾁｮｳ","streetKana":"ｼﾝｴｲ","prefecture":"北海道","city":"樺戸郡月形町","street":"新栄"},{"zipCode":"0610506","prefectureKana":"ﾎｯｶｲﾄﾞｳ","cityKana":"ｶﾊﾞﾄｸﾞﾝﾂｷｶﾞﾀﾁｮｳ","streetKana":"ｼﾝｸﾞｳ","prefecture":"北海道","city":"樺戸郡月形町","street":"新宮"},{"zipCode":"0610501","prefectureKana":"ﾎｯｶｲﾄﾞｳ","cityKana":"ｶﾊﾞﾄｸﾞﾝﾂｷｶﾞﾀﾁｮｳ","streetKana":"ｼﾝｾｲ","prefecture":"北海道","city":"樺戸郡月形町","street":"新生"},{"zipCode":"0610526","prefectureKana":"ﾎｯｶｲﾄﾞｳ","cityKana":"ｶﾊﾞﾄｸﾞﾝﾂｷｶﾞﾀﾁｮｳ","streetKana":"ｼﾝﾃﾞﾝ","prefecture":"北海道","city":"樺戸郡月形町","street":"新田"},{"zipCode":"0610504","prefectureKana":"ﾎｯｶｲﾄﾞｳ","cityKana":"ｶﾊﾞﾄｸﾞﾝﾂｷｶﾞﾀﾁｮｳ","streetKana":"ｼﾝﾄﾐ","prefecture":"北海道","city":"樺戸郡月形町","street":"新富"},{"zipCode":"0610516","prefectureKana":"ﾎｯｶｲﾄﾞｳ","cityKana":"ｶﾊﾞﾄｸﾞﾝﾂｷｶﾞﾀﾁｮｳ","streetKana":"ﾁﾗｲｵﾂ","prefecture":"北海道","city":"樺戸郡月形町","street":"知来乙"},{"zipCode":"0610528","prefectureKana":"ﾎｯｶｲﾄﾞｳ","cityKana":"ｶﾊﾞﾄｸﾞﾝﾂｷｶﾞﾀﾁｮｳ","streetKana":"ﾂｷｶﾞｵｶ","prefecture":"北海道","city":"樺戸郡月形町","street":"月ケ岡"},{"zipCode":"0610529","prefectureKana":"ﾎｯｶｲﾄﾞｳ","cityKana":"ｶﾊﾞﾄｸﾞﾝﾂｷｶﾞﾀﾁｮｳ","streetKana":"ﾂｷｶﾞﾓﾘ","prefecture":"北海道","city":"樺戸郡月形町","street":"月ヶ杜"},{"zipCode":"0610522","prefectureKana":"ﾎｯｶｲﾄﾞｳ","cityKana":"ｶﾊﾞﾄｸﾞﾝﾂｷｶﾞﾀﾁｮｳ","streetKana":"ﾂｷﾊﾏ","prefecture":"北海道","city":"樺戸郡月形町","street":"月浜"},{"zipCode":"0610503","prefectureKana":"ﾎｯｶｲﾄﾞｳ","cityKana":"ｶﾊﾞﾄｸﾞﾝﾂｷｶﾞﾀﾁｮｳ","streetKana":"ﾄﾖｶﾞｵｶ","prefecture":"北海道","city":"樺戸郡月形町","street":"豊ケ丘"},{"zipCode":"0610513","prefectureKana":"ﾎｯｶｲﾄﾞｳ","cityKana":"ｶﾊﾞﾄｸﾞﾝﾂｷｶﾞﾀﾁｮｳ","streetKana":"ﾉｳｼﾞｶｲ","prefecture":"北海道","city":"樺戸郡月形町","street":"農事会"},{"zipCode":"0610521","prefectureKana":"ﾎｯｶｲﾄﾞｳ","cityKana":"ｶﾊﾞﾄｸﾞﾝﾂｷｶﾞﾀﾁｮｳ","streetKana":"ﾐﾅﾐｺｳﾁ","prefecture":"北海道","city":"樺戸郡月形町","street":"南耕地"},{"zipCode":"0610507","prefectureKana":"ﾎｯｶｲﾄﾞｳ","cityKana":"ｶﾊﾞﾄｸﾞﾝﾂｷｶﾞﾀﾁｮｳ","streetKana":"ﾐﾅﾐｻｯﾋﾟﾅｲ","prefecture":"北海道","city":"樺戸郡月形町","street":"南札比内"},{"zipCode":"0610524","prefectureKana":"ﾎｯｶｲﾄﾞｳ","cityKana":"ｶﾊﾞﾄｸﾞﾝﾂｷｶﾞﾀﾁｮｳ","streetKana":"ﾐﾅﾐｼﾝﾃﾞﾝ","prefecture":"北海道","city":"樺戸郡月形町","street":"南新田"},{"zipCode":"0610600","prefectureKana":"ﾎｯｶｲﾄﾞｳ","cityKana":"ｶﾊﾞﾄｸﾞﾝｳﾗｳｽﾁｮｳ","streetKana":"ｲｶﾆｹｲｻｲｶﾞﾅｲﾊﾞｱｲ","prefecture":"北海道","city":"樺戸郡浦臼町","street":"以下に掲載がない場合"},{"zipCode":"0610611","prefectureKana":"ﾎｯｶｲﾄﾞｳ","cityKana":"ｶﾊﾞﾄｸﾞﾝｳﾗｳｽﾁｮｳ","streetKana":"ｳﾗｳｽﾀﾞｲ1","prefecture":"北海道","city":"樺戸郡浦臼町","street":"浦臼第１"},{"zipCode":"0610612","prefectureKana":"ﾎｯｶｲﾄﾞｳ","cityKana":"ｶﾊﾞﾄｸﾞﾝｳﾗｳｽﾁｮｳ","streetKana":"ｳﾗｳｽﾀﾞｲ2","prefecture":"北海道","city":"樺戸郡浦臼町","street":"浦臼第２"},{"zipCode":"0610613","prefectureKana":"ﾎｯｶｲﾄﾞｳ","cityKana":"ｶﾊﾞﾄｸﾞﾝｳﾗｳｽﾁｮｳ","streetKana":"ｳﾗｳｽﾀﾞｲ3","prefecture":"北海道","city":"樺戸郡浦臼町","street":"浦臼第３"},{"zipCode":"0610614","prefectureKana":"ﾎｯｶｲﾄﾞｳ","cityKana":"ｶﾊﾞﾄｸﾞﾝｳﾗｳｽﾁｮｳ","streetKana":"ｳﾗｳｽﾀﾞｲ4","prefecture":"北海道","city":"樺戸郡浦臼町","street":"浦臼第４"},{"zipCode":"0610615","prefectureKana":"ﾎｯｶｲﾄﾞｳ","cityKana":"ｶﾊﾞﾄｸﾞﾝｳﾗｳｽﾁｮｳ","streetKana":"ｳﾗｳｽﾀﾞｲ5","prefecture":"北海道","city":"樺戸郡浦臼町","street":"浦臼第５"},{"zipCode":"0610616","prefectureKana":"ﾎｯｶｲﾄﾞｳ","cityKana":"ｶﾊﾞﾄｸﾞﾝｳﾗｳｽﾁｮｳ","streetKana":"ｳﾗｳｽﾀﾞｲ6","prefecture":"北海道","city":"樺戸郡浦臼町","street":"浦臼第６"},{"zipCode":"0610617","prefectureKana":"ﾎｯｶｲﾄﾞｳ","cityKana":"ｶﾊﾞﾄｸﾞﾝｳﾗｳｽﾁｮｳ","streetKana":"ｳﾗｳｽﾀﾞｲ7","prefecture":"北海道","city":"樺戸郡浦臼町","street":"浦臼第７"},{"zipCode":"0610618","prefectureKana":"ﾎｯｶｲﾄﾞｳ","cityKana":"ｶﾊﾞﾄｸﾞﾝｳﾗｳｽﾁｮｳ","streetKana":"ｳﾗｳｽﾀﾞｲ8","prefecture":"北海道","city":"樺戸郡浦臼町","street":"浦臼第８"},{"zipCode":"0610621","prefectureKana":"ﾎｯｶｲﾄﾞｳ","cityKana":"ｶﾊﾞﾄｸﾞﾝｳﾗｳｽﾁｮｳ","streetKana":"ｵｿｷﾅｲﾀﾞｲ1","prefecture":"北海道","city":"樺戸郡浦臼町","street":"晩生内第１"},{"zipCode":"0610622","prefectureKana":"ﾎｯｶｲﾄﾞｳ","cityKana":"ｶﾊﾞﾄｸﾞﾝｳﾗｳｽﾁｮｳ","streetKana":"ｵｿｷﾅｲﾀﾞｲ2","prefecture":"北海道","city":"樺戸郡浦臼町","street":"晩生内第２"},{"zipCode":"0610623","prefectureKana":"ﾎｯｶｲﾄﾞｳ","cityKana":"ｶﾊﾞﾄｸﾞﾝｳﾗｳｽﾁｮｳ","streetKana":"ｵｿｷﾅｲﾀﾞｲ3","prefecture":"北海道","city":"樺戸郡浦臼町","street":"晩生内第３"},{"zipCode":"0610601","prefectureKana":"ﾎｯｶｲﾄﾞｳ","cityKana":"ｶﾊﾞﾄｸﾞﾝｳﾗｳｽﾁｮｳ","streetKana":"ﾂﾙﾇﾏﾀﾞｲ1","prefecture":"北海道","city":"樺戸郡浦臼町","street":"鶴沼第１"},{"zipCode":"0610602","prefectureKana":"ﾎｯｶｲﾄﾞｳ","cityKana":"ｶﾊﾞﾄｸﾞﾝｳﾗｳｽﾁｮｳ","streetKana":"ﾂﾙﾇﾏﾀﾞｲ2","prefecture":"北海道","city":"樺戸郡浦臼町","street":"鶴沼第２"},{"zipCode":"0610603","prefectureKana":"ﾎｯｶｲﾄﾞｳ","cityKana":"ｶﾊﾞﾄｸﾞﾝｳﾗｳｽﾁｮｳ","streetKana":"ﾂﾙﾇﾏﾀﾞｲ3","prefecture":"北海道","city":"樺戸郡浦臼町","street":"鶴沼第３"}]