[{"zipCode":"0711171","prefectureKana":"ﾎｯｶｲﾄﾞｳ","cityKana":"ｱｻﾋｶﾜｼ","streetKana":"ｴﾀﾝﾍﾞﾂﾁｮｳｼﾐｽﾞ","prefecture":"北海道","city":"旭川市","street":"江丹別町清水"},{"zipCode":"0711172","prefectureKana":"ﾎｯｶｲﾄﾞｳ","cityKana":"ｱｻﾋｶﾜｼ","streetKana":"ｴﾀﾝﾍﾞﾂﾁｮｳﾀｸﾎｸ","prefecture":"北海道","city":"旭川市","street":"江丹別町拓北"},{"zipCode":"0711173","prefectureKana":"ﾎｯｶｲﾄﾞｳ","cityKana":"ｱｻﾋｶﾜｼ","streetKana":"ｴﾀﾝﾍﾞﾂﾁｮｳﾁｭｳｵｳ","prefecture":"北海道","city":"旭川市","street":"江丹別町中央"},{"zipCode":"0711174","prefectureKana":"ﾎｯｶｲﾄﾞｳ","cityKana":"ｱｻﾋｶﾜｼ","streetKana":"ｴﾀﾝﾍﾞﾂﾁｮｳﾄﾐﾊﾗ","prefecture":"北海道","city":"旭川市","street":"江丹別町富原"},{"zipCode":"0711175","prefectureKana":"ﾎｯｶｲﾄﾞｳ","cityKana":"ｱｻﾋｶﾜｼ","streetKana":"ｴﾀﾝﾍﾞﾂﾁｮｳﾅｶｿﾞﾉ","prefecture":"北海道","city":"旭川市","street":"江丹別町中園"},{"zipCode":"0711176","prefectureKana":"ﾎｯｶｲﾄﾞｳ","cityKana":"ｱｻﾋｶﾜｼ","streetKana":"ｴﾀﾝﾍﾞﾂﾁｮｳﾆｼｻﾄ","prefecture":"北海道","city":"旭川市","street":"江丹別町西里"},{"zipCode":"0711177","prefectureKana":"ﾎｯｶｲﾄﾞｳ","cityKana":"ｱｻﾋｶﾜｼ","streetKana":"ｴﾀﾝﾍﾞﾂﾁｮｳﾖｼﾉ","prefecture":"北海道","city":"旭川市","street":"江丹別町芳野"},{"zipCode":"0718141","prefectureKana":"ﾎｯｶｲﾄﾞｳ","cityKana":"ｱｻﾋｶﾜｼ","streetKana":"ｼｭﾝｺｳﾀﾞｲ1ｼﾞｮｳ","prefecture":"北海道","city":"旭川市","street":"春光台１条"},{"zipCode":"0718142","prefectureKana":"ﾎｯｶｲﾄﾞｳ","cityKana":"ｱｻﾋｶﾜｼ","streetKana":"ｼｭﾝｺｳﾀﾞｲ2ｼﾞｮｳ","prefecture":"北海道","city":"旭川市","street":"春光台２条"},{"zipCode":"0718143","prefectureKana":"ﾎｯｶｲﾄﾞｳ","cityKana":"ｱｻﾋｶﾜｼ","streetKana":"ｼｭﾝｺｳﾀﾞｲ3ｼﾞｮｳ","prefecture":"北海道","city":"旭川市","street":"春光台３条"},{"zipCode":"0718144","prefectureKana":"ﾎｯｶｲﾄﾞｳ","cityKana":"ｱｻﾋｶﾜｼ","streetKana":"ｼｭﾝｺｳﾀﾞｲ4ｼﾞｮｳ","prefecture":"北海道","city":"旭川市","street":"春光台４条"},{"zipCode":"0718145","prefectureKana":"ﾎｯｶｲﾄﾞｳ","cityKana":"ｱｻﾋｶﾜｼ","streetKana":"ｼｭﾝｺｳﾀﾞｲ5ｼﾞｮｳ","prefecture":"北海道","city":"旭川市","street":"春光台５条"},{"zipCode":"0718131","prefectureKana":"ﾎｯｶｲﾄﾞｳ","cityKana":"ｱｻﾋｶﾜｼ","streetKana":"ｽｴﾋﾛ1ｼﾞｮｳ","prefecture":"北海道","city":"旭川市","street":"末広１条"},{"zipCode":"0718132","prefectureKana":"ﾎｯｶｲﾄﾞｳ","cityKana":"ｱｻﾋｶﾜｼ","streetKana":"ｽｴﾋﾛ2ｼﾞｮｳ","prefecture":"北海道","city":"旭川市","street":"末広２条"},{"zipCode":"0718133","prefectureKana":"ﾎｯｶｲﾄﾞｳ","cityKana":"ｱｻﾋｶﾜｼ","streetKana":"ｽｴﾋﾛ3ｼﾞｮｳ","prefecture":"北海道","city":"旭川市","street":"末広３条"},{"zipCode":"0718134","prefectureKana":"ﾎｯｶｲﾄﾞｳ","cityKana":"ｱｻﾋｶﾜｼ","streetKana":"ｽｴﾋﾛ4ｼﾞｮｳ","prefecture":"北海道","city":"旭川市","street":"末広４条"},{"zipCode":"0718135","prefectureKana":"ﾎｯｶｲﾄﾞｳ","cityKana":"ｱｻﾋｶﾜｼ","streetKana":"ｽｴﾋﾛ5ｼﾞｮｳ","prefecture":"北海道","city":"旭川市","street":"末広５条"},{"zipCode":"0718136","prefectureKana":"ﾎｯｶｲﾄﾞｳ","cityKana":"ｱｻﾋｶﾜｼ","streetKana":"ｽｴﾋﾛ6ｼﾞｮｳ","prefecture":"北海道","city":"旭川市","street":"末広６条"},{"zipCode":"0718137","prefectureKana":"ﾎｯｶｲﾄﾞｳ","cityKana":"ｱｻﾋｶﾜｼ","streetKana":"ｽｴﾋﾛ7ｼﾞｮｳ","prefecture":"北海道","city":"旭川市","street":"末広７条"},{"zipCode":"0718138","prefectureKana":"ﾎｯｶｲﾄﾞｳ","cityKana":"ｱｻﾋｶﾜｼ","streetKana":"ｽｴﾋﾛ8ｼﾞｮｳ","prefecture":"北海道","city":"旭川市","street":"末広８条"},{"zipCode":"0718121","prefectureKana":"ﾎｯｶｲﾄﾞｳ","cityKana":"ｱｻﾋｶﾜｼ","streetKana":"ｽｴﾋﾛﾋｶﾞｼ1ｼﾞｮｳ","prefecture":"北海道","city":"旭川市","street":"末広東１条"},{"zipCode":"0718122","prefectureKana":"ﾎｯｶｲﾄﾞｳ","cityKana":"ｱｻﾋｶﾜｼ","streetKana":"ｽｴﾋﾛﾋｶﾞｼ2ｼﾞｮｳ","prefecture":"北海道","city":"旭川市","street":"末広東２条"},{"zipCode":"0718123","prefectureKana":"ﾎｯｶｲﾄﾞｳ","cityKana":"ｱｻﾋｶﾜｼ","streetKana":"ｽｴﾋﾛﾋｶﾞｼ3ｼﾞｮｳ","prefecture":"北海道","city":"旭川市","street":"末広東３条"},{"zipCode":"0710173","prefectureKana":"ﾎｯｶｲﾄﾞｳ","cityKana":"ｱｻﾋｶﾜｼ","streetKana":"ﾆｼｶｸﾞﾗｷﾀ1ｼﾞｮｳ","prefecture":"北海道","city":"旭川市","street":"西神楽北１条"},{"zipCode":"0710174","prefectureKana":"ﾎｯｶｲﾄﾞｳ","cityKana":"ｱｻﾋｶﾜｼ","streetKana":"ﾆｼｶｸﾞﾗｷﾀ2ｼﾞｮｳ","prefecture":"北海道","city":"旭川市","street":"西神楽北２条"},{"zipCode":"0710171","prefectureKana":"ﾎｯｶｲﾄﾞｳ","cityKana":"ｱｻﾋｶﾜｼ","streetKana":"ﾆｼｶｸﾞﾗﾐﾅﾐ1ｼﾞｮｳ","prefecture":"北海道","city":"旭川市","street":"西神楽南１条"},{"zipCode":"0710172","prefectureKana":"ﾎｯｶｲﾄﾞｳ","cityKana":"ｱｻﾋｶﾜｼ","streetKana":"ﾆｼｶｸﾞﾗﾐﾅﾐ2ｼﾞｮｳ","prefecture":"北海道","city":"旭川市","street":"西神楽南２条"},{"zipCode":"0710186","prefectureKana":"ﾎｯｶｲﾄﾞｳ","cityKana":"ｱｻﾋｶﾜｼ","streetKana":"ﾆｼｶｸﾞﾗﾐﾅﾐ","prefecture":"北海道","city":"旭川市","street":"西神楽南"},{"zipCode":"0710184","prefectureKana":"ﾎｯｶｲﾄﾞｳ","cityKana":"ｱｻﾋｶﾜｼ","streetKana":"ﾆｼｶｸﾞﾗ4ｾﾝ","prefecture":"北海道","city":"旭川市","street":"西神楽４線"},{"zipCode":"0710185","prefectureKana":"ﾎｯｶｲﾄﾞｳ","cityKana":"ｱｻﾋｶﾜｼ","streetKana":"ﾆｼｶｸﾞﾗ5ｾﾝ","prefecture":"北海道","city":"旭川市","street":"西神楽５線"},{"zipCode":"0718101","prefectureKana":"ﾎｯｶｲﾄﾞｳ","cityKana":"ｱｻﾋｶﾜｼ","streetKana":"ﾋｶﾞｼﾀｶｽ1ｼﾞｮｳ","prefecture":"北海道","city":"旭川市","street":"東鷹栖１条"},{"zipCode":"0718102","prefectureKana":"ﾎｯｶｲﾄﾞｳ","cityKana":"ｱｻﾋｶﾜｼ","streetKana":"ﾋｶﾞｼﾀｶｽ2ｼﾞｮｳ","prefecture":"北海道","city":"旭川市","street":"東鷹栖２条"},{"zipCode":"0718103","prefectureKana":"ﾎｯｶｲﾄﾞｳ","cityKana":"ｱｻﾋｶﾜｼ","streetKana":"ﾋｶﾞｼﾀｶｽ3ｼﾞｮｳ","prefecture":"北海道","city":"旭川市","street":"東鷹栖３条"},{"zipCode":"0718104","prefectureKana":"ﾎｯｶｲﾄﾞｳ","cityKana":"ｱｻﾋｶﾜｼ","streetKana":"ﾋｶﾞｼﾀｶｽ4ｼﾞｮｳ","prefecture":"北海道","city":"旭川市","street":"東鷹栖４条"},{"zipCode":"0718151","prefectureKana":"ﾎｯｶｲﾄﾞｳ","cityKana":"ｱｻﾋｶﾜｼ","streetKana":"ﾋｶﾞｼﾀｶｽ1ｾﾝ","prefecture":"北海道","city":"旭川市","street":"東鷹栖１線"},{"zipCode":"0718152","prefectureKana":"ﾎｯｶｲﾄﾞｳ","cityKana":"ｱｻﾋｶﾜｼ","streetKana":"ﾋｶﾞｼﾀｶｽ2ｾﾝ","prefecture":"北海道","city":"旭川市","street":"東鷹栖２線"},{"zipCode":"0718153","prefectureKana":"ﾎｯｶｲﾄﾞｳ","cityKana":"ｱｻﾋｶﾜｼ","streetKana":"ﾋｶﾞｼﾀｶｽ3ｾﾝ","prefecture":"北海道","city":"旭川市","street":"東鷹栖３線"},{"zipCode":"0718154","prefectureKana":"ﾎｯｶｲﾄﾞｳ","cityKana":"ｱｻﾋｶﾜｼ","streetKana":"ﾋｶﾞｼﾀｶｽ4ｾﾝ","prefecture":"北海道","city":"旭川市","street":"東鷹栖４線"},{"zipCode":"0718155","prefectureKana":"ﾎｯｶｲﾄﾞｳ","cityKana":"ｱｻﾋｶﾜｼ","streetKana":"ﾋｶﾞｼﾀｶｽ5ｾﾝ","prefecture":"北海道","city":"旭川市","street":"東鷹栖５線"},{"zipCode":"0718156","prefectureKana":"ﾎｯｶｲﾄﾞｳ","cityKana":"ｱｻﾋｶﾜｼ","streetKana":"ﾋｶﾞｼﾀｶｽ6ｾﾝ","prefecture":"北海道","city":"旭川市","street":"東鷹栖６線"},{"zipCode":"0718157","prefectureKana":"ﾎｯｶｲﾄﾞｳ","cityKana":"ｱｻﾋｶﾜｼ","streetKana":"ﾋｶﾞｼﾀｶｽ7ｾﾝ","prefecture":"北海道","city":"旭川市","street":"東鷹栖７線"},{"zipCode":"0718158","prefectureKana":"ﾎｯｶｲﾄﾞｳ","cityKana":"ｱｻﾋｶﾜｼ","streetKana":"ﾋｶﾞｼﾀｶｽ8ｾﾝ","prefecture":"北海道","city":"旭川市","street":"東鷹栖８線"},{"zipCode":"0718159","prefectureKana":"ﾎｯｶｲﾄﾞｳ","cityKana":"ｱｻﾋｶﾜｼ","streetKana":"ﾋｶﾞｼﾀｶｽ9ｾﾝ","prefecture":"北海道","city":"旭川市","street":"東鷹栖９線"},{"zipCode":"0718160","prefectureKana":"ﾎｯｶｲﾄﾞｳ","cityKana":"ｱｻﾋｶﾜｼ","streetKana":"ﾋｶﾞｼﾀｶｽ10ｾﾝ","prefecture":"北海道","city":"旭川市","street":"東鷹栖１０線"},{"zipCode":"0718161","prefectureKana":"ﾎｯｶｲﾄﾞｳ","cityKana":"ｱｻﾋｶﾜｼ","streetKana":"ﾋｶﾞｼﾀｶｽ11ｾﾝ","prefecture":"北海道","city":"旭川市","street":"東鷹栖１１線"},{"zipCode":"0718162","prefectureKana":"ﾎｯｶｲﾄﾞｳ","cityKana":"ｱｻﾋｶﾜｼ","streetKana":"ﾋｶﾞｼﾀｶｽ12ｾﾝ","prefecture":"北海道","city":"旭川市","street":"東鷹栖１２線"},{"zipCode":"0718163","prefectureKana":"ﾎｯｶｲﾄﾞｳ","cityKana":"ｱｻﾋｶﾜｼ","streetKana":"ﾋｶﾞｼﾀｶｽ13ｾﾝ","prefecture":"北海道","city":"旭川市","street":"東鷹栖１３線"},{"zipCode":"0718164","prefectureKana":"ﾎｯｶｲﾄﾞｳ","cityKana":"ｱｻﾋｶﾜｼ","streetKana":"ﾋｶﾞｼﾀｶｽ14ｾﾝ","prefecture":"北海道","city":"旭川市","street":"東鷹栖１４線"},{"zipCode":"0718165","prefectureKana":"ﾎｯｶｲﾄﾞｳ","cityKana":"ｱｻﾋｶﾜｼ","streetKana":"ﾋｶﾞｼﾀｶｽ15ｾﾝ","prefecture":"北海道","city":"旭川市","street":"東鷹栖１５線"},{"zipCode":"0718111","prefectureKana":"ﾎｯｶｲﾄﾞｳ","cityKana":"ｱｻﾋｶﾜｼ","streetKana":"ﾋｶﾞｼﾀｶｽﾋｶﾞｼ1ｼﾞｮｳ","prefecture":"北海道","city":"旭川市","street":"東鷹栖東１条"},{"zipCode":"0718112","prefectureKana":"ﾎｯｶｲﾄﾞｳ","cityKana":"ｱｻﾋｶﾜｼ","streetKana":"ﾋｶﾞｼﾀｶｽﾋｶﾞｼ2ｼﾞｮｳ","prefecture":"北海道","city":"旭川市","street":"東鷹栖東２条"},{"zipCode":"0718113","prefectureKana":"ﾎｯｶｲﾄﾞｳ","cityKana":"ｱｻﾋｶﾜｼ","streetKana":"ﾋｶﾞｼﾀｶｽﾋｶﾞｼ3ｼﾞｮｳ","prefecture":"北海道","city":"旭川市","street":"東鷹栖東３条"},{"zipCode":"0718114","prefectureKana":"ﾎｯｶｲﾄﾞｳ","cityKana":"ｱｻﾋｶﾜｼ","streetKana":"ﾋｶﾞｼﾀｶｽﾋｶﾞｼ1ｾﾝ","prefecture":"北海道","city":"旭川市","street":"東鷹栖東１線"},{"zipCode":"0718171","prefectureKana":"ﾎｯｶｲﾄﾞｳ","cityKana":"ｱｻﾋｶﾜｼ","streetKana":"ﾋｶﾞｼﾔﾏ","prefecture":"北海道","city":"旭川市","street":"東山"},{"zipCode":"0718166","prefectureKana":"ﾎｯｶｲﾄﾞｳ","cityKana":"ｱｻﾋｶﾜｼ","streetKana":"ﾐﾄﾞﾘﾀﾞｲ","prefecture":"北海道","city":"旭川市","street":"緑台"},{"zipCode":"0711200","prefectureKana":"ﾎｯｶｲﾄﾞｳ","cityKana":"ｶﾐｶﾜｸﾞﾝﾀｶｽﾁｮｳ","streetKana":"ｲｶﾆｹｲｻｲｶﾞﾅｲﾊﾞｱｲ","prefecture":"北海道","city":"上川郡鷹栖町","street":"以下に掲載がない場合"},{"zipCode":"0711231","prefectureKana":"ﾎｯｶｲﾄﾞｳ","cityKana":"ｶﾐｶﾜｸﾞﾝﾀｶｽﾁｮｳ","streetKana":"ｷﾀﾉﾆｼ1ｼﾞｮｳ","prefecture":"北海道","city":"上川郡鷹栖町","street":"北野西一条"},{"zipCode":"0711232","prefectureKana":"ﾎｯｶｲﾄﾞｳ","cityKana":"ｶﾐｶﾜｸﾞﾝﾀｶｽﾁｮｳ","streetKana":"ｷﾀﾉﾆｼ2ｼﾞｮｳ","prefecture":"北海道","city":"上川郡鷹栖町","street":"北野西二条"},{"zipCode":"0711233","prefectureKana":"ﾎｯｶｲﾄﾞｳ","cityKana":"ｶﾐｶﾜｸﾞﾝﾀｶｽﾁｮｳ","streetKana":"ｷﾀﾉﾆｼ3ｼﾞｮｳ","prefecture":"北海道","city":"上川郡鷹栖町","street":"北野西三条"},{"zipCode":"0711234","prefectureKana":"ﾎｯｶｲﾄﾞｳ","cityKana":"ｶﾐｶﾜｸﾞﾝﾀｶｽﾁｮｳ","streetKana":"ｷﾀﾉﾆｼ4ｼﾞｮｳ","prefecture":"北海道","city":"上川郡鷹栖町","street":"北野西四条"},{"zipCode":"0711235","prefectureKana":"ﾎｯｶｲﾄﾞｳ","cityKana":"ｶﾐｶﾜｸﾞﾝﾀｶｽﾁｮｳ","streetKana":"ｷﾀﾉﾆｼ5ｼﾞｮｳ","prefecture":"北海道","city":"上川郡鷹栖町","street":"北野西五条"},{"zipCode":"0711221","prefectureKana":"ﾎｯｶｲﾄﾞｳ","cityKana":"ｶﾐｶﾜｸﾞﾝﾀｶｽﾁｮｳ","streetKana":"ｷﾀﾉﾋｶﾞｼ1ｼﾞｮｳ","prefecture":"北海道","city":"上川郡鷹栖町","street":"北野東一条"},{"zipCode":"0711222","prefectureKana":"ﾎｯｶｲﾄﾞｳ","cityKana":"ｶﾐｶﾜｸﾞﾝﾀｶｽﾁｮｳ","streetKana":"ｷﾀﾉﾋｶﾞｼ2ｼﾞｮｳ","prefecture":"北海道","city":"上川郡鷹栖町","street":"北野東二条"},{"zipCode":"0711223","prefectureKana":"ﾎｯｶｲﾄﾞｳ","cityKana":"ｶﾐｶﾜｸﾞﾝﾀｶｽﾁｮｳ","streetKana":"ｷﾀﾉﾋｶﾞｼ3ｼﾞｮｳ","prefecture":"北海道","city":"上川郡鷹栖町","street":"北野東三条"},{"zipCode":"0711224","prefectureKana":"ﾎｯｶｲﾄﾞｳ","cityKana":"ｶﾐｶﾜｸﾞﾝﾀｶｽﾁｮｳ","streetKana":"ｷﾀﾉﾋｶﾞｼ4ｼﾞｮｳ","prefecture":"北海道","city":"上川郡鷹栖町","street":"北野東四条"},{"zipCode":"0711225","prefectureKana":"ﾎｯｶｲﾄﾞｳ","cityKana":"ｶﾐｶﾜｸﾞﾝﾀｶｽﾁｮｳ","streetKana":"ｷﾀﾉﾋｶﾞｼ5ｼﾞｮｳ","prefecture":"北海道","city":"上川郡鷹栖町","street":"北野東五条"},{"zipCode":"0711211","prefectureKana":"ﾎｯｶｲﾄﾞｳ","cityKana":"ｶﾐｶﾜｸﾞﾝﾀｶｽﾁｮｳ","streetKana":"ｷﾀ1ｼﾞｮｳ","prefecture":"北海道","city":"上川郡鷹栖町","street":"北一条"},{"zipCode":"0711201","prefectureKana":"ﾎｯｶｲﾄﾞｳ","cityKana":"ｶﾐｶﾜｸﾞﾝﾀｶｽﾁｮｳ","streetKana":"ﾐﾅﾐ1ｼﾞｮｳ","prefecture":"北海道","city":"上川郡鷹栖町","street":"南一条"},{"zipCode":"0711202","prefectureKana":"ﾎｯｶｲﾄﾞｳ","cityKana":"ｶﾐｶﾜｸﾞﾝﾀｶｽﾁｮｳ","streetKana":"ﾐﾅﾐ2ｼﾞｮｳ","prefecture":"北海道","city":"上川郡鷹栖町","street":"南二条"},{"zipCode":"0711247","prefectureKana":"ﾎｯｶｲﾄﾞｳ","cityKana":"ｶﾐｶﾜｸﾞﾝﾀｶｽﾁｮｳ","streetKana":"7ｾﾝ","prefecture":"北海道","city":"上川郡鷹栖町","street":"７線"},{"zipCode":"0711248","prefectureKana":"ﾎｯｶｲﾄﾞｳ","cityKana":"ｶﾐｶﾜｸﾞﾝﾀｶｽﾁｮｳ","streetKana":"8ｾﾝ","prefecture":"北海道","city":"上川郡鷹栖町","street":"８線"},{"zipCode":"0711249","prefectureKana":"ﾎｯｶｲﾄﾞｳ","cityKana":"ｶﾐｶﾜｸﾞﾝﾀｶｽﾁｮｳ","streetKana":"9ｾﾝ","prefecture":"北海道","city":"上川郡鷹栖町","street":"９線"},{"zipCode":"0711250","prefectureKana":"ﾎｯｶｲﾄﾞｳ","cityKana":"ｶﾐｶﾜｸﾞﾝﾀｶｽﾁｮｳ","streetKana":"10ｾﾝ","prefecture":"北海道","city":"上川郡鷹栖町","street":"１０線"},{"zipCode":"0711251","prefectureKana":"ﾎｯｶｲﾄﾞｳ","cityKana":"ｶﾐｶﾜｸﾞﾝﾀｶｽﾁｮｳ","streetKana":"11ｾﾝ","prefecture":"北海道","city":"上川郡鷹栖町","street":"１１線"},{"zipCode":"0711252","prefectureKana":"ﾎｯｶｲﾄﾞｳ","cityKana":"ｶﾐｶﾜｸﾞﾝﾀｶｽﾁｮｳ","streetKana":"12ｾﾝ","prefecture":"北海道","city":"上川郡鷹栖町","street":"１２線"},{"zipCode":"0711253","prefectureKana":"ﾎｯｶｲﾄﾞｳ","cityKana":"ｶﾐｶﾜｸﾞﾝﾀｶｽﾁｮｳ","streetKana":"13ｾﾝ","prefecture":"北海道","city":"上川郡鷹栖町","street":"１３線"},{"zipCode":"0711254","prefectureKana":"ﾎｯｶｲﾄﾞｳ","cityKana":"ｶﾐｶﾜｸﾞﾝﾀｶｽﾁｮｳ","streetKana":"14ｾﾝ","prefecture":"北海道","city":"上川郡鷹栖町","street":"１４線"},{"zipCode":"0711255","prefectureKana":"ﾎｯｶｲﾄﾞｳ","cityKana":"ｶﾐｶﾜｸﾞﾝﾀｶｽﾁｮｳ","streetKana":"15ｾﾝ","prefecture":"北海道","city":"上川郡鷹栖町","street":"１５線"},{"zipCode":"0711256","prefectureKana":"ﾎｯｶｲﾄﾞｳ","cityKana":"ｶﾐｶﾜｸﾞﾝﾀｶｽﾁｮｳ","streetKana":"16ｾﾝ","prefecture":"北海道","city":"上川郡鷹栖町","street":"１６線"},{"zipCode":"0711257","prefectureKana":"ﾎｯｶｲﾄﾞｳ","cityKana":"ｶﾐｶﾜｸﾞﾝﾀｶｽﾁｮｳ","streetKana":"17ｾﾝ","prefecture":"北海道","city":"上川郡鷹栖町","street":"１７線"},{"zipCode":"0711258","prefectureKana":"ﾎｯｶｲﾄﾞｳ","cityKana":"ｶﾐｶﾜｸﾞﾝﾀｶｽﾁｮｳ","streetKana":"18ｾﾝ","prefecture":"北海道","city":"上川郡鷹栖町","street":"１８線"},{"zipCode":"0711259","prefectureKana":"ﾎｯｶｲﾄﾞｳ","cityKana":"ｶﾐｶﾜｸﾞﾝﾀｶｽﾁｮｳ","streetKana":"19ｾﾝ","prefecture":"北海道","city":"上川郡鷹栖町","street":"１９線"},{"zipCode":"0711260","prefectureKana":"ﾎｯｶｲﾄﾞｳ","cityKana":"ｶﾐｶﾜｸﾞﾝﾀｶｽﾁｮｳ","streetKana":"20ｾﾝ","prefecture":"北海道","city":"上川郡鷹栖町","street":"２０線"},{"zipCode":"0711261","prefectureKana":"ﾎｯｶｲﾄﾞｳ","cityKana":"ｶﾐｶﾜｸﾞﾝﾀｶｽﾁｮｳ","streetKana":"21ｾﾝ","prefecture":"北海道","city":"上川郡鷹栖町","street":"２１線"},{"zipCode":"0711262","prefectureKana":"ﾎｯｶｲﾄﾞｳ","cityKana":"ｶﾐｶﾜｸﾞﾝﾀｶｽﾁｮｳ","streetKana":"22ｾﾝ","prefecture":"北海道","city":"上川郡鷹栖町","street":"２２線"},{"zipCode":"0711263","prefectureKana":"ﾎｯｶｲﾄﾞｳ","cityKana":"ｶﾐｶﾜｸﾞﾝﾀｶｽﾁｮｳ","streetKana":"23ｾﾝ","prefecture":"北海道","city":"上川郡鷹栖町","street":"２３線"},{"zipCode":"0711264","prefectureKana":"ﾎｯｶｲﾄﾞｳ","cityKana":"ｶﾐｶﾜｸﾞﾝﾀｶｽﾁｮｳ","streetKana":"24ｾﾝ","prefecture":"北海道","city":"上川郡鷹栖町","street":"２４線"},{"zipCode":"0711265","prefectureKana":"ﾎｯｶｲﾄﾞｳ","cityKana":"ｶﾐｶﾜｸﾞﾝﾀｶｽﾁｮｳ","streetKana":"25ｾﾝ","prefecture":"北海道","city":"上川郡鷹栖町","street":"２５線"},{"zipCode":"0711266","prefectureKana":"ﾎｯｶｲﾄﾞｳ","cityKana":"ｶﾐｶﾜｸﾞﾝﾀｶｽﾁｮｳ","streetKana":"26ｾﾝ","prefecture":"北海道","city":"上川郡鷹栖町","street":"２６線"},{"zipCode":"0711267","prefectureKana":"ﾎｯｶｲﾄﾞｳ","cityKana":"ｶﾐｶﾜｸﾞﾝﾀｶｽﾁｮｳ","streetKana":"27ｾﾝ","prefecture":"北海道","city":"上川郡鷹栖町","street":"２７線"},{"zipCode":"0711500","prefectureKana":"ﾎｯｶｲﾄﾞｳ","cityKana":"ｶﾐｶﾜｸﾞﾝﾋｶﾞｼｶｸﾞﾗﾁｮｳ","streetKana":"ｲｶﾆｹｲｻｲｶﾞﾅｲﾊﾞｱｲ","prefecture":"北海道","city":"上川郡東神楽町","street":"以下に掲載がない場合"},{"zipCode":"0711560","prefectureKana":"ﾎｯｶｲﾄﾞｳ","cityKana":"ｶﾐｶﾜｸﾞﾝﾋｶﾞｼｶｸﾞﾗﾁｮｳ","streetKana":"ｷｾﾝ","prefecture":"北海道","city":"上川郡東神楽町","street":"基線"},{"zipCode":"0711512","prefectureKana":"ﾎｯｶｲﾄﾞｳ","cityKana":"ｶﾐｶﾜｸﾞﾝﾋｶﾞｼｶｸﾞﾗﾁｮｳ","streetKana":"ｷﾀ1ｼﾞｮｳﾋｶﾞｼ","prefecture":"北海道","city":"上川郡東神楽町","street":"北一条東"},{"zipCode":"0711511","prefectureKana":"ﾎｯｶｲﾄﾞｳ","cityKana":"ｶﾐｶﾜｸﾞﾝﾋｶﾞｼｶｸﾞﾗﾁｮｳ","streetKana":"ｷﾀ1ｼﾞｮｳﾆｼ","prefecture":"北海道","city":"上川郡東神楽町","street":"北一条西"},{"zipCode":"0711514","prefectureKana":"ﾎｯｶｲﾄﾞｳ","cityKana":"ｶﾐｶﾜｸﾞﾝﾋｶﾞｼｶｸﾞﾗﾁｮｳ","streetKana":"ｷﾀ2ｼﾞｮｳﾋｶﾞｼ","prefecture":"北海道","city":"上川郡東神楽町","street":"北二条東"},{"zipCode":"0711513","prefectureKana":"ﾎｯｶｲﾄﾞｳ","cityKana":"ｶﾐｶﾜｸﾞﾝﾋｶﾞｼｶｸﾞﾗﾁｮｳ","streetKana":"ｷﾀ2ｼﾞｮｳﾆｼ","prefecture":"北海道","city":"上川郡東神楽町","street":"北二条西"},{"zipCode":"0711515","prefectureKana":"ﾎｯｶｲﾄﾞｳ","cityKana":"ｶﾐｶﾜｸﾞﾝﾋｶﾞｼｶｸﾞﾗﾁｮｳ","streetKana":"ｷﾀ3ｼﾞｮｳﾋｶﾞｼ","prefecture":"北海道","city":"上川郡東神楽町","street":"北三条東"},{"zipCode":"0711581","prefectureKana":"ﾎｯｶｲﾄﾞｳ","cityKana":"ｶﾐｶﾜｸﾞﾝﾋｶﾞｼｶｸﾞﾗﾁｮｳ","streetKana":"ｻｶｴｵｶ","prefecture":"北海道","city":"上川郡東神楽町","street":"栄岡"},{"zipCode":"0711582","prefectureKana":"ﾎｯｶｲﾄﾞｳ","cityKana":"ｶﾐｶﾜｸﾞﾝﾋｶﾞｼｶｸﾞﾗﾁｮｳ","streetKana":"ｼﾋﾞﾅｲ","prefecture":"北海道","city":"上川郡東神楽町","street":"志比内"},{"zipCode":"0711561","prefectureKana":"ﾎｯｶｲﾄﾞｳ","cityKana":"ｶﾐｶﾜｸﾞﾝﾋｶﾞｼｶｸﾞﾗﾁｮｳ","streetKana":"ﾋｶﾞｼ1ｾﾝ","prefecture":"北海道","city":"上川郡東神楽町","street":"東一線"},{"zipCode":"0711562","prefectureKana":"ﾎｯｶｲﾄﾞｳ","cityKana":"ｶﾐｶﾜｸﾞﾝﾋｶﾞｼｶｸﾞﾗﾁｮｳ","streetKana":"ﾋｶﾞｼ2ｾﾝ","prefecture":"北海道","city":"上川郡東神楽町","street":"東二線"},{"zipCode":"0711563","prefectureKana":"ﾎｯｶｲﾄﾞｳ","cityKana":"ｶﾐｶﾜｸﾞﾝﾋｶﾞｼｶｸﾞﾗﾁｮｳ","streetKana":"ﾋｶﾞｼ3ｾﾝ","prefecture":"北海道","city":"上川郡東神楽町","street":"東三線"},{"zipCode":"0711564","prefectureKana":"ﾎｯｶｲﾄﾞｳ","cityKana":"ｶﾐｶﾜｸﾞﾝﾋｶﾞｼｶｸﾞﾗﾁｮｳ","streetKana":"ﾋｶﾞｼ4ｾﾝ","prefecture":"北海道","city":"上川郡東神楽町","street":"東四線"},{"zipCode":"0711565","prefectureKana":"ﾎｯｶｲﾄﾞｳ","cityKana":"ｶﾐｶﾜｸﾞﾝﾋｶﾞｼｶｸﾞﾗﾁｮｳ","streetKana":"ﾋｶﾞｼ5ｾﾝ","prefecture":"北海道","city":"上川郡東神楽町","street":"東五線"},{"zipCode":"0711521","prefectureKana":"ﾎｯｶｲﾄﾞｳ","cityKana":"ｶﾐｶﾜｸﾞﾝﾋｶﾞｼｶｸﾞﾗﾁｮｳ","streetKana":"ﾋｼﾞﾘﾉｷﾀ1ｼﾞｮｳ","prefecture":"北海道","city":"上川郡東神楽町","street":"ひじり野北一条"},{"zipCode":"0711522","prefectureKana":"ﾎｯｶｲﾄﾞｳ","cityKana":"ｶﾐｶﾜｸﾞﾝﾋｶﾞｼｶｸﾞﾗﾁｮｳ","streetKana":"ﾋｼﾞﾘﾉｷﾀ2ｼﾞｮｳ","prefecture":"北海道","city":"上川郡東神楽町","street":"ひじり野北二条"},{"zipCode":"0711523","prefectureKana":"ﾎｯｶｲﾄﾞｳ","cityKana":"ｶﾐｶﾜｸﾞﾝﾋｶﾞｼｶｸﾞﾗﾁｮｳ","streetKana":"ﾋｼﾞﾘﾉﾐﾅﾐ1ｼﾞｮｳ","prefecture":"北海道","city":"上川郡東神楽町","street":"ひじり野南一条"},{"zipCode":"0711524","prefectureKana":"ﾎｯｶｲﾄﾞｳ","cityKana":"ｶﾐｶﾜｸﾞﾝﾋｶﾞｼｶｸﾞﾗﾁｮｳ","streetKana":"ﾋｼﾞﾘﾉﾐﾅﾐ2ｼﾞｮｳ","prefecture":"北海道","city":"上川郡東神楽町","street":"ひじり野南二条"},{"zipCode":"0711525","prefectureKana":"ﾎｯｶｲﾄﾞｳ","cityKana":"ｶﾐｶﾜｸﾞﾝﾋｶﾞｼｶｸﾞﾗﾁｮｳ","streetKana":"ﾋｼﾞﾘﾉﾐﾅﾐ3ｼﾞｮｳ","prefecture":"北海道","city":"上川郡東神楽町","street":"ひじり野南三条"},{"zipCode":"0711572","prefectureKana":"ﾎｯｶｲﾄﾞｳ","cityKana":"ｶﾐｶﾜｸﾞﾝﾋｶﾞｼｶｸﾞﾗﾁｮｳ","streetKana":"ﾐﾅﾐ2ｾﾝ","prefecture":"北海道","city":"上川郡東神楽町","street":"南２線"},{"zipCode":"0711573","prefectureKana":"ﾎｯｶｲﾄﾞｳ","cityKana":"ｶﾐｶﾜｸﾞﾝﾋｶﾞｼｶｸﾞﾗﾁｮｳ","streetKana":"ﾐﾅﾐ3ｾﾝ","prefecture":"北海道","city":"上川郡東神楽町","street":"南３線"},{"zipCode":"0711574","prefectureKana":"ﾎｯｶｲﾄﾞｳ","cityKana":"ｶﾐｶﾜｸﾞﾝﾋｶﾞｼｶｸﾞﾗﾁｮｳ","streetKana":"ﾐﾅﾐ4ｾﾝ","prefecture":"北海道","city":"上川郡東神楽町","street":"南４線"},{"zipCode":"0711575","prefectureKana":"ﾎｯｶｲﾄﾞｳ","cityKana":"ｶﾐｶﾜｸﾞﾝﾋｶﾞｼｶｸﾞﾗﾁｮｳ","streetKana":"ﾐﾅﾐ5ｾﾝ","prefecture":"北海道","city":"上川郡東神楽町","street":"南５線"},{"zipCode":"0711502","prefectureKana":"ﾎｯｶｲﾄﾞｳ","cityKana":"ｶﾐｶﾜｸﾞﾝﾋｶﾞｼｶｸﾞﾗﾁｮｳ","streetKana":"ﾐﾅﾐ1ｼﾞｮｳﾋｶﾞｼ","prefecture":"北海道","city":"上川郡東神楽町","street":"南一条東"},{"zipCode":"0711501","prefectureKana":"ﾎｯｶｲﾄﾞｳ","cityKana":"ｶﾐｶﾜｸﾞﾝﾋｶﾞｼｶｸﾞﾗﾁｮｳ","streetKana":"ﾐﾅﾐ1ｼﾞｮｳﾆｼ","prefecture":"北海道","city":"上川郡東神楽町","street":"南一条西"},{"zipCode":"0711571","prefectureKana":"ﾎｯｶｲﾄﾞｳ","cityKana":"ｶﾐｶﾜｸﾞﾝﾋｶﾞｼｶｸﾞﾗﾁｮｳ","streetKana":"ﾐﾅﾐ1ﾊﾞﾝﾄﾞｵﾘ","prefecture":"北海道","city":"上川郡東神楽町","street":"南１番通"},{"zipCode":"0711504","prefectureKana":"ﾎｯｶｲﾄﾞｳ","cityKana":"ｶﾐｶﾜｸﾞﾝﾋｶﾞｼｶｸﾞﾗﾁｮｳ","streetKana":"ﾐﾅﾐ2ｼﾞｮｳﾋｶﾞｼ","prefecture":"北海道","city":"上川郡東神楽町","street":"南二条東"},{"zipCode":"0711503","prefectureKana":"ﾎｯｶｲﾄﾞｳ","cityKana":"ｶﾐｶﾜｸﾞﾝﾋｶﾞｼｶｸﾞﾗﾁｮｳ","streetKana":"ﾐﾅﾐ2ｼﾞｮｳﾆｼ","prefecture":"北海道","city":"上川郡東神楽町","street":"南二条西"},{"zipCode":"0711505","prefectureKana":"ﾎｯｶｲﾄﾞｳ","cityKana":"ｶﾐｶﾜｸﾞﾝﾋｶﾞｼｶｸﾞﾗﾁｮｳ","streetKana":"ﾐﾅﾐ3ｼﾞｮｳﾋｶﾞｼ","prefecture":"北海道","city":"上川郡東神楽町","street":"南三条東"},{"zipCode":"0711570","prefectureKana":"ﾎｯｶｲﾄﾞｳ","cityKana":"ｶﾐｶﾜｸﾞﾝﾋｶﾞｼｶｸﾞﾗﾁｮｳ","streetKana":"ﾐﾅﾐ13ｺﾞｳ","prefecture":"北海道","city":"上川郡東神楽町","street":"南１３号"},{"zipCode":"0711577","prefectureKana":"ﾎｯｶｲﾄﾞｳ","cityKana":"ｶﾐｶﾜｸﾞﾝﾋｶﾞｼｶｸﾞﾗﾁｮｳ","streetKana":"ﾔﾁﾖｶﾞｵｶ","prefecture":"北海道","city":"上川郡東神楽町","street":"八千代ケ岡"},{"zipCode":"0711533","prefectureKana":"ﾎｯｶｲﾄﾞｳ","cityKana":"ｶﾐｶﾜｸﾞﾝﾋｶﾞｼｶｸﾞﾗﾁｮｳ","streetKana":"3ｺﾞｳ","prefecture":"北海道","city":"上川郡東神楽町","street":"３号"},{"zipCode":"0711534","prefectureKana":"ﾎｯｶｲﾄﾞｳ","cityKana":"ｶﾐｶﾜｸﾞﾝﾋｶﾞｼｶｸﾞﾗﾁｮｳ","streetKana":"4ｺﾞｳ","prefecture":"北海道","city":"上川郡東神楽町","street":"４号"},{"zipCode":"0711535","prefectureKana":"ﾎｯｶｲﾄﾞｳ","cityKana":"ｶﾐｶﾜｸﾞﾝﾋｶﾞｼｶｸﾞﾗﾁｮｳ","streetKana":"5ｺﾞｳ","prefecture":"北海道","city":"上川郡東神楽町","street":"５号"},{"zipCode":"0711536","prefectureKana":"ﾎｯｶｲﾄﾞｳ","cityKana":"ｶﾐｶﾜｸﾞﾝﾋｶﾞｼｶｸﾞﾗﾁｮｳ","streetKana":"6ｺﾞｳ","prefecture":"北海道","city":"上川郡東神楽町","street":"６号"},{"zipCode":"0711537","prefectureKana":"ﾎｯｶｲﾄﾞｳ","cityKana":"ｶﾐｶﾜｸﾞﾝﾋｶﾞｼｶｸﾞﾗﾁｮｳ","streetKana":"7ｺﾞｳ","prefecture":"北海道","city":"上川郡東神楽町","street":"７号"},{"zipCode":"0711538","prefectureKana":"ﾎｯｶｲﾄﾞｳ","cityKana":"ｶﾐｶﾜｸﾞﾝﾋｶﾞｼｶｸﾞﾗﾁｮｳ","streetKana":"8ｺﾞｳ","prefecture":"北海道","city":"上川郡東神楽町","street":"８号"},{"zipCode":"0711539","prefectureKana":"ﾎｯｶｲﾄﾞｳ","cityKana":"ｶﾐｶﾜｸﾞﾝﾋｶﾞｼｶｸﾞﾗﾁｮｳ","streetKana":"9ｺﾞｳ","prefecture":"北海道","city":"上川郡東神楽町","street":"９号"},{"zipCode":"0711540","prefectureKana":"ﾎｯｶｲﾄﾞｳ","cityKana":"ｶﾐｶﾜｸﾞﾝﾋｶﾞｼｶｸﾞﾗﾁｮｳ","streetKana":"10ｺﾞｳ","prefecture":"北海道","city":"上川郡東神楽町","street":"１０号"},{"zipCode":"0711541","prefectureKana":"ﾎｯｶｲﾄﾞｳ","cityKana":"ｶﾐｶﾜｸﾞﾝﾋｶﾞｼｶｸﾞﾗﾁｮｳ","streetKana":"11ｺﾞｳ","prefecture":"北海道","city":"上川郡東神楽町","street":"１１号"},{"zipCode":"0711542","prefectureKana":"ﾎｯｶｲﾄﾞｳ","cityKana":"ｶﾐｶﾜｸﾞﾝﾋｶﾞｼｶｸﾞﾗﾁｮｳ","streetKana":"12ｺﾞｳ","prefecture":"北海道","city":"上川郡東神楽町","street":"１２号"},{"zipCode":"0711543","prefectureKana":"ﾎｯｶｲﾄﾞｳ","cityKana":"ｶﾐｶﾜｸﾞﾝﾋｶﾞｼｶｸﾞﾗﾁｮｳ","streetKana":"13ｺﾞｳ","prefecture":"北海道","city":"上川郡東神楽町","street":"１３号"},{"zipCode":"0711544","prefectureKana":"ﾎｯｶｲﾄﾞｳ","cityKana":"ｶﾐｶﾜｸﾞﾝﾋｶﾞｼｶｸﾞﾗﾁｮｳ","streetKana":"14ｺﾞｳ","prefecture":"北海道","city":"上川郡東神楽町","street":"１４号"},{"zipCode":"0711545","prefectureKana":"ﾎｯｶｲﾄﾞｳ","cityKana":"ｶﾐｶﾜｸﾞﾝﾋｶﾞｼｶｸﾞﾗﾁｮｳ","streetKana":"15ｺﾞｳ","prefecture":"北海道","city":"上川郡東神楽町","street":"１５号"},{"zipCode":"0711546","prefectureKana":"ﾎｯｶｲﾄﾞｳ","cityKana":"ｶﾐｶﾜｸﾞﾝﾋｶﾞｼｶｸﾞﾗﾁｮｳ","streetKana":"16ｺﾞｳ","prefecture":"北海道","city":"上川郡東神楽町","street":"１６号"},{"zipCode":"0711547","prefectureKana":"ﾎｯｶｲﾄﾞｳ","cityKana":"ｶﾐｶﾜｸﾞﾝﾋｶﾞｼｶｸﾞﾗﾁｮｳ","streetKana":"17ｺﾞｳ","prefecture":"北海道","city":"上川郡東神楽町","street":"１７号"},{"zipCode":"0711548","prefectureKana":"ﾎｯｶｲﾄﾞｳ","cityKana":"ｶﾐｶﾜｸﾞﾝﾋｶﾞｼｶｸﾞﾗﾁｮｳ","streetKana":"18ｺﾞｳ","prefecture":"北海道","city":"上川郡東神楽町","street":"１８号"},{"zipCode":"0711549","prefectureKana":"ﾎｯｶｲﾄﾞｳ","cityKana":"ｶﾐｶﾜｸﾞﾝﾋｶﾞｼｶｸﾞﾗﾁｮｳ","streetKana":"19ｺﾞｳ","prefecture":"北海道","city":"上川郡東神楽町","street":"１９号"},{"zipCode":"0711550","prefectureKana":"ﾎｯｶｲﾄﾞｳ","cityKana":"ｶﾐｶﾜｸﾞﾝﾋｶﾞｼｶｸﾞﾗﾁｮｳ","streetKana":"20ｺﾞｳ","prefecture":"北海道","city":"上川郡東神楽町","street":"２０号"},{"zipCode":"0711551","prefectureKana":"ﾎｯｶｲﾄﾞｳ","cityKana":"ｶﾐｶﾜｸﾞﾝﾋｶﾞｼｶｸﾞﾗﾁｮｳ","streetKana":"21ｺﾞｳ","prefecture":"北海道","city":"上川郡東神楽町","street":"２１号"},{"zipCode":"0711552","prefectureKana":"ﾎｯｶｲﾄﾞｳ","cityKana":"ｶﾐｶﾜｸﾞﾝﾋｶﾞｼｶｸﾞﾗﾁｮｳ","streetKana":"22ｺﾞｳ","prefecture":"北海道","city":"上川郡東神楽町","street":"２２号"},{"zipCode":"0711553","prefectureKana":"ﾎｯｶｲﾄﾞｳ","cityKana":"ｶﾐｶﾜｸﾞﾝﾋｶﾞｼｶｸﾞﾗﾁｮｳ","streetKana":"23ｺﾞｳ","prefecture":"北海道","city":"上川郡東神楽町","street":"２３号"},{"zipCode":"0711554","prefectureKana":"ﾎｯｶｲﾄﾞｳ","cityKana":"ｶﾐｶﾜｸﾞﾝﾋｶﾞｼｶｸﾞﾗﾁｮｳ","streetKana":"24ｺﾞｳ","prefecture":"北海道","city":"上川郡東神楽町","street":"２４号"},{"zipCode":"0711555","prefectureKana":"ﾎｯｶｲﾄﾞｳ","cityKana":"ｶﾐｶﾜｸﾞﾝﾋｶﾞｼｶｸﾞﾗﾁｮｳ","streetKana":"25ｺﾞｳ","prefecture":"北海道","city":"上川郡東神楽町","street":"２５号"},{"zipCode":"0711556","prefectureKana":"ﾎｯｶｲﾄﾞｳ","cityKana":"ｶﾐｶﾜｸﾞﾝﾋｶﾞｼｶｸﾞﾗﾁｮｳ","streetKana":"26ｺﾞｳ","prefecture":"北海道","city":"上川郡東神楽町","street":"２６号"},{"zipCode":"0711557","prefectureKana":"ﾎｯｶｲﾄﾞｳ","cityKana":"ｶﾐｶﾜｸﾞﾝﾋｶﾞｼｶｸﾞﾗﾁｮｳ","streetKana":"27ｺﾞｳ","prefecture":"北海道","city":"上川郡東神楽町","street":"２７号"},{"zipCode":"0711400","prefectureKana":"ﾎｯｶｲﾄﾞｳ","cityKana":"ｶﾐｶﾜｸﾞﾝﾋｶﾞｼｶﾜﾁｮｳ","streetKana":"ｲｶﾆｹｲｻｲｶﾞﾅｲﾊﾞｱｲ","prefecture":"北海道","city":"上川郡東川町","street":"以下に掲載がない場合"},{"zipCode":"0711426","prefectureKana":"ﾎｯｶｲﾄﾞｳ","cityKana":"ｶﾐｶﾜｸﾞﾝﾋｶﾞｼｶﾜﾁｮｳ","streetKana":"ｷﾀﾏﾁ","prefecture":"北海道","city":"上川郡東川町","street":"北町"},{"zipCode":"0711465","prefectureKana":"ﾎｯｶｲﾄﾞｳ","cityKana":"ｶﾐｶﾜｸﾞﾝﾋｶﾞｼｶﾜﾁｮｳ","streetKana":"ｷﾀ5ｾﾝ","prefecture":"北海道","city":"上川郡東川町","street":"北５線"},{"zipCode":"0711466","prefectureKana":"ﾎｯｶｲﾄﾞｳ","cityKana":"ｶﾐｶﾜｸﾞﾝﾋｶﾞｼｶﾜﾁｮｳ","streetKana":"ｷﾀ7ｾﾝ","prefecture":"北海道","city":"上川郡東川町","street":"北７線"},{"zipCode":"0711462","prefectureKana":"ﾎｯｶｲﾄﾞｳ","cityKana":"ｶﾐｶﾜｸﾞﾝﾋｶﾞｼｶﾜﾁｮｳ","streetKana":"ｷﾀ2ｾﾝﾋｶﾞｼ","prefecture":"北海道","city":"上川郡東川町","street":"北２線東"},{"zipCode":"0711463","prefectureKana":"ﾎｯｶｲﾄﾞｳ","cityKana":"ｶﾐｶﾜｸﾞﾝﾋｶﾞｼｶﾜﾁｮｳ","streetKana":"ｷﾀ3ｾﾝﾋｶﾞｼ","prefecture":"北海道","city":"上川郡東川町","street":"北３線東"},{"zipCode":"0711467","prefectureKana":"ﾎｯｶｲﾄﾞｳ","cityKana":"ｶﾐｶﾜｸﾞﾝﾋｶﾞｼｶﾜﾁｮｳ","streetKana":"ｷﾀ7ｾﾝﾋｶﾞｼ","prefecture":"北海道","city":"上川郡東川町","street":"北７線東"},{"zipCode":"0711419","prefectureKana":"ﾎｯｶｲﾄﾞｳ","cityKana":"ｶﾐｶﾜｸﾞﾝﾋｶﾞｼｶﾜﾁｮｳ","streetKana":"ｷﾄｳｼﾆｼ","prefecture":"北海道","city":"上川郡東川町","street":"キトウシ西"},{"zipCode":"0711418","prefectureKana":"ﾎｯｶｲﾄﾞｳ","cityKana":"ｶﾐｶﾜｸﾞﾝﾋｶﾞｼｶﾜﾁｮｳ","streetKana":"ｷﾄｳｼﾐﾅﾐ","prefecture":"北海道","city":"上川郡東川町","street":"キトウシ南"},{"zipCode":"0711416","prefectureKana":"ﾎｯｶｲﾄﾞｳ","cityKana":"ｶﾐｶﾜｸﾞﾝﾋｶﾞｼｶﾜﾁｮｳ","streetKana":"ｼﾝｴｲｷﾀ","prefecture":"北海道","city":"上川郡東川町","street":"新栄北"},{"zipCode":"0711415","prefectureKana":"ﾎｯｶｲﾄﾞｳ","cityKana":"ｶﾐｶﾜｸﾞﾝﾋｶﾞｼｶﾜﾁｮｳ","streetKana":"ｼﾝｴｲﾆｼ","prefecture":"北海道","city":"上川郡東川町","street":"新栄西"},{"zipCode":"0711413","prefectureKana":"ﾎｯｶｲﾄﾞｳ","cityKana":"ｶﾐｶﾜｸﾞﾝﾋｶﾞｼｶﾜﾁｮｳ","streetKana":"ｼﾝｴｲﾋｶﾞｼ","prefecture":"北海道","city":"上川郡東川町","street":"新栄東"},{"zipCode":"0711414","prefectureKana":"ﾎｯｶｲﾄﾞｳ","cityKana":"ｶﾐｶﾜｸﾞﾝﾋｶﾞｼｶﾜﾁｮｳ","streetKana":"ｼﾝｴｲﾐﾅﾐ","prefecture":"北海道","city":"上川郡東川町","street":"新栄南"},{"zipCode":"0711464","prefectureKana":"ﾎｯｶｲﾄﾞｳ","cityKana":"ｶﾐｶﾜｸﾞﾝﾋｶﾞｼｶﾜﾁｮｳ","streetKana":"ｼﾝｶﾀﾞｲ","prefecture":"北海道","city":"上川郡東川町","street":"進化台"},{"zipCode":"0711425","prefectureKana":"ﾎｯｶｲﾄﾞｳ","cityKana":"ｶﾐｶﾜｸﾞﾝﾋｶﾞｼｶﾜﾁｮｳ","streetKana":"ﾆｼﾏﾁ","prefecture":"北海道","city":"上川郡東川町","street":"西町"},{"zipCode":"0711422","prefectureKana":"ﾎｯｶｲﾄﾞｳ","cityKana":"ｶﾐｶﾜｸﾞﾝﾋｶﾞｼｶﾜﾁｮｳ","streetKana":"ﾆｼ2ｺﾞｳﾐﾅﾐ","prefecture":"北海道","city":"上川郡東川町","street":"西２号南"},{"zipCode":"0711402","prefectureKana":"ﾎｯｶｲﾄﾞｳ","cityKana":"ｶﾐｶﾜｸﾞﾝﾋｶﾞｼｶﾜﾁｮｳ","streetKana":"ﾆｼ2ｺﾞｳｷﾀ","prefecture":"北海道","city":"上川郡東川町","street":"西２号北"},{"zipCode":"0711403","prefectureKana":"ﾎｯｶｲﾄﾞｳ","cityKana":"ｶﾐｶﾜｸﾞﾝﾋｶﾞｼｶﾜﾁｮｳ","streetKana":"ﾆｼ3ｺﾞｳｷﾀ","prefecture":"北海道","city":"上川郡東川町","street":"西３号北"},{"zipCode":"0711404","prefectureKana":"ﾎｯｶｲﾄﾞｳ","cityKana":"ｶﾐｶﾜｸﾞﾝﾋｶﾞｼｶﾜﾁｮｳ","streetKana":"ﾆｼ4ｺﾞｳｷﾀ","prefecture":"北海道","city":"上川郡東川町","street":"西４号北"},{"zipCode":"0711405","prefectureKana":"ﾎｯｶｲﾄﾞｳ","cityKana":"ｶﾐｶﾜｸﾞﾝﾋｶﾞｼｶﾜﾁｮｳ","streetKana":"ﾆｼ5ｺﾞｳｷﾀ","prefecture":"北海道","city":"上川郡東川町","street":"西５号北"},{"zipCode":"0711406","prefectureKana":"ﾎｯｶｲﾄﾞｳ","cityKana":"ｶﾐｶﾜｸﾞﾝﾋｶﾞｼｶﾜﾁｮｳ","streetKana":"ﾆｼ6ｺﾞｳｷﾀ","prefecture":"北海道","city":"上川郡東川町","street":"西６号北"},{"zipCode":"0711407","prefectureKana":"ﾎｯｶｲﾄﾞｳ","cityKana":"ｶﾐｶﾜｸﾞﾝﾋｶﾞｼｶﾜﾁｮｳ","streetKana":"ﾆｼ7ｺﾞｳｷﾀ","prefecture":"北海道","city":"上川郡東川町","street":"西７号北"},{"zipCode":"0711408","prefectureKana":"ﾎｯｶｲﾄﾞｳ","cityKana":"ｶﾐｶﾜｸﾞﾝﾋｶﾞｼｶﾜﾁｮｳ","streetKana":"ﾆｼ8ｺﾞｳｷﾀ","prefecture":"北海道","city":"上川郡東川町","street":"西８号北"},{"zipCode":"0711409","prefectureKana":"ﾎｯｶｲﾄﾞｳ","cityKana":"ｶﾐｶﾜｸﾞﾝﾋｶﾞｼｶﾜﾁｮｳ","streetKana":"ﾆｼ9ｺﾞｳｷﾀ","prefecture":"北海道","city":"上川郡東川町","street":"西９号北"},{"zipCode":"0711410","prefectureKana":"ﾎｯｶｲﾄﾞｳ","cityKana":"ｶﾐｶﾜｸﾞﾝﾋｶﾞｼｶﾜﾁｮｳ","streetKana":"ﾆｼ10ｺﾞｳｷﾀ","prefecture":"北海道","city":"上川郡東川町","street":"西１０号北"},{"zipCode":"0711411","prefectureKana":"ﾎｯｶｲﾄﾞｳ","cityKana":"ｶﾐｶﾜｸﾞﾝﾋｶﾞｼｶﾜﾁｮｳ","streetKana":"ﾆｼ11ｺﾞｳｷﾀ","prefecture":"北海道","city":"上川郡東川町","street":"西１１号北"},{"zipCode":"0711412","prefectureKana":"ﾎｯｶｲﾄﾞｳ","cityKana":"ｶﾐｶﾜｸﾞﾝﾋｶﾞｼｶﾜﾁｮｳ","streetKana":"ﾆｼ12ｺﾞｳｷﾀ","prefecture":"北海道","city":"上川郡東川町","street":"西１２号北"},{"zipCode":"0711471","prefectureKana":"ﾎｯｶｲﾄﾞｳ","cityKana":"ｶﾐｶﾜｸﾞﾝﾋｶﾞｼｶﾜﾁｮｳ","streetKana":"ﾉｶﾅﾝ","prefecture":"北海道","city":"上川郡東川町","street":"ノカナン"},{"zipCode":"0711423","prefectureKana":"ﾎｯｶｲﾄﾞｳ","cityKana":"ｶﾐｶﾜｸﾞﾝﾋｶﾞｼｶﾜﾁｮｳ","streetKana":"ﾋｶﾞｼﾏﾁ","prefecture":"北海道","city":"上川郡東川町","street":"東町"},{"zipCode":"0711452","prefectureKana":"ﾎｯｶｲﾄﾞｳ","cityKana":"ｶﾐｶﾜｸﾞﾝﾋｶﾞｼｶﾜﾁｮｳ","streetKana":"ﾋｶﾞｼ2ｺﾞｳﾐﾅﾐ","prefecture":"北海道","city":"上川郡東川町","street":"東２号南"},{"zipCode":"0711432","prefectureKana":"ﾎｯｶｲﾄﾞｳ","cityKana":"ｶﾐｶﾜｸﾞﾝﾋｶﾞｼｶﾜﾁｮｳ","streetKana":"ﾋｶﾞｼ2ｺﾞｳｷﾀ","prefecture":"北海道","city":"上川郡東川町","street":"東２号北"},{"zipCode":"0711453","prefectureKana":"ﾎｯｶｲﾄﾞｳ","cityKana":"ｶﾐｶﾜｸﾞﾝﾋｶﾞｼｶﾜﾁｮｳ","streetKana":"ﾋｶﾞｼ3ｺﾞｳﾐﾅﾐ","prefecture":"北海道","city":"上川郡東川町","street":"東３号南"},{"zipCode":"0711433","prefectureKana":"ﾎｯｶｲﾄﾞｳ","cityKana":"ｶﾐｶﾜｸﾞﾝﾋｶﾞｼｶﾜﾁｮｳ","streetKana":"ﾋｶﾞｼ3ｺﾞｳｷﾀ","prefecture":"北海道","city":"上川郡東川町","street":"東３号北"},{"zipCode":"0711454","prefectureKana":"ﾎｯｶｲﾄﾞｳ","cityKana":"ｶﾐｶﾜｸﾞﾝﾋｶﾞｼｶﾜﾁｮｳ","streetKana":"ﾋｶﾞｼ4ｺﾞｳﾐﾅﾐ","prefecture":"北海道","city":"上川郡東川町","street":"東４号南"},{"zipCode":"0711434","prefectureKana":"ﾎｯｶｲﾄﾞｳ","cityKana":"ｶﾐｶﾜｸﾞﾝﾋｶﾞｼｶﾜﾁｮｳ","streetKana":"ﾋｶﾞｼ4ｺﾞｳｷﾀ","prefecture":"北海道","city":"上川郡東川町","street":"東４号北"},{"zipCode":"0711455","prefectureKana":"ﾎｯｶｲﾄﾞｳ","cityKana":"ｶﾐｶﾜｸﾞﾝﾋｶﾞｼｶﾜﾁｮｳ","streetKana":"ﾋｶﾞｼ5ｺﾞｳﾐﾅﾐ","prefecture":"北海道","city":"上川郡東川町","street":"東５号南"},{"zipCode":"0711435","prefectureKana":"ﾎｯｶｲﾄﾞｳ","cityKana":"ｶﾐｶﾜｸﾞﾝﾋｶﾞｼｶﾜﾁｮｳ","streetKana":"ﾋｶﾞｼ5ｺﾞｳｷﾀ","prefecture":"北海道","city":"上川郡東川町","street":"東５号北"},{"zipCode":"0711456","prefectureKana":"ﾎｯｶｲﾄﾞｳ","cityKana":"ｶﾐｶﾜｸﾞﾝﾋｶﾞｼｶﾜﾁｮｳ","streetKana":"ﾋｶﾞｼ6ｺﾞｳﾐﾅﾐ","prefecture":"北海道","city":"上川郡東川町","street":"東６号南"},{"zipCode":"0711436","prefectureKana":"ﾎｯｶｲﾄﾞｳ","cityKana":"ｶﾐｶﾜｸﾞﾝﾋｶﾞｼｶﾜﾁｮｳ","streetKana":"ﾋｶﾞｼ6ｺﾞｳｷﾀ","prefecture":"北海道","city":"上川郡東川町","street":"東６号北"},{"zipCode":"0711457","prefectureKana":"ﾎｯｶｲﾄﾞｳ","cityKana":"ｶﾐｶﾜｸﾞﾝﾋｶﾞｼｶﾜﾁｮｳ","streetKana":"ﾋｶﾞｼ7ｺﾞｳﾐﾅﾐ","prefecture":"北海道","city":"上川郡東川町","street":"東７号南"},{"zipCode":"0711437","prefectureKana":"ﾎｯｶｲﾄﾞｳ","cityKana":"ｶﾐｶﾜｸﾞﾝﾋｶﾞｼｶﾜﾁｮｳ","streetKana":"ﾋｶﾞｼ7ｺﾞｳｷﾀ","prefecture":"北海道","city":"上川郡東川町","street":"東７号北"},{"zipCode":"0711458","prefectureKana":"ﾎｯｶｲﾄﾞｳ","cityKana":"ｶﾐｶﾜｸﾞﾝﾋｶﾞｼｶﾜﾁｮｳ","streetKana":"ﾋｶﾞｼ8ｺﾞｳﾐﾅﾐ","prefecture":"北海道","city":"上川郡東川町","street":"東８号南"},{"zipCode":"0711438","prefectureKana":"ﾎｯｶｲﾄﾞｳ","cityKana":"ｶﾐｶﾜｸﾞﾝﾋｶﾞｼｶﾜﾁｮｳ","streetKana":"ﾋｶﾞｼ8ｺﾞｳｷﾀ","prefecture":"北海道","city":"上川郡東川町","street":"東８号北"},{"zipCode":"0711459","prefectureKana":"ﾎｯｶｲﾄﾞｳ","cityKana":"ｶﾐｶﾜｸﾞﾝﾋｶﾞｼｶﾜﾁｮｳ","streetKana":"ﾋｶﾞｼ9ｺﾞｳﾐﾅﾐ","prefecture":"北海道","city":"上川郡東川町","street":"東９号南"},{"zipCode":"0711439","prefectureKana":"ﾎｯｶｲﾄﾞｳ","cityKana":"ｶﾐｶﾜｸﾞﾝﾋｶﾞｼｶﾜﾁｮｳ","streetKana":"ﾋｶﾞｼ9ｺﾞｳｷﾀ","prefecture":"北海道","city":"上川郡東川町","street":"東９号北"},{"zipCode":"0711460","prefectureKana":"ﾎｯｶｲﾄﾞｳ","cityKana":"ｶﾐｶﾜｸﾞﾝﾋｶﾞｼｶﾜﾁｮｳ","streetKana":"ﾋｶﾞｼ10ｺﾞｳﾐﾅﾐ","prefecture":"北海道","city":"上川郡東川町","street":"東１０号南"},{"zipCode":"0711440","prefectureKana":"ﾎｯｶｲﾄﾞｳ","cityKana":"ｶﾐｶﾜｸﾞﾝﾋｶﾞｼｶﾜﾁｮｳ","streetKana":"ﾋｶﾞｼ10ｺﾞｳｷﾀ","prefecture":"北海道","city":"上川郡東川町","street":"東１０号北"},{"zipCode":"0711461","prefectureKana":"ﾎｯｶｲﾄﾞｳ","cityKana":"ｶﾐｶﾜｸﾞﾝﾋｶﾞｼｶﾜﾁｮｳ","streetKana":"ﾋｶﾞｼ11ｺﾞｳﾐﾅﾐ","prefecture":"北海道","city":"上川郡東川町","street":"東１１号南"},{"zipCode":"0711441","prefectureKana":"ﾎｯｶｲﾄﾞｳ","cityKana":"ｶﾐｶﾜｸﾞﾝﾋｶﾞｼｶﾜﾁｮｳ","streetKana":"ﾋｶﾞｼ11ｺﾞｳｷﾀ","prefecture":"北海道","city":"上川郡東川町","street":"東１１号北"},{"zipCode":"0711442","prefectureKana":"ﾎｯｶｲﾄﾞｳ","cityKana":"ｶﾐｶﾜｸﾞﾝﾋｶﾞｼｶﾜﾁｮｳ","streetKana":"ﾋｶﾞｼ12ｺﾞｳｷﾀ","prefecture":"北海道","city":"上川郡東川町","street":"東１２号北"},{"zipCode":"0711473","prefectureKana":"ﾎｯｶｲﾄﾞｳ","cityKana":"ｶﾐｶﾜｸﾞﾝﾋｶﾞｼｶﾜﾁｮｳ","streetKana":"ﾏﾂﾔﾏｵﾝｾﾝ","prefecture":"北海道","city":"上川郡東川町","street":"松山温泉"},{"zipCode":"0711424","prefectureKana":"ﾎｯｶｲﾄﾞｳ","cityKana":"ｶﾐｶﾜｸﾞﾝﾋｶﾞｼｶﾜﾁｮｳ","streetKana":"ﾐﾅﾐﾏﾁ","prefecture":"北海道","city":"上川郡東川町","street":"南町"},{"zipCode":"0711472","prefectureKana":"ﾎｯｶｲﾄﾞｳ","cityKana":"ｶﾐｶﾜｸﾞﾝﾋｶﾞｼｶﾜﾁｮｳ","streetKana":"ﾕｺﾏﾝﾍﾞﾂ","prefecture":"北海道","city":"上川郡東川町","street":"勇駒別"},{"zipCode":"0711451","prefectureKana":"ﾎｯｶｲﾄﾞｳ","cityKana":"ｶﾐｶﾜｸﾞﾝﾋｶﾞｼｶﾜﾁｮｳ","streetKana":"1ｺﾞｳﾐﾅﾐ","prefecture":"北海道","city":"上川郡東川町","street":"１号南"},{"zipCode":"0711431","prefectureKana":"ﾎｯｶｲﾄﾞｳ","cityKana":"ｶﾐｶﾜｸﾞﾝﾋｶﾞｼｶﾜﾁｮｳ","streetKana":"1ｺﾞｳｷﾀ","prefecture":"北海道","city":"上川郡東川町","street":"１号北"},{"zipCode":"0710200","prefectureKana":"ﾎｯｶｲﾄﾞｳ","cityKana":"ｶﾐｶﾜｸﾞﾝﾋﾞｴｲﾁｮｳ","streetKana":"ｲｶﾆｹｲｻｲｶﾞﾅｲﾊﾞｱｲ","prefecture":"北海道","city":"上川郡美瑛町","street":"以下に掲載がない場合"},{"zipCode":"0710261","prefectureKana":"ﾎｯｶｲﾄﾞｳ","cityKana":"ｶﾐｶﾜｸﾞﾝﾋﾞｴｲﾁｮｳ","streetKana":"ｱｻﾋ","prefecture":"北海道","city":"上川郡美瑛町","street":"旭"},{"zipCode":"0710212","prefectureKana":"ﾎｯｶｲﾄﾞｳ","cityKana":"ｶﾐｶﾜｸﾞﾝﾋﾞｴｲﾁｮｳ","streetKana":"ｱｻﾋﾏﾁ","prefecture":"北海道","city":"上川郡美瑛町","street":"旭町"},{"zipCode":"0710251","prefectureKana":"ﾎｯｶｲﾄﾞｳ","cityKana":"ｶﾐｶﾜｸﾞﾝﾋﾞｴｲﾁｮｳ","streetKana":"ｲｺｲｶﾞｵｶ","prefecture":"北海道","city":"上川郡美瑛町","street":"憩が丘"},{"zipCode":"0710249","prefectureKana":"ﾎｯｶｲﾄﾞｳ","cityKana":"ｶﾐｶﾜｸﾞﾝﾋﾞｴｲﾁｮｳ","streetKana":"ｲｺｲﾁｮｳ","prefecture":"北海道","city":"上川郡美瑛町","street":"憩町"},{"zipCode":"0710215","prefectureKana":"ﾎｯｶｲﾄﾞｳ","cityKana":"ｶﾐｶﾜｸﾞﾝﾋﾞｴｲﾁｮｳ","streetKana":"ｵｳｷﾞﾏﾁ","prefecture":"北海道","city":"上川郡美瑛町","street":"扇町"},{"zipCode":"0710204","prefectureKana":"ﾎｯｶｲﾄﾞｳ","cityKana":"ｶﾐｶﾜｸﾞﾝﾋﾞｴｲﾁｮｳ","streetKana":"ｵｵﾏﾁ","prefecture":"北海道","city":"上川郡美瑛町","street":"大町"},{"zipCode":"0710217","prefectureKana":"ﾎｯｶｲﾄﾞｳ","cityKana":"ｶﾐｶﾜｸﾞﾝﾋﾞｴｲﾁｮｳ","streetKana":"ｵｵﾑﾗ(ｲｼﾔﾏ)","prefecture":"北海道","city":"上川郡美瑛町","street":"大村（石山）"},{"zipCode":"0710216","prefectureKana":"ﾎｯｶｲﾄﾞｳ","cityKana":"ｶﾐｶﾜｸﾞﾝﾋﾞｴｲﾁｮｳ","streetKana":"ｵｵﾑﾗ(ｵｵｸﾎﾞ)","prefecture":"北海道","city":"上川郡美瑛町","street":"大村（大久保）"},{"zipCode":"0710219","prefectureKana":"ﾎｯｶｲﾄﾞｳ","cityKana":"ｶﾐｶﾜｸﾞﾝﾋﾞｴｲﾁｮｳ","streetKana":"ｵｵﾑﾗ(ﾅｶﾓﾄ)","prefecture":"北海道","city":"上川郡美瑛町","street":"大村（中本）"},{"zipCode":"0710218","prefectureKana":"ﾎｯｶｲﾄﾞｳ","cityKana":"ｶﾐｶﾜｸﾞﾝﾋﾞｴｲﾁｮｳ","streetKana":"ｵｵﾑﾗ(ﾑﾗﾔﾏ)","prefecture":"北海道","city":"上川郡美瑛町","street":"大村（村山）"},{"zipCode":"0710234","prefectureKana":"ﾎｯｶｲﾄﾞｳ","cityKana":"ｶﾐｶﾜｸﾞﾝﾋﾞｴｲﾁｮｳ","streetKana":"ｵｷｷﾈｳｼ","prefecture":"北海道","city":"上川郡美瑛町","street":"置杵牛"},{"zipCode":"0710229","prefectureKana":"ﾎｯｶｲﾄﾞｳ","cityKana":"ｶﾐｶﾜｸﾞﾝﾋﾞｴｲﾁｮｳ","streetKana":"ｶﾐｳﾊﾞｸﾍﾞﾂ","prefecture":"北海道","city":"上川郡美瑛町","street":"上宇莫別"},{"zipCode":"0710206","prefectureKana":"ﾎｯｶｲﾄﾞｳ","cityKana":"ｶﾐｶﾜｸﾞﾝﾋﾞｴｲﾁｮｳ","streetKana":"ｷﾀﾏﾁ","prefecture":"北海道","city":"上川郡美瑛町","street":"北町"},{"zipCode":"0710209","prefectureKana":"ﾎｯｶｲﾄﾞｳ","cityKana":"ｶﾐｶﾜｸﾞﾝﾋﾞｴｲﾁｮｳ","streetKana":"ｺﾄﾌﾞｷﾁｮｳ","prefecture":"北海道","city":"上川郡美瑛町","street":"寿町"},{"zipCode":"0710223","prefectureKana":"ﾎｯｶｲﾄﾞｳ","cityKana":"ｶﾐｶﾜｸﾞﾝﾋﾞｴｲﾁｮｳ","streetKana":"ｺﾞﾘｮｳ","prefecture":"北海道","city":"上川郡美瑛町","street":"五稜"},{"zipCode":"0710214","prefectureKana":"ﾎｯｶｲﾄﾞｳ","cityKana":"ｶﾐｶﾜｸﾞﾝﾋﾞｴｲﾁｮｳ","streetKana":"ｻｲﾜｲﾁｮｳ","prefecture":"北海道","city":"上川郡美瑛町","street":"幸町"},{"zipCode":"0710205","prefectureKana":"ﾎｯｶｲﾄﾞｳ","cityKana":"ｶﾐｶﾜｸﾞﾝﾋﾞｴｲﾁｮｳ","streetKana":"ｻｶｴﾏﾁ","prefecture":"北海道","city":"上川郡美瑛町","street":"栄町"},{"zipCode":"0710247","prefectureKana":"ﾎｯｶｲﾄﾞｳ","cityKana":"ｶﾐｶﾜｸﾞﾝﾋﾞｴｲﾁｮｳ","streetKana":"ｻﾝｱｲ(ｵｵﾏｶﾞﾘ)","prefecture":"北海道","city":"上川郡美瑛町","street":"三愛（大曲）"},{"zipCode":"0710240","prefectureKana":"ﾎｯｶｲﾄﾞｳ","cityKana":"ｶﾐｶﾜｸﾞﾝﾋﾞｴｲﾁｮｳ","streetKana":"ｻﾝｱｲ(ﾐﾄﾞﾘ)","prefecture":"北海道","city":"上川郡美瑛町","street":"三愛（緑）"},{"zipCode":"0710226","prefectureKana":"ﾎｯｶｲﾄﾞｳ","cityKana":"ｶﾐｶﾜｸﾞﾝﾋﾞｴｲﾁｮｳ","streetKana":"ｼﾓｳﾊﾞｸﾍﾞﾂ","prefecture":"北海道","city":"上川郡美瑛町","street":"下宇莫別"},{"zipCode":"0710235","prefectureKana":"ﾎｯｶｲﾄﾞｳ","cityKana":"ｶﾐｶﾜｸﾞﾝﾋﾞｴｲﾁｮｳ","streetKana":"ｼﾛｶﾞﾈ","prefecture":"北海道","city":"上川郡美瑛町","street":"白金"},{"zipCode":"0710233","prefectureKana":"ﾎｯｶｲﾄﾞｳ","cityKana":"ｶﾐｶﾜｸﾞﾝﾋﾞｴｲﾁｮｳ","streetKana":"ｼﾝｸｶｸ","prefecture":"北海道","city":"上川郡美瑛町","street":"新区画"},{"zipCode":"0710473","prefectureKana":"ﾎｯｶｲﾄﾞｳ","cityKana":"ｶﾐｶﾜｸﾞﾝﾋﾞｴｲﾁｮｳ","streetKana":"ｼﾝｾｲ","prefecture":"北海道","city":"上川郡美瑛町","street":"新星"},{"zipCode":"0710474","prefectureKana":"ﾎｯｶｲﾄﾞｳ","cityKana":"ｶﾐｶﾜｸﾞﾝﾋﾞｴｲﾁｮｳ","streetKana":"ﾀｸｼﾝ","prefecture":"北海道","city":"上川郡美瑛町","street":"拓進"},{"zipCode":"0710353","prefectureKana":"ﾎｯｶｲﾄﾞｳ","cityKana":"ｶﾐｶﾜｸﾞﾝﾋﾞｴｲﾁｮｳ","streetKana":"ﾀﾜﾗﾏｯﾌﾟ","prefecture":"北海道","city":"上川郡美瑛町","street":"俵真布"},{"zipCode":"0711474","prefectureKana":"ﾎｯｶｲﾄﾞｳ","cityKana":"ｶﾐｶﾜｸﾞﾝﾋﾞｴｲﾁｮｳ","streetKana":"ﾁｭｳﾍﾞﾂ","prefecture":"北海道","city":"上川郡美瑛町","street":"忠別"},{"zipCode":"0710355","prefectureKana":"ﾎｯｶｲﾄﾞｳ","cityKana":"ｶﾐｶﾜｸﾞﾝﾋﾞｴｲﾁｮｳ","streetKana":"ﾃﾝﾆﾝｷｮｳ","prefecture":"北海道","city":"上川郡美瑛町","street":"天人峡"},{"zipCode":"0710475","prefectureKana":"ﾎｯｶｲﾄﾞｳ","cityKana":"ｶﾐｶﾜｸﾞﾝﾋﾞｴｲﾁｮｳ","streetKana":"ﾄｷﾜ","prefecture":"北海道","city":"上川郡美瑛町","street":"常盤"},{"zipCode":"0710228","prefectureKana":"ﾎｯｶｲﾄﾞｳ","cityKana":"ｶﾐｶﾜｸﾞﾝﾋﾞｴｲﾁｮｳ","streetKana":"ﾅｶｳﾊﾞｸﾍﾞﾂ","prefecture":"北海道","city":"上川郡美瑛町","street":"中宇莫別"},{"zipCode":"0710227","prefectureKana":"ﾎｯｶｲﾄﾞｳ","cityKana":"ｶﾐｶﾜｸﾞﾝﾋﾞｴｲﾁｮｳ","streetKana":"ﾅｶｳﾊﾞｸﾍﾞﾂ(ｱｶﾊﾞﾈ)","prefecture":"北海道","city":"上川郡美瑛町","street":"中宇莫別（赤羽）"},{"zipCode":"0710207","prefectureKana":"ﾎｯｶｲﾄﾞｳ","cityKana":"ｶﾐｶﾜｸﾞﾝﾋﾞｴｲﾁｮｳ","streetKana":"ﾅｶﾏﾁ","prefecture":"北海道","city":"上川郡美瑛町","street":"中町"},{"zipCode":"0710211","prefectureKana":"ﾎｯｶｲﾄﾞｳ","cityKana":"ｶﾐｶﾜｸﾞﾝﾋﾞｴｲﾁｮｳ","streetKana":"ﾆｼｷﾏﾁ","prefecture":"北海道","city":"上川郡美瑛町","street":"錦町"},{"zipCode":"0710203","prefectureKana":"ﾎｯｶｲﾄﾞｳ","cityKana":"ｶﾐｶﾜｸﾞﾝﾋﾞｴｲﾁｮｳ","streetKana":"ﾆｼﾏﾁ","prefecture":"北海道","city":"上川郡美瑛町","street":"西町"},{"zipCode":"0710248","prefectureKana":"ﾎｯｶｲﾄﾞｳ","cityKana":"ｶﾐｶﾜｸﾞﾝﾋﾞｴｲﾁｮｳ","streetKana":"ﾊﾅｿﾞﾉ","prefecture":"北海道","city":"上川郡美瑛町","street":"花園"},{"zipCode":"0710239","prefectureKana":"ﾎｯｶｲﾄﾞｳ","cityKana":"ｶﾐｶﾜｸﾞﾝﾋﾞｴｲﾁｮｳ","streetKana":"ﾋﾞｴｲｹﾞﾝﾔ(ｹﾞﾝﾔ)","prefecture":"北海道","city":"上川郡美瑛町","street":"美瑛原野（原野）"},{"zipCode":"0710213","prefectureKana":"ﾎｯｶｲﾄﾞｳ","cityKana":"ｶﾐｶﾜｸﾞﾝﾋﾞｴｲﾁｮｳ","streetKana":"ﾋｶﾞｼﾏﾁ","prefecture":"北海道","city":"上川郡美瑛町","street":"東町"},{"zipCode":"0710471","prefectureKana":"ﾎｯｶｲﾄﾞｳ","cityKana":"ｶﾐｶﾜｸﾞﾝﾋﾞｴｲﾁｮｳ","streetKana":"ﾋﾞﾊﾞｳｼ","prefecture":"北海道","city":"上川郡美瑛町","street":"美馬牛"},{"zipCode":"0710461","prefectureKana":"ﾎｯｶｲﾄﾞｳ","cityKana":"ｶﾐｶﾜｸﾞﾝﾋﾞｴｲﾁｮｳ","streetKana":"ﾋﾞﾊﾞｳｼｷﾀ","prefecture":"北海道","city":"上川郡美瑛町","street":"美馬牛北"},{"zipCode":"0710472","prefectureKana":"ﾎｯｶｲﾄﾞｳ","cityKana":"ｶﾐｶﾜｸﾞﾝﾋﾞｴｲﾁｮｳ","streetKana":"ﾋﾞﾊﾞｳｼｼｶﾞｲﾁ","prefecture":"北海道","city":"上川郡美瑛町","street":"美馬牛市街地"},{"zipCode":"0710462","prefectureKana":"ﾎｯｶｲﾄﾞｳ","cityKana":"ｶﾐｶﾜｸﾞﾝﾋﾞｴｲﾁｮｳ","streetKana":"ﾋﾞﾊﾞｳｼﾐﾅﾐ","prefecture":"北海道","city":"上川郡美瑛町","street":"美馬牛南"},{"zipCode":"0710245","prefectureKana":"ﾎｯｶｲﾄﾞｳ","cityKana":"ｶﾐｶﾜｸﾞﾝﾋﾞｴｲﾁｮｳ","streetKana":"ﾌｸﾄﾐ(ﾌｸﾄﾐｴｲｼﾝ)","prefecture":"北海道","city":"上川郡美瑛町","street":"福富（福富瑛進）"},{"zipCode":"0710246","prefectureKana":"ﾎｯｶｲﾄﾞｳ","cityKana":"ｶﾐｶﾜｸﾞﾝﾋﾞｴｲﾁｮｳ","streetKana":"ﾌｸﾄﾐ(ﾌｸﾄﾐｲｺｲ)","prefecture":"北海道","city":"上川郡美瑛町","street":"福富（福富憩）"},{"zipCode":"0710244","prefectureKana":"ﾎｯｶｲﾄﾞｳ","cityKana":"ｶﾐｶﾜｸﾞﾝﾋﾞｴｲﾁｮｳ","streetKana":"ﾌｸﾄﾐ(ﾌｸﾐｻﾞﾜ)","prefecture":"北海道","city":"上川郡美瑛町","street":"福富（福美沢）"},{"zipCode":"0710237","prefectureKana":"ﾎｯｶｲﾄﾞｳ","cityKana":"ｶﾐｶﾜｸﾞﾝﾋﾞｴｲﾁｮｳ","streetKana":"ﾌｸﾄﾐ(ﾎｳｴｲ)","prefecture":"北海道","city":"上川郡美瑛町","street":"福富（豊栄）"},{"zipCode":"0710243","prefectureKana":"ﾎｯｶｲﾄﾞｳ","cityKana":"ｶﾐｶﾜｸﾞﾝﾋﾞｴｲﾁｮｳ","streetKana":"ﾌｸﾄﾐ(ﾏﾐﾔ)","prefecture":"北海道","city":"上川郡美瑛町","street":"福富（間宮）"},{"zipCode":"0710238","prefectureKana":"ﾎｯｶｲﾄﾞｳ","cityKana":"ｶﾐｶﾜｸﾞﾝﾋﾞｴｲﾁｮｳ","streetKana":"ﾌｼﾞﾉ","prefecture":"北海道","city":"上川郡美瑛町","street":"藤野"},{"zipCode":"0710477","prefectureKana":"ﾎｯｶｲﾄﾞｳ","cityKana":"ｶﾐｶﾜｸﾞﾝﾋﾞｴｲﾁｮｳ","streetKana":"ﾌﾀﾏﾀ","prefecture":"北海道","city":"上川郡美瑛町","street":"二股"},{"zipCode":"0710224","prefectureKana":"ﾎｯｶｲﾄﾞｳ","cityKana":"ｶﾐｶﾜｸﾞﾝﾋﾞｴｲﾁｮｳ","streetKana":"ﾎｸｴｲ","prefecture":"北海道","city":"上川郡美瑛町","street":"北瑛"},{"zipCode":"0710201","prefectureKana":"ﾎｯｶｲﾄﾞｳ","cityKana":"ｶﾐｶﾜｸﾞﾝﾋﾞｴｲﾁｮｳ","streetKana":"ﾏﾙﾔﾏ","prefecture":"北海道","city":"上川郡美瑛町","street":"丸山"},{"zipCode":"0710236","prefectureKana":"ﾎｯｶｲﾄﾞｳ","cityKana":"ｶﾐｶﾜｸﾞﾝﾋﾞｴｲﾁｮｳ","streetKana":"ﾐｻﾜ","prefecture":"北海道","city":"上川郡美瑛町","street":"美沢"},{"zipCode":"0710242","prefectureKana":"ﾎｯｶｲﾄﾞｳ","cityKana":"ｶﾐｶﾜｸﾞﾝﾋﾞｴｲﾁｮｳ","streetKana":"ﾐｽﾞｻﾜ","prefecture":"北海道","city":"上川郡美瑛町","street":"水沢"},{"zipCode":"0710241","prefectureKana":"ﾎｯｶｲﾄﾞｳ","cityKana":"ｶﾐｶﾜｸﾞﾝﾋﾞｴｲﾁｮｳ","streetKana":"ﾐｽﾞｻﾜ(ﾐｽﾞｶﾐ)","prefecture":"北海道","city":"上川郡美瑛町","street":"水沢（水上）"},{"zipCode":"0710479","prefectureKana":"ﾎｯｶｲﾄﾞｳ","cityKana":"ｶﾐｶﾜｸﾞﾝﾋﾞｴｲﾁｮｳ","streetKana":"ﾐｿﾉ","prefecture":"北海道","city":"上川郡美瑛町","street":"美園"},{"zipCode":"0710222","prefectureKana":"ﾎｯｶｲﾄﾞｳ","cityKana":"ｶﾐｶﾜｸﾞﾝﾋﾞｴｲﾁｮｳ","streetKana":"ﾐﾀ","prefecture":"北海道","city":"上川郡美瑛町","street":"美田"},{"zipCode":"0710221","prefectureKana":"ﾎｯｶｲﾄﾞｳ","cityKana":"ｶﾐｶﾜｸﾞﾝﾋﾞｴｲﾁｮｳ","streetKana":"ﾐﾀ(ﾕｳﾊﾞﾘ)","prefecture":"北海道","city":"上川郡美瑛町","street":"美田（夕張）"},{"zipCode":"0710202","prefectureKana":"ﾎｯｶｲﾄﾞｳ","cityKana":"ｶﾐｶﾜｸﾞﾝﾋﾞｴｲﾁｮｳ","streetKana":"ﾐﾅﾐﾏﾁ","prefecture":"北海道","city":"上川郡美瑛町","street":"南町"},{"zipCode":"0710476","prefectureKana":"ﾎｯｶｲﾄﾞｳ","cityKana":"ｶﾐｶﾜｸﾞﾝﾋﾞｴｲﾁｮｳ","streetKana":"ﾐﾏｷ","prefecture":"北海道","city":"上川郡美瑛町","street":"御牧"},{"zipCode":"0710231","prefectureKana":"ﾎｯｶｲﾄﾞｳ","cityKana":"ｶﾐｶﾜｸﾞﾝﾋﾞｴｲﾁｮｳ","streetKana":"ﾒｲｼﾞ","prefecture":"北海道","city":"上川郡美瑛町","street":"明治"},{"zipCode":"0710225","prefectureKana":"ﾎｯｶｲﾄﾞｳ","cityKana":"ｶﾐｶﾜｸﾞﾝﾋﾞｴｲﾁｮｳ","streetKana":"ﾒｲｼﾞ(ﾀﾞｲｻﾝ)","prefecture":"北海道","city":"上川郡美瑛町","street":"明治（大三）"},{"zipCode":"0710232","prefectureKana":"ﾎｯｶｲﾄﾞｳ","cityKana":"ｶﾐｶﾜｸﾞﾝﾋﾞｴｲﾁｮｳ","streetKana":"ﾒｲｼﾞ(ﾇﾏｻﾞｷ)","prefecture":"北海道","city":"上川郡美瑛町","street":"明治（沼崎）"},{"zipCode":"0710208","prefectureKana":"ﾎｯｶｲﾄﾞｳ","cityKana":"ｶﾐｶﾜｸﾞﾝﾋﾞｴｲﾁｮｳ","streetKana":"ﾓﾄﾏﾁ","prefecture":"北海道","city":"上川郡美瑛町","street":"本町"},{"zipCode":"0710351","prefectureKana":"ﾎｯｶｲﾄﾞｳ","cityKana":"ｶﾐｶﾜｸﾞﾝﾋﾞｴｲﾁｮｳ","streetKana":"ﾖｺｳｼ","prefecture":"北海道","city":"上川郡美瑛町","street":"横牛"},{"zipCode":"0710478","prefectureKana":"ﾎｯｶｲﾄﾞｳ","cityKana":"ｶﾐｶﾜｸﾞﾝﾋﾞｴｲﾁｮｳ","streetKana":"ﾙﾍﾞｼﾍﾞ","prefecture":"北海道","city":"上川郡美瑛町","street":"瑠辺蘂"},{"zipCode":"0710352","prefectureKana":"ﾎｯｶｲﾄﾞｳ","cityKana":"ｶﾐｶﾜｸﾞﾝﾋﾞｴｲﾁｮｳ","streetKana":"ﾛｳﾈﾅｲ","prefecture":"北海道","city":"上川郡美瑛町","street":"朗根内"},{"zipCode":"0710500","prefectureKana":"ﾎｯｶｲﾄﾞｳ","cityKana":"ｿﾗﾁｸﾞﾝｶﾐﾌﾗﾉﾁｮｳ","streetKana":"ｲｶﾆｹｲｻｲｶﾞﾅｲﾊﾞｱｲ","prefecture":"北海道","city":"空知郡上富良野町","street":"以下に掲載がない場合"},{"zipCode":"0710553","prefectureKana":"ﾎｯｶｲﾄﾞｳ","cityKana":"ｿﾗﾁｸﾞﾝｶﾐﾌﾗﾉﾁｮｳ","streetKana":"ｱｻﾋﾏﾁ","prefecture":"北海道","city":"空知郡上富良野町","street":"旭町"},{"zipCode":"0710571","prefectureKana":"ﾎｯｶｲﾄﾞｳ","cityKana":"ｿﾗﾁｸﾞﾝｶﾐﾌﾗﾉﾁｮｳ","streetKana":"ｱﾗｲﾎﾞｸｼﾞｮｳ","prefecture":"北海道","city":"空知郡上富良野町","street":"新井牧場"},{"zipCode":"0710547","prefectureKana":"ﾎｯｶｲﾄﾞｳ","cityKana":"ｿﾗﾁｸﾞﾝｶﾐﾌﾗﾉﾁｮｳ","streetKana":"ｲｽﾞﾐﾏﾁ","prefecture":"北海道","city":"空知郡上富良野町","street":"泉町"},{"zipCode":"0710548","prefectureKana":"ﾎｯｶｲﾄﾞｳ","cityKana":"ｿﾗﾁｸﾞﾝｶﾐﾌﾗﾉﾁｮｳ","streetKana":"ｵｳｷﾞﾏﾁ","prefecture":"北海道","city":"空知郡上富良野町","street":"扇町"},{"zipCode":"0710561","prefectureKana":"ﾎｯｶｲﾄﾞｳ","cityKana":"ｿﾗﾁｸﾞﾝｶﾐﾌﾗﾉﾁｮｳ","streetKana":"ｵｵﾏﾁ","prefecture":"北海道","city":"空知郡上富良野町","street":"大町"},{"zipCode":"0710565","prefectureKana":"ﾎｯｶｲﾄﾞｳ","cityKana":"ｿﾗﾁｸﾞﾝｶﾐﾌﾗﾉﾁｮｳ","streetKana":"ｵｶﾏﾁ","prefecture":"北海道","city":"空知郡上富良野町","street":"丘町"},{"zipCode":"0710520","prefectureKana":"ﾎｯｶｲﾄﾞｳ","cityKana":"ｿﾗﾁｸﾞﾝｶﾐﾌﾗﾉﾁｮｳ","streetKana":"ｷｾﾝｷﾀ","prefecture":"北海道","city":"空知郡上富良野町","street":"基線北"},{"zipCode":"0710549","prefectureKana":"ﾎｯｶｲﾄﾞｳ","cityKana":"ｿﾗﾁｸﾞﾝｶﾐﾌﾗﾉﾁｮｳ","streetKana":"ｷﾀﾏﾁ","prefecture":"北海道","city":"空知郡上富良野町","street":"北町"},{"zipCode":"0710544","prefectureKana":"ﾎｯｶｲﾄﾞｳ","cityKana":"ｿﾗﾁｸﾞﾝｶﾐﾌﾗﾉﾁｮｳ","streetKana":"ｻｶｴﾏﾁ","prefecture":"北海道","city":"空知郡上富良野町","street":"栄町"},{"zipCode":"0710564","prefectureKana":"ﾎｯｶｲﾄﾞｳ","cityKana":"ｿﾗﾁｸﾞﾝｶﾐﾌﾗﾉﾁｮｳ","streetKana":"ｻｸﾗﾏﾁ","prefecture":"北海道","city":"空知郡上富良野町","street":"桜町"},{"zipCode":"0710576","prefectureKana":"ﾎｯｶｲﾄﾞｳ","cityKana":"ｿﾗﾁｸﾞﾝｶﾐﾌﾗﾉﾁｮｳ","streetKana":"ｼﾞｭｳﾆﾝﾎﾞｸｼﾞｮｳ","prefecture":"北海道","city":"空知郡上富良野町","street":"十人牧場"},{"zipCode":"0710554","prefectureKana":"ﾎｯｶｲﾄﾞｳ","cityKana":"ｿﾗﾁｸﾞﾝｶﾐﾌﾗﾉﾁｮｳ","streetKana":"ｼﾝﾏﾁ","prefecture":"北海道","city":"空知郡上富良野町","street":"新町"},{"zipCode":"0710574","prefectureKana":"ﾎｯｶｲﾄﾞｳ","cityKana":"ｿﾗﾁｸﾞﾝｶﾐﾌﾗﾉﾁｮｳ","streetKana":"ﾀﾞｲ1ﾔｽｲﾎﾞｸｼﾞｮｳ","prefecture":"北海道","city":"空知郡上富良野町","street":"第１安井牧場"},{"zipCode":"0710575","prefectureKana":"ﾎｯｶｲﾄﾞｳ","cityKana":"ｿﾗﾁｸﾞﾝｶﾐﾌﾗﾉﾁｮｳ","streetKana":"ﾀﾞｲ2ﾔｽｲﾎﾞｸｼﾞｮｳ","prefecture":"北海道","city":"空知郡上富良野町","street":"第２安井牧場"},{"zipCode":"0710583","prefectureKana":"ﾎｯｶｲﾄﾞｳ","cityKana":"ｿﾗﾁｸﾞﾝｶﾐﾌﾗﾉﾁｮｳ","streetKana":"ﾂｺﾞｳﾉｳｼﾞｮｳ","prefecture":"北海道","city":"空知郡上富良野町","street":"津郷農場"},{"zipCode":"0710541","prefectureKana":"ﾎｯｶｲﾄﾞｳ","cityKana":"ｿﾗﾁｸﾞﾝｶﾐﾌﾗﾉﾁｮｳ","streetKana":"ﾄﾐﾏﾁ","prefecture":"北海道","city":"空知郡上富良野町","street":"富町"},{"zipCode":"0710577","prefectureKana":"ﾎｯｶｲﾄﾞｳ","cityKana":"ｿﾗﾁｸﾞﾝｶﾐﾌﾗﾉﾁｮｳ","streetKana":"ﾅｶﾉｻﾜ","prefecture":"北海道","city":"空知郡上富良野町","street":"中の沢"},{"zipCode":"0710543","prefectureKana":"ﾎｯｶｲﾄﾞｳ","cityKana":"ｿﾗﾁｸﾞﾝｶﾐﾌﾗﾉﾁｮｳ","streetKana":"ﾅｶﾏﾁ","prefecture":"北海道","city":"空知郡上富良野町","street":"中町"},{"zipCode":"0710542","prefectureKana":"ﾎｯｶｲﾄﾞｳ","cityKana":"ｿﾗﾁｸﾞﾝｶﾐﾌﾗﾉﾁｮｳ","streetKana":"ﾆｼｷﾏﾁ","prefecture":"北海道","city":"空知郡上富良野町","street":"錦町"},{"zipCode":"0710534","prefectureKana":"ﾎｯｶｲﾄﾞｳ","cityKana":"ｿﾗﾁｸﾞﾝｶﾐﾌﾗﾉﾁｮｳ","streetKana":"ﾆｼﾀﾆﾎﾞｸｼﾞｮｳ","prefecture":"北海道","city":"空知郡上富良野町","street":"西谷牧場"},{"zipCode":"0710546","prefectureKana":"ﾎｯｶｲﾄﾞｳ","cityKana":"ｿﾗﾁｸﾞﾝｶﾐﾌﾗﾉﾁｮｳ","streetKana":"ﾆｼﾏﾁ","prefecture":"北海道","city":"空知郡上富良野町","street":"西町"},{"zipCode":"0710501","prefectureKana":"ﾎｯｶｲﾄﾞｳ","cityKana":"ｿﾗﾁｸﾞﾝｶﾐﾌﾗﾉﾁｮｳ","streetKana":"ﾆｼ1ｾﾝｷﾀ","prefecture":"北海道","city":"空知郡上富良野町","street":"西１線北"},{"zipCode":"0710502","prefectureKana":"ﾎｯｶｲﾄﾞｳ","cityKana":"ｿﾗﾁｸﾞﾝｶﾐﾌﾗﾉﾁｮｳ","streetKana":"ﾆｼ2ｾﾝｷﾀ","prefecture":"北海道","city":"空知郡上富良野町","street":"西２線北"},{"zipCode":"0710503","prefectureKana":"ﾎｯｶｲﾄﾞｳ","cityKana":"ｿﾗﾁｸﾞﾝｶﾐﾌﾗﾉﾁｮｳ","streetKana":"ﾆｼ3ｾﾝｷﾀ","prefecture":"北海道","city":"空知郡上富良野町","street":"西３線北"},{"zipCode":"0710504","prefectureKana":"ﾎｯｶｲﾄﾞｳ","cityKana":"ｿﾗﾁｸﾞﾝｶﾐﾌﾗﾉﾁｮｳ","streetKana":"ﾆｼ4ｾﾝｷﾀ","prefecture":"北海道","city":"空知郡上富良野町","street":"西４線北"},{"zipCode":"0710505","prefectureKana":"ﾎｯｶｲﾄﾞｳ","cityKana":"ｿﾗﾁｸﾞﾝｶﾐﾌﾗﾉﾁｮｳ","streetKana":"ﾆｼ5ｾﾝｷﾀ","prefecture":"北海道","city":"空知郡上富良野町","street":"西５線北"},{"zipCode":"0710506","prefectureKana":"ﾎｯｶｲﾄﾞｳ","cityKana":"ｿﾗﾁｸﾞﾝｶﾐﾌﾗﾉﾁｮｳ","streetKana":"ﾆｼ6ｾﾝｷﾀ","prefecture":"北海道","city":"空知郡上富良野町","street":"西６線北"},{"zipCode":"0710507","prefectureKana":"ﾎｯｶｲﾄﾞｳ","cityKana":"ｿﾗﾁｸﾞﾝｶﾐﾌﾗﾉﾁｮｳ","streetKana":"ﾆｼ7ｾﾝｷﾀ","prefecture":"北海道","city":"空知郡上富良野町","street":"西７線北"},{"zipCode":"0710508","prefectureKana":"ﾎｯｶｲﾄﾞｳ","cityKana":"ｿﾗﾁｸﾞﾝｶﾐﾌﾗﾉﾁｮｳ","streetKana":"ﾆｼ8ｾﾝｷﾀ","prefecture":"北海道","city":"空知郡上富良野町","street":"西８線北"},{"zipCode":"0710509","prefectureKana":"ﾎｯｶｲﾄﾞｳ","cityKana":"ｿﾗﾁｸﾞﾝｶﾐﾌﾗﾉﾁｮｳ","streetKana":"ﾆｼ9ｾﾝｷﾀ","prefecture":"北海道","city":"空知郡上富良野町","street":"西９線北"},{"zipCode":"0710510","prefectureKana":"ﾎｯｶｲﾄﾞｳ","cityKana":"ｿﾗﾁｸﾞﾝｶﾐﾌﾗﾉﾁｮｳ","streetKana":"ﾆｼ10ｾﾝｷﾀ","prefecture":"北海道","city":"空知郡上富良野町","street":"西１０線北"},{"zipCode":"0710511","prefectureKana":"ﾎｯｶｲﾄﾞｳ","cityKana":"ｿﾗﾁｸﾞﾝｶﾐﾌﾗﾉﾁｮｳ","streetKana":"ﾆｼ11ｾﾝｷﾀ","prefecture":"北海道","city":"空知郡上富良野町","street":"西１１線北"},{"zipCode":"0710512","prefectureKana":"ﾎｯｶｲﾄﾞｳ","cityKana":"ｿﾗﾁｸﾞﾝｶﾐﾌﾗﾉﾁｮｳ","streetKana":"ﾆｼ12ｾﾝｷﾀ","prefecture":"北海道","city":"空知郡上富良野町","street":"西１２線北"},{"zipCode":"0710513","prefectureKana":"ﾎｯｶｲﾄﾞｳ","cityKana":"ｿﾗﾁｸﾞﾝｶﾐﾌﾗﾉﾁｮｳ","streetKana":"ﾆｼ13ｾﾝｷﾀ","prefecture":"北海道","city":"空知郡上富良野町","street":"西１３線北"},{"zipCode":"0710514","prefectureKana":"ﾎｯｶｲﾄﾞｳ","cityKana":"ｿﾗﾁｸﾞﾝｶﾐﾌﾗﾉﾁｮｳ","streetKana":"ﾆｼ14ｾﾝｷﾀ","prefecture":"北海道","city":"空知郡上富良野町","street":"西１４線北"},{"zipCode":"0710515","prefectureKana":"ﾎｯｶｲﾄﾞｳ","cityKana":"ｿﾗﾁｸﾞﾝｶﾐﾌﾗﾉﾁｮｳ","streetKana":"ﾆｼ15ｾﾝｷﾀ","prefecture":"北海道","city":"空知郡上富良野町","street":"西１５線北"},{"zipCode":"0710516","prefectureKana":"ﾎｯｶｲﾄﾞｳ","cityKana":"ｿﾗﾁｸﾞﾝｶﾐﾌﾗﾉﾁｮｳ","streetKana":"ﾆｼ16ｾﾝｷﾀ","prefecture":"北海道","city":"空知郡上富良野町","street":"西１６線北"},{"zipCode":"0710517","prefectureKana":"ﾎｯｶｲﾄﾞｳ","cityKana":"ｿﾗﾁｸﾞﾝｶﾐﾌﾗﾉﾁｮｳ","streetKana":"ﾇﾏｻﾞｷﾉｳｼﾞｮｳ","prefecture":"北海道","city":"空知郡上富良野町","street":"沼崎農場"},{"zipCode":"0710533","prefectureKana":"ﾎｯｶｲﾄﾞｳ","cityKana":"ｿﾗﾁｸﾞﾝｶﾐﾌﾗﾉﾁｮｳ","streetKana":"ﾊﾞｲﾎﾝﾉｳｼﾞｮｳ","prefecture":"北海道","city":"空知郡上富良野町","street":"倍本農場"},{"zipCode":"0710545","prefectureKana":"ﾎｯｶｲﾄﾞｳ","cityKana":"ｿﾗﾁｸﾞﾝｶﾐﾌﾗﾉﾁｮｳ","streetKana":"ﾋｶﾘﾏﾁ","prefecture":"北海道","city":"空知郡上富良野町","street":"光町"},{"zipCode":"0710555","prefectureKana":"ﾎｯｶｲﾄﾞｳ","cityKana":"ｿﾗﾁｸﾞﾝｶﾐﾌﾗﾉﾁｮｳ","streetKana":"ﾋｶﾞｼﾏﾁ","prefecture":"北海道","city":"空知郡上富良野町","street":"東町"},{"zipCode":"0710521","prefectureKana":"ﾎｯｶｲﾄﾞｳ","cityKana":"ｿﾗﾁｸﾞﾝｶﾐﾌﾗﾉﾁｮｳ","streetKana":"ﾋｶﾞｼ1ｾﾝｷﾀ","prefecture":"北海道","city":"空知郡上富良野町","street":"東１線北"},{"zipCode":"0710522","prefectureKana":"ﾎｯｶｲﾄﾞｳ","cityKana":"ｿﾗﾁｸﾞﾝｶﾐﾌﾗﾉﾁｮｳ","streetKana":"ﾋｶﾞｼ2ｾﾝｷﾀ","prefecture":"北海道","city":"空知郡上富良野町","street":"東２線北"},{"zipCode":"0710523","prefectureKana":"ﾎｯｶｲﾄﾞｳ","cityKana":"ｿﾗﾁｸﾞﾝｶﾐﾌﾗﾉﾁｮｳ","streetKana":"ﾋｶﾞｼ3ｾﾝｷﾀ","prefecture":"北海道","city":"空知郡上富良野町","street":"東３線北"},{"zipCode":"0710524","prefectureKana":"ﾎｯｶｲﾄﾞｳ","cityKana":"ｿﾗﾁｸﾞﾝｶﾐﾌﾗﾉﾁｮｳ","streetKana":"ﾋｶﾞｼ4ｾﾝｷﾀ","prefecture":"北海道","city":"空知郡上富良野町","street":"東４線北"},{"zipCode":"0710525","prefectureKana":"ﾎｯｶｲﾄﾞｳ","cityKana":"ｿﾗﾁｸﾞﾝｶﾐﾌﾗﾉﾁｮｳ","streetKana":"ﾋｶﾞｼ5ｾﾝｷﾀ","prefecture":"北海道","city":"空知郡上富良野町","street":"東５線北"},{"zipCode":"0710526","prefectureKana":"ﾎｯｶｲﾄﾞｳ","cityKana":"ｿﾗﾁｸﾞﾝｶﾐﾌﾗﾉﾁｮｳ","streetKana":"ﾋｶﾞｼ6ｾﾝｷﾀ","prefecture":"北海道","city":"空知郡上富良野町","street":"東６線北"},{"zipCode":"0710527","prefectureKana":"ﾎｯｶｲﾄﾞｳ","cityKana":"ｿﾗﾁｸﾞﾝｶﾐﾌﾗﾉﾁｮｳ","streetKana":"ﾋｶﾞｼ7ｾﾝｷﾀ","prefecture":"北海道","city":"空知郡上富良野町","street":"東７線北"},{"zipCode":"0710528","prefectureKana":"ﾎｯｶｲﾄﾞｳ","cityKana":"ｿﾗﾁｸﾞﾝｶﾐﾌﾗﾉﾁｮｳ","streetKana":"ﾋｶﾞｼ8ｾﾝｷﾀ","prefecture":"北海道","city":"空知郡上富良野町","street":"東８線北"},{"zipCode":"0710529","prefectureKana":"ﾎｯｶｲﾄﾞｳ","cityKana":"ｿﾗﾁｸﾞﾝｶﾐﾌﾗﾉﾁｮｳ","streetKana":"ﾋｶﾞｼ9ｾﾝｷﾀ","prefecture":"北海道","city":"空知郡上富良野町","street":"東９線北"},{"zipCode":"0710530","prefectureKana":"ﾎｯｶｲﾄﾞｳ","cityKana":"ｿﾗﾁｸﾞﾝｶﾐﾌﾗﾉﾁｮｳ","streetKana":"ﾋｶﾞｼ10ｾﾝｷﾀ","prefecture":"北海道","city":"空知郡上富良野町","street":"東１０線北"},{"zipCode":"0710531","prefectureKana":"ﾎｯｶｲﾄﾞｳ","cityKana":"ｿﾗﾁｸﾞﾝｶﾐﾌﾗﾉﾁｮｳ","streetKana":"ﾋｶﾞｼ11ｾﾝｷﾀ","prefecture":"北海道","city":"空知郡上富良野町","street":"東１１線北"},{"zipCode":"0710532","prefectureKana":"ﾎｯｶｲﾄﾞｳ","cityKana":"ｿﾗﾁｸﾞﾝｶﾐﾌﾗﾉﾁｮｳ","streetKana":"ﾋｶﾞｼ12ｾﾝｷﾀ","prefecture":"北海道","city":"空知郡上富良野町","street":"東１２線北"},{"zipCode":"0710579","prefectureKana":"ﾎｯｶｲﾄﾞｳ","cityKana":"ｿﾗﾁｸﾞﾝｶﾐﾌﾗﾉﾁｮｳ","streetKana":"ﾌｷｱｹﾞ","prefecture":"北海道","city":"空知郡上富良野町","street":"吹上"},{"zipCode":"0710572","prefectureKana":"ﾎｯｶｲﾄﾞｳ","cityKana":"ｿﾗﾁｸﾞﾝｶﾐﾌﾗﾉﾁｮｳ","streetKana":"ﾎｿﾉﾉｳｼﾞｮｳ","prefecture":"北海道","city":"空知郡上富良野町","street":"細野農場"},{"zipCode":"0710573","prefectureKana":"ﾎｯｶｲﾄﾞｳ","cityKana":"ｿﾗﾁｸﾞﾝｶﾐﾌﾗﾉﾁｮｳ","streetKana":"ﾏﾂｲﾎﾞｸｼﾞｮｳ","prefecture":"北海道","city":"空知郡上富良野町","street":"松井牧場"},{"zipCode":"0710563","prefectureKana":"ﾎｯｶｲﾄﾞｳ","cityKana":"ｿﾗﾁｸﾞﾝｶﾐﾌﾗﾉﾁｮｳ","streetKana":"ﾐﾄﾞﾘﾏﾁ","prefecture":"北海道","city":"空知郡上富良野町","street":"緑町"},{"zipCode":"0710562","prefectureKana":"ﾎｯｶｲﾄﾞｳ","cityKana":"ｿﾗﾁｸﾞﾝｶﾐﾌﾗﾉﾁｮｳ","streetKana":"ﾐﾅﾐﾏﾁ","prefecture":"北海道","city":"空知郡上富良野町","street":"南町"},{"zipCode":"0710552","prefectureKana":"ﾎｯｶｲﾄﾞｳ","cityKana":"ｿﾗﾁｸﾞﾝｶﾐﾌﾗﾉﾁｮｳ","streetKana":"ﾐﾔﾏﾁ","prefecture":"北海道","city":"空知郡上富良野町","street":"宮町"},{"zipCode":"0710566","prefectureKana":"ﾎｯｶｲﾄﾞｳ","cityKana":"ｿﾗﾁｸﾞﾝｶﾐﾌﾗﾉﾁｮｳ","streetKana":"ﾑｶｲﾏﾁ","prefecture":"北海道","city":"空知郡上富良野町","street":"向町"},{"zipCode":"0710551","prefectureKana":"ﾎｯｶｲﾄﾞｳ","cityKana":"ｿﾗﾁｸﾞﾝｶﾐﾌﾗﾉﾁｮｳ","streetKana":"ﾓﾄﾏﾁ","prefecture":"北海道","city":"空知郡上富良野町","street":"本町"},{"zipCode":"0710578","prefectureKana":"ﾎｯｶｲﾄﾞｳ","cityKana":"ｿﾗﾁｸﾞﾝｶﾐﾌﾗﾉﾁｮｳ","streetKana":"ﾔﾏｶﾉｳｼﾞｮｳ","prefecture":"北海道","city":"空知郡上富良野町","street":"山加農場"},{"zipCode":"0710700","prefectureKana":"ﾎｯｶｲﾄﾞｳ","cityKana":"ｿﾗﾁｸﾞﾝﾅｶﾌﾗﾉﾁｮｳ","streetKana":"ｲｶﾆｹｲｻｲｶﾞﾅｲﾊﾞｱｲ","prefecture":"北海道","city":"空知郡中富良野町","street":"以下に掲載がない場合"},{"zipCode":"0710770","prefectureKana":"ﾎｯｶｲﾄﾞｳ","cityKana":"ｿﾗﾁｸﾞﾝﾅｶﾌﾗﾉﾁｮｳ","streetKana":"ｱｶﾂｷﾏﾁ","prefecture":"北海道","city":"空知郡中富良野町","street":"暁町"},{"zipCode":"0710755","prefectureKana":"ﾎｯｶｲﾄﾞｳ","cityKana":"ｿﾗﾁｸﾞﾝﾅｶﾌﾗﾉﾁｮｳ","streetKana":"ｱｻﾋﾏﾁ","prefecture":"北海道","city":"空知郡中富良野町","street":"旭町"},{"zipCode":"0710733","prefectureKana":"ﾎｯｶｲﾄﾞｳ","cityKana":"ｿﾗﾁｸﾞﾝﾅｶﾌﾗﾉﾁｮｳ","streetKana":"ｲﾄｳﾉｳｼﾞｮｳ(ｼﾌﾞｹｳｼ)","prefecture":"北海道","city":"空知郡中富良野町","street":"伊藤農場（渋毛牛）"},{"zipCode":"0710762","prefectureKana":"ﾎｯｶｲﾄﾞｳ","cityKana":"ｿﾗﾁｸﾞﾝﾅｶﾌﾗﾉﾁｮｳ","streetKana":"ｵｶﾏﾁ","prefecture":"北海道","city":"空知郡中富良野町","street":"丘町"},{"zipCode":"0710704","prefectureKana":"ﾎｯｶｲﾄﾞｳ","cityKana":"ｿﾗﾁｸﾞﾝﾅｶﾌﾗﾉﾁｮｳ","streetKana":"ｷｾﾝｷﾀ","prefecture":"北海道","city":"空知郡中富良野町","street":"基線北"},{"zipCode":"0710751","prefectureKana":"ﾎｯｶｲﾄﾞｳ","cityKana":"ｿﾗﾁｸﾞﾝﾅｶﾌﾗﾉﾁｮｳ","streetKana":"ｷﾀﾏﾁ","prefecture":"北海道","city":"空知郡中富良野町","street":"北町"},{"zipCode":"0710734","prefectureKana":"ﾎｯｶｲﾄﾞｳ","cityKana":"ｿﾗﾁｸﾞﾝﾅｶﾌﾗﾉﾁｮｳ","streetKana":"ｼｶｳﾁﾉｳｼﾞｮｳ(ｼｶｳﾁ)","prefecture":"北海道","city":"空知郡中富良野町","street":"鹿討農場（鹿討）"},{"zipCode":"0710731","prefectureKana":"ﾎｯｶｲﾄﾞｳ","cityKana":"ｿﾗﾁｸﾞﾝﾅｶﾌﾗﾉﾁｮｳ","streetKana":"ｼﾝﾀﾅｶﾉｳｼﾞｮｳ","prefecture":"北海道","city":"空知郡中富良野町","street":"新田中農場"},{"zipCode":"0710754","prefectureKana":"ﾎｯｶｲﾄﾞｳ","cityKana":"ｿﾗﾁｸﾞﾝﾅｶﾌﾗﾉﾁｮｳ","streetKana":"ｼﾝﾏﾁ","prefecture":"北海道","city":"空知郡中富良野町","street":"新町"},{"zipCode":"0710732","prefectureKana":"ﾎｯｶｲﾄﾞｳ","cityKana":"ｿﾗﾁｸﾞﾝﾅｶﾌﾗﾉﾁｮｳ","streetKana":"ﾀﾅｶﾉｳｼﾞｮｳ(ﾚｲｶ､ﾔﾏﾆﾉｳｼﾞｮｳ､ﾔﾏﾆﾎﾞｸｼﾞｮｳ)","prefecture":"北海道","city":"空知郡中富良野町","street":"田中農場（鈴和、山仁農場、山仁牧場）"},{"zipCode":"0710737","prefectureKana":"ﾎｯｶｲﾄﾞｳ","cityKana":"ｿﾗﾁｸﾞﾝﾅｶﾌﾗﾉﾁｮｳ","streetKana":"ﾅｴ","prefecture":"北海道","city":"空知郡中富良野町","street":"奈江"},{"zipCode":"0710705","prefectureKana":"ﾎｯｶｲﾄﾞｳ","cityKana":"ｿﾗﾁｸﾞﾝﾅｶﾌﾗﾉﾁｮｳ","streetKana":"ﾆｼ1ｾﾝｷﾀ","prefecture":"北海道","city":"空知郡中富良野町","street":"西１線北"},{"zipCode":"0710706","prefectureKana":"ﾎｯｶｲﾄﾞｳ","cityKana":"ｿﾗﾁｸﾞﾝﾅｶﾌﾗﾉﾁｮｳ","streetKana":"ﾆｼ2ｾﾝｷﾀ","prefecture":"北海道","city":"空知郡中富良野町","street":"西２線北"},{"zipCode":"0710707","prefectureKana":"ﾎｯｶｲﾄﾞｳ","cityKana":"ｿﾗﾁｸﾞﾝﾅｶﾌﾗﾉﾁｮｳ","streetKana":"ﾆｼ3ｾﾝｷﾀ","prefecture":"北海道","city":"空知郡中富良野町","street":"西３線北"},{"zipCode":"0710761","prefectureKana":"ﾎｯｶｲﾄﾞｳ","cityKana":"ｿﾗﾁｸﾞﾝﾅｶﾌﾗﾉﾁｮｳ","streetKana":"ﾆｼﾏﾁ","prefecture":"北海道","city":"空知郡中富良野町","street":"西町"},{"zipCode":"0710735","prefectureKana":"ﾎｯｶｲﾄﾞｳ","cityKana":"ｿﾗﾁｸﾞﾝﾅｶﾌﾗﾉﾁｮｳ","streetKana":"ﾆｯｼﾝ","prefecture":"北海道","city":"空知郡中富良野町","street":"日進"},{"zipCode":"0710771","prefectureKana":"ﾎｯｶｲﾄﾞｳ","cityKana":"ｿﾗﾁｸﾞﾝﾅｶﾌﾗﾉﾁｮｳ","streetKana":"ﾋｶﾞｼ1ｾﾝｷﾀ","prefecture":"北海道","city":"空知郡中富良野町","street":"東１線北"},{"zipCode":"0710772","prefectureKana":"ﾎｯｶｲﾄﾞｳ","cityKana":"ｿﾗﾁｸﾞﾝﾅｶﾌﾗﾉﾁｮｳ","streetKana":"ﾋｶﾞｼ2ｾﾝｷﾀ","prefecture":"北海道","city":"空知郡中富良野町","street":"東２線北"},{"zipCode":"0710773","prefectureKana":"ﾎｯｶｲﾄﾞｳ","cityKana":"ｿﾗﾁｸﾞﾝﾅｶﾌﾗﾉﾁｮｳ","streetKana":"ﾋｶﾞｼ3ｾﾝｷﾀ","prefecture":"北海道","city":"空知郡中富良野町","street":"東３線北"},{"zipCode":"0710774","prefectureKana":"ﾎｯｶｲﾄﾞｳ","cityKana":"ｿﾗﾁｸﾞﾝﾅｶﾌﾗﾉﾁｮｳ","streetKana":"ﾋｶﾞｼ4ｾﾝｷﾀ","prefecture":"北海道","city":"空知郡中富良野町","street":"東４線北"},{"zipCode":"0710775","prefectureKana":"ﾎｯｶｲﾄﾞｳ","cityKana":"ｿﾗﾁｸﾞﾝﾅｶﾌﾗﾉﾁｮｳ","streetKana":"ﾋｶﾞｼ5ｾﾝｷﾀ","prefecture":"北海道","city":"空知郡中富良野町","street":"東５線北"},{"zipCode":"0710776","prefectureKana":"ﾎｯｶｲﾄﾞｳ","cityKana":"ｿﾗﾁｸﾞﾝﾅｶﾌﾗﾉﾁｮｳ","streetKana":"ﾋｶﾞｼ6ｾﾝｷﾀ","prefecture":"北海道","city":"空知郡中富良野町","street":"東６線北"},{"zipCode":"0710777","prefectureKana":"ﾎｯｶｲﾄﾞｳ","cityKana":"ｿﾗﾁｸﾞﾝﾅｶﾌﾗﾉﾁｮｳ","streetKana":"ﾋｶﾞｼ7ｾﾝｷﾀ","prefecture":"北海道","city":"空知郡中富良野町","street":"東７線北"},{"zipCode":"0710778","prefectureKana":"ﾎｯｶｲﾄﾞｳ","cityKana":"ｿﾗﾁｸﾞﾝﾅｶﾌﾗﾉﾁｮｳ","streetKana":"ﾋｶﾞｼ8ｾﾝｷﾀ","prefecture":"北海道","city":"空知郡中富良野町","street":"東８線北"},{"zipCode":"0710779","prefectureKana":"ﾎｯｶｲﾄﾞｳ","cityKana":"ｿﾗﾁｸﾞﾝﾅｶﾌﾗﾉﾁｮｳ","streetKana":"ﾋｶﾞｼ9ｾﾝｷﾀ","prefecture":"北海道","city":"空知郡中富良野町","street":"東９線北"},{"zipCode":"0710780","prefectureKana":"ﾎｯｶｲﾄﾞｳ","cityKana":"ｿﾗﾁｸﾞﾝﾅｶﾌﾗﾉﾁｮｳ","streetKana":"ﾋｶﾞｼ10ｾﾝｷﾀ","prefecture":"北海道","city":"空知郡中富良野町","street":"東１０線北"},{"zipCode":"0710781","prefectureKana":"ﾎｯｶｲﾄﾞｳ","cityKana":"ｿﾗﾁｸﾞﾝﾅｶﾌﾗﾉﾁｮｳ","streetKana":"ﾋｶﾞｼ11ｾﾝｷﾀ","prefecture":"北海道","city":"空知郡中富良野町","street":"東１１線北"},{"zipCode":"0710726","prefectureKana":"ﾎｯｶｲﾄﾞｳ","cityKana":"ｿﾗﾁｸﾞﾝﾅｶﾌﾗﾉﾁｮｳ","streetKana":"ﾋｶﾞｼﾏﾁ","prefecture":"北海道","city":"空知郡中富良野町","street":"東町"},{"zipCode":"0710742","prefectureKana":"ﾎｯｶｲﾄﾞｳ","cityKana":"ｿﾗﾁｸﾞﾝﾅｶﾌﾗﾉﾁｮｳ","streetKana":"ﾌｸﾊﾗﾉｳｼﾞｮｳ(ﾌｸﾊﾗ)","prefecture":"北海道","city":"空知郡中富良野町","street":"福原農場（福原）"},{"zipCode":"0710711","prefectureKana":"ﾎｯｶｲﾄﾞｳ","cityKana":"ｿﾗﾁｸﾞﾝﾅｶﾌﾗﾉﾁｮｳ","streetKana":"ﾍﾞﾍﾞﾙｲ(ﾎﾝｺｳ､ｷﾀ13ｺﾞｳｻﾜ)","prefecture":"北海道","city":"空知郡中富良野町","street":"ベベルイ（本幸、北１３号沢）"},{"zipCode":"0710753","prefectureKana":"ﾎｯｶｲﾄﾞｳ","cityKana":"ｿﾗﾁｸﾞﾝﾅｶﾌﾗﾉﾁｮｳ","streetKana":"ﾐﾅﾐﾏﾁ","prefecture":"北海道","city":"空知郡中富良野町","street":"南町"},{"zipCode":"0710714","prefectureKana":"ﾎｯｶｲﾄﾞｳ","cityKana":"ｿﾗﾁｸﾞﾝﾅｶﾌﾗﾉﾁｮｳ","streetKana":"ﾐﾔﾏﾁ","prefecture":"北海道","city":"空知郡中富良野町","street":"宮町"},{"zipCode":"0710752","prefectureKana":"ﾎｯｶｲﾄﾞｳ","cityKana":"ｿﾗﾁｸﾞﾝﾅｶﾌﾗﾉﾁｮｳ","streetKana":"ﾓﾄﾏﾁ","prefecture":"北海道","city":"空知郡中富良野町","street":"本町"},{"zipCode":"0710736","prefectureKana":"ﾎｯｶｲﾄﾞｳ","cityKana":"ｿﾗﾁｸﾞﾝﾅｶﾌﾗﾉﾁｮｳ","streetKana":"ﾖｼｲﾉｳｼﾞｮｳ(ﾖｼｲ)","prefecture":"北海道","city":"空知郡中富良野町","street":"吉井農場（吉井）"}]