[{"zipCode":"0741182","prefectureKana":"ﾎｯｶｲﾄﾞｳ","cityKana":"ｱｻﾋｶﾜｼ","streetKana":"ｶﾑｲﾁｮｳﾄﾖｻﾄ","prefecture":"北海道","city":"旭川市","street":"神居町豊里"},{"zipCode":"0741181","prefectureKana":"ﾎｯｶｲﾄﾞｳ","cityKana":"ｱｻﾋｶﾜｼ","streetKana":"ｶﾑｲﾁｮｳﾆｼｵｶ(ｿﾉﾀ)","prefecture":"北海道","city":"旭川市","street":"神居町西丘（その他）"},{"zipCode":"0740000","prefectureKana":"ﾎｯｶｲﾄﾞｳ","cityKana":"ﾌｶｶﾞﾜｼ","streetKana":"ｲｶﾆｹｲｻｲｶﾞﾅｲﾊﾞｱｲ","prefecture":"北海道","city":"深川市","street":"以下に掲載がない場合"},{"zipCode":"0740001","prefectureKana":"ﾎｯｶｲﾄﾞｳ","cityKana":"ﾌｶｶﾞﾜｼ","streetKana":"1ｼﾞｮｳ","prefecture":"北海道","city":"深川市","street":"一条"},{"zipCode":"0740002","prefectureKana":"ﾎｯｶｲﾄﾞｳ","cityKana":"ﾌｶｶﾞﾜｼ","streetKana":"2ｼﾞｮｳ","prefecture":"北海道","city":"深川市","street":"二条"},{"zipCode":"0740003","prefectureKana":"ﾎｯｶｲﾄﾞｳ","cityKana":"ﾌｶｶﾞﾜｼ","streetKana":"3ｼﾞｮｳ","prefecture":"北海道","city":"深川市","street":"三条"},{"zipCode":"0740004","prefectureKana":"ﾎｯｶｲﾄﾞｳ","cityKana":"ﾌｶｶﾞﾜｼ","streetKana":"4ｼﾞｮｳ","prefecture":"北海道","city":"深川市","street":"四条"},{"zipCode":"0740005","prefectureKana":"ﾎｯｶｲﾄﾞｳ","cityKana":"ﾌｶｶﾞﾜｼ","streetKana":"5ｼﾞｮｳ","prefecture":"北海道","city":"深川市","street":"五条"},{"zipCode":"0740006","prefectureKana":"ﾎｯｶｲﾄﾞｳ","cityKana":"ﾌｶｶﾞﾜｼ","streetKana":"6ｼﾞｮｳ","prefecture":"北海道","city":"深川市","street":"六条"},{"zipCode":"0740007","prefectureKana":"ﾎｯｶｲﾄﾞｳ","cityKana":"ﾌｶｶﾞﾜｼ","streetKana":"7ｼﾞｮｳ","prefecture":"北海道","city":"深川市","street":"七条"},{"zipCode":"0740008","prefectureKana":"ﾎｯｶｲﾄﾞｳ","cityKana":"ﾌｶｶﾞﾜｼ","streetKana":"8ｼﾞｮｳ","prefecture":"北海道","city":"深川市","street":"八条"},{"zipCode":"0740009","prefectureKana":"ﾎｯｶｲﾄﾞｳ","cityKana":"ﾌｶｶﾞﾜｼ","streetKana":"9ｼﾞｮｳ","prefecture":"北海道","city":"深川市","street":"九条"},{"zipCode":"0740031","prefectureKana":"ﾎｯｶｲﾄﾞｳ","cityKana":"ﾌｶｶﾞﾜｼ","streetKana":"ｱｹﾎﾞﾉﾁｮｳ","prefecture":"北海道","city":"深川市","street":"あけぼの町"},{"zipCode":"0740028","prefectureKana":"ﾎｯｶｲﾄﾞｳ","cityKana":"ﾌｶｶﾞﾜｼ","streetKana":"ｲﾁﾔﾝﾁｮｳ","prefecture":"北海道","city":"深川市","street":"一已町"},{"zipCode":"0740021","prefectureKana":"ﾎｯｶｲﾄﾞｳ","cityKana":"ﾌｶｶﾞﾜｼ","streetKana":"ｲﾅﾎﾁｮｳ","prefecture":"北海道","city":"深川市","street":"稲穂町"},{"zipCode":"0740143","prefectureKana":"ﾎｯｶｲﾄﾞｳ","cityKana":"ﾌｶｶﾞﾜｼ","streetKana":"ｳｯｶ","prefecture":"北海道","city":"深川市","street":"ウッカ"},{"zipCode":"0740142","prefectureKana":"ﾎｯｶｲﾄﾞｳ","cityKana":"ﾌｶｶﾞﾜｼ","streetKana":"ｳﾏ","prefecture":"北海道","city":"深川市","street":"宇摩"},{"zipCode":"0741273","prefectureKana":"ﾎｯｶｲﾄﾞｳ","cityKana":"ﾌｶｶﾞﾜｼ","streetKana":"ｵﾄｴﾁｮｳ(1-2ﾁｮｳﾒ)","prefecture":"北海道","city":"深川市","street":"音江町（１～２丁目）"},{"zipCode":"0741276","prefectureKana":"ﾎｯｶｲﾄﾞｳ","cityKana":"ﾌｶｶﾞﾜｼ","streetKana":"ｵﾄｴﾁｮｳ(ｲﾅﾀﾞ)","prefecture":"北海道","city":"深川市","street":"音江町（稲田）"},{"zipCode":"0741273","prefectureKana":"ﾎｯｶｲﾄﾞｳ","cityKana":"ﾌｶｶﾞﾜｼ","streetKana":"ｵﾄｴﾁｮｳ(ｵﾄｴ)","prefecture":"北海道","city":"深川市","street":"音江町（音江）"},{"zipCode":"0741162","prefectureKana":"ﾎｯｶｲﾄﾞｳ","cityKana":"ﾌｶｶﾞﾜｼ","streetKana":"ｵﾄｴﾁｮｳ(ｷｸｵｶ)","prefecture":"北海道","city":"深川市","street":"音江町（菊丘）"},{"zipCode":"0741164","prefectureKana":"ﾎｯｶｲﾄﾞｳ","cityKana":"ﾌｶｶﾞﾜｼ","streetKana":"ｵﾄｴﾁｮｳ(ｸﾆﾐ23-298ﾊﾞﾝﾁ)","prefecture":"北海道","city":"深川市","street":"音江町（国見２３～２９８番地）"},{"zipCode":"0741272","prefectureKana":"ﾎｯｶｲﾄﾞｳ","cityKana":"ﾌｶｶﾞﾜｼ","streetKana":"ｵﾄｴﾁｮｳ(ｸﾆﾐｿﾉﾀ)","prefecture":"北海道","city":"深川市","street":"音江町（国見その他）"},{"zipCode":"0741161","prefectureKana":"ﾎｯｶｲﾄﾞｳ","cityKana":"ﾌｶｶﾞﾜｼ","streetKana":"ｵﾄｴﾁｮｳ(ｺｳｼﾝ)","prefecture":"北海道","city":"深川市","street":"音江町（更進）"},{"zipCode":"0741275","prefectureKana":"ﾎｯｶｲﾄﾞｳ","cityKana":"ﾌｶｶﾞﾜｼ","streetKana":"ｵﾄｴﾁｮｳ(ｺｳﾖｳ)","prefecture":"北海道","city":"深川市","street":"音江町（向陽）"},{"zipCode":"0741274","prefectureKana":"ﾎｯｶｲﾄﾞｳ","cityKana":"ﾌｶｶﾞﾜｼ","streetKana":"ｵﾄｴﾁｮｳ(ﾄﾖｲｽﾞﾐ)","prefecture":"北海道","city":"深川市","street":"音江町（豊泉）"},{"zipCode":"0741271","prefectureKana":"ﾎｯｶｲﾄﾞｳ","cityKana":"ﾌｶｶﾞﾜｼ","streetKana":"ｵﾄｴﾁｮｳ(ﾋﾛｻﾄ)","prefecture":"北海道","city":"深川市","street":"音江町（広里）"},{"zipCode":"0741163","prefectureKana":"ﾎｯｶｲﾄﾞｳ","cityKana":"ﾌｶｶﾞﾜｼ","streetKana":"ｵﾄｴﾁｮｳ(ﾖｼｽﾞﾐ)","prefecture":"北海道","city":"深川市","street":"音江町（吉住）"},{"zipCode":"0740014","prefectureKana":"ﾎｯｶｲﾄﾞｳ","cityKana":"ﾌｶｶﾞﾜｼ","streetKana":"ｶｲｾｲﾁｮｳ","prefecture":"北海道","city":"深川市","street":"開西町"},{"zipCode":"0740024","prefectureKana":"ﾎｯｶｲﾄﾞｳ","cityKana":"ﾌｶｶﾞﾜｼ","streetKana":"ｼﾝｺｳﾁｮｳ","prefecture":"北海道","city":"深川市","street":"新光町"},{"zipCode":"0740023","prefectureKana":"ﾎｯｶｲﾄﾞｳ","cityKana":"ﾌｶｶﾞﾜｼ","streetKana":"ﾀｲｼﾏﾁ","prefecture":"北海道","city":"深川市","street":"太子町"},{"zipCode":"0740144","prefectureKana":"ﾎｯｶｲﾄﾞｳ","cityKana":"ﾌｶｶﾞﾜｼ","streetKana":"ﾀｶﾄﾞﾏﾘ","prefecture":"北海道","city":"深川市","street":"鷹泊"},{"zipCode":"0740141","prefectureKana":"ﾎｯｶｲﾄﾞｳ","cityKana":"ﾌｶｶﾞﾜｼ","streetKana":"ﾀﾄﾞｼ","prefecture":"北海道","city":"深川市","street":"多度志"},{"zipCode":"0740147","prefectureKana":"ﾎｯｶｲﾄﾞｳ","cityKana":"ﾌｶｶﾞﾜｼ","streetKana":"ﾀﾄﾞｼﾐﾅﾐ","prefecture":"北海道","city":"深川市","street":"多度志南"},{"zipCode":"0740025","prefectureKana":"ﾎｯｶｲﾄﾞｳ","cityKana":"ﾌｶｶﾞﾜｼ","streetKana":"ﾆｼｷﾏﾁ","prefecture":"北海道","city":"深川市","street":"錦町"},{"zipCode":"0740027","prefectureKana":"ﾎｯｶｲﾄﾞｳ","cityKana":"ﾌｶｶﾞﾜｼ","streetKana":"ﾆｼｷﾏﾁｷﾀ","prefecture":"北海道","city":"深川市","street":"錦町北"},{"zipCode":"0740026","prefectureKana":"ﾎｯｶｲﾄﾞｳ","cityKana":"ﾌｶｶﾞﾜｼ","streetKana":"ﾆｼｷﾏﾁﾆｼ","prefecture":"北海道","city":"深川市","street":"錦町西"},{"zipCode":"0740012","prefectureKana":"ﾎｯｶｲﾄﾞｳ","cityKana":"ﾌｶｶﾞﾜｼ","streetKana":"ﾆｼﾏﾁ","prefecture":"北海道","city":"深川市","street":"西町"},{"zipCode":"0741271","prefectureKana":"ﾎｯｶｲﾄﾞｳ","cityKana":"ﾌｶｶﾞﾜｼ","streetKana":"ﾋﾛｻﾄﾁｮｳ(1-5ﾁｮｳﾒ)","prefecture":"北海道","city":"深川市","street":"広里町（１～５丁目）"},{"zipCode":"0740016","prefectureKana":"ﾎｯｶｲﾄﾞｳ","cityKana":"ﾌｶｶﾞﾜｼ","streetKana":"ﾌｶｶﾞﾜﾁｮｳｵｰﾎ","prefecture":"北海道","city":"深川市","street":"深川町オーホ"},{"zipCode":"0740015","prefectureKana":"ﾎｯｶｲﾄﾞｳ","cityKana":"ﾌｶｶﾞﾜｼ","streetKana":"ﾌｶｶﾞﾜﾁｮｳﾒﾑ","prefecture":"北海道","city":"深川市","street":"深川町メム"},{"zipCode":"0740013","prefectureKana":"ﾎｯｶｲﾄﾞｳ","cityKana":"ﾌｶｶﾞﾜｼ","streetKana":"ﾌﾞﾝｺｳﾁｮｳ","prefecture":"北海道","city":"深川市","street":"文光町"},{"zipCode":"0740022","prefectureKana":"ﾎｯｶｲﾄﾞｳ","cityKana":"ﾌｶｶﾞﾜｼ","streetKana":"ﾎﾂｺｳﾁｮｳ","prefecture":"北海道","city":"深川市","street":"北光町"},{"zipCode":"0740145","prefectureKana":"ﾎｯｶｲﾄﾞｳ","cityKana":"ﾌｶｶﾞﾜｼ","streetKana":"ﾎﾛﾅｲ","prefecture":"北海道","city":"深川市","street":"幌内"},{"zipCode":"0740011","prefectureKana":"ﾎｯｶｲﾄﾞｳ","cityKana":"ﾌｶｶﾞﾜｼ","streetKana":"ﾐﾄﾞﾘﾏﾁ","prefecture":"北海道","city":"深川市","street":"緑町"},{"zipCode":"0740146","prefectureKana":"ﾎｯｶｲﾄﾞｳ","cityKana":"ﾌｶｶﾞﾜｼ","streetKana":"ﾕﾅｲ","prefecture":"北海道","city":"深川市","street":"湯内"},{"zipCode":"0740400","prefectureKana":"ﾎｯｶｲﾄﾞｳ","cityKana":"ｳﾘｭｳｸﾞﾝﾎﾛｶﾅｲﾁｮｳ","streetKana":"ｲｶﾆｹｲｻｲｶﾞﾅｲﾊﾞｱｲ","prefecture":"北海道","city":"雨竜郡幌加内町","street":"以下に掲載がない場合"},{"zipCode":"0740413","prefectureKana":"ﾎｯｶｲﾄﾞｳ","cityKana":"ｳﾘｭｳｸﾞﾝﾎﾛｶﾅｲﾁｮｳ","streetKana":"ｳｴﾝﾅｲ","prefecture":"北海道","city":"雨竜郡幌加内町","street":"雨煙内"},{"zipCode":"0740424","prefectureKana":"ﾎｯｶｲﾄﾞｳ","cityKana":"ｳﾘｭｳｸﾞﾝﾎﾛｶﾅｲﾁｮｳ","streetKana":"ｳｴﾝﾍﾞﾂ","prefecture":"北海道","city":"雨竜郡幌加内町","street":"雨煙別"},{"zipCode":"0740744","prefectureKana":"ﾎｯｶｲﾄﾞｳ","cityKana":"ｳﾘｭｳｸﾞﾝﾎﾛｶﾅｲﾁｮｳ","streetKana":"ｵｵﾏｶﾞﾘ","prefecture":"北海道","city":"雨竜郡幌加内町","street":"大曲"},{"zipCode":"0740415","prefectureKana":"ﾎｯｶｲﾄﾞｳ","cityKana":"ｳﾘｭｳｸﾞﾝﾎﾛｶﾅｲﾁｮｳ","streetKana":"ｵｻﾙﾅｲ","prefecture":"北海道","city":"雨竜郡幌加内町","street":"長留内"},{"zipCode":"0740423","prefectureKana":"ﾎｯｶｲﾄﾞｳ","cityKana":"ｳﾘｭｳｸﾞﾝﾎﾛｶﾅｲﾁｮｳ","streetKana":"ｶﾐﾎﾛｶﾅｲ","prefecture":"北海道","city":"雨竜郡幌加内町","street":"上幌加内"},{"zipCode":"0740743","prefectureKana":"ﾎｯｶｲﾄﾞｳ","cityKana":"ｳﾘｭｳｸﾞﾝﾎﾛｶﾅｲﾁｮｳ","streetKana":"ｷｮｳｴｲ","prefecture":"北海道","city":"雨竜郡幌加内町","street":"共栄"},{"zipCode":"0740403","prefectureKana":"ﾎｯｶｲﾄﾞｳ","cityKana":"ｳﾘｭｳｸﾞﾝﾎﾛｶﾅｲﾁｮｳ","streetKana":"ｼﾓﾎﾛｶﾅｲ","prefecture":"北海道","city":"雨竜郡幌加内町","street":"下幌加内"},{"zipCode":"0740742","prefectureKana":"ﾎｯｶｲﾄﾞｳ","cityKana":"ｳﾘｭｳｸﾞﾝﾎﾛｶﾅｲﾁｮｳ","streetKana":"ｼｭﾏﾘﾅｲ","prefecture":"北海道","city":"雨竜郡幌加内町","street":"朱鞠内"},{"zipCode":"0740422","prefectureKana":"ﾎｯｶｲﾄﾞｳ","cityKana":"ｳﾘｭｳｸﾞﾝﾎﾛｶﾅｲﾁｮｳ","streetKana":"ｼﾝｺｳ","prefecture":"北海道","city":"雨竜郡幌加内町","street":"振興"},{"zipCode":"0740747","prefectureKana":"ﾎｯｶｲﾄﾞｳ","cityKana":"ｳﾘｭｳｸﾞﾝﾎﾛｶﾅｲﾁｮｳ","streetKana":"ｼﾝﾄﾐ","prefecture":"北海道","city":"雨竜郡幌加内町","street":"新富"},{"zipCode":"0740402","prefectureKana":"ﾎｯｶｲﾄﾞｳ","cityKana":"ｳﾘｭｳｸﾞﾝﾎﾛｶﾅｲﾁｮｳ","streetKana":"ｼﾝﾅﾘｳ","prefecture":"北海道","city":"雨竜郡幌加内町","street":"新成生"},{"zipCode":"0740412","prefectureKana":"ﾎｯｶｲﾄﾞｳ","cityKana":"ｳﾘｭｳｸﾞﾝﾎﾛｶﾅｲﾁｮｳ","streetKana":"ｼﾝﾜ","prefecture":"北海道","city":"雨竜郡幌加内町","street":"親和"},{"zipCode":"0740414","prefectureKana":"ﾎｯｶｲﾄﾞｳ","cityKana":"ｳﾘｭｳｸﾞﾝﾎﾛｶﾅｲﾁｮｳ","streetKana":"ｾｲｹﾞﾂ","prefecture":"北海道","city":"雨竜郡幌加内町","street":"清月"},{"zipCode":"0740425","prefectureKana":"ﾎｯｶｲﾄﾞｳ","cityKana":"ｳﾘｭｳｸﾞﾝﾎﾛｶﾅｲﾁｮｳ","streetKana":"ｾｲﾜﾀﾞｲ1","prefecture":"北海道","city":"雨竜郡幌加内町","street":"政和第一"},{"zipCode":"0740426","prefectureKana":"ﾎｯｶｲﾄﾞｳ","cityKana":"ｳﾘｭｳｸﾞﾝﾎﾛｶﾅｲﾁｮｳ","streetKana":"ｾｲﾜﾀﾞｲ2","prefecture":"北海道","city":"雨竜郡幌加内町","street":"政和第二"},{"zipCode":"0740427","prefectureKana":"ﾎｯｶｲﾄﾞｳ","cityKana":"ｳﾘｭｳｸﾞﾝﾎﾛｶﾅｲﾁｮｳ","streetKana":"ｾｲﾜﾀﾞｲ3","prefecture":"北海道","city":"雨竜郡幌加内町","street":"政和第三"},{"zipCode":"0740746","prefectureKana":"ﾎｯｶｲﾄﾞｳ","cityKana":"ｳﾘｭｳｸﾞﾝﾎﾛｶﾅｲﾁｮｳ","streetKana":"ｿｴｳｼﾅｲ","prefecture":"北海道","city":"雨竜郡幌加内町","street":"添牛内"},{"zipCode":"0740421","prefectureKana":"ﾎｯｶｲﾄﾞｳ","cityKana":"ｳﾘｭｳｸﾞﾝﾎﾛｶﾅｲﾁｮｳ","streetKana":"ﾄｳｴｲ","prefecture":"北海道","city":"雨竜郡幌加内町","street":"東栄"},{"zipCode":"0740404","prefectureKana":"ﾎｯｶｲﾄﾞｳ","cityKana":"ｳﾘｭｳｸﾞﾝﾎﾛｶﾅｲﾁｮｳ","streetKana":"ﾇﾏｳｼ","prefecture":"北海道","city":"雨竜郡幌加内町","street":"沼牛"},{"zipCode":"0740401","prefectureKana":"ﾎｯｶｲﾄﾞｳ","cityKana":"ｳﾘｭｳｸﾞﾝﾎﾛｶﾅｲﾁｮｳ","streetKana":"ﾍｲﾜ","prefecture":"北海道","city":"雨竜郡幌加内町","street":"平和"},{"zipCode":"0740745","prefectureKana":"ﾎｯｶｲﾄﾞｳ","cityKana":"ｳﾘｭｳｸﾞﾝﾎﾛｶﾅｲﾁｮｳ","streetKana":"ﾎｸｾｲ","prefecture":"北海道","city":"雨竜郡幌加内町","street":"北星"},{"zipCode":"0740411","prefectureKana":"ﾎｯｶｲﾄﾞｳ","cityKana":"ｳﾘｭｳｸﾞﾝﾎﾛｶﾅｲﾁｮｳ","streetKana":"ﾎﾛｶﾅｲ","prefecture":"北海道","city":"雨竜郡幌加内町","street":"幌加内"},{"zipCode":"0740741","prefectureKana":"ﾎｯｶｲﾄﾞｳ","cityKana":"ｳﾘｭｳｸﾞﾝﾎﾛｶﾅｲﾁｮｳ","streetKana":"ﾓｼﾘ","prefecture":"北海道","city":"雨竜郡幌加内町","street":"母子里"},{"zipCode":"0740405","prefectureKana":"ﾎｯｶｲﾄﾞｳ","cityKana":"ｳﾘｭｳｸﾞﾝﾎﾛｶﾅｲﾁｮｳ","streetKana":"ﾔｳﾝﾅｲ","prefecture":"北海道","city":"雨竜郡幌加内町","street":"弥運内"}]