[{"zipCode":"0788311","prefectureKana":"ﾎｯｶｲﾄﾞｳ","cityKana":"ｱｻﾋｶﾜｼ","streetKana":"ｶｸﾞﾗｵｶ1ｼﾞｮｳ","prefecture":"北海道","city":"旭川市","street":"神楽岡１条"},{"zipCode":"0788312","prefectureKana":"ﾎｯｶｲﾄﾞｳ","cityKana":"ｱｻﾋｶﾜｼ","streetKana":"ｶｸﾞﾗｵｶ2ｼﾞｮｳ","prefecture":"北海道","city":"旭川市","street":"神楽岡２条"},{"zipCode":"0788313","prefectureKana":"ﾎｯｶｲﾄﾞｳ","cityKana":"ｱｻﾋｶﾜｼ","streetKana":"ｶｸﾞﾗｵｶ3ｼﾞｮｳ","prefecture":"北海道","city":"旭川市","street":"神楽岡３条"},{"zipCode":"0788314","prefectureKana":"ﾎｯｶｲﾄﾞｳ","cityKana":"ｱｻﾋｶﾜｼ","streetKana":"ｶｸﾞﾗｵｶ4ｼﾞｮｳ","prefecture":"北海道","city":"旭川市","street":"神楽岡４条"},{"zipCode":"0788315","prefectureKana":"ﾎｯｶｲﾄﾞｳ","cityKana":"ｱｻﾋｶﾜｼ","streetKana":"ｶｸﾞﾗｵｶ5ｼﾞｮｳ","prefecture":"北海道","city":"旭川市","street":"神楽岡５条"},{"zipCode":"0788316","prefectureKana":"ﾎｯｶｲﾄﾞｳ","cityKana":"ｱｻﾋｶﾜｼ","streetKana":"ｶｸﾞﾗｵｶ6ｼﾞｮｳ","prefecture":"北海道","city":"旭川市","street":"神楽岡６条"},{"zipCode":"0788317","prefectureKana":"ﾎｯｶｲﾄﾞｳ","cityKana":"ｱｻﾋｶﾜｼ","streetKana":"ｶｸﾞﾗｵｶ7ｼﾞｮｳ","prefecture":"北海道","city":"旭川市","street":"神楽岡７条"},{"zipCode":"0788318","prefectureKana":"ﾎｯｶｲﾄﾞｳ","cityKana":"ｱｻﾋｶﾜｼ","streetKana":"ｶｸﾞﾗｵｶ8ｼﾞｮｳ","prefecture":"北海道","city":"旭川市","street":"神楽岡８条"},{"zipCode":"0788319","prefectureKana":"ﾎｯｶｲﾄﾞｳ","cityKana":"ｱｻﾋｶﾜｼ","streetKana":"ｶｸﾞﾗｵｶ9ｼﾞｮｳ","prefecture":"北海道","city":"旭川市","street":"神楽岡９条"},{"zipCode":"0788320","prefectureKana":"ﾎｯｶｲﾄﾞｳ","cityKana":"ｱｻﾋｶﾜｼ","streetKana":"ｶｸﾞﾗｵｶ10ｼﾞｮｳ","prefecture":"北海道","city":"旭川市","street":"神楽岡１０条"},{"zipCode":"0788321","prefectureKana":"ﾎｯｶｲﾄﾞｳ","cityKana":"ｱｻﾋｶﾜｼ","streetKana":"ｶｸﾞﾗｵｶ11ｼﾞｮｳ","prefecture":"北海道","city":"旭川市","street":"神楽岡１１条"},{"zipCode":"0788322","prefectureKana":"ﾎｯｶｲﾄﾞｳ","cityKana":"ｱｻﾋｶﾜｼ","streetKana":"ｶｸﾞﾗｵｶ12ｼﾞｮｳ","prefecture":"北海道","city":"旭川市","street":"神楽岡１２条"},{"zipCode":"0788323","prefectureKana":"ﾎｯｶｲﾄﾞｳ","cityKana":"ｱｻﾋｶﾜｼ","streetKana":"ｶｸﾞﾗｵｶ13ｼﾞｮｳ","prefecture":"北海道","city":"旭川市","street":"神楽岡１３条"},{"zipCode":"0788324","prefectureKana":"ﾎｯｶｲﾄﾞｳ","cityKana":"ｱｻﾋｶﾜｼ","streetKana":"ｶｸﾞﾗｵｶ14ｼﾞｮｳ","prefecture":"北海道","city":"旭川市","street":"神楽岡１４条"},{"zipCode":"0788325","prefectureKana":"ﾎｯｶｲﾄﾞｳ","cityKana":"ｱｻﾋｶﾜｼ","streetKana":"ｶｸﾞﾗｵｶ15ｼﾞｮｳ","prefecture":"北海道","city":"旭川市","street":"神楽岡１５条"},{"zipCode":"0788326","prefectureKana":"ﾎｯｶｲﾄﾞｳ","cityKana":"ｱｻﾋｶﾜｼ","streetKana":"ｶｸﾞﾗｵｶ16ｼﾞｮｳ","prefecture":"北海道","city":"旭川市","street":"神楽岡１６条"},{"zipCode":"0788327","prefectureKana":"ﾎｯｶｲﾄﾞｳ","cityKana":"ｱｻﾋｶﾜｼ","streetKana":"ｶｸﾞﾗｵｶｺｳｴﾝ","prefecture":"北海道","city":"旭川市","street":"神楽岡公園"},{"zipCode":"0780185","prefectureKana":"ﾎｯｶｲﾄﾞｳ","cityKana":"ｱｻﾋｶﾜｼ","streetKana":"ｶﾑｲﾁｮｳｶﾑｲｺﾀﾝ","prefecture":"北海道","city":"旭川市","street":"神居町神居古潭"},{"zipCode":"0780186","prefectureKana":"ﾎｯｶｲﾄﾞｳ","cityKana":"ｱｻﾋｶﾜｼ","streetKana":"ｶﾑｲﾁｮｳﾆｼｵｶ(8-22ﾊﾞﾝﾁ)","prefecture":"北海道","city":"旭川市","street":"神居町西丘（８～２２番地）"},{"zipCode":"0788371","prefectureKana":"ﾎｯｶｲﾄﾞｳ","cityKana":"ｱｻﾋｶﾜｼ","streetKana":"ｷｮｸｼﾝ1ｼﾞｮｳ","prefecture":"北海道","city":"旭川市","street":"旭神１条"},{"zipCode":"0788372","prefectureKana":"ﾎｯｶｲﾄﾞｳ","cityKana":"ｱｻﾋｶﾜｼ","streetKana":"ｷｮｸｼﾝ2ｼﾞｮｳ","prefecture":"北海道","city":"旭川市","street":"旭神２条"},{"zipCode":"0788373","prefectureKana":"ﾎｯｶｲﾄﾞｳ","cityKana":"ｱｻﾋｶﾜｼ","streetKana":"ｷｮｸｼﾝ3ｼﾞｮｳ","prefecture":"北海道","city":"旭川市","street":"旭神３条"},{"zipCode":"0788308","prefectureKana":"ﾎｯｶｲﾄﾞｳ","cityKana":"ｱｻﾋｶﾜｼ","streetKana":"ｷｮｸｼﾝﾁｮｳ","prefecture":"北海道","city":"旭川市","street":"旭神町"},{"zipCode":"0788271","prefectureKana":"ﾎｯｶｲﾄﾞｳ","cityKana":"ｱｻﾋｶﾜｼ","streetKana":"ｺｳｷﾞｮｳﾀﾞﾝﾁ1ｼﾞｮｳ","prefecture":"北海道","city":"旭川市","street":"工業団地１条"},{"zipCode":"0788272","prefectureKana":"ﾎｯｶｲﾄﾞｳ","cityKana":"ｱｻﾋｶﾜｼ","streetKana":"ｺｳｷﾞｮｳﾀﾞﾝﾁ2ｼﾞｮｳ","prefecture":"北海道","city":"旭川市","street":"工業団地２条"},{"zipCode":"0788273","prefectureKana":"ﾎｯｶｲﾄﾞｳ","cityKana":"ｱｻﾋｶﾜｼ","streetKana":"ｺｳｷﾞｮｳﾀﾞﾝﾁ3ｼﾞｮｳ","prefecture":"北海道","city":"旭川市","street":"工業団地３条"},{"zipCode":"0788274","prefectureKana":"ﾎｯｶｲﾄﾞｳ","cityKana":"ｱｻﾋｶﾜｼ","streetKana":"ｺｳｷﾞｮｳﾀﾞﾝﾁ4ｼﾞｮｳ","prefecture":"北海道","city":"旭川市","street":"工業団地４条"},{"zipCode":"0788275","prefectureKana":"ﾎｯｶｲﾄﾞｳ","cityKana":"ｱｻﾋｶﾜｼ","streetKana":"ｺｳｷﾞｮｳﾀﾞﾝﾁ5ｼﾞｮｳ","prefecture":"北海道","city":"旭川市","street":"工業団地５条"},{"zipCode":"0788341","prefectureKana":"ﾎｯｶｲﾄﾞｳ","cityKana":"ｱｻﾋｶﾜｼ","streetKana":"ﾄｳｺｳ1ｼﾞｮｳ","prefecture":"北海道","city":"旭川市","street":"東光１条"},{"zipCode":"0788342","prefectureKana":"ﾎｯｶｲﾄﾞｳ","cityKana":"ｱｻﾋｶﾜｼ","streetKana":"ﾄｳｺｳ2ｼﾞｮｳ","prefecture":"北海道","city":"旭川市","street":"東光２条"},{"zipCode":"0788343","prefectureKana":"ﾎｯｶｲﾄﾞｳ","cityKana":"ｱｻﾋｶﾜｼ","streetKana":"ﾄｳｺｳ3ｼﾞｮｳ","prefecture":"北海道","city":"旭川市","street":"東光３条"},{"zipCode":"0788344","prefectureKana":"ﾎｯｶｲﾄﾞｳ","cityKana":"ｱｻﾋｶﾜｼ","streetKana":"ﾄｳｺｳ4ｼﾞｮｳ","prefecture":"北海道","city":"旭川市","street":"東光４条"},{"zipCode":"0788345","prefectureKana":"ﾎｯｶｲﾄﾞｳ","cityKana":"ｱｻﾋｶﾜｼ","streetKana":"ﾄｳｺｳ5ｼﾞｮｳ","prefecture":"北海道","city":"旭川市","street":"東光５条"},{"zipCode":"0788346","prefectureKana":"ﾎｯｶｲﾄﾞｳ","cityKana":"ｱｻﾋｶﾜｼ","streetKana":"ﾄｳｺｳ6ｼﾞｮｳ","prefecture":"北海道","city":"旭川市","street":"東光６条"},{"zipCode":"0788347","prefectureKana":"ﾎｯｶｲﾄﾞｳ","cityKana":"ｱｻﾋｶﾜｼ","streetKana":"ﾄｳｺｳ7ｼﾞｮｳ","prefecture":"北海道","city":"旭川市","street":"東光７条"},{"zipCode":"0788348","prefectureKana":"ﾎｯｶｲﾄﾞｳ","cityKana":"ｱｻﾋｶﾜｼ","streetKana":"ﾄｳｺｳ8ｼﾞｮｳ","prefecture":"北海道","city":"旭川市","street":"東光８条"},{"zipCode":"0788349","prefectureKana":"ﾎｯｶｲﾄﾞｳ","cityKana":"ｱｻﾋｶﾜｼ","streetKana":"ﾄｳｺｳ9ｼﾞｮｳ","prefecture":"北海道","city":"旭川市","street":"東光９条"},{"zipCode":"0788350","prefectureKana":"ﾎｯｶｲﾄﾞｳ","cityKana":"ｱｻﾋｶﾜｼ","streetKana":"ﾄｳｺｳ10ｼﾞｮｳ","prefecture":"北海道","city":"旭川市","street":"東光１０条"},{"zipCode":"0788351","prefectureKana":"ﾎｯｶｲﾄﾞｳ","cityKana":"ｱｻﾋｶﾜｼ","streetKana":"ﾄｳｺｳ11ｼﾞｮｳ","prefecture":"北海道","city":"旭川市","street":"東光１１条"},{"zipCode":"0788352","prefectureKana":"ﾎｯｶｲﾄﾞｳ","cityKana":"ｱｻﾋｶﾜｼ","streetKana":"ﾄｳｺｳ12ｼﾞｮｳ","prefecture":"北海道","city":"旭川市","street":"東光１２条"},{"zipCode":"0788353","prefectureKana":"ﾎｯｶｲﾄﾞｳ","cityKana":"ｱｻﾋｶﾜｼ","streetKana":"ﾄｳｺｳ13ｼﾞｮｳ","prefecture":"北海道","city":"旭川市","street":"東光１３条"},{"zipCode":"0788354","prefectureKana":"ﾎｯｶｲﾄﾞｳ","cityKana":"ｱｻﾋｶﾜｼ","streetKana":"ﾄｳｺｳ14ｼﾞｮｳ","prefecture":"北海道","city":"旭川市","street":"東光１４条"},{"zipCode":"0788355","prefectureKana":"ﾎｯｶｲﾄﾞｳ","cityKana":"ｱｻﾋｶﾜｼ","streetKana":"ﾄｳｺｳ15ｼﾞｮｳ","prefecture":"北海道","city":"旭川市","street":"東光１５条"},{"zipCode":"0788356","prefectureKana":"ﾎｯｶｲﾄﾞｳ","cityKana":"ｱｻﾋｶﾜｼ","streetKana":"ﾄｳｺｳ16ｼﾞｮｳ","prefecture":"北海道","city":"旭川市","street":"東光１６条"},{"zipCode":"0788357","prefectureKana":"ﾎｯｶｲﾄﾞｳ","cityKana":"ｱｻﾋｶﾜｼ","streetKana":"ﾄｳｺｳ17ｼﾞｮｳ","prefecture":"北海道","city":"旭川市","street":"東光１７条"},{"zipCode":"0788358","prefectureKana":"ﾎｯｶｲﾄﾞｳ","cityKana":"ｱｻﾋｶﾜｼ","streetKana":"ﾄｳｺｳ18ｼﾞｮｳ","prefecture":"北海道","city":"旭川市","street":"東光１８条"},{"zipCode":"0788359","prefectureKana":"ﾎｯｶｲﾄﾞｳ","cityKana":"ｱｻﾋｶﾜｼ","streetKana":"ﾄｳｺｳ19ｼﾞｮｳ","prefecture":"北海道","city":"旭川市","street":"東光１９条"},{"zipCode":"0788360","prefectureKana":"ﾎｯｶｲﾄﾞｳ","cityKana":"ｱｻﾋｶﾜｼ","streetKana":"ﾄｳｺｳ20ｼﾞｮｳ","prefecture":"北海道","city":"旭川市","street":"東光２０条"},{"zipCode":"0788361","prefectureKana":"ﾎｯｶｲﾄﾞｳ","cityKana":"ｱｻﾋｶﾜｼ","streetKana":"ﾄｳｺｳ21ｼﾞｮｳ","prefecture":"北海道","city":"旭川市","street":"東光２１条"},{"zipCode":"0788362","prefectureKana":"ﾎｯｶｲﾄﾞｳ","cityKana":"ｱｻﾋｶﾜｼ","streetKana":"ﾄｳｺｳ22ｼﾞｮｳ","prefecture":"北海道","city":"旭川市","street":"東光２２条"},{"zipCode":"0788363","prefectureKana":"ﾎｯｶｲﾄﾞｳ","cityKana":"ｱｻﾋｶﾜｼ","streetKana":"ﾄｳｺｳ23ｼﾞｮｳ","prefecture":"北海道","city":"旭川市","street":"東光２３条"},{"zipCode":"0788364","prefectureKana":"ﾎｯｶｲﾄﾞｳ","cityKana":"ｱｻﾋｶﾜｼ","streetKana":"ﾄｳｺｳ24ｼﾞｮｳ","prefecture":"北海道","city":"旭川市","street":"東光２４条"},{"zipCode":"0788365","prefectureKana":"ﾎｯｶｲﾄﾞｳ","cityKana":"ｱｻﾋｶﾜｼ","streetKana":"ﾄｳｺｳ25ｼﾞｮｳ","prefecture":"北海道","city":"旭川市","street":"東光２５条"},{"zipCode":"0788366","prefectureKana":"ﾎｯｶｲﾄﾞｳ","cityKana":"ｱｻﾋｶﾜｼ","streetKana":"ﾄｳｺｳ26ｼﾞｮｳ","prefecture":"北海道","city":"旭川市","street":"東光２６条"},{"zipCode":"0788367","prefectureKana":"ﾎｯｶｲﾄﾞｳ","cityKana":"ｱｻﾋｶﾜｼ","streetKana":"ﾄｳｺｳ27ｼﾞｮｳ","prefecture":"北海道","city":"旭川市","street":"東光２７条"},{"zipCode":"0788231","prefectureKana":"ﾎｯｶｲﾄﾞｳ","cityKana":"ｱｻﾋｶﾜｼ","streetKana":"ﾄﾖｵｶ1ｼﾞｮｳ","prefecture":"北海道","city":"旭川市","street":"豊岡１条"},{"zipCode":"0788232","prefectureKana":"ﾎｯｶｲﾄﾞｳ","cityKana":"ｱｻﾋｶﾜｼ","streetKana":"ﾄﾖｵｶ2ｼﾞｮｳ","prefecture":"北海道","city":"旭川市","street":"豊岡２条"},{"zipCode":"0788233","prefectureKana":"ﾎｯｶｲﾄﾞｳ","cityKana":"ｱｻﾋｶﾜｼ","streetKana":"ﾄﾖｵｶ3ｼﾞｮｳ","prefecture":"北海道","city":"旭川市","street":"豊岡３条"},{"zipCode":"0788234","prefectureKana":"ﾎｯｶｲﾄﾞｳ","cityKana":"ｱｻﾋｶﾜｼ","streetKana":"ﾄﾖｵｶ4ｼﾞｮｳ","prefecture":"北海道","city":"旭川市","street":"豊岡４条"},{"zipCode":"0788235","prefectureKana":"ﾎｯｶｲﾄﾞｳ","cityKana":"ｱｻﾋｶﾜｼ","streetKana":"ﾄﾖｵｶ5ｼﾞｮｳ","prefecture":"北海道","city":"旭川市","street":"豊岡５条"},{"zipCode":"0788236","prefectureKana":"ﾎｯｶｲﾄﾞｳ","cityKana":"ｱｻﾋｶﾜｼ","streetKana":"ﾄﾖｵｶ6ｼﾞｮｳ","prefecture":"北海道","city":"旭川市","street":"豊岡６条"},{"zipCode":"0788237","prefectureKana":"ﾎｯｶｲﾄﾞｳ","cityKana":"ｱｻﾋｶﾜｼ","streetKana":"ﾄﾖｵｶ7ｼﾞｮｳ","prefecture":"北海道","city":"旭川市","street":"豊岡７条"},{"zipCode":"0788238","prefectureKana":"ﾎｯｶｲﾄﾞｳ","cityKana":"ｱｻﾋｶﾜｼ","streetKana":"ﾄﾖｵｶ8ｼﾞｮｳ","prefecture":"北海道","city":"旭川市","street":"豊岡８条"},{"zipCode":"0788239","prefectureKana":"ﾎｯｶｲﾄﾞｳ","cityKana":"ｱｻﾋｶﾜｼ","streetKana":"ﾄﾖｵｶ9ｼﾞｮｳ","prefecture":"北海道","city":"旭川市","street":"豊岡９条"},{"zipCode":"0788240","prefectureKana":"ﾎｯｶｲﾄﾞｳ","cityKana":"ｱｻﾋｶﾜｼ","streetKana":"ﾄﾖｵｶ10ｼﾞｮｳ","prefecture":"北海道","city":"旭川市","street":"豊岡１０条"},{"zipCode":"0788241","prefectureKana":"ﾎｯｶｲﾄﾞｳ","cityKana":"ｱｻﾋｶﾜｼ","streetKana":"ﾄﾖｵｶ11ｼﾞｮｳ","prefecture":"北海道","city":"旭川市","street":"豊岡１１条"},{"zipCode":"0788242","prefectureKana":"ﾎｯｶｲﾄﾞｳ","cityKana":"ｱｻﾋｶﾜｼ","streetKana":"ﾄﾖｵｶ12ｼﾞｮｳ","prefecture":"北海道","city":"旭川市","street":"豊岡１２条"},{"zipCode":"0788243","prefectureKana":"ﾎｯｶｲﾄﾞｳ","cityKana":"ｱｻﾋｶﾜｼ","streetKana":"ﾄﾖｵｶ13ｼﾞｮｳ","prefecture":"北海道","city":"旭川市","street":"豊岡１３条"},{"zipCode":"0788244","prefectureKana":"ﾎｯｶｲﾄﾞｳ","cityKana":"ｱｻﾋｶﾜｼ","streetKana":"ﾄﾖｵｶ14ｼﾞｮｳ","prefecture":"北海道","city":"旭川市","street":"豊岡１４条"},{"zipCode":"0788245","prefectureKana":"ﾎｯｶｲﾄﾞｳ","cityKana":"ｱｻﾋｶﾜｼ","streetKana":"ﾄﾖｵｶ15ｼﾞｮｳ","prefecture":"北海道","city":"旭川市","street":"豊岡１５条"},{"zipCode":"0788246","prefectureKana":"ﾎｯｶｲﾄﾞｳ","cityKana":"ｱｻﾋｶﾜｼ","streetKana":"ﾄﾖｵｶ16ｼﾞｮｳ","prefecture":"北海道","city":"旭川市","street":"豊岡１６条"},{"zipCode":"0788381","prefectureKana":"ﾎｯｶｲﾄﾞｳ","cityKana":"ｱｻﾋｶﾜｼ","streetKana":"ﾆｼｶｸﾞﾗ1ｾﾝ","prefecture":"北海道","city":"旭川市","street":"西神楽１線"},{"zipCode":"0788382","prefectureKana":"ﾎｯｶｲﾄﾞｳ","cityKana":"ｱｻﾋｶﾜｼ","streetKana":"ﾆｼｶｸﾞﾗ2ｾﾝ","prefecture":"北海道","city":"旭川市","street":"西神楽２線"},{"zipCode":"0788383","prefectureKana":"ﾎｯｶｲﾄﾞｳ","cityKana":"ｱｻﾋｶﾜｼ","streetKana":"ﾆｼｶｸﾞﾗ3ｾﾝ","prefecture":"北海道","city":"旭川市","street":"西神楽３線"},{"zipCode":"0788821","prefectureKana":"ﾎｯｶｲﾄﾞｳ","cityKana":"ｱｻﾋｶﾜｼ","streetKana":"ﾆｼｺﾞﾘｮｳ1ｼﾞｮｳ","prefecture":"北海道","city":"旭川市","street":"西御料１条"},{"zipCode":"0788822","prefectureKana":"ﾎｯｶｲﾄﾞｳ","cityKana":"ｱｻﾋｶﾜｼ","streetKana":"ﾆｼｺﾞﾘｮｳ2ｼﾞｮｳ","prefecture":"北海道","city":"旭川市","street":"西御料２条"},{"zipCode":"0788823","prefectureKana":"ﾎｯｶｲﾄﾞｳ","cityKana":"ｱｻﾋｶﾜｼ","streetKana":"ﾆｼｺﾞﾘｮｳ3ｼﾞｮｳ","prefecture":"北海道","city":"旭川市","street":"西御料３条"},{"zipCode":"0788824","prefectureKana":"ﾎｯｶｲﾄﾞｳ","cityKana":"ｱｻﾋｶﾜｼ","streetKana":"ﾆｼｺﾞﾘｮｳ4ｼﾞｮｳ","prefecture":"北海道","city":"旭川市","street":"西御料４条"},{"zipCode":"0788825","prefectureKana":"ﾎｯｶｲﾄﾞｳ","cityKana":"ｱｻﾋｶﾜｼ","streetKana":"ﾆｼｺﾞﾘｮｳ5ｼﾞｮｳ","prefecture":"北海道","city":"旭川市","street":"西御料５条"},{"zipCode":"0788251","prefectureKana":"ﾎｯｶｲﾄﾞｳ","cityKana":"ｱｻﾋｶﾜｼ","streetKana":"ﾋｶﾞｼｱｻﾋｶﾜｷﾀ1ｼﾞｮｳ","prefecture":"北海道","city":"旭川市","street":"東旭川北１条"},{"zipCode":"0788252","prefectureKana":"ﾎｯｶｲﾄﾞｳ","cityKana":"ｱｻﾋｶﾜｼ","streetKana":"ﾋｶﾞｼｱｻﾋｶﾜｷﾀ2ｼﾞｮｳ","prefecture":"北海道","city":"旭川市","street":"東旭川北２条"},{"zipCode":"0788253","prefectureKana":"ﾎｯｶｲﾄﾞｳ","cityKana":"ｱｻﾋｶﾜｼ","streetKana":"ﾋｶﾞｼｱｻﾋｶﾜｷﾀ3ｼﾞｮｳ","prefecture":"北海道","city":"旭川市","street":"東旭川北３条"},{"zipCode":"0788207","prefectureKana":"ﾎｯｶｲﾄﾞｳ","cityKana":"ｱｻﾋｶﾜｼ","streetKana":"ﾋｶﾞｼｱｻﾋｶﾜﾁｮｳｶﾐﾍｲｿﾝ","prefecture":"北海道","city":"旭川市","street":"東旭川町上兵村"},{"zipCode":"0788208","prefectureKana":"ﾎｯｶｲﾄﾞｳ","cityKana":"ｱｻﾋｶﾜｼ","streetKana":"ﾋｶﾞｼｱｻﾋｶﾜﾁｮｳｼﾓﾍｲｿﾝ","prefecture":"北海道","city":"旭川市","street":"東旭川町下兵村"},{"zipCode":"0788340","prefectureKana":"ﾎｯｶｲﾄﾞｳ","cityKana":"ｱｻﾋｶﾜｼ","streetKana":"ﾋｶﾞｼｱｻﾋｶﾜﾁｮｳｷｮｳｴｲ","prefecture":"北海道","city":"旭川市","street":"東旭川町共栄"},{"zipCode":"0788368","prefectureKana":"ﾎｯｶｲﾄﾞｳ","cityKana":"ｱｻﾋｶﾜｼ","streetKana":"ﾋｶﾞｼｱｻﾋｶﾜﾁｮｳｷｮｸｾｲ","prefecture":"北海道","city":"旭川市","street":"東旭川町旭正"},{"zipCode":"0788205","prefectureKana":"ﾎｯｶｲﾄﾞｳ","cityKana":"ｱｻﾋｶﾜｼ","streetKana":"ﾋｶﾞｼｱｻﾋｶﾜﾁｮｳｸﾗﾇﾏ","prefecture":"北海道","city":"旭川市","street":"東旭川町倉沼"},{"zipCode":"0788204","prefectureKana":"ﾎｯｶｲﾄﾞｳ","cityKana":"ｱｻﾋｶﾜｼ","streetKana":"ﾋｶﾞｼｱｻﾋｶﾜﾁｮｳｻｸﾗｵｶ","prefecture":"北海道","city":"旭川市","street":"東旭川町桜岡"},{"zipCode":"0788206","prefectureKana":"ﾎｯｶｲﾄﾞｳ","cityKana":"ｱｻﾋｶﾜｼ","streetKana":"ﾋｶﾞｼｱｻﾋｶﾜﾁｮｳﾁｭｳﾍﾞﾂ","prefecture":"北海道","city":"旭川市","street":"東旭川町忠別"},{"zipCode":"0788202","prefectureKana":"ﾎｯｶｲﾄﾞｳ","cityKana":"ｱｻﾋｶﾜｼ","streetKana":"ﾋｶﾞｼｱｻﾋｶﾜﾁｮｳﾄﾖﾀ(1-9ﾊﾞﾝﾁ)","prefecture":"北海道","city":"旭川市","street":"東旭川町豊田（１～９番地）"},{"zipCode":"0781272","prefectureKana":"ﾎｯｶｲﾄﾞｳ","cityKana":"ｱｻﾋｶﾜｼ","streetKana":"ﾋｶﾞｼｱｻﾋｶﾜﾁｮｳﾄﾖﾀ(ｿﾉﾀ)","prefecture":"北海道","city":"旭川市","street":"東旭川町豊田（その他）"},{"zipCode":"0788201","prefectureKana":"ﾎｯｶｲﾄﾞｳ","cityKana":"ｱｻﾋｶﾜｼ","streetKana":"ﾋｶﾞｼｱｻﾋｶﾜﾁｮｳﾋｶﾞｼｻｸﾗｵｶ(30-499ﾊﾞﾝﾁ)","prefecture":"北海道","city":"旭川市","street":"東旭川町東桜岡（３０～４９９番地）"},{"zipCode":"0781271","prefectureKana":"ﾎｯｶｲﾄﾞｳ","cityKana":"ｱｻﾋｶﾜｼ","streetKana":"ﾋｶﾞｼｱｻﾋｶﾜﾁｮｳﾋｶﾞｼｻｸﾗｵｶ(ｿﾉﾀ)","prefecture":"北海道","city":"旭川市","street":"東旭川町東桜岡（その他）"},{"zipCode":"0788203","prefectureKana":"ﾎｯｶｲﾄﾞｳ","cityKana":"ｱｻﾋｶﾜｼ","streetKana":"ﾋｶﾞｼｱｻﾋｶﾜﾁｮｳﾋﾉﾃﾞ","prefecture":"北海道","city":"旭川市","street":"東旭川町日ノ出"},{"zipCode":"0781274","prefectureKana":"ﾎｯｶｲﾄﾞｳ","cityKana":"ｱｻﾋｶﾜｼ","streetKana":"ﾋｶﾞｼｱｻﾋｶﾜﾁｮｳﾐｽﾞﾎ","prefecture":"北海道","city":"旭川市","street":"東旭川町瑞穂"},{"zipCode":"0781273","prefectureKana":"ﾎｯｶｲﾄﾞｳ","cityKana":"ｱｻﾋｶﾜｼ","streetKana":"ﾋｶﾞｼｱｻﾋｶﾜﾁｮｳﾖﾈﾊﾗ","prefecture":"北海道","city":"旭川市","street":"東旭川町米原"},{"zipCode":"0788261","prefectureKana":"ﾎｯｶｲﾄﾞｳ","cityKana":"ｱｻﾋｶﾜｼ","streetKana":"ﾋｶﾞｼｱｻﾋｶﾜﾐﾅﾐ1ｼﾞｮｳ","prefecture":"北海道","city":"旭川市","street":"東旭川南１条"},{"zipCode":"0788262","prefectureKana":"ﾎｯｶｲﾄﾞｳ","cityKana":"ｱｻﾋｶﾜｼ","streetKana":"ﾋｶﾞｼｱｻﾋｶﾜﾐﾅﾐ2ｼﾞｮｳ","prefecture":"北海道","city":"旭川市","street":"東旭川南２条"},{"zipCode":"0788301","prefectureKana":"ﾎｯｶｲﾄﾞｳ","cityKana":"ｱｻﾋｶﾜｼ","streetKana":"ﾐﾄﾞﾘｶﾞｵｶ1ｼﾞｮｳ","prefecture":"北海道","city":"旭川市","street":"緑が丘１条"},{"zipCode":"0788302","prefectureKana":"ﾎｯｶｲﾄﾞｳ","cityKana":"ｱｻﾋｶﾜｼ","streetKana":"ﾐﾄﾞﾘｶﾞｵｶ2ｼﾞｮｳ","prefecture":"北海道","city":"旭川市","street":"緑が丘２条"},{"zipCode":"0788303","prefectureKana":"ﾎｯｶｲﾄﾞｳ","cityKana":"ｱｻﾋｶﾜｼ","streetKana":"ﾐﾄﾞﾘｶﾞｵｶ3ｼﾞｮｳ","prefecture":"北海道","city":"旭川市","street":"緑が丘３条"},{"zipCode":"0788304","prefectureKana":"ﾎｯｶｲﾄﾞｳ","cityKana":"ｱｻﾋｶﾜｼ","streetKana":"ﾐﾄﾞﾘｶﾞｵｶ4ｼﾞｮｳ","prefecture":"北海道","city":"旭川市","street":"緑が丘４条"},{"zipCode":"0788305","prefectureKana":"ﾎｯｶｲﾄﾞｳ","cityKana":"ｱｻﾋｶﾜｼ","streetKana":"ﾐﾄﾞﾘｶﾞｵｶ5ｼﾞｮｳ","prefecture":"北海道","city":"旭川市","street":"緑が丘５条"},{"zipCode":"0788801","prefectureKana":"ﾎｯｶｲﾄﾞｳ","cityKana":"ｱｻﾋｶﾜｼ","streetKana":"ﾐﾄﾞﾘｶﾞｵｶﾋｶﾞｼ1ｼﾞｮｳ","prefecture":"北海道","city":"旭川市","street":"緑が丘東１条"},{"zipCode":"0788802","prefectureKana":"ﾎｯｶｲﾄﾞｳ","cityKana":"ｱｻﾋｶﾜｼ","streetKana":"ﾐﾄﾞﾘｶﾞｵｶﾋｶﾞｼ2ｼﾞｮｳ","prefecture":"北海道","city":"旭川市","street":"緑が丘東２条"},{"zipCode":"0788803","prefectureKana":"ﾎｯｶｲﾄﾞｳ","cityKana":"ｱｻﾋｶﾜｼ","streetKana":"ﾐﾄﾞﾘｶﾞｵｶﾋｶﾞｼ3ｼﾞｮｳ","prefecture":"北海道","city":"旭川市","street":"緑が丘東３条"},{"zipCode":"0788804","prefectureKana":"ﾎｯｶｲﾄﾞｳ","cityKana":"ｱｻﾋｶﾜｼ","streetKana":"ﾐﾄﾞﾘｶﾞｵｶﾋｶﾞｼ4ｼﾞｮｳ","prefecture":"北海道","city":"旭川市","street":"緑が丘東４条"},{"zipCode":"0788805","prefectureKana":"ﾎｯｶｲﾄﾞｳ","cityKana":"ｱｻﾋｶﾜｼ","streetKana":"ﾐﾄﾞﾘｶﾞｵｶﾋｶﾞｼ5ｼﾞｮｳ","prefecture":"北海道","city":"旭川市","street":"緑が丘東５条"},{"zipCode":"0788811","prefectureKana":"ﾎｯｶｲﾄﾞｳ","cityKana":"ｱｻﾋｶﾜｼ","streetKana":"ﾐﾄﾞﾘｶﾞｵｶﾐﾅﾐ1ｼﾞｮｳ","prefecture":"北海道","city":"旭川市","street":"緑が丘南１条"},{"zipCode":"0788812","prefectureKana":"ﾎｯｶｲﾄﾞｳ","cityKana":"ｱｻﾋｶﾜｼ","streetKana":"ﾐﾄﾞﾘｶﾞｵｶﾐﾅﾐ2ｼﾞｮｳ","prefecture":"北海道","city":"旭川市","street":"緑が丘南２条"},{"zipCode":"0788813","prefectureKana":"ﾎｯｶｲﾄﾞｳ","cityKana":"ｱｻﾋｶﾜｼ","streetKana":"ﾐﾄﾞﾘｶﾞｵｶﾐﾅﾐ3ｼﾞｮｳ","prefecture":"北海道","city":"旭川市","street":"緑が丘南３条"},{"zipCode":"0788814","prefectureKana":"ﾎｯｶｲﾄﾞｳ","cityKana":"ｱｻﾋｶﾜｼ","streetKana":"ﾐﾄﾞﾘｶﾞｵｶﾐﾅﾐ4ｼﾞｮｳ","prefecture":"北海道","city":"旭川市","street":"緑が丘南４条"},{"zipCode":"0788815","prefectureKana":"ﾎｯｶｲﾄﾞｳ","cityKana":"ｱｻﾋｶﾜｼ","streetKana":"ﾐﾄﾞﾘｶﾞｵｶﾐﾅﾐ5ｼﾞｮｳ","prefecture":"北海道","city":"旭川市","street":"緑が丘南５条"},{"zipCode":"0788331","prefectureKana":"ﾎｯｶｲﾄﾞｳ","cityKana":"ｱｻﾋｶﾜｼ","streetKana":"ﾐﾅﾐ1ｼﾞｮｳﾄﾞｵﾘ","prefecture":"北海道","city":"旭川市","street":"南１条通"},{"zipCode":"0788332","prefectureKana":"ﾎｯｶｲﾄﾞｳ","cityKana":"ｱｻﾋｶﾜｼ","streetKana":"ﾐﾅﾐ2ｼﾞｮｳﾄﾞｵﾘ","prefecture":"北海道","city":"旭川市","street":"南２条通"},{"zipCode":"0788333","prefectureKana":"ﾎｯｶｲﾄﾞｳ","cityKana":"ｱｻﾋｶﾜｼ","streetKana":"ﾐﾅﾐ3ｼﾞｮｳﾄﾞｵﾘ","prefecture":"北海道","city":"旭川市","street":"南３条通"},{"zipCode":"0788334","prefectureKana":"ﾎｯｶｲﾄﾞｳ","cityKana":"ｱｻﾋｶﾜｼ","streetKana":"ﾐﾅﾐ4ｼﾞｮｳﾄﾞｵﾘ","prefecture":"北海道","city":"旭川市","street":"南４条通"},{"zipCode":"0788335","prefectureKana":"ﾎｯｶｲﾄﾞｳ","cityKana":"ｱｻﾋｶﾜｼ","streetKana":"ﾐﾅﾐ5ｼﾞｮｳﾄﾞｵﾘ","prefecture":"北海道","city":"旭川市","street":"南５条通"},{"zipCode":"0788336","prefectureKana":"ﾎｯｶｲﾄﾞｳ","cityKana":"ｱｻﾋｶﾜｼ","streetKana":"ﾐﾅﾐ6ｼﾞｮｳﾄﾞｵﾘ","prefecture":"北海道","city":"旭川市","street":"南６条通"},{"zipCode":"0788337","prefectureKana":"ﾎｯｶｲﾄﾞｳ","cityKana":"ｱｻﾋｶﾜｼ","streetKana":"ﾐﾅﾐ7ｼﾞｮｳﾄﾞｵﾘ","prefecture":"北海道","city":"旭川市","street":"南７条通"},{"zipCode":"0788338","prefectureKana":"ﾎｯｶｲﾄﾞｳ","cityKana":"ｱｻﾋｶﾜｼ","streetKana":"ﾐﾅﾐ8ｼﾞｮｳﾄﾞｵﾘ","prefecture":"北海道","city":"旭川市","street":"南８条通"},{"zipCode":"0788339","prefectureKana":"ﾎｯｶｲﾄﾞｳ","cityKana":"ｱｻﾋｶﾜｼ","streetKana":"ﾐﾅﾐ9ｼﾞｮｳﾄﾞｵﾘ","prefecture":"北海道","city":"旭川市","street":"南９条通"},{"zipCode":"0788330","prefectureKana":"ﾎｯｶｲﾄﾞｳ","cityKana":"ｱｻﾋｶﾜｼ","streetKana":"ﾐﾔｼﾀﾄﾞｵﾘ(18-26ﾁｮｳﾒ)","prefecture":"北海道","city":"旭川市","street":"宮下通（１８～２６丁目）"},{"zipCode":"0788391","prefectureKana":"ﾎｯｶｲﾄﾞｳ","cityKana":"ｱｻﾋｶﾜｼ","streetKana":"ﾐﾔﾏｴ1ｼﾞｮｳ","prefecture":"北海道","city":"旭川市","street":"宮前１条"},{"zipCode":"0788392","prefectureKana":"ﾎｯｶｲﾄﾞｳ","cityKana":"ｱｻﾋｶﾜｼ","streetKana":"ﾐﾔﾏｴ2ｼﾞｮｳ","prefecture":"北海道","city":"旭川市","street":"宮前２条"},{"zipCode":"0788211","prefectureKana":"ﾎｯｶｲﾄﾞｳ","cityKana":"ｱｻﾋｶﾜｼ","streetKana":"1ｼﾞｮｳﾄﾞｵﾘ(18-25ﾁｮｳﾒ)","prefecture":"北海道","city":"旭川市","street":"１条通（１８～２５丁目）"},{"zipCode":"0788212","prefectureKana":"ﾎｯｶｲﾄﾞｳ","cityKana":"ｱｻﾋｶﾜｼ","streetKana":"2ｼﾞｮｳﾄﾞｵﾘ(18-25ﾁｮｳﾒ)","prefecture":"北海道","city":"旭川市","street":"２条通（１８～２５丁目）"},{"zipCode":"0788213","prefectureKana":"ﾎｯｶｲﾄﾞｳ","cityKana":"ｱｻﾋｶﾜｼ","streetKana":"3ｼﾞｮｳﾄﾞｵﾘ(18-25ﾁｮｳﾒ)","prefecture":"北海道","city":"旭川市","street":"３条通（１８～２５丁目）"},{"zipCode":"0788214","prefectureKana":"ﾎｯｶｲﾄﾞｳ","cityKana":"ｱｻﾋｶﾜｼ","streetKana":"4ｼﾞｮｳﾄﾞｵﾘ(18-25ﾁｮｳﾒ)","prefecture":"北海道","city":"旭川市","street":"４条通（１８～２５丁目）"},{"zipCode":"0788215","prefectureKana":"ﾎｯｶｲﾄﾞｳ","cityKana":"ｱｻﾋｶﾜｼ","streetKana":"5ｼﾞｮｳﾄﾞｵﾘ(18-25ﾁｮｳﾒ)","prefecture":"北海道","city":"旭川市","street":"５条通（１８～２５丁目）"},{"zipCode":"0788216","prefectureKana":"ﾎｯｶｲﾄﾞｳ","cityKana":"ｱｻﾋｶﾜｼ","streetKana":"6ｼﾞｮｳﾄﾞｵﾘ(18-25ﾁｮｳﾒ)","prefecture":"北海道","city":"旭川市","street":"６条通（１８～２５丁目）"},{"zipCode":"0788217","prefectureKana":"ﾎｯｶｲﾄﾞｳ","cityKana":"ｱｻﾋｶﾜｼ","streetKana":"7ｼﾞｮｳﾄﾞｵﾘ(18-25ﾁｮｳﾒ)","prefecture":"北海道","city":"旭川市","street":"７条通（１８～２５丁目）"},{"zipCode":"0788218","prefectureKana":"ﾎｯｶｲﾄﾞｳ","cityKana":"ｱｻﾋｶﾜｼ","streetKana":"8ｼﾞｮｳﾄﾞｵﾘ(18-25ﾁｮｳﾒ)","prefecture":"北海道","city":"旭川市","street":"８条通（１８～２５丁目）"},{"zipCode":"0788219","prefectureKana":"ﾎｯｶｲﾄﾞｳ","cityKana":"ｱｻﾋｶﾜｼ","streetKana":"9ｼﾞｮｳﾄﾞｵﾘ(18-25ﾁｮｳﾒ)","prefecture":"北海道","city":"旭川市","street":"９条通（１８～２５丁目）"},{"zipCode":"0788220","prefectureKana":"ﾎｯｶｲﾄﾞｳ","cityKana":"ｱｻﾋｶﾜｼ","streetKana":"10ｼﾞｮｳﾄﾞｵﾘ(18-25ﾁｮｳﾒ)","prefecture":"北海道","city":"旭川市","street":"１０条通（１８～２５丁目）"},{"zipCode":"0788221","prefectureKana":"ﾎｯｶｲﾄﾞｳ","cityKana":"ｱｻﾋｶﾜｼ","streetKana":"11ｼﾞｮｳﾄﾞｵﾘ","prefecture":"北海道","city":"旭川市","street":"１１条通"},{"zipCode":"0783167","prefectureKana":"ﾎｯｶｲﾄﾞｳ","cityKana":"ﾙﾓｲｼ","streetKana":"ﾀﾙﾏｯﾌﾟﾁｮｳ","prefecture":"北海道","city":"留萌市","street":"樽真布町"},{"zipCode":"0783166","prefectureKana":"ﾎｯｶｲﾄﾞｳ","cityKana":"ﾙﾓｲｼ","streetKana":"ﾅｶﾎﾛﾁｮｳ","prefecture":"北海道","city":"留萌市","street":"中幌町"},{"zipCode":"0783162","prefectureKana":"ﾎｯｶｲﾄﾞｳ","cityKana":"ﾙﾓｲｼ","streetKana":"ﾋｶﾞｼﾎﾛﾁｮｳ","prefecture":"北海道","city":"留萌市","street":"東幌町"},{"zipCode":"0783165","prefectureKana":"ﾎｯｶｲﾄﾞｳ","cityKana":"ﾙﾓｲｼ","streetKana":"ﾌｼﾞﾔﾏﾁｮｳ","prefecture":"北海道","city":"留萌市","street":"藤山町"},{"zipCode":"0783168","prefectureKana":"ﾎｯｶｲﾄﾞｳ","cityKana":"ﾙﾓｲｼ","streetKana":"ﾎﾛﾇｶﾁｮｳ","prefecture":"北海道","city":"留萌市","street":"幌糠町"},{"zipCode":"0783163","prefectureKana":"ﾎｯｶｲﾄﾞｳ","cityKana":"ﾙﾓｲｼ","streetKana":"ﾐﾅﾐﾎﾛﾁｮｳ","prefecture":"北海道","city":"留萌市","street":"南幌町"},{"zipCode":"0783161","prefectureKana":"ﾎｯｶｲﾄﾞｳ","cityKana":"ﾙﾓｲｼ","streetKana":"ﾙﾓｲﾑﾗ(ﾄｳｹﾞｼﾀ)","prefecture":"北海道","city":"留萌市","street":"留萌村（峠下）"},{"zipCode":"0783164","prefectureKana":"ﾎｯｶｲﾄﾞｳ","cityKana":"ﾙﾓｲｼ","streetKana":"ﾙﾓｲﾑﾗ(ﾎﾛﾇｶ)","prefecture":"北海道","city":"留萌市","street":"留萌村（幌糠）"},{"zipCode":"0783165","prefectureKana":"ﾎｯｶｲﾄﾞｳ","cityKana":"ﾙﾓｲｼ","streetKana":"ﾙﾓｲｹﾞﾝﾔ(ｿﾉﾀ)","prefecture":"北海道","city":"留萌市","street":"留萌原野（その他）"},{"zipCode":"0780151","prefectureKana":"ﾎｯｶｲﾄﾞｳ","cityKana":"ﾌｶｶﾞﾜｼ","streetKana":"ｵｻﾑﾅｲﾁｮｳ","prefecture":"北海道","city":"深川市","street":"納内町"},{"zipCode":"0780153","prefectureKana":"ﾎｯｶｲﾄﾞｳ","cityKana":"ﾌｶｶﾞﾜｼ","streetKana":"ｵｻﾑﾅｲﾁｮｳｷﾀ","prefecture":"北海道","city":"深川市","street":"納内町北"},{"zipCode":"0780154","prefectureKana":"ﾎｯｶｲﾄﾞｳ","cityKana":"ﾌｶｶﾞﾜｼ","streetKana":"ｵｻﾑﾅｲﾁｮｳｸﾞﾘｰﾝﾀｳﾝ","prefecture":"北海道","city":"深川市","street":"納内町グリーンタウン"},{"zipCode":"0780152","prefectureKana":"ﾎｯｶｲﾄﾞｳ","cityKana":"ﾌｶｶﾞﾜｼ","streetKana":"ｵﾄｴﾁｮｳ(ｳﾁｿﾞﾉ)","prefecture":"北海道","city":"深川市","street":"音江町（内園）"},{"zipCode":"0782651","prefectureKana":"ﾎｯｶｲﾄﾞｳ","cityKana":"ｶﾊﾞﾄｸﾞﾝｼﾝﾄﾂｶﾜﾁｮｳ","streetKana":"ﾐｻﾜ","prefecture":"北海道","city":"樺戸郡新十津川町","street":"美沢"},{"zipCode":"0782100","prefectureKana":"ﾎｯｶｲﾄﾞｳ","cityKana":"ｳﾘｭｳｸﾞﾝﾁｯﾌﾟﾍﾞﾂﾁｮｳ","streetKana":"ｲｶﾆｹｲｻｲｶﾞﾅｲﾊﾞｱｲ","prefecture":"北海道","city":"雨竜郡秩父別町","street":"以下に掲載がない場合"},{"zipCode":"0782121","prefectureKana":"ﾎｯｶｲﾄﾞｳ","cityKana":"ｳﾘｭｳｸﾞﾝﾁｯﾌﾟﾍﾞﾂﾁｮｳ","streetKana":"ﾀｷﾉｶﾐ","prefecture":"北海道","city":"雨竜郡秩父別町","street":"滝の上"},{"zipCode":"0782122","prefectureKana":"ﾎｯｶｲﾄﾞｳ","cityKana":"ｳﾘｭｳｸﾞﾝﾁｯﾌﾟﾍﾞﾂﾁｮｳ","streetKana":"ﾅｶﾔﾏ","prefecture":"北海道","city":"雨竜郡秩父別町","street":"中山"},{"zipCode":"0782123","prefectureKana":"ﾎｯｶｲﾄﾞｳ","cityKana":"ｳﾘｭｳｸﾞﾝﾁｯﾌﾟﾍﾞﾂﾁｮｳ","streetKana":"ﾋｶﾞｼﾔﾏ","prefecture":"北海道","city":"雨竜郡秩父別町","street":"東山"},{"zipCode":"0782124","prefectureKana":"ﾎｯｶｲﾄﾞｳ","cityKana":"ｳﾘｭｳｸﾞﾝﾁｯﾌﾟﾍﾞﾂﾁｮｳ","streetKana":"ﾐﾅﾐﾔﾏ","prefecture":"北海道","city":"雨竜郡秩父別町","street":"南山"},{"zipCode":"0782111","prefectureKana":"ﾎｯｶｲﾄﾞｳ","cityKana":"ｳﾘｭｳｸﾞﾝﾁｯﾌﾟﾍﾞﾂﾁｮｳ","streetKana":"ﾐﾅﾐ1ｼﾞｮｳ","prefecture":"北海道","city":"雨竜郡秩父別町","street":"南１条"},{"zipCode":"0782112","prefectureKana":"ﾎｯｶｲﾄﾞｳ","cityKana":"ｳﾘｭｳｸﾞﾝﾁｯﾌﾟﾍﾞﾂﾁｮｳ","streetKana":"ﾐﾅﾐ2ｼﾞｮｳ","prefecture":"北海道","city":"雨竜郡秩父別町","street":"南２条"},{"zipCode":"0782101","prefectureKana":"ﾎｯｶｲﾄﾞｳ","cityKana":"ｳﾘｭｳｸﾞﾝﾁｯﾌﾟﾍﾞﾂﾁｮｳ","streetKana":"1ｼﾞｮｳ","prefecture":"北海道","city":"雨竜郡秩父別町","street":"１条"},{"zipCode":"0782102","prefectureKana":"ﾎｯｶｲﾄﾞｳ","cityKana":"ｳﾘｭｳｸﾞﾝﾁｯﾌﾟﾍﾞﾂﾁｮｳ","streetKana":"2ｼﾞｮｳ","prefecture":"北海道","city":"雨竜郡秩父別町","street":"２条"},{"zipCode":"0782103","prefectureKana":"ﾎｯｶｲﾄﾞｳ","cityKana":"ｳﾘｭｳｸﾞﾝﾁｯﾌﾟﾍﾞﾂﾁｮｳ","streetKana":"3ｼﾞｮｳ","prefecture":"北海道","city":"雨竜郡秩父別町","street":"３条"},{"zipCode":"0782104","prefectureKana":"ﾎｯｶｲﾄﾞｳ","cityKana":"ｳﾘｭｳｸﾞﾝﾁｯﾌﾟﾍﾞﾂﾁｮｳ","streetKana":"4ｼﾞｮｳ","prefecture":"北海道","city":"雨竜郡秩父別町","street":"４条"},{"zipCode":"0782105","prefectureKana":"ﾎｯｶｲﾄﾞｳ","cityKana":"ｳﾘｭｳｸﾞﾝﾁｯﾌﾟﾍﾞﾂﾁｮｳ","streetKana":"5ｼﾞｮｳ","prefecture":"北海道","city":"雨竜郡秩父別町","street":"５条"},{"zipCode":"0782106","prefectureKana":"ﾎｯｶｲﾄﾞｳ","cityKana":"ｳﾘｭｳｸﾞﾝﾁｯﾌﾟﾍﾞﾂﾁｮｳ","streetKana":"6ｼﾞｮｳ","prefecture":"北海道","city":"雨竜郡秩父別町","street":"６条"},{"zipCode":"0782107","prefectureKana":"ﾎｯｶｲﾄﾞｳ","cityKana":"ｳﾘｭｳｸﾞﾝﾁｯﾌﾟﾍﾞﾂﾁｮｳ","streetKana":"7ｼﾞｮｳ","prefecture":"北海道","city":"雨竜郡秩父別町","street":"７条"},{"zipCode":"0782108","prefectureKana":"ﾎｯｶｲﾄﾞｳ","cityKana":"ｳﾘｭｳｸﾞﾝﾁｯﾌﾟﾍﾞﾂﾁｮｳ","streetKana":"8ｼﾞｮｳ","prefecture":"北海道","city":"雨竜郡秩父別町","street":"８条"},{"zipCode":"0782109","prefectureKana":"ﾎｯｶｲﾄﾞｳ","cityKana":"ｳﾘｭｳｸﾞﾝﾁｯﾌﾟﾍﾞﾂﾁｮｳ","streetKana":"9ｼﾞｮｳ","prefecture":"北海道","city":"雨竜郡秩父別町","street":"９条"},{"zipCode":"0782600","prefectureKana":"ﾎｯｶｲﾄﾞｳ","cityKana":"ｳﾘｭｳｸﾞﾝｳﾘｭｳﾁｮｳ","streetKana":"ｲｶﾆｹｲｻｲｶﾞﾅｲﾊﾞｱｲ","prefecture":"北海道","city":"雨竜郡雨竜町","street":"以下に掲載がない場合"},{"zipCode":"0782631","prefectureKana":"ﾎｯｶｲﾄﾞｳ","cityKana":"ｳﾘｭｳｸﾞﾝｳﾘｭｳﾁｮｳ","streetKana":"ﾀﾞｲ1ﾁｮｳﾅｲ","prefecture":"北海道","city":"雨竜郡雨竜町","street":"第１町内"},{"zipCode":"0782632","prefectureKana":"ﾎｯｶｲﾄﾞｳ","cityKana":"ｳﾘｭｳｸﾞﾝｳﾘｭｳﾁｮｳ","streetKana":"ﾀﾞｲ2ﾁｮｳﾅｲ","prefecture":"北海道","city":"雨竜郡雨竜町","street":"第２町内"},{"zipCode":"0782633","prefectureKana":"ﾎｯｶｲﾄﾞｳ","cityKana":"ｳﾘｭｳｸﾞﾝｳﾘｭｳﾁｮｳ","streetKana":"ﾀﾞｲ3ﾁｮｳﾅｲ","prefecture":"北海道","city":"雨竜郡雨竜町","street":"第３町内"},{"zipCode":"0782634","prefectureKana":"ﾎｯｶｲﾄﾞｳ","cityKana":"ｳﾘｭｳｸﾞﾝｳﾘｭｳﾁｮｳ","streetKana":"ﾀﾞｲ4ﾁｮｳﾅｲ","prefecture":"北海道","city":"雨竜郡雨竜町","street":"第４町内"},{"zipCode":"0782531","prefectureKana":"ﾎｯｶｲﾄﾞｳ","cityKana":"ｳﾘｭｳｸﾞﾝｳﾘｭｳﾁｮｳ","streetKana":"ﾀﾞｲ5ﾁｮｳﾅｲ(3)","prefecture":"北海道","city":"雨竜郡雨竜町","street":"第５町内（３）"},{"zipCode":"0782635","prefectureKana":"ﾎｯｶｲﾄﾞｳ","cityKana":"ｳﾘｭｳｸﾞﾝｳﾘｭｳﾁｮｳ","streetKana":"ﾀﾞｲ5ﾁｮｳﾅｲ(ｿﾉﾀ)","prefecture":"北海道","city":"雨竜郡雨竜町","street":"第５町内（その他）"},{"zipCode":"0782636","prefectureKana":"ﾎｯｶｲﾄﾞｳ","cityKana":"ｳﾘｭｳｸﾞﾝｳﾘｭｳﾁｮｳ","streetKana":"ﾀﾞｲ6ﾁｮｳﾅｲ","prefecture":"北海道","city":"雨竜郡雨竜町","street":"第６町内"},{"zipCode":"0782637","prefectureKana":"ﾎｯｶｲﾄﾞｳ","cityKana":"ｳﾘｭｳｸﾞﾝｳﾘｭｳﾁｮｳ","streetKana":"ﾀﾞｲ7ﾁｮｳﾅｲ","prefecture":"北海道","city":"雨竜郡雨竜町","street":"第７町内"},{"zipCode":"0782638","prefectureKana":"ﾎｯｶｲﾄﾞｳ","cityKana":"ｳﾘｭｳｸﾞﾝｳﾘｭｳﾁｮｳ","streetKana":"ﾀﾞｲ8ﾁｮｳﾅｲ","prefecture":"北海道","city":"雨竜郡雨竜町","street":"第８町内"},{"zipCode":"0782639","prefectureKana":"ﾎｯｶｲﾄﾞｳ","cityKana":"ｳﾘｭｳｸﾞﾝｳﾘｭｳﾁｮｳ","streetKana":"ﾀﾞｲ9ﾁｮｳﾅｲ","prefecture":"北海道","city":"雨竜郡雨竜町","street":"第９町内"},{"zipCode":"0782641","prefectureKana":"ﾎｯｶｲﾄﾞｳ","cityKana":"ｳﾘｭｳｸﾞﾝｳﾘｭｳﾁｮｳ","streetKana":"ﾀﾞｲ10ﾁｮｳﾅｲ","prefecture":"北海道","city":"雨竜郡雨竜町","street":"第１０町内"},{"zipCode":"0782642","prefectureKana":"ﾎｯｶｲﾄﾞｳ","cityKana":"ｳﾘｭｳｸﾞﾝｳﾘｭｳﾁｮｳ","streetKana":"ﾀﾞｲ11ﾁｮｳﾅｲ","prefecture":"北海道","city":"雨竜郡雨竜町","street":"第１１町内"},{"zipCode":"0782500","prefectureKana":"ﾎｯｶｲﾄﾞｳ","cityKana":"ｳﾘｭｳｸﾞﾝﾎｸﾘｭｳﾁｮｳ","streetKana":"ｲｶﾆｹｲｻｲｶﾞﾅｲﾊﾞｱｲ","prefecture":"北海道","city":"雨竜郡北竜町","street":"以下に掲載がない場合"},{"zipCode":"0782511","prefectureKana":"ﾎｯｶｲﾄﾞｳ","cityKana":"ｳﾘｭｳｸﾞﾝﾎｸﾘｭｳﾁｮｳ","streetKana":"ｲﾀﾔ","prefecture":"北海道","city":"雨竜郡北竜町","street":"板谷"},{"zipCode":"0782502","prefectureKana":"ﾎｯｶｲﾄﾞｳ","cityKana":"ｳﾘｭｳｸﾞﾝﾎｸﾘｭｳﾁｮｳ","streetKana":"ｲﾜﾑﾗ","prefecture":"北海道","city":"雨竜郡北竜町","street":"岩村"},{"zipCode":"0782514","prefectureKana":"ﾎｯｶｲﾄﾞｳ","cityKana":"ｳﾘｭｳｸﾞﾝﾎｸﾘｭｳﾁｮｳ","streetKana":"ｴﾀｲﾍﾞﾂ","prefecture":"北海道","city":"雨竜郡北竜町","street":"恵岱別"},{"zipCode":"0782516","prefectureKana":"ﾎｯｶｲﾄﾞｳ","cityKana":"ｳﾘｭｳｸﾞﾝﾎｸﾘｭｳﾁｮｳ","streetKana":"ﾆｼｶﾜ","prefecture":"北海道","city":"雨竜郡北竜町","street":"西川"},{"zipCode":"0782501","prefectureKana":"ﾎｯｶｲﾄﾞｳ","cityKana":"ｳﾘｭｳｸﾞﾝﾎｸﾘｭｳﾁｮｳ","streetKana":"ﾋﾞﾊﾞｳｼ","prefecture":"北海道","city":"雨竜郡北竜町","street":"美葉牛"},{"zipCode":"0782503","prefectureKana":"ﾎｯｶｲﾄﾞｳ","cityKana":"ｳﾘｭｳｸﾞﾝﾎｸﾘｭｳﾁｮｳ","streetKana":"ﾍｷｽｲ","prefecture":"北海道","city":"雨竜郡北竜町","street":"碧水"},{"zipCode":"0782513","prefectureKana":"ﾎｯｶｲﾄﾞｳ","cityKana":"ｳﾘｭｳｸﾞﾝﾎｸﾘｭｳﾁｮｳ","streetKana":"ﾐﾀﾆ","prefecture":"北海道","city":"雨竜郡北竜町","street":"三谷"},{"zipCode":"0782512","prefectureKana":"ﾎｯｶｲﾄﾞｳ","cityKana":"ｳﾘｭｳｸﾞﾝﾎｸﾘｭｳﾁｮｳ","streetKana":"ﾔﾜﾗ","prefecture":"北海道","city":"雨竜郡北竜町","street":"和"},{"zipCode":"0782515","prefectureKana":"ﾎｯｶｲﾄﾞｳ","cityKana":"ｳﾘｭｳｸﾞﾝﾎｸﾘｭｳﾁｮｳ","streetKana":"ﾘｭｳｻｲ","prefecture":"北海道","city":"雨竜郡北竜町","street":"竜西"},{"zipCode":"0782200","prefectureKana":"ﾎｯｶｲﾄﾞｳ","cityKana":"ｳﾘｭｳｸﾞﾝﾇﾏﾀﾁｮｳ","streetKana":"ｲｶﾆｹｲｻｲｶﾞﾅｲﾊﾞｱｲ","prefecture":"北海道","city":"雨竜郡沼田町","street":"以下に掲載がない場合"},{"zipCode":"0782201","prefectureKana":"ﾎｯｶｲﾄﾞｳ","cityKana":"ｳﾘｭｳｸﾞﾝﾇﾏﾀﾁｮｳ","streetKana":"ｱｻﾋﾏﾁ","prefecture":"北海道","city":"雨竜郡沼田町","street":"旭町"},{"zipCode":"0782224","prefectureKana":"ﾎｯｶｲﾄﾞｳ","cityKana":"ｳﾘｭｳｸﾞﾝﾇﾏﾀﾁｮｳ","streetKana":"ｴﾋﾞｼﾏ","prefecture":"北海道","city":"雨竜郡沼田町","street":"恵比島"},{"zipCode":"0782205","prefectureKana":"ﾎｯｶｲﾄﾞｳ","cityKana":"ｳﾘｭｳｸﾞﾝﾇﾏﾀﾁｮｳ","streetKana":"ｷﾀ1ｼﾞｮｳ","prefecture":"北海道","city":"雨竜郡沼田町","street":"北一条"},{"zipCode":"0782213","prefectureKana":"ﾎｯｶｲﾄﾞｳ","cityKana":"ｳﾘｭｳｸﾞﾝﾇﾏﾀﾁｮｳ","streetKana":"ｷｮｳｾｲ","prefecture":"北海道","city":"雨竜郡沼田町","street":"共成"},{"zipCode":"0782211","prefectureKana":"ﾎｯｶｲﾄﾞｳ","cityKana":"ｳﾘｭｳｸﾞﾝﾇﾏﾀﾁｮｳ","streetKana":"ｺｳｼﾝ","prefecture":"北海道","city":"雨竜郡沼田町","street":"更新"},{"zipCode":"0782214","prefectureKana":"ﾎｯｶｲﾄﾞｳ","cityKana":"ｳﾘｭｳｸﾞﾝﾇﾏﾀﾁｮｳ","streetKana":"ﾀｶﾎ","prefecture":"北海道","city":"雨竜郡沼田町","street":"高穂"},{"zipCode":"0782212","prefectureKana":"ﾎｯｶｲﾄﾞｳ","cityKana":"ｳﾘｭｳｸﾞﾝﾇﾏﾀﾁｮｳ","streetKana":"ﾄｳﾖ","prefecture":"北海道","city":"雨竜郡沼田町","street":"東予"},{"zipCode":"0782204","prefectureKana":"ﾎｯｶｲﾄﾞｳ","cityKana":"ｳﾘｭｳｸﾞﾝﾇﾏﾀﾁｮｳ","streetKana":"ﾆｼﾏﾁ","prefecture":"北海道","city":"雨竜郡沼田町","street":"西町"},{"zipCode":"0782222","prefectureKana":"ﾎｯｶｲﾄﾞｳ","cityKana":"ｳﾘｭｳｸﾞﾝﾇﾏﾀﾁｮｳ","streetKana":"ﾇﾏﾀ","prefecture":"北海道","city":"雨竜郡沼田町","street":"沼田"},{"zipCode":"0782223","prefectureKana":"ﾎｯｶｲﾄﾞｳ","cityKana":"ｳﾘｭｳｸﾞﾝﾇﾏﾀﾁｮｳ","streetKana":"ﾎｸﾘｭｳ","prefecture":"北海道","city":"雨竜郡沼田町","street":"北竜"},{"zipCode":"0782225","prefectureKana":"ﾎｯｶｲﾄﾞｳ","cityKana":"ｳﾘｭｳｸﾞﾝﾇﾏﾀﾁｮｳ","streetKana":"ﾎﾛｼﾝ","prefecture":"北海道","city":"雨竜郡沼田町","street":"幌新"},{"zipCode":"0782203","prefectureKana":"ﾎｯｶｲﾄﾞｳ","cityKana":"ｳﾘｭｳｸﾞﾝﾇﾏﾀﾁｮｳ","streetKana":"ﾎﾝﾄﾞｵﾘ","prefecture":"北海道","city":"雨竜郡沼田町","street":"本通"},{"zipCode":"0782221","prefectureKana":"ﾎｯｶｲﾄﾞｳ","cityKana":"ｳﾘｭｳｸﾞﾝﾇﾏﾀﾁｮｳ","streetKana":"ﾏｯﾌﾟ","prefecture":"北海道","city":"雨竜郡沼田町","street":"真布"},{"zipCode":"0782206","prefectureKana":"ﾎｯｶｲﾄﾞｳ","cityKana":"ｳﾘｭｳｸﾞﾝﾇﾏﾀﾁｮｳ","streetKana":"ﾐﾄﾞﾘﾏﾁ","prefecture":"北海道","city":"雨竜郡沼田町","street":"緑町"},{"zipCode":"0782202","prefectureKana":"ﾎｯｶｲﾄﾞｳ","cityKana":"ｳﾘｭｳｸﾞﾝﾇﾏﾀﾁｮｳ","streetKana":"ﾐﾅﾐ1ｼﾞｮｳ","prefecture":"北海道","city":"雨竜郡沼田町","street":"南一条"},{"zipCode":"0781300","prefectureKana":"ﾎｯｶｲﾄﾞｳ","cityKana":"ｶﾐｶﾜｸﾞﾝﾄｳﾏﾁｮｳ","streetKana":"ｲｶﾆｹｲｻｲｶﾞﾅｲﾊﾞｱｲ","prefecture":"北海道","city":"上川郡当麻町","street":"以下に掲載がない場合"},{"zipCode":"0781333","prefectureKana":"ﾎｯｶｲﾄﾞｳ","cityKana":"ｶﾐｶﾜｸﾞﾝﾄｳﾏﾁｮｳ","streetKana":"ｲｶｳｼ","prefecture":"北海道","city":"上川郡当麻町","street":"伊香牛"},{"zipCode":"0781332","prefectureKana":"ﾎｯｶｲﾄﾞｳ","cityKana":"ｶﾐｶﾜｸﾞﾝﾄｳﾏﾁｮｳ","streetKana":"ｳｴﾝﾍﾞﾂ","prefecture":"北海道","city":"上川郡当麻町","street":"宇園別"},{"zipCode":"0781341","prefectureKana":"ﾎｯｶｲﾄﾞｳ","cityKana":"ｶﾐｶﾜｸﾞﾝﾄｳﾏﾁｮｳ","streetKana":"ｶｲﾒｲ","prefecture":"北海道","city":"上川郡当麻町","street":"開明"},{"zipCode":"0781331","prefectureKana":"ﾎｯｶｲﾄﾞｳ","cityKana":"ｶﾐｶﾜｸﾞﾝﾄｳﾏﾁｮｳ","streetKana":"ﾁｭｳｵｳ","prefecture":"北海道","city":"上川郡当麻町","street":"中央"},{"zipCode":"0781337","prefectureKana":"ﾎｯｶｲﾄﾞｳ","cityKana":"ｶﾐｶﾜｸﾞﾝﾄｳﾏﾁｮｳ","streetKana":"ﾋｶﾞｼ","prefecture":"北海道","city":"上川郡当麻町","street":"東"},{"zipCode":"0781334","prefectureKana":"ﾎｯｶｲﾄﾞｳ","cityKana":"ｶﾐｶﾜｸﾞﾝﾄｳﾏﾁｮｳ","streetKana":"ﾎｸｾｲ","prefecture":"北海道","city":"上川郡当麻町","street":"北星"},{"zipCode":"0781335","prefectureKana":"ﾎｯｶｲﾄﾞｳ","cityKana":"ｶﾐｶﾜｸﾞﾝﾄｳﾏﾁｮｳ","streetKana":"ﾛｸｺﾞｳ","prefecture":"北海道","city":"上川郡当麻町","street":"緑郷"},{"zipCode":"0781313","prefectureKana":"ﾎｯｶｲﾄﾞｳ","cityKana":"ｶﾐｶﾜｸﾞﾝﾄｳﾏﾁｮｳ","streetKana":"3ｼﾞｮｳﾋｶﾞｼ","prefecture":"北海道","city":"上川郡当麻町","street":"三条東"},{"zipCode":"0781303","prefectureKana":"ﾎｯｶｲﾄﾞｳ","cityKana":"ｶﾐｶﾜｸﾞﾝﾄｳﾏﾁｮｳ","streetKana":"3ｼﾞｮｳﾆｼ","prefecture":"北海道","city":"上川郡当麻町","street":"三条西"},{"zipCode":"0781314","prefectureKana":"ﾎｯｶｲﾄﾞｳ","cityKana":"ｶﾐｶﾜｸﾞﾝﾄｳﾏﾁｮｳ","streetKana":"4ｼﾞｮｳﾋｶﾞｼ","prefecture":"北海道","city":"上川郡当麻町","street":"四条東"},{"zipCode":"0781304","prefectureKana":"ﾎｯｶｲﾄﾞｳ","cityKana":"ｶﾐｶﾜｸﾞﾝﾄｳﾏﾁｮｳ","streetKana":"4ｼﾞｮｳﾆｼ","prefecture":"北海道","city":"上川郡当麻町","street":"四条西"},{"zipCode":"0781324","prefectureKana":"ﾎｯｶｲﾄﾞｳ","cityKana":"ｶﾐｶﾜｸﾞﾝﾄｳﾏﾁｮｳ","streetKana":"4ｼﾞｮｳﾐﾅﾐ","prefecture":"北海道","city":"上川郡当麻町","street":"四条南"},{"zipCode":"0781315","prefectureKana":"ﾎｯｶｲﾄﾞｳ","cityKana":"ｶﾐｶﾜｸﾞﾝﾄｳﾏﾁｮｳ","streetKana":"5ｼﾞｮｳﾋｶﾞｼ","prefecture":"北海道","city":"上川郡当麻町","street":"五条東"},{"zipCode":"0781305","prefectureKana":"ﾎｯｶｲﾄﾞｳ","cityKana":"ｶﾐｶﾜｸﾞﾝﾄｳﾏﾁｮｳ","streetKana":"5ｼﾞｮｳﾆｼ","prefecture":"北海道","city":"上川郡当麻町","street":"五条西"},{"zipCode":"0781316","prefectureKana":"ﾎｯｶｲﾄﾞｳ","cityKana":"ｶﾐｶﾜｸﾞﾝﾄｳﾏﾁｮｳ","streetKana":"6ｼﾞｮｳﾋｶﾞｼ","prefecture":"北海道","city":"上川郡当麻町","street":"六条東"},{"zipCode":"0781306","prefectureKana":"ﾎｯｶｲﾄﾞｳ","cityKana":"ｶﾐｶﾜｸﾞﾝﾄｳﾏﾁｮｳ","streetKana":"6ｼﾞｮｳﾆｼ","prefecture":"北海道","city":"上川郡当麻町","street":"六条西"},{"zipCode":"0780300","prefectureKana":"ﾎｯｶｲﾄﾞｳ","cityKana":"ｶﾐｶﾜｸﾞﾝﾋﾟｯﾌﾟﾁｮｳ","streetKana":"ｲｶﾆｹｲｻｲｶﾞﾅｲﾊﾞｱｲ","prefecture":"北海道","city":"上川郡比布町","street":"以下に掲載がない場合"},{"zipCode":"0780310","prefectureKana":"ﾎｯｶｲﾄﾞｳ","cityKana":"ｶﾐｶﾜｸﾞﾝﾋﾟｯﾌﾟﾁｮｳ","streetKana":"ｷｾﾝ","prefecture":"北海道","city":"上川郡比布町","street":"基線"},{"zipCode":"0780348","prefectureKana":"ﾎｯｶｲﾄﾞｳ","cityKana":"ｶﾐｶﾜｸﾞﾝﾋﾟｯﾌﾟﾁｮｳ","streetKana":"ｷﾀﾏﾁ","prefecture":"北海道","city":"上川郡比布町","street":"北町"},{"zipCode":"0780321","prefectureKana":"ﾎｯｶｲﾄﾞｳ","cityKana":"ｶﾐｶﾜｸﾞﾝﾋﾟｯﾌﾟﾁｮｳ","streetKana":"ｷﾀ1ｾﾝ","prefecture":"北海道","city":"上川郡比布町","street":"北１線"},{"zipCode":"0780322","prefectureKana":"ﾎｯｶｲﾄﾞｳ","cityKana":"ｶﾐｶﾜｸﾞﾝﾋﾟｯﾌﾟﾁｮｳ","streetKana":"ｷﾀ2ｾﾝ","prefecture":"北海道","city":"上川郡比布町","street":"北２線"},{"zipCode":"0780323","prefectureKana":"ﾎｯｶｲﾄﾞｳ","cityKana":"ｶﾐｶﾜｸﾞﾝﾋﾟｯﾌﾟﾁｮｳ","streetKana":"ｷﾀ3ｾﾝ","prefecture":"北海道","city":"上川郡比布町","street":"北３線"},{"zipCode":"0780324","prefectureKana":"ﾎｯｶｲﾄﾞｳ","cityKana":"ｶﾐｶﾜｸﾞﾝﾋﾟｯﾌﾟﾁｮｳ","streetKana":"ｷﾀ4ｾﾝ","prefecture":"北海道","city":"上川郡比布町","street":"北４線"},{"zipCode":"0780325","prefectureKana":"ﾎｯｶｲﾄﾞｳ","cityKana":"ｶﾐｶﾜｸﾞﾝﾋﾟｯﾌﾟﾁｮｳ","streetKana":"ｷﾀ5ｾﾝ","prefecture":"北海道","city":"上川郡比布町","street":"北５線"},{"zipCode":"0780326","prefectureKana":"ﾎｯｶｲﾄﾞｳ","cityKana":"ｶﾐｶﾜｸﾞﾝﾋﾟｯﾌﾟﾁｮｳ","streetKana":"ｷﾀ6ｾﾝ","prefecture":"北海道","city":"上川郡比布町","street":"北６線"},{"zipCode":"0780327","prefectureKana":"ﾎｯｶｲﾄﾞｳ","cityKana":"ｶﾐｶﾜｸﾞﾝﾋﾟｯﾌﾟﾁｮｳ","streetKana":"ｷﾀ7ｾﾝ","prefecture":"北海道","city":"上川郡比布町","street":"北７線"},{"zipCode":"0780328","prefectureKana":"ﾎｯｶｲﾄﾞｳ","cityKana":"ｶﾐｶﾜｸﾞﾝﾋﾟｯﾌﾟﾁｮｳ","streetKana":"ｷﾀ8ｾﾝ","prefecture":"北海道","city":"上川郡比布町","street":"北８線"},{"zipCode":"0780329","prefectureKana":"ﾎｯｶｲﾄﾞｳ","cityKana":"ｶﾐｶﾜｸﾞﾝﾋﾟｯﾌﾟﾁｮｳ","streetKana":"ｷﾀ9ｾﾝ","prefecture":"北海道","city":"上川郡比布町","street":"北９線"},{"zipCode":"0780330","prefectureKana":"ﾎｯｶｲﾄﾞｳ","cityKana":"ｶﾐｶﾜｸﾞﾝﾋﾟｯﾌﾟﾁｮｳ","streetKana":"ｷﾀ10ｾﾝ","prefecture":"北海道","city":"上川郡比布町","street":"北１０線"},{"zipCode":"0780331","prefectureKana":"ﾎｯｶｲﾄﾞｳ","cityKana":"ｶﾐｶﾜｸﾞﾝﾋﾟｯﾌﾟﾁｮｳ","streetKana":"ｷﾀ11ｾﾝ","prefecture":"北海道","city":"上川郡比布町","street":"北１１線"},{"zipCode":"0780332","prefectureKana":"ﾎｯｶｲﾄﾞｳ","cityKana":"ｶﾐｶﾜｸﾞﾝﾋﾟｯﾌﾟﾁｮｳ","streetKana":"ｷﾀ12ｾﾝ","prefecture":"北海道","city":"上川郡比布町","street":"北１２線"},{"zipCode":"0780333","prefectureKana":"ﾎｯｶｲﾄﾞｳ","cityKana":"ｶﾐｶﾜｸﾞﾝﾋﾟｯﾌﾟﾁｮｳ","streetKana":"ｷﾀ13ｾﾝ","prefecture":"北海道","city":"上川郡比布町","street":"北１３線"},{"zipCode":"0780334","prefectureKana":"ﾎｯｶｲﾄﾞｳ","cityKana":"ｶﾐｶﾜｸﾞﾝﾋﾟｯﾌﾟﾁｮｳ","streetKana":"ｷﾀ14ｾﾝ","prefecture":"北海道","city":"上川郡比布町","street":"北１４線"},{"zipCode":"0780335","prefectureKana":"ﾎｯｶｲﾄﾞｳ","cityKana":"ｶﾐｶﾜｸﾞﾝﾋﾟｯﾌﾟﾁｮｳ","streetKana":"ｷﾀ15ｾﾝ","prefecture":"北海道","city":"上川郡比布町","street":"北１５線"},{"zipCode":"0780349","prefectureKana":"ﾎｯｶｲﾄﾞｳ","cityKana":"ｶﾐｶﾜｸﾞﾝﾋﾟｯﾌﾟﾁｮｳ","streetKana":"ｺﾄﾌﾞｷﾏﾁ","prefecture":"北海道","city":"上川郡比布町","street":"寿町"},{"zipCode":"0780341","prefectureKana":"ﾎｯｶｲﾄﾞｳ","cityKana":"ｶﾐｶﾜｸﾞﾝﾋﾟｯﾌﾟﾁｮｳ","streetKana":"ｼｶﾞｲﾁ","prefecture":"北海道","city":"上川郡比布町","street":"市街地"},{"zipCode":"0780346","prefectureKana":"ﾎｯｶｲﾄﾞｳ","cityKana":"ｶﾐｶﾜｸﾞﾝﾋﾟｯﾌﾟﾁｮｳ","streetKana":"ｼﾝﾏﾁ","prefecture":"北海道","city":"上川郡比布町","street":"新町"},{"zipCode":"0780343","prefectureKana":"ﾎｯｶｲﾄﾞｳ","cityKana":"ｶﾐｶﾜｸﾞﾝﾋﾟｯﾌﾟﾁｮｳ","streetKana":"ﾅｶﾏﾁ","prefecture":"北海道","city":"上川郡比布町","street":"中町"},{"zipCode":"0780342","prefectureKana":"ﾎｯｶｲﾄﾞｳ","cityKana":"ｶﾐｶﾜｸﾞﾝﾋﾟｯﾌﾟﾁｮｳ","streetKana":"ﾆｼﾏﾁ","prefecture":"北海道","city":"上川郡比布町","street":"西町"},{"zipCode":"0780347","prefectureKana":"ﾎｯｶｲﾄﾞｳ","cityKana":"ｶﾐｶﾜｸﾞﾝﾋﾟｯﾌﾟﾁｮｳ","streetKana":"ﾋｶﾞｼﾏﾁ","prefecture":"北海道","city":"上川郡比布町","street":"東町"},{"zipCode":"0780344","prefectureKana":"ﾎｯｶｲﾄﾞｳ","cityKana":"ｶﾐｶﾜｸﾞﾝﾋﾟｯﾌﾟﾁｮｳ","streetKana":"ﾐﾄﾞﾘﾏﾁ","prefecture":"北海道","city":"上川郡比布町","street":"緑町"},{"zipCode":"0780311","prefectureKana":"ﾎｯｶｲﾄﾞｳ","cityKana":"ｶﾐｶﾜｸﾞﾝﾋﾟｯﾌﾟﾁｮｳ","streetKana":"ﾐﾅﾐ1ｾﾝ","prefecture":"北海道","city":"上川郡比布町","street":"南１線"},{"zipCode":"0780345","prefectureKana":"ﾎｯｶｲﾄﾞｳ","cityKana":"ｶﾐｶﾜｸﾞﾝﾋﾟｯﾌﾟﾁｮｳ","streetKana":"ﾐﾅﾐﾏﾁ","prefecture":"北海道","city":"上川郡比布町","street":"南町"},{"zipCode":"0781400","prefectureKana":"ﾎｯｶｲﾄﾞｳ","cityKana":"ｶﾐｶﾜｸﾞﾝｱｲﾍﾞﾂﾁｮｳ","streetKana":"ｲｶﾆｹｲｻｲｶﾞﾅｲﾊﾞｱｲ","prefecture":"北海道","city":"上川郡愛別町","street":"以下に掲載がない場合"},{"zipCode":"0781653","prefectureKana":"ﾎｯｶｲﾄﾞｳ","cityKana":"ｶﾐｶﾜｸﾞﾝｱｲﾍﾞﾂﾁｮｳ","streetKana":"ｱｲｻﾞﾝ","prefecture":"北海道","city":"上川郡愛別町","street":"愛山"},{"zipCode":"0781654","prefectureKana":"ﾎｯｶｲﾄﾞｳ","cityKana":"ｶﾐｶﾜｸﾞﾝｱｲﾍﾞﾂﾁｮｳ","streetKana":"ｱｲｻﾞﾝﾁｮｳ","prefecture":"北海道","city":"上川郡愛別町","street":"愛山町"},{"zipCode":"0781401","prefectureKana":"ﾎｯｶｲﾄﾞｳ","cityKana":"ｶﾐｶﾜｸﾞﾝｱｲﾍﾞﾂﾁｮｳ","streetKana":"ｱｲﾍﾞﾂ","prefecture":"北海道","city":"上川郡愛別町","street":"愛別"},{"zipCode":"0781411","prefectureKana":"ﾎｯｶｲﾄﾞｳ","cityKana":"ｶﾐｶﾜｸﾞﾝｱｲﾍﾞﾂﾁｮｳ","streetKana":"ｶﾅﾄﾐ","prefecture":"北海道","city":"上川郡愛別町","street":"金富"},{"zipCode":"0781404","prefectureKana":"ﾎｯｶｲﾄﾞｳ","cityKana":"ｶﾐｶﾜｸﾞﾝｱｲﾍﾞﾂﾁｮｳ","streetKana":"ｷﾀﾏﾁ","prefecture":"北海道","city":"上川郡愛別町","street":"北町"},{"zipCode":"0781414","prefectureKana":"ﾎｯｶｲﾄﾞｳ","cityKana":"ｶﾐｶﾜｸﾞﾝｱｲﾍﾞﾂﾁｮｳ","streetKana":"ｷｮｳﾜ","prefecture":"北海道","city":"上川郡愛別町","street":"協和"},{"zipCode":"0781412","prefectureKana":"ﾎｯｶｲﾄﾞｳ","cityKana":"ｶﾐｶﾜｸﾞﾝｱｲﾍﾞﾂﾁｮｳ","streetKana":"ｺｳｾｲ","prefecture":"北海道","city":"上川郡愛別町","street":"厚生"},{"zipCode":"0781652","prefectureKana":"ﾎｯｶｲﾄﾞｳ","cityKana":"ｶﾐｶﾜｸﾞﾝｱｲﾍﾞﾂﾁｮｳ","streetKana":"ﾁｭｳｵｳ","prefecture":"北海道","city":"上川郡愛別町","street":"中央"},{"zipCode":"0781415","prefectureKana":"ﾎｯｶｲﾄﾞｳ","cityKana":"ｶﾐｶﾜｸﾞﾝｱｲﾍﾞﾂﾁｮｳ","streetKana":"ﾄｸｾｲ","prefecture":"北海道","city":"上川郡愛別町","street":"徳星"},{"zipCode":"0781651","prefectureKana":"ﾎｯｶｲﾄﾞｳ","cityKana":"ｶﾐｶﾜｸﾞﾝｱｲﾍﾞﾂﾁｮｳ","streetKana":"ﾄﾖｻﾄ","prefecture":"北海道","city":"上川郡愛別町","street":"豊里"},{"zipCode":"0781402","prefectureKana":"ﾎｯｶｲﾄﾞｳ","cityKana":"ｶﾐｶﾜｸﾞﾝｱｲﾍﾞﾂﾁｮｳ","streetKana":"ﾋｶﾞｼﾏﾁ","prefecture":"北海道","city":"上川郡愛別町","street":"東町"},{"zipCode":"0781413","prefectureKana":"ﾎｯｶｲﾄﾞｳ","cityKana":"ｶﾐｶﾜｸﾞﾝｱｲﾍﾞﾂﾁｮｳ","streetKana":"ﾌｼｺ","prefecture":"北海道","city":"上川郡愛別町","street":"伏古"},{"zipCode":"0781405","prefectureKana":"ﾎｯｶｲﾄﾞｳ","cityKana":"ｶﾐｶﾜｸﾞﾝｱｲﾍﾞﾂﾁｮｳ","streetKana":"ﾎﾝﾁｮｳ","prefecture":"北海道","city":"上川郡愛別町","street":"本町"},{"zipCode":"0781403","prefectureKana":"ﾎｯｶｲﾄﾞｳ","cityKana":"ｶﾐｶﾜｸﾞﾝｱｲﾍﾞﾂﾁｮｳ","streetKana":"ﾐﾅﾐﾏﾁ","prefecture":"北海道","city":"上川郡愛別町","street":"南町"},{"zipCode":"0781700","prefectureKana":"ﾎｯｶｲﾄﾞｳ","cityKana":"ｶﾐｶﾜｸﾞﾝｶﾐｶﾜﾁｮｳ","streetKana":"ｲｶﾆｹｲｻｲｶﾞﾅｲﾊﾞｱｲ","prefecture":"北海道","city":"上川郡上川町","street":"以下に掲載がない場合"},{"zipCode":"0781761","prefectureKana":"ﾎｯｶｲﾄﾞｳ","cityKana":"ｶﾐｶﾜｸﾞﾝｶﾐｶﾜﾁｮｳ","streetKana":"ｱｻﾋﾏﾁ","prefecture":"北海道","city":"上川郡上川町","street":"旭町"},{"zipCode":"0781752","prefectureKana":"ﾎｯｶｲﾄﾞｳ","cityKana":"ｶﾐｶﾜｸﾞﾝｶﾐｶﾜﾁｮｳ","streetKana":"ｶﾜﾊﾞﾀﾁｮｳ","prefecture":"北海道","city":"上川郡上川町","street":"川端町"},{"zipCode":"0781721","prefectureKana":"ﾎｯｶｲﾄﾞｳ","cityKana":"ｶﾐｶﾜｸﾞﾝｶﾐｶﾜﾁｮｳ","streetKana":"ｷｸｽｲ","prefecture":"北海道","city":"上川郡上川町","street":"菊水"},{"zipCode":"0781744","prefectureKana":"ﾎｯｶｲﾄﾞｳ","cityKana":"ｶﾐｶﾜｸﾞﾝｶﾐｶﾜﾁｮｳ","streetKana":"ｷﾀﾏﾁ","prefecture":"北海道","city":"上川郡上川町","street":"北町"},{"zipCode":"0781732","prefectureKana":"ﾎｯｶｲﾄﾞｳ","cityKana":"ｶﾐｶﾜｸﾞﾝｶﾐｶﾜﾁｮｳ","streetKana":"ｷｮｳｼﾝ","prefecture":"北海道","city":"上川郡上川町","street":"共進"},{"zipCode":"0781711","prefectureKana":"ﾎｯｶｲﾄﾞｳ","cityKana":"ｶﾐｶﾜｸﾞﾝｶﾐｶﾜﾁｮｳ","streetKana":"ｷﾖｶﾜ","prefecture":"北海道","city":"上川郡上川町","street":"清川"},{"zipCode":"0781775","prefectureKana":"ﾎｯｶｲﾄﾞｳ","cityKana":"ｶﾐｶﾜｸﾞﾝｶﾐｶﾜﾁｮｳ","streetKana":"ｺｼｼﾞ","prefecture":"北海道","city":"上川郡上川町","street":"越路"},{"zipCode":"0781733","prefectureKana":"ﾎｯｶｲﾄﾞｳ","cityKana":"ｶﾐｶﾜｸﾞﾝｶﾐｶﾜﾁｮｳ","streetKana":"ｻｶｴﾏﾁ","prefecture":"北海道","city":"上川郡上川町","street":"栄町"},{"zipCode":"0781712","prefectureKana":"ﾎｯｶｲﾄﾞｳ","cityKana":"ｶﾐｶﾜｸﾞﾝｶﾐｶﾜﾁｮｳ","streetKana":"ｼﾗｶﾜ","prefecture":"北海道","city":"上川郡上川町","street":"白川"},{"zipCode":"0781722","prefectureKana":"ﾎｯｶｲﾄﾞｳ","cityKana":"ｶﾐｶﾜｸﾞﾝｶﾐｶﾜﾁｮｳ","streetKana":"ｼﾝｺｳﾁｮｳ","prefecture":"北海道","city":"上川郡上川町","street":"新光町"},{"zipCode":"0781762","prefectureKana":"ﾎｯｶｲﾄﾞｳ","cityKana":"ｶﾐｶﾜｸﾞﾝｶﾐｶﾜﾁｮｳ","streetKana":"ｼﾝﾏﾁ","prefecture":"北海道","city":"上川郡上川町","street":"新町"},{"zipCode":"0781701","prefectureKana":"ﾎｯｶｲﾄﾞｳ","cityKana":"ｶﾐｶﾜｸﾞﾝｶﾐｶﾜﾁｮｳ","streetKana":"ｿｳｳﾝｷｮｳ","prefecture":"北海道","city":"上川郡上川町","street":"層雲峡"},{"zipCode":"0781741","prefectureKana":"ﾎｯｶｲﾄﾞｳ","cityKana":"ｶﾐｶﾜｸﾞﾝｶﾐｶﾜﾁｮｳ","streetKana":"ﾁｭｳｵｳﾁｮｳ","prefecture":"北海道","city":"上川郡上川町","street":"中央町"},{"zipCode":"0781772","prefectureKana":"ﾎｯｶｲﾄﾞｳ","cityKana":"ｶﾐｶﾜｸﾞﾝｶﾐｶﾜﾁｮｳ","streetKana":"ﾃﾝﾏｸ","prefecture":"北海道","city":"上川郡上川町","street":"天幕"},{"zipCode":"0781731","prefectureKana":"ﾎｯｶｲﾄﾞｳ","cityKana":"ｶﾐｶﾜｸﾞﾝｶﾐｶﾜﾁｮｳ","streetKana":"ﾄｳｳﾝ","prefecture":"北海道","city":"上川郡上川町","street":"東雲"},{"zipCode":"0781774","prefectureKana":"ﾎｯｶｲﾄﾞｳ","cityKana":"ｶﾐｶﾜｸﾞﾝｶﾐｶﾜﾁｮｳ","streetKana":"ﾄﾖﾊﾗ","prefecture":"北海道","city":"上川郡上川町","street":"豊原"},{"zipCode":"0781771","prefectureKana":"ﾎｯｶｲﾄﾞｳ","cityKana":"ｶﾐｶﾜｸﾞﾝｶﾐｶﾜﾁｮｳ","streetKana":"ﾅｶｺｼ","prefecture":"北海道","city":"上川郡上川町","street":"中越"},{"zipCode":"0781742","prefectureKana":"ﾎｯｶｲﾄﾞｳ","cityKana":"ｶﾐｶﾜｸﾞﾝｶﾐｶﾜﾁｮｳ","streetKana":"ﾆｼﾏﾁ","prefecture":"北海道","city":"上川郡上川町","street":"西町"},{"zipCode":"0781773","prefectureKana":"ﾎｯｶｲﾄﾞｳ","cityKana":"ｶﾐｶﾜｸﾞﾝｶﾐｶﾜﾁｮｳ","streetKana":"ﾆｯﾄｳ","prefecture":"北海道","city":"上川郡上川町","street":"日東"},{"zipCode":"0781743","prefectureKana":"ﾎｯｶｲﾄﾞｳ","cityKana":"ｶﾐｶﾜｸﾞﾝｶﾐｶﾜﾁｮｳ","streetKana":"ﾊﾅｿﾞﾉﾁｮｳ","prefecture":"北海道","city":"上川郡上川町","street":"花園町"},{"zipCode":"0781763","prefectureKana":"ﾎｯｶｲﾄﾞｳ","cityKana":"ｶﾐｶﾜｸﾞﾝｶﾐｶﾜﾁｮｳ","streetKana":"ﾋｶﾞｼﾏﾁ","prefecture":"北海道","city":"上川郡上川町","street":"東町"},{"zipCode":"0781751","prefectureKana":"ﾎｯｶｲﾄﾞｳ","cityKana":"ｶﾐｶﾜｸﾞﾝｶﾐｶﾜﾁｮｳ","streetKana":"ﾎﾝﾁｮｳ","prefecture":"北海道","city":"上川郡上川町","street":"本町"},{"zipCode":"0781753","prefectureKana":"ﾎｯｶｲﾄﾞｳ","cityKana":"ｶﾐｶﾜｸﾞﾝｶﾐｶﾜﾁｮｳ","streetKana":"ﾐﾅﾐﾏﾁ","prefecture":"北海道","city":"上川郡上川町","street":"南町"},{"zipCode":"0783300","prefectureKana":"ﾎｯｶｲﾄﾞｳ","cityKana":"ﾙﾓｲｸﾞﾝｵﾋﾞﾗﾁｮｳ","streetKana":"ｲｶﾆｹｲｻｲｶﾞﾅｲﾊﾞｱｲ","prefecture":"北海道","city":"留萌郡小平町","street":"以下に掲載がない場合"},{"zipCode":"0783302","prefectureKana":"ﾎｯｶｲﾄﾞｳ","cityKana":"ﾙﾓｲｸﾞﾝｵﾋﾞﾗﾁｮｳ","streetKana":"ｳｽﾔ","prefecture":"北海道","city":"留萌郡小平町","street":"臼谷"},{"zipCode":"0783457","prefectureKana":"ﾎｯｶｲﾄﾞｳ","cityKana":"ﾙﾓｲｸﾞﾝｵﾋﾞﾗﾁｮｳ","streetKana":"ｵｵﾄﾄﾞ","prefecture":"北海道","city":"留萌郡小平町","street":"大椴"},{"zipCode":"0783309","prefectureKana":"ﾎｯｶｲﾄﾞｳ","cityKana":"ﾙﾓｲｸﾞﾝｵﾋﾞﾗﾁｮｳ","streetKana":"ｵｷﾅｲ","prefecture":"北海道","city":"留萌郡小平町","street":"沖内"},{"zipCode":"0783452","prefectureKana":"ﾎｯｶｲﾄﾞｳ","cityKana":"ﾙﾓｲｸﾞﾝｵﾋﾞﾗﾁｮｳ","streetKana":"ｵﾆｼｶｾﾝﾏﾂ","prefecture":"北海道","city":"留萌郡小平町","street":"鬼鹿千松"},{"zipCode":"0783442","prefectureKana":"ﾎｯｶｲﾄﾞｳ","cityKana":"ﾙﾓｲｸﾞﾝｵﾋﾞﾗﾁｮｳ","streetKana":"ｵﾆｼｶﾀｼﾛ","prefecture":"北海道","city":"留萌郡小平町","street":"鬼鹿田代"},{"zipCode":"0783456","prefectureKana":"ﾎｯｶｲﾄﾞｳ","cityKana":"ﾙﾓｲｸﾞﾝｵﾋﾞﾗﾁｮｳ","streetKana":"ｵﾆｼｶﾄﾐｵｶ","prefecture":"北海道","city":"留萌郡小平町","street":"鬼鹿富岡"},{"zipCode":"0783451","prefectureKana":"ﾎｯｶｲﾄﾞｳ","cityKana":"ﾙﾓｲｸﾞﾝｵﾋﾞﾗﾁｮｳ","streetKana":"ｵﾆｼｶﾄﾖﾊﾏ","prefecture":"北海道","city":"留萌郡小平町","street":"鬼鹿豊浜"},{"zipCode":"0783455","prefectureKana":"ﾎｯｶｲﾄﾞｳ","cityKana":"ﾙﾓｲｸﾞﾝｵﾋﾞﾗﾁｮｳ","streetKana":"ｵﾆｼｶﾋﾃﾞｳﾗ","prefecture":"北海道","city":"留萌郡小平町","street":"鬼鹿秀浦"},{"zipCode":"0783454","prefectureKana":"ﾎｯｶｲﾄﾞｳ","cityKana":"ﾙﾓｲｸﾞﾝｵﾋﾞﾗﾁｮｳ","streetKana":"ｵﾆｼｶﾋﾛﾄﾐ","prefecture":"北海道","city":"留萌郡小平町","street":"鬼鹿広富"},{"zipCode":"0783441","prefectureKana":"ﾎｯｶｲﾄﾞｳ","cityKana":"ﾙﾓｲｸﾞﾝｵﾋﾞﾗﾁｮｳ","streetKana":"ｵﾆｼｶﾐﾅﾄﾏﾁ","prefecture":"北海道","city":"留萌郡小平町","street":"鬼鹿港町"},{"zipCode":"0783453","prefectureKana":"ﾎｯｶｲﾄﾞｳ","cityKana":"ﾙﾓｲｸﾞﾝｵﾋﾞﾗﾁｮｳ","streetKana":"ｵﾆｼｶﾓﾄﾊﾏ","prefecture":"北海道","city":"留萌郡小平町","street":"鬼鹿元浜"},{"zipCode":"0783301","prefectureKana":"ﾎｯｶｲﾄﾞｳ","cityKana":"ﾙﾓｲｸﾞﾝｵﾋﾞﾗﾁｮｳ","streetKana":"ｵﾋﾞﾗﾁｮｳ","prefecture":"北海道","city":"留萌郡小平町","street":"小平町"},{"zipCode":"0783306","prefectureKana":"ﾎｯｶｲﾄﾞｳ","cityKana":"ﾙﾓｲｸﾞﾝｵﾋﾞﾗﾁｮｳ","streetKana":"ｷｸｵｶ","prefecture":"北海道","city":"留萌郡小平町","street":"菊岡"},{"zipCode":"0783308","prefectureKana":"ﾎｯｶｲﾄﾞｳ","cityKana":"ﾙﾓｲｸﾞﾝｵﾋﾞﾗﾁｮｳ","streetKana":"ｷﾌ","prefecture":"北海道","city":"留萌郡小平町","street":"岐富"},{"zipCode":"0783305","prefectureKana":"ﾎｯｶｲﾄﾞｳ","cityKana":"ﾙﾓｲｸﾞﾝｵﾋﾞﾗﾁｮｳ","streetKana":"ｿｳｴﾝ","prefecture":"北海道","city":"留萌郡小平町","street":"桑園"},{"zipCode":"0783312","prefectureKana":"ﾎｯｶｲﾄﾞｳ","cityKana":"ﾙﾓｲｸﾞﾝｵﾋﾞﾗﾁｮｳ","streetKana":"ﾄﾐｻﾄ","prefecture":"北海道","city":"留萌郡小平町","street":"富里"},{"zipCode":"0783307","prefectureKana":"ﾎｯｶｲﾄﾞｳ","cityKana":"ﾙﾓｲｸﾞﾝｵﾋﾞﾗﾁｮｳ","streetKana":"ﾄﾖｵｶ","prefecture":"北海道","city":"留萌郡小平町","street":"豊岡"},{"zipCode":"0783303","prefectureKana":"ﾎｯｶｲﾄﾞｳ","cityKana":"ﾙﾓｲｸﾞﾝｵﾋﾞﾗﾁｮｳ","streetKana":"ﾄﾖﾋﾗ","prefecture":"北海道","city":"留萌郡小平町","street":"豊平"},{"zipCode":"0783311","prefectureKana":"ﾎｯｶｲﾄﾞｳ","cityKana":"ﾙﾓｲｸﾞﾝｵﾋﾞﾗﾁｮｳ","streetKana":"ﾊﾅｵｶ","prefecture":"北海道","city":"留萌郡小平町","street":"花岡"},{"zipCode":"0783313","prefectureKana":"ﾎｯｶｲﾄﾞｳ","cityKana":"ﾙﾓｲｸﾞﾝｵﾋﾞﾗﾁｮｳ","streetKana":"ﾍｲﾜ(1ｸ)","prefecture":"北海道","city":"留萌郡小平町","street":"平和（１区）"},{"zipCode":"0783304","prefectureKana":"ﾎｯｶｲﾄﾞｳ","cityKana":"ﾙﾓｲｸﾞﾝｵﾋﾞﾗﾁｮｳ","streetKana":"ﾎﾝｺﾞｳ","prefecture":"北海道","city":"留萌郡小平町","street":"本郷"},{"zipCode":"0783700","prefectureKana":"ﾎｯｶｲﾄﾞｳ","cityKana":"ﾄﾏﾏｴｸﾞﾝﾄﾏﾏｴﾁｮｳ","streetKana":"ｲｶﾆｹｲｻｲｶﾞﾅｲﾊﾞｱｲ","prefecture":"北海道","city":"苫前郡苫前町","street":"以下に掲載がない場合"},{"zipCode":"0783711","prefectureKana":"ﾎｯｶｲﾄﾞｳ","cityKana":"ﾄﾏﾏｴｸﾞﾝﾄﾏﾏｴﾁｮｳ","streetKana":"ｱｻﾋ","prefecture":"北海道","city":"苫前郡苫前町","street":"旭"},{"zipCode":"0783634","prefectureKana":"ﾎｯｶｲﾄﾞｳ","cityKana":"ﾄﾏﾏｴｸﾞﾝﾄﾏﾏｴﾁｮｳ","streetKana":"ｲﾜﾐ","prefecture":"北海道","city":"苫前郡苫前町","street":"岩見"},{"zipCode":"0783712","prefectureKana":"ﾎｯｶｲﾄﾞｳ","cityKana":"ﾄﾏﾏｴｸﾞﾝﾄﾏﾏｴﾁｮｳ","streetKana":"ｳｴﾋﾗ","prefecture":"北海道","city":"苫前郡苫前町","street":"上平"},{"zipCode":"0783713","prefectureKana":"ﾎｯｶｲﾄﾞｳ","cityKana":"ﾄﾏﾏｴｸﾞﾝﾄﾏﾏｴﾁｮｳ","streetKana":"ｵｺﾂ","prefecture":"北海道","city":"苫前郡苫前町","street":"興津"},{"zipCode":"0783631","prefectureKana":"ﾎｯｶｲﾄﾞｳ","cityKana":"ﾄﾏﾏｴｸﾞﾝﾄﾏﾏｴﾁｮｳ","streetKana":"ｶｶﾞﾜ(338-849ﾊﾞﾝﾁ)","prefecture":"北海道","city":"苫前郡苫前町","street":"香川（３３８～８４９番地）"},{"zipCode":"0783714","prefectureKana":"ﾎｯｶｲﾄﾞｳ","cityKana":"ﾄﾏﾏｴｸﾞﾝﾄﾏﾏｴﾁｮｳ","streetKana":"ｶｶﾞﾜ(ｿﾉﾀ)","prefecture":"北海道","city":"苫前郡苫前町","street":"香川（その他）"},{"zipCode":"0783636","prefectureKana":"ﾎｯｶｲﾄﾞｳ","cityKana":"ﾄﾏﾏｴｸﾞﾝﾄﾏﾏｴﾁｮｳ","streetKana":"ｷﾘﾀﾁ","prefecture":"北海道","city":"苫前郡苫前町","street":"霧立"},{"zipCode":"0783633","prefectureKana":"ﾎｯｶｲﾄﾞｳ","cityKana":"ﾄﾏﾏｴｸﾞﾝﾄﾏﾏｴﾁｮｳ","streetKana":"ｺｶﾞﾜ","prefecture":"北海道","city":"苫前郡苫前町","street":"小川"},{"zipCode":"0783637","prefectureKana":"ﾎｯｶｲﾄﾞｳ","cityKana":"ﾄﾏﾏｴｸﾞﾝﾄﾏﾏｴﾁｮｳ","streetKana":"ｺｺﾉｴ","prefecture":"北海道","city":"苫前郡苫前町","street":"九重"},{"zipCode":"0783621","prefectureKana":"ﾎｯｶｲﾄﾞｳ","cityKana":"ﾄﾏﾏｴｸﾞﾝﾄﾏﾏｴﾁｮｳ","streetKana":"ｺﾀﾝﾍﾞﾂ","prefecture":"北海道","city":"苫前郡苫前町","street":"古丹別"},{"zipCode":"0783702","prefectureKana":"ﾎｯｶｲﾄﾞｳ","cityKana":"ﾄﾏﾏｴｸﾞﾝﾄﾏﾏｴﾁｮｳ","streetKana":"ｻｶｴﾊﾏ","prefecture":"北海道","city":"苫前郡苫前町","street":"栄浜"},{"zipCode":"0783638","prefectureKana":"ﾎｯｶｲﾄﾞｳ","cityKana":"ﾄﾏﾏｴｸﾞﾝﾄﾏﾏｴﾁｮｳ","streetKana":"ｻﾝｹｲ","prefecture":"北海道","city":"苫前郡苫前町","street":"三渓"},{"zipCode":"0783715","prefectureKana":"ﾎｯｶｲﾄﾞｳ","cityKana":"ﾄﾏﾏｴｸﾞﾝﾄﾏﾏｴﾁｮｳ","streetKana":"ｼｮｳﾜ","prefecture":"北海道","city":"苫前郡苫前町","street":"昭和"},{"zipCode":"0783701","prefectureKana":"ﾎｯｶｲﾄﾞｳ","cityKana":"ﾄﾏﾏｴｸﾞﾝﾄﾏﾏｴﾁｮｳ","streetKana":"ﾄﾏﾏｴ","prefecture":"北海道","city":"苫前郡苫前町","street":"苫前"},{"zipCode":"0783716","prefectureKana":"ﾎｯｶｲﾄﾞｳ","cityKana":"ﾄﾏﾏｴｸﾞﾝﾄﾏﾏｴﾁｮｳ","streetKana":"ﾄﾖｳﾗ","prefecture":"北海道","city":"苫前郡苫前町","street":"豊浦"},{"zipCode":"0783632","prefectureKana":"ﾎｯｶｲﾄﾞｳ","cityKana":"ﾄﾏﾏｴｸﾞﾝﾄﾏﾏｴﾁｮｳ","streetKana":"ﾅｶﾞｼﾏ","prefecture":"北海道","city":"苫前郡苫前町","street":"長島"},{"zipCode":"0783635","prefectureKana":"ﾎｯｶｲﾄﾞｳ","cityKana":"ﾄﾏﾏｴｸﾞﾝﾄﾏﾏｴﾁｮｳ","streetKana":"ﾋｶﾞｼｶﾜ","prefecture":"北海道","city":"苫前郡苫前町","street":"東川"},{"zipCode":"0783717","prefectureKana":"ﾎｯｶｲﾄﾞｳ","cityKana":"ﾄﾏﾏｴｸﾞﾝﾄﾏﾏｴﾁｮｳ","streetKana":"ﾐﾄﾖ","prefecture":"北海道","city":"苫前郡苫前町","street":"三豊"},{"zipCode":"0783541","prefectureKana":"ﾎｯｶｲﾄﾞｳ","cityKana":"ﾄﾏﾏｴｸﾞﾝﾄﾏﾏｴﾁｮｳ","streetKana":"ﾘｷﾋﾞﾙ","prefecture":"北海道","city":"苫前郡苫前町","street":"力昼"},{"zipCode":"0784100","prefectureKana":"ﾎｯｶｲﾄﾞｳ","cityKana":"ﾄﾏﾏｴｸﾞﾝﾊﾎﾞﾛﾁｮｳ","streetKana":"ｲｶﾆｹｲｻｲｶﾞﾅｲﾊﾞｱｲ","prefecture":"北海道","city":"苫前郡羽幌町","street":"以下に掲載がない場合"},{"zipCode":"0784144","prefectureKana":"ﾎｯｶｲﾄﾞｳ","cityKana":"ﾄﾏﾏｴｸﾞﾝﾊﾎﾞﾛﾁｮｳ","streetKana":"ｱｹﾎﾞﾉ","prefecture":"北海道","city":"苫前郡羽幌町","street":"曙"},{"zipCode":"0784117","prefectureKana":"ﾎｯｶｲﾄﾞｳ","cityKana":"ﾄﾏﾏｴｸﾞﾝﾊﾎﾞﾛﾁｮｳ","streetKana":"ｱｻﾋ","prefecture":"北海道","city":"苫前郡羽幌町","street":"朝日"},{"zipCode":"0784142","prefectureKana":"ﾎｯｶｲﾄﾞｳ","cityKana":"ﾄﾏﾏｴｸﾞﾝﾊﾎﾞﾛﾁｮｳ","streetKana":"ｶﾐﾁｸ","prefecture":"北海道","city":"苫前郡羽幌町","street":"上築"},{"zipCode":"0784134","prefectureKana":"ﾎｯｶｲﾄﾞｳ","cityKana":"ﾄﾏﾏｴｸﾞﾝﾊﾎﾞﾛﾁｮｳ","streetKana":"ｶﾐﾊﾎﾞﾛ","prefecture":"北海道","city":"苫前郡羽幌町","street":"上羽幌"},{"zipCode":"0784110","prefectureKana":"ﾎｯｶｲﾄﾞｳ","cityKana":"ﾄﾏﾏｴｸﾞﾝﾊﾎﾞﾛﾁｮｳ","streetKana":"ｷﾀｵｵﾄﾞｵﾘ","prefecture":"北海道","city":"苫前郡羽幌町","street":"北大通"},{"zipCode":"0784119","prefectureKana":"ﾎｯｶｲﾄﾞｳ","cityKana":"ﾄﾏﾏｴｸﾞﾝﾊﾎﾞﾛﾁｮｳ","streetKana":"ｷﾀﾏﾁ","prefecture":"北海道","city":"苫前郡羽幌町","street":"北町"},{"zipCode":"0784111","prefectureKana":"ﾎｯｶｲﾄﾞｳ","cityKana":"ﾄﾏﾏｴｸﾞﾝﾊﾎﾞﾛﾁｮｳ","streetKana":"ｷﾀ1ｼﾞｮｳ","prefecture":"北海道","city":"苫前郡羽幌町","street":"北一条"},{"zipCode":"0784112","prefectureKana":"ﾎｯｶｲﾄﾞｳ","cityKana":"ﾄﾏﾏｴｸﾞﾝﾊﾎﾞﾛﾁｮｳ","streetKana":"ｷﾀ2ｼﾞｮｳ","prefecture":"北海道","city":"苫前郡羽幌町","street":"北二条"},{"zipCode":"0784113","prefectureKana":"ﾎｯｶｲﾄﾞｳ","cityKana":"ﾄﾏﾏｴｸﾞﾝﾊﾎﾞﾛﾁｮｳ","streetKana":"ｷﾀ3ｼﾞｮｳ","prefecture":"北海道","city":"苫前郡羽幌町","street":"北三条"},{"zipCode":"0784114","prefectureKana":"ﾎｯｶｲﾄﾞｳ","cityKana":"ﾄﾏﾏｴｸﾞﾝﾊﾎﾞﾛﾁｮｳ","streetKana":"ｷﾀ4ｼﾞｮｳ","prefecture":"北海道","city":"苫前郡羽幌町","street":"北四条"},{"zipCode":"0784115","prefectureKana":"ﾎｯｶｲﾄﾞｳ","cityKana":"ﾄﾏﾏｴｸﾞﾝﾊﾎﾞﾛﾁｮｳ","streetKana":"ｷﾀ5ｼﾞｮｳ","prefecture":"北海道","city":"苫前郡羽幌町","street":"北五条"},{"zipCode":"0784116","prefectureKana":"ﾎｯｶｲﾄﾞｳ","cityKana":"ﾄﾏﾏｴｸﾞﾝﾊﾎﾞﾛﾁｮｳ","streetKana":"ｷﾀ6ｼﾞｮｳ","prefecture":"北海道","city":"苫前郡羽幌町","street":"北六条"},{"zipCode":"0784131","prefectureKana":"ﾎｯｶｲﾄﾞｳ","cityKana":"ﾄﾏﾏｴｸﾞﾝﾊﾎﾞﾛﾁｮｳ","streetKana":"ｺﾄﾌﾞｷﾁｮｳ","prefecture":"北海道","city":"苫前郡羽幌町","street":"寿町"},{"zipCode":"0784121","prefectureKana":"ﾎｯｶｲﾄﾞｳ","cityKana":"ﾄﾏﾏｴｸﾞﾝﾊﾎﾞﾛﾁｮｳ","streetKana":"ｻｲﾜｲﾁｮｳ","prefecture":"北海道","city":"苫前郡羽幌町","street":"幸町"},{"zipCode":"0784123","prefectureKana":"ﾎｯｶｲﾄﾞｳ","cityKana":"ﾄﾏﾏｴｸﾞﾝﾊﾎﾞﾛﾁｮｳ","streetKana":"ｻｶｴﾏﾁ","prefecture":"北海道","city":"苫前郡羽幌町","street":"栄町"},{"zipCode":"0784140","prefectureKana":"ﾎｯｶｲﾄﾞｳ","cityKana":"ﾄﾏﾏｴｸﾞﾝﾊﾎﾞﾛﾁｮｳ","streetKana":"ｼｵﾐ","prefecture":"北海道","city":"苫前郡羽幌町","street":"汐見"},{"zipCode":"0784133","prefectureKana":"ﾎｯｶｲﾄﾞｳ","cityKana":"ﾄﾏﾏｴｸﾞﾝﾊﾎﾞﾛﾁｮｳ","streetKana":"ﾀｲﾗ","prefecture":"北海道","city":"苫前郡羽幌町","street":"平"},{"zipCode":"0784143","prefectureKana":"ﾎｯｶｲﾄﾞｳ","cityKana":"ﾄﾏﾏｴｸﾞﾝﾊﾎﾞﾛﾁｮｳ","streetKana":"ﾀｶﾀﾞｲ","prefecture":"北海道","city":"苫前郡羽幌町","street":"高台"},{"zipCode":"0784141","prefectureKana":"ﾎｯｶｲﾄﾞｳ","cityKana":"ﾄﾏﾏｴｸﾞﾝﾊﾎﾞﾛﾁｮｳ","streetKana":"ﾁｸﾍﾞﾂ","prefecture":"北海道","city":"苫前郡羽幌町","street":"築別"},{"zipCode":"0784145","prefectureKana":"ﾎｯｶｲﾄﾞｳ","cityKana":"ﾄﾏﾏｴｸﾞﾝﾊﾎﾞﾛﾁｮｳ","streetKana":"ﾁｸﾍﾞﾂﾀﾝｺｳ","prefecture":"北海道","city":"苫前郡羽幌町","street":"築別炭砿"},{"zipCode":"0784132","prefectureKana":"ﾎｯｶｲﾄﾞｳ","cityKana":"ﾄﾏﾏｴｸﾞﾝﾊﾎﾞﾛﾁｮｳ","streetKana":"ﾁｭｳｵｳ","prefecture":"北海道","city":"苫前郡羽幌町","street":"中央"},{"zipCode":"0783951","prefectureKana":"ﾎｯｶｲﾄﾞｳ","cityKana":"ﾄﾏﾏｴｸﾞﾝﾊﾎﾞﾛﾁｮｳ","streetKana":"ﾃｳﾘ(ｱｲｶｹﾞ)","prefecture":"北海道","city":"苫前郡羽幌町","street":"天売（相影）"},{"zipCode":"0783953","prefectureKana":"ﾎｯｶｲﾄﾞｳ","cityKana":"ﾄﾏﾏｴｸﾞﾝﾊﾎﾞﾛﾁｮｳ","streetKana":"ﾃｳﾘ(ｶｽﾞｳﾗ)","prefecture":"北海道","city":"苫前郡羽幌町","street":"天売（和浦）"},{"zipCode":"0783952","prefectureKana":"ﾎｯｶｲﾄﾞｳ","cityKana":"ﾄﾏﾏｴｸﾞﾝﾊﾎﾞﾛﾁｮｳ","streetKana":"ﾃｳﾘ(ﾄﾐｲｿ)","prefecture":"北海道","city":"苫前郡羽幌町","street":"天売（富磯）"},{"zipCode":"0783955","prefectureKana":"ﾎｯｶｲﾄﾞｳ","cityKana":"ﾄﾏﾏｴｸﾞﾝﾊﾎﾞﾛﾁｮｳ","streetKana":"ﾃｳﾘ(ﾍﾞﾝﾃﾝ)","prefecture":"北海道","city":"苫前郡羽幌町","street":"天売（弁天）"},{"zipCode":"0783954","prefectureKana":"ﾎｯｶｲﾄﾞｳ","cityKana":"ﾄﾏﾏｴｸﾞﾝﾊﾎﾞﾛﾁｮｳ","streetKana":"ﾃｳﾘ(ﾏｴﾊﾏ)","prefecture":"北海道","city":"苫前郡羽幌町","street":"天売（前浜）"},{"zipCode":"0784118","prefectureKana":"ﾎｯｶｲﾄﾞｳ","cityKana":"ﾄﾏﾏｴｸﾞﾝﾊﾎﾞﾛﾁｮｳ","streetKana":"ﾊﾏﾏﾁ","prefecture":"北海道","city":"苫前郡羽幌町","street":"浜町"},{"zipCode":"0784130","prefectureKana":"ﾎｯｶｲﾄﾞｳ","cityKana":"ﾄﾏﾏｴｸﾞﾝﾊﾎﾞﾛﾁｮｳ","streetKana":"ﾐﾄﾞﾘﾏﾁ","prefecture":"北海道","city":"苫前郡羽幌町","street":"緑町"},{"zipCode":"0784120","prefectureKana":"ﾎｯｶｲﾄﾞｳ","cityKana":"ﾄﾏﾏｴｸﾞﾝﾊﾎﾞﾛﾁｮｳ","streetKana":"ﾐﾅﾄﾏﾁ","prefecture":"北海道","city":"苫前郡羽幌町","street":"港町"},{"zipCode":"0784108","prefectureKana":"ﾎｯｶｲﾄﾞｳ","cityKana":"ﾄﾏﾏｴｸﾞﾝﾊﾎﾞﾛﾁｮｳ","streetKana":"ﾐﾅﾐｵｵﾄﾞｵﾘ","prefecture":"北海道","city":"苫前郡羽幌町","street":"南大通"},{"zipCode":"0784122","prefectureKana":"ﾎｯｶｲﾄﾞｳ","cityKana":"ﾄﾏﾏｴｸﾞﾝﾊﾎﾞﾛﾁｮｳ","streetKana":"ﾐﾅﾐﾏﾁ","prefecture":"北海道","city":"苫前郡羽幌町","street":"南町"},{"zipCode":"0784101","prefectureKana":"ﾎｯｶｲﾄﾞｳ","cityKana":"ﾄﾏﾏｴｸﾞﾝﾊﾎﾞﾛﾁｮｳ","streetKana":"ﾐﾅﾐ1ｼﾞｮｳ","prefecture":"北海道","city":"苫前郡羽幌町","street":"南一条"},{"zipCode":"0784102","prefectureKana":"ﾎｯｶｲﾄﾞｳ","cityKana":"ﾄﾏﾏｴｸﾞﾝﾊﾎﾞﾛﾁｮｳ","streetKana":"ﾐﾅﾐ2ｼﾞｮｳ","prefecture":"北海道","city":"苫前郡羽幌町","street":"南二条"},{"zipCode":"0784103","prefectureKana":"ﾎｯｶｲﾄﾞｳ","cityKana":"ﾄﾏﾏｴｸﾞﾝﾊﾎﾞﾛﾁｮｳ","streetKana":"ﾐﾅﾐ3ｼﾞｮｳ","prefecture":"北海道","city":"苫前郡羽幌町","street":"南三条"},{"zipCode":"0784104","prefectureKana":"ﾎｯｶｲﾄﾞｳ","cityKana":"ﾄﾏﾏｴｸﾞﾝﾊﾎﾞﾛﾁｮｳ","streetKana":"ﾐﾅﾐ4ｼﾞｮｳ","prefecture":"北海道","city":"苫前郡羽幌町","street":"南四条"},{"zipCode":"0784105","prefectureKana":"ﾎｯｶｲﾄﾞｳ","cityKana":"ﾄﾏﾏｴｸﾞﾝﾊﾎﾞﾛﾁｮｳ","streetKana":"ﾐﾅﾐ5ｼﾞｮｳ","prefecture":"北海道","city":"苫前郡羽幌町","street":"南五条"},{"zipCode":"0784106","prefectureKana":"ﾎｯｶｲﾄﾞｳ","cityKana":"ﾄﾏﾏｴｸﾞﾝﾊﾎﾞﾛﾁｮｳ","streetKana":"ﾐﾅﾐ6ｼﾞｮｳ","prefecture":"北海道","city":"苫前郡羽幌町","street":"南六条"},{"zipCode":"0784107","prefectureKana":"ﾎｯｶｲﾄﾞｳ","cityKana":"ﾄﾏﾏｴｸﾞﾝﾊﾎﾞﾛﾁｮｳ","streetKana":"ﾐﾅﾐ7ｼﾞｮｳ","prefecture":"北海道","city":"苫前郡羽幌町","street":"南七条"},{"zipCode":"0783871","prefectureKana":"ﾎｯｶｲﾄﾞｳ","cityKana":"ﾄﾏﾏｴｸﾞﾝﾊﾎﾞﾛﾁｮｳ","streetKana":"ﾔｷﾞｼﾘ","prefecture":"北海道","city":"苫前郡羽幌町","street":"焼尻"},{"zipCode":"0784400","prefectureKana":"ﾎｯｶｲﾄﾞｳ","cityKana":"ﾄﾏﾏｴｸﾞﾝｼｮｻﾝﾍﾞﾂﾑﾗ","streetKana":"ｲｶﾆｹｲｻｲｶﾞﾅｲﾊﾞｱｲ","prefecture":"北海道","city":"苫前郡初山別村","street":"以下に掲載がない場合"},{"zipCode":"0784432","prefectureKana":"ﾎｯｶｲﾄﾞｳ","cityKana":"ﾄﾏﾏｴｸﾞﾝｼｮｻﾝﾍﾞﾂﾑﾗ","streetKana":"ｱｹｻﾄ","prefecture":"北海道","city":"苫前郡初山別村","street":"明里"},{"zipCode":"0784411","prefectureKana":"ﾎｯｶｲﾄﾞｳ","cityKana":"ﾄﾏﾏｴｸﾞﾝｼｮｻﾝﾍﾞﾂﾑﾗ","streetKana":"ｱﾘｱｹ","prefecture":"北海道","city":"苫前郡初山別村","street":"有明"},{"zipCode":"0784433","prefectureKana":"ﾎｯｶｲﾄﾞｳ","cityKana":"ﾄﾏﾏｴｸﾞﾝｼｮｻﾝﾍﾞﾂﾑﾗ","streetKana":"ｷｮｳｾｲ","prefecture":"北海道","city":"苫前郡初山別村","street":"共成"},{"zipCode":"0784412","prefectureKana":"ﾎｯｶｲﾄﾞｳ","cityKana":"ﾄﾏﾏｴｸﾞﾝｼｮｻﾝﾍﾞﾂﾑﾗ","streetKana":"ｻｶｴ","prefecture":"北海道","city":"苫前郡初山別村","street":"栄"},{"zipCode":"0784421","prefectureKana":"ﾎｯｶｲﾄﾞｳ","cityKana":"ﾄﾏﾏｴｸﾞﾝｼｮｻﾝﾍﾞﾂﾑﾗ","streetKana":"ｼｮｻﾝﾍﾞﾂ","prefecture":"北海道","city":"苫前郡初山別村","street":"初山別"},{"zipCode":"0784422","prefectureKana":"ﾎｯｶｲﾄﾞｳ","cityKana":"ﾄﾏﾏｴｸﾞﾝｼｮｻﾝﾍﾞﾂﾑﾗ","streetKana":"ﾁﾖﾀﾞ","prefecture":"北海道","city":"苫前郡初山別村","street":"千代田"},{"zipCode":"0784431","prefectureKana":"ﾎｯｶｲﾄﾞｳ","cityKana":"ﾄﾏﾏｴｸﾞﾝｼｮｻﾝﾍﾞﾂﾑﾗ","streetKana":"ﾄﾖｻｷ","prefecture":"北海道","city":"苫前郡初山別村","street":"豊岬"}]