[{"zipCode":"0798401","prefectureKana":"ﾎｯｶｲﾄﾞｳ","cityKana":"ｱｻﾋｶﾜｼ","streetKana":"ｱｷﾂｷ1ｼﾞｮｳ","prefecture":"北海道","city":"旭川市","street":"秋月１条"},{"zipCode":"0798402","prefectureKana":"ﾎｯｶｲﾄﾞｳ","cityKana":"ｱｻﾋｶﾜｼ","streetKana":"ｱｷﾂｷ2ｼﾞｮｳ","prefecture":"北海道","city":"旭川市","street":"秋月２条"},{"zipCode":"0798403","prefectureKana":"ﾎｯｶｲﾄﾞｳ","cityKana":"ｱｻﾋｶﾜｼ","streetKana":"ｱｷﾂｷ3ｼﾞｮｳ","prefecture":"北海道","city":"旭川市","street":"秋月３条"},{"zipCode":"0798411","prefectureKana":"ﾎｯｶｲﾄﾞｳ","cityKana":"ｱｻﾋｶﾜｼ","streetKana":"ﾅｶﾞﾔﾏ1ｼﾞｮｳ","prefecture":"北海道","city":"旭川市","street":"永山１条"},{"zipCode":"0798412","prefectureKana":"ﾎｯｶｲﾄﾞｳ","cityKana":"ｱｻﾋｶﾜｼ","streetKana":"ﾅｶﾞﾔﾏ2ｼﾞｮｳ","prefecture":"北海道","city":"旭川市","street":"永山２条"},{"zipCode":"0798413","prefectureKana":"ﾎｯｶｲﾄﾞｳ","cityKana":"ｱｻﾋｶﾜｼ","streetKana":"ﾅｶﾞﾔﾏ3ｼﾞｮｳ","prefecture":"北海道","city":"旭川市","street":"永山３条"},{"zipCode":"0798414","prefectureKana":"ﾎｯｶｲﾄﾞｳ","cityKana":"ｱｻﾋｶﾜｼ","streetKana":"ﾅｶﾞﾔﾏ4ｼﾞｮｳ","prefecture":"北海道","city":"旭川市","street":"永山４条"},{"zipCode":"0798415","prefectureKana":"ﾎｯｶｲﾄﾞｳ","cityKana":"ｱｻﾋｶﾜｼ","streetKana":"ﾅｶﾞﾔﾏ5ｼﾞｮｳ","prefecture":"北海道","city":"旭川市","street":"永山５条"},{"zipCode":"0798416","prefectureKana":"ﾎｯｶｲﾄﾞｳ","cityKana":"ｱｻﾋｶﾜｼ","streetKana":"ﾅｶﾞﾔﾏ6ｼﾞｮｳ","prefecture":"北海道","city":"旭川市","street":"永山６条"},{"zipCode":"0798417","prefectureKana":"ﾎｯｶｲﾄﾞｳ","cityKana":"ｱｻﾋｶﾜｼ","streetKana":"ﾅｶﾞﾔﾏ7ｼﾞｮｳ","prefecture":"北海道","city":"旭川市","street":"永山７条"},{"zipCode":"0798418","prefectureKana":"ﾎｯｶｲﾄﾞｳ","cityKana":"ｱｻﾋｶﾜｼ","streetKana":"ﾅｶﾞﾔﾏ8ｼﾞｮｳ","prefecture":"北海道","city":"旭川市","street":"永山８条"},{"zipCode":"0798419","prefectureKana":"ﾎｯｶｲﾄﾞｳ","cityKana":"ｱｻﾋｶﾜｼ","streetKana":"ﾅｶﾞﾔﾏ9ｼﾞｮｳ","prefecture":"北海道","city":"旭川市","street":"永山９条"},{"zipCode":"0798420","prefectureKana":"ﾎｯｶｲﾄﾞｳ","cityKana":"ｱｻﾋｶﾜｼ","streetKana":"ﾅｶﾞﾔﾏ10ｼﾞｮｳ","prefecture":"北海道","city":"旭川市","street":"永山１０条"},{"zipCode":"0798421","prefectureKana":"ﾎｯｶｲﾄﾞｳ","cityKana":"ｱｻﾋｶﾜｼ","streetKana":"ﾅｶﾞﾔﾏ11ｼﾞｮｳ","prefecture":"北海道","city":"旭川市","street":"永山１１条"},{"zipCode":"0798422","prefectureKana":"ﾎｯｶｲﾄﾞｳ","cityKana":"ｱｻﾋｶﾜｼ","streetKana":"ﾅｶﾞﾔﾏ12ｼﾞｮｳ","prefecture":"北海道","city":"旭川市","street":"永山１２条"},{"zipCode":"0798423","prefectureKana":"ﾎｯｶｲﾄﾞｳ","cityKana":"ｱｻﾋｶﾜｼ","streetKana":"ﾅｶﾞﾔﾏ13ｼﾞｮｳ","prefecture":"北海道","city":"旭川市","street":"永山１３条"},{"zipCode":"0798424","prefectureKana":"ﾎｯｶｲﾄﾞｳ","cityKana":"ｱｻﾋｶﾜｼ","streetKana":"ﾅｶﾞﾔﾏ14ｼﾞｮｳ","prefecture":"北海道","city":"旭川市","street":"永山１４条"},{"zipCode":"0798451","prefectureKana":"ﾎｯｶｲﾄﾞｳ","cityKana":"ｱｻﾋｶﾜｼ","streetKana":"ﾅｶﾞﾔﾏｷﾀ1ｼﾞｮｳ","prefecture":"北海道","city":"旭川市","street":"永山北１条"},{"zipCode":"0798452","prefectureKana":"ﾎｯｶｲﾄﾞｳ","cityKana":"ｱｻﾋｶﾜｼ","streetKana":"ﾅｶﾞﾔﾏｷﾀ2ｼﾞｮｳ","prefecture":"北海道","city":"旭川市","street":"永山北２条"},{"zipCode":"0798453","prefectureKana":"ﾎｯｶｲﾄﾞｳ","cityKana":"ｱｻﾋｶﾜｼ","streetKana":"ﾅｶﾞﾔﾏｷﾀ3ｼﾞｮｳ","prefecture":"北海道","city":"旭川市","street":"永山北３条"},{"zipCode":"0798454","prefectureKana":"ﾎｯｶｲﾄﾞｳ","cityKana":"ｱｻﾋｶﾜｼ","streetKana":"ﾅｶﾞﾔﾏｷﾀ4ｼﾞｮｳ","prefecture":"北海道","city":"旭川市","street":"永山北４条"},{"zipCode":"0798431","prefectureKana":"ﾎｯｶｲﾄﾞｳ","cityKana":"ｱｻﾋｶﾜｼ","streetKana":"ﾅｶﾞﾔﾏﾁｮｳ","prefecture":"北海道","city":"旭川市","street":"永山町"},{"zipCode":"0798441","prefectureKana":"ﾎｯｶｲﾄﾞｳ","cityKana":"ｱｻﾋｶﾜｼ","streetKana":"ﾘｭｳﾂｳﾀﾞﾝﾁ1ｼﾞｮｳ","prefecture":"北海道","city":"旭川市","street":"流通団地１条"},{"zipCode":"0798442","prefectureKana":"ﾎｯｶｲﾄﾞｳ","cityKana":"ｱｻﾋｶﾜｼ","streetKana":"ﾘｭｳﾂｳﾀﾞﾝﾁ2ｼﾞｮｳ","prefecture":"北海道","city":"旭川市","street":"流通団地２条"},{"zipCode":"0798443","prefectureKana":"ﾎｯｶｲﾄﾞｳ","cityKana":"ｱｻﾋｶﾜｼ","streetKana":"ﾘｭｳﾂｳﾀﾞﾝﾁ3ｼﾞｮｳ","prefecture":"北海道","city":"旭川市","street":"流通団地３条"},{"zipCode":"0798444","prefectureKana":"ﾎｯｶｲﾄﾞｳ","cityKana":"ｱｻﾋｶﾜｼ","streetKana":"ﾘｭｳﾂｳﾀﾞﾝﾁ4ｼﾞｮｳ","prefecture":"北海道","city":"旭川市","street":"流通団地４条"},{"zipCode":"0790183","prefectureKana":"ﾎｯｶｲﾄﾞｳ","cityKana":"ｲﾜﾐｻﾞﾜｼ","streetKana":"ｵｵﾈｶﾞｲﾁｮｳ","prefecture":"北海道","city":"岩見沢市","street":"大願町"},{"zipCode":"0790181","prefectureKana":"ﾎｯｶｲﾄﾞｳ","cityKana":"ｲﾜﾐｻﾞﾜｼ","streetKana":"ｵｶﾔﾏﾁｮｳ","prefecture":"北海道","city":"岩見沢市","street":"岡山町"},{"zipCode":"0790182","prefectureKana":"ﾎｯｶｲﾄﾞｳ","cityKana":"ｲﾜﾐｻﾞﾜｼ","streetKana":"ﾐﾈﾉﾌﾞﾁｮｳ","prefecture":"北海道","city":"岩見沢市","street":"峰延町"},{"zipCode":"0790177","prefectureKana":"ﾎｯｶｲﾄﾞｳ","cityKana":"ﾋﾞﾊﾞｲｼ","streetKana":"ｶﾐﾋﾞﾊﾞｲﾁｮｳ(ｷｮｳﾜ､ﾐﾅﾐ)","prefecture":"北海道","city":"美唄市","street":"上美唄町（協和、南）"},{"zipCode":"0790274","prefectureKana":"ﾎｯｶｲﾄﾞｳ","cityKana":"ﾋﾞﾊﾞｲｼ","streetKana":"ｷﾀﾋﾞﾊﾞｲﾁｮｳ","prefecture":"北海道","city":"美唄市","street":"北美唄町"},{"zipCode":"0790165","prefectureKana":"ﾎｯｶｲﾄﾞｳ","cityKana":"ﾋﾞﾊﾞｲｼ","streetKana":"ｺｳｼｳﾅｲｶﾐﾅｶﾉｻﾜ","prefecture":"北海道","city":"美唄市","street":"光珠内上中の沢"},{"zipCode":"0790164","prefectureKana":"ﾎｯｶｲﾄﾞｳ","cityKana":"ﾋﾞﾊﾞｲｼ","streetKana":"ｺｳｼｳﾅｲｼﾓﾅｶﾉｻﾜ","prefecture":"北海道","city":"美唄市","street":"光珠内下中の沢"},{"zipCode":"0790162","prefectureKana":"ﾎｯｶｲﾄﾞｳ","cityKana":"ﾋﾞﾊﾞｲｼ","streetKana":"ｺｳｼｭﾅｲｷﾀ","prefecture":"北海道","city":"美唄市","street":"光珠内北"},{"zipCode":"0790161","prefectureKana":"ﾎｯｶｲﾄﾞｳ","cityKana":"ﾋﾞﾊﾞｲｼ","streetKana":"ｺｳｼｭﾅｲﾀｸﾎｸ","prefecture":"北海道","city":"美唄市","street":"光珠内拓北"},{"zipCode":"0790171","prefectureKana":"ﾎｯｶｲﾄﾞｳ","cityKana":"ﾋﾞﾊﾞｲｼ","streetKana":"ｺｳｼｭﾅｲﾁｭｳｵｳ","prefecture":"北海道","city":"美唄市","street":"光珠内中央"},{"zipCode":"0790166","prefectureKana":"ﾎｯｶｲﾄﾞｳ","cityKana":"ﾋﾞﾊﾞｲｼ","streetKana":"ｺｳｼｭﾅｲﾋｶﾞｼﾔﾏ","prefecture":"北海道","city":"美唄市","street":"光珠内東山"},{"zipCode":"0790167","prefectureKana":"ﾎｯｶｲﾄﾞｳ","cityKana":"ﾋﾞﾊﾞｲｼ","streetKana":"ｺｳｼｭﾅｲﾁｮｳﾐﾅﾐ(ｿﾉﾀ)","prefecture":"北海道","city":"美唄市","street":"光珠内町南（その他）"},{"zipCode":"0790261","prefectureKana":"ﾎｯｶｲﾄﾞｳ","cityKana":"ﾋﾞﾊﾞｲｼ","streetKana":"ﾁｬｼﾅｲﾁｮｳ","prefecture":"北海道","city":"美唄市","street":"茶志内町"},{"zipCode":"0790267","prefectureKana":"ﾎｯｶｲﾄﾞｳ","cityKana":"ﾋﾞﾊﾞｲｼ","streetKana":"ﾁｬｼﾅｲﾁｮｳｷｮｳﾜ","prefecture":"北海道","city":"美唄市","street":"茶志内町協和"},{"zipCode":"0790266","prefectureKana":"ﾎｯｶｲﾄﾞｳ","cityKana":"ﾋﾞﾊﾞｲｼ","streetKana":"ﾁｬｼﾅｲﾁｮｳﾎﾝﾁｮｳ","prefecture":"北海道","city":"美唄市","street":"茶志内町本町"},{"zipCode":"0790176","prefectureKana":"ﾎｯｶｲﾄﾞｳ","cityKana":"ﾋﾞﾊﾞｲｼ","streetKana":"ﾄﾖｱｼﾁｮｳ","prefecture":"北海道","city":"美唄市","street":"豊葦町"},{"zipCode":"0790272","prefectureKana":"ﾎｯｶｲﾄﾞｳ","cityKana":"ﾋﾞﾊﾞｲｼ","streetKana":"ﾅｶﾑﾗﾁｮｳﾁｭｳｵｳ","prefecture":"北海道","city":"美唄市","street":"中村町中央"},{"zipCode":"0790271","prefectureKana":"ﾎｯｶｲﾄﾞｳ","cityKana":"ﾋﾞﾊﾞｲｼ","streetKana":"ﾅｶﾑﾗﾁｮｳﾐﾅﾐ","prefecture":"北海道","city":"美唄市","street":"中村町南"},{"zipCode":"0790273","prefectureKana":"ﾎｯｶｲﾄﾞｳ","cityKana":"ﾋﾞﾊﾞｲｼ","streetKana":"ﾅｶﾑﾗﾁｮｳｷﾀ","prefecture":"北海道","city":"美唄市","street":"中村町北"},{"zipCode":"0790262","prefectureKana":"ﾎｯｶｲﾄﾞｳ","cityKana":"ﾋﾞﾊﾞｲｼ","streetKana":"ﾆｯﾄｳﾁｮｳｻｶｴﾏﾁ","prefecture":"北海道","city":"美唄市","street":"日東町栄町"},{"zipCode":"0790263","prefectureKana":"ﾎｯｶｲﾄﾞｳ","cityKana":"ﾋﾞﾊﾞｲｼ","streetKana":"ﾆｯﾄｳﾁｮｳｽﾐﾖｼ","prefecture":"北海道","city":"美唄市","street":"日東町住吉"},{"zipCode":"0790265","prefectureKana":"ﾎｯｶｲﾄﾞｳ","cityKana":"ﾋﾞﾊﾞｲｼ","streetKana":"ﾆｯﾄｳﾁｮｳﾄﾐﾉｺﾞｳ","prefecture":"北海道","city":"美唄市","street":"日東町富の郷"},{"zipCode":"0790264","prefectureKana":"ﾎｯｶｲﾄﾞｳ","cityKana":"ﾋﾞﾊﾞｲｼ","streetKana":"ﾆｯﾄｳﾁｮｳﾎﾝﾁｮｳ","prefecture":"北海道","city":"美唄市","street":"日東町本町"},{"zipCode":"0790173","prefectureKana":"ﾎｯｶｲﾄﾞｳ","cityKana":"ﾋﾞﾊﾞｲｼ","streetKana":"ﾐﾈﾉﾌﾞﾁｮｳｺｳｴﾝ","prefecture":"北海道","city":"美唄市","street":"峰延町公園"},{"zipCode":"0790172","prefectureKana":"ﾎｯｶｲﾄﾞｳ","cityKana":"ﾋﾞﾊﾞｲｼ","streetKana":"ﾐﾈﾉﾌﾞﾁｮｳﾋｶﾞｼ","prefecture":"北海道","city":"美唄市","street":"峰延町東"},{"zipCode":"0790174","prefectureKana":"ﾎｯｶｲﾄﾞｳ","cityKana":"ﾋﾞﾊﾞｲｼ","streetKana":"ﾐﾈﾉﾌﾞﾁｮｳﾎﾝﾁｮｳ","prefecture":"北海道","city":"美唄市","street":"峰延町本町"},{"zipCode":"0790175","prefectureKana":"ﾎｯｶｲﾄﾞｳ","cityKana":"ﾋﾞﾊﾞｲｼ","streetKana":"ﾐﾈﾉﾌﾞﾁｮｳﾐﾈｶﾊﾞ","prefecture":"北海道","city":"美唄市","street":"峰延町峰樺"},{"zipCode":"0791371","prefectureKana":"ﾎｯｶｲﾄﾞｳ","cityKana":"ｱｼﾍﾞﾂｼ","streetKana":"ｶﾐｱｼﾍﾞﾂﾁｮｳ","prefecture":"北海道","city":"芦別市","street":"上芦別町"},{"zipCode":"0791372","prefectureKana":"ﾎｯｶｲﾄﾞｳ","cityKana":"ｱｼﾍﾞﾂｼ","streetKana":"ﾉｶﾅﾝﾁｮｳ","prefecture":"北海道","city":"芦別市","street":"野花南町"},{"zipCode":"0791100","prefectureKana":"ﾎｯｶｲﾄﾞｳ","cityKana":"ｱｶﾋﾞﾗｼ","streetKana":"ｲｶﾆｹｲｻｲｶﾞﾅｲﾊﾞｱｲ","prefecture":"北海道","city":"赤平市","street":"以下に掲載がない場合"},{"zipCode":"0791143","prefectureKana":"ﾎｯｶｲﾄﾞｳ","cityKana":"ｱｶﾋﾞﾗｼ","streetKana":"ｱｶﾋﾞﾗ","prefecture":"北海道","city":"赤平市","street":"赤平"},{"zipCode":"0791134","prefectureKana":"ﾎｯｶｲﾄﾞｳ","cityKana":"ｱｶﾋﾞﾗｼ","streetKana":"ｲｽﾞﾐﾏﾁ","prefecture":"北海道","city":"赤平市","street":"泉町"},{"zipCode":"0791274","prefectureKana":"ﾎｯｶｲﾄﾞｳ","cityKana":"ｱｶﾋﾞﾗｼ","streetKana":"ｴﾙﾑﾁｮｳ","prefecture":"北海道","city":"赤平市","street":"エルム町"},{"zipCode":"0791141","prefectureKana":"ﾎｯｶｲﾄﾞｳ","cityKana":"ｱｶﾋﾞﾗｼ","streetKana":"ｵｵﾏﾁ","prefecture":"北海道","city":"赤平市","street":"大町"},{"zipCode":"0791121","prefectureKana":"ﾎｯｶｲﾄﾞｳ","cityKana":"ｱｶﾋﾞﾗｼ","streetKana":"ｷﾀﾌﾞﾝｷｮｳﾁｮｳ","prefecture":"北海道","city":"赤平市","street":"北文京町"},{"zipCode":"0791101","prefectureKana":"ﾎｯｶｲﾄﾞｳ","cityKana":"ｱｶﾋﾞﾗｼ","streetKana":"ｷｮｳﾜﾁｮｳ","prefecture":"北海道","city":"赤平市","street":"共和町"},{"zipCode":"0791154","prefectureKana":"ﾎｯｶｲﾄﾞｳ","cityKana":"ｱｶﾋﾞﾗｼ","streetKana":"ｻｲﾜｲﾁｮｳ","prefecture":"北海道","city":"赤平市","street":"幸町"},{"zipCode":"0791152","prefectureKana":"ﾎｯｶｲﾄﾞｳ","cityKana":"ｱｶﾋﾞﾗｼ","streetKana":"ｻｸﾗｷﾞﾁｮｳ","prefecture":"北海道","city":"赤平市","street":"桜木町"},{"zipCode":"0791155","prefectureKana":"ﾎｯｶｲﾄﾞｳ","cityKana":"ｱｶﾋﾞﾗｼ","streetKana":"ｼｮｳﾜﾁｮｳ","prefecture":"北海道","city":"赤平市","street":"昭和町"},{"zipCode":"0791156","prefectureKana":"ﾎｯｶｲﾄﾞｳ","cityKana":"ｱｶﾋﾞﾗｼ","streetKana":"ｽﾐﾖｼﾁｮｳ","prefecture":"北海道","city":"赤平市","street":"住吉町"},{"zipCode":"0791124","prefectureKana":"ﾎｯｶｲﾄﾞｳ","cityKana":"ｱｶﾋﾞﾗｼ","streetKana":"ﾄﾖｵｶﾁｮｳ","prefecture":"北海道","city":"赤平市","street":"豊丘町"},{"zipCode":"0791133","prefectureKana":"ﾎｯｶｲﾄﾞｳ","cityKana":"ｱｶﾋﾞﾗｼ","streetKana":"ﾄﾖｻﾄ","prefecture":"北海道","city":"赤平市","street":"豊里"},{"zipCode":"0791135","prefectureKana":"ﾎｯｶｲﾄﾞｳ","cityKana":"ｱｶﾋﾞﾗｼ","streetKana":"ﾆｼｷﾏﾁ","prefecture":"北海道","city":"赤平市","street":"錦町"},{"zipCode":"0791131","prefectureKana":"ﾎｯｶｲﾄﾞｳ","cityKana":"ｱｶﾋﾞﾗｼ","streetKana":"ﾆｼﾄﾖｻﾄﾁｮｳ","prefecture":"北海道","city":"赤平市","street":"西豊里町"},{"zipCode":"0791122","prefectureKana":"ﾎｯｶｲﾄﾞｳ","cityKana":"ｱｶﾋﾞﾗｼ","streetKana":"ﾆｼﾌﾞﾝｷｮｳﾁｮｳ","prefecture":"北海道","city":"赤平市","street":"西文京町"},{"zipCode":"0791142","prefectureKana":"ﾎｯｶｲﾄﾞｳ","cityKana":"ｱｶﾋﾞﾗｼ","streetKana":"ﾋｶﾞｼｵｵﾏﾁ","prefecture":"北海道","city":"赤平市","street":"東大町"},{"zipCode":"0791132","prefectureKana":"ﾎｯｶｲﾄﾞｳ","cityKana":"ｱｶﾋﾞﾗｼ","streetKana":"ﾋｶﾞｼﾄﾖｻﾄﾁｮｳ","prefecture":"北海道","city":"赤平市","street":"東豊里町"},{"zipCode":"0791123","prefectureKana":"ﾎｯｶｲﾄﾞｳ","cityKana":"ｱｶﾋﾞﾗｼ","streetKana":"ﾋｶﾞｼﾌﾞﾝｷｮｳﾁｮｳ","prefecture":"北海道","city":"赤平市","street":"東文京町"},{"zipCode":"0791272","prefectureKana":"ﾎｯｶｲﾄﾞｳ","cityKana":"ｱｶﾋﾞﾗｼ","streetKana":"ﾋｬｯｺﾁｮｳﾋｶﾞｼ","prefecture":"北海道","city":"赤平市","street":"百戸町東"},{"zipCode":"0791273","prefectureKana":"ﾎｯｶｲﾄﾞｳ","cityKana":"ｱｶﾋﾞﾗｼ","streetKana":"ﾋｬｯｺﾁｮｳﾆｼ","prefecture":"北海道","city":"赤平市","street":"百戸町西"},{"zipCode":"0791271","prefectureKana":"ﾎｯｶｲﾄﾞｳ","cityKana":"ｱｶﾋﾞﾗｼ","streetKana":"ﾋｬｯｺﾁｮｳｷﾀ","prefecture":"北海道","city":"赤平市","street":"百戸町北"},{"zipCode":"0791287","prefectureKana":"ﾎｯｶｲﾄﾞｳ","cityKana":"ｱｶﾋﾞﾗｼ","streetKana":"ﾋﾗｷﾞｼｶﾂﾗﾁｮｳ","prefecture":"北海道","city":"赤平市","street":"平岸桂町"},{"zipCode":"0791281","prefectureKana":"ﾎｯｶｲﾄﾞｳ","cityKana":"ｱｶﾋﾞﾗｼ","streetKana":"ﾋﾗｷﾞｼｼﾝｺｳﾁｮｳ","prefecture":"北海道","city":"赤平市","street":"平岸新光町"},{"zipCode":"0791282","prefectureKana":"ﾎｯｶｲﾄﾞｳ","cityKana":"ｱｶﾋﾞﾗｼ","streetKana":"ﾋﾗｷﾞｼﾅｶﾏﾁ","prefecture":"北海道","city":"赤平市","street":"平岸仲町"},{"zipCode":"0791283","prefectureKana":"ﾎｯｶｲﾄﾞｳ","cityKana":"ｱｶﾋﾞﾗｼ","streetKana":"ﾋﾗｷﾞｼﾋｶﾞｼﾏﾁ","prefecture":"北海道","city":"赤平市","street":"平岸東町"},{"zipCode":"0791286","prefectureKana":"ﾎｯｶｲﾄﾞｳ","cityKana":"ｱｶﾋﾞﾗｼ","streetKana":"ﾋﾗｷﾞｼﾆｼﾏﾁ","prefecture":"北海道","city":"赤平市","street":"平岸西町"},{"zipCode":"0791284","prefectureKana":"ﾎｯｶｲﾄﾞｳ","cityKana":"ｱｶﾋﾞﾗｼ","streetKana":"ﾋﾗｷﾞｼﾐﾅﾐﾏﾁ","prefecture":"北海道","city":"赤平市","street":"平岸南町"},{"zipCode":"0791285","prefectureKana":"ﾎｯｶｲﾄﾞｳ","cityKana":"ｱｶﾋﾞﾗｼ","streetKana":"ﾋﾗｷﾞｼｱｹﾎﾞﾉﾁｮｳ","prefecture":"北海道","city":"赤平市","street":"平岸曙町"},{"zipCode":"0791153","prefectureKana":"ﾎｯｶｲﾄﾞｳ","cityKana":"ｱｶﾋﾞﾗｼ","streetKana":"ﾎｳｴｲﾁｮｳ","prefecture":"北海道","city":"赤平市","street":"豊栄町"},{"zipCode":"0791102","prefectureKana":"ﾎｯｶｲﾄﾞｳ","cityKana":"ｱｶﾋﾞﾗｼ","streetKana":"ﾎﾛｵｶﾁｮｳ","prefecture":"北海道","city":"赤平市","street":"幌岡町"},{"zipCode":"0791136","prefectureKana":"ﾎｯｶｲﾄﾞｳ","cityKana":"ｱｶﾋﾞﾗｼ","streetKana":"ﾎﾝﾁｮｳ","prefecture":"北海道","city":"赤平市","street":"本町"},{"zipCode":"0791144","prefectureKana":"ﾎｯｶｲﾄﾞｳ","cityKana":"ｱｶﾋﾞﾗｼ","streetKana":"ﾐｿﾉﾁｮｳ","prefecture":"北海道","city":"赤平市","street":"美園町"},{"zipCode":"0791151","prefectureKana":"ﾎｯｶｲﾄﾞｳ","cityKana":"ｱｶﾋﾞﾗｼ","streetKana":"ﾐﾔｼﾀﾁｮｳ","prefecture":"北海道","city":"赤平市","street":"宮下町"},{"zipCode":"0791266","prefectureKana":"ﾎｯｶｲﾄﾞｳ","cityKana":"ｱｶﾋﾞﾗｼ","streetKana":"ﾓｼﾞﾘ","prefecture":"北海道","city":"赤平市","street":"茂尻"},{"zipCode":"0791264","prefectureKana":"ﾎｯｶｲﾄﾞｳ","cityKana":"ｱｶﾋﾞﾗｼ","streetKana":"ﾓｼﾞﾘｱｻﾋﾏﾁ","prefecture":"北海道","city":"赤平市","street":"茂尻旭町"},{"zipCode":"0791262","prefectureKana":"ﾎｯｶｲﾄﾞｳ","cityKana":"ｱｶﾋﾞﾗｼ","streetKana":"ﾓｼﾞﾘｶｽｶﾞﾁｮｳ","prefecture":"北海道","city":"赤平市","street":"茂尻春日町"},{"zipCode":"0791266","prefectureKana":"ﾎｯｶｲﾄﾞｳ","cityKana":"ｱｶﾋﾞﾗｼ","streetKana":"ﾓｼﾞﾘｻｶｴﾏﾁ","prefecture":"北海道","city":"赤平市","street":"茂尻栄町"},{"zipCode":"0791262","prefectureKana":"ﾎｯｶｲﾄﾞｳ","cityKana":"ｱｶﾋﾞﾗｼ","streetKana":"ﾓｼﾞﾘｼﾝｶｽｶﾞﾁｮｳ","prefecture":"北海道","city":"赤平市","street":"茂尻新春日町"},{"zipCode":"0791265","prefectureKana":"ﾎｯｶｲﾄﾞｳ","cityKana":"ｱｶﾋﾞﾗｼ","streetKana":"ﾓｼﾞﾘｼﾝﾏﾁ","prefecture":"北海道","city":"赤平市","street":"茂尻新町"},{"zipCode":"0791261","prefectureKana":"ﾎｯｶｲﾄﾞｳ","cityKana":"ｱｶﾋﾞﾗｼ","streetKana":"ﾓｼﾞﾘﾁｭｳｵｳﾁｮｳﾐﾅﾐ","prefecture":"北海道","city":"赤平市","street":"茂尻中央町南"},{"zipCode":"0791261","prefectureKana":"ﾎｯｶｲﾄﾞｳ","cityKana":"ｱｶﾋﾞﾗｼ","streetKana":"ﾓｼﾞﾘﾁｭｳｵｳﾁｮｳｷﾀ","prefecture":"北海道","city":"赤平市","street":"茂尻中央町北"},{"zipCode":"0791263","prefectureKana":"ﾎｯｶｲﾄﾞｳ","cityKana":"ｱｶﾋﾞﾗｼ","streetKana":"ﾓｼﾞﾘﾎﾝﾁｮｳ","prefecture":"北海道","city":"赤平市","street":"茂尻本町"},{"zipCode":"0791264","prefectureKana":"ﾎｯｶｲﾄﾞｳ","cityKana":"ｱｶﾋﾞﾗｼ","streetKana":"ﾓｼﾞﾘﾐﾔｼﾀﾁｮｳ","prefecture":"北海道","city":"赤平市","street":"茂尻宮下町"},{"zipCode":"0791267","prefectureKana":"ﾎｯｶｲﾄﾞｳ","cityKana":"ｱｶﾋﾞﾗｼ","streetKana":"ﾓｼﾞﾘﾓﾄﾏﾁﾐﾅﾐ","prefecture":"北海道","city":"赤平市","street":"茂尻元町南"},{"zipCode":"0791268","prefectureKana":"ﾎｯｶｲﾄﾞｳ","cityKana":"ｱｶﾋﾞﾗｼ","streetKana":"ﾓｼﾞﾘﾓﾄﾏﾁｷﾀ","prefecture":"北海道","city":"赤平市","street":"茂尻元町北"},{"zipCode":"0791113","prefectureKana":"ﾎｯｶｲﾄﾞｳ","cityKana":"ｱｶﾋﾞﾗｼ","streetKana":"ﾜｶｷﾁｮｳﾋｶﾞｼ","prefecture":"北海道","city":"赤平市","street":"若木町東"},{"zipCode":"0791112","prefectureKana":"ﾎｯｶｲﾄﾞｳ","cityKana":"ｱｶﾋﾞﾗｼ","streetKana":"ﾜｶｷﾁｮｳﾆｼ","prefecture":"北海道","city":"赤平市","street":"若木町西"},{"zipCode":"0791114","prefectureKana":"ﾎｯｶｲﾄﾞｳ","cityKana":"ｱｶﾋﾞﾗｼ","streetKana":"ﾜｶｷﾁｮｳﾐﾅﾐ","prefecture":"北海道","city":"赤平市","street":"若木町南"},{"zipCode":"0791111","prefectureKana":"ﾎｯｶｲﾄﾞｳ","cityKana":"ｱｶﾋﾞﾗｼ","streetKana":"ﾜｶｷﾁｮｳｷﾀ","prefecture":"北海道","city":"赤平市","street":"若木町北"},{"zipCode":"0790461","prefectureKana":"ﾎｯｶｲﾄﾞｳ","cityKana":"ﾀｷｶﾜｼ","streetKana":"ｴﾍﾞｵﾂﾁｮｳ","prefecture":"北海道","city":"滝川市","street":"江部乙町"},{"zipCode":"0790463","prefectureKana":"ﾎｯｶｲﾄﾞｳ","cityKana":"ﾀｷｶﾜｼ","streetKana":"ｴﾍﾞｵﾂﾁｮｳﾋｶﾞｼ","prefecture":"北海道","city":"滝川市","street":"江部乙町東"},{"zipCode":"0790462","prefectureKana":"ﾎｯｶｲﾄﾞｳ","cityKana":"ﾀｷｶﾜｼ","streetKana":"ｴﾍﾞｵﾂﾁｮｳﾆｼ","prefecture":"北海道","city":"滝川市","street":"江部乙町西"},{"zipCode":"0791181","prefectureKana":"ﾎｯｶｲﾄﾞｳ","cityKana":"ｽﾅｶﾞﾜｼ","streetKana":"ﾄﾐﾋﾗ(331､459-4､543ﾊﾞﾝﾁ)","prefecture":"北海道","city":"砂川市","street":"富平（３３１、４５９－４、５４３番地）"},{"zipCode":"0792133","prefectureKana":"ﾎｯｶｲﾄﾞｳ","cityKana":"ﾌﾗﾉｼ","streetKana":"ﾋｶﾞｼﾔﾏ(1710ﾊﾞﾝﾁ)","prefecture":"北海道","city":"富良野市","street":"東山（１７１０番地）"},{"zipCode":"0791562","prefectureKana":"ﾎｯｶｲﾄﾞｳ","cityKana":"ﾌﾗﾉｼ","streetKana":"ﾔﾏﾍﾞｷﾀﾏﾁ","prefecture":"北海道","city":"富良野市","street":"山部北町"},{"zipCode":"0791564","prefectureKana":"ﾎｯｶｲﾄﾞｳ","cityKana":"ﾌﾗﾉｼ","streetKana":"ﾔﾏﾍﾞﾅｶﾏﾁ","prefecture":"北海道","city":"富良野市","street":"山部中町"},{"zipCode":"0791571","prefectureKana":"ﾎｯｶｲﾄﾞｳ","cityKana":"ﾌﾗﾉｼ","streetKana":"ﾔﾏﾍﾞﾆｼ12ｾﾝ","prefecture":"北海道","city":"富良野市","street":"山部西１２線"},{"zipCode":"0791571","prefectureKana":"ﾎｯｶｲﾄﾞｳ","cityKana":"ﾌﾗﾉｼ","streetKana":"ﾔﾏﾍﾞﾆｼ13ｾﾝ","prefecture":"北海道","city":"富良野市","street":"山部西１３線"},{"zipCode":"0791571","prefectureKana":"ﾎｯｶｲﾄﾞｳ","cityKana":"ﾌﾗﾉｼ","streetKana":"ﾔﾏﾍﾞﾆｼ14ｾﾝ","prefecture":"北海道","city":"富良野市","street":"山部西１４線"},{"zipCode":"0791571","prefectureKana":"ﾎｯｶｲﾄﾞｳ","cityKana":"ﾌﾗﾉｼ","streetKana":"ﾔﾏﾍﾞﾆｼ15ｾﾝ","prefecture":"北海道","city":"富良野市","street":"山部西１５線"},{"zipCode":"0791571","prefectureKana":"ﾎｯｶｲﾄﾞｳ","cityKana":"ﾌﾗﾉｼ","streetKana":"ﾔﾏﾍﾞﾆｼ16ｾﾝ","prefecture":"北海道","city":"富良野市","street":"山部西１６線"},{"zipCode":"0791571","prefectureKana":"ﾎｯｶｲﾄﾞｳ","cityKana":"ﾌﾗﾉｼ","streetKana":"ﾔﾏﾍﾞﾆｼ17ｾﾝ","prefecture":"北海道","city":"富良野市","street":"山部西１７線"},{"zipCode":"0791571","prefectureKana":"ﾎｯｶｲﾄﾞｳ","cityKana":"ﾌﾗﾉｼ","streetKana":"ﾔﾏﾍﾞﾆｼ18ｾﾝ","prefecture":"北海道","city":"富良野市","street":"山部西１８線"},{"zipCode":"0791571","prefectureKana":"ﾎｯｶｲﾄﾞｳ","cityKana":"ﾌﾗﾉｼ","streetKana":"ﾔﾏﾍﾞﾆｼ19ｾﾝ","prefecture":"北海道","city":"富良野市","street":"山部西１９線"},{"zipCode":"0791572","prefectureKana":"ﾎｯｶｲﾄﾞｳ","cityKana":"ﾌﾗﾉｼ","streetKana":"ﾔﾏﾍﾞﾆｼ20ｾﾝ","prefecture":"北海道","city":"富良野市","street":"山部西２０線"},{"zipCode":"0791572","prefectureKana":"ﾎｯｶｲﾄﾞｳ","cityKana":"ﾌﾗﾉｼ","streetKana":"ﾔﾏﾍﾞﾆｼ21ｾﾝ","prefecture":"北海道","city":"富良野市","street":"山部西２１線"},{"zipCode":"0791572","prefectureKana":"ﾎｯｶｲﾄﾞｳ","cityKana":"ﾌﾗﾉｼ","streetKana":"ﾔﾏﾍﾞﾆｼ22ｾﾝ","prefecture":"北海道","city":"富良野市","street":"山部西２２線"},{"zipCode":"0791572","prefectureKana":"ﾎｯｶｲﾄﾞｳ","cityKana":"ﾌﾗﾉｼ","streetKana":"ﾔﾏﾍﾞﾆｼ23ｾﾝ","prefecture":"北海道","city":"富良野市","street":"山部西２３線"},{"zipCode":"0791572","prefectureKana":"ﾎｯｶｲﾄﾞｳ","cityKana":"ﾌﾗﾉｼ","streetKana":"ﾔﾏﾍﾞﾆｼ24ｾﾝ","prefecture":"北海道","city":"富良野市","street":"山部西２４線"},{"zipCode":"0791573","prefectureKana":"ﾎｯｶｲﾄﾞｳ","cityKana":"ﾌﾗﾉｼ","streetKana":"ﾔﾏﾍﾞﾆｼ25ｾﾝ","prefecture":"北海道","city":"富良野市","street":"山部西２５線"},{"zipCode":"0791573","prefectureKana":"ﾎｯｶｲﾄﾞｳ","cityKana":"ﾌﾗﾉｼ","streetKana":"ﾔﾏﾍﾞﾆｼ26ｾﾝ","prefecture":"北海道","city":"富良野市","street":"山部西２６線"},{"zipCode":"0791573","prefectureKana":"ﾎｯｶｲﾄﾞｳ","cityKana":"ﾌﾗﾉｼ","streetKana":"ﾔﾏﾍﾞﾆｼ27ｾﾝ","prefecture":"北海道","city":"富良野市","street":"山部西２７線"},{"zipCode":"0791573","prefectureKana":"ﾎｯｶｲﾄﾞｳ","cityKana":"ﾌﾗﾉｼ","streetKana":"ﾔﾏﾍﾞﾆｼ28ｾﾝ","prefecture":"北海道","city":"富良野市","street":"山部西２８線"},{"zipCode":"0791566","prefectureKana":"ﾎｯｶｲﾄﾞｳ","cityKana":"ﾌﾗﾉｼ","streetKana":"ﾔﾏﾍﾞﾆｼﾏﾁ","prefecture":"北海道","city":"富良野市","street":"山部西町"},{"zipCode":"0791581","prefectureKana":"ﾎｯｶｲﾄﾞｳ","cityKana":"ﾌﾗﾉｼ","streetKana":"ﾔﾏﾍﾞﾋｶﾞｼ12ｾﾝ","prefecture":"北海道","city":"富良野市","street":"山部東１２線"},{"zipCode":"0791581","prefectureKana":"ﾎｯｶｲﾄﾞｳ","cityKana":"ﾌﾗﾉｼ","streetKana":"ﾔﾏﾍﾞﾋｶﾞｼ13ｾﾝ","prefecture":"北海道","city":"富良野市","street":"山部東１３線"},{"zipCode":"0791581","prefectureKana":"ﾎｯｶｲﾄﾞｳ","cityKana":"ﾌﾗﾉｼ","streetKana":"ﾔﾏﾍﾞﾋｶﾞｼ14ｾﾝ","prefecture":"北海道","city":"富良野市","street":"山部東１４線"},{"zipCode":"0791581","prefectureKana":"ﾎｯｶｲﾄﾞｳ","cityKana":"ﾌﾗﾉｼ","streetKana":"ﾔﾏﾍﾞﾋｶﾞｼ15ｾﾝ","prefecture":"北海道","city":"富良野市","street":"山部東１５線"},{"zipCode":"0791581","prefectureKana":"ﾎｯｶｲﾄﾞｳ","cityKana":"ﾌﾗﾉｼ","streetKana":"ﾔﾏﾍﾞﾋｶﾞｼ16ｾﾝ","prefecture":"北海道","city":"富良野市","street":"山部東１６線"},{"zipCode":"0791581","prefectureKana":"ﾎｯｶｲﾄﾞｳ","cityKana":"ﾌﾗﾉｼ","streetKana":"ﾔﾏﾍﾞﾋｶﾞｼ17ｾﾝ","prefecture":"北海道","city":"富良野市","street":"山部東１７線"},{"zipCode":"0791581","prefectureKana":"ﾎｯｶｲﾄﾞｳ","cityKana":"ﾌﾗﾉｼ","streetKana":"ﾔﾏﾍﾞﾋｶﾞｼ18ｾﾝ","prefecture":"北海道","city":"富良野市","street":"山部東１８線"},{"zipCode":"0791581","prefectureKana":"ﾎｯｶｲﾄﾞｳ","cityKana":"ﾌﾗﾉｼ","streetKana":"ﾔﾏﾍﾞﾋｶﾞｼ19ｾﾝ","prefecture":"北海道","city":"富良野市","street":"山部東１９線"},{"zipCode":"0791582","prefectureKana":"ﾎｯｶｲﾄﾞｳ","cityKana":"ﾌﾗﾉｼ","streetKana":"ﾔﾏﾍﾞﾋｶﾞｼ20ｾﾝ","prefecture":"北海道","city":"富良野市","street":"山部東２０線"},{"zipCode":"0791582","prefectureKana":"ﾎｯｶｲﾄﾞｳ","cityKana":"ﾌﾗﾉｼ","streetKana":"ﾔﾏﾍﾞﾋｶﾞｼ21ｾﾝ","prefecture":"北海道","city":"富良野市","street":"山部東２１線"},{"zipCode":"0791582","prefectureKana":"ﾎｯｶｲﾄﾞｳ","cityKana":"ﾌﾗﾉｼ","streetKana":"ﾔﾏﾍﾞﾋｶﾞｼ22ｾﾝ","prefecture":"北海道","city":"富良野市","street":"山部東２２線"},{"zipCode":"0791582","prefectureKana":"ﾎｯｶｲﾄﾞｳ","cityKana":"ﾌﾗﾉｼ","streetKana":"ﾔﾏﾍﾞﾋｶﾞｼ23ｾﾝ","prefecture":"北海道","city":"富良野市","street":"山部東２３線"},{"zipCode":"0791582","prefectureKana":"ﾎｯｶｲﾄﾞｳ","cityKana":"ﾌﾗﾉｼ","streetKana":"ﾔﾏﾍﾞﾋｶﾞｼ24ｾﾝ","prefecture":"北海道","city":"富良野市","street":"山部東２４線"},{"zipCode":"0791582","prefectureKana":"ﾎｯｶｲﾄﾞｳ","cityKana":"ﾌﾗﾉｼ","streetKana":"ﾔﾏﾍﾞﾋｶﾞｼ25ｾﾝ","prefecture":"北海道","city":"富良野市","street":"山部東２５線"},{"zipCode":"0791582","prefectureKana":"ﾎｯｶｲﾄﾞｳ","cityKana":"ﾌﾗﾉｼ","streetKana":"ﾔﾏﾍﾞﾋｶﾞｼ26ｾﾝ","prefecture":"北海道","city":"富良野市","street":"山部東２６線"},{"zipCode":"0791582","prefectureKana":"ﾎｯｶｲﾄﾞｳ","cityKana":"ﾌﾗﾉｼ","streetKana":"ﾔﾏﾍﾞﾋｶﾞｼ27ｾﾝ","prefecture":"北海道","city":"富良野市","street":"山部東２７線"},{"zipCode":"0791563","prefectureKana":"ﾎｯｶｲﾄﾞｳ","cityKana":"ﾌﾗﾉｼ","streetKana":"ﾔﾏﾍﾞﾋｶﾞｼﾏﾁ","prefecture":"北海道","city":"富良野市","street":"山部東町"},{"zipCode":"0791565","prefectureKana":"ﾎｯｶｲﾄﾞｳ","cityKana":"ﾌﾗﾉｼ","streetKana":"ﾔﾏﾍﾞﾐﾅﾐﾏﾁ","prefecture":"北海道","city":"富良野市","street":"山部南町"},{"zipCode":"0790300","prefectureKana":"ﾎｯｶｲﾄﾞｳ","cityKana":"ｿﾗﾁｸﾞﾝﾅｲｴﾁｮｳ","streetKana":"ｲｶﾆｹｲｻｲｶﾞﾅｲﾊﾞｱｲ","prefecture":"北海道","city":"空知郡奈井江町","street":"以下に掲載がない場合"},{"zipCode":"0790301","prefectureKana":"ﾎｯｶｲﾄﾞｳ","cityKana":"ｿﾗﾁｸﾞﾝﾅｲｴﾁｮｳ","streetKana":"ｲﾂｸｼﾏ","prefecture":"北海道","city":"空知郡奈井江町","street":"厳島"},{"zipCode":"0790312","prefectureKana":"ﾎｯｶｲﾄﾞｳ","cityKana":"ｿﾗﾁｸﾞﾝﾅｲｴﾁｮｳ","streetKana":"ｷﾀﾏﾁ","prefecture":"北海道","city":"空知郡奈井江町","street":"北町"},{"zipCode":"0790316","prefectureKana":"ﾎｯｶｲﾄﾞｳ","cityKana":"ｿﾗﾁｸﾞﾝﾅｲｴﾁｮｳ","streetKana":"ｷﾅｳｽﾅｲ","prefecture":"北海道","city":"空知郡奈井江町","street":"キナウスナイ"},{"zipCode":"0790315","prefectureKana":"ﾎｯｶｲﾄﾞｳ","cityKana":"ｿﾗﾁｸﾞﾝﾅｲｴﾁｮｳ","streetKana":"ﾀｶｼﾏ","prefecture":"北海道","city":"空知郡奈井江町","street":"高島"},{"zipCode":"0790305","prefectureKana":"ﾎｯｶｲﾄﾞｳ","cityKana":"ｿﾗﾁｸﾞﾝﾅｲｴﾁｮｳ","streetKana":"ﾁｬｼﾅｲ","prefecture":"北海道","city":"空知郡奈井江町","street":"茶志内"},{"zipCode":"0790302","prefectureKana":"ﾎｯｶｲﾄﾞｳ","cityKana":"ｿﾗﾁｸﾞﾝﾅｲｴﾁｮｳ","streetKana":"ﾊｸｻﾝ","prefecture":"北海道","city":"空知郡奈井江町","street":"白山"},{"zipCode":"0790306","prefectureKana":"ﾎｯｶｲﾄﾞｳ","cityKana":"ｿﾗﾁｸﾞﾝﾅｲｴﾁｮｳ","streetKana":"ﾋｶﾞｼﾏﾁ","prefecture":"北海道","city":"空知郡奈井江町","street":"東町"},{"zipCode":"0790313","prefectureKana":"ﾎｯｶｲﾄﾞｳ","cityKana":"ｿﾗﾁｸﾞﾝﾅｲｴﾁｮｳ","streetKana":"ﾎﾝﾏﾁ","prefecture":"北海道","city":"空知郡奈井江町","street":"本町"},{"zipCode":"0790317","prefectureKana":"ﾎｯｶｲﾄﾞｳ","cityKana":"ｿﾗﾁｸﾞﾝﾅｲｴﾁｮｳ","streetKana":"ﾐｽﾞﾎ","prefecture":"北海道","city":"空知郡奈井江町","street":"瑞穂"},{"zipCode":"0790314","prefectureKana":"ﾎｯｶｲﾄﾞｳ","cityKana":"ｿﾗﾁｸﾞﾝﾅｲｴﾁｮｳ","streetKana":"ﾐﾅﾐﾏﾁ","prefecture":"北海道","city":"空知郡奈井江町","street":"南町"},{"zipCode":"0790304","prefectureKana":"ﾎｯｶｲﾄﾞｳ","cityKana":"ｿﾗﾁｸﾞﾝﾅｲｴﾁｮｳ","streetKana":"ﾐﾔﾑﾗ","prefecture":"北海道","city":"空知郡奈井江町","street":"宮村"},{"zipCode":"0790303","prefectureKana":"ﾎｯｶｲﾄﾞｳ","cityKana":"ｿﾗﾁｸﾞﾝﾅｲｴﾁｮｳ","streetKana":"ﾑｺｳｶﾞｵｶ","prefecture":"北海道","city":"空知郡奈井江町","street":"向ケ丘"},{"zipCode":"0790311","prefectureKana":"ﾎｯｶｲﾄﾞｳ","cityKana":"ｿﾗﾁｸﾞﾝﾅｲｴﾁｮｳ","streetKana":"ﾔﾏﾄ","prefecture":"北海道","city":"空知郡奈井江町","street":"大和"},{"zipCode":"0790500","prefectureKana":"ﾎｯｶｲﾄﾞｳ","cityKana":"ｳﾘｭｳｸﾞﾝﾓｾｳｼﾁｮｳ","streetKana":"ｲｶﾆｹｲｻｲｶﾞﾅｲﾊﾞｱｲ","prefecture":"北海道","city":"雨竜郡妹背牛町","street":"以下に掲載がない場合"},{"zipCode":"0790501","prefectureKana":"ﾎｯｶｲﾄﾞｳ","cityKana":"ｳﾘｭｳｸﾞﾝﾓｾｳｼﾁｮｳ","streetKana":"1ｸ","prefecture":"北海道","city":"雨竜郡妹背牛町","street":"１区"},{"zipCode":"0790502","prefectureKana":"ﾎｯｶｲﾄﾞｳ","cityKana":"ｳﾘｭｳｸﾞﾝﾓｾｳｼﾁｮｳ","streetKana":"2ｸ","prefecture":"北海道","city":"雨竜郡妹背牛町","street":"２区"},{"zipCode":"0790503","prefectureKana":"ﾎｯｶｲﾄﾞｳ","cityKana":"ｳﾘｭｳｸﾞﾝﾓｾｳｼﾁｮｳ","streetKana":"3ｸ","prefecture":"北海道","city":"雨竜郡妹背牛町","street":"３区"},{"zipCode":"0790504","prefectureKana":"ﾎｯｶｲﾄﾞｳ","cityKana":"ｳﾘｭｳｸﾞﾝﾓｾｳｼﾁｮｳ","streetKana":"4ｸ","prefecture":"北海道","city":"雨竜郡妹背牛町","street":"４区"},{"zipCode":"0790505","prefectureKana":"ﾎｯｶｲﾄﾞｳ","cityKana":"ｳﾘｭｳｸﾞﾝﾓｾｳｼﾁｮｳ","streetKana":"5ｸ","prefecture":"北海道","city":"雨竜郡妹背牛町","street":"５区"},{"zipCode":"0790506","prefectureKana":"ﾎｯｶｲﾄﾞｳ","cityKana":"ｳﾘｭｳｸﾞﾝﾓｾｳｼﾁｮｳ","streetKana":"6ｸ","prefecture":"北海道","city":"雨竜郡妹背牛町","street":"６区"},{"zipCode":"0790507","prefectureKana":"ﾎｯｶｲﾄﾞｳ","cityKana":"ｳﾘｭｳｸﾞﾝﾓｾｳｼﾁｮｳ","streetKana":"7ｸ","prefecture":"北海道","city":"雨竜郡妹背牛町","street":"７区"},{"zipCode":"0790508","prefectureKana":"ﾎｯｶｲﾄﾞｳ","cityKana":"ｳﾘｭｳｸﾞﾝﾓｾｳｼﾁｮｳ","streetKana":"8ｸ","prefecture":"北海道","city":"雨竜郡妹背牛町","street":"８区"},{"zipCode":"0790509","prefectureKana":"ﾎｯｶｲﾄﾞｳ","cityKana":"ｳﾘｭｳｸﾞﾝﾓｾｳｼﾁｮｳ","streetKana":"9ｸ","prefecture":"北海道","city":"雨竜郡妹背牛町","street":"９区"},{"zipCode":"0790510","prefectureKana":"ﾎｯｶｲﾄﾞｳ","cityKana":"ｳﾘｭｳｸﾞﾝﾓｾｳｼﾁｮｳ","streetKana":"10ｸ","prefecture":"北海道","city":"雨竜郡妹背牛町","street":"１０区"},{"zipCode":"0790511","prefectureKana":"ﾎｯｶｲﾄﾞｳ","cityKana":"ｳﾘｭｳｸﾞﾝﾓｾｳｼﾁｮｳ","streetKana":"11ｸ","prefecture":"北海道","city":"雨竜郡妹背牛町","street":"１１区"},{"zipCode":"0792400","prefectureKana":"ﾎｯｶｲﾄﾞｳ","cityKana":"ｿﾗﾁｸﾞﾝﾐﾅﾐﾌﾗﾉﾁｮｳ","streetKana":"ｲｶﾆｹｲｻｲｶﾞﾅｲﾊﾞｱｲ","prefecture":"北海道","city":"空知郡南富良野町","street":"以下に掲載がない場合"},{"zipCode":"0792403","prefectureKana":"ﾎｯｶｲﾄﾞｳ","cityKana":"ｿﾗﾁｸﾞﾝﾐﾅﾐﾌﾗﾉﾁｮｳ","streetKana":"ｲｸﾄﾗ(ｱｻﾉ)","prefecture":"北海道","city":"空知郡南富良野町","street":"幾寅（浅野）"},{"zipCode":"0792404","prefectureKana":"ﾎｯｶｲﾄﾞｳ","cityKana":"ｿﾗﾁｸﾞﾝﾐﾅﾐﾌﾗﾉﾁｮｳ","streetKana":"ｲｸﾄﾗ(ｱｻﾋﾏﾁ)","prefecture":"北海道","city":"空知郡南富良野町","street":"幾寅（朝日町）"},{"zipCode":"0792403","prefectureKana":"ﾎｯｶｲﾄﾞｳ","cityKana":"ｿﾗﾁｸﾞﾝﾐﾅﾐﾌﾗﾉﾁｮｳ","streetKana":"ｲｸﾄﾗ(ｷﾞﾌ)","prefecture":"北海道","city":"空知郡南富良野町","street":"幾寅（岐阜）"},{"zipCode":"0792403","prefectureKana":"ﾎｯｶｲﾄﾞｳ","cityKana":"ｿﾗﾁｸﾞﾝﾐﾅﾐﾌﾗﾉﾁｮｳ","streetKana":"ｲｸﾄﾗ(ｸｽﾐ)","prefecture":"北海道","city":"空知郡南富良野町","street":"幾寅（久住）"},{"zipCode":"0792401","prefectureKana":"ﾎｯｶｲﾄﾞｳ","cityKana":"ｿﾗﾁｸﾞﾝﾐﾅﾐﾌﾗﾉﾁｮｳ","streetKana":"ｲｸﾄﾗ(ｻｶｴﾏﾁ)","prefecture":"北海道","city":"空知郡南富良野町","street":"幾寅（栄町）"},{"zipCode":"0792401","prefectureKana":"ﾎｯｶｲﾄﾞｳ","cityKana":"ｿﾗﾁｸﾞﾝﾐﾅﾐﾌﾗﾉﾁｮｳ","streetKana":"ｲｸﾄﾗ(ｽﾐﾖｼﾁｮｳ)","prefecture":"北海道","city":"空知郡南富良野町","street":"幾寅（住吉町）"},{"zipCode":"0792404","prefectureKana":"ﾎｯｶｲﾄﾞｳ","cityKana":"ｿﾗﾁｸﾞﾝﾐﾅﾐﾌﾗﾉﾁｮｳ","streetKana":"ｲｸﾄﾗ(ｾﾝﾎﾞｸﾁｮｳ)","prefecture":"北海道","city":"空知郡南富良野町","street":"幾寅（千木町）"},{"zipCode":"0792401","prefectureKana":"ﾎｯｶｲﾄﾞｳ","cityKana":"ｿﾗﾁｸﾞﾝﾐﾅﾐﾌﾗﾉﾁｮｳ","streetKana":"ｲｸﾄﾗ(ﾅｲﾄｳ)","prefecture":"北海道","city":"空知郡南富良野町","street":"幾寅（内藤）"},{"zipCode":"0792401","prefectureKana":"ﾎｯｶｲﾄﾞｳ","cityKana":"ｿﾗﾁｸﾞﾝﾐﾅﾐﾌﾗﾉﾁｮｳ","streetKana":"ｲｸﾄﾗ(ﾅｶﾏﾁ)","prefecture":"北海道","city":"空知郡南富良野町","street":"幾寅（仲町）"},{"zipCode":"0792404","prefectureKana":"ﾎｯｶｲﾄﾞｳ","cityKana":"ｿﾗﾁｸﾞﾝﾐﾅﾐﾌﾗﾉﾁｮｳ","streetKana":"ｲｸﾄﾗ(ﾋｶﾞｼﾏﾁ)","prefecture":"北海道","city":"空知郡南富良野町","street":"幾寅（東町）"},{"zipCode":"0792402","prefectureKana":"ﾎｯｶｲﾄﾞｳ","cityKana":"ｿﾗﾁｸﾞﾝﾐﾅﾐﾌﾗﾉﾁｮｳ","streetKana":"ｲｸﾄﾗ(ﾆｼﾏﾁ)","prefecture":"北海道","city":"空知郡南富良野町","street":"幾寅（西町）"},{"zipCode":"0792403","prefectureKana":"ﾎｯｶｲﾄﾞｳ","cityKana":"ｿﾗﾁｸﾞﾝﾐﾅﾐﾌﾗﾉﾁｮｳ","streetKana":"ｲｸﾄﾗ(ﾏﾂｲ)","prefecture":"北海道","city":"空知郡南富良野町","street":"幾寅（松井）"},{"zipCode":"0792403","prefectureKana":"ﾎｯｶｲﾄﾞｳ","cityKana":"ｿﾗﾁｸﾞﾝﾐﾅﾐﾌﾗﾉﾁｮｳ","streetKana":"ｲｸﾄﾗ(ﾔﾏｸﾛ)","prefecture":"北海道","city":"空知郡南富良野町","street":"幾寅（山畔）"},{"zipCode":"0792551","prefectureKana":"ﾎｯｶｲﾄﾞｳ","cityKana":"ｿﾗﾁｸﾞﾝﾐﾅﾐﾌﾗﾉﾁｮｳ","streetKana":"ｵﾁｱｲ","prefecture":"北海道","city":"空知郡南富良野町","street":"落合"},{"zipCode":"0792131","prefectureKana":"ﾎｯｶｲﾄﾞｳ","cityKana":"ｿﾗﾁｸﾞﾝﾐﾅﾐﾌﾗﾉﾁｮｳ","streetKana":"ｶﾅﾔﾏ","prefecture":"北海道","city":"空知郡南富良野町","street":"金山"},{"zipCode":"0792552","prefectureKana":"ﾎｯｶｲﾄﾞｳ","cityKana":"ｿﾗﾁｸﾞﾝﾐﾅﾐﾌﾗﾉﾁｮｳ","streetKana":"ｷﾀｵﾁｱｲ","prefecture":"北海道","city":"空知郡南富良野町","street":"北落合"},{"zipCode":"0792132","prefectureKana":"ﾎｯｶｲﾄﾞｳ","cityKana":"ｿﾗﾁｸﾞﾝﾐﾅﾐﾌﾗﾉﾁｮｳ","streetKana":"ｼﾓｶﾅﾔﾏ","prefecture":"北海道","city":"空知郡南富良野町","street":"下金山"},{"zipCode":"0792412","prefectureKana":"ﾎｯｶｲﾄﾞｳ","cityKana":"ｿﾗﾁｸﾞﾝﾐﾅﾐﾌﾗﾉﾁｮｳ","streetKana":"ﾋｶﾞｼｲｸﾄﾗ","prefecture":"北海道","city":"空知郡南富良野町","street":"東幾寅"},{"zipCode":"0792411","prefectureKana":"ﾎｯｶｲﾄﾞｳ","cityKana":"ｿﾗﾁｸﾞﾝﾐﾅﾐﾌﾗﾉﾁｮｳ","streetKana":"ﾋｶﾞｼｼｶｺﾞｴ","prefecture":"北海道","city":"空知郡南富良野町","street":"東鹿越"},{"zipCode":"0792200","prefectureKana":"ﾎｯｶｲﾄﾞｳ","cityKana":"ﾕｳﾌﾂｸﾞﾝｼﾑｶｯﾌﾟﾑﾗ","streetKana":"ｲｶﾆｹｲｻｲｶﾞﾅｲﾊﾞｱｲ","prefecture":"北海道","city":"勇払郡占冠村","street":"以下に掲載がない場合"},{"zipCode":"0792205","prefectureKana":"ﾎｯｶｲﾄﾞｳ","cityKana":"ﾕｳﾌﾂｸﾞﾝｼﾑｶｯﾌﾟﾑﾗ","streetKana":"ｶﾐﾄﾏﾑ","prefecture":"北海道","city":"勇払郡占冠村","street":"上トマム"},{"zipCode":"0792202","prefectureKana":"ﾎｯｶｲﾄﾞｳ","cityKana":"ﾕｳﾌﾂｸﾞﾝｼﾑｶｯﾌﾟﾑﾗ","streetKana":"ｼﾑｶｯﾌﾟ","prefecture":"北海道","city":"勇払郡占冠村","street":"占冠"},{"zipCode":"0792203","prefectureKana":"ﾎｯｶｲﾄﾞｳ","cityKana":"ﾕｳﾌﾂｸﾞﾝｼﾑｶｯﾌﾟﾑﾗ","streetKana":"ｼﾓﾄﾏﾑ","prefecture":"北海道","city":"勇払郡占冠村","street":"下トマム"},{"zipCode":"0792206","prefectureKana":"ﾎｯｶｲﾄﾞｳ","cityKana":"ﾕｳﾌﾂｸﾞﾝｼﾑｶｯﾌﾟﾑﾗ","streetKana":"ｿｳｼｭﾍﾞﾂ","prefecture":"北海道","city":"勇払郡占冠村","street":"双珠別"},{"zipCode":"0792201","prefectureKana":"ﾎｯｶｲﾄﾞｳ","cityKana":"ﾕｳﾌﾂｸﾞﾝｼﾑｶｯﾌﾟﾑﾗ","streetKana":"ﾁｭｳｵｳ","prefecture":"北海道","city":"勇払郡占冠村","street":"中央"},{"zipCode":"0792204","prefectureKana":"ﾎｯｶｲﾄﾞｳ","cityKana":"ﾕｳﾌﾂｸﾞﾝｼﾑｶｯﾌﾟﾑﾗ","streetKana":"ﾅｶﾄﾏﾑ","prefecture":"北海道","city":"勇払郡占冠村","street":"中トマム"},{"zipCode":"0792207","prefectureKana":"ﾎｯｶｲﾄﾞｳ","cityKana":"ﾕｳﾌﾂｸﾞﾝｼﾑｶｯﾌﾟﾑﾗ","streetKana":"ﾆﾆｳ","prefecture":"北海道","city":"勇払郡占冠村","street":"ニニウ"}]