[{"zipCode":"0850000","prefectureKana":"ﾎｯｶｲﾄﾞｳ","cityKana":"ｸｼﾛｼ","streetKana":"ｲｶﾆｹｲｻｲｶﾞﾅｲﾊﾞｱｲ","prefecture":"北海道","city":"釧路市","street":"以下に掲載がない場合"},{"zipCode":"0850062","prefectureKana":"ﾎｯｶｲﾄﾞｳ","cityKana":"ｸｼﾛｼ","streetKana":"ｱｲｺｸ","prefecture":"北海道","city":"釧路市","street":"愛国"},{"zipCode":"0850058","prefectureKana":"ﾎｯｶｲﾄﾞｳ","cityKana":"ｸｼﾛｼ","streetKana":"ｱｲｺｸﾋｶﾞｼ","prefecture":"北海道","city":"釧路市","street":"愛国東"},{"zipCode":"0850057","prefectureKana":"ﾎｯｶｲﾄﾞｳ","cityKana":"ｸｼﾛｼ","streetKana":"ｱｲｺｸﾆｼ","prefecture":"北海道","city":"釧路市","street":"愛国西"},{"zipCode":"0850252","prefectureKana":"ﾎｯｶｲﾄﾞｳ","cityKana":"ｸｼﾛｼ","streetKana":"ｱｵﾔﾏ","prefecture":"北海道","city":"釧路市","street":"青山"},{"zipCode":"0850054","prefectureKana":"ﾎｯｶｲﾄﾞｳ","cityKana":"ｸｼﾛｼ","streetKana":"ｱｶﾂｷﾁｮｳ","prefecture":"北海道","city":"釧路市","street":"暁町"},{"zipCode":"0850467","prefectureKana":"ﾎｯｶｲﾄﾞｳ","cityKana":"ｸｼﾛｼ","streetKana":"ｱｶﾝﾁｮｳｱｶﾝｺｵﾝｾﾝ(1-6ﾁｮｳﾒ)","prefecture":"北海道","city":"釧路市","street":"阿寒町阿寒湖温泉（１～６丁目）"},{"zipCode":"0850238","prefectureKana":"ﾎｯｶｲﾄﾞｳ","cityKana":"ｸｼﾛｼ","streetKana":"ｱｶﾝﾁｮｳｱｸﾍﾞﾂ","prefecture":"北海道","city":"釧路市","street":"阿寒町飽別"},{"zipCode":"0850212","prefectureKana":"ﾎｯｶｲﾄﾞｳ","cityKana":"ｸｼﾛｼ","streetKana":"ｱｶﾝﾁｮｳｱｻﾋﾏﾁ","prefecture":"北海道","city":"釧路市","street":"阿寒町旭町"},{"zipCode":"0850468","prefectureKana":"ﾎｯｶｲﾄﾞｳ","cityKana":"ｸｼﾛｼ","streetKana":"ｱｶﾝﾁｮｳｵｸﾙｼｭﾍﾞ","prefecture":"北海道","city":"釧路市","street":"阿寒町オクルシュベ"},{"zipCode":"0850245","prefectureKana":"ﾎｯｶｲﾄﾞｳ","cityKana":"ｸｼﾛｼ","streetKana":"ｱｶﾝﾁｮｳｶﾐｱｶﾝ","prefecture":"北海道","city":"釧路市","street":"阿寒町上阿寒"},{"zipCode":"0850221","prefectureKana":"ﾎｯｶｲﾄﾞｳ","cityKana":"ｸｼﾛｼ","streetKana":"ｱｶﾝﾁｮｳｶﾐｼﾀｶﾗ","prefecture":"北海道","city":"釧路市","street":"阿寒町上舌辛"},{"zipCode":"0850235","prefectureKana":"ﾎｯｶｲﾄﾞｳ","cityKana":"ｸｼﾛｼ","streetKana":"ｱｶﾝﾁｮｳｶﾐﾃｼﾍﾞﾂ","prefecture":"北海道","city":"釧路市","street":"阿寒町上徹別"},{"zipCode":"0850202","prefectureKana":"ﾎｯｶｲﾄﾞｳ","cityKana":"ｸｼﾛｼ","streetKana":"ｱｶﾝﾁｮｳｶﾐﾆﾆｼﾍﾞﾂ","prefecture":"北海道","city":"釧路市","street":"阿寒町上仁々志別"},{"zipCode":"0850216","prefectureKana":"ﾎｯｶｲﾄﾞｳ","cityKana":"ｸｼﾛｼ","streetKana":"ｱｶﾝﾁｮｳｷﾀｼﾝﾏﾁ","prefecture":"北海道","city":"釧路市","street":"阿寒町北新町"},{"zipCode":"0850217","prefectureKana":"ﾎｯｶｲﾄﾞｳ","cityKana":"ｸｼﾛｼ","streetKana":"ｱｶﾝﾁｮｳｷﾀﾏﾁ","prefecture":"北海道","city":"釧路市","street":"阿寒町北町"},{"zipCode":"0850244","prefectureKana":"ﾎｯｶｲﾄﾞｳ","cityKana":"ｸｼﾛｼ","streetKana":"ｱｶﾝﾁｮｳｷﾉｵｶ","prefecture":"北海道","city":"釧路市","street":"阿寒町紀ノ丘"},{"zipCode":"0850206","prefectureKana":"ﾎｯｶｲﾄﾞｳ","cityKana":"ｸｼﾛｼ","streetKana":"ｱｶﾝﾁｮｳｷｮｳﾜ","prefecture":"北海道","city":"釧路市","street":"阿寒町共和"},{"zipCode":"0850220","prefectureKana":"ﾎｯｶｲﾄﾞｳ","cityKana":"ｸｼﾛｼ","streetKana":"ｱｶﾝﾁｮｳｼﾀｶﾗ","prefecture":"北海道","city":"釧路市","street":"阿寒町舌辛"},{"zipCode":"0850211","prefectureKana":"ﾎｯｶｲﾄﾞｳ","cityKana":"ｸｼﾛｼ","streetKana":"ｱｶﾝﾁｮｳｼﾓｼﾀｶﾗ","prefecture":"北海道","city":"釧路市","street":"阿寒町下舌辛"},{"zipCode":"0850231","prefectureKana":"ﾎｯｶｲﾄﾞｳ","cityKana":"ｸｼﾛｼ","streetKana":"ｱｶﾝﾁｮｳｼﾓﾃｼﾍﾞﾂ","prefecture":"北海道","city":"釧路市","street":"阿寒町下徹別"},{"zipCode":"0850204","prefectureKana":"ﾎｯｶｲﾄﾞｳ","cityKana":"ｸｼﾛｼ","streetKana":"ｱｶﾝﾁｮｳｼﾓﾆﾆｼﾍﾞﾂ","prefecture":"北海道","city":"釧路市","street":"阿寒町下仁々志別"},{"zipCode":"0850223","prefectureKana":"ﾎｯｶｲﾄﾞｳ","cityKana":"ｸｼﾛｼ","streetKana":"ｱｶﾝﾁｮｳｼﾓﾌﾌﾞｼﾅｲ","prefecture":"北海道","city":"釧路市","street":"阿寒町下布伏内"},{"zipCode":"0850218","prefectureKana":"ﾎｯｶｲﾄﾞｳ","cityKana":"ｸｼﾛｼ","streetKana":"ｱｶﾝﾁｮｳｼﾝﾏﾁ","prefecture":"北海道","city":"釧路市","street":"阿寒町新町"},{"zipCode":"0850234","prefectureKana":"ﾎｯｶｲﾄﾞｳ","cityKana":"ｸｼﾛｼ","streetKana":"ｱｶﾝﾁｮｳｿｳｼ","prefecture":"北海道","city":"釧路市","street":"阿寒町蘇牛"},{"zipCode":"0850232","prefectureKana":"ﾎｯｶｲﾄﾞｳ","cityKana":"ｸｼﾛｼ","streetKana":"ｱｶﾝﾁｮｳﾀｲｼｮｳ","prefecture":"北海道","city":"釧路市","street":"阿寒町大正"},{"zipCode":"0850225","prefectureKana":"ﾎｯｶｲﾄﾞｳ","cityKana":"ｸｼﾛｼ","streetKana":"ｱｶﾝﾁｮｳﾁﾁｬｯﾌﾟ","prefecture":"北海道","city":"釧路市","street":"阿寒町知茶布"},{"zipCode":"0850215","prefectureKana":"ﾎｯｶｲﾄﾞｳ","cityKana":"ｸｼﾛｼ","streetKana":"ｱｶﾝﾁｮｳﾁｭｳｵｳ","prefecture":"北海道","city":"釧路市","street":"阿寒町中央"},{"zipCode":"0850237","prefectureKana":"ﾎｯｶｲﾄﾞｳ","cityKana":"ｸｼﾛｼ","streetKana":"ｱｶﾝﾁｮｳﾃｼﾍﾞﾂﾁｭｳｵｳ","prefecture":"北海道","city":"釧路市","street":"阿寒町徹別中央"},{"zipCode":"0850205","prefectureKana":"ﾎｯｶｲﾄﾞｳ","cityKana":"ｸｼﾛｼ","streetKana":"ｱｶﾝﾁｮｳﾄｳｴｲ","prefecture":"北海道","city":"釧路市","street":"阿寒町東栄"},{"zipCode":"0850241","prefectureKana":"ﾎｯｶｲﾄﾞｳ","cityKana":"ｸｼﾛｼ","streetKana":"ｱｶﾝﾁｮｳﾅｶｱｶﾝ","prefecture":"北海道","city":"釧路市","street":"阿寒町中阿寒"},{"zipCode":"0850236","prefectureKana":"ﾎｯｶｲﾄﾞｳ","cityKana":"ｸｼﾛｼ","streetKana":"ｱｶﾝﾁｮｳﾅｶﾃｼﾍﾞﾂ","prefecture":"北海道","city":"釧路市","street":"阿寒町中徹別"},{"zipCode":"0850203","prefectureKana":"ﾎｯｶｲﾄﾞｳ","cityKana":"ｸｼﾛｼ","streetKana":"ｱｶﾝﾁｮｳﾅｶﾆﾆｼﾍﾞﾂ","prefecture":"北海道","city":"釧路市","street":"阿寒町中仁々志別"},{"zipCode":"0850213","prefectureKana":"ﾎｯｶｲﾄﾞｳ","cityKana":"ｸｼﾛｼ","streetKana":"ｱｶﾝﾁｮｳﾅｶﾏﾁ","prefecture":"北海道","city":"釧路市","street":"阿寒町仲町"},{"zipCode":"0850243","prefectureKana":"ﾎｯｶｲﾄﾞｳ","cityKana":"ｸｼﾛｼ","streetKana":"ｱｶﾝﾁｮｳﾆｼｱｶﾝ","prefecture":"北海道","city":"釧路市","street":"阿寒町西阿寒"},{"zipCode":"0850233","prefectureKana":"ﾎｯｶｲﾄﾞｳ","cityKana":"ｸｼﾛｼ","streetKana":"ｱｶﾝﾁｮｳﾆｼﾃｼﾍﾞﾂ","prefecture":"北海道","city":"釧路市","street":"阿寒町西徹別"},{"zipCode":"0850201","prefectureKana":"ﾎｯｶｲﾄﾞｳ","cityKana":"ｸｼﾛｼ","streetKana":"ｱｶﾝﾁｮｳﾆﾆｼﾍﾞﾂ","prefecture":"北海道","city":"釧路市","street":"阿寒町仁々志別"},{"zipCode":"0850242","prefectureKana":"ﾎｯｶｲﾄﾞｳ","cityKana":"ｸｼﾛｼ","streetKana":"ｱｶﾝﾁｮｳﾋｶﾞｼｼﾀｶﾗ","prefecture":"北海道","city":"釧路市","street":"阿寒町東舌辛"},{"zipCode":"0850214","prefectureKana":"ﾎｯｶｲﾄﾞｳ","cityKana":"ｸｼﾛｼ","streetKana":"ｱｶﾝﾁｮｳﾌｼﾞﾐ","prefecture":"北海道","city":"釧路市","street":"阿寒町富士見"},{"zipCode":"0850222","prefectureKana":"ﾎｯｶｲﾄﾞｳ","cityKana":"ｸｼﾛｼ","streetKana":"ｱｶﾝﾁｮｳﾌﾌﾞｼﾅｲ","prefecture":"北海道","city":"釧路市","street":"阿寒町布伏内"},{"zipCode":"0850224","prefectureKana":"ﾎｯｶｲﾄﾞｳ","cityKana":"ｸｼﾛｼ","streetKana":"ｱｶﾝﾁｮｳﾕｳﾍﾞﾂﾖｺﾔﾏ","prefecture":"北海道","city":"釧路市","street":"阿寒町雄別横山"},{"zipCode":"0850011","prefectureKana":"ﾎｯｶｲﾄﾞｳ","cityKana":"ｸｼﾛｼ","streetKana":"ｱｻﾋﾏﾁ","prefecture":"北海道","city":"釧路市","street":"旭町"},{"zipCode":"0850061","prefectureKana":"ﾎｯｶｲﾄﾞｳ","cityKana":"ｸｼﾛｼ","streetKana":"ｱｼﾉ","prefecture":"北海道","city":"釧路市","street":"芦野"},{"zipCode":"0850008","prefectureKana":"ﾎｯｶｲﾄﾞｳ","cityKana":"ｸｼﾛｼ","streetKana":"ｲﾘｴﾁｮｳ","prefecture":"北海道","city":"釧路市","street":"入江町"},{"zipCode":"0850846","prefectureKana":"ﾎｯｶｲﾄﾞｳ","cityKana":"ｸｼﾛｼ","streetKana":"ｲﾘﾌﾈ","prefecture":"北海道","city":"釧路市","street":"入舟"},{"zipCode":"0850835","prefectureKana":"ﾎｯｶｲﾄﾞｳ","cityKana":"ｸｼﾛｼ","streetKana":"ｳﾗﾐ","prefecture":"北海道","city":"釧路市","street":"浦見"},{"zipCode":"0850837","prefectureKana":"ﾎｯｶｲﾄﾞｳ","cityKana":"ｸｼﾛｼ","streetKana":"ｵｵｶﾜﾁｮｳ","prefecture":"北海道","city":"釧路市","street":"大川町"},{"zipCode":"0850847","prefectureKana":"ﾎｯｶｲﾄﾞｳ","cityKana":"ｸｼﾛｼ","streetKana":"ｵｵﾏﾁ","prefecture":"北海道","city":"釧路市","street":"大町"},{"zipCode":"0850811","prefectureKana":"ﾎｯｶｲﾄﾞｳ","cityKana":"ｸｼﾛｼ","streetKana":"ｵｺﾂ","prefecture":"北海道","city":"釧路市","street":"興津"},{"zipCode":"0850023","prefectureKana":"ﾎｯｶｲﾄﾞｳ","cityKana":"ｸｼﾛｼ","streetKana":"ｶｲｳﾝ","prefecture":"北海道","city":"釧路市","street":"海運"},{"zipCode":"0850816","prefectureKana":"ﾎｯｶｲﾄﾞｳ","cityKana":"ｸｼﾛｼ","streetKana":"ｶｲﾂﾞｶ","prefecture":"北海道","city":"釧路市","street":"貝塚"},{"zipCode":"0850824","prefectureKana":"ﾎｯｶｲﾄﾞｳ","cityKana":"ｸｼﾛｼ","streetKana":"ｶｼﾜｷﾞﾁｮｳ","prefecture":"北海道","city":"釧路市","street":"柏木町"},{"zipCode":"0850041","prefectureKana":"ﾎｯｶｲﾄﾞｳ","cityKana":"ｸｼﾛｼ","streetKana":"ｶｽｶﾞﾁｮｳ","prefecture":"北海道","city":"釧路市","street":"春日町"},{"zipCode":"0850802","prefectureKana":"ﾎｯｶｲﾄﾞｳ","cityKana":"ｸｼﾛｼ","streetKana":"ｶﾂﾗｺｲ","prefecture":"北海道","city":"釧路市","street":"桂恋"},{"zipCode":"0850012","prefectureKana":"ﾎｯｶｲﾄﾞｳ","cityKana":"ｸｼﾛｼ","streetKana":"ｶﾜｶﾐﾁｮｳ","prefecture":"北海道","city":"釧路市","street":"川上町"},{"zipCode":"0850003","prefectureKana":"ﾎｯｶｲﾄﾞｳ","cityKana":"ｸｼﾛｼ","streetKana":"ｶﾜｷﾀﾁｮｳ","prefecture":"北海道","city":"釧路市","street":"川北町"},{"zipCode":"0850044","prefectureKana":"ﾎｯｶｲﾄﾞｳ","cityKana":"ｸｼﾛｼ","streetKana":"ｶﾜﾊﾞﾀﾁｮｳ","prefecture":"北海道","city":"釧路市","street":"川端町"},{"zipCode":"0850015","prefectureKana":"ﾎｯｶｲﾄﾞｳ","cityKana":"ｸｼﾛｼ","streetKana":"ｷﾀｵｵﾄﾞｵﾘ","prefecture":"北海道","city":"釧路市","street":"北大通"},{"zipCode":"0850043","prefectureKana":"ﾎｯｶｲﾄﾞｳ","cityKana":"ｸｼﾛｼ","streetKana":"ｷﾀﾁｮｳ","prefecture":"北海道","city":"釧路市","street":"喜多町"},{"zipCode":"0850035","prefectureKana":"ﾎｯｶｲﾄﾞｳ","cityKana":"ｸｼﾛｼ","streetKana":"ｷｮｳｴｲｵｵﾄﾞｵﾘ","prefecture":"北海道","city":"釧路市","street":"共栄大通"},{"zipCode":"0850018","prefectureKana":"ﾎｯｶｲﾄﾞｳ","cityKana":"ｸｼﾛｼ","streetKana":"ｸﾛｶﾞﾈﾁｮｳ","prefecture":"北海道","city":"釧路市","street":"黒金町"},{"zipCode":"0850051","prefectureKana":"ﾎｯｶｲﾄﾞｳ","cityKana":"ｸｼﾛｼ","streetKana":"ｺｳﾖｳﾁｮｳ","prefecture":"北海道","city":"釧路市","street":"光陽町"},{"zipCode":"0850026","prefectureKana":"ﾎｯｶｲﾄﾞｳ","cityKana":"ｸｼﾛｼ","streetKana":"ｺﾄﾌﾞｷ","prefecture":"北海道","city":"釧路市","street":"寿"},{"zipCode":"0850048","prefectureKana":"ﾎｯｶｲﾄﾞｳ","cityKana":"ｸｼﾛｼ","streetKana":"ｺﾏﾊﾞﾁｮｳ","prefecture":"北海道","city":"釧路市","street":"駒場町"},{"zipCode":"0850815","prefectureKana":"ﾎｯｶｲﾄﾞｳ","cityKana":"ｸｼﾛｼ","streetKana":"ｻﾞｲﾓｸﾁｮｳ","prefecture":"北海道","city":"釧路市","street":"材木町"},{"zipCode":"0850017","prefectureKana":"ﾎｯｶｲﾄﾞｳ","cityKana":"ｸｼﾛｼ","streetKana":"ｻｲﾜｲﾁｮｳ","prefecture":"北海道","city":"釧路市","street":"幸町"},{"zipCode":"0850013","prefectureKana":"ﾎｯｶｲﾄﾞｳ","cityKana":"ｸｼﾛｼ","streetKana":"ｻｶｴﾏﾁ","prefecture":"北海道","city":"釧路市","street":"栄町"},{"zipCode":"0850805","prefectureKana":"ﾎｯｶｲﾄﾞｳ","cityKana":"ｸｼﾛｼ","streetKana":"ｻｸﾗｶﾞｵｶ","prefecture":"北海道","city":"釧路市","street":"桜ケ岡"},{"zipCode":"0850251","prefectureKana":"ﾎｯｶｲﾄﾞｳ","cityKana":"ｸｼﾛｼ","streetKana":"ｻｸﾗﾀﾞ","prefecture":"北海道","city":"釧路市","street":"桜田"},{"zipCode":"0850812","prefectureKana":"ﾎｯｶｲﾄﾞｳ","cityKana":"ｸｼﾛｼ","streetKana":"ｼｳﾝﾀﾞｲ","prefecture":"北海道","city":"釧路市","street":"紫雲台"},{"zipCode":"0850055","prefectureKana":"ﾎｯｶｲﾄﾞｳ","cityKana":"ｸｼﾛｼ","streetKana":"ｼﾞｽｲﾁｮｳ","prefecture":"北海道","city":"釧路市","street":"治水町"},{"zipCode":"0850822","prefectureKana":"ﾎｯｶｲﾄﾞｳ","cityKana":"ｸｼﾛｼ","streetKana":"ｼｭﾝｺﾀﾞｲ","prefecture":"北海道","city":"釧路市","street":"春湖台"},{"zipCode":"0850804","prefectureKana":"ﾎｯｶｲﾄﾞｳ","cityKana":"ｸｼﾛｼ","streetKana":"ｼﾗｶﾊﾞﾀﾞｲ","prefecture":"北海道","city":"釧路市","street":"白樺台"},{"zipCode":"0850844","prefectureKana":"ﾎｯｶｲﾄﾞｳ","cityKana":"ｸｼﾛｼ","streetKana":"ｼﾘﾄﾁｮｳ","prefecture":"北海道","city":"釧路市","street":"知人町"},{"zipCode":"0850034","prefectureKana":"ﾎｯｶｲﾄﾞｳ","cityKana":"ｸｼﾛｼ","streetKana":"ｼﾛｶﾞﾈﾁｮｳ","prefecture":"北海道","city":"釧路市","street":"白金町"},{"zipCode":"0850826","prefectureKana":"ﾎｯｶｲﾄﾞｳ","cityKana":"ｸｼﾛｼ","streetKana":"ｼﾛﾔﾏ","prefecture":"北海道","city":"釧路市","street":"城山"},{"zipCode":"0850032","prefectureKana":"ﾎｯｶｲﾄﾞｳ","cityKana":"ｸｼﾛｼ","streetKana":"ｼﾝｴｲﾁｮｳ","prefecture":"北海道","city":"釧路市","street":"新栄町"},{"zipCode":"0850047","prefectureKana":"ﾎｯｶｲﾄﾞｳ","cityKana":"ｸｼﾛｼ","streetKana":"ｼﾝｶﾜﾁｮｳ","prefecture":"北海道","city":"釧路市","street":"新川町"},{"zipCode":"0850002","prefectureKana":"ﾎｯｶｲﾄﾞｳ","cityKana":"ｸｼﾛｼ","streetKana":"ｼﾝｸｼﾛﾁｮｳ","prefecture":"北海道","city":"釧路市","street":"新釧路町"},{"zipCode":"0850004","prefectureKana":"ﾎｯｶｲﾄﾞｳ","cityKana":"ｸｼﾛｼ","streetKana":"ｼﾝﾄﾐﾁｮｳ","prefecture":"北海道","city":"釧路市","street":"新富町"},{"zipCode":"0850046","prefectureKana":"ﾎｯｶｲﾄﾞｳ","cityKana":"ｸｼﾛｼ","streetKana":"ｼﾝﾊﾞｼｵｵﾄﾞｵﾘ","prefecture":"北海道","city":"釧路市","street":"新橋大通"},{"zipCode":"0850014","prefectureKana":"ﾎｯｶｲﾄﾞｳ","cityKana":"ｸｼﾛｼ","streetKana":"ｽｴﾋﾛﾁｮｳ","prefecture":"北海道","city":"釧路市","street":"末広町"},{"zipCode":"0850045","prefectureKana":"ﾎｯｶｲﾄﾞｳ","cityKana":"ｸｼﾛｼ","streetKana":"ｽﾐﾉｴﾁｮｳ","prefecture":"北海道","city":"釧路市","street":"住之江町"},{"zipCode":"0850831","prefectureKana":"ﾎｯｶｲﾄﾞｳ","cityKana":"ｸｼﾛｼ","streetKana":"ｽﾐﾖｼ","prefecture":"北海道","city":"釧路市","street":"住吉"},{"zipCode":"0850807","prefectureKana":"ﾎｯｶｲﾄﾞｳ","cityKana":"ｸｼﾛｼ","streetKana":"ﾀｶﾔﾏ","prefecture":"北海道","city":"釧路市","street":"高山"},{"zipCode":"0850025","prefectureKana":"ﾎｯｶｲﾄﾞｳ","cityKana":"ｸｼﾛｼ","streetKana":"ﾀｶﾗﾏﾁ","prefecture":"北海道","city":"釧路市","street":"宝町"},{"zipCode":"0850825","prefectureKana":"ﾎｯｶｲﾄﾞｳ","cityKana":"ｸｼﾛｼ","streetKana":"ﾁﾄｾﾁｮｳ","prefecture":"北海道","city":"釧路市","street":"千歳町"},{"zipCode":"0850823","prefectureKana":"ﾎｯｶｲﾄﾞｳ","cityKana":"ｸｼﾛｼ","streetKana":"ﾁﾖﾉｳﾗ","prefecture":"北海道","city":"釧路市","street":"千代ノ浦"},{"zipCode":"0850821","prefectureKana":"ﾎｯｶｲﾄﾞｳ","cityKana":"ｸｼﾛｼ","streetKana":"ﾂﾙｶﾞﾀﾞｲ","prefecture":"北海道","city":"釧路市","street":"鶴ケ岱"},{"zipCode":"0850053","prefectureKana":"ﾎｯｶｲﾄﾞｳ","cityKana":"ｸｼﾛｼ","streetKana":"ﾄﾖｶﾜﾁｮｳ","prefecture":"北海道","city":"釧路市","street":"豊川町"},{"zipCode":"0850031","prefectureKana":"ﾎｯｶｲﾄﾞｳ","cityKana":"ｸｼﾛｼ","streetKana":"ﾅｶｼﾞﾏﾁｮｳ","prefecture":"北海道","city":"釧路市","street":"中島町"},{"zipCode":"0850052","prefectureKana":"ﾎｯｶｲﾄﾞｳ","cityKana":"ｸｼﾛｼ","streetKana":"ﾅｶｿﾞﾉﾁｮｳ","prefecture":"北海道","city":"釧路市","street":"中園町"},{"zipCode":"0850027","prefectureKana":"ﾎｯｶｲﾄﾞｳ","cityKana":"ｸｼﾛｼ","streetKana":"ﾅｶﾊﾏﾁｮｳ","prefecture":"北海道","city":"釧路市","street":"仲浜町"},{"zipCode":"0850021","prefectureKana":"ﾎｯｶｲﾄﾞｳ","cityKana":"ｸｼﾛｼ","streetKana":"ﾅﾆﾜﾁｮｳ","prefecture":"北海道","city":"釧路市","street":"浪花町"},{"zipCode":"0850016","prefectureKana":"ﾎｯｶｲﾄﾞｳ","cityKana":"ｸｼﾛｼ","streetKana":"ﾆｼｷﾁｮｳ","prefecture":"北海道","city":"釧路市","street":"錦町"},{"zipCode":"0850836","prefectureKana":"ﾎｯｶｲﾄﾞｳ","cityKana":"ｸｼﾛｼ","streetKana":"ﾇｻﾏｲﾁｮｳ","prefecture":"北海道","city":"釧路市","street":"幣舞町"},{"zipCode":"0850038","prefectureKana":"ﾎｯｶｲﾄﾞｳ","cityKana":"ｸｼﾛｼ","streetKana":"ﾊﾅｿﾞﾉﾁｮｳ","prefecture":"北海道","city":"釧路市","street":"花園町"},{"zipCode":"0850024","prefectureKana":"ﾎｯｶｲﾄﾞｳ","cityKana":"ｸｼﾛｼ","streetKana":"ﾊﾏﾁｮｳ","prefecture":"北海道","city":"釧路市","street":"浜町"},{"zipCode":"0850813","prefectureKana":"ﾎｯｶｲﾄﾞｳ","cityKana":"ｸｼﾛｼ","streetKana":"ﾊﾙﾄﾘ","prefecture":"北海道","city":"釧路市","street":"春採"},{"zipCode":"0850056","prefectureKana":"ﾎｯｶｲﾄﾞｳ","cityKana":"ｸｼﾛｼ","streetKana":"ﾋｶﾞｼｶﾜﾁｮｳ","prefecture":"北海道","city":"釧路市","street":"東川町"},{"zipCode":"0850064","prefectureKana":"ﾎｯｶｲﾄﾞｳ","cityKana":"ｸｼﾛｼ","streetKana":"ﾋﾛｻﾄ","prefecture":"北海道","city":"釧路市","street":"広里"},{"zipCode":"0850832","prefectureKana":"ﾎｯｶｲﾄﾞｳ","cityKana":"ｸｼﾛｼ","streetKana":"ﾌｼﾞﾐ","prefecture":"北海道","city":"釧路市","street":"富士見"},{"zipCode":"0850006","prefectureKana":"ﾎｯｶｲﾄﾞｳ","cityKana":"ｸｼﾛｼ","streetKana":"ﾌﾀﾊﾞﾁｮｳ","prefecture":"北海道","city":"釧路市","street":"双葉町"},{"zipCode":"0850063","prefectureKana":"ﾎｯｶｲﾄﾞｳ","cityKana":"ｸｼﾛｼ","streetKana":"ﾌﾐｿﾞﾉ","prefecture":"北海道","city":"釧路市","street":"文苑"},{"zipCode":"0850001","prefectureKana":"ﾎｯｶｲﾄﾞｳ","cityKana":"ｸｼﾛｼ","streetKana":"ﾌﾙｶﾜﾁｮｳ","prefecture":"北海道","city":"釧路市","street":"古川町"},{"zipCode":"0850843","prefectureKana":"ﾎｯｶｲﾄﾞｳ","cityKana":"ｸｼﾛｼ","streetKana":"ﾍﾞﾝﾃﾝｶﾞﾊﾏ","prefecture":"北海道","city":"釧路市","street":"弁天ケ浜"},{"zipCode":"0850007","prefectureKana":"ﾎｯｶｲﾄﾞｳ","cityKana":"ｸｼﾛｼ","streetKana":"ﾎﾘｶﾜﾁｮｳ","prefecture":"北海道","city":"釧路市","street":"堀川町"},{"zipCode":"0850803","prefectureKana":"ﾎｯｶｲﾄﾞｳ","cityKana":"ｸｼﾛｼ","streetKana":"ﾏｽｳﾗ","prefecture":"北海道","city":"釧路市","street":"益浦"},{"zipCode":"0850005","prefectureKana":"ﾎｯｶｲﾄﾞｳ","cityKana":"ｸｼﾛｼ","streetKana":"ﾏﾂｳﾗﾁｮｳ","prefecture":"北海道","city":"釧路市","street":"松浦町"},{"zipCode":"0850801","prefectureKana":"ﾎｯｶｲﾄﾞｳ","cityKana":"ｸｼﾛｼ","streetKana":"ﾐﾂｳﾗ","prefecture":"北海道","city":"釧路市","street":"三津浦"},{"zipCode":"0850814","prefectureKana":"ﾎｯｶｲﾄﾞｳ","cityKana":"ｸｼﾛｼ","streetKana":"ﾐﾄﾞﾘｶﾞｵｶ","prefecture":"北海道","city":"釧路市","street":"緑ケ岡"},{"zipCode":"0850845","prefectureKana":"ﾎｯｶｲﾄﾞｳ","cityKana":"ｸｼﾛｼ","streetKana":"ﾐﾅﾄﾏﾁ","prefecture":"北海道","city":"釧路市","street":"港町"},{"zipCode":"0850841","prefectureKana":"ﾎｯｶｲﾄﾞｳ","cityKana":"ｸｼﾛｼ","streetKana":"ﾐﾅﾐｵｵﾄﾞｵﾘ","prefecture":"北海道","city":"釧路市","street":"南大通"},{"zipCode":"0850022","prefectureKana":"ﾎｯｶｲﾄﾞｳ","cityKana":"ｸｼﾛｼ","streetKana":"ﾐﾅﾐﾊﾏﾁｮｳ","prefecture":"北海道","city":"釧路市","street":"南浜町"},{"zipCode":"0850065","prefectureKana":"ﾎｯｶｲﾄﾞｳ","cityKana":"ｸｼﾛｼ","streetKana":"ﾐﾊﾗ","prefecture":"北海道","city":"釧路市","street":"美原"},{"zipCode":"0850833","prefectureKana":"ﾎｯｶｲﾄﾞｳ","cityKana":"ｸｼﾛｼ","streetKana":"ﾐﾔﾓﾄ","prefecture":"北海道","city":"釧路市","street":"宮本"},{"zipCode":"0850806","prefectureKana":"ﾎｯｶｲﾄﾞｳ","cityKana":"ｸｼﾛｼ","streetKana":"ﾑｻ","prefecture":"北海道","city":"釧路市","street":"武佐"},{"zipCode":"0850037","prefectureKana":"ﾎｯｶｲﾄﾞｳ","cityKana":"ｸｼﾛｼ","streetKana":"ﾔﾅｷﾞﾏﾁ","prefecture":"北海道","city":"釧路市","street":"柳町"},{"zipCode":"0850834","prefectureKana":"ﾎｯｶｲﾄﾞｳ","cityKana":"ｸｼﾛｼ","streetKana":"ﾔﾖｲ","prefecture":"北海道","city":"釧路市","street":"弥生"},{"zipCode":"0850842","prefectureKana":"ﾎｯｶｲﾄﾞｳ","cityKana":"ｸｼﾛｼ","streetKana":"ﾖﾈﾏﾁ","prefecture":"北海道","city":"釧路市","street":"米町"},{"zipCode":"0850042","prefectureKana":"ﾎｯｶｲﾄﾞｳ","cityKana":"ｸｼﾛｼ","streetKana":"ﾜｶｸｻﾁｮｳ","prefecture":"北海道","city":"釧路市","street":"若草町"},{"zipCode":"0850036","prefectureKana":"ﾎｯｶｲﾄﾞｳ","cityKana":"ｸｼﾛｼ","streetKana":"ﾜｶﾀｹﾁｮｳ","prefecture":"北海道","city":"釧路市","street":"若竹町"},{"zipCode":"0850033","prefectureKana":"ﾎｯｶｲﾄﾞｳ","cityKana":"ｸｼﾛｼ","streetKana":"ﾜｶﾏﾂﾁｮｳ","prefecture":"北海道","city":"釧路市","street":"若松町"},{"zipCode":"0852271","prefectureKana":"ﾎｯｶｲﾄﾞｳ","cityKana":"ｸｼﾛｸﾞﾝｸｼﾛﾁｮｳ","streetKana":"ｱﾄｴｶﾑﾗ","prefecture":"北海道","city":"釧路郡釧路町","street":"跡永賀村"},{"zipCode":"0852272","prefectureKana":"ﾎｯｶｲﾄﾞｳ","cityKana":"ｸｼﾛｸﾞﾝｸｼﾛﾁｮｳ","streetKana":"ｺﾝﾌﾞﾓﾘ","prefecture":"北海道","city":"釧路郡釧路町","street":"昆布森"},{"zipCode":"0852273","prefectureKana":"ﾎｯｶｲﾄﾞｳ","cityKana":"ｸｼﾛｸﾞﾝｸｼﾛﾁｮｳ","streetKana":"ｺﾝﾌﾞﾓﾘﾑﾗ","prefecture":"北海道","city":"釧路郡釧路町","street":"昆布森村"},{"zipCode":"0851200","prefectureKana":"ﾎｯｶｲﾄﾞｳ","cityKana":"ｱｶﾝｸﾞﾝﾂﾙｲﾑﾗ","streetKana":"ｲｶﾆｹｲｻｲｶﾞﾅｲﾊﾞｱｲ","prefecture":"北海道","city":"阿寒郡鶴居村","street":"以下に掲載がない場合"},{"zipCode":"0851146","prefectureKana":"ﾎｯｶｲﾄﾞｳ","cityKana":"ｱｶﾝｸﾞﾝﾂﾙｲﾑﾗ","streetKana":"ｱﾄｺｼｬﾗｶ","prefecture":"北海道","city":"阿寒郡鶴居村","street":"アトコシヤラカ"},{"zipCode":"0851145","prefectureKana":"ﾎｯｶｲﾄﾞｳ","cityKana":"ｱｶﾝｸﾞﾝﾂﾙｲﾑﾗ","streetKana":"ｵﾝﾈﾅｲ","prefecture":"北海道","city":"阿寒郡鶴居村","street":"温根内"},{"zipCode":"0851132","prefectureKana":"ﾎｯｶｲﾄﾞｳ","cityKana":"ｱｶﾝｸﾞﾝﾂﾙｲﾑﾗ","streetKana":"ｶﾐﾎﾛﾛ","prefecture":"北海道","city":"阿寒郡鶴居村","street":"上幌呂"},{"zipCode":"0851212","prefectureKana":"ﾎｯｶｲﾄﾞｳ","cityKana":"ｱｶﾝｸﾞﾝﾂﾙｲﾑﾗ","streetKana":"ｼｾﾂﾘ","prefecture":"北海道","city":"阿寒郡鶴居村","street":"支雪裡"},{"zipCode":"0851133","prefectureKana":"ﾎｯｶｲﾄﾞｳ","cityKana":"ｱｶﾝｸﾞﾝﾂﾙｲﾑﾗ","streetKana":"ｼﾎﾛﾛ","prefecture":"北海道","city":"阿寒郡鶴居村","street":"支幌呂"},{"zipCode":"0851262","prefectureKana":"ﾎｯｶｲﾄﾞｳ","cityKana":"ｱｶﾝｸﾞﾝﾂﾙｲﾑﾗ","streetKana":"ｼﾓｸﾁｮﾛ","prefecture":"北海道","city":"阿寒郡鶴居村","street":"下久著呂"},{"zipCode":"0851211","prefectureKana":"ﾎｯｶｲﾄﾞｳ","cityKana":"ｱｶﾝｸﾞﾝﾂﾙｲﾑﾗ","streetKana":"ｼﾓｾﾂﾘ","prefecture":"北海道","city":"阿寒郡鶴居村","street":"下雪裡"},{"zipCode":"0851144","prefectureKana":"ﾎｯｶｲﾄﾞｳ","cityKana":"ｱｶﾝｸﾞﾝﾂﾙｲﾑﾗ","streetKana":"ｼﾓﾎﾛﾛ","prefecture":"北海道","city":"阿寒郡鶴居村","street":"下幌呂"},{"zipCode":"0851131","prefectureKana":"ﾎｯｶｲﾄﾞｳ","cityKana":"ｱｶﾝｸﾞﾝﾂﾙｲﾑﾗ","streetKana":"ｼﾝﾎﾛﾛ","prefecture":"北海道","city":"阿寒郡鶴居村","street":"新幌呂"},{"zipCode":"0851206","prefectureKana":"ﾎｯｶｲﾄﾞｳ","cityKana":"ｱｶﾝｸﾞﾝﾂﾙｲﾑﾗ","streetKana":"ﾂﾙｲﾋｶﾞｼ","prefecture":"北海道","city":"阿寒郡鶴居村","street":"鶴居東"},{"zipCode":"0851203","prefectureKana":"ﾎｯｶｲﾄﾞｳ","cityKana":"ｱｶﾝｸﾞﾝﾂﾙｲﾑﾗ","streetKana":"ﾂﾙｲﾆｼ","prefecture":"北海道","city":"阿寒郡鶴居村","street":"鶴居西"},{"zipCode":"0851204","prefectureKana":"ﾎｯｶｲﾄﾞｳ","cityKana":"ｱｶﾝｸﾞﾝﾂﾙｲﾑﾗ","streetKana":"ﾂﾙｲﾐﾅﾐ","prefecture":"北海道","city":"阿寒郡鶴居村","street":"鶴居南"},{"zipCode":"0851201","prefectureKana":"ﾎｯｶｲﾄﾞｳ","cityKana":"ｱｶﾝｸﾞﾝﾂﾙｲﾑﾗ","streetKana":"ﾂﾙｲｷﾀ","prefecture":"北海道","city":"阿寒郡鶴居村","street":"鶴居北"},{"zipCode":"0851261","prefectureKana":"ﾎｯｶｲﾄﾞｳ","cityKana":"ｱｶﾝｸﾞﾝﾂﾙｲﾑﾗ","streetKana":"ﾅｶｸﾁｮﾛ","prefecture":"北海道","city":"阿寒郡鶴居村","street":"中久著呂"},{"zipCode":"0851207","prefectureKana":"ﾎｯｶｲﾄﾞｳ","cityKana":"ｱｶﾝｸﾞﾝﾂﾙｲﾑﾗ","streetKana":"ﾅｶｾﾂﾘ(ﾋｶﾞｼ)","prefecture":"北海道","city":"阿寒郡鶴居村","street":"中雪裡（東）"},{"zipCode":"0851202","prefectureKana":"ﾎｯｶｲﾄﾞｳ","cityKana":"ｱｶﾝｸﾞﾝﾂﾙｲﾑﾗ","streetKana":"ﾅｶｾﾂﾘ(ﾆｼ)","prefecture":"北海道","city":"阿寒郡鶴居村","street":"中雪裡（西）"},{"zipCode":"0851205","prefectureKana":"ﾎｯｶｲﾄﾞｳ","cityKana":"ｱｶﾝｸﾞﾝﾂﾙｲﾑﾗ","streetKana":"ﾅｶｾﾂﾘ(ﾐﾅﾐ)","prefecture":"北海道","city":"阿寒郡鶴居村","street":"中雪裡（南）"},{"zipCode":"0851143","prefectureKana":"ﾎｯｶｲﾄﾞｳ","cityKana":"ｱｶﾝｸﾞﾝﾂﾙｲﾑﾗ","streetKana":"ﾅｶﾎﾛﾛ","prefecture":"北海道","city":"阿寒郡鶴居村","street":"中幌呂"},{"zipCode":"0851147","prefectureKana":"ﾎｯｶｲﾄﾞｳ","cityKana":"ｱｶﾝｸﾞﾝﾂﾙｲﾑﾗ","streetKana":"ﾎﾛﾛ","prefecture":"北海道","city":"阿寒郡鶴居村","street":"幌呂"},{"zipCode":"0851142","prefectureKana":"ﾎｯｶｲﾄﾞｳ","cityKana":"ｱｶﾝｸﾞﾝﾂﾙｲﾑﾗ","streetKana":"ﾎﾛﾛﾋｶﾞｼ","prefecture":"北海道","city":"阿寒郡鶴居村","street":"幌呂東"},{"zipCode":"0851141","prefectureKana":"ﾎｯｶｲﾄﾞｳ","cityKana":"ｱｶﾝｸﾞﾝﾂﾙｲﾑﾗ","streetKana":"ﾎﾛﾛﾆｼ","prefecture":"北海道","city":"阿寒郡鶴居村","street":"幌呂西"},{"zipCode":"0851213","prefectureKana":"ﾎｯｶｲﾄﾞｳ","cityKana":"ｱｶﾝｸﾞﾝﾂﾙｲﾑﾗ","streetKana":"ﾓｾﾂﾘ","prefecture":"北海道","city":"阿寒郡鶴居村","street":"茂雪裡"},{"zipCode":"0851134","prefectureKana":"ﾎｯｶｲﾄﾞｳ","cityKana":"ｱｶﾝｸﾞﾝﾂﾙｲﾑﾗ","streetKana":"ﾓﾎﾛﾛ","prefecture":"北海道","city":"阿寒郡鶴居村","street":"茂幌呂"}]