[{"zipCode":"0900000","prefectureKana":"ﾎｯｶｲﾄﾞｳ","cityKana":"ｷﾀﾐｼ","streetKana":"ｲｶﾆｹｲｻｲｶﾞﾅｲﾊﾞｱｲ","prefecture":"北海道","city":"北見市","street":"以下に掲載がない場合"},{"zipCode":"0900018","prefectureKana":"ﾎｯｶｲﾄﾞｳ","cityKana":"ｷﾀﾐｼ","streetKana":"ｱｵﾊﾞﾁｮｳ","prefecture":"北海道","city":"北見市","street":"青葉町"},{"zipCode":"0900011","prefectureKana":"ﾎｯｶｲﾄﾞｳ","cityKana":"ｷﾀﾐｼ","streetKana":"ｱｹﾎﾞﾉﾁｮｳ","prefecture":"北海道","city":"北見市","street":"曙町"},{"zipCode":"0900803","prefectureKana":"ﾎｯｶｲﾄﾞｳ","cityKana":"ｷﾀﾐｼ","streetKana":"ｱｻﾋﾏﾁ","prefecture":"北海道","city":"北見市","street":"朝日町"},{"zipCode":"0900811","prefectureKana":"ﾎｯｶｲﾄﾞｳ","cityKana":"ｷﾀﾐｼ","streetKana":"ｲｽﾞﾐﾁｮｳ","prefecture":"北海道","city":"北見市","street":"泉町"},{"zipCode":"0900020","prefectureKana":"ﾎｯｶｲﾄﾞｳ","cityKana":"ｷﾀﾐｼ","streetKana":"ｵｵﾄﾞｵﾘﾋｶﾞｼ","prefecture":"北海道","city":"北見市","street":"大通東"},{"zipCode":"0900040","prefectureKana":"ﾎｯｶｲﾄﾞｳ","cityKana":"ｷﾀﾐｼ","streetKana":"ｵｵﾄﾞｵﾘﾆｼ","prefecture":"北海道","city":"北見市","street":"大通西"},{"zipCode":"0900016","prefectureKana":"ﾎｯｶｲﾄﾞｳ","cityKana":"ｷﾀﾐｼ","streetKana":"ｵｵﾏﾁ","prefecture":"北海道","city":"北見市","street":"大町"},{"zipCode":"0900056","prefectureKana":"ﾎｯｶｲﾄﾞｳ","cityKana":"ｷﾀﾐｼ","streetKana":"ｵﾛｼﾏﾁ","prefecture":"北海道","city":"北見市","street":"卸町"},{"zipCode":"0900066","prefectureKana":"ﾎｯｶｲﾄﾞｳ","cityKana":"ｷﾀﾐｼ","streetKana":"ｶｹﾞﾂﾁｮｳ","prefecture":"北海道","city":"北見市","street":"花月町"},{"zipCode":"0900053","prefectureKana":"ﾎｯｶｲﾄﾞｳ","cityKana":"ｷﾀﾐｼ","streetKana":"ｶﾂﾗﾏﾁ","prefecture":"北海道","city":"北見市","street":"桂町"},{"zipCode":"0900006","prefectureKana":"ﾎｯｶｲﾄﾞｳ","cityKana":"ｷﾀﾐｼ","streetKana":"ｶﾐﾆｺﾛ","prefecture":"北海道","city":"北見市","street":"上仁頃"},{"zipCode":"0900821","prefectureKana":"ﾎｯｶｲﾄﾞｳ","cityKana":"ｷﾀﾐｼ","streetKana":"ｶﾜｿﾞｴﾁｮｳ","prefecture":"北海道","city":"北見市","street":"川沿町"},{"zipCode":"0900807","prefectureKana":"ﾎｯｶｲﾄﾞｳ","cityKana":"ｷﾀﾐｼ","streetKana":"ｶﾜﾋｶﾞｼ","prefecture":"北海道","city":"北見市","street":"川東"},{"zipCode":"0900021","prefectureKana":"ﾎｯｶｲﾄﾞｳ","cityKana":"ｷﾀﾐｼ","streetKana":"ｷﾀ1ｼﾞｮｳﾋｶﾞｼ","prefecture":"北海道","city":"北見市","street":"北一条東"},{"zipCode":"0900041","prefectureKana":"ﾎｯｶｲﾄﾞｳ","cityKana":"ｷﾀﾐｼ","streetKana":"ｷﾀ1ｼﾞｮｳﾆｼ","prefecture":"北海道","city":"北見市","street":"北一条西"},{"zipCode":"0900022","prefectureKana":"ﾎｯｶｲﾄﾞｳ","cityKana":"ｷﾀﾐｼ","streetKana":"ｷﾀ2ｼﾞｮｳﾋｶﾞｼ","prefecture":"北海道","city":"北見市","street":"北二条東"},{"zipCode":"0900042","prefectureKana":"ﾎｯｶｲﾄﾞｳ","cityKana":"ｷﾀﾐｼ","streetKana":"ｷﾀ2ｼﾞｮｳﾆｼ","prefecture":"北海道","city":"北見市","street":"北二条西"},{"zipCode":"0900023","prefectureKana":"ﾎｯｶｲﾄﾞｳ","cityKana":"ｷﾀﾐｼ","streetKana":"ｷﾀ3ｼﾞｮｳﾋｶﾞｼ","prefecture":"北海道","city":"北見市","street":"北三条東"},{"zipCode":"0900043","prefectureKana":"ﾎｯｶｲﾄﾞｳ","cityKana":"ｷﾀﾐｼ","streetKana":"ｷﾀ3ｼﾞｮｳﾆｼ","prefecture":"北海道","city":"北見市","street":"北三条西"},{"zipCode":"0900024","prefectureKana":"ﾎｯｶｲﾄﾞｳ","cityKana":"ｷﾀﾐｼ","streetKana":"ｷﾀ4ｼﾞｮｳﾋｶﾞｼ","prefecture":"北海道","city":"北見市","street":"北四条東"},{"zipCode":"0900044","prefectureKana":"ﾎｯｶｲﾄﾞｳ","cityKana":"ｷﾀﾐｼ","streetKana":"ｷﾀ4ｼﾞｮｳﾆｼ","prefecture":"北海道","city":"北見市","street":"北四条西"},{"zipCode":"0900025","prefectureKana":"ﾎｯｶｲﾄﾞｳ","cityKana":"ｷﾀﾐｼ","streetKana":"ｷﾀ5ｼﾞｮｳﾋｶﾞｼ","prefecture":"北海道","city":"北見市","street":"北五条東"},{"zipCode":"0900045","prefectureKana":"ﾎｯｶｲﾄﾞｳ","cityKana":"ｷﾀﾐｼ","streetKana":"ｷﾀ5ｼﾞｮｳﾆｼ","prefecture":"北海道","city":"北見市","street":"北五条西"},{"zipCode":"0900026","prefectureKana":"ﾎｯｶｲﾄﾞｳ","cityKana":"ｷﾀﾐｼ","streetKana":"ｷﾀ6ｼﾞｮｳﾋｶﾞｼ","prefecture":"北海道","city":"北見市","street":"北六条東"},{"zipCode":"0900046","prefectureKana":"ﾎｯｶｲﾄﾞｳ","cityKana":"ｷﾀﾐｼ","streetKana":"ｷﾀ6ｼﾞｮｳﾆｼ","prefecture":"北海道","city":"北見市","street":"北六条西"},{"zipCode":"0900027","prefectureKana":"ﾎｯｶｲﾄﾞｳ","cityKana":"ｷﾀﾐｼ","streetKana":"ｷﾀ7ｼﾞｮｳﾋｶﾞｼ","prefecture":"北海道","city":"北見市","street":"北七条東"},{"zipCode":"0900047","prefectureKana":"ﾎｯｶｲﾄﾞｳ","cityKana":"ｷﾀﾐｼ","streetKana":"ｷﾀ7ｼﾞｮｳﾆｼ","prefecture":"北海道","city":"北見市","street":"北七条西"},{"zipCode":"0900028","prefectureKana":"ﾎｯｶｲﾄﾞｳ","cityKana":"ｷﾀﾐｼ","streetKana":"ｷﾀ8ｼﾞｮｳﾋｶﾞｼ","prefecture":"北海道","city":"北見市","street":"北八条東"},{"zipCode":"0900048","prefectureKana":"ﾎｯｶｲﾄﾞｳ","cityKana":"ｷﾀﾐｼ","streetKana":"ｷﾀ8ｼﾞｮｳﾆｼ","prefecture":"北海道","city":"北見市","street":"北八条西"},{"zipCode":"0900029","prefectureKana":"ﾎｯｶｲﾄﾞｳ","cityKana":"ｷﾀﾐｼ","streetKana":"ｷﾀ9ｼﾞｮｳﾋｶﾞｼ","prefecture":"北海道","city":"北見市","street":"北九条東"},{"zipCode":"0900030","prefectureKana":"ﾎｯｶｲﾄﾞｳ","cityKana":"ｷﾀﾐｼ","streetKana":"ｷﾀ10ｼﾞｮｳﾋｶﾞｼ","prefecture":"北海道","city":"北見市","street":"北十条東"},{"zipCode":"0900031","prefectureKana":"ﾎｯｶｲﾄﾞｳ","cityKana":"ｷﾀﾐｼ","streetKana":"ｷﾀ11ｼﾞｮｳﾋｶﾞｼ","prefecture":"北海道","city":"北見市","street":"北十一条東"},{"zipCode":"0900063","prefectureKana":"ﾎｯｶｲﾄﾞｳ","cityKana":"ｷﾀﾐｼ","streetKana":"ｷﾖﾐﾁｮｳ","prefecture":"北海道","city":"北見市","street":"清見町"},{"zipCode":"0900001","prefectureKana":"ﾎｯｶｲﾄﾞｳ","cityKana":"ｷﾀﾐｼ","streetKana":"ｺｲｽﾞﾐ","prefecture":"北海道","city":"北見市","street":"小泉"},{"zipCode":"0900051","prefectureKana":"ﾎｯｶｲﾄﾞｳ","cityKana":"ｷﾀﾐｼ","streetKana":"ｺｳｴｲﾋｶﾞｼﾏﾁ","prefecture":"北海道","city":"北見市","street":"高栄東町"},{"zipCode":"0900058","prefectureKana":"ﾎｯｶｲﾄﾞｳ","cityKana":"ｷﾀﾐｼ","streetKana":"ｺｳｴｲﾆｼﾏﾁ","prefecture":"北海道","city":"北見市","street":"高栄西町"},{"zipCode":"0900015","prefectureKana":"ﾎｯｶｲﾄﾞｳ","cityKana":"ｷﾀﾐｼ","streetKana":"ｺｳｴﾝﾁｮｳ","prefecture":"北海道","city":"北見市","street":"公園町"},{"zipCode":"0900835","prefectureKana":"ﾎｯｶｲﾄﾞｳ","cityKana":"ｷﾀﾐｼ","streetKana":"ｺｳｾｲﾁｮｳ","prefecture":"北海道","city":"北見市","street":"光西町"},{"zipCode":"0900823","prefectureKana":"ﾎｯｶｲﾄﾞｳ","cityKana":"ｷﾀﾐｼ","streetKana":"ｺｳﾒｲﾁｮｳ","prefecture":"北海道","city":"北見市","street":"広明町"},{"zipCode":"0900814","prefectureKana":"ﾎｯｶｲﾄﾞｳ","cityKana":"ｷﾀﾐｼ","streetKana":"ｺｳﾖｳﾁｮｳ","prefecture":"北海道","city":"北見市","street":"光葉町"},{"zipCode":"0900065","prefectureKana":"ﾎｯｶｲﾄﾞｳ","cityKana":"ｷﾀﾐｼ","streetKana":"ｺﾄﾌﾞｷﾁｮｳ","prefecture":"北海道","city":"北見市","street":"寿町"},{"zipCode":"0900036","prefectureKana":"ﾎｯｶｲﾄﾞｳ","cityKana":"ｷﾀﾐｼ","streetKana":"ｻｲﾜｲﾁｮｳ","prefecture":"北海道","city":"北見市","street":"幸町"},{"zipCode":"0900832","prefectureKana":"ﾎｯｶｲﾄﾞｳ","cityKana":"ｷﾀﾐｼ","streetKana":"ｻｶｴﾏﾁ","prefecture":"北海道","city":"北見市","street":"栄町"},{"zipCode":"0900804","prefectureKana":"ﾎｯｶｲﾄﾞｳ","cityKana":"ｷﾀﾐｼ","streetKana":"ｻｸﾗﾏﾁ","prefecture":"北海道","city":"北見市","street":"桜町"},{"zipCode":"0900019","prefectureKana":"ﾎｯｶｲﾄﾞｳ","cityKana":"ｷﾀﾐｼ","streetKana":"ｻﾝﾗｸﾁｮｳ","prefecture":"北海道","city":"北見市","street":"三楽町"},{"zipCode":"0900801","prefectureKana":"ﾎｯｶｲﾄﾞｳ","cityKana":"ｷﾀﾐｼ","streetKana":"ｼｭﾝｺｳﾁｮｳ","prefecture":"北海道","city":"北見市","street":"春光町"},{"zipCode":"0900002","prefectureKana":"ﾎｯｶｲﾄﾞｳ","cityKana":"ｷﾀﾐｼ","streetKana":"ｼｮｳﾜ","prefecture":"北海道","city":"北見市","street":"昭和"},{"zipCode":"0900815","prefectureKana":"ﾎｯｶｲﾄﾞｳ","cityKana":"ｷﾀﾐｼ","streetKana":"ｼﾝｾｲﾁｮｳ","prefecture":"北海道","city":"北見市","street":"新生町"},{"zipCode":"0900826","prefectureKana":"ﾎｯｶｲﾄﾞｳ","cityKana":"ｷﾀﾐｼ","streetKana":"ｽｴﾋﾛﾁｮｳ","prefecture":"北海道","city":"北見市","street":"末広町"},{"zipCode":"0900805","prefectureKana":"ﾎｯｶｲﾄﾞｳ","cityKana":"ｷﾀﾐｼ","streetKana":"ｾｲｹﾞﾂﾁｮｳ","prefecture":"北海道","city":"北見市","street":"清月町"},{"zipCode":"0900008","prefectureKana":"ﾎｯｶｲﾄﾞｳ","cityKana":"ｷﾀﾐｼ","streetKana":"ﾀｲｼｮｳ","prefecture":"北海道","city":"北見市","street":"大正"},{"zipCode":"0900017","prefectureKana":"ﾎｯｶｲﾄﾞｳ","cityKana":"ｷﾀﾐｼ","streetKana":"ﾀｶｻｺﾞﾁｮｳ","prefecture":"北海道","city":"北見市","street":"高砂町"},{"zipCode":"0900802","prefectureKana":"ﾎｯｶｲﾄﾞｳ","cityKana":"ｷﾀﾐｼ","streetKana":"ﾀﾊﾞﾀﾁｮｳ","prefecture":"北海道","city":"北見市","street":"田端町"},{"zipCode":"0900034","prefectureKana":"ﾎｯｶｲﾄﾞｳ","cityKana":"ｷﾀﾐｼ","streetKana":"ﾁｭｳｵｳﾁｮｳ","prefecture":"北海道","city":"北見市","street":"中央町"},{"zipCode":"0900837","prefectureKana":"ﾎｯｶｲﾄﾞｳ","cityKana":"ｷﾀﾐｼ","streetKana":"ﾁｭｳｵｳﾐﾜ","prefecture":"北海道","city":"北見市","street":"中央三輪"},{"zipCode":"0900061","prefectureKana":"ﾎｯｶｲﾄﾞｳ","cityKana":"ｷﾀﾐｼ","streetKana":"ﾄｳﾘｮｳﾁｮｳ","prefecture":"北海道","city":"北見市","street":"東陵町"},{"zipCode":"0900817","prefectureKana":"ﾎｯｶｲﾄﾞｳ","cityKana":"ｷﾀﾐｼ","streetKana":"ﾄｷﾜﾁｮｳ","prefecture":"北海道","city":"北見市","street":"常盤町"},{"zipCode":"0900833","prefectureKana":"ﾎｯｶｲﾄﾞｳ","cityKana":"ｷﾀﾐｼ","streetKana":"ﾄﾝﾃﾞﾝﾋｶﾞｼﾏﾁ","prefecture":"北海道","city":"北見市","street":"とん田東町"},{"zipCode":"0900834","prefectureKana":"ﾎｯｶｲﾄﾞｳ","cityKana":"ｷﾀﾐｼ","streetKana":"ﾄﾝﾃﾞﾝﾆｼﾏﾁ","prefecture":"北海道","city":"北見市","street":"とん田西町"},{"zipCode":"0900813","prefectureKana":"ﾎｯｶｲﾄﾞｳ","cityKana":"ｷﾀﾐｼ","streetKana":"ﾅｶﾉｼﾏﾁｮｳ","prefecture":"北海道","city":"北見市","street":"中ノ島町"},{"zipCode":"0900012","prefectureKana":"ﾎｯｶｲﾄﾞｳ","cityKana":"ｷﾀﾐｼ","streetKana":"ﾅﾐｷﾁｮｳ","prefecture":"北海道","city":"北見市","street":"並木町"},{"zipCode":"0900003","prefectureKana":"ﾎｯｶｲﾄﾞｳ","cityKana":"ｷﾀﾐｼ","streetKana":"ﾆｺﾛﾁｮｳ","prefecture":"北海道","city":"北見市","street":"仁頃町"},{"zipCode":"0900827","prefectureKana":"ﾎｯｶｲﾄﾞｳ","cityKana":"ｷﾀﾐｼ","streetKana":"ﾆｼｷﾁｮｳ","prefecture":"北海道","city":"北見市","street":"錦町"},{"zipCode":"0900831","prefectureKana":"ﾎｯｶｲﾄﾞｳ","cityKana":"ｷﾀﾐｼ","streetKana":"ﾆｼﾄﾐﾁｮｳ","prefecture":"北海道","city":"北見市","street":"西富町"},{"zipCode":"0900838","prefectureKana":"ﾎｯｶｲﾄﾞｳ","cityKana":"ｷﾀﾐｼ","streetKana":"ﾆｼﾐﾜ","prefecture":"北海道","city":"北見市","street":"西三輪"},{"zipCode":"0900013","prefectureKana":"ﾎｯｶｲﾄﾞｳ","cityKana":"ｷﾀﾐｼ","streetKana":"ﾊｸﾖｳﾁｮｳ","prefecture":"北海道","city":"北見市","street":"柏陽町"},{"zipCode":"0900816","prefectureKana":"ﾎｯｶｲﾄﾞｳ","cityKana":"ｷﾀﾐｼ","streetKana":"ﾊﾅｿﾞﾉﾁｮｳ","prefecture":"北海道","city":"北見市","street":"花園町"},{"zipCode":"0900033","prefectureKana":"ﾎｯｶｲﾄﾞｳ","cityKana":"ｷﾀﾐｼ","streetKana":"ﾊﾞﾝﾊﾞﾁｮｳ","prefecture":"北海道","city":"北見市","street":"番場町"},{"zipCode":"0900836","prefectureKana":"ﾎｯｶｲﾄﾞｳ","cityKana":"ｷﾀﾐｼ","streetKana":"ﾋｶﾞｼﾐﾜ","prefecture":"北海道","city":"北見市","street":"東三輪"},{"zipCode":"0900810","prefectureKana":"ﾎｯｶｲﾄﾞｳ","cityKana":"ｷﾀﾐｼ","streetKana":"ﾋｶﾘﾉ","prefecture":"北海道","city":"北見市","street":"ひかり野"},{"zipCode":"0900054","prefectureKana":"ﾎｯｶｲﾄﾞｳ","cityKana":"ｷﾀﾐｼ","streetKana":"ﾌﾀﾊﾞﾁｮｳ","prefecture":"北海道","city":"北見市","street":"双葉町"},{"zipCode":"0900014","prefectureKana":"ﾎｯｶｲﾄﾞｳ","cityKana":"ｷﾀﾐｼ","streetKana":"ﾌﾞﾝｷｮｳﾁｮｳ","prefecture":"北海道","city":"北見市","street":"文京町"},{"zipCode":"0900822","prefectureKana":"ﾎｯｶｲﾄﾞｳ","cityKana":"ｷﾀﾐｼ","streetKana":"ﾎｸｵｳﾁｮｳ","prefecture":"北海道","city":"北見市","street":"北央町"},{"zipCode":"0900052","prefectureKana":"ﾎｯｶｲﾄﾞｳ","cityKana":"ｷﾀﾐｼ","streetKana":"ﾎｸｼﾝﾁｮｳ","prefecture":"北海道","city":"北見市","street":"北進町"},{"zipCode":"0900035","prefectureKana":"ﾎｯｶｲﾄﾞｳ","cityKana":"ｷﾀﾐｼ","streetKana":"ﾎｸﾄﾁｮｳ","prefecture":"北海道","city":"北見市","street":"北斗町"},{"zipCode":"0900004","prefectureKana":"ﾎｯｶｲﾄﾞｳ","cityKana":"ｷﾀﾐｼ","streetKana":"ﾎｸﾖｳ","prefecture":"北海道","city":"北見市","street":"北陽"},{"zipCode":"0900824","prefectureKana":"ﾎｯｶｲﾄﾞｳ","cityKana":"ｷﾀﾐｼ","streetKana":"ﾎｯｺｳ","prefecture":"北海道","city":"北見市","street":"北光"},{"zipCode":"0900007","prefectureKana":"ﾎｯｶｲﾄﾞｳ","cityKana":"ｷﾀﾐｼ","streetKana":"ﾐｻﾄ","prefecture":"北海道","city":"北見市","street":"美里"},{"zipCode":"0900032","prefectureKana":"ﾎｯｶｲﾄﾞｳ","cityKana":"ｷﾀﾐｼ","streetKana":"ﾐｽﾐﾁｮｳ","prefecture":"北海道","city":"北見市","street":"三住町"},{"zipCode":"0900067","prefectureKana":"ﾎｯｶｲﾄﾞｳ","cityKana":"ｷﾀﾐｼ","streetKana":"ﾐﾄﾞﾘｶﾞｵｶ","prefecture":"北海道","city":"北見市","street":"緑ケ丘"},{"zipCode":"0900055","prefectureKana":"ﾎｯｶｲﾄﾞｳ","cityKana":"ｷﾀﾐｼ","streetKana":"ﾐﾄﾞﾘﾏﾁ","prefecture":"北海道","city":"北見市","street":"緑町"},{"zipCode":"0900812","prefectureKana":"ﾎｯｶｲﾄﾞｳ","cityKana":"ｷﾀﾐｼ","streetKana":"ﾐﾅﾐﾅｶﾏﾁ","prefecture":"北海道","city":"北見市","street":"南仲町"},{"zipCode":"0900806","prefectureKana":"ﾎｯｶｲﾄﾞｳ","cityKana":"ｷﾀﾐｼ","streetKana":"ﾐﾅﾐﾏﾁ","prefecture":"北海道","city":"北見市","street":"南町"},{"zipCode":"0900070","prefectureKana":"ﾎｯｶｲﾄﾞｳ","cityKana":"ｷﾀﾐｼ","streetKana":"ﾐﾔﾏﾁｮｳﾆｼ","prefecture":"北海道","city":"北見市","street":"美山町西"},{"zipCode":"0900069","prefectureKana":"ﾎｯｶｲﾄﾞｳ","cityKana":"ｷﾀﾐｼ","streetKana":"ﾐﾔﾏﾁｮｳﾋｶﾞｼ","prefecture":"北海道","city":"北見市","street":"美山町東"},{"zipCode":"0900068","prefectureKana":"ﾎｯｶｲﾄﾞｳ","cityKana":"ｷﾀﾐｼ","streetKana":"ﾐﾔﾏﾁｮｳﾐﾅﾐ","prefecture":"北海道","city":"北見市","street":"美山町南"},{"zipCode":"0900064","prefectureKana":"ﾎｯｶｲﾄﾞｳ","cityKana":"ｷﾀﾐｼ","streetKana":"ﾐﾖｼﾁｮｳ","prefecture":"北海道","city":"北見市","street":"美芳町"},{"zipCode":"0900825","prefectureKana":"ﾎｯｶｲﾄﾞｳ","cityKana":"ｷﾀﾐｼ","streetKana":"ﾑｶｶﾞﾜﾁｮｳ","prefecture":"北海道","city":"北見市","street":"無加川町"},{"zipCode":"0900818","prefectureKana":"ﾎｯｶｲﾄﾞｳ","cityKana":"ｷﾀﾐｼ","streetKana":"ﾓﾄﾏﾁ","prefecture":"北海道","city":"北見市","street":"本町"},{"zipCode":"0900037","prefectureKana":"ﾎｯｶｲﾄﾞｳ","cityKana":"ｷﾀﾐｼ","streetKana":"ﾔﾏｼﾀﾁｮｳ","prefecture":"北海道","city":"北見市","street":"山下町"},{"zipCode":"0900005","prefectureKana":"ﾎｯｶｲﾄﾞｳ","cityKana":"ｷﾀﾐｼ","streetKana":"ﾔﾏﾄ","prefecture":"北海道","city":"北見市","street":"大和"},{"zipCode":"0900057","prefectureKana":"ﾎｯｶｲﾄﾞｳ","cityKana":"ｷﾀﾐｼ","streetKana":"ﾜｶﾊﾞ","prefecture":"北海道","city":"北見市","street":"若葉"},{"zipCode":"0900808","prefectureKana":"ﾎｯｶｲﾄﾞｳ","cityKana":"ｷﾀﾐｼ","streetKana":"ﾜｶﾏﾂ","prefecture":"北海道","city":"北見市","street":"若松"}]