[{"zipCode":"0910029","prefectureKana":"ﾎｯｶｲﾄﾞｳ","cityKana":"ｷﾀﾐｼ","streetKana":"ﾙﾍﾞｼﾍﾞﾁｮｳｱｻﾋ1ｸ","prefecture":"北海道","city":"北見市","street":"留辺蘂町旭１区"},{"zipCode":"0910028","prefectureKana":"ﾎｯｶｲﾄﾞｳ","cityKana":"ｷﾀﾐｼ","streetKana":"ﾙﾍﾞｼﾍﾞﾁｮｳｱｻﾋ3ｸ","prefecture":"北海道","city":"北見市","street":"留辺蘂町旭３区"},{"zipCode":"0910025","prefectureKana":"ﾎｯｶｲﾄﾞｳ","cityKana":"ｷﾀﾐｼ","streetKana":"ﾙﾍﾞｼﾍﾞﾁｮｳｱｻﾋｷﾀ","prefecture":"北海道","city":"北見市","street":"留辺蘂町旭北"},{"zipCode":"0910026","prefectureKana":"ﾎｯｶｲﾄﾞｳ","cityKana":"ｷﾀﾐｼ","streetKana":"ﾙﾍﾞｼﾍﾞﾁｮｳｱｻﾋｺｳｴﾝ","prefecture":"北海道","city":"北見市","street":"留辺蘂町旭公園"},{"zipCode":"0910023","prefectureKana":"ﾎｯｶｲﾄﾞｳ","cityKana":"ｷﾀﾐｼ","streetKana":"ﾙﾍﾞｼﾍﾞﾁｮｳｱｻﾋﾁｭｳｵｳ","prefecture":"北海道","city":"北見市","street":"留辺蘂町旭中央"},{"zipCode":"0910027","prefectureKana":"ﾎｯｶｲﾄﾞｳ","cityKana":"ｷﾀﾐｼ","streetKana":"ﾙﾍﾞｼﾍﾞﾁｮｳｱｻﾋﾆｼ","prefecture":"北海道","city":"北見市","street":"留辺蘂町旭西"},{"zipCode":"0910022","prefectureKana":"ﾎｯｶｲﾄﾞｳ","cityKana":"ｷﾀﾐｼ","streetKana":"ﾙﾍﾞｼﾍﾞﾁｮｳｱｻﾋﾋｶﾞｼ","prefecture":"北海道","city":"北見市","street":"留辺蘂町旭東"},{"zipCode":"0910024","prefectureKana":"ﾎｯｶｲﾄﾞｳ","cityKana":"ｷﾀﾐｼ","streetKana":"ﾙﾍﾞｼﾍﾞﾁｮｳｱｻﾋﾐﾅﾐ","prefecture":"北海道","city":"北見市","street":"留辺蘂町旭南"},{"zipCode":"0910002","prefectureKana":"ﾎｯｶｲﾄﾞｳ","cityKana":"ｷﾀﾐｼ","streetKana":"ﾙﾍﾞｼﾍﾞﾁｮｳｱｽﾞﾏﾏﾁ","prefecture":"北海道","city":"北見市","street":"留辺蘂町東町"},{"zipCode":"0910011","prefectureKana":"ﾎｯｶｲﾄﾞｳ","cityKana":"ｷﾀﾐｼ","streetKana":"ﾙﾍﾞｼﾍﾞﾁｮｳｲｽﾞﾐ","prefecture":"北海道","city":"北見市","street":"留辺蘂町泉"},{"zipCode":"0910031","prefectureKana":"ﾎｯｶｲﾄﾞｳ","cityKana":"ｷﾀﾐｼ","streetKana":"ﾙﾍﾞｼﾍﾞﾁｮｳｵｵﾄﾐ","prefecture":"北海道","city":"北見市","street":"留辺蘂町大富"},{"zipCode":"0910170","prefectureKana":"ﾎｯｶｲﾄﾞｳ","cityKana":"ｷﾀﾐｼ","streetKana":"ﾙﾍﾞｼﾍﾞﾁｮｳｵﾝﾈﾕｵﾝｾﾝ","prefecture":"北海道","city":"北見市","street":"留辺蘂町温根湯温泉"},{"zipCode":"0910021","prefectureKana":"ﾎｯｶｲﾄﾞｳ","cityKana":"ｷﾀﾐｼ","streetKana":"ﾙﾍﾞｼﾍﾞﾁｮｳｶﾈﾊﾅ","prefecture":"北海道","city":"北見市","street":"留辺蘂町金華"},{"zipCode":"0910004","prefectureKana":"ﾎｯｶｲﾄﾞｳ","cityKana":"ｷﾀﾐｼ","streetKana":"ﾙﾍﾞｼﾍﾞﾁｮｳｶﾐﾏﾁ","prefecture":"北海道","city":"北見市","street":"留辺蘂町上町"},{"zipCode":"0910156","prefectureKana":"ﾎｯｶｲﾄﾞｳ","cityKana":"ｷﾀﾐｼ","streetKana":"ﾙﾍﾞｼﾍﾞﾁｮｳｶﾜｷﾀ","prefecture":"北海道","city":"北見市","street":"留辺蘂町川北"},{"zipCode":"0910161","prefectureKana":"ﾎｯｶｲﾄﾞｳ","cityKana":"ｷﾀﾐｼ","streetKana":"ﾙﾍﾞｼﾍﾞﾁｮｳｺｳﾜ","prefecture":"北海道","city":"北見市","street":"留辺蘂町厚和"},{"zipCode":"0910033","prefectureKana":"ﾎｯｶｲﾄﾞｳ","cityKana":"ｷﾀﾐｼ","streetKana":"ﾙﾍﾞｼﾍﾞﾁｮｳｻｶｴﾏﾁ","prefecture":"北海道","city":"北見市","street":"留辺蘂町栄町"},{"zipCode":"0910151","prefectureKana":"ﾎｯｶｲﾄﾞｳ","cityKana":"ｷﾀﾐｼ","streetKana":"ﾙﾍﾞｼﾍﾞﾁｮｳｼｮｳｴｲ","prefecture":"北海道","city":"北見市","street":"留辺蘂町昭栄"},{"zipCode":"0910163","prefectureKana":"ﾎｯｶｲﾄﾞｳ","cityKana":"ｷﾀﾐｼ","streetKana":"ﾙﾍﾞｼﾍﾞﾁｮｳﾀｷﾉﾕ","prefecture":"北海道","city":"北見市","street":"留辺蘂町滝の湯"},{"zipCode":"0910007","prefectureKana":"ﾎｯｶｲﾄﾞｳ","cityKana":"ｷﾀﾐｼ","streetKana":"ﾙﾍﾞｼﾍﾞﾁｮｳﾄﾐｵｶ","prefecture":"北海道","city":"北見市","street":"留辺蘂町富岡"},{"zipCode":"0910032","prefectureKana":"ﾎｯｶｲﾄﾞｳ","cityKana":"ｷﾀﾐｼ","streetKana":"ﾙﾍﾞｼﾍﾞﾁｮｳﾄﾖｶﾞﾈ","prefecture":"北海道","city":"北見市","street":"留辺蘂町豊金"},{"zipCode":"0910003","prefectureKana":"ﾎｯｶｲﾄﾞｳ","cityKana":"ｷﾀﾐｼ","streetKana":"ﾙﾍﾞｼﾍﾞﾁｮｳﾅｶﾏﾁ","prefecture":"北海道","city":"北見市","street":"留辺蘂町仲町"},{"zipCode":"0910157","prefectureKana":"ﾎｯｶｲﾄﾞｳ","cityKana":"ｷﾀﾐｼ","streetKana":"ﾙﾍﾞｼﾍﾞﾁｮｳﾊﾅｵｶ","prefecture":"北海道","city":"北見市","street":"留辺蘂町花丘"},{"zipCode":"0910018","prefectureKana":"ﾎｯｶｲﾄﾞｳ","cityKana":"ｷﾀﾐｼ","streetKana":"ﾙﾍﾞｼﾍﾞﾁｮｳﾊﾅｿﾞﾉ","prefecture":"北海道","city":"北見市","street":"留辺蘂町花園"},{"zipCode":"0910154","prefectureKana":"ﾎｯｶｲﾄﾞｳ","cityKana":"ｷﾀﾐｼ","streetKana":"ﾙﾍﾞｼﾍﾞﾁｮｳﾋﾗｻﾄ","prefecture":"北海道","city":"北見市","street":"留辺蘂町平里"},{"zipCode":"0910162","prefectureKana":"ﾎｯｶｲﾄﾞｳ","cityKana":"ｷﾀﾐｼ","streetKana":"ﾙﾍﾞｼﾍﾞﾁｮｳﾌｼﾞﾐ","prefecture":"北海道","city":"北見市","street":"留辺蘂町富士見"},{"zipCode":"0910153","prefectureKana":"ﾎｯｶｲﾄﾞｳ","cityKana":"ｷﾀﾐｼ","streetKana":"ﾙﾍﾞｼﾍﾞﾁｮｳﾏﾂﾔﾏ","prefecture":"北海道","city":"北見市","street":"留辺蘂町松山"},{"zipCode":"0910016","prefectureKana":"ﾎｯｶｲﾄﾞｳ","cityKana":"ｷﾀﾐｼ","streetKana":"ﾙﾍﾞｼﾍﾞﾁｮｳﾏﾙﾔﾏ","prefecture":"北海道","city":"北見市","street":"留辺蘂町丸山"},{"zipCode":"0910017","prefectureKana":"ﾎｯｶｲﾄﾞｳ","cityKana":"ｷﾀﾐｼ","streetKana":"ﾙﾍﾞｼﾍﾞﾁｮｳﾐｽﾞﾎ","prefecture":"北海道","city":"北見市","street":"留辺蘂町瑞穂"},{"zipCode":"0910008","prefectureKana":"ﾎｯｶｲﾄﾞｳ","cityKana":"ｷﾀﾐｼ","streetKana":"ﾙﾍﾞｼﾍﾞﾁｮｳﾐﾔｼﾀﾁｮｳ","prefecture":"北海道","city":"北見市","street":"留辺蘂町宮下町"},{"zipCode":"0910001","prefectureKana":"ﾎｯｶｲﾄﾞｳ","cityKana":"ｷﾀﾐｼ","streetKana":"ﾙﾍﾞｼﾍﾞﾁｮｳﾓﾄﾏﾁ","prefecture":"北海道","city":"北見市","street":"留辺蘂町元町"},{"zipCode":"0910155","prefectureKana":"ﾎｯｶｲﾄﾞｳ","cityKana":"ｷﾀﾐｼ","streetKana":"ﾙﾍﾞｼﾍﾞﾁｮｳﾔﾏﾄ","prefecture":"北海道","city":"北見市","street":"留辺蘂町大和"},{"zipCode":"0910553","prefectureKana":"ﾎｯｶｲﾄﾞｳ","cityKana":"ﾄｺﾛｸﾞﾝｻﾛﾏﾁｮｳ","streetKana":"ｱｻﾋ","prefecture":"北海道","city":"常呂郡佐呂間町","street":"朝日"},{"zipCode":"0910557","prefectureKana":"ﾎｯｶｲﾄﾞｳ","cityKana":"ﾄｺﾛｸﾞﾝｻﾛﾏﾁｮｳ","streetKana":"ｶﾜﾆｼ","prefecture":"北海道","city":"常呂郡佐呂間町","street":"川西"},{"zipCode":"0910473","prefectureKana":"ﾎｯｶｲﾄﾞｳ","cityKana":"ﾄｺﾛｸﾞﾝｻﾛﾏﾁｮｳ","streetKana":"ｷｮｳﾘﾂ","prefecture":"北海道","city":"常呂郡佐呂間町","street":"共立"},{"zipCode":"0910556","prefectureKana":"ﾎｯｶｲﾄﾞｳ","cityKana":"ﾄｺﾛｸﾞﾝｻﾛﾏﾁｮｳ","streetKana":"ｹｲｾｲ","prefecture":"北海道","city":"常呂郡佐呂間町","street":"啓生"},{"zipCode":"0910472","prefectureKana":"ﾎｯｶｲﾄﾞｳ","cityKana":"ﾄｺﾛｸﾞﾝｻﾛﾏﾁｮｳ","streetKana":"ｻｶｴ","prefecture":"北海道","city":"常呂郡佐呂間町","street":"栄"},{"zipCode":"0910471","prefectureKana":"ﾎｯｶｲﾄﾞｳ","cityKana":"ﾄｺﾛｸﾞﾝｻﾛﾏﾁｮｳ","streetKana":"ﾀｲｾｲ","prefecture":"北海道","city":"常呂郡佐呂間町","street":"大成"},{"zipCode":"0910558","prefectureKana":"ﾎｯｶｲﾄﾞｳ","cityKana":"ﾄｺﾛｸﾞﾝｻﾛﾏﾁｮｳ","streetKana":"ﾄﾁｷﾞ","prefecture":"北海道","city":"常呂郡佐呂間町","street":"栃木"},{"zipCode":"0910552","prefectureKana":"ﾎｯｶｲﾄﾞｳ","cityKana":"ﾄｺﾛｸﾞﾝｻﾛﾏﾁｮｳ","streetKana":"ﾄﾐｵｶ","prefecture":"北海道","city":"常呂郡佐呂間町","street":"富丘"},{"zipCode":"0910555","prefectureKana":"ﾎｯｶｲﾄﾞｳ","cityKana":"ﾄｺﾛｸﾞﾝｻﾛﾏﾁｮｳ","streetKana":"ﾅｶｿﾞﾉ","prefecture":"北海道","city":"常呂郡佐呂間町","street":"中園"},{"zipCode":"0910554","prefectureKana":"ﾎｯｶｲﾄﾞｳ","cityKana":"ﾄｺﾛｸﾞﾝｻﾛﾏﾁｮｳ","streetKana":"ﾌﾞｼ","prefecture":"北海道","city":"常呂郡佐呂間町","street":"武士"},{"zipCode":"0910551","prefectureKana":"ﾎｯｶｲﾄﾞｳ","cityKana":"ﾄｺﾛｸﾞﾝｻﾛﾏﾁｮｳ","streetKana":"ﾜｶｻ","prefecture":"北海道","city":"常呂郡佐呂間町","street":"若佐"}]