[{"zipCode":"0920000","prefectureKana":"ﾎｯｶｲﾄﾞｳ","cityKana":"ｱﾊﾞｼﾘｸﾞﾝﾋﾞﾎﾛﾁｮｳ","streetKana":"ｲｶﾆｹｲｻｲｶﾞﾅｲﾊﾞｱｲ","prefecture":"北海道","city":"網走郡美幌町","street":"以下に掲載がない場合"},{"zipCode":"0920064","prefectureKana":"ﾎｯｶｲﾄﾞｳ","cityKana":"ｱﾊﾞｼﾘｸﾞﾝﾋﾞﾎﾛﾁｮｳ","streetKana":"ｱｵﾊﾞ","prefecture":"北海道","city":"網走郡美幌町","street":"青葉"},{"zipCode":"0920065","prefectureKana":"ﾎｯｶｲﾄﾞｳ","cityKana":"ｱﾊﾞｼﾘｸﾞﾝﾋﾞﾎﾛﾁｮｳ","streetKana":"ｱｵﾔﾏﾐﾅﾐ","prefecture":"北海道","city":"網走郡美幌町","street":"青山南"},{"zipCode":"0920066","prefectureKana":"ﾎｯｶｲﾄﾞｳ","cityKana":"ｱﾊﾞｼﾘｸﾞﾝﾋﾞﾎﾛﾁｮｳ","streetKana":"ｱｵﾔﾏｷﾀ","prefecture":"北海道","city":"網走郡美幌町","street":"青山北"},{"zipCode":"0920006","prefectureKana":"ﾎｯｶｲﾄﾞｳ","cityKana":"ｱﾊﾞｼﾘｸﾞﾝﾋﾞﾎﾛﾁｮｳ","streetKana":"ｱｷﾉ","prefecture":"北海道","city":"網走郡美幌町","street":"昭野"},{"zipCode":"0920027","prefectureKana":"ﾎｯｶｲﾄﾞｳ","cityKana":"ｱﾊﾞｼﾘｸﾞﾝﾋﾞﾎﾛﾁｮｳ","streetKana":"ｲﾅﾐ","prefecture":"北海道","city":"網走郡美幌町","street":"稲美"},{"zipCode":"0920031","prefectureKana":"ﾎｯｶｲﾄﾞｳ","cityKana":"ｱﾊﾞｼﾘｸﾞﾝﾋﾞﾎﾛﾁｮｳ","streetKana":"ｵｵﾄﾞｵﾘﾐﾅﾐ","prefecture":"北海道","city":"網走郡美幌町","street":"大通南"},{"zipCode":"0920050","prefectureKana":"ﾎｯｶｲﾄﾞｳ","cityKana":"ｱﾊﾞｼﾘｸﾞﾝﾋﾞﾎﾛﾁｮｳ","streetKana":"ｵｵﾄﾞｵﾘｷﾀ","prefecture":"北海道","city":"網走郡美幌町","street":"大通北"},{"zipCode":"0920181","prefectureKana":"ﾎｯｶｲﾄﾞｳ","cityKana":"ｱﾊﾞｼﾘｸﾞﾝﾋﾞﾎﾛﾁｮｳ","streetKana":"ｶﾐﾏﾁ","prefecture":"北海道","city":"網走郡美幌町","street":"上町"},{"zipCode":"0920175","prefectureKana":"ﾎｯｶｲﾄﾞｳ","cityKana":"ｱﾊﾞｼﾘｸﾞﾝﾋﾞﾎﾛﾁｮｳ","streetKana":"ｺﾏｵｲ(268ﾊﾞﾝﾁ)","prefecture":"北海道","city":"網走郡美幌町","street":"駒生（２６８番地）"},{"zipCode":"0920025","prefectureKana":"ﾎｯｶｲﾄﾞｳ","cityKana":"ｱﾊﾞｼﾘｸﾞﾝﾋﾞﾎﾛﾁｮｳ","streetKana":"ｺﾏｵｲ(ｿﾉﾀ)","prefecture":"北海道","city":"網走郡美幌町","street":"駒生（その他）"},{"zipCode":"0920012","prefectureKana":"ﾎｯｶｲﾄﾞｳ","cityKana":"ｱﾊﾞｼﾘｸﾞﾝﾋﾞﾎﾛﾁｮｳ","streetKana":"ｻｶｴﾏﾁ","prefecture":"北海道","city":"網走郡美幌町","street":"栄町"},{"zipCode":"0920174","prefectureKana":"ﾎｯｶｲﾄﾞｳ","cityKana":"ｱﾊﾞｼﾘｸﾞﾝﾋﾞﾎﾛﾁｮｳ","streetKana":"ｻｶｴﾓﾘ","prefecture":"北海道","city":"網走郡美幌町","street":"栄森"},{"zipCode":"0920015","prefectureKana":"ﾎｯｶｲﾄﾞｳ","cityKana":"ｱﾊﾞｼﾘｸﾞﾝﾋﾞﾎﾛﾁｮｳ","streetKana":"ｼﾝﾏﾁ","prefecture":"北海道","city":"網走郡美幌町","street":"新町"},{"zipCode":"0920001","prefectureKana":"ﾎｯｶｲﾄﾞｳ","cityKana":"ｱﾊﾞｼﾘｸﾞﾝﾋﾞﾎﾛﾁｮｳ","streetKana":"ﾀｶﾉ","prefecture":"北海道","city":"網走郡美幌町","street":"高野"},{"zipCode":"0920018","prefectureKana":"ﾎｯｶｲﾄﾞｳ","cityKana":"ｱﾊﾞｼﾘｸﾞﾝﾋﾞﾎﾛﾁｮｳ","streetKana":"ﾀﾅｶ","prefecture":"北海道","city":"網走郡美幌町","street":"田中"},{"zipCode":"0920184","prefectureKana":"ﾎｯｶｲﾄﾞｳ","cityKana":"ｱﾊﾞｼﾘｸﾞﾝﾋﾞﾎﾛﾁｮｳ","streetKana":"ﾄｲｴ","prefecture":"北海道","city":"網走郡美幌町","street":"登栄"},{"zipCode":"0920007","prefectureKana":"ﾎｯｶｲﾄﾞｳ","cityKana":"ｱﾊﾞｼﾘｸﾞﾝﾋﾞﾎﾛﾁｮｳ","streetKana":"ﾄﾖｵｶ","prefecture":"北海道","city":"網走郡美幌町","street":"豊岡"},{"zipCode":"0920023","prefectureKana":"ﾎｯｶｲﾄﾞｳ","cityKana":"ｱﾊﾞｼﾘｸﾞﾝﾋﾞﾎﾛﾁｮｳ","streetKana":"ﾄﾖﾄﾐ","prefecture":"北海道","city":"網走郡美幌町","street":"豊富"},{"zipCode":"0920183","prefectureKana":"ﾎｯｶｲﾄﾞｳ","cityKana":"ｱﾊﾞｼﾘｸﾞﾝﾋﾞﾎﾛﾁｮｳ","streetKana":"ﾄﾖﾎﾛ","prefecture":"北海道","city":"網走郡美幌町","street":"豊幌"},{"zipCode":"0920003","prefectureKana":"ﾎｯｶｲﾄﾞｳ","cityKana":"ｱﾊﾞｼﾘｸﾞﾝﾋﾞﾎﾛﾁｮｳ","streetKana":"ﾄﾘｻﾄ","prefecture":"北海道","city":"網走郡美幌町","street":"鳥里"},{"zipCode":"0920004","prefectureKana":"ﾎｯｶｲﾄﾞｳ","cityKana":"ｱﾊﾞｼﾘｸﾞﾝﾋﾞﾎﾛﾁｮｳ","streetKana":"ﾅｶﾏﾁ","prefecture":"北海道","city":"網走郡美幌町","street":"仲町"},{"zipCode":"0920032","prefectureKana":"ﾎｯｶｲﾄﾞｳ","cityKana":"ｱﾊﾞｼﾘｸﾞﾝﾋﾞﾎﾛﾁｮｳ","streetKana":"ﾆｼ1ｼﾞｮｳﾐﾅﾐ","prefecture":"北海道","city":"網走郡美幌町","street":"西一条南"},{"zipCode":"0920061","prefectureKana":"ﾎｯｶｲﾄﾞｳ","cityKana":"ｱﾊﾞｼﾘｸﾞﾝﾋﾞﾎﾛﾁｮｳ","streetKana":"ﾆｼ1ｼﾞｮｳｷﾀ","prefecture":"北海道","city":"網走郡美幌町","street":"西一条北"},{"zipCode":"0920033","prefectureKana":"ﾎｯｶｲﾄﾞｳ","cityKana":"ｱﾊﾞｼﾘｸﾞﾝﾋﾞﾎﾛﾁｮｳ","streetKana":"ﾆｼ2ｼﾞｮｳﾐﾅﾐ","prefecture":"北海道","city":"網走郡美幌町","street":"西二条南"},{"zipCode":"0920062","prefectureKana":"ﾎｯｶｲﾄﾞｳ","cityKana":"ｱﾊﾞｼﾘｸﾞﾝﾋﾞﾎﾛﾁｮｳ","streetKana":"ﾆｼ2ｼﾞｮｳｷﾀ","prefecture":"北海道","city":"網走郡美幌町","street":"西二条北"},{"zipCode":"0920176","prefectureKana":"ﾎｯｶｲﾄﾞｳ","cityKana":"ｱﾊﾞｼﾘｸﾞﾝﾋﾞﾎﾛﾁｮｳ","streetKana":"ﾉｻﾞｷ(103､122ﾊﾞﾝﾁ)","prefecture":"北海道","city":"網走郡美幌町","street":"野崎（１０３、１２２番地）"},{"zipCode":"0920005","prefectureKana":"ﾎｯｶｲﾄﾞｳ","cityKana":"ｱﾊﾞｼﾘｸﾞﾝﾋﾞﾎﾛﾁｮｳ","streetKana":"ﾉｻﾞｷ(ｿﾉﾀ)","prefecture":"北海道","city":"網走郡美幌町","street":"野崎（その他）"},{"zipCode":"0920011","prefectureKana":"ﾎｯｶｲﾄﾞｳ","cityKana":"ｱﾊﾞｼﾘｸﾞﾝﾋﾞﾎﾛﾁｮｳ","streetKana":"ﾋｶﾞｼﾏﾁ","prefecture":"北海道","city":"網走郡美幌町","street":"東町"},{"zipCode":"0920041","prefectureKana":"ﾎｯｶｲﾄﾞｳ","cityKana":"ｱﾊﾞｼﾘｸﾞﾝﾋﾞﾎﾛﾁｮｳ","streetKana":"ﾋｶﾞｼ1ｼﾞｮｳﾐﾅﾐ","prefecture":"北海道","city":"網走郡美幌町","street":"東一条南"},{"zipCode":"0920051","prefectureKana":"ﾎｯｶｲﾄﾞｳ","cityKana":"ｱﾊﾞｼﾘｸﾞﾝﾋﾞﾎﾛﾁｮｳ","streetKana":"ﾋｶﾞｼ1ｼﾞｮｳｷﾀ","prefecture":"北海道","city":"網走郡美幌町","street":"東一条北"},{"zipCode":"0920042","prefectureKana":"ﾎｯｶｲﾄﾞｳ","cityKana":"ｱﾊﾞｼﾘｸﾞﾝﾋﾞﾎﾛﾁｮｳ","streetKana":"ﾋｶﾞｼ2ｼﾞｮｳﾐﾅﾐ","prefecture":"北海道","city":"網走郡美幌町","street":"東二条南"},{"zipCode":"0920052","prefectureKana":"ﾎｯｶｲﾄﾞｳ","cityKana":"ｱﾊﾞｼﾘｸﾞﾝﾋﾞﾎﾛﾁｮｳ","streetKana":"ﾋｶﾞｼ2ｼﾞｮｳｷﾀ","prefecture":"北海道","city":"網走郡美幌町","street":"東二条北"},{"zipCode":"0920043","prefectureKana":"ﾎｯｶｲﾄﾞｳ","cityKana":"ｱﾊﾞｼﾘｸﾞﾝﾋﾞﾎﾛﾁｮｳ","streetKana":"ﾋｶﾞｼ3ｼﾞｮｳﾐﾅﾐ","prefecture":"北海道","city":"網走郡美幌町","street":"東三条南"},{"zipCode":"0920053","prefectureKana":"ﾎｯｶｲﾄﾞｳ","cityKana":"ｱﾊﾞｼﾘｸﾞﾝﾋﾞﾎﾛﾁｮｳ","streetKana":"ﾋｶﾞｼ3ｼﾞｮｳｷﾀ","prefecture":"北海道","city":"網走郡美幌町","street":"東三条北"},{"zipCode":"0920044","prefectureKana":"ﾎｯｶｲﾄﾞｳ","cityKana":"ｱﾊﾞｼﾘｸﾞﾝﾋﾞﾎﾛﾁｮｳ","streetKana":"ﾋｶﾞｼ4ｼﾞｮｳﾐﾅﾐ","prefecture":"北海道","city":"網走郡美幌町","street":"東四条南"},{"zipCode":"0920021","prefectureKana":"ﾎｯｶｲﾄﾞｳ","cityKana":"ｱﾊﾞｼﾘｸﾞﾝﾋﾞﾎﾛﾁｮｳ","streetKana":"ﾋﾅﾐ","prefecture":"北海道","city":"網走郡美幌町","street":"日並"},{"zipCode":"0920069","prefectureKana":"ﾎｯｶｲﾄﾞｳ","cityKana":"ｱﾊﾞｼﾘｸﾞﾝﾋﾞﾎﾛﾁｮｳ","streetKana":"ﾋﾉﾃﾞ","prefecture":"北海道","city":"網走郡美幌町","street":"日の出"},{"zipCode":"0920173","prefectureKana":"ﾎｯｶｲﾄﾞｳ","cityKana":"ｱﾊﾞｼﾘｸﾞﾝﾋﾞﾎﾛﾁｮｳ","streetKana":"ﾋﾞﾜ","prefecture":"北海道","city":"網走郡美幌町","street":"美和"},{"zipCode":"0920024","prefectureKana":"ﾎｯｶｲﾄﾞｳ","cityKana":"ｱﾊﾞｼﾘｸﾞﾝﾋﾞﾎﾛﾁｮｳ","streetKana":"ﾌｸｽﾞﾐ","prefecture":"北海道","city":"網走郡美幌町","street":"福住"},{"zipCode":"0920022","prefectureKana":"ﾎｯｶｲﾄﾞｳ","cityKana":"ｱﾊﾞｼﾘｸﾞﾝﾋﾞﾎﾛﾁｮｳ","streetKana":"ﾌﾙｳﾒ","prefecture":"北海道","city":"網走郡美幌町","street":"古梅"},{"zipCode":"0920017","prefectureKana":"ﾎｯｶｲﾄﾞｳ","cityKana":"ｱﾊﾞｼﾘｸﾞﾝﾋﾞﾎﾛﾁｮｳ","streetKana":"ﾎｳﾄｸ","prefecture":"北海道","city":"網走郡美幌町","street":"報徳"},{"zipCode":"0920014","prefectureKana":"ﾎｯｶｲﾄﾞｳ","cityKana":"ｱﾊﾞｼﾘｸﾞﾝﾋﾞﾎﾛﾁｮｳ","streetKana":"ﾐｻﾄ","prefecture":"北海道","city":"網走郡美幌町","street":"美里"},{"zipCode":"0920016","prefectureKana":"ﾎｯｶｲﾄﾞｳ","cityKana":"ｱﾊﾞｼﾘｸﾞﾝﾋﾞﾎﾛﾁｮｳ","streetKana":"ﾐｽﾞﾊﾙ","prefecture":"北海道","city":"網走郡美幌町","street":"瑞治"},{"zipCode":"0920067","prefectureKana":"ﾎｯｶｲﾄﾞｳ","cityKana":"ｱﾊﾞｼﾘｸﾞﾝﾋﾞﾎﾛﾁｮｳ","streetKana":"ﾐﾂﾊｼﾐﾅﾐ","prefecture":"北海道","city":"網走郡美幌町","street":"三橋南"},{"zipCode":"0920068","prefectureKana":"ﾎｯｶｲﾄﾞｳ","cityKana":"ｱﾊﾞｼﾘｸﾞﾝﾋﾞﾎﾛﾁｮｳ","streetKana":"ﾐﾂﾊｼﾁｮｳ","prefecture":"北海道","city":"網走郡美幌町","street":"三橋町"},{"zipCode":"0920171","prefectureKana":"ﾎｯｶｲﾄﾞｳ","cityKana":"ｱﾊﾞｼﾘｸﾞﾝﾋﾞﾎﾛﾁｮｳ","streetKana":"ﾐﾄﾐ(127-151､183-579ﾊﾞﾝﾁ)","prefecture":"北海道","city":"網走郡美幌町","street":"美富（１２７～１５１、１８３～５７９番地）"},{"zipCode":"0920030","prefectureKana":"ﾎｯｶｲﾄﾞｳ","cityKana":"ｱﾊﾞｼﾘｸﾞﾝﾋﾞﾎﾛﾁｮｳ","streetKana":"ﾐﾄﾐ(ｿﾉﾀ)","prefecture":"北海道","city":"網走郡美幌町","street":"美富（その他）"},{"zipCode":"0920002","prefectureKana":"ﾎｯｶｲﾄﾞｳ","cityKana":"ｱﾊﾞｼﾘｸﾞﾝﾋﾞﾎﾛﾁｮｳ","streetKana":"ﾐﾄﾞﾘ","prefecture":"北海道","city":"網走郡美幌町","street":"美禽"},{"zipCode":"0920026","prefectureKana":"ﾎｯｶｲﾄﾞｳ","cityKana":"ｱﾊﾞｼﾘｸﾞﾝﾋﾞﾎﾛﾁｮｳ","streetKana":"ﾐﾔｺﾊﾞｼ","prefecture":"北海道","city":"網走郡美幌町","street":"都橋"},{"zipCode":"0920013","prefectureKana":"ﾎｯｶｲﾄﾞｳ","cityKana":"ｱﾊﾞｼﾘｸﾞﾝﾋﾞﾎﾛﾁｮｳ","streetKana":"ﾐﾖｼ","prefecture":"北海道","city":"網走郡美幌町","street":"美芳"},{"zipCode":"0920063","prefectureKana":"ﾎｯｶｲﾄﾞｳ","cityKana":"ｱﾊﾞｼﾘｸﾞﾝﾋﾞﾎﾛﾁｮｳ","streetKana":"ﾓﾄﾏﾁ","prefecture":"北海道","city":"網走郡美幌町","street":"元町"},{"zipCode":"0920200","prefectureKana":"ﾎｯｶｲﾄﾞｳ","cityKana":"ｱﾊﾞｼﾘｸﾞﾝﾂﾍﾞﾂﾁｮｳ","streetKana":"ｲｶﾆｹｲｻｲｶﾞﾅｲﾊﾞｱｲ","prefecture":"北海道","city":"網走郡津別町","street":"以下に掲載がない場合"},{"zipCode":"0920361","prefectureKana":"ﾎｯｶｲﾄﾞｳ","cityKana":"ｱﾊﾞｼﾘｸﾞﾝﾂﾍﾞﾂﾁｮｳ","streetKana":"ｱｲｵｲ","prefecture":"北海道","city":"網走郡津別町","street":"相生"},{"zipCode":"0920234","prefectureKana":"ﾎｯｶｲﾄﾞｳ","cityKana":"ｱﾊﾞｼﾘｸﾞﾝﾂﾍﾞﾂﾁｮｳ","streetKana":"ｱｻﾋﾏﾁ","prefecture":"北海道","city":"網走郡津別町","street":"旭町"},{"zipCode":"0920205","prefectureKana":"ﾎｯｶｲﾄﾞｳ","cityKana":"ｱﾊﾞｼﾘｸﾞﾝﾂﾍﾞﾂﾁｮｳ","streetKana":"ｲﾜﾄﾐ","prefecture":"北海道","city":"網走郡津別町","street":"岩富"},{"zipCode":"0920231","prefectureKana":"ﾎｯｶｲﾄﾞｳ","cityKana":"ｱﾊﾞｼﾘｸﾞﾝﾂﾍﾞﾂﾁｮｳ","streetKana":"ｵｵﾄﾞｵﾘ","prefecture":"北海道","city":"網走郡津別町","street":"大通"},{"zipCode":"0920355","prefectureKana":"ﾎｯｶｲﾄﾞｳ","cityKana":"ｱﾊﾞｼﾘｸﾞﾝﾂﾍﾞﾂﾁｮｳ","streetKana":"ｵﾝﾈ","prefecture":"北海道","city":"網走郡津別町","street":"恩根"},{"zipCode":"0920233","prefectureKana":"ﾎｯｶｲﾄﾞｳ","cityKana":"ｱﾊﾞｼﾘｸﾞﾝﾂﾍﾞﾂﾁｮｳ","streetKana":"ｶｼﾜﾏﾁ","prefecture":"北海道","city":"網走郡津別町","street":"柏町"},{"zipCode":"0920206","prefectureKana":"ﾎｯｶｲﾄﾞｳ","cityKana":"ｱﾊﾞｼﾘｸﾞﾝﾂﾍﾞﾂﾁｮｳ","streetKana":"ｶﾂｸﾐ","prefecture":"北海道","city":"網走郡津別町","street":"活汲"},{"zipCode":"0920222","prefectureKana":"ﾎｯｶｲﾄﾞｳ","cityKana":"ｱﾊﾞｼﾘｸﾞﾝﾂﾍﾞﾂﾁｮｳ","streetKana":"ｶﾐｻﾄ","prefecture":"北海道","city":"網走郡津別町","street":"上里"},{"zipCode":"0920352","prefectureKana":"ﾎｯｶｲﾄﾞｳ","cityKana":"ｱﾊﾞｼﾘｸﾞﾝﾂﾍﾞﾂﾁｮｳ","streetKana":"ｷﾄｲ","prefecture":"北海道","city":"網走郡津別町","street":"木樋"},{"zipCode":"0920225","prefectureKana":"ﾎｯｶｲﾄﾞｳ","cityKana":"ｱﾊﾞｼﾘｸﾞﾝﾂﾍﾞﾂﾁｮｳ","streetKana":"ｷｮｳﾜ","prefecture":"北海道","city":"網走郡津別町","street":"共和"},{"zipCode":"0920235","prefectureKana":"ﾎｯｶｲﾄﾞｳ","cityKana":"ｱﾊﾞｼﾘｸﾞﾝﾂﾍﾞﾂﾁｮｳ","streetKana":"ｻｲﾜｲﾏﾁ","prefecture":"北海道","city":"網走郡津別町","street":"幸町"},{"zipCode":"0920356","prefectureKana":"ﾎｯｶｲﾄﾞｳ","cityKana":"ｱﾊﾞｼﾘｸﾞﾝﾂﾍﾞﾂﾁｮｳ","streetKana":"ｻｶｴ","prefecture":"北海道","city":"網走郡津別町","street":"栄"},{"zipCode":"0920232","prefectureKana":"ﾎｯｶｲﾄﾞｳ","cityKana":"ｱﾊﾞｼﾘｸﾞﾝﾂﾍﾞﾂﾁｮｳ","streetKana":"ｼﾝﾏﾁ","prefecture":"北海道","city":"網走郡津別町","street":"新町"},{"zipCode":"0920357","prefectureKana":"ﾎｯｶｲﾄﾞｳ","cityKana":"ｱﾊﾞｼﾘｸﾞﾝﾂﾍﾞﾂﾁｮｳ","streetKana":"ﾀｲｼｮｳ","prefecture":"北海道","city":"網走郡津別町","street":"大昭"},{"zipCode":"0920221","prefectureKana":"ﾎｯｶｲﾄﾞｳ","cityKana":"ｱﾊﾞｼﾘｸﾞﾝﾂﾍﾞﾂﾁｮｳ","streetKana":"ﾀｶﾀﾞｲ","prefecture":"北海道","city":"網走郡津別町","street":"高台"},{"zipCode":"0920203","prefectureKana":"ﾎｯｶｲﾄﾞｳ","cityKana":"ｱﾊﾞｼﾘｸﾞﾝﾂﾍﾞﾂﾁｮｳ","streetKana":"ﾀﾂﾐ","prefecture":"北海道","city":"網走郡津別町","street":"達美"},{"zipCode":"0920224","prefectureKana":"ﾎｯｶｲﾄﾞｳ","cityKana":"ｱﾊﾞｼﾘｸﾞﾝﾂﾍﾞﾂﾁｮｳ","streetKana":"ﾄﾖﾅｶﾞ","prefecture":"北海道","city":"網走郡津別町","street":"豊永"},{"zipCode":"0920214","prefectureKana":"ﾎｯｶｲﾄﾞｳ","cityKana":"ｱﾊﾞｼﾘｸﾞﾝﾂﾍﾞﾂﾁｮｳ","streetKana":"ﾆｼ2ｼﾞｮｳ","prefecture":"北海道","city":"網走郡津別町","street":"西二条"},{"zipCode":"0920211","prefectureKana":"ﾎｯｶｲﾄﾞｳ","cityKana":"ｱﾊﾞｼﾘｸﾞﾝﾂﾍﾞﾂﾁｮｳ","streetKana":"ﾆｼ3ｼﾞｮｳ","prefecture":"北海道","city":"網走郡津別町","street":"西三条"},{"zipCode":"0920213","prefectureKana":"ﾎｯｶｲﾄﾞｳ","cityKana":"ｱﾊﾞｼﾘｸﾞﾝﾂﾍﾞﾂﾁｮｳ","streetKana":"ﾆｼ4ｼﾞｮｳ","prefecture":"北海道","city":"網走郡津別町","street":"西四条"},{"zipCode":"0920362","prefectureKana":"ﾎｯｶｲﾄﾞｳ","cityKana":"ｱﾊﾞｼﾘｸﾞﾝﾂﾍﾞﾂﾁｮｳ","streetKana":"ﾇﾉｶﾜ","prefecture":"北海道","city":"網走郡津別町","street":"布川"},{"zipCode":"0920358","prefectureKana":"ﾎｯｶｲﾄﾞｳ","cityKana":"ｱﾊﾞｼﾘｸﾞﾝﾂﾍﾞﾂﾁｮｳ","streetKana":"ﾇﾏｻﾜ","prefecture":"北海道","city":"網走郡津別町","street":"沼沢"},{"zipCode":"0920207","prefectureKana":"ﾎｯｶｲﾄﾞｳ","cityKana":"ｱﾊﾞｼﾘｸﾞﾝﾂﾍﾞﾂﾁｮｳ","streetKana":"ﾋｶﾞｼｵｶ","prefecture":"北海道","city":"網走郡津別町","street":"東岡"},{"zipCode":"0920216","prefectureKana":"ﾎｯｶｲﾄﾞｳ","cityKana":"ｱﾊﾞｼﾘｸﾞﾝﾂﾍﾞﾂﾁｮｳ","streetKana":"ﾋｶﾞｼ2ｼﾞｮｳ","prefecture":"北海道","city":"網走郡津別町","street":"東二条"},{"zipCode":"0920217","prefectureKana":"ﾎｯｶｲﾄﾞｳ","cityKana":"ｱﾊﾞｼﾘｸﾞﾝﾂﾍﾞﾂﾁｮｳ","streetKana":"ﾋｶﾞｼ3ｼﾞｮｳ","prefecture":"北海道","city":"網走郡津別町","street":"東三条"},{"zipCode":"0920218","prefectureKana":"ﾎｯｶｲﾄﾞｳ","cityKana":"ｱﾊﾞｼﾘｸﾞﾝﾂﾍﾞﾂﾁｮｳ","streetKana":"ﾋｶﾞｼ4ｼﾞｮｳ","prefecture":"北海道","city":"網走郡津別町","street":"東四条"},{"zipCode":"0920354","prefectureKana":"ﾎｯｶｲﾄﾞｳ","cityKana":"ｱﾊﾞｼﾘｸﾞﾝﾂﾍﾞﾂﾁｮｳ","streetKana":"ﾌﾀﾊﾞ","prefecture":"北海道","city":"網走郡津別町","street":"双葉"},{"zipCode":"0920353","prefectureKana":"ﾎｯｶｲﾄﾞｳ","cityKana":"ｱﾊﾞｼﾘｸﾞﾝﾂﾍﾞﾂﾁｮｳ","streetKana":"ﾌﾀﾏﾀ","prefecture":"北海道","city":"網走郡津別町","street":"二又"},{"zipCode":"0920351","prefectureKana":"ﾎｯｶｲﾄﾞｳ","cityKana":"ｱﾊﾞｼﾘｸﾞﾝﾂﾍﾞﾂﾁｮｳ","streetKana":"ﾎﾝｷ","prefecture":"北海道","city":"網走郡津別町","street":"本岐"},{"zipCode":"0920236","prefectureKana":"ﾎｯｶｲﾄﾞｳ","cityKana":"ｱﾊﾞｼﾘｸﾞﾝﾂﾍﾞﾂﾁｮｳ","streetKana":"ﾎﾝﾁｮｳ","prefecture":"北海道","city":"網走郡津別町","street":"本町"},{"zipCode":"0920223","prefectureKana":"ﾎｯｶｲﾄﾞｳ","cityKana":"ｱﾊﾞｼﾘｸﾞﾝﾂﾍﾞﾂﾁｮｳ","streetKana":"ﾐﾄ","prefecture":"北海道","city":"網走郡津別町","street":"美都"},{"zipCode":"0920212","prefectureKana":"ﾎｯｶｲﾄﾞｳ","cityKana":"ｱﾊﾞｼﾘｸﾞﾝﾂﾍﾞﾂﾁｮｳ","streetKana":"ﾐﾄﾞﾘﾏﾁ","prefecture":"北海道","city":"網走郡津別町","street":"緑町"},{"zipCode":"0920201","prefectureKana":"ﾎｯｶｲﾄﾞｳ","cityKana":"ｱﾊﾞｼﾘｸﾞﾝﾂﾍﾞﾂﾁｮｳ","streetKana":"ﾓｶﾞﾐ","prefecture":"北海道","city":"網走郡津別町","street":"最上"},{"zipCode":"0920215","prefectureKana":"ﾎｯｶｲﾄﾞｳ","cityKana":"ｱﾊﾞｼﾘｸﾞﾝﾂﾍﾞﾂﾁｮｳ","streetKana":"1ｼﾞｮｳﾄﾞｵﾘ","prefecture":"北海道","city":"網走郡津別町","street":"一条通"}]