[{"zipCode":"0950000","prefectureKana":"ﾎｯｶｲﾄﾞｳ","cityKana":"ｼﾍﾞﾂｼ","streetKana":"ｲｶﾆｹｲｻｲｶﾞﾅｲﾊﾞｱｲ","prefecture":"北海道","city":"士別市","street":"以下に掲載がない場合"},{"zipCode":"0950403","prefectureKana":"ﾎｯｶｲﾄﾞｳ","cityKana":"ｼﾍﾞﾂｼ","streetKana":"ｱｻﾋﾁｮｳｲﾜｵﾅｲ","prefecture":"北海道","city":"士別市","street":"朝日町岩尾内"},{"zipCode":"0950405","prefectureKana":"ﾎｯｶｲﾄﾞｳ","cityKana":"ｼﾍﾞﾂｼ","streetKana":"ｱｻﾋﾁｮｳｻﾝｴｲ","prefecture":"北海道","city":"士別市","street":"朝日町三栄"},{"zipCode":"0950401","prefectureKana":"ﾎｯｶｲﾄﾞｳ","cityKana":"ｼﾍﾞﾂｼ","streetKana":"ｱｻﾋﾁｮｳﾁｭｳｵｳ","prefecture":"北海道","city":"士別市","street":"朝日町中央"},{"zipCode":"0950402","prefectureKana":"ﾎｯｶｲﾄﾞｳ","cityKana":"ｼﾍﾞﾂｼ","streetKana":"ｱｻﾋﾁｮｳﾄﾜﾘ","prefecture":"北海道","city":"士別市","street":"朝日町登和里"},{"zipCode":"0950406","prefectureKana":"ﾎｯｶｲﾄﾞｳ","cityKana":"ｼﾍﾞﾂｼ","streetKana":"ｱｻﾋﾁｮｳﾐﾅﾐｱｻﾋ","prefecture":"北海道","city":"士別市","street":"朝日町南朝日"},{"zipCode":"0950404","prefectureKana":"ﾎｯｶｲﾄﾞｳ","cityKana":"ｼﾍﾞﾂｼ","streetKana":"ｱｻﾋﾁｮｳﾓｼﾘ","prefecture":"北海道","city":"士別市","street":"朝日町茂志利"},{"zipCode":"0950019","prefectureKana":"ﾎｯｶｲﾄﾞｳ","cityKana":"ｼﾍﾞﾂｼ","streetKana":"ｵｵﾄﾞｵﾘﾋｶﾞｼ","prefecture":"北海道","city":"士別市","street":"大通東"},{"zipCode":"0950029","prefectureKana":"ﾎｯｶｲﾄﾞｳ","cityKana":"ｼﾍﾞﾂｼ","streetKana":"ｵｵﾄﾞｵﾘﾆｼ","prefecture":"北海道","city":"士別市","street":"大通西"},{"zipCode":"0950039","prefectureKana":"ﾎｯｶｲﾄﾞｳ","cityKana":"ｼﾍﾞﾂｼ","streetKana":"ｵｵﾄﾞｵﾘｷﾀ","prefecture":"北海道","city":"士別市","street":"大通北"},{"zipCode":"0950181","prefectureKana":"ﾎｯｶｲﾄﾞｳ","cityKana":"ｼﾍﾞﾂｼ","streetKana":"ｵﾝﾈﾍﾞﾂﾁｮｳ","prefecture":"北海道","city":"士別市","street":"温根別町"},{"zipCode":"0950182","prefectureKana":"ﾎｯｶｲﾄﾞｳ","cityKana":"ｼﾍﾞﾂｼ","streetKana":"ｵﾝﾈﾍﾞﾂﾁｮｳｲﾌﾞﾝ","prefecture":"北海道","city":"士別市","street":"温根別町伊文"},{"zipCode":"0950183","prefectureKana":"ﾎｯｶｲﾄﾞｳ","cityKana":"ｼﾍﾞﾂｼ","streetKana":"ｵﾝﾈﾍﾞﾂﾁｮｳｷﾀｼｽﾞｶﾜ","prefecture":"北海道","city":"士別市","street":"温根別町北静川"},{"zipCode":"0950052","prefectureKana":"ﾎｯｶｲﾄﾞｳ","cityKana":"ｼﾍﾞﾂｼ","streetKana":"ｶﾞｸﾃﾞﾝ","prefecture":"北海道","city":"士別市","street":"学田"},{"zipCode":"0950371","prefectureKana":"ﾎｯｶｲﾄﾞｳ","cityKana":"ｼﾍﾞﾂｼ","streetKana":"ｶﾐｼﾍﾞﾂﾁｮｳ","prefecture":"北海道","city":"士別市","street":"上士別町"},{"zipCode":"0950064","prefectureKana":"ﾎｯｶｲﾄﾞｳ","cityKana":"ｼﾍﾞﾂｼ","streetKana":"ｶﾜﾆｼﾁｮｳ","prefecture":"北海道","city":"士別市","street":"川西町"},{"zipCode":"0950051","prefectureKana":"ﾎｯｶｲﾄﾞｳ","cityKana":"ｼﾍﾞﾂｼ","streetKana":"ｷﾀﾏﾁ","prefecture":"北海道","city":"士別市","street":"北町"},{"zipCode":"0950061","prefectureKana":"ﾎｯｶｲﾄﾞｳ","cityKana":"ｼﾍﾞﾂｼ","streetKana":"ｼﾓｼﾍﾞﾂﾁｮｳ","prefecture":"北海道","city":"士別市","street":"下士別町"},{"zipCode":"0950053","prefectureKana":"ﾎｯｶｲﾄﾞｳ","cityKana":"ｼﾍﾞﾂｼ","streetKana":"ｼﾝｶﾞｸﾃﾞﾝ","prefecture":"北海道","city":"士別市","street":"新学田"},{"zipCode":"0950043","prefectureKana":"ﾎｯｶｲﾄﾞｳ","cityKana":"ｼﾍﾞﾂｼ","streetKana":"ﾂｸﾓﾁｮｳ","prefecture":"北海道","city":"士別市","street":"九十九町"},{"zipCode":"0950063","prefectureKana":"ﾎｯｶｲﾄﾞｳ","cityKana":"ｼﾍﾞﾂｼ","streetKana":"ﾅｶｼﾍﾞﾂﾁｮｳ","prefecture":"北海道","city":"士別市","street":"中士別町"},{"zipCode":"0950056","prefectureKana":"ﾎｯｶｲﾄﾞｳ","cityKana":"ｼﾍﾞﾂｼ","streetKana":"ﾆｼｼﾍﾞﾂﾁｮｳ","prefecture":"北海道","city":"士別市","street":"西士別町"},{"zipCode":"0950021","prefectureKana":"ﾎｯｶｲﾄﾞｳ","cityKana":"ｼﾍﾞﾂｼ","streetKana":"ﾆｼ1ｼﾞｮｳ","prefecture":"北海道","city":"士別市","street":"西一条"},{"zipCode":"0950022","prefectureKana":"ﾎｯｶｲﾄﾞｳ","cityKana":"ｼﾍﾞﾂｼ","streetKana":"ﾆｼ2ｼﾞｮｳ","prefecture":"北海道","city":"士別市","street":"西二条"},{"zipCode":"0950023","prefectureKana":"ﾎｯｶｲﾄﾞｳ","cityKana":"ｼﾍﾞﾂｼ","streetKana":"ﾆｼ3ｼﾞｮｳ","prefecture":"北海道","city":"士別市","street":"西三条"},{"zipCode":"0950024","prefectureKana":"ﾎｯｶｲﾄﾞｳ","cityKana":"ｼﾍﾞﾂｼ","streetKana":"ﾆｼ4ｼﾞｮｳ","prefecture":"北海道","city":"士別市","street":"西四条"},{"zipCode":"0950025","prefectureKana":"ﾎｯｶｲﾄﾞｳ","cityKana":"ｼﾍﾞﾂｼ","streetKana":"ﾆｼ5ｼﾞｮｳ","prefecture":"北海道","city":"士別市","street":"西五条"},{"zipCode":"0950031","prefectureKana":"ﾎｯｶｲﾄﾞｳ","cityKana":"ｼﾍﾞﾂｼ","streetKana":"ﾆｼ1ｼﾞｮｳｷﾀ","prefecture":"北海道","city":"士別市","street":"西一条北"},{"zipCode":"0950032","prefectureKana":"ﾎｯｶｲﾄﾞｳ","cityKana":"ｼﾍﾞﾂｼ","streetKana":"ﾆｼ2ｼﾞｮｳｷﾀ","prefecture":"北海道","city":"士別市","street":"西二条北"},{"zipCode":"0950033","prefectureKana":"ﾎｯｶｲﾄﾞｳ","cityKana":"ｼﾍﾞﾂｼ","streetKana":"ﾆｼ3ｼﾞｮｳｷﾀ","prefecture":"北海道","city":"士別市","street":"西三条北"},{"zipCode":"0950034","prefectureKana":"ﾎｯｶｲﾄﾞｳ","cityKana":"ｼﾍﾞﾂｼ","streetKana":"ﾆｼ4ｼﾞｮｳｷﾀ","prefecture":"北海道","city":"士別市","street":"西四条北"},{"zipCode":"0950035","prefectureKana":"ﾎｯｶｲﾄﾞｳ","cityKana":"ｼﾍﾞﾂｼ","streetKana":"ﾆｼ5ｼﾞｮｳｷﾀ","prefecture":"北海道","city":"士別市","street":"西五条北"},{"zipCode":"0950045","prefectureKana":"ﾎｯｶｲﾄﾞｳ","cityKana":"ｼﾍﾞﾂｼ","streetKana":"ﾋｶﾞｼｵｶ","prefecture":"北海道","city":"士別市","street":"東丘"},{"zipCode":"0950044","prefectureKana":"ﾎｯｶｲﾄﾞｳ","cityKana":"ｼﾍﾞﾂｼ","streetKana":"ﾋｶﾞｼﾔﾏﾁｮｳ","prefecture":"北海道","city":"士別市","street":"東山町"},{"zipCode":"0950011","prefectureKana":"ﾎｯｶｲﾄﾞｳ","cityKana":"ｼﾍﾞﾂｼ","streetKana":"ﾋｶﾞｼ1ｼﾞｮｳ","prefecture":"北海道","city":"士別市","street":"東一条"},{"zipCode":"0950012","prefectureKana":"ﾎｯｶｲﾄﾞｳ","cityKana":"ｼﾍﾞﾂｼ","streetKana":"ﾋｶﾞｼ2ｼﾞｮｳ","prefecture":"北海道","city":"士別市","street":"東二条"},{"zipCode":"0950013","prefectureKana":"ﾎｯｶｲﾄﾞｳ","cityKana":"ｼﾍﾞﾂｼ","streetKana":"ﾋｶﾞｼ3ｼﾞｮｳ","prefecture":"北海道","city":"士別市","street":"東三条"},{"zipCode":"0950014","prefectureKana":"ﾎｯｶｲﾄﾞｳ","cityKana":"ｼﾍﾞﾂｼ","streetKana":"ﾋｶﾞｼ4ｼﾞｮｳ","prefecture":"北海道","city":"士別市","street":"東四条"},{"zipCode":"0950015","prefectureKana":"ﾎｯｶｲﾄﾞｳ","cityKana":"ｼﾍﾞﾂｼ","streetKana":"ﾋｶﾞｼ5ｼﾞｮｳ","prefecture":"北海道","city":"士別市","street":"東五条"},{"zipCode":"0950016","prefectureKana":"ﾎｯｶｲﾄﾞｳ","cityKana":"ｼﾍﾞﾂｼ","streetKana":"ﾋｶﾞｼ6ｼﾞｮｳ","prefecture":"北海道","city":"士別市","street":"東六条"},{"zipCode":"0950017","prefectureKana":"ﾎｯｶｲﾄﾞｳ","cityKana":"ｼﾍﾞﾂｼ","streetKana":"ﾋｶﾞｼ7ｼﾞｮｳ","prefecture":"北海道","city":"士別市","street":"東七条"},{"zipCode":"0950018","prefectureKana":"ﾎｯｶｲﾄﾞｳ","cityKana":"ｼﾍﾞﾂｼ","streetKana":"ﾋｶﾞｼ8ｼﾞｮｳ","prefecture":"北海道","city":"士別市","street":"東八条"},{"zipCode":"0950041","prefectureKana":"ﾎｯｶｲﾄﾞｳ","cityKana":"ｼﾍﾞﾂｼ","streetKana":"ﾋｶﾞｼ9ｼﾞｮｳ","prefecture":"北海道","city":"士別市","street":"東九条"},{"zipCode":"0950042","prefectureKana":"ﾎｯｶｲﾄﾞｳ","cityKana":"ｼﾍﾞﾂｼ","streetKana":"ﾋｶﾞｼ10ｼﾞｮｳ","prefecture":"北海道","city":"士別市","street":"東十条"},{"zipCode":"0950048","prefectureKana":"ﾎｯｶｲﾄﾞｳ","cityKana":"ｼﾍﾞﾂｼ","streetKana":"ﾋｶﾞｼ11ｼﾞｮｳ","prefecture":"北海道","city":"士別市","street":"東十一条"},{"zipCode":"0950001","prefectureKana":"ﾎｯｶｲﾄﾞｳ","cityKana":"ｼﾍﾞﾂｼ","streetKana":"ﾋｶﾞｼ1ｼﾞｮｳｷﾀ","prefecture":"北海道","city":"士別市","street":"東一条北"},{"zipCode":"0950002","prefectureKana":"ﾎｯｶｲﾄﾞｳ","cityKana":"ｼﾍﾞﾂｼ","streetKana":"ﾋｶﾞｼ2ｼﾞｮｳｷﾀ","prefecture":"北海道","city":"士別市","street":"東二条北"},{"zipCode":"0950003","prefectureKana":"ﾎｯｶｲﾄﾞｳ","cityKana":"ｼﾍﾞﾂｼ","streetKana":"ﾋｶﾞｼ3ｼﾞｮｳｷﾀ","prefecture":"北海道","city":"士別市","street":"東三条北"},{"zipCode":"0950004","prefectureKana":"ﾎｯｶｲﾄﾞｳ","cityKana":"ｼﾍﾞﾂｼ","streetKana":"ﾋｶﾞｼ4ｼﾞｮｳｷﾀ","prefecture":"北海道","city":"士別市","street":"東四条北"},{"zipCode":"0950005","prefectureKana":"ﾎｯｶｲﾄﾞｳ","cityKana":"ｼﾍﾞﾂｼ","streetKana":"ﾋｶﾞｼ5ｼﾞｮｳｷﾀ","prefecture":"北海道","city":"士別市","street":"東五条北"},{"zipCode":"0950006","prefectureKana":"ﾎｯｶｲﾄﾞｳ","cityKana":"ｼﾍﾞﾂｼ","streetKana":"ﾋｶﾞｼ6ｼﾞｮｳｷﾀ","prefecture":"北海道","city":"士別市","street":"東六条北"},{"zipCode":"0950007","prefectureKana":"ﾎｯｶｲﾄﾞｳ","cityKana":"ｼﾍﾞﾂｼ","streetKana":"ﾋｶﾞｼ7ｼﾞｮｳｷﾀ","prefecture":"北海道","city":"士別市","street":"東七条北"},{"zipCode":"0950008","prefectureKana":"ﾎｯｶｲﾄﾞｳ","cityKana":"ｼﾍﾞﾂｼ","streetKana":"ﾋｶﾞｼ8ｼﾞｮｳｷﾀ","prefecture":"北海道","city":"士別市","street":"東八条北"},{"zipCode":"0950054","prefectureKana":"ﾎｯｶｲﾄﾞｳ","cityKana":"ｼﾍﾞﾂｼ","streetKana":"ﾌﾄﾞｳﾏﾁ","prefecture":"北海道","city":"士別市","street":"不動町"},{"zipCode":"0950062","prefectureKana":"ﾎｯｶｲﾄﾞｳ","cityKana":"ｼﾍﾞﾂｼ","streetKana":"ﾌﾞﾄｸﾁｮｳ","prefecture":"北海道","city":"士別市","street":"武徳町"},{"zipCode":"0950055","prefectureKana":"ﾎｯｶｲﾄﾞｳ","cityKana":"ｼﾍﾞﾂｼ","streetKana":"ﾐﾅﾐｼﾍﾞﾂﾁｮｳ","prefecture":"北海道","city":"士別市","street":"南士別町"},{"zipCode":"0950046","prefectureKana":"ﾎｯｶｲﾄﾞｳ","cityKana":"ｼﾍﾞﾂｼ","streetKana":"ﾐﾅﾐﾏﾁﾋｶﾞｼ","prefecture":"北海道","city":"士別市","street":"南町東"},{"zipCode":"0950047","prefectureKana":"ﾎｯｶｲﾄﾞｳ","cityKana":"ｼﾍﾞﾂｼ","streetKana":"ﾐﾅﾐﾏﾁﾆｼ","prefecture":"北海道","city":"士別市","street":"南町西"}]