[{"zipCode":"0960000","prefectureKana":"ﾎｯｶｲﾄﾞｳ","cityKana":"ﾅﾖﾛｼ","streetKana":"ｲｶﾆｹｲｻｲｶﾞﾅｲﾊﾞｱｲ","prefecture":"北海道","city":"名寄市","street":"以下に掲載がない場合"},{"zipCode":"0960075","prefectureKana":"ﾎｯｶｲﾄﾞｳ","cityKana":"ﾅﾖﾛｼ","streetKana":"ｱｹﾎﾞﾉ","prefecture":"北海道","city":"名寄市","street":"曙"},{"zipCode":"0960061","prefectureKana":"ﾎｯｶｲﾄﾞｳ","cityKana":"ﾅﾖﾛｼ","streetKana":"ｱｻﾋ","prefecture":"北海道","city":"名寄市","street":"朝日"},{"zipCode":"0960010","prefectureKana":"ﾎｯｶｲﾄﾞｳ","cityKana":"ﾅﾖﾛｼ","streetKana":"ｵｵﾄﾞｵﾘﾐﾅﾐ","prefecture":"北海道","city":"名寄市","street":"大通南"},{"zipCode":"0960030","prefectureKana":"ﾎｯｶｲﾄﾞｳ","cityKana":"ﾅﾖﾛｼ","streetKana":"ｵｵﾄﾞｵﾘｷﾀ","prefecture":"北海道","city":"名寄市","street":"大通北"},{"zipCode":"0960065","prefectureKana":"ﾎｯｶｲﾄﾞｳ","cityKana":"ﾅﾖﾛｼ","streetKana":"ｵｵﾊｼ","prefecture":"北海道","city":"名寄市","street":"大橋"},{"zipCode":"0960073","prefectureKana":"ﾎｯｶｲﾄﾞｳ","cityKana":"ﾅﾖﾛｼ","streetKana":"ｷｮｳﾜ","prefecture":"北海道","city":"名寄市","street":"共和"},{"zipCode":"0960064","prefectureKana":"ﾎｯｶｲﾄﾞｳ","cityKana":"ﾅﾖﾛｼ","streetKana":"ｷｮｸﾄｳ","prefecture":"北海道","city":"名寄市","street":"旭東"},{"zipCode":"0960071","prefectureKana":"ﾎｯｶｲﾄﾞｳ","cityKana":"ﾅﾖﾛｼ","streetKana":"ﾄｸﾀﾞ","prefecture":"北海道","city":"名寄市","street":"徳田"},{"zipCode":"0960076","prefectureKana":"ﾎｯｶｲﾄﾞｳ","cityKana":"ﾅﾖﾛｼ","streetKana":"ﾄﾅﾐ","prefecture":"北海道","city":"名寄市","street":"砺波"},{"zipCode":"0960078","prefectureKana":"ﾎｯｶｲﾄﾞｳ","cityKana":"ﾅﾖﾛｼ","streetKana":"ﾅｲﾌﾞﾁ","prefecture":"北海道","city":"名寄市","street":"内淵"},{"zipCode":"0960011","prefectureKana":"ﾎｯｶｲﾄﾞｳ","cityKana":"ﾅﾖﾛｼ","streetKana":"ﾆｼ1ｼﾞｮｳﾐﾅﾐ","prefecture":"北海道","city":"名寄市","street":"西一条南"},{"zipCode":"0960031","prefectureKana":"ﾎｯｶｲﾄﾞｳ","cityKana":"ﾅﾖﾛｼ","streetKana":"ﾆｼ1ｼﾞｮｳｷﾀ","prefecture":"北海道","city":"名寄市","street":"西一条北"},{"zipCode":"0960012","prefectureKana":"ﾎｯｶｲﾄﾞｳ","cityKana":"ﾅﾖﾛｼ","streetKana":"ﾆｼ2ｼﾞｮｳﾐﾅﾐ","prefecture":"北海道","city":"名寄市","street":"西二条南"},{"zipCode":"0960032","prefectureKana":"ﾎｯｶｲﾄﾞｳ","cityKana":"ﾅﾖﾛｼ","streetKana":"ﾆｼ2ｼﾞｮｳｷﾀ","prefecture":"北海道","city":"名寄市","street":"西二条北"},{"zipCode":"0960013","prefectureKana":"ﾎｯｶｲﾄﾞｳ","cityKana":"ﾅﾖﾛｼ","streetKana":"ﾆｼ3ｼﾞｮｳﾐﾅﾐ","prefecture":"北海道","city":"名寄市","street":"西三条南"},{"zipCode":"0960033","prefectureKana":"ﾎｯｶｲﾄﾞｳ","cityKana":"ﾅﾖﾛｼ","streetKana":"ﾆｼ3ｼﾞｮｳｷﾀ","prefecture":"北海道","city":"名寄市","street":"西三条北"},{"zipCode":"0960014","prefectureKana":"ﾎｯｶｲﾄﾞｳ","cityKana":"ﾅﾖﾛｼ","streetKana":"ﾆｼ4ｼﾞｮｳﾐﾅﾐ","prefecture":"北海道","city":"名寄市","street":"西四条南"},{"zipCode":"0960034","prefectureKana":"ﾎｯｶｲﾄﾞｳ","cityKana":"ﾅﾖﾛｼ","streetKana":"ﾆｼ4ｼﾞｮｳｷﾀ","prefecture":"北海道","city":"名寄市","street":"西四条北"},{"zipCode":"0960015","prefectureKana":"ﾎｯｶｲﾄﾞｳ","cityKana":"ﾅﾖﾛｼ","streetKana":"ﾆｼ5ｼﾞｮｳﾐﾅﾐ","prefecture":"北海道","city":"名寄市","street":"西五条南"},{"zipCode":"0960035","prefectureKana":"ﾎｯｶｲﾄﾞｳ","cityKana":"ﾅﾖﾛｼ","streetKana":"ﾆｼ5ｼﾞｮｳｷﾀ","prefecture":"北海道","city":"名寄市","street":"西五条北"},{"zipCode":"0960016","prefectureKana":"ﾎｯｶｲﾄﾞｳ","cityKana":"ﾅﾖﾛｼ","streetKana":"ﾆｼ6ｼﾞｮｳﾐﾅﾐ","prefecture":"北海道","city":"名寄市","street":"西六条南"},{"zipCode":"0960036","prefectureKana":"ﾎｯｶｲﾄﾞｳ","cityKana":"ﾅﾖﾛｼ","streetKana":"ﾆｼ6ｼﾞｮｳｷﾀ","prefecture":"北海道","city":"名寄市","street":"西六条北"},{"zipCode":"0960017","prefectureKana":"ﾎｯｶｲﾄﾞｳ","cityKana":"ﾅﾖﾛｼ","streetKana":"ﾆｼ7ｼﾞｮｳﾐﾅﾐ","prefecture":"北海道","city":"名寄市","street":"西七条南"},{"zipCode":"0960037","prefectureKana":"ﾎｯｶｲﾄﾞｳ","cityKana":"ﾅﾖﾛｼ","streetKana":"ﾆｼ7ｼﾞｮｳｷﾀ","prefecture":"北海道","city":"名寄市","street":"西七条北"},{"zipCode":"0960018","prefectureKana":"ﾎｯｶｲﾄﾞｳ","cityKana":"ﾅﾖﾛｼ","streetKana":"ﾆｼ8ｼﾞｮｳﾐﾅﾐ","prefecture":"北海道","city":"名寄市","street":"西八条南"},{"zipCode":"0960038","prefectureKana":"ﾎｯｶｲﾄﾞｳ","cityKana":"ﾅﾖﾛｼ","streetKana":"ﾆｼ8ｼﾞｮｳｷﾀ","prefecture":"北海道","city":"名寄市","street":"西八条北"},{"zipCode":"0960019","prefectureKana":"ﾎｯｶｲﾄﾞｳ","cityKana":"ﾅﾖﾛｼ","streetKana":"ﾆｼ9ｼﾞｮｳﾐﾅﾐ","prefecture":"北海道","city":"名寄市","street":"西九条南"},{"zipCode":"0960039","prefectureKana":"ﾎｯｶｲﾄﾞｳ","cityKana":"ﾅﾖﾛｼ","streetKana":"ﾆｼ9ｼﾞｮｳｷﾀ","prefecture":"北海道","city":"名寄市","street":"西九条北"},{"zipCode":"0960020","prefectureKana":"ﾎｯｶｲﾄﾞｳ","cityKana":"ﾅﾖﾛｼ","streetKana":"ﾆｼ10ｼﾞｮｳﾐﾅﾐ","prefecture":"北海道","city":"名寄市","street":"西十条南"},{"zipCode":"0960040","prefectureKana":"ﾎｯｶｲﾄﾞｳ","cityKana":"ﾅﾖﾛｼ","streetKana":"ﾆｼ10ｼﾞｮｳｷﾀ","prefecture":"北海道","city":"名寄市","street":"西十条北"},{"zipCode":"0960021","prefectureKana":"ﾎｯｶｲﾄﾞｳ","cityKana":"ﾅﾖﾛｼ","streetKana":"ﾆｼ11ｼﾞｮｳﾐﾅﾐ","prefecture":"北海道","city":"名寄市","street":"西十一条南"},{"zipCode":"0960041","prefectureKana":"ﾎｯｶｲﾄﾞｳ","cityKana":"ﾅﾖﾛｼ","streetKana":"ﾆｼ11ｼﾞｮｳｷﾀ","prefecture":"北海道","city":"名寄市","street":"西十一条北"},{"zipCode":"0960022","prefectureKana":"ﾎｯｶｲﾄﾞｳ","cityKana":"ﾅﾖﾛｼ","streetKana":"ﾆｼ12ｼﾞｮｳﾐﾅﾐ","prefecture":"北海道","city":"名寄市","street":"西十二条南"},{"zipCode":"0960042","prefectureKana":"ﾎｯｶｲﾄﾞｳ","cityKana":"ﾅﾖﾛｼ","streetKana":"ﾆｼ12ｼﾞｮｳｷﾀ","prefecture":"北海道","city":"名寄市","street":"西十二条北"},{"zipCode":"0960023","prefectureKana":"ﾎｯｶｲﾄﾞｳ","cityKana":"ﾅﾖﾛｼ","streetKana":"ﾆｼ13ｼﾞｮｳﾐﾅﾐ","prefecture":"北海道","city":"名寄市","street":"西十三条南"},{"zipCode":"0960043","prefectureKana":"ﾎｯｶｲﾄﾞｳ","cityKana":"ﾅﾖﾛｼ","streetKana":"ﾆｼ13ｼﾞｮｳｷﾀ","prefecture":"北海道","city":"名寄市","street":"西十三条北"},{"zipCode":"0960024","prefectureKana":"ﾎｯｶｲﾄﾞｳ","cityKana":"ﾅﾖﾛｼ","streetKana":"ﾆｼ14ｼﾞｮｳﾐﾅﾐ","prefecture":"北海道","city":"名寄市","street":"西十四条南"},{"zipCode":"0960025","prefectureKana":"ﾎｯｶｲﾄﾞｳ","cityKana":"ﾅﾖﾛｼ","streetKana":"ﾆｼ15ｼﾞｮｳﾐﾅﾐ","prefecture":"北海道","city":"名寄市","street":"西十五条南"},{"zipCode":"0960062","prefectureKana":"ﾎｯｶｲﾄﾞｳ","cityKana":"ﾅﾖﾛｼ","streetKana":"ﾆｯｼｮｳ","prefecture":"北海道","city":"名寄市","street":"日彰"},{"zipCode":"0960066","prefectureKana":"ﾎｯｶｲﾄﾞｳ","cityKana":"ﾅﾖﾛｼ","streetKana":"ﾆｯｼﾝ","prefecture":"北海道","city":"名寄市","street":"日進"},{"zipCode":"0960001","prefectureKana":"ﾎｯｶｲﾄﾞｳ","cityKana":"ﾅﾖﾛｼ","streetKana":"ﾋｶﾞｼ1ｼﾞｮｳﾐﾅﾐ","prefecture":"北海道","city":"名寄市","street":"東一条南"},{"zipCode":"0960051","prefectureKana":"ﾎｯｶｲﾄﾞｳ","cityKana":"ﾅﾖﾛｼ","streetKana":"ﾋｶﾞｼ1ｼﾞｮｳｷﾀ","prefecture":"北海道","city":"名寄市","street":"東一条北"},{"zipCode":"0960002","prefectureKana":"ﾎｯｶｲﾄﾞｳ","cityKana":"ﾅﾖﾛｼ","streetKana":"ﾋｶﾞｼ2ｼﾞｮｳﾐﾅﾐ","prefecture":"北海道","city":"名寄市","street":"東二条南"},{"zipCode":"0960052","prefectureKana":"ﾎｯｶｲﾄﾞｳ","cityKana":"ﾅﾖﾛｼ","streetKana":"ﾋｶﾞｼ2ｼﾞｮｳｷﾀ","prefecture":"北海道","city":"名寄市","street":"東二条北"},{"zipCode":"0960003","prefectureKana":"ﾎｯｶｲﾄﾞｳ","cityKana":"ﾅﾖﾛｼ","streetKana":"ﾋｶﾞｼ3ｼﾞｮｳﾐﾅﾐ","prefecture":"北海道","city":"名寄市","street":"東三条南"},{"zipCode":"0960053","prefectureKana":"ﾎｯｶｲﾄﾞｳ","cityKana":"ﾅﾖﾛｼ","streetKana":"ﾋｶﾞｼ3ｼﾞｮｳｷﾀ","prefecture":"北海道","city":"名寄市","street":"東三条北"},{"zipCode":"0960004","prefectureKana":"ﾎｯｶｲﾄﾞｳ","cityKana":"ﾅﾖﾛｼ","streetKana":"ﾋｶﾞｼ4ｼﾞｮｳﾐﾅﾐ","prefecture":"北海道","city":"名寄市","street":"東四条南"},{"zipCode":"0960054","prefectureKana":"ﾎｯｶｲﾄﾞｳ","cityKana":"ﾅﾖﾛｼ","streetKana":"ﾋｶﾞｼ4ｼﾞｮｳｷﾀ","prefecture":"北海道","city":"名寄市","street":"東四条北"},{"zipCode":"0960005","prefectureKana":"ﾎｯｶｲﾄﾞｳ","cityKana":"ﾅﾖﾛｼ","streetKana":"ﾋｶﾞｼ5ｼﾞｮｳﾐﾅﾐ","prefecture":"北海道","city":"名寄市","street":"東五条南"},{"zipCode":"0960055","prefectureKana":"ﾎｯｶｲﾄﾞｳ","cityKana":"ﾅﾖﾛｼ","streetKana":"ﾋｶﾞｼ5ｼﾞｮｳｷﾀ","prefecture":"北海道","city":"名寄市","street":"東五条北"},{"zipCode":"0960006","prefectureKana":"ﾎｯｶｲﾄﾞｳ","cityKana":"ﾅﾖﾛｼ","streetKana":"ﾋｶﾞｼ6ｼﾞｮｳﾐﾅﾐ","prefecture":"北海道","city":"名寄市","street":"東六条南"},{"zipCode":"0960056","prefectureKana":"ﾎｯｶｲﾄﾞｳ","cityKana":"ﾅﾖﾛｼ","streetKana":"ﾋｶﾞｼ6ｼﾞｮｳｷﾀ","prefecture":"北海道","city":"名寄市","street":"東六条北"},{"zipCode":"0960007","prefectureKana":"ﾎｯｶｲﾄﾞｳ","cityKana":"ﾅﾖﾛｼ","streetKana":"ﾋｶﾞｼ7ｼﾞｮｳﾐﾅﾐ","prefecture":"北海道","city":"名寄市","street":"東七条南"},{"zipCode":"0960008","prefectureKana":"ﾎｯｶｲﾄﾞｳ","cityKana":"ﾅﾖﾛｼ","streetKana":"ﾋｶﾞｼ8ｼﾞｮｳﾐﾅﾐ","prefecture":"北海道","city":"名寄市","street":"東八条南"},{"zipCode":"0960009","prefectureKana":"ﾎｯｶｲﾄﾞｳ","cityKana":"ﾅﾖﾛｼ","streetKana":"ﾋｶﾞｼ9ｼﾞｮｳﾐﾅﾐ","prefecture":"北海道","city":"名寄市","street":"東九条南"},{"zipCode":"0960072","prefectureKana":"ﾎｯｶｲﾄﾞｳ","cityKana":"ﾅﾖﾛｼ","streetKana":"ﾎｳｴｲ","prefecture":"北海道","city":"名寄市","street":"豊栄"},{"zipCode":"0960077","prefectureKana":"ﾎｯｶｲﾄﾞｳ","cityKana":"ﾅﾖﾛｼ","streetKana":"ﾐｽﾞﾎ","prefecture":"北海道","city":"名寄市","street":"瑞穂"},{"zipCode":"0960063","prefectureKana":"ﾎｯｶｲﾄﾞｳ","cityKana":"ﾅﾖﾛｼ","streetKana":"ﾐﾄﾞﾘｵｶ","prefecture":"北海道","city":"名寄市","street":"緑丘"},{"zipCode":"0960074","prefectureKana":"ﾎｯｶｲﾄﾞｳ","cityKana":"ﾅﾖﾛｼ","streetKana":"ﾔﾖｲ","prefecture":"北海道","city":"名寄市","street":"弥生"}]