[{"zipCode":"0986642","prefectureKana":"ﾎｯｶｲﾄﾞｳ","cityKana":"ﾜｯｶﾅｲｼ","streetKana":"ｺｴﾄｲ(1-5ﾁｮｳﾒ)","prefecture":"北海道","city":"稚内市","street":"声問（１～５丁目）"},{"zipCode":"0986565","prefectureKana":"ﾎｯｶｲﾄﾞｳ","cityKana":"ﾜｯｶﾅｲｼ","streetKana":"ｺｴﾄｲﾑﾗ(ｱｹﾎﾞﾉ)","prefecture":"北海道","city":"稚内市","street":"声問村（曙）"},{"zipCode":"0986572","prefectureKana":"ﾎｯｶｲﾄﾞｳ","cityKana":"ﾜｯｶﾅｲｼ","streetKana":"ｺｴﾄｲﾑﾗ(ｶｲｼﾝ)","prefecture":"北海道","city":"稚内市","street":"声問村（開進）"},{"zipCode":"0986561","prefectureKana":"ﾎｯｶｲﾄﾞｳ","cityKana":"ﾜｯｶﾅｲｼ","streetKana":"ｺｴﾄｲﾑﾗ(ｶﾊﾞｵｶ)","prefecture":"北海道","city":"稚内市","street":"声問村（樺岡）"},{"zipCode":"0986562","prefectureKana":"ﾎｯｶｲﾄﾞｳ","cityKana":"ﾜｯｶﾅｲｼ","streetKana":"ｺｴﾄｲﾑﾗ(ｶﾐｺｴﾄｲ)","prefecture":"北海道","city":"稚内市","street":"声問村（上声問）"},{"zipCode":"0986574","prefectureKana":"ﾎｯｶｲﾄﾞｳ","cityKana":"ﾜｯｶﾅｲｼ","streetKana":"ｺｴﾄｲﾑﾗ(ｶﾐﾄﾖﾍﾞﾂ)","prefecture":"北海道","city":"稚内市","street":"声問村（上豊別）"},{"zipCode":"0986564","prefectureKana":"ﾎｯｶｲﾄﾞｳ","cityKana":"ﾜｯｶﾅｲｼ","streetKana":"ｺｴﾄｲﾑﾗ(ｶﾜﾆｼ)","prefecture":"北海道","city":"稚内市","street":"声問村（川西）"},{"zipCode":"0986576","prefectureKana":"ﾎｯｶｲﾄﾞｳ","cityKana":"ﾜｯｶﾅｲｼ","streetKana":"ｺｴﾄｲﾑﾗ(ｶﾜﾐﾅﾐ)","prefecture":"北海道","city":"稚内市","street":"声問村（川南）"},{"zipCode":"0986645","prefectureKana":"ﾎｯｶｲﾄﾞｳ","cityKana":"ﾜｯｶﾅｲｼ","streetKana":"ｺｴﾄｲﾑﾗ(ｹｲﾎｸ)","prefecture":"北海道","city":"稚内市","street":"声問村（恵北）"},{"zipCode":"0986642","prefectureKana":"ﾎｯｶｲﾄﾞｳ","cityKana":"ﾜｯｶﾅｲｼ","streetKana":"ｺｴﾄｲﾑﾗ(ｺｴﾄｲ)","prefecture":"北海道","city":"稚内市","street":"声問村（声問）"},{"zipCode":"0984582","prefectureKana":"ﾎｯｶｲﾄﾞｳ","cityKana":"ﾜｯｶﾅｲｼ","streetKana":"ｺｴﾄｲﾑﾗ(ｻﾗｷﾄﾏﾅｲ)","prefecture":"北海道","city":"稚内市","street":"声問村（更喜苫内）"},{"zipCode":"0986573","prefectureKana":"ﾎｯｶｲﾄﾞｳ","cityKana":"ﾜｯｶﾅｲｼ","streetKana":"ｺｴﾄｲﾑﾗ(ｼﾓﾄﾖﾍﾞﾂ)","prefecture":"北海道","city":"稚内市","street":"声問村（下豊別）"},{"zipCode":"0986575","prefectureKana":"ﾎｯｶｲﾄﾞｳ","cityKana":"ﾜｯｶﾅｲｼ","streetKana":"ｺｴﾄｲﾑﾗ(ﾃﾝｺｳ)","prefecture":"北海道","city":"稚内市","street":"声問村（天興）"},{"zipCode":"0986563","prefectureKana":"ﾎｯｶｲﾄﾞｳ","cityKana":"ﾜｯｶﾅｲｼ","streetKana":"ｺｴﾄｲﾑﾗ(ﾇﾏｶﾜ)","prefecture":"北海道","city":"稚内市","street":"声問村（沼川）"},{"zipCode":"0986571","prefectureKana":"ﾎｯｶｲﾄﾞｳ","cityKana":"ﾜｯｶﾅｲｼ","streetKana":"ｺｴﾄｲﾑﾗ(ﾏｶﾞﾘﾌﾁ)","prefecture":"北海道","city":"稚内市","street":"声問村（曲渕）"},{"zipCode":"0986643","prefectureKana":"ﾎｯｶｲﾄﾞｳ","cityKana":"ﾜｯｶﾅｲｼ","streetKana":"ｺｴﾄｲﾑﾗ(ﾒｸﾏ)","prefecture":"北海道","city":"稚内市","street":"声問村（メクマ）"},{"zipCode":"0986758","prefectureKana":"ﾎｯｶｲﾄﾞｳ","cityKana":"ﾜｯｶﾅｲｼ","streetKana":"ｿｳﾔﾐｻｷ","prefecture":"北海道","city":"稚内市","street":"宗谷岬"},{"zipCode":"0986754","prefectureKana":"ﾎｯｶｲﾄﾞｳ","cityKana":"ﾜｯｶﾅｲｼ","streetKana":"ｿｳﾔﾑﾗ(ｷﾖﾊﾏ)","prefecture":"北海道","city":"稚内市","street":"宗谷村（清浜）"},{"zipCode":"0986755","prefectureKana":"ﾎｯｶｲﾄﾞｳ","cityKana":"ﾜｯｶﾅｲｼ","streetKana":"ｿｳﾔﾑﾗ(ｿｳﾔ)","prefecture":"北海道","city":"稚内市","street":"宗谷村（宗谷）"},{"zipCode":"0986756","prefectureKana":"ﾎｯｶｲﾄﾞｳ","cityKana":"ﾜｯｶﾅｲｼ","streetKana":"ｿｳﾔﾑﾗ(ﾄﾐｲｿ)","prefecture":"北海道","city":"稚内市","street":"宗谷村（富磯）"},{"zipCode":"0986751","prefectureKana":"ﾎｯｶｲﾄﾞｳ","cityKana":"ﾜｯｶﾅｲｼ","streetKana":"ｿｳﾔﾑﾗ(ﾄﾖｲﾜ)","prefecture":"北海道","city":"稚内市","street":"宗谷村（豊岩）"},{"zipCode":"0986385","prefectureKana":"ﾎｯｶｲﾄﾞｳ","cityKana":"ﾜｯｶﾅｲｼ","streetKana":"ｿｳﾔﾑﾗ(ﾋｶﾞｼｳﾗ)","prefecture":"北海道","city":"稚内市","street":"宗谷村（東浦）"},{"zipCode":"0986644","prefectureKana":"ﾎｯｶｲﾄﾞｳ","cityKana":"ﾜｯｶﾅｲｼ","streetKana":"ｿｳﾔﾑﾗ(ﾏｽﾎﾛ)","prefecture":"北海道","city":"稚内市","street":"宗谷村（増幌）"},{"zipCode":"0986757","prefectureKana":"ﾎｯｶｲﾄﾞｳ","cityKana":"ﾜｯｶﾅｲｼ","streetKana":"ｿｳﾔﾑﾗ(ﾏｽﾎﾛﾊﾏ)","prefecture":"北海道","city":"稚内市","street":"宗谷村（増幌浜）"},{"zipCode":"0986384","prefectureKana":"ﾎｯｶｲﾄﾞｳ","cityKana":"ﾜｯｶﾅｲｼ","streetKana":"ｿｳﾔﾑﾗ(ﾐﾈｵｶ)","prefecture":"北海道","city":"稚内市","street":"宗谷村（峰岡）"},{"zipCode":"0984581","prefectureKana":"ﾎｯｶｲﾄﾞｳ","cityKana":"ﾜｯｶﾅｲｼ","streetKana":"ﾊﾞｯｶｲﾑﾗ(ｶﾐﾕｳﾁ､ｼﾓﾕｳﾁ､ﾕｳｸﾙ､ｵﾈﾄﾏﾅｲ)","prefecture":"北海道","city":"稚内市","street":"抜海村（上勇知、下勇知、夕来、オネトマナイ）"},{"zipCode":"0980475","prefectureKana":"ﾎｯｶｲﾄﾞｳ","cityKana":"ｼﾍﾞﾂｼ","streetKana":"ﾀﾖﾛﾁｮｳ","prefecture":"北海道","city":"士別市","street":"多寄町"},{"zipCode":"0982181","prefectureKana":"ﾎｯｶｲﾄﾞｳ","cityKana":"ﾅﾖﾛｼ","streetKana":"ﾁｴﾌﾞﾝ","prefecture":"北海道","city":"名寄市","street":"智恵文"},{"zipCode":"0980514","prefectureKana":"ﾎｯｶｲﾄﾞｳ","cityKana":"ﾅﾖﾛｼ","streetKana":"ﾌｳﾚﾝﾁｮｳｱｻﾋ","prefecture":"北海道","city":"名寄市","street":"風連町旭"},{"zipCode":"0980513","prefectureKana":"ﾎｯｶｲﾄﾞｳ","cityKana":"ﾅﾖﾛｼ","streetKana":"ﾌｳﾚﾝﾁｮｳｲｹﾉｳｴ","prefecture":"北海道","city":"名寄市","street":"風連町池の上"},{"zipCode":"0980503","prefectureKana":"ﾎｯｶｲﾄﾞｳ","cityKana":"ﾅﾖﾛｼ","streetKana":"ﾌｳﾚﾝﾁｮｳｵｵﾏﾁ","prefecture":"北海道","city":"名寄市","street":"風連町大町"},{"zipCode":"0980511","prefectureKana":"ﾎｯｶｲﾄﾞｳ","cityKana":"ﾅﾖﾛｼ","streetKana":"ﾌｳﾚﾝﾁｮｳｼﾝｾｲﾁｮｳ","prefecture":"北海道","city":"名寄市","street":"風連町新生町"},{"zipCode":"0980508","prefectureKana":"ﾎｯｶｲﾄﾞｳ","cityKana":"ﾅﾖﾛｼ","streetKana":"ﾌｳﾚﾝﾁｮｳｽﾞｲｼｮｳ","prefecture":"北海道","city":"名寄市","street":"風連町瑞生"},{"zipCode":"0980515","prefectureKana":"ﾎｯｶｲﾄﾞｳ","cityKana":"ﾅﾖﾛｼ","streetKana":"ﾌｳﾚﾝﾁｮｳﾁｭｳｵｳ","prefecture":"北海道","city":"名寄市","street":"風連町中央"},{"zipCode":"0980632","prefectureKana":"ﾎｯｶｲﾄﾞｳ","cityKana":"ﾅﾖﾛｼ","streetKana":"ﾌｳﾚﾝﾁｮｳﾄｳｾｲ","prefecture":"北海道","city":"名寄市","street":"風連町東生"},{"zipCode":"0980501","prefectureKana":"ﾎｯｶｲﾄﾞｳ","cityKana":"ﾅﾖﾛｼ","streetKana":"ﾌｳﾚﾝﾁｮｳﾄﾖｻﾄ","prefecture":"北海道","city":"名寄市","street":"風連町豊里"},{"zipCode":"0980506","prefectureKana":"ﾎｯｶｲﾄﾞｳ","cityKana":"ﾅﾖﾛｼ","streetKana":"ﾌｳﾚﾝﾁｮｳﾅｶﾏﾁ","prefecture":"北海道","city":"名寄市","street":"風連町仲町"},{"zipCode":"0980509","prefectureKana":"ﾎｯｶｲﾄﾞｳ","cityKana":"ﾅﾖﾛｼ","streetKana":"ﾌｳﾚﾝﾁｮｳﾆｼﾌｳﾚﾝ","prefecture":"北海道","city":"名寄市","street":"風連町西風連"},{"zipCode":"0980507","prefectureKana":"ﾎｯｶｲﾄﾞｳ","cityKana":"ﾅﾖﾛｼ","streetKana":"ﾌｳﾚﾝﾁｮｳﾆｼﾏﾁ","prefecture":"北海道","city":"名寄市","street":"風連町西町"},{"zipCode":"0980631","prefectureKana":"ﾎｯｶｲﾄﾞｳ","cityKana":"ﾅﾖﾛｼ","streetKana":"ﾌｳﾚﾝﾁｮｳﾆｯｼﾝ","prefecture":"北海道","city":"名寄市","street":"風連町日進"},{"zipCode":"0980512","prefectureKana":"ﾎｯｶｲﾄﾞｳ","cityKana":"ﾅﾖﾛｼ","streetKana":"ﾌｳﾚﾝﾁｮｳﾋｶﾞｼﾌｳﾚﾝ","prefecture":"北海道","city":"名寄市","street":"風連町東風連"},{"zipCode":"0980502","prefectureKana":"ﾎｯｶｲﾄﾞｳ","cityKana":"ﾅﾖﾛｼ","streetKana":"ﾌｳﾚﾝﾁｮｳﾎｸｴｲﾁｮｳ","prefecture":"北海道","city":"名寄市","street":"風連町北栄町"},{"zipCode":"0980516","prefectureKana":"ﾎｯｶｲﾄﾞｳ","cityKana":"ﾅﾖﾛｼ","streetKana":"ﾌｳﾚﾝﾁｮｳﾐﾄﾞﾘﾏﾁ","prefecture":"北海道","city":"名寄市","street":"風連町緑町"},{"zipCode":"0980505","prefectureKana":"ﾎｯｶｲﾄﾞｳ","cityKana":"ﾅﾖﾛｼ","streetKana":"ﾌｳﾚﾝﾁｮｳﾐﾅﾐﾏﾁ","prefecture":"北海道","city":"名寄市","street":"風連町南町"},{"zipCode":"0980504","prefectureKana":"ﾎｯｶｲﾄﾞｳ","cityKana":"ﾅﾖﾛｼ","streetKana":"ﾌｳﾚﾝﾁｮｳﾓﾄﾏﾁ","prefecture":"北海道","city":"名寄市","street":"風連町本町"},{"zipCode":"0980100","prefectureKana":"ﾎｯｶｲﾄﾞｳ","cityKana":"ｶﾐｶﾜｸﾞﾝﾜｯｻﾑﾁｮｳ","streetKana":"ｲｶﾆｹｲｻｲｶﾞﾅｲﾊﾞｱｲ","prefecture":"北海道","city":"上川郡和寒町","street":"以下に掲載がない場合"},{"zipCode":"0980126","prefectureKana":"ﾎｯｶｲﾄﾞｳ","cityKana":"ｶﾐｶﾜｸﾞﾝﾜｯｻﾑﾁｮｳ","streetKana":"ｱｻﾋ","prefecture":"北海道","city":"上川郡和寒町","street":"朝日"},{"zipCode":"0980121","prefectureKana":"ﾎｯｶｲﾄﾞｳ","cityKana":"ｶﾐｶﾜｸﾞﾝﾜｯｻﾑﾁｮｳ","streetKana":"ｶﾜﾆｼ","prefecture":"北海道","city":"上川郡和寒町","street":"川西"},{"zipCode":"0980113","prefectureKana":"ﾎｯｶｲﾄﾞｳ","cityKana":"ｶﾐｶﾜｸﾞﾝﾜｯｻﾑﾁｮｳ","streetKana":"ｷｸﾉ","prefecture":"北海道","city":"上川郡和寒町","street":"菊野"},{"zipCode":"0980103","prefectureKana":"ﾎｯｶｲﾄﾞｳ","cityKana":"ｶﾐｶﾜｸﾞﾝﾜｯｻﾑﾁｮｳ","streetKana":"ｷﾀﾊﾗ","prefecture":"北海道","city":"上川郡和寒町","street":"北原"},{"zipCode":"0980133","prefectureKana":"ﾎｯｶｲﾄﾞｳ","cityKana":"ｶﾐｶﾜｸﾞﾝﾜｯｻﾑﾁｮｳ","streetKana":"ｷﾀﾏﾁ","prefecture":"北海道","city":"上川郡和寒町","street":"北町"},{"zipCode":"0980112","prefectureKana":"ﾎｯｶｲﾄﾞｳ","cityKana":"ｶﾐｶﾜｸﾞﾝﾜｯｻﾑﾁｮｳ","streetKana":"ｻﾝﾜ","prefecture":"北海道","city":"上川郡和寒町","street":"三和"},{"zipCode":"0980125","prefectureKana":"ﾎｯｶｲﾄﾞｳ","cityKana":"ｶﾐｶﾜｸﾞﾝﾜｯｻﾑﾁｮｳ","streetKana":"ｼｵｶﾘ","prefecture":"北海道","city":"上川郡和寒町","street":"塩狩"},{"zipCode":"0980114","prefectureKana":"ﾎｯｶｲﾄﾞｳ","cityKana":"ｶﾐｶﾜｸﾞﾝﾜｯｻﾑﾁｮｳ","streetKana":"ｾｲﾜ","prefecture":"北海道","city":"上川郡和寒町","street":"西和"},{"zipCode":"0980102","prefectureKana":"ﾎｯｶｲﾄﾞｳ","cityKana":"ｶﾐｶﾜｸﾞﾝﾜｯｻﾑﾁｮｳ","streetKana":"ﾀｲｾｲ","prefecture":"北海道","city":"上川郡和寒町","street":"大成"},{"zipCode":"0980122","prefectureKana":"ﾎｯｶｲﾄﾞｳ","cityKana":"ｶﾐｶﾜｸﾞﾝﾜｯｻﾑﾁｮｳ","streetKana":"ﾁｭｳﾜ","prefecture":"北海道","city":"上川郡和寒町","street":"中和"},{"zipCode":"0980135","prefectureKana":"ﾎｯｶｲﾄﾞｳ","cityKana":"ｶﾐｶﾜｸﾞﾝﾜｯｻﾑﾁｮｳ","streetKana":"ﾄｳﾜ","prefecture":"北海道","city":"上川郡和寒町","street":"東和"},{"zipCode":"0980132","prefectureKana":"ﾎｯｶｲﾄﾞｳ","cityKana":"ｶﾐｶﾜｸﾞﾝﾜｯｻﾑﾁｮｳ","streetKana":"ﾆｼﾏﾁ","prefecture":"北海道","city":"上川郡和寒町","street":"西町"},{"zipCode":"0980123","prefectureKana":"ﾎｯｶｲﾄﾞｳ","cityKana":"ｶﾐｶﾜｸﾞﾝﾜｯｻﾑﾁｮｳ","streetKana":"ﾋｶﾞｼｵｶ","prefecture":"北海道","city":"上川郡和寒町","street":"東丘"},{"zipCode":"0980134","prefectureKana":"ﾎｯｶｲﾄﾞｳ","cityKana":"ｶﾐｶﾜｸﾞﾝﾜｯｻﾑﾁｮｳ","streetKana":"ﾋｶﾞｼﾏﾁ","prefecture":"北海道","city":"上川郡和寒町","street":"東町"},{"zipCode":"0980101","prefectureKana":"ﾎｯｶｲﾄﾞｳ","cityKana":"ｶﾐｶﾜｸﾞﾝﾜｯｻﾑﾁｮｳ","streetKana":"ﾋﾉﾃﾞ","prefecture":"北海道","city":"上川郡和寒町","street":"日ノ出"},{"zipCode":"0980115","prefectureKana":"ﾎｯｶｲﾄﾞｳ","cityKana":"ｶﾐｶﾜｸﾞﾝﾜｯｻﾑﾁｮｳ","streetKana":"ﾌｸﾊﾗ","prefecture":"北海道","city":"上川郡和寒町","street":"福原"},{"zipCode":"0980104","prefectureKana":"ﾎｯｶｲﾄﾞｳ","cityKana":"ｶﾐｶﾜｸﾞﾝﾜｯｻﾑﾁｮｳ","streetKana":"ﾏﾂｵｶ","prefecture":"北海道","city":"上川郡和寒町","street":"松岡"},{"zipCode":"0980111","prefectureKana":"ﾎｯｶｲﾄﾞｳ","cityKana":"ｶﾐｶﾜｸﾞﾝﾜｯｻﾑﾁｮｳ","streetKana":"ﾐｶｻ","prefecture":"北海道","city":"上川郡和寒町","street":"三笠"},{"zipCode":"0980124","prefectureKana":"ﾎｯｶｲﾄﾞｳ","cityKana":"ｶﾐｶﾜｸﾞﾝﾜｯｻﾑﾁｮｳ","streetKana":"ﾐﾅﾐｵｶ","prefecture":"北海道","city":"上川郡和寒町","street":"南丘"},{"zipCode":"0980131","prefectureKana":"ﾎｯｶｲﾄﾞｳ","cityKana":"ｶﾐｶﾜｸﾞﾝﾜｯｻﾑﾁｮｳ","streetKana":"ﾐﾅﾐﾏﾁ","prefecture":"北海道","city":"上川郡和寒町","street":"南町"},{"zipCode":"0980300","prefectureKana":"ﾎｯｶｲﾄﾞｳ","cityKana":"ｶﾐｶﾜｸﾞﾝｹﾝﾌﾞﾁﾁｮｳ","streetKana":"ｲｶﾆｹｲｻｲｶﾞﾅｲﾊﾞｱｲ","prefecture":"北海道","city":"上川郡剣淵町","street":"以下に掲載がない場合"},{"zipCode":"0980336","prefectureKana":"ﾎｯｶｲﾄﾞｳ","cityKana":"ｶﾐｶﾜｸﾞﾝｹﾝﾌﾞﾁﾁｮｳ","streetKana":"ｱｻﾋﾏﾁ","prefecture":"北海道","city":"上川郡剣淵町","street":"旭町"},{"zipCode":"0980334","prefectureKana":"ﾎｯｶｲﾄﾞｳ","cityKana":"ｶﾐｶﾜｸﾞﾝｹﾝﾌﾞﾁﾁｮｳ","streetKana":"ﾄﾝﾃﾞﾝﾏﾁ","prefecture":"北海道","city":"上川郡剣淵町","street":"屯田町"},{"zipCode":"0980338","prefectureKana":"ﾎｯｶｲﾄﾞｳ","cityKana":"ｶﾐｶﾜｸﾞﾝｹﾝﾌﾞﾁﾁｮｳ","streetKana":"ﾅｶﾏﾁ","prefecture":"北海道","city":"上川郡剣淵町","street":"仲町"},{"zipCode":"0980335","prefectureKana":"ﾎｯｶｲﾄﾞｳ","cityKana":"ｶﾐｶﾜｸﾞﾝｹﾝﾌﾞﾁﾁｮｳ","streetKana":"ﾅﾝｵｳﾏﾁ","prefecture":"北海道","city":"上川郡剣淵町","street":"南桜町"},{"zipCode":"0980337","prefectureKana":"ﾎｯｶｲﾄﾞｳ","cityKana":"ｶﾐｶﾜｸﾞﾝｹﾝﾌﾞﾁﾁｮｳ","streetKana":"ﾆｼｵｶﾏﾁ","prefecture":"北海道","city":"上川郡剣淵町","street":"西岡町"},{"zipCode":"0980339","prefectureKana":"ﾎｯｶｲﾄﾞｳ","cityKana":"ｶﾐｶﾜｸﾞﾝｹﾝﾌﾞﾁﾁｮｳ","streetKana":"ﾆｼﾊﾗﾏﾁ","prefecture":"北海道","city":"上川郡剣淵町","street":"西原町"},{"zipCode":"0980331","prefectureKana":"ﾎｯｶｲﾄﾞｳ","cityKana":"ｶﾐｶﾜｸﾞﾝｹﾝﾌﾞﾁﾁｮｳ","streetKana":"ﾆｼﾏﾁ","prefecture":"北海道","city":"上川郡剣淵町","street":"西町"},{"zipCode":"0980341","prefectureKana":"ﾎｯｶｲﾄﾞｳ","cityKana":"ｶﾐｶﾜｸﾞﾝｹﾝﾌﾞﾁﾁｮｳ","streetKana":"ﾋｶﾞｼﾏﾁ","prefecture":"北海道","city":"上川郡剣淵町","street":"東町"},{"zipCode":"0980342","prefectureKana":"ﾎｯｶｲﾄﾞｳ","cityKana":"ｶﾐｶﾜｸﾞﾝｹﾝﾌﾞﾁﾁｮｳ","streetKana":"ﾌｼﾞﾓﾄﾏﾁ","prefecture":"北海道","city":"上川郡剣淵町","street":"藤本町"},{"zipCode":"0980332","prefectureKana":"ﾎｯｶｲﾄﾞｳ","cityKana":"ｶﾐｶﾜｸﾞﾝｹﾝﾌﾞﾁﾁｮｳ","streetKana":"ﾐﾄﾞﾘﾏﾁ","prefecture":"北海道","city":"上川郡剣淵町","street":"緑町"},{"zipCode":"0980333","prefectureKana":"ﾎｯｶｲﾄﾞｳ","cityKana":"ｶﾐｶﾜｸﾞﾝｹﾝﾌﾞﾁﾁｮｳ","streetKana":"ﾓﾄﾏﾁ","prefecture":"北海道","city":"上川郡剣淵町","street":"元町"},{"zipCode":"0981200","prefectureKana":"ﾎｯｶｲﾄﾞｳ","cityKana":"ｶﾐｶﾜｸﾞﾝｼﾓｶﾜﾁｮｳ","streetKana":"ｲｶﾆｹｲｻｲｶﾞﾅｲﾊﾞｱｲ","prefecture":"北海道","city":"上川郡下川町","street":"以下に掲載がない場合"},{"zipCode":"0981201","prefectureKana":"ﾎｯｶｲﾄﾞｳ","cityKana":"ｶﾐｶﾜｸﾞﾝｼﾓｶﾜﾁｮｳ","streetKana":"ｱｻﾋﾏﾁ","prefecture":"北海道","city":"上川郡下川町","street":"旭町"},{"zipCode":"0981331","prefectureKana":"ﾎｯｶｲﾄﾞｳ","cityKana":"ｶﾐｶﾜｸﾞﾝｼﾓｶﾜﾁｮｳ","streetKana":"ｲﾁﾉﾊｼ","prefecture":"北海道","city":"上川郡下川町","street":"一の橋"},{"zipCode":"0981216","prefectureKana":"ﾎｯｶｲﾄﾞｳ","cityKana":"ｶﾐｶﾜｸﾞﾝｼﾓｶﾜﾁｮｳ","streetKana":"ｶﾐﾅﾖﾛ","prefecture":"北海道","city":"上川郡下川町","street":"上名寄"},{"zipCode":"0981212","prefectureKana":"ﾎｯｶｲﾄﾞｳ","cityKana":"ｶﾐｶﾜｸﾞﾝｼﾓｶﾜﾁｮｳ","streetKana":"ｷﾀﾏﾁ","prefecture":"北海道","city":"上川郡下川町","street":"北町"},{"zipCode":"0981203","prefectureKana":"ﾎｯｶｲﾄﾞｳ","cityKana":"ｶﾐｶﾜｸﾞﾝｼﾓｶﾜﾁｮｳ","streetKana":"ｷｮｳｴｲﾏﾁ","prefecture":"北海道","city":"上川郡下川町","street":"共栄町"},{"zipCode":"0981214","prefectureKana":"ﾎｯｶｲﾄﾞｳ","cityKana":"ｶﾐｶﾜｸﾞﾝｼﾓｶﾜﾁｮｳ","streetKana":"ｹｲﾜ","prefecture":"北海道","city":"上川郡下川町","street":"渓和"},{"zipCode":"0981206","prefectureKana":"ﾎｯｶｲﾄﾞｳ","cityKana":"ｶﾐｶﾜｸﾞﾝｼﾓｶﾜﾁｮｳ","streetKana":"ｻｲﾜｲﾏﾁ","prefecture":"北海道","city":"上川郡下川町","street":"幸町"},{"zipCode":"0981213","prefectureKana":"ﾎｯｶｲﾄﾞｳ","cityKana":"ｶﾐｶﾜｸﾞﾝｼﾓｶﾜﾁｮｳ","streetKana":"ｻﾝﾉﾊｼ","prefecture":"北海道","city":"上川郡下川町","street":"三の橋"},{"zipCode":"0981211","prefectureKana":"ﾎｯｶｲﾄﾞｳ","cityKana":"ｶﾐｶﾜｸﾞﾝｼﾓｶﾜﾁｮｳ","streetKana":"ｻﾝﾙ","prefecture":"北海道","city":"上川郡下川町","street":"珊瑠"},{"zipCode":"0981207","prefectureKana":"ﾎｯｶｲﾄﾞｳ","cityKana":"ｶﾐｶﾜｸﾞﾝｼﾓｶﾜﾁｮｳ","streetKana":"ﾆｼｷﾏﾁ","prefecture":"北海道","city":"上川郡下川町","street":"錦町"},{"zipCode":"0981205","prefectureKana":"ﾎｯｶｲﾄﾞｳ","cityKana":"ｶﾐｶﾜｸﾞﾝｼﾓｶﾜﾁｮｳ","streetKana":"ﾆｼﾏﾁ","prefecture":"北海道","city":"上川郡下川町","street":"西町"},{"zipCode":"0981332","prefectureKana":"ﾎｯｶｲﾄﾞｳ","cityKana":"ｶﾐｶﾜｸﾞﾝｼﾓｶﾜﾁｮｳ","streetKana":"ﾆﾉﾊｼ","prefecture":"北海道","city":"上川郡下川町","street":"二の橋"},{"zipCode":"0981215","prefectureKana":"ﾎｯｶｲﾄﾞｳ","cityKana":"ｶﾐｶﾜｸﾞﾝｼﾓｶﾜﾁｮｳ","streetKana":"ﾊﾟﾝｹ","prefecture":"北海道","city":"上川郡下川町","street":"班渓"},{"zipCode":"0981202","prefectureKana":"ﾎｯｶｲﾄﾞｳ","cityKana":"ｶﾐｶﾜｸﾞﾝｼﾓｶﾜﾁｮｳ","streetKana":"ﾐﾄﾞﾘﾏﾁ","prefecture":"北海道","city":"上川郡下川町","street":"緑町"},{"zipCode":"0981204","prefectureKana":"ﾎｯｶｲﾄﾞｳ","cityKana":"ｶﾐｶﾜｸﾞﾝｼﾓｶﾜﾁｮｳ","streetKana":"ﾐﾅﾐﾏﾁ","prefecture":"北海道","city":"上川郡下川町","street":"南町"},{"zipCode":"0982200","prefectureKana":"ﾎｯｶｲﾄﾞｳ","cityKana":"ﾅｶｶﾞﾜｸﾞﾝﾋﾞﾌｶﾁｮｳ","streetKana":"ｲｶﾆｹｲｻｲｶﾞﾅｲﾊﾞｱｲ","prefecture":"北海道","city":"中川郡美深町","street":"以下に掲載がない場合"},{"zipCode":"0982201","prefectureKana":"ﾎｯｶｲﾄﾞｳ","cityKana":"ﾅｶｶﾞﾜｸﾞﾝﾋﾞﾌｶﾁｮｳ","streetKana":"ｲｽﾞﾐ","prefecture":"北海道","city":"中川郡美深町","street":"泉"},{"zipCode":"0982362","prefectureKana":"ﾎｯｶｲﾄﾞｳ","cityKana":"ﾅｶｶﾞﾜｸﾞﾝﾋﾞﾌｶﾁｮｳ","streetKana":"ｵｵﾃ","prefecture":"北海道","city":"中川郡美深町","street":"大手"},{"zipCode":"0982230","prefectureKana":"ﾎｯｶｲﾄﾞｳ","cityKana":"ﾅｶｶﾞﾜｸﾞﾝﾋﾞﾌｶﾁｮｳ","streetKana":"ｵｵﾄﾞｵﾘﾐﾅﾐ","prefecture":"北海道","city":"中川郡美深町","street":"大通南"},{"zipCode":"0982220","prefectureKana":"ﾎｯｶｲﾄﾞｳ","cityKana":"ﾅｶｶﾞﾜｸﾞﾝﾋﾞﾌｶﾁｮｳ","streetKana":"ｵｵﾄﾞｵﾘｷﾀ","prefecture":"北海道","city":"中川郡美深町","street":"大通北"},{"zipCode":"0982363","prefectureKana":"ﾎｯｶｲﾄﾞｳ","cityKana":"ﾅｶｶﾞﾜｸﾞﾝﾋﾞﾌｶﾁｮｳ","streetKana":"ｵｸﾞﾙﾏ","prefecture":"北海道","city":"中川郡美深町","street":"小車"},{"zipCode":"0982361","prefectureKana":"ﾎｯｶｲﾄﾞｳ","cityKana":"ﾅｶｶﾞﾜｸﾞﾝﾋﾞﾌｶﾁｮｳ","streetKana":"ｵﾝﾈﾅｲ","prefecture":"北海道","city":"中川郡美深町","street":"恩根内"},{"zipCode":"0982238","prefectureKana":"ﾎｯｶｲﾄﾞｳ","cityKana":"ﾅｶｶﾞﾜｸﾞﾝﾋﾞﾌｶﾁｮｳ","streetKana":"ｶｲｳﾝﾁｮｳ","prefecture":"北海道","city":"中川郡美深町","street":"開運町"},{"zipCode":"0982204","prefectureKana":"ﾎｯｶｲﾄﾞｳ","cityKana":"ﾅｶｶﾞﾜｸﾞﾝﾋﾞﾌｶﾁｮｳ","streetKana":"ｶﾜﾆｼ","prefecture":"北海道","city":"中川郡美深町","street":"川西"},{"zipCode":"0982206","prefectureKana":"ﾎｯｶｲﾄﾞｳ","cityKana":"ﾅｶｶﾞﾜｸﾞﾝﾋﾞﾌｶﾁｮｳ","streetKana":"ｷｸｵｶ","prefecture":"北海道","city":"中川郡美深町","street":"菊丘"},{"zipCode":"0982227","prefectureKana":"ﾎｯｶｲﾄﾞｳ","cityKana":"ﾅｶｶﾞﾜｸﾞﾝﾋﾞﾌｶﾁｮｳ","streetKana":"ｷﾀﾏﾁ","prefecture":"北海道","city":"中川郡美深町","street":"北町"},{"zipCode":"0982367","prefectureKana":"ﾎｯｶｲﾄﾞｳ","cityKana":"ﾅｶｶﾞﾜｸﾞﾝﾋﾞﾌｶﾁｮｳ","streetKana":"ｸｽﾉｷ","prefecture":"北海道","city":"中川郡美深町","street":"楠"},{"zipCode":"0982214","prefectureKana":"ﾎｯｶｲﾄﾞｳ","cityKana":"ﾅｶｶﾞﾜｸﾞﾝﾋﾞﾌｶﾁｮｳ","streetKana":"ｼｷｼﾏ","prefecture":"北海道","city":"中川郡美深町","street":"敷島"},{"zipCode":"0982368","prefectureKana":"ﾎｯｶｲﾄﾞｳ","cityKana":"ﾅｶｶﾞﾜｸﾞﾝﾋﾞﾌｶﾁｮｳ","streetKana":"ｼﾐｽﾞ","prefecture":"北海道","city":"中川郡美深町","street":"清水"},{"zipCode":"0982202","prefectureKana":"ﾎｯｶｲﾄﾞｳ","cityKana":"ﾅｶｶﾞﾜｸﾞﾝﾋﾞﾌｶﾁｮｳ","streetKana":"ﾀﾏｶﾜ","prefecture":"北海道","city":"中川郡美深町","street":"玉川"},{"zipCode":"0982211","prefectureKana":"ﾎｯｶｲﾄﾞｳ","cityKana":"ﾅｶｶﾞﾜｸﾞﾝﾋﾞﾌｶﾁｮｳ","streetKana":"ﾄﾐｵｶ","prefecture":"北海道","city":"中川郡美深町","street":"富岡"},{"zipCode":"0982208","prefectureKana":"ﾎｯｶｲﾄﾞｳ","cityKana":"ﾅｶｶﾞﾜｸﾞﾝﾋﾞﾌｶﾁｮｳ","streetKana":"ﾆｳﾌﾟ","prefecture":"北海道","city":"中川郡美深町","street":"仁宇布"},{"zipCode":"0982365","prefectureKana":"ﾎｯｶｲﾄﾞｳ","cityKana":"ﾅｶｶﾞﾜｸﾞﾝﾋﾞﾌｶﾁｮｳ","streetKana":"ﾆｼｻﾄ","prefecture":"北海道","city":"中川郡美深町","street":"西里"},{"zipCode":"0982252","prefectureKana":"ﾎｯｶｲﾄﾞｳ","cityKana":"ﾅｶｶﾞﾜｸﾞﾝﾋﾞﾌｶﾁｮｳ","streetKana":"ﾆｼﾏﾁ","prefecture":"北海道","city":"中川郡美深町","street":"西町"},{"zipCode":"0982241","prefectureKana":"ﾎｯｶｲﾄﾞｳ","cityKana":"ﾅｶｶﾞﾜｸﾞﾝﾋﾞﾌｶﾁｮｳ","streetKana":"ﾆｼ1ｼﾞｮｳﾐﾅﾐ","prefecture":"北海道","city":"中川郡美深町","street":"西一条南"},{"zipCode":"0982251","prefectureKana":"ﾎｯｶｲﾄﾞｳ","cityKana":"ﾅｶｶﾞﾜｸﾞﾝﾋﾞﾌｶﾁｮｳ","streetKana":"ﾆｼ1ｼﾞｮｳｷﾀ","prefecture":"北海道","city":"中川郡美深町","street":"西一条北"},{"zipCode":"0982242","prefectureKana":"ﾎｯｶｲﾄﾞｳ","cityKana":"ﾅｶｶﾞﾜｸﾞﾝﾋﾞﾌｶﾁｮｳ","streetKana":"ﾆｼ2ｼﾞｮｳﾐﾅﾐ","prefecture":"北海道","city":"中川郡美深町","street":"西二条南"},{"zipCode":"0982243","prefectureKana":"ﾎｯｶｲﾄﾞｳ","cityKana":"ﾅｶｶﾞﾜｸﾞﾝﾋﾞﾌｶﾁｮｳ","streetKana":"ﾆｼ3ｼﾞｮｳﾐﾅﾐ","prefecture":"北海道","city":"中川郡美深町","street":"西三条南"},{"zipCode":"0982253","prefectureKana":"ﾎｯｶｲﾄﾞｳ","cityKana":"ﾅｶｶﾞﾜｸﾞﾝﾋﾞﾌｶﾁｮｳ","streetKana":"ﾆｼ3ｼﾞｮｳｷﾀ","prefecture":"北海道","city":"中川郡美深町","street":"西三条北"},{"zipCode":"0982212","prefectureKana":"ﾎｯｶｲﾄﾞｳ","cityKana":"ﾅｶｶﾞﾜｸﾞﾝﾋﾞﾌｶﾁｮｳ","streetKana":"ﾊﾟﾝｹ","prefecture":"北海道","city":"中川郡美深町","street":"班渓"},{"zipCode":"0982231","prefectureKana":"ﾎｯｶｲﾄﾞｳ","cityKana":"ﾅｶｶﾞﾜｸﾞﾝﾋﾞﾌｶﾁｮｳ","streetKana":"ﾋｶﾞｼ1ｼﾞｮｳﾐﾅﾐ","prefecture":"北海道","city":"中川郡美深町","street":"東一条南"},{"zipCode":"0982221","prefectureKana":"ﾎｯｶｲﾄﾞｳ","cityKana":"ﾅｶｶﾞﾜｸﾞﾝﾋﾞﾌｶﾁｮｳ","streetKana":"ﾋｶﾞｼ1ｼﾞｮｳｷﾀ","prefecture":"北海道","city":"中川郡美深町","street":"東一条北"},{"zipCode":"0982232","prefectureKana":"ﾎｯｶｲﾄﾞｳ","cityKana":"ﾅｶｶﾞﾜｸﾞﾝﾋﾞﾌｶﾁｮｳ","streetKana":"ﾋｶﾞｼ2ｼﾞｮｳﾐﾅﾐ","prefecture":"北海道","city":"中川郡美深町","street":"東二条南"},{"zipCode":"0982222","prefectureKana":"ﾎｯｶｲﾄﾞｳ","cityKana":"ﾅｶｶﾞﾜｸﾞﾝﾋﾞﾌｶﾁｮｳ","streetKana":"ﾋｶﾞｼ2ｼﾞｮｳｷﾀ","prefecture":"北海道","city":"中川郡美深町","street":"東二条北"},{"zipCode":"0982233","prefectureKana":"ﾎｯｶｲﾄﾞｳ","cityKana":"ﾅｶｶﾞﾜｸﾞﾝﾋﾞﾌｶﾁｮｳ","streetKana":"ﾋｶﾞｼ3ｼﾞｮｳﾐﾅﾐ","prefecture":"北海道","city":"中川郡美深町","street":"東三条南"},{"zipCode":"0982223","prefectureKana":"ﾎｯｶｲﾄﾞｳ","cityKana":"ﾅｶｶﾞﾜｸﾞﾝﾋﾞﾌｶﾁｮｳ","streetKana":"ﾋｶﾞｼ3ｼﾞｮｳｷﾀ","prefecture":"北海道","city":"中川郡美深町","street":"東三条北"},{"zipCode":"0982234","prefectureKana":"ﾎｯｶｲﾄﾞｳ","cityKana":"ﾅｶｶﾞﾜｸﾞﾝﾋﾞﾌｶﾁｮｳ","streetKana":"ﾋｶﾞｼ4ｼﾞｮｳﾐﾅﾐ","prefecture":"北海道","city":"中川郡美深町","street":"東四条南"},{"zipCode":"0982224","prefectureKana":"ﾎｯｶｲﾄﾞｳ","cityKana":"ﾅｶｶﾞﾜｸﾞﾝﾋﾞﾌｶﾁｮｳ","streetKana":"ﾋｶﾞｼ4ｼﾞｮｳｷﾀ","prefecture":"北海道","city":"中川郡美深町","street":"東四条北"},{"zipCode":"0982225","prefectureKana":"ﾎｯｶｲﾄﾞｳ","cityKana":"ﾅｶｶﾞﾜｸﾞﾝﾋﾞﾌｶﾁｮｳ","streetKana":"ﾋｶﾞｼ5ｼﾞｮｳｷﾀ","prefecture":"北海道","city":"中川郡美深町","street":"東五条北"},{"zipCode":"0982236","prefectureKana":"ﾎｯｶｲﾄﾞｳ","cityKana":"ﾅｶｶﾞﾜｸﾞﾝﾋﾞﾌｶﾁｮｳ","streetKana":"ﾋｶﾞｼ6ｼﾞｮｳﾐﾅﾐ","prefecture":"北海道","city":"中川郡美深町","street":"東六条南"},{"zipCode":"0982226","prefectureKana":"ﾎｯｶｲﾄﾞｳ","cityKana":"ﾅｶｶﾞﾜｸﾞﾝﾋﾞﾌｶﾁｮｳ","streetKana":"ﾋｶﾞｼ6ｼﾞｮｳｷﾀ","prefecture":"北海道","city":"中川郡美深町","street":"東六条北"},{"zipCode":"0982205","prefectureKana":"ﾎｯｶｲﾄﾞｳ","cityKana":"ﾅｶｶﾞﾜｸﾞﾝﾋﾞﾌｶﾁｮｳ","streetKana":"ﾋﾞﾌｶ","prefecture":"北海道","city":"中川郡美深町","street":"美深"},{"zipCode":"0982207","prefectureKana":"ﾎｯｶｲﾄﾞｳ","cityKana":"ﾅｶｶﾞﾜｸﾞﾝﾋﾞﾌｶﾁｮｳ","streetKana":"ﾍﾟﾝｹ","prefecture":"北海道","city":"中川郡美深町","street":"辺渓"},{"zipCode":"0982364","prefectureKana":"ﾎｯｶｲﾄﾞｳ","cityKana":"ﾅｶｶﾞﾜｸﾞﾝﾋﾞﾌｶﾁｮｳ","streetKana":"ﾎｳﾄｸ","prefecture":"北海道","city":"中川郡美深町","street":"報徳"},{"zipCode":"0982235","prefectureKana":"ﾎｯｶｲﾄﾞｳ","cityKana":"ﾅｶｶﾞﾜｸﾞﾝﾋﾞﾌｶﾁｮｳ","streetKana":"ﾐﾅﾐﾏﾁ","prefecture":"北海道","city":"中川郡美深町","street":"南町"},{"zipCode":"0982366","prefectureKana":"ﾎｯｶｲﾄﾞｳ","cityKana":"ﾅｶｶﾞﾜｸﾞﾝﾋﾞﾌｶﾁｮｳ","streetKana":"ﾓﾝﾎﾟﾅｲ","prefecture":"北海道","city":"中川郡美深町","street":"紋穂内"},{"zipCode":"0982213","prefectureKana":"ﾎｯｶｲﾄﾞｳ","cityKana":"ﾅｶｶﾞﾜｸﾞﾝﾋﾞﾌｶﾁｮｳ","streetKana":"ﾖｼﾉ","prefecture":"北海道","city":"中川郡美深町","street":"吉野"},{"zipCode":"0982203","prefectureKana":"ﾎｯｶｲﾄﾞｳ","cityKana":"ﾅｶｶﾞﾜｸﾞﾝﾋﾞﾌｶﾁｮｳ","streetKana":"ﾛｸｺﾞｳ","prefecture":"北海道","city":"中川郡美深町","street":"六郷"},{"zipCode":"0982237","prefectureKana":"ﾎｯｶｲﾄﾞｳ","cityKana":"ﾅｶｶﾞﾜｸﾞﾝﾋﾞﾌｶﾁｮｳ","streetKana":"ﾜｶﾏﾂﾁｮｳ","prefecture":"北海道","city":"中川郡美深町","street":"若松町"},{"zipCode":"0982500","prefectureKana":"ﾎｯｶｲﾄﾞｳ","cityKana":"ﾅｶｶﾞﾜｸﾞﾝｵﾄｲﾈｯﾌﾟﾑﾗ","streetKana":"ｲｶﾆｹｲｻｲｶﾞﾅｲﾊﾞｱｲ","prefecture":"北海道","city":"中川郡音威子府村","street":"以下に掲載がない場合"},{"zipCode":"0982501","prefectureKana":"ﾎｯｶｲﾄﾞｳ","cityKana":"ﾅｶｶﾞﾜｸﾞﾝｵﾄｲﾈｯﾌﾟﾑﾗ","streetKana":"ｵﾄｲﾈｯﾌﾟ","prefecture":"北海道","city":"中川郡音威子府村","street":"音威子府"},{"zipCode":"0982502","prefectureKana":"ﾎｯｶｲﾄﾞｳ","cityKana":"ﾅｶｶﾞﾜｸﾞﾝｵﾄｲﾈｯﾌﾟﾑﾗ","streetKana":"ｻﾂｸﾙ","prefecture":"北海道","city":"中川郡音威子府村","street":"咲来"},{"zipCode":"0982800","prefectureKana":"ﾎｯｶｲﾄﾞｳ","cityKana":"ﾅｶｶﾞﾜｸﾞﾝﾅｶｶﾞﾜﾁｮｳ","streetKana":"ｲｶﾆｹｲｻｲｶﾞﾅｲﾊﾞｱｲ","prefecture":"北海道","city":"中川郡中川町","street":"以下に掲載がない場合"},{"zipCode":"0982801","prefectureKana":"ﾎｯｶｲﾄﾞｳ","cityKana":"ﾅｶｶﾞﾜｸﾞﾝﾅｶｶﾞﾜﾁｮｳ","streetKana":"ｳﾀﾅｲ","prefecture":"北海道","city":"中川郡中川町","street":"歌内"},{"zipCode":"0982804","prefectureKana":"ﾎｯｶｲﾄﾞｳ","cityKana":"ﾅｶｶﾞﾜｸﾞﾝﾅｶｶﾞﾜﾁｮｳ","streetKana":"ｵｵﾄﾐ","prefecture":"北海道","city":"中川郡中川町","street":"大富"},{"zipCode":"0982621","prefectureKana":"ﾎｯｶｲﾄﾞｳ","cityKana":"ﾅｶｶﾞﾜｸﾞﾝﾅｶｶﾞﾜﾁｮｳ","streetKana":"ｷｮｳﾜ","prefecture":"北海道","city":"中川郡中川町","street":"共和"},{"zipCode":"0982806","prefectureKana":"ﾎｯｶｲﾄﾞｳ","cityKana":"ﾅｶｶﾞﾜｸﾞﾝﾅｶｶﾞﾜﾁｮｳ","streetKana":"ｺｸﾌ","prefecture":"北海道","city":"中川郡中川町","street":"国府"},{"zipCode":"0982803","prefectureKana":"ﾎｯｶｲﾄﾞｳ","cityKana":"ﾅｶｶﾞﾜｸﾞﾝﾅｶｶﾞﾜﾁｮｳ","streetKana":"ｺﾄﾋﾗ","prefecture":"北海道","city":"中川郡中川町","street":"琴平"},{"zipCode":"0982622","prefectureKana":"ﾎｯｶｲﾄﾞｳ","cityKana":"ﾅｶｶﾞﾜｸﾞﾝﾅｶｶﾞﾜﾁｮｳ","streetKana":"ｻｸ","prefecture":"北海道","city":"中川郡中川町","street":"佐久"},{"zipCode":"0982623","prefectureKana":"ﾎｯｶｲﾄﾞｳ","cityKana":"ﾅｶｶﾞﾜｸﾞﾝﾅｶｶﾞﾜﾁｮｳ","streetKana":"ﾄﾐﾜ","prefecture":"北海道","city":"中川郡中川町","street":"富和"},{"zipCode":"0982624","prefectureKana":"ﾎｯｶｲﾄﾞｳ","cityKana":"ﾅｶｶﾞﾜｸﾞﾝﾅｶｶﾞﾜﾁｮｳ","streetKana":"ﾄﾖｻﾄ","prefecture":"北海道","city":"中川郡中川町","street":"豊里"},{"zipCode":"0982802","prefectureKana":"ﾎｯｶｲﾄﾞｳ","cityKana":"ﾅｶｶﾞﾜｸﾞﾝﾅｶｶﾞﾜﾁｮｳ","streetKana":"ﾅｶｶﾞﾜ","prefecture":"北海道","city":"中川郡中川町","street":"中川"},{"zipCode":"0982805","prefectureKana":"ﾎｯｶｲﾄﾞｳ","cityKana":"ﾅｶｶﾞﾜｸﾞﾝﾅｶｶﾞﾜﾁｮｳ","streetKana":"ﾎﾏﾚ","prefecture":"北海道","city":"中川郡中川町","street":"誉"},{"zipCode":"0982625","prefectureKana":"ﾎｯｶｲﾄﾞｳ","cityKana":"ﾅｶｶﾞﾜｸﾞﾝﾅｶｶﾞﾜﾁｮｳ","streetKana":"ﾔｽｶﾜ","prefecture":"北海道","city":"中川郡中川町","street":"安川"},{"zipCode":"0982626","prefectureKana":"ﾎｯｶｲﾄﾞｳ","cityKana":"ﾅｶｶﾞﾜｸﾞﾝﾅｶｶﾞﾜﾁｮｳ","streetKana":"ﾔｽｶﾜ(3)","prefecture":"北海道","city":"中川郡中川町","street":"安川（３）"},{"zipCode":"0983500","prefectureKana":"ﾎｯｶｲﾄﾞｳ","cityKana":"ﾃｼｵｸﾞﾝｴﾝﾍﾞﾂﾁｮｳ","streetKana":"ｲｶﾆｹｲｻｲｶﾞﾅｲﾊﾞｱｲ","prefecture":"北海道","city":"天塩郡遠別町","street":"以下に掲載がない場合"},{"zipCode":"0983531","prefectureKana":"ﾎｯｶｲﾄﾞｳ","cityKana":"ﾃｼｵｸﾞﾝｴﾝﾍﾞﾂﾁｮｳ","streetKana":"ｱｻﾋ","prefecture":"北海道","city":"天塩郡遠別町","street":"旭"},{"zipCode":"0983532","prefectureKana":"ﾎｯｶｲﾄﾞｳ","cityKana":"ﾃｼｵｸﾞﾝｴﾝﾍﾞﾂﾁｮｳ","streetKana":"ｳﾀｺｼ","prefecture":"北海道","city":"天塩郡遠別町","street":"歌越"},{"zipCode":"0983533","prefectureKana":"ﾎｯｶｲﾄﾞｳ","cityKana":"ﾃｼｵｸﾞﾝｴﾝﾍﾞﾂﾁｮｳ","streetKana":"ｶﾅｳﾗ","prefecture":"北海道","city":"天塩郡遠別町","street":"金浦"},{"zipCode":"0983361","prefectureKana":"ﾎｯｶｲﾄﾞｳ","cityKana":"ﾃｼｵｸﾞﾝｴﾝﾍﾞﾂﾁｮｳ","streetKana":"ｷﾀｻﾄ(15ｺﾞｳﾉｻﾜ)","prefecture":"北海道","city":"天塩郡遠別町","street":"北里（１５号の沢）"},{"zipCode":"0983501","prefectureKana":"ﾎｯｶｲﾄﾞｳ","cityKana":"ﾃｼｵｸﾞﾝｴﾝﾍﾞﾂﾁｮｳ","streetKana":"ｷﾀｻﾄ(ｿﾉﾀ)","prefecture":"北海道","city":"天塩郡遠別町","street":"北里（その他）"},{"zipCode":"0983541","prefectureKana":"ﾎｯｶｲﾄﾞｳ","cityKana":"ﾃｼｵｸﾞﾝｴﾝﾍﾞﾂﾁｮｳ","streetKana":"ｷﾀﾊﾏ","prefecture":"北海道","city":"天塩郡遠別町","street":"北浜"},{"zipCode":"0983511","prefectureKana":"ﾎｯｶｲﾄﾞｳ","cityKana":"ﾃｼｵｸﾞﾝｴﾝﾍﾞﾂﾁｮｳ","streetKana":"ｷｭｳｺｳ","prefecture":"北海道","city":"天塩郡遠別町","street":"久光"},{"zipCode":"0983521","prefectureKana":"ﾎｯｶｲﾄﾞｳ","cityKana":"ﾃｼｵｸﾞﾝｴﾝﾍﾞﾂﾁｮｳ","streetKana":"ｷｮｳｴｲ","prefecture":"北海道","city":"天塩郡遠別町","street":"共栄"},{"zipCode":"0983502","prefectureKana":"ﾎｯｶｲﾄﾞｳ","cityKana":"ﾃｼｵｸﾞﾝｴﾝﾍﾞﾂﾁｮｳ","streetKana":"ｷﾖｶﾜ","prefecture":"北海道","city":"天塩郡遠別町","street":"清川"},{"zipCode":"0983503","prefectureKana":"ﾎｯｶｲﾄﾞｳ","cityKana":"ﾃｼｵｸﾞﾝｴﾝﾍﾞﾂﾁｮｳ","streetKana":"ｹｲﾒｲ","prefecture":"北海道","city":"天塩郡遠別町","street":"啓明"},{"zipCode":"0983542","prefectureKana":"ﾎｯｶｲﾄﾞｳ","cityKana":"ﾃｼｵｸﾞﾝｴﾝﾍﾞﾂﾁｮｳ","streetKana":"ｺｳﾜ","prefecture":"北海道","city":"天塩郡遠別町","street":"幸和"},{"zipCode":"0983522","prefectureKana":"ﾎｯｶｲﾄﾞｳ","cityKana":"ﾃｼｵｸﾞﾝｴﾝﾍﾞﾂﾁｮｳ","streetKana":"ﾀｲｾｲ","prefecture":"北海道","city":"天塩郡遠別町","street":"大成"},{"zipCode":"0983512","prefectureKana":"ﾎｯｶｲﾄﾞｳ","cityKana":"ﾃｼｵｸﾞﾝｴﾝﾍﾞﾂﾁｮｳ","streetKana":"ﾁｭｳｵｳ","prefecture":"北海道","city":"天塩郡遠別町","street":"中央"},{"zipCode":"0983523","prefectureKana":"ﾎｯｶｲﾄﾞｳ","cityKana":"ﾃｼｵｸﾞﾝｴﾝﾍﾞﾂﾁｮｳ","streetKana":"ﾋｶﾞｼﾉ","prefecture":"北海道","city":"天塩郡遠別町","street":"東野"},{"zipCode":"0983534","prefectureKana":"ﾎｯｶｲﾄﾞｳ","cityKana":"ﾃｼｵｸﾞﾝｴﾝﾍﾞﾂﾁｮｳ","streetKana":"ﾌｼﾞﾐ","prefecture":"北海道","city":"天塩郡遠別町","street":"富士見"},{"zipCode":"0983543","prefectureKana":"ﾎｯｶｲﾄﾞｳ","cityKana":"ﾃｼｵｸﾞﾝｴﾝﾍﾞﾂﾁｮｳ","streetKana":"ﾎﾝﾁｮｳ","prefecture":"北海道","city":"天塩郡遠別町","street":"本町"},{"zipCode":"0983504","prefectureKana":"ﾎｯｶｲﾄﾞｳ","cityKana":"ﾃｼｵｸﾞﾝｴﾝﾍﾞﾂﾁｮｳ","streetKana":"ﾏﾙﾏﾂ","prefecture":"北海道","city":"天塩郡遠別町","street":"丸松"},{"zipCode":"0983300","prefectureKana":"ﾎｯｶｲﾄﾞｳ","cityKana":"ﾃｼｵｸﾞﾝﾃｼｵﾁｮｳ","streetKana":"ｲｶﾆｹｲｻｲｶﾞﾅｲﾊﾞｱｲ","prefecture":"北海道","city":"天塩郡天塩町","street":"以下に掲載がない場合"},{"zipCode":"0983311","prefectureKana":"ﾎｯｶｲﾄﾞｳ","cityKana":"ﾃｼｵｸﾞﾝﾃｼｵﾁｮｳ","streetKana":"ｳﾌﾞｼ","prefecture":"北海道","city":"天塩郡天塩町","street":"産士"},{"zipCode":"0983133","prefectureKana":"ﾎｯｶｲﾄﾞｳ","cityKana":"ﾃｼｵｸﾞﾝﾃｼｵﾁｮｳ","streetKana":"ｵﾇﾌﾟﾅｲ","prefecture":"北海道","city":"天塩郡天塩町","street":"オヌプナイ"},{"zipCode":"0983133","prefectureKana":"ﾎｯｶｲﾄﾞｳ","cityKana":"ﾃｼｵｸﾞﾝﾃｼｵﾁｮｳ","streetKana":"ｵﾉﾌﾞﾅｲ","prefecture":"北海道","city":"天塩郡天塩町","street":"雄信内"},{"zipCode":"0983306","prefectureKana":"ﾎｯｶｲﾄﾞｳ","cityKana":"ﾃｼｵｸﾞﾝﾃｼｵﾁｮｳ","streetKana":"ｶｲｶﾞﾝﾄﾞｵﾘ","prefecture":"北海道","city":"天塩郡天塩町","street":"海岸通"},{"zipCode":"0983312","prefectureKana":"ﾎｯｶｲﾄﾞｳ","cityKana":"ﾃｼｵｸﾞﾝﾃｼｵﾁｮｳ","streetKana":"ｶﾜｸﾞﾁ","prefecture":"北海道","city":"天塩郡天塩町","street":"川口"},{"zipCode":"0983313","prefectureKana":"ﾎｯｶｲﾄﾞｳ","cityKana":"ﾃｼｵｸﾞﾝﾃｼｵﾁｮｳ","streetKana":"ｻｸｶｴｼ","prefecture":"北海道","city":"天塩郡天塩町","street":"作返"},{"zipCode":"0983314","prefectureKana":"ﾎｯｶｲﾄﾞｳ","cityKana":"ﾃｼｵｸﾞﾝﾃｼｵﾁｮｳ","streetKana":"ｻﾗｷｼ","prefecture":"北海道","city":"天塩郡天塩町","street":"更岸"},{"zipCode":"0983136","prefectureKana":"ﾎｯｶｲﾄﾞｳ","cityKana":"ﾃｼｵｸﾞﾝﾃｼｵﾁｮｳ","streetKana":"ｼﾓｺｸﾈｯﾌﾟ","prefecture":"北海道","city":"天塩郡天塩町","street":"下コクネップ"},{"zipCode":"0983303","prefectureKana":"ﾎｯｶｲﾄﾞｳ","cityKana":"ﾃｼｵｸﾞﾝﾃｼｵﾁｮｳ","streetKana":"ｼﾝｴｲﾄﾞｵﾘ","prefecture":"北海道","city":"天塩郡天塩町","street":"新栄通"},{"zipCode":"0983305","prefectureKana":"ﾎｯｶｲﾄﾞｳ","cityKana":"ﾃｼｵｸﾞﾝﾃｼｵﾁｮｳ","streetKana":"ｼﾝｶｲﾄﾞｵﾘ","prefecture":"北海道","city":"天塩郡天塩町","street":"新開通"},{"zipCode":"0983142","prefectureKana":"ﾎｯｶｲﾄﾞｳ","cityKana":"ﾃｼｵｸﾞﾝﾃｼｵﾁｮｳ","streetKana":"ｼﾝｾｲ","prefecture":"北海道","city":"天塩郡天塩町","street":"新成"},{"zipCode":"0983304","prefectureKana":"ﾎｯｶｲﾄﾞｳ","cityKana":"ﾃｼｵｸﾞﾝﾃｼｵﾁｮｳ","streetKana":"ｼﾝﾁﾄﾞｵﾘ","prefecture":"北海道","city":"天塩郡天塩町","street":"新地通"},{"zipCode":"0983143","prefectureKana":"ﾎｯｶｲﾄﾞｳ","cityKana":"ﾃｼｵｸﾞﾝﾃｼｵﾁｮｳ","streetKana":"ｾﾝｹﾞﾝ","prefecture":"北海道","city":"天塩郡天塩町","street":"泉源"},{"zipCode":"0983131","prefectureKana":"ﾎｯｶｲﾄﾞｳ","cityKana":"ﾃｼｵｸﾞﾝﾃｼｵﾁｮｳ","streetKana":"ﾀﾂﾈｳｼ","prefecture":"北海道","city":"天塩郡天塩町","street":"タツネウシ"},{"zipCode":"0983144","prefectureKana":"ﾎｯｶｲﾄﾞｳ","cityKana":"ﾃｼｵｸﾞﾝﾃｼｵﾁｮｳ","streetKana":"ﾀﾞﾝﾉｯﾌﾟ","prefecture":"北海道","city":"天塩郡天塩町","street":"男能富"},{"zipCode":"0983315","prefectureKana":"ﾎｯｶｲﾄﾞｳ","cityKana":"ﾃｼｵｸﾞﾝﾃｼｵﾁｮｳ","streetKana":"ﾃｼｵ","prefecture":"北海道","city":"天塩郡天塩町","street":"天塩"},{"zipCode":"0983141","prefectureKana":"ﾎｯｶｲﾄﾞｳ","cityKana":"ﾃｼｵｸﾞﾝﾃｼｵﾁｮｳ","streetKana":"ﾆｼｵﾉﾌﾞﾅｲ","prefecture":"北海道","city":"天塩郡天塩町","street":"西雄信内"},{"zipCode":"0983135","prefectureKana":"ﾎｯｶｲﾄﾞｳ","cityKana":"ﾃｼｵｸﾞﾝﾃｼｵﾁｮｳ","streetKana":"ﾋｶﾞｼｳﾌﾞｼ","prefecture":"北海道","city":"天塩郡天塩町","street":"東産士"},{"zipCode":"0983132","prefectureKana":"ﾎｯｶｲﾄﾞｳ","cityKana":"ﾃｼｵｸﾞﾝﾃｼｵﾁｮｳ","streetKana":"ﾋｶﾞｼｵﾉﾌﾞﾅｲ","prefecture":"北海道","city":"天塩郡天塩町","street":"東雄信内"},{"zipCode":"0983316","prefectureKana":"ﾎｯｶｲﾄﾞｳ","cityKana":"ﾃｼｵｸﾞﾝﾃｼｵﾁｮｳ","streetKana":"ﾌﾗｵｲ","prefecture":"北海道","city":"天塩郡天塩町","street":"振老"},{"zipCode":"0983134","prefectureKana":"ﾎｯｶｲﾄﾞｳ","cityKana":"ﾃｼｵｸﾞﾝﾃｼｵﾁｮｳ","streetKana":"ﾏﾙﾔﾏ","prefecture":"北海道","city":"天塩郡天塩町","street":"円山"},{"zipCode":"0983302","prefectureKana":"ﾎｯｶｲﾄﾞｳ","cityKana":"ﾃｼｵｸﾞﾝﾃｼｵﾁｮｳ","streetKana":"ﾔﾏﾃｳﾗﾄﾞｵﾘ","prefecture":"北海道","city":"天塩郡天塩町","street":"山手裏通"},{"zipCode":"0983301","prefectureKana":"ﾎｯｶｲﾄﾞｳ","cityKana":"ﾃｼｵｸﾞﾝﾃｼｵﾁｮｳ","streetKana":"ﾔﾏﾃﾄﾞｵﾘ","prefecture":"北海道","city":"天塩郡天塩町","street":"山手通"},{"zipCode":"0986200","prefectureKana":"ﾎｯｶｲﾄﾞｳ","cityKana":"ｿｳﾔｸﾞﾝｻﾙﾌﾂﾑﾗ","streetKana":"ｲｶﾆｹｲｻｲｶﾞﾅｲﾊﾞｱｲ","prefecture":"北海道","city":"宗谷郡猿払村","street":"以下に掲載がない場合"},{"zipCode":"0986101","prefectureKana":"ﾎｯｶｲﾄﾞｳ","cityKana":"ｿｳﾔｸﾞﾝｻﾙﾌﾂﾑﾗ","streetKana":"ｱｻﾁﾉ","prefecture":"北海道","city":"宗谷郡猿払村","street":"浅茅野"},{"zipCode":"0986102","prefectureKana":"ﾎｯｶｲﾄﾞｳ","cityKana":"ｿｳﾔｸﾞﾝｻﾙﾌﾂﾑﾗ","streetKana":"ｱｻﾁﾉﾀﾞｲﾁ","prefecture":"北海道","city":"宗谷郡猿払村","street":"浅茅野台地"},{"zipCode":"0986225","prefectureKana":"ﾎｯｶｲﾄﾞｳ","cityKana":"ｿｳﾔｸﾞﾝｻﾙﾌﾂﾑﾗ","streetKana":"ｱｼﾉ","prefecture":"北海道","city":"宗谷郡猿払村","street":"芦野"},{"zipCode":"0986234","prefectureKana":"ﾎｯｶｲﾄﾞｳ","cityKana":"ｿｳﾔｸﾞﾝｻﾙﾌﾂﾑﾗ","streetKana":"ｵﾆｼﾍﾞﾂｷﾀﾏﾁ","prefecture":"北海道","city":"宗谷郡猿払村","street":"鬼志別北町"},{"zipCode":"0986232","prefectureKana":"ﾎｯｶｲﾄﾞｳ","cityKana":"ｿｳﾔｸﾞﾝｻﾙﾌﾂﾑﾗ","streetKana":"ｵﾆｼﾍﾞﾂﾆｼﾏﾁ","prefecture":"北海道","city":"宗谷郡猿払村","street":"鬼志別西町"},{"zipCode":"0986231","prefectureKana":"ﾎｯｶｲﾄﾞｳ","cityKana":"ｿｳﾔｸﾞﾝｻﾙﾌﾂﾑﾗ","streetKana":"ｵﾆｼﾍﾞﾂﾋｶﾞｼﾏﾁ","prefecture":"北海道","city":"宗谷郡猿払村","street":"鬼志別東町"},{"zipCode":"0986233","prefectureKana":"ﾎｯｶｲﾄﾞｳ","cityKana":"ｿｳﾔｸﾞﾝｻﾙﾌﾂﾑﾗ","streetKana":"ｵﾆｼﾍﾞﾂﾐﾅﾐﾏﾁ","prefecture":"北海道","city":"宗谷郡猿払村","street":"鬼志別南町"},{"zipCode":"0986106","prefectureKana":"ﾎｯｶｲﾄﾞｳ","cityKana":"ｿｳﾔｸﾞﾝｻﾙﾌﾂﾑﾗ","streetKana":"ｶﾐｻﾙﾌﾂ","prefecture":"北海道","city":"宗谷郡猿払村","street":"上猿払"},{"zipCode":"0986103","prefectureKana":"ﾎｯｶｲﾄﾞｳ","cityKana":"ｿｳﾔｸﾞﾝｻﾙﾌﾂﾑﾗ","streetKana":"ｶﾘﾍﾞﾂ","prefecture":"北海道","city":"宗谷郡猿払村","street":"狩別"},{"zipCode":"0986228","prefectureKana":"ﾎｯｶｲﾄﾞｳ","cityKana":"ｿｳﾔｸﾞﾝｻﾙﾌﾂﾑﾗ","streetKana":"ｺｲｼ","prefecture":"北海道","city":"宗谷郡猿払村","street":"小石"},{"zipCode":"0986104","prefectureKana":"ﾎｯｶｲﾄﾞｳ","cityKana":"ｿｳﾔｸﾞﾝｻﾙﾌﾂﾑﾗ","streetKana":"ｻﾙﾌﾂ","prefecture":"北海道","city":"宗谷郡猿払村","street":"猿払"},{"zipCode":"0986341","prefectureKana":"ﾎｯｶｲﾄﾞｳ","cityKana":"ｿｳﾔｸﾞﾝｻﾙﾌﾂﾑﾗ","streetKana":"ﾁﾗｲﾍﾞﾂ","prefecture":"北海道","city":"宗谷郡猿払村","street":"知来別"},{"zipCode":"0986226","prefectureKana":"ﾎｯｶｲﾄﾞｳ","cityKana":"ｿｳﾔｸﾞﾝｻﾙﾌﾂﾑﾗ","streetKana":"ﾄﾖｻﾄ","prefecture":"北海道","city":"宗谷郡猿払村","street":"豊里"},{"zipCode":"0986222","prefectureKana":"ﾎｯｶｲﾄﾞｳ","cityKana":"ｿｳﾔｸﾞﾝｻﾙﾌﾂﾑﾗ","streetKana":"ﾊﾏｵﾆｼﾍﾞﾂ","prefecture":"北海道","city":"宗谷郡猿払村","street":"浜鬼志別"},{"zipCode":"0986105","prefectureKana":"ﾎｯｶｲﾄﾞｳ","cityKana":"ｿｳﾔｸﾞﾝｻﾙﾌﾂﾑﾗ","streetKana":"ﾊﾏｻﾙﾌﾂ","prefecture":"北海道","city":"宗谷郡猿払村","street":"浜猿払"},{"zipCode":"0985700","prefectureKana":"ﾎｯｶｲﾄﾞｳ","cityKana":"ｴｻｼｸﾞﾝﾊﾏﾄﾝﾍﾞﾂﾁｮｳ","streetKana":"ｲｶﾆｹｲｻｲｶﾞﾅｲﾊﾞｱｲ","prefecture":"北海道","city":"枝幸郡浜頓別町","street":"以下に掲載がない場合"},{"zipCode":"0985741","prefectureKana":"ﾎｯｶｲﾄﾞｳ","cityKana":"ｴｻｼｸﾞﾝﾊﾏﾄﾝﾍﾞﾂﾁｮｳ","streetKana":"ｱｻﾋｶﾞｵｶ","prefecture":"北海道","city":"枝幸郡浜頓別町","street":"旭ケ丘"},{"zipCode":"0985744","prefectureKana":"ﾎｯｶｲﾄﾞｳ","cityKana":"ｴｻｼｸﾞﾝﾊﾏﾄﾝﾍﾞﾂﾁｮｳ","streetKana":"ｳｿﾀﾝ","prefecture":"北海道","city":"枝幸郡浜頓別町","street":"宇曽丹"},{"zipCode":"0985754","prefectureKana":"ﾎｯｶｲﾄﾞｳ","cityKana":"ｴｻｼｸﾞﾝﾊﾏﾄﾝﾍﾞﾂﾁｮｳ","streetKana":"ｳﾂﾅｲ","prefecture":"北海道","city":"枝幸郡浜頓別町","street":"宇津内"},{"zipCode":"0985701","prefectureKana":"ﾎｯｶｲﾄﾞｳ","cityKana":"ｴｻｼｸﾞﾝﾊﾏﾄﾝﾍﾞﾂﾁｮｳ","streetKana":"ｴｲﾜ","prefecture":"北海道","city":"枝幸郡浜頓別町","street":"栄和"},{"zipCode":"0985725","prefectureKana":"ﾎｯｶｲﾄﾞｳ","cityKana":"ｴｻｼｸﾞﾝﾊﾏﾄﾝﾍﾞﾂﾁｮｳ","streetKana":"ｵｵﾄﾞｵﾘ","prefecture":"北海道","city":"枝幸郡浜頓別町","street":"大通"},{"zipCode":"0985743","prefectureKana":"ﾎｯｶｲﾄﾞｳ","cityKana":"ｴｻｼｸﾞﾝﾊﾏﾄﾝﾍﾞﾂﾁｮｳ","streetKana":"ｶｴﾃﾞ","prefecture":"北海道","city":"枝幸郡浜頓別町","street":"楓"},{"zipCode":"0985751","prefectureKana":"ﾎｯｶｲﾄﾞｳ","cityKana":"ｴｻｼｸﾞﾝﾊﾏﾄﾝﾍﾞﾂﾁｮｳ","streetKana":"ｶﾈｶﾞｵｶ","prefecture":"北海道","city":"枝幸郡浜頓別町","street":"金ヶ丘"},{"zipCode":"0985711","prefectureKana":"ﾎｯｶｲﾄﾞｳ","cityKana":"ｴｻｼｸﾞﾝﾊﾏﾄﾝﾍﾞﾂﾁｮｳ","streetKana":"ｷﾀ1ｼﾞｮｳ","prefecture":"北海道","city":"枝幸郡浜頓別町","street":"北１条"},{"zipCode":"0985712","prefectureKana":"ﾎｯｶｲﾄﾞｳ","cityKana":"ｴｻｼｸﾞﾝﾊﾏﾄﾝﾍﾞﾂﾁｮｳ","streetKana":"ｷﾀ2ｼﾞｮｳ","prefecture":"北海道","city":"枝幸郡浜頓別町","street":"北２条"},{"zipCode":"0985713","prefectureKana":"ﾎｯｶｲﾄﾞｳ","cityKana":"ｴｻｼｸﾞﾝﾊﾏﾄﾝﾍﾞﾂﾁｮｳ","streetKana":"ｷﾀ3ｼﾞｮｳ","prefecture":"北海道","city":"枝幸郡浜頓別町","street":"北３条"},{"zipCode":"0985714","prefectureKana":"ﾎｯｶｲﾄﾞｳ","cityKana":"ｴｻｼｸﾞﾝﾊﾏﾄﾝﾍﾞﾂﾁｮｳ","streetKana":"ｷﾀ4ｼﾞｮｳ","prefecture":"北海道","city":"枝幸郡浜頓別町","street":"北４条"},{"zipCode":"0985765","prefectureKana":"ﾎｯｶｲﾄﾞｳ","cityKana":"ｴｻｼｸﾞﾝﾊﾏﾄﾝﾍﾞﾂﾁｮｳ","streetKana":"ｷｮｳﾜ","prefecture":"北海道","city":"枝幸郡浜頓別町","street":"共和"},{"zipCode":"0985739","prefectureKana":"ﾎｯｶｲﾄﾞｳ","cityKana":"ｴｻｼｸﾞﾝﾊﾏﾄﾝﾍﾞﾂﾁｮｳ","streetKana":"ｸｯﾁｬﾛｺﾊﾝ","prefecture":"北海道","city":"枝幸郡浜頓別町","street":"クッチャロ湖畔"},{"zipCode":"0985752","prefectureKana":"ﾎｯｶｲﾄﾞｳ","cityKana":"ｴｻｼｸﾞﾝﾊﾏﾄﾝﾍﾞﾂﾁｮｳ","streetKana":"ｼﾓﾄﾝﾍﾞﾂ","prefecture":"北海道","city":"枝幸郡浜頓別町","street":"下頓別"},{"zipCode":"0985703","prefectureKana":"ﾎｯｶｲﾄﾞｳ","cityKana":"ｴｻｼｸﾞﾝﾊﾏﾄﾝﾍﾞﾂﾁｮｳ","streetKana":"ｼｬﾅｲ","prefecture":"北海道","city":"枝幸郡浜頓別町","street":"斜内"},{"zipCode":"0985753","prefectureKana":"ﾎｯｶｲﾄﾞｳ","cityKana":"ｴｻｼｸﾞﾝﾊﾏﾄﾝﾍﾞﾂﾁｮｳ","streetKana":"ﾀｶｻｺﾞ","prefecture":"北海道","city":"枝幸郡浜頓別町","street":"高砂"},{"zipCode":"0985761","prefectureKana":"ﾎｯｶｲﾄﾞｳ","cityKana":"ｴｻｼｸﾞﾝﾊﾏﾄﾝﾍﾞﾂﾁｮｳ","streetKana":"ﾁﾌｸ","prefecture":"北海道","city":"枝幸郡浜頓別町","street":"智福"},{"zipCode":"0985705","prefectureKana":"ﾎｯｶｲﾄﾞｳ","cityKana":"ｴｻｼｸﾞﾝﾊﾏﾄﾝﾍﾞﾂﾁｮｳ","streetKana":"ﾁｭｳｵｳﾐﾅﾐ","prefecture":"北海道","city":"枝幸郡浜頓別町","street":"中央南"},{"zipCode":"0985704","prefectureKana":"ﾎｯｶｲﾄﾞｳ","cityKana":"ｴｻｼｸﾞﾝﾊﾏﾄﾝﾍﾞﾂﾁｮｳ","streetKana":"ﾁｭｳｵｳｷﾀ","prefecture":"北海道","city":"枝幸郡浜頓別町","street":"中央北"},{"zipCode":"0985742","prefectureKana":"ﾎｯｶｲﾄﾞｳ","cityKana":"ｴｻｼｸﾞﾝﾊﾏﾄﾝﾍﾞﾂﾁｮｳ","streetKana":"ﾄｲﾃﾞ","prefecture":"北海道","city":"枝幸郡浜頓別町","street":"戸出"},{"zipCode":"0985745","prefectureKana":"ﾎｯｶｲﾄﾞｳ","cityKana":"ｴｻｼｸﾞﾝﾊﾏﾄﾝﾍﾞﾂﾁｮｳ","streetKana":"ﾄｷﾜ","prefecture":"北海道","city":"枝幸郡浜頓別町","street":"常盤"},{"zipCode":"0985702","prefectureKana":"ﾎｯｶｲﾄﾞｳ","cityKana":"ｴｻｼｸﾞﾝﾊﾏﾄﾝﾍﾞﾂﾁｮｳ","streetKana":"ﾄﾖｳｼ","prefecture":"北海道","city":"枝幸郡浜頓別町","street":"豊牛"},{"zipCode":"0985702","prefectureKana":"ﾎｯｶｲﾄﾞｳ","cityKana":"ｴｻｼｸﾞﾝﾊﾏﾄﾝﾍﾞﾂﾁｮｳ","streetKana":"ﾄﾖｶﾝﾍﾞﾂ","prefecture":"北海道","city":"枝幸郡浜頓別町","street":"豊寒別"},{"zipCode":"0985703","prefectureKana":"ﾎｯｶｲﾄﾞｳ","cityKana":"ｴｻｼｸﾞﾝﾊﾏﾄﾝﾍﾞﾂﾁｮｳ","streetKana":"ﾄﾖﾊﾏ","prefecture":"北海道","city":"枝幸郡浜頓別町","street":"豊浜"},{"zipCode":"0985701","prefectureKana":"ﾎｯｶｲﾄﾞｳ","cityKana":"ｴｻｼｸﾞﾝﾊﾏﾄﾝﾍﾞﾂﾁｮｳ","streetKana":"ﾄﾝﾍﾞﾂ","prefecture":"北海道","city":"枝幸郡浜頓別町","street":"頓別"},{"zipCode":"0985763","prefectureKana":"ﾎｯｶｲﾄﾞｳ","cityKana":"ｴｻｼｸﾞﾝﾊﾏﾄﾝﾍﾞﾂﾁｮｳ","streetKana":"ﾆﾀﾁﾅｲ","prefecture":"北海道","city":"枝幸郡浜頓別町","street":"仁達内"},{"zipCode":"0985717","prefectureKana":"ﾎｯｶｲﾄﾞｳ","cityKana":"ｴｻｼｸﾞﾝﾊﾏﾄﾝﾍﾞﾂﾁｮｳ","streetKana":"ﾊﾏﾄﾝﾍﾞﾂ","prefecture":"北海道","city":"枝幸郡浜頓別町","street":"浜頓別"},{"zipCode":"0985734","prefectureKana":"ﾎｯｶｲﾄﾞｳ","cityKana":"ｴｻｼｸﾞﾝﾊﾏﾄﾝﾍﾞﾂﾁｮｳ","streetKana":"ﾋﾉﾃﾞ","prefecture":"北海道","city":"枝幸郡浜頓別町","street":"日の出"},{"zipCode":"0985762","prefectureKana":"ﾎｯｶｲﾄﾞｳ","cityKana":"ｴｻｼｸﾞﾝﾊﾏﾄﾝﾍﾞﾂﾁｮｳ","streetKana":"ﾎﾟﾝﾆﾀﾁﾅｲ","prefecture":"北海道","city":"枝幸郡浜頓別町","street":"ポン仁達内"},{"zipCode":"0985738","prefectureKana":"ﾎｯｶｲﾄﾞｳ","cityKana":"ｴｻｼｸﾞﾝﾊﾏﾄﾝﾍﾞﾂﾁｮｳ","streetKana":"ﾐﾄﾞﾘｶﾞｵｶ","prefecture":"北海道","city":"枝幸郡浜頓別町","street":"緑ケ丘"},{"zipCode":"0985721","prefectureKana":"ﾎｯｶｲﾄﾞｳ","cityKana":"ｴｻｼｸﾞﾝﾊﾏﾄﾝﾍﾞﾂﾁｮｳ","streetKana":"ﾐﾅﾐ1ｼﾞｮｳ","prefecture":"北海道","city":"枝幸郡浜頓別町","street":"南１条"},{"zipCode":"0985722","prefectureKana":"ﾎｯｶｲﾄﾞｳ","cityKana":"ｴｻｼｸﾞﾝﾊﾏﾄﾝﾍﾞﾂﾁｮｳ","streetKana":"ﾐﾅﾐ2ｼﾞｮｳ","prefecture":"北海道","city":"枝幸郡浜頓別町","street":"南２条"},{"zipCode":"0985723","prefectureKana":"ﾎｯｶｲﾄﾞｳ","cityKana":"ｴｻｼｸﾞﾝﾊﾏﾄﾝﾍﾞﾂﾁｮｳ","streetKana":"ﾐﾅﾐ3ｼﾞｮｳ","prefecture":"北海道","city":"枝幸郡浜頓別町","street":"南３条"},{"zipCode":"0985755","prefectureKana":"ﾎｯｶｲﾄﾞｳ","cityKana":"ｴｻｼｸﾞﾝﾊﾏﾄﾝﾍﾞﾂﾁｮｳ","streetKana":"ﾓｳﾂﾅｲ","prefecture":"北海道","city":"枝幸郡浜頓別町","street":"茂宇津内"},{"zipCode":"0985764","prefectureKana":"ﾎｯｶｲﾄﾞｳ","cityKana":"ｴｻｼｸﾞﾝﾊﾏﾄﾝﾍﾞﾂﾁｮｳ","streetKana":"ﾔｽﾍﾞﾂ","prefecture":"北海道","city":"枝幸郡浜頓別町","street":"安別"},{"zipCode":"0985761","prefectureKana":"ﾎｯｶｲﾄﾞｳ","cityKana":"ｴｻｼｸﾞﾝﾊﾏﾄﾝﾍﾞﾂﾁｮｳ","streetKana":"ﾔﾏｶﾞﾙ","prefecture":"北海道","city":"枝幸郡浜頓別町","street":"山軽"},{"zipCode":"0985500","prefectureKana":"ﾎｯｶｲﾄﾞｳ","cityKana":"ｴｻｼｸﾞﾝﾅｶﾄﾝﾍﾞﾂﾁｮｳ","streetKana":"ｲｶﾆｹｲｻｲｶﾞﾅｲﾊﾞｱｲ","prefecture":"北海道","city":"枝幸郡中頓別町","street":"以下に掲載がない場合"},{"zipCode":"0985103","prefectureKana":"ﾎｯｶｲﾄﾞｳ","cityKana":"ｴｻｼｸﾞﾝﾅｶﾄﾝﾍﾞﾂﾁｮｳ","streetKana":"ｱｷﾀ","prefecture":"北海道","city":"枝幸郡中頓別町","street":"秋田"},{"zipCode":"0985554","prefectureKana":"ﾎｯｶｲﾄﾞｳ","cityKana":"ｴｻｼｸﾞﾝﾅｶﾄﾝﾍﾞﾂﾁｮｳ","streetKana":"ｱｻﾋﾀﾞｲ","prefecture":"北海道","city":"枝幸郡中頓別町","street":"旭台"},{"zipCode":"0985101","prefectureKana":"ﾎｯｶｲﾄﾞｳ","cityKana":"ｴｻｼｸﾞﾝﾅｶﾄﾝﾍﾞﾂﾁｮｳ","streetKana":"ｲﾜﾃ","prefecture":"北海道","city":"枝幸郡中頓別町","street":"岩手"},{"zipCode":"0985564","prefectureKana":"ﾎｯｶｲﾄﾞｳ","cityKana":"ｴｻｼｸﾞﾝﾅｶﾄﾝﾍﾞﾂﾁｮｳ","streetKana":"ｶﾐｺﾏ","prefecture":"北海道","city":"枝幸郡中頓別町","street":"上駒"},{"zipCode":"0985111","prefectureKana":"ﾎｯｶｲﾄﾞｳ","cityKana":"ｴｻｼｸﾞﾝﾅｶﾄﾝﾍﾞﾂﾁｮｳ","streetKana":"ｶﾐﾄﾝﾍﾞﾂ","prefecture":"北海道","city":"枝幸郡中頓別町","street":"上頓別"},{"zipCode":"0985562","prefectureKana":"ﾎｯｶｲﾄﾞｳ","cityKana":"ｴｻｼｸﾞﾝﾅｶﾄﾝﾍﾞﾂﾁｮｳ","streetKana":"ｶﾝｻﾞｷ","prefecture":"北海道","city":"枝幸郡中頓別町","street":"神崎"},{"zipCode":"0985552","prefectureKana":"ﾎｯｶｲﾄﾞｳ","cityKana":"ｴｻｼｸﾞﾝﾅｶﾄﾝﾍﾞﾂﾁｮｳ","streetKana":"ｺﾄﾌﾞｷ","prefecture":"北海道","city":"枝幸郡中頓別町","street":"寿"},{"zipCode":"0985102","prefectureKana":"ﾎｯｶｲﾄﾞｳ","cityKana":"ｴｻｼｸﾞﾝﾅｶﾄﾝﾍﾞﾂﾁｮｳ","streetKana":"ｼｮｳﾄﾝﾍﾞﾂ","prefecture":"北海道","city":"枝幸郡中頓別町","street":"小頓別"},{"zipCode":"0985555","prefectureKana":"ﾎｯｶｲﾄﾞｳ","cityKana":"ｴｻｼｸﾞﾝﾅｶﾄﾝﾍﾞﾂﾁｮｳ","streetKana":"ﾄﾖｲｽﾞﾐ","prefecture":"北海道","city":"枝幸郡中頓別町","street":"豊泉"},{"zipCode":"0985112","prefectureKana":"ﾎｯｶｲﾄﾞｳ","cityKana":"ｴｻｼｸﾞﾝﾅｶﾄﾝﾍﾞﾂﾁｮｳ","streetKana":"ﾄﾖﾋﾗ","prefecture":"北海道","city":"枝幸郡中頓別町","street":"豊平"},{"zipCode":"0985551","prefectureKana":"ﾎｯｶｲﾄﾞｳ","cityKana":"ｴｻｼｸﾞﾝﾅｶﾄﾝﾍﾞﾂﾁｮｳ","streetKana":"ﾅｶﾄﾝﾍﾞﾂ","prefecture":"北海道","city":"枝幸郡中頓別町","street":"中頓別"},{"zipCode":"0985113","prefectureKana":"ﾎｯｶｲﾄﾞｳ","cityKana":"ｴｻｼｸﾞﾝﾅｶﾄﾝﾍﾞﾂﾁｮｳ","streetKana":"ﾋﾟﾝﾈｼﾘ","prefecture":"北海道","city":"枝幸郡中頓別町","street":"敏音知"},{"zipCode":"0985563","prefectureKana":"ﾎｯｶｲﾄﾞｳ","cityKana":"ｴｻｼｸﾞﾝﾅｶﾄﾝﾍﾞﾂﾁｮｳ","streetKana":"ﾌｼﾞｲ","prefecture":"北海道","city":"枝幸郡中頓別町","street":"藤井"},{"zipCode":"0985561","prefectureKana":"ﾎｯｶｲﾄﾞｳ","cityKana":"ｴｻｼｸﾞﾝﾅｶﾄﾝﾍﾞﾂﾁｮｳ","streetKana":"ﾍｲｱﾝ","prefecture":"北海道","city":"枝幸郡中頓別町","street":"兵安"},{"zipCode":"0985565","prefectureKana":"ﾎｯｶｲﾄﾞｳ","cityKana":"ｴｻｼｸﾞﾝﾅｶﾄﾝﾍﾞﾂﾁｮｳ","streetKana":"ﾏﾂﾈｼﾘ","prefecture":"北海道","city":"枝幸郡中頓別町","street":"松音知"},{"zipCode":"0985553","prefectureKana":"ﾎｯｶｲﾄﾞｳ","cityKana":"ｴｻｼｸﾞﾝﾅｶﾄﾝﾍﾞﾂﾁｮｳ","streetKana":"ﾔﾖｲ","prefecture":"北海道","city":"枝幸郡中頓別町","street":"弥生"},{"zipCode":"0985800","prefectureKana":"ﾎｯｶｲﾄﾞｳ","cityKana":"ｴｻｼｸﾞﾝｴｻｼﾁｮｳ","streetKana":"ｲｶﾆｹｲｻｲｶﾞﾅｲﾊﾞｱｲ","prefecture":"北海道","city":"枝幸郡枝幸町","street":"以下に掲載がない場合"},{"zipCode":"0985827","prefectureKana":"ﾎｯｶｲﾄﾞｳ","cityKana":"ｴｻｼｸﾞﾝｴｻｼﾁｮｳ","streetKana":"ｳｴﾝﾅｲ","prefecture":"北海道","city":"枝幸郡枝幸町","street":"宇遠内"},{"zipCode":"0985445","prefectureKana":"ﾎｯｶｲﾄﾞｳ","cityKana":"ｴｻｼｸﾞﾝｴｻｼﾁｮｳ","streetKana":"ｳﾀﾉﾎﾞﾘｵｵﾏｶﾞﾘ","prefecture":"北海道","city":"枝幸郡枝幸町","street":"歌登大曲"},{"zipCode":"0985444","prefectureKana":"ﾎｯｶｲﾄﾞｳ","cityKana":"ｴｻｼｸﾞﾝｴｻｼﾁｮｳ","streetKana":"ｳﾀﾉﾎﾞﾘｵﾌﾝ","prefecture":"北海道","city":"枝幸郡枝幸町","street":"歌登大奮"},{"zipCode":"0985443","prefectureKana":"ﾎｯｶｲﾄﾞｳ","cityKana":"ｴｻｼｸﾞﾝｴｻｼﾁｮｳ","streetKana":"ｳﾀﾉﾎﾞﾘｶﾐﾄｸｼﾍﾞﾂ","prefecture":"北海道","city":"枝幸郡枝幸町","street":"歌登上徳志別"},{"zipCode":"0985221","prefectureKana":"ﾎｯｶｲﾄﾞｳ","cityKana":"ｴｻｼｸﾞﾝｴｻｼﾁｮｳ","streetKana":"ｳﾀﾉﾎﾞﾘｹﾄﾍﾞﾂ","prefecture":"北海道","city":"枝幸郡枝幸町","street":"歌登毛登別"},{"zipCode":"0985441","prefectureKana":"ﾎｯｶｲﾄﾞｳ","cityKana":"ｴｻｼｸﾞﾝｴｻｼﾁｮｳ","streetKana":"ｳﾀﾉﾎﾞﾘｼﾋﾞｳﾀﾝ","prefecture":"北海道","city":"枝幸郡枝幸町","street":"歌登志美宇丹"},{"zipCode":"0985212","prefectureKana":"ﾎｯｶｲﾄﾞｳ","cityKana":"ｴｻｼｸﾞﾝｴｻｼﾁｮｳ","streetKana":"ｳﾀﾉﾎﾞﾘﾁｭｳｵｳ","prefecture":"北海道","city":"枝幸郡枝幸町","street":"歌登中央"},{"zipCode":"0985211","prefectureKana":"ﾎｯｶｲﾄﾞｳ","cityKana":"ｴｻｼｸﾞﾝｴｻｼﾁｮｳ","streetKana":"ｳﾀﾉﾎﾞﾘﾆｼｳﾀﾉﾎﾞﾘ","prefecture":"北海道","city":"枝幸郡枝幸町","street":"歌登西歌登"},{"zipCode":"0985206","prefectureKana":"ﾎｯｶｲﾄﾞｳ","cityKana":"ｴｻｼｸﾞﾝｴｻｼﾁｮｳ","streetKana":"ｳﾀﾉﾎﾞﾘﾆｼﾏﾁ","prefecture":"北海道","city":"枝幸郡枝幸町","street":"歌登西町"},{"zipCode":"0985201","prefectureKana":"ﾎｯｶｲﾄﾞｳ","cityKana":"ｴｻｼｸﾞﾝｴｻｼﾁｮｳ","streetKana":"ｳﾀﾉﾎﾞﾘﾊﾟﾝｹﾅｲ","prefecture":"北海道","city":"枝幸郡枝幸町","street":"歌登パンケナイ"},{"zipCode":"0985205","prefectureKana":"ﾎｯｶｲﾄﾞｳ","cityKana":"ｴｻｼｸﾞﾝｴｻｼﾁｮｳ","streetKana":"ｳﾀﾉﾎﾞﾘﾋｶﾞｷﾏﾁ","prefecture":"北海道","city":"枝幸郡枝幸町","street":"歌登桧垣町"},{"zipCode":"0985202","prefectureKana":"ﾎｯｶｲﾄﾞｳ","cityKana":"ｴｻｼｸﾞﾝｴｻｼﾁｮｳ","streetKana":"ｳﾀﾉﾎﾞﾘﾋｶﾞｼｳﾀﾉﾎﾞﾘ","prefecture":"北海道","city":"枝幸郡枝幸町","street":"歌登東歌登"},{"zipCode":"0985207","prefectureKana":"ﾎｯｶｲﾄﾞｳ","cityKana":"ｴｻｼｸﾞﾝｴｻｼﾁｮｳ","streetKana":"ｳﾀﾉﾎﾞﾘﾋｶﾞｼﾏﾁ","prefecture":"北海道","city":"枝幸郡枝幸町","street":"歌登東町"},{"zipCode":"0985203","prefectureKana":"ﾎｯｶｲﾄﾞｳ","cityKana":"ｴｻｼｸﾞﾝｴｻｼﾁｮｳ","streetKana":"ｳﾀﾉﾎﾞﾘﾍﾟﾝｹﾅｲ","prefecture":"北海道","city":"枝幸郡枝幸町","street":"歌登辺毛内"},{"zipCode":"0985442","prefectureKana":"ﾎｯｶｲﾄﾞｳ","cityKana":"ｴｻｼｸﾞﾝｴｻｼﾁｮｳ","streetKana":"ｳﾀﾉﾎﾞﾘﾎｳﾖｸ","prefecture":"北海道","city":"枝幸郡枝幸町","street":"歌登豊沃"},{"zipCode":"0985213","prefectureKana":"ﾎｯｶｲﾄﾞｳ","cityKana":"ｴｻｼｸﾞﾝｴｻｼﾁｮｳ","streetKana":"ｳﾀﾉﾎﾞﾘﾎﾝﾎﾛﾍﾞﾂ","prefecture":"北海道","city":"枝幸郡枝幸町","street":"歌登本幌別"},{"zipCode":"0985204","prefectureKana":"ﾎｯｶｲﾄﾞｳ","cityKana":"ｴｻｼｸﾞﾝｴｻｼﾁｮｳ","streetKana":"ｳﾀﾉﾎﾞﾘﾐﾅﾐﾏﾁ","prefecture":"北海道","city":"枝幸郡枝幸町","street":"歌登南町"},{"zipCode":"0985806","prefectureKana":"ﾎｯｶｲﾄﾞｳ","cityKana":"ｴｻｼｸﾞﾝｴｻｼﾁｮｳ","streetKana":"ｳﾒｶﾞｴﾁｮｳ","prefecture":"北海道","city":"枝幸郡枝幸町","street":"梅ケ枝町"},{"zipCode":"0985802","prefectureKana":"ﾎｯｶｲﾄﾞｳ","cityKana":"ｴｻｼｸﾞﾝｴｻｼﾁｮｳ","streetKana":"ｵｶｼﾏ","prefecture":"北海道","city":"枝幸郡枝幸町","street":"岡島"},{"zipCode":"0985952","prefectureKana":"ﾎｯｶｲﾄﾞｳ","cityKana":"ｴｻｼｸﾞﾝｴｻｼﾁｮｳ","streetKana":"ｵﾂﾁｭｳﾍﾞ","prefecture":"北海道","city":"枝幸郡枝幸町","street":"乙忠部"},{"zipCode":"0985955","prefectureKana":"ﾎｯｶｲﾄﾞｳ","cityKana":"ｴｻｼｸﾞﾝｴｻｼﾁｮｳ","streetKana":"ｵﾄｼﾍﾞ","prefecture":"北海道","city":"枝幸郡枝幸町","street":"音標"},{"zipCode":"0985954","prefectureKana":"ﾎｯｶｲﾄﾞｳ","cityKana":"ｴｻｼｸﾞﾝｴｻｼﾁｮｳ","streetKana":"ｶﾐｵﾄｼﾍﾞ","prefecture":"北海道","city":"枝幸郡枝幸町","street":"上音標"},{"zipCode":"0985826","prefectureKana":"ﾎｯｶｲﾄﾞｳ","cityKana":"ｴｻｼｸﾞﾝｴｻｼﾁｮｳ","streetKana":"ｷﾀﾊﾏﾁｮｳ","prefecture":"北海道","city":"枝幸郡枝幸町","street":"北浜町"},{"zipCode":"0985805","prefectureKana":"ﾎｯｶｲﾄﾞｳ","cityKana":"ｴｻｼｸﾞﾝｴｻｼﾁｮｳ","streetKana":"ｻｲﾜｲﾁｮｳ","prefecture":"北海道","city":"枝幸郡枝幸町","street":"幸町"},{"zipCode":"0985821","prefectureKana":"ﾎｯｶｲﾄﾞｳ","cityKana":"ｴｻｼｸﾞﾝｴｻｼﾁｮｳ","streetKana":"ｻｶｴﾏﾁ","prefecture":"北海道","city":"枝幸郡枝幸町","street":"栄町"},{"zipCode":"0985803","prefectureKana":"ﾎｯｶｲﾄﾞｳ","cityKana":"ｴｻｼｸﾞﾝｴｻｼﾁｮｳ","streetKana":"ｼﾓﾎﾛﾍﾞﾂ","prefecture":"北海道","city":"枝幸郡枝幸町","street":"下幌別"},{"zipCode":"0985808","prefectureKana":"ﾎｯｶｲﾄﾞｳ","cityKana":"ｴｻｼｸﾞﾝｴｻｼﾁｮｳ","streetKana":"ｼﾝｺｳﾁｮｳ","prefecture":"北海道","city":"枝幸郡枝幸町","street":"新港町"},{"zipCode":"0985825","prefectureKana":"ﾎｯｶｲﾄﾞｳ","cityKana":"ｴｻｼｸﾞﾝｴｻｼﾁｮｳ","streetKana":"ｼﾝｻｶｴﾏﾁ","prefecture":"北海道","city":"枝幸郡枝幸町","street":"新栄町"},{"zipCode":"0985815","prefectureKana":"ﾎｯｶｲﾄﾞｳ","cityKana":"ｴｻｼｸﾞﾝｴｻｼﾁｮｳ","streetKana":"ﾄｲﾏｷ","prefecture":"北海道","city":"枝幸郡枝幸町","street":"問牧"},{"zipCode":"0985801","prefectureKana":"ﾎｯｶｲﾄﾞｳ","cityKana":"ｴｻｼｸﾞﾝｴｻｼﾁｮｳ","streetKana":"ﾄｸｼﾍﾞﾂ","prefecture":"北海道","city":"枝幸郡枝幸町","street":"徳志別"},{"zipCode":"0985953","prefectureKana":"ﾎｯｶｲﾄﾞｳ","cityKana":"ｴｻｼｸﾞﾝｴｻｼﾁｮｳ","streetKana":"ﾌｳﾚｯﾌﾟ","prefecture":"北海道","city":"枝幸郡枝幸町","street":"風烈布"},{"zipCode":"0985824","prefectureKana":"ﾎｯｶｲﾄﾞｳ","cityKana":"ｴｻｼｸﾞﾝｴｻｼﾁｮｳ","streetKana":"ﾎｸｴｲﾁｮｳ","prefecture":"北海道","city":"枝幸郡枝幸町","street":"北栄町"},{"zipCode":"0985822","prefectureKana":"ﾎｯｶｲﾄﾞｳ","cityKana":"ｴｻｼｸﾞﾝｴｻｼﾁｮｳ","streetKana":"ﾎｯｺｳﾁｮｳ","prefecture":"北海道","city":"枝幸郡枝幸町","street":"北幸町"},{"zipCode":"0985807","prefectureKana":"ﾎｯｶｲﾄﾞｳ","cityKana":"ｴｻｼｸﾞﾝｴｻｼﾁｮｳ","streetKana":"ﾎﾝﾁｮｳ","prefecture":"北海道","city":"枝幸郡枝幸町","street":"本町"},{"zipCode":"0985823","prefectureKana":"ﾎｯｶｲﾄﾞｳ","cityKana":"ｴｻｼｸﾞﾝｴｻｼﾁｮｳ","streetKana":"ﾐｶｻﾁｮｳ","prefecture":"北海道","city":"枝幸郡枝幸町","street":"三笠町"},{"zipCode":"0985814","prefectureKana":"ﾎｯｶｲﾄﾞｳ","cityKana":"ｴｻｼｸﾞﾝｴｻｼﾁｮｳ","streetKana":"ﾐｻｷﾁｮｳ","prefecture":"北海道","city":"枝幸郡枝幸町","street":"岬町"},{"zipCode":"0985804","prefectureKana":"ﾎｯｶｲﾄﾞｳ","cityKana":"ｴｻｼｸﾞﾝｴｻｼﾁｮｳ","streetKana":"ﾐﾅﾐﾊﾏﾁｮｳ","prefecture":"北海道","city":"枝幸郡枝幸町","street":"南浜町"},{"zipCode":"0985816","prefectureKana":"ﾎｯｶｲﾄﾞｳ","cityKana":"ｴｻｼｸﾞﾝｴｻｼﾁｮｳ","streetKana":"ﾒﾅｼﾄﾞﾏﾘ","prefecture":"北海道","city":"枝幸郡枝幸町","street":"目梨泊"},{"zipCode":"0985951","prefectureKana":"ﾎｯｶｲﾄﾞｳ","cityKana":"ｴｻｼｸﾞﾝｴｻｼﾁｮｳ","streetKana":"ﾔﾏｳｽ","prefecture":"北海道","city":"枝幸郡枝幸町","street":"山臼"},{"zipCode":"0984100","prefectureKana":"ﾎｯｶｲﾄﾞｳ","cityKana":"ﾃｼｵｸﾞﾝﾄﾖﾄﾐﾁｮｳ","streetKana":"ｲｶﾆｹｲｻｲｶﾞﾅｲﾊﾞｱｲ","prefecture":"北海道","city":"天塩郡豊富町","street":"以下に掲載がない場合"},{"zipCode":"0984462","prefectureKana":"ﾎｯｶｲﾄﾞｳ","cityKana":"ﾃｼｵｸﾞﾝﾄﾖﾄﾐﾁｮｳ","streetKana":"ｱｻﾙ","prefecture":"北海道","city":"天塩郡豊富町","street":"阿沙流"},{"zipCode":"0984455","prefectureKana":"ﾎｯｶｲﾄﾞｳ","cityKana":"ﾃｼｵｸﾞﾝﾄﾖﾄﾐﾁｮｳ","streetKana":"ｱｼｶﾜ","prefecture":"北海道","city":"天塩郡豊富町","street":"芦川"},{"zipCode":"0984103","prefectureKana":"ﾎｯｶｲﾄﾞｳ","cityKana":"ﾃｼｵｸﾞﾝﾄﾖﾄﾐﾁｮｳ","streetKana":"ｱﾘｱｹ","prefecture":"北海道","city":"天塩郡豊富町","street":"有明"},{"zipCode":"0984138","prefectureKana":"ﾎｯｶｲﾄﾞｳ","cityKana":"ﾃｼｵｸﾞﾝﾄﾖﾄﾐﾁｮｳ","streetKana":"ｴｷﾏｴﾄﾞｵﾘ","prefecture":"北海道","city":"天塩郡豊富町","street":"駅前通"},{"zipCode":"0984110","prefectureKana":"ﾎｯｶｲﾄﾞｳ","cityKana":"ﾃｼｵｸﾞﾝﾄﾖﾄﾐﾁｮｳ","streetKana":"ｵｵﾄﾞｵﾘ","prefecture":"北海道","city":"天塩郡豊富町","street":"大通り"},{"zipCode":"0984468","prefectureKana":"ﾎｯｶｲﾄﾞｳ","cityKana":"ﾃｼｵｸﾞﾝﾄﾖﾄﾐﾁｮｳ","streetKana":"ｵﾁｱｲ(4468ﾊﾞﾝﾁ)","prefecture":"北海道","city":"天塩郡豊富町","street":"落合（４４６８番地）"},{"zipCode":"0984117","prefectureKana":"ﾎｯｶｲﾄﾞｳ","cityKana":"ﾃｼｵｸﾞﾝﾄﾖﾄﾐﾁｮｳ","streetKana":"ｵﾁｱｲ(ｿﾉﾀ)","prefecture":"北海道","city":"天塩郡豊富町","street":"落合（その他）"},{"zipCode":"0984132","prefectureKana":"ﾎｯｶｲﾄﾞｳ","cityKana":"ﾃｼｵｸﾞﾝﾄﾖﾄﾐﾁｮｳ","streetKana":"ｵﾝｾﾝ","prefecture":"北海道","city":"天塩郡豊富町","street":"温泉"},{"zipCode":"0984456","prefectureKana":"ﾎｯｶｲﾄﾞｳ","cityKana":"ﾃｼｵｸﾞﾝﾄﾖﾄﾐﾁｮｳ","streetKana":"ｶｲｹﾞﾝ","prefecture":"北海道","city":"天塩郡豊富町","street":"開源"},{"zipCode":"0984451","prefectureKana":"ﾎｯｶｲﾄﾞｳ","cityKana":"ﾃｼｵｸﾞﾝﾄﾖﾄﾐﾁｮｳ","streetKana":"ｶﾌﾞﾄﾇﾏ","prefecture":"北海道","city":"天塩郡豊富町","street":"兜沼"},{"zipCode":"0984141","prefectureKana":"ﾎｯｶｲﾄﾞｳ","cityKana":"ﾃｼｵｸﾞﾝﾄﾖﾄﾐﾁｮｳ","streetKana":"ｻﾝｼﾞｮｳﾄﾞｵﾘ","prefecture":"北海道","city":"天塩郡豊富町","street":"三条通り"},{"zipCode":"0984104","prefectureKana":"ﾎｯｶｲﾄﾞｳ","cityKana":"ﾃｼｵｸﾞﾝﾄﾖﾄﾐﾁｮｳ","streetKana":"ｼｭｳﾄｸ","prefecture":"北海道","city":"天塩郡豊富町","street":"修徳"},{"zipCode":"0984136","prefectureKana":"ﾎｯｶｲﾄﾞｳ","cityKana":"ﾃｼｵｸﾞﾝﾄﾖﾄﾐﾁｮｳ","streetKana":"ｼﾝｾｲ","prefecture":"北海道","city":"天塩郡豊富町","street":"新生"},{"zipCode":"0984466","prefectureKana":"ﾎｯｶｲﾄﾞｳ","cityKana":"ﾃｼｵｸﾞﾝﾄﾖﾄﾐﾁｮｳ","streetKana":"ｾｲﾒｲ","prefecture":"北海道","city":"天塩郡豊富町","street":"清明"},{"zipCode":"0984140","prefectureKana":"ﾎｯｶｲﾄﾞｳ","cityKana":"ﾃｼｵｸﾞﾝﾄﾖﾄﾐﾁｮｳ","streetKana":"ﾃｲｼｬﾊﾞﾄﾞｵﾘ","prefecture":"北海道","city":"天塩郡豊富町","street":"停車場通"},{"zipCode":"0984137","prefectureKana":"ﾎｯｶｲﾄﾞｳ","cityKana":"ﾃｼｵｸﾞﾝﾄﾖﾄﾐﾁｮｳ","streetKana":"ﾄｸﾐﾂ","prefecture":"北海道","city":"天塩郡豊富町","street":"徳満"},{"zipCode":"0984135","prefectureKana":"ﾎｯｶｲﾄﾞｳ","cityKana":"ﾃｼｵｸﾞﾝﾄﾖﾄﾐﾁｮｳ","streetKana":"ﾄﾖｶﾜ","prefecture":"北海道","city":"天塩郡豊富町","street":"豊川"},{"zipCode":"0984467","prefectureKana":"ﾎｯｶｲﾄﾞｳ","cityKana":"ﾃｼｵｸﾞﾝﾄﾖﾄﾐﾁｮｳ","streetKana":"ﾄﾖｻﾄ","prefecture":"北海道","city":"天塩郡豊富町","street":"豊里"},{"zipCode":"0984134","prefectureKana":"ﾎｯｶｲﾄﾞｳ","cityKana":"ﾃｼｵｸﾞﾝﾄﾖﾄﾐﾁｮｳ","streetKana":"ﾄﾖﾎﾛ","prefecture":"北海道","city":"天塩郡豊富町","street":"豊幌"},{"zipCode":"0984139","prefectureKana":"ﾎｯｶｲﾄﾞｳ","cityKana":"ﾃｼｵｸﾞﾝﾄﾖﾄﾐﾁｮｳ","streetKana":"ﾅｶﾄﾞｵﾘ","prefecture":"北海道","city":"天塩郡豊富町","street":"仲通り"},{"zipCode":"0984116","prefectureKana":"ﾎｯｶｲﾄﾞｳ","cityKana":"ﾃｼｵｸﾞﾝﾄﾖﾄﾐﾁｮｳ","streetKana":"ﾆｼﾄﾖﾄﾐ","prefecture":"北海道","city":"天塩郡豊富町","street":"西豊富"},{"zipCode":"0984111","prefectureKana":"ﾎｯｶｲﾄﾞｳ","cityKana":"ﾃｼｵｸﾞﾝﾄﾖﾄﾐﾁｮｳ","streetKana":"ﾆｼ1ｼﾞｮｳ","prefecture":"北海道","city":"天塩郡豊富町","street":"西一条"},{"zipCode":"0984112","prefectureKana":"ﾎｯｶｲﾄﾞｳ","cityKana":"ﾃｼｵｸﾞﾝﾄﾖﾄﾐﾁｮｳ","streetKana":"ﾆｼ2ｼﾞｮｳ","prefecture":"北海道","city":"天塩郡豊富町","street":"西二条"},{"zipCode":"0984113","prefectureKana":"ﾎｯｶｲﾄﾞｳ","cityKana":"ﾃｼｵｸﾞﾝﾄﾖﾄﾐﾁｮｳ","streetKana":"ﾆｼ3ｼﾞｮｳ","prefecture":"北海道","city":"天塩郡豊富町","street":"西三条"},{"zipCode":"0984114","prefectureKana":"ﾎｯｶｲﾄﾞｳ","cityKana":"ﾃｼｵｸﾞﾝﾄﾖﾄﾐﾁｮｳ","streetKana":"ﾆｼ4ｼﾞｮｳ","prefecture":"北海道","city":"天塩郡豊富町","street":"西四条"},{"zipCode":"0984115","prefectureKana":"ﾎｯｶｲﾄﾞｳ","cityKana":"ﾃｼｵｸﾞﾝﾄﾖﾄﾐﾁｮｳ","streetKana":"ﾆｼ5ｼﾞｮｳ","prefecture":"北海道","city":"天塩郡豊富町","street":"西五条"},{"zipCode":"0984457","prefectureKana":"ﾎｯｶｲﾄﾞｳ","cityKana":"ﾃｼｵｸﾞﾝﾄﾖﾄﾐﾁｮｳ","streetKana":"ﾇﾏﾑｶｲ","prefecture":"北海道","city":"天塩郡豊富町","street":"沼向"},{"zipCode":"0984131","prefectureKana":"ﾎｯｶｲﾄﾞｳ","cityKana":"ﾃｼｵｸﾞﾝﾄﾖﾄﾐﾁｮｳ","streetKana":"ﾋｶﾞｼﾄﾖﾄﾐ","prefecture":"北海道","city":"天塩郡豊富町","street":"東豊富"},{"zipCode":"0984121","prefectureKana":"ﾎｯｶｲﾄﾞｳ","cityKana":"ﾃｼｵｸﾞﾝﾄﾖﾄﾐﾁｮｳ","streetKana":"ﾋｶﾞｼ1ｼﾞｮｳ","prefecture":"北海道","city":"天塩郡豊富町","street":"東一条"},{"zipCode":"0984122","prefectureKana":"ﾎｯｶｲﾄﾞｳ","cityKana":"ﾃｼｵｸﾞﾝﾄﾖﾄﾐﾁｮｳ","streetKana":"ﾋｶﾞｼ2ｼﾞｮｳ","prefecture":"北海道","city":"天塩郡豊富町","street":"東二条"},{"zipCode":"0984123","prefectureKana":"ﾎｯｶｲﾄﾞｳ","cityKana":"ﾃｼｵｸﾞﾝﾄﾖﾄﾐﾁｮｳ","streetKana":"ﾋｶﾞｼ3ｼﾞｮｳ","prefecture":"北海道","city":"天塩郡豊富町","street":"東三条"},{"zipCode":"0984124","prefectureKana":"ﾎｯｶｲﾄﾞｳ","cityKana":"ﾃｼｵｸﾞﾝﾄﾖﾄﾐﾁｮｳ","streetKana":"ﾋｶﾞｼ4ｼﾞｮｳ","prefecture":"北海道","city":"天塩郡豊富町","street":"東四条"},{"zipCode":"0984125","prefectureKana":"ﾎｯｶｲﾄﾞｳ","cityKana":"ﾃｼｵｸﾞﾝﾄﾖﾄﾐﾁｮｳ","streetKana":"ﾋｶﾞｼ5ｼﾞｮｳ","prefecture":"北海道","city":"天塩郡豊富町","street":"東五条"},{"zipCode":"0984126","prefectureKana":"ﾎｯｶｲﾄﾞｳ","cityKana":"ﾃｼｵｸﾞﾝﾄﾖﾄﾐﾁｮｳ","streetKana":"ﾋｶﾞｼ6ｼﾞｮｳ","prefecture":"北海道","city":"天塩郡豊富町","street":"東六条"},{"zipCode":"0984101","prefectureKana":"ﾎｯｶｲﾄﾞｳ","cityKana":"ﾃｼｵｸﾞﾝﾄﾖﾄﾐﾁｮｳ","streetKana":"ﾌｸﾅｶﾞ","prefecture":"北海道","city":"天塩郡豊富町","street":"福永"},{"zipCode":"0984464","prefectureKana":"ﾎｯｶｲﾄﾞｳ","cityKana":"ﾃｼｵｸﾞﾝﾄﾖﾄﾐﾁｮｳ","streetKana":"ﾎｳｴｲ","prefecture":"北海道","city":"天塩郡豊富町","street":"豊栄"},{"zipCode":"0984465","prefectureKana":"ﾎｯｶｲﾄﾞｳ","cityKana":"ﾃｼｵｸﾞﾝﾄﾖﾄﾐﾁｮｳ","streetKana":"ﾎｳﾃﾞﾝ","prefecture":"北海道","city":"天塩郡豊富町","street":"豊田"},{"zipCode":"0984106","prefectureKana":"ﾎｯｶｲﾄﾞｳ","cityKana":"ﾃｼｵｸﾞﾝﾄﾖﾄﾐﾁｮｳ","streetKana":"ﾎｳﾄｸ","prefecture":"北海道","city":"天塩郡豊富町","street":"豊徳"},{"zipCode":"0984105","prefectureKana":"ﾎｯｶｲﾄﾞｳ","cityKana":"ﾃｼｵｸﾞﾝﾄﾖﾄﾐﾁｮｳ","streetKana":"ﾎﾛｶ","prefecture":"北海道","city":"天塩郡豊富町","street":"幌加"},{"zipCode":"0984133","prefectureKana":"ﾎｯｶｲﾄﾞｳ","cityKana":"ﾃｼｵｸﾞﾝﾄﾖﾄﾐﾁｮｳ","streetKana":"ﾎﾝﾘｭｳ","prefecture":"北海道","city":"天塩郡豊富町","street":"本流"},{"zipCode":"0984461","prefectureKana":"ﾎｯｶｲﾄﾞｳ","cityKana":"ﾃｼｵｸﾞﾝﾄﾖﾄﾐﾁｮｳ","streetKana":"ﾐｽﾞﾎﾋｶﾞｼ","prefecture":"北海道","city":"天塩郡豊富町","street":"瑞穂東"},{"zipCode":"0984463","prefectureKana":"ﾎｯｶｲﾄﾞｳ","cityKana":"ﾃｼｵｸﾞﾝﾄﾖﾄﾐﾁｮｳ","streetKana":"ﾐｽﾞﾎﾐﾅﾐ","prefecture":"北海道","city":"天塩郡豊富町","street":"瑞穂南"},{"zipCode":"0984102","prefectureKana":"ﾎｯｶｲﾄﾞｳ","cityKana":"ﾃｼｵｸﾞﾝﾄﾖﾄﾐﾁｮｳ","streetKana":"ﾒﾅｼﾍﾞﾂ","prefecture":"北海道","city":"天塩郡豊富町","street":"目梨別"},{"zipCode":"0984107","prefectureKana":"ﾎｯｶｲﾄﾞｳ","cityKana":"ﾃｼｵｸﾞﾝﾄﾖﾄﾐﾁｮｳ","streetKana":"ﾜｶｻｶﾅｲ","prefecture":"北海道","city":"天塩郡豊富町","street":"稚咲内"},{"zipCode":"0983200","prefectureKana":"ﾎｯｶｲﾄﾞｳ","cityKana":"ﾃｼｵｸﾞﾝﾎﾛﾉﾍﾞﾁｮｳ","streetKana":"ｲｶﾆｹｲｻｲｶﾞﾅｲﾊﾞｱｲ","prefecture":"北海道","city":"天塩郡幌延町","street":"以下に掲載がない場合"},{"zipCode":"0983226","prefectureKana":"ﾎｯｶｲﾄﾞｳ","cityKana":"ﾃｼｵｸﾞﾝﾎﾛﾉﾍﾞﾁｮｳ","streetKana":"ｶｲｼﾝ","prefecture":"北海道","city":"天塩郡幌延町","street":"開進"},{"zipCode":"0982941","prefectureKana":"ﾎｯｶｲﾄﾞｳ","cityKana":"ﾃｼｵｸﾞﾝﾎﾛﾉﾍﾞﾁｮｳ","streetKana":"ｶﾐﾄｲｶﾝ","prefecture":"北海道","city":"天塩郡幌延町","street":"上問寒"},{"zipCode":"0983225","prefectureKana":"ﾎｯｶｲﾄﾞｳ","cityKana":"ﾃｼｵｸﾞﾝﾎﾛﾉﾍﾞﾁｮｳ","streetKana":"ｶﾐﾎﾛﾉﾍﾞ","prefecture":"北海道","city":"天塩郡幌延町","street":"上幌延"},{"zipCode":"0983221","prefectureKana":"ﾎｯｶｲﾄﾞｳ","cityKana":"ﾃｼｵｸﾞﾝﾎﾛﾉﾍﾞﾁｮｳ","streetKana":"ｻｶｴﾏﾁ","prefecture":"北海道","city":"天塩郡幌延町","street":"栄町"},{"zipCode":"0983228","prefectureKana":"ﾎｯｶｲﾄﾞｳ","cityKana":"ﾃｼｵｸﾞﾝﾎﾛﾉﾍﾞﾁｮｳ","streetKana":"ｼﾓﾇﾏ","prefecture":"北海道","city":"天塩郡幌延町","street":"下沼"},{"zipCode":"0982943","prefectureKana":"ﾎｯｶｲﾄﾞｳ","cityKana":"ﾃｼｵｸﾞﾝﾎﾛﾉﾍﾞﾁｮｳ","streetKana":"ﾄｲｶﾝﾍﾞﾂ","prefecture":"北海道","city":"天塩郡幌延町","street":"問寒別"},{"zipCode":"0982942","prefectureKana":"ﾎｯｶｲﾄﾞｳ","cityKana":"ﾃｼｵｸﾞﾝﾎﾛﾉﾍﾞﾁｮｳ","streetKana":"ﾅｶﾄｲｶﾝ","prefecture":"北海道","city":"天塩郡幌延町","street":"中問寒"},{"zipCode":"0983227","prefectureKana":"ﾎｯｶｲﾄﾞｳ","cityKana":"ﾃｼｵｸﾞﾝﾎﾛﾉﾍﾞﾁｮｳ","streetKana":"ﾊﾏｻﾄ","prefecture":"北海道","city":"天塩郡幌延町","street":"浜里"},{"zipCode":"0983222","prefectureKana":"ﾎｯｶｲﾄﾞｳ","cityKana":"ﾃｼｵｸﾞﾝﾎﾛﾉﾍﾞﾁｮｳ","streetKana":"ﾋｶﾞｼﾏﾁ","prefecture":"北海道","city":"天塩郡幌延町","street":"東町"},{"zipCode":"0983224","prefectureKana":"ﾎｯｶｲﾄﾞｳ","cityKana":"ﾃｼｵｸﾞﾝﾎﾛﾉﾍﾞﾁｮｳ","streetKana":"ﾎｸｼﾝ","prefecture":"北海道","city":"天塩郡幌延町","street":"北進"},{"zipCode":"0983223","prefectureKana":"ﾎｯｶｲﾄﾞｳ","cityKana":"ﾃｼｵｸﾞﾝﾎﾛﾉﾍﾞﾁｮｳ","streetKana":"ﾎﾛﾉﾍﾞ","prefecture":"北海道","city":"天塩郡幌延町","street":"幌延"},{"zipCode":"0983207","prefectureKana":"ﾎｯｶｲﾄﾞｳ","cityKana":"ﾃｼｵｸﾞﾝﾎﾛﾉﾍﾞﾁｮｳ","streetKana":"ﾐﾔｿﾞﾉﾏﾁ","prefecture":"北海道","city":"天塩郡幌延町","street":"宮園町"},{"zipCode":"0983217","prefectureKana":"ﾎｯｶｲﾄﾞｳ","cityKana":"ﾃｼｵｸﾞﾝﾎﾛﾉﾍﾞﾁｮｳ","streetKana":"ﾓﾄﾏﾁ","prefecture":"北海道","city":"天塩郡幌延町","street":"元町"},{"zipCode":"0983251","prefectureKana":"ﾎｯｶｲﾄﾞｳ","cityKana":"ﾃｼｵｸﾞﾝﾎﾛﾉﾍﾞﾁｮｳ","streetKana":"ﾕｳｺｳ","prefecture":"北海道","city":"天塩郡幌延町","street":"雄興"},{"zipCode":"0983211","prefectureKana":"ﾎｯｶｲﾄﾞｳ","cityKana":"ﾃｼｵｸﾞﾝﾎﾛﾉﾍﾞﾁｮｳ","streetKana":"1ｼﾞｮｳﾐﾅﾐ","prefecture":"北海道","city":"天塩郡幌延町","street":"一条南"},{"zipCode":"0983201","prefectureKana":"ﾎｯｶｲﾄﾞｳ","cityKana":"ﾃｼｵｸﾞﾝﾎﾛﾉﾍﾞﾁｮｳ","streetKana":"1ｼﾞｮｳｷﾀ","prefecture":"北海道","city":"天塩郡幌延町","street":"一条北"},{"zipCode":"0983212","prefectureKana":"ﾎｯｶｲﾄﾞｳ","cityKana":"ﾃｼｵｸﾞﾝﾎﾛﾉﾍﾞﾁｮｳ","streetKana":"2ｼﾞｮｳﾐﾅﾐ","prefecture":"北海道","city":"天塩郡幌延町","street":"二条南"},{"zipCode":"0983202","prefectureKana":"ﾎｯｶｲﾄﾞｳ","cityKana":"ﾃｼｵｸﾞﾝﾎﾛﾉﾍﾞﾁｮｳ","streetKana":"2ｼﾞｮｳｷﾀ","prefecture":"北海道","city":"天塩郡幌延町","street":"二条北"},{"zipCode":"0983213","prefectureKana":"ﾎｯｶｲﾄﾞｳ","cityKana":"ﾃｼｵｸﾞﾝﾎﾛﾉﾍﾞﾁｮｳ","streetKana":"3ｼﾞｮｳﾐﾅﾐ","prefecture":"北海道","city":"天塩郡幌延町","street":"三条南"},{"zipCode":"0983203","prefectureKana":"ﾎｯｶｲﾄﾞｳ","cityKana":"ﾃｼｵｸﾞﾝﾎﾛﾉﾍﾞﾁｮｳ","streetKana":"3ｼﾞｮｳｷﾀ","prefecture":"北海道","city":"天塩郡幌延町","street":"三条北"},{"zipCode":"0983214","prefectureKana":"ﾎｯｶｲﾄﾞｳ","cityKana":"ﾃｼｵｸﾞﾝﾎﾛﾉﾍﾞﾁｮｳ","streetKana":"4ｼﾞｮｳﾐﾅﾐ","prefecture":"北海道","city":"天塩郡幌延町","street":"四条南"},{"zipCode":"0983204","prefectureKana":"ﾎｯｶｲﾄﾞｳ","cityKana":"ﾃｼｵｸﾞﾝﾎﾛﾉﾍﾞﾁｮｳ","streetKana":"4ｼﾞｮｳｷﾀ","prefecture":"北海道","city":"天塩郡幌延町","street":"四条北"},{"zipCode":"0983215","prefectureKana":"ﾎｯｶｲﾄﾞｳ","cityKana":"ﾃｼｵｸﾞﾝﾎﾛﾉﾍﾞﾁｮｳ","streetKana":"5ｼﾞｮｳﾐﾅﾐ","prefecture":"北海道","city":"天塩郡幌延町","street":"五条南"},{"zipCode":"0983205","prefectureKana":"ﾎｯｶｲﾄﾞｳ","cityKana":"ﾃｼｵｸﾞﾝﾎﾛﾉﾍﾞﾁｮｳ","streetKana":"5ｼﾞｮｳｷﾀ","prefecture":"北海道","city":"天塩郡幌延町","street":"五条北"},{"zipCode":"0983216","prefectureKana":"ﾎｯｶｲﾄﾞｳ","cityKana":"ﾃｼｵｸﾞﾝﾎﾛﾉﾍﾞﾁｮｳ","streetKana":"6ｼﾞｮｳﾐﾅﾐ","prefecture":"北海道","city":"天塩郡幌延町","street":"六条南"},{"zipCode":"0983206","prefectureKana":"ﾎｯｶｲﾄﾞｳ","cityKana":"ﾃｼｵｸﾞﾝﾎﾛﾉﾍﾞﾁｮｳ","streetKana":"6ｼﾞｮｳｷﾀ","prefecture":"北海道","city":"天塩郡幌延町","street":"六条北"},{"zipCode":"0981600","prefectureKana":"ﾎｯｶｲﾄﾞｳ","cityKana":"ﾓﾝﾍﾞﾂｸﾞﾝｵｺｯﾍﾟﾁｮｳ","streetKana":"ｲｶﾆｹｲｻｲｶﾞﾅｲﾊﾞｱｲ","prefecture":"北海道","city":"紋別郡興部町","street":"以下に掲載がない場合"},{"zipCode":"0981621","prefectureKana":"ﾎｯｶｲﾄﾞｳ","cityKana":"ﾓﾝﾍﾞﾂｸﾞﾝｵｺｯﾍﾟﾁｮｳ","streetKana":"ｱｷｻﾄ","prefecture":"北海道","city":"紋別郡興部町","street":"秋里"},{"zipCode":"0981624","prefectureKana":"ﾎｯｶｲﾄﾞｳ","cityKana":"ﾓﾝﾍﾞﾂｸﾞﾝｵｺｯﾍﾟﾁｮｳ","streetKana":"ｳﾂ","prefecture":"北海道","city":"紋別郡興部町","street":"宇津"},{"zipCode":"0981607","prefectureKana":"ﾎｯｶｲﾄﾞｳ","cityKana":"ﾓﾝﾍﾞﾂｸﾞﾝｵｺｯﾍﾟﾁｮｳ","streetKana":"ｵｺｯﾍﾟ(ｱｻﾋﾏﾁ)","prefecture":"北海道","city":"紋別郡興部町","street":"興部（旭町）"},{"zipCode":"0981604","prefectureKana":"ﾎｯｶｲﾄﾞｳ","cityKana":"ﾓﾝﾍﾞﾂｸﾞﾝｵｺｯﾍﾟﾁｮｳ","streetKana":"ｵｺｯﾍﾟ(ｶｽｶﾞﾁｮｳ)","prefecture":"北海道","city":"紋別郡興部町","street":"興部（春日町）"},{"zipCode":"0981614","prefectureKana":"ﾎｯｶｲﾄﾞｳ","cityKana":"ﾓﾝﾍﾞﾂｸﾞﾝｵｺｯﾍﾟﾁｮｳ","streetKana":"ｵｺｯﾍﾟ(ｻｲﾜｲﾁｮｳ)","prefecture":"北海道","city":"紋別郡興部町","street":"興部（幸町）"},{"zipCode":"0981606","prefectureKana":"ﾎｯｶｲﾄﾞｳ","cityKana":"ﾓﾝﾍﾞﾂｸﾞﾝｵｺｯﾍﾟﾁｮｳ","streetKana":"ｵｺｯﾍﾟ(ｻｶｴﾏﾁ)","prefecture":"北海道","city":"紋別郡興部町","street":"興部（栄町）"},{"zipCode":"0981612","prefectureKana":"ﾎｯｶｲﾄﾞｳ","cityKana":"ﾓﾝﾍﾞﾂｸﾞﾝｵｺｯﾍﾟﾁｮｳ","streetKana":"ｵｺｯﾍﾟ(ｼﾝｲｽﾞﾐﾏﾁ)","prefecture":"北海道","city":"紋別郡興部町","street":"興部（新泉町）"},{"zipCode":"0981613","prefectureKana":"ﾎｯｶｲﾄﾞｳ","cityKana":"ﾓﾝﾍﾞﾂｸﾞﾝｵｺｯﾍﾟﾁｮｳ","streetKana":"ｵｺｯﾍﾟ(ｼﾝﾏﾁ)","prefecture":"北海道","city":"紋別郡興部町","street":"興部（新町）"},{"zipCode":"0981615","prefectureKana":"ﾎｯｶｲﾄﾞｳ","cityKana":"ﾓﾝﾍﾞﾂｸﾞﾝｵｺｯﾍﾟﾁｮｳ","streetKana":"ｵｺｯﾍﾟ(ﾅｶﾏﾁ)","prefecture":"北海道","city":"紋別郡興部町","street":"興部（仲町）"},{"zipCode":"0981602","prefectureKana":"ﾎｯｶｲﾄﾞｳ","cityKana":"ﾓﾝﾍﾞﾂｸﾞﾝｵｺｯﾍﾟﾁｮｳ","streetKana":"ｵｺｯﾍﾟ(ﾊﾏﾁｮｳ)","prefecture":"北海道","city":"紋別郡興部町","street":"興部（浜町）"},{"zipCode":"0981603","prefectureKana":"ﾎｯｶｲﾄﾞｳ","cityKana":"ﾓﾝﾍﾞﾂｸﾞﾝｵｺｯﾍﾟﾁｮｳ","streetKana":"ｵｺｯﾍﾟ(ﾋｶﾞｼﾏﾁ)","prefecture":"北海道","city":"紋別郡興部町","street":"興部（東町）"},{"zipCode":"0981616","prefectureKana":"ﾎｯｶｲﾄﾞｳ","cityKana":"ﾓﾝﾍﾞﾂｸﾞﾝｵｺｯﾍﾟﾁｮｳ","streetKana":"ｵｺｯﾍﾟ(ﾎﾝﾁｮｳ)","prefecture":"北海道","city":"紋別郡興部町","street":"興部（本町）"},{"zipCode":"0981605","prefectureKana":"ﾎｯｶｲﾄﾞｳ","cityKana":"ﾓﾝﾍﾞﾂｸﾞﾝｵｺｯﾍﾟﾁｮｳ","streetKana":"ｵｺｯﾍﾟ(ﾐﾄﾞﾘｶﾞｵｶ)","prefecture":"北海道","city":"紋別郡興部町","street":"興部（緑ケ丘）"},{"zipCode":"0981623","prefectureKana":"ﾎｯｶｲﾄﾞｳ","cityKana":"ﾓﾝﾍﾞﾂｸﾞﾝｵｺｯﾍﾟﾁｮｳ","streetKana":"ｵｺｯﾍﾟ(ﾐﾔｼﾀﾁｮｳ)","prefecture":"北海道","city":"紋別郡興部町","street":"興部（宮下町）"},{"zipCode":"0981601","prefectureKana":"ﾎｯｶｲﾄﾞｳ","cityKana":"ﾓﾝﾍﾞﾂｸﾞﾝｵｺｯﾍﾟﾁｮｳ","streetKana":"ｵｺｯﾍﾟ(ﾓﾄﾏﾁ)","prefecture":"北海道","city":"紋別郡興部町","street":"興部（元町）"},{"zipCode":"0981611","prefectureKana":"ﾎｯｶｲﾄﾞｳ","cityKana":"ﾓﾝﾍﾞﾂｸﾞﾝｵｺｯﾍﾟﾁｮｳ","streetKana":"ｵｺｯﾍﾟ(ｲｽﾞﾐﾏﾁ)","prefecture":"北海道","city":"紋別郡興部町","street":"興部（泉町）"},{"zipCode":"0981941","prefectureKana":"ﾎｯｶｲﾄﾞｳ","cityKana":"ﾓﾝﾍﾞﾂｸﾞﾝｵｺｯﾍﾟﾁｮｳ","streetKana":"ｻﾙﾙ","prefecture":"北海道","city":"紋別郡興部町","street":"沙留"},{"zipCode":"0981943","prefectureKana":"ﾎｯｶｲﾄﾞｳ","cityKana":"ﾓﾝﾍﾞﾂｸﾞﾝｵｺｯﾍﾟﾁｮｳ","streetKana":"ｽﾐﾖｼ","prefecture":"北海道","city":"紋別郡興部町","street":"住吉"},{"zipCode":"0981942","prefectureKana":"ﾎｯｶｲﾄﾞｳ","cityKana":"ﾓﾝﾍﾞﾂｸﾞﾝｵｺｯﾍﾟﾁｮｳ","streetKana":"ﾄﾐｵｶ","prefecture":"北海道","city":"紋別郡興部町","street":"富丘"},{"zipCode":"0981944","prefectureKana":"ﾎｯｶｲﾄﾞｳ","cityKana":"ﾓﾝﾍﾞﾂｸﾞﾝｵｺｯﾍﾟﾁｮｳ","streetKana":"ﾄﾖﾉ","prefecture":"北海道","city":"紋別郡興部町","street":"豊野"},{"zipCode":"0981622","prefectureKana":"ﾎｯｶｲﾄﾞｳ","cityKana":"ﾓﾝﾍﾞﾂｸﾞﾝｵｺｯﾍﾟﾁｮｳ","streetKana":"ﾎｯｺｳ","prefecture":"北海道","city":"紋別郡興部町","street":"北興"},{"zipCode":"0981500","prefectureKana":"ﾎｯｶｲﾄﾞｳ","cityKana":"ﾓﾝﾍﾞﾂｸﾞﾝﾆｼｵｺｯﾍﾟﾑﾗ","streetKana":"ｲｶﾆｹｲｻｲｶﾞﾅｲﾊﾞｱｲ","prefecture":"北海道","city":"紋別郡西興部村","street":"以下に掲載がない場合"},{"zipCode":"0981424","prefectureKana":"ﾎｯｶｲﾄﾞｳ","cityKana":"ﾓﾝﾍﾞﾂｸﾞﾝﾆｼｵｺｯﾍﾟﾑﾗ","streetKana":"ｵｸｵｺｯﾍﾟ","prefecture":"北海道","city":"紋別郡西興部村","street":"奥興部"},{"zipCode":"0981504","prefectureKana":"ﾎｯｶｲﾄﾞｳ","cityKana":"ﾓﾝﾍﾞﾂｸﾞﾝﾆｼｵｺｯﾍﾟﾑﾗ","streetKana":"ｵｼｮﾛｯｺ","prefecture":"北海道","city":"紋別郡西興部村","street":"忍路子"},{"zipCode":"0981421","prefectureKana":"ﾎｯｶｲﾄﾞｳ","cityKana":"ﾓﾝﾍﾞﾂｸﾞﾝﾆｼｵｺｯﾍﾟﾑﾗ","streetKana":"ｶﾐｵｺｯﾍﾟ","prefecture":"北海道","city":"紋別郡西興部村","street":"上興部"},{"zipCode":"0981505","prefectureKana":"ﾎｯｶｲﾄﾞｳ","cityKana":"ﾓﾝﾍﾞﾂｸﾞﾝﾆｼｵｺｯﾍﾟﾑﾗ","streetKana":"ｶﾐﾓ","prefecture":"北海道","city":"紋別郡西興部村","street":"上藻"},{"zipCode":"0981423","prefectureKana":"ﾎｯｶｲﾄﾞｳ","cityKana":"ﾓﾝﾍﾞﾂｸﾞﾝﾆｼｵｺｯﾍﾟﾑﾗ","streetKana":"ｻｯｺﾂ","prefecture":"北海道","city":"紋別郡西興部村","street":"札滑"},{"zipCode":"0981422","prefectureKana":"ﾎｯｶｲﾄﾞｳ","cityKana":"ﾓﾝﾍﾞﾂｸﾞﾝﾆｼｵｺｯﾍﾟﾑﾗ","streetKana":"ﾄｳｺｳ","prefecture":"北海道","city":"紋別郡西興部村","street":"東興"},{"zipCode":"0981503","prefectureKana":"ﾎｯｶｲﾄﾞｳ","cityKana":"ﾓﾝﾍﾞﾂｸﾞﾝﾆｼｵｺｯﾍﾟﾑﾗ","streetKana":"ﾅｶｵｺｯﾍﾟ","prefecture":"北海道","city":"紋別郡西興部村","street":"中興部"},{"zipCode":"0981506","prefectureKana":"ﾎｯｶｲﾄﾞｳ","cityKana":"ﾓﾝﾍﾞﾂｸﾞﾝﾆｼｵｺｯﾍﾟﾑﾗ","streetKana":"ﾅｶﾓ","prefecture":"北海道","city":"紋別郡西興部村","street":"中藻"},{"zipCode":"0981501","prefectureKana":"ﾎｯｶｲﾄﾞｳ","cityKana":"ﾓﾝﾍﾞﾂｸﾞﾝﾆｼｵｺｯﾍﾟﾑﾗ","streetKana":"ﾆｼｵｺｯﾍﾟ","prefecture":"北海道","city":"紋別郡西興部村","street":"西興部"},{"zipCode":"0981502","prefectureKana":"ﾎｯｶｲﾄﾞｳ","cityKana":"ﾓﾝﾍﾞﾂｸﾞﾝﾆｼｵｺｯﾍﾟﾑﾗ","streetKana":"ﾛｯｺｳ","prefecture":"北海道","city":"紋別郡西興部村","street":"六興"},{"zipCode":"0981700","prefectureKana":"ﾎｯｶｲﾄﾞｳ","cityKana":"ﾓﾝﾍﾞﾂｸﾞﾝｵｳﾑﾁｮｳ","streetKana":"ｲｶﾆｹｲｻｲｶﾞﾅｲﾊﾞｱｲ","prefecture":"北海道","city":"紋別郡雄武町","street":"以下に掲載がない場合"},{"zipCode":"0981702","prefectureKana":"ﾎｯｶｲﾄﾞｳ","cityKana":"ﾓﾝﾍﾞﾂｸﾞﾝｵｳﾑﾁｮｳ","streetKana":"ｵｳﾑ","prefecture":"北海道","city":"紋別郡雄武町","street":"雄武"},{"zipCode":"0981707","prefectureKana":"ﾎｯｶｲﾄﾞｳ","cityKana":"ﾓﾝﾍﾞﾂｸﾞﾝｵｳﾑﾁｮｳ","streetKana":"ｶﾐｵｳﾑ","prefecture":"北海道","city":"紋別郡雄武町","street":"上雄武"},{"zipCode":"0981704","prefectureKana":"ﾎｯｶｲﾄﾞｳ","cityKana":"ﾓﾝﾍﾞﾂｸﾞﾝｵｳﾑﾁｮｳ","streetKana":"ｶﾐｻﾜｷ","prefecture":"北海道","city":"紋別郡雄武町","street":"上沢木"},{"zipCode":"0981708","prefectureKana":"ﾎｯｶｲﾄﾞｳ","cityKana":"ﾓﾝﾍﾞﾂｸﾞﾝｵｳﾑﾁｮｳ","streetKana":"ｶﾐﾎﾛﾅｲ","prefecture":"北海道","city":"紋別郡雄武町","street":"上幌内"},{"zipCode":"0981701","prefectureKana":"ﾎｯｶｲﾄﾞｳ","cityKana":"ﾓﾝﾍﾞﾂｸﾞﾝｵｳﾑﾁｮｳ","streetKana":"ｷﾀｵｳﾑ","prefecture":"北海道","city":"紋別郡雄武町","street":"北雄武"},{"zipCode":"0981821","prefectureKana":"ﾎｯｶｲﾄﾞｳ","cityKana":"ﾓﾝﾍﾞﾂｸﾞﾝｵｳﾑﾁｮｳ","streetKana":"ｷﾀﾎﾛﾅｲ","prefecture":"北海道","city":"紋別郡雄武町","street":"北幌内"},{"zipCode":"0981703","prefectureKana":"ﾎｯｶｲﾄﾞｳ","cityKana":"ﾓﾝﾍﾞﾂｸﾞﾝｵｳﾑﾁｮｳ","streetKana":"ｻﾜｷ","prefecture":"北海道","city":"紋別郡雄武町","street":"沢木"},{"zipCode":"0981706","prefectureKana":"ﾎｯｶｲﾄﾞｳ","cityKana":"ﾓﾝﾍﾞﾂｸﾞﾝｵｳﾑﾁｮｳ","streetKana":"ﾅｶｵｳﾑ","prefecture":"北海道","city":"紋別郡雄武町","street":"中雄武"},{"zipCode":"0981821","prefectureKana":"ﾎｯｶｲﾄﾞｳ","cityKana":"ﾓﾝﾍﾞﾂｸﾞﾝｵｳﾑﾁｮｳ","streetKana":"ﾅｶﾎﾛﾅｲ","prefecture":"北海道","city":"紋別郡雄武町","street":"中幌内"},{"zipCode":"0981821","prefectureKana":"ﾎｯｶｲﾄﾞｳ","cityKana":"ﾓﾝﾍﾞﾂｸﾞﾝｵｳﾑﾁｮｳ","streetKana":"ﾎﾛﾅｲ","prefecture":"北海道","city":"紋別郡雄武町","street":"幌内"},{"zipCode":"0981705","prefectureKana":"ﾎｯｶｲﾄﾞｳ","cityKana":"ﾓﾝﾍﾞﾂｸﾞﾝｵｳﾑﾁｮｳ","streetKana":"ﾐﾅﾐｵｳﾑ","prefecture":"北海道","city":"紋別郡雄武町","street":"南雄武"}]