[{"zipCode":"1050000","prefectureKana":"ﾄｳｷｮｳﾄ","cityKana":"ﾐﾅﾄｸ","streetKana":"ｲｶﾆｹｲｻｲｶﾞﾅｲﾊﾞｱｲ","prefecture":"東京都","city":"港区","street":"以下に掲載がない場合"},{"zipCode":"1050002","prefectureKana":"ﾄｳｷｮｳﾄ","cityKana":"ﾐﾅﾄｸ","streetKana":"ｱﾀｺﾞ(ﾂｷﾞﾉﾋﾞﾙｦﾉｿﾞｸ)","prefecture":"東京都","city":"港区","street":"愛宕（次のビルを除く）"},{"zipCode":"1056290","prefectureKana":"ﾄｳｷｮｳﾄ","cityKana":"ﾐﾅﾄｸ","streetKana":"ｱﾀｺﾞｱﾀｺﾞｸﾞﾘｰﾝﾋﾙｽﾞﾓﾘﾀﾜｰ(ﾁｶｲ･ｶｲｿｳﾌﾒｲ)","prefecture":"東京都","city":"港区","street":"愛宕愛宕グリーンヒルズＭＯＲＩタワー（地階・階層不明）"},{"zipCode":"1056201","prefectureKana":"ﾄｳｷｮｳﾄ","cityKana":"ﾐﾅﾄｸ","streetKana":"ｱﾀｺﾞｱﾀｺﾞｸﾞﾘｰﾝﾋﾙｽﾞﾓﾘﾀﾜｰ(1ｶｲ)","prefecture":"東京都","city":"港区","street":"愛宕愛宕グリーンヒルズＭＯＲＩタワー（１階）"},{"zipCode":"1056202","prefectureKana":"ﾄｳｷｮｳﾄ","cityKana":"ﾐﾅﾄｸ","streetKana":"ｱﾀｺﾞｱﾀｺﾞｸﾞﾘｰﾝﾋﾙｽﾞﾓﾘﾀﾜｰ(2ｶｲ)","prefecture":"東京都","city":"港区","street":"愛宕愛宕グリーンヒルズＭＯＲＩタワー（２階）"},{"zipCode":"1056203","prefectureKana":"ﾄｳｷｮｳﾄ","cityKana":"ﾐﾅﾄｸ","streetKana":"ｱﾀｺﾞｱﾀｺﾞｸﾞﾘｰﾝﾋﾙｽﾞﾓﾘﾀﾜｰ(3ｶｲ)","prefecture":"東京都","city":"港区","street":"愛宕愛宕グリーンヒルズＭＯＲＩタワー（３階）"},{"zipCode":"1056204","prefectureKana":"ﾄｳｷｮｳﾄ","cityKana":"ﾐﾅﾄｸ","streetKana":"ｱﾀｺﾞｱﾀｺﾞｸﾞﾘｰﾝﾋﾙｽﾞﾓﾘﾀﾜｰ(4ｶｲ)","prefecture":"東京都","city":"港区","street":"愛宕愛宕グリーンヒルズＭＯＲＩタワー（４階）"},{"zipCode":"1056205","prefectureKana":"ﾄｳｷｮｳﾄ","cityKana":"ﾐﾅﾄｸ","streetKana":"ｱﾀｺﾞｱﾀｺﾞｸﾞﾘｰﾝﾋﾙｽﾞﾓﾘﾀﾜｰ(5ｶｲ)","prefecture":"東京都","city":"港区","street":"愛宕愛宕グリーンヒルズＭＯＲＩタワー（５階）"},{"zipCode":"1056206","prefectureKana":"ﾄｳｷｮｳﾄ","cityKana":"ﾐﾅﾄｸ","streetKana":"ｱﾀｺﾞｱﾀｺﾞｸﾞﾘｰﾝﾋﾙｽﾞﾓﾘﾀﾜｰ(6ｶｲ)","prefecture":"東京都","city":"港区","street":"愛宕愛宕グリーンヒルズＭＯＲＩタワー（６階）"},{"zipCode":"1056207","prefectureKana":"ﾄｳｷｮｳﾄ","cityKana":"ﾐﾅﾄｸ","streetKana":"ｱﾀｺﾞｱﾀｺﾞｸﾞﾘｰﾝﾋﾙｽﾞﾓﾘﾀﾜｰ(7ｶｲ)","prefecture":"東京都","city":"港区","street":"愛宕愛宕グリーンヒルズＭＯＲＩタワー（７階）"},{"zipCode":"1056208","prefectureKana":"ﾄｳｷｮｳﾄ","cityKana":"ﾐﾅﾄｸ","streetKana":"ｱﾀｺﾞｱﾀｺﾞｸﾞﾘｰﾝﾋﾙｽﾞﾓﾘﾀﾜｰ(8ｶｲ)","prefecture":"東京都","city":"港区","street":"愛宕愛宕グリーンヒルズＭＯＲＩタワー（８階）"},{"zipCode":"1056209","prefectureKana":"ﾄｳｷｮｳﾄ","cityKana":"ﾐﾅﾄｸ","streetKana":"ｱﾀｺﾞｱﾀｺﾞｸﾞﾘｰﾝﾋﾙｽﾞﾓﾘﾀﾜｰ(9ｶｲ)","prefecture":"東京都","city":"港区","street":"愛宕愛宕グリーンヒルズＭＯＲＩタワー（９階）"},{"zipCode":"1056210","prefectureKana":"ﾄｳｷｮｳﾄ","cityKana":"ﾐﾅﾄｸ","streetKana":"ｱﾀｺﾞｱﾀｺﾞｸﾞﾘｰﾝﾋﾙｽﾞﾓﾘﾀﾜｰ(10ｶｲ)","prefecture":"東京都","city":"港区","street":"愛宕愛宕グリーンヒルズＭＯＲＩタワー（１０階）"},{"zipCode":"1056211","prefectureKana":"ﾄｳｷｮｳﾄ","cityKana":"ﾐﾅﾄｸ","streetKana":"ｱﾀｺﾞｱﾀｺﾞｸﾞﾘｰﾝﾋﾙｽﾞﾓﾘﾀﾜｰ(11ｶｲ)","prefecture":"東京都","city":"港区","street":"愛宕愛宕グリーンヒルズＭＯＲＩタワー（１１階）"},{"zipCode":"1056212","prefectureKana":"ﾄｳｷｮｳﾄ","cityKana":"ﾐﾅﾄｸ","streetKana":"ｱﾀｺﾞｱﾀｺﾞｸﾞﾘｰﾝﾋﾙｽﾞﾓﾘﾀﾜｰ(12ｶｲ)","prefecture":"東京都","city":"港区","street":"愛宕愛宕グリーンヒルズＭＯＲＩタワー（１２階）"},{"zipCode":"1056213","prefectureKana":"ﾄｳｷｮｳﾄ","cityKana":"ﾐﾅﾄｸ","streetKana":"ｱﾀｺﾞｱﾀｺﾞｸﾞﾘｰﾝﾋﾙｽﾞﾓﾘﾀﾜｰ(13ｶｲ)","prefecture":"東京都","city":"港区","street":"愛宕愛宕グリーンヒルズＭＯＲＩタワー（１３階）"},{"zipCode":"1056214","prefectureKana":"ﾄｳｷｮｳﾄ","cityKana":"ﾐﾅﾄｸ","streetKana":"ｱﾀｺﾞｱﾀｺﾞｸﾞﾘｰﾝﾋﾙｽﾞﾓﾘﾀﾜｰ(14ｶｲ)","prefecture":"東京都","city":"港区","street":"愛宕愛宕グリーンヒルズＭＯＲＩタワー（１４階）"},{"zipCode":"1056215","prefectureKana":"ﾄｳｷｮｳﾄ","cityKana":"ﾐﾅﾄｸ","streetKana":"ｱﾀｺﾞｱﾀｺﾞｸﾞﾘｰﾝﾋﾙｽﾞﾓﾘﾀﾜｰ(15ｶｲ)","prefecture":"東京都","city":"港区","street":"愛宕愛宕グリーンヒルズＭＯＲＩタワー（１５階）"},{"zipCode":"1056216","prefectureKana":"ﾄｳｷｮｳﾄ","cityKana":"ﾐﾅﾄｸ","streetKana":"ｱﾀｺﾞｱﾀｺﾞｸﾞﾘｰﾝﾋﾙｽﾞﾓﾘﾀﾜｰ(16ｶｲ)","prefecture":"東京都","city":"港区","street":"愛宕愛宕グリーンヒルズＭＯＲＩタワー（１６階）"},{"zipCode":"1056217","prefectureKana":"ﾄｳｷｮｳﾄ","cityKana":"ﾐﾅﾄｸ","streetKana":"ｱﾀｺﾞｱﾀｺﾞｸﾞﾘｰﾝﾋﾙｽﾞﾓﾘﾀﾜｰ(17ｶｲ)","prefecture":"東京都","city":"港区","street":"愛宕愛宕グリーンヒルズＭＯＲＩタワー（１７階）"},{"zipCode":"1056218","prefectureKana":"ﾄｳｷｮｳﾄ","cityKana":"ﾐﾅﾄｸ","streetKana":"ｱﾀｺﾞｱﾀｺﾞｸﾞﾘｰﾝﾋﾙｽﾞﾓﾘﾀﾜｰ(18ｶｲ)","prefecture":"東京都","city":"港区","street":"愛宕愛宕グリーンヒルズＭＯＲＩタワー（１８階）"},{"zipCode":"1056219","prefectureKana":"ﾄｳｷｮｳﾄ","cityKana":"ﾐﾅﾄｸ","streetKana":"ｱﾀｺﾞｱﾀｺﾞｸﾞﾘｰﾝﾋﾙｽﾞﾓﾘﾀﾜｰ(19ｶｲ)","prefecture":"東京都","city":"港区","street":"愛宕愛宕グリーンヒルズＭＯＲＩタワー（１９階）"},{"zipCode":"1056220","prefectureKana":"ﾄｳｷｮｳﾄ","cityKana":"ﾐﾅﾄｸ","streetKana":"ｱﾀｺﾞｱﾀｺﾞｸﾞﾘｰﾝﾋﾙｽﾞﾓﾘﾀﾜｰ(20ｶｲ)","prefecture":"東京都","city":"港区","street":"愛宕愛宕グリーンヒルズＭＯＲＩタワー（２０階）"},{"zipCode":"1056221","prefectureKana":"ﾄｳｷｮｳﾄ","cityKana":"ﾐﾅﾄｸ","streetKana":"ｱﾀｺﾞｱﾀｺﾞｸﾞﾘｰﾝﾋﾙｽﾞﾓﾘﾀﾜｰ(21ｶｲ)","prefecture":"東京都","city":"港区","street":"愛宕愛宕グリーンヒルズＭＯＲＩタワー（２１階）"},{"zipCode":"1056222","prefectureKana":"ﾄｳｷｮｳﾄ","cityKana":"ﾐﾅﾄｸ","streetKana":"ｱﾀｺﾞｱﾀｺﾞｸﾞﾘｰﾝﾋﾙｽﾞﾓﾘﾀﾜｰ(22ｶｲ)","prefecture":"東京都","city":"港区","street":"愛宕愛宕グリーンヒルズＭＯＲＩタワー（２２階）"},{"zipCode":"1056223","prefectureKana":"ﾄｳｷｮｳﾄ","cityKana":"ﾐﾅﾄｸ","streetKana":"ｱﾀｺﾞｱﾀｺﾞｸﾞﾘｰﾝﾋﾙｽﾞﾓﾘﾀﾜｰ(23ｶｲ)","prefecture":"東京都","city":"港区","street":"愛宕愛宕グリーンヒルズＭＯＲＩタワー（２３階）"},{"zipCode":"1056224","prefectureKana":"ﾄｳｷｮｳﾄ","cityKana":"ﾐﾅﾄｸ","streetKana":"ｱﾀｺﾞｱﾀｺﾞｸﾞﾘｰﾝﾋﾙｽﾞﾓﾘﾀﾜｰ(24ｶｲ)","prefecture":"東京都","city":"港区","street":"愛宕愛宕グリーンヒルズＭＯＲＩタワー（２４階）"},{"zipCode":"1056225","prefectureKana":"ﾄｳｷｮｳﾄ","cityKana":"ﾐﾅﾄｸ","streetKana":"ｱﾀｺﾞｱﾀｺﾞｸﾞﾘｰﾝﾋﾙｽﾞﾓﾘﾀﾜｰ(25ｶｲ)","prefecture":"東京都","city":"港区","street":"愛宕愛宕グリーンヒルズＭＯＲＩタワー（２５階）"},{"zipCode":"1056226","prefectureKana":"ﾄｳｷｮｳﾄ","cityKana":"ﾐﾅﾄｸ","streetKana":"ｱﾀｺﾞｱﾀｺﾞｸﾞﾘｰﾝﾋﾙｽﾞﾓﾘﾀﾜｰ(26ｶｲ)","prefecture":"東京都","city":"港区","street":"愛宕愛宕グリーンヒルズＭＯＲＩタワー（２６階）"},{"zipCode":"1056227","prefectureKana":"ﾄｳｷｮｳﾄ","cityKana":"ﾐﾅﾄｸ","streetKana":"ｱﾀｺﾞｱﾀｺﾞｸﾞﾘｰﾝﾋﾙｽﾞﾓﾘﾀﾜｰ(27ｶｲ)","prefecture":"東京都","city":"港区","street":"愛宕愛宕グリーンヒルズＭＯＲＩタワー（２７階）"},{"zipCode":"1056228","prefectureKana":"ﾄｳｷｮｳﾄ","cityKana":"ﾐﾅﾄｸ","streetKana":"ｱﾀｺﾞｱﾀｺﾞｸﾞﾘｰﾝﾋﾙｽﾞﾓﾘﾀﾜｰ(28ｶｲ)","prefecture":"東京都","city":"港区","street":"愛宕愛宕グリーンヒルズＭＯＲＩタワー（２８階）"},{"zipCode":"1056229","prefectureKana":"ﾄｳｷｮｳﾄ","cityKana":"ﾐﾅﾄｸ","streetKana":"ｱﾀｺﾞｱﾀｺﾞｸﾞﾘｰﾝﾋﾙｽﾞﾓﾘﾀﾜｰ(29ｶｲ)","prefecture":"東京都","city":"港区","street":"愛宕愛宕グリーンヒルズＭＯＲＩタワー（２９階）"},{"zipCode":"1056230","prefectureKana":"ﾄｳｷｮｳﾄ","cityKana":"ﾐﾅﾄｸ","streetKana":"ｱﾀｺﾞｱﾀｺﾞｸﾞﾘｰﾝﾋﾙｽﾞﾓﾘﾀﾜｰ(30ｶｲ)","prefecture":"東京都","city":"港区","street":"愛宕愛宕グリーンヒルズＭＯＲＩタワー（３０階）"},{"zipCode":"1056231","prefectureKana":"ﾄｳｷｮｳﾄ","cityKana":"ﾐﾅﾄｸ","streetKana":"ｱﾀｺﾞｱﾀｺﾞｸﾞﾘｰﾝﾋﾙｽﾞﾓﾘﾀﾜｰ(31ｶｲ)","prefecture":"東京都","city":"港区","street":"愛宕愛宕グリーンヒルズＭＯＲＩタワー（３１階）"},{"zipCode":"1056232","prefectureKana":"ﾄｳｷｮｳﾄ","cityKana":"ﾐﾅﾄｸ","streetKana":"ｱﾀｺﾞｱﾀｺﾞｸﾞﾘｰﾝﾋﾙｽﾞﾓﾘﾀﾜｰ(32ｶｲ)","prefecture":"東京都","city":"港区","street":"愛宕愛宕グリーンヒルズＭＯＲＩタワー（３２階）"},{"zipCode":"1056233","prefectureKana":"ﾄｳｷｮｳﾄ","cityKana":"ﾐﾅﾄｸ","streetKana":"ｱﾀｺﾞｱﾀｺﾞｸﾞﾘｰﾝﾋﾙｽﾞﾓﾘﾀﾜｰ(33ｶｲ)","prefecture":"東京都","city":"港区","street":"愛宕愛宕グリーンヒルズＭＯＲＩタワー（３３階）"},{"zipCode":"1056234","prefectureKana":"ﾄｳｷｮｳﾄ","cityKana":"ﾐﾅﾄｸ","streetKana":"ｱﾀｺﾞｱﾀｺﾞｸﾞﾘｰﾝﾋﾙｽﾞﾓﾘﾀﾜｰ(34ｶｲ)","prefecture":"東京都","city":"港区","street":"愛宕愛宕グリーンヒルズＭＯＲＩタワー（３４階）"},{"zipCode":"1056235","prefectureKana":"ﾄｳｷｮｳﾄ","cityKana":"ﾐﾅﾄｸ","streetKana":"ｱﾀｺﾞｱﾀｺﾞｸﾞﾘｰﾝﾋﾙｽﾞﾓﾘﾀﾜｰ(35ｶｲ)","prefecture":"東京都","city":"港区","street":"愛宕愛宕グリーンヒルズＭＯＲＩタワー（３５階）"},{"zipCode":"1056236","prefectureKana":"ﾄｳｷｮｳﾄ","cityKana":"ﾐﾅﾄｸ","streetKana":"ｱﾀｺﾞｱﾀｺﾞｸﾞﾘｰﾝﾋﾙｽﾞﾓﾘﾀﾜｰ(36ｶｲ)","prefecture":"東京都","city":"港区","street":"愛宕愛宕グリーンヒルズＭＯＲＩタワー（３６階）"},{"zipCode":"1056237","prefectureKana":"ﾄｳｷｮｳﾄ","cityKana":"ﾐﾅﾄｸ","streetKana":"ｱﾀｺﾞｱﾀｺﾞｸﾞﾘｰﾝﾋﾙｽﾞﾓﾘﾀﾜｰ(37ｶｲ)","prefecture":"東京都","city":"港区","street":"愛宕愛宕グリーンヒルズＭＯＲＩタワー（３７階）"},{"zipCode":"1056238","prefectureKana":"ﾄｳｷｮｳﾄ","cityKana":"ﾐﾅﾄｸ","streetKana":"ｱﾀｺﾞｱﾀｺﾞｸﾞﾘｰﾝﾋﾙｽﾞﾓﾘﾀﾜｰ(38ｶｲ)","prefecture":"東京都","city":"港区","street":"愛宕愛宕グリーンヒルズＭＯＲＩタワー（３８階）"},{"zipCode":"1056239","prefectureKana":"ﾄｳｷｮｳﾄ","cityKana":"ﾐﾅﾄｸ","streetKana":"ｱﾀｺﾞｱﾀｺﾞｸﾞﾘｰﾝﾋﾙｽﾞﾓﾘﾀﾜｰ(39ｶｲ)","prefecture":"東京都","city":"港区","street":"愛宕愛宕グリーンヒルズＭＯＲＩタワー（３９階）"},{"zipCode":"1056240","prefectureKana":"ﾄｳｷｮｳﾄ","cityKana":"ﾐﾅﾄｸ","streetKana":"ｱﾀｺﾞｱﾀｺﾞｸﾞﾘｰﾝﾋﾙｽﾞﾓﾘﾀﾜｰ(40ｶｲ)","prefecture":"東京都","city":"港区","street":"愛宕愛宕グリーンヒルズＭＯＲＩタワー（４０階）"},{"zipCode":"1056241","prefectureKana":"ﾄｳｷｮｳﾄ","cityKana":"ﾐﾅﾄｸ","streetKana":"ｱﾀｺﾞｱﾀｺﾞｸﾞﾘｰﾝﾋﾙｽﾞﾓﾘﾀﾜｰ(41ｶｲ)","prefecture":"東京都","city":"港区","street":"愛宕愛宕グリーンヒルズＭＯＲＩタワー（４１階）"},{"zipCode":"1056242","prefectureKana":"ﾄｳｷｮｳﾄ","cityKana":"ﾐﾅﾄｸ","streetKana":"ｱﾀｺﾞｱﾀｺﾞｸﾞﾘｰﾝﾋﾙｽﾞﾓﾘﾀﾜｰ(42ｶｲ)","prefecture":"東京都","city":"港区","street":"愛宕愛宕グリーンヒルズＭＯＲＩタワー（４２階）"},{"zipCode":"1050022","prefectureKana":"ﾄｳｷｮｳﾄ","cityKana":"ﾐﾅﾄｸ","streetKana":"ｶｲｶﾞﾝ(1､2ﾁｮｳﾒ)","prefecture":"東京都","city":"港区","street":"海岸（１、２丁目）"},{"zipCode":"1057590","prefectureKana":"ﾄｳｷｮｳﾄ","cityKana":"ﾐﾅﾄｸ","streetKana":"ｶｲｶﾞﾝﾄｳｷｮｳﾎﾟｰﾄｼﾃｨﾀｹｼﾊﾞｵﾌｨｽﾀﾜｰ(ﾁｶｲ･ｶｲｿｳﾌﾒｲ)","prefecture":"東京都","city":"港区","street":"海岸東京ポートシティ竹芝オフィスタワー（地階・階層不明）"},{"zipCode":"1057501","prefectureKana":"ﾄｳｷｮｳﾄ","cityKana":"ﾐﾅﾄｸ","streetKana":"ｶｲｶﾞﾝﾄｳｷｮｳﾎﾟｰﾄｼﾃｨﾀｹｼﾊﾞｵﾌｨｽﾀﾜｰ(1ｶｲ)","prefecture":"東京都","city":"港区","street":"海岸東京ポートシティ竹芝オフィスタワー（１階）"},{"zipCode":"1057502","prefectureKana":"ﾄｳｷｮｳﾄ","cityKana":"ﾐﾅﾄｸ","streetKana":"ｶｲｶﾞﾝﾄｳｷｮｳﾎﾟｰﾄｼﾃｨﾀｹｼﾊﾞｵﾌｨｽﾀﾜｰ(2ｶｲ)","prefecture":"東京都","city":"港区","street":"海岸東京ポートシティ竹芝オフィスタワー（２階）"},{"zipCode":"1057503","prefectureKana":"ﾄｳｷｮｳﾄ","cityKana":"ﾐﾅﾄｸ","streetKana":"ｶｲｶﾞﾝﾄｳｷｮｳﾎﾟｰﾄｼﾃｨﾀｹｼﾊﾞｵﾌｨｽﾀﾜｰ(3ｶｲ)","prefecture":"東京都","city":"港区","street":"海岸東京ポートシティ竹芝オフィスタワー（３階）"},{"zipCode":"1057504","prefectureKana":"ﾄｳｷｮｳﾄ","cityKana":"ﾐﾅﾄｸ","streetKana":"ｶｲｶﾞﾝﾄｳｷｮｳﾎﾟｰﾄｼﾃｨﾀｹｼﾊﾞｵﾌｨｽﾀﾜｰ(4ｶｲ)","prefecture":"東京都","city":"港区","street":"海岸東京ポートシティ竹芝オフィスタワー（４階）"},{"zipCode":"1057505","prefectureKana":"ﾄｳｷｮｳﾄ","cityKana":"ﾐﾅﾄｸ","streetKana":"ｶｲｶﾞﾝﾄｳｷｮｳﾎﾟｰﾄｼﾃｨﾀｹｼﾊﾞｵﾌｨｽﾀﾜｰ(5ｶｲ)","prefecture":"東京都","city":"港区","street":"海岸東京ポートシティ竹芝オフィスタワー（５階）"},{"zipCode":"1057506","prefectureKana":"ﾄｳｷｮｳﾄ","cityKana":"ﾐﾅﾄｸ","streetKana":"ｶｲｶﾞﾝﾄｳｷｮｳﾎﾟｰﾄｼﾃｨﾀｹｼﾊﾞｵﾌｨｽﾀﾜｰ(6ｶｲ)","prefecture":"東京都","city":"港区","street":"海岸東京ポートシティ竹芝オフィスタワー（６階）"},{"zipCode":"1057507","prefectureKana":"ﾄｳｷｮｳﾄ","cityKana":"ﾐﾅﾄｸ","streetKana":"ｶｲｶﾞﾝﾄｳｷｮｳﾎﾟｰﾄｼﾃｨﾀｹｼﾊﾞｵﾌｨｽﾀﾜｰ(7ｶｲ)","prefecture":"東京都","city":"港区","street":"海岸東京ポートシティ竹芝オフィスタワー（７階）"},{"zipCode":"1057508","prefectureKana":"ﾄｳｷｮｳﾄ","cityKana":"ﾐﾅﾄｸ","streetKana":"ｶｲｶﾞﾝﾄｳｷｮｳﾎﾟｰﾄｼﾃｨﾀｹｼﾊﾞｵﾌｨｽﾀﾜｰ(8ｶｲ)","prefecture":"東京都","city":"港区","street":"海岸東京ポートシティ竹芝オフィスタワー（８階）"},{"zipCode":"1057509","prefectureKana":"ﾄｳｷｮｳﾄ","cityKana":"ﾐﾅﾄｸ","streetKana":"ｶｲｶﾞﾝﾄｳｷｮｳﾎﾟｰﾄｼﾃｨﾀｹｼﾊﾞｵﾌｨｽﾀﾜｰ(9ｶｲ)","prefecture":"東京都","city":"港区","street":"海岸東京ポートシティ竹芝オフィスタワー（９階）"},{"zipCode":"1057510","prefectureKana":"ﾄｳｷｮｳﾄ","cityKana":"ﾐﾅﾄｸ","streetKana":"ｶｲｶﾞﾝﾄｳｷｮｳﾎﾟｰﾄｼﾃｨﾀｹｼﾊﾞｵﾌｨｽﾀﾜｰ(10ｶｲ)","prefecture":"東京都","city":"港区","street":"海岸東京ポートシティ竹芝オフィスタワー（１０階）"},{"zipCode":"1057511","prefectureKana":"ﾄｳｷｮｳﾄ","cityKana":"ﾐﾅﾄｸ","streetKana":"ｶｲｶﾞﾝﾄｳｷｮｳﾎﾟｰﾄｼﾃｨﾀｹｼﾊﾞｵﾌｨｽﾀﾜｰ(11ｶｲ)","prefecture":"東京都","city":"港区","street":"海岸東京ポートシティ竹芝オフィスタワー（１１階）"},{"zipCode":"1057512","prefectureKana":"ﾄｳｷｮｳﾄ","cityKana":"ﾐﾅﾄｸ","streetKana":"ｶｲｶﾞﾝﾄｳｷｮｳﾎﾟｰﾄｼﾃｨﾀｹｼﾊﾞｵﾌｨｽﾀﾜｰ(12ｶｲ)","prefecture":"東京都","city":"港区","street":"海岸東京ポートシティ竹芝オフィスタワー（１２階）"},{"zipCode":"1057513","prefectureKana":"ﾄｳｷｮｳﾄ","cityKana":"ﾐﾅﾄｸ","streetKana":"ｶｲｶﾞﾝﾄｳｷｮｳﾎﾟｰﾄｼﾃｨﾀｹｼﾊﾞｵﾌｨｽﾀﾜｰ(13ｶｲ)","prefecture":"東京都","city":"港区","street":"海岸東京ポートシティ竹芝オフィスタワー（１３階）"},{"zipCode":"1057514","prefectureKana":"ﾄｳｷｮｳﾄ","cityKana":"ﾐﾅﾄｸ","streetKana":"ｶｲｶﾞﾝﾄｳｷｮｳﾎﾟｰﾄｼﾃｨﾀｹｼﾊﾞｵﾌｨｽﾀﾜｰ(14ｶｲ)","prefecture":"東京都","city":"港区","street":"海岸東京ポートシティ竹芝オフィスタワー（１４階）"},{"zipCode":"1057515","prefectureKana":"ﾄｳｷｮｳﾄ","cityKana":"ﾐﾅﾄｸ","streetKana":"ｶｲｶﾞﾝﾄｳｷｮｳﾎﾟｰﾄｼﾃｨﾀｹｼﾊﾞｵﾌｨｽﾀﾜｰ(15ｶｲ)","prefecture":"東京都","city":"港区","street":"海岸東京ポートシティ竹芝オフィスタワー（１５階）"},{"zipCode":"1057516","prefectureKana":"ﾄｳｷｮｳﾄ","cityKana":"ﾐﾅﾄｸ","streetKana":"ｶｲｶﾞﾝﾄｳｷｮｳﾎﾟｰﾄｼﾃｨﾀｹｼﾊﾞｵﾌｨｽﾀﾜｰ(16ｶｲ)","prefecture":"東京都","city":"港区","street":"海岸東京ポートシティ竹芝オフィスタワー（１６階）"},{"zipCode":"1057517","prefectureKana":"ﾄｳｷｮｳﾄ","cityKana":"ﾐﾅﾄｸ","streetKana":"ｶｲｶﾞﾝﾄｳｷｮｳﾎﾟｰﾄｼﾃｨﾀｹｼﾊﾞｵﾌｨｽﾀﾜｰ(17ｶｲ)","prefecture":"東京都","city":"港区","street":"海岸東京ポートシティ竹芝オフィスタワー（１７階）"},{"zipCode":"1057518","prefectureKana":"ﾄｳｷｮｳﾄ","cityKana":"ﾐﾅﾄｸ","streetKana":"ｶｲｶﾞﾝﾄｳｷｮｳﾎﾟｰﾄｼﾃｨﾀｹｼﾊﾞｵﾌｨｽﾀﾜｰ(18ｶｲ)","prefecture":"東京都","city":"港区","street":"海岸東京ポートシティ竹芝オフィスタワー（１８階）"},{"zipCode":"1057519","prefectureKana":"ﾄｳｷｮｳﾄ","cityKana":"ﾐﾅﾄｸ","streetKana":"ｶｲｶﾞﾝﾄｳｷｮｳﾎﾟｰﾄｼﾃｨﾀｹｼﾊﾞｵﾌｨｽﾀﾜｰ(19ｶｲ)","prefecture":"東京都","city":"港区","street":"海岸東京ポートシティ竹芝オフィスタワー（１９階）"},{"zipCode":"1057520","prefectureKana":"ﾄｳｷｮｳﾄ","cityKana":"ﾐﾅﾄｸ","streetKana":"ｶｲｶﾞﾝﾄｳｷｮｳﾎﾟｰﾄｼﾃｨﾀｹｼﾊﾞｵﾌｨｽﾀﾜｰ(20ｶｲ)","prefecture":"東京都","city":"港区","street":"海岸東京ポートシティ竹芝オフィスタワー（２０階）"},{"zipCode":"1057521","prefectureKana":"ﾄｳｷｮｳﾄ","cityKana":"ﾐﾅﾄｸ","streetKana":"ｶｲｶﾞﾝﾄｳｷｮｳﾎﾟｰﾄｼﾃｨﾀｹｼﾊﾞｵﾌｨｽﾀﾜｰ(21ｶｲ)","prefecture":"東京都","city":"港区","street":"海岸東京ポートシティ竹芝オフィスタワー（２１階）"},{"zipCode":"1057522","prefectureKana":"ﾄｳｷｮｳﾄ","cityKana":"ﾐﾅﾄｸ","streetKana":"ｶｲｶﾞﾝﾄｳｷｮｳﾎﾟｰﾄｼﾃｨﾀｹｼﾊﾞｵﾌｨｽﾀﾜｰ(22ｶｲ)","prefecture":"東京都","city":"港区","street":"海岸東京ポートシティ竹芝オフィスタワー（２２階）"},{"zipCode":"1057523","prefectureKana":"ﾄｳｷｮｳﾄ","cityKana":"ﾐﾅﾄｸ","streetKana":"ｶｲｶﾞﾝﾄｳｷｮｳﾎﾟｰﾄｼﾃｨﾀｹｼﾊﾞｵﾌｨｽﾀﾜｰ(23ｶｲ)","prefecture":"東京都","city":"港区","street":"海岸東京ポートシティ竹芝オフィスタワー（２３階）"},{"zipCode":"1057524","prefectureKana":"ﾄｳｷｮｳﾄ","cityKana":"ﾐﾅﾄｸ","streetKana":"ｶｲｶﾞﾝﾄｳｷｮｳﾎﾟｰﾄｼﾃｨﾀｹｼﾊﾞｵﾌｨｽﾀﾜｰ(24ｶｲ)","prefecture":"東京都","city":"港区","street":"海岸東京ポートシティ竹芝オフィスタワー（２４階）"},{"zipCode":"1057525","prefectureKana":"ﾄｳｷｮｳﾄ","cityKana":"ﾐﾅﾄｸ","streetKana":"ｶｲｶﾞﾝﾄｳｷｮｳﾎﾟｰﾄｼﾃｨﾀｹｼﾊﾞｵﾌｨｽﾀﾜｰ(25ｶｲ)","prefecture":"東京都","city":"港区","street":"海岸東京ポートシティ竹芝オフィスタワー（２５階）"},{"zipCode":"1057526","prefectureKana":"ﾄｳｷｮｳﾄ","cityKana":"ﾐﾅﾄｸ","streetKana":"ｶｲｶﾞﾝﾄｳｷｮｳﾎﾟｰﾄｼﾃｨﾀｹｼﾊﾞｵﾌｨｽﾀﾜｰ(26ｶｲ)","prefecture":"東京都","city":"港区","street":"海岸東京ポートシティ竹芝オフィスタワー（２６階）"},{"zipCode":"1057527","prefectureKana":"ﾄｳｷｮｳﾄ","cityKana":"ﾐﾅﾄｸ","streetKana":"ｶｲｶﾞﾝﾄｳｷｮｳﾎﾟｰﾄｼﾃｨﾀｹｼﾊﾞｵﾌｨｽﾀﾜｰ(27ｶｲ)","prefecture":"東京都","city":"港区","street":"海岸東京ポートシティ竹芝オフィスタワー（２７階）"},{"zipCode":"1057528","prefectureKana":"ﾄｳｷｮｳﾄ","cityKana":"ﾐﾅﾄｸ","streetKana":"ｶｲｶﾞﾝﾄｳｷｮｳﾎﾟｰﾄｼﾃｨﾀｹｼﾊﾞｵﾌｨｽﾀﾜｰ(28ｶｲ)","prefecture":"東京都","city":"港区","street":"海岸東京ポートシティ竹芝オフィスタワー（２８階）"},{"zipCode":"1057529","prefectureKana":"ﾄｳｷｮｳﾄ","cityKana":"ﾐﾅﾄｸ","streetKana":"ｶｲｶﾞﾝﾄｳｷｮｳﾎﾟｰﾄｼﾃｨﾀｹｼﾊﾞｵﾌｨｽﾀﾜｰ(29ｶｲ)","prefecture":"東京都","city":"港区","street":"海岸東京ポートシティ竹芝オフィスタワー（２９階）"},{"zipCode":"1057530","prefectureKana":"ﾄｳｷｮｳﾄ","cityKana":"ﾐﾅﾄｸ","streetKana":"ｶｲｶﾞﾝﾄｳｷｮｳﾎﾟｰﾄｼﾃｨﾀｹｼﾊﾞｵﾌｨｽﾀﾜｰ(30ｶｲ)","prefecture":"東京都","city":"港区","street":"海岸東京ポートシティ竹芝オフィスタワー（３０階）"},{"zipCode":"1057531","prefectureKana":"ﾄｳｷｮｳﾄ","cityKana":"ﾐﾅﾄｸ","streetKana":"ｶｲｶﾞﾝﾄｳｷｮｳﾎﾟｰﾄｼﾃｨﾀｹｼﾊﾞｵﾌｨｽﾀﾜｰ(31ｶｲ)","prefecture":"東京都","city":"港区","street":"海岸東京ポートシティ竹芝オフィスタワー（３１階）"},{"zipCode":"1057532","prefectureKana":"ﾄｳｷｮｳﾄ","cityKana":"ﾐﾅﾄｸ","streetKana":"ｶｲｶﾞﾝﾄｳｷｮｳﾎﾟｰﾄｼﾃｨﾀｹｼﾊﾞｵﾌｨｽﾀﾜｰ(32ｶｲ)","prefecture":"東京都","city":"港区","street":"海岸東京ポートシティ竹芝オフィスタワー（３２階）"},{"zipCode":"1057533","prefectureKana":"ﾄｳｷｮｳﾄ","cityKana":"ﾐﾅﾄｸ","streetKana":"ｶｲｶﾞﾝﾄｳｷｮｳﾎﾟｰﾄｼﾃｨﾀｹｼﾊﾞｵﾌｨｽﾀﾜｰ(33ｶｲ)","prefecture":"東京都","city":"港区","street":"海岸東京ポートシティ竹芝オフィスタワー（３３階）"},{"zipCode":"1057534","prefectureKana":"ﾄｳｷｮｳﾄ","cityKana":"ﾐﾅﾄｸ","streetKana":"ｶｲｶﾞﾝﾄｳｷｮｳﾎﾟｰﾄｼﾃｨﾀｹｼﾊﾞｵﾌｨｽﾀﾜｰ(34ｶｲ)","prefecture":"東京都","city":"港区","street":"海岸東京ポートシティ竹芝オフィスタワー（３４階）"},{"zipCode":"1057535","prefectureKana":"ﾄｳｷｮｳﾄ","cityKana":"ﾐﾅﾄｸ","streetKana":"ｶｲｶﾞﾝﾄｳｷｮｳﾎﾟｰﾄｼﾃｨﾀｹｼﾊﾞｵﾌｨｽﾀﾜｰ(35ｶｲ)","prefecture":"東京都","city":"港区","street":"海岸東京ポートシティ竹芝オフィスタワー（３５階）"},{"zipCode":"1057536","prefectureKana":"ﾄｳｷｮｳﾄ","cityKana":"ﾐﾅﾄｸ","streetKana":"ｶｲｶﾞﾝﾄｳｷｮｳﾎﾟｰﾄｼﾃｨﾀｹｼﾊﾞｵﾌｨｽﾀﾜｰ(36ｶｲ)","prefecture":"東京都","city":"港区","street":"海岸東京ポートシティ竹芝オフィスタワー（３６階）"},{"zipCode":"1057537","prefectureKana":"ﾄｳｷｮｳﾄ","cityKana":"ﾐﾅﾄｸ","streetKana":"ｶｲｶﾞﾝﾄｳｷｮｳﾎﾟｰﾄｼﾃｨﾀｹｼﾊﾞｵﾌｨｽﾀﾜｰ(37ｶｲ)","prefecture":"東京都","city":"港区","street":"海岸東京ポートシティ竹芝オフィスタワー（３７階）"},{"zipCode":"1057538","prefectureKana":"ﾄｳｷｮｳﾄ","cityKana":"ﾐﾅﾄｸ","streetKana":"ｶｲｶﾞﾝﾄｳｷｮｳﾎﾟｰﾄｼﾃｨﾀｹｼﾊﾞｵﾌｨｽﾀﾜｰ(38ｶｲ)","prefecture":"東京都","city":"港区","street":"海岸東京ポートシティ竹芝オフィスタワー（３８階）"},{"zipCode":"1057539","prefectureKana":"ﾄｳｷｮｳﾄ","cityKana":"ﾐﾅﾄｸ","streetKana":"ｶｲｶﾞﾝﾄｳｷｮｳﾎﾟｰﾄｼﾃｨﾀｹｼﾊﾞｵﾌｨｽﾀﾜｰ(39ｶｲ)","prefecture":"東京都","city":"港区","street":"海岸東京ポートシティ竹芝オフィスタワー（３９階）"},{"zipCode":"1050014","prefectureKana":"ﾄｳｷｮｳﾄ","cityKana":"ﾐﾅﾄｸ","streetKana":"ｼﾊﾞ(1-3ﾁｮｳﾒ)","prefecture":"東京都","city":"港区","street":"芝（１～３丁目）"},{"zipCode":"1050023","prefectureKana":"ﾄｳｷｮｳﾄ","cityKana":"ﾐﾅﾄｸ","streetKana":"ｼﾊﾞｳﾗ(1ﾁｮｳﾒ)","prefecture":"東京都","city":"港区","street":"芝浦（１丁目）"},{"zipCode":"1050011","prefectureKana":"ﾄｳｷｮｳﾄ","cityKana":"ﾐﾅﾄｸ","streetKana":"ｼﾊﾞｺｳｴﾝ","prefecture":"東京都","city":"港区","street":"芝公園"},{"zipCode":"1050012","prefectureKana":"ﾄｳｷｮｳﾄ","cityKana":"ﾐﾅﾄｸ","streetKana":"ｼﾊﾞﾀﾞｲﾓﾝ","prefecture":"東京都","city":"港区","street":"芝大門"},{"zipCode":"1050004","prefectureKana":"ﾄｳｷｮｳﾄ","cityKana":"ﾐﾅﾄｸ","streetKana":"ｼﾝﾊﾞｼ","prefecture":"東京都","city":"港区","street":"新橋"},{"zipCode":"1050001","prefectureKana":"ﾄｳｷｮｳﾄ","cityKana":"ﾐﾅﾄｸ","streetKana":"ﾄﾗﾉﾓﾝ(ﾂｷﾞﾉﾋﾞﾙｦﾉｿﾞｸ)","prefecture":"東京都","city":"港区","street":"虎ノ門（次のビルを除く）"},{"zipCode":"1056990","prefectureKana":"ﾄｳｷｮｳﾄ","cityKana":"ﾐﾅﾄｸ","streetKana":"ﾄﾗﾉﾓﾝｶﾐﾔﾁｮｳﾄﾗｽﾄﾀﾜｰ(ﾁｶｲ･ｶｲｿｳﾌﾒｲ)","prefecture":"東京都","city":"港区","street":"虎ノ門神谷町トラストタワー（地階・階層不明）"},{"zipCode":"1056901","prefectureKana":"ﾄｳｷｮｳﾄ","cityKana":"ﾐﾅﾄｸ","streetKana":"ﾄﾗﾉﾓﾝｶﾐﾔﾁｮｳﾄﾗｽﾄﾀﾜｰ(1ｶｲ)","prefecture":"東京都","city":"港区","street":"虎ノ門神谷町トラストタワー（１階）"},{"zipCode":"1056902","prefectureKana":"ﾄｳｷｮｳﾄ","cityKana":"ﾐﾅﾄｸ","streetKana":"ﾄﾗﾉﾓﾝｶﾐﾔﾁｮｳﾄﾗｽﾄﾀﾜｰ(2ｶｲ)","prefecture":"東京都","city":"港区","street":"虎ノ門神谷町トラストタワー（２階）"},{"zipCode":"1056903","prefectureKana":"ﾄｳｷｮｳﾄ","cityKana":"ﾐﾅﾄｸ","streetKana":"ﾄﾗﾉﾓﾝｶﾐﾔﾁｮｳﾄﾗｽﾄﾀﾜｰ(3ｶｲ)","prefecture":"東京都","city":"港区","street":"虎ノ門神谷町トラストタワー（３階）"},{"zipCode":"1056904","prefectureKana":"ﾄｳｷｮｳﾄ","cityKana":"ﾐﾅﾄｸ","streetKana":"ﾄﾗﾉﾓﾝｶﾐﾔﾁｮｳﾄﾗｽﾄﾀﾜｰ(4ｶｲ)","prefecture":"東京都","city":"港区","street":"虎ノ門神谷町トラストタワー（４階）"},{"zipCode":"1056905","prefectureKana":"ﾄｳｷｮｳﾄ","cityKana":"ﾐﾅﾄｸ","streetKana":"ﾄﾗﾉﾓﾝｶﾐﾔﾁｮｳﾄﾗｽﾄﾀﾜｰ(5ｶｲ)","prefecture":"東京都","city":"港区","street":"虎ノ門神谷町トラストタワー（５階）"},{"zipCode":"1056906","prefectureKana":"ﾄｳｷｮｳﾄ","cityKana":"ﾐﾅﾄｸ","streetKana":"ﾄﾗﾉﾓﾝｶﾐﾔﾁｮｳﾄﾗｽﾄﾀﾜｰ(6ｶｲ)","prefecture":"東京都","city":"港区","street":"虎ノ門神谷町トラストタワー（６階）"},{"zipCode":"1056907","prefectureKana":"ﾄｳｷｮｳﾄ","cityKana":"ﾐﾅﾄｸ","streetKana":"ﾄﾗﾉﾓﾝｶﾐﾔﾁｮｳﾄﾗｽﾄﾀﾜｰ(7ｶｲ)","prefecture":"東京都","city":"港区","street":"虎ノ門神谷町トラストタワー（７階）"},{"zipCode":"1056908","prefectureKana":"ﾄｳｷｮｳﾄ","cityKana":"ﾐﾅﾄｸ","streetKana":"ﾄﾗﾉﾓﾝｶﾐﾔﾁｮｳﾄﾗｽﾄﾀﾜｰ(8ｶｲ)","prefecture":"東京都","city":"港区","street":"虎ノ門神谷町トラストタワー（８階）"},{"zipCode":"1056909","prefectureKana":"ﾄｳｷｮｳﾄ","cityKana":"ﾐﾅﾄｸ","streetKana":"ﾄﾗﾉﾓﾝｶﾐﾔﾁｮｳﾄﾗｽﾄﾀﾜｰ(9ｶｲ)","prefecture":"東京都","city":"港区","street":"虎ノ門神谷町トラストタワー（９階）"},{"zipCode":"1056910","prefectureKana":"ﾄｳｷｮｳﾄ","cityKana":"ﾐﾅﾄｸ","streetKana":"ﾄﾗﾉﾓﾝｶﾐﾔﾁｮｳﾄﾗｽﾄﾀﾜｰ(10ｶｲ)","prefecture":"東京都","city":"港区","street":"虎ノ門神谷町トラストタワー（１０階）"},{"zipCode":"1056911","prefectureKana":"ﾄｳｷｮｳﾄ","cityKana":"ﾐﾅﾄｸ","streetKana":"ﾄﾗﾉﾓﾝｶﾐﾔﾁｮｳﾄﾗｽﾄﾀﾜｰ(11ｶｲ)","prefecture":"東京都","city":"港区","street":"虎ノ門神谷町トラストタワー（１１階）"},{"zipCode":"1056912","prefectureKana":"ﾄｳｷｮｳﾄ","cityKana":"ﾐﾅﾄｸ","streetKana":"ﾄﾗﾉﾓﾝｶﾐﾔﾁｮｳﾄﾗｽﾄﾀﾜｰ(12ｶｲ)","prefecture":"東京都","city":"港区","street":"虎ノ門神谷町トラストタワー（１２階）"},{"zipCode":"1056913","prefectureKana":"ﾄｳｷｮｳﾄ","cityKana":"ﾐﾅﾄｸ","streetKana":"ﾄﾗﾉﾓﾝｶﾐﾔﾁｮｳﾄﾗｽﾄﾀﾜｰ(13ｶｲ)","prefecture":"東京都","city":"港区","street":"虎ノ門神谷町トラストタワー（１３階）"},{"zipCode":"1056914","prefectureKana":"ﾄｳｷｮｳﾄ","cityKana":"ﾐﾅﾄｸ","streetKana":"ﾄﾗﾉﾓﾝｶﾐﾔﾁｮｳﾄﾗｽﾄﾀﾜｰ(14ｶｲ)","prefecture":"東京都","city":"港区","street":"虎ノ門神谷町トラストタワー（１４階）"},{"zipCode":"1056915","prefectureKana":"ﾄｳｷｮｳﾄ","cityKana":"ﾐﾅﾄｸ","streetKana":"ﾄﾗﾉﾓﾝｶﾐﾔﾁｮｳﾄﾗｽﾄﾀﾜｰ(15ｶｲ)","prefecture":"東京都","city":"港区","street":"虎ノ門神谷町トラストタワー（１５階）"},{"zipCode":"1056916","prefectureKana":"ﾄｳｷｮｳﾄ","cityKana":"ﾐﾅﾄｸ","streetKana":"ﾄﾗﾉﾓﾝｶﾐﾔﾁｮｳﾄﾗｽﾄﾀﾜｰ(16ｶｲ)","prefecture":"東京都","city":"港区","street":"虎ノ門神谷町トラストタワー（１６階）"},{"zipCode":"1056917","prefectureKana":"ﾄｳｷｮｳﾄ","cityKana":"ﾐﾅﾄｸ","streetKana":"ﾄﾗﾉﾓﾝｶﾐﾔﾁｮｳﾄﾗｽﾄﾀﾜｰ(17ｶｲ)","prefecture":"東京都","city":"港区","street":"虎ノ門神谷町トラストタワー（１７階）"},{"zipCode":"1056918","prefectureKana":"ﾄｳｷｮｳﾄ","cityKana":"ﾐﾅﾄｸ","streetKana":"ﾄﾗﾉﾓﾝｶﾐﾔﾁｮｳﾄﾗｽﾄﾀﾜｰ(18ｶｲ)","prefecture":"東京都","city":"港区","street":"虎ノ門神谷町トラストタワー（１８階）"},{"zipCode":"1056919","prefectureKana":"ﾄｳｷｮｳﾄ","cityKana":"ﾐﾅﾄｸ","streetKana":"ﾄﾗﾉﾓﾝｶﾐﾔﾁｮｳﾄﾗｽﾄﾀﾜｰ(19ｶｲ)","prefecture":"東京都","city":"港区","street":"虎ノ門神谷町トラストタワー（１９階）"},{"zipCode":"1056920","prefectureKana":"ﾄｳｷｮｳﾄ","cityKana":"ﾐﾅﾄｸ","streetKana":"ﾄﾗﾉﾓﾝｶﾐﾔﾁｮｳﾄﾗｽﾄﾀﾜｰ(20ｶｲ)","prefecture":"東京都","city":"港区","street":"虎ノ門神谷町トラストタワー（２０階）"},{"zipCode":"1056921","prefectureKana":"ﾄｳｷｮｳﾄ","cityKana":"ﾐﾅﾄｸ","streetKana":"ﾄﾗﾉﾓﾝｶﾐﾔﾁｮｳﾄﾗｽﾄﾀﾜｰ(21ｶｲ)","prefecture":"東京都","city":"港区","street":"虎ノ門神谷町トラストタワー（２１階）"},{"zipCode":"1056922","prefectureKana":"ﾄｳｷｮｳﾄ","cityKana":"ﾐﾅﾄｸ","streetKana":"ﾄﾗﾉﾓﾝｶﾐﾔﾁｮｳﾄﾗｽﾄﾀﾜｰ(22ｶｲ)","prefecture":"東京都","city":"港区","street":"虎ノ門神谷町トラストタワー（２２階）"},{"zipCode":"1056923","prefectureKana":"ﾄｳｷｮｳﾄ","cityKana":"ﾐﾅﾄｸ","streetKana":"ﾄﾗﾉﾓﾝｶﾐﾔﾁｮｳﾄﾗｽﾄﾀﾜｰ(23ｶｲ)","prefecture":"東京都","city":"港区","street":"虎ノ門神谷町トラストタワー（２３階）"},{"zipCode":"1056924","prefectureKana":"ﾄｳｷｮｳﾄ","cityKana":"ﾐﾅﾄｸ","streetKana":"ﾄﾗﾉﾓﾝｶﾐﾔﾁｮｳﾄﾗｽﾄﾀﾜｰ(24ｶｲ)","prefecture":"東京都","city":"港区","street":"虎ノ門神谷町トラストタワー（２４階）"},{"zipCode":"1056925","prefectureKana":"ﾄｳｷｮｳﾄ","cityKana":"ﾐﾅﾄｸ","streetKana":"ﾄﾗﾉﾓﾝｶﾐﾔﾁｮｳﾄﾗｽﾄﾀﾜｰ(25ｶｲ)","prefecture":"東京都","city":"港区","street":"虎ノ門神谷町トラストタワー（２５階）"},{"zipCode":"1056926","prefectureKana":"ﾄｳｷｮｳﾄ","cityKana":"ﾐﾅﾄｸ","streetKana":"ﾄﾗﾉﾓﾝｶﾐﾔﾁｮｳﾄﾗｽﾄﾀﾜｰ(26ｶｲ)","prefecture":"東京都","city":"港区","street":"虎ノ門神谷町トラストタワー（２６階）"},{"zipCode":"1056927","prefectureKana":"ﾄｳｷｮｳﾄ","cityKana":"ﾐﾅﾄｸ","streetKana":"ﾄﾗﾉﾓﾝｶﾐﾔﾁｮｳﾄﾗｽﾄﾀﾜｰ(27ｶｲ)","prefecture":"東京都","city":"港区","street":"虎ノ門神谷町トラストタワー（２７階）"},{"zipCode":"1056928","prefectureKana":"ﾄｳｷｮｳﾄ","cityKana":"ﾐﾅﾄｸ","streetKana":"ﾄﾗﾉﾓﾝｶﾐﾔﾁｮｳﾄﾗｽﾄﾀﾜｰ(28ｶｲ)","prefecture":"東京都","city":"港区","street":"虎ノ門神谷町トラストタワー（２８階）"},{"zipCode":"1056929","prefectureKana":"ﾄｳｷｮｳﾄ","cityKana":"ﾐﾅﾄｸ","streetKana":"ﾄﾗﾉﾓﾝｶﾐﾔﾁｮｳﾄﾗｽﾄﾀﾜｰ(29ｶｲ)","prefecture":"東京都","city":"港区","street":"虎ノ門神谷町トラストタワー（２９階）"},{"zipCode":"1056930","prefectureKana":"ﾄｳｷｮｳﾄ","cityKana":"ﾐﾅﾄｸ","streetKana":"ﾄﾗﾉﾓﾝｶﾐﾔﾁｮｳﾄﾗｽﾄﾀﾜｰ(30ｶｲ)","prefecture":"東京都","city":"港区","street":"虎ノ門神谷町トラストタワー（３０階）"},{"zipCode":"1056090","prefectureKana":"ﾄｳｷｮｳﾄ","cityKana":"ﾐﾅﾄｸ","streetKana":"ﾄﾗﾉﾓﾝｼﾛﾔﾏﾄﾗｽﾄﾀﾜｰ(ﾁｶｲ･ｶｲｿｳﾌﾒｲ)","prefecture":"東京都","city":"港区","street":"虎ノ門城山トラストタワー（地階・階層不明）"},{"zipCode":"1056001","prefectureKana":"ﾄｳｷｮｳﾄ","cityKana":"ﾐﾅﾄｸ","streetKana":"ﾄﾗﾉﾓﾝｼﾛﾔﾏﾄﾗｽﾄﾀﾜｰ(1ｶｲ)","prefecture":"東京都","city":"港区","street":"虎ノ門城山トラストタワー（１階）"},{"zipCode":"1056002","prefectureKana":"ﾄｳｷｮｳﾄ","cityKana":"ﾐﾅﾄｸ","streetKana":"ﾄﾗﾉﾓﾝｼﾛﾔﾏﾄﾗｽﾄﾀﾜｰ(2ｶｲ)","prefecture":"東京都","city":"港区","street":"虎ノ門城山トラストタワー（２階）"},{"zipCode":"1056003","prefectureKana":"ﾄｳｷｮｳﾄ","cityKana":"ﾐﾅﾄｸ","streetKana":"ﾄﾗﾉﾓﾝｼﾛﾔﾏﾄﾗｽﾄﾀﾜｰ(3ｶｲ)","prefecture":"東京都","city":"港区","street":"虎ノ門城山トラストタワー（３階）"},{"zipCode":"1056004","prefectureKana":"ﾄｳｷｮｳﾄ","cityKana":"ﾐﾅﾄｸ","streetKana":"ﾄﾗﾉﾓﾝｼﾛﾔﾏﾄﾗｽﾄﾀﾜｰ(4ｶｲ)","prefecture":"東京都","city":"港区","street":"虎ノ門城山トラストタワー（４階）"},{"zipCode":"1056005","prefectureKana":"ﾄｳｷｮｳﾄ","cityKana":"ﾐﾅﾄｸ","streetKana":"ﾄﾗﾉﾓﾝｼﾛﾔﾏﾄﾗｽﾄﾀﾜｰ(5ｶｲ)","prefecture":"東京都","city":"港区","street":"虎ノ門城山トラストタワー（５階）"},{"zipCode":"1056006","prefectureKana":"ﾄｳｷｮｳﾄ","cityKana":"ﾐﾅﾄｸ","streetKana":"ﾄﾗﾉﾓﾝｼﾛﾔﾏﾄﾗｽﾄﾀﾜｰ(6ｶｲ)","prefecture":"東京都","city":"港区","street":"虎ノ門城山トラストタワー（６階）"},{"zipCode":"1056007","prefectureKana":"ﾄｳｷｮｳﾄ","cityKana":"ﾐﾅﾄｸ","streetKana":"ﾄﾗﾉﾓﾝｼﾛﾔﾏﾄﾗｽﾄﾀﾜｰ(7ｶｲ)","prefecture":"東京都","city":"港区","street":"虎ノ門城山トラストタワー（７階）"},{"zipCode":"1056008","prefectureKana":"ﾄｳｷｮｳﾄ","cityKana":"ﾐﾅﾄｸ","streetKana":"ﾄﾗﾉﾓﾝｼﾛﾔﾏﾄﾗｽﾄﾀﾜｰ(8ｶｲ)","prefecture":"東京都","city":"港区","street":"虎ノ門城山トラストタワー（８階）"},{"zipCode":"1056009","prefectureKana":"ﾄｳｷｮｳﾄ","cityKana":"ﾐﾅﾄｸ","streetKana":"ﾄﾗﾉﾓﾝｼﾛﾔﾏﾄﾗｽﾄﾀﾜｰ(9ｶｲ)","prefecture":"東京都","city":"港区","street":"虎ノ門城山トラストタワー（９階）"},{"zipCode":"1056010","prefectureKana":"ﾄｳｷｮｳﾄ","cityKana":"ﾐﾅﾄｸ","streetKana":"ﾄﾗﾉﾓﾝｼﾛﾔﾏﾄﾗｽﾄﾀﾜｰ(10ｶｲ)","prefecture":"東京都","city":"港区","street":"虎ノ門城山トラストタワー（１０階）"},{"zipCode":"1056011","prefectureKana":"ﾄｳｷｮｳﾄ","cityKana":"ﾐﾅﾄｸ","streetKana":"ﾄﾗﾉﾓﾝｼﾛﾔﾏﾄﾗｽﾄﾀﾜｰ(11ｶｲ)","prefecture":"東京都","city":"港区","street":"虎ノ門城山トラストタワー（１１階）"},{"zipCode":"1056012","prefectureKana":"ﾄｳｷｮｳﾄ","cityKana":"ﾐﾅﾄｸ","streetKana":"ﾄﾗﾉﾓﾝｼﾛﾔﾏﾄﾗｽﾄﾀﾜｰ(12ｶｲ)","prefecture":"東京都","city":"港区","street":"虎ノ門城山トラストタワー（１２階）"},{"zipCode":"1056013","prefectureKana":"ﾄｳｷｮｳﾄ","cityKana":"ﾐﾅﾄｸ","streetKana":"ﾄﾗﾉﾓﾝｼﾛﾔﾏﾄﾗｽﾄﾀﾜｰ(13ｶｲ)","prefecture":"東京都","city":"港区","street":"虎ノ門城山トラストタワー（１３階）"},{"zipCode":"1056014","prefectureKana":"ﾄｳｷｮｳﾄ","cityKana":"ﾐﾅﾄｸ","streetKana":"ﾄﾗﾉﾓﾝｼﾛﾔﾏﾄﾗｽﾄﾀﾜｰ(14ｶｲ)","prefecture":"東京都","city":"港区","street":"虎ノ門城山トラストタワー（１４階）"},{"zipCode":"1056015","prefectureKana":"ﾄｳｷｮｳﾄ","cityKana":"ﾐﾅﾄｸ","streetKana":"ﾄﾗﾉﾓﾝｼﾛﾔﾏﾄﾗｽﾄﾀﾜｰ(15ｶｲ)","prefecture":"東京都","city":"港区","street":"虎ノ門城山トラストタワー（１５階）"},{"zipCode":"1056016","prefectureKana":"ﾄｳｷｮｳﾄ","cityKana":"ﾐﾅﾄｸ","streetKana":"ﾄﾗﾉﾓﾝｼﾛﾔﾏﾄﾗｽﾄﾀﾜｰ(16ｶｲ)","prefecture":"東京都","city":"港区","street":"虎ノ門城山トラストタワー（１６階）"},{"zipCode":"1056017","prefectureKana":"ﾄｳｷｮｳﾄ","cityKana":"ﾐﾅﾄｸ","streetKana":"ﾄﾗﾉﾓﾝｼﾛﾔﾏﾄﾗｽﾄﾀﾜｰ(17ｶｲ)","prefecture":"東京都","city":"港区","street":"虎ノ門城山トラストタワー（１７階）"},{"zipCode":"1056018","prefectureKana":"ﾄｳｷｮｳﾄ","cityKana":"ﾐﾅﾄｸ","streetKana":"ﾄﾗﾉﾓﾝｼﾛﾔﾏﾄﾗｽﾄﾀﾜｰ(18ｶｲ)","prefecture":"東京都","city":"港区","street":"虎ノ門城山トラストタワー（１８階）"},{"zipCode":"1056019","prefectureKana":"ﾄｳｷｮｳﾄ","cityKana":"ﾐﾅﾄｸ","streetKana":"ﾄﾗﾉﾓﾝｼﾛﾔﾏﾄﾗｽﾄﾀﾜｰ(19ｶｲ)","prefecture":"東京都","city":"港区","street":"虎ノ門城山トラストタワー（１９階）"},{"zipCode":"1056020","prefectureKana":"ﾄｳｷｮｳﾄ","cityKana":"ﾐﾅﾄｸ","streetKana":"ﾄﾗﾉﾓﾝｼﾛﾔﾏﾄﾗｽﾄﾀﾜｰ(20ｶｲ)","prefecture":"東京都","city":"港区","street":"虎ノ門城山トラストタワー（２０階）"},{"zipCode":"1056021","prefectureKana":"ﾄｳｷｮｳﾄ","cityKana":"ﾐﾅﾄｸ","streetKana":"ﾄﾗﾉﾓﾝｼﾛﾔﾏﾄﾗｽﾄﾀﾜｰ(21ｶｲ)","prefecture":"東京都","city":"港区","street":"虎ノ門城山トラストタワー（２１階）"},{"zipCode":"1056022","prefectureKana":"ﾄｳｷｮｳﾄ","cityKana":"ﾐﾅﾄｸ","streetKana":"ﾄﾗﾉﾓﾝｼﾛﾔﾏﾄﾗｽﾄﾀﾜｰ(22ｶｲ)","prefecture":"東京都","city":"港区","street":"虎ノ門城山トラストタワー（２２階）"},{"zipCode":"1056023","prefectureKana":"ﾄｳｷｮｳﾄ","cityKana":"ﾐﾅﾄｸ","streetKana":"ﾄﾗﾉﾓﾝｼﾛﾔﾏﾄﾗｽﾄﾀﾜｰ(23ｶｲ)","prefecture":"東京都","city":"港区","street":"虎ノ門城山トラストタワー（２３階）"},{"zipCode":"1056024","prefectureKana":"ﾄｳｷｮｳﾄ","cityKana":"ﾐﾅﾄｸ","streetKana":"ﾄﾗﾉﾓﾝｼﾛﾔﾏﾄﾗｽﾄﾀﾜｰ(24ｶｲ)","prefecture":"東京都","city":"港区","street":"虎ノ門城山トラストタワー（２４階）"},{"zipCode":"1056025","prefectureKana":"ﾄｳｷｮｳﾄ","cityKana":"ﾐﾅﾄｸ","streetKana":"ﾄﾗﾉﾓﾝｼﾛﾔﾏﾄﾗｽﾄﾀﾜｰ(25ｶｲ)","prefecture":"東京都","city":"港区","street":"虎ノ門城山トラストタワー（２５階）"},{"zipCode":"1056026","prefectureKana":"ﾄｳｷｮｳﾄ","cityKana":"ﾐﾅﾄｸ","streetKana":"ﾄﾗﾉﾓﾝｼﾛﾔﾏﾄﾗｽﾄﾀﾜｰ(26ｶｲ)","prefecture":"東京都","city":"港区","street":"虎ノ門城山トラストタワー（２６階）"},{"zipCode":"1056027","prefectureKana":"ﾄｳｷｮｳﾄ","cityKana":"ﾐﾅﾄｸ","streetKana":"ﾄﾗﾉﾓﾝｼﾛﾔﾏﾄﾗｽﾄﾀﾜｰ(27ｶｲ)","prefecture":"東京都","city":"港区","street":"虎ノ門城山トラストタワー（２７階）"},{"zipCode":"1056028","prefectureKana":"ﾄｳｷｮｳﾄ","cityKana":"ﾐﾅﾄｸ","streetKana":"ﾄﾗﾉﾓﾝｼﾛﾔﾏﾄﾗｽﾄﾀﾜｰ(28ｶｲ)","prefecture":"東京都","city":"港区","street":"虎ノ門城山トラストタワー（２８階）"},{"zipCode":"1056029","prefectureKana":"ﾄｳｷｮｳﾄ","cityKana":"ﾐﾅﾄｸ","streetKana":"ﾄﾗﾉﾓﾝｼﾛﾔﾏﾄﾗｽﾄﾀﾜｰ(29ｶｲ)","prefecture":"東京都","city":"港区","street":"虎ノ門城山トラストタワー（２９階）"},{"zipCode":"1056030","prefectureKana":"ﾄｳｷｮｳﾄ","cityKana":"ﾐﾅﾄｸ","streetKana":"ﾄﾗﾉﾓﾝｼﾛﾔﾏﾄﾗｽﾄﾀﾜｰ(30ｶｲ)","prefecture":"東京都","city":"港区","street":"虎ノ門城山トラストタワー（３０階）"},{"zipCode":"1056031","prefectureKana":"ﾄｳｷｮｳﾄ","cityKana":"ﾐﾅﾄｸ","streetKana":"ﾄﾗﾉﾓﾝｼﾛﾔﾏﾄﾗｽﾄﾀﾜｰ(31ｶｲ)","prefecture":"東京都","city":"港区","street":"虎ノ門城山トラストタワー（３１階）"},{"zipCode":"1056032","prefectureKana":"ﾄｳｷｮｳﾄ","cityKana":"ﾐﾅﾄｸ","streetKana":"ﾄﾗﾉﾓﾝｼﾛﾔﾏﾄﾗｽﾄﾀﾜｰ(32ｶｲ)","prefecture":"東京都","city":"港区","street":"虎ノ門城山トラストタワー（３２階）"},{"zipCode":"1056033","prefectureKana":"ﾄｳｷｮｳﾄ","cityKana":"ﾐﾅﾄｸ","streetKana":"ﾄﾗﾉﾓﾝｼﾛﾔﾏﾄﾗｽﾄﾀﾜｰ(33ｶｲ)","prefecture":"東京都","city":"港区","street":"虎ノ門城山トラストタワー（３３階）"},{"zipCode":"1056034","prefectureKana":"ﾄｳｷｮｳﾄ","cityKana":"ﾐﾅﾄｸ","streetKana":"ﾄﾗﾉﾓﾝｼﾛﾔﾏﾄﾗｽﾄﾀﾜｰ(34ｶｲ)","prefecture":"東京都","city":"港区","street":"虎ノ門城山トラストタワー（３４階）"},{"zipCode":"1056035","prefectureKana":"ﾄｳｷｮｳﾄ","cityKana":"ﾐﾅﾄｸ","streetKana":"ﾄﾗﾉﾓﾝｼﾛﾔﾏﾄﾗｽﾄﾀﾜｰ(35ｶｲ)","prefecture":"東京都","city":"港区","street":"虎ノ門城山トラストタワー（３５階）"},{"zipCode":"1056036","prefectureKana":"ﾄｳｷｮｳﾄ","cityKana":"ﾐﾅﾄｸ","streetKana":"ﾄﾗﾉﾓﾝｼﾛﾔﾏﾄﾗｽﾄﾀﾜｰ(36ｶｲ)","prefecture":"東京都","city":"港区","street":"虎ノ門城山トラストタワー（３６階）"},{"zipCode":"1056037","prefectureKana":"ﾄｳｷｮｳﾄ","cityKana":"ﾐﾅﾄｸ","streetKana":"ﾄﾗﾉﾓﾝｼﾛﾔﾏﾄﾗｽﾄﾀﾜｰ(37ｶｲ)","prefecture":"東京都","city":"港区","street":"虎ノ門城山トラストタワー（３７階）"},{"zipCode":"1056490","prefectureKana":"ﾄｳｷｮｳﾄ","cityKana":"ﾐﾅﾄｸ","streetKana":"ﾄﾗﾉﾓﾝﾄﾗﾉﾓﾝﾋﾙｽﾞﾋﾞｼﾞﾈｽﾀﾜｰ(ﾁｶｲ･ｶｲｿｳﾌﾒｲ)","prefecture":"東京都","city":"港区","street":"虎ノ門虎ノ門ヒルズビジネスタワー（地階・階層不明）"},{"zipCode":"1056401","prefectureKana":"ﾄｳｷｮｳﾄ","cityKana":"ﾐﾅﾄｸ","streetKana":"ﾄﾗﾉﾓﾝﾄﾗﾉﾓﾝﾋﾙｽﾞﾋﾞｼﾞﾈｽﾀﾜｰ(1ｶｲ)","prefecture":"東京都","city":"港区","street":"虎ノ門虎ノ門ヒルズビジネスタワー（１階）"},{"zipCode":"1056402","prefectureKana":"ﾄｳｷｮｳﾄ","cityKana":"ﾐﾅﾄｸ","streetKana":"ﾄﾗﾉﾓﾝﾄﾗﾉﾓﾝﾋﾙｽﾞﾋﾞｼﾞﾈｽﾀﾜｰ(2ｶｲ)","prefecture":"東京都","city":"港区","street":"虎ノ門虎ノ門ヒルズビジネスタワー（２階）"},{"zipCode":"1056403","prefectureKana":"ﾄｳｷｮｳﾄ","cityKana":"ﾐﾅﾄｸ","streetKana":"ﾄﾗﾉﾓﾝﾄﾗﾉﾓﾝﾋﾙｽﾞﾋﾞｼﾞﾈｽﾀﾜｰ(3ｶｲ)","prefecture":"東京都","city":"港区","street":"虎ノ門虎ノ門ヒルズビジネスタワー（３階）"},{"zipCode":"1056404","prefectureKana":"ﾄｳｷｮｳﾄ","cityKana":"ﾐﾅﾄｸ","streetKana":"ﾄﾗﾉﾓﾝﾄﾗﾉﾓﾝﾋﾙｽﾞﾋﾞｼﾞﾈｽﾀﾜｰ(4ｶｲ)","prefecture":"東京都","city":"港区","street":"虎ノ門虎ノ門ヒルズビジネスタワー（４階）"},{"zipCode":"1056405","prefectureKana":"ﾄｳｷｮｳﾄ","cityKana":"ﾐﾅﾄｸ","streetKana":"ﾄﾗﾉﾓﾝﾄﾗﾉﾓﾝﾋﾙｽﾞﾋﾞｼﾞﾈｽﾀﾜｰ(5ｶｲ)","prefecture":"東京都","city":"港区","street":"虎ノ門虎ノ門ヒルズビジネスタワー（５階）"},{"zipCode":"1056406","prefectureKana":"ﾄｳｷｮｳﾄ","cityKana":"ﾐﾅﾄｸ","streetKana":"ﾄﾗﾉﾓﾝﾄﾗﾉﾓﾝﾋﾙｽﾞﾋﾞｼﾞﾈｽﾀﾜｰ(6ｶｲ)","prefecture":"東京都","city":"港区","street":"虎ノ門虎ノ門ヒルズビジネスタワー（６階）"},{"zipCode":"1056407","prefectureKana":"ﾄｳｷｮｳﾄ","cityKana":"ﾐﾅﾄｸ","streetKana":"ﾄﾗﾉﾓﾝﾄﾗﾉﾓﾝﾋﾙｽﾞﾋﾞｼﾞﾈｽﾀﾜｰ(7ｶｲ)","prefecture":"東京都","city":"港区","street":"虎ノ門虎ノ門ヒルズビジネスタワー（７階）"},{"zipCode":"1056408","prefectureKana":"ﾄｳｷｮｳﾄ","cityKana":"ﾐﾅﾄｸ","streetKana":"ﾄﾗﾉﾓﾝﾄﾗﾉﾓﾝﾋﾙｽﾞﾋﾞｼﾞﾈｽﾀﾜｰ(8ｶｲ)","prefecture":"東京都","city":"港区","street":"虎ノ門虎ノ門ヒルズビジネスタワー（８階）"},{"zipCode":"1056409","prefectureKana":"ﾄｳｷｮｳﾄ","cityKana":"ﾐﾅﾄｸ","streetKana":"ﾄﾗﾉﾓﾝﾄﾗﾉﾓﾝﾋﾙｽﾞﾋﾞｼﾞﾈｽﾀﾜｰ(9ｶｲ)","prefecture":"東京都","city":"港区","street":"虎ノ門虎ノ門ヒルズビジネスタワー（９階）"},{"zipCode":"1056410","prefectureKana":"ﾄｳｷｮｳﾄ","cityKana":"ﾐﾅﾄｸ","streetKana":"ﾄﾗﾉﾓﾝﾄﾗﾉﾓﾝﾋﾙｽﾞﾋﾞｼﾞﾈｽﾀﾜｰ(10ｶｲ)","prefecture":"東京都","city":"港区","street":"虎ノ門虎ノ門ヒルズビジネスタワー（１０階）"},{"zipCode":"1056411","prefectureKana":"ﾄｳｷｮｳﾄ","cityKana":"ﾐﾅﾄｸ","streetKana":"ﾄﾗﾉﾓﾝﾄﾗﾉﾓﾝﾋﾙｽﾞﾋﾞｼﾞﾈｽﾀﾜｰ(11ｶｲ)","prefecture":"東京都","city":"港区","street":"虎ノ門虎ノ門ヒルズビジネスタワー（１１階）"},{"zipCode":"1056412","prefectureKana":"ﾄｳｷｮｳﾄ","cityKana":"ﾐﾅﾄｸ","streetKana":"ﾄﾗﾉﾓﾝﾄﾗﾉﾓﾝﾋﾙｽﾞﾋﾞｼﾞﾈｽﾀﾜｰ(12ｶｲ)","prefecture":"東京都","city":"港区","street":"虎ノ門虎ノ門ヒルズビジネスタワー（１２階）"},{"zipCode":"1056413","prefectureKana":"ﾄｳｷｮｳﾄ","cityKana":"ﾐﾅﾄｸ","streetKana":"ﾄﾗﾉﾓﾝﾄﾗﾉﾓﾝﾋﾙｽﾞﾋﾞｼﾞﾈｽﾀﾜｰ(13ｶｲ)","prefecture":"東京都","city":"港区","street":"虎ノ門虎ノ門ヒルズビジネスタワー（１３階）"},{"zipCode":"1056414","prefectureKana":"ﾄｳｷｮｳﾄ","cityKana":"ﾐﾅﾄｸ","streetKana":"ﾄﾗﾉﾓﾝﾄﾗﾉﾓﾝﾋﾙｽﾞﾋﾞｼﾞﾈｽﾀﾜｰ(14ｶｲ)","prefecture":"東京都","city":"港区","street":"虎ノ門虎ノ門ヒルズビジネスタワー（１４階）"},{"zipCode":"1056415","prefectureKana":"ﾄｳｷｮｳﾄ","cityKana":"ﾐﾅﾄｸ","streetKana":"ﾄﾗﾉﾓﾝﾄﾗﾉﾓﾝﾋﾙｽﾞﾋﾞｼﾞﾈｽﾀﾜｰ(15ｶｲ)","prefecture":"東京都","city":"港区","street":"虎ノ門虎ノ門ヒルズビジネスタワー（１５階）"},{"zipCode":"1056416","prefectureKana":"ﾄｳｷｮｳﾄ","cityKana":"ﾐﾅﾄｸ","streetKana":"ﾄﾗﾉﾓﾝﾄﾗﾉﾓﾝﾋﾙｽﾞﾋﾞｼﾞﾈｽﾀﾜｰ(16ｶｲ)","prefecture":"東京都","city":"港区","street":"虎ノ門虎ノ門ヒルズビジネスタワー（１６階）"},{"zipCode":"1056417","prefectureKana":"ﾄｳｷｮｳﾄ","cityKana":"ﾐﾅﾄｸ","streetKana":"ﾄﾗﾉﾓﾝﾄﾗﾉﾓﾝﾋﾙｽﾞﾋﾞｼﾞﾈｽﾀﾜｰ(17ｶｲ)","prefecture":"東京都","city":"港区","street":"虎ノ門虎ノ門ヒルズビジネスタワー（１７階）"},{"zipCode":"1056418","prefectureKana":"ﾄｳｷｮｳﾄ","cityKana":"ﾐﾅﾄｸ","streetKana":"ﾄﾗﾉﾓﾝﾄﾗﾉﾓﾝﾋﾙｽﾞﾋﾞｼﾞﾈｽﾀﾜｰ(18ｶｲ)","prefecture":"東京都","city":"港区","street":"虎ノ門虎ノ門ヒルズビジネスタワー（１８階）"},{"zipCode":"1056419","prefectureKana":"ﾄｳｷｮｳﾄ","cityKana":"ﾐﾅﾄｸ","streetKana":"ﾄﾗﾉﾓﾝﾄﾗﾉﾓﾝﾋﾙｽﾞﾋﾞｼﾞﾈｽﾀﾜｰ(19ｶｲ)","prefecture":"東京都","city":"港区","street":"虎ノ門虎ノ門ヒルズビジネスタワー（１９階）"},{"zipCode":"1056420","prefectureKana":"ﾄｳｷｮｳﾄ","cityKana":"ﾐﾅﾄｸ","streetKana":"ﾄﾗﾉﾓﾝﾄﾗﾉﾓﾝﾋﾙｽﾞﾋﾞｼﾞﾈｽﾀﾜｰ(20ｶｲ)","prefecture":"東京都","city":"港区","street":"虎ノ門虎ノ門ヒルズビジネスタワー（２０階）"},{"zipCode":"1056421","prefectureKana":"ﾄｳｷｮｳﾄ","cityKana":"ﾐﾅﾄｸ","streetKana":"ﾄﾗﾉﾓﾝﾄﾗﾉﾓﾝﾋﾙｽﾞﾋﾞｼﾞﾈｽﾀﾜｰ(21ｶｲ)","prefecture":"東京都","city":"港区","street":"虎ノ門虎ノ門ヒルズビジネスタワー（２１階）"},{"zipCode":"1056422","prefectureKana":"ﾄｳｷｮｳﾄ","cityKana":"ﾐﾅﾄｸ","streetKana":"ﾄﾗﾉﾓﾝﾄﾗﾉﾓﾝﾋﾙｽﾞﾋﾞｼﾞﾈｽﾀﾜｰ(22ｶｲ)","prefecture":"東京都","city":"港区","street":"虎ノ門虎ノ門ヒルズビジネスタワー（２２階）"},{"zipCode":"1056423","prefectureKana":"ﾄｳｷｮｳﾄ","cityKana":"ﾐﾅﾄｸ","streetKana":"ﾄﾗﾉﾓﾝﾄﾗﾉﾓﾝﾋﾙｽﾞﾋﾞｼﾞﾈｽﾀﾜｰ(23ｶｲ)","prefecture":"東京都","city":"港区","street":"虎ノ門虎ノ門ヒルズビジネスタワー（２３階）"},{"zipCode":"1056424","prefectureKana":"ﾄｳｷｮｳﾄ","cityKana":"ﾐﾅﾄｸ","streetKana":"ﾄﾗﾉﾓﾝﾄﾗﾉﾓﾝﾋﾙｽﾞﾋﾞｼﾞﾈｽﾀﾜｰ(24ｶｲ)","prefecture":"東京都","city":"港区","street":"虎ノ門虎ノ門ヒルズビジネスタワー（２４階）"},{"zipCode":"1056425","prefectureKana":"ﾄｳｷｮｳﾄ","cityKana":"ﾐﾅﾄｸ","streetKana":"ﾄﾗﾉﾓﾝﾄﾗﾉﾓﾝﾋﾙｽﾞﾋﾞｼﾞﾈｽﾀﾜｰ(25ｶｲ)","prefecture":"東京都","city":"港区","street":"虎ノ門虎ノ門ヒルズビジネスタワー（２５階）"},{"zipCode":"1056426","prefectureKana":"ﾄｳｷｮｳﾄ","cityKana":"ﾐﾅﾄｸ","streetKana":"ﾄﾗﾉﾓﾝﾄﾗﾉﾓﾝﾋﾙｽﾞﾋﾞｼﾞﾈｽﾀﾜｰ(26ｶｲ)","prefecture":"東京都","city":"港区","street":"虎ノ門虎ノ門ヒルズビジネスタワー（２６階）"},{"zipCode":"1056427","prefectureKana":"ﾄｳｷｮｳﾄ","cityKana":"ﾐﾅﾄｸ","streetKana":"ﾄﾗﾉﾓﾝﾄﾗﾉﾓﾝﾋﾙｽﾞﾋﾞｼﾞﾈｽﾀﾜｰ(27ｶｲ)","prefecture":"東京都","city":"港区","street":"虎ノ門虎ノ門ヒルズビジネスタワー（２７階）"},{"zipCode":"1056428","prefectureKana":"ﾄｳｷｮｳﾄ","cityKana":"ﾐﾅﾄｸ","streetKana":"ﾄﾗﾉﾓﾝﾄﾗﾉﾓﾝﾋﾙｽﾞﾋﾞｼﾞﾈｽﾀﾜｰ(28ｶｲ)","prefecture":"東京都","city":"港区","street":"虎ノ門虎ノ門ヒルズビジネスタワー（２８階）"},{"zipCode":"1056429","prefectureKana":"ﾄｳｷｮｳﾄ","cityKana":"ﾐﾅﾄｸ","streetKana":"ﾄﾗﾉﾓﾝﾄﾗﾉﾓﾝﾋﾙｽﾞﾋﾞｼﾞﾈｽﾀﾜｰ(29ｶｲ)","prefecture":"東京都","city":"港区","street":"虎ノ門虎ノ門ヒルズビジネスタワー（２９階）"},{"zipCode":"1056430","prefectureKana":"ﾄｳｷｮｳﾄ","cityKana":"ﾐﾅﾄｸ","streetKana":"ﾄﾗﾉﾓﾝﾄﾗﾉﾓﾝﾋﾙｽﾞﾋﾞｼﾞﾈｽﾀﾜｰ(30ｶｲ)","prefecture":"東京都","city":"港区","street":"虎ノ門虎ノ門ヒルズビジネスタワー（３０階）"},{"zipCode":"1056431","prefectureKana":"ﾄｳｷｮｳﾄ","cityKana":"ﾐﾅﾄｸ","streetKana":"ﾄﾗﾉﾓﾝﾄﾗﾉﾓﾝﾋﾙｽﾞﾋﾞｼﾞﾈｽﾀﾜｰ(31ｶｲ)","prefecture":"東京都","city":"港区","street":"虎ノ門虎ノ門ヒルズビジネスタワー（３１階）"},{"zipCode":"1056432","prefectureKana":"ﾄｳｷｮｳﾄ","cityKana":"ﾐﾅﾄｸ","streetKana":"ﾄﾗﾉﾓﾝﾄﾗﾉﾓﾝﾋﾙｽﾞﾋﾞｼﾞﾈｽﾀﾜｰ(32ｶｲ)","prefecture":"東京都","city":"港区","street":"虎ノ門虎ノ門ヒルズビジネスタワー（３２階）"},{"zipCode":"1056433","prefectureKana":"ﾄｳｷｮｳﾄ","cityKana":"ﾐﾅﾄｸ","streetKana":"ﾄﾗﾉﾓﾝﾄﾗﾉﾓﾝﾋﾙｽﾞﾋﾞｼﾞﾈｽﾀﾜｰ(33ｶｲ)","prefecture":"東京都","city":"港区","street":"虎ノ門虎ノ門ヒルズビジネスタワー（３３階）"},{"zipCode":"1056434","prefectureKana":"ﾄｳｷｮｳﾄ","cityKana":"ﾐﾅﾄｸ","streetKana":"ﾄﾗﾉﾓﾝﾄﾗﾉﾓﾝﾋﾙｽﾞﾋﾞｼﾞﾈｽﾀﾜｰ(34ｶｲ)","prefecture":"東京都","city":"港区","street":"虎ノ門虎ノ門ヒルズビジネスタワー（３４階）"},{"zipCode":"1056435","prefectureKana":"ﾄｳｷｮｳﾄ","cityKana":"ﾐﾅﾄｸ","streetKana":"ﾄﾗﾉﾓﾝﾄﾗﾉﾓﾝﾋﾙｽﾞﾋﾞｼﾞﾈｽﾀﾜｰ(35ｶｲ)","prefecture":"東京都","city":"港区","street":"虎ノ門虎ノ門ヒルズビジネスタワー（３５階）"},{"zipCode":"1056436","prefectureKana":"ﾄｳｷｮｳﾄ","cityKana":"ﾐﾅﾄｸ","streetKana":"ﾄﾗﾉﾓﾝﾄﾗﾉﾓﾝﾋﾙｽﾞﾋﾞｼﾞﾈｽﾀﾜｰ(36ｶｲ)","prefecture":"東京都","city":"港区","street":"虎ノ門虎ノ門ヒルズビジネスタワー（３６階）"},{"zipCode":"1056390","prefectureKana":"ﾄｳｷｮｳﾄ","cityKana":"ﾐﾅﾄｸ","streetKana":"ﾄﾗﾉﾓﾝﾄﾗﾉﾓﾝﾋﾙｽﾞﾓﾘﾀﾜｰ(ﾁｶｲ･ｶｲｿｳﾌﾒｲ)","prefecture":"東京都","city":"港区","street":"虎ノ門虎ノ門ヒルズ森タワー（地階・階層不明）"},{"zipCode":"1056301","prefectureKana":"ﾄｳｷｮｳﾄ","cityKana":"ﾐﾅﾄｸ","streetKana":"ﾄﾗﾉﾓﾝﾄﾗﾉﾓﾝﾋﾙｽﾞﾓﾘﾀﾜｰ(1ｶｲ)","prefecture":"東京都","city":"港区","street":"虎ノ門虎ノ門ヒルズ森タワー（１階）"},{"zipCode":"1056302","prefectureKana":"ﾄｳｷｮｳﾄ","cityKana":"ﾐﾅﾄｸ","streetKana":"ﾄﾗﾉﾓﾝﾄﾗﾉﾓﾝﾋﾙｽﾞﾓﾘﾀﾜｰ(2ｶｲ)","prefecture":"東京都","city":"港区","street":"虎ノ門虎ノ門ヒルズ森タワー（２階）"},{"zipCode":"1056303","prefectureKana":"ﾄｳｷｮｳﾄ","cityKana":"ﾐﾅﾄｸ","streetKana":"ﾄﾗﾉﾓﾝﾄﾗﾉﾓﾝﾋﾙｽﾞﾓﾘﾀﾜｰ(3ｶｲ)","prefecture":"東京都","city":"港区","street":"虎ノ門虎ノ門ヒルズ森タワー（３階）"},{"zipCode":"1056304","prefectureKana":"ﾄｳｷｮｳﾄ","cityKana":"ﾐﾅﾄｸ","streetKana":"ﾄﾗﾉﾓﾝﾄﾗﾉﾓﾝﾋﾙｽﾞﾓﾘﾀﾜｰ(4ｶｲ)","prefecture":"東京都","city":"港区","street":"虎ノ門虎ノ門ヒルズ森タワー（４階）"},{"zipCode":"1056305","prefectureKana":"ﾄｳｷｮｳﾄ","cityKana":"ﾐﾅﾄｸ","streetKana":"ﾄﾗﾉﾓﾝﾄﾗﾉﾓﾝﾋﾙｽﾞﾓﾘﾀﾜｰ(5ｶｲ)","prefecture":"東京都","city":"港区","street":"虎ノ門虎ノ門ヒルズ森タワー（５階）"},{"zipCode":"1056306","prefectureKana":"ﾄｳｷｮｳﾄ","cityKana":"ﾐﾅﾄｸ","streetKana":"ﾄﾗﾉﾓﾝﾄﾗﾉﾓﾝﾋﾙｽﾞﾓﾘﾀﾜｰ(6ｶｲ)","prefecture":"東京都","city":"港区","street":"虎ノ門虎ノ門ヒルズ森タワー（６階）"},{"zipCode":"1056307","prefectureKana":"ﾄｳｷｮｳﾄ","cityKana":"ﾐﾅﾄｸ","streetKana":"ﾄﾗﾉﾓﾝﾄﾗﾉﾓﾝﾋﾙｽﾞﾓﾘﾀﾜｰ(7ｶｲ)","prefecture":"東京都","city":"港区","street":"虎ノ門虎ノ門ヒルズ森タワー（７階）"},{"zipCode":"1056308","prefectureKana":"ﾄｳｷｮｳﾄ","cityKana":"ﾐﾅﾄｸ","streetKana":"ﾄﾗﾉﾓﾝﾄﾗﾉﾓﾝﾋﾙｽﾞﾓﾘﾀﾜｰ(8ｶｲ)","prefecture":"東京都","city":"港区","street":"虎ノ門虎ノ門ヒルズ森タワー（８階）"},{"zipCode":"1056309","prefectureKana":"ﾄｳｷｮｳﾄ","cityKana":"ﾐﾅﾄｸ","streetKana":"ﾄﾗﾉﾓﾝﾄﾗﾉﾓﾝﾋﾙｽﾞﾓﾘﾀﾜｰ(9ｶｲ)","prefecture":"東京都","city":"港区","street":"虎ノ門虎ノ門ヒルズ森タワー（９階）"},{"zipCode":"1056310","prefectureKana":"ﾄｳｷｮｳﾄ","cityKana":"ﾐﾅﾄｸ","streetKana":"ﾄﾗﾉﾓﾝﾄﾗﾉﾓﾝﾋﾙｽﾞﾓﾘﾀﾜｰ(10ｶｲ)","prefecture":"東京都","city":"港区","street":"虎ノ門虎ノ門ヒルズ森タワー（１０階）"},{"zipCode":"1056311","prefectureKana":"ﾄｳｷｮｳﾄ","cityKana":"ﾐﾅﾄｸ","streetKana":"ﾄﾗﾉﾓﾝﾄﾗﾉﾓﾝﾋﾙｽﾞﾓﾘﾀﾜｰ(11ｶｲ)","prefecture":"東京都","city":"港区","street":"虎ノ門虎ノ門ヒルズ森タワー（１１階）"},{"zipCode":"1056312","prefectureKana":"ﾄｳｷｮｳﾄ","cityKana":"ﾐﾅﾄｸ","streetKana":"ﾄﾗﾉﾓﾝﾄﾗﾉﾓﾝﾋﾙｽﾞﾓﾘﾀﾜｰ(12ｶｲ)","prefecture":"東京都","city":"港区","street":"虎ノ門虎ノ門ヒルズ森タワー（１２階）"},{"zipCode":"1056313","prefectureKana":"ﾄｳｷｮｳﾄ","cityKana":"ﾐﾅﾄｸ","streetKana":"ﾄﾗﾉﾓﾝﾄﾗﾉﾓﾝﾋﾙｽﾞﾓﾘﾀﾜｰ(13ｶｲ)","prefecture":"東京都","city":"港区","street":"虎ノ門虎ノ門ヒルズ森タワー（１３階）"},{"zipCode":"1056314","prefectureKana":"ﾄｳｷｮｳﾄ","cityKana":"ﾐﾅﾄｸ","streetKana":"ﾄﾗﾉﾓﾝﾄﾗﾉﾓﾝﾋﾙｽﾞﾓﾘﾀﾜｰ(14ｶｲ)","prefecture":"東京都","city":"港区","street":"虎ノ門虎ノ門ヒルズ森タワー（１４階）"},{"zipCode":"1056315","prefectureKana":"ﾄｳｷｮｳﾄ","cityKana":"ﾐﾅﾄｸ","streetKana":"ﾄﾗﾉﾓﾝﾄﾗﾉﾓﾝﾋﾙｽﾞﾓﾘﾀﾜｰ(15ｶｲ)","prefecture":"東京都","city":"港区","street":"虎ノ門虎ノ門ヒルズ森タワー（１５階）"},{"zipCode":"1056316","prefectureKana":"ﾄｳｷｮｳﾄ","cityKana":"ﾐﾅﾄｸ","streetKana":"ﾄﾗﾉﾓﾝﾄﾗﾉﾓﾝﾋﾙｽﾞﾓﾘﾀﾜｰ(16ｶｲ)","prefecture":"東京都","city":"港区","street":"虎ノ門虎ノ門ヒルズ森タワー（１６階）"},{"zipCode":"1056317","prefectureKana":"ﾄｳｷｮｳﾄ","cityKana":"ﾐﾅﾄｸ","streetKana":"ﾄﾗﾉﾓﾝﾄﾗﾉﾓﾝﾋﾙｽﾞﾓﾘﾀﾜｰ(17ｶｲ)","prefecture":"東京都","city":"港区","street":"虎ノ門虎ノ門ヒルズ森タワー（１７階）"},{"zipCode":"1056318","prefectureKana":"ﾄｳｷｮｳﾄ","cityKana":"ﾐﾅﾄｸ","streetKana":"ﾄﾗﾉﾓﾝﾄﾗﾉﾓﾝﾋﾙｽﾞﾓﾘﾀﾜｰ(18ｶｲ)","prefecture":"東京都","city":"港区","street":"虎ノ門虎ノ門ヒルズ森タワー（１８階）"},{"zipCode":"1056319","prefectureKana":"ﾄｳｷｮｳﾄ","cityKana":"ﾐﾅﾄｸ","streetKana":"ﾄﾗﾉﾓﾝﾄﾗﾉﾓﾝﾋﾙｽﾞﾓﾘﾀﾜｰ(19ｶｲ)","prefecture":"東京都","city":"港区","street":"虎ノ門虎ノ門ヒルズ森タワー（１９階）"},{"zipCode":"1056320","prefectureKana":"ﾄｳｷｮｳﾄ","cityKana":"ﾐﾅﾄｸ","streetKana":"ﾄﾗﾉﾓﾝﾄﾗﾉﾓﾝﾋﾙｽﾞﾓﾘﾀﾜｰ(20ｶｲ)","prefecture":"東京都","city":"港区","street":"虎ノ門虎ノ門ヒルズ森タワー（２０階）"},{"zipCode":"1056321","prefectureKana":"ﾄｳｷｮｳﾄ","cityKana":"ﾐﾅﾄｸ","streetKana":"ﾄﾗﾉﾓﾝﾄﾗﾉﾓﾝﾋﾙｽﾞﾓﾘﾀﾜｰ(21ｶｲ)","prefecture":"東京都","city":"港区","street":"虎ノ門虎ノ門ヒルズ森タワー（２１階）"},{"zipCode":"1056322","prefectureKana":"ﾄｳｷｮｳﾄ","cityKana":"ﾐﾅﾄｸ","streetKana":"ﾄﾗﾉﾓﾝﾄﾗﾉﾓﾝﾋﾙｽﾞﾓﾘﾀﾜｰ(22ｶｲ)","prefecture":"東京都","city":"港区","street":"虎ノ門虎ノ門ヒルズ森タワー（２２階）"},{"zipCode":"1056323","prefectureKana":"ﾄｳｷｮｳﾄ","cityKana":"ﾐﾅﾄｸ","streetKana":"ﾄﾗﾉﾓﾝﾄﾗﾉﾓﾝﾋﾙｽﾞﾓﾘﾀﾜｰ(23ｶｲ)","prefecture":"東京都","city":"港区","street":"虎ノ門虎ノ門ヒルズ森タワー（２３階）"},{"zipCode":"1056324","prefectureKana":"ﾄｳｷｮｳﾄ","cityKana":"ﾐﾅﾄｸ","streetKana":"ﾄﾗﾉﾓﾝﾄﾗﾉﾓﾝﾋﾙｽﾞﾓﾘﾀﾜｰ(24ｶｲ)","prefecture":"東京都","city":"港区","street":"虎ノ門虎ノ門ヒルズ森タワー（２４階）"},{"zipCode":"1056325","prefectureKana":"ﾄｳｷｮｳﾄ","cityKana":"ﾐﾅﾄｸ","streetKana":"ﾄﾗﾉﾓﾝﾄﾗﾉﾓﾝﾋﾙｽﾞﾓﾘﾀﾜｰ(25ｶｲ)","prefecture":"東京都","city":"港区","street":"虎ノ門虎ノ門ヒルズ森タワー（２５階）"},{"zipCode":"1056326","prefectureKana":"ﾄｳｷｮｳﾄ","cityKana":"ﾐﾅﾄｸ","streetKana":"ﾄﾗﾉﾓﾝﾄﾗﾉﾓﾝﾋﾙｽﾞﾓﾘﾀﾜｰ(26ｶｲ)","prefecture":"東京都","city":"港区","street":"虎ノ門虎ノ門ヒルズ森タワー（２６階）"},{"zipCode":"1056327","prefectureKana":"ﾄｳｷｮｳﾄ","cityKana":"ﾐﾅﾄｸ","streetKana":"ﾄﾗﾉﾓﾝﾄﾗﾉﾓﾝﾋﾙｽﾞﾓﾘﾀﾜｰ(27ｶｲ)","prefecture":"東京都","city":"港区","street":"虎ノ門虎ノ門ヒルズ森タワー（２７階）"},{"zipCode":"1056328","prefectureKana":"ﾄｳｷｮｳﾄ","cityKana":"ﾐﾅﾄｸ","streetKana":"ﾄﾗﾉﾓﾝﾄﾗﾉﾓﾝﾋﾙｽﾞﾓﾘﾀﾜｰ(28ｶｲ)","prefecture":"東京都","city":"港区","street":"虎ノ門虎ノ門ヒルズ森タワー（２８階）"},{"zipCode":"1056329","prefectureKana":"ﾄｳｷｮｳﾄ","cityKana":"ﾐﾅﾄｸ","streetKana":"ﾄﾗﾉﾓﾝﾄﾗﾉﾓﾝﾋﾙｽﾞﾓﾘﾀﾜｰ(29ｶｲ)","prefecture":"東京都","city":"港区","street":"虎ノ門虎ノ門ヒルズ森タワー（２９階）"},{"zipCode":"1056330","prefectureKana":"ﾄｳｷｮｳﾄ","cityKana":"ﾐﾅﾄｸ","streetKana":"ﾄﾗﾉﾓﾝﾄﾗﾉﾓﾝﾋﾙｽﾞﾓﾘﾀﾜｰ(30ｶｲ)","prefecture":"東京都","city":"港区","street":"虎ノ門虎ノ門ヒルズ森タワー（３０階）"},{"zipCode":"1056331","prefectureKana":"ﾄｳｷｮｳﾄ","cityKana":"ﾐﾅﾄｸ","streetKana":"ﾄﾗﾉﾓﾝﾄﾗﾉﾓﾝﾋﾙｽﾞﾓﾘﾀﾜｰ(31ｶｲ)","prefecture":"東京都","city":"港区","street":"虎ノ門虎ノ門ヒルズ森タワー（３１階）"},{"zipCode":"1056332","prefectureKana":"ﾄｳｷｮｳﾄ","cityKana":"ﾐﾅﾄｸ","streetKana":"ﾄﾗﾉﾓﾝﾄﾗﾉﾓﾝﾋﾙｽﾞﾓﾘﾀﾜｰ(32ｶｲ)","prefecture":"東京都","city":"港区","street":"虎ノ門虎ノ門ヒルズ森タワー（３２階）"},{"zipCode":"1056333","prefectureKana":"ﾄｳｷｮｳﾄ","cityKana":"ﾐﾅﾄｸ","streetKana":"ﾄﾗﾉﾓﾝﾄﾗﾉﾓﾝﾋﾙｽﾞﾓﾘﾀﾜｰ(33ｶｲ)","prefecture":"東京都","city":"港区","street":"虎ノ門虎ノ門ヒルズ森タワー（３３階）"},{"zipCode":"1056334","prefectureKana":"ﾄｳｷｮｳﾄ","cityKana":"ﾐﾅﾄｸ","streetKana":"ﾄﾗﾉﾓﾝﾄﾗﾉﾓﾝﾋﾙｽﾞﾓﾘﾀﾜｰ(34ｶｲ)","prefecture":"東京都","city":"港区","street":"虎ノ門虎ノ門ヒルズ森タワー（３４階）"},{"zipCode":"1056335","prefectureKana":"ﾄｳｷｮｳﾄ","cityKana":"ﾐﾅﾄｸ","streetKana":"ﾄﾗﾉﾓﾝﾄﾗﾉﾓﾝﾋﾙｽﾞﾓﾘﾀﾜｰ(35ｶｲ)","prefecture":"東京都","city":"港区","street":"虎ノ門虎ノ門ヒルズ森タワー（３５階）"},{"zipCode":"1056336","prefectureKana":"ﾄｳｷｮｳﾄ","cityKana":"ﾐﾅﾄｸ","streetKana":"ﾄﾗﾉﾓﾝﾄﾗﾉﾓﾝﾋﾙｽﾞﾓﾘﾀﾜｰ(36ｶｲ)","prefecture":"東京都","city":"港区","street":"虎ノ門虎ノ門ヒルズ森タワー（３６階）"},{"zipCode":"1050003","prefectureKana":"ﾄｳｷｮｳﾄ","cityKana":"ﾐﾅﾄｸ","streetKana":"ﾆｼｼﾝﾊﾞｼ","prefecture":"東京都","city":"港区","street":"西新橋"},{"zipCode":"1050013","prefectureKana":"ﾄｳｷｮｳﾄ","cityKana":"ﾐﾅﾄｸ","streetKana":"ﾊﾏﾏﾂﾁｮｳ(ﾂｷﾞﾉﾋﾞﾙｦﾉｿﾞｸ)","prefecture":"東京都","city":"港区","street":"浜松町（次のビルを除く）"},{"zipCode":"1055190","prefectureKana":"ﾄｳｷｮｳﾄ","cityKana":"ﾐﾅﾄｸ","streetKana":"ﾊﾏﾏﾂﾁｮｳｾｶｲﾎﾞｳｴｷｾﾝﾀｰﾋﾞﾙﾃﾞｨﾝｸﾞﾐﾅﾐｶﾝ(ﾁｶｲ･ｶｲｿｳﾌﾒｲ)","prefecture":"東京都","city":"港区","street":"浜松町世界貿易センタービルディング南館（地階・階層不明）"},{"zipCode":"1055101","prefectureKana":"ﾄｳｷｮｳﾄ","cityKana":"ﾐﾅﾄｸ","streetKana":"ﾊﾏﾏﾂﾁｮｳｾｶｲﾎﾞｳｴｷｾﾝﾀｰﾋﾞﾙﾃﾞｨﾝｸﾞﾐﾅﾐｶﾝ(1ｶｲ)","prefecture":"東京都","city":"港区","street":"浜松町世界貿易センタービルディング南館（１階）"},{"zipCode":"1055102","prefectureKana":"ﾄｳｷｮｳﾄ","cityKana":"ﾐﾅﾄｸ","streetKana":"ﾊﾏﾏﾂﾁｮｳｾｶｲﾎﾞｳｴｷｾﾝﾀｰﾋﾞﾙﾃﾞｨﾝｸﾞﾐﾅﾐｶﾝ(2ｶｲ)","prefecture":"東京都","city":"港区","street":"浜松町世界貿易センタービルディング南館（２階）"},{"zipCode":"1055103","prefectureKana":"ﾄｳｷｮｳﾄ","cityKana":"ﾐﾅﾄｸ","streetKana":"ﾊﾏﾏﾂﾁｮｳｾｶｲﾎﾞｳｴｷｾﾝﾀｰﾋﾞﾙﾃﾞｨﾝｸﾞﾐﾅﾐｶﾝ(3ｶｲ)","prefecture":"東京都","city":"港区","street":"浜松町世界貿易センタービルディング南館（３階）"},{"zipCode":"1055104","prefectureKana":"ﾄｳｷｮｳﾄ","cityKana":"ﾐﾅﾄｸ","streetKana":"ﾊﾏﾏﾂﾁｮｳｾｶｲﾎﾞｳｴｷｾﾝﾀｰﾋﾞﾙﾃﾞｨﾝｸﾞﾐﾅﾐｶﾝ(4ｶｲ)","prefecture":"東京都","city":"港区","street":"浜松町世界貿易センタービルディング南館（４階）"},{"zipCode":"1055105","prefectureKana":"ﾄｳｷｮｳﾄ","cityKana":"ﾐﾅﾄｸ","streetKana":"ﾊﾏﾏﾂﾁｮｳｾｶｲﾎﾞｳｴｷｾﾝﾀｰﾋﾞﾙﾃﾞｨﾝｸﾞﾐﾅﾐｶﾝ(5ｶｲ)","prefecture":"東京都","city":"港区","street":"浜松町世界貿易センタービルディング南館（５階）"},{"zipCode":"1055106","prefectureKana":"ﾄｳｷｮｳﾄ","cityKana":"ﾐﾅﾄｸ","streetKana":"ﾊﾏﾏﾂﾁｮｳｾｶｲﾎﾞｳｴｷｾﾝﾀｰﾋﾞﾙﾃﾞｨﾝｸﾞﾐﾅﾐｶﾝ(6ｶｲ)","prefecture":"東京都","city":"港区","street":"浜松町世界貿易センタービルディング南館（６階）"},{"zipCode":"1055107","prefectureKana":"ﾄｳｷｮｳﾄ","cityKana":"ﾐﾅﾄｸ","streetKana":"ﾊﾏﾏﾂﾁｮｳｾｶｲﾎﾞｳｴｷｾﾝﾀｰﾋﾞﾙﾃﾞｨﾝｸﾞﾐﾅﾐｶﾝ(7ｶｲ)","prefecture":"東京都","city":"港区","street":"浜松町世界貿易センタービルディング南館（７階）"},{"zipCode":"1055108","prefectureKana":"ﾄｳｷｮｳﾄ","cityKana":"ﾐﾅﾄｸ","streetKana":"ﾊﾏﾏﾂﾁｮｳｾｶｲﾎﾞｳｴｷｾﾝﾀｰﾋﾞﾙﾃﾞｨﾝｸﾞﾐﾅﾐｶﾝ(8ｶｲ)","prefecture":"東京都","city":"港区","street":"浜松町世界貿易センタービルディング南館（８階）"},{"zipCode":"1055109","prefectureKana":"ﾄｳｷｮｳﾄ","cityKana":"ﾐﾅﾄｸ","streetKana":"ﾊﾏﾏﾂﾁｮｳｾｶｲﾎﾞｳｴｷｾﾝﾀｰﾋﾞﾙﾃﾞｨﾝｸﾞﾐﾅﾐｶﾝ(9ｶｲ)","prefecture":"東京都","city":"港区","street":"浜松町世界貿易センタービルディング南館（９階）"},{"zipCode":"1055110","prefectureKana":"ﾄｳｷｮｳﾄ","cityKana":"ﾐﾅﾄｸ","streetKana":"ﾊﾏﾏﾂﾁｮｳｾｶｲﾎﾞｳｴｷｾﾝﾀｰﾋﾞﾙﾃﾞｨﾝｸﾞﾐﾅﾐｶﾝ(10ｶｲ)","prefecture":"東京都","city":"港区","street":"浜松町世界貿易センタービルディング南館（１０階）"},{"zipCode":"1055111","prefectureKana":"ﾄｳｷｮｳﾄ","cityKana":"ﾐﾅﾄｸ","streetKana":"ﾊﾏﾏﾂﾁｮｳｾｶｲﾎﾞｳｴｷｾﾝﾀｰﾋﾞﾙﾃﾞｨﾝｸﾞﾐﾅﾐｶﾝ(11ｶｲ)","prefecture":"東京都","city":"港区","street":"浜松町世界貿易センタービルディング南館（１１階）"},{"zipCode":"1055112","prefectureKana":"ﾄｳｷｮｳﾄ","cityKana":"ﾐﾅﾄｸ","streetKana":"ﾊﾏﾏﾂﾁｮｳｾｶｲﾎﾞｳｴｷｾﾝﾀｰﾋﾞﾙﾃﾞｨﾝｸﾞﾐﾅﾐｶﾝ(12ｶｲ)","prefecture":"東京都","city":"港区","street":"浜松町世界貿易センタービルディング南館（１２階）"},{"zipCode":"1055113","prefectureKana":"ﾄｳｷｮｳﾄ","cityKana":"ﾐﾅﾄｸ","streetKana":"ﾊﾏﾏﾂﾁｮｳｾｶｲﾎﾞｳｴｷｾﾝﾀｰﾋﾞﾙﾃﾞｨﾝｸﾞﾐﾅﾐｶﾝ(13ｶｲ)","prefecture":"東京都","city":"港区","street":"浜松町世界貿易センタービルディング南館（１３階）"},{"zipCode":"1055114","prefectureKana":"ﾄｳｷｮｳﾄ","cityKana":"ﾐﾅﾄｸ","streetKana":"ﾊﾏﾏﾂﾁｮｳｾｶｲﾎﾞｳｴｷｾﾝﾀｰﾋﾞﾙﾃﾞｨﾝｸﾞﾐﾅﾐｶﾝ(14ｶｲ)","prefecture":"東京都","city":"港区","street":"浜松町世界貿易センタービルディング南館（１４階）"},{"zipCode":"1055115","prefectureKana":"ﾄｳｷｮｳﾄ","cityKana":"ﾐﾅﾄｸ","streetKana":"ﾊﾏﾏﾂﾁｮｳｾｶｲﾎﾞｳｴｷｾﾝﾀｰﾋﾞﾙﾃﾞｨﾝｸﾞﾐﾅﾐｶﾝ(15ｶｲ)","prefecture":"東京都","city":"港区","street":"浜松町世界貿易センタービルディング南館（１５階）"},{"zipCode":"1055116","prefectureKana":"ﾄｳｷｮｳﾄ","cityKana":"ﾐﾅﾄｸ","streetKana":"ﾊﾏﾏﾂﾁｮｳｾｶｲﾎﾞｳｴｷｾﾝﾀｰﾋﾞﾙﾃﾞｨﾝｸﾞﾐﾅﾐｶﾝ(16ｶｲ)","prefecture":"東京都","city":"港区","street":"浜松町世界貿易センタービルディング南館（１６階）"},{"zipCode":"1055117","prefectureKana":"ﾄｳｷｮｳﾄ","cityKana":"ﾐﾅﾄｸ","streetKana":"ﾊﾏﾏﾂﾁｮｳｾｶｲﾎﾞｳｴｷｾﾝﾀｰﾋﾞﾙﾃﾞｨﾝｸﾞﾐﾅﾐｶﾝ(17ｶｲ)","prefecture":"東京都","city":"港区","street":"浜松町世界貿易センタービルディング南館（１７階）"},{"zipCode":"1055118","prefectureKana":"ﾄｳｷｮｳﾄ","cityKana":"ﾐﾅﾄｸ","streetKana":"ﾊﾏﾏﾂﾁｮｳｾｶｲﾎﾞｳｴｷｾﾝﾀｰﾋﾞﾙﾃﾞｨﾝｸﾞﾐﾅﾐｶﾝ(18ｶｲ)","prefecture":"東京都","city":"港区","street":"浜松町世界貿易センタービルディング南館（１８階）"},{"zipCode":"1055119","prefectureKana":"ﾄｳｷｮｳﾄ","cityKana":"ﾐﾅﾄｸ","streetKana":"ﾊﾏﾏﾂﾁｮｳｾｶｲﾎﾞｳｴｷｾﾝﾀｰﾋﾞﾙﾃﾞｨﾝｸﾞﾐﾅﾐｶﾝ(19ｶｲ)","prefecture":"東京都","city":"港区","street":"浜松町世界貿易センタービルディング南館（１９階）"},{"zipCode":"1055120","prefectureKana":"ﾄｳｷｮｳﾄ","cityKana":"ﾐﾅﾄｸ","streetKana":"ﾊﾏﾏﾂﾁｮｳｾｶｲﾎﾞｳｴｷｾﾝﾀｰﾋﾞﾙﾃﾞｨﾝｸﾞﾐﾅﾐｶﾝ(20ｶｲ)","prefecture":"東京都","city":"港区","street":"浜松町世界貿易センタービルディング南館（２０階）"},{"zipCode":"1055121","prefectureKana":"ﾄｳｷｮｳﾄ","cityKana":"ﾐﾅﾄｸ","streetKana":"ﾊﾏﾏﾂﾁｮｳｾｶｲﾎﾞｳｴｷｾﾝﾀｰﾋﾞﾙﾃﾞｨﾝｸﾞﾐﾅﾐｶﾝ(21ｶｲ)","prefecture":"東京都","city":"港区","street":"浜松町世界貿易センタービルディング南館（２１階）"},{"zipCode":"1055122","prefectureKana":"ﾄｳｷｮｳﾄ","cityKana":"ﾐﾅﾄｸ","streetKana":"ﾊﾏﾏﾂﾁｮｳｾｶｲﾎﾞｳｴｷｾﾝﾀｰﾋﾞﾙﾃﾞｨﾝｸﾞﾐﾅﾐｶﾝ(22ｶｲ)","prefecture":"東京都","city":"港区","street":"浜松町世界貿易センタービルディング南館（２２階）"},{"zipCode":"1055123","prefectureKana":"ﾄｳｷｮｳﾄ","cityKana":"ﾐﾅﾄｸ","streetKana":"ﾊﾏﾏﾂﾁｮｳｾｶｲﾎﾞｳｴｷｾﾝﾀｰﾋﾞﾙﾃﾞｨﾝｸﾞﾐﾅﾐｶﾝ(23ｶｲ)","prefecture":"東京都","city":"港区","street":"浜松町世界貿易センタービルディング南館（２３階）"},{"zipCode":"1055124","prefectureKana":"ﾄｳｷｮｳﾄ","cityKana":"ﾐﾅﾄｸ","streetKana":"ﾊﾏﾏﾂﾁｮｳｾｶｲﾎﾞｳｴｷｾﾝﾀｰﾋﾞﾙﾃﾞｨﾝｸﾞﾐﾅﾐｶﾝ(24ｶｲ)","prefecture":"東京都","city":"港区","street":"浜松町世界貿易センタービルディング南館（２４階）"},{"zipCode":"1055125","prefectureKana":"ﾄｳｷｮｳﾄ","cityKana":"ﾐﾅﾄｸ","streetKana":"ﾊﾏﾏﾂﾁｮｳｾｶｲﾎﾞｳｴｷｾﾝﾀｰﾋﾞﾙﾃﾞｨﾝｸﾞﾐﾅﾐｶﾝ(25ｶｲ)","prefecture":"東京都","city":"港区","street":"浜松町世界貿易センタービルディング南館（２５階）"},{"zipCode":"1055126","prefectureKana":"ﾄｳｷｮｳﾄ","cityKana":"ﾐﾅﾄｸ","streetKana":"ﾊﾏﾏﾂﾁｮｳｾｶｲﾎﾞｳｴｷｾﾝﾀｰﾋﾞﾙﾃﾞｨﾝｸﾞﾐﾅﾐｶﾝ(26ｶｲ)","prefecture":"東京都","city":"港区","street":"浜松町世界貿易センタービルディング南館（２６階）"},{"zipCode":"1055127","prefectureKana":"ﾄｳｷｮｳﾄ","cityKana":"ﾐﾅﾄｸ","streetKana":"ﾊﾏﾏﾂﾁｮｳｾｶｲﾎﾞｳｴｷｾﾝﾀｰﾋﾞﾙﾃﾞｨﾝｸﾞﾐﾅﾐｶﾝ(27ｶｲ)","prefecture":"東京都","city":"港区","street":"浜松町世界貿易センタービルディング南館（２７階）"},{"zipCode":"1055128","prefectureKana":"ﾄｳｷｮｳﾄ","cityKana":"ﾐﾅﾄｸ","streetKana":"ﾊﾏﾏﾂﾁｮｳｾｶｲﾎﾞｳｴｷｾﾝﾀｰﾋﾞﾙﾃﾞｨﾝｸﾞﾐﾅﾐｶﾝ(28ｶｲ)","prefecture":"東京都","city":"港区","street":"浜松町世界貿易センタービルディング南館（２８階）"},{"zipCode":"1055129","prefectureKana":"ﾄｳｷｮｳﾄ","cityKana":"ﾐﾅﾄｸ","streetKana":"ﾊﾏﾏﾂﾁｮｳｾｶｲﾎﾞｳｴｷｾﾝﾀｰﾋﾞﾙﾃﾞｨﾝｸﾞﾐﾅﾐｶﾝ(29ｶｲ)","prefecture":"東京都","city":"港区","street":"浜松町世界貿易センタービルディング南館（２９階）"},{"zipCode":"1055130","prefectureKana":"ﾄｳｷｮｳﾄ","cityKana":"ﾐﾅﾄｸ","streetKana":"ﾊﾏﾏﾂﾁｮｳｾｶｲﾎﾞｳｴｷｾﾝﾀｰﾋﾞﾙﾃﾞｨﾝｸﾞﾐﾅﾐｶﾝ(30ｶｲ)","prefecture":"東京都","city":"港区","street":"浜松町世界貿易センタービルディング南館（３０階）"},{"zipCode":"1055131","prefectureKana":"ﾄｳｷｮｳﾄ","cityKana":"ﾐﾅﾄｸ","streetKana":"ﾊﾏﾏﾂﾁｮｳｾｶｲﾎﾞｳｴｷｾﾝﾀｰﾋﾞﾙﾃﾞｨﾝｸﾞﾐﾅﾐｶﾝ(31ｶｲ)","prefecture":"東京都","city":"港区","street":"浜松町世界貿易センタービルディング南館（３１階）"},{"zipCode":"1055132","prefectureKana":"ﾄｳｷｮｳﾄ","cityKana":"ﾐﾅﾄｸ","streetKana":"ﾊﾏﾏﾂﾁｮｳｾｶｲﾎﾞｳｴｷｾﾝﾀｰﾋﾞﾙﾃﾞｨﾝｸﾞﾐﾅﾐｶﾝ(32ｶｲ)","prefecture":"東京都","city":"港区","street":"浜松町世界貿易センタービルディング南館（３２階）"},{"zipCode":"1055133","prefectureKana":"ﾄｳｷｮｳﾄ","cityKana":"ﾐﾅﾄｸ","streetKana":"ﾊﾏﾏﾂﾁｮｳｾｶｲﾎﾞｳｴｷｾﾝﾀｰﾋﾞﾙﾃﾞｨﾝｸﾞﾐﾅﾐｶﾝ(33ｶｲ)","prefecture":"東京都","city":"港区","street":"浜松町世界貿易センタービルディング南館（３３階）"},{"zipCode":"1055134","prefectureKana":"ﾄｳｷｮｳﾄ","cityKana":"ﾐﾅﾄｸ","streetKana":"ﾊﾏﾏﾂﾁｮｳｾｶｲﾎﾞｳｴｷｾﾝﾀｰﾋﾞﾙﾃﾞｨﾝｸﾞﾐﾅﾐｶﾝ(34ｶｲ)","prefecture":"東京都","city":"港区","street":"浜松町世界貿易センタービルディング南館（３４階）"},{"zipCode":"1055135","prefectureKana":"ﾄｳｷｮｳﾄ","cityKana":"ﾐﾅﾄｸ","streetKana":"ﾊﾏﾏﾂﾁｮｳｾｶｲﾎﾞｳｴｷｾﾝﾀｰﾋﾞﾙﾃﾞｨﾝｸﾞﾐﾅﾐｶﾝ(35ｶｲ)","prefecture":"東京都","city":"港区","street":"浜松町世界貿易センタービルディング南館（３５階）"},{"zipCode":"1055136","prefectureKana":"ﾄｳｷｮｳﾄ","cityKana":"ﾐﾅﾄｸ","streetKana":"ﾊﾏﾏﾂﾁｮｳｾｶｲﾎﾞｳｴｷｾﾝﾀｰﾋﾞﾙﾃﾞｨﾝｸﾞﾐﾅﾐｶﾝ(36ｶｲ)","prefecture":"東京都","city":"港区","street":"浜松町世界貿易センタービルディング南館（３６階）"},{"zipCode":"1055137","prefectureKana":"ﾄｳｷｮｳﾄ","cityKana":"ﾐﾅﾄｸ","streetKana":"ﾊﾏﾏﾂﾁｮｳｾｶｲﾎﾞｳｴｷｾﾝﾀｰﾋﾞﾙﾃﾞｨﾝｸﾞﾐﾅﾐｶﾝ(37ｶｲ)","prefecture":"東京都","city":"港区","street":"浜松町世界貿易センタービルディング南館（３７階）"},{"zipCode":"1055138","prefectureKana":"ﾄｳｷｮｳﾄ","cityKana":"ﾐﾅﾄｸ","streetKana":"ﾊﾏﾏﾂﾁｮｳｾｶｲﾎﾞｳｴｷｾﾝﾀｰﾋﾞﾙﾃﾞｨﾝｸﾞﾐﾅﾐｶﾝ(38ｶｲ)","prefecture":"東京都","city":"港区","street":"浜松町世界貿易センタービルディング南館（３８階）"},{"zipCode":"1050021","prefectureKana":"ﾄｳｷｮｳﾄ","cityKana":"ﾐﾅﾄｸ","streetKana":"ﾋｶﾞｼｼﾝﾊﾞｼ(ﾂｷﾞﾉﾋﾞﾙｦﾉｿﾞｸ)","prefecture":"東京都","city":"港区","street":"東新橋（次のビルを除く）"},{"zipCode":"1057190","prefectureKana":"ﾄｳｷｮｳﾄ","cityKana":"ﾐﾅﾄｸ","streetKana":"ﾋｶﾞｼｼﾝﾊﾞｼｼｵﾄﾞﾒｼﾃｨｾﾝﾀｰ(ﾁｶｲ･ｶｲｿｳﾌﾒｲ)","prefecture":"東京都","city":"港区","street":"東新橋汐留シティセンター（地階・階層不明）"},{"zipCode":"1057101","prefectureKana":"ﾄｳｷｮｳﾄ","cityKana":"ﾐﾅﾄｸ","streetKana":"ﾋｶﾞｼｼﾝﾊﾞｼｼｵﾄﾞﾒｼﾃｨｾﾝﾀｰ(1ｶｲ)","prefecture":"東京都","city":"港区","street":"東新橋汐留シティセンター（１階）"},{"zipCode":"1057102","prefectureKana":"ﾄｳｷｮｳﾄ","cityKana":"ﾐﾅﾄｸ","streetKana":"ﾋｶﾞｼｼﾝﾊﾞｼｼｵﾄﾞﾒｼﾃｨｾﾝﾀｰ(2ｶｲ)","prefecture":"東京都","city":"港区","street":"東新橋汐留シティセンター（２階）"},{"zipCode":"1057103","prefectureKana":"ﾄｳｷｮｳﾄ","cityKana":"ﾐﾅﾄｸ","streetKana":"ﾋｶﾞｼｼﾝﾊﾞｼｼｵﾄﾞﾒｼﾃｨｾﾝﾀｰ(3ｶｲ)","prefecture":"東京都","city":"港区","street":"東新橋汐留シティセンター（３階）"},{"zipCode":"1057104","prefectureKana":"ﾄｳｷｮｳﾄ","cityKana":"ﾐﾅﾄｸ","streetKana":"ﾋｶﾞｼｼﾝﾊﾞｼｼｵﾄﾞﾒｼﾃｨｾﾝﾀｰ(4ｶｲ)","prefecture":"東京都","city":"港区","street":"東新橋汐留シティセンター（４階）"},{"zipCode":"1057105","prefectureKana":"ﾄｳｷｮｳﾄ","cityKana":"ﾐﾅﾄｸ","streetKana":"ﾋｶﾞｼｼﾝﾊﾞｼｼｵﾄﾞﾒｼﾃｨｾﾝﾀｰ(5ｶｲ)","prefecture":"東京都","city":"港区","street":"東新橋汐留シティセンター（５階）"},{"zipCode":"1057106","prefectureKana":"ﾄｳｷｮｳﾄ","cityKana":"ﾐﾅﾄｸ","streetKana":"ﾋｶﾞｼｼﾝﾊﾞｼｼｵﾄﾞﾒｼﾃｨｾﾝﾀｰ(6ｶｲ)","prefecture":"東京都","city":"港区","street":"東新橋汐留シティセンター（６階）"},{"zipCode":"1057107","prefectureKana":"ﾄｳｷｮｳﾄ","cityKana":"ﾐﾅﾄｸ","streetKana":"ﾋｶﾞｼｼﾝﾊﾞｼｼｵﾄﾞﾒｼﾃｨｾﾝﾀｰ(7ｶｲ)","prefecture":"東京都","city":"港区","street":"東新橋汐留シティセンター（７階）"},{"zipCode":"1057108","prefectureKana":"ﾄｳｷｮｳﾄ","cityKana":"ﾐﾅﾄｸ","streetKana":"ﾋｶﾞｼｼﾝﾊﾞｼｼｵﾄﾞﾒｼﾃｨｾﾝﾀｰ(8ｶｲ)","prefecture":"東京都","city":"港区","street":"東新橋汐留シティセンター（８階）"},{"zipCode":"1057109","prefectureKana":"ﾄｳｷｮｳﾄ","cityKana":"ﾐﾅﾄｸ","streetKana":"ﾋｶﾞｼｼﾝﾊﾞｼｼｵﾄﾞﾒｼﾃｨｾﾝﾀｰ(9ｶｲ)","prefecture":"東京都","city":"港区","street":"東新橋汐留シティセンター（９階）"},{"zipCode":"1057110","prefectureKana":"ﾄｳｷｮｳﾄ","cityKana":"ﾐﾅﾄｸ","streetKana":"ﾋｶﾞｼｼﾝﾊﾞｼｼｵﾄﾞﾒｼﾃｨｾﾝﾀｰ(10ｶｲ)","prefecture":"東京都","city":"港区","street":"東新橋汐留シティセンター（１０階）"},{"zipCode":"1057111","prefectureKana":"ﾄｳｷｮｳﾄ","cityKana":"ﾐﾅﾄｸ","streetKana":"ﾋｶﾞｼｼﾝﾊﾞｼｼｵﾄﾞﾒｼﾃｨｾﾝﾀｰ(11ｶｲ)","prefecture":"東京都","city":"港区","street":"東新橋汐留シティセンター（１１階）"},{"zipCode":"1057112","prefectureKana":"ﾄｳｷｮｳﾄ","cityKana":"ﾐﾅﾄｸ","streetKana":"ﾋｶﾞｼｼﾝﾊﾞｼｼｵﾄﾞﾒｼﾃｨｾﾝﾀｰ(12ｶｲ)","prefecture":"東京都","city":"港区","street":"東新橋汐留シティセンター（１２階）"},{"zipCode":"1057113","prefectureKana":"ﾄｳｷｮｳﾄ","cityKana":"ﾐﾅﾄｸ","streetKana":"ﾋｶﾞｼｼﾝﾊﾞｼｼｵﾄﾞﾒｼﾃｨｾﾝﾀｰ(13ｶｲ)","prefecture":"東京都","city":"港区","street":"東新橋汐留シティセンター（１３階）"},{"zipCode":"1057114","prefectureKana":"ﾄｳｷｮｳﾄ","cityKana":"ﾐﾅﾄｸ","streetKana":"ﾋｶﾞｼｼﾝﾊﾞｼｼｵﾄﾞﾒｼﾃｨｾﾝﾀｰ(14ｶｲ)","prefecture":"東京都","city":"港区","street":"東新橋汐留シティセンター（１４階）"},{"zipCode":"1057115","prefectureKana":"ﾄｳｷｮｳﾄ","cityKana":"ﾐﾅﾄｸ","streetKana":"ﾋｶﾞｼｼﾝﾊﾞｼｼｵﾄﾞﾒｼﾃｨｾﾝﾀｰ(15ｶｲ)","prefecture":"東京都","city":"港区","street":"東新橋汐留シティセンター（１５階）"},{"zipCode":"1057116","prefectureKana":"ﾄｳｷｮｳﾄ","cityKana":"ﾐﾅﾄｸ","streetKana":"ﾋｶﾞｼｼﾝﾊﾞｼｼｵﾄﾞﾒｼﾃｨｾﾝﾀｰ(16ｶｲ)","prefecture":"東京都","city":"港区","street":"東新橋汐留シティセンター（１６階）"},{"zipCode":"1057117","prefectureKana":"ﾄｳｷｮｳﾄ","cityKana":"ﾐﾅﾄｸ","streetKana":"ﾋｶﾞｼｼﾝﾊﾞｼｼｵﾄﾞﾒｼﾃｨｾﾝﾀｰ(17ｶｲ)","prefecture":"東京都","city":"港区","street":"東新橋汐留シティセンター（１７階）"},{"zipCode":"1057118","prefectureKana":"ﾄｳｷｮｳﾄ","cityKana":"ﾐﾅﾄｸ","streetKana":"ﾋｶﾞｼｼﾝﾊﾞｼｼｵﾄﾞﾒｼﾃｨｾﾝﾀｰ(18ｶｲ)","prefecture":"東京都","city":"港区","street":"東新橋汐留シティセンター（１８階）"},{"zipCode":"1057119","prefectureKana":"ﾄｳｷｮｳﾄ","cityKana":"ﾐﾅﾄｸ","streetKana":"ﾋｶﾞｼｼﾝﾊﾞｼｼｵﾄﾞﾒｼﾃｨｾﾝﾀｰ(19ｶｲ)","prefecture":"東京都","city":"港区","street":"東新橋汐留シティセンター（１９階）"},{"zipCode":"1057120","prefectureKana":"ﾄｳｷｮｳﾄ","cityKana":"ﾐﾅﾄｸ","streetKana":"ﾋｶﾞｼｼﾝﾊﾞｼｼｵﾄﾞﾒｼﾃｨｾﾝﾀｰ(20ｶｲ)","prefecture":"東京都","city":"港区","street":"東新橋汐留シティセンター（２０階）"},{"zipCode":"1057121","prefectureKana":"ﾄｳｷｮｳﾄ","cityKana":"ﾐﾅﾄｸ","streetKana":"ﾋｶﾞｼｼﾝﾊﾞｼｼｵﾄﾞﾒｼﾃｨｾﾝﾀｰ(21ｶｲ)","prefecture":"東京都","city":"港区","street":"東新橋汐留シティセンター（２１階）"},{"zipCode":"1057122","prefectureKana":"ﾄｳｷｮｳﾄ","cityKana":"ﾐﾅﾄｸ","streetKana":"ﾋｶﾞｼｼﾝﾊﾞｼｼｵﾄﾞﾒｼﾃｨｾﾝﾀｰ(22ｶｲ)","prefecture":"東京都","city":"港区","street":"東新橋汐留シティセンター（２２階）"},{"zipCode":"1057123","prefectureKana":"ﾄｳｷｮｳﾄ","cityKana":"ﾐﾅﾄｸ","streetKana":"ﾋｶﾞｼｼﾝﾊﾞｼｼｵﾄﾞﾒｼﾃｨｾﾝﾀｰ(23ｶｲ)","prefecture":"東京都","city":"港区","street":"東新橋汐留シティセンター（２３階）"},{"zipCode":"1057124","prefectureKana":"ﾄｳｷｮｳﾄ","cityKana":"ﾐﾅﾄｸ","streetKana":"ﾋｶﾞｼｼﾝﾊﾞｼｼｵﾄﾞﾒｼﾃｨｾﾝﾀｰ(24ｶｲ)","prefecture":"東京都","city":"港区","street":"東新橋汐留シティセンター（２４階）"},{"zipCode":"1057125","prefectureKana":"ﾄｳｷｮｳﾄ","cityKana":"ﾐﾅﾄｸ","streetKana":"ﾋｶﾞｼｼﾝﾊﾞｼｼｵﾄﾞﾒｼﾃｨｾﾝﾀｰ(25ｶｲ)","prefecture":"東京都","city":"港区","street":"東新橋汐留シティセンター（２５階）"},{"zipCode":"1057126","prefectureKana":"ﾄｳｷｮｳﾄ","cityKana":"ﾐﾅﾄｸ","streetKana":"ﾋｶﾞｼｼﾝﾊﾞｼｼｵﾄﾞﾒｼﾃｨｾﾝﾀｰ(26ｶｲ)","prefecture":"東京都","city":"港区","street":"東新橋汐留シティセンター（２６階）"},{"zipCode":"1057127","prefectureKana":"ﾄｳｷｮｳﾄ","cityKana":"ﾐﾅﾄｸ","streetKana":"ﾋｶﾞｼｼﾝﾊﾞｼｼｵﾄﾞﾒｼﾃｨｾﾝﾀｰ(27ｶｲ)","prefecture":"東京都","city":"港区","street":"東新橋汐留シティセンター（２７階）"},{"zipCode":"1057128","prefectureKana":"ﾄｳｷｮｳﾄ","cityKana":"ﾐﾅﾄｸ","streetKana":"ﾋｶﾞｼｼﾝﾊﾞｼｼｵﾄﾞﾒｼﾃｨｾﾝﾀｰ(28ｶｲ)","prefecture":"東京都","city":"港区","street":"東新橋汐留シティセンター（２８階）"},{"zipCode":"1057129","prefectureKana":"ﾄｳｷｮｳﾄ","cityKana":"ﾐﾅﾄｸ","streetKana":"ﾋｶﾞｼｼﾝﾊﾞｼｼｵﾄﾞﾒｼﾃｨｾﾝﾀｰ(29ｶｲ)","prefecture":"東京都","city":"港区","street":"東新橋汐留シティセンター（２９階）"},{"zipCode":"1057130","prefectureKana":"ﾄｳｷｮｳﾄ","cityKana":"ﾐﾅﾄｸ","streetKana":"ﾋｶﾞｼｼﾝﾊﾞｼｼｵﾄﾞﾒｼﾃｨｾﾝﾀｰ(30ｶｲ)","prefecture":"東京都","city":"港区","street":"東新橋汐留シティセンター（３０階）"},{"zipCode":"1057131","prefectureKana":"ﾄｳｷｮｳﾄ","cityKana":"ﾐﾅﾄｸ","streetKana":"ﾋｶﾞｼｼﾝﾊﾞｼｼｵﾄﾞﾒｼﾃｨｾﾝﾀｰ(31ｶｲ)","prefecture":"東京都","city":"港区","street":"東新橋汐留シティセンター（３１階）"},{"zipCode":"1057132","prefectureKana":"ﾄｳｷｮｳﾄ","cityKana":"ﾐﾅﾄｸ","streetKana":"ﾋｶﾞｼｼﾝﾊﾞｼｼｵﾄﾞﾒｼﾃｨｾﾝﾀｰ(32ｶｲ)","prefecture":"東京都","city":"港区","street":"東新橋汐留シティセンター（３２階）"},{"zipCode":"1057133","prefectureKana":"ﾄｳｷｮｳﾄ","cityKana":"ﾐﾅﾄｸ","streetKana":"ﾋｶﾞｼｼﾝﾊﾞｼｼｵﾄﾞﾒｼﾃｨｾﾝﾀｰ(33ｶｲ)","prefecture":"東京都","city":"港区","street":"東新橋汐留シティセンター（３３階）"},{"zipCode":"1057134","prefectureKana":"ﾄｳｷｮｳﾄ","cityKana":"ﾐﾅﾄｸ","streetKana":"ﾋｶﾞｼｼﾝﾊﾞｼｼｵﾄﾞﾒｼﾃｨｾﾝﾀｰ(34ｶｲ)","prefecture":"東京都","city":"港区","street":"東新橋汐留シティセンター（３４階）"},{"zipCode":"1057135","prefectureKana":"ﾄｳｷｮｳﾄ","cityKana":"ﾐﾅﾄｸ","streetKana":"ﾋｶﾞｼｼﾝﾊﾞｼｼｵﾄﾞﾒｼﾃｨｾﾝﾀｰ(35ｶｲ)","prefecture":"東京都","city":"港区","street":"東新橋汐留シティセンター（３５階）"},{"zipCode":"1057136","prefectureKana":"ﾄｳｷｮｳﾄ","cityKana":"ﾐﾅﾄｸ","streetKana":"ﾋｶﾞｼｼﾝﾊﾞｼｼｵﾄﾞﾒｼﾃｨｾﾝﾀｰ(36ｶｲ)","prefecture":"東京都","city":"港区","street":"東新橋汐留シティセンター（３６階）"},{"zipCode":"1057137","prefectureKana":"ﾄｳｷｮｳﾄ","cityKana":"ﾐﾅﾄｸ","streetKana":"ﾋｶﾞｼｼﾝﾊﾞｼｼｵﾄﾞﾒｼﾃｨｾﾝﾀｰ(37ｶｲ)","prefecture":"東京都","city":"港区","street":"東新橋汐留シティセンター（３７階）"},{"zipCode":"1057138","prefectureKana":"ﾄｳｷｮｳﾄ","cityKana":"ﾐﾅﾄｸ","streetKana":"ﾋｶﾞｼｼﾝﾊﾞｼｼｵﾄﾞﾒｼﾃｨｾﾝﾀｰ(38ｶｲ)","prefecture":"東京都","city":"港区","street":"東新橋汐留シティセンター（３８階）"},{"zipCode":"1057139","prefectureKana":"ﾄｳｷｮｳﾄ","cityKana":"ﾐﾅﾄｸ","streetKana":"ﾋｶﾞｼｼﾝﾊﾞｼｼｵﾄﾞﾒｼﾃｨｾﾝﾀｰ(39ｶｲ)","prefecture":"東京都","city":"港区","street":"東新橋汐留シティセンター（３９階）"},{"zipCode":"1057140","prefectureKana":"ﾄｳｷｮｳﾄ","cityKana":"ﾐﾅﾄｸ","streetKana":"ﾋｶﾞｼｼﾝﾊﾞｼｼｵﾄﾞﾒｼﾃｨｾﾝﾀｰ(40ｶｲ)","prefecture":"東京都","city":"港区","street":"東新橋汐留シティセンター（４０階）"},{"zipCode":"1057141","prefectureKana":"ﾄｳｷｮｳﾄ","cityKana":"ﾐﾅﾄｸ","streetKana":"ﾋｶﾞｼｼﾝﾊﾞｼｼｵﾄﾞﾒｼﾃｨｾﾝﾀｰ(41ｶｲ)","prefecture":"東京都","city":"港区","street":"東新橋汐留シティセンター（４１階）"},{"zipCode":"1057142","prefectureKana":"ﾄｳｷｮｳﾄ","cityKana":"ﾐﾅﾄｸ","streetKana":"ﾋｶﾞｼｼﾝﾊﾞｼｼｵﾄﾞﾒｼﾃｨｾﾝﾀｰ(42ｶｲ)","prefecture":"東京都","city":"港区","street":"東新橋汐留シティセンター（４２階）"},{"zipCode":"1057143","prefectureKana":"ﾄｳｷｮｳﾄ","cityKana":"ﾐﾅﾄｸ","streetKana":"ﾋｶﾞｼｼﾝﾊﾞｼｼｵﾄﾞﾒｼﾃｨｾﾝﾀｰ(43ｶｲ)","prefecture":"東京都","city":"港区","street":"東新橋汐留シティセンター（４３階）"},{"zipCode":"1057290","prefectureKana":"ﾄｳｷｮｳﾄ","cityKana":"ﾐﾅﾄｸ","streetKana":"ﾋｶﾞｼｼﾝﾊﾞｼｼｵﾄﾞﾒﾒﾃﾞｨｱﾀﾜｰ(ﾁｶｲ･ｶｲｿｳﾌﾒｲ)","prefecture":"東京都","city":"港区","street":"東新橋汐留メディアタワー（地階・階層不明）"},{"zipCode":"1057201","prefectureKana":"ﾄｳｷｮｳﾄ","cityKana":"ﾐﾅﾄｸ","streetKana":"ﾋｶﾞｼｼﾝﾊﾞｼｼｵﾄﾞﾒﾒﾃﾞｨｱﾀﾜｰ(1ｶｲ)","prefecture":"東京都","city":"港区","street":"東新橋汐留メディアタワー（１階）"},{"zipCode":"1057202","prefectureKana":"ﾄｳｷｮｳﾄ","cityKana":"ﾐﾅﾄｸ","streetKana":"ﾋｶﾞｼｼﾝﾊﾞｼｼｵﾄﾞﾒﾒﾃﾞｨｱﾀﾜｰ(2ｶｲ)","prefecture":"東京都","city":"港区","street":"東新橋汐留メディアタワー（２階）"},{"zipCode":"1057203","prefectureKana":"ﾄｳｷｮｳﾄ","cityKana":"ﾐﾅﾄｸ","streetKana":"ﾋｶﾞｼｼﾝﾊﾞｼｼｵﾄﾞﾒﾒﾃﾞｨｱﾀﾜｰ(3ｶｲ)","prefecture":"東京都","city":"港区","street":"東新橋汐留メディアタワー（３階）"},{"zipCode":"1057204","prefectureKana":"ﾄｳｷｮｳﾄ","cityKana":"ﾐﾅﾄｸ","streetKana":"ﾋｶﾞｼｼﾝﾊﾞｼｼｵﾄﾞﾒﾒﾃﾞｨｱﾀﾜｰ(4ｶｲ)","prefecture":"東京都","city":"港区","street":"東新橋汐留メディアタワー（４階）"},{"zipCode":"1057205","prefectureKana":"ﾄｳｷｮｳﾄ","cityKana":"ﾐﾅﾄｸ","streetKana":"ﾋｶﾞｼｼﾝﾊﾞｼｼｵﾄﾞﾒﾒﾃﾞｨｱﾀﾜｰ(5ｶｲ)","prefecture":"東京都","city":"港区","street":"東新橋汐留メディアタワー（５階）"},{"zipCode":"1057206","prefectureKana":"ﾄｳｷｮｳﾄ","cityKana":"ﾐﾅﾄｸ","streetKana":"ﾋｶﾞｼｼﾝﾊﾞｼｼｵﾄﾞﾒﾒﾃﾞｨｱﾀﾜｰ(6ｶｲ)","prefecture":"東京都","city":"港区","street":"東新橋汐留メディアタワー（６階）"},{"zipCode":"1057207","prefectureKana":"ﾄｳｷｮｳﾄ","cityKana":"ﾐﾅﾄｸ","streetKana":"ﾋｶﾞｼｼﾝﾊﾞｼｼｵﾄﾞﾒﾒﾃﾞｨｱﾀﾜｰ(7ｶｲ)","prefecture":"東京都","city":"港区","street":"東新橋汐留メディアタワー（７階）"},{"zipCode":"1057208","prefectureKana":"ﾄｳｷｮｳﾄ","cityKana":"ﾐﾅﾄｸ","streetKana":"ﾋｶﾞｼｼﾝﾊﾞｼｼｵﾄﾞﾒﾒﾃﾞｨｱﾀﾜｰ(8ｶｲ)","prefecture":"東京都","city":"港区","street":"東新橋汐留メディアタワー（８階）"},{"zipCode":"1057209","prefectureKana":"ﾄｳｷｮｳﾄ","cityKana":"ﾐﾅﾄｸ","streetKana":"ﾋｶﾞｼｼﾝﾊﾞｼｼｵﾄﾞﾒﾒﾃﾞｨｱﾀﾜｰ(9ｶｲ)","prefecture":"東京都","city":"港区","street":"東新橋汐留メディアタワー（９階）"},{"zipCode":"1057210","prefectureKana":"ﾄｳｷｮｳﾄ","cityKana":"ﾐﾅﾄｸ","streetKana":"ﾋｶﾞｼｼﾝﾊﾞｼｼｵﾄﾞﾒﾒﾃﾞｨｱﾀﾜｰ(10ｶｲ)","prefecture":"東京都","city":"港区","street":"東新橋汐留メディアタワー（１０階）"},{"zipCode":"1057211","prefectureKana":"ﾄｳｷｮｳﾄ","cityKana":"ﾐﾅﾄｸ","streetKana":"ﾋｶﾞｼｼﾝﾊﾞｼｼｵﾄﾞﾒﾒﾃﾞｨｱﾀﾜｰ(11ｶｲ)","prefecture":"東京都","city":"港区","street":"東新橋汐留メディアタワー（１１階）"},{"zipCode":"1057212","prefectureKana":"ﾄｳｷｮｳﾄ","cityKana":"ﾐﾅﾄｸ","streetKana":"ﾋｶﾞｼｼﾝﾊﾞｼｼｵﾄﾞﾒﾒﾃﾞｨｱﾀﾜｰ(12ｶｲ)","prefecture":"東京都","city":"港区","street":"東新橋汐留メディアタワー（１２階）"},{"zipCode":"1057213","prefectureKana":"ﾄｳｷｮｳﾄ","cityKana":"ﾐﾅﾄｸ","streetKana":"ﾋｶﾞｼｼﾝﾊﾞｼｼｵﾄﾞﾒﾒﾃﾞｨｱﾀﾜｰ(13ｶｲ)","prefecture":"東京都","city":"港区","street":"東新橋汐留メディアタワー（１３階）"},{"zipCode":"1057214","prefectureKana":"ﾄｳｷｮｳﾄ","cityKana":"ﾐﾅﾄｸ","streetKana":"ﾋｶﾞｼｼﾝﾊﾞｼｼｵﾄﾞﾒﾒﾃﾞｨｱﾀﾜｰ(14ｶｲ)","prefecture":"東京都","city":"港区","street":"東新橋汐留メディアタワー（１４階）"},{"zipCode":"1057215","prefectureKana":"ﾄｳｷｮｳﾄ","cityKana":"ﾐﾅﾄｸ","streetKana":"ﾋｶﾞｼｼﾝﾊﾞｼｼｵﾄﾞﾒﾒﾃﾞｨｱﾀﾜｰ(15ｶｲ)","prefecture":"東京都","city":"港区","street":"東新橋汐留メディアタワー（１５階）"},{"zipCode":"1057216","prefectureKana":"ﾄｳｷｮｳﾄ","cityKana":"ﾐﾅﾄｸ","streetKana":"ﾋｶﾞｼｼﾝﾊﾞｼｼｵﾄﾞﾒﾒﾃﾞｨｱﾀﾜｰ(16ｶｲ)","prefecture":"東京都","city":"港区","street":"東新橋汐留メディアタワー（１６階）"},{"zipCode":"1057217","prefectureKana":"ﾄｳｷｮｳﾄ","cityKana":"ﾐﾅﾄｸ","streetKana":"ﾋｶﾞｼｼﾝﾊﾞｼｼｵﾄﾞﾒﾒﾃﾞｨｱﾀﾜｰ(17ｶｲ)","prefecture":"東京都","city":"港区","street":"東新橋汐留メディアタワー（１７階）"},{"zipCode":"1057218","prefectureKana":"ﾄｳｷｮｳﾄ","cityKana":"ﾐﾅﾄｸ","streetKana":"ﾋｶﾞｼｼﾝﾊﾞｼｼｵﾄﾞﾒﾒﾃﾞｨｱﾀﾜｰ(18ｶｲ)","prefecture":"東京都","city":"港区","street":"東新橋汐留メディアタワー（１８階）"},{"zipCode":"1057219","prefectureKana":"ﾄｳｷｮｳﾄ","cityKana":"ﾐﾅﾄｸ","streetKana":"ﾋｶﾞｼｼﾝﾊﾞｼｼｵﾄﾞﾒﾒﾃﾞｨｱﾀﾜｰ(19ｶｲ)","prefecture":"東京都","city":"港区","street":"東新橋汐留メディアタワー（１９階）"},{"zipCode":"1057220","prefectureKana":"ﾄｳｷｮｳﾄ","cityKana":"ﾐﾅﾄｸ","streetKana":"ﾋｶﾞｼｼﾝﾊﾞｼｼｵﾄﾞﾒﾒﾃﾞｨｱﾀﾜｰ(20ｶｲ)","prefecture":"東京都","city":"港区","street":"東新橋汐留メディアタワー（２０階）"},{"zipCode":"1057221","prefectureKana":"ﾄｳｷｮｳﾄ","cityKana":"ﾐﾅﾄｸ","streetKana":"ﾋｶﾞｼｼﾝﾊﾞｼｼｵﾄﾞﾒﾒﾃﾞｨｱﾀﾜｰ(21ｶｲ)","prefecture":"東京都","city":"港区","street":"東新橋汐留メディアタワー（２１階）"},{"zipCode":"1057222","prefectureKana":"ﾄｳｷｮｳﾄ","cityKana":"ﾐﾅﾄｸ","streetKana":"ﾋｶﾞｼｼﾝﾊﾞｼｼｵﾄﾞﾒﾒﾃﾞｨｱﾀﾜｰ(22ｶｲ)","prefecture":"東京都","city":"港区","street":"東新橋汐留メディアタワー（２２階）"},{"zipCode":"1057223","prefectureKana":"ﾄｳｷｮｳﾄ","cityKana":"ﾐﾅﾄｸ","streetKana":"ﾋｶﾞｼｼﾝﾊﾞｼｼｵﾄﾞﾒﾒﾃﾞｨｱﾀﾜｰ(23ｶｲ)","prefecture":"東京都","city":"港区","street":"東新橋汐留メディアタワー（２３階）"},{"zipCode":"1057224","prefectureKana":"ﾄｳｷｮｳﾄ","cityKana":"ﾐﾅﾄｸ","streetKana":"ﾋｶﾞｼｼﾝﾊﾞｼｼｵﾄﾞﾒﾒﾃﾞｨｱﾀﾜｰ(24ｶｲ)","prefecture":"東京都","city":"港区","street":"東新橋汐留メディアタワー（２４階）"},{"zipCode":"1057225","prefectureKana":"ﾄｳｷｮｳﾄ","cityKana":"ﾐﾅﾄｸ","streetKana":"ﾋｶﾞｼｼﾝﾊﾞｼｼｵﾄﾞﾒﾒﾃﾞｨｱﾀﾜｰ(25ｶｲ)","prefecture":"東京都","city":"港区","street":"東新橋汐留メディアタワー（２５階）"},{"zipCode":"1057226","prefectureKana":"ﾄｳｷｮｳﾄ","cityKana":"ﾐﾅﾄｸ","streetKana":"ﾋｶﾞｼｼﾝﾊﾞｼｼｵﾄﾞﾒﾒﾃﾞｨｱﾀﾜｰ(26ｶｲ)","prefecture":"東京都","city":"港区","street":"東新橋汐留メディアタワー（２６階）"},{"zipCode":"1057227","prefectureKana":"ﾄｳｷｮｳﾄ","cityKana":"ﾐﾅﾄｸ","streetKana":"ﾋｶﾞｼｼﾝﾊﾞｼｼｵﾄﾞﾒﾒﾃﾞｨｱﾀﾜｰ(27ｶｲ)","prefecture":"東京都","city":"港区","street":"東新橋汐留メディアタワー（２７階）"},{"zipCode":"1057228","prefectureKana":"ﾄｳｷｮｳﾄ","cityKana":"ﾐﾅﾄｸ","streetKana":"ﾋｶﾞｼｼﾝﾊﾞｼｼｵﾄﾞﾒﾒﾃﾞｨｱﾀﾜｰ(28ｶｲ)","prefecture":"東京都","city":"港区","street":"東新橋汐留メディアタワー（２８階）"},{"zipCode":"1057229","prefectureKana":"ﾄｳｷｮｳﾄ","cityKana":"ﾐﾅﾄｸ","streetKana":"ﾋｶﾞｼｼﾝﾊﾞｼｼｵﾄﾞﾒﾒﾃﾞｨｱﾀﾜｰ(29ｶｲ)","prefecture":"東京都","city":"港区","street":"東新橋汐留メディアタワー（２９階）"},{"zipCode":"1057230","prefectureKana":"ﾄｳｷｮｳﾄ","cityKana":"ﾐﾅﾄｸ","streetKana":"ﾋｶﾞｼｼﾝﾊﾞｼｼｵﾄﾞﾒﾒﾃﾞｨｱﾀﾜｰ(30ｶｲ)","prefecture":"東京都","city":"港区","street":"東新橋汐留メディアタワー（３０階）"},{"zipCode":"1057231","prefectureKana":"ﾄｳｷｮｳﾄ","cityKana":"ﾐﾅﾄｸ","streetKana":"ﾋｶﾞｼｼﾝﾊﾞｼｼｵﾄﾞﾒﾒﾃﾞｨｱﾀﾜｰ(31ｶｲ)","prefecture":"東京都","city":"港区","street":"東新橋汐留メディアタワー（３１階）"},{"zipCode":"1057232","prefectureKana":"ﾄｳｷｮｳﾄ","cityKana":"ﾐﾅﾄｸ","streetKana":"ﾋｶﾞｼｼﾝﾊﾞｼｼｵﾄﾞﾒﾒﾃﾞｨｱﾀﾜｰ(32ｶｲ)","prefecture":"東京都","city":"港区","street":"東新橋汐留メディアタワー（３２階）"},{"zipCode":"1057233","prefectureKana":"ﾄｳｷｮｳﾄ","cityKana":"ﾐﾅﾄｸ","streetKana":"ﾋｶﾞｼｼﾝﾊﾞｼｼｵﾄﾞﾒﾒﾃﾞｨｱﾀﾜｰ(33ｶｲ)","prefecture":"東京都","city":"港区","street":"東新橋汐留メディアタワー（３３階）"},{"zipCode":"1057234","prefectureKana":"ﾄｳｷｮｳﾄ","cityKana":"ﾐﾅﾄｸ","streetKana":"ﾋｶﾞｼｼﾝﾊﾞｼｼｵﾄﾞﾒﾒﾃﾞｨｱﾀﾜｰ(34ｶｲ)","prefecture":"東京都","city":"港区","street":"東新橋汐留メディアタワー（３４階）"},{"zipCode":"1057090","prefectureKana":"ﾄｳｷｮｳﾄ","cityKana":"ﾐﾅﾄｸ","streetKana":"ﾋｶﾞｼｼﾝﾊﾞｼﾃﾞﾝﾂｳﾎﾝｼｬﾋﾞﾙ(ﾁｶｲ･ｶｲｿｳﾌﾒｲ)","prefecture":"東京都","city":"港区","street":"東新橋電通本社ビル（地階・階層不明）"},{"zipCode":"1057001","prefectureKana":"ﾄｳｷｮｳﾄ","cityKana":"ﾐﾅﾄｸ","streetKana":"ﾋｶﾞｼｼﾝﾊﾞｼﾃﾞﾝﾂｳﾎﾝｼｬﾋﾞﾙ(1ｶｲ)","prefecture":"東京都","city":"港区","street":"東新橋電通本社ビル（１階）"},{"zipCode":"1057002","prefectureKana":"ﾄｳｷｮｳﾄ","cityKana":"ﾐﾅﾄｸ","streetKana":"ﾋｶﾞｼｼﾝﾊﾞｼﾃﾞﾝﾂｳﾎﾝｼｬﾋﾞﾙ(2ｶｲ)","prefecture":"東京都","city":"港区","street":"東新橋電通本社ビル（２階）"},{"zipCode":"1057003","prefectureKana":"ﾄｳｷｮｳﾄ","cityKana":"ﾐﾅﾄｸ","streetKana":"ﾋｶﾞｼｼﾝﾊﾞｼﾃﾞﾝﾂｳﾎﾝｼｬﾋﾞﾙ(3ｶｲ)","prefecture":"東京都","city":"港区","street":"東新橋電通本社ビル（３階）"},{"zipCode":"1057004","prefectureKana":"ﾄｳｷｮｳﾄ","cityKana":"ﾐﾅﾄｸ","streetKana":"ﾋｶﾞｼｼﾝﾊﾞｼﾃﾞﾝﾂｳﾎﾝｼｬﾋﾞﾙ(4ｶｲ)","prefecture":"東京都","city":"港区","street":"東新橋電通本社ビル（４階）"},{"zipCode":"1057005","prefectureKana":"ﾄｳｷｮｳﾄ","cityKana":"ﾐﾅﾄｸ","streetKana":"ﾋｶﾞｼｼﾝﾊﾞｼﾃﾞﾝﾂｳﾎﾝｼｬﾋﾞﾙ(5ｶｲ)","prefecture":"東京都","city":"港区","street":"東新橋電通本社ビル（５階）"},{"zipCode":"1057006","prefectureKana":"ﾄｳｷｮｳﾄ","cityKana":"ﾐﾅﾄｸ","streetKana":"ﾋｶﾞｼｼﾝﾊﾞｼﾃﾞﾝﾂｳﾎﾝｼｬﾋﾞﾙ(6ｶｲ)","prefecture":"東京都","city":"港区","street":"東新橋電通本社ビル（６階）"},{"zipCode":"1057007","prefectureKana":"ﾄｳｷｮｳﾄ","cityKana":"ﾐﾅﾄｸ","streetKana":"ﾋｶﾞｼｼﾝﾊﾞｼﾃﾞﾝﾂｳﾎﾝｼｬﾋﾞﾙ(7ｶｲ)","prefecture":"東京都","city":"港区","street":"東新橋電通本社ビル（７階）"},{"zipCode":"1057008","prefectureKana":"ﾄｳｷｮｳﾄ","cityKana":"ﾐﾅﾄｸ","streetKana":"ﾋｶﾞｼｼﾝﾊﾞｼﾃﾞﾝﾂｳﾎﾝｼｬﾋﾞﾙ(8ｶｲ)","prefecture":"東京都","city":"港区","street":"東新橋電通本社ビル（８階）"},{"zipCode":"1057009","prefectureKana":"ﾄｳｷｮｳﾄ","cityKana":"ﾐﾅﾄｸ","streetKana":"ﾋｶﾞｼｼﾝﾊﾞｼﾃﾞﾝﾂｳﾎﾝｼｬﾋﾞﾙ(9ｶｲ)","prefecture":"東京都","city":"港区","street":"東新橋電通本社ビル（９階）"},{"zipCode":"1057010","prefectureKana":"ﾄｳｷｮｳﾄ","cityKana":"ﾐﾅﾄｸ","streetKana":"ﾋｶﾞｼｼﾝﾊﾞｼﾃﾞﾝﾂｳﾎﾝｼｬﾋﾞﾙ(10ｶｲ)","prefecture":"東京都","city":"港区","street":"東新橋電通本社ビル（１０階）"},{"zipCode":"1057011","prefectureKana":"ﾄｳｷｮｳﾄ","cityKana":"ﾐﾅﾄｸ","streetKana":"ﾋｶﾞｼｼﾝﾊﾞｼﾃﾞﾝﾂｳﾎﾝｼｬﾋﾞﾙ(11ｶｲ)","prefecture":"東京都","city":"港区","street":"東新橋電通本社ビル（１１階）"},{"zipCode":"1057012","prefectureKana":"ﾄｳｷｮｳﾄ","cityKana":"ﾐﾅﾄｸ","streetKana":"ﾋｶﾞｼｼﾝﾊﾞｼﾃﾞﾝﾂｳﾎﾝｼｬﾋﾞﾙ(12ｶｲ)","prefecture":"東京都","city":"港区","street":"東新橋電通本社ビル（１２階）"},{"zipCode":"1057013","prefectureKana":"ﾄｳｷｮｳﾄ","cityKana":"ﾐﾅﾄｸ","streetKana":"ﾋｶﾞｼｼﾝﾊﾞｼﾃﾞﾝﾂｳﾎﾝｼｬﾋﾞﾙ(13ｶｲ)","prefecture":"東京都","city":"港区","street":"東新橋電通本社ビル（１３階）"},{"zipCode":"1057014","prefectureKana":"ﾄｳｷｮｳﾄ","cityKana":"ﾐﾅﾄｸ","streetKana":"ﾋｶﾞｼｼﾝﾊﾞｼﾃﾞﾝﾂｳﾎﾝｼｬﾋﾞﾙ(14ｶｲ)","prefecture":"東京都","city":"港区","street":"東新橋電通本社ビル（１４階）"},{"zipCode":"1057015","prefectureKana":"ﾄｳｷｮｳﾄ","cityKana":"ﾐﾅﾄｸ","streetKana":"ﾋｶﾞｼｼﾝﾊﾞｼﾃﾞﾝﾂｳﾎﾝｼｬﾋﾞﾙ(15ｶｲ)","prefecture":"東京都","city":"港区","street":"東新橋電通本社ビル（１５階）"},{"zipCode":"1057016","prefectureKana":"ﾄｳｷｮｳﾄ","cityKana":"ﾐﾅﾄｸ","streetKana":"ﾋｶﾞｼｼﾝﾊﾞｼﾃﾞﾝﾂｳﾎﾝｼｬﾋﾞﾙ(16ｶｲ)","prefecture":"東京都","city":"港区","street":"東新橋電通本社ビル（１６階）"},{"zipCode":"1057017","prefectureKana":"ﾄｳｷｮｳﾄ","cityKana":"ﾐﾅﾄｸ","streetKana":"ﾋｶﾞｼｼﾝﾊﾞｼﾃﾞﾝﾂｳﾎﾝｼｬﾋﾞﾙ(17ｶｲ)","prefecture":"東京都","city":"港区","street":"東新橋電通本社ビル（１７階）"},{"zipCode":"1057018","prefectureKana":"ﾄｳｷｮｳﾄ","cityKana":"ﾐﾅﾄｸ","streetKana":"ﾋｶﾞｼｼﾝﾊﾞｼﾃﾞﾝﾂｳﾎﾝｼｬﾋﾞﾙ(18ｶｲ)","prefecture":"東京都","city":"港区","street":"東新橋電通本社ビル（１８階）"},{"zipCode":"1057019","prefectureKana":"ﾄｳｷｮｳﾄ","cityKana":"ﾐﾅﾄｸ","streetKana":"ﾋｶﾞｼｼﾝﾊﾞｼﾃﾞﾝﾂｳﾎﾝｼｬﾋﾞﾙ(19ｶｲ)","prefecture":"東京都","city":"港区","street":"東新橋電通本社ビル（１９階）"},{"zipCode":"1057020","prefectureKana":"ﾄｳｷｮｳﾄ","cityKana":"ﾐﾅﾄｸ","streetKana":"ﾋｶﾞｼｼﾝﾊﾞｼﾃﾞﾝﾂｳﾎﾝｼｬﾋﾞﾙ(20ｶｲ)","prefecture":"東京都","city":"港区","street":"東新橋電通本社ビル（２０階）"},{"zipCode":"1057021","prefectureKana":"ﾄｳｷｮｳﾄ","cityKana":"ﾐﾅﾄｸ","streetKana":"ﾋｶﾞｼｼﾝﾊﾞｼﾃﾞﾝﾂｳﾎﾝｼｬﾋﾞﾙ(21ｶｲ)","prefecture":"東京都","city":"港区","street":"東新橋電通本社ビル（２１階）"},{"zipCode":"1057022","prefectureKana":"ﾄｳｷｮｳﾄ","cityKana":"ﾐﾅﾄｸ","streetKana":"ﾋｶﾞｼｼﾝﾊﾞｼﾃﾞﾝﾂｳﾎﾝｼｬﾋﾞﾙ(22ｶｲ)","prefecture":"東京都","city":"港区","street":"東新橋電通本社ビル（２２階）"},{"zipCode":"1057023","prefectureKana":"ﾄｳｷｮｳﾄ","cityKana":"ﾐﾅﾄｸ","streetKana":"ﾋｶﾞｼｼﾝﾊﾞｼﾃﾞﾝﾂｳﾎﾝｼｬﾋﾞﾙ(23ｶｲ)","prefecture":"東京都","city":"港区","street":"東新橋電通本社ビル（２３階）"},{"zipCode":"1057024","prefectureKana":"ﾄｳｷｮｳﾄ","cityKana":"ﾐﾅﾄｸ","streetKana":"ﾋｶﾞｼｼﾝﾊﾞｼﾃﾞﾝﾂｳﾎﾝｼｬﾋﾞﾙ(24ｶｲ)","prefecture":"東京都","city":"港区","street":"東新橋電通本社ビル（２４階）"},{"zipCode":"1057025","prefectureKana":"ﾄｳｷｮｳﾄ","cityKana":"ﾐﾅﾄｸ","streetKana":"ﾋｶﾞｼｼﾝﾊﾞｼﾃﾞﾝﾂｳﾎﾝｼｬﾋﾞﾙ(25ｶｲ)","prefecture":"東京都","city":"港区","street":"東新橋電通本社ビル（２５階）"},{"zipCode":"1057026","prefectureKana":"ﾄｳｷｮｳﾄ","cityKana":"ﾐﾅﾄｸ","streetKana":"ﾋｶﾞｼｼﾝﾊﾞｼﾃﾞﾝﾂｳﾎﾝｼｬﾋﾞﾙ(26ｶｲ)","prefecture":"東京都","city":"港区","street":"東新橋電通本社ビル（２６階）"},{"zipCode":"1057027","prefectureKana":"ﾄｳｷｮｳﾄ","cityKana":"ﾐﾅﾄｸ","streetKana":"ﾋｶﾞｼｼﾝﾊﾞｼﾃﾞﾝﾂｳﾎﾝｼｬﾋﾞﾙ(27ｶｲ)","prefecture":"東京都","city":"港区","street":"東新橋電通本社ビル（２７階）"},{"zipCode":"1057028","prefectureKana":"ﾄｳｷｮｳﾄ","cityKana":"ﾐﾅﾄｸ","streetKana":"ﾋｶﾞｼｼﾝﾊﾞｼﾃﾞﾝﾂｳﾎﾝｼｬﾋﾞﾙ(28ｶｲ)","prefecture":"東京都","city":"港区","street":"東新橋電通本社ビル（２８階）"},{"zipCode":"1057029","prefectureKana":"ﾄｳｷｮｳﾄ","cityKana":"ﾐﾅﾄｸ","streetKana":"ﾋｶﾞｼｼﾝﾊﾞｼﾃﾞﾝﾂｳﾎﾝｼｬﾋﾞﾙ(29ｶｲ)","prefecture":"東京都","city":"港区","street":"東新橋電通本社ビル（２９階）"},{"zipCode":"1057030","prefectureKana":"ﾄｳｷｮｳﾄ","cityKana":"ﾐﾅﾄｸ","streetKana":"ﾋｶﾞｼｼﾝﾊﾞｼﾃﾞﾝﾂｳﾎﾝｼｬﾋﾞﾙ(30ｶｲ)","prefecture":"東京都","city":"港区","street":"東新橋電通本社ビル（３０階）"},{"zipCode":"1057031","prefectureKana":"ﾄｳｷｮｳﾄ","cityKana":"ﾐﾅﾄｸ","streetKana":"ﾋｶﾞｼｼﾝﾊﾞｼﾃﾞﾝﾂｳﾎﾝｼｬﾋﾞﾙ(31ｶｲ)","prefecture":"東京都","city":"港区","street":"東新橋電通本社ビル（３１階）"},{"zipCode":"1057032","prefectureKana":"ﾄｳｷｮｳﾄ","cityKana":"ﾐﾅﾄｸ","streetKana":"ﾋｶﾞｼｼﾝﾊﾞｼﾃﾞﾝﾂｳﾎﾝｼｬﾋﾞﾙ(32ｶｲ)","prefecture":"東京都","city":"港区","street":"東新橋電通本社ビル（３２階）"},{"zipCode":"1057033","prefectureKana":"ﾄｳｷｮｳﾄ","cityKana":"ﾐﾅﾄｸ","streetKana":"ﾋｶﾞｼｼﾝﾊﾞｼﾃﾞﾝﾂｳﾎﾝｼｬﾋﾞﾙ(33ｶｲ)","prefecture":"東京都","city":"港区","street":"東新橋電通本社ビル（３３階）"},{"zipCode":"1057034","prefectureKana":"ﾄｳｷｮｳﾄ","cityKana":"ﾐﾅﾄｸ","streetKana":"ﾋｶﾞｼｼﾝﾊﾞｼﾃﾞﾝﾂｳﾎﾝｼｬﾋﾞﾙ(34ｶｲ)","prefecture":"東京都","city":"港区","street":"東新橋電通本社ビル（３４階）"},{"zipCode":"1057035","prefectureKana":"ﾄｳｷｮｳﾄ","cityKana":"ﾐﾅﾄｸ","streetKana":"ﾋｶﾞｼｼﾝﾊﾞｼﾃﾞﾝﾂｳﾎﾝｼｬﾋﾞﾙ(35ｶｲ)","prefecture":"東京都","city":"港区","street":"東新橋電通本社ビル（３５階）"},{"zipCode":"1057036","prefectureKana":"ﾄｳｷｮｳﾄ","cityKana":"ﾐﾅﾄｸ","streetKana":"ﾋｶﾞｼｼﾝﾊﾞｼﾃﾞﾝﾂｳﾎﾝｼｬﾋﾞﾙ(36ｶｲ)","prefecture":"東京都","city":"港区","street":"東新橋電通本社ビル（３６階）"},{"zipCode":"1057037","prefectureKana":"ﾄｳｷｮｳﾄ","cityKana":"ﾐﾅﾄｸ","streetKana":"ﾋｶﾞｼｼﾝﾊﾞｼﾃﾞﾝﾂｳﾎﾝｼｬﾋﾞﾙ(37ｶｲ)","prefecture":"東京都","city":"港区","street":"東新橋電通本社ビル（３７階）"},{"zipCode":"1057038","prefectureKana":"ﾄｳｷｮｳﾄ","cityKana":"ﾐﾅﾄｸ","streetKana":"ﾋｶﾞｼｼﾝﾊﾞｼﾃﾞﾝﾂｳﾎﾝｼｬﾋﾞﾙ(38ｶｲ)","prefecture":"東京都","city":"港区","street":"東新橋電通本社ビル（３８階）"},{"zipCode":"1057039","prefectureKana":"ﾄｳｷｮｳﾄ","cityKana":"ﾐﾅﾄｸ","streetKana":"ﾋｶﾞｼｼﾝﾊﾞｼﾃﾞﾝﾂｳﾎﾝｼｬﾋﾞﾙ(39ｶｲ)","prefecture":"東京都","city":"港区","street":"東新橋電通本社ビル（３９階）"},{"zipCode":"1057040","prefectureKana":"ﾄｳｷｮｳﾄ","cityKana":"ﾐﾅﾄｸ","streetKana":"ﾋｶﾞｼｼﾝﾊﾞｼﾃﾞﾝﾂｳﾎﾝｼｬﾋﾞﾙ(40ｶｲ)","prefecture":"東京都","city":"港区","street":"東新橋電通本社ビル（４０階）"},{"zipCode":"1057041","prefectureKana":"ﾄｳｷｮｳﾄ","cityKana":"ﾐﾅﾄｸ","streetKana":"ﾋｶﾞｼｼﾝﾊﾞｼﾃﾞﾝﾂｳﾎﾝｼｬﾋﾞﾙ(41ｶｲ)","prefecture":"東京都","city":"港区","street":"東新橋電通本社ビル（４１階）"},{"zipCode":"1057042","prefectureKana":"ﾄｳｷｮｳﾄ","cityKana":"ﾐﾅﾄｸ","streetKana":"ﾋｶﾞｼｼﾝﾊﾞｼﾃﾞﾝﾂｳﾎﾝｼｬﾋﾞﾙ(42ｶｲ)","prefecture":"東京都","city":"港区","street":"東新橋電通本社ビル（４２階）"},{"zipCode":"1057043","prefectureKana":"ﾄｳｷｮｳﾄ","cityKana":"ﾐﾅﾄｸ","streetKana":"ﾋｶﾞｼｼﾝﾊﾞｼﾃﾞﾝﾂｳﾎﾝｼｬﾋﾞﾙ(43ｶｲ)","prefecture":"東京都","city":"港区","street":"東新橋電通本社ビル（４３階）"},{"zipCode":"1057044","prefectureKana":"ﾄｳｷｮｳﾄ","cityKana":"ﾐﾅﾄｸ","streetKana":"ﾋｶﾞｼｼﾝﾊﾞｼﾃﾞﾝﾂｳﾎﾝｼｬﾋﾞﾙ(44ｶｲ)","prefecture":"東京都","city":"港区","street":"東新橋電通本社ビル（４４階）"},{"zipCode":"1057045","prefectureKana":"ﾄｳｷｮｳﾄ","cityKana":"ﾐﾅﾄｸ","streetKana":"ﾋｶﾞｼｼﾝﾊﾞｼﾃﾞﾝﾂｳﾎﾝｼｬﾋﾞﾙ(45ｶｲ)","prefecture":"東京都","city":"港区","street":"東新橋電通本社ビル（４５階）"},{"zipCode":"1057046","prefectureKana":"ﾄｳｷｮｳﾄ","cityKana":"ﾐﾅﾄｸ","streetKana":"ﾋｶﾞｼｼﾝﾊﾞｼﾃﾞﾝﾂｳﾎﾝｼｬﾋﾞﾙ(46ｶｲ)","prefecture":"東京都","city":"港区","street":"東新橋電通本社ビル（４６階）"},{"zipCode":"1057047","prefectureKana":"ﾄｳｷｮｳﾄ","cityKana":"ﾐﾅﾄｸ","streetKana":"ﾋｶﾞｼｼﾝﾊﾞｼﾃﾞﾝﾂｳﾎﾝｼｬﾋﾞﾙ(47ｶｲ)","prefecture":"東京都","city":"港区","street":"東新橋電通本社ビル（４７階）"},{"zipCode":"1057390","prefectureKana":"ﾄｳｷｮｳﾄ","cityKana":"ﾐﾅﾄｸ","streetKana":"ﾋｶﾞｼｼﾝﾊﾞｼﾄｳｷｮｳｼｵﾄﾞﾒﾋﾞﾙﾃﾞｨﾝｸﾞ(ﾁｶｲ･ｶｲｿｳﾌﾒｲ)","prefecture":"東京都","city":"港区","street":"東新橋東京汐留ビルディング（地階・階層不明）"},{"zipCode":"1057301","prefectureKana":"ﾄｳｷｮｳﾄ","cityKana":"ﾐﾅﾄｸ","streetKana":"ﾋｶﾞｼｼﾝﾊﾞｼﾄｳｷｮｳｼｵﾄﾞﾒﾋﾞﾙﾃﾞｨﾝｸﾞ(1ｶｲ)","prefecture":"東京都","city":"港区","street":"東新橋東京汐留ビルディング（１階）"},{"zipCode":"1057302","prefectureKana":"ﾄｳｷｮｳﾄ","cityKana":"ﾐﾅﾄｸ","streetKana":"ﾋｶﾞｼｼﾝﾊﾞｼﾄｳｷｮｳｼｵﾄﾞﾒﾋﾞﾙﾃﾞｨﾝｸﾞ(2ｶｲ)","prefecture":"東京都","city":"港区","street":"東新橋東京汐留ビルディング（２階）"},{"zipCode":"1057303","prefectureKana":"ﾄｳｷｮｳﾄ","cityKana":"ﾐﾅﾄｸ","streetKana":"ﾋｶﾞｼｼﾝﾊﾞｼﾄｳｷｮｳｼｵﾄﾞﾒﾋﾞﾙﾃﾞｨﾝｸﾞ(3ｶｲ)","prefecture":"東京都","city":"港区","street":"東新橋東京汐留ビルディング（３階）"},{"zipCode":"1057304","prefectureKana":"ﾄｳｷｮｳﾄ","cityKana":"ﾐﾅﾄｸ","streetKana":"ﾋｶﾞｼｼﾝﾊﾞｼﾄｳｷｮｳｼｵﾄﾞﾒﾋﾞﾙﾃﾞｨﾝｸﾞ(4ｶｲ)","prefecture":"東京都","city":"港区","street":"東新橋東京汐留ビルディング（４階）"},{"zipCode":"1057305","prefectureKana":"ﾄｳｷｮｳﾄ","cityKana":"ﾐﾅﾄｸ","streetKana":"ﾋｶﾞｼｼﾝﾊﾞｼﾄｳｷｮｳｼｵﾄﾞﾒﾋﾞﾙﾃﾞｨﾝｸﾞ(5ｶｲ)","prefecture":"東京都","city":"港区","street":"東新橋東京汐留ビルディング（５階）"},{"zipCode":"1057306","prefectureKana":"ﾄｳｷｮｳﾄ","cityKana":"ﾐﾅﾄｸ","streetKana":"ﾋｶﾞｼｼﾝﾊﾞｼﾄｳｷｮｳｼｵﾄﾞﾒﾋﾞﾙﾃﾞｨﾝｸﾞ(6ｶｲ)","prefecture":"東京都","city":"港区","street":"東新橋東京汐留ビルディング（６階）"},{"zipCode":"1057307","prefectureKana":"ﾄｳｷｮｳﾄ","cityKana":"ﾐﾅﾄｸ","streetKana":"ﾋｶﾞｼｼﾝﾊﾞｼﾄｳｷｮｳｼｵﾄﾞﾒﾋﾞﾙﾃﾞｨﾝｸﾞ(7ｶｲ)","prefecture":"東京都","city":"港区","street":"東新橋東京汐留ビルディング（７階）"},{"zipCode":"1057308","prefectureKana":"ﾄｳｷｮｳﾄ","cityKana":"ﾐﾅﾄｸ","streetKana":"ﾋｶﾞｼｼﾝﾊﾞｼﾄｳｷｮｳｼｵﾄﾞﾒﾋﾞﾙﾃﾞｨﾝｸﾞ(8ｶｲ)","prefecture":"東京都","city":"港区","street":"東新橋東京汐留ビルディング（８階）"},{"zipCode":"1057309","prefectureKana":"ﾄｳｷｮｳﾄ","cityKana":"ﾐﾅﾄｸ","streetKana":"ﾋｶﾞｼｼﾝﾊﾞｼﾄｳｷｮｳｼｵﾄﾞﾒﾋﾞﾙﾃﾞｨﾝｸﾞ(9ｶｲ)","prefecture":"東京都","city":"港区","street":"東新橋東京汐留ビルディング（９階）"},{"zipCode":"1057310","prefectureKana":"ﾄｳｷｮｳﾄ","cityKana":"ﾐﾅﾄｸ","streetKana":"ﾋｶﾞｼｼﾝﾊﾞｼﾄｳｷｮｳｼｵﾄﾞﾒﾋﾞﾙﾃﾞｨﾝｸﾞ(10ｶｲ)","prefecture":"東京都","city":"港区","street":"東新橋東京汐留ビルディング（１０階）"},{"zipCode":"1057311","prefectureKana":"ﾄｳｷｮｳﾄ","cityKana":"ﾐﾅﾄｸ","streetKana":"ﾋｶﾞｼｼﾝﾊﾞｼﾄｳｷｮｳｼｵﾄﾞﾒﾋﾞﾙﾃﾞｨﾝｸﾞ(11ｶｲ)","prefecture":"東京都","city":"港区","street":"東新橋東京汐留ビルディング（１１階）"},{"zipCode":"1057312","prefectureKana":"ﾄｳｷｮｳﾄ","cityKana":"ﾐﾅﾄｸ","streetKana":"ﾋｶﾞｼｼﾝﾊﾞｼﾄｳｷｮｳｼｵﾄﾞﾒﾋﾞﾙﾃﾞｨﾝｸﾞ(12ｶｲ)","prefecture":"東京都","city":"港区","street":"東新橋東京汐留ビルディング（１２階）"},{"zipCode":"1057313","prefectureKana":"ﾄｳｷｮｳﾄ","cityKana":"ﾐﾅﾄｸ","streetKana":"ﾋｶﾞｼｼﾝﾊﾞｼﾄｳｷｮｳｼｵﾄﾞﾒﾋﾞﾙﾃﾞｨﾝｸﾞ(13ｶｲ)","prefecture":"東京都","city":"港区","street":"東新橋東京汐留ビルディング（１３階）"},{"zipCode":"1057314","prefectureKana":"ﾄｳｷｮｳﾄ","cityKana":"ﾐﾅﾄｸ","streetKana":"ﾋｶﾞｼｼﾝﾊﾞｼﾄｳｷｮｳｼｵﾄﾞﾒﾋﾞﾙﾃﾞｨﾝｸﾞ(14ｶｲ)","prefecture":"東京都","city":"港区","street":"東新橋東京汐留ビルディング（１４階）"},{"zipCode":"1057315","prefectureKana":"ﾄｳｷｮｳﾄ","cityKana":"ﾐﾅﾄｸ","streetKana":"ﾋｶﾞｼｼﾝﾊﾞｼﾄｳｷｮｳｼｵﾄﾞﾒﾋﾞﾙﾃﾞｨﾝｸﾞ(15ｶｲ)","prefecture":"東京都","city":"港区","street":"東新橋東京汐留ビルディング（１５階）"},{"zipCode":"1057316","prefectureKana":"ﾄｳｷｮｳﾄ","cityKana":"ﾐﾅﾄｸ","streetKana":"ﾋｶﾞｼｼﾝﾊﾞｼﾄｳｷｮｳｼｵﾄﾞﾒﾋﾞﾙﾃﾞｨﾝｸﾞ(16ｶｲ)","prefecture":"東京都","city":"港区","street":"東新橋東京汐留ビルディング（１６階）"},{"zipCode":"1057317","prefectureKana":"ﾄｳｷｮｳﾄ","cityKana":"ﾐﾅﾄｸ","streetKana":"ﾋｶﾞｼｼﾝﾊﾞｼﾄｳｷｮｳｼｵﾄﾞﾒﾋﾞﾙﾃﾞｨﾝｸﾞ(17ｶｲ)","prefecture":"東京都","city":"港区","street":"東新橋東京汐留ビルディング（１７階）"},{"zipCode":"1057318","prefectureKana":"ﾄｳｷｮｳﾄ","cityKana":"ﾐﾅﾄｸ","streetKana":"ﾋｶﾞｼｼﾝﾊﾞｼﾄｳｷｮｳｼｵﾄﾞﾒﾋﾞﾙﾃﾞｨﾝｸﾞ(18ｶｲ)","prefecture":"東京都","city":"港区","street":"東新橋東京汐留ビルディング（１８階）"},{"zipCode":"1057319","prefectureKana":"ﾄｳｷｮｳﾄ","cityKana":"ﾐﾅﾄｸ","streetKana":"ﾋｶﾞｼｼﾝﾊﾞｼﾄｳｷｮｳｼｵﾄﾞﾒﾋﾞﾙﾃﾞｨﾝｸﾞ(19ｶｲ)","prefecture":"東京都","city":"港区","street":"東新橋東京汐留ビルディング（１９階）"},{"zipCode":"1057320","prefectureKana":"ﾄｳｷｮｳﾄ","cityKana":"ﾐﾅﾄｸ","streetKana":"ﾋｶﾞｼｼﾝﾊﾞｼﾄｳｷｮｳｼｵﾄﾞﾒﾋﾞﾙﾃﾞｨﾝｸﾞ(20ｶｲ)","prefecture":"東京都","city":"港区","street":"東新橋東京汐留ビルディング（２０階）"},{"zipCode":"1057321","prefectureKana":"ﾄｳｷｮｳﾄ","cityKana":"ﾐﾅﾄｸ","streetKana":"ﾋｶﾞｼｼﾝﾊﾞｼﾄｳｷｮｳｼｵﾄﾞﾒﾋﾞﾙﾃﾞｨﾝｸﾞ(21ｶｲ)","prefecture":"東京都","city":"港区","street":"東新橋東京汐留ビルディング（２１階）"},{"zipCode":"1057322","prefectureKana":"ﾄｳｷｮｳﾄ","cityKana":"ﾐﾅﾄｸ","streetKana":"ﾋｶﾞｼｼﾝﾊﾞｼﾄｳｷｮｳｼｵﾄﾞﾒﾋﾞﾙﾃﾞｨﾝｸﾞ(22ｶｲ)","prefecture":"東京都","city":"港区","street":"東新橋東京汐留ビルディング（２２階）"},{"zipCode":"1057323","prefectureKana":"ﾄｳｷｮｳﾄ","cityKana":"ﾐﾅﾄｸ","streetKana":"ﾋｶﾞｼｼﾝﾊﾞｼﾄｳｷｮｳｼｵﾄﾞﾒﾋﾞﾙﾃﾞｨﾝｸﾞ(23ｶｲ)","prefecture":"東京都","city":"港区","street":"東新橋東京汐留ビルディング（２３階）"},{"zipCode":"1057324","prefectureKana":"ﾄｳｷｮｳﾄ","cityKana":"ﾐﾅﾄｸ","streetKana":"ﾋｶﾞｼｼﾝﾊﾞｼﾄｳｷｮｳｼｵﾄﾞﾒﾋﾞﾙﾃﾞｨﾝｸﾞ(24ｶｲ)","prefecture":"東京都","city":"港区","street":"東新橋東京汐留ビルディング（２４階）"},{"zipCode":"1057325","prefectureKana":"ﾄｳｷｮｳﾄ","cityKana":"ﾐﾅﾄｸ","streetKana":"ﾋｶﾞｼｼﾝﾊﾞｼﾄｳｷｮｳｼｵﾄﾞﾒﾋﾞﾙﾃﾞｨﾝｸﾞ(25ｶｲ)","prefecture":"東京都","city":"港区","street":"東新橋東京汐留ビルディング（２５階）"},{"zipCode":"1057326","prefectureKana":"ﾄｳｷｮｳﾄ","cityKana":"ﾐﾅﾄｸ","streetKana":"ﾋｶﾞｼｼﾝﾊﾞｼﾄｳｷｮｳｼｵﾄﾞﾒﾋﾞﾙﾃﾞｨﾝｸﾞ(26ｶｲ)","prefecture":"東京都","city":"港区","street":"東新橋東京汐留ビルディング（２６階）"},{"zipCode":"1057327","prefectureKana":"ﾄｳｷｮｳﾄ","cityKana":"ﾐﾅﾄｸ","streetKana":"ﾋｶﾞｼｼﾝﾊﾞｼﾄｳｷｮｳｼｵﾄﾞﾒﾋﾞﾙﾃﾞｨﾝｸﾞ(27ｶｲ)","prefecture":"東京都","city":"港区","street":"東新橋東京汐留ビルディング（２７階）"},{"zipCode":"1057328","prefectureKana":"ﾄｳｷｮｳﾄ","cityKana":"ﾐﾅﾄｸ","streetKana":"ﾋｶﾞｼｼﾝﾊﾞｼﾄｳｷｮｳｼｵﾄﾞﾒﾋﾞﾙﾃﾞｨﾝｸﾞ(28ｶｲ)","prefecture":"東京都","city":"港区","street":"東新橋東京汐留ビルディング（２８階）"},{"zipCode":"1057329","prefectureKana":"ﾄｳｷｮｳﾄ","cityKana":"ﾐﾅﾄｸ","streetKana":"ﾋｶﾞｼｼﾝﾊﾞｼﾄｳｷｮｳｼｵﾄﾞﾒﾋﾞﾙﾃﾞｨﾝｸﾞ(29ｶｲ)","prefecture":"東京都","city":"港区","street":"東新橋東京汐留ビルディング（２９階）"},{"zipCode":"1057330","prefectureKana":"ﾄｳｷｮｳﾄ","cityKana":"ﾐﾅﾄｸ","streetKana":"ﾋｶﾞｼｼﾝﾊﾞｼﾄｳｷｮｳｼｵﾄﾞﾒﾋﾞﾙﾃﾞｨﾝｸﾞ(30ｶｲ)","prefecture":"東京都","city":"港区","street":"東新橋東京汐留ビルディング（３０階）"},{"zipCode":"1057331","prefectureKana":"ﾄｳｷｮｳﾄ","cityKana":"ﾐﾅﾄｸ","streetKana":"ﾋｶﾞｼｼﾝﾊﾞｼﾄｳｷｮｳｼｵﾄﾞﾒﾋﾞﾙﾃﾞｨﾝｸﾞ(31ｶｲ)","prefecture":"東京都","city":"港区","street":"東新橋東京汐留ビルディング（３１階）"},{"zipCode":"1057332","prefectureKana":"ﾄｳｷｮｳﾄ","cityKana":"ﾐﾅﾄｸ","streetKana":"ﾋｶﾞｼｼﾝﾊﾞｼﾄｳｷｮｳｼｵﾄﾞﾒﾋﾞﾙﾃﾞｨﾝｸﾞ(32ｶｲ)","prefecture":"東京都","city":"港区","street":"東新橋東京汐留ビルディング（３２階）"},{"zipCode":"1057333","prefectureKana":"ﾄｳｷｮｳﾄ","cityKana":"ﾐﾅﾄｸ","streetKana":"ﾋｶﾞｼｼﾝﾊﾞｼﾄｳｷｮｳｼｵﾄﾞﾒﾋﾞﾙﾃﾞｨﾝｸﾞ(33ｶｲ)","prefecture":"東京都","city":"港区","street":"東新橋東京汐留ビルディング（３３階）"},{"zipCode":"1057334","prefectureKana":"ﾄｳｷｮｳﾄ","cityKana":"ﾐﾅﾄｸ","streetKana":"ﾋｶﾞｼｼﾝﾊﾞｼﾄｳｷｮｳｼｵﾄﾞﾒﾋﾞﾙﾃﾞｨﾝｸﾞ(34ｶｲ)","prefecture":"東京都","city":"港区","street":"東新橋東京汐留ビルディング（３４階）"},{"zipCode":"1057335","prefectureKana":"ﾄｳｷｮｳﾄ","cityKana":"ﾐﾅﾄｸ","streetKana":"ﾋｶﾞｼｼﾝﾊﾞｼﾄｳｷｮｳｼｵﾄﾞﾒﾋﾞﾙﾃﾞｨﾝｸﾞ(35ｶｲ)","prefecture":"東京都","city":"港区","street":"東新橋東京汐留ビルディング（３５階）"},{"zipCode":"1057336","prefectureKana":"ﾄｳｷｮｳﾄ","cityKana":"ﾐﾅﾄｸ","streetKana":"ﾋｶﾞｼｼﾝﾊﾞｼﾄｳｷｮｳｼｵﾄﾞﾒﾋﾞﾙﾃﾞｨﾝｸﾞ(36ｶｲ)","prefecture":"東京都","city":"港区","street":"東新橋東京汐留ビルディング（３６階）"},{"zipCode":"1057337","prefectureKana":"ﾄｳｷｮｳﾄ","cityKana":"ﾐﾅﾄｸ","streetKana":"ﾋｶﾞｼｼﾝﾊﾞｼﾄｳｷｮｳｼｵﾄﾞﾒﾋﾞﾙﾃﾞｨﾝｸﾞ(37ｶｲ)","prefecture":"東京都","city":"港区","street":"東新橋東京汐留ビルディング（３７階）"},{"zipCode":"1057490","prefectureKana":"ﾄｳｷｮｳﾄ","cityKana":"ﾐﾅﾄｸ","streetKana":"ﾋｶﾞｼｼﾝﾊﾞｼﾆﾎﾝﾃﾚﾋﾞﾀﾜｰ(ﾁｶｲ･ｶｲｿｳﾌﾒｲ)","prefecture":"東京都","city":"港区","street":"東新橋日本テレビタワー（地階・階層不明）"},{"zipCode":"1057401","prefectureKana":"ﾄｳｷｮｳﾄ","cityKana":"ﾐﾅﾄｸ","streetKana":"ﾋｶﾞｼｼﾝﾊﾞｼﾆﾎﾝﾃﾚﾋﾞﾀﾜｰ(1ｶｲ)","prefecture":"東京都","city":"港区","street":"東新橋日本テレビタワー（１階）"},{"zipCode":"1057402","prefectureKana":"ﾄｳｷｮｳﾄ","cityKana":"ﾐﾅﾄｸ","streetKana":"ﾋｶﾞｼｼﾝﾊﾞｼﾆﾎﾝﾃﾚﾋﾞﾀﾜｰ(2ｶｲ)","prefecture":"東京都","city":"港区","street":"東新橋日本テレビタワー（２階）"},{"zipCode":"1057403","prefectureKana":"ﾄｳｷｮｳﾄ","cityKana":"ﾐﾅﾄｸ","streetKana":"ﾋｶﾞｼｼﾝﾊﾞｼﾆﾎﾝﾃﾚﾋﾞﾀﾜｰ(3ｶｲ)","prefecture":"東京都","city":"港区","street":"東新橋日本テレビタワー（３階）"},{"zipCode":"1057404","prefectureKana":"ﾄｳｷｮｳﾄ","cityKana":"ﾐﾅﾄｸ","streetKana":"ﾋｶﾞｼｼﾝﾊﾞｼﾆﾎﾝﾃﾚﾋﾞﾀﾜｰ(4ｶｲ)","prefecture":"東京都","city":"港区","street":"東新橋日本テレビタワー（４階）"},{"zipCode":"1057405","prefectureKana":"ﾄｳｷｮｳﾄ","cityKana":"ﾐﾅﾄｸ","streetKana":"ﾋｶﾞｼｼﾝﾊﾞｼﾆﾎﾝﾃﾚﾋﾞﾀﾜｰ(5ｶｲ)","prefecture":"東京都","city":"港区","street":"東新橋日本テレビタワー（５階）"},{"zipCode":"1057406","prefectureKana":"ﾄｳｷｮｳﾄ","cityKana":"ﾐﾅﾄｸ","streetKana":"ﾋｶﾞｼｼﾝﾊﾞｼﾆﾎﾝﾃﾚﾋﾞﾀﾜｰ(6ｶｲ)","prefecture":"東京都","city":"港区","street":"東新橋日本テレビタワー（６階）"},{"zipCode":"1057407","prefectureKana":"ﾄｳｷｮｳﾄ","cityKana":"ﾐﾅﾄｸ","streetKana":"ﾋｶﾞｼｼﾝﾊﾞｼﾆﾎﾝﾃﾚﾋﾞﾀﾜｰ(7ｶｲ)","prefecture":"東京都","city":"港区","street":"東新橋日本テレビタワー（７階）"},{"zipCode":"1057408","prefectureKana":"ﾄｳｷｮｳﾄ","cityKana":"ﾐﾅﾄｸ","streetKana":"ﾋｶﾞｼｼﾝﾊﾞｼﾆﾎﾝﾃﾚﾋﾞﾀﾜｰ(8ｶｲ)","prefecture":"東京都","city":"港区","street":"東新橋日本テレビタワー（８階）"},{"zipCode":"1057409","prefectureKana":"ﾄｳｷｮｳﾄ","cityKana":"ﾐﾅﾄｸ","streetKana":"ﾋｶﾞｼｼﾝﾊﾞｼﾆﾎﾝﾃﾚﾋﾞﾀﾜｰ(9ｶｲ)","prefecture":"東京都","city":"港区","street":"東新橋日本テレビタワー（９階）"},{"zipCode":"1057410","prefectureKana":"ﾄｳｷｮｳﾄ","cityKana":"ﾐﾅﾄｸ","streetKana":"ﾋｶﾞｼｼﾝﾊﾞｼﾆﾎﾝﾃﾚﾋﾞﾀﾜｰ(10ｶｲ)","prefecture":"東京都","city":"港区","street":"東新橋日本テレビタワー（１０階）"},{"zipCode":"1057411","prefectureKana":"ﾄｳｷｮｳﾄ","cityKana":"ﾐﾅﾄｸ","streetKana":"ﾋｶﾞｼｼﾝﾊﾞｼﾆﾎﾝﾃﾚﾋﾞﾀﾜｰ(11ｶｲ)","prefecture":"東京都","city":"港区","street":"東新橋日本テレビタワー（１１階）"},{"zipCode":"1057412","prefectureKana":"ﾄｳｷｮｳﾄ","cityKana":"ﾐﾅﾄｸ","streetKana":"ﾋｶﾞｼｼﾝﾊﾞｼﾆﾎﾝﾃﾚﾋﾞﾀﾜｰ(12ｶｲ)","prefecture":"東京都","city":"港区","street":"東新橋日本テレビタワー（１２階）"},{"zipCode":"1057413","prefectureKana":"ﾄｳｷｮｳﾄ","cityKana":"ﾐﾅﾄｸ","streetKana":"ﾋｶﾞｼｼﾝﾊﾞｼﾆﾎﾝﾃﾚﾋﾞﾀﾜｰ(13ｶｲ)","prefecture":"東京都","city":"港区","street":"東新橋日本テレビタワー（１３階）"},{"zipCode":"1057414","prefectureKana":"ﾄｳｷｮｳﾄ","cityKana":"ﾐﾅﾄｸ","streetKana":"ﾋｶﾞｼｼﾝﾊﾞｼﾆﾎﾝﾃﾚﾋﾞﾀﾜｰ(14ｶｲ)","prefecture":"東京都","city":"港区","street":"東新橋日本テレビタワー（１４階）"},{"zipCode":"1057415","prefectureKana":"ﾄｳｷｮｳﾄ","cityKana":"ﾐﾅﾄｸ","streetKana":"ﾋｶﾞｼｼﾝﾊﾞｼﾆﾎﾝﾃﾚﾋﾞﾀﾜｰ(15ｶｲ)","prefecture":"東京都","city":"港区","street":"東新橋日本テレビタワー（１５階）"},{"zipCode":"1057416","prefectureKana":"ﾄｳｷｮｳﾄ","cityKana":"ﾐﾅﾄｸ","streetKana":"ﾋｶﾞｼｼﾝﾊﾞｼﾆﾎﾝﾃﾚﾋﾞﾀﾜｰ(16ｶｲ)","prefecture":"東京都","city":"港区","street":"東新橋日本テレビタワー（１６階）"},{"zipCode":"1057417","prefectureKana":"ﾄｳｷｮｳﾄ","cityKana":"ﾐﾅﾄｸ","streetKana":"ﾋｶﾞｼｼﾝﾊﾞｼﾆﾎﾝﾃﾚﾋﾞﾀﾜｰ(17ｶｲ)","prefecture":"東京都","city":"港区","street":"東新橋日本テレビタワー（１７階）"},{"zipCode":"1057418","prefectureKana":"ﾄｳｷｮｳﾄ","cityKana":"ﾐﾅﾄｸ","streetKana":"ﾋｶﾞｼｼﾝﾊﾞｼﾆﾎﾝﾃﾚﾋﾞﾀﾜｰ(18ｶｲ)","prefecture":"東京都","city":"港区","street":"東新橋日本テレビタワー（１８階）"},{"zipCode":"1057419","prefectureKana":"ﾄｳｷｮｳﾄ","cityKana":"ﾐﾅﾄｸ","streetKana":"ﾋｶﾞｼｼﾝﾊﾞｼﾆﾎﾝﾃﾚﾋﾞﾀﾜｰ(19ｶｲ)","prefecture":"東京都","city":"港区","street":"東新橋日本テレビタワー（１９階）"},{"zipCode":"1057420","prefectureKana":"ﾄｳｷｮｳﾄ","cityKana":"ﾐﾅﾄｸ","streetKana":"ﾋｶﾞｼｼﾝﾊﾞｼﾆﾎﾝﾃﾚﾋﾞﾀﾜｰ(20ｶｲ)","prefecture":"東京都","city":"港区","street":"東新橋日本テレビタワー（２０階）"},{"zipCode":"1057421","prefectureKana":"ﾄｳｷｮｳﾄ","cityKana":"ﾐﾅﾄｸ","streetKana":"ﾋｶﾞｼｼﾝﾊﾞｼﾆﾎﾝﾃﾚﾋﾞﾀﾜｰ(21ｶｲ)","prefecture":"東京都","city":"港区","street":"東新橋日本テレビタワー（２１階）"},{"zipCode":"1057422","prefectureKana":"ﾄｳｷｮｳﾄ","cityKana":"ﾐﾅﾄｸ","streetKana":"ﾋｶﾞｼｼﾝﾊﾞｼﾆﾎﾝﾃﾚﾋﾞﾀﾜｰ(22ｶｲ)","prefecture":"東京都","city":"港区","street":"東新橋日本テレビタワー（２２階）"},{"zipCode":"1057423","prefectureKana":"ﾄｳｷｮｳﾄ","cityKana":"ﾐﾅﾄｸ","streetKana":"ﾋｶﾞｼｼﾝﾊﾞｼﾆﾎﾝﾃﾚﾋﾞﾀﾜｰ(23ｶｲ)","prefecture":"東京都","city":"港区","street":"東新橋日本テレビタワー（２３階）"},{"zipCode":"1057424","prefectureKana":"ﾄｳｷｮｳﾄ","cityKana":"ﾐﾅﾄｸ","streetKana":"ﾋｶﾞｼｼﾝﾊﾞｼﾆﾎﾝﾃﾚﾋﾞﾀﾜｰ(24ｶｲ)","prefecture":"東京都","city":"港区","street":"東新橋日本テレビタワー（２４階）"},{"zipCode":"1057425","prefectureKana":"ﾄｳｷｮｳﾄ","cityKana":"ﾐﾅﾄｸ","streetKana":"ﾋｶﾞｼｼﾝﾊﾞｼﾆﾎﾝﾃﾚﾋﾞﾀﾜｰ(25ｶｲ)","prefecture":"東京都","city":"港区","street":"東新橋日本テレビタワー（２５階）"},{"zipCode":"1057426","prefectureKana":"ﾄｳｷｮｳﾄ","cityKana":"ﾐﾅﾄｸ","streetKana":"ﾋｶﾞｼｼﾝﾊﾞｼﾆﾎﾝﾃﾚﾋﾞﾀﾜｰ(26ｶｲ)","prefecture":"東京都","city":"港区","street":"東新橋日本テレビタワー（２６階）"},{"zipCode":"1057427","prefectureKana":"ﾄｳｷｮｳﾄ","cityKana":"ﾐﾅﾄｸ","streetKana":"ﾋｶﾞｼｼﾝﾊﾞｼﾆﾎﾝﾃﾚﾋﾞﾀﾜｰ(27ｶｲ)","prefecture":"東京都","city":"港区","street":"東新橋日本テレビタワー（２７階）"},{"zipCode":"1057428","prefectureKana":"ﾄｳｷｮｳﾄ","cityKana":"ﾐﾅﾄｸ","streetKana":"ﾋｶﾞｼｼﾝﾊﾞｼﾆﾎﾝﾃﾚﾋﾞﾀﾜｰ(28ｶｲ)","prefecture":"東京都","city":"港区","street":"東新橋日本テレビタワー（２８階）"},{"zipCode":"1057429","prefectureKana":"ﾄｳｷｮｳﾄ","cityKana":"ﾐﾅﾄｸ","streetKana":"ﾋｶﾞｼｼﾝﾊﾞｼﾆﾎﾝﾃﾚﾋﾞﾀﾜｰ(29ｶｲ)","prefecture":"東京都","city":"港区","street":"東新橋日本テレビタワー（２９階）"},{"zipCode":"1057430","prefectureKana":"ﾄｳｷｮｳﾄ","cityKana":"ﾐﾅﾄｸ","streetKana":"ﾋｶﾞｼｼﾝﾊﾞｼﾆﾎﾝﾃﾚﾋﾞﾀﾜｰ(30ｶｲ)","prefecture":"東京都","city":"港区","street":"東新橋日本テレビタワー（３０階）"},{"zipCode":"1057431","prefectureKana":"ﾄｳｷｮｳﾄ","cityKana":"ﾐﾅﾄｸ","streetKana":"ﾋｶﾞｼｼﾝﾊﾞｼﾆﾎﾝﾃﾚﾋﾞﾀﾜｰ(31ｶｲ)","prefecture":"東京都","city":"港区","street":"東新橋日本テレビタワー（３１階）"},{"zipCode":"1057432","prefectureKana":"ﾄｳｷｮｳﾄ","cityKana":"ﾐﾅﾄｸ","streetKana":"ﾋｶﾞｼｼﾝﾊﾞｼﾆﾎﾝﾃﾚﾋﾞﾀﾜｰ(32ｶｲ)","prefecture":"東京都","city":"港区","street":"東新橋日本テレビタワー（３２階）"}]