[{"zipCode":"1060045","prefectureKana":"ﾄｳｷｮｳﾄ","cityKana":"ﾐﾅﾄｸ","streetKana":"ｱｻﾞﾌﾞｼﾞｭｳﾊﾞﾝ","prefecture":"東京都","city":"港区","street":"麻布十番"},{"zipCode":"1060041","prefectureKana":"ﾄｳｷｮｳﾄ","cityKana":"ﾐﾅﾄｸ","streetKana":"ｱｻﾞﾌﾞﾀﾞｲ","prefecture":"東京都","city":"港区","street":"麻布台"},{"zipCode":"1060043","prefectureKana":"ﾄｳｷｮｳﾄ","cityKana":"ﾐﾅﾄｸ","streetKana":"ｱｻﾞﾌﾞﾅｶﾞｻｶﾁｮｳ","prefecture":"東京都","city":"港区","street":"麻布永坂町"},{"zipCode":"1060042","prefectureKana":"ﾄｳｷｮｳﾄ","cityKana":"ﾐﾅﾄｸ","streetKana":"ｱｻﾞﾌﾞﾏﾐｱﾅﾁｮｳ","prefecture":"東京都","city":"港区","street":"麻布狸穴町"},{"zipCode":"1060031","prefectureKana":"ﾄｳｷｮｳﾄ","cityKana":"ﾐﾅﾄｸ","streetKana":"ﾆｼｱｻﾞﾌﾞ","prefecture":"東京都","city":"港区","street":"西麻布"},{"zipCode":"1060044","prefectureKana":"ﾄｳｷｮｳﾄ","cityKana":"ﾐﾅﾄｸ","streetKana":"ﾋｶﾞｼｱｻﾞﾌﾞ","prefecture":"東京都","city":"港区","street":"東麻布"},{"zipCode":"1060047","prefectureKana":"ﾄｳｷｮｳﾄ","cityKana":"ﾐﾅﾄｸ","streetKana":"ﾐﾅﾐｱｻﾞﾌﾞ","prefecture":"東京都","city":"港区","street":"南麻布"},{"zipCode":"1060046","prefectureKana":"ﾄｳｷｮｳﾄ","cityKana":"ﾐﾅﾄｸ","streetKana":"ﾓﾄｱｻﾞﾌﾞ","prefecture":"東京都","city":"港区","street":"元麻布"},{"zipCode":"1060032","prefectureKana":"ﾄｳｷｮｳﾄ","cityKana":"ﾐﾅﾄｸ","streetKana":"ﾛｯﾎﾟﾝｷﾞ(ﾂｷﾞﾉﾋﾞﾙｦﾉｿﾞｸ)","prefecture":"東京都","city":"港区","street":"六本木（次のビルを除く）"},{"zipCode":"1066090","prefectureKana":"ﾄｳｷｮｳﾄ","cityKana":"ﾐﾅﾄｸ","streetKana":"ﾛｯﾎﾟﾝｷﾞｲｽﾞﾐｶﾞｰﾃﾞﾝﾀﾜｰ(ﾁｶｲ･ｶｲｿｳﾌﾒｲ)","prefecture":"東京都","city":"港区","street":"六本木泉ガーデンタワー（地階・階層不明）"},{"zipCode":"1066001","prefectureKana":"ﾄｳｷｮｳﾄ","cityKana":"ﾐﾅﾄｸ","streetKana":"ﾛｯﾎﾟﾝｷﾞｲｽﾞﾐｶﾞｰﾃﾞﾝﾀﾜｰ(1ｶｲ)","prefecture":"東京都","city":"港区","street":"六本木泉ガーデンタワー（１階）"},{"zipCode":"1066002","prefectureKana":"ﾄｳｷｮｳﾄ","cityKana":"ﾐﾅﾄｸ","streetKana":"ﾛｯﾎﾟﾝｷﾞｲｽﾞﾐｶﾞｰﾃﾞﾝﾀﾜｰ(2ｶｲ)","prefecture":"東京都","city":"港区","street":"六本木泉ガーデンタワー（２階）"},{"zipCode":"1066003","prefectureKana":"ﾄｳｷｮｳﾄ","cityKana":"ﾐﾅﾄｸ","streetKana":"ﾛｯﾎﾟﾝｷﾞｲｽﾞﾐｶﾞｰﾃﾞﾝﾀﾜｰ(3ｶｲ)","prefecture":"東京都","city":"港区","street":"六本木泉ガーデンタワー（３階）"},{"zipCode":"1066004","prefectureKana":"ﾄｳｷｮｳﾄ","cityKana":"ﾐﾅﾄｸ","streetKana":"ﾛｯﾎﾟﾝｷﾞｲｽﾞﾐｶﾞｰﾃﾞﾝﾀﾜｰ(4ｶｲ)","prefecture":"東京都","city":"港区","street":"六本木泉ガーデンタワー（４階）"},{"zipCode":"1066005","prefectureKana":"ﾄｳｷｮｳﾄ","cityKana":"ﾐﾅﾄｸ","streetKana":"ﾛｯﾎﾟﾝｷﾞｲｽﾞﾐｶﾞｰﾃﾞﾝﾀﾜｰ(5ｶｲ)","prefecture":"東京都","city":"港区","street":"六本木泉ガーデンタワー（５階）"},{"zipCode":"1066006","prefectureKana":"ﾄｳｷｮｳﾄ","cityKana":"ﾐﾅﾄｸ","streetKana":"ﾛｯﾎﾟﾝｷﾞｲｽﾞﾐｶﾞｰﾃﾞﾝﾀﾜｰ(6ｶｲ)","prefecture":"東京都","city":"港区","street":"六本木泉ガーデンタワー（６階）"},{"zipCode":"1066007","prefectureKana":"ﾄｳｷｮｳﾄ","cityKana":"ﾐﾅﾄｸ","streetKana":"ﾛｯﾎﾟﾝｷﾞｲｽﾞﾐｶﾞｰﾃﾞﾝﾀﾜｰ(7ｶｲ)","prefecture":"東京都","city":"港区","street":"六本木泉ガーデンタワー（７階）"},{"zipCode":"1066008","prefectureKana":"ﾄｳｷｮｳﾄ","cityKana":"ﾐﾅﾄｸ","streetKana":"ﾛｯﾎﾟﾝｷﾞｲｽﾞﾐｶﾞｰﾃﾞﾝﾀﾜｰ(8ｶｲ)","prefecture":"東京都","city":"港区","street":"六本木泉ガーデンタワー（８階）"},{"zipCode":"1066009","prefectureKana":"ﾄｳｷｮｳﾄ","cityKana":"ﾐﾅﾄｸ","streetKana":"ﾛｯﾎﾟﾝｷﾞｲｽﾞﾐｶﾞｰﾃﾞﾝﾀﾜｰ(9ｶｲ)","prefecture":"東京都","city":"港区","street":"六本木泉ガーデンタワー（９階）"},{"zipCode":"1066010","prefectureKana":"ﾄｳｷｮｳﾄ","cityKana":"ﾐﾅﾄｸ","streetKana":"ﾛｯﾎﾟﾝｷﾞｲｽﾞﾐｶﾞｰﾃﾞﾝﾀﾜｰ(10ｶｲ)","prefecture":"東京都","city":"港区","street":"六本木泉ガーデンタワー（１０階）"},{"zipCode":"1066011","prefectureKana":"ﾄｳｷｮｳﾄ","cityKana":"ﾐﾅﾄｸ","streetKana":"ﾛｯﾎﾟﾝｷﾞｲｽﾞﾐｶﾞｰﾃﾞﾝﾀﾜｰ(11ｶｲ)","prefecture":"東京都","city":"港区","street":"六本木泉ガーデンタワー（１１階）"},{"zipCode":"1066012","prefectureKana":"ﾄｳｷｮｳﾄ","cityKana":"ﾐﾅﾄｸ","streetKana":"ﾛｯﾎﾟﾝｷﾞｲｽﾞﾐｶﾞｰﾃﾞﾝﾀﾜｰ(12ｶｲ)","prefecture":"東京都","city":"港区","street":"六本木泉ガーデンタワー（１２階）"},{"zipCode":"1066013","prefectureKana":"ﾄｳｷｮｳﾄ","cityKana":"ﾐﾅﾄｸ","streetKana":"ﾛｯﾎﾟﾝｷﾞｲｽﾞﾐｶﾞｰﾃﾞﾝﾀﾜｰ(13ｶｲ)","prefecture":"東京都","city":"港区","street":"六本木泉ガーデンタワー（１３階）"},{"zipCode":"1066014","prefectureKana":"ﾄｳｷｮｳﾄ","cityKana":"ﾐﾅﾄｸ","streetKana":"ﾛｯﾎﾟﾝｷﾞｲｽﾞﾐｶﾞｰﾃﾞﾝﾀﾜｰ(14ｶｲ)","prefecture":"東京都","city":"港区","street":"六本木泉ガーデンタワー（１４階）"},{"zipCode":"1066015","prefectureKana":"ﾄｳｷｮｳﾄ","cityKana":"ﾐﾅﾄｸ","streetKana":"ﾛｯﾎﾟﾝｷﾞｲｽﾞﾐｶﾞｰﾃﾞﾝﾀﾜｰ(15ｶｲ)","prefecture":"東京都","city":"港区","street":"六本木泉ガーデンタワー（１５階）"},{"zipCode":"1066016","prefectureKana":"ﾄｳｷｮｳﾄ","cityKana":"ﾐﾅﾄｸ","streetKana":"ﾛｯﾎﾟﾝｷﾞｲｽﾞﾐｶﾞｰﾃﾞﾝﾀﾜｰ(16ｶｲ)","prefecture":"東京都","city":"港区","street":"六本木泉ガーデンタワー（１６階）"},{"zipCode":"1066017","prefectureKana":"ﾄｳｷｮｳﾄ","cityKana":"ﾐﾅﾄｸ","streetKana":"ﾛｯﾎﾟﾝｷﾞｲｽﾞﾐｶﾞｰﾃﾞﾝﾀﾜｰ(17ｶｲ)","prefecture":"東京都","city":"港区","street":"六本木泉ガーデンタワー（１７階）"},{"zipCode":"1066018","prefectureKana":"ﾄｳｷｮｳﾄ","cityKana":"ﾐﾅﾄｸ","streetKana":"ﾛｯﾎﾟﾝｷﾞｲｽﾞﾐｶﾞｰﾃﾞﾝﾀﾜｰ(18ｶｲ)","prefecture":"東京都","city":"港区","street":"六本木泉ガーデンタワー（１８階）"},{"zipCode":"1066019","prefectureKana":"ﾄｳｷｮｳﾄ","cityKana":"ﾐﾅﾄｸ","streetKana":"ﾛｯﾎﾟﾝｷﾞｲｽﾞﾐｶﾞｰﾃﾞﾝﾀﾜｰ(19ｶｲ)","prefecture":"東京都","city":"港区","street":"六本木泉ガーデンタワー（１９階）"},{"zipCode":"1066020","prefectureKana":"ﾄｳｷｮｳﾄ","cityKana":"ﾐﾅﾄｸ","streetKana":"ﾛｯﾎﾟﾝｷﾞｲｽﾞﾐｶﾞｰﾃﾞﾝﾀﾜｰ(20ｶｲ)","prefecture":"東京都","city":"港区","street":"六本木泉ガーデンタワー（２０階）"},{"zipCode":"1066021","prefectureKana":"ﾄｳｷｮｳﾄ","cityKana":"ﾐﾅﾄｸ","streetKana":"ﾛｯﾎﾟﾝｷﾞｲｽﾞﾐｶﾞｰﾃﾞﾝﾀﾜｰ(21ｶｲ)","prefecture":"東京都","city":"港区","street":"六本木泉ガーデンタワー（２１階）"},{"zipCode":"1066022","prefectureKana":"ﾄｳｷｮｳﾄ","cityKana":"ﾐﾅﾄｸ","streetKana":"ﾛｯﾎﾟﾝｷﾞｲｽﾞﾐｶﾞｰﾃﾞﾝﾀﾜｰ(22ｶｲ)","prefecture":"東京都","city":"港区","street":"六本木泉ガーデンタワー（２２階）"},{"zipCode":"1066023","prefectureKana":"ﾄｳｷｮｳﾄ","cityKana":"ﾐﾅﾄｸ","streetKana":"ﾛｯﾎﾟﾝｷﾞｲｽﾞﾐｶﾞｰﾃﾞﾝﾀﾜｰ(23ｶｲ)","prefecture":"東京都","city":"港区","street":"六本木泉ガーデンタワー（２３階）"},{"zipCode":"1066024","prefectureKana":"ﾄｳｷｮｳﾄ","cityKana":"ﾐﾅﾄｸ","streetKana":"ﾛｯﾎﾟﾝｷﾞｲｽﾞﾐｶﾞｰﾃﾞﾝﾀﾜｰ(24ｶｲ)","prefecture":"東京都","city":"港区","street":"六本木泉ガーデンタワー（２４階）"},{"zipCode":"1066025","prefectureKana":"ﾄｳｷｮｳﾄ","cityKana":"ﾐﾅﾄｸ","streetKana":"ﾛｯﾎﾟﾝｷﾞｲｽﾞﾐｶﾞｰﾃﾞﾝﾀﾜｰ(25ｶｲ)","prefecture":"東京都","city":"港区","street":"六本木泉ガーデンタワー（２５階）"},{"zipCode":"1066026","prefectureKana":"ﾄｳｷｮｳﾄ","cityKana":"ﾐﾅﾄｸ","streetKana":"ﾛｯﾎﾟﾝｷﾞｲｽﾞﾐｶﾞｰﾃﾞﾝﾀﾜｰ(26ｶｲ)","prefecture":"東京都","city":"港区","street":"六本木泉ガーデンタワー（２６階）"},{"zipCode":"1066027","prefectureKana":"ﾄｳｷｮｳﾄ","cityKana":"ﾐﾅﾄｸ","streetKana":"ﾛｯﾎﾟﾝｷﾞｲｽﾞﾐｶﾞｰﾃﾞﾝﾀﾜｰ(27ｶｲ)","prefecture":"東京都","city":"港区","street":"六本木泉ガーデンタワー（２７階）"},{"zipCode":"1066028","prefectureKana":"ﾄｳｷｮｳﾄ","cityKana":"ﾐﾅﾄｸ","streetKana":"ﾛｯﾎﾟﾝｷﾞｲｽﾞﾐｶﾞｰﾃﾞﾝﾀﾜｰ(28ｶｲ)","prefecture":"東京都","city":"港区","street":"六本木泉ガーデンタワー（２８階）"},{"zipCode":"1066029","prefectureKana":"ﾄｳｷｮｳﾄ","cityKana":"ﾐﾅﾄｸ","streetKana":"ﾛｯﾎﾟﾝｷﾞｲｽﾞﾐｶﾞｰﾃﾞﾝﾀﾜｰ(29ｶｲ)","prefecture":"東京都","city":"港区","street":"六本木泉ガーデンタワー（２９階）"},{"zipCode":"1066030","prefectureKana":"ﾄｳｷｮｳﾄ","cityKana":"ﾐﾅﾄｸ","streetKana":"ﾛｯﾎﾟﾝｷﾞｲｽﾞﾐｶﾞｰﾃﾞﾝﾀﾜｰ(30ｶｲ)","prefecture":"東京都","city":"港区","street":"六本木泉ガーデンタワー（３０階）"},{"zipCode":"1066031","prefectureKana":"ﾄｳｷｮｳﾄ","cityKana":"ﾐﾅﾄｸ","streetKana":"ﾛｯﾎﾟﾝｷﾞｲｽﾞﾐｶﾞｰﾃﾞﾝﾀﾜｰ(31ｶｲ)","prefecture":"東京都","city":"港区","street":"六本木泉ガーデンタワー（３１階）"},{"zipCode":"1066032","prefectureKana":"ﾄｳｷｮｳﾄ","cityKana":"ﾐﾅﾄｸ","streetKana":"ﾛｯﾎﾟﾝｷﾞｲｽﾞﾐｶﾞｰﾃﾞﾝﾀﾜｰ(32ｶｲ)","prefecture":"東京都","city":"港区","street":"六本木泉ガーデンタワー（３２階）"},{"zipCode":"1066033","prefectureKana":"ﾄｳｷｮｳﾄ","cityKana":"ﾐﾅﾄｸ","streetKana":"ﾛｯﾎﾟﾝｷﾞｲｽﾞﾐｶﾞｰﾃﾞﾝﾀﾜｰ(33ｶｲ)","prefecture":"東京都","city":"港区","street":"六本木泉ガーデンタワー（３３階）"},{"zipCode":"1066034","prefectureKana":"ﾄｳｷｮｳﾄ","cityKana":"ﾐﾅﾄｸ","streetKana":"ﾛｯﾎﾟﾝｷﾞｲｽﾞﾐｶﾞｰﾃﾞﾝﾀﾜｰ(34ｶｲ)","prefecture":"東京都","city":"港区","street":"六本木泉ガーデンタワー（３４階）"},{"zipCode":"1066035","prefectureKana":"ﾄｳｷｮｳﾄ","cityKana":"ﾐﾅﾄｸ","streetKana":"ﾛｯﾎﾟﾝｷﾞｲｽﾞﾐｶﾞｰﾃﾞﾝﾀﾜｰ(35ｶｲ)","prefecture":"東京都","city":"港区","street":"六本木泉ガーデンタワー（３５階）"},{"zipCode":"1066036","prefectureKana":"ﾄｳｷｮｳﾄ","cityKana":"ﾐﾅﾄｸ","streetKana":"ﾛｯﾎﾟﾝｷﾞｲｽﾞﾐｶﾞｰﾃﾞﾝﾀﾜｰ(36ｶｲ)","prefecture":"東京都","city":"港区","street":"六本木泉ガーデンタワー（３６階）"},{"zipCode":"1066037","prefectureKana":"ﾄｳｷｮｳﾄ","cityKana":"ﾐﾅﾄｸ","streetKana":"ﾛｯﾎﾟﾝｷﾞｲｽﾞﾐｶﾞｰﾃﾞﾝﾀﾜｰ(37ｶｲ)","prefecture":"東京都","city":"港区","street":"六本木泉ガーデンタワー（３７階）"},{"zipCode":"1066038","prefectureKana":"ﾄｳｷｮｳﾄ","cityKana":"ﾐﾅﾄｸ","streetKana":"ﾛｯﾎﾟﾝｷﾞｲｽﾞﾐｶﾞｰﾃﾞﾝﾀﾜｰ(38ｶｲ)","prefecture":"東京都","city":"港区","street":"六本木泉ガーデンタワー（３８階）"},{"zipCode":"1066039","prefectureKana":"ﾄｳｷｮｳﾄ","cityKana":"ﾐﾅﾄｸ","streetKana":"ﾛｯﾎﾟﾝｷﾞｲｽﾞﾐｶﾞｰﾃﾞﾝﾀﾜｰ(39ｶｲ)","prefecture":"東京都","city":"港区","street":"六本木泉ガーデンタワー（３９階）"},{"zipCode":"1066040","prefectureKana":"ﾄｳｷｮｳﾄ","cityKana":"ﾐﾅﾄｸ","streetKana":"ﾛｯﾎﾟﾝｷﾞｲｽﾞﾐｶﾞｰﾃﾞﾝﾀﾜｰ(40ｶｲ)","prefecture":"東京都","city":"港区","street":"六本木泉ガーデンタワー（４０階）"},{"zipCode":"1066041","prefectureKana":"ﾄｳｷｮｳﾄ","cityKana":"ﾐﾅﾄｸ","streetKana":"ﾛｯﾎﾟﾝｷﾞｲｽﾞﾐｶﾞｰﾃﾞﾝﾀﾜｰ(41ｶｲ)","prefecture":"東京都","city":"港区","street":"六本木泉ガーデンタワー（４１階）"},{"zipCode":"1066042","prefectureKana":"ﾄｳｷｮｳﾄ","cityKana":"ﾐﾅﾄｸ","streetKana":"ﾛｯﾎﾟﾝｷﾞｲｽﾞﾐｶﾞｰﾃﾞﾝﾀﾜｰ(42ｶｲ)","prefecture":"東京都","city":"港区","street":"六本木泉ガーデンタワー（４２階）"},{"zipCode":"1066043","prefectureKana":"ﾄｳｷｮｳﾄ","cityKana":"ﾐﾅﾄｸ","streetKana":"ﾛｯﾎﾟﾝｷﾞｲｽﾞﾐｶﾞｰﾃﾞﾝﾀﾜｰ(43ｶｲ)","prefecture":"東京都","city":"港区","street":"六本木泉ガーデンタワー（４３階）"},{"zipCode":"1066044","prefectureKana":"ﾄｳｷｮｳﾄ","cityKana":"ﾐﾅﾄｸ","streetKana":"ﾛｯﾎﾟﾝｷﾞｲｽﾞﾐｶﾞｰﾃﾞﾝﾀﾜｰ(44ｶｲ)","prefecture":"東京都","city":"港区","street":"六本木泉ガーデンタワー（４４階）"},{"zipCode":"1066045","prefectureKana":"ﾄｳｷｮｳﾄ","cityKana":"ﾐﾅﾄｸ","streetKana":"ﾛｯﾎﾟﾝｷﾞｲｽﾞﾐｶﾞｰﾃﾞﾝﾀﾜｰ(45ｶｲ)","prefecture":"東京都","city":"港区","street":"六本木泉ガーデンタワー（４５階）"},{"zipCode":"1066290","prefectureKana":"ﾄｳｷｮｳﾄ","cityKana":"ﾐﾅﾄｸ","streetKana":"ﾛｯﾎﾟﾝｷﾞｽﾐﾄﾓﾌﾄﾞｳｻﾝﾛｯﾎﾟﾝｷﾞｸﾞﾗﾝﾄﾞﾀﾜｰ(ﾁｶｲ･ｶｲｿｳﾌﾒｲ)","prefecture":"東京都","city":"港区","street":"六本木住友不動産六本木グランドタワー（地階・階層不明）"},{"zipCode":"1066201","prefectureKana":"ﾄｳｷｮｳﾄ","cityKana":"ﾐﾅﾄｸ","streetKana":"ﾛｯﾎﾟﾝｷﾞｽﾐﾄﾓﾌﾄﾞｳｻﾝﾛｯﾎﾟﾝｷﾞｸﾞﾗﾝﾄﾞﾀﾜｰ(1ｶｲ)","prefecture":"東京都","city":"港区","street":"六本木住友不動産六本木グランドタワー（１階）"},{"zipCode":"1066202","prefectureKana":"ﾄｳｷｮｳﾄ","cityKana":"ﾐﾅﾄｸ","streetKana":"ﾛｯﾎﾟﾝｷﾞｽﾐﾄﾓﾌﾄﾞｳｻﾝﾛｯﾎﾟﾝｷﾞｸﾞﾗﾝﾄﾞﾀﾜｰ(2ｶｲ)","prefecture":"東京都","city":"港区","street":"六本木住友不動産六本木グランドタワー（２階）"},{"zipCode":"1066203","prefectureKana":"ﾄｳｷｮｳﾄ","cityKana":"ﾐﾅﾄｸ","streetKana":"ﾛｯﾎﾟﾝｷﾞｽﾐﾄﾓﾌﾄﾞｳｻﾝﾛｯﾎﾟﾝｷﾞｸﾞﾗﾝﾄﾞﾀﾜｰ(3ｶｲ)","prefecture":"東京都","city":"港区","street":"六本木住友不動産六本木グランドタワー（３階）"},{"zipCode":"1066204","prefectureKana":"ﾄｳｷｮｳﾄ","cityKana":"ﾐﾅﾄｸ","streetKana":"ﾛｯﾎﾟﾝｷﾞｽﾐﾄﾓﾌﾄﾞｳｻﾝﾛｯﾎﾟﾝｷﾞｸﾞﾗﾝﾄﾞﾀﾜｰ(4ｶｲ)","prefecture":"東京都","city":"港区","street":"六本木住友不動産六本木グランドタワー（４階）"},{"zipCode":"1066205","prefectureKana":"ﾄｳｷｮｳﾄ","cityKana":"ﾐﾅﾄｸ","streetKana":"ﾛｯﾎﾟﾝｷﾞｽﾐﾄﾓﾌﾄﾞｳｻﾝﾛｯﾎﾟﾝｷﾞｸﾞﾗﾝﾄﾞﾀﾜｰ(5ｶｲ)","prefecture":"東京都","city":"港区","street":"六本木住友不動産六本木グランドタワー（５階）"},{"zipCode":"1066206","prefectureKana":"ﾄｳｷｮｳﾄ","cityKana":"ﾐﾅﾄｸ","streetKana":"ﾛｯﾎﾟﾝｷﾞｽﾐﾄﾓﾌﾄﾞｳｻﾝﾛｯﾎﾟﾝｷﾞｸﾞﾗﾝﾄﾞﾀﾜｰ(6ｶｲ)","prefecture":"東京都","city":"港区","street":"六本木住友不動産六本木グランドタワー（６階）"},{"zipCode":"1066207","prefectureKana":"ﾄｳｷｮｳﾄ","cityKana":"ﾐﾅﾄｸ","streetKana":"ﾛｯﾎﾟﾝｷﾞｽﾐﾄﾓﾌﾄﾞｳｻﾝﾛｯﾎﾟﾝｷﾞｸﾞﾗﾝﾄﾞﾀﾜｰ(7ｶｲ)","prefecture":"東京都","city":"港区","street":"六本木住友不動産六本木グランドタワー（７階）"},{"zipCode":"1066208","prefectureKana":"ﾄｳｷｮｳﾄ","cityKana":"ﾐﾅﾄｸ","streetKana":"ﾛｯﾎﾟﾝｷﾞｽﾐﾄﾓﾌﾄﾞｳｻﾝﾛｯﾎﾟﾝｷﾞｸﾞﾗﾝﾄﾞﾀﾜｰ(8ｶｲ)","prefecture":"東京都","city":"港区","street":"六本木住友不動産六本木グランドタワー（８階）"},{"zipCode":"1066209","prefectureKana":"ﾄｳｷｮｳﾄ","cityKana":"ﾐﾅﾄｸ","streetKana":"ﾛｯﾎﾟﾝｷﾞｽﾐﾄﾓﾌﾄﾞｳｻﾝﾛｯﾎﾟﾝｷﾞｸﾞﾗﾝﾄﾞﾀﾜｰ(9ｶｲ)","prefecture":"東京都","city":"港区","street":"六本木住友不動産六本木グランドタワー（９階）"},{"zipCode":"1066210","prefectureKana":"ﾄｳｷｮｳﾄ","cityKana":"ﾐﾅﾄｸ","streetKana":"ﾛｯﾎﾟﾝｷﾞｽﾐﾄﾓﾌﾄﾞｳｻﾝﾛｯﾎﾟﾝｷﾞｸﾞﾗﾝﾄﾞﾀﾜｰ(10ｶｲ)","prefecture":"東京都","city":"港区","street":"六本木住友不動産六本木グランドタワー（１０階）"},{"zipCode":"1066211","prefectureKana":"ﾄｳｷｮｳﾄ","cityKana":"ﾐﾅﾄｸ","streetKana":"ﾛｯﾎﾟﾝｷﾞｽﾐﾄﾓﾌﾄﾞｳｻﾝﾛｯﾎﾟﾝｷﾞｸﾞﾗﾝﾄﾞﾀﾜｰ(11ｶｲ)","prefecture":"東京都","city":"港区","street":"六本木住友不動産六本木グランドタワー（１１階）"},{"zipCode":"1066212","prefectureKana":"ﾄｳｷｮｳﾄ","cityKana":"ﾐﾅﾄｸ","streetKana":"ﾛｯﾎﾟﾝｷﾞｽﾐﾄﾓﾌﾄﾞｳｻﾝﾛｯﾎﾟﾝｷﾞｸﾞﾗﾝﾄﾞﾀﾜｰ(12ｶｲ)","prefecture":"東京都","city":"港区","street":"六本木住友不動産六本木グランドタワー（１２階）"},{"zipCode":"1066213","prefectureKana":"ﾄｳｷｮｳﾄ","cityKana":"ﾐﾅﾄｸ","streetKana":"ﾛｯﾎﾟﾝｷﾞｽﾐﾄﾓﾌﾄﾞｳｻﾝﾛｯﾎﾟﾝｷﾞｸﾞﾗﾝﾄﾞﾀﾜｰ(13ｶｲ)","prefecture":"東京都","city":"港区","street":"六本木住友不動産六本木グランドタワー（１３階）"},{"zipCode":"1066214","prefectureKana":"ﾄｳｷｮｳﾄ","cityKana":"ﾐﾅﾄｸ","streetKana":"ﾛｯﾎﾟﾝｷﾞｽﾐﾄﾓﾌﾄﾞｳｻﾝﾛｯﾎﾟﾝｷﾞｸﾞﾗﾝﾄﾞﾀﾜｰ(14ｶｲ)","prefecture":"東京都","city":"港区","street":"六本木住友不動産六本木グランドタワー（１４階）"},{"zipCode":"1066215","prefectureKana":"ﾄｳｷｮｳﾄ","cityKana":"ﾐﾅﾄｸ","streetKana":"ﾛｯﾎﾟﾝｷﾞｽﾐﾄﾓﾌﾄﾞｳｻﾝﾛｯﾎﾟﾝｷﾞｸﾞﾗﾝﾄﾞﾀﾜｰ(15ｶｲ)","prefecture":"東京都","city":"港区","street":"六本木住友不動産六本木グランドタワー（１５階）"},{"zipCode":"1066216","prefectureKana":"ﾄｳｷｮｳﾄ","cityKana":"ﾐﾅﾄｸ","streetKana":"ﾛｯﾎﾟﾝｷﾞｽﾐﾄﾓﾌﾄﾞｳｻﾝﾛｯﾎﾟﾝｷﾞｸﾞﾗﾝﾄﾞﾀﾜｰ(16ｶｲ)","prefecture":"東京都","city":"港区","street":"六本木住友不動産六本木グランドタワー（１６階）"},{"zipCode":"1066217","prefectureKana":"ﾄｳｷｮｳﾄ","cityKana":"ﾐﾅﾄｸ","streetKana":"ﾛｯﾎﾟﾝｷﾞｽﾐﾄﾓﾌﾄﾞｳｻﾝﾛｯﾎﾟﾝｷﾞｸﾞﾗﾝﾄﾞﾀﾜｰ(17ｶｲ)","prefecture":"東京都","city":"港区","street":"六本木住友不動産六本木グランドタワー（１７階）"},{"zipCode":"1066218","prefectureKana":"ﾄｳｷｮｳﾄ","cityKana":"ﾐﾅﾄｸ","streetKana":"ﾛｯﾎﾟﾝｷﾞｽﾐﾄﾓﾌﾄﾞｳｻﾝﾛｯﾎﾟﾝｷﾞｸﾞﾗﾝﾄﾞﾀﾜｰ(18ｶｲ)","prefecture":"東京都","city":"港区","street":"六本木住友不動産六本木グランドタワー（１８階）"},{"zipCode":"1066219","prefectureKana":"ﾄｳｷｮｳﾄ","cityKana":"ﾐﾅﾄｸ","streetKana":"ﾛｯﾎﾟﾝｷﾞｽﾐﾄﾓﾌﾄﾞｳｻﾝﾛｯﾎﾟﾝｷﾞｸﾞﾗﾝﾄﾞﾀﾜｰ(19ｶｲ)","prefecture":"東京都","city":"港区","street":"六本木住友不動産六本木グランドタワー（１９階）"},{"zipCode":"1066220","prefectureKana":"ﾄｳｷｮｳﾄ","cityKana":"ﾐﾅﾄｸ","streetKana":"ﾛｯﾎﾟﾝｷﾞｽﾐﾄﾓﾌﾄﾞｳｻﾝﾛｯﾎﾟﾝｷﾞｸﾞﾗﾝﾄﾞﾀﾜｰ(20ｶｲ)","prefecture":"東京都","city":"港区","street":"六本木住友不動産六本木グランドタワー（２０階）"},{"zipCode":"1066221","prefectureKana":"ﾄｳｷｮｳﾄ","cityKana":"ﾐﾅﾄｸ","streetKana":"ﾛｯﾎﾟﾝｷﾞｽﾐﾄﾓﾌﾄﾞｳｻﾝﾛｯﾎﾟﾝｷﾞｸﾞﾗﾝﾄﾞﾀﾜｰ(21ｶｲ)","prefecture":"東京都","city":"港区","street":"六本木住友不動産六本木グランドタワー（２１階）"},{"zipCode":"1066222","prefectureKana":"ﾄｳｷｮｳﾄ","cityKana":"ﾐﾅﾄｸ","streetKana":"ﾛｯﾎﾟﾝｷﾞｽﾐﾄﾓﾌﾄﾞｳｻﾝﾛｯﾎﾟﾝｷﾞｸﾞﾗﾝﾄﾞﾀﾜｰ(22ｶｲ)","prefecture":"東京都","city":"港区","street":"六本木住友不動産六本木グランドタワー（２２階）"},{"zipCode":"1066223","prefectureKana":"ﾄｳｷｮｳﾄ","cityKana":"ﾐﾅﾄｸ","streetKana":"ﾛｯﾎﾟﾝｷﾞｽﾐﾄﾓﾌﾄﾞｳｻﾝﾛｯﾎﾟﾝｷﾞｸﾞﾗﾝﾄﾞﾀﾜｰ(23ｶｲ)","prefecture":"東京都","city":"港区","street":"六本木住友不動産六本木グランドタワー（２３階）"},{"zipCode":"1066224","prefectureKana":"ﾄｳｷｮｳﾄ","cityKana":"ﾐﾅﾄｸ","streetKana":"ﾛｯﾎﾟﾝｷﾞｽﾐﾄﾓﾌﾄﾞｳｻﾝﾛｯﾎﾟﾝｷﾞｸﾞﾗﾝﾄﾞﾀﾜｰ(24ｶｲ)","prefecture":"東京都","city":"港区","street":"六本木住友不動産六本木グランドタワー（２４階）"},{"zipCode":"1066225","prefectureKana":"ﾄｳｷｮｳﾄ","cityKana":"ﾐﾅﾄｸ","streetKana":"ﾛｯﾎﾟﾝｷﾞｽﾐﾄﾓﾌﾄﾞｳｻﾝﾛｯﾎﾟﾝｷﾞｸﾞﾗﾝﾄﾞﾀﾜｰ(25ｶｲ)","prefecture":"東京都","city":"港区","street":"六本木住友不動産六本木グランドタワー（２５階）"},{"zipCode":"1066226","prefectureKana":"ﾄｳｷｮｳﾄ","cityKana":"ﾐﾅﾄｸ","streetKana":"ﾛｯﾎﾟﾝｷﾞｽﾐﾄﾓﾌﾄﾞｳｻﾝﾛｯﾎﾟﾝｷﾞｸﾞﾗﾝﾄﾞﾀﾜｰ(26ｶｲ)","prefecture":"東京都","city":"港区","street":"六本木住友不動産六本木グランドタワー（２６階）"},{"zipCode":"1066227","prefectureKana":"ﾄｳｷｮｳﾄ","cityKana":"ﾐﾅﾄｸ","streetKana":"ﾛｯﾎﾟﾝｷﾞｽﾐﾄﾓﾌﾄﾞｳｻﾝﾛｯﾎﾟﾝｷﾞｸﾞﾗﾝﾄﾞﾀﾜｰ(27ｶｲ)","prefecture":"東京都","city":"港区","street":"六本木住友不動産六本木グランドタワー（２７階）"},{"zipCode":"1066228","prefectureKana":"ﾄｳｷｮｳﾄ","cityKana":"ﾐﾅﾄｸ","streetKana":"ﾛｯﾎﾟﾝｷﾞｽﾐﾄﾓﾌﾄﾞｳｻﾝﾛｯﾎﾟﾝｷﾞｸﾞﾗﾝﾄﾞﾀﾜｰ(28ｶｲ)","prefecture":"東京都","city":"港区","street":"六本木住友不動産六本木グランドタワー（２８階）"},{"zipCode":"1066229","prefectureKana":"ﾄｳｷｮｳﾄ","cityKana":"ﾐﾅﾄｸ","streetKana":"ﾛｯﾎﾟﾝｷﾞｽﾐﾄﾓﾌﾄﾞｳｻﾝﾛｯﾎﾟﾝｷﾞｸﾞﾗﾝﾄﾞﾀﾜｰ(29ｶｲ)","prefecture":"東京都","city":"港区","street":"六本木住友不動産六本木グランドタワー（２９階）"},{"zipCode":"1066230","prefectureKana":"ﾄｳｷｮｳﾄ","cityKana":"ﾐﾅﾄｸ","streetKana":"ﾛｯﾎﾟﾝｷﾞｽﾐﾄﾓﾌﾄﾞｳｻﾝﾛｯﾎﾟﾝｷﾞｸﾞﾗﾝﾄﾞﾀﾜｰ(30ｶｲ)","prefecture":"東京都","city":"港区","street":"六本木住友不動産六本木グランドタワー（３０階）"},{"zipCode":"1066231","prefectureKana":"ﾄｳｷｮｳﾄ","cityKana":"ﾐﾅﾄｸ","streetKana":"ﾛｯﾎﾟﾝｷﾞｽﾐﾄﾓﾌﾄﾞｳｻﾝﾛｯﾎﾟﾝｷﾞｸﾞﾗﾝﾄﾞﾀﾜｰ(31ｶｲ)","prefecture":"東京都","city":"港区","street":"六本木住友不動産六本木グランドタワー（３１階）"},{"zipCode":"1066232","prefectureKana":"ﾄｳｷｮｳﾄ","cityKana":"ﾐﾅﾄｸ","streetKana":"ﾛｯﾎﾟﾝｷﾞｽﾐﾄﾓﾌﾄﾞｳｻﾝﾛｯﾎﾟﾝｷﾞｸﾞﾗﾝﾄﾞﾀﾜｰ(32ｶｲ)","prefecture":"東京都","city":"港区","street":"六本木住友不動産六本木グランドタワー（３２階）"},{"zipCode":"1066233","prefectureKana":"ﾄｳｷｮｳﾄ","cityKana":"ﾐﾅﾄｸ","streetKana":"ﾛｯﾎﾟﾝｷﾞｽﾐﾄﾓﾌﾄﾞｳｻﾝﾛｯﾎﾟﾝｷﾞｸﾞﾗﾝﾄﾞﾀﾜｰ(33ｶｲ)","prefecture":"東京都","city":"港区","street":"六本木住友不動産六本木グランドタワー（３３階）"},{"zipCode":"1066234","prefectureKana":"ﾄｳｷｮｳﾄ","cityKana":"ﾐﾅﾄｸ","streetKana":"ﾛｯﾎﾟﾝｷﾞｽﾐﾄﾓﾌﾄﾞｳｻﾝﾛｯﾎﾟﾝｷﾞｸﾞﾗﾝﾄﾞﾀﾜｰ(34ｶｲ)","prefecture":"東京都","city":"港区","street":"六本木住友不動産六本木グランドタワー（３４階）"},{"zipCode":"1066235","prefectureKana":"ﾄｳｷｮｳﾄ","cityKana":"ﾐﾅﾄｸ","streetKana":"ﾛｯﾎﾟﾝｷﾞｽﾐﾄﾓﾌﾄﾞｳｻﾝﾛｯﾎﾟﾝｷﾞｸﾞﾗﾝﾄﾞﾀﾜｰ(35ｶｲ)","prefecture":"東京都","city":"港区","street":"六本木住友不動産六本木グランドタワー（３５階）"},{"zipCode":"1066236","prefectureKana":"ﾄｳｷｮｳﾄ","cityKana":"ﾐﾅﾄｸ","streetKana":"ﾛｯﾎﾟﾝｷﾞｽﾐﾄﾓﾌﾄﾞｳｻﾝﾛｯﾎﾟﾝｷﾞｸﾞﾗﾝﾄﾞﾀﾜｰ(36ｶｲ)","prefecture":"東京都","city":"港区","street":"六本木住友不動産六本木グランドタワー（３６階）"},{"zipCode":"1066237","prefectureKana":"ﾄｳｷｮｳﾄ","cityKana":"ﾐﾅﾄｸ","streetKana":"ﾛｯﾎﾟﾝｷﾞｽﾐﾄﾓﾌﾄﾞｳｻﾝﾛｯﾎﾟﾝｷﾞｸﾞﾗﾝﾄﾞﾀﾜｰ(37ｶｲ)","prefecture":"東京都","city":"港区","street":"六本木住友不動産六本木グランドタワー（３７階）"},{"zipCode":"1066238","prefectureKana":"ﾄｳｷｮｳﾄ","cityKana":"ﾐﾅﾄｸ","streetKana":"ﾛｯﾎﾟﾝｷﾞｽﾐﾄﾓﾌﾄﾞｳｻﾝﾛｯﾎﾟﾝｷﾞｸﾞﾗﾝﾄﾞﾀﾜｰ(38ｶｲ)","prefecture":"東京都","city":"港区","street":"六本木住友不動産六本木グランドタワー（３８階）"},{"zipCode":"1066239","prefectureKana":"ﾄｳｷｮｳﾄ","cityKana":"ﾐﾅﾄｸ","streetKana":"ﾛｯﾎﾟﾝｷﾞｽﾐﾄﾓﾌﾄﾞｳｻﾝﾛｯﾎﾟﾝｷﾞｸﾞﾗﾝﾄﾞﾀﾜｰ(39ｶｲ)","prefecture":"東京都","city":"港区","street":"六本木住友不動産六本木グランドタワー（３９階）"},{"zipCode":"1066240","prefectureKana":"ﾄｳｷｮｳﾄ","cityKana":"ﾐﾅﾄｸ","streetKana":"ﾛｯﾎﾟﾝｷﾞｽﾐﾄﾓﾌﾄﾞｳｻﾝﾛｯﾎﾟﾝｷﾞｸﾞﾗﾝﾄﾞﾀﾜｰ(40ｶｲ)","prefecture":"東京都","city":"港区","street":"六本木住友不動産六本木グランドタワー（４０階）"},{"zipCode":"1066241","prefectureKana":"ﾄｳｷｮｳﾄ","cityKana":"ﾐﾅﾄｸ","streetKana":"ﾛｯﾎﾟﾝｷﾞｽﾐﾄﾓﾌﾄﾞｳｻﾝﾛｯﾎﾟﾝｷﾞｸﾞﾗﾝﾄﾞﾀﾜｰ(41ｶｲ)","prefecture":"東京都","city":"港区","street":"六本木住友不動産六本木グランドタワー（４１階）"},{"zipCode":"1066242","prefectureKana":"ﾄｳｷｮｳﾄ","cityKana":"ﾐﾅﾄｸ","streetKana":"ﾛｯﾎﾟﾝｷﾞｽﾐﾄﾓﾌﾄﾞｳｻﾝﾛｯﾎﾟﾝｷﾞｸﾞﾗﾝﾄﾞﾀﾜｰ(42ｶｲ)","prefecture":"東京都","city":"港区","street":"六本木住友不動産六本木グランドタワー（４２階）"},{"zipCode":"1066243","prefectureKana":"ﾄｳｷｮｳﾄ","cityKana":"ﾐﾅﾄｸ","streetKana":"ﾛｯﾎﾟﾝｷﾞｽﾐﾄﾓﾌﾄﾞｳｻﾝﾛｯﾎﾟﾝｷﾞｸﾞﾗﾝﾄﾞﾀﾜｰ(43ｶｲ)","prefecture":"東京都","city":"港区","street":"六本木住友不動産六本木グランドタワー（４３階）"},{"zipCode":"1066190","prefectureKana":"ﾄｳｷｮｳﾄ","cityKana":"ﾐﾅﾄｸ","streetKana":"ﾛｯﾎﾟﾝｷﾞﾛｯﾎﾟﾝｷﾞﾋﾙｽﾞﾓﾘﾀﾜｰ(ﾁｶｲ･ｶｲｿｳﾌﾒｲ)","prefecture":"東京都","city":"港区","street":"六本木六本木ヒルズ森タワー（地階・階層不明）"},{"zipCode":"1066101","prefectureKana":"ﾄｳｷｮｳﾄ","cityKana":"ﾐﾅﾄｸ","streetKana":"ﾛｯﾎﾟﾝｷﾞﾛｯﾎﾟﾝｷﾞﾋﾙｽﾞﾓﾘﾀﾜｰ(1ｶｲ)","prefecture":"東京都","city":"港区","street":"六本木六本木ヒルズ森タワー（１階）"},{"zipCode":"1066102","prefectureKana":"ﾄｳｷｮｳﾄ","cityKana":"ﾐﾅﾄｸ","streetKana":"ﾛｯﾎﾟﾝｷﾞﾛｯﾎﾟﾝｷﾞﾋﾙｽﾞﾓﾘﾀﾜｰ(2ｶｲ)","prefecture":"東京都","city":"港区","street":"六本木六本木ヒルズ森タワー（２階）"},{"zipCode":"1066103","prefectureKana":"ﾄｳｷｮｳﾄ","cityKana":"ﾐﾅﾄｸ","streetKana":"ﾛｯﾎﾟﾝｷﾞﾛｯﾎﾟﾝｷﾞﾋﾙｽﾞﾓﾘﾀﾜｰ(3ｶｲ)","prefecture":"東京都","city":"港区","street":"六本木六本木ヒルズ森タワー（３階）"},{"zipCode":"1066104","prefectureKana":"ﾄｳｷｮｳﾄ","cityKana":"ﾐﾅﾄｸ","streetKana":"ﾛｯﾎﾟﾝｷﾞﾛｯﾎﾟﾝｷﾞﾋﾙｽﾞﾓﾘﾀﾜｰ(4ｶｲ)","prefecture":"東京都","city":"港区","street":"六本木六本木ヒルズ森タワー（４階）"},{"zipCode":"1066105","prefectureKana":"ﾄｳｷｮｳﾄ","cityKana":"ﾐﾅﾄｸ","streetKana":"ﾛｯﾎﾟﾝｷﾞﾛｯﾎﾟﾝｷﾞﾋﾙｽﾞﾓﾘﾀﾜｰ(5ｶｲ)","prefecture":"東京都","city":"港区","street":"六本木六本木ヒルズ森タワー（５階）"},{"zipCode":"1066106","prefectureKana":"ﾄｳｷｮｳﾄ","cityKana":"ﾐﾅﾄｸ","streetKana":"ﾛｯﾎﾟﾝｷﾞﾛｯﾎﾟﾝｷﾞﾋﾙｽﾞﾓﾘﾀﾜｰ(6ｶｲ)","prefecture":"東京都","city":"港区","street":"六本木六本木ヒルズ森タワー（６階）"},{"zipCode":"1066107","prefectureKana":"ﾄｳｷｮｳﾄ","cityKana":"ﾐﾅﾄｸ","streetKana":"ﾛｯﾎﾟﾝｷﾞﾛｯﾎﾟﾝｷﾞﾋﾙｽﾞﾓﾘﾀﾜｰ(7ｶｲ)","prefecture":"東京都","city":"港区","street":"六本木六本木ヒルズ森タワー（７階）"},{"zipCode":"1066108","prefectureKana":"ﾄｳｷｮｳﾄ","cityKana":"ﾐﾅﾄｸ","streetKana":"ﾛｯﾎﾟﾝｷﾞﾛｯﾎﾟﾝｷﾞﾋﾙｽﾞﾓﾘﾀﾜｰ(8ｶｲ)","prefecture":"東京都","city":"港区","street":"六本木六本木ヒルズ森タワー（８階）"},{"zipCode":"1066109","prefectureKana":"ﾄｳｷｮｳﾄ","cityKana":"ﾐﾅﾄｸ","streetKana":"ﾛｯﾎﾟﾝｷﾞﾛｯﾎﾟﾝｷﾞﾋﾙｽﾞﾓﾘﾀﾜｰ(9ｶｲ)","prefecture":"東京都","city":"港区","street":"六本木六本木ヒルズ森タワー（９階）"},{"zipCode":"1066110","prefectureKana":"ﾄｳｷｮｳﾄ","cityKana":"ﾐﾅﾄｸ","streetKana":"ﾛｯﾎﾟﾝｷﾞﾛｯﾎﾟﾝｷﾞﾋﾙｽﾞﾓﾘﾀﾜｰ(10ｶｲ)","prefecture":"東京都","city":"港区","street":"六本木六本木ヒルズ森タワー（１０階）"},{"zipCode":"1066111","prefectureKana":"ﾄｳｷｮｳﾄ","cityKana":"ﾐﾅﾄｸ","streetKana":"ﾛｯﾎﾟﾝｷﾞﾛｯﾎﾟﾝｷﾞﾋﾙｽﾞﾓﾘﾀﾜｰ(11ｶｲ)","prefecture":"東京都","city":"港区","street":"六本木六本木ヒルズ森タワー（１１階）"},{"zipCode":"1066112","prefectureKana":"ﾄｳｷｮｳﾄ","cityKana":"ﾐﾅﾄｸ","streetKana":"ﾛｯﾎﾟﾝｷﾞﾛｯﾎﾟﾝｷﾞﾋﾙｽﾞﾓﾘﾀﾜｰ(12ｶｲ)","prefecture":"東京都","city":"港区","street":"六本木六本木ヒルズ森タワー（１２階）"},{"zipCode":"1066113","prefectureKana":"ﾄｳｷｮｳﾄ","cityKana":"ﾐﾅﾄｸ","streetKana":"ﾛｯﾎﾟﾝｷﾞﾛｯﾎﾟﾝｷﾞﾋﾙｽﾞﾓﾘﾀﾜｰ(13ｶｲ)","prefecture":"東京都","city":"港区","street":"六本木六本木ヒルズ森タワー（１３階）"},{"zipCode":"1066114","prefectureKana":"ﾄｳｷｮｳﾄ","cityKana":"ﾐﾅﾄｸ","streetKana":"ﾛｯﾎﾟﾝｷﾞﾛｯﾎﾟﾝｷﾞﾋﾙｽﾞﾓﾘﾀﾜｰ(14ｶｲ)","prefecture":"東京都","city":"港区","street":"六本木六本木ヒルズ森タワー（１４階）"},{"zipCode":"1066115","prefectureKana":"ﾄｳｷｮｳﾄ","cityKana":"ﾐﾅﾄｸ","streetKana":"ﾛｯﾎﾟﾝｷﾞﾛｯﾎﾟﾝｷﾞﾋﾙｽﾞﾓﾘﾀﾜｰ(15ｶｲ)","prefecture":"東京都","city":"港区","street":"六本木六本木ヒルズ森タワー（１５階）"},{"zipCode":"1066116","prefectureKana":"ﾄｳｷｮｳﾄ","cityKana":"ﾐﾅﾄｸ","streetKana":"ﾛｯﾎﾟﾝｷﾞﾛｯﾎﾟﾝｷﾞﾋﾙｽﾞﾓﾘﾀﾜｰ(16ｶｲ)","prefecture":"東京都","city":"港区","street":"六本木六本木ヒルズ森タワー（１６階）"},{"zipCode":"1066117","prefectureKana":"ﾄｳｷｮｳﾄ","cityKana":"ﾐﾅﾄｸ","streetKana":"ﾛｯﾎﾟﾝｷﾞﾛｯﾎﾟﾝｷﾞﾋﾙｽﾞﾓﾘﾀﾜｰ(17ｶｲ)","prefecture":"東京都","city":"港区","street":"六本木六本木ヒルズ森タワー（１７階）"},{"zipCode":"1066118","prefectureKana":"ﾄｳｷｮｳﾄ","cityKana":"ﾐﾅﾄｸ","streetKana":"ﾛｯﾎﾟﾝｷﾞﾛｯﾎﾟﾝｷﾞﾋﾙｽﾞﾓﾘﾀﾜｰ(18ｶｲ)","prefecture":"東京都","city":"港区","street":"六本木六本木ヒルズ森タワー（１８階）"},{"zipCode":"1066119","prefectureKana":"ﾄｳｷｮｳﾄ","cityKana":"ﾐﾅﾄｸ","streetKana":"ﾛｯﾎﾟﾝｷﾞﾛｯﾎﾟﾝｷﾞﾋﾙｽﾞﾓﾘﾀﾜｰ(19ｶｲ)","prefecture":"東京都","city":"港区","street":"六本木六本木ヒルズ森タワー（１９階）"},{"zipCode":"1066120","prefectureKana":"ﾄｳｷｮｳﾄ","cityKana":"ﾐﾅﾄｸ","streetKana":"ﾛｯﾎﾟﾝｷﾞﾛｯﾎﾟﾝｷﾞﾋﾙｽﾞﾓﾘﾀﾜｰ(20ｶｲ)","prefecture":"東京都","city":"港区","street":"六本木六本木ヒルズ森タワー（２０階）"},{"zipCode":"1066121","prefectureKana":"ﾄｳｷｮｳﾄ","cityKana":"ﾐﾅﾄｸ","streetKana":"ﾛｯﾎﾟﾝｷﾞﾛｯﾎﾟﾝｷﾞﾋﾙｽﾞﾓﾘﾀﾜｰ(21ｶｲ)","prefecture":"東京都","city":"港区","street":"六本木六本木ヒルズ森タワー（２１階）"},{"zipCode":"1066122","prefectureKana":"ﾄｳｷｮｳﾄ","cityKana":"ﾐﾅﾄｸ","streetKana":"ﾛｯﾎﾟﾝｷﾞﾛｯﾎﾟﾝｷﾞﾋﾙｽﾞﾓﾘﾀﾜｰ(22ｶｲ)","prefecture":"東京都","city":"港区","street":"六本木六本木ヒルズ森タワー（２２階）"},{"zipCode":"1066123","prefectureKana":"ﾄｳｷｮｳﾄ","cityKana":"ﾐﾅﾄｸ","streetKana":"ﾛｯﾎﾟﾝｷﾞﾛｯﾎﾟﾝｷﾞﾋﾙｽﾞﾓﾘﾀﾜｰ(23ｶｲ)","prefecture":"東京都","city":"港区","street":"六本木六本木ヒルズ森タワー（２３階）"},{"zipCode":"1066124","prefectureKana":"ﾄｳｷｮｳﾄ","cityKana":"ﾐﾅﾄｸ","streetKana":"ﾛｯﾎﾟﾝｷﾞﾛｯﾎﾟﾝｷﾞﾋﾙｽﾞﾓﾘﾀﾜｰ(24ｶｲ)","prefecture":"東京都","city":"港区","street":"六本木六本木ヒルズ森タワー（２４階）"},{"zipCode":"1066125","prefectureKana":"ﾄｳｷｮｳﾄ","cityKana":"ﾐﾅﾄｸ","streetKana":"ﾛｯﾎﾟﾝｷﾞﾛｯﾎﾟﾝｷﾞﾋﾙｽﾞﾓﾘﾀﾜｰ(25ｶｲ)","prefecture":"東京都","city":"港区","street":"六本木六本木ヒルズ森タワー（２５階）"},{"zipCode":"1066126","prefectureKana":"ﾄｳｷｮｳﾄ","cityKana":"ﾐﾅﾄｸ","streetKana":"ﾛｯﾎﾟﾝｷﾞﾛｯﾎﾟﾝｷﾞﾋﾙｽﾞﾓﾘﾀﾜｰ(26ｶｲ)","prefecture":"東京都","city":"港区","street":"六本木六本木ヒルズ森タワー（２６階）"},{"zipCode":"1066127","prefectureKana":"ﾄｳｷｮｳﾄ","cityKana":"ﾐﾅﾄｸ","streetKana":"ﾛｯﾎﾟﾝｷﾞﾛｯﾎﾟﾝｷﾞﾋﾙｽﾞﾓﾘﾀﾜｰ(27ｶｲ)","prefecture":"東京都","city":"港区","street":"六本木六本木ヒルズ森タワー（２７階）"},{"zipCode":"1066128","prefectureKana":"ﾄｳｷｮｳﾄ","cityKana":"ﾐﾅﾄｸ","streetKana":"ﾛｯﾎﾟﾝｷﾞﾛｯﾎﾟﾝｷﾞﾋﾙｽﾞﾓﾘﾀﾜｰ(28ｶｲ)","prefecture":"東京都","city":"港区","street":"六本木六本木ヒルズ森タワー（２８階）"},{"zipCode":"1066129","prefectureKana":"ﾄｳｷｮｳﾄ","cityKana":"ﾐﾅﾄｸ","streetKana":"ﾛｯﾎﾟﾝｷﾞﾛｯﾎﾟﾝｷﾞﾋﾙｽﾞﾓﾘﾀﾜｰ(29ｶｲ)","prefecture":"東京都","city":"港区","street":"六本木六本木ヒルズ森タワー（２９階）"},{"zipCode":"1066130","prefectureKana":"ﾄｳｷｮｳﾄ","cityKana":"ﾐﾅﾄｸ","streetKana":"ﾛｯﾎﾟﾝｷﾞﾛｯﾎﾟﾝｷﾞﾋﾙｽﾞﾓﾘﾀﾜｰ(30ｶｲ)","prefecture":"東京都","city":"港区","street":"六本木六本木ヒルズ森タワー（３０階）"},{"zipCode":"1066131","prefectureKana":"ﾄｳｷｮｳﾄ","cityKana":"ﾐﾅﾄｸ","streetKana":"ﾛｯﾎﾟﾝｷﾞﾛｯﾎﾟﾝｷﾞﾋﾙｽﾞﾓﾘﾀﾜｰ(31ｶｲ)","prefecture":"東京都","city":"港区","street":"六本木六本木ヒルズ森タワー（３１階）"},{"zipCode":"1066132","prefectureKana":"ﾄｳｷｮｳﾄ","cityKana":"ﾐﾅﾄｸ","streetKana":"ﾛｯﾎﾟﾝｷﾞﾛｯﾎﾟﾝｷﾞﾋﾙｽﾞﾓﾘﾀﾜｰ(32ｶｲ)","prefecture":"東京都","city":"港区","street":"六本木六本木ヒルズ森タワー（３２階）"},{"zipCode":"1066133","prefectureKana":"ﾄｳｷｮｳﾄ","cityKana":"ﾐﾅﾄｸ","streetKana":"ﾛｯﾎﾟﾝｷﾞﾛｯﾎﾟﾝｷﾞﾋﾙｽﾞﾓﾘﾀﾜｰ(33ｶｲ)","prefecture":"東京都","city":"港区","street":"六本木六本木ヒルズ森タワー（３３階）"},{"zipCode":"1066134","prefectureKana":"ﾄｳｷｮｳﾄ","cityKana":"ﾐﾅﾄｸ","streetKana":"ﾛｯﾎﾟﾝｷﾞﾛｯﾎﾟﾝｷﾞﾋﾙｽﾞﾓﾘﾀﾜｰ(34ｶｲ)","prefecture":"東京都","city":"港区","street":"六本木六本木ヒルズ森タワー（３４階）"},{"zipCode":"1066135","prefectureKana":"ﾄｳｷｮｳﾄ","cityKana":"ﾐﾅﾄｸ","streetKana":"ﾛｯﾎﾟﾝｷﾞﾛｯﾎﾟﾝｷﾞﾋﾙｽﾞﾓﾘﾀﾜｰ(35ｶｲ)","prefecture":"東京都","city":"港区","street":"六本木六本木ヒルズ森タワー（３５階）"},{"zipCode":"1066136","prefectureKana":"ﾄｳｷｮｳﾄ","cityKana":"ﾐﾅﾄｸ","streetKana":"ﾛｯﾎﾟﾝｷﾞﾛｯﾎﾟﾝｷﾞﾋﾙｽﾞﾓﾘﾀﾜｰ(36ｶｲ)","prefecture":"東京都","city":"港区","street":"六本木六本木ヒルズ森タワー（３６階）"},{"zipCode":"1066137","prefectureKana":"ﾄｳｷｮｳﾄ","cityKana":"ﾐﾅﾄｸ","streetKana":"ﾛｯﾎﾟﾝｷﾞﾛｯﾎﾟﾝｷﾞﾋﾙｽﾞﾓﾘﾀﾜｰ(37ｶｲ)","prefecture":"東京都","city":"港区","street":"六本木六本木ヒルズ森タワー（３７階）"},{"zipCode":"1066138","prefectureKana":"ﾄｳｷｮｳﾄ","cityKana":"ﾐﾅﾄｸ","streetKana":"ﾛｯﾎﾟﾝｷﾞﾛｯﾎﾟﾝｷﾞﾋﾙｽﾞﾓﾘﾀﾜｰ(38ｶｲ)","prefecture":"東京都","city":"港区","street":"六本木六本木ヒルズ森タワー（３８階）"},{"zipCode":"1066139","prefectureKana":"ﾄｳｷｮｳﾄ","cityKana":"ﾐﾅﾄｸ","streetKana":"ﾛｯﾎﾟﾝｷﾞﾛｯﾎﾟﾝｷﾞﾋﾙｽﾞﾓﾘﾀﾜｰ(39ｶｲ)","prefecture":"東京都","city":"港区","street":"六本木六本木ヒルズ森タワー（３９階）"},{"zipCode":"1066140","prefectureKana":"ﾄｳｷｮｳﾄ","cityKana":"ﾐﾅﾄｸ","streetKana":"ﾛｯﾎﾟﾝｷﾞﾛｯﾎﾟﾝｷﾞﾋﾙｽﾞﾓﾘﾀﾜｰ(40ｶｲ)","prefecture":"東京都","city":"港区","street":"六本木六本木ヒルズ森タワー（４０階）"},{"zipCode":"1066141","prefectureKana":"ﾄｳｷｮｳﾄ","cityKana":"ﾐﾅﾄｸ","streetKana":"ﾛｯﾎﾟﾝｷﾞﾛｯﾎﾟﾝｷﾞﾋﾙｽﾞﾓﾘﾀﾜｰ(41ｶｲ)","prefecture":"東京都","city":"港区","street":"六本木六本木ヒルズ森タワー（４１階）"},{"zipCode":"1066142","prefectureKana":"ﾄｳｷｮｳﾄ","cityKana":"ﾐﾅﾄｸ","streetKana":"ﾛｯﾎﾟﾝｷﾞﾛｯﾎﾟﾝｷﾞﾋﾙｽﾞﾓﾘﾀﾜｰ(42ｶｲ)","prefecture":"東京都","city":"港区","street":"六本木六本木ヒルズ森タワー（４２階）"},{"zipCode":"1066143","prefectureKana":"ﾄｳｷｮｳﾄ","cityKana":"ﾐﾅﾄｸ","streetKana":"ﾛｯﾎﾟﾝｷﾞﾛｯﾎﾟﾝｷﾞﾋﾙｽﾞﾓﾘﾀﾜｰ(43ｶｲ)","prefecture":"東京都","city":"港区","street":"六本木六本木ヒルズ森タワー（４３階）"},{"zipCode":"1066144","prefectureKana":"ﾄｳｷｮｳﾄ","cityKana":"ﾐﾅﾄｸ","streetKana":"ﾛｯﾎﾟﾝｷﾞﾛｯﾎﾟﾝｷﾞﾋﾙｽﾞﾓﾘﾀﾜｰ(44ｶｲ)","prefecture":"東京都","city":"港区","street":"六本木六本木ヒルズ森タワー（４４階）"},{"zipCode":"1066145","prefectureKana":"ﾄｳｷｮｳﾄ","cityKana":"ﾐﾅﾄｸ","streetKana":"ﾛｯﾎﾟﾝｷﾞﾛｯﾎﾟﾝｷﾞﾋﾙｽﾞﾓﾘﾀﾜｰ(45ｶｲ)","prefecture":"東京都","city":"港区","street":"六本木六本木ヒルズ森タワー（４５階）"},{"zipCode":"1066146","prefectureKana":"ﾄｳｷｮｳﾄ","cityKana":"ﾐﾅﾄｸ","streetKana":"ﾛｯﾎﾟﾝｷﾞﾛｯﾎﾟﾝｷﾞﾋﾙｽﾞﾓﾘﾀﾜｰ(46ｶｲ)","prefecture":"東京都","city":"港区","street":"六本木六本木ヒルズ森タワー（４６階）"},{"zipCode":"1066147","prefectureKana":"ﾄｳｷｮｳﾄ","cityKana":"ﾐﾅﾄｸ","streetKana":"ﾛｯﾎﾟﾝｷﾞﾛｯﾎﾟﾝｷﾞﾋﾙｽﾞﾓﾘﾀﾜｰ(47ｶｲ)","prefecture":"東京都","city":"港区","street":"六本木六本木ヒルズ森タワー（４７階）"},{"zipCode":"1066148","prefectureKana":"ﾄｳｷｮｳﾄ","cityKana":"ﾐﾅﾄｸ","streetKana":"ﾛｯﾎﾟﾝｷﾞﾛｯﾎﾟﾝｷﾞﾋﾙｽﾞﾓﾘﾀﾜｰ(48ｶｲ)","prefecture":"東京都","city":"港区","street":"六本木六本木ヒルズ森タワー（４８階）"},{"zipCode":"1066149","prefectureKana":"ﾄｳｷｮｳﾄ","cityKana":"ﾐﾅﾄｸ","streetKana":"ﾛｯﾎﾟﾝｷﾞﾛｯﾎﾟﾝｷﾞﾋﾙｽﾞﾓﾘﾀﾜｰ(49ｶｲ)","prefecture":"東京都","city":"港区","street":"六本木六本木ヒルズ森タワー（４９階）"},{"zipCode":"1066150","prefectureKana":"ﾄｳｷｮｳﾄ","cityKana":"ﾐﾅﾄｸ","streetKana":"ﾛｯﾎﾟﾝｷﾞﾛｯﾎﾟﾝｷﾞﾋﾙｽﾞﾓﾘﾀﾜｰ(50ｶｲ)","prefecture":"東京都","city":"港区","street":"六本木六本木ヒルズ森タワー（５０階）"},{"zipCode":"1066151","prefectureKana":"ﾄｳｷｮｳﾄ","cityKana":"ﾐﾅﾄｸ","streetKana":"ﾛｯﾎﾟﾝｷﾞﾛｯﾎﾟﾝｷﾞﾋﾙｽﾞﾓﾘﾀﾜｰ(51ｶｲ)","prefecture":"東京都","city":"港区","street":"六本木六本木ヒルズ森タワー（５１階）"},{"zipCode":"1066152","prefectureKana":"ﾄｳｷｮｳﾄ","cityKana":"ﾐﾅﾄｸ","streetKana":"ﾛｯﾎﾟﾝｷﾞﾛｯﾎﾟﾝｷﾞﾋﾙｽﾞﾓﾘﾀﾜｰ(52ｶｲ)","prefecture":"東京都","city":"港区","street":"六本木六本木ヒルズ森タワー（５２階）"},{"zipCode":"1066153","prefectureKana":"ﾄｳｷｮｳﾄ","cityKana":"ﾐﾅﾄｸ","streetKana":"ﾛｯﾎﾟﾝｷﾞﾛｯﾎﾟﾝｷﾞﾋﾙｽﾞﾓﾘﾀﾜｰ(53ｶｲ)","prefecture":"東京都","city":"港区","street":"六本木六本木ヒルズ森タワー（５３階）"},{"zipCode":"1066154","prefectureKana":"ﾄｳｷｮｳﾄ","cityKana":"ﾐﾅﾄｸ","streetKana":"ﾛｯﾎﾟﾝｷﾞﾛｯﾎﾟﾝｷﾞﾋﾙｽﾞﾓﾘﾀﾜｰ(54ｶｲ)","prefecture":"東京都","city":"港区","street":"六本木六本木ヒルズ森タワー（５４階）"}]