[{"zipCode":"1110032","prefectureKana":"ﾄｳｷｮｳﾄ","cityKana":"ﾀｲﾄｳｸ","streetKana":"ｱｻｸｻ","prefecture":"東京都","city":"台東区","street":"浅草"},{"zipCode":"1110053","prefectureKana":"ﾄｳｷｮｳﾄ","cityKana":"ﾀｲﾄｳｸ","streetKana":"ｱｻｸｻﾊﾞｼ","prefecture":"東京都","city":"台東区","street":"浅草橋"},{"zipCode":"1110024","prefectureKana":"ﾄｳｷｮｳﾄ","cityKana":"ﾀｲﾄｳｸ","streetKana":"ｲﾏﾄﾞ","prefecture":"東京都","city":"台東区","street":"今戸"},{"zipCode":"1110034","prefectureKana":"ﾄｳｷｮｳﾄ","cityKana":"ﾀｲﾄｳｸ","streetKana":"ｶﾐﾅﾘﾓﾝ","prefecture":"東京都","city":"台東区","street":"雷門"},{"zipCode":"1110022","prefectureKana":"ﾄｳｷｮｳﾄ","cityKana":"ﾀｲﾄｳｸ","streetKana":"ｷﾖｶﾜ","prefecture":"東京都","city":"台東区","street":"清川"},{"zipCode":"1110051","prefectureKana":"ﾄｳｷｮｳﾄ","cityKana":"ﾀｲﾄｳｸ","streetKana":"ｸﾗﾏｴ","prefecture":"東京都","city":"台東区","street":"蔵前"},{"zipCode":"1110056","prefectureKana":"ﾄｳｷｮｳﾄ","cityKana":"ﾀｲﾄｳｸ","streetKana":"ｺｼﾞﾏ","prefecture":"東京都","city":"台東区","street":"小島"},{"zipCode":"1110042","prefectureKana":"ﾄｳｷｮｳﾄ","cityKana":"ﾀｲﾄｳｸ","streetKana":"ｺﾄﾌﾞｷ","prefecture":"東京都","city":"台東区","street":"寿"},{"zipCode":"1110043","prefectureKana":"ﾄｳｷｮｳﾄ","cityKana":"ﾀｲﾄｳｸ","streetKana":"ｺﾏｶﾞﾀ","prefecture":"東京都","city":"台東区","street":"駒形"},{"zipCode":"1110031","prefectureKana":"ﾄｳｷｮｳﾄ","cityKana":"ﾀｲﾄｳｸ","streetKana":"ｾﾝｿﾞｸ","prefecture":"東京都","city":"台東区","street":"千束"},{"zipCode":"1110054","prefectureKana":"ﾄｳｷｮｳﾄ","cityKana":"ﾀｲﾄｳｸ","streetKana":"ﾄﾘｺﾞｴ","prefecture":"東京都","city":"台東区","street":"鳥越"},{"zipCode":"1110035","prefectureKana":"ﾄｳｷｮｳﾄ","cityKana":"ﾀｲﾄｳｸ","streetKana":"ﾆｼｱｻｸｻ","prefecture":"東京都","city":"台東区","street":"西浅草"},{"zipCode":"1110021","prefectureKana":"ﾄｳｷｮｳﾄ","cityKana":"ﾀｲﾄｳｸ","streetKana":"ﾆﾎﾝﾂﾞﾂﾐ","prefecture":"東京都","city":"台東区","street":"日本堤"},{"zipCode":"1110023","prefectureKana":"ﾄｳｷｮｳﾄ","cityKana":"ﾀｲﾄｳｸ","streetKana":"ﾊｼﾊﾞ","prefecture":"東京都","city":"台東区","street":"橋場"},{"zipCode":"1110033","prefectureKana":"ﾄｳｷｮｳﾄ","cityKana":"ﾀｲﾄｳｸ","streetKana":"ﾊﾅｶﾜﾄﾞ","prefecture":"東京都","city":"台東区","street":"花川戸"},{"zipCode":"1110025","prefectureKana":"ﾄｳｷｮｳﾄ","cityKana":"ﾀｲﾄｳｸ","streetKana":"ﾋｶﾞｼｱｻｸｻ","prefecture":"東京都","city":"台東区","street":"東浅草"},{"zipCode":"1110036","prefectureKana":"ﾄｳｷｮｳﾄ","cityKana":"ﾀｲﾄｳｸ","streetKana":"ﾏﾂｶﾞﾔ","prefecture":"東京都","city":"台東区","street":"松が谷"},{"zipCode":"1110055","prefectureKana":"ﾄｳｷｮｳﾄ","cityKana":"ﾀｲﾄｳｸ","streetKana":"ﾐｽｼﾞ","prefecture":"東京都","city":"台東区","street":"三筋"},{"zipCode":"1110041","prefectureKana":"ﾄｳｷｮｳﾄ","cityKana":"ﾀｲﾄｳｸ","streetKana":"ﾓﾄｱｻｸｻ","prefecture":"東京都","city":"台東区","street":"元浅草"},{"zipCode":"1110052","prefectureKana":"ﾄｳｷｮｳﾄ","cityKana":"ﾀｲﾄｳｸ","streetKana":"ﾔﾅｷﾞﾊﾞｼ","prefecture":"東京都","city":"台東区","street":"柳橋"}]