[{"zipCode":"1130022","prefectureKana":"ﾄｳｷｮｳﾄ","cityKana":"ﾌﾞﾝｷｮｳｸ","streetKana":"ｾﾝﾀﾞｷﾞ","prefecture":"東京都","city":"文京区","street":"千駄木"},{"zipCode":"1130024","prefectureKana":"ﾄｳｷｮｳﾄ","cityKana":"ﾌﾞﾝｷｮｳｸ","streetKana":"ﾆｼｶﾀ","prefecture":"東京都","city":"文京区","street":"西片"},{"zipCode":"1130031","prefectureKana":"ﾄｳｷｮｳﾄ","cityKana":"ﾌﾞﾝｷｮｳｸ","streetKana":"ﾈﾂﾞ","prefecture":"東京都","city":"文京区","street":"根津"},{"zipCode":"1130001","prefectureKana":"ﾄｳｷｮｳﾄ","cityKana":"ﾌﾞﾝｷｮｳｸ","streetKana":"ﾊｸｻﾝ(1ﾁｮｳﾒ)","prefecture":"東京都","city":"文京区","street":"白山（１丁目）"},{"zipCode":"1130021","prefectureKana":"ﾄｳｷｮｳﾄ","cityKana":"ﾌﾞﾝｷｮｳｸ","streetKana":"ﾎﾝｺﾏｺﾞﾒ","prefecture":"東京都","city":"文京区","street":"本駒込"},{"zipCode":"1130033","prefectureKana":"ﾄｳｷｮｳﾄ","cityKana":"ﾌﾞﾝｷｮｳｸ","streetKana":"ﾎﾝｺﾞｳ","prefecture":"東京都","city":"文京区","street":"本郷"},{"zipCode":"1130023","prefectureKana":"ﾄｳｷｮｳﾄ","cityKana":"ﾌﾞﾝｷｮｳｸ","streetKana":"ﾑｺｳｶﾞｵｶ","prefecture":"東京都","city":"文京区","street":"向丘"},{"zipCode":"1130032","prefectureKana":"ﾄｳｷｮｳﾄ","cityKana":"ﾌﾞﾝｷｮｳｸ","streetKana":"ﾔﾖｲ","prefecture":"東京都","city":"文京区","street":"弥生"},{"zipCode":"1130034","prefectureKana":"ﾄｳｷｮｳﾄ","cityKana":"ﾌﾞﾝｷｮｳｸ","streetKana":"ﾕｼﾏ","prefecture":"東京都","city":"文京区","street":"湯島"}]