[{"zipCode":"1200000","prefectureKana":"ﾄｳｷｮｳﾄ","cityKana":"ｱﾀﾞﾁｸ","streetKana":"ｲｶﾆｹｲｻｲｶﾞﾅｲﾊﾞｱｲ","prefecture":"東京都","city":"足立区","street":"以下に掲載がない場合"},{"zipCode":"1200012","prefectureKana":"ﾄｳｷｮｳﾄ","cityKana":"ｱﾀﾞﾁｸ","streetKana":"ｱｵｲ(1-3ﾁｮｳﾒ)","prefecture":"東京都","city":"足立区","street":"青井（１～３丁目）"},{"zipCode":"1200015","prefectureKana":"ﾄｳｷｮｳﾄ","cityKana":"ｱﾀﾞﾁｸ","streetKana":"ｱﾀﾞﾁ","prefecture":"東京都","city":"足立区","street":"足立"},{"zipCode":"1200005","prefectureKana":"ﾄｳｷｮｳﾄ","cityKana":"ｱﾀﾞﾁｸ","streetKana":"ｱﾔｾ","prefecture":"東京都","city":"足立区","street":"綾瀬"},{"zipCode":"1200001","prefectureKana":"ﾄｳｷｮｳﾄ","cityKana":"ｱﾀﾞﾁｸ","streetKana":"ｵｵﾔﾀ","prefecture":"東京都","city":"足立区","street":"大谷田"},{"zipCode":"1200046","prefectureKana":"ﾄｳｷｮｳﾄ","cityKana":"ｱﾀﾞﾁｸ","streetKana":"ｵﾀﾞｲ","prefecture":"東京都","city":"足立区","street":"小台"},{"zipCode":"1200013","prefectureKana":"ﾄｳｷｮｳﾄ","cityKana":"ｱﾀﾞﾁｸ","streetKana":"ｺｳﾄﾞｳ","prefecture":"東京都","city":"足立区","street":"弘道"},{"zipCode":"1200034","prefectureKana":"ﾄｳｷｮｳﾄ","cityKana":"ｱﾀﾞﾁｸ","streetKana":"ｾﾝｼﾞｭ","prefecture":"東京都","city":"足立区","street":"千住"},{"zipCode":"1200023","prefectureKana":"ﾄｳｷｮｳﾄ","cityKana":"ｱﾀﾞﾁｸ","streetKana":"ｾﾝｼﾞｭｱｹﾎﾞﾉﾁｮｳ","prefecture":"東京都","city":"足立区","street":"千住曙町"},{"zipCode":"1200026","prefectureKana":"ﾄｳｷｮｳﾄ","cityKana":"ｱﾀﾞﾁｸ","streetKana":"ｾﾝｼﾞｭｱｻﾋﾁｮｳ","prefecture":"東京都","city":"足立区","street":"千住旭町"},{"zipCode":"1200025","prefectureKana":"ﾄｳｷｮｳﾄ","cityKana":"ｱﾀﾞﾁｸ","streetKana":"ｾﾝｼﾞｭｱｽﾞﾏ","prefecture":"東京都","city":"足立区","street":"千住東"},{"zipCode":"1200031","prefectureKana":"ﾄｳｷｮｳﾄ","cityKana":"ｱﾀﾞﾁｸ","streetKana":"ｾﾝｼﾞｭｵｵｶﾜﾁｮｳ","prefecture":"東京都","city":"足立区","street":"千住大川町"},{"zipCode":"1200037","prefectureKana":"ﾄｳｷｮｳﾄ","cityKana":"ｱﾀﾞﾁｸ","streetKana":"ｾﾝｼﾞｭｶﾜﾗﾁｮｳ","prefecture":"東京都","city":"足立区","street":"千住河原町"},{"zipCode":"1200033","prefectureKana":"ﾄｳｷｮｳﾄ","cityKana":"ｱﾀﾞﾁｸ","streetKana":"ｾﾝｼﾞｭｺﾄﾌﾞｷﾁｮｳ","prefecture":"東京都","city":"足立区","street":"千住寿町"},{"zipCode":"1200045","prefectureKana":"ﾄｳｷｮｳﾄ","cityKana":"ｱﾀﾞﾁｸ","streetKana":"ｾﾝｼﾞｭｻｸﾗｷﾞ","prefecture":"東京都","city":"足立区","street":"千住桜木"},{"zipCode":"1200024","prefectureKana":"ﾄｳｷｮｳﾄ","cityKana":"ｱﾀﾞﾁｸ","streetKana":"ｾﾝｼﾞｭｾｷﾔﾁｮｳ","prefecture":"東京都","city":"足立区","street":"千住関屋町"},{"zipCode":"1200042","prefectureKana":"ﾄｳｷｮｳﾄ","cityKana":"ｱﾀﾞﾁｸ","streetKana":"ｾﾝｼﾞｭﾀﾂﾀﾁｮｳ","prefecture":"東京都","city":"足立区","street":"千住龍田町"},{"zipCode":"1200035","prefectureKana":"ﾄｳｷｮｳﾄ","cityKana":"ｱﾀﾞﾁｸ","streetKana":"ｾﾝｼﾞｭﾅｶｲﾁｮｳ","prefecture":"東京都","city":"足立区","street":"千住中居町"},{"zipCode":"1200036","prefectureKana":"ﾄｳｷｮｳﾄ","cityKana":"ｱﾀﾞﾁｸ","streetKana":"ｾﾝｼﾞｭﾅｶﾁｮｳ","prefecture":"東京都","city":"足立区","street":"千住仲町"},{"zipCode":"1200038","prefectureKana":"ﾄｳｷｮｳﾄ","cityKana":"ｱﾀﾞﾁｸ","streetKana":"ｾﾝｼﾞｭﾊｼﾄﾞﾁｮｳ","prefecture":"東京都","city":"足立区","street":"千住橋戸町"},{"zipCode":"1200044","prefectureKana":"ﾄｳｷｮｳﾄ","cityKana":"ｱﾀﾞﾁｸ","streetKana":"ｾﾝｼﾞｭﾐﾄﾞﾘﾁｮｳ","prefecture":"東京都","city":"足立区","street":"千住緑町"},{"zipCode":"1200043","prefectureKana":"ﾄｳｷｮｳﾄ","cityKana":"ｱﾀﾞﾁｸ","streetKana":"ｾﾝｼﾞｭﾐﾔﾓﾄﾁｮｳ","prefecture":"東京都","city":"足立区","street":"千住宮元町"},{"zipCode":"1200041","prefectureKana":"ﾄｳｷｮｳﾄ","cityKana":"ｱﾀﾞﾁｸ","streetKana":"ｾﾝｼﾞｭﾓﾄﾏﾁ","prefecture":"東京都","city":"足立区","street":"千住元町"},{"zipCode":"1200032","prefectureKana":"ﾄｳｷｮｳﾄ","cityKana":"ｱﾀﾞﾁｸ","streetKana":"ｾﾝｼﾞｭﾔﾅｷﾞﾁｮｳ","prefecture":"東京都","city":"足立区","street":"千住柳町"},{"zipCode":"1200011","prefectureKana":"ﾄｳｷｮｳﾄ","cityKana":"ｱﾀﾞﾁｸ","streetKana":"ﾁｭｳｵｳﾎﾝﾁｮｳ(1､2ﾁｮｳﾒ)","prefecture":"東京都","city":"足立区","street":"中央本町（１、２丁目）"},{"zipCode":"1200003","prefectureKana":"ﾄｳｷｮｳﾄ","cityKana":"ｱﾀﾞﾁｸ","streetKana":"ﾄｳﾜ","prefecture":"東京都","city":"足立区","street":"東和"},{"zipCode":"1200002","prefectureKana":"ﾄｳｷｮｳﾄ","cityKana":"ｱﾀﾞﾁｸ","streetKana":"ﾅｶｶﾞﾜ","prefecture":"東京都","city":"足立区","street":"中川"},{"zipCode":"1200014","prefectureKana":"ﾄｳｷｮｳﾄ","cityKana":"ｱﾀﾞﾁｸ","streetKana":"ﾆｼｱﾔｾ","prefecture":"東京都","city":"足立区","street":"西綾瀬"},{"zipCode":"1200004","prefectureKana":"ﾄｳｷｮｳﾄ","cityKana":"ｱﾀﾞﾁｸ","streetKana":"ﾋｶﾞｼｱﾔｾ","prefecture":"東京都","city":"足立区","street":"東綾瀬"},{"zipCode":"1200021","prefectureKana":"ﾄｳｷｮｳﾄ","cityKana":"ｱﾀﾞﾁｸ","streetKana":"ﾋﾉﾃﾞﾁｮｳ","prefecture":"東京都","city":"足立区","street":"日ノ出町"},{"zipCode":"1200047","prefectureKana":"ﾄｳｷｮｳﾄ","cityKana":"ｱﾀﾞﾁｸ","streetKana":"ﾐﾔｷﾞ","prefecture":"東京都","city":"足立区","street":"宮城"},{"zipCode":"1200006","prefectureKana":"ﾄｳｷｮｳﾄ","cityKana":"ｱﾀﾞﾁｸ","streetKana":"ﾔﾅｶ","prefecture":"東京都","city":"足立区","street":"谷中"},{"zipCode":"1200022","prefectureKana":"ﾄｳｷｮｳﾄ","cityKana":"ｱﾀﾞﾁｸ","streetKana":"ﾔﾅｷﾞﾊﾗ","prefecture":"東京都","city":"足立区","street":"柳原"}]