[{"zipCode":"1230851","prefectureKana":"ﾄｳｷｮｳﾄ","cityKana":"ｱﾀﾞﾁｸ","streetKana":"ｳﾒﾀﾞ","prefecture":"東京都","city":"足立区","street":"梅田"},{"zipCode":"1230873","prefectureKana":"ﾄｳｷｮｳﾄ","cityKana":"ｱﾀﾞﾁｸ","streetKana":"ｵｳｷﾞ","prefecture":"東京都","city":"足立区","street":"扇"},{"zipCode":"1230844","prefectureKana":"ﾄｳｷｮｳﾄ","cityKana":"ｱﾀﾞﾁｸ","streetKana":"ｵｷﾉ","prefecture":"東京都","city":"足立区","street":"興野"},{"zipCode":"1230861","prefectureKana":"ﾄｳｷｮｳﾄ","cityKana":"ｱﾀﾞﾁｸ","streetKana":"ｶｶﾞ","prefecture":"東京都","city":"足立区","street":"加賀"},{"zipCode":"1230842","prefectureKana":"ﾄｳｷｮｳﾄ","cityKana":"ｱﾀﾞﾁｸ","streetKana":"ｸﾘﾊﾗ","prefecture":"東京都","city":"足立区","street":"栗原"},{"zipCode":"1230872","prefectureKana":"ﾄｳｷｮｳﾄ","cityKana":"ｱﾀﾞﾁｸ","streetKana":"ｺｳﾎｸ","prefecture":"東京都","city":"足立区","street":"江北"},{"zipCode":"1230862","prefectureKana":"ﾄｳｷｮｳﾄ","cityKana":"ｱﾀﾞﾁｸ","streetKana":"ｻﾗﾇﾏ","prefecture":"東京都","city":"足立区","street":"皿沼"},{"zipCode":"1230864","prefectureKana":"ﾄｳｷｮｳﾄ","cityKana":"ｱﾀﾞﾁｸ","streetKana":"ｼｶﾊﾏ","prefecture":"東京都","city":"足立区","street":"鹿浜"},{"zipCode":"1230865","prefectureKana":"ﾄｳｷｮｳﾄ","cityKana":"ｱﾀﾞﾁｸ","streetKana":"ｼﾝﾃﾞﾝ","prefecture":"東京都","city":"足立区","street":"新田"},{"zipCode":"1230852","prefectureKana":"ﾄｳｷｮｳﾄ","cityKana":"ｱﾀﾞﾁｸ","streetKana":"ｾｷﾊﾞﾗ","prefecture":"東京都","city":"足立区","street":"関原"},{"zipCode":"1230871","prefectureKana":"ﾄｳｷｮｳﾄ","cityKana":"ｱﾀﾞﾁｸ","streetKana":"ﾂﾊﾞｷ","prefecture":"東京都","city":"足立区","street":"椿"},{"zipCode":"1230841","prefectureKana":"ﾄｳｷｮｳﾄ","cityKana":"ｱﾀﾞﾁｸ","streetKana":"ﾆｼｱﾗｲ","prefecture":"東京都","city":"足立区","street":"西新井"},{"zipCode":"1230843","prefectureKana":"ﾄｳｷｮｳﾄ","cityKana":"ｱﾀﾞﾁｸ","streetKana":"ﾆｼｱﾗｲｻｶｴﾁｮｳ","prefecture":"東京都","city":"足立区","street":"西新井栄町"},{"zipCode":"1230845","prefectureKana":"ﾄｳｷｮｳﾄ","cityKana":"ｱﾀﾞﾁｸ","streetKana":"ﾆｼｱﾗｲﾎﾝﾁｮｳ","prefecture":"東京都","city":"足立区","street":"西新井本町"},{"zipCode":"1230874","prefectureKana":"ﾄｳｷｮｳﾄ","cityKana":"ｱﾀﾞﾁｸ","streetKana":"ﾎﾘﾉｳﾁ","prefecture":"東京都","city":"足立区","street":"堀之内"},{"zipCode":"1230853","prefectureKana":"ﾄｳｷｮｳﾄ","cityKana":"ｱﾀﾞﾁｸ","streetKana":"ﾓﾄｷ","prefecture":"東京都","city":"足立区","street":"本木"},{"zipCode":"1230854","prefectureKana":"ﾄｳｷｮｳﾄ","cityKana":"ｱﾀﾞﾁｸ","streetKana":"ﾓﾄｷﾋｶﾞｼﾏﾁ","prefecture":"東京都","city":"足立区","street":"本木東町"},{"zipCode":"1230856","prefectureKana":"ﾄｳｷｮｳﾄ","cityKana":"ｱﾀﾞﾁｸ","streetKana":"ﾓﾄｷﾆｼﾏﾁ","prefecture":"東京都","city":"足立区","street":"本木西町"},{"zipCode":"1230855","prefectureKana":"ﾄｳｷｮｳﾄ","cityKana":"ｱﾀﾞﾁｸ","streetKana":"ﾓﾄｷﾐﾅﾐﾏﾁ","prefecture":"東京都","city":"足立区","street":"本木南町"},{"zipCode":"1230857","prefectureKana":"ﾄｳｷｮｳﾄ","cityKana":"ｱﾀﾞﾁｸ","streetKana":"ﾓﾄｷｷﾀﾏﾁ","prefecture":"東京都","city":"足立区","street":"本木北町"},{"zipCode":"1230863","prefectureKana":"ﾄｳｷｮｳﾄ","cityKana":"ｱﾀﾞﾁｸ","streetKana":"ﾔｻﾞｲｹ","prefecture":"東京都","city":"足立区","street":"谷在家"}]