[{"zipCode":"1250062","prefectureKana":"ﾄｳｷｮｳﾄ","cityKana":"ｶﾂｼｶｸ","streetKana":"ｱｵﾄ","prefecture":"東京都","city":"葛飾区","street":"青戸"},{"zipCode":"1250042","prefectureKana":"ﾄｳｷｮｳﾄ","cityKana":"ｶﾂｼｶｸ","streetKana":"ｶﾅﾏﾁ","prefecture":"東京都","city":"葛飾区","street":"金町"},{"zipCode":"1250043","prefectureKana":"ﾄｳｷｮｳﾄ","cityKana":"ｶﾂｼｶｸ","streetKana":"ｶﾅﾏﾁｼﾞｮｳｽｲｼﾞｮｳ","prefecture":"東京都","city":"葛飾区","street":"金町浄水場"},{"zipCode":"1250053","prefectureKana":"ﾄｳｷｮｳﾄ","cityKana":"ｶﾂｼｶｸ","streetKana":"ｶﾏｸﾗ","prefecture":"東京都","city":"葛飾区","street":"鎌倉"},{"zipCode":"1250061","prefectureKana":"ﾄｳｷｮｳﾄ","cityKana":"ｶﾂｼｶｸ","streetKana":"ｶﾒｱﾘ","prefecture":"東京都","city":"葛飾区","street":"亀有"},{"zipCode":"1250052","prefectureKana":"ﾄｳｷｮｳﾄ","cityKana":"ｶﾂｼｶｸ","streetKana":"ｼﾊﾞﾏﾀ","prefecture":"東京都","city":"葛飾区","street":"柴又"},{"zipCode":"1250063","prefectureKana":"ﾄｳｷｮｳﾄ","cityKana":"ｶﾂｼｶｸ","streetKana":"ｼﾗﾄﾘ","prefecture":"東京都","city":"葛飾区","street":"白鳥"},{"zipCode":"1250054","prefectureKana":"ﾄｳｷｮｳﾄ","cityKana":"ｶﾂｼｶｸ","streetKana":"ﾀｶｻｺﾞ","prefecture":"東京都","city":"葛飾区","street":"高砂"},{"zipCode":"1250051","prefectureKana":"ﾄｳｷｮｳﾄ","cityKana":"ｶﾂｼｶｸ","streetKana":"ﾆｲｼﾞｭｸ","prefecture":"東京都","city":"葛飾区","street":"新宿"},{"zipCode":"1250002","prefectureKana":"ﾄｳｷｮｳﾄ","cityKana":"ｶﾂｼｶｸ","streetKana":"ﾆｼｶﾒｱﾘ(3､4ﾁｮｳﾒ)","prefecture":"東京都","city":"葛飾区","street":"西亀有（３、４丁目）"},{"zipCode":"1250031","prefectureKana":"ﾄｳｷｮｳﾄ","cityKana":"ｶﾂｼｶｸ","streetKana":"ﾆｼﾐｽﾞﾓﾄ","prefecture":"東京都","city":"葛飾区","street":"西水元"},{"zipCode":"1250041","prefectureKana":"ﾄｳｷｮｳﾄ","cityKana":"ｶﾂｼｶｸ","streetKana":"ﾋｶﾞｼｶﾅﾏﾁ","prefecture":"東京都","city":"葛飾区","street":"東金町"},{"zipCode":"1250033","prefectureKana":"ﾄｳｷｮｳﾄ","cityKana":"ｶﾂｼｶｸ","streetKana":"ﾋｶﾞｼﾐｽﾞﾓﾄ","prefecture":"東京都","city":"葛飾区","street":"東水元"},{"zipCode":"1250032","prefectureKana":"ﾄｳｷｮｳﾄ","cityKana":"ｶﾂｼｶｸ","streetKana":"ﾐｽﾞﾓﾄ","prefecture":"東京都","city":"葛飾区","street":"水元"},{"zipCode":"1250034","prefectureKana":"ﾄｳｷｮｳﾄ","cityKana":"ｶﾂｼｶｸ","streetKana":"ﾐｽﾞﾓﾄｺｳｴﾝ","prefecture":"東京都","city":"葛飾区","street":"水元公園"},{"zipCode":"1250035","prefectureKana":"ﾄｳｷｮｳﾄ","cityKana":"ｶﾂｼｶｸ","streetKana":"ﾐﾅﾐﾐｽﾞﾓﾄ","prefecture":"東京都","city":"葛飾区","street":"南水元"}]