[{"zipCode":"1300000","prefectureKana":"ﾄｳｷｮｳﾄ","cityKana":"ｽﾐﾀﾞｸ","streetKana":"ｲｶﾆｹｲｻｲｶﾞﾅｲﾊﾞｱｲ","prefecture":"東京都","city":"墨田区","street":"以下に掲載がない場合"},{"zipCode":"1300001","prefectureKana":"ﾄｳｷｮｳﾄ","cityKana":"ｽﾐﾀﾞｸ","streetKana":"ｱﾂﾞﾏﾊﾞｼ","prefecture":"東京都","city":"墨田区","street":"吾妻橋"},{"zipCode":"1300011","prefectureKana":"ﾄｳｷｮｳﾄ","cityKana":"ｽﾐﾀﾞｸ","streetKana":"ｲｼﾜﾗ","prefecture":"東京都","city":"墨田区","street":"石原"},{"zipCode":"1300014","prefectureKana":"ﾄｳｷｮｳﾄ","cityKana":"ｽﾐﾀﾞｸ","streetKana":"ｶﾒｻﾞﾜ","prefecture":"東京都","city":"墨田区","street":"亀沢"},{"zipCode":"1300024","prefectureKana":"ﾄｳｷｮｳﾄ","cityKana":"ｽﾐﾀﾞｸ","streetKana":"ｷｸｶﾜ","prefecture":"東京都","city":"墨田区","street":"菊川"},{"zipCode":"1300013","prefectureKana":"ﾄｳｷｮｳﾄ","cityKana":"ｽﾐﾀﾞｸ","streetKana":"ｷﾝｼ","prefecture":"東京都","city":"墨田区","street":"錦糸"},{"zipCode":"1300022","prefectureKana":"ﾄｳｷｮｳﾄ","cityKana":"ｽﾐﾀﾞｸ","streetKana":"ｺｳﾄｳﾊﾞｼ","prefecture":"東京都","city":"墨田区","street":"江東橋"},{"zipCode":"1300012","prefectureKana":"ﾄｳｷｮｳﾄ","cityKana":"ｽﾐﾀﾞｸ","streetKana":"ﾀｲﾍｲ","prefecture":"東京都","city":"墨田区","street":"太平"},{"zipCode":"1300023","prefectureKana":"ﾄｳｷｮｳﾄ","cityKana":"ｽﾐﾀﾞｸ","streetKana":"ﾀﾃｶﾜ","prefecture":"東京都","city":"墨田区","street":"立川"},{"zipCode":"1300025","prefectureKana":"ﾄｳｷｮｳﾄ","cityKana":"ｽﾐﾀﾞｸ","streetKana":"ﾁﾄｾ","prefecture":"東京都","city":"墨田区","street":"千歳"},{"zipCode":"1300002","prefectureKana":"ﾄｳｷｮｳﾄ","cityKana":"ｽﾐﾀﾞｸ","streetKana":"ﾅﾘﾋﾗ","prefecture":"東京都","city":"墨田区","street":"業平"},{"zipCode":"1300005","prefectureKana":"ﾄｳｷｮｳﾄ","cityKana":"ｽﾐﾀﾞｸ","streetKana":"ﾋｶﾞｼｺﾏｶﾞﾀ","prefecture":"東京都","city":"墨田区","street":"東駒形"},{"zipCode":"1300004","prefectureKana":"ﾄｳｷｮｳﾄ","cityKana":"ｽﾐﾀﾞｸ","streetKana":"ﾎﾝｼﾞｮ","prefecture":"東京都","city":"墨田区","street":"本所"},{"zipCode":"1300021","prefectureKana":"ﾄｳｷｮｳﾄ","cityKana":"ｽﾐﾀﾞｸ","streetKana":"ﾐﾄﾞﾘ","prefecture":"東京都","city":"墨田区","street":"緑"},{"zipCode":"1300015","prefectureKana":"ﾄｳｷｮｳﾄ","cityKana":"ｽﾐﾀﾞｸ","streetKana":"ﾖｺｱﾐ","prefecture":"東京都","city":"墨田区","street":"横網"},{"zipCode":"1300003","prefectureKana":"ﾄｳｷｮｳﾄ","cityKana":"ｽﾐﾀﾞｸ","streetKana":"ﾖｺｶﾜ","prefecture":"東京都","city":"墨田区","street":"横川"},{"zipCode":"1300026","prefectureKana":"ﾄｳｷｮｳﾄ","cityKana":"ｽﾐﾀﾞｸ","streetKana":"ﾘｮｳｺﾞｸ","prefecture":"東京都","city":"墨田区","street":"両国"}]