[{"zipCode":"1320000","prefectureKana":"ﾄｳｷｮｳﾄ","cityKana":"ｴﾄﾞｶﾞﾜｸ","streetKana":"ｲｶﾆｹｲｻｲｶﾞﾅｲﾊﾞｱｲ","prefecture":"東京都","city":"江戸川区","street":"以下に掲載がない場合"},{"zipCode":"1320024","prefectureKana":"ﾄｳｷｮｳﾄ","cityKana":"ｴﾄﾞｶﾞﾜｸ","streetKana":"ｲﾁﾉｴ","prefecture":"東京都","city":"江戸川区","street":"一之江"},{"zipCode":"1320013","prefectureKana":"ﾄｳｷｮｳﾄ","cityKana":"ｴﾄﾞｶﾞﾜｸ","streetKana":"ｴﾄﾞｶﾞﾜ(1-3ﾁｮｳﾒ､4ﾁｮｳﾒ1-14ﾊﾞﾝ)","prefecture":"東京都","city":"江戸川区","street":"江戸川（１～３丁目、４丁目１～１４番）"},{"zipCode":"1320022","prefectureKana":"ﾄｳｷｮｳﾄ","cityKana":"ｴﾄﾞｶﾞﾜｸ","streetKana":"ｵｵｽｷﾞ","prefecture":"東京都","city":"江戸川区","street":"大杉"},{"zipCode":"1320034","prefectureKana":"ﾄｳｷｮｳﾄ","cityKana":"ｴﾄﾞｶﾞﾜｸ","streetKana":"ｺﾏﾂｶﾞﾜ","prefecture":"東京都","city":"江戸川区","street":"小松川"},{"zipCode":"1320021","prefectureKana":"ﾄｳｷｮｳﾄ","cityKana":"ｴﾄﾞｶﾞﾜｸ","streetKana":"ﾁｭｳｵｳ","prefecture":"東京都","city":"江戸川区","street":"中央"},{"zipCode":"1320001","prefectureKana":"ﾄｳｷｮｳﾄ","cityKana":"ｴﾄﾞｶﾞﾜｸ","streetKana":"ﾆｲﾎﾘ","prefecture":"東京都","city":"江戸川区","street":"新堀"},{"zipCode":"1320023","prefectureKana":"ﾄｳｷｮｳﾄ","cityKana":"ｴﾄﾞｶﾞﾜｸ","streetKana":"ﾆｼｲﾁﾉｴ","prefecture":"東京都","city":"江戸川区","street":"西一之江"},{"zipCode":"1320032","prefectureKana":"ﾄｳｷｮｳﾄ","cityKana":"ｴﾄﾞｶﾞﾜｸ","streetKana":"ﾆｼｺﾏﾂｶﾞﾜﾏﾁ","prefecture":"東京都","city":"江戸川区","street":"西小松川町"},{"zipCode":"1320015","prefectureKana":"ﾄｳｷｮｳﾄ","cityKana":"ｴﾄﾞｶﾞﾜｸ","streetKana":"ﾆｼﾐｽﾞｴ(3ﾁｮｳﾒ､4ﾁｮｳﾒ3-9ﾊﾞﾝ)","prefecture":"東京都","city":"江戸川区","street":"西瑞江（３丁目、４丁目３～９番）"},{"zipCode":"1320003","prefectureKana":"ﾄｳｷｮｳﾄ","cityKana":"ｴﾄﾞｶﾞﾜｸ","streetKana":"ﾊﾙｴﾁｮｳ(1-3ﾁｮｳﾒ)","prefecture":"東京都","city":"江戸川区","street":"春江町（１～３丁目）"},{"zipCode":"1320033","prefectureKana":"ﾄｳｷｮｳﾄ","cityKana":"ｴﾄﾞｶﾞﾜｸ","streetKana":"ﾋｶﾞｼｺﾏﾂｶﾞﾜ","prefecture":"東京都","city":"江戸川区","street":"東小松川"},{"zipCode":"1320014","prefectureKana":"ﾄｳｷｮｳﾄ","cityKana":"ｴﾄﾞｶﾞﾜｸ","streetKana":"ﾋｶﾞｼﾐｽﾞｴ","prefecture":"東京都","city":"江戸川区","street":"東瑞江"},{"zipCode":"1320035","prefectureKana":"ﾄｳｷｮｳﾄ","cityKana":"ｴﾄﾞｶﾞﾜｸ","streetKana":"ﾋﾗｲ","prefecture":"東京都","city":"江戸川区","street":"平井"},{"zipCode":"1320025","prefectureKana":"ﾄｳｷｮｳﾄ","cityKana":"ｴﾄﾞｶﾞﾜｸ","streetKana":"ﾏﾂｴ","prefecture":"東京都","city":"江戸川区","street":"松江"},{"zipCode":"1320031","prefectureKana":"ﾄｳｷｮｳﾄ","cityKana":"ｴﾄﾞｶﾞﾜｸ","streetKana":"ﾏﾂｼﾏ","prefecture":"東京都","city":"江戸川区","street":"松島"},{"zipCode":"1320011","prefectureKana":"ﾄｳｷｮｳﾄ","cityKana":"ｴﾄﾞｶﾞﾜｸ","streetKana":"ﾐｽﾞｴ","prefecture":"東京都","city":"江戸川区","street":"瑞江"},{"zipCode":"1320002","prefectureKana":"ﾄｳｷｮｳﾄ","cityKana":"ｴﾄﾞｶﾞﾜｸ","streetKana":"ﾔｺﾞｳﾁ(1ﾁｮｳﾒ)","prefecture":"東京都","city":"江戸川区","street":"谷河内（１丁目）"}]