[{"zipCode":"1500000","prefectureKana":"ﾄｳｷｮｳﾄ","cityKana":"ｼﾌﾞﾔｸ","streetKana":"ｲｶﾆｹｲｻｲｶﾞﾅｲﾊﾞｱｲ","prefecture":"東京都","city":"渋谷区","street":"以下に掲載がない場合"},{"zipCode":"1500032","prefectureKana":"ﾄｳｷｮｳﾄ","cityKana":"ｼﾌﾞﾔｸ","streetKana":"ｳｸﾞｲｽﾀﾞﾆﾁｮｳ","prefecture":"東京都","city":"渋谷区","street":"鶯谷町"},{"zipCode":"1500042","prefectureKana":"ﾄｳｷｮｳﾄ","cityKana":"ｼﾌﾞﾔｸ","streetKana":"ｳﾀﾞｶﾞﾜﾁｮｳ","prefecture":"東京都","city":"渋谷区","street":"宇田川町"},{"zipCode":"1500013","prefectureKana":"ﾄｳｷｮｳﾄ","cityKana":"ｼﾌﾞﾔｸ","streetKana":"ｴﾋﾞｽ(ﾂｷﾞﾉﾋﾞﾙｦﾉｿﾞｸ)","prefecture":"東京都","city":"渋谷区","street":"恵比寿（次のビルを除く）"},{"zipCode":"1506090","prefectureKana":"ﾄｳｷｮｳﾄ","cityKana":"ｼﾌﾞﾔｸ","streetKana":"ｴﾋﾞｽｴﾋﾞｽｶﾞｰﾃﾞﾝﾌﾟﾚｲｽ(ﾁｶｲ･ｶｲｿｳﾌﾒｲ)","prefecture":"東京都","city":"渋谷区","street":"恵比寿恵比寿ガーデンプレイス（地階・階層不明）"},{"zipCode":"1506001","prefectureKana":"ﾄｳｷｮｳﾄ","cityKana":"ｼﾌﾞﾔｸ","streetKana":"ｴﾋﾞｽｴﾋﾞｽｶﾞｰﾃﾞﾝﾌﾟﾚｲｽ(1ｶｲ)","prefecture":"東京都","city":"渋谷区","street":"恵比寿恵比寿ガーデンプレイス（１階）"},{"zipCode":"1506002","prefectureKana":"ﾄｳｷｮｳﾄ","cityKana":"ｼﾌﾞﾔｸ","streetKana":"ｴﾋﾞｽｴﾋﾞｽｶﾞｰﾃﾞﾝﾌﾟﾚｲｽ(2ｶｲ)","prefecture":"東京都","city":"渋谷区","street":"恵比寿恵比寿ガーデンプレイス（２階）"},{"zipCode":"1506003","prefectureKana":"ﾄｳｷｮｳﾄ","cityKana":"ｼﾌﾞﾔｸ","streetKana":"ｴﾋﾞｽｴﾋﾞｽｶﾞｰﾃﾞﾝﾌﾟﾚｲｽ(3ｶｲ)","prefecture":"東京都","city":"渋谷区","street":"恵比寿恵比寿ガーデンプレイス（３階）"},{"zipCode":"1506004","prefectureKana":"ﾄｳｷｮｳﾄ","cityKana":"ｼﾌﾞﾔｸ","streetKana":"ｴﾋﾞｽｴﾋﾞｽｶﾞｰﾃﾞﾝﾌﾟﾚｲｽ(4ｶｲ)","prefecture":"東京都","city":"渋谷区","street":"恵比寿恵比寿ガーデンプレイス（４階）"},{"zipCode":"1506005","prefectureKana":"ﾄｳｷｮｳﾄ","cityKana":"ｼﾌﾞﾔｸ","streetKana":"ｴﾋﾞｽｴﾋﾞｽｶﾞｰﾃﾞﾝﾌﾟﾚｲｽ(5ｶｲ)","prefecture":"東京都","city":"渋谷区","street":"恵比寿恵比寿ガーデンプレイス（５階）"},{"zipCode":"1506006","prefectureKana":"ﾄｳｷｮｳﾄ","cityKana":"ｼﾌﾞﾔｸ","streetKana":"ｴﾋﾞｽｴﾋﾞｽｶﾞｰﾃﾞﾝﾌﾟﾚｲｽ(6ｶｲ)","prefecture":"東京都","city":"渋谷区","street":"恵比寿恵比寿ガーデンプレイス（６階）"},{"zipCode":"1506007","prefectureKana":"ﾄｳｷｮｳﾄ","cityKana":"ｼﾌﾞﾔｸ","streetKana":"ｴﾋﾞｽｴﾋﾞｽｶﾞｰﾃﾞﾝﾌﾟﾚｲｽ(7ｶｲ)","prefecture":"東京都","city":"渋谷区","street":"恵比寿恵比寿ガーデンプレイス（７階）"},{"zipCode":"1506008","prefectureKana":"ﾄｳｷｮｳﾄ","cityKana":"ｼﾌﾞﾔｸ","streetKana":"ｴﾋﾞｽｴﾋﾞｽｶﾞｰﾃﾞﾝﾌﾟﾚｲｽ(8ｶｲ)","prefecture":"東京都","city":"渋谷区","street":"恵比寿恵比寿ガーデンプレイス（８階）"},{"zipCode":"1506009","prefectureKana":"ﾄｳｷｮｳﾄ","cityKana":"ｼﾌﾞﾔｸ","streetKana":"ｴﾋﾞｽｴﾋﾞｽｶﾞｰﾃﾞﾝﾌﾟﾚｲｽ(9ｶｲ)","prefecture":"東京都","city":"渋谷区","street":"恵比寿恵比寿ガーデンプレイス（９階）"},{"zipCode":"1506010","prefectureKana":"ﾄｳｷｮｳﾄ","cityKana":"ｼﾌﾞﾔｸ","streetKana":"ｴﾋﾞｽｴﾋﾞｽｶﾞｰﾃﾞﾝﾌﾟﾚｲｽ(10ｶｲ)","prefecture":"東京都","city":"渋谷区","street":"恵比寿恵比寿ガーデンプレイス（１０階）"},{"zipCode":"1506011","prefectureKana":"ﾄｳｷｮｳﾄ","cityKana":"ｼﾌﾞﾔｸ","streetKana":"ｴﾋﾞｽｴﾋﾞｽｶﾞｰﾃﾞﾝﾌﾟﾚｲｽ(11ｶｲ)","prefecture":"東京都","city":"渋谷区","street":"恵比寿恵比寿ガーデンプレイス（１１階）"},{"zipCode":"1506012","prefectureKana":"ﾄｳｷｮｳﾄ","cityKana":"ｼﾌﾞﾔｸ","streetKana":"ｴﾋﾞｽｴﾋﾞｽｶﾞｰﾃﾞﾝﾌﾟﾚｲｽ(12ｶｲ)","prefecture":"東京都","city":"渋谷区","street":"恵比寿恵比寿ガーデンプレイス（１２階）"},{"zipCode":"1506013","prefectureKana":"ﾄｳｷｮｳﾄ","cityKana":"ｼﾌﾞﾔｸ","streetKana":"ｴﾋﾞｽｴﾋﾞｽｶﾞｰﾃﾞﾝﾌﾟﾚｲｽ(13ｶｲ)","prefecture":"東京都","city":"渋谷区","street":"恵比寿恵比寿ガーデンプレイス（１３階）"},{"zipCode":"1506014","prefectureKana":"ﾄｳｷｮｳﾄ","cityKana":"ｼﾌﾞﾔｸ","streetKana":"ｴﾋﾞｽｴﾋﾞｽｶﾞｰﾃﾞﾝﾌﾟﾚｲｽ(14ｶｲ)","prefecture":"東京都","city":"渋谷区","street":"恵比寿恵比寿ガーデンプレイス（１４階）"},{"zipCode":"1506015","prefectureKana":"ﾄｳｷｮｳﾄ","cityKana":"ｼﾌﾞﾔｸ","streetKana":"ｴﾋﾞｽｴﾋﾞｽｶﾞｰﾃﾞﾝﾌﾟﾚｲｽ(15ｶｲ)","prefecture":"東京都","city":"渋谷区","street":"恵比寿恵比寿ガーデンプレイス（１５階）"},{"zipCode":"1506016","prefectureKana":"ﾄｳｷｮｳﾄ","cityKana":"ｼﾌﾞﾔｸ","streetKana":"ｴﾋﾞｽｴﾋﾞｽｶﾞｰﾃﾞﾝﾌﾟﾚｲｽ(16ｶｲ)","prefecture":"東京都","city":"渋谷区","street":"恵比寿恵比寿ガーデンプレイス（１６階）"},{"zipCode":"1506017","prefectureKana":"ﾄｳｷｮｳﾄ","cityKana":"ｼﾌﾞﾔｸ","streetKana":"ｴﾋﾞｽｴﾋﾞｽｶﾞｰﾃﾞﾝﾌﾟﾚｲｽ(17ｶｲ)","prefecture":"東京都","city":"渋谷区","street":"恵比寿恵比寿ガーデンプレイス（１７階）"},{"zipCode":"1506018","prefectureKana":"ﾄｳｷｮｳﾄ","cityKana":"ｼﾌﾞﾔｸ","streetKana":"ｴﾋﾞｽｴﾋﾞｽｶﾞｰﾃﾞﾝﾌﾟﾚｲｽ(18ｶｲ)","prefecture":"東京都","city":"渋谷区","street":"恵比寿恵比寿ガーデンプレイス（１８階）"},{"zipCode":"1506019","prefectureKana":"ﾄｳｷｮｳﾄ","cityKana":"ｼﾌﾞﾔｸ","streetKana":"ｴﾋﾞｽｴﾋﾞｽｶﾞｰﾃﾞﾝﾌﾟﾚｲｽ(19ｶｲ)","prefecture":"東京都","city":"渋谷区","street":"恵比寿恵比寿ガーデンプレイス（１９階）"},{"zipCode":"1506020","prefectureKana":"ﾄｳｷｮｳﾄ","cityKana":"ｼﾌﾞﾔｸ","streetKana":"ｴﾋﾞｽｴﾋﾞｽｶﾞｰﾃﾞﾝﾌﾟﾚｲｽ(20ｶｲ)","prefecture":"東京都","city":"渋谷区","street":"恵比寿恵比寿ガーデンプレイス（２０階）"},{"zipCode":"1506021","prefectureKana":"ﾄｳｷｮｳﾄ","cityKana":"ｼﾌﾞﾔｸ","streetKana":"ｴﾋﾞｽｴﾋﾞｽｶﾞｰﾃﾞﾝﾌﾟﾚｲｽ(21ｶｲ)","prefecture":"東京都","city":"渋谷区","street":"恵比寿恵比寿ガーデンプレイス（２１階）"},{"zipCode":"1506022","prefectureKana":"ﾄｳｷｮｳﾄ","cityKana":"ｼﾌﾞﾔｸ","streetKana":"ｴﾋﾞｽｴﾋﾞｽｶﾞｰﾃﾞﾝﾌﾟﾚｲｽ(22ｶｲ)","prefecture":"東京都","city":"渋谷区","street":"恵比寿恵比寿ガーデンプレイス（２２階）"},{"zipCode":"1506023","prefectureKana":"ﾄｳｷｮｳﾄ","cityKana":"ｼﾌﾞﾔｸ","streetKana":"ｴﾋﾞｽｴﾋﾞｽｶﾞｰﾃﾞﾝﾌﾟﾚｲｽ(23ｶｲ)","prefecture":"東京都","city":"渋谷区","street":"恵比寿恵比寿ガーデンプレイス（２３階）"},{"zipCode":"1506024","prefectureKana":"ﾄｳｷｮｳﾄ","cityKana":"ｼﾌﾞﾔｸ","streetKana":"ｴﾋﾞｽｴﾋﾞｽｶﾞｰﾃﾞﾝﾌﾟﾚｲｽ(24ｶｲ)","prefecture":"東京都","city":"渋谷区","street":"恵比寿恵比寿ガーデンプレイス（２４階）"},{"zipCode":"1506025","prefectureKana":"ﾄｳｷｮｳﾄ","cityKana":"ｼﾌﾞﾔｸ","streetKana":"ｴﾋﾞｽｴﾋﾞｽｶﾞｰﾃﾞﾝﾌﾟﾚｲｽ(25ｶｲ)","prefecture":"東京都","city":"渋谷区","street":"恵比寿恵比寿ガーデンプレイス（２５階）"},{"zipCode":"1506026","prefectureKana":"ﾄｳｷｮｳﾄ","cityKana":"ｼﾌﾞﾔｸ","streetKana":"ｴﾋﾞｽｴﾋﾞｽｶﾞｰﾃﾞﾝﾌﾟﾚｲｽ(26ｶｲ)","prefecture":"東京都","city":"渋谷区","street":"恵比寿恵比寿ガーデンプレイス（２６階）"},{"zipCode":"1506027","prefectureKana":"ﾄｳｷｮｳﾄ","cityKana":"ｼﾌﾞﾔｸ","streetKana":"ｴﾋﾞｽｴﾋﾞｽｶﾞｰﾃﾞﾝﾌﾟﾚｲｽ(27ｶｲ)","prefecture":"東京都","city":"渋谷区","street":"恵比寿恵比寿ガーデンプレイス（２７階）"},{"zipCode":"1506028","prefectureKana":"ﾄｳｷｮｳﾄ","cityKana":"ｼﾌﾞﾔｸ","streetKana":"ｴﾋﾞｽｴﾋﾞｽｶﾞｰﾃﾞﾝﾌﾟﾚｲｽ(28ｶｲ)","prefecture":"東京都","city":"渋谷区","street":"恵比寿恵比寿ガーデンプレイス（２８階）"},{"zipCode":"1506029","prefectureKana":"ﾄｳｷｮｳﾄ","cityKana":"ｼﾌﾞﾔｸ","streetKana":"ｴﾋﾞｽｴﾋﾞｽｶﾞｰﾃﾞﾝﾌﾟﾚｲｽ(29ｶｲ)","prefecture":"東京都","city":"渋谷区","street":"恵比寿恵比寿ガーデンプレイス（２９階）"},{"zipCode":"1506030","prefectureKana":"ﾄｳｷｮｳﾄ","cityKana":"ｼﾌﾞﾔｸ","streetKana":"ｴﾋﾞｽｴﾋﾞｽｶﾞｰﾃﾞﾝﾌﾟﾚｲｽ(30ｶｲ)","prefecture":"東京都","city":"渋谷区","street":"恵比寿恵比寿ガーデンプレイス（３０階）"},{"zipCode":"1506031","prefectureKana":"ﾄｳｷｮｳﾄ","cityKana":"ｼﾌﾞﾔｸ","streetKana":"ｴﾋﾞｽｴﾋﾞｽｶﾞｰﾃﾞﾝﾌﾟﾚｲｽ(31ｶｲ)","prefecture":"東京都","city":"渋谷区","street":"恵比寿恵比寿ガーデンプレイス（３１階）"},{"zipCode":"1506032","prefectureKana":"ﾄｳｷｮｳﾄ","cityKana":"ｼﾌﾞﾔｸ","streetKana":"ｴﾋﾞｽｴﾋﾞｽｶﾞｰﾃﾞﾝﾌﾟﾚｲｽ(32ｶｲ)","prefecture":"東京都","city":"渋谷区","street":"恵比寿恵比寿ガーデンプレイス（３２階）"},{"zipCode":"1506033","prefectureKana":"ﾄｳｷｮｳﾄ","cityKana":"ｼﾌﾞﾔｸ","streetKana":"ｴﾋﾞｽｴﾋﾞｽｶﾞｰﾃﾞﾝﾌﾟﾚｲｽ(33ｶｲ)","prefecture":"東京都","city":"渋谷区","street":"恵比寿恵比寿ガーデンプレイス（３３階）"},{"zipCode":"1506034","prefectureKana":"ﾄｳｷｮｳﾄ","cityKana":"ｼﾌﾞﾔｸ","streetKana":"ｴﾋﾞｽｴﾋﾞｽｶﾞｰﾃﾞﾝﾌﾟﾚｲｽ(34ｶｲ)","prefecture":"東京都","city":"渋谷区","street":"恵比寿恵比寿ガーデンプレイス（３４階）"},{"zipCode":"1506035","prefectureKana":"ﾄｳｷｮｳﾄ","cityKana":"ｼﾌﾞﾔｸ","streetKana":"ｴﾋﾞｽｴﾋﾞｽｶﾞｰﾃﾞﾝﾌﾟﾚｲｽ(35ｶｲ)","prefecture":"東京都","city":"渋谷区","street":"恵比寿恵比寿ガーデンプレイス（３５階）"},{"zipCode":"1506036","prefectureKana":"ﾄｳｷｮｳﾄ","cityKana":"ｼﾌﾞﾔｸ","streetKana":"ｴﾋﾞｽｴﾋﾞｽｶﾞｰﾃﾞﾝﾌﾟﾚｲｽ(36ｶｲ)","prefecture":"東京都","city":"渋谷区","street":"恵比寿恵比寿ガーデンプレイス（３６階）"},{"zipCode":"1506037","prefectureKana":"ﾄｳｷｮｳﾄ","cityKana":"ｼﾌﾞﾔｸ","streetKana":"ｴﾋﾞｽｴﾋﾞｽｶﾞｰﾃﾞﾝﾌﾟﾚｲｽ(37ｶｲ)","prefecture":"東京都","city":"渋谷区","street":"恵比寿恵比寿ガーデンプレイス（３７階）"},{"zipCode":"1506038","prefectureKana":"ﾄｳｷｮｳﾄ","cityKana":"ｼﾌﾞﾔｸ","streetKana":"ｴﾋﾞｽｴﾋﾞｽｶﾞｰﾃﾞﾝﾌﾟﾚｲｽ(38ｶｲ)","prefecture":"東京都","city":"渋谷区","street":"恵比寿恵比寿ガーデンプレイス（３８階）"},{"zipCode":"1506039","prefectureKana":"ﾄｳｷｮｳﾄ","cityKana":"ｼﾌﾞﾔｸ","streetKana":"ｴﾋﾞｽｴﾋﾞｽｶﾞｰﾃﾞﾝﾌﾟﾚｲｽ(39ｶｲ)","prefecture":"東京都","city":"渋谷区","street":"恵比寿恵比寿ガーデンプレイス（３９階）"},{"zipCode":"1500021","prefectureKana":"ﾄｳｷｮｳﾄ","cityKana":"ｼﾌﾞﾔｸ","streetKana":"ｴﾋﾞｽﾆｼ","prefecture":"東京都","city":"渋谷区","street":"恵比寿西"},{"zipCode":"1500022","prefectureKana":"ﾄｳｷｮｳﾄ","cityKana":"ｼﾌﾞﾔｸ","streetKana":"ｴﾋﾞｽﾐﾅﾐ","prefecture":"東京都","city":"渋谷区","street":"恵比寿南"},{"zipCode":"1500047","prefectureKana":"ﾄｳｷｮｳﾄ","cityKana":"ｼﾌﾞﾔｸ","streetKana":"ｶﾐﾔﾏﾁｮｳ","prefecture":"東京都","city":"渋谷区","street":"神山町"},{"zipCode":"1500031","prefectureKana":"ﾄｳｷｮｳﾄ","cityKana":"ｼﾌﾞﾔｸ","streetKana":"ｻｸﾗｶﾞｵｶﾁｮｳ","prefecture":"東京都","city":"渋谷区","street":"桜丘町"},{"zipCode":"1500033","prefectureKana":"ﾄｳｷｮｳﾄ","cityKana":"ｼﾌﾞﾔｸ","streetKana":"ｻﾙｶﾞｸﾁｮｳ","prefecture":"東京都","city":"渋谷区","street":"猿楽町"},{"zipCode":"1500002","prefectureKana":"ﾄｳｷｮｳﾄ","cityKana":"ｼﾌﾞﾔｸ","streetKana":"ｼﾌﾞﾔ(ﾂｷﾞﾉﾋﾞﾙｦﾉｿﾞｸ)","prefecture":"東京都","city":"渋谷区","street":"渋谷（次のビルを除く）"},{"zipCode":"1506190","prefectureKana":"ﾄｳｷｮｳﾄ","cityKana":"ｼﾌﾞﾔｸ","streetKana":"ｼﾌﾞﾔｼﾌﾞﾔｽｸﾗﾝﾌﾞﾙｽｸｴｱ(ﾁｶｲ･ｶｲｿｳﾌﾒｲ)","prefecture":"東京都","city":"渋谷区","street":"渋谷渋谷スクランブルスクエア（地階・階層不明）"},{"zipCode":"1506101","prefectureKana":"ﾄｳｷｮｳﾄ","cityKana":"ｼﾌﾞﾔｸ","streetKana":"ｼﾌﾞﾔｼﾌﾞﾔｽｸﾗﾝﾌﾞﾙｽｸｴｱ(1ｶｲ)","prefecture":"東京都","city":"渋谷区","street":"渋谷渋谷スクランブルスクエア（１階）"},{"zipCode":"1506102","prefectureKana":"ﾄｳｷｮｳﾄ","cityKana":"ｼﾌﾞﾔｸ","streetKana":"ｼﾌﾞﾔｼﾌﾞﾔｽｸﾗﾝﾌﾞﾙｽｸｴｱ(2ｶｲ)","prefecture":"東京都","city":"渋谷区","street":"渋谷渋谷スクランブルスクエア（２階）"},{"zipCode":"1506103","prefectureKana":"ﾄｳｷｮｳﾄ","cityKana":"ｼﾌﾞﾔｸ","streetKana":"ｼﾌﾞﾔｼﾌﾞﾔｽｸﾗﾝﾌﾞﾙｽｸｴｱ(3ｶｲ)","prefecture":"東京都","city":"渋谷区","street":"渋谷渋谷スクランブルスクエア（３階）"},{"zipCode":"1506104","prefectureKana":"ﾄｳｷｮｳﾄ","cityKana":"ｼﾌﾞﾔｸ","streetKana":"ｼﾌﾞﾔｼﾌﾞﾔｽｸﾗﾝﾌﾞﾙｽｸｴｱ(4ｶｲ)","prefecture":"東京都","city":"渋谷区","street":"渋谷渋谷スクランブルスクエア（４階）"},{"zipCode":"1506105","prefectureKana":"ﾄｳｷｮｳﾄ","cityKana":"ｼﾌﾞﾔｸ","streetKana":"ｼﾌﾞﾔｼﾌﾞﾔｽｸﾗﾝﾌﾞﾙｽｸｴｱ(5ｶｲ)","prefecture":"東京都","city":"渋谷区","street":"渋谷渋谷スクランブルスクエア（５階）"},{"zipCode":"1506106","prefectureKana":"ﾄｳｷｮｳﾄ","cityKana":"ｼﾌﾞﾔｸ","streetKana":"ｼﾌﾞﾔｼﾌﾞﾔｽｸﾗﾝﾌﾞﾙｽｸｴｱ(6ｶｲ)","prefecture":"東京都","city":"渋谷区","street":"渋谷渋谷スクランブルスクエア（６階）"},{"zipCode":"1506107","prefectureKana":"ﾄｳｷｮｳﾄ","cityKana":"ｼﾌﾞﾔｸ","streetKana":"ｼﾌﾞﾔｼﾌﾞﾔｽｸﾗﾝﾌﾞﾙｽｸｴｱ(7ｶｲ)","prefecture":"東京都","city":"渋谷区","street":"渋谷渋谷スクランブルスクエア（７階）"},{"zipCode":"1506108","prefectureKana":"ﾄｳｷｮｳﾄ","cityKana":"ｼﾌﾞﾔｸ","streetKana":"ｼﾌﾞﾔｼﾌﾞﾔｽｸﾗﾝﾌﾞﾙｽｸｴｱ(8ｶｲ)","prefecture":"東京都","city":"渋谷区","street":"渋谷渋谷スクランブルスクエア（８階）"},{"zipCode":"1506109","prefectureKana":"ﾄｳｷｮｳﾄ","cityKana":"ｼﾌﾞﾔｸ","streetKana":"ｼﾌﾞﾔｼﾌﾞﾔｽｸﾗﾝﾌﾞﾙｽｸｴｱ(9ｶｲ)","prefecture":"東京都","city":"渋谷区","street":"渋谷渋谷スクランブルスクエア（９階）"},{"zipCode":"1506110","prefectureKana":"ﾄｳｷｮｳﾄ","cityKana":"ｼﾌﾞﾔｸ","streetKana":"ｼﾌﾞﾔｼﾌﾞﾔｽｸﾗﾝﾌﾞﾙｽｸｴｱ(10ｶｲ)","prefecture":"東京都","city":"渋谷区","street":"渋谷渋谷スクランブルスクエア（１０階）"},{"zipCode":"1506111","prefectureKana":"ﾄｳｷｮｳﾄ","cityKana":"ｼﾌﾞﾔｸ","streetKana":"ｼﾌﾞﾔｼﾌﾞﾔｽｸﾗﾝﾌﾞﾙｽｸｴｱ(11ｶｲ)","prefecture":"東京都","city":"渋谷区","street":"渋谷渋谷スクランブルスクエア（１１階）"},{"zipCode":"1506112","prefectureKana":"ﾄｳｷｮｳﾄ","cityKana":"ｼﾌﾞﾔｸ","streetKana":"ｼﾌﾞﾔｼﾌﾞﾔｽｸﾗﾝﾌﾞﾙｽｸｴｱ(12ｶｲ)","prefecture":"東京都","city":"渋谷区","street":"渋谷渋谷スクランブルスクエア（１２階）"},{"zipCode":"1506113","prefectureKana":"ﾄｳｷｮｳﾄ","cityKana":"ｼﾌﾞﾔｸ","streetKana":"ｼﾌﾞﾔｼﾌﾞﾔｽｸﾗﾝﾌﾞﾙｽｸｴｱ(13ｶｲ)","prefecture":"東京都","city":"渋谷区","street":"渋谷渋谷スクランブルスクエア（１３階）"},{"zipCode":"1506114","prefectureKana":"ﾄｳｷｮｳﾄ","cityKana":"ｼﾌﾞﾔｸ","streetKana":"ｼﾌﾞﾔｼﾌﾞﾔｽｸﾗﾝﾌﾞﾙｽｸｴｱ(14ｶｲ)","prefecture":"東京都","city":"渋谷区","street":"渋谷渋谷スクランブルスクエア（１４階）"},{"zipCode":"1506115","prefectureKana":"ﾄｳｷｮｳﾄ","cityKana":"ｼﾌﾞﾔｸ","streetKana":"ｼﾌﾞﾔｼﾌﾞﾔｽｸﾗﾝﾌﾞﾙｽｸｴｱ(15ｶｲ)","prefecture":"東京都","city":"渋谷区","street":"渋谷渋谷スクランブルスクエア（１５階）"},{"zipCode":"1506116","prefectureKana":"ﾄｳｷｮｳﾄ","cityKana":"ｼﾌﾞﾔｸ","streetKana":"ｼﾌﾞﾔｼﾌﾞﾔｽｸﾗﾝﾌﾞﾙｽｸｴｱ(16ｶｲ)","prefecture":"東京都","city":"渋谷区","street":"渋谷渋谷スクランブルスクエア（１６階）"},{"zipCode":"1506117","prefectureKana":"ﾄｳｷｮｳﾄ","cityKana":"ｼﾌﾞﾔｸ","streetKana":"ｼﾌﾞﾔｼﾌﾞﾔｽｸﾗﾝﾌﾞﾙｽｸｴｱ(17ｶｲ)","prefecture":"東京都","city":"渋谷区","street":"渋谷渋谷スクランブルスクエア（１７階）"},{"zipCode":"1506118","prefectureKana":"ﾄｳｷｮｳﾄ","cityKana":"ｼﾌﾞﾔｸ","streetKana":"ｼﾌﾞﾔｼﾌﾞﾔｽｸﾗﾝﾌﾞﾙｽｸｴｱ(18ｶｲ)","prefecture":"東京都","city":"渋谷区","street":"渋谷渋谷スクランブルスクエア（１８階）"},{"zipCode":"1506119","prefectureKana":"ﾄｳｷｮｳﾄ","cityKana":"ｼﾌﾞﾔｸ","streetKana":"ｼﾌﾞﾔｼﾌﾞﾔｽｸﾗﾝﾌﾞﾙｽｸｴｱ(19ｶｲ)","prefecture":"東京都","city":"渋谷区","street":"渋谷渋谷スクランブルスクエア（１９階）"},{"zipCode":"1506120","prefectureKana":"ﾄｳｷｮｳﾄ","cityKana":"ｼﾌﾞﾔｸ","streetKana":"ｼﾌﾞﾔｼﾌﾞﾔｽｸﾗﾝﾌﾞﾙｽｸｴｱ(20ｶｲ)","prefecture":"東京都","city":"渋谷区","street":"渋谷渋谷スクランブルスクエア（２０階）"},{"zipCode":"1506121","prefectureKana":"ﾄｳｷｮｳﾄ","cityKana":"ｼﾌﾞﾔｸ","streetKana":"ｼﾌﾞﾔｼﾌﾞﾔｽｸﾗﾝﾌﾞﾙｽｸｴｱ(21ｶｲ)","prefecture":"東京都","city":"渋谷区","street":"渋谷渋谷スクランブルスクエア（２１階）"},{"zipCode":"1506122","prefectureKana":"ﾄｳｷｮｳﾄ","cityKana":"ｼﾌﾞﾔｸ","streetKana":"ｼﾌﾞﾔｼﾌﾞﾔｽｸﾗﾝﾌﾞﾙｽｸｴｱ(22ｶｲ)","prefecture":"東京都","city":"渋谷区","street":"渋谷渋谷スクランブルスクエア（２２階）"},{"zipCode":"1506123","prefectureKana":"ﾄｳｷｮｳﾄ","cityKana":"ｼﾌﾞﾔｸ","streetKana":"ｼﾌﾞﾔｼﾌﾞﾔｽｸﾗﾝﾌﾞﾙｽｸｴｱ(23ｶｲ)","prefecture":"東京都","city":"渋谷区","street":"渋谷渋谷スクランブルスクエア（２３階）"},{"zipCode":"1506124","prefectureKana":"ﾄｳｷｮｳﾄ","cityKana":"ｼﾌﾞﾔｸ","streetKana":"ｼﾌﾞﾔｼﾌﾞﾔｽｸﾗﾝﾌﾞﾙｽｸｴｱ(24ｶｲ)","prefecture":"東京都","city":"渋谷区","street":"渋谷渋谷スクランブルスクエア（２４階）"},{"zipCode":"1506125","prefectureKana":"ﾄｳｷｮｳﾄ","cityKana":"ｼﾌﾞﾔｸ","streetKana":"ｼﾌﾞﾔｼﾌﾞﾔｽｸﾗﾝﾌﾞﾙｽｸｴｱ(25ｶｲ)","prefecture":"東京都","city":"渋谷区","street":"渋谷渋谷スクランブルスクエア（２５階）"},{"zipCode":"1506126","prefectureKana":"ﾄｳｷｮｳﾄ","cityKana":"ｼﾌﾞﾔｸ","streetKana":"ｼﾌﾞﾔｼﾌﾞﾔｽｸﾗﾝﾌﾞﾙｽｸｴｱ(26ｶｲ)","prefecture":"東京都","city":"渋谷区","street":"渋谷渋谷スクランブルスクエア（２６階）"},{"zipCode":"1506127","prefectureKana":"ﾄｳｷｮｳﾄ","cityKana":"ｼﾌﾞﾔｸ","streetKana":"ｼﾌﾞﾔｼﾌﾞﾔｽｸﾗﾝﾌﾞﾙｽｸｴｱ(27ｶｲ)","prefecture":"東京都","city":"渋谷区","street":"渋谷渋谷スクランブルスクエア（２７階）"},{"zipCode":"1506128","prefectureKana":"ﾄｳｷｮｳﾄ","cityKana":"ｼﾌﾞﾔｸ","streetKana":"ｼﾌﾞﾔｼﾌﾞﾔｽｸﾗﾝﾌﾞﾙｽｸｴｱ(28ｶｲ)","prefecture":"東京都","city":"渋谷区","street":"渋谷渋谷スクランブルスクエア（２８階）"},{"zipCode":"1506129","prefectureKana":"ﾄｳｷｮｳﾄ","cityKana":"ｼﾌﾞﾔｸ","streetKana":"ｼﾌﾞﾔｼﾌﾞﾔｽｸﾗﾝﾌﾞﾙｽｸｴｱ(29ｶｲ)","prefecture":"東京都","city":"渋谷区","street":"渋谷渋谷スクランブルスクエア（２９階）"},{"zipCode":"1506130","prefectureKana":"ﾄｳｷｮｳﾄ","cityKana":"ｼﾌﾞﾔｸ","streetKana":"ｼﾌﾞﾔｼﾌﾞﾔｽｸﾗﾝﾌﾞﾙｽｸｴｱ(30ｶｲ)","prefecture":"東京都","city":"渋谷区","street":"渋谷渋谷スクランブルスクエア（３０階）"},{"zipCode":"1506131","prefectureKana":"ﾄｳｷｮｳﾄ","cityKana":"ｼﾌﾞﾔｸ","streetKana":"ｼﾌﾞﾔｼﾌﾞﾔｽｸﾗﾝﾌﾞﾙｽｸｴｱ(31ｶｲ)","prefecture":"東京都","city":"渋谷区","street":"渋谷渋谷スクランブルスクエア（３１階）"},{"zipCode":"1506132","prefectureKana":"ﾄｳｷｮｳﾄ","cityKana":"ｼﾌﾞﾔｸ","streetKana":"ｼﾌﾞﾔｼﾌﾞﾔｽｸﾗﾝﾌﾞﾙｽｸｴｱ(32ｶｲ)","prefecture":"東京都","city":"渋谷区","street":"渋谷渋谷スクランブルスクエア（３２階）"},{"zipCode":"1506133","prefectureKana":"ﾄｳｷｮｳﾄ","cityKana":"ｼﾌﾞﾔｸ","streetKana":"ｼﾌﾞﾔｼﾌﾞﾔｽｸﾗﾝﾌﾞﾙｽｸｴｱ(33ｶｲ)","prefecture":"東京都","city":"渋谷区","street":"渋谷渋谷スクランブルスクエア（３３階）"},{"zipCode":"1506134","prefectureKana":"ﾄｳｷｮｳﾄ","cityKana":"ｼﾌﾞﾔｸ","streetKana":"ｼﾌﾞﾔｼﾌﾞﾔｽｸﾗﾝﾌﾞﾙｽｸｴｱ(34ｶｲ)","prefecture":"東京都","city":"渋谷区","street":"渋谷渋谷スクランブルスクエア（３４階）"},{"zipCode":"1506135","prefectureKana":"ﾄｳｷｮｳﾄ","cityKana":"ｼﾌﾞﾔｸ","streetKana":"ｼﾌﾞﾔｼﾌﾞﾔｽｸﾗﾝﾌﾞﾙｽｸｴｱ(35ｶｲ)","prefecture":"東京都","city":"渋谷区","street":"渋谷渋谷スクランブルスクエア（３５階）"},{"zipCode":"1506136","prefectureKana":"ﾄｳｷｮｳﾄ","cityKana":"ｼﾌﾞﾔｸ","streetKana":"ｼﾌﾞﾔｼﾌﾞﾔｽｸﾗﾝﾌﾞﾙｽｸｴｱ(36ｶｲ)","prefecture":"東京都","city":"渋谷区","street":"渋谷渋谷スクランブルスクエア（３６階）"},{"zipCode":"1506137","prefectureKana":"ﾄｳｷｮｳﾄ","cityKana":"ｼﾌﾞﾔｸ","streetKana":"ｼﾌﾞﾔｼﾌﾞﾔｽｸﾗﾝﾌﾞﾙｽｸｴｱ(37ｶｲ)","prefecture":"東京都","city":"渋谷区","street":"渋谷渋谷スクランブルスクエア（３７階）"},{"zipCode":"1506138","prefectureKana":"ﾄｳｷｮｳﾄ","cityKana":"ｼﾌﾞﾔｸ","streetKana":"ｼﾌﾞﾔｼﾌﾞﾔｽｸﾗﾝﾌﾞﾙｽｸｴｱ(38ｶｲ)","prefecture":"東京都","city":"渋谷区","street":"渋谷渋谷スクランブルスクエア（３８階）"},{"zipCode":"1506139","prefectureKana":"ﾄｳｷｮｳﾄ","cityKana":"ｼﾌﾞﾔｸ","streetKana":"ｼﾌﾞﾔｼﾌﾞﾔｽｸﾗﾝﾌﾞﾙｽｸｴｱ(39ｶｲ)","prefecture":"東京都","city":"渋谷区","street":"渋谷渋谷スクランブルスクエア（３９階）"},{"zipCode":"1506140","prefectureKana":"ﾄｳｷｮｳﾄ","cityKana":"ｼﾌﾞﾔｸ","streetKana":"ｼﾌﾞﾔｼﾌﾞﾔｽｸﾗﾝﾌﾞﾙｽｸｴｱ(40ｶｲ)","prefecture":"東京都","city":"渋谷区","street":"渋谷渋谷スクランブルスクエア（４０階）"},{"zipCode":"1506141","prefectureKana":"ﾄｳｷｮｳﾄ","cityKana":"ｼﾌﾞﾔｸ","streetKana":"ｼﾌﾞﾔｼﾌﾞﾔｽｸﾗﾝﾌﾞﾙｽｸｴｱ(41ｶｲ)","prefecture":"東京都","city":"渋谷区","street":"渋谷渋谷スクランブルスクエア（４１階）"},{"zipCode":"1506142","prefectureKana":"ﾄｳｷｮｳﾄ","cityKana":"ｼﾌﾞﾔｸ","streetKana":"ｼﾌﾞﾔｼﾌﾞﾔｽｸﾗﾝﾌﾞﾙｽｸｴｱ(42ｶｲ)","prefecture":"東京都","city":"渋谷区","street":"渋谷渋谷スクランブルスクエア（４２階）"},{"zipCode":"1506143","prefectureKana":"ﾄｳｷｮｳﾄ","cityKana":"ｼﾌﾞﾔｸ","streetKana":"ｼﾌﾞﾔｼﾌﾞﾔｽｸﾗﾝﾌﾞﾙｽｸｴｱ(43ｶｲ)","prefecture":"東京都","city":"渋谷区","street":"渋谷渋谷スクランブルスクエア（４３階）"},{"zipCode":"1506144","prefectureKana":"ﾄｳｷｮｳﾄ","cityKana":"ｼﾌﾞﾔｸ","streetKana":"ｼﾌﾞﾔｼﾌﾞﾔｽｸﾗﾝﾌﾞﾙｽｸｴｱ(44ｶｲ)","prefecture":"東京都","city":"渋谷区","street":"渋谷渋谷スクランブルスクエア（４４階）"},{"zipCode":"1506145","prefectureKana":"ﾄｳｷｮｳﾄ","cityKana":"ｼﾌﾞﾔｸ","streetKana":"ｼﾌﾞﾔｼﾌﾞﾔｽｸﾗﾝﾌﾞﾙｽｸｴｱ(45ｶｲ)","prefecture":"東京都","city":"渋谷区","street":"渋谷渋谷スクランブルスクエア（４５階）"},{"zipCode":"1506146","prefectureKana":"ﾄｳｷｮｳﾄ","cityKana":"ｼﾌﾞﾔｸ","streetKana":"ｼﾌﾞﾔｼﾌﾞﾔｽｸﾗﾝﾌﾞﾙｽｸｴｱ(46ｶｲ)","prefecture":"東京都","city":"渋谷区","street":"渋谷渋谷スクランブルスクエア（４６階）"},{"zipCode":"1506147","prefectureKana":"ﾄｳｷｮｳﾄ","cityKana":"ｼﾌﾞﾔｸ","streetKana":"ｼﾌﾞﾔｼﾌﾞﾔｽｸﾗﾝﾌﾞﾙｽｸｴｱ(47ｶｲ)","prefecture":"東京都","city":"渋谷区","street":"渋谷渋谷スクランブルスクエア（４７階）"},{"zipCode":"1500046","prefectureKana":"ﾄｳｷｮｳﾄ","cityKana":"ｼﾌﾞﾔｸ","streetKana":"ｼｮｳﾄｳ","prefecture":"東京都","city":"渋谷区","street":"松濤"},{"zipCode":"1500001","prefectureKana":"ﾄｳｷｮｳﾄ","cityKana":"ｼﾌﾞﾔｸ","streetKana":"ｼﾞﾝｸﾞｳﾏｴ","prefecture":"東京都","city":"渋谷区","street":"神宮前"},{"zipCode":"1500045","prefectureKana":"ﾄｳｷｮｳﾄ","cityKana":"ｼﾌﾞﾔｸ","streetKana":"ｼﾝｾﾝﾁｮｳ","prefecture":"東京都","city":"渋谷区","street":"神泉町"},{"zipCode":"1500041","prefectureKana":"ﾄｳｷｮｳﾄ","cityKana":"ｼﾌﾞﾔｸ","streetKana":"ｼﾞﾝﾅﾝ","prefecture":"東京都","city":"渋谷区","street":"神南"},{"zipCode":"1500034","prefectureKana":"ﾄｳｷｮｳﾄ","cityKana":"ｼﾌﾞﾔｸ","streetKana":"ﾀﾞｲｶﾝﾔﾏﾁｮｳ","prefecture":"東京都","city":"渋谷区","street":"代官山町"},{"zipCode":"1500043","prefectureKana":"ﾄｳｷｮｳﾄ","cityKana":"ｼﾌﾞﾔｸ","streetKana":"ﾄﾞｳｹﾞﾝｻﾞｶ","prefecture":"東京都","city":"渋谷区","street":"道玄坂"},{"zipCode":"1500036","prefectureKana":"ﾄｳｷｮｳﾄ","cityKana":"ｼﾌﾞﾔｸ","streetKana":"ﾅﾝﾍﾟｲﾀﾞｲﾁｮｳ","prefecture":"東京都","city":"渋谷区","street":"南平台町"},{"zipCode":"1500035","prefectureKana":"ﾄｳｷｮｳﾄ","cityKana":"ｼﾌﾞﾔｸ","streetKana":"ﾊﾁﾔﾏﾁｮｳ","prefecture":"東京都","city":"渋谷区","street":"鉢山町"},{"zipCode":"1500011","prefectureKana":"ﾄｳｷｮｳﾄ","cityKana":"ｼﾌﾞﾔｸ","streetKana":"ﾋｶﾞｼ","prefecture":"東京都","city":"渋谷区","street":"東"},{"zipCode":"1500012","prefectureKana":"ﾄｳｷｮｳﾄ","cityKana":"ｼﾌﾞﾔｸ","streetKana":"ﾋﾛｵ","prefecture":"東京都","city":"渋谷区","street":"広尾"},{"zipCode":"1500044","prefectureKana":"ﾄｳｷｮｳﾄ","cityKana":"ｼﾌﾞﾔｸ","streetKana":"ﾏﾙﾔﾏﾁｮｳ","prefecture":"東京都","city":"渋谷区","street":"円山町"}]