[{"zipCode":"1600000","prefectureKana":"ﾄｳｷｮｳﾄ","cityKana":"ｼﾝｼﾞｭｸｸ","streetKana":"ｲｶﾆｹｲｻｲｶﾞﾅｲﾊﾞｱｲ","prefecture":"東京都","city":"新宿区","street":"以下に掲載がない場合"},{"zipCode":"1600005","prefectureKana":"ﾄｳｷｮｳﾄ","cityKana":"ｼﾝｼﾞｭｸｸ","streetKana":"ｱｲｽﾞﾐﾁｮｳ","prefecture":"東京都","city":"新宿区","street":"愛住町"},{"zipCode":"1600007","prefectureKana":"ﾄｳｷｮｳﾄ","cityKana":"ｼﾝｼﾞｭｸｸ","streetKana":"ｱﾗｷﾁｮｳ","prefecture":"東京都","city":"新宿区","street":"荒木町"},{"zipCode":"1600013","prefectureKana":"ﾄｳｷｮｳﾄ","cityKana":"ｼﾝｼﾞｭｸｸ","streetKana":"ｶｽﾐｶﾞｵｶﾏﾁ","prefecture":"東京都","city":"新宿区","street":"霞ケ丘町"},{"zipCode":"1600001","prefectureKana":"ﾄｳｷｮｳﾄ","cityKana":"ｼﾝｼﾞｭｸｸ","streetKana":"ｶﾀﾏﾁ","prefecture":"東京都","city":"新宿区","street":"片町"},{"zipCode":"1600021","prefectureKana":"ﾄｳｷｮｳﾄ","cityKana":"ｼﾝｼﾞｭｸｸ","streetKana":"ｶﾌﾞｷﾁｮｳ","prefecture":"東京都","city":"新宿区","street":"歌舞伎町"},{"zipCode":"1600017","prefectureKana":"ﾄｳｷｮｳﾄ","cityKana":"ｼﾝｼﾞｭｸｸ","streetKana":"ｻﾓﾝﾁｮｳ","prefecture":"東京都","city":"新宿区","street":"左門町"},{"zipCode":"1600016","prefectureKana":"ﾄｳｷｮｳﾄ","cityKana":"ｼﾝｼﾞｭｸｸ","streetKana":"ｼﾅﾉﾏﾁ","prefecture":"東京都","city":"新宿区","street":"信濃町"},{"zipCode":"1600022","prefectureKana":"ﾄｳｷｮｳﾄ","cityKana":"ｼﾝｼﾞｭｸｸ","streetKana":"ｼﾝｼﾞｭｸ","prefecture":"東京都","city":"新宿区","street":"新宿"},{"zipCode":"1600018","prefectureKana":"ﾄｳｷｮｳﾄ","cityKana":"ｼﾝｼﾞｭｸｸ","streetKana":"ｽｶﾞﾁｮｳ","prefecture":"東京都","city":"新宿区","street":"須賀町"},{"zipCode":"1600015","prefectureKana":"ﾄｳｷｮｳﾄ","cityKana":"ｼﾝｼﾞｭｸｸ","streetKana":"ﾀﾞｲｷｮｳﾁｮｳ","prefecture":"東京都","city":"新宿区","street":"大京町"},{"zipCode":"1600014","prefectureKana":"ﾄｳｷｮｳﾄ","cityKana":"ｼﾝｼﾞｭｸｸ","streetKana":"ﾅｲﾄｳﾏﾁ","prefecture":"東京都","city":"新宿区","street":"内藤町"},{"zipCode":"1600023","prefectureKana":"ﾄｳｷｮｳﾄ","cityKana":"ｼﾝｼﾞｭｸｸ","streetKana":"ﾆｼｼﾝｼﾞｭｸ(ﾂｷﾞﾉﾋﾞﾙｦﾉｿﾞｸ)","prefecture":"東京都","city":"新宿区","street":"西新宿（次のビルを除く）"},{"zipCode":"1606190","prefectureKana":"ﾄｳｷｮｳﾄ","cityKana":"ｼﾝｼﾞｭｸｸ","streetKana":"ﾆｼｼﾝｼﾞｭｸｽﾐﾄﾓﾌﾄﾞｳｻﾝｼﾝｼﾞｭｸｸﾞﾗﾝﾄﾞﾀﾜｰ(ﾁｶｲ･ｶｲｿｳﾌﾒｲ)","prefecture":"東京都","city":"新宿区","street":"西新宿住友不動産新宿グランドタワー（地階・階層不明）"},{"zipCode":"1606101","prefectureKana":"ﾄｳｷｮｳﾄ","cityKana":"ｼﾝｼﾞｭｸｸ","streetKana":"ﾆｼｼﾝｼﾞｭｸｽﾐﾄﾓﾌﾄﾞｳｻﾝｼﾝｼﾞｭｸｸﾞﾗﾝﾄﾞﾀﾜｰ(1ｶｲ)","prefecture":"東京都","city":"新宿区","street":"西新宿住友不動産新宿グランドタワー（１階）"},{"zipCode":"1606102","prefectureKana":"ﾄｳｷｮｳﾄ","cityKana":"ｼﾝｼﾞｭｸｸ","streetKana":"ﾆｼｼﾝｼﾞｭｸｽﾐﾄﾓﾌﾄﾞｳｻﾝｼﾝｼﾞｭｸｸﾞﾗﾝﾄﾞﾀﾜｰ(2ｶｲ)","prefecture":"東京都","city":"新宿区","street":"西新宿住友不動産新宿グランドタワー（２階）"},{"zipCode":"1606103","prefectureKana":"ﾄｳｷｮｳﾄ","cityKana":"ｼﾝｼﾞｭｸｸ","streetKana":"ﾆｼｼﾝｼﾞｭｸｽﾐﾄﾓﾌﾄﾞｳｻﾝｼﾝｼﾞｭｸｸﾞﾗﾝﾄﾞﾀﾜｰ(3ｶｲ)","prefecture":"東京都","city":"新宿区","street":"西新宿住友不動産新宿グランドタワー（３階）"},{"zipCode":"1606104","prefectureKana":"ﾄｳｷｮｳﾄ","cityKana":"ｼﾝｼﾞｭｸｸ","streetKana":"ﾆｼｼﾝｼﾞｭｸｽﾐﾄﾓﾌﾄﾞｳｻﾝｼﾝｼﾞｭｸｸﾞﾗﾝﾄﾞﾀﾜｰ(4ｶｲ)","prefecture":"東京都","city":"新宿区","street":"西新宿住友不動産新宿グランドタワー（４階）"},{"zipCode":"1606105","prefectureKana":"ﾄｳｷｮｳﾄ","cityKana":"ｼﾝｼﾞｭｸｸ","streetKana":"ﾆｼｼﾝｼﾞｭｸｽﾐﾄﾓﾌﾄﾞｳｻﾝｼﾝｼﾞｭｸｸﾞﾗﾝﾄﾞﾀﾜｰ(5ｶｲ)","prefecture":"東京都","city":"新宿区","street":"西新宿住友不動産新宿グランドタワー（５階）"},{"zipCode":"1606106","prefectureKana":"ﾄｳｷｮｳﾄ","cityKana":"ｼﾝｼﾞｭｸｸ","streetKana":"ﾆｼｼﾝｼﾞｭｸｽﾐﾄﾓﾌﾄﾞｳｻﾝｼﾝｼﾞｭｸｸﾞﾗﾝﾄﾞﾀﾜｰ(6ｶｲ)","prefecture":"東京都","city":"新宿区","street":"西新宿住友不動産新宿グランドタワー（６階）"},{"zipCode":"1606107","prefectureKana":"ﾄｳｷｮｳﾄ","cityKana":"ｼﾝｼﾞｭｸｸ","streetKana":"ﾆｼｼﾝｼﾞｭｸｽﾐﾄﾓﾌﾄﾞｳｻﾝｼﾝｼﾞｭｸｸﾞﾗﾝﾄﾞﾀﾜｰ(7ｶｲ)","prefecture":"東京都","city":"新宿区","street":"西新宿住友不動産新宿グランドタワー（７階）"},{"zipCode":"1606108","prefectureKana":"ﾄｳｷｮｳﾄ","cityKana":"ｼﾝｼﾞｭｸｸ","streetKana":"ﾆｼｼﾝｼﾞｭｸｽﾐﾄﾓﾌﾄﾞｳｻﾝｼﾝｼﾞｭｸｸﾞﾗﾝﾄﾞﾀﾜｰ(8ｶｲ)","prefecture":"東京都","city":"新宿区","street":"西新宿住友不動産新宿グランドタワー（８階）"},{"zipCode":"1606109","prefectureKana":"ﾄｳｷｮｳﾄ","cityKana":"ｼﾝｼﾞｭｸｸ","streetKana":"ﾆｼｼﾝｼﾞｭｸｽﾐﾄﾓﾌﾄﾞｳｻﾝｼﾝｼﾞｭｸｸﾞﾗﾝﾄﾞﾀﾜｰ(9ｶｲ)","prefecture":"東京都","city":"新宿区","street":"西新宿住友不動産新宿グランドタワー（９階）"},{"zipCode":"1606110","prefectureKana":"ﾄｳｷｮｳﾄ","cityKana":"ｼﾝｼﾞｭｸｸ","streetKana":"ﾆｼｼﾝｼﾞｭｸｽﾐﾄﾓﾌﾄﾞｳｻﾝｼﾝｼﾞｭｸｸﾞﾗﾝﾄﾞﾀﾜｰ(10ｶｲ)","prefecture":"東京都","city":"新宿区","street":"西新宿住友不動産新宿グランドタワー（１０階）"},{"zipCode":"1606111","prefectureKana":"ﾄｳｷｮｳﾄ","cityKana":"ｼﾝｼﾞｭｸｸ","streetKana":"ﾆｼｼﾝｼﾞｭｸｽﾐﾄﾓﾌﾄﾞｳｻﾝｼﾝｼﾞｭｸｸﾞﾗﾝﾄﾞﾀﾜｰ(11ｶｲ)","prefecture":"東京都","city":"新宿区","street":"西新宿住友不動産新宿グランドタワー（１１階）"},{"zipCode":"1606112","prefectureKana":"ﾄｳｷｮｳﾄ","cityKana":"ｼﾝｼﾞｭｸｸ","streetKana":"ﾆｼｼﾝｼﾞｭｸｽﾐﾄﾓﾌﾄﾞｳｻﾝｼﾝｼﾞｭｸｸﾞﾗﾝﾄﾞﾀﾜｰ(12ｶｲ)","prefecture":"東京都","city":"新宿区","street":"西新宿住友不動産新宿グランドタワー（１２階）"},{"zipCode":"1606113","prefectureKana":"ﾄｳｷｮｳﾄ","cityKana":"ｼﾝｼﾞｭｸｸ","streetKana":"ﾆｼｼﾝｼﾞｭｸｽﾐﾄﾓﾌﾄﾞｳｻﾝｼﾝｼﾞｭｸｸﾞﾗﾝﾄﾞﾀﾜｰ(13ｶｲ)","prefecture":"東京都","city":"新宿区","street":"西新宿住友不動産新宿グランドタワー（１３階）"},{"zipCode":"1606114","prefectureKana":"ﾄｳｷｮｳﾄ","cityKana":"ｼﾝｼﾞｭｸｸ","streetKana":"ﾆｼｼﾝｼﾞｭｸｽﾐﾄﾓﾌﾄﾞｳｻﾝｼﾝｼﾞｭｸｸﾞﾗﾝﾄﾞﾀﾜｰ(14ｶｲ)","prefecture":"東京都","city":"新宿区","street":"西新宿住友不動産新宿グランドタワー（１４階）"},{"zipCode":"1606115","prefectureKana":"ﾄｳｷｮｳﾄ","cityKana":"ｼﾝｼﾞｭｸｸ","streetKana":"ﾆｼｼﾝｼﾞｭｸｽﾐﾄﾓﾌﾄﾞｳｻﾝｼﾝｼﾞｭｸｸﾞﾗﾝﾄﾞﾀﾜｰ(15ｶｲ)","prefecture":"東京都","city":"新宿区","street":"西新宿住友不動産新宿グランドタワー（１５階）"},{"zipCode":"1606116","prefectureKana":"ﾄｳｷｮｳﾄ","cityKana":"ｼﾝｼﾞｭｸｸ","streetKana":"ﾆｼｼﾝｼﾞｭｸｽﾐﾄﾓﾌﾄﾞｳｻﾝｼﾝｼﾞｭｸｸﾞﾗﾝﾄﾞﾀﾜｰ(16ｶｲ)","prefecture":"東京都","city":"新宿区","street":"西新宿住友不動産新宿グランドタワー（１６階）"},{"zipCode":"1606117","prefectureKana":"ﾄｳｷｮｳﾄ","cityKana":"ｼﾝｼﾞｭｸｸ","streetKana":"ﾆｼｼﾝｼﾞｭｸｽﾐﾄﾓﾌﾄﾞｳｻﾝｼﾝｼﾞｭｸｸﾞﾗﾝﾄﾞﾀﾜｰ(17ｶｲ)","prefecture":"東京都","city":"新宿区","street":"西新宿住友不動産新宿グランドタワー（１７階）"},{"zipCode":"1606118","prefectureKana":"ﾄｳｷｮｳﾄ","cityKana":"ｼﾝｼﾞｭｸｸ","streetKana":"ﾆｼｼﾝｼﾞｭｸｽﾐﾄﾓﾌﾄﾞｳｻﾝｼﾝｼﾞｭｸｸﾞﾗﾝﾄﾞﾀﾜｰ(18ｶｲ)","prefecture":"東京都","city":"新宿区","street":"西新宿住友不動産新宿グランドタワー（１８階）"},{"zipCode":"1606119","prefectureKana":"ﾄｳｷｮｳﾄ","cityKana":"ｼﾝｼﾞｭｸｸ","streetKana":"ﾆｼｼﾝｼﾞｭｸｽﾐﾄﾓﾌﾄﾞｳｻﾝｼﾝｼﾞｭｸｸﾞﾗﾝﾄﾞﾀﾜｰ(19ｶｲ)","prefecture":"東京都","city":"新宿区","street":"西新宿住友不動産新宿グランドタワー（１９階）"},{"zipCode":"1606120","prefectureKana":"ﾄｳｷｮｳﾄ","cityKana":"ｼﾝｼﾞｭｸｸ","streetKana":"ﾆｼｼﾝｼﾞｭｸｽﾐﾄﾓﾌﾄﾞｳｻﾝｼﾝｼﾞｭｸｸﾞﾗﾝﾄﾞﾀﾜｰ(20ｶｲ)","prefecture":"東京都","city":"新宿区","street":"西新宿住友不動産新宿グランドタワー（２０階）"},{"zipCode":"1606121","prefectureKana":"ﾄｳｷｮｳﾄ","cityKana":"ｼﾝｼﾞｭｸｸ","streetKana":"ﾆｼｼﾝｼﾞｭｸｽﾐﾄﾓﾌﾄﾞｳｻﾝｼﾝｼﾞｭｸｸﾞﾗﾝﾄﾞﾀﾜｰ(21ｶｲ)","prefecture":"東京都","city":"新宿区","street":"西新宿住友不動産新宿グランドタワー（２１階）"},{"zipCode":"1606122","prefectureKana":"ﾄｳｷｮｳﾄ","cityKana":"ｼﾝｼﾞｭｸｸ","streetKana":"ﾆｼｼﾝｼﾞｭｸｽﾐﾄﾓﾌﾄﾞｳｻﾝｼﾝｼﾞｭｸｸﾞﾗﾝﾄﾞﾀﾜｰ(22ｶｲ)","prefecture":"東京都","city":"新宿区","street":"西新宿住友不動産新宿グランドタワー（２２階）"},{"zipCode":"1606123","prefectureKana":"ﾄｳｷｮｳﾄ","cityKana":"ｼﾝｼﾞｭｸｸ","streetKana":"ﾆｼｼﾝｼﾞｭｸｽﾐﾄﾓﾌﾄﾞｳｻﾝｼﾝｼﾞｭｸｸﾞﾗﾝﾄﾞﾀﾜｰ(23ｶｲ)","prefecture":"東京都","city":"新宿区","street":"西新宿住友不動産新宿グランドタワー（２３階）"},{"zipCode":"1606124","prefectureKana":"ﾄｳｷｮｳﾄ","cityKana":"ｼﾝｼﾞｭｸｸ","streetKana":"ﾆｼｼﾝｼﾞｭｸｽﾐﾄﾓﾌﾄﾞｳｻﾝｼﾝｼﾞｭｸｸﾞﾗﾝﾄﾞﾀﾜｰ(24ｶｲ)","prefecture":"東京都","city":"新宿区","street":"西新宿住友不動産新宿グランドタワー（２４階）"},{"zipCode":"1606125","prefectureKana":"ﾄｳｷｮｳﾄ","cityKana":"ｼﾝｼﾞｭｸｸ","streetKana":"ﾆｼｼﾝｼﾞｭｸｽﾐﾄﾓﾌﾄﾞｳｻﾝｼﾝｼﾞｭｸｸﾞﾗﾝﾄﾞﾀﾜｰ(25ｶｲ)","prefecture":"東京都","city":"新宿区","street":"西新宿住友不動産新宿グランドタワー（２５階）"},{"zipCode":"1606126","prefectureKana":"ﾄｳｷｮｳﾄ","cityKana":"ｼﾝｼﾞｭｸｸ","streetKana":"ﾆｼｼﾝｼﾞｭｸｽﾐﾄﾓﾌﾄﾞｳｻﾝｼﾝｼﾞｭｸｸﾞﾗﾝﾄﾞﾀﾜｰ(26ｶｲ)","prefecture":"東京都","city":"新宿区","street":"西新宿住友不動産新宿グランドタワー（２６階）"},{"zipCode":"1606127","prefectureKana":"ﾄｳｷｮｳﾄ","cityKana":"ｼﾝｼﾞｭｸｸ","streetKana":"ﾆｼｼﾝｼﾞｭｸｽﾐﾄﾓﾌﾄﾞｳｻﾝｼﾝｼﾞｭｸｸﾞﾗﾝﾄﾞﾀﾜｰ(27ｶｲ)","prefecture":"東京都","city":"新宿区","street":"西新宿住友不動産新宿グランドタワー（２７階）"},{"zipCode":"1606128","prefectureKana":"ﾄｳｷｮｳﾄ","cityKana":"ｼﾝｼﾞｭｸｸ","streetKana":"ﾆｼｼﾝｼﾞｭｸｽﾐﾄﾓﾌﾄﾞｳｻﾝｼﾝｼﾞｭｸｸﾞﾗﾝﾄﾞﾀﾜｰ(28ｶｲ)","prefecture":"東京都","city":"新宿区","street":"西新宿住友不動産新宿グランドタワー（２８階）"},{"zipCode":"1606129","prefectureKana":"ﾄｳｷｮｳﾄ","cityKana":"ｼﾝｼﾞｭｸｸ","streetKana":"ﾆｼｼﾝｼﾞｭｸｽﾐﾄﾓﾌﾄﾞｳｻﾝｼﾝｼﾞｭｸｸﾞﾗﾝﾄﾞﾀﾜｰ(29ｶｲ)","prefecture":"東京都","city":"新宿区","street":"西新宿住友不動産新宿グランドタワー（２９階）"},{"zipCode":"1606130","prefectureKana":"ﾄｳｷｮｳﾄ","cityKana":"ｼﾝｼﾞｭｸｸ","streetKana":"ﾆｼｼﾝｼﾞｭｸｽﾐﾄﾓﾌﾄﾞｳｻﾝｼﾝｼﾞｭｸｸﾞﾗﾝﾄﾞﾀﾜｰ(30ｶｲ)","prefecture":"東京都","city":"新宿区","street":"西新宿住友不動産新宿グランドタワー（３０階）"},{"zipCode":"1606131","prefectureKana":"ﾄｳｷｮｳﾄ","cityKana":"ｼﾝｼﾞｭｸｸ","streetKana":"ﾆｼｼﾝｼﾞｭｸｽﾐﾄﾓﾌﾄﾞｳｻﾝｼﾝｼﾞｭｸｸﾞﾗﾝﾄﾞﾀﾜｰ(31ｶｲ)","prefecture":"東京都","city":"新宿区","street":"西新宿住友不動産新宿グランドタワー（３１階）"},{"zipCode":"1606132","prefectureKana":"ﾄｳｷｮｳﾄ","cityKana":"ｼﾝｼﾞｭｸｸ","streetKana":"ﾆｼｼﾝｼﾞｭｸｽﾐﾄﾓﾌﾄﾞｳｻﾝｼﾝｼﾞｭｸｸﾞﾗﾝﾄﾞﾀﾜｰ(32ｶｲ)","prefecture":"東京都","city":"新宿区","street":"西新宿住友不動産新宿グランドタワー（３２階）"},{"zipCode":"1606133","prefectureKana":"ﾄｳｷｮｳﾄ","cityKana":"ｼﾝｼﾞｭｸｸ","streetKana":"ﾆｼｼﾝｼﾞｭｸｽﾐﾄﾓﾌﾄﾞｳｻﾝｼﾝｼﾞｭｸｸﾞﾗﾝﾄﾞﾀﾜｰ(33ｶｲ)","prefecture":"東京都","city":"新宿区","street":"西新宿住友不動産新宿グランドタワー（３３階）"},{"zipCode":"1606134","prefectureKana":"ﾄｳｷｮｳﾄ","cityKana":"ｼﾝｼﾞｭｸｸ","streetKana":"ﾆｼｼﾝｼﾞｭｸｽﾐﾄﾓﾌﾄﾞｳｻﾝｼﾝｼﾞｭｸｸﾞﾗﾝﾄﾞﾀﾜｰ(34ｶｲ)","prefecture":"東京都","city":"新宿区","street":"西新宿住友不動産新宿グランドタワー（３４階）"},{"zipCode":"1606135","prefectureKana":"ﾄｳｷｮｳﾄ","cityKana":"ｼﾝｼﾞｭｸｸ","streetKana":"ﾆｼｼﾝｼﾞｭｸｽﾐﾄﾓﾌﾄﾞｳｻﾝｼﾝｼﾞｭｸｸﾞﾗﾝﾄﾞﾀﾜｰ(35ｶｲ)","prefecture":"東京都","city":"新宿区","street":"西新宿住友不動産新宿グランドタワー（３５階）"},{"zipCode":"1606136","prefectureKana":"ﾄｳｷｮｳﾄ","cityKana":"ｼﾝｼﾞｭｸｸ","streetKana":"ﾆｼｼﾝｼﾞｭｸｽﾐﾄﾓﾌﾄﾞｳｻﾝｼﾝｼﾞｭｸｸﾞﾗﾝﾄﾞﾀﾜｰ(36ｶｲ)","prefecture":"東京都","city":"新宿区","street":"西新宿住友不動産新宿グランドタワー（３６階）"},{"zipCode":"1606137","prefectureKana":"ﾄｳｷｮｳﾄ","cityKana":"ｼﾝｼﾞｭｸｸ","streetKana":"ﾆｼｼﾝｼﾞｭｸｽﾐﾄﾓﾌﾄﾞｳｻﾝｼﾝｼﾞｭｸｸﾞﾗﾝﾄﾞﾀﾜｰ(37ｶｲ)","prefecture":"東京都","city":"新宿区","street":"西新宿住友不動産新宿グランドタワー（３７階）"},{"zipCode":"1606138","prefectureKana":"ﾄｳｷｮｳﾄ","cityKana":"ｼﾝｼﾞｭｸｸ","streetKana":"ﾆｼｼﾝｼﾞｭｸｽﾐﾄﾓﾌﾄﾞｳｻﾝｼﾝｼﾞｭｸｸﾞﾗﾝﾄﾞﾀﾜｰ(38ｶｲ)","prefecture":"東京都","city":"新宿区","street":"西新宿住友不動産新宿グランドタワー（３８階）"},{"zipCode":"1606139","prefectureKana":"ﾄｳｷｮｳﾄ","cityKana":"ｼﾝｼﾞｭｸｸ","streetKana":"ﾆｼｼﾝｼﾞｭｸｽﾐﾄﾓﾌﾄﾞｳｻﾝｼﾝｼﾞｭｸｸﾞﾗﾝﾄﾞﾀﾜｰ(39ｶｲ)","prefecture":"東京都","city":"新宿区","street":"西新宿住友不動産新宿グランドタワー（３９階）"},{"zipCode":"1600006","prefectureKana":"ﾄｳｷｮｳﾄ","cityKana":"ｼﾝｼﾞｭｸｸ","streetKana":"ﾌﾅﾏﾁ","prefecture":"東京都","city":"新宿区","street":"舟町"},{"zipCode":"1600012","prefectureKana":"ﾄｳｷｮｳﾄ","cityKana":"ｼﾝｼﾞｭｸｸ","streetKana":"ﾐﾅﾐﾓﾄﾏﾁ","prefecture":"東京都","city":"新宿区","street":"南元町"},{"zipCode":"1600004","prefectureKana":"ﾄｳｷｮｳﾄ","cityKana":"ｼﾝｼﾞｭｸｸ","streetKana":"ﾖﾂﾔ","prefecture":"東京都","city":"新宿区","street":"四谷"},{"zipCode":"1600002","prefectureKana":"ﾄｳｷｮｳﾄ","cityKana":"ｼﾝｼﾞｭｸｸ","streetKana":"ﾖﾂﾔｻｶﾏﾁ","prefecture":"東京都","city":"新宿区","street":"四谷坂町"},{"zipCode":"1600008","prefectureKana":"ﾄｳｷｮｳﾄ","cityKana":"ｼﾝｼﾞｭｸｸ","streetKana":"ﾖﾂﾔｻﾝｴｲﾁｮｳ","prefecture":"東京都","city":"新宿区","street":"四谷三栄町"},{"zipCode":"1600003","prefectureKana":"ﾄｳｷｮｳﾄ","cityKana":"ｼﾝｼﾞｭｸｸ","streetKana":"ﾖﾂﾔﾎﾝｼｵﾁｮｳ","prefecture":"東京都","city":"新宿区","street":"四谷本塩町"},{"zipCode":"1600011","prefectureKana":"ﾄｳｷｮｳﾄ","cityKana":"ｼﾝｼﾞｭｸｸ","streetKana":"ﾜｶﾊﾞ","prefecture":"東京都","city":"新宿区","street":"若葉"}]