[{"zipCode":"1640000","prefectureKana":"ﾄｳｷｮｳﾄ","cityKana":"ﾅｶﾉｸ","streetKana":"ｲｶﾆｹｲｻｲｶﾞﾅｲﾊﾞｱｲ","prefecture":"東京都","city":"中野区","street":"以下に掲載がない場合"},{"zipCode":"1640002","prefectureKana":"ﾄｳｷｮｳﾄ","cityKana":"ﾅｶﾉｸ","streetKana":"ｶﾐﾀｶﾀﾞ","prefecture":"東京都","city":"中野区","street":"上高田"},{"zipCode":"1640011","prefectureKana":"ﾄｳｷｮｳﾄ","cityKana":"ﾅｶﾉｸ","streetKana":"ﾁｭｳｵｳ","prefecture":"東京都","city":"中野区","street":"中央"},{"zipCode":"1640001","prefectureKana":"ﾄｳｷｮｳﾄ","cityKana":"ﾅｶﾉｸ","streetKana":"ﾅｶﾉ","prefecture":"東京都","city":"中野区","street":"中野"},{"zipCode":"1640003","prefectureKana":"ﾄｳｷｮｳﾄ","cityKana":"ﾅｶﾉｸ","streetKana":"ﾋｶﾞｼﾅｶﾉ","prefecture":"東京都","city":"中野区","street":"東中野"},{"zipCode":"1640012","prefectureKana":"ﾄｳｷｮｳﾄ","cityKana":"ﾅｶﾉｸ","streetKana":"ﾎﾝﾁｮｳ","prefecture":"東京都","city":"中野区","street":"本町"},{"zipCode":"1640014","prefectureKana":"ﾄｳｷｮｳﾄ","cityKana":"ﾅｶﾉｸ","streetKana":"ﾐﾅﾐﾀﾞｲ","prefecture":"東京都","city":"中野区","street":"南台"},{"zipCode":"1640013","prefectureKana":"ﾄｳｷｮｳﾄ","cityKana":"ﾅｶﾉｸ","streetKana":"ﾔﾖｲﾁｮｳ","prefecture":"東京都","city":"中野区","street":"弥生町"}]