[{"zipCode":"1660000","prefectureKana":"ﾄｳｷｮｳﾄ","cityKana":"ｽｷﾞﾅﾐｸ","streetKana":"ｲｶﾆｹｲｻｲｶﾞﾅｲﾊﾞｱｲ","prefecture":"東京都","city":"杉並区","street":"以下に掲載がない場合"},{"zipCode":"1660004","prefectureKana":"ﾄｳｷｮｳﾄ","cityKana":"ｽｷﾞﾅﾐｸ","streetKana":"ｱｻｶﾞﾔﾐﾅﾐ","prefecture":"東京都","city":"杉並区","street":"阿佐谷南"},{"zipCode":"1660001","prefectureKana":"ﾄｳｷｮｳﾄ","cityKana":"ｽｷﾞﾅﾐｸ","streetKana":"ｱｻｶﾞﾔｷﾀ","prefecture":"東京都","city":"杉並区","street":"阿佐谷北"},{"zipCode":"1660011","prefectureKana":"ﾄｳｷｮｳﾄ","cityKana":"ｽｷﾞﾅﾐｸ","streetKana":"ｳﾒｻﾞﾄ","prefecture":"東京都","city":"杉並区","street":"梅里"},{"zipCode":"1660003","prefectureKana":"ﾄｳｷｮｳﾄ","cityKana":"ｽｷﾞﾅﾐｸ","streetKana":"ｺｳｴﾝｼﾞﾐﾅﾐ","prefecture":"東京都","city":"杉並区","street":"高円寺南"},{"zipCode":"1660002","prefectureKana":"ﾄｳｷｮｳﾄ","cityKana":"ｽｷﾞﾅﾐｸ","streetKana":"ｺｳｴﾝｼﾞｷﾀ","prefecture":"東京都","city":"杉並区","street":"高円寺北"},{"zipCode":"1660015","prefectureKana":"ﾄｳｷｮｳﾄ","cityKana":"ｽｷﾞﾅﾐｸ","streetKana":"ﾅﾘﾀﾋｶﾞｼ","prefecture":"東京都","city":"杉並区","street":"成田東"},{"zipCode":"1660016","prefectureKana":"ﾄｳｷｮｳﾄ","cityKana":"ｽｷﾞﾅﾐｸ","streetKana":"ﾅﾘﾀﾆｼ","prefecture":"東京都","city":"杉並区","street":"成田西"},{"zipCode":"1660013","prefectureKana":"ﾄｳｷｮｳﾄ","cityKana":"ｽｷﾞﾅﾐｸ","streetKana":"ﾎﾘﾉｳﾁ","prefecture":"東京都","city":"杉並区","street":"堀ノ内"},{"zipCode":"1660014","prefectureKana":"ﾄｳｷｮｳﾄ","cityKana":"ｽｷﾞﾅﾐｸ","streetKana":"ﾏﾂﾉｷ","prefecture":"東京都","city":"杉並区","street":"松ノ木"},{"zipCode":"1660012","prefectureKana":"ﾄｳｷｮｳﾄ","cityKana":"ｽｷﾞﾅﾐｸ","streetKana":"ﾜﾀﾞ","prefecture":"東京都","city":"杉並区","street":"和田"}]