[{"zipCode":"1680063","prefectureKana":"ﾄｳｷｮｳﾄ","cityKana":"ｽｷﾞﾅﾐｸ","streetKana":"ｲｽﾞﾐ","prefecture":"東京都","city":"杉並区","street":"和泉"},{"zipCode":"1680064","prefectureKana":"ﾄｳｷｮｳﾄ","cityKana":"ｽｷﾞﾅﾐｸ","streetKana":"ｴｲﾌｸ","prefecture":"東京都","city":"杉並区","street":"永福"},{"zipCode":"1680061","prefectureKana":"ﾄｳｷｮｳﾄ","cityKana":"ｽｷﾞﾅﾐｸ","streetKana":"ｵｵﾐﾔ","prefecture":"東京都","city":"杉並区","street":"大宮"},{"zipCode":"1680074","prefectureKana":"ﾄｳｷｮｳﾄ","cityKana":"ｽｷﾞﾅﾐｸ","streetKana":"ｶﾐﾀｶｲﾄﾞ","prefecture":"東京都","city":"杉並区","street":"上高井戸"},{"zipCode":"1680082","prefectureKana":"ﾄｳｷｮｳﾄ","cityKana":"ｽｷﾞﾅﾐｸ","streetKana":"ｸｶﾞﾔﾏ","prefecture":"東京都","city":"杉並区","street":"久我山"},{"zipCode":"1680073","prefectureKana":"ﾄｳｷｮｳﾄ","cityKana":"ｽｷﾞﾅﾐｸ","streetKana":"ｼﾓﾀｶｲﾄﾞ","prefecture":"東京都","city":"杉並区","street":"下高井戸"},{"zipCode":"1680072","prefectureKana":"ﾄｳｷｮｳﾄ","cityKana":"ｽｷﾞﾅﾐｸ","streetKana":"ﾀｶｲﾄﾞﾋｶﾞｼ","prefecture":"東京都","city":"杉並区","street":"高井戸東"},{"zipCode":"1680071","prefectureKana":"ﾄｳｷｮｳﾄ","cityKana":"ｽｷﾞﾅﾐｸ","streetKana":"ﾀｶｲﾄﾞﾆｼ","prefecture":"東京都","city":"杉並区","street":"高井戸西"},{"zipCode":"1680065","prefectureKana":"ﾄｳｷｮｳﾄ","cityKana":"ｽｷﾞﾅﾐｸ","streetKana":"ﾊﾏﾀﾞﾔﾏ","prefecture":"東京都","city":"杉並区","street":"浜田山"},{"zipCode":"1680062","prefectureKana":"ﾄｳｷｮｳﾄ","cityKana":"ｽｷﾞﾅﾐｸ","streetKana":"ﾎｳﾅﾝ","prefecture":"東京都","city":"杉並区","street":"方南"},{"zipCode":"1680081","prefectureKana":"ﾄｳｷｮｳﾄ","cityKana":"ｽｷﾞﾅﾐｸ","streetKana":"ﾐﾔﾏｴ","prefecture":"東京都","city":"杉並区","street":"宮前"}]