[{"zipCode":"1740000","prefectureKana":"ﾄｳｷｮｳﾄ","cityKana":"ｲﾀﾊﾞｼｸ","streetKana":"ｲｶﾆｹｲｻｲｶﾞﾅｲﾊﾞｱｲ","prefecture":"東京都","city":"板橋区","street":"以下に掲載がない場合"},{"zipCode":"1740044","prefectureKana":"ﾄｳｷｮｳﾄ","cityKana":"ｲﾀﾊﾞｼｸ","streetKana":"ｱｲｵｲﾁｮｳ","prefecture":"東京都","city":"板橋区","street":"相生町"},{"zipCode":"1740051","prefectureKana":"ﾄｳｷｮｳﾄ","cityKana":"ｲﾀﾊﾞｼｸ","streetKana":"ｱｽﾞｻﾜ","prefecture":"東京都","city":"板橋区","street":"小豆沢"},{"zipCode":"1740055","prefectureKana":"ﾄｳｷｮｳﾄ","cityKana":"ｲﾀﾊﾞｼｸ","streetKana":"ｲｽﾞﾐﾁｮｳ","prefecture":"東京都","city":"板橋区","street":"泉町"},{"zipCode":"1740061","prefectureKana":"ﾄｳｷｮｳﾄ","cityKana":"ｲﾀﾊﾞｼｸ","streetKana":"ｵｵﾊﾗﾁｮｳ","prefecture":"東京都","city":"板橋区","street":"大原町"},{"zipCode":"1740076","prefectureKana":"ﾄｳｷｮｳﾄ","cityKana":"ｲﾀﾊﾞｼｸ","streetKana":"ｶﾐｲﾀﾊﾞｼ","prefecture":"東京都","city":"板橋区","street":"上板橋"},{"zipCode":"1740043","prefectureKana":"ﾄｳｷｮｳﾄ","cityKana":"ｲﾀﾊﾞｼｸ","streetKana":"ｻｶｼﾀ","prefecture":"東京都","city":"板橋区","street":"坂下"},{"zipCode":"1740075","prefectureKana":"ﾄｳｷｮｳﾄ","cityKana":"ｲﾀﾊﾞｼｸ","streetKana":"ｻｸﾗｶﾞﾜ","prefecture":"東京都","city":"板橋区","street":"桜川"},{"zipCode":"1740053","prefectureKana":"ﾄｳｷｮｳﾄ","cityKana":"ｲﾀﾊﾞｼｸ","streetKana":"ｼﾐｽﾞﾁｮｳ","prefecture":"東京都","city":"板橋区","street":"清水町"},{"zipCode":"1740056","prefectureKana":"ﾄｳｷｮｳﾄ","cityKana":"ｲﾀﾊﾞｼｸ","streetKana":"ｼﾑﾗ","prefecture":"東京都","city":"板橋区","street":"志村"},{"zipCode":"1740074","prefectureKana":"ﾄｳｷｮｳﾄ","cityKana":"ｲﾀﾊﾞｼｸ","streetKana":"ﾄｳｼﾝﾁｮｳ","prefecture":"東京都","city":"板橋区","street":"東新町"},{"zipCode":"1740071","prefectureKana":"ﾄｳｷｮｳﾄ","cityKana":"ｲﾀﾊﾞｼｸ","streetKana":"ﾄｷﾜﾀﾞｲ","prefecture":"東京都","city":"板橋区","street":"常盤台"},{"zipCode":"1740064","prefectureKana":"ﾄｳｷｮｳﾄ","cityKana":"ｲﾀﾊﾞｼｸ","streetKana":"ﾅｶﾀﾞｲ","prefecture":"東京都","city":"板橋区","street":"中台"},{"zipCode":"1740045","prefectureKana":"ﾄｳｷｮｳﾄ","cityKana":"ｲﾀﾊﾞｼｸ","streetKana":"ﾆｼﾀﾞｲ(1ﾁｮｳﾒ)","prefecture":"東京都","city":"板橋区","street":"西台（１丁目）"},{"zipCode":"1740052","prefectureKana":"ﾄｳｷｮｳﾄ","cityKana":"ｲﾀﾊﾞｼｸ","streetKana":"ﾊｽﾇﾏﾁｮｳ","prefecture":"東京都","city":"板橋区","street":"蓮沼町"},{"zipCode":"1740046","prefectureKana":"ﾄｳｷｮｳﾄ","cityKana":"ｲﾀﾊﾞｼｸ","streetKana":"ﾊｽﾈ","prefecture":"東京都","city":"板橋区","street":"蓮根"},{"zipCode":"1740042","prefectureKana":"ﾄｳｷｮｳﾄ","cityKana":"ｲﾀﾊﾞｼｸ","streetKana":"ﾋｶﾞｼｻｶｼﾀ","prefecture":"東京都","city":"板橋区","street":"東坂下"},{"zipCode":"1740073","prefectureKana":"ﾄｳｷｮｳﾄ","cityKana":"ｲﾀﾊﾞｼｸ","streetKana":"ﾋｶﾞｼﾔﾏﾁｮｳ","prefecture":"東京都","city":"板橋区","street":"東山町"},{"zipCode":"1740062","prefectureKana":"ﾄｳｷｮｳﾄ","cityKana":"ｲﾀﾊﾞｼｸ","streetKana":"ﾌｼﾞﾐﾁｮｳ","prefecture":"東京都","city":"板橋区","street":"富士見町"},{"zipCode":"1740041","prefectureKana":"ﾄｳｷｮｳﾄ","cityKana":"ｲﾀﾊﾞｼｸ","streetKana":"ﾌﾅﾄﾞ","prefecture":"東京都","city":"板橋区","street":"舟渡"},{"zipCode":"1740063","prefectureKana":"ﾄｳｷｮｳﾄ","cityKana":"ｲﾀﾊﾞｼｸ","streetKana":"ﾏｴﾉﾁｮｳ","prefecture":"東京都","city":"板橋区","street":"前野町"},{"zipCode":"1740072","prefectureKana":"ﾄｳｷｮｳﾄ","cityKana":"ｲﾀﾊﾞｼｸ","streetKana":"ﾐﾅﾐﾄｷﾜﾀﾞｲ","prefecture":"東京都","city":"板橋区","street":"南常盤台"},{"zipCode":"1740054","prefectureKana":"ﾄｳｷｮｳﾄ","cityKana":"ｲﾀﾊﾞｼｸ","streetKana":"ﾐﾔﾓﾄﾁｮｳ","prefecture":"東京都","city":"板橋区","street":"宮本町"},{"zipCode":"1740065","prefectureKana":"ﾄｳｷｮｳﾄ","cityKana":"ｲﾀﾊﾞｼｸ","streetKana":"ﾜｶｷﾞ","prefecture":"東京都","city":"板橋区","street":"若木"}]