[{"zipCode":"1810000","prefectureKana":"ﾄｳｷｮｳﾄ","cityKana":"ﾐﾀｶｼ","streetKana":"ｲｶﾆｹｲｻｲｶﾞﾅｲﾊﾞｱｲ","prefecture":"東京都","city":"三鷹市","street":"以下に掲載がない場合"},{"zipCode":"1810011","prefectureKana":"ﾄｳｷｮｳﾄ","cityKana":"ﾐﾀｶｼ","streetKana":"ｲｸﾞﾁ","prefecture":"東京都","city":"三鷹市","street":"井口"},{"zipCode":"1810001","prefectureKana":"ﾄｳｷｮｳﾄ","cityKana":"ﾐﾀｶｼ","streetKana":"ｲﾉｶｼﾗ","prefecture":"東京都","city":"三鷹市","street":"井の頭"},{"zipCode":"1810015","prefectureKana":"ﾄｳｷｮｳﾄ","cityKana":"ﾐﾀｶｼ","streetKana":"ｵｵｻﾜ","prefecture":"東京都","city":"三鷹市","street":"大沢"},{"zipCode":"1810012","prefectureKana":"ﾄｳｷｮｳﾄ","cityKana":"ﾐﾀｶｼ","streetKana":"ｶﾐﾚﾝｼﾞｬｸ","prefecture":"東京都","city":"三鷹市","street":"上連雀"},{"zipCode":"1810003","prefectureKana":"ﾄｳｷｮｳﾄ","cityKana":"ﾐﾀｶｼ","streetKana":"ｷﾀﾉ","prefecture":"東京都","city":"三鷹市","street":"北野"},{"zipCode":"1810013","prefectureKana":"ﾄｳｷｮｳﾄ","cityKana":"ﾐﾀｶｼ","streetKana":"ｼﾓﾚﾝｼﾞｬｸ","prefecture":"東京都","city":"三鷹市","street":"下連雀"},{"zipCode":"1810004","prefectureKana":"ﾄｳｷｮｳﾄ","cityKana":"ﾐﾀｶｼ","streetKana":"ｼﾝｶﾜ","prefecture":"東京都","city":"三鷹市","street":"新川"},{"zipCode":"1810016","prefectureKana":"ﾄｳｷｮｳﾄ","cityKana":"ﾐﾀｶｼ","streetKana":"ｼﾞﾝﾀﾞｲｼﾞ","prefecture":"東京都","city":"三鷹市","street":"深大寺"},{"zipCode":"1810005","prefectureKana":"ﾄｳｷｮｳﾄ","cityKana":"ﾐﾀｶｼ","streetKana":"ﾅｶﾊﾗ","prefecture":"東京都","city":"三鷹市","street":"中原"},{"zipCode":"1810014","prefectureKana":"ﾄｳｷｮｳﾄ","cityKana":"ﾐﾀｶｼ","streetKana":"ﾉｻﾞｷ","prefecture":"東京都","city":"三鷹市","street":"野崎"},{"zipCode":"1810002","prefectureKana":"ﾄｳｷｮｳﾄ","cityKana":"ﾐﾀｶｼ","streetKana":"ﾑﾚ","prefecture":"東京都","city":"三鷹市","street":"牟礼"}]