[{"zipCode":"1820000","prefectureKana":"ﾄｳｷｮｳﾄ","cityKana":"ﾁｮｳﾌｼ","streetKana":"ｲｶﾆｹｲｻｲｶﾞﾅｲﾊﾞｱｲ","prefecture":"東京都","city":"調布市","street":"以下に掲載がない場合"},{"zipCode":"1820004","prefectureKana":"ﾄｳｷｮｳﾄ","cityKana":"ﾁｮｳﾌｼ","streetKana":"ｲﾘﾏﾁｮｳ","prefecture":"東京都","city":"調布市","street":"入間町"},{"zipCode":"1820035","prefectureKana":"ﾄｳｷｮｳﾄ","cityKana":"ﾁｮｳﾌｼ","streetKana":"ｶﾐｲｼﾜﾗ","prefecture":"東京都","city":"調布市","street":"上石原"},{"zipCode":"1820007","prefectureKana":"ﾄｳｷｮｳﾄ","cityKana":"ﾁｮｳﾌｼ","streetKana":"ｷｸﾉﾀﾞｲ","prefecture":"東京都","city":"調布市","street":"菊野台"},{"zipCode":"1820022","prefectureKana":"ﾄｳｷｮｳﾄ","cityKana":"ﾁｮｳﾌｼ","streetKana":"ｺｸﾘｮｳﾁｮｳ","prefecture":"東京都","city":"調布市","street":"国領町"},{"zipCode":"1820026","prefectureKana":"ﾄｳｷｮｳﾄ","cityKana":"ﾁｮｳﾌｼ","streetKana":"ｺｼﾞﾏﾁｮｳ","prefecture":"東京都","city":"調布市","street":"小島町"},{"zipCode":"1820016","prefectureKana":"ﾄｳｷｮｳﾄ","cityKana":"ﾁｮｳﾌｼ","streetKana":"ｻｽﾞﾏﾁ","prefecture":"東京都","city":"調布市","street":"佐須町"},{"zipCode":"1820014","prefectureKana":"ﾄｳｷｮｳﾄ","cityKana":"ﾁｮｳﾌｼ","streetKana":"ｼﾊﾞｻｷ","prefecture":"東京都","city":"調布市","street":"柴崎"},{"zipCode":"1820034","prefectureKana":"ﾄｳｷｮｳﾄ","cityKana":"ﾁｮｳﾌｼ","streetKana":"ｼﾓｲｼﾜﾗ","prefecture":"東京都","city":"調布市","street":"下石原"},{"zipCode":"1820012","prefectureKana":"ﾄｳｷｮｳﾄ","cityKana":"ﾁｮｳﾌｼ","streetKana":"ｼﾞﾝﾀﾞｲｼﾞﾋｶﾞｼﾏﾁ","prefecture":"東京都","city":"調布市","street":"深大寺東町"},{"zipCode":"1820013","prefectureKana":"ﾄｳｷｮｳﾄ","cityKana":"ﾁｮｳﾌｼ","streetKana":"ｼﾞﾝﾀﾞｲｼﾞﾐﾅﾐﾏﾁ","prefecture":"東京都","city":"調布市","street":"深大寺南町"},{"zipCode":"1820011","prefectureKana":"ﾄｳｷｮｳﾄ","cityKana":"ﾁｮｳﾌｼ","streetKana":"ｼﾞﾝﾀﾞｲｼﾞｷﾀﾏﾁ","prefecture":"東京都","city":"調布市","street":"深大寺北町"},{"zipCode":"1820017","prefectureKana":"ﾄｳｷｮｳﾄ","cityKana":"ﾁｮｳﾌｼ","streetKana":"ｼﾞﾝﾀﾞｲｼﾞﾓﾄﾏﾁ","prefecture":"東京都","city":"調布市","street":"深大寺元町"},{"zipCode":"1820002","prefectureKana":"ﾄｳｷｮｳﾄ","cityKana":"ﾁｮｳﾌｼ","streetKana":"ｾﾝｶﾞﾜﾁｮｳ","prefecture":"東京都","city":"調布市","street":"仙川町"},{"zipCode":"1820023","prefectureKana":"ﾄｳｷｮｳﾄ","cityKana":"ﾁｮｳﾌｼ","streetKana":"ｿﾒﾁ","prefecture":"東京都","city":"調布市","street":"染地"},{"zipCode":"1820025","prefectureKana":"ﾄｳｷｮｳﾄ","cityKana":"ﾁｮｳﾌｼ","streetKana":"ﾀﾏｶﾞﾜ","prefecture":"東京都","city":"調布市","street":"多摩川"},{"zipCode":"1820021","prefectureKana":"ﾄｳｷｮｳﾄ","cityKana":"ﾁｮｳﾌｼ","streetKana":"ﾁｮｳﾌｶﾞｵｶ","prefecture":"東京都","city":"調布市","street":"調布ケ丘"},{"zipCode":"1820036","prefectureKana":"ﾄｳｷｮｳﾄ","cityKana":"ﾁｮｳﾌｼ","streetKana":"ﾄﾋﾞﾀｷｭｳ","prefecture":"東京都","city":"調布市","street":"飛田給"},{"zipCode":"1820006","prefectureKana":"ﾄｳｷｮｳﾄ","cityKana":"ﾁｮｳﾌｼ","streetKana":"ﾆｼﾂﾂｼﾞｶﾞｵｶ","prefecture":"東京都","city":"調布市","street":"西つつじケ丘"},{"zipCode":"1820032","prefectureKana":"ﾄｳｷｮｳﾄ","cityKana":"ﾁｮｳﾌｼ","streetKana":"ﾆｼﾏﾁ","prefecture":"東京都","city":"調布市","street":"西町"},{"zipCode":"1820031","prefectureKana":"ﾄｳｷｮｳﾄ","cityKana":"ﾁｮｳﾌｼ","streetKana":"ﾉﾐｽﾞ","prefecture":"東京都","city":"調布市","street":"野水"},{"zipCode":"1820005","prefectureKana":"ﾄｳｷｮｳﾄ","cityKana":"ﾁｮｳﾌｼ","streetKana":"ﾋｶﾞｼﾂﾂｼﾞｶﾞｵｶ","prefecture":"東京都","city":"調布市","street":"東つつじケ丘"},{"zipCode":"1820033","prefectureKana":"ﾄｳｷｮｳﾄ","cityKana":"ﾁｮｳﾌｼ","streetKana":"ﾌｼﾞﾐﾁｮｳ","prefecture":"東京都","city":"調布市","street":"富士見町"},{"zipCode":"1820024","prefectureKana":"ﾄｳｷｮｳﾄ","cityKana":"ﾁｮｳﾌｼ","streetKana":"ﾌﾀﾞ","prefecture":"東京都","city":"調布市","street":"布田"},{"zipCode":"1820001","prefectureKana":"ﾄｳｷｮｳﾄ","cityKana":"ﾁｮｳﾌｼ","streetKana":"ﾐﾄﾞﾘｶﾞｵｶ","prefecture":"東京都","city":"調布市","street":"緑ケ丘"},{"zipCode":"1820015","prefectureKana":"ﾄｳｷｮｳﾄ","cityKana":"ﾁｮｳﾌｼ","streetKana":"ﾔｸﾞﾓﾀﾞｲ","prefecture":"東京都","city":"調布市","street":"八雲台"},{"zipCode":"1820003","prefectureKana":"ﾄｳｷｮｳﾄ","cityKana":"ﾁｮｳﾌｼ","streetKana":"ﾜｶﾊﾞﾁｮｳ","prefecture":"東京都","city":"調布市","street":"若葉町"}]