[{"zipCode":"1920000","prefectureKana":"ﾄｳｷｮｳﾄ","cityKana":"ﾊﾁｵｳｼﾞｼ","streetKana":"ｲｶﾆｹｲｻｲｶﾞﾅｲﾊﾞｱｲ","prefecture":"東京都","city":"八王子市","street":"以下に掲載がない場合"},{"zipCode":"1920043","prefectureKana":"ﾄｳｷｮｳﾄ","cityKana":"ﾊﾁｵｳｼﾞｼ","streetKana":"ｱｶﾂｷﾁｮｳ","prefecture":"東京都","city":"八王子市","street":"暁町"},{"zipCode":"1920083","prefectureKana":"ﾄｳｷｮｳﾄ","cityKana":"ﾊﾁｵｳｼﾞｼ","streetKana":"ｱｻﾋﾁｮｳ","prefecture":"東京都","city":"八王子市","street":"旭町"},{"zipCode":"1920082","prefectureKana":"ﾄｳｷｮｳﾄ","cityKana":"ﾊﾁｵｳｼﾞｼ","streetKana":"ｱｽﾞﾏﾁｮｳ","prefecture":"東京都","city":"八王子市","street":"東町"},{"zipCode":"1920032","prefectureKana":"ﾄｳｷｮｳﾄ","cityKana":"ﾊﾁｵｳｼﾞｼ","streetKana":"ｲｼｶﾜﾏﾁ","prefecture":"東京都","city":"八王子市","street":"石川町"},{"zipCode":"1920902","prefectureKana":"ﾄｳｷｮｳﾄ","cityKana":"ﾊﾁｵｳｼﾞｼ","streetKana":"ｳｴﾉﾏﾁ","prefecture":"東京都","city":"八王子市","street":"上野町"},{"zipCode":"1920911","prefectureKana":"ﾄｳｷｮｳﾄ","cityKana":"ﾊﾁｵｳｼﾞｼ","streetKana":"ｳﾁｺｼﾏﾁ","prefecture":"東京都","city":"八王子市","street":"打越町"},{"zipCode":"1920024","prefectureKana":"ﾄｳｷｮｳﾄ","cityKana":"ﾊﾁｵｳｼﾞｼ","streetKana":"ｳﾂｷﾏﾁ","prefecture":"東京都","city":"八王子市","street":"宇津木町"},{"zipCode":"1920915","prefectureKana":"ﾄｳｷｮｳﾄ","cityKana":"ﾊﾁｵｳｼﾞｼ","streetKana":"ｳﾂﾇｷﾏﾁ","prefecture":"東京都","city":"八王子市","street":"宇津貫町"},{"zipCode":"1920013","prefectureKana":"ﾄｳｷｮｳﾄ","cityKana":"ﾊﾁｵｳｼﾞｼ","streetKana":"ｳﾒﾂﾎﾞﾏﾁ","prefecture":"東京都","city":"八王子市","street":"梅坪町"},{"zipCode":"1920056","prefectureKana":"ﾄｳｷｮｳﾄ","cityKana":"ﾊﾁｵｳｼﾞｼ","streetKana":"ｵｲﾜｹﾁｮｳ","prefecture":"東京都","city":"八王子市","street":"追分町"},{"zipCode":"1920352","prefectureKana":"ﾄｳｷｮｳﾄ","cityKana":"ﾊﾁｵｳｼﾞｼ","streetKana":"ｵｵﾂｶ","prefecture":"東京都","city":"八王子市","street":"大塚"},{"zipCode":"1920034","prefectureKana":"ﾄｳｷｮｳﾄ","cityKana":"ﾊﾁｵｳｼﾞｼ","streetKana":"ｵｵﾔﾏﾁ","prefecture":"東京都","city":"八王子市","street":"大谷町"},{"zipCode":"1920062","prefectureKana":"ﾄｳｷｮｳﾄ","cityKana":"ﾊﾁｵｳｼﾞｼ","streetKana":"ｵｵﾖｺﾁｮｳ","prefecture":"東京都","city":"八王子市","street":"大横町"},{"zipCode":"1920045","prefectureKana":"ﾄｳｷｮｳﾄ","cityKana":"ﾊﾁｵｳｼﾞｼ","streetKana":"ｵｵﾜﾀﾞﾏﾁ","prefecture":"東京都","city":"八王子市","street":"大和田町"},{"zipCode":"1920054","prefectureKana":"ﾄｳｷｮｳﾄ","cityKana":"ﾊﾁｵｳｼﾞｼ","streetKana":"ｵｶﾄﾞﾏﾁ","prefecture":"東京都","city":"八王子市","street":"小門町"},{"zipCode":"1920025","prefectureKana":"ﾄｳｷｮｳﾄ","cityKana":"ﾊﾁｵｳｼﾞｼ","streetKana":"ｵｻｷﾏﾁ","prefecture":"東京都","city":"八王子市","street":"尾崎町"},{"zipCode":"1920155","prefectureKana":"ﾄｳｷｮｳﾄ","cityKana":"ﾊﾁｵｳｼﾞｼ","streetKana":"ｵﾂﾏﾁ","prefecture":"東京都","city":"八王子市","street":"小津町"},{"zipCode":"1920353","prefectureKana":"ﾄｳｷｮｳﾄ","cityKana":"ﾊﾁｵｳｼﾞｼ","streetKana":"ｶｼﾏ","prefecture":"東京都","city":"八王子市","street":"鹿島"},{"zipCode":"1920004","prefectureKana":"ﾄｳｷｮｳﾄ","cityKana":"ﾊﾁｵｳｼﾞｼ","streetKana":"ｶｽﾐﾏﾁ","prefecture":"東京都","city":"八王子市","street":"加住町"},{"zipCode":"1920914","prefectureKana":"ﾄｳｷｮｳﾄ","cityKana":"ﾊﾁｵｳｼﾞｼ","streetKana":"ｶﾀｸﾗﾏﾁ","prefecture":"東京都","city":"八王子市","street":"片倉町"},{"zipCode":"1920156","prefectureKana":"ﾄｳｷｮｳﾄ","cityKana":"ﾊﾁｵｳｼﾞｼ","streetKana":"ｶﾐｵﾝｶﾞﾀﾏﾁ","prefecture":"東京都","city":"八王子市","street":"上恩方町"},{"zipCode":"1920151","prefectureKana":"ﾄｳｷｮｳﾄ","cityKana":"ﾊﾁｵｳｼﾞｼ","streetKana":"ｶﾐｶﾜﾏﾁ","prefecture":"東京都","city":"八王子市","street":"上川町"},{"zipCode":"1920373","prefectureKana":"ﾄｳｷｮｳﾄ","cityKana":"ﾊﾁｵｳｼﾞｼ","streetKana":"ｶﾐﾕｷﾞ","prefecture":"東京都","city":"八王子市","street":"上柚木"},{"zipCode":"1920913","prefectureKana":"ﾄｳｷｮｳﾄ","cityKana":"ﾊﾁｵｳｼﾞｼ","streetKana":"ｷﾀﾉﾀﾞｲ","prefecture":"東京都","city":"八王子市","street":"北野台"},{"zipCode":"1920906","prefectureKana":"ﾄｳｷｮｳﾄ","cityKana":"ﾊﾁｵｳｼﾞｼ","streetKana":"ｷﾀﾉﾏﾁ","prefecture":"東京都","city":"八王子市","street":"北野町"},{"zipCode":"1920912","prefectureKana":"ﾄｳｷｮｳﾄ","cityKana":"ﾊﾁｵｳｼﾞｼ","streetKana":"ｷﾇｶﾞｵｶ","prefecture":"東京都","city":"八王子市","street":"絹ケ丘"},{"zipCode":"1920023","prefectureKana":"ﾄｳｷｮｳﾄ","cityKana":"ﾊﾁｵｳｼﾞｼ","streetKana":"ｸﾎﾞﾔﾏﾁｮｳ","prefecture":"東京都","city":"八王子市","street":"久保山町"},{"zipCode":"1920361","prefectureKana":"ﾄｳｷｮｳﾄ","cityKana":"ﾊﾁｵｳｼﾞｼ","streetKana":"ｺｼﾉ","prefecture":"東京都","city":"八王子市","street":"越野"},{"zipCode":"1920031","prefectureKana":"ﾄｳｷｮｳﾄ","cityKana":"ﾊﾁｵｳｼﾞｼ","streetKana":"ｺﾐﾔﾏﾁ","prefecture":"東京都","city":"八王子市","street":"小宮町"},{"zipCode":"1920904","prefectureKana":"ﾄｳｷｮｳﾄ","cityKana":"ﾊﾁｵｳｼﾞｼ","streetKana":"ｺﾔｽﾏﾁ","prefecture":"東京都","city":"八王子市","street":"子安町"},{"zipCode":"1920012","prefectureKana":"ﾄｳｷｮｳﾄ","cityKana":"ﾊﾁｵｳｼﾞｼ","streetKana":"ｻﾆｭｳﾏﾁ","prefecture":"東京都","city":"八王子市","street":"左入町"},{"zipCode":"1920154","prefectureKana":"ﾄｳｷｮｳﾄ","cityKana":"ﾊﾁｵｳｼﾞｼ","streetKana":"ｼﾓｵﾝｶﾞﾀﾏﾁ","prefecture":"東京都","city":"八王子市","street":"下恩方町"},{"zipCode":"1920372","prefectureKana":"ﾄｳｷｮｳﾄ","cityKana":"ﾊﾁｵｳｼﾞｼ","streetKana":"ｼﾓﾕｷﾞ","prefecture":"東京都","city":"八王子市","street":"下柚木"},{"zipCode":"1920065","prefectureKana":"ﾄｳｷｮｳﾄ","cityKana":"ﾊﾁｵｳｼﾞｼ","streetKana":"ｼﾝﾁｮｳ","prefecture":"東京都","city":"八王子市","street":"新町"},{"zipCode":"1920022","prefectureKana":"ﾄｳｷｮｳﾄ","cityKana":"ﾊﾁｵｳｼﾞｼ","streetKana":"ﾀｲﾗﾏﾁ","prefecture":"東京都","city":"八王子市","street":"平町"},{"zipCode":"1920033","prefectureKana":"ﾄｳｷｮｳﾄ","cityKana":"ﾊﾁｵｳｼﾞｼ","streetKana":"ﾀｶｸﾗﾏﾁ","prefecture":"東京都","city":"八王子市","street":"高倉町"},{"zipCode":"1920002","prefectureKana":"ﾄｳｷｮｳﾄ","cityKana":"ﾊﾁｵｳｼﾞｼ","streetKana":"ﾀｶﾂｷﾏﾁ","prefecture":"東京都","city":"八王子市","street":"高月町"},{"zipCode":"1920011","prefectureKana":"ﾄｳｷｮｳﾄ","cityKana":"ﾊﾁｵｳｼﾞｼ","streetKana":"ﾀｷﾔﾏﾏﾁ","prefecture":"東京都","city":"八王子市","street":"滝山町"},{"zipCode":"1920064","prefectureKana":"ﾄｳｷｮｳﾄ","cityKana":"ﾊﾁｵｳｼﾞｼ","streetKana":"ﾀﾏﾁ","prefecture":"東京都","city":"八王子市","street":"田町"},{"zipCode":"1920003","prefectureKana":"ﾄｳｷｮｳﾄ","cityKana":"ﾊﾁｵｳｼﾞｼ","streetKana":"ﾀﾝｷﾞﾏﾁ","prefecture":"東京都","city":"八王子市","street":"丹木町"},{"zipCode":"1920073","prefectureKana":"ﾄｳｷｮｳﾄ","cityKana":"ﾊﾁｵｳｼﾞｼ","streetKana":"ﾃﾗﾏﾁ","prefecture":"東京都","city":"八王子市","street":"寺町"},{"zipCode":"1920074","prefectureKana":"ﾄｳｷｮｳﾄ","cityKana":"ﾊﾁｵｳｼﾞｼ","streetKana":"ﾃﾝｼﾞﾝﾁｮｳ","prefecture":"東京都","city":"八王子市","street":"天神町"},{"zipCode":"1920001","prefectureKana":"ﾄｳｷｮｳﾄ","cityKana":"ﾊﾁｵｳｼﾞｼ","streetKana":"ﾄﾌﾞｷﾏﾁ","prefecture":"東京都","city":"八王子市","street":"戸吹町"},{"zipCode":"1920085","prefectureKana":"ﾄｳｷｮｳﾄ","cityKana":"ﾊﾁｵｳｼﾞｼ","streetKana":"ﾅｶﾁｮｳ","prefecture":"東京都","city":"八王子市","street":"中町"},{"zipCode":"1920041","prefectureKana":"ﾄｳｷｮｳﾄ","cityKana":"ﾊﾁｵｳｼﾞｼ","streetKana":"ﾅｶﾉｶﾐﾁｮｳ","prefecture":"東京都","city":"八王子市","street":"中野上町"},{"zipCode":"1920042","prefectureKana":"ﾄｳｷｮｳﾄ","cityKana":"ﾊﾁｵｳｼﾞｼ","streetKana":"ﾅｶﾉｻﾝﾉｳ","prefecture":"東京都","city":"八王子市","street":"中野山王"},{"zipCode":"1920015","prefectureKana":"ﾄｳｷｮｳﾄ","cityKana":"ﾊﾁｵｳｼﾞｼ","streetKana":"ﾅｶﾉﾏﾁ","prefecture":"東京都","city":"八王子市","street":"中野町"},{"zipCode":"1920374","prefectureKana":"ﾄｳｷｮｳﾄ","cityKana":"ﾊﾁｵｳｼﾞｼ","streetKana":"ﾅｶﾔﾏ","prefecture":"東京都","city":"八王子市","street":"中山"},{"zipCode":"1920907","prefectureKana":"ﾄｳｷｮｳﾄ","cityKana":"ﾊﾁｵｳｼﾞｼ","streetKana":"ﾅｶﾞﾇﾏﾏﾁ","prefecture":"東京都","city":"八王子市","street":"長沼町"},{"zipCode":"1920919","prefectureKana":"ﾄｳｷｮｳﾄ","cityKana":"ﾊﾁｵｳｼﾞｼ","streetKana":"ﾅﾅｸﾆ","prefecture":"東京都","city":"八王子市","street":"七国"},{"zipCode":"1920371","prefectureKana":"ﾄｳｷｮｳﾄ","cityKana":"ﾊﾁｵｳｼﾞｼ","streetKana":"ﾅﾝﾖｳﾀﾞｲ","prefecture":"東京都","city":"八王子市","street":"南陽台"},{"zipCode":"1920917","prefectureKana":"ﾄｳｷｮｳﾄ","cityKana":"ﾊﾁｵｳｼﾞｼ","streetKana":"ﾆｼｶﾀｸﾗ","prefecture":"東京都","city":"八王子市","street":"西片倉"},{"zipCode":"1920153","prefectureKana":"ﾄｳｷｮｳﾄ","cityKana":"ﾊﾁｵｳｼﾞｼ","streetKana":"ﾆｼﾃﾗｶﾀﾏﾁ","prefecture":"東京都","city":"八王子市","street":"西寺方町"},{"zipCode":"1920053","prefectureKana":"ﾄｳｷｮｳﾄ","cityKana":"ﾊﾁｵｳｼﾞｼ","streetKana":"ﾊﾁﾏﾝﾁｮｳ","prefecture":"東京都","city":"八王子市","street":"八幡町"},{"zipCode":"1920351","prefectureKana":"ﾄｳｷｮｳﾄ","cityKana":"ﾊﾁｵｳｼﾞｼ","streetKana":"ﾋｶﾞｼﾅｶﾉ","prefecture":"東京都","city":"八王子市","street":"東中野"},{"zipCode":"1920918","prefectureKana":"ﾄｳｷｮｳﾄ","cityKana":"ﾊﾁｵｳｼﾞｼ","streetKana":"ﾋｮｳｴ","prefecture":"東京都","city":"八王子市","street":"兵衛"},{"zipCode":"1920061","prefectureKana":"ﾄｳｷｮｳﾄ","cityKana":"ﾊﾁｵｳｼﾞｼ","streetKana":"ﾋﾗｵｶﾁｮｳ","prefecture":"東京都","city":"八王子市","street":"平岡町"},{"zipCode":"1920044","prefectureKana":"ﾄｳｷｮｳﾄ","cityKana":"ﾊﾁｵｳｼﾞｼ","streetKana":"ﾌｼﾞﾐﾁｮｳ","prefecture":"東京都","city":"八王子市","street":"富士見町"},{"zipCode":"1920363","prefectureKana":"ﾄｳｷｮｳﾄ","cityKana":"ﾊﾁｵｳｼﾞｼ","streetKana":"ﾍﾞｯｼｮ","prefecture":"東京都","city":"八王子市","street":"別所"},{"zipCode":"1920355","prefectureKana":"ﾄｳｷｮｳﾄ","cityKana":"ﾊﾁｵｳｼﾞｼ","streetKana":"ﾎﾘﾉｳﾁ","prefecture":"東京都","city":"八王子市","street":"堀之内"},{"zipCode":"1920052","prefectureKana":"ﾄｳｷｮｳﾄ","cityKana":"ﾊﾁｵｳｼﾞｼ","streetKana":"ﾎﾝｺﾞｳﾁｮｳ","prefecture":"東京都","city":"八王子市","street":"本郷町"},{"zipCode":"1920066","prefectureKana":"ﾄｳｷｮｳﾄ","cityKana":"ﾊﾁｵｳｼﾞｼ","streetKana":"ﾎﾝﾁｮｳ","prefecture":"東京都","city":"八王子市","street":"本町"},{"zipCode":"1920354","prefectureKana":"ﾄｳｷｮｳﾄ","cityKana":"ﾊﾁｵｳｼﾞｼ","streetKana":"ﾏﾂｶﾞﾔ","prefecture":"東京都","city":"八王子市","street":"松が谷"},{"zipCode":"1920362","prefectureKana":"ﾄｳｷｮｳﾄ","cityKana":"ﾊﾁｵｳｼﾞｼ","streetKana":"ﾏﾂｷﾞ","prefecture":"東京都","city":"八王子市","street":"松木"},{"zipCode":"1920021","prefectureKana":"ﾄｳｷｮｳﾄ","cityKana":"ﾊﾁｵｳｼﾞｼ","streetKana":"ﾏﾙﾔﾏﾁｮｳ","prefecture":"東京都","city":"八王子市","street":"丸山町"},{"zipCode":"1920084","prefectureKana":"ﾄｳｷｮｳﾄ","cityKana":"ﾊﾁｵｳｼﾞｼ","streetKana":"ﾐｻｷﾁｮｳ","prefecture":"東京都","city":"八王子市","street":"三崎町"},{"zipCode":"1920014","prefectureKana":"ﾄｳｷｮｳﾄ","cityKana":"ﾊﾁｵｳｼﾞｼ","streetKana":"ﾐﾂｲﾀﾞｲ","prefecture":"東京都","city":"八王子市","street":"みつい台"},{"zipCode":"1920364","prefectureKana":"ﾄｳｷｮｳﾄ","cityKana":"ﾊﾁｵｳｼﾞｼ","streetKana":"ﾐﾅﾐｵｵｻﾜ","prefecture":"東京都","city":"八王子市","street":"南大沢"},{"zipCode":"1920075","prefectureKana":"ﾄｳｷｮｳﾄ","cityKana":"ﾊﾁｵｳｼﾞｼ","streetKana":"ﾐﾅﾐｼﾝﾁｮｳ","prefecture":"東京都","city":"八王子市","street":"南新町"},{"zipCode":"1920072","prefectureKana":"ﾄｳｷｮｳﾄ","cityKana":"ﾊﾁｵｳｼﾞｼ","streetKana":"ﾐﾅﾐﾁｮｳ","prefecture":"東京都","city":"八王子市","street":"南町"},{"zipCode":"1920916","prefectureKana":"ﾄｳｷｮｳﾄ","cityKana":"ﾊﾁｵｳｼﾞｼ","streetKana":"ﾐﾅﾐﾉ","prefecture":"東京都","city":"八王子市","street":"みなみ野"},{"zipCode":"1920005","prefectureKana":"ﾄｳｷｮｳﾄ","cityKana":"ﾊﾁｵｳｼﾞｼ","streetKana":"ﾐﾔｼﾀﾏﾁ","prefecture":"東京都","city":"八王子市","street":"宮下町"},{"zipCode":"1920152","prefectureKana":"ﾄｳｷｮｳﾄ","cityKana":"ﾊﾁｵｳｼﾞｼ","streetKana":"ﾐﾔﾏﾁｮｳ","prefecture":"東京都","city":"八王子市","street":"美山町"},{"zipCode":"1920046","prefectureKana":"ﾄｳｷｮｳﾄ","cityKana":"ﾊﾁｵｳｼﾞｼ","streetKana":"ﾐｮｳｼﾞﾝﾁｮｳ","prefecture":"東京都","city":"八王子市","street":"明神町"},{"zipCode":"1920051","prefectureKana":"ﾄｳｷｮｳﾄ","cityKana":"ﾊﾁｵｳｼﾞｼ","streetKana":"ﾓﾄﾎﾝｺﾞｳﾁｮｳ","prefecture":"東京都","city":"八王子市","street":"元本郷町"},{"zipCode":"1920063","prefectureKana":"ﾄｳｷｮｳﾄ","cityKana":"ﾊﾁｵｳｼﾞｼ","streetKana":"ﾓﾄﾖｺﾔﾏﾁｮｳ","prefecture":"東京都","city":"八王子市","street":"元横山町"},{"zipCode":"1920055","prefectureKana":"ﾄｳｷｮｳﾄ","cityKana":"ﾊﾁｵｳｼﾞｼ","streetKana":"ﾔｷﾞﾁｮｳ","prefecture":"東京都","city":"八王子市","street":"八木町"},{"zipCode":"1920016","prefectureKana":"ﾄｳｷｮｳﾄ","cityKana":"ﾊﾁｵｳｼﾞｼ","streetKana":"ﾔﾉﾏﾁ","prefecture":"東京都","city":"八王子市","street":"谷野町"},{"zipCode":"1920375","prefectureKana":"ﾄｳｷｮｳﾄ","cityKana":"ﾊﾁｵｳｼﾞｼ","streetKana":"ﾔﾘﾐｽﾞ","prefecture":"東京都","city":"八王子市","street":"鑓水"},{"zipCode":"1920071","prefectureKana":"ﾄｳｷｮｳﾄ","cityKana":"ﾊﾁｵｳｼﾞｼ","streetKana":"ﾖｳｶﾏﾁ","prefecture":"東京都","city":"八王子市","street":"八日町"},{"zipCode":"1920081","prefectureKana":"ﾄｳｷｮｳﾄ","cityKana":"ﾊﾁｵｳｼﾞｼ","streetKana":"ﾖｺﾔﾏﾁｮｳ","prefecture":"東京都","city":"八王子市","street":"横山町"},{"zipCode":"1920903","prefectureKana":"ﾄｳｷｮｳﾄ","cityKana":"ﾊﾁｵｳｼﾞｼ","streetKana":"ﾖﾛｽﾞﾁｮｳ","prefecture":"東京都","city":"八王子市","street":"万町"}]