[{"zipCode":"2060000","prefectureKana":"ﾄｳｷｮｳﾄ","cityKana":"ﾀﾏｼ","streetKana":"ｲｶﾆｹｲｻｲｶﾞﾅｲﾊﾞｱｲ","prefecture":"東京都","city":"多摩市","street":"以下に掲載がない場合"},{"zipCode":"2060041","prefectureKana":"ﾄｳｷｮｳﾄ","cityKana":"ﾀﾏｼ","streetKana":"ｱﾀｺﾞ","prefecture":"東京都","city":"多摩市","street":"愛宕"},{"zipCode":"2060002","prefectureKana":"ﾄｳｷｮｳﾄ","cityKana":"ﾀﾏｼ","streetKana":"ｲﾁﾉﾐﾔ","prefecture":"東京都","city":"多摩市","street":"一ノ宮"},{"zipCode":"2060033","prefectureKana":"ﾄｳｷｮｳﾄ","cityKana":"ﾀﾏｼ","streetKana":"ｵﾁｱｲ","prefecture":"東京都","city":"多摩市","street":"落合"},{"zipCode":"2060015","prefectureKana":"ﾄｳｷｮｳﾄ","cityKana":"ﾀﾏｼ","streetKana":"ｵﾁｶﾜ","prefecture":"東京都","city":"多摩市","street":"落川"},{"zipCode":"2060012","prefectureKana":"ﾄｳｷｮｳﾄ","cityKana":"ﾀﾏｼ","streetKana":"ｶｲﾄﾞﾘ","prefecture":"東京都","city":"多摩市","street":"貝取"},{"zipCode":"2060035","prefectureKana":"ﾄｳｷｮｳﾄ","cityKana":"ﾀﾏｼ","streetKana":"ｶﾗｷﾀﾞ","prefecture":"東京都","city":"多摩市","street":"唐木田"},{"zipCode":"2060014","prefectureKana":"ﾄｳｷｮｳﾄ","cityKana":"ﾀﾏｼ","streetKana":"ｺｯﾀ","prefecture":"東京都","city":"多摩市","street":"乞田"},{"zipCode":"2060013","prefectureKana":"ﾄｳｷｮｳﾄ","cityKana":"ﾀﾏｼ","streetKana":"ｻｸﾗｶﾞｵｶ","prefecture":"東京都","city":"多摩市","street":"桜ヶ丘"},{"zipCode":"2060042","prefectureKana":"ﾄｳｷｮｳﾄ","cityKana":"ﾀﾏｼ","streetKana":"ｻﾝﾉｳｼﾀ","prefecture":"東京都","city":"多摩市","street":"山王下"},{"zipCode":"2060024","prefectureKana":"ﾄｳｷｮｳﾄ","cityKana":"ﾀﾏｼ","streetKana":"ｽﾜ","prefecture":"東京都","city":"多摩市","street":"諏訪"},{"zipCode":"2060011","prefectureKana":"ﾄｳｷｮｳﾄ","cityKana":"ﾀﾏｼ","streetKana":"ｾｷﾄﾞ","prefecture":"東京都","city":"多摩市","street":"関戸"},{"zipCode":"2060034","prefectureKana":"ﾄｳｷｮｳﾄ","cityKana":"ﾀﾏｼ","streetKana":"ﾂﾙﾏｷ","prefecture":"東京都","city":"多摩市","street":"鶴牧"},{"zipCode":"2060031","prefectureKana":"ﾄｳｷｮｳﾄ","cityKana":"ﾀﾏｼ","streetKana":"ﾄﾖｶﾞｵｶ","prefecture":"東京都","city":"多摩市","street":"豊ヶ丘"},{"zipCode":"2060036","prefectureKana":"ﾄｳｷｮｳﾄ","cityKana":"ﾀﾏｼ","streetKana":"ﾅｶｻﾞﾜ","prefecture":"東京都","city":"多摩市","street":"中沢"},{"zipCode":"2060025","prefectureKana":"ﾄｳｷｮｳﾄ","cityKana":"ﾀﾏｼ","streetKana":"ﾅｶﾞﾔﾏ","prefecture":"東京都","city":"多摩市","street":"永山"},{"zipCode":"2060003","prefectureKana":"ﾄｳｷｮｳﾄ","cityKana":"ﾀﾏｼ","streetKana":"ﾋｶﾞｼﾃﾗｶﾞﾀ","prefecture":"東京都","city":"多摩市","street":"東寺方"},{"zipCode":"2060022","prefectureKana":"ﾄｳｷｮｳﾄ","cityKana":"ﾀﾏｼ","streetKana":"ﾋｼﾞﾘｶﾞｵｶ","prefecture":"東京都","city":"多摩市","street":"聖ヶ丘"},{"zipCode":"2060023","prefectureKana":"ﾄｳｷｮｳﾄ","cityKana":"ﾀﾏｼ","streetKana":"ﾏﾋｷｻﾞﾜ","prefecture":"東京都","city":"多摩市","street":"馬引沢"},{"zipCode":"2060032","prefectureKana":"ﾄｳｷｮｳﾄ","cityKana":"ﾀﾏｼ","streetKana":"ﾐﾅﾐﾉ","prefecture":"東京都","city":"多摩市","street":"南野"},{"zipCode":"2060004","prefectureKana":"ﾄｳｷｮｳﾄ","cityKana":"ﾀﾏｼ","streetKana":"ﾓｸﾞｻ","prefecture":"東京都","city":"多摩市","street":"百草"},{"zipCode":"2060021","prefectureKana":"ﾄｳｷｮｳﾄ","cityKana":"ﾀﾏｼ","streetKana":"ﾚﾝｺｳｼﾞ","prefecture":"東京都","city":"多摩市","street":"連光寺"},{"zipCode":"2060001","prefectureKana":"ﾄｳｷｮｳﾄ","cityKana":"ﾀﾏｼ","streetKana":"ﾜﾀﾞ","prefecture":"東京都","city":"多摩市","street":"和田"},{"zipCode":"2060000","prefectureKana":"ﾄｳｷｮｳﾄ","cityKana":"ｲﾅｷﾞｼ","streetKana":"ｲｶﾆｹｲｻｲｶﾞﾅｲﾊﾞｱｲ","prefecture":"東京都","city":"稲城市","street":"以下に掲載がない場合"},{"zipCode":"2060801","prefectureKana":"ﾄｳｷｮｳﾄ","cityKana":"ｲﾅｷﾞｼ","streetKana":"ｵｵﾏﾙ","prefecture":"東京都","city":"稲城市","street":"大丸"},{"zipCode":"2060811","prefectureKana":"ﾄｳｷｮｳﾄ","cityKana":"ｲﾅｷﾞｼ","streetKana":"ｵｼﾀﾃ","prefecture":"東京都","city":"稲城市","street":"押立"},{"zipCode":"2060803","prefectureKana":"ﾄｳｷｮｳﾄ","cityKana":"ｲﾅｷﾞｼ","streetKana":"ｺｳﾖｳﾀﾞｲ","prefecture":"東京都","city":"稲城市","street":"向陽台"},{"zipCode":"2060822","prefectureKana":"ﾄｳｷｮｳﾄ","cityKana":"ｲﾅｷﾞｼ","streetKana":"ｻｶﾊﾏ","prefecture":"東京都","city":"稲城市","street":"坂浜"},{"zipCode":"2060821","prefectureKana":"ﾄｳｷｮｳﾄ","cityKana":"ｲﾅｷﾞｼ","streetKana":"ﾅｶﾞﾐﾈ","prefecture":"東京都","city":"稲城市","street":"長峰"},{"zipCode":"2060802","prefectureKana":"ﾄｳｷｮｳﾄ","cityKana":"ｲﾅｷﾞｼ","streetKana":"ﾋｶﾞｼﾅｶﾞﾇﾏ","prefecture":"東京都","city":"稲城市","street":"東長沼"},{"zipCode":"2060823","prefectureKana":"ﾄｳｷｮｳﾄ","cityKana":"ｲﾅｷﾞｼ","streetKana":"ﾋﾗｵ","prefecture":"東京都","city":"稲城市","street":"平尾"},{"zipCode":"2060804","prefectureKana":"ﾄｳｷｮｳﾄ","cityKana":"ｲﾅｷﾞｼ","streetKana":"ﾓﾑﾗ","prefecture":"東京都","city":"稲城市","street":"百村"},{"zipCode":"2060812","prefectureKana":"ﾄｳｷｮｳﾄ","cityKana":"ｲﾅｷﾞｼ","streetKana":"ﾔﾉｸﾁ","prefecture":"東京都","city":"稲城市","street":"矢野口"},{"zipCode":"2060824","prefectureKana":"ﾄｳｷｮｳﾄ","cityKana":"ｲﾅｷﾞｼ","streetKana":"ﾜｶﾊﾞﾀﾞｲ","prefecture":"東京都","city":"稲城市","street":"若葉台"}]