[{"zipCode":"2070000","prefectureKana":"ﾄｳｷｮｳﾄ","cityKana":"ﾋｶﾞｼﾔﾏﾄｼ","streetKana":"ｲｶﾆｹｲｻｲｶﾞﾅｲﾊﾞｱｲ","prefecture":"東京都","city":"東大和市","street":"以下に掲載がない場合"},{"zipCode":"2070033","prefectureKana":"ﾄｳｷｮｳﾄ","cityKana":"ﾋｶﾞｼﾔﾏﾄｼ","streetKana":"ｲﾓｸﾎﾞ","prefecture":"東京都","city":"東大和市","street":"芋窪"},{"zipCode":"2070023","prefectureKana":"ﾄｳｷｮｳﾄ","cityKana":"ﾋｶﾞｼﾔﾏﾄｼ","streetKana":"ｶﾐｷﾀﾀﾞｲ","prefecture":"東京都","city":"東大和市","street":"上北台"},{"zipCode":"2070011","prefectureKana":"ﾄｳｷｮｳﾄ","cityKana":"ﾋｶﾞｼﾔﾏﾄｼ","streetKana":"ｷﾖﾊﾗ","prefecture":"東京都","city":"東大和市","street":"清原"},{"zipCode":"2070002","prefectureKana":"ﾄｳｷｮｳﾄ","cityKana":"ﾋｶﾞｼﾔﾏﾄｼ","streetKana":"ｺﾊﾝ","prefecture":"東京都","city":"東大和市","street":"湖畔"},{"zipCode":"2070022","prefectureKana":"ﾄｳｷｮｳﾄ","cityKana":"ﾋｶﾞｼﾔﾏﾄｼ","streetKana":"ｻｸﾗｶﾞｵｶ","prefecture":"東京都","city":"東大和市","street":"桜が丘"},{"zipCode":"2070003","prefectureKana":"ﾄｳｷｮｳﾄ","cityKana":"ﾋｶﾞｼﾔﾏﾄｼ","streetKana":"ｻﾔﾏ","prefecture":"東京都","city":"東大和市","street":"狭山"},{"zipCode":"2070004","prefectureKana":"ﾄｳｷｮｳﾄ","cityKana":"ﾋｶﾞｼﾔﾏﾄｼ","streetKana":"ｼﾐｽﾞ","prefecture":"東京都","city":"東大和市","street":"清水"},{"zipCode":"2070012","prefectureKana":"ﾄｳｷｮｳﾄ","cityKana":"ﾋｶﾞｼﾔﾏﾄｼ","streetKana":"ｼﾝﾎﾞﾘ","prefecture":"東京都","city":"東大和市","street":"新堀"},{"zipCode":"2070032","prefectureKana":"ﾄｳｷｮｳﾄ","cityKana":"ﾋｶﾞｼﾔﾏﾄｼ","streetKana":"ｿﾞｳｼｷ","prefecture":"東京都","city":"東大和市","street":"蔵敷"},{"zipCode":"2070005","prefectureKana":"ﾄｳｷｮｳﾄ","cityKana":"ﾋｶﾞｼﾔﾏﾄｼ","streetKana":"ﾀｶｷﾞ","prefecture":"東京都","city":"東大和市","street":"高木"},{"zipCode":"2070021","prefectureKana":"ﾄｳｷｮｳﾄ","cityKana":"ﾋｶﾞｼﾔﾏﾄｼ","streetKana":"ﾀﾃﾉ","prefecture":"東京都","city":"東大和市","street":"立野"},{"zipCode":"2070001","prefectureKana":"ﾄｳｷｮｳﾄ","cityKana":"ﾋｶﾞｼﾔﾏﾄｼ","streetKana":"ﾀﾏｺ","prefecture":"東京都","city":"東大和市","street":"多摩湖"},{"zipCode":"2070015","prefectureKana":"ﾄｳｷｮｳﾄ","cityKana":"ﾋｶﾞｼﾔﾏﾄｼ","streetKana":"ﾁｭｳｵｳ","prefecture":"東京都","city":"東大和市","street":"中央"},{"zipCode":"2070016","prefectureKana":"ﾄｳｷｮｳﾄ","cityKana":"ﾋｶﾞｼﾔﾏﾄｼ","streetKana":"ﾅｶﾊﾗ","prefecture":"東京都","city":"東大和市","street":"仲原"},{"zipCode":"2070031","prefectureKana":"ﾄｳｷｮｳﾄ","cityKana":"ﾋｶﾞｼﾔﾏﾄｼ","streetKana":"ﾅﾗﾊｼ","prefecture":"東京都","city":"東大和市","street":"奈良橋"},{"zipCode":"2070014","prefectureKana":"ﾄｳｷｮｳﾄ","cityKana":"ﾋｶﾞｼﾔﾏﾄｼ","streetKana":"ﾅﾝｶﾞｲ","prefecture":"東京都","city":"東大和市","street":"南街"},{"zipCode":"2070013","prefectureKana":"ﾄｳｷｮｳﾄ","cityKana":"ﾋｶﾞｼﾔﾏﾄｼ","streetKana":"ﾑｺｳﾊﾗ","prefecture":"東京都","city":"東大和市","street":"向原"}]