[{"zipCode":"2220000","prefectureKana":"ｶﾅｶﾞﾜｹﾝ","cityKana":"ﾖｺﾊﾏｼｺｳﾎｸｸ","streetKana":"ｲｶﾆｹｲｻｲｶﾞﾅｲﾊﾞｱｲ","prefecture":"神奈川県","city":"横浜市港北区","street":"以下に掲載がない場合"},{"zipCode":"2220037","prefectureKana":"ｶﾅｶﾞﾜｹﾝ","cityKana":"ﾖｺﾊﾏｼｺｳﾎｸｸ","streetKana":"ｵｵｸﾗﾔﾏ","prefecture":"神奈川県","city":"横浜市港北区","street":"大倉山"},{"zipCode":"2220003","prefectureKana":"ｶﾅｶﾞﾜｹﾝ","cityKana":"ﾖｺﾊﾏｼｺｳﾎｸｸ","streetKana":"ｵｵｿﾈ","prefecture":"神奈川県","city":"横浜市港北区","street":"大曽根"},{"zipCode":"2220004","prefectureKana":"ｶﾅｶﾞﾜｹﾝ","cityKana":"ﾖｺﾊﾏｼｺｳﾎｸｸ","streetKana":"ｵｵｿﾈﾀﾞｲ","prefecture":"神奈川県","city":"横浜市港北区","street":"大曽根台"},{"zipCode":"2220011","prefectureKana":"ｶﾅｶﾞﾜｹﾝ","cityKana":"ﾖｺﾊﾏｼｺｳﾎｸｸ","streetKana":"ｷｸﾅ","prefecture":"神奈川県","city":"横浜市港北区","street":"菊名"},{"zipCode":"2220034","prefectureKana":"ｶﾅｶﾞﾜｹﾝ","cityKana":"ﾖｺﾊﾏｼｺｳﾎｸｸ","streetKana":"ｷｼﾈﾁｮｳ","prefecture":"神奈川県","city":"横浜市港北区","street":"岸根町"},{"zipCode":"2220036","prefectureKana":"ｶﾅｶﾞﾜｹﾝ","cityKana":"ﾖｺﾊﾏｼｺｳﾎｸｸ","streetKana":"ｺﾂﾞｸｴﾁｮｳ","prefecture":"神奈川県","city":"横浜市港北区","street":"小机町"},{"zipCode":"2220024","prefectureKana":"ｶﾅｶﾞﾜｹﾝ","cityKana":"ﾖｺﾊﾏｼｺｳﾎｸｸ","streetKana":"ｼﾉﾊﾗﾀﾞｲﾏﾁ","prefecture":"神奈川県","city":"横浜市港北区","street":"篠原台町"},{"zipCode":"2220026","prefectureKana":"ｶﾅｶﾞﾜｹﾝ","cityKana":"ﾖｺﾊﾏｼｺｳﾎｸｸ","streetKana":"ｼﾉﾊﾗﾁｮｳ","prefecture":"神奈川県","city":"横浜市港北区","street":"篠原町"},{"zipCode":"2220025","prefectureKana":"ｶﾅｶﾞﾜｹﾝ","cityKana":"ﾖｺﾊﾏｼｺｳﾎｸｸ","streetKana":"ｼﾉﾊﾗﾆｼﾁｮｳ","prefecture":"神奈川県","city":"横浜市港北区","street":"篠原西町"},{"zipCode":"2220022","prefectureKana":"ｶﾅｶﾞﾜｹﾝ","cityKana":"ﾖｺﾊﾏｼｺｳﾎｸｸ","streetKana":"ｼﾉﾊﾗﾋｶﾞｼ","prefecture":"神奈川県","city":"横浜市港北区","street":"篠原東"},{"zipCode":"2220021","prefectureKana":"ｶﾅｶﾞﾜｹﾝ","cityKana":"ﾖｺﾊﾏｼｺｳﾎｸｸ","streetKana":"ｼﾉﾊﾗｷﾀ","prefecture":"神奈川県","city":"横浜市港北区","street":"篠原北"},{"zipCode":"2220033","prefectureKana":"ｶﾅｶﾞﾜｹﾝ","cityKana":"ﾖｺﾊﾏｼｺｳﾎｸｸ","streetKana":"ｼﾝﾖｺﾊﾏ","prefecture":"神奈川県","city":"横浜市港北区","street":"新横浜"},{"zipCode":"2220001","prefectureKana":"ｶﾅｶﾞﾜｹﾝ","cityKana":"ﾖｺﾊﾏｼｺｳﾎｸｸ","streetKana":"ﾀﾙﾏﾁ","prefecture":"神奈川県","city":"横浜市港北区","street":"樽町"},{"zipCode":"2220035","prefectureKana":"ｶﾅｶﾞﾜｹﾝ","cityKana":"ﾖｺﾊﾏｼｺｳﾎｸｸ","streetKana":"ﾄﾘﾔﾏﾁｮｳ","prefecture":"神奈川県","city":"横浜市港北区","street":"鳥山町"},{"zipCode":"2220023","prefectureKana":"ｶﾅｶﾞﾜｹﾝ","cityKana":"ﾖｺﾊﾏｼｺｳﾎｸｸ","streetKana":"ﾅｶﾃﾊﾗ","prefecture":"神奈川県","city":"横浜市港北区","street":"仲手原"},{"zipCode":"2220013","prefectureKana":"ｶﾅｶﾞﾜｹﾝ","cityKana":"ﾖｺﾊﾏｼｺｳﾎｸｸ","streetKana":"ﾆｼｷｶﾞｵｶ","prefecture":"神奈川県","city":"横浜市港北区","street":"錦が丘"},{"zipCode":"2220012","prefectureKana":"ｶﾅｶﾞﾜｹﾝ","cityKana":"ﾖｺﾊﾏｼｺｳﾎｸｸ","streetKana":"ﾌｼﾞﾂﾞｶ","prefecture":"神奈川県","city":"横浜市港北区","street":"富士塚"},{"zipCode":"2220032","prefectureKana":"ｶﾅｶﾞﾜｹﾝ","cityKana":"ﾖｺﾊﾏｼｺｳﾎｸｸ","streetKana":"ﾏﾒﾄﾞﾁｮｳ","prefecture":"神奈川県","city":"横浜市港北区","street":"大豆戸町"},{"zipCode":"2220002","prefectureKana":"ｶﾅｶﾞﾜｹﾝ","cityKana":"ﾖｺﾊﾏｼｺｳﾎｸｸ","streetKana":"ﾓﾛｵｶﾁｮｳ","prefecture":"神奈川県","city":"横浜市港北区","street":"師岡町"}]