[{"zipCode":"2230059","prefectureKana":"ｶﾅｶﾞﾜｹﾝ","cityKana":"ﾖｺﾊﾏｼｺｳﾎｸｸ","streetKana":"ｷﾀｼﾝﾖｺﾊﾏ","prefecture":"神奈川県","city":"横浜市港北区","street":"北新横浜"},{"zipCode":"2230064","prefectureKana":"ｶﾅｶﾞﾜｹﾝ","cityKana":"ﾖｺﾊﾏｼｺｳﾎｸｸ","streetKana":"ｼﾓﾀﾞﾁｮｳ","prefecture":"神奈川県","city":"横浜市港北区","street":"下田町"},{"zipCode":"2230056","prefectureKana":"ｶﾅｶﾞﾜｹﾝ","cityKana":"ﾖｺﾊﾏｼｺｳﾎｸｸ","streetKana":"ｼﾝﾖｼﾀﾞﾁｮｳ","prefecture":"神奈川県","city":"横浜市港北区","street":"新吉田町"},{"zipCode":"2230058","prefectureKana":"ｶﾅｶﾞﾜｹﾝ","cityKana":"ﾖｺﾊﾏｼｺｳﾎｸｸ","streetKana":"ｼﾝﾖｼﾀﾞﾋｶﾞｼ","prefecture":"神奈川県","city":"横浜市港北区","street":"新吉田東"},{"zipCode":"2230063","prefectureKana":"ｶﾅｶﾞﾜｹﾝ","cityKana":"ﾖｺﾊﾏｼｺｳﾎｸｸ","streetKana":"ﾀｶﾀﾁｮｳ","prefecture":"神奈川県","city":"横浜市港北区","street":"高田町"},{"zipCode":"2230066","prefectureKana":"ｶﾅｶﾞﾜｹﾝ","cityKana":"ﾖｺﾊﾏｼｺｳﾎｸｸ","streetKana":"ﾀｶﾀﾆｼ","prefecture":"神奈川県","city":"横浜市港北区","street":"高田西"},{"zipCode":"2230065","prefectureKana":"ｶﾅｶﾞﾜｹﾝ","cityKana":"ﾖｺﾊﾏｼｺｳﾎｸｸ","streetKana":"ﾀｶﾀﾋｶﾞｼ","prefecture":"神奈川県","city":"横浜市港北区","street":"高田東"},{"zipCode":"2230055","prefectureKana":"ｶﾅｶﾞﾜｹﾝ","cityKana":"ﾖｺﾊﾏｼｺｳﾎｸｸ","streetKana":"ﾂﾅｼﾏｶﾐﾁｮｳ","prefecture":"神奈川県","city":"横浜市港北区","street":"綱島上町"},{"zipCode":"2230054","prefectureKana":"ｶﾅｶﾞﾜｹﾝ","cityKana":"ﾖｺﾊﾏｼｺｳﾎｸｸ","streetKana":"ﾂﾅｼﾏﾀﾞｲ","prefecture":"神奈川県","city":"横浜市港北区","street":"綱島台"},{"zipCode":"2230052","prefectureKana":"ｶﾅｶﾞﾜｹﾝ","cityKana":"ﾖｺﾊﾏｼｺｳﾎｸｸ","streetKana":"ﾂﾅｼﾏﾋｶﾞｼ","prefecture":"神奈川県","city":"横浜市港北区","street":"綱島東"},{"zipCode":"2230053","prefectureKana":"ｶﾅｶﾞﾜｹﾝ","cityKana":"ﾖｺﾊﾏｼｺｳﾎｸｸ","streetKana":"ﾂﾅｼﾏﾆｼ","prefecture":"神奈川県","city":"横浜市港北区","street":"綱島西"},{"zipCode":"2230057","prefectureKana":"ｶﾅｶﾞﾜｹﾝ","cityKana":"ﾖｺﾊﾏｼｺｳﾎｸｸ","streetKana":"ﾆｯﾊﾟﾁｮｳ","prefecture":"神奈川県","city":"横浜市港北区","street":"新羽町"},{"zipCode":"2230061","prefectureKana":"ｶﾅｶﾞﾜｹﾝ","cityKana":"ﾖｺﾊﾏｼｺｳﾎｸｸ","streetKana":"ﾋﾖｼ","prefecture":"神奈川県","city":"横浜市港北区","street":"日吉"},{"zipCode":"2230062","prefectureKana":"ｶﾅｶﾞﾜｹﾝ","cityKana":"ﾖｺﾊﾏｼｺｳﾎｸｸ","streetKana":"ﾋﾖｼﾎﾝﾁｮｳ","prefecture":"神奈川県","city":"横浜市港北区","street":"日吉本町"},{"zipCode":"2230051","prefectureKana":"ｶﾅｶﾞﾜｹﾝ","cityKana":"ﾖｺﾊﾏｼｺｳﾎｸｸ","streetKana":"ﾐﾉﾜﾁｮｳ","prefecture":"神奈川県","city":"横浜市港北区","street":"箕輪町"}]