[{"zipCode":"2350000","prefectureKana":"ｶﾅｶﾞﾜｹﾝ","cityKana":"ﾖｺﾊﾏｼｲｿｺﾞｸ","streetKana":"ｲｶﾆｹｲｻｲｶﾞﾅｲﾊﾞｱｲ","prefecture":"神奈川県","city":"横浜市磯子区","street":"以下に掲載がない場合"},{"zipCode":"2350016","prefectureKana":"ｶﾅｶﾞﾜｹﾝ","cityKana":"ﾖｺﾊﾏｼｲｿｺﾞｸ","streetKana":"ｲｿｺﾞ","prefecture":"神奈川県","city":"横浜市磯子区","street":"磯子"},{"zipCode":"2350019","prefectureKana":"ｶﾅｶﾞﾜｹﾝ","cityKana":"ﾖｺﾊﾏｼｲｿｺﾞｸ","streetKana":"ｲｿｺﾞﾀﾞｲ","prefecture":"神奈川県","city":"横浜市磯子区","street":"磯子台"},{"zipCode":"2350006","prefectureKana":"ｶﾅｶﾞﾜｹﾝ","cityKana":"ﾖｺﾊﾏｼｲｿｺﾞｸ","streetKana":"ｵｵﾄﾘﾁｮｳ","prefecture":"神奈川県","city":"横浜市磯子区","street":"鳳町"},{"zipCode":"2350021","prefectureKana":"ｶﾅｶﾞﾜｹﾝ","cityKana":"ﾖｺﾊﾏｼｲｿｺﾞｸ","streetKana":"ｵｶﾑﾗ","prefecture":"神奈川県","city":"横浜市磯子区","street":"岡村"},{"zipCode":"2350001","prefectureKana":"ｶﾅｶﾞﾜｹﾝ","cityKana":"ﾖｺﾊﾏｼｲｿｺﾞｸ","streetKana":"ｶﾐﾁｮｳ","prefecture":"神奈川県","city":"横浜市磯子区","street":"上町"},{"zipCode":"2350042","prefectureKana":"ｶﾅｶﾞﾜｹﾝ","cityKana":"ﾖｺﾊﾏｼｲｿｺﾞｸ","streetKana":"ｶﾐﾅｶｻﾞﾄﾁｮｳ","prefecture":"神奈川県","city":"横浜市磯子区","street":"上中里町"},{"zipCode":"2350041","prefectureKana":"ｶﾅｶﾞﾜｹﾝ","cityKana":"ﾖｺﾊﾏｼｲｿｺﾞｸ","streetKana":"ｸﾘｷ","prefecture":"神奈川県","city":"横浜市磯子区","street":"栗木"},{"zipCode":"2350003","prefectureKana":"ｶﾅｶﾞﾜｹﾝ","cityKana":"ﾖｺﾊﾏｼｲｿｺﾞｸ","streetKana":"ｻｶｼﾀﾁｮｳ","prefecture":"神奈川県","city":"横浜市磯子区","street":"坂下町"},{"zipCode":"2350022","prefectureKana":"ｶﾅｶﾞﾜｹﾝ","cityKana":"ﾖｺﾊﾏｼｲｿｺﾞｸ","streetKana":"ｼｵﾐﾀﾞｲ","prefecture":"神奈川県","city":"横浜市磯子区","street":"汐見台"},{"zipCode":"2350004","prefectureKana":"ｶﾅｶﾞﾜｹﾝ","cityKana":"ﾖｺﾊﾏｼｲｿｺﾞｸ","streetKana":"ｼﾓﾁｮｳ","prefecture":"神奈川県","city":"横浜市磯子区","street":"下町"},{"zipCode":"2350017","prefectureKana":"ｶﾅｶﾞﾜｹﾝ","cityKana":"ﾖｺﾊﾏｼｲｿｺﾞｸ","streetKana":"ｼﾝｲｿｺﾞﾁｮｳ","prefecture":"神奈川県","city":"横浜市磯子区","street":"新磯子町"},{"zipCode":"2350032","prefectureKana":"ｶﾅｶﾞﾜｹﾝ","cityKana":"ﾖｺﾊﾏｼｲｿｺﾞｸ","streetKana":"ｼﾝｽｷﾞﾀﾁｮｳ","prefecture":"神奈川県","city":"横浜市磯子区","street":"新杉田町"},{"zipCode":"2350031","prefectureKana":"ｶﾅｶﾞﾜｹﾝ","cityKana":"ﾖｺﾊﾏｼｲｿｺﾞｸ","streetKana":"ｼﾝﾅｶﾊﾗﾁｮｳ","prefecture":"神奈川県","city":"横浜市磯子区","street":"新中原町"},{"zipCode":"2350018","prefectureKana":"ｶﾅｶﾞﾜｹﾝ","cityKana":"ﾖｺﾊﾏｼｲｿｺﾞｸ","streetKana":"ｼﾝﾓﾘﾁｮｳ","prefecture":"神奈川県","city":"横浜市磯子区","street":"新森町"},{"zipCode":"2350033","prefectureKana":"ｶﾅｶﾞﾜｹﾝ","cityKana":"ﾖｺﾊﾏｼｲｿｺﾞｸ","streetKana":"ｽｷﾞﾀ","prefecture":"神奈川県","city":"横浜市磯子区","street":"杉田"},{"zipCode":"2350034","prefectureKana":"ｶﾅｶﾞﾜｹﾝ","cityKana":"ﾖｺﾊﾏｼｲｿｺﾞｸ","streetKana":"ｽｷﾞﾀﾂﾎﾞﾉﾐ","prefecture":"神奈川県","city":"横浜市磯子区","street":"杉田坪呑"},{"zipCode":"2350012","prefectureKana":"ｶﾅｶﾞﾜｹﾝ","cityKana":"ﾖｺﾊﾏｼｲｿｺﾞｸ","streetKana":"ﾀｷｶﾞｼﾗ","prefecture":"神奈川県","city":"横浜市磯子区","street":"滝頭"},{"zipCode":"2350035","prefectureKana":"ｶﾅｶﾞﾜｹﾝ","cityKana":"ﾖｺﾊﾏｼｲｿｺﾞｸ","streetKana":"ﾀﾅｶ","prefecture":"神奈川県","city":"横浜市磯子区","street":"田中"},{"zipCode":"2350014","prefectureKana":"ｶﾅｶﾞﾜｹﾝ","cityKana":"ﾖｺﾊﾏｼｲｿｺﾞｸ","streetKana":"ﾅｶﾊﾏﾁｮｳ","prefecture":"神奈川県","city":"横浜市磯子区","street":"中浜町"},{"zipCode":"2350036","prefectureKana":"ｶﾅｶﾞﾜｹﾝ","cityKana":"ﾖｺﾊﾏｼｲｿｺﾞｸ","streetKana":"ﾅｶﾊﾗ","prefecture":"神奈川県","city":"横浜市磯子区","street":"中原"},{"zipCode":"2350007","prefectureKana":"ｶﾅｶﾞﾜｹﾝ","cityKana":"ﾖｺﾊﾏｼｲｿｺﾞｸ","streetKana":"ﾆｼﾁｮｳ","prefecture":"神奈川県","city":"横浜市磯子区","street":"西町"},{"zipCode":"2350002","prefectureKana":"ｶﾅｶﾞﾜｹﾝ","cityKana":"ﾖｺﾊﾏｼｲｿｺﾞｸ","streetKana":"ﾊﾞﾊﾞﾁｮｳ","prefecture":"神奈川県","city":"横浜市磯子区","street":"馬場町"},{"zipCode":"2350008","prefectureKana":"ｶﾅｶﾞﾜｹﾝ","cityKana":"ﾖｺﾊﾏｼｲｿｺﾞｸ","streetKana":"ﾊﾗﾏﾁ","prefecture":"神奈川県","city":"横浜市磯子区","street":"原町"},{"zipCode":"2350005","prefectureKana":"ｶﾅｶﾞﾜｹﾝ","cityKana":"ﾖｺﾊﾏｼｲｿｺﾞｸ","streetKana":"ﾋｶﾞｼﾁｮｳ","prefecture":"神奈川県","city":"横浜市磯子区","street":"東町"},{"zipCode":"2350015","prefectureKana":"ｶﾅｶﾞﾜｹﾝ","cityKana":"ﾖｺﾊﾏｼｲｿｺﾞｸ","streetKana":"ﾋｻｷﾁｮｳ","prefecture":"神奈川県","city":"横浜市磯子区","street":"久木町"},{"zipCode":"2350043","prefectureKana":"ｶﾅｶﾞﾜｹﾝ","cityKana":"ﾖｺﾊﾏｼｲｿｺﾞｸ","streetKana":"ﾋﾄﾘｻﾞﾜﾁｮｳ","prefecture":"神奈川県","city":"横浜市磯子区","street":"氷取沢町"},{"zipCode":"2350013","prefectureKana":"ｶﾅｶﾞﾜｹﾝ","cityKana":"ﾖｺﾊﾏｼｲｿｺﾞｸ","streetKana":"ﾋﾛﾁﾁｮｳ","prefecture":"神奈川県","city":"横浜市磯子区","street":"広地町"},{"zipCode":"2350011","prefectureKana":"ｶﾅｶﾞﾜｹﾝ","cityKana":"ﾖｺﾊﾏｼｲｿｺﾞｸ","streetKana":"ﾏﾙﾔﾏ","prefecture":"神奈川県","city":"横浜市磯子区","street":"丸山"},{"zipCode":"2350044","prefectureKana":"ｶﾅｶﾞﾜｹﾝ","cityKana":"ﾖｺﾊﾏｼｲｿｺﾞｸ","streetKana":"ﾐﾈﾁｮｳ","prefecture":"神奈川県","city":"横浜市磯子区","street":"峰町"},{"zipCode":"2350023","prefectureKana":"ｶﾅｶﾞﾜｹﾝ","cityKana":"ﾖｺﾊﾏｼｲｿｺﾞｸ","streetKana":"ﾓﾘ","prefecture":"神奈川県","city":"横浜市磯子区","street":"森"},{"zipCode":"2350024","prefectureKana":"ｶﾅｶﾞﾜｹﾝ","cityKana":"ﾖｺﾊﾏｼｲｿｺﾞｸ","streetKana":"ﾓﾘｶﾞｵｶ","prefecture":"神奈川県","city":"横浜市磯子区","street":"森が丘"},{"zipCode":"2350045","prefectureKana":"ｶﾅｶﾞﾜｹﾝ","cityKana":"ﾖｺﾊﾏｼｲｿｺﾞｸ","streetKana":"ﾖｳｺｳﾀﾞｲ","prefecture":"神奈川県","city":"横浜市磯子区","street":"洋光台"}]