[{"zipCode":"2390845","prefectureKana":"ｶﾅｶﾞﾜｹﾝ","cityKana":"ﾖｺｽｶｼ","streetKana":"ｱﾜﾀ","prefecture":"神奈川県","city":"横須賀市","street":"粟田"},{"zipCode":"2390806","prefectureKana":"ｶﾅｶﾞﾜｹﾝ","cityKana":"ﾖｺｽｶｼ","streetKana":"ｲｹﾀﾞﾁｮｳ","prefecture":"神奈川県","city":"横須賀市","street":"池田町"},{"zipCode":"2390844","prefectureKana":"ｶﾅｶﾞﾜｹﾝ","cityKana":"ﾖｺｽｶｼ","streetKana":"ｲﾜﾄ","prefecture":"神奈川県","city":"横須賀市","street":"岩戸"},{"zipCode":"2390836","prefectureKana":"ｶﾅｶﾞﾜｹﾝ","cityKana":"ﾖｺｽｶｼ","streetKana":"ｳﾁｶﾜ","prefecture":"神奈川県","city":"横須賀市","street":"内川"},{"zipCode":"2390837","prefectureKana":"ｶﾅｶﾞﾜｹﾝ","cityKana":"ﾖｺｽｶｼ","streetKana":"ｳﾁｶﾜｼﾝﾃﾞﾝ","prefecture":"神奈川県","city":"横須賀市","street":"内川新田"},{"zipCode":"2390822","prefectureKana":"ｶﾅｶﾞﾜｹﾝ","cityKana":"ﾖｺｽｶｼ","streetKana":"ｳﾗｶﾞ","prefecture":"神奈川県","city":"横須賀市","street":"浦賀"},{"zipCode":"2390823","prefectureKana":"ｶﾅｶﾞﾜｹﾝ","cityKana":"ﾖｺｽｶｼ","streetKana":"ｳﾗｶﾞｵｶ","prefecture":"神奈川県","city":"横須賀市","street":"浦賀丘"},{"zipCode":"2390815","prefectureKana":"ｶﾅｶﾞﾜｹﾝ","cityKana":"ﾖｺｽｶｼ","streetKana":"ｳﾗｶﾞﾐﾀﾞｲ","prefecture":"神奈川県","city":"横須賀市","street":"浦上台"},{"zipCode":"2390808","prefectureKana":"ｶﾅｶﾞﾜｹﾝ","cityKana":"ﾖｺｽｶｼ","streetKana":"ｵｵﾂﾁｮｳ","prefecture":"神奈川県","city":"横須賀市","street":"大津町"},{"zipCode":"2390812","prefectureKana":"ｶﾅｶﾞﾜｹﾝ","cityKana":"ﾖｺｽｶｼ","streetKana":"ｵﾊﾞﾗﾀﾞｲ","prefecture":"神奈川県","city":"横須賀市","street":"小原台"},{"zipCode":"2390813","prefectureKana":"ｶﾅｶﾞﾜｹﾝ","cityKana":"ﾖｺｽｶｼ","streetKana":"ｶﾓｲ","prefecture":"神奈川県","city":"横須賀市","street":"鴨居"},{"zipCode":"2390828","prefectureKana":"ｶﾅｶﾞﾜｹﾝ","cityKana":"ﾖｺｽｶｼ","streetKana":"ｸﾋﾞﾘ","prefecture":"神奈川県","city":"横須賀市","street":"久比里"},{"zipCode":"2390834","prefectureKana":"ｶﾅｶﾞﾜｹﾝ","cityKana":"ﾖｺｽｶｼ","streetKana":"ｸﾑﾗ","prefecture":"神奈川県","city":"横須賀市","street":"久村"},{"zipCode":"2390831","prefectureKana":"ｶﾅｶﾞﾜｹﾝ","cityKana":"ﾖｺｽｶｼ","streetKana":"ｸﾘﾊﾏ","prefecture":"神奈川県","city":"横須賀市","street":"久里浜"},{"zipCode":"2390827","prefectureKana":"ｶﾅｶﾞﾜｹﾝ","cityKana":"ﾖｺｽｶｼ","streetKana":"ｸﾘﾊﾏﾀﾞｲ","prefecture":"神奈川県","city":"横須賀市","street":"久里浜台"},{"zipCode":"2390846","prefectureKana":"ｶﾅｶﾞﾜｹﾝ","cityKana":"ﾖｺｽｶｼ","streetKana":"ｸﾞﾘｰﾝﾊｲﾂ","prefecture":"神奈川県","city":"横須賀市","street":"グリーンハイツ"},{"zipCode":"2390820","prefectureKana":"ｶﾅｶﾞﾜｹﾝ","cityKana":"ﾖｺｽｶｼ","streetKana":"ｺｳﾌｳﾀﾞｲ","prefecture":"神奈川県","city":"横須賀市","street":"光風台"},{"zipCode":"2390803","prefectureKana":"ｶﾅｶﾞﾜｹﾝ","cityKana":"ﾖｺｽｶｼ","streetKana":"ｻｸﾗｶﾞｵｶ","prefecture":"神奈川県","city":"横須賀市","street":"桜が丘"},{"zipCode":"2390835","prefectureKana":"ｶﾅｶﾞﾜｹﾝ","cityKana":"ﾖｺｽｶｼ","streetKana":"ｻﾊﾗ","prefecture":"神奈川県","city":"横須賀市","street":"佐原"},{"zipCode":"2390832","prefectureKana":"ｶﾅｶﾞﾜｹﾝ","cityKana":"ﾖｺｽｶｼ","streetKana":"ｼﾝﾒｲﾁｮｳ","prefecture":"神奈川県","city":"横須賀市","street":"神明町"},{"zipCode":"2390843","prefectureKana":"ｶﾅｶﾞﾜｹﾝ","cityKana":"ﾖｺｽｶｼ","streetKana":"ﾂｸｲ","prefecture":"神奈川県","city":"横須賀市","street":"津久井"},{"zipCode":"2390842","prefectureKana":"ｶﾅｶﾞﾜｹﾝ","cityKana":"ﾖｺｽｶｼ","streetKana":"ﾅｶﾞｻﾜ","prefecture":"神奈川県","city":"横須賀市","street":"長沢"},{"zipCode":"2390826","prefectureKana":"ｶﾅｶﾞﾜｹﾝ","cityKana":"ﾖｺｽｶｼ","streetKana":"ﾅｶﾞｾ","prefecture":"神奈川県","city":"横須賀市","street":"長瀬"},{"zipCode":"2390824","prefectureKana":"ｶﾅｶﾞﾜｹﾝ","cityKana":"ﾖｺｽｶｼ","streetKana":"ﾆｼｳﾗｶﾞ","prefecture":"神奈川県","city":"横須賀市","street":"西浦賀"},{"zipCode":"2390807","prefectureKana":"ｶﾅｶﾞﾜｹﾝ","cityKana":"ﾖｺｽｶｼ","streetKana":"ﾈｷﾞｼﾁｮｳ","prefecture":"神奈川県","city":"横須賀市","street":"根岸町"},{"zipCode":"2390841","prefectureKana":"ｶﾅｶﾞﾜｹﾝ","cityKana":"ﾖｺｽｶｼ","streetKana":"ﾉﾋﾞ","prefecture":"神奈川県","city":"横須賀市","street":"野比"},{"zipCode":"2390833","prefectureKana":"ｶﾅｶﾞﾜｹﾝ","cityKana":"ﾖｺｽｶｼ","streetKana":"ﾊｲﾗﾝﾄﾞ","prefecture":"神奈川県","city":"横須賀市","street":"ハイランド"},{"zipCode":"2390811","prefectureKana":"ｶﾅｶﾞﾜｹﾝ","cityKana":"ﾖｺｽｶｼ","streetKana":"ﾊｼﾘﾐｽﾞ","prefecture":"神奈川県","city":"横須賀市","street":"走水"},{"zipCode":"2390821","prefectureKana":"ｶﾅｶﾞﾜｹﾝ","cityKana":"ﾖｺｽｶｼ","streetKana":"ﾋｶﾞｼｳﾗｶﾞ","prefecture":"神奈川県","city":"横須賀市","street":"東浦賀"},{"zipCode":"2390847","prefectureKana":"ｶﾅｶﾞﾜｹﾝ","cityKana":"ﾖｺｽｶｼ","streetKana":"ﾋｶﾘﾉｵｶ","prefecture":"神奈川県","city":"横須賀市","street":"光の丘"},{"zipCode":"2390814","prefectureKana":"ｶﾅｶﾞﾜｹﾝ","cityKana":"ﾖｺｽｶｼ","streetKana":"ﾌﾀﾊﾞ","prefecture":"神奈川県","city":"横須賀市","street":"二葉"},{"zipCode":"2390805","prefectureKana":"ｶﾅｶﾞﾜｹﾝ","cityKana":"ﾖｺｽｶｼ","streetKana":"ﾌﾅｸﾞﾗ","prefecture":"神奈川県","city":"横須賀市","street":"舟倉"},{"zipCode":"2390801","prefectureKana":"ｶﾅｶﾞﾜｹﾝ","cityKana":"ﾖｺｽｶｼ","streetKana":"ﾏﾎﾞﾘｶｲｶﾞﾝ","prefecture":"神奈川県","city":"横須賀市","street":"馬堀海岸"},{"zipCode":"2390802","prefectureKana":"ｶﾅｶﾞﾜｹﾝ","cityKana":"ﾖｺｽｶｼ","streetKana":"ﾏﾎﾞﾘﾁｮｳ","prefecture":"神奈川県","city":"横須賀市","street":"馬堀町"},{"zipCode":"2390825","prefectureKana":"ｶﾅｶﾞﾜｹﾝ","cityKana":"ﾖｺｽｶｼ","streetKana":"ﾐﾅﾐｳﾗｶﾞ","prefecture":"神奈川県","city":"横須賀市","street":"南浦賀"},{"zipCode":"2390804","prefectureKana":"ｶﾅｶﾞﾜｹﾝ","cityKana":"ﾖｺｽｶｼ","streetKana":"ﾖｼｲ","prefecture":"神奈川県","city":"横須賀市","street":"吉井"},{"zipCode":"2390829","prefectureKana":"ｶﾅｶﾞﾜｹﾝ","cityKana":"ﾖｺｽｶｼ","streetKana":"ﾜｶﾐﾔﾀﾞｲ","prefecture":"神奈川県","city":"横須賀市","street":"若宮台"}]