[{"zipCode":"2460000","prefectureKana":"ｶﾅｶﾞﾜｹﾝ","cityKana":"ﾖｺﾊﾏｼｾﾔｸ","streetKana":"ｲｶﾆｹｲｻｲｶﾞﾅｲﾊﾞｱｲ","prefecture":"神奈川県","city":"横浜市瀬谷区","street":"以下に掲載がない場合"},{"zipCode":"2460013","prefectureKana":"ｶﾅｶﾞﾜｹﾝ","cityKana":"ﾖｺﾊﾏｼｾﾔｸ","streetKana":"ｱｲｻﾞﾜ","prefecture":"神奈川県","city":"横浜市瀬谷区","street":"相沢"},{"zipCode":"2460023","prefectureKana":"ｶﾅｶﾞﾜｹﾝ","cityKana":"ﾖｺﾊﾏｼｾﾔｸ","streetKana":"ｱｸﾜﾋｶﾞｼ","prefecture":"神奈川県","city":"横浜市瀬谷区","street":"阿久和東"},{"zipCode":"2460025","prefectureKana":"ｶﾅｶﾞﾜｹﾝ","cityKana":"ﾖｺﾊﾏｼｾﾔｸ","streetKana":"ｱｸﾜﾆｼ","prefecture":"神奈川県","city":"横浜市瀬谷区","street":"阿久和西"},{"zipCode":"2460026","prefectureKana":"ｶﾅｶﾞﾜｹﾝ","cityKana":"ﾖｺﾊﾏｼｾﾔｸ","streetKana":"ｱｸﾜﾐﾅﾐ","prefecture":"神奈川県","city":"横浜市瀬谷区","street":"阿久和南"},{"zipCode":"2460012","prefectureKana":"ｶﾅｶﾞﾜｹﾝ","cityKana":"ﾖｺﾊﾏｼｾﾔｸ","streetKana":"ｱｽﾞﾏﾉ","prefecture":"神奈川県","city":"横浜市瀬谷区","street":"東野"},{"zipCode":"2460011","prefectureKana":"ｶﾅｶﾞﾜｹﾝ","cityKana":"ﾖｺﾊﾏｼｾﾔｸ","streetKana":"ｱｽﾞﾏﾉﾀﾞｲ","prefecture":"神奈川県","city":"横浜市瀬谷区","street":"東野台"},{"zipCode":"2460001","prefectureKana":"ｶﾅｶﾞﾜｹﾝ","cityKana":"ﾖｺﾊﾏｼｾﾔｸ","streetKana":"ｵﾛｼﾎﾝﾁｮｳ","prefecture":"神奈川県","city":"横浜市瀬谷区","street":"卸本町"},{"zipCode":"2460006","prefectureKana":"ｶﾅｶﾞﾜｹﾝ","cityKana":"ﾖｺﾊﾏｼｾﾔｸ","streetKana":"ｶﾐｾﾔﾁｮｳ","prefecture":"神奈川県","city":"横浜市瀬谷区","street":"上瀬谷町"},{"zipCode":"2460036","prefectureKana":"ｶﾅｶﾞﾜｹﾝ","cityKana":"ﾖｺﾊﾏｼｾﾔｸ","streetKana":"ｷﾀｼﾝ","prefecture":"神奈川県","city":"横浜市瀬谷区","street":"北新"},{"zipCode":"2460002","prefectureKana":"ｶﾅｶﾞﾜｹﾝ","cityKana":"ﾖｺﾊﾏｼｾﾔｸ","streetKana":"ｷﾀﾏﾁ","prefecture":"神奈川県","city":"横浜市瀬谷区","street":"北町"},{"zipCode":"2460008","prefectureKana":"ｶﾅｶﾞﾜｹﾝ","cityKana":"ﾖｺﾊﾏｼｾﾔｸ","streetKana":"ｺﾞｶﾝﾒﾁｮｳ","prefecture":"神奈川県","city":"横浜市瀬谷区","street":"五貫目町"},{"zipCode":"2460035","prefectureKana":"ｶﾅｶﾞﾜｹﾝ","cityKana":"ﾖｺﾊﾏｼｾﾔｸ","streetKana":"ｼﾓｾﾔ","prefecture":"神奈川県","city":"横浜市瀬谷区","street":"下瀬谷"},{"zipCode":"2460031","prefectureKana":"ｶﾅｶﾞﾜｹﾝ","cityKana":"ﾖｺﾊﾏｼｾﾔｸ","streetKana":"ｾﾔ","prefecture":"神奈川県","city":"横浜市瀬谷区","street":"瀬谷"},{"zipCode":"2460003","prefectureKana":"ｶﾅｶﾞﾜｹﾝ","cityKana":"ﾖｺﾊﾏｼｾﾔｸ","streetKana":"ｾﾔﾁｮｳ","prefecture":"神奈川県","city":"横浜市瀬谷区","street":"瀬谷町"},{"zipCode":"2460005","prefectureKana":"ｶﾅｶﾞﾜｹﾝ","cityKana":"ﾖｺﾊﾏｼｾﾔｸ","streetKana":"ﾀｹﾑﾗﾁｮｳ","prefecture":"神奈川県","city":"横浜市瀬谷区","street":"竹村町"},{"zipCode":"2460014","prefectureKana":"ｶﾅｶﾞﾜｹﾝ","cityKana":"ﾖｺﾊﾏｼｾﾔｸ","streetKana":"ﾁｭｳｵｳ","prefecture":"神奈川県","city":"横浜市瀬谷区","street":"中央"},{"zipCode":"2460004","prefectureKana":"ｶﾅｶﾞﾜｹﾝ","cityKana":"ﾖｺﾊﾏｼｾﾔｸ","streetKana":"ﾅｶﾔｼｷ","prefecture":"神奈川県","city":"横浜市瀬谷区","street":"中屋敷"},{"zipCode":"2460037","prefectureKana":"ｶﾅｶﾞﾜｹﾝ","cityKana":"ﾖｺﾊﾏｼｾﾔｸ","streetKana":"ﾊｼﾄﾞ","prefecture":"神奈川県","city":"横浜市瀬谷区","street":"橋戸"},{"zipCode":"2460021","prefectureKana":"ｶﾅｶﾞﾜｹﾝ","cityKana":"ﾖｺﾊﾏｼｾﾔｸ","streetKana":"ﾌﾀﾂﾊﾞｼﾁｮｳ","prefecture":"神奈川県","city":"横浜市瀬谷区","street":"二ツ橋町"},{"zipCode":"2460015","prefectureKana":"ｶﾅｶﾞﾜｹﾝ","cityKana":"ﾖｺﾊﾏｼｾﾔｸ","streetKana":"ﾎﾝｺﾞｳ","prefecture":"神奈川県","city":"横浜市瀬谷区","street":"本郷"},{"zipCode":"2460022","prefectureKana":"ｶﾅｶﾞﾜｹﾝ","cityKana":"ﾖｺﾊﾏｼｾﾔｸ","streetKana":"ﾐﾂｷｮｳ","prefecture":"神奈川県","city":"横浜市瀬谷区","street":"三ツ境"},{"zipCode":"2460034","prefectureKana":"ｶﾅｶﾞﾜｹﾝ","cityKana":"ﾖｺﾊﾏｼｾﾔｸ","streetKana":"ﾐﾅﾐｾﾔ","prefecture":"神奈川県","city":"横浜市瀬谷区","street":"南瀬谷"},{"zipCode":"2460032","prefectureKana":"ｶﾅｶﾞﾜｹﾝ","cityKana":"ﾖｺﾊﾏｼｾﾔｸ","streetKana":"ﾐﾅﾐﾀﾞｲ","prefecture":"神奈川県","city":"横浜市瀬谷区","street":"南台"},{"zipCode":"2460038","prefectureKana":"ｶﾅｶﾞﾜｹﾝ","cityKana":"ﾖｺﾊﾏｼｾﾔｸ","streetKana":"ﾐﾔｻﾞﾜ","prefecture":"神奈川県","city":"横浜市瀬谷区","street":"宮沢"},{"zipCode":"2460007","prefectureKana":"ｶﾅｶﾞﾜｹﾝ","cityKana":"ﾖｺﾊﾏｼｾﾔｸ","streetKana":"ﾒｸﾞﾛﾁｮｳ","prefecture":"神奈川県","city":"横浜市瀬谷区","street":"目黒町"}]