[{"zipCode":"2470000","prefectureKana":"ｶﾅｶﾞﾜｹﾝ","cityKana":"ﾖｺﾊﾏｼｻｶｴｸ","streetKana":"ｲｶﾆｹｲｻｲｶﾞﾅｲﾊﾞｱｲ","prefecture":"神奈川県","city":"横浜市栄区","street":"以下に掲載がない場合"},{"zipCode":"2470026","prefectureKana":"ｶﾅｶﾞﾜｹﾝ","cityKana":"ﾖｺﾊﾏｼｻｶｴｸ","streetKana":"ｲﾉﾔﾏﾁｮｳ","prefecture":"神奈川県","city":"横浜市栄区","street":"犬山町"},{"zipCode":"2470027","prefectureKana":"ｶﾅｶﾞﾜｹﾝ","cityKana":"ﾖｺﾊﾏｼｻｶｴｸ","streetKana":"ｵﾂﾞｷ","prefecture":"神奈川県","city":"横浜市栄区","street":"尾月"},{"zipCode":"2470006","prefectureKana":"ｶﾅｶﾞﾜｹﾝ","cityKana":"ﾖｺﾊﾏｼｻｶｴｸ","streetKana":"ｶｻﾏ","prefecture":"神奈川県","city":"横浜市栄区","street":"笠間"},{"zipCode":"2470009","prefectureKana":"ｶﾅｶﾞﾜｹﾝ","cityKana":"ﾖｺﾊﾏｼｻｶｴｸ","streetKana":"ｶｼﾞｶﾞﾔ","prefecture":"神奈川県","city":"横浜市栄区","street":"鍛冶ケ谷"},{"zipCode":"2470003","prefectureKana":"ｶﾅｶﾞﾜｹﾝ","cityKana":"ﾖｺﾊﾏｼｻｶｴｸ","streetKana":"ｶｼﾞｶﾞﾔﾁｮｳ","prefecture":"神奈川県","city":"横浜市栄区","street":"鍛冶ケ谷町"},{"zipCode":"2470031","prefectureKana":"ｶﾅｶﾞﾜｹﾝ","cityKana":"ﾖｺﾊﾏｼｻｶｴｸ","streetKana":"ｶﾂﾗﾀﾞｲｷﾀ","prefecture":"神奈川県","city":"横浜市栄区","street":"桂台北"},{"zipCode":"2470034","prefectureKana":"ｶﾅｶﾞﾜｹﾝ","cityKana":"ﾖｺﾊﾏｼｻｶｴｸ","streetKana":"ｶﾂﾗﾀﾞｲﾅｶ","prefecture":"神奈川県","city":"横浜市栄区","street":"桂台中"},{"zipCode":"2470035","prefectureKana":"ｶﾅｶﾞﾜｹﾝ","cityKana":"ﾖｺﾊﾏｼｻｶｴｸ","streetKana":"ｶﾂﾗﾀﾞｲﾆｼ","prefecture":"神奈川県","city":"横浜市栄区","street":"桂台西"},{"zipCode":"2470032","prefectureKana":"ｶﾅｶﾞﾜｹﾝ","cityKana":"ﾖｺﾊﾏｼｻｶｴｸ","streetKana":"ｶﾂﾗﾀﾞｲﾋｶﾞｼ","prefecture":"神奈川県","city":"横浜市栄区","street":"桂台東"},{"zipCode":"2470033","prefectureKana":"ｶﾅｶﾞﾜｹﾝ","cityKana":"ﾖｺﾊﾏｼｻｶｴｸ","streetKana":"ｶﾂﾗﾀﾞｲﾐﾅﾐ","prefecture":"神奈川県","city":"横浜市栄区","street":"桂台南"},{"zipCode":"2470005","prefectureKana":"ｶﾅｶﾞﾜｹﾝ","cityKana":"ﾖｺﾊﾏｼｻｶｴｸ","streetKana":"ｶﾂﾗﾁｮｳ","prefecture":"神奈川県","city":"横浜市栄区","street":"桂町"},{"zipCode":"2470013","prefectureKana":"ｶﾅｶﾞﾜｹﾝ","cityKana":"ﾖｺﾊﾏｼｻｶｴｸ","streetKana":"ｶﾐｺﾞｳﾁｮｳ","prefecture":"神奈川県","city":"横浜市栄区","street":"上郷町"},{"zipCode":"2470025","prefectureKana":"ｶﾅｶﾞﾜｹﾝ","cityKana":"ﾖｺﾊﾏｼｻｶｴｸ","streetKana":"ｶﾐﾉﾁｮｳ","prefecture":"神奈川県","city":"横浜市栄区","street":"上之町"},{"zipCode":"2470028","prefectureKana":"ｶﾅｶﾞﾜｹﾝ","cityKana":"ﾖｺﾊﾏｼｻｶｴｸ","streetKana":"ｶﾒｲﾁｮｳ","prefecture":"神奈川県","city":"横浜市栄区","street":"亀井町"},{"zipCode":"2470014","prefectureKana":"ｶﾅｶﾞﾜｹﾝ","cityKana":"ﾖｺﾊﾏｼｻｶｴｸ","streetKana":"ｸﾃﾞﾝﾁｮｳ","prefecture":"神奈川県","city":"横浜市栄区","street":"公田町"},{"zipCode":"2470007","prefectureKana":"ｶﾅｶﾞﾜｹﾝ","cityKana":"ﾖｺﾊﾏｼｻｶｴｸ","streetKana":"ｺｽｶﾞﾔ","prefecture":"神奈川県","city":"横浜市栄区","street":"小菅ケ谷"},{"zipCode":"2470001","prefectureKana":"ｶﾅｶﾞﾜｹﾝ","cityKana":"ﾖｺﾊﾏｼｻｶｴｸ","streetKana":"ｺｽｶﾞﾔﾁｮｳ","prefecture":"神奈川県","city":"横浜市栄区","street":"小菅ケ谷町"},{"zipCode":"2470002","prefectureKana":"ｶﾅｶﾞﾜｹﾝ","cityKana":"ﾖｺﾊﾏｼｻｶｴｸ","streetKana":"ｺﾔﾏﾀﾞｲ","prefecture":"神奈川県","city":"横浜市栄区","street":"小山台"},{"zipCode":"2470022","prefectureKana":"ｶﾅｶﾞﾜｹﾝ","cityKana":"ﾖｺﾊﾏｼｻｶｴｸ","streetKana":"ｼｮｳﾄﾞ","prefecture":"神奈川県","city":"横浜市栄区","street":"庄戸"},{"zipCode":"2470015","prefectureKana":"ｶﾅｶﾞﾜｹﾝ","cityKana":"ﾖｺﾊﾏｼｻｶｴｸ","streetKana":"ﾅｶﾉﾁｮｳ","prefecture":"神奈川県","city":"横浜市栄区","street":"中野町"},{"zipCode":"2470023","prefectureKana":"ｶﾅｶﾞﾜｹﾝ","cityKana":"ﾖｺﾊﾏｼｻｶｴｸ","streetKana":"ﾅｶﾞｸﾗﾁｮｳ","prefecture":"神奈川県","city":"横浜市栄区","street":"長倉町"},{"zipCode":"2470024","prefectureKana":"ｶﾅｶﾞﾜｹﾝ","cityKana":"ﾖｺﾊﾏｼｻｶｴｸ","streetKana":"ﾉｼﾁﾘ","prefecture":"神奈川県","city":"横浜市栄区","street":"野七里"},{"zipCode":"2470004","prefectureKana":"ｶﾅｶﾞﾜｹﾝ","cityKana":"ﾖｺﾊﾏｼｻｶｴｸ","streetKana":"ﾊｸﾖｳ","prefecture":"神奈川県","city":"横浜市栄区","street":"柏陽"},{"zipCode":"2470021","prefectureKana":"ｶﾅｶﾞﾜｹﾝ","cityKana":"ﾖｺﾊﾏｼｻｶｴｸ","streetKana":"ﾋｶﾞｼｶﾐｺﾞｳﾁｮｳ","prefecture":"神奈川県","city":"横浜市栄区","street":"東上郷町"},{"zipCode":"2470008","prefectureKana":"ｶﾅｶﾞﾜｹﾝ","cityKana":"ﾖｺﾊﾏｼｻｶｴｸ","streetKana":"ﾎﾝｺﾞｳﾀﾞｲ","prefecture":"神奈川県","city":"横浜市栄区","street":"本郷台"},{"zipCode":"2470011","prefectureKana":"ｶﾅｶﾞﾜｹﾝ","cityKana":"ﾖｺﾊﾏｼｻｶｴｸ","streetKana":"ﾓﾄｵｵﾊｼ","prefecture":"神奈川県","city":"横浜市栄区","street":"元大橋"},{"zipCode":"2470012","prefectureKana":"ｶﾅｶﾞﾜｹﾝ","cityKana":"ﾖｺﾊﾏｼｻｶｴｸ","streetKana":"ﾜｶﾀｹﾁｮｳ","prefecture":"神奈川県","city":"横浜市栄区","street":"若竹町"},{"zipCode":"2470052","prefectureKana":"ｶﾅｶﾞﾜｹﾝ","cityKana":"ｶﾏｸﾗｼ","streetKana":"ｲﾏｲｽﾞﾐ","prefecture":"神奈川県","city":"鎌倉市","street":"今泉"},{"zipCode":"2470053","prefectureKana":"ｶﾅｶﾞﾜｹﾝ","cityKana":"ｶﾏｸﾗｼ","streetKana":"ｲﾏｲｽﾞﾐﾀﾞｲ","prefecture":"神奈川県","city":"鎌倉市","street":"今泉台"},{"zipCode":"2470051","prefectureKana":"ｶﾅｶﾞﾜｹﾝ","cityKana":"ｶﾏｸﾗｼ","streetKana":"ｲﾜｾ","prefecture":"神奈川県","city":"鎌倉市","street":"岩瀬"},{"zipCode":"2470073","prefectureKana":"ｶﾅｶﾞﾜｹﾝ","cityKana":"ｶﾏｸﾗｼ","streetKana":"ｳｴｷ","prefecture":"神奈川県","city":"鎌倉市","street":"植木"},{"zipCode":"2470056","prefectureKana":"ｶﾅｶﾞﾜｹﾝ","cityKana":"ｶﾏｸﾗｼ","streetKana":"ｵｵﾌﾅ","prefecture":"神奈川県","city":"鎌倉市","street":"大船"},{"zipCode":"2470072","prefectureKana":"ｶﾅｶﾞﾜｹﾝ","cityKana":"ｶﾏｸﾗｼ","streetKana":"ｵｶﾓﾄ","prefecture":"神奈川県","city":"鎌倉市","street":"岡本"},{"zipCode":"2470063","prefectureKana":"ｶﾅｶﾞﾜｹﾝ","cityKana":"ｶﾏｸﾗｼ","streetKana":"ｶｼﾞﾜﾗ","prefecture":"神奈川県","city":"鎌倉市","street":"梶原"},{"zipCode":"2470065","prefectureKana":"ｶﾅｶﾞﾜｹﾝ","cityKana":"ｶﾏｸﾗｼ","streetKana":"ｶﾐﾏﾁﾔ","prefecture":"神奈川県","city":"鎌倉市","street":"上町屋"},{"zipCode":"2470055","prefectureKana":"ｶﾅｶﾞﾜｹﾝ","cityKana":"ｶﾏｸﾗｼ","streetKana":"ｺﾌﾞｸﾛﾔ","prefecture":"神奈川県","city":"鎌倉市","street":"小袋谷"},{"zipCode":"2470074","prefectureKana":"ｶﾅｶﾞﾜｹﾝ","cityKana":"ｶﾏｸﾗｼ","streetKana":"ｼﾛﾒｸﾞﾘ","prefecture":"神奈川県","city":"鎌倉市","street":"城廻"},{"zipCode":"2470075","prefectureKana":"ｶﾅｶﾞﾜｹﾝ","cityKana":"ｶﾏｸﾗｼ","streetKana":"ｾｷﾔ","prefecture":"神奈川県","city":"鎌倉市","street":"関谷"},{"zipCode":"2470061","prefectureKana":"ｶﾅｶﾞﾜｹﾝ","cityKana":"ｶﾏｸﾗｼ","streetKana":"ﾀﾞｲ","prefecture":"神奈川県","city":"鎌倉市","street":"台"},{"zipCode":"2470054","prefectureKana":"ｶﾅｶﾞﾜｹﾝ","cityKana":"ｶﾏｸﾗｼ","streetKana":"ﾀｶﾉ","prefecture":"神奈川県","city":"鎌倉市","street":"高野"},{"zipCode":"2470071","prefectureKana":"ｶﾅｶﾞﾜｹﾝ","cityKana":"ｶﾏｸﾗｼ","streetKana":"ﾀﾏﾅﾜ","prefecture":"神奈川県","city":"鎌倉市","street":"玉縄"},{"zipCode":"2470064","prefectureKana":"ｶﾅｶﾞﾜｹﾝ","cityKana":"ｶﾏｸﾗｼ","streetKana":"ﾃﾗﾌﾞﾝ","prefecture":"神奈川県","city":"鎌倉市","street":"寺分"},{"zipCode":"2470066","prefectureKana":"ｶﾅｶﾞﾜｹﾝ","cityKana":"ｶﾏｸﾗｼ","streetKana":"ﾔﾏｻｷ","prefecture":"神奈川県","city":"鎌倉市","street":"山崎"},{"zipCode":"2470062","prefectureKana":"ｶﾅｶﾞﾜｹﾝ","cityKana":"ｶﾏｸﾗｼ","streetKana":"ﾔﾏﾉｳﾁ","prefecture":"神奈川県","city":"鎌倉市","street":"山ノ内"}]