[{"zipCode":"2500000","prefectureKana":"ｶﾅｶﾞﾜｹﾝ","cityKana":"ｵﾀﾞﾜﾗｼ","streetKana":"ｲｶﾆｹｲｻｲｶﾞﾅｲﾊﾞｱｲ","prefecture":"神奈川県","city":"小田原市","street":"以下に掲載がない場合"},{"zipCode":"2500053","prefectureKana":"ｶﾅｶﾞﾜｹﾝ","cityKana":"ｵﾀﾞﾜﾗｼ","streetKana":"ｱﾅﾍﾞ","prefecture":"神奈川県","city":"小田原市","street":"穴部"},{"zipCode":"2500864","prefectureKana":"ｶﾅｶﾞﾜｹﾝ","cityKana":"ｵﾀﾞﾜﾗｼ","streetKana":"ｱﾅﾍﾞｼﾝﾃﾞﾝ","prefecture":"神奈川県","city":"小田原市","street":"穴部新田"},{"zipCode":"2500856","prefectureKana":"ｶﾅｶﾞﾜｹﾝ","cityKana":"ｵﾀﾞﾜﾗｼ","streetKana":"ｱﾗﾔ","prefecture":"神奈川県","city":"小田原市","street":"新屋"},{"zipCode":"2500863","prefectureKana":"ｶﾅｶﾞﾜｹﾝ","cityKana":"ｵﾀﾞﾜﾗｼ","streetKana":"ｲｲｽﾞﾐ","prefecture":"神奈川県","city":"小田原市","street":"飯泉"},{"zipCode":"2500854","prefectureKana":"ｶﾅｶﾞﾜｹﾝ","cityKana":"ｵﾀﾞﾜﾗｼ","streetKana":"ｲｲﾀﾞｵｶ","prefecture":"神奈川県","city":"小田原市","street":"飯田岡"},{"zipCode":"2500041","prefectureKana":"ｶﾅｶﾞﾜｹﾝ","cityKana":"ｵﾀﾞﾜﾗｼ","streetKana":"ｲｹｶﾞﾐ","prefecture":"神奈川県","city":"小田原市","street":"池上"},{"zipCode":"2500056","prefectureKana":"ｶﾅｶﾞﾜｹﾝ","cityKana":"ｵﾀﾞﾜﾗｼ","streetKana":"ｲｻｲﾀﾞ","prefecture":"神奈川県","city":"小田原市","street":"井細田"},{"zipCode":"2500022","prefectureKana":"ｶﾅｶﾞﾜｹﾝ","cityKana":"ｵﾀﾞﾜﾗｼ","streetKana":"ｲｼﾊﾞｼ","prefecture":"神奈川県","city":"小田原市","street":"石橋"},{"zipCode":"2500034","prefectureKana":"ｶﾅｶﾞﾜｹﾝ","cityKana":"ｵﾀﾞﾜﾗｼ","streetKana":"ｲﾀﾊﾞｼ","prefecture":"神奈川県","city":"小田原市","street":"板橋"},{"zipCode":"2500031","prefectureKana":"ｶﾅｶﾞﾜｹﾝ","cityKana":"ｵﾀﾞﾜﾗｼ","streetKana":"ｲﾘｭｳﾀﾞ","prefecture":"神奈川県","city":"小田原市","street":"入生田"},{"zipCode":"2500025","prefectureKana":"ｶﾅｶﾞﾜｹﾝ","cityKana":"ｵﾀﾞﾜﾗｼ","streetKana":"ｴﾉｳﾗ","prefecture":"神奈川県","city":"小田原市","street":"江之浦"},{"zipCode":"2500001","prefectureKana":"ｶﾅｶﾞﾜｹﾝ","cityKana":"ｵﾀﾞﾜﾗｼ","streetKana":"ｵｳｷﾞﾁｮｳ","prefecture":"神奈川県","city":"小田原市","street":"扇町"},{"zipCode":"2500042","prefectureKana":"ｶﾅｶﾞﾜｹﾝ","cityKana":"ｵﾀﾞﾜﾗｼ","streetKana":"ｵｷﾞｸﾎﾞ","prefecture":"神奈川県","city":"小田原市","street":"荻窪"},{"zipCode":"2500211","prefectureKana":"ｶﾅｶﾞﾜｹﾝ","cityKana":"ｵﾀﾞﾜﾗｼ","streetKana":"ｵﾆﾔﾅｷﾞ","prefecture":"神奈川県","city":"小田原市","street":"鬼柳"},{"zipCode":"2500032","prefectureKana":"ｶﾅｶﾞﾜｹﾝ","cityKana":"ｵﾀﾞﾜﾗｼ","streetKana":"ｶｻﾞﾏﾂﾘ","prefecture":"神奈川県","city":"小田原市","street":"風祭"},{"zipCode":"2500877","prefectureKana":"ｶﾅｶﾞﾜｹﾝ","cityKana":"ｵﾀﾞﾜﾗｼ","streetKana":"ｶﾐｼﾝﾃﾞﾝ","prefecture":"神奈川県","city":"小田原市","street":"上新田"},{"zipCode":"2500202","prefectureKana":"ｶﾅｶﾞﾜｹﾝ","cityKana":"ｵﾀﾞﾜﾗｼ","streetKana":"ｶﾐｿｶﾞ","prefecture":"神奈川県","city":"小田原市","street":"上曽我"},{"zipCode":"2500874","prefectureKana":"ｶﾅｶﾞﾜｹﾝ","cityKana":"ｵﾀﾞﾜﾗｼ","streetKana":"ｶﾓﾉﾐﾔ","prefecture":"神奈川県","city":"小田原市","street":"鴨宮"},{"zipCode":"2500852","prefectureKana":"ｶﾅｶﾞﾜｹﾝ","cityKana":"ｵﾀﾞﾜﾗｼ","streetKana":"ｶﾔﾏ","prefecture":"神奈川県","city":"小田原市","street":"栢山"},{"zipCode":"2500051","prefectureKana":"ｶﾅｶﾞﾜｹﾝ","cityKana":"ｵﾀﾞﾜﾗｼ","streetKana":"ｷﾀﾉｸﾎﾞ","prefecture":"神奈川県","city":"小田原市","street":"北ノ窪"},{"zipCode":"2500055","prefectureKana":"ｶﾅｶﾞﾜｹﾝ","cityKana":"ｵﾀﾞﾜﾗｼ","streetKana":"ｸﾉ","prefecture":"神奈川県","city":"小田原市","street":"久野"},{"zipCode":"2500861","prefectureKana":"ｶﾅｶﾞﾜｹﾝ","cityKana":"ｵﾀﾞﾜﾗｼ","streetKana":"ｸﾜﾊﾗ","prefecture":"神奈川県","city":"小田原市","street":"桑原"},{"zipCode":"2500858","prefectureKana":"ｶﾅｶﾞﾜｹﾝ","cityKana":"ｵﾀﾞﾜﾗｼ","streetKana":"ｺﾀﾞｲ","prefecture":"神奈川県","city":"小田原市","street":"小台"},{"zipCode":"2500002","prefectureKana":"ｶﾅｶﾞﾜｹﾝ","cityKana":"ｵﾀﾞﾜﾗｼ","streetKana":"ｺﾄﾌﾞｷﾁｮｳ","prefecture":"神奈川県","city":"小田原市","street":"寿町"},{"zipCode":"2500023","prefectureKana":"ｶﾅｶﾞﾜｹﾝ","cityKana":"ｵﾀﾞﾜﾗｼ","streetKana":"ｺﾒｶﾐ","prefecture":"神奈川県","city":"小田原市","street":"米神"},{"zipCode":"2500011","prefectureKana":"ｶﾅｶﾞﾜｹﾝ","cityKana":"ｵﾀﾞﾜﾗｼ","streetKana":"ｻｶｴﾁｮｳ","prefecture":"神奈川県","city":"小田原市","street":"栄町"},{"zipCode":"2500855","prefectureKana":"ｶﾅｶﾞﾜｹﾝ","cityKana":"ｵﾀﾞﾜﾗｼ","streetKana":"ｼﾐｽﾞｼﾝﾃﾞﾝ","prefecture":"神奈川県","city":"小田原市","street":"清水新田"},{"zipCode":"2500208","prefectureKana":"ｶﾅｶﾞﾜｹﾝ","cityKana":"ｵﾀﾞﾜﾗｼ","streetKana":"ｼﾓｵｵｲ","prefecture":"神奈川県","city":"小田原市","street":"下大井"},{"zipCode":"2500878","prefectureKana":"ｶﾅｶﾞﾜｹﾝ","cityKana":"ｵﾀﾞﾜﾗｼ","streetKana":"ｼﾓｼﾝﾃﾞﾝ","prefecture":"神奈川県","city":"小田原市","street":"下新田"},{"zipCode":"2500871","prefectureKana":"ｶﾅｶﾞﾜｹﾝ","cityKana":"ｵﾀﾞﾜﾗｼ","streetKana":"ｼﾓﾎﾞﾘ","prefecture":"神奈川県","city":"小田原市","street":"下堀"},{"zipCode":"2500046","prefectureKana":"ｶﾅｶﾞﾜｹﾝ","cityKana":"ｵﾀﾞﾜﾗｼ","streetKana":"ｼﾞｭｳｼﾞ","prefecture":"神奈川県","city":"小田原市","street":"十字"},{"zipCode":"2500014","prefectureKana":"ｶﾅｶﾞﾜｹﾝ","cityKana":"ｵﾀﾞﾜﾗｼ","streetKana":"ｼﾞｮｳﾅｲ","prefecture":"神奈川県","city":"小田原市","street":"城内"},{"zipCode":"2500045","prefectureKana":"ｶﾅｶﾞﾜｹﾝ","cityKana":"ｵﾀﾞﾜﾗｼ","streetKana":"ｼﾛﾔﾏ","prefecture":"神奈川県","city":"小田原市","street":"城山"},{"zipCode":"2500201","prefectureKana":"ｶﾅｶﾞﾜｹﾝ","cityKana":"ｵﾀﾞﾜﾗｼ","streetKana":"ｿｶﾞｵｵｻﾜ","prefecture":"神奈川県","city":"小田原市","street":"曽我大沢"},{"zipCode":"2500203","prefectureKana":"ｶﾅｶﾞﾜｹﾝ","cityKana":"ｵﾀﾞﾜﾗｼ","streetKana":"ｿｶﾞｷｼ","prefecture":"神奈川県","city":"小田原市","street":"曽我岸"},{"zipCode":"2500207","prefectureKana":"ｶﾅｶﾞﾜｹﾝ","cityKana":"ｵﾀﾞﾜﾗｼ","streetKana":"ｿｶﾞｺｳﾐ","prefecture":"神奈川県","city":"小田原市","street":"曽我光海"},{"zipCode":"2500205","prefectureKana":"ｶﾅｶﾞﾜｹﾝ","cityKana":"ｵﾀﾞﾜﾗｼ","streetKana":"ｿｶﾞﾍﾞｯｼｮ","prefecture":"神奈川県","city":"小田原市","street":"曽我別所"},{"zipCode":"2500204","prefectureKana":"ｶﾅｶﾞﾜｹﾝ","cityKana":"ｵﾀﾞﾜﾗｼ","streetKana":"ｿｶﾞﾔﾂ","prefecture":"神奈川県","city":"小田原市","street":"曽我谷津"},{"zipCode":"2500206","prefectureKana":"ｶﾅｶﾞﾜｹﾝ","cityKana":"ｵﾀﾞﾜﾗｼ","streetKana":"ｿｶﾞﾊﾗ","prefecture":"神奈川県","city":"小田原市","street":"曽我原"},{"zipCode":"2500851","prefectureKana":"ｶﾅｶﾞﾜｹﾝ","cityKana":"ｵﾀﾞﾜﾗｼ","streetKana":"ｿﾋﾞ","prefecture":"神奈川県","city":"小田原市","street":"曽比"},{"zipCode":"2500216","prefectureKana":"ｶﾅｶﾞﾜｹﾝ","cityKana":"ｵﾀﾞﾜﾗｼ","streetKana":"ﾀｶﾀ","prefecture":"神奈川県","city":"小田原市","street":"高田"},{"zipCode":"2500054","prefectureKana":"ｶﾅｶﾞﾜｹﾝ","cityKana":"ｵﾀﾞﾜﾗｼ","streetKana":"ﾀｺ","prefecture":"神奈川県","city":"小田原市","street":"多古"},{"zipCode":"2500215","prefectureKana":"ｶﾅｶﾞﾜｹﾝ","cityKana":"ｵﾀﾞﾜﾗｼ","streetKana":"ﾁﾖ","prefecture":"神奈川県","city":"小田原市","street":"千代"},{"zipCode":"2500872","prefectureKana":"ｶﾅｶﾞﾜｹﾝ","cityKana":"ｵﾀﾞﾜﾗｼ","streetKana":"ﾅｶｻﾞﾄ","prefecture":"神奈川県","city":"小田原市","street":"中里"},{"zipCode":"2500876","prefectureKana":"ｶﾅｶﾞﾜｹﾝ","cityKana":"ｵﾀﾞﾜﾗｼ","streetKana":"ﾅｶｼﾝﾃﾞﾝ","prefecture":"神奈川県","city":"小田原市","street":"中新田"},{"zipCode":"2500866","prefectureKana":"ｶﾅｶﾞﾜｹﾝ","cityKana":"ｵﾀﾞﾜﾗｼ","streetKana":"ﾅｶｿﾞﾈ","prefecture":"神奈川県","city":"小田原市","street":"中曽根"},{"zipCode":"2500005","prefectureKana":"ｶﾅｶﾞﾜｹﾝ","cityKana":"ｵﾀﾞﾜﾗｼ","streetKana":"ﾅｶﾁｮｳ","prefecture":"神奈川県","city":"小田原市","street":"中町"},{"zipCode":"2500214","prefectureKana":"ｶﾅｶﾞﾜｹﾝ","cityKana":"ｵﾀﾞﾜﾗｼ","streetKana":"ﾅｶﾞﾂｶ","prefecture":"神奈川県","city":"小田原市","street":"永塚"},{"zipCode":"2500862","prefectureKana":"ｶﾅｶﾞﾜｹﾝ","cityKana":"ｵﾀﾞﾜﾗｼ","streetKana":"ﾅﾙﾀﾞ","prefecture":"神奈川県","city":"小田原市","street":"成田"},{"zipCode":"2500212","prefectureKana":"ｶﾅｶﾞﾜｹﾝ","cityKana":"ｵﾀﾞﾜﾗｼ","streetKana":"ﾆｼｵｵﾄﾞﾓ","prefecture":"神奈川県","city":"小田原市","street":"西大友"},{"zipCode":"2500024","prefectureKana":"ｶﾅｶﾞﾜｹﾝ","cityKana":"ｵﾀﾞﾜﾗｼ","streetKana":"ﾈﾌﾞｶﾜ","prefecture":"神奈川県","city":"小田原市","street":"根府川"},{"zipCode":"2500218","prefectureKana":"ｶﾅｶﾞﾜｹﾝ","cityKana":"ｵﾀﾞﾜﾗｼ","streetKana":"ﾉﾌﾞｷﾖ","prefecture":"神奈川県","city":"小田原市","street":"延清"},{"zipCode":"2500004","prefectureKana":"ｶﾅｶﾞﾜｹﾝ","cityKana":"ｵﾀﾞﾜﾗｼ","streetKana":"ﾊﾏﾁｮｳ","prefecture":"神奈川県","city":"小田原市","street":"浜町"},{"zipCode":"2500021","prefectureKana":"ｶﾅｶﾞﾜｹﾝ","cityKana":"ｵﾀﾞﾜﾗｼ","streetKana":"ﾊﾔｶﾜ","prefecture":"神奈川県","city":"小田原市","street":"早川"},{"zipCode":"2500213","prefectureKana":"ｶﾅｶﾞﾜｹﾝ","cityKana":"ｵﾀﾞﾜﾗｼ","streetKana":"ﾋｶﾞｼｵｵﾄﾞﾓ","prefecture":"神奈川県","city":"小田原市","street":"東大友"},{"zipCode":"2500003","prefectureKana":"ｶﾅｶﾞﾜｹﾝ","cityKana":"ｵﾀﾞﾜﾗｼ","streetKana":"ﾋｶﾞｼﾁｮｳ","prefecture":"神奈川県","city":"小田原市","street":"東町"},{"zipCode":"2500052","prefectureKana":"ｶﾅｶﾞﾜｹﾝ","cityKana":"ｵﾀﾞﾜﾗｼ","streetKana":"ﾌｶﾜ","prefecture":"神奈川県","city":"小田原市","street":"府川"},{"zipCode":"2500217","prefectureKana":"ｶﾅｶﾞﾜｹﾝ","cityKana":"ｵﾀﾞﾜﾗｼ","streetKana":"ﾍﾞｯﾎﾟﾘ","prefecture":"神奈川県","city":"小田原市","street":"別堀"},{"zipCode":"2500853","prefectureKana":"ｶﾅｶﾞﾜｹﾝ","cityKana":"ｵﾀﾞﾜﾗｼ","streetKana":"ﾎﾘﾉｳﾁ","prefecture":"神奈川県","city":"小田原市","street":"堀之内"},{"zipCode":"2500012","prefectureKana":"ｶﾅｶﾞﾜｹﾝ","cityKana":"ｵﾀﾞﾜﾗｼ","streetKana":"ﾎﾝﾁｮｳ","prefecture":"神奈川県","city":"小田原市","street":"本町"},{"zipCode":"2500033","prefectureKana":"ｶﾅｶﾞﾜｹﾝ","cityKana":"ｵﾀﾞﾜﾗｼ","streetKana":"ﾐｽﾞﾉｵ","prefecture":"神奈川県","city":"小田原市","street":"水之尾"},{"zipCode":"2500044","prefectureKana":"ｶﾅｶﾞﾜｹﾝ","cityKana":"ｵﾀﾞﾜﾗｼ","streetKana":"ﾐﾄﾞﾘ","prefecture":"神奈川県","city":"小田原市","street":"緑"},{"zipCode":"2500035","prefectureKana":"ｶﾅｶﾞﾜｹﾝ","cityKana":"ｵﾀﾞﾜﾗｼ","streetKana":"ﾐﾅﾐｲﾀﾊﾞｼ","prefecture":"神奈川県","city":"小田原市","street":"南板橋"},{"zipCode":"2500875","prefectureKana":"ｶﾅｶﾞﾜｹﾝ","cityKana":"ｵﾀﾞﾜﾗｼ","streetKana":"ﾐﾅﾐｶﾓﾉﾐﾔ","prefecture":"神奈川県","city":"小田原市","street":"南鴨宮"},{"zipCode":"2500013","prefectureKana":"ｶﾅｶﾞﾜｹﾝ","cityKana":"ｵﾀﾞﾜﾗｼ","streetKana":"ﾐﾅﾐﾁｮｳ","prefecture":"神奈川県","city":"小田原市","street":"南町"},{"zipCode":"2500043","prefectureKana":"ｶﾅｶﾞﾜｹﾝ","cityKana":"ｵﾀﾞﾜﾗｼ","streetKana":"ﾔﾂ","prefecture":"神奈川県","city":"小田原市","street":"谷津"},{"zipCode":"2500857","prefectureKana":"ｶﾅｶﾞﾜｹﾝ","cityKana":"ｵﾀﾞﾜﾗｼ","streetKana":"ﾔﾅｷﾞｼﾝﾃﾞﾝ","prefecture":"神奈川県","city":"小田原市","street":"柳新田"},{"zipCode":"2500873","prefectureKana":"ｶﾅｶﾞﾜｹﾝ","cityKana":"ｵﾀﾞﾜﾗｼ","streetKana":"ﾔﾊｷﾞ","prefecture":"神奈川県","city":"小田原市","street":"矢作"},{"zipCode":"2500865","prefectureKana":"ｶﾅｶﾞﾜｹﾝ","cityKana":"ｵﾀﾞﾜﾗｼ","streetKana":"ﾚﾝｼｮｳｼﾞ","prefecture":"神奈川県","city":"小田原市","street":"蓮正寺"},{"zipCode":"2500100","prefectureKana":"ｶﾅｶﾞﾜｹﾝ","cityKana":"ﾐﾅﾐｱｼｶﾞﾗｼ","streetKana":"ｲｶﾆｹｲｻｲｶﾞﾅｲﾊﾞｱｲ","prefecture":"神奈川県","city":"南足柄市","street":"以下に掲載がない場合"},{"zipCode":"2500134","prefectureKana":"ｶﾅｶﾞﾜｹﾝ","cityKana":"ﾐﾅﾐｱｼｶﾞﾗｼ","streetKana":"ｱﾏﾂﾎﾞ","prefecture":"神奈川県","city":"南足柄市","street":"雨坪"},{"zipCode":"2500122","prefectureKana":"ｶﾅｶﾞﾜｹﾝ","cityKana":"ﾐﾅﾐｱｼｶﾞﾗｼ","streetKana":"ｲｲｻﾞﾜ","prefecture":"神奈川県","city":"南足柄市","street":"飯沢"},{"zipCode":"2500124","prefectureKana":"ｶﾅｶﾞﾜｹﾝ","cityKana":"ﾐﾅﾐｱｼｶﾞﾗｼ","streetKana":"ｲｺﾏ","prefecture":"神奈川県","city":"南足柄市","street":"生駒"},{"zipCode":"2500113","prefectureKana":"ｶﾅｶﾞﾜｹﾝ","cityKana":"ﾐﾅﾐｱｼｶﾞﾗｼ","streetKana":"ｲﾜﾊﾗ","prefecture":"神奈川県","city":"南足柄市","street":"岩原"},{"zipCode":"2500131","prefectureKana":"ｶﾅｶﾞﾜｹﾝ","cityKana":"ﾐﾅﾐｱｼｶﾞﾗｼ","streetKana":"ｳﾁﾔﾏ","prefecture":"神奈川県","city":"南足柄市","street":"内山"},{"zipCode":"2500126","prefectureKana":"ｶﾅｶﾞﾜｹﾝ","cityKana":"ﾐﾅﾐｱｼｶﾞﾗｼ","streetKana":"ｶﾉ","prefecture":"神奈川県","city":"南足柄市","street":"狩野"},{"zipCode":"2500135","prefectureKana":"ｶﾅｶﾞﾜｹﾝ","cityKana":"ﾐﾅﾐｱｼｶﾞﾗｼ","streetKana":"ｶﾘﾉ","prefecture":"神奈川県","city":"南足柄市","street":"苅野"},{"zipCode":"2500114","prefectureKana":"ｶﾅｶﾞﾜｹﾝ","cityKana":"ﾐﾅﾐｱｼｶﾞﾗｼ","streetKana":"ｷﾀｸﾎﾞ","prefecture":"神奈川県","city":"南足柄市","street":"北窪"},{"zipCode":"2500107","prefectureKana":"ｶﾅｶﾞﾜｹﾝ","cityKana":"ﾐﾅﾐｱｼｶﾞﾗｼ","streetKana":"ｺｲﾁ","prefecture":"神奈川県","city":"南足柄市","street":"小市"},{"zipCode":"2500132","prefectureKana":"ｶﾅｶﾞﾜｹﾝ","cityKana":"ﾐﾅﾐｱｼｶﾞﾗｼ","streetKana":"ｺｳｻｲｼﾞ","prefecture":"神奈川県","city":"南足柄市","street":"弘西寺"},{"zipCode":"2500125","prefectureKana":"ｶﾅｶﾞﾜｹﾝ","cityKana":"ﾐﾅﾐｱｼｶﾞﾗｼ","streetKana":"ｺﾏｶﾞﾀｼﾝｼｭｸ","prefecture":"神奈川県","city":"南足柄市","street":"駒形新宿"},{"zipCode":"2500105","prefectureKana":"ｶﾅｶﾞﾜｹﾝ","cityKana":"ﾐﾅﾐｱｼｶﾞﾗｼ","streetKana":"ｾｷﾓﾄ","prefecture":"神奈川県","city":"南足柄市","street":"関本"},{"zipCode":"2500102","prefectureKana":"ｶﾅｶﾞﾜｹﾝ","cityKana":"ﾐﾅﾐｱｼｶﾞﾗｼ","streetKana":"ｾﾝﾂﾞｼﾏ","prefecture":"神奈川県","city":"南足柄市","street":"千津島"},{"zipCode":"2500127","prefectureKana":"ｶﾅｶﾞﾜｹﾝ","cityKana":"ﾐﾅﾐｱｼｶﾞﾗｼ","streetKana":"ﾀﾞｲﾕｳﾁｮｳ","prefecture":"神奈川県","city":"南足柄市","street":"大雄町"},{"zipCode":"2500111","prefectureKana":"ｶﾅｶﾞﾜｹﾝ","cityKana":"ﾐﾅﾐｱｼｶﾞﾗｼ","streetKana":"ﾀｹﾏﾂ","prefecture":"神奈川県","city":"南足柄市","street":"竹松"},{"zipCode":"2500117","prefectureKana":"ｶﾅｶﾞﾜｹﾝ","cityKana":"ﾐﾅﾐｱｼｶﾞﾗｼ","streetKana":"ﾂｶﾊﾗ","prefecture":"神奈川県","city":"南足柄市","street":"塚原"},{"zipCode":"2500123","prefectureKana":"ｶﾅｶﾞﾜｹﾝ","cityKana":"ﾐﾅﾐｱｼｶﾞﾗｼ","streetKana":"ﾅｶﾇﾏ","prefecture":"神奈川県","city":"南足柄市","street":"中沼"},{"zipCode":"2500106","prefectureKana":"ｶﾅｶﾞﾜｹﾝ","cityKana":"ﾐﾅﾐｱｼｶﾞﾗｼ","streetKana":"ﾇﾀﾞ","prefecture":"神奈川県","city":"南足柄市","street":"怒田"},{"zipCode":"2500115","prefectureKana":"ｶﾅｶﾞﾜｹﾝ","cityKana":"ﾐﾅﾐｱｼｶﾞﾗｼ","streetKana":"ﾇﾏﾀ","prefecture":"神奈川県","city":"南足柄市","street":"沼田"},{"zipCode":"2500121","prefectureKana":"ｶﾅｶﾞﾜｹﾝ","cityKana":"ﾐﾅﾐｱｼｶﾞﾗｼ","streetKana":"ﾋﾛﾏﾁ","prefecture":"神奈川県","city":"南足柄市","street":"広町"},{"zipCode":"2500133","prefectureKana":"ｶﾅｶﾞﾜｹﾝ","cityKana":"ﾐﾅﾐｱｼｶﾞﾗｼ","streetKana":"ﾌｸｾﾝ","prefecture":"神奈川県","city":"南足柄市","street":"福泉"},{"zipCode":"2500101","prefectureKana":"ｶﾅｶﾞﾜｹﾝ","cityKana":"ﾐﾅﾐｱｼｶﾞﾗｼ","streetKana":"ﾏﾀﾞﾗﾒ","prefecture":"神奈川県","city":"南足柄市","street":"班目"},{"zipCode":"2500103","prefectureKana":"ｶﾅｶﾞﾜｹﾝ","cityKana":"ﾐﾅﾐｱｼｶﾞﾗｼ","streetKana":"ﾏﾏｼﾀ","prefecture":"神奈川県","city":"南足柄市","street":"壗下"},{"zipCode":"2500116","prefectureKana":"ｶﾅｶﾞﾜｹﾝ","cityKana":"ﾐﾅﾐｱｼｶﾞﾗｼ","streetKana":"ﾐﾀｹ","prefecture":"神奈川県","city":"南足柄市","street":"三竹"},{"zipCode":"2500104","prefectureKana":"ｶﾅｶﾞﾜｹﾝ","cityKana":"ﾐﾅﾐｱｼｶﾞﾗｼ","streetKana":"ﾑｶｲﾀﾞ","prefecture":"神奈川県","city":"南足柄市","street":"向田"},{"zipCode":"2500136","prefectureKana":"ｶﾅｶﾞﾜｹﾝ","cityKana":"ﾐﾅﾐｱｼｶﾞﾗｼ","streetKana":"ﾔｸﾞﾗｻﾞﾜ","prefecture":"神奈川県","city":"南足柄市","street":"矢倉沢"},{"zipCode":"2500112","prefectureKana":"ｶﾅｶﾞﾜｹﾝ","cityKana":"ﾐﾅﾐｱｼｶﾞﾗｼ","streetKana":"ﾜﾀﾞｶﾞﾊﾗ","prefecture":"神奈川県","city":"南足柄市","street":"和田河原"},{"zipCode":"2500500","prefectureKana":"ｶﾅｶﾞﾜｹﾝ","cityKana":"ｱｼｶﾞﾗｼﾓｸﾞﾝﾊｺﾈﾏﾁ","streetKana":"ｲｶﾆｹｲｻｲｶﾞﾅｲﾊﾞｱｲ","prefecture":"神奈川県","city":"足柄下郡箱根町","street":"以下に掲載がない場合"},{"zipCode":"2500523","prefectureKana":"ｶﾅｶﾞﾜｹﾝ","cityKana":"ｱｼｶﾞﾗｼﾓｸﾞﾝﾊｺﾈﾏﾁ","streetKana":"ｱｼﾉﾕ","prefecture":"神奈川県","city":"足柄下郡箱根町","street":"芦之湯"},{"zipCode":"2500405","prefectureKana":"ｶﾅｶﾞﾜｹﾝ","cityKana":"ｱｼｶﾞﾗｼﾓｸﾞﾝﾊｺﾈﾏﾁ","streetKana":"ｵｵﾋﾗﾀﾞｲ","prefecture":"神奈川県","city":"足柄下郡箱根町","street":"大平台"},{"zipCode":"2500402","prefectureKana":"ｶﾅｶﾞﾜｹﾝ","cityKana":"ｱｼｶﾞﾗｼﾓｸﾞﾝﾊｺﾈﾏﾁ","streetKana":"ｷｶﾞ","prefecture":"神奈川県","city":"足柄下郡箱根町","street":"木賀"},{"zipCode":"2500406","prefectureKana":"ｶﾅｶﾞﾜｹﾝ","cityKana":"ｱｼｶﾞﾗｼﾓｸﾞﾝﾊｺﾈﾏﾁ","streetKana":"ｺﾜｸﾀﾞﾆ","prefecture":"神奈川県","city":"足柄下郡箱根町","street":"小涌谷"},{"zipCode":"2500408","prefectureKana":"ｶﾅｶﾞﾜｹﾝ","cityKana":"ｱｼｶﾞﾗｼﾓｸﾞﾝﾊｺﾈﾏﾁ","streetKana":"ｺﾞｳﾗ","prefecture":"神奈川県","city":"足柄下郡箱根町","street":"強羅"},{"zipCode":"2500313","prefectureKana":"ｶﾅｶﾞﾜｹﾝ","cityKana":"ｱｼｶﾞﾗｼﾓｸﾞﾝﾊｺﾈﾏﾁ","streetKana":"ｽｸﾓｶﾞﾜ","prefecture":"神奈川県","city":"足柄下郡箱根町","street":"須雲川"},{"zipCode":"2500631","prefectureKana":"ｶﾅｶﾞﾜｹﾝ","cityKana":"ｱｼｶﾞﾗｼﾓｸﾞﾝﾊｺﾈﾏﾁ","streetKana":"ｾﾝｺﾞｸﾊﾗ","prefecture":"神奈川県","city":"足柄下郡箱根町","street":"仙石原"},{"zipCode":"2500403","prefectureKana":"ｶﾅｶﾞﾜｹﾝ","cityKana":"ｱｼｶﾞﾗｼﾓｸﾞﾝﾊｺﾈﾏﾁ","streetKana":"ｿｺｸﾗ","prefecture":"神奈川県","city":"足柄下郡箱根町","street":"底倉"},{"zipCode":"2500315","prefectureKana":"ｶﾅｶﾞﾜｹﾝ","cityKana":"ｱｼｶﾞﾗｼﾓｸﾞﾝﾊｺﾈﾏﾁ","streetKana":"ﾄｳﾉｻﾜ","prefecture":"神奈川県","city":"足柄下郡箱根町","street":"塔之澤"},{"zipCode":"2500407","prefectureKana":"ｶﾅｶﾞﾜｹﾝ","cityKana":"ｱｼｶﾞﾗｼﾓｸﾞﾝﾊｺﾈﾏﾁ","streetKana":"ﾆﾉﾀｲﾗ","prefecture":"神奈川県","city":"足柄下郡箱根町","street":"二ノ平"},{"zipCode":"2500521","prefectureKana":"ｶﾅｶﾞﾜｹﾝ","cityKana":"ｱｼｶﾞﾗｼﾓｸﾞﾝﾊｺﾈﾏﾁ","streetKana":"ﾊｺﾈ","prefecture":"神奈川県","city":"足柄下郡箱根町","street":"箱根"},{"zipCode":"2500314","prefectureKana":"ｶﾅｶﾞﾜｹﾝ","cityKana":"ｱｼｶﾞﾗｼﾓｸﾞﾝﾊｺﾈﾏﾁ","streetKana":"ﾊﾀｼﾞｭｸ","prefecture":"神奈川県","city":"足柄下郡箱根町","street":"畑宿"},{"zipCode":"2500401","prefectureKana":"ｶﾅｶﾞﾜｹﾝ","cityKana":"ｱｼｶﾞﾗｼﾓｸﾞﾝﾊｺﾈﾏﾁ","streetKana":"ﾐﾔｷﾞﾉ","prefecture":"神奈川県","city":"足柄下郡箱根町","street":"宮城野"},{"zipCode":"2500404","prefectureKana":"ｶﾅｶﾞﾜｹﾝ","cityKana":"ｱｼｶﾞﾗｼﾓｸﾞﾝﾊｺﾈﾏﾁ","streetKana":"ﾐﾔﾉｼﾀ","prefecture":"神奈川県","city":"足柄下郡箱根町","street":"宮ノ下"},{"zipCode":"2500522","prefectureKana":"ｶﾅｶﾞﾜｹﾝ","cityKana":"ｱｼｶﾞﾗｼﾓｸﾞﾝﾊｺﾈﾏﾁ","streetKana":"ﾓﾄﾊｺﾈ","prefecture":"神奈川県","city":"足柄下郡箱根町","street":"元箱根"},{"zipCode":"2500311","prefectureKana":"ｶﾅｶﾞﾜｹﾝ","cityKana":"ｱｼｶﾞﾗｼﾓｸﾞﾝﾊｺﾈﾏﾁ","streetKana":"ﾕﾓﾄ","prefecture":"神奈川県","city":"足柄下郡箱根町","street":"湯本"},{"zipCode":"2500312","prefectureKana":"ｶﾅｶﾞﾜｹﾝ","cityKana":"ｱｼｶﾞﾗｼﾓｸﾞﾝﾊｺﾈﾏﾁ","streetKana":"ﾕﾓﾄﾁｬﾔ","prefecture":"神奈川県","city":"足柄下郡箱根町","street":"湯本茶屋"}]