[{"zipCode":"2530000","prefectureKana":"ｶﾅｶﾞﾜｹﾝ","cityKana":"ﾁｶﾞｻｷｼ","streetKana":"ｲｶﾆｹｲｻｲｶﾞﾅｲﾊﾞｱｲ","prefecture":"神奈川県","city":"茅ヶ崎市","street":"以下に掲載がない場合"},{"zipCode":"2530001","prefectureKana":"ｶﾅｶﾞﾜｹﾝ","cityKana":"ﾁｶﾞｻｷｼ","streetKana":"ｱｶﾊﾞﾈ","prefecture":"神奈川県","city":"茅ヶ崎市","street":"赤羽根"},{"zipCode":"2530013","prefectureKana":"ｶﾅｶﾞﾜｹﾝ","cityKana":"ﾁｶﾞｻｷｼ","streetKana":"ｱｶﾏﾂﾁｮｳ","prefecture":"神奈川県","city":"茅ヶ崎市","street":"赤松町"},{"zipCode":"2530026","prefectureKana":"ｶﾅｶﾞﾜｹﾝ","cityKana":"ﾁｶﾞｻｷｼ","streetKana":"ｱｻﾋｶﾞｵｶ","prefecture":"神奈川県","city":"茅ヶ崎市","street":"旭が丘"},{"zipCode":"2530004","prefectureKana":"ｶﾅｶﾞﾜｹﾝ","cityKana":"ﾁｶﾞｻｷｼ","streetKana":"ｱﾏﾇﾏ","prefecture":"神奈川県","city":"茅ヶ崎市","street":"甘沼"},{"zipCode":"2530072","prefectureKana":"ｶﾅｶﾞﾜｹﾝ","cityKana":"ﾁｶﾞｻｷｼ","streetKana":"ｲﾏｼﾞｭｸ","prefecture":"神奈川県","city":"茅ヶ崎市","street":"今宿"},{"zipCode":"2530084","prefectureKana":"ｶﾅｶﾞﾜｹﾝ","cityKana":"ﾁｶﾞｻｷｼ","streetKana":"ｴﾝｿﾞｳ","prefecture":"神奈川県","city":"茅ヶ崎市","street":"円蔵"},{"zipCode":"2530082","prefectureKana":"ｶﾅｶﾞﾜｹﾝ","cityKana":"ﾁｶﾞｻｷｼ","streetKana":"ｶｶﾞﾜ","prefecture":"神奈川県","city":"茅ヶ崎市","street":"香川"},{"zipCode":"2530016","prefectureKana":"ｶﾅｶﾞﾜｹﾝ","cityKana":"ﾁｶﾞｻｷｼ","streetKana":"ｺｻﾞｸﾗﾁｮｳ","prefecture":"神奈川県","city":"茅ヶ崎市","street":"小桜町"},{"zipCode":"2530012","prefectureKana":"ｶﾅｶﾞﾜｹﾝ","cityKana":"ﾁｶﾞｻｷｼ","streetKana":"ｺﾜﾀﾞ","prefecture":"神奈川県","city":"茅ヶ崎市","street":"小和田"},{"zipCode":"2530052","prefectureKana":"ｶﾅｶﾞﾜｹﾝ","cityKana":"ﾁｶﾞｻｷｼ","streetKana":"ｻｲﾜｲﾁｮｳ","prefecture":"神奈川県","city":"茅ヶ崎市","street":"幸町"},{"zipCode":"2530033","prefectureKana":"ｶﾅｶﾞﾜｹﾝ","cityKana":"ﾁｶﾞｻｷｼ","streetKana":"ｼｵﾐﾀﾞｲ","prefecture":"神奈川県","city":"茅ヶ崎市","street":"汐見台"},{"zipCode":"2530081","prefectureKana":"ｶﾅｶﾞﾜｹﾝ","cityKana":"ﾁｶﾞｻｷｼ","streetKana":"ｼﾓﾃﾗｵ","prefecture":"神奈川県","city":"茅ヶ崎市","street":"下寺尾"},{"zipCode":"2530087","prefectureKana":"ｶﾅｶﾞﾜｹﾝ","cityKana":"ﾁｶﾞｻｷｼ","streetKana":"ｼﾓﾏﾁﾔ","prefecture":"神奈川県","city":"茅ヶ崎市","street":"下町屋"},{"zipCode":"2530045","prefectureKana":"ｶﾅｶﾞﾜｹﾝ","cityKana":"ﾁｶﾞｻｷｼ","streetKana":"ｼﾞｭｯｹﾝｻﾞｶ","prefecture":"神奈川県","city":"茅ヶ崎市","street":"十間坂"},{"zipCode":"2530017","prefectureKana":"ｶﾅｶﾞﾜｹﾝ","cityKana":"ﾁｶﾞｻｷｼ","streetKana":"ｼｮｳﾘﾝ","prefecture":"神奈川県","city":"茅ヶ崎市","street":"松林"},{"zipCode":"2530036","prefectureKana":"ｶﾅｶﾞﾜｹﾝ","cityKana":"ﾁｶﾞｻｷｼ","streetKana":"ｼﾗﾊﾏﾁｮｳ","prefecture":"神奈川県","city":"茅ヶ崎市","street":"白浜町"},{"zipCode":"2530044","prefectureKana":"ｶﾅｶﾞﾜｹﾝ","cityKana":"ﾁｶﾞｻｷｼ","streetKana":"ｼﾝｴｲﾁｮｳ","prefecture":"神奈川県","city":"茅ヶ崎市","street":"新栄町"},{"zipCode":"2530008","prefectureKana":"ｶﾅｶﾞﾜｹﾝ","cityKana":"ﾁｶﾞｻｷｼ","streetKana":"ｾﾘｻﾞﾜ","prefecture":"神奈川県","city":"茅ヶ崎市","street":"芹沢"},{"zipCode":"2530015","prefectureKana":"ｶﾅｶﾞﾜｹﾝ","cityKana":"ﾁｶﾞｻｷｼ","streetKana":"ﾀﾞｲｶﾝﾁｮｳ","prefecture":"神奈川県","city":"茅ヶ崎市","street":"代官町"},{"zipCode":"2530002","prefectureKana":"ｶﾅｶﾞﾜｹﾝ","cityKana":"ﾁｶﾞｻｷｼ","streetKana":"ﾀｶﾀ","prefecture":"神奈川県","city":"茅ヶ崎市","street":"高田"},{"zipCode":"2530041","prefectureKana":"ｶﾅｶﾞﾜｹﾝ","cityKana":"ﾁｶﾞｻｷｼ","streetKana":"ﾁｶﾞｻｷ","prefecture":"神奈川県","city":"茅ヶ崎市","street":"茅ヶ崎"},{"zipCode":"2530006","prefectureKana":"ｶﾅｶﾞﾜｹﾝ","cityKana":"ﾁｶﾞｻｷｼ","streetKana":"ﾂﾂﾐ","prefecture":"神奈川県","city":"茅ヶ崎市","street":"堤"},{"zipCode":"2530003","prefectureKana":"ｶﾅｶﾞﾜｹﾝ","cityKana":"ﾁｶﾞｻｷｼ","streetKana":"ﾂﾙｶﾞﾀﾞｲ","prefecture":"神奈川県","city":"茅ヶ崎市","street":"鶴が台"},{"zipCode":"2530028","prefectureKana":"ｶﾅｶﾞﾜｹﾝ","cityKana":"ﾁｶﾞｻｷｼ","streetKana":"ﾃﾞｸﾞﾁﾁｮｳ","prefecture":"神奈川県","city":"茅ヶ崎市","street":"出口町"},{"zipCode":"2530032","prefectureKana":"ｶﾅｶﾞﾜｹﾝ","cityKana":"ﾁｶﾞｻｷｼ","streetKana":"ﾄｷﾜﾁｮｳ","prefecture":"神奈川県","city":"茅ヶ崎市","street":"常盤町"},{"zipCode":"2530056","prefectureKana":"ｶﾅｶﾞﾜｹﾝ","cityKana":"ﾁｶﾞｻｷｼ","streetKana":"ﾄﾓｴ","prefecture":"神奈川県","city":"茅ヶ崎市","street":"共恵"},{"zipCode":"2530055","prefectureKana":"ｶﾅｶﾞﾜｹﾝ","cityKana":"ﾁｶﾞｻｷｼ","streetKana":"ﾅｶｶｲｶﾞﾝ","prefecture":"神奈川県","city":"茅ヶ崎市","street":"中海岸"},{"zipCode":"2530073","prefectureKana":"ｶﾅｶﾞﾜｹﾝ","cityKana":"ﾁｶﾞｻｷｼ","streetKana":"ﾅｶｼﾞﾏ","prefecture":"神奈川県","city":"茅ヶ崎市","street":"中島"},{"zipCode":"2530007","prefectureKana":"ｶﾅｶﾞﾜｹﾝ","cityKana":"ﾁｶﾞｻｷｼ","streetKana":"ﾅﾒｶﾞﾔ","prefecture":"神奈川県","city":"茅ヶ崎市","street":"行谷"},{"zipCode":"2530061","prefectureKana":"ｶﾅｶﾞﾜｹﾝ","cityKana":"ﾁｶﾞｻｷｼ","streetKana":"ﾅﾝｺﾞ","prefecture":"神奈川県","city":"茅ヶ崎市","street":"南湖"},{"zipCode":"2530083","prefectureKana":"ｶﾅｶﾞﾜｹﾝ","cityKana":"ﾁｶﾞｻｷｼ","streetKana":"ﾆｼｸﾎﾞ","prefecture":"神奈川県","city":"茅ヶ崎市","street":"西久保"},{"zipCode":"2530071","prefectureKana":"ｶﾅｶﾞﾜｹﾝ","cityKana":"ﾁｶﾞｻｷｼ","streetKana":"ﾊｷﾞｿﾉ","prefecture":"神奈川県","city":"茅ヶ崎市","street":"萩園"},{"zipCode":"2530035","prefectureKana":"ｶﾅｶﾞﾜｹﾝ","cityKana":"ﾁｶﾞｻｷｼ","streetKana":"ﾊﾏｽｶ","prefecture":"神奈川県","city":"茅ヶ崎市","street":"浜須賀"},{"zipCode":"2530021","prefectureKana":"ｶﾅｶﾞﾜｹﾝ","cityKana":"ﾁｶﾞｻｷｼ","streetKana":"ﾊﾏﾀｹ","prefecture":"神奈川県","city":"茅ヶ崎市","street":"浜竹"},{"zipCode":"2530086","prefectureKana":"ｶﾅｶﾞﾜｹﾝ","cityKana":"ﾁｶﾞｻｷｼ","streetKana":"ﾊﾏﾉｺﾞｳ","prefecture":"神奈川県","city":"茅ヶ崎市","street":"浜之郷"},{"zipCode":"2530062","prefectureKana":"ｶﾅｶﾞﾜｹﾝ","cityKana":"ﾁｶﾞｻｷｼ","streetKana":"ﾊﾏﾐﾀﾞｲﾗ","prefecture":"神奈川県","city":"茅ヶ崎市","street":"浜見平"},{"zipCode":"2530054","prefectureKana":"ｶﾅｶﾞﾜｹﾝ","cityKana":"ﾁｶﾞｻｷｼ","streetKana":"ﾋｶﾞｼｶｲｶﾞﾝﾐﾅﾐ","prefecture":"神奈川県","city":"茅ヶ崎市","street":"東海岸南"},{"zipCode":"2530053","prefectureKana":"ｶﾅｶﾞﾜｹﾝ","cityKana":"ﾁｶﾞｻｷｼ","streetKana":"ﾋｶﾞｼｶｲｶﾞﾝｷﾀ","prefecture":"神奈川県","city":"茅ヶ崎市","street":"東海岸北"},{"zipCode":"2530011","prefectureKana":"ｶﾅｶﾞﾜｹﾝ","cityKana":"ﾁｶﾞｻｷｼ","streetKana":"ﾋｼﾇﾏ","prefecture":"神奈川県","city":"茅ヶ崎市","street":"菱沼"},{"zipCode":"2530037","prefectureKana":"ｶﾅｶﾞﾜｹﾝ","cityKana":"ﾁｶﾞｻｷｼ","streetKana":"ﾋｼﾇﾏｶｲｶﾞﾝ","prefecture":"神奈川県","city":"茅ヶ崎市","street":"菱沼海岸"},{"zipCode":"2530027","prefectureKana":"ｶﾅｶﾞﾜｹﾝ","cityKana":"ﾁｶﾞｻｷｼ","streetKana":"ﾋﾊﾞﾘｶﾞｵｶ","prefecture":"神奈川県","city":"茅ヶ崎市","street":"ひばりが丘"},{"zipCode":"2530031","prefectureKana":"ｶﾅｶﾞﾜｹﾝ","cityKana":"ﾁｶﾞｻｷｼ","streetKana":"ﾌｼﾞﾐﾁｮｳ","prefecture":"神奈川県","city":"茅ヶ崎市","street":"富士見町"},{"zipCode":"2530074","prefectureKana":"ｶﾅｶﾞﾜｹﾝ","cityKana":"ﾁｶﾞｻｷｼ","streetKana":"ﾍｲﾀﾞﾕｳｼﾝﾃﾞﾝ","prefecture":"神奈川県","city":"茅ヶ崎市","street":"平太夫新田"},{"zipCode":"2530024","prefectureKana":"ｶﾅｶﾞﾜｹﾝ","cityKana":"ﾁｶﾞｻｷｼ","streetKana":"ﾍｲﾜﾁｮｳ","prefecture":"神奈川県","city":"茅ヶ崎市","street":"平和町"},{"zipCode":"2530014","prefectureKana":"ｶﾅｶﾞﾜｹﾝ","cityKana":"ﾁｶﾞｻｷｼ","streetKana":"ﾎﾝｼﾞｭｸﾁｮｳ","prefecture":"神奈川県","city":"茅ヶ崎市","street":"本宿町"},{"zipCode":"2530042","prefectureKana":"ｶﾅｶﾞﾜｹﾝ","cityKana":"ﾁｶﾞｻｷｼ","streetKana":"ﾎﾝｿﾝ","prefecture":"神奈川県","city":"茅ヶ崎市","street":"本村"},{"zipCode":"2530065","prefectureKana":"ｶﾅｶﾞﾜｹﾝ","cityKana":"ﾁｶﾞｻｷｼ","streetKana":"ﾏﾂｵ","prefecture":"神奈川県","city":"茅ヶ崎市","street":"松尾"},{"zipCode":"2530005","prefectureKana":"ｶﾅｶﾞﾜｹﾝ","cityKana":"ﾁｶﾞｻｷｼ","streetKana":"ﾏﾂｶｾﾞﾀﾞｲ","prefecture":"神奈川県","city":"茅ヶ崎市","street":"松風台"},{"zipCode":"2530025","prefectureKana":"ｶﾅｶﾞﾜｹﾝ","cityKana":"ﾁｶﾞｻｷｼ","streetKana":"ﾏﾂｶﾞｵｶ","prefecture":"神奈川県","city":"茅ヶ崎市","street":"松が丘"},{"zipCode":"2530022","prefectureKana":"ｶﾅｶﾞﾜｹﾝ","cityKana":"ﾁｶﾞｻｷｼ","streetKana":"ﾏﾂﾅﾐ","prefecture":"神奈川県","city":"茅ヶ崎市","street":"松浪"},{"zipCode":"2530088","prefectureKana":"ｶﾅｶﾞﾜｹﾝ","cityKana":"ﾁｶﾞｻｷｼ","streetKana":"ﾐｽﾞｷ","prefecture":"神奈川県","city":"茅ヶ崎市","street":"みずき"},{"zipCode":"2530023","prefectureKana":"ｶﾅｶﾞﾜｹﾝ","cityKana":"ﾁｶﾞｻｷｼ","streetKana":"ﾐｽﾐﾁｮｳ","prefecture":"神奈川県","city":"茅ヶ崎市","street":"美住町"},{"zipCode":"2530034","prefectureKana":"ｶﾅｶﾞﾜｹﾝ","cityKana":"ﾁｶﾞｻｷｼ","streetKana":"ﾐﾄﾞﾘｶﾞﾊﾏ","prefecture":"神奈川県","city":"茅ヶ崎市","street":"緑が浜"},{"zipCode":"2530018","prefectureKana":"ｶﾅｶﾞﾜｹﾝ","cityKana":"ﾁｶﾞｻｷｼ","streetKana":"ﾑﾛﾀ","prefecture":"神奈川県","city":"茅ヶ崎市","street":"室田"},{"zipCode":"2530043","prefectureKana":"ｶﾅｶﾞﾜｹﾝ","cityKana":"ﾁｶﾞｻｷｼ","streetKana":"ﾓﾄﾏﾁ","prefecture":"神奈川県","city":"茅ヶ崎市","street":"元町"},{"zipCode":"2530064","prefectureKana":"ｶﾅｶﾞﾜｹﾝ","cityKana":"ﾁｶﾞｻｷｼ","streetKana":"ﾔﾅｷﾞｼﾏ","prefecture":"神奈川県","city":"茅ヶ崎市","street":"柳島"},{"zipCode":"2530063","prefectureKana":"ｶﾅｶﾞﾜｹﾝ","cityKana":"ﾁｶﾞｻｷｼ","streetKana":"ﾔﾅｷﾞｼﾏｶｲｶﾞﾝ","prefecture":"神奈川県","city":"茅ヶ崎市","street":"柳島海岸"},{"zipCode":"2530085","prefectureKana":"ｶﾅｶﾞﾜｹﾝ","cityKana":"ﾁｶﾞｻｷｼ","streetKana":"ﾔﾊﾞﾀ","prefecture":"神奈川県","city":"茅ヶ崎市","street":"矢畑"},{"zipCode":"2530051","prefectureKana":"ｶﾅｶﾞﾜｹﾝ","cityKana":"ﾁｶﾞｻｷｼ","streetKana":"ﾜｶﾏﾂﾁｮｳ","prefecture":"神奈川県","city":"茅ヶ崎市","street":"若松町"},{"zipCode":"2530100","prefectureKana":"ｶﾅｶﾞﾜｹﾝ","cityKana":"ｺｳｻﾞｸﾞﾝｻﾑｶﾜﾏﾁ","streetKana":"ｲｶﾆｹｲｻｲｶﾞﾅｲﾊﾞｱｲ","prefecture":"神奈川県","city":"高座郡寒川町","street":"以下に掲載がない場合"},{"zipCode":"2530111","prefectureKana":"ｶﾅｶﾞﾜｹﾝ","cityKana":"ｺｳｻﾞｸﾞﾝｻﾑｶﾜﾏﾁ","streetKana":"ｲﾁﾉﾐﾔ","prefecture":"神奈川県","city":"高座郡寒川町","street":"一之宮"},{"zipCode":"2530104","prefectureKana":"ｶﾅｶﾞﾜｹﾝ","cityKana":"ｺｳｻﾞｸﾞﾝｻﾑｶﾜﾏﾁ","streetKana":"ｵｵｿﾞｳ","prefecture":"神奈川県","city":"高座郡寒川町","street":"大蔵"},{"zipCode":"2530113","prefectureKana":"ｶﾅｶﾞﾜｹﾝ","cityKana":"ｺｳｻﾞｸﾞﾝｻﾑｶﾜﾏﾁ","streetKana":"ｵｵﾏｶﾞﾘ","prefecture":"神奈川県","city":"高座郡寒川町","street":"大曲"},{"zipCode":"2530105","prefectureKana":"ｶﾅｶﾞﾜｹﾝ","cityKana":"ｺｳｻﾞｸﾞﾝｻﾑｶﾜﾏﾁ","streetKana":"ｵｶﾀﾞ","prefecture":"神奈川県","city":"高座郡寒川町","street":"岡田"},{"zipCode":"2530101","prefectureKana":"ｶﾅｶﾞﾜｹﾝ","cityKana":"ｺｳｻﾞｸﾞﾝｻﾑｶﾜﾏﾁ","streetKana":"ｸﾗﾐ","prefecture":"神奈川県","city":"高座郡寒川町","street":"倉見"},{"zipCode":"2530103","prefectureKana":"ｶﾅｶﾞﾜｹﾝ","cityKana":"ｺｳｻﾞｸﾞﾝｻﾑｶﾜﾏﾁ","streetKana":"ｺﾔﾄ","prefecture":"神奈川県","city":"高座郡寒川町","street":"小谷"},{"zipCode":"2530102","prefectureKana":"ｶﾅｶﾞﾜｹﾝ","cityKana":"ｺｳｻﾞｸﾞﾝｻﾑｶﾜﾏﾁ","streetKana":"ｺﾕﾙｷﾞ","prefecture":"神奈川県","city":"高座郡寒川町","street":"小動"},{"zipCode":"2530114","prefectureKana":"ｶﾅｶﾞﾜｹﾝ","cityKana":"ｺｳｻﾞｸﾞﾝｻﾑｶﾜﾏﾁ","streetKana":"ﾀﾊﾞﾀ","prefecture":"神奈川県","city":"高座郡寒川町","street":"田端"},{"zipCode":"2530112","prefectureKana":"ｶﾅｶﾞﾜｹﾝ","cityKana":"ｺｳｻﾞｸﾞﾝｻﾑｶﾜﾏﾁ","streetKana":"ﾅｶｾﾞ","prefecture":"神奈川県","city":"高座郡寒川町","street":"中瀬"},{"zipCode":"2530106","prefectureKana":"ｶﾅｶﾞﾜｹﾝ","cityKana":"ｺｳｻﾞｸﾞﾝｻﾑｶﾜﾏﾁ","streetKana":"ﾐﾔﾔﾏ","prefecture":"神奈川県","city":"高座郡寒川町","street":"宮山"}]