[{"zipCode":"2540000","prefectureKana":"ｶﾅｶﾞﾜｹﾝ","cityKana":"ﾋﾗﾂｶｼ","streetKana":"ｲｶﾆｹｲｻｲｶﾞﾅｲﾊﾞｱｲ","prefecture":"神奈川県","city":"平塚市","street":"以下に掲載がない場合"},{"zipCode":"2540042","prefectureKana":"ｶﾅｶﾞﾜｹﾝ","cityKana":"ﾋﾗﾂｶｼ","streetKana":"ｱｶｼﾁｮｳ","prefecture":"神奈川県","city":"平塚市","street":"明石町"},{"zipCode":"2540031","prefectureKana":"ｶﾅｶﾞﾜｹﾝ","cityKana":"ﾋﾗﾂｶｼ","streetKana":"ｱﾏﾇﾏ","prefecture":"神奈川県","city":"平塚市","street":"天沼"},{"zipCode":"2540915","prefectureKana":"ｶﾅｶﾞﾜｹﾝ","cityKana":"ﾋﾗﾂｶｼ","streetKana":"ｲﾃﾞﾅﾜ","prefecture":"神奈川県","city":"平塚市","street":"出縄"},{"zipCode":"2540025","prefectureKana":"ｶﾅｶﾞﾜｹﾝ","cityKana":"ﾋﾗﾂｶｼ","streetKana":"ｴﾉｷﾁｮｳ","prefecture":"神奈川県","city":"平塚市","street":"榎木町"},{"zipCode":"2540033","prefectureKana":"ｶﾅｶﾞﾜｹﾝ","cityKana":"ﾋﾗﾂｶｼ","streetKana":"ｵｲﾏﾂﾁｮｳ","prefecture":"神奈川県","city":"平塚市","street":"老松町"},{"zipCode":"2540047","prefectureKana":"ｶﾅｶﾞﾜｹﾝ","cityKana":"ﾋﾗﾂｶｼ","streetKana":"ｵｲﾜｹ","prefecture":"神奈川県","city":"平塚市","street":"追分"},{"zipCode":"2540012","prefectureKana":"ｶﾅｶﾞﾜｹﾝ","cityKana":"ﾋﾗﾂｶｼ","streetKana":"ｵｵｶﾐ","prefecture":"神奈川県","city":"平塚市","street":"大神"},{"zipCode":"2540001","prefectureKana":"ｶﾅｶﾞﾜｹﾝ","cityKana":"ﾋﾗﾂｶｼ","streetKana":"ｵｵｼﾏ","prefecture":"神奈川県","city":"平塚市","street":"大島"},{"zipCode":"2540074","prefectureKana":"ｶﾅｶﾞﾜｹﾝ","cityKana":"ﾋﾗﾂｶｼ","streetKana":"ｵｵﾊﾗ","prefecture":"神奈川県","city":"平塚市","street":"大原"},{"zipCode":"2540055","prefectureKana":"ｶﾅｶﾞﾜｹﾝ","cityKana":"ﾋﾗﾂｶｼ","streetKana":"ｶﾐﾋﾗﾂｶ","prefecture":"神奈川県","city":"平塚市","street":"上平塚"},{"zipCode":"2540088","prefectureKana":"ｶﾅｶﾞﾜｹﾝ","cityKana":"ﾋﾗﾂｶｼ","streetKana":"ｷﾀﾄﾖﾀﾞ","prefecture":"神奈川県","city":"平塚市","street":"北豊田"},{"zipCode":"2540005","prefectureKana":"ｶﾅｶﾞﾜｹﾝ","cityKana":"ﾋﾗﾂｶｼ","streetKana":"ｷﾄﾞｺﾛ","prefecture":"神奈川県","city":"平塚市","street":"城所"},{"zipCode":"2540906","prefectureKana":"ｶﾅｶﾞﾜｹﾝ","cityKana":"ﾋﾗﾂｶｼ","streetKana":"ｸﾞｿﾞ","prefecture":"神奈川県","city":"平塚市","street":"公所"},{"zipCode":"2540801","prefectureKana":"ｶﾅｶﾞﾜｹﾝ","cityKana":"ﾋﾗﾂｶｼ","streetKana":"ｸﾘｮｳﾂﾞﾂﾐ","prefecture":"神奈川県","city":"平塚市","street":"久領堤"},{"zipCode":"2540821","prefectureKana":"ｶﾅｶﾞﾜｹﾝ","cityKana":"ﾋﾗﾂｶｼ","streetKana":"ｸﾛﾍﾞｵｶ","prefecture":"神奈川県","city":"平塚市","street":"黒部丘"},{"zipCode":"2540903","prefectureKana":"ｶﾅｶﾞﾜｹﾝ","cityKana":"ﾋﾗﾂｶｼ","streetKana":"ｺｳﾁ","prefecture":"神奈川県","city":"平塚市","street":"河内"},{"zipCode":"2540061","prefectureKana":"ｶﾅｶﾞﾜｹﾝ","cityKana":"ﾋﾗﾂｶｼ","streetKana":"ｺﾞﾃﾝ","prefecture":"神奈川県","city":"平塚市","street":"御殿"},{"zipCode":"2540004","prefectureKana":"ｶﾅｶﾞﾜｹﾝ","cityKana":"ﾋﾗﾂｶｼ","streetKana":"ｺﾅﾍﾞｼﾏ","prefecture":"神奈川県","city":"平塚市","street":"小鍋島"},{"zipCode":"2540804","prefectureKana":"ｶﾅｶﾞﾜｹﾝ","cityKana":"ﾋﾗﾂｶｼ","streetKana":"ｻｲﾜｲﾁｮｳ","prefecture":"神奈川県","city":"平塚市","street":"幸町"},{"zipCode":"2540053","prefectureKana":"ｶﾅｶﾞﾜｹﾝ","cityKana":"ﾋﾗﾂｶｼ","streetKana":"ｻｸﾗｶﾞｵｶ","prefecture":"神奈川県","city":"平塚市","street":"桜ケ丘"},{"zipCode":"2540014","prefectureKana":"ｶﾅｶﾞﾜｹﾝ","cityKana":"ﾋﾗﾂｶｼ","streetKana":"ｼﾉﾐﾔ","prefecture":"神奈川県","city":"平塚市","street":"四之宮"},{"zipCode":"2540003","prefectureKana":"ｶﾅｶﾞﾜｹﾝ","cityKana":"ﾋﾗﾂｶｼ","streetKana":"ｼﾓｼﾞﾏ","prefecture":"神奈川県","city":"平塚市","street":"下島"},{"zipCode":"2540076","prefectureKana":"ｶﾅｶﾞﾜｹﾝ","cityKana":"ﾋﾗﾂｶｼ","streetKana":"ｼﾝﾏﾁ","prefecture":"神奈川県","city":"平塚市","street":"新町"},{"zipCode":"2540022","prefectureKana":"ｶﾅｶﾞﾜｹﾝ","cityKana":"ﾋﾗﾂｶｼ","streetKana":"ｽｶ","prefecture":"神奈川県","city":"平塚市","street":"須賀"},{"zipCode":"2540822","prefectureKana":"ｶﾅｶﾞﾜｹﾝ","cityKana":"ﾋﾗﾂｶｼ","streetKana":"ｽﾐﾚﾀﾞｲﾗ","prefecture":"神奈川県","city":"平塚市","street":"菫平"},{"zipCode":"2540063","prefectureKana":"ｶﾅｶﾞﾜｹﾝ","cityKana":"ﾋﾗﾂｶｼ","streetKana":"ｽﾜﾁｮｳ","prefecture":"神奈川県","city":"平塚市","street":"諏訪町"},{"zipCode":"2540041","prefectureKana":"ｶﾅｶﾞﾜｹﾝ","cityKana":"ﾋﾗﾂｶｼ","streetKana":"ｾﾝｹﾞﾝﾁｮｳ","prefecture":"神奈川県","city":"平塚市","street":"浅間町"},{"zipCode":"2540803","prefectureKana":"ｶﾅｶﾞﾜｹﾝ","cityKana":"ﾋﾗﾂｶｼ","streetKana":"ｾﾝｺﾞｸｶｼ","prefecture":"神奈川県","city":"平塚市","street":"千石河岸"},{"zipCode":"2540813","prefectureKana":"ｶﾅｶﾞﾜｹﾝ","cityKana":"ﾋﾗﾂｶｼ","streetKana":"ｿﾃﾞｶﾞﾊﾏ","prefecture":"神奈川県","city":"平塚市","street":"袖ケ浜"},{"zipCode":"2540807","prefectureKana":"ｶﾅｶﾞﾜｹﾝ","cityKana":"ﾋﾗﾂｶｼ","streetKana":"ﾀﾞｲｶﾝﾁｮｳ","prefecture":"神奈川県","city":"平塚市","street":"代官町"},{"zipCode":"2540912","prefectureKana":"ｶﾅｶﾞﾜｹﾝ","cityKana":"ﾋﾗﾂｶｼ","streetKana":"ﾀｶﾈ","prefecture":"神奈川県","city":"平塚市","street":"高根"},{"zipCode":"2540805","prefectureKana":"ｶﾅｶﾞﾜｹﾝ","cityKana":"ﾋﾗﾂｶｼ","streetKana":"ﾀｶﾊﾏﾀﾞｲ","prefecture":"神奈川県","city":"平塚市","street":"高浜台"},{"zipCode":"2540914","prefectureKana":"ｶﾅｶﾞﾜｹﾝ","cityKana":"ﾋﾗﾂｶｼ","streetKana":"ﾀｶﾑﾗ","prefecture":"神奈川県","city":"平塚市","street":"高村"},{"zipCode":"2540034","prefectureKana":"ｶﾅｶﾞﾜｹﾝ","cityKana":"ﾋﾗﾂｶｼ","streetKana":"ﾀｶﾗﾁｮｳ","prefecture":"神奈川県","city":"平塚市","street":"宝町"},{"zipCode":"2540046","prefectureKana":"ｶﾅｶﾞﾜｹﾝ","cityKana":"ﾋﾗﾂｶｼ","streetKana":"ﾀﾂﾉﾁｮｳ","prefecture":"神奈川県","city":"平塚市","street":"立野町"},{"zipCode":"2540013","prefectureKana":"ｶﾅｶﾞﾜｹﾝ","cityKana":"ﾋﾗﾂｶｼ","streetKana":"ﾀﾑﾗ","prefecture":"神奈川県","city":"平塚市","street":"田村"},{"zipCode":"2540064","prefectureKana":"ｶﾅｶﾞﾜｹﾝ","cityKana":"ﾋﾗﾂｶｼ","streetKana":"ﾀﾝｼﾞｮｳｶﾞｵｶ","prefecture":"神奈川県","city":"平塚市","street":"達上ケ丘"},{"zipCode":"2540027","prefectureKana":"ｶﾅｶﾞﾜｹﾝ","cityKana":"ﾋﾗﾂｶｼ","streetKana":"ﾂﾂﾐﾁｮｳ","prefecture":"神奈川県","city":"平塚市","street":"堤町"},{"zipCode":"2540826","prefectureKana":"ｶﾅｶﾞﾜｹﾝ","cityKana":"ﾋﾗﾂｶｼ","streetKana":"ﾄｳｶﾞﾊﾗ","prefecture":"神奈川県","city":"平塚市","street":"唐ケ原"},{"zipCode":"2540902","prefectureKana":"ｶﾅｶﾞﾜｹﾝ","cityKana":"ﾋﾗﾂｶｼ","streetKana":"ﾄｸﾉﾌﾞ","prefecture":"神奈川県","city":"平塚市","street":"徳延"},{"zipCode":"2540081","prefectureKana":"ｶﾅｶﾞﾜｹﾝ","cityKana":"ﾋﾗﾂｶｼ","streetKana":"ﾄﾖﾀﾞｳﾁﾏｷﾞ","prefecture":"神奈川県","city":"平塚市","street":"豊田打間木"},{"zipCode":"2540083","prefectureKana":"ｶﾅｶﾞﾜｹﾝ","cityKana":"ﾋﾗﾂｶｼ","streetKana":"ﾄﾖﾀﾞｺﾐﾈ","prefecture":"神奈川県","city":"平塚市","street":"豊田小嶺"},{"zipCode":"2540086","prefectureKana":"ｶﾅｶﾞﾜｹﾝ","cityKana":"ﾋﾗﾂｶｼ","streetKana":"ﾄﾖﾀﾞﾋﾞｮｳﾄﾞｳｼﾞ","prefecture":"神奈川県","city":"平塚市","street":"豊田平等寺"},{"zipCode":"2540087","prefectureKana":"ｶﾅｶﾞﾜｹﾝ","cityKana":"ﾋﾗﾂｶｼ","streetKana":"ﾄﾖﾀﾞﾎﾝｺﾞｳ","prefecture":"神奈川県","city":"平塚市","street":"豊田本郷"},{"zipCode":"2540085","prefectureKana":"ｶﾅｶﾞﾜｹﾝ","cityKana":"ﾋﾗﾂｶｼ","streetKana":"ﾄﾖﾀﾞﾐﾔｼﾀ","prefecture":"神奈川県","city":"平塚市","street":"豊田宮下"},{"zipCode":"2540051","prefectureKana":"ｶﾅｶﾞﾜｹﾝ","cityKana":"ﾋﾗﾂｶｼ","streetKana":"ﾄﾖﾊﾗﾁｮｳ","prefecture":"神奈川県","city":"平塚市","street":"豊原町"},{"zipCode":"2540054","prefectureKana":"ｶﾅｶﾞﾜｹﾝ","cityKana":"ﾋﾗﾂｶｼ","streetKana":"ﾅｶｻﾞﾄ","prefecture":"神奈川県","city":"平塚市","street":"中里"},{"zipCode":"2540026","prefectureKana":"ｶﾅｶﾞﾜｹﾝ","cityKana":"ﾋﾗﾂｶｼ","streetKana":"ﾅｶﾄﾞｳ","prefecture":"神奈川県","city":"平塚市","street":"中堂"},{"zipCode":"2540075","prefectureKana":"ｶﾅｶﾞﾜｹﾝ","cityKana":"ﾋﾗﾂｶｼ","streetKana":"ﾅｶﾊﾗ","prefecture":"神奈川県","city":"平塚市","street":"中原"},{"zipCode":"2540071","prefectureKana":"ｶﾅｶﾞﾜｹﾝ","cityKana":"ﾋﾗﾂｶｼ","streetKana":"ﾅｶﾊﾗｶﾐｼﾞｭｸ","prefecture":"神奈川県","city":"平塚市","street":"中原上宿"},{"zipCode":"2540072","prefectureKana":"ｶﾅｶﾞﾜｹﾝ","cityKana":"ﾋﾗﾂｶｼ","streetKana":"ﾅｶﾊﾗｼﾓｼﾞｭｸ","prefecture":"神奈川県","city":"平塚市","street":"中原下宿"},{"zipCode":"2540021","prefectureKana":"ｶﾅｶﾞﾜｹﾝ","cityKana":"ﾋﾗﾂｶｼ","streetKana":"ﾅｶﾞﾄﾛ","prefecture":"神奈川県","city":"平塚市","street":"長瀞"},{"zipCode":"2540825","prefectureKana":"ｶﾅｶﾞﾜｹﾝ","cityKana":"ﾋﾗﾂｶｼ","streetKana":"ﾅﾃﾞｼｺﾊﾗ","prefecture":"神奈川県","city":"平塚市","street":"撫子原"},{"zipCode":"2540044","prefectureKana":"ｶﾅｶﾞﾜｹﾝ","cityKana":"ﾋﾗﾂｶｼ","streetKana":"ﾆｼｷﾁｮｳ","prefecture":"神奈川県","city":"平塚市","street":"錦町"},{"zipCode":"2540019","prefectureKana":"ｶﾅｶﾞﾜｹﾝ","cityKana":"ﾋﾗﾂｶｼ","streetKana":"ﾆｼｼﾝﾄﾞ","prefecture":"神奈川県","city":"平塚市","street":"西真土"},{"zipCode":"2540073","prefectureKana":"ｶﾅｶﾞﾜｹﾝ","cityKana":"ﾋﾗﾂｶｼ","streetKana":"ﾆｼﾔﾜﾀ","prefecture":"神奈川県","city":"平塚市","street":"西八幡"},{"zipCode":"2540823","prefectureKana":"ｶﾅｶﾞﾜｹﾝ","cityKana":"ﾋﾗﾂｶｼ","streetKana":"ﾆｼﾞｶﾞﾊﾏ","prefecture":"神奈川県","city":"平塚市","street":"虹ケ浜"},{"zipCode":"2540904","prefectureKana":"ｶﾅｶﾞﾜｹﾝ","cityKana":"ﾋﾗﾂｶｼ","streetKana":"ﾈｻﾞｶﾏ","prefecture":"神奈川県","city":"平塚市","street":"根坂間"},{"zipCode":"2540824","prefectureKana":"ｶﾅｶﾞﾜｹﾝ","cityKana":"ﾋﾗﾂｶｼ","streetKana":"ﾊﾅﾐｽﾞﾀﾞｲ","prefecture":"神奈川県","city":"平塚市","street":"花水台"},{"zipCode":"2540023","prefectureKana":"ｶﾅｶﾞﾜｹﾝ","cityKana":"ﾋﾗﾂｶｼ","streetKana":"ﾊﾞﾆｭｳ","prefecture":"神奈川県","city":"平塚市","street":"馬入"},{"zipCode":"2540024","prefectureKana":"ｶﾅｶﾞﾜｹﾝ","cityKana":"ﾋﾗﾂｶｼ","streetKana":"ﾊﾞﾆｭｳﾎﾝﾁｮｳ","prefecture":"神奈川県","city":"平塚市","street":"馬入本町"},{"zipCode":"2540018","prefectureKana":"ｶﾅｶﾞﾜｹﾝ","cityKana":"ﾋﾗﾂｶｼ","streetKana":"ﾋｶﾞｼｼﾝﾄﾞ","prefecture":"神奈川県","city":"平塚市","street":"東真土"},{"zipCode":"2540082","prefectureKana":"ｶﾅｶﾞﾜｹﾝ","cityKana":"ﾋﾗﾂｶｼ","streetKana":"ﾋｶﾞｼﾄﾖﾀﾞ","prefecture":"神奈川県","city":"平塚市","street":"東豊田"},{"zipCode":"2540077","prefectureKana":"ｶﾅｶﾞﾜｹﾝ","cityKana":"ﾋﾗﾂｶｼ","streetKana":"ﾋｶﾞｼﾅｶﾊﾗ","prefecture":"神奈川県","city":"平塚市","street":"東中原"},{"zipCode":"2540016","prefectureKana":"ｶﾅｶﾞﾜｹﾝ","cityKana":"ﾋﾗﾂｶｼ","streetKana":"ﾋｶﾞｼﾔﾜﾀ","prefecture":"神奈川県","city":"平塚市","street":"東八幡"},{"zipCode":"2540905","prefectureKana":"ｶﾅｶﾞﾜｹﾝ","cityKana":"ﾋﾗﾂｶｼ","streetKana":"ﾋﾅﾀｵｶ","prefecture":"神奈川県","city":"平塚市","street":"日向岡"},{"zipCode":"2540052","prefectureKana":"ｶﾅｶﾞﾜｹﾝ","cityKana":"ﾋﾗﾂｶｼ","streetKana":"ﾋﾗﾂｶ","prefecture":"神奈川県","city":"平塚市","street":"平塚"},{"zipCode":"2540062","prefectureKana":"ｶﾅｶﾞﾜｹﾝ","cityKana":"ﾋﾗﾂｶｼ","streetKana":"ﾌｼﾞﾐﾁｮｳ","prefecture":"神奈川県","city":"平塚市","street":"富士見町"},{"zipCode":"2540802","prefectureKana":"ｶﾅｶﾞﾜｹﾝ","cityKana":"ﾋﾗﾂｶｼ","streetKana":"ﾌﾀﾞﾊﾞﾁｮｳ","prefecture":"神奈川県","city":"平塚市","street":"札場町"},{"zipCode":"2540043","prefectureKana":"ｶﾅｶﾞﾜｹﾝ","cityKana":"ﾋﾗﾂｶｼ","streetKana":"ﾍﾞﾆﾔﾁｮｳ","prefecture":"神奈川県","city":"平塚市","street":"紅谷町"},{"zipCode":"2540812","prefectureKana":"ｶﾅｶﾞﾜｹﾝ","cityKana":"ﾋﾗﾂｶｼ","streetKana":"ﾏﾂｶｾﾞﾁｮｳ","prefecture":"神奈川県","city":"平塚市","street":"松風町"},{"zipCode":"2540901","prefectureKana":"ｶﾅｶﾞﾜｹﾝ","cityKana":"ﾋﾗﾂｶｼ","streetKana":"ﾏﾄｲ","prefecture":"神奈川県","city":"平塚市","street":"纒"},{"zipCode":"2540913","prefectureKana":"ｶﾅｶﾞﾜｹﾝ","cityKana":"ﾋﾗﾂｶｼ","streetKana":"ﾏﾝﾀﾞ","prefecture":"神奈川県","city":"平塚市","street":"万田"},{"zipCode":"2540045","prefectureKana":"ｶﾅｶﾞﾜｹﾝ","cityKana":"ﾋﾗﾂｶｼ","streetKana":"ﾐﾂｹﾁｮｳ","prefecture":"神奈川県","city":"平塚市","street":"見附町"},{"zipCode":"2540084","prefectureKana":"ｶﾅｶﾞﾜｹﾝ","cityKana":"ﾋﾗﾂｶｼ","streetKana":"ﾐﾅﾐﾄﾖﾀﾞ","prefecture":"神奈川県","city":"平塚市","street":"南豊田"},{"zipCode":"2540065","prefectureKana":"ｶﾅｶﾞﾜｹﾝ","cityKana":"ﾋﾗﾂｶｼ","streetKana":"ﾐﾅﾐﾊﾗ","prefecture":"神奈川県","city":"平塚市","street":"南原"},{"zipCode":"2540035","prefectureKana":"ｶﾅｶﾞﾜｹﾝ","cityKana":"ﾋﾗﾂｶｼ","streetKana":"ﾐﾔﾉﾏｴ","prefecture":"神奈川県","city":"平塚市","street":"宮の前"},{"zipCode":"2540036","prefectureKana":"ｶﾅｶﾞﾜｹﾝ","cityKana":"ﾋﾗﾂｶｼ","streetKana":"ﾐﾔﾏﾂﾁｮｳ","prefecture":"神奈川県","city":"平塚市","street":"宮松町"},{"zipCode":"2540815","prefectureKana":"ｶﾅｶﾞﾜｹﾝ","cityKana":"ﾋﾗﾂｶｼ","streetKana":"ﾓﾓﾊﾏﾁｮｳ","prefecture":"神奈川県","city":"平塚市","street":"桃浜町"},{"zipCode":"2540811","prefectureKana":"ｶﾅｶﾞﾜｹﾝ","cityKana":"ﾋﾗﾂｶｼ","streetKana":"ﾔｴｻﾞｷﾁｮｳ","prefecture":"神奈川県","city":"平塚市","street":"八重咲町"},{"zipCode":"2540032","prefectureKana":"ｶﾅｶﾞﾜｹﾝ","cityKana":"ﾋﾗﾂｶｼ","streetKana":"ﾔﾁﾖﾁｮｳ","prefecture":"神奈川県","city":"平塚市","street":"八千代町"},{"zipCode":"2540911","prefectureKana":"ｶﾅｶﾞﾜｹﾝ","cityKana":"ﾋﾗﾂｶｼ","streetKana":"ﾔﾏｼﾀ","prefecture":"神奈川県","city":"平塚市","street":"山下"},{"zipCode":"2540015","prefectureKana":"ｶﾅｶﾞﾜｹﾝ","cityKana":"ﾋﾗﾂｶｼ","streetKana":"ﾔﾜﾀ","prefecture":"神奈川県","city":"平塚市","street":"八幡"},{"zipCode":"2540806","prefectureKana":"ｶﾅｶﾞﾜｹﾝ","cityKana":"ﾋﾗﾂｶｼ","streetKana":"ﾕｳﾋｶﾞｵｶ","prefecture":"神奈川県","city":"平塚市","street":"夕陽ケ丘"},{"zipCode":"2540002","prefectureKana":"ｶﾅｶﾞﾜｹﾝ","cityKana":"ﾋﾗﾂｶｼ","streetKana":"ﾖｺｳﾁ","prefecture":"神奈川県","city":"平塚市","street":"横内"},{"zipCode":"2540011","prefectureKana":"ｶﾅｶﾞﾜｹﾝ","cityKana":"ﾋﾗﾂｶｼ","streetKana":"ﾖｼｷﾞﾜ","prefecture":"神奈川県","city":"平塚市","street":"吉際"},{"zipCode":"2540814","prefectureKana":"ｶﾅｶﾞﾜｹﾝ","cityKana":"ﾋﾗﾂｶｼ","streetKana":"ﾘｭｳｼﾞｮｳｶﾞｵｶ","prefecture":"神奈川県","city":"平塚市","street":"龍城ケ丘"}]