[{"zipCode":"2600000","prefectureKana":"ﾁﾊﾞｹﾝ","cityKana":"ﾁﾊﾞｼﾁｭｳｵｳｸ","streetKana":"ｲｶﾆｹｲｻｲｶﾞﾅｲﾊﾞｱｲ","prefecture":"千葉県","city":"千葉市中央区","street":"以下に掲載がない場合"},{"zipCode":"2600852","prefectureKana":"ﾁﾊﾞｹﾝ","cityKana":"ﾁﾊﾞｼﾁｭｳｵｳｸ","streetKana":"ｱｵﾊﾞﾁｮｳ","prefecture":"千葉県","city":"千葉市中央区","street":"青葉町"},{"zipCode":"2600804","prefectureKana":"ﾁﾊﾞｹﾝ","cityKana":"ﾁﾊﾞｼﾁｭｳｵｳｸ","streetKana":"ｱｶｲﾁｮｳ","prefecture":"千葉県","city":"千葉市中央区","street":"赤井町"},{"zipCode":"2600002","prefectureKana":"ﾁﾊﾞｹﾝ","cityKana":"ﾁﾊﾞｼﾁｭｳｵｳｸ","streetKana":"ｱｻﾋﾁｮｳ","prefecture":"千葉県","city":"千葉市中央区","street":"旭町"},{"zipCode":"2600855","prefectureKana":"ﾁﾊﾞｹﾝ","cityKana":"ﾁﾊﾞｼﾁｭｳｵｳｸ","streetKana":"ｲﾁﾊﾞﾁｮｳ","prefecture":"千葉県","city":"千葉市中央区","street":"市場町"},{"zipCode":"2600833","prefectureKana":"ﾁﾊﾞｹﾝ","cityKana":"ﾁﾊﾞｼﾁｭｳｵｳｸ","streetKana":"ｲﾅﾘﾁｮｳ","prefecture":"千葉県","city":"千葉市中央区","street":"稲荷町"},{"zipCode":"2600856","prefectureKana":"ﾁﾊﾞｹﾝ","cityKana":"ﾁﾊﾞｼﾁｭｳｵｳｸ","streetKana":"ｲﾉﾊﾅ","prefecture":"千葉県","city":"千葉市中央区","street":"亥鼻"},{"zipCode":"2600834","prefectureKana":"ﾁﾊﾞｹﾝ","cityKana":"ﾁﾊﾞｼﾁｭｳｵｳｸ","streetKana":"ｲﾏｲ","prefecture":"千葉県","city":"千葉市中央区","street":"今井"},{"zipCode":"2600815","prefectureKana":"ﾁﾊﾞｹﾝ","cityKana":"ﾁﾊﾞｼﾁｭｳｵｳｸ","streetKana":"ｲﾏｲﾁｮｳ","prefecture":"千葉県","city":"千葉市中央区","street":"今井町"},{"zipCode":"2600018","prefectureKana":"ﾁﾊﾞｹﾝ","cityKana":"ﾁﾊﾞｼﾁｭｳｵｳｸ","streetKana":"ｲﾝﾅｲ","prefecture":"千葉県","city":"千葉市中央区","street":"院内"},{"zipCode":"2600816","prefectureKana":"ﾁﾊﾞｹﾝ","cityKana":"ﾁﾊﾞｼﾁｭｳｵｳｸ","streetKana":"ｳﾉﾓﾘﾁｮｳ","prefecture":"千葉県","city":"千葉市中央区","street":"鵜の森町"},{"zipCode":"2600811","prefectureKana":"ﾁﾊﾞｹﾝ","cityKana":"ﾁﾊﾞｼﾁｭｳｵｳｸ","streetKana":"ｵｵﾓﾘﾁｮｳ","prefecture":"千葉県","city":"千葉市中央区","street":"大森町"},{"zipCode":"2600813","prefectureKana":"ﾁﾊﾞｹﾝ","cityKana":"ﾁﾊﾞｼﾁｭｳｵｳｸ","streetKana":"ｵﾕﾐﾁｮｳ","prefecture":"千葉県","city":"千葉市中央区","street":"生実町"},{"zipCode":"2600033","prefectureKana":"ﾁﾊﾞｹﾝ","cityKana":"ﾁﾊﾞｼﾁｭｳｵｳｸ","streetKana":"ｶｽｶﾞ","prefecture":"千葉県","city":"千葉市中央区","street":"春日"},{"zipCode":"2600853","prefectureKana":"ﾁﾊﾞｹﾝ","cityKana":"ﾁﾊﾞｼﾁｭｳｵｳｸ","streetKana":"ｶﾂﾗｷﾞ","prefecture":"千葉県","city":"千葉市中央区","street":"葛城"},{"zipCode":"2600017","prefectureKana":"ﾁﾊﾞｹﾝ","cityKana":"ﾁﾊﾞｼﾁｭｳｵｳｸ","streetKana":"ｶﾅﾒﾁｮｳ","prefecture":"千葉県","city":"千葉市中央区","street":"要町"},{"zipCode":"2600011","prefectureKana":"ﾁﾊﾞｹﾝ","cityKana":"ﾁﾊﾞｼﾁｭｳｵｳｸ","streetKana":"ｶﾒｲﾁｮｳ","prefecture":"千葉県","city":"千葉市中央区","street":"亀井町"},{"zipCode":"2600857","prefectureKana":"ﾁﾊﾞｹﾝ","cityKana":"ﾁﾊﾞｼﾁｭｳｵｳｸ","streetKana":"ｶﾒｵｶﾁｮｳ","prefecture":"千葉県","city":"千葉市中央区","street":"亀岡町"},{"zipCode":"2600835","prefectureKana":"ﾁﾊﾞｹﾝ","cityKana":"ﾁﾊﾞｼﾁｭｳｵｳｸ","streetKana":"ｶﾜｻｷﾁｮｳ","prefecture":"千葉県","city":"千葉市中央区","street":"川崎町"},{"zipCode":"2600802","prefectureKana":"ﾁﾊﾞｹﾝ","cityKana":"ﾁﾊﾞｼﾁｭｳｵｳｸ","streetKana":"ｶﾜﾄﾞﾁｮｳ","prefecture":"千葉県","city":"千葉市中央区","street":"川戸町"},{"zipCode":"2600016","prefectureKana":"ﾁﾊﾞｹﾝ","cityKana":"ﾁﾊﾞｼﾁｭｳｵｳｸ","streetKana":"ｻｶｴﾁｮｳ","prefecture":"千葉県","city":"千葉市中央区","street":"栄町"},{"zipCode":"2600832","prefectureKana":"ﾁﾊﾞｹﾝ","cityKana":"ﾁﾊﾞｼﾁｭｳｵｳｸ","streetKana":"ｻﾑｶﾞﾜﾁｮｳ","prefecture":"千葉県","city":"千葉市中央区","street":"寒川町"},{"zipCode":"2600823","prefectureKana":"ﾁﾊﾞｹﾝ","cityKana":"ﾁﾊﾞｼﾁｭｳｵｳｸ","streetKana":"ｼｵﾀﾞﾁｮｳ","prefecture":"千葉県","city":"千葉市中央区","street":"塩田町"},{"zipCode":"2600034","prefectureKana":"ﾁﾊﾞｹﾝ","cityKana":"ﾁﾊﾞｼﾁｭｳｵｳｸ","streetKana":"ｼｵﾐｶﾞｵｶﾁｮｳ","prefecture":"千葉県","city":"千葉市中央区","street":"汐見丘町"},{"zipCode":"2600841","prefectureKana":"ﾁﾊﾞｹﾝ","cityKana":"ﾁﾊﾞｼﾁｭｳｵｳｸ","streetKana":"ｼﾗﾊﾀ","prefecture":"千葉県","city":"千葉市中央区","street":"白旗"},{"zipCode":"2600021","prefectureKana":"ﾁﾊﾞｹﾝ","cityKana":"ﾁﾊﾞｼﾁｭｳｵｳｸ","streetKana":"ｼﾝｼﾞｭｸ","prefecture":"千葉県","city":"千葉市中央区","street":"新宿"},{"zipCode":"2600031","prefectureKana":"ﾁﾊﾞｹﾝ","cityKana":"ﾁﾊﾞｼﾁｭｳｵｳｸ","streetKana":"ｼﾝﾁﾊﾞ","prefecture":"千葉県","city":"千葉市中央区","street":"新千葉"},{"zipCode":"2600027","prefectureKana":"ﾁﾊﾞｹﾝ","cityKana":"ﾁﾊﾞｼﾁｭｳｵｳｸ","streetKana":"ｼﾝﾃﾞﾝﾁｮｳ","prefecture":"千葉県","city":"千葉市中央区","street":"新田町"},{"zipCode":"2600028","prefectureKana":"ﾁﾊﾞｹﾝ","cityKana":"ﾁﾊﾞｼﾁｭｳｵｳｸ","streetKana":"ｼﾝﾏﾁ","prefecture":"千葉県","city":"千葉市中央区","street":"新町"},{"zipCode":"2600022","prefectureKana":"ﾁﾊﾞｹﾝ","cityKana":"ﾁﾊﾞｼﾁｭｳｵｳｸ","streetKana":"ｼﾝﾒｲﾁｮｳ","prefecture":"千葉県","city":"千葉市中央区","street":"神明町"},{"zipCode":"2600843","prefectureKana":"ﾁﾊﾞｹﾝ","cityKana":"ﾁﾊﾞｼﾁｭｳｵｳｸ","streetKana":"ｽｴﾋﾛ","prefecture":"千葉県","city":"千葉市中央区","street":"末広"},{"zipCode":"2600822","prefectureKana":"ﾁﾊﾞｹﾝ","cityKana":"ﾁﾊﾞｼﾁｭｳｵｳｸ","streetKana":"ｿｶﾞ","prefecture":"千葉県","city":"千葉市中央区","street":"蘇我"},{"zipCode":"2600822","prefectureKana":"ﾁﾊﾞｹﾝ","cityKana":"ﾁﾊﾞｼﾁｭｳｵｳｸ","streetKana":"ｿｶﾞﾁｮｳ","prefecture":"千葉県","city":"千葉市中央区","street":"蘇我町"},{"zipCode":"2600812","prefectureKana":"ﾁﾊﾞｹﾝ","cityKana":"ﾁﾊﾞｼﾁｭｳｵｳｸ","streetKana":"ﾀﾞｲｶﾞﾝｼﾞﾁｮｳ","prefecture":"千葉県","city":"千葉市中央区","street":"大巌寺町"},{"zipCode":"2600844","prefectureKana":"ﾁﾊﾞｹﾝ","cityKana":"ﾁﾊﾞｼﾁｭｳｵｳｸ","streetKana":"ﾁﾊﾞﾃﾞﾗﾁｮｳ","prefecture":"千葉県","city":"千葉市中央区","street":"千葉寺町"},{"zipCode":"2600026","prefectureKana":"ﾁﾊﾞｹﾝ","cityKana":"ﾁﾊﾞｼﾁｭｳｵｳｸ","streetKana":"ﾁﾊﾞﾐﾅﾄ","prefecture":"千葉県","city":"千葉市中央区","street":"千葉港"},{"zipCode":"2600013","prefectureKana":"ﾁﾊﾞｹﾝ","cityKana":"ﾁﾊﾞｼﾁｭｳｵｳｸ","streetKana":"ﾁｭｳｵｳ","prefecture":"千葉県","city":"千葉市中央区","street":"中央"},{"zipCode":"2600024","prefectureKana":"ﾁﾊﾞｹﾝ","cityKana":"ﾁﾊﾞｼﾁｭｳｵｳｸ","streetKana":"ﾁｭｳｵｳｺｳ","prefecture":"千葉県","city":"千葉市中央区","street":"中央港"},{"zipCode":"2600042","prefectureKana":"ﾁﾊﾞｹﾝ","cityKana":"ﾁﾊﾞｼﾁｭｳｵｳｸ","streetKana":"ﾂﾊﾞｷﾓﾘ","prefecture":"千葉県","city":"千葉市中央区","street":"椿森"},{"zipCode":"2600003","prefectureKana":"ﾁﾊﾞｹﾝ","cityKana":"ﾁﾊﾞｼﾁｭｳｵｳｸ","streetKana":"ﾂﾙｻﾜﾁｮｳ","prefecture":"千葉県","city":"千葉市中央区","street":"鶴沢町"},{"zipCode":"2600023","prefectureKana":"ﾁﾊﾞｹﾝ","cityKana":"ﾁﾊﾞｼﾁｭｳｵｳｸ","streetKana":"ﾃﾞｽﾞﾐﾅﾄ","prefecture":"千葉県","city":"千葉市中央区","street":"出洲港"},{"zipCode":"2600005","prefectureKana":"ﾁﾊﾞｹﾝ","cityKana":"ﾁﾊﾞｼﾁｭｳｵｳｸ","streetKana":"ﾄﾞｳｼﾞｮｳﾐﾅﾐ","prefecture":"千葉県","city":"千葉市中央区","street":"道場南"},{"zipCode":"2600006","prefectureKana":"ﾁﾊﾞｹﾝ","cityKana":"ﾁﾊﾞｼﾁｭｳｵｳｸ","streetKana":"ﾄﾞｳｼﾞｮｳｷﾀ","prefecture":"千葉県","city":"千葉市中央区","street":"道場北"},{"zipCode":"2600025","prefectureKana":"ﾁﾊﾞｹﾝ","cityKana":"ﾁﾊﾞｼﾁｭｳｵｳｸ","streetKana":"ﾄﾝﾔﾁｮｳ","prefecture":"千葉県","city":"千葉市中央区","street":"問屋町"},{"zipCode":"2600854","prefectureKana":"ﾁﾊﾞｹﾝ","cityKana":"ﾁﾊﾞｼﾁｭｳｵｳｸ","streetKana":"ﾅｶﾞｽﾞ","prefecture":"千葉県","city":"千葉市中央区","street":"長洲"},{"zipCode":"2600826","prefectureKana":"ﾁﾊﾞｹﾝ","cityKana":"ﾁﾊﾞｼﾁｭｳｵｳｸ","streetKana":"ﾆｲﾊﾏﾁｮｳ","prefecture":"千葉県","city":"千葉市中央区","street":"新浜町"},{"zipCode":"2600801","prefectureKana":"ﾁﾊﾞｹﾝ","cityKana":"ﾁﾊﾞｼﾁｭｳｵｳｸ","streetKana":"ﾆﾄﾅﾁｮｳ","prefecture":"千葉県","city":"千葉市中央区","street":"仁戸名町"},{"zipCode":"2600032","prefectureKana":"ﾁﾊﾞｹﾝ","cityKana":"ﾁﾊﾞｼﾁｭｳｵｳｸ","streetKana":"ﾉﾌﾞﾄ","prefecture":"千葉県","city":"千葉市中央区","street":"登戸"},{"zipCode":"2600803","prefectureKana":"ﾁﾊﾞｹﾝ","cityKana":"ﾁﾊﾞｼﾁｭｳｵｳｸ","streetKana":"ﾊﾅﾜﾁｮｳ","prefecture":"千葉県","city":"千葉市中央区","street":"花輪町"},{"zipCode":"2600824","prefectureKana":"ﾁﾊﾞｹﾝ","cityKana":"ﾁﾊﾞｼﾁｭｳｵｳｸ","streetKana":"ﾊﾏﾉﾁｮｳ","prefecture":"千葉県","city":"千葉市中央区","street":"浜野町"},{"zipCode":"2600041","prefectureKana":"ﾁﾊﾞｹﾝ","cityKana":"ﾁﾊﾞｼﾁｭｳｵｳｸ","streetKana":"ﾋｶﾞｼﾁﾊﾞ","prefecture":"千葉県","city":"千葉市中央区","street":"東千葉"},{"zipCode":"2600004","prefectureKana":"ﾁﾊﾞｹﾝ","cityKana":"ﾁﾊﾞｼﾁｭｳｵｳｸ","streetKana":"ﾋｶﾞｼﾎﾝﾁｮｳ","prefecture":"千葉県","city":"千葉市中央区","street":"東本町"},{"zipCode":"2600015","prefectureKana":"ﾁﾊﾞｹﾝ","cityKana":"ﾁﾊﾞｼﾁｭｳｵｳｸ","streetKana":"ﾌｼﾞﾐ","prefecture":"千葉県","city":"千葉市中央区","street":"富士見"},{"zipCode":"2600045","prefectureKana":"ﾁﾊﾞｹﾝ","cityKana":"ﾁﾊﾞｼﾁｭｳｵｳｸ","streetKana":"ﾍﾞﾝﾃﾝ","prefecture":"千葉県","city":"千葉市中央区","street":"弁天"},{"zipCode":"2600808","prefectureKana":"ﾁﾊﾞｹﾝ","cityKana":"ﾁﾊﾞｼﾁｭｳｵｳｸ","streetKana":"ﾎｼｸﾞｷﾁｮｳ","prefecture":"千葉県","city":"千葉市中央区","street":"星久喜町"},{"zipCode":"2600014","prefectureKana":"ﾁﾊﾞｹﾝ","cityKana":"ﾁﾊﾞｼﾁｭｳｵｳｸ","streetKana":"ﾎﾝﾁﾊﾞﾁｮｳ","prefecture":"千葉県","city":"千葉市中央区","street":"本千葉町"},{"zipCode":"2600012","prefectureKana":"ﾁﾊﾞｹﾝ","cityKana":"ﾁﾊﾞｼﾁｭｳｵｳｸ","streetKana":"ﾎﾝﾁｮｳ","prefecture":"千葉県","city":"千葉市中央区","street":"本町"},{"zipCode":"2600807","prefectureKana":"ﾁﾊﾞｹﾝ","cityKana":"ﾁﾊﾞｼﾁｭｳｵｳｸ","streetKana":"ﾏﾂｶﾞｵｶﾁｮｳ","prefecture":"千葉県","city":"千葉市中央区","street":"松ケ丘町"},{"zipCode":"2600044","prefectureKana":"ﾁﾊﾞｹﾝ","cityKana":"ﾁﾊﾞｼﾁｭｳｵｳｸ","streetKana":"ﾏﾂﾅﾐ","prefecture":"千葉県","city":"千葉市中央区","street":"松波"},{"zipCode":"2600831","prefectureKana":"ﾁﾊﾞｹﾝ","cityKana":"ﾁﾊﾞｼﾁｭｳｵｳｸ","streetKana":"ﾐﾅﾄﾁｮｳ","prefecture":"千葉県","city":"千葉市中央区","street":"港町"},{"zipCode":"2600814","prefectureKana":"ﾁﾊﾞｹﾝ","cityKana":"ﾁﾊﾞｼﾁｭｳｵｳｸ","streetKana":"ﾐﾅﾐｵﾕﾐﾁｮｳ","prefecture":"千葉県","city":"千葉市中央区","street":"南生実町"},{"zipCode":"2600842","prefectureKana":"ﾁﾊﾞｹﾝ","cityKana":"ﾁﾊﾞｼﾁｭｳｵｳｸ","streetKana":"ﾐﾅﾐﾁｮｳ","prefecture":"千葉県","city":"千葉市中央区","street":"南町"},{"zipCode":"2600001","prefectureKana":"ﾁﾊﾞｹﾝ","cityKana":"ﾁﾊﾞｼﾁｭｳｵｳｸ","streetKana":"ﾐﾔｺﾁｮｳ","prefecture":"千葉県","city":"千葉市中央区","street":"都町"},{"zipCode":"2600806","prefectureKana":"ﾁﾊﾞｹﾝ","cityKana":"ﾁﾊﾞｼﾁｭｳｵｳｸ","streetKana":"ﾐﾔｻﾞｷ","prefecture":"千葉県","city":"千葉市中央区","street":"宮崎"},{"zipCode":"2600805","prefectureKana":"ﾁﾊﾞｹﾝ","cityKana":"ﾁﾊﾞｼﾁｭｳｵｳｸ","streetKana":"ﾐﾔｻﾞｷﾁｮｳ","prefecture":"千葉県","city":"千葉市中央区","street":"宮崎町"},{"zipCode":"2600825","prefectureKana":"ﾁﾊﾞｹﾝ","cityKana":"ﾁﾊﾞｼﾁｭｳｵｳｸ","streetKana":"ﾑﾗﾀﾁｮｳ","prefecture":"千葉県","city":"千葉市中央区","street":"村田町"},{"zipCode":"2600851","prefectureKana":"ﾁﾊﾞｹﾝ","cityKana":"ﾁﾊﾞｼﾁｭｳｵｳｸ","streetKana":"ﾔﾊｷﾞﾁｮｳ","prefecture":"千葉県","city":"千葉市中央区","street":"矢作町"},{"zipCode":"2600007","prefectureKana":"ﾁﾊﾞｹﾝ","cityKana":"ﾁﾊﾞｼﾁｭｳｵｳｸ","streetKana":"ﾕｳｺｳ","prefecture":"千葉県","city":"千葉市中央区","street":"祐光"},{"zipCode":"2600821","prefectureKana":"ﾁﾊﾞｹﾝ","cityKana":"ﾁﾊﾞｼﾁｭｳｵｳｸ","streetKana":"ﾜｶｸｻ","prefecture":"千葉県","city":"千葉市中央区","street":"若草"}]