[{"zipCode":"2630000","prefectureKana":"ﾁﾊﾞｹﾝ","cityKana":"ﾁﾊﾞｼｲﾅｹﾞｸ","streetKana":"ｲｶﾆｹｲｻｲｶﾞﾅｲﾊﾞｱｲ","prefecture":"千葉県","city":"千葉市稲毛区","street":"以下に掲載がない場合"},{"zipCode":"2630024","prefectureKana":"ﾁﾊﾞｹﾝ","cityKana":"ﾁﾊﾞｼｲﾅｹﾞｸ","streetKana":"ｱﾅｶﾞﾜ","prefecture":"千葉県","city":"千葉市稲毛区","street":"穴川"},{"zipCode":"2630025","prefectureKana":"ﾁﾊﾞｹﾝ","cityKana":"ﾁﾊﾞｼｲﾅｹﾞｸ","streetKana":"ｱﾅｶﾞﾜﾁｮｳ","prefecture":"千葉県","city":"千葉市稲毛区","street":"穴川町"},{"zipCode":"2630052","prefectureKana":"ﾁﾊﾞｹﾝ","cityKana":"ﾁﾊﾞｼｲﾅｹﾞｸ","streetKana":"ｱﾔﾒﾀﾞｲ","prefecture":"千葉県","city":"千葉市稲毛区","street":"あやめ台"},{"zipCode":"2630033","prefectureKana":"ﾁﾊﾞｹﾝ","cityKana":"ﾁﾊﾞｼｲﾅｹﾞｸ","streetKana":"ｲﾅｵｶﾁｮｳ","prefecture":"千葉県","city":"千葉市稲毛区","street":"稲丘町"},{"zipCode":"2630034","prefectureKana":"ﾁﾊﾞｹﾝ","cityKana":"ﾁﾊﾞｼｲﾅｹﾞｸ","streetKana":"ｲﾅｹﾞ","prefecture":"千葉県","city":"千葉市稲毛区","street":"稲毛"},{"zipCode":"2630032","prefectureKana":"ﾁﾊﾞｹﾝ","cityKana":"ﾁﾊﾞｼｲﾅｹﾞｸ","streetKana":"ｲﾅｹﾞﾀﾞｲﾁｮｳ","prefecture":"千葉県","city":"千葉市稲毛区","street":"稲毛台町"},{"zipCode":"2630035","prefectureKana":"ﾁﾊﾞｹﾝ","cityKana":"ﾁﾊﾞｼｲﾅｹﾞｸ","streetKana":"ｲﾅｹﾞﾁｮｳ","prefecture":"千葉県","city":"千葉市稲毛区","street":"稲毛町"},{"zipCode":"2630031","prefectureKana":"ﾁﾊﾞｹﾝ","cityKana":"ﾁﾊﾞｼｲﾅｹﾞｸ","streetKana":"ｲﾅｹﾞﾋｶﾞｼ","prefecture":"千葉県","city":"千葉市稲毛区","street":"稲毛東"},{"zipCode":"2630053","prefectureKana":"ﾁﾊﾞｹﾝ","cityKana":"ﾁﾊﾞｼｲﾅｹﾞｸ","streetKana":"ｶｼﾜﾀﾞｲ","prefecture":"千葉県","city":"千葉市稲毛区","street":"柏台"},{"zipCode":"2630042","prefectureKana":"ﾁﾊﾞｹﾝ","cityKana":"ﾁﾊﾞｼｲﾅｹﾞｸ","streetKana":"ｸﾛｽﾅ","prefecture":"千葉県","city":"千葉市稲毛区","street":"黒砂"},{"zipCode":"2630041","prefectureKana":"ﾁﾊﾞｹﾝ","cityKana":"ﾁﾊﾞｼｲﾅｹﾞｸ","streetKana":"ｸﾛｽﾅﾀﾞｲ","prefecture":"千葉県","city":"千葉市稲毛区","street":"黒砂台"},{"zipCode":"2630043","prefectureKana":"ﾁﾊﾞｹﾝ","cityKana":"ﾁﾊﾞｼｲﾅｹﾞｸ","streetKana":"ｺﾅｶﾀﾞｲ","prefecture":"千葉県","city":"千葉市稲毛区","street":"小仲台"},{"zipCode":"2630044","prefectureKana":"ﾁﾊﾞｹﾝ","cityKana":"ﾁﾊﾞｼｲﾅｹﾞｸ","streetKana":"ｺﾅｶﾀﾞｲﾁｮｳ","prefecture":"千葉県","city":"千葉市稲毛区","street":"小中台町"},{"zipCode":"2630003","prefectureKana":"ﾁﾊﾞｹﾝ","cityKana":"ﾁﾊﾞｼｲﾅｹﾞｸ","streetKana":"ｺﾌﾞｹﾁｮｳ","prefecture":"千葉県","city":"千葉市稲毛区","street":"小深町"},{"zipCode":"2630015","prefectureKana":"ﾁﾊﾞｹﾝ","cityKana":"ﾁﾊﾞｼｲﾅｹﾞｸ","streetKana":"ｻｸｻﾍﾞ","prefecture":"千葉県","city":"千葉市稲毛区","street":"作草部"},{"zipCode":"2630014","prefectureKana":"ﾁﾊﾞｹﾝ","cityKana":"ﾁﾊﾞｼｲﾅｹﾞｸ","streetKana":"ｻｸｻﾍﾞﾁｮｳ","prefecture":"千葉県","city":"千葉市稲毛区","street":"作草部町"},{"zipCode":"2630002","prefectureKana":"ﾁﾊﾞｹﾝ","cityKana":"ﾁﾊﾞｼｲﾅｹﾞｸ","streetKana":"ｻﾝﾉｳﾁｮｳ","prefecture":"千葉県","city":"千葉市稲毛区","street":"山王町"},{"zipCode":"2630051","prefectureKana":"ﾁﾊﾞｹﾝ","cityKana":"ﾁﾊﾞｼｲﾅｹﾞｸ","streetKana":"ｿﾝﾉｳﾁｮｳ","prefecture":"千葉県","city":"千葉市稲毛区","street":"園生町"},{"zipCode":"2630013","prefectureKana":"ﾁﾊﾞｹﾝ","cityKana":"ﾁﾊﾞｼｲﾅｹﾞｸ","streetKana":"ﾁｸﾞｻﾀﾞｲ","prefecture":"千葉県","city":"千葉市稲毛区","street":"千草台"},{"zipCode":"2630016","prefectureKana":"ﾁﾊﾞｹﾝ","cityKana":"ﾁﾊﾞｼｲﾅｹﾞｸ","streetKana":"ﾃﾝﾀﾞｲ","prefecture":"千葉県","city":"千葉市稲毛区","street":"天台"},{"zipCode":"2630011","prefectureKana":"ﾁﾊﾞｹﾝ","cityKana":"ﾁﾊﾞｼｲﾅｹﾞｸ","streetKana":"ﾃﾝﾀﾞｲﾁｮｳ","prefecture":"千葉県","city":"千葉市稲毛区","street":"天台町"},{"zipCode":"2630021","prefectureKana":"ﾁﾊﾞｹﾝ","cityKana":"ﾁﾊﾞｼｲﾅｹﾞｸ","streetKana":"ﾄﾄﾞﾛｷﾁｮｳ","prefecture":"千葉県","city":"千葉市稲毛区","street":"轟町"},{"zipCode":"2630005","prefectureKana":"ﾁﾊﾞｹﾝ","cityKana":"ﾁﾊﾞｼｲﾅｹﾞｸ","streetKana":"ﾅｶﾞﾇﾏﾁｮｳ","prefecture":"千葉県","city":"千葉市稲毛区","street":"長沼町"},{"zipCode":"2630001","prefectureKana":"ﾁﾊﾞｹﾝ","cityKana":"ﾁﾊﾞｼｲﾅｹﾞｸ","streetKana":"ﾅｶﾞﾇﾏﾊﾗﾁｮｳ","prefecture":"千葉県","city":"千葉市稲毛区","street":"長沼原町"},{"zipCode":"2630012","prefectureKana":"ﾁﾊﾞｹﾝ","cityKana":"ﾁﾊﾞｼｲﾅｹﾞｸ","streetKana":"ﾊｷﾞﾀﾞｲﾁｮｳ","prefecture":"千葉県","city":"千葉市稲毛区","street":"萩台町"},{"zipCode":"2630023","prefectureKana":"ﾁﾊﾞｹﾝ","cityKana":"ﾁﾊﾞｼｲﾅｹﾞｸ","streetKana":"ﾐﾄﾞﾘﾁｮｳ","prefecture":"千葉県","city":"千葉市稲毛区","street":"緑町"},{"zipCode":"2630054","prefectureKana":"ﾁﾊﾞｹﾝ","cityKana":"ﾁﾊﾞｼｲﾅｹﾞｸ","streetKana":"ﾐﾔﾉｷﾞﾁｮｳ","prefecture":"千葉県","city":"千葉市稲毛区","street":"宮野木町"},{"zipCode":"2630022","prefectureKana":"ﾁﾊﾞｹﾝ","cityKana":"ﾁﾊﾞｼｲﾅｹﾞｸ","streetKana":"ﾔﾖｲﾁｮｳ","prefecture":"千葉県","city":"千葉市稲毛区","street":"弥生町"},{"zipCode":"2630004","prefectureKana":"ﾁﾊﾞｹﾝ","cityKana":"ﾁﾊﾞｼｲﾅｹﾞｸ","streetKana":"ﾛｯﾎﾟｳﾁｮｳ","prefecture":"千葉県","city":"千葉市稲毛区","street":"六方町"}]