[{"zipCode":"2640000","prefectureKana":"ﾁﾊﾞｹﾝ","cityKana":"ﾁﾊﾞｼﾜｶﾊﾞｸ","streetKana":"ｲｶﾆｹｲｻｲｶﾞﾅｲﾊﾞｱｲ","prefecture":"千葉県","city":"千葉市若葉区","street":"以下に掲載がない場合"},{"zipCode":"2640031","prefectureKana":"ﾁﾊﾞｹﾝ","cityKana":"ﾁﾊﾞｼﾜｶﾊﾞｸ","streetKana":"ｱｲｵｲﾁｮｳ","prefecture":"千葉県","city":"千葉市若葉区","street":"愛生町"},{"zipCode":"2640011","prefectureKana":"ﾁﾊﾞｹﾝ","cityKana":"ﾁﾊﾞｼﾜｶﾊﾞｸ","streetKana":"ｵｵｸｻﾁｮｳ","prefecture":"千葉県","city":"千葉市若葉区","street":"大草町"},{"zipCode":"2640013","prefectureKana":"ﾁﾊﾞｹﾝ","cityKana":"ﾁﾊﾞｼﾜｶﾊﾞｸ","streetKana":"ｵｵﾀﾁｮｳ","prefecture":"千葉県","city":"千葉市若葉区","street":"太田町"},{"zipCode":"2640015","prefectureKana":"ﾁﾊﾞｹﾝ","cityKana":"ﾁﾊﾞｼﾜｶﾊﾞｸ","streetKana":"ｵｵﾐﾔﾀﾞｲ","prefecture":"千葉県","city":"千葉市若葉区","street":"大宮台"},{"zipCode":"2640016","prefectureKana":"ﾁﾊﾞｹﾝ","cityKana":"ﾁﾊﾞｼﾜｶﾊﾞｸ","streetKana":"ｵｵﾐﾔﾁｮｳ","prefecture":"千葉県","city":"千葉市若葉区","street":"大宮町"},{"zipCode":"2640006","prefectureKana":"ﾁﾊﾞｹﾝ","cityKana":"ﾁﾊﾞｼﾜｶﾊﾞｸ","streetKana":"ｵｸﾞﾗﾀﾞｲ","prefecture":"千葉県","city":"千葉市若葉区","street":"小倉台"},{"zipCode":"2640007","prefectureKana":"ﾁﾊﾞｹﾝ","cityKana":"ﾁﾊﾞｼﾜｶﾊﾞｸ","streetKana":"ｵｸﾞﾗﾁｮｳ","prefecture":"千葉県","city":"千葉市若葉区","street":"小倉町"},{"zipCode":"2640020","prefectureKana":"ﾁﾊﾞｹﾝ","cityKana":"ﾁﾊﾞｼﾜｶﾊﾞｸ","streetKana":"ｶｲﾂﾞｶ","prefecture":"千葉県","city":"千葉市若葉区","street":"貝塚"},{"zipCode":"2640023","prefectureKana":"ﾁﾊﾞｹﾝ","cityKana":"ﾁﾊﾞｼﾜｶﾊﾞｸ","streetKana":"ｶｲﾂﾞｶﾁｮｳ","prefecture":"千葉県","city":"千葉市若葉区","street":"貝塚町"},{"zipCode":"2640017","prefectureKana":"ﾁﾊﾞｹﾝ","cityKana":"ﾁﾊﾞｼﾜｶﾊﾞｸ","streetKana":"ｶｿﾘﾁｮｳ","prefecture":"千葉県","city":"千葉市若葉区","street":"加曽利町"},{"zipCode":"2640001","prefectureKana":"ﾁﾊﾞｹﾝ","cityKana":"ﾁﾊﾞｼﾜｶﾊﾞｸ","streetKana":"ｶﾈｵﾔﾁｮｳ","prefecture":"千葉県","city":"千葉市若葉区","street":"金親町"},{"zipCode":"2640014","prefectureKana":"ﾁﾊﾞｹﾝ","cityKana":"ﾁﾊﾞｼﾜｶﾊﾞｸ","streetKana":"ｷﾀｵｵﾐﾔﾀﾞｲ","prefecture":"千葉県","city":"千葉市若葉区","street":"北大宮台"},{"zipCode":"2640012","prefectureKana":"ﾁﾊﾞｹﾝ","cityKana":"ﾁﾊﾞｼﾜｶﾊﾞｸ","streetKana":"ｻｶﾂﾞｷﾁｮｳ","prefecture":"千葉県","city":"千葉市若葉区","street":"坂月町"},{"zipCode":"2640028","prefectureKana":"ﾁﾊﾞｹﾝ","cityKana":"ﾁﾊﾞｼﾜｶﾊﾞｸ","streetKana":"ｻｸﾗｷﾞ","prefecture":"千葉県","city":"千葉市若葉区","street":"桜木"},{"zipCode":"2640029","prefectureKana":"ﾁﾊﾞｹﾝ","cityKana":"ﾁﾊﾞｼﾜｶﾊﾞｸ","streetKana":"ｻｸﾗｷﾞｷﾀ","prefecture":"千葉県","city":"千葉市若葉区","street":"桜木北"},{"zipCode":"2640024","prefectureKana":"ﾁﾊﾞｹﾝ","cityKana":"ﾁﾊﾞｼﾜｶﾊﾞｸ","streetKana":"ﾀｶｼﾅﾁｮｳ","prefecture":"千葉県","city":"千葉市若葉区","street":"高品町"},{"zipCode":"2640002","prefectureKana":"ﾁﾊﾞｹﾝ","cityKana":"ﾁﾊﾞｼﾜｶﾊﾞｸ","streetKana":"ﾁｼﾛﾀﾞｲﾋｶﾞｼ","prefecture":"千葉県","city":"千葉市若葉区","street":"千城台東"},{"zipCode":"2640004","prefectureKana":"ﾁﾊﾞｹﾝ","cityKana":"ﾁﾊﾞｼﾜｶﾊﾞｸ","streetKana":"ﾁｼﾛﾀﾞｲﾆｼ","prefecture":"千葉県","city":"千葉市若葉区","street":"千城台西"},{"zipCode":"2640003","prefectureKana":"ﾁﾊﾞｹﾝ","cityKana":"ﾁﾊﾞｼﾜｶﾊﾞｸ","streetKana":"ﾁｼﾛﾀﾞｲﾐﾅﾐ","prefecture":"千葉県","city":"千葉市若葉区","street":"千城台南"},{"zipCode":"2640005","prefectureKana":"ﾁﾊﾞｹﾝ","cityKana":"ﾁﾊﾞｼﾜｶﾊﾞｸ","streetKana":"ﾁｼﾛﾀﾞｲｷﾀ","prefecture":"千葉県","city":"千葉市若葉区","street":"千城台北"},{"zipCode":"2640025","prefectureKana":"ﾁﾊﾞｹﾝ","cityKana":"ﾁﾊﾞｼﾜｶﾊﾞｸ","streetKana":"ﾂｶﾞ","prefecture":"千葉県","city":"千葉市若葉区","street":"都賀"},{"zipCode":"2640033","prefectureKana":"ﾁﾊﾞｹﾝ","cityKana":"ﾁﾊﾞｼﾜｶﾊﾞｸ","streetKana":"ﾂｶﾞﾉﾀﾞｲ","prefecture":"千葉県","city":"千葉市若葉区","street":"都賀の台"},{"zipCode":"2640036","prefectureKana":"ﾁﾊﾞｹﾝ","cityKana":"ﾁﾊﾞｼﾜｶﾊﾞｸ","streetKana":"ﾄﾉﾀﾞｲﾁｮｳ","prefecture":"千葉県","city":"千葉市若葉区","street":"殿台町"},{"zipCode":"2640026","prefectureKana":"ﾁﾊﾞｹﾝ","cityKana":"ﾁﾊﾞｼﾜｶﾊﾞｸ","streetKana":"ﾆｼﾂｶﾞ","prefecture":"千葉県","city":"千葉市若葉区","street":"西都賀"},{"zipCode":"2640034","prefectureKana":"ﾁﾊﾞｹﾝ","cityKana":"ﾁﾊﾞｼﾜｶﾊﾞｸ","streetKana":"ﾊﾗﾏﾁ","prefecture":"千葉県","city":"千葉市若葉区","street":"原町"},{"zipCode":"2640035","prefectureKana":"ﾁﾊﾞｹﾝ","cityKana":"ﾁﾊﾞｼﾜｶﾊﾞｸ","streetKana":"ﾋｶﾞｼﾃﾗﾔﾏﾁｮｳ","prefecture":"千葉県","city":"千葉市若葉区","street":"東寺山町"},{"zipCode":"2640032","prefectureKana":"ﾁﾊﾞｹﾝ","cityKana":"ﾁﾊﾞｼﾜｶﾊﾞｸ","streetKana":"ﾐﾂﾜﾀﾞｲ","prefecture":"千葉県","city":"千葉市若葉区","street":"みつわ台"},{"zipCode":"2640037","prefectureKana":"ﾁﾊﾞｹﾝ","cityKana":"ﾁﾊﾞｼﾜｶﾊﾞｸ","streetKana":"ﾐﾅﾓﾄﾁｮｳ","prefecture":"千葉県","city":"千葉市若葉区","street":"源町"},{"zipCode":"2640027","prefectureKana":"ﾁﾊﾞｹﾝ","cityKana":"ﾁﾊﾞｼﾜｶﾊﾞｸ","streetKana":"ﾜｶﾏﾂﾀﾞｲ","prefecture":"千葉県","city":"千葉市若葉区","street":"若松台"},{"zipCode":"2640021","prefectureKana":"ﾁﾊﾞｹﾝ","cityKana":"ﾁﾊﾞｼﾜｶﾊﾞｸ","streetKana":"ﾜｶﾏﾂﾁｮｳ","prefecture":"千葉県","city":"千葉市若葉区","street":"若松町"}]