[{"zipCode":"2730000","prefectureKana":"ﾁﾊﾞｹﾝ","cityKana":"ﾌﾅﾊﾞｼｼ","streetKana":"ｲｶﾆｹｲｻｲｶﾞﾅｲﾊﾞｱｲ","prefecture":"千葉県","city":"船橋市","street":"以下に掲載がない場合"},{"zipCode":"2730041","prefectureKana":"ﾁﾊﾞｹﾝ","cityKana":"ﾌﾅﾊﾞｼｼ","streetKana":"ｱｻﾋﾁｮｳ","prefecture":"千葉県","city":"船橋市","street":"旭町"},{"zipCode":"2730863","prefectureKana":"ﾁﾊﾞｹﾝ","cityKana":"ﾌﾅﾊﾞｼｼ","streetKana":"ｱｽﾞﾏﾁｮｳ","prefecture":"千葉県","city":"船橋市","street":"東町"},{"zipCode":"2730001","prefectureKana":"ﾁﾊﾞｹﾝ","cityKana":"ﾌﾅﾊﾞｼｼ","streetKana":"ｲﾁﾊﾞ","prefecture":"千葉県","city":"船橋市","street":"市場"},{"zipCode":"2730039","prefectureKana":"ﾁﾊﾞｹﾝ","cityKana":"ﾌﾅﾊﾞｼｼ","streetKana":"ｲﾝﾅｲ","prefecture":"千葉県","city":"船橋市","street":"印内"},{"zipCode":"2730025","prefectureKana":"ﾁﾊﾞｹﾝ","cityKana":"ﾌﾅﾊﾞｼｼ","streetKana":"ｲﾝﾅｲﾁｮｳ","prefecture":"千葉県","city":"船橋市","street":"印内町"},{"zipCode":"2730021","prefectureKana":"ﾁﾊﾞｹﾝ","cityKana":"ﾌﾅﾊﾞｼｼ","streetKana":"ｶｲｼﾞﾝ","prefecture":"千葉県","city":"船橋市","street":"海神"},{"zipCode":"2730022","prefectureKana":"ﾁﾊﾞｹﾝ","cityKana":"ﾌﾅﾊﾞｼｼ","streetKana":"ｶｲｼﾞﾝﾁｮｳ","prefecture":"千葉県","city":"船橋市","street":"海神町"},{"zipCode":"2730028","prefectureKana":"ﾁﾊﾞｹﾝ","cityKana":"ﾌﾅﾊﾞｼｼ","streetKana":"ｶｲｼﾞﾝﾁｮｳﾋｶﾞｼ","prefecture":"千葉県","city":"船橋市","street":"海神町東"},{"zipCode":"2730027","prefectureKana":"ﾁﾊﾞｹﾝ","cityKana":"ﾌﾅﾊﾞｼｼ","streetKana":"ｶｲｼﾞﾝﾁｮｳﾆｼ","prefecture":"千葉県","city":"船橋市","street":"海神町西"},{"zipCode":"2730024","prefectureKana":"ﾁﾊﾞｹﾝ","cityKana":"ﾌﾅﾊﾞｼｼ","streetKana":"ｶｲｼﾞﾝﾁｮｳﾐﾅﾐ","prefecture":"千葉県","city":"船橋市","street":"海神町南"},{"zipCode":"2730032","prefectureKana":"ﾁﾊﾞｹﾝ","cityKana":"ﾌﾅﾊﾞｼｼ","streetKana":"ｶﾂｼｶﾁｮｳ","prefecture":"千葉県","city":"船橋市","street":"葛飾町"},{"zipCode":"2730853","prefectureKana":"ﾁﾊﾞｹﾝ","cityKana":"ﾌﾅﾊﾞｼｼ","streetKana":"ｶﾅｽｷﾞ","prefecture":"千葉県","city":"船橋市","street":"金杉"},{"zipCode":"2730852","prefectureKana":"ﾁﾊﾞｹﾝ","cityKana":"ﾌﾅﾊﾞｼｼ","streetKana":"ｶﾅｽｷﾞﾀﾞｲ","prefecture":"千葉県","city":"船橋市","street":"金杉台"},{"zipCode":"2730854","prefectureKana":"ﾁﾊﾞｹﾝ","cityKana":"ﾌﾅﾊﾞｼｼ","streetKana":"ｶﾅｽｷﾞﾁｮｳ","prefecture":"千葉県","city":"船橋市","street":"金杉町"},{"zipCode":"2730046","prefectureKana":"ﾁﾊﾞｹﾝ","cityKana":"ﾌﾅﾊﾞｼｼ","streetKana":"ｶﾐﾔﾏﾁｮｳ","prefecture":"千葉県","city":"船橋市","street":"上山町"},{"zipCode":"2730864","prefectureKana":"ﾁﾊﾞｹﾝ","cityKana":"ﾌﾅﾊﾞｼｼ","streetKana":"ｷﾀﾎﾝﾁｮｳ","prefecture":"千葉県","city":"船橋市","street":"北本町"},{"zipCode":"2730044","prefectureKana":"ﾁﾊﾞｹﾝ","cityKana":"ﾌﾅﾊﾞｼｼ","streetKana":"ｷﾞｮｳﾀﾞ","prefecture":"千葉県","city":"船橋市","street":"行田"},{"zipCode":"2730043","prefectureKana":"ﾁﾊﾞｹﾝ","cityKana":"ﾌﾅﾊﾞｼｼ","streetKana":"ｷﾞｮｳﾀﾞﾁｮｳ","prefecture":"千葉県","city":"船橋市","street":"行田町"},{"zipCode":"2730037","prefectureKana":"ﾁﾊﾞｹﾝ","cityKana":"ﾌﾅﾊﾞｼｼ","streetKana":"ｺｻｸ","prefecture":"千葉県","city":"船橋市","street":"古作"},{"zipCode":"2730038","prefectureKana":"ﾁﾊﾞｹﾝ","cityKana":"ﾌﾅﾊﾞｼｼ","streetKana":"ｺｻｸﾁｮｳ","prefecture":"千葉県","city":"船橋市","street":"古作町"},{"zipCode":"2730861","prefectureKana":"ﾁﾊﾞｹﾝ","cityKana":"ﾌﾅﾊﾞｼｼ","streetKana":"ｺﾒｶﾞｻｷﾁｮｳ","prefecture":"千葉県","city":"船橋市","street":"米ケ崎町"},{"zipCode":"2730018","prefectureKana":"ﾁﾊﾞｹﾝ","cityKana":"ﾌﾅﾊﾞｼｼ","streetKana":"ｻｶｴﾁｮｳ","prefecture":"千葉県","city":"船橋市","street":"栄町"},{"zipCode":"2730016","prefectureKana":"ﾁﾊﾞｹﾝ","cityKana":"ﾌﾅﾊﾞｼｼ","streetKana":"ｼｵﾐﾁｮｳ","prefecture":"千葉県","city":"船橋市","street":"潮見町"},{"zipCode":"2730862","prefectureKana":"ﾁﾊﾞｹﾝ","cityKana":"ﾌﾅﾊﾞｼｼ","streetKana":"ｽﾙｶﾞﾀﾞｲ","prefecture":"千葉県","city":"船橋市","street":"駿河台"},{"zipCode":"2730014","prefectureKana":"ﾁﾊﾞｹﾝ","cityKana":"ﾌﾅﾊﾞｼｼ","streetKana":"ﾀｶｾﾁｮｳ","prefecture":"千葉県","city":"船橋市","street":"高瀬町"},{"zipCode":"2730865","prefectureKana":"ﾁﾊﾞｹﾝ","cityKana":"ﾌﾅﾊﾞｼｼ","streetKana":"ﾅﾂﾐ","prefecture":"千葉県","city":"船橋市","street":"夏見"},{"zipCode":"2730866","prefectureKana":"ﾁﾊﾞｹﾝ","cityKana":"ﾌﾅﾊﾞｼｼ","streetKana":"ﾅﾂﾐﾀﾞｲ","prefecture":"千葉県","city":"船橋市","street":"夏見台"},{"zipCode":"2730867","prefectureKana":"ﾁﾊﾞｹﾝ","cityKana":"ﾌﾅﾊﾞｼｼ","streetKana":"ﾅﾂﾐﾁｮｳ","prefecture":"千葉県","city":"船橋市","street":"夏見町"},{"zipCode":"2730017","prefectureKana":"ﾁﾊﾞｹﾝ","cityKana":"ﾌﾅﾊﾞｼｼ","streetKana":"ﾆｼｳﾗ","prefecture":"千葉県","city":"船橋市","street":"西浦"},{"zipCode":"2730031","prefectureKana":"ﾁﾊﾞｹﾝ","cityKana":"ﾌﾅﾊﾞｼｼ","streetKana":"ﾆｼﾌﾅ","prefecture":"千葉県","city":"船橋市","street":"西船"},{"zipCode":"2730012","prefectureKana":"ﾁﾊﾞｹﾝ","cityKana":"ﾌﾅﾊﾞｼｼ","streetKana":"ﾊﾏﾁｮｳ","prefecture":"千葉県","city":"船橋市","street":"浜町"},{"zipCode":"2730036","prefectureKana":"ﾁﾊﾞｹﾝ","cityKana":"ﾌﾅﾊﾞｼｼ","streetKana":"ﾋｶﾞｼﾅｶﾔﾏ","prefecture":"千葉県","city":"船橋市","street":"東中山"},{"zipCode":"2730002","prefectureKana":"ﾁﾊﾞｹﾝ","cityKana":"ﾌﾅﾊﾞｼｼ","streetKana":"ﾋｶﾞｼﾌﾅﾊﾞｼ","prefecture":"千葉県","city":"船橋市","street":"東船橋"},{"zipCode":"2730015","prefectureKana":"ﾁﾊﾞｹﾝ","cityKana":"ﾌﾅﾊﾞｼｼ","streetKana":"ﾋﾉﾃﾞ","prefecture":"千葉県","city":"船橋市","street":"日の出"},{"zipCode":"2730047","prefectureKana":"ﾁﾊﾞｹﾝ","cityKana":"ﾌﾅﾊﾞｼｼ","streetKana":"ﾌｼﾞﾜﾗ","prefecture":"千葉県","city":"船橋市","street":"藤原"},{"zipCode":"2730034","prefectureKana":"ﾁﾊﾞｹﾝ","cityKana":"ﾌﾅﾊﾞｼｼ","streetKana":"ﾌﾀｺﾞﾁｮｳ","prefecture":"千葉県","city":"船橋市","street":"二子町"},{"zipCode":"2730033","prefectureKana":"ﾁﾊﾞｹﾝ","cityKana":"ﾌﾅﾊﾞｼｼ","streetKana":"ﾎﾝｺﾞｳﾁｮｳ","prefecture":"千葉県","city":"船橋市","street":"本郷町"},{"zipCode":"2730005","prefectureKana":"ﾁﾊﾞｹﾝ","cityKana":"ﾌﾅﾊﾞｼｼ","streetKana":"ﾎﾝﾁｮｳ","prefecture":"千葉県","city":"船橋市","street":"本町"},{"zipCode":"2730042","prefectureKana":"ﾁﾊﾞｹﾝ","cityKana":"ﾌﾅﾊﾞｼｼ","streetKana":"ﾏｴｶｲﾂﾞｶﾁｮｳ","prefecture":"千葉県","city":"船橋市","street":"前貝塚町"},{"zipCode":"2730851","prefectureKana":"ﾁﾊﾞｹﾝ","cityKana":"ﾌﾅﾊﾞｼｼ","streetKana":"ﾏｺﾞﾒﾁｮｳ","prefecture":"千葉県","city":"船橋市","street":"馬込町"},{"zipCode":"2730855","prefectureKana":"ﾁﾊﾞｹﾝ","cityKana":"ﾌﾅﾊﾞｼｼ","streetKana":"ﾏｺﾞﾒﾆｼ","prefecture":"千葉県","city":"船橋市","street":"馬込西"},{"zipCode":"2730048","prefectureKana":"ﾁﾊﾞｹﾝ","cityKana":"ﾌﾅﾊﾞｼｼ","streetKana":"ﾏﾙﾔﾏ","prefecture":"千葉県","city":"船橋市","street":"丸山"},{"zipCode":"2730011","prefectureKana":"ﾁﾊﾞｹﾝ","cityKana":"ﾌﾅﾊﾞｼｼ","streetKana":"ﾐﾅﾄﾁｮｳ","prefecture":"千葉県","city":"船橋市","street":"湊町"},{"zipCode":"2730023","prefectureKana":"ﾁﾊﾞｹﾝ","cityKana":"ﾌﾅﾊﾞｼｼ","streetKana":"ﾐﾅﾐｶｲｼﾞﾝ","prefecture":"千葉県","city":"船橋市","street":"南海神"},{"zipCode":"2730004","prefectureKana":"ﾁﾊﾞｹﾝ","cityKana":"ﾌﾅﾊﾞｼｼ","streetKana":"ﾐﾅﾐﾎﾝﾁｮｳ","prefecture":"千葉県","city":"船橋市","street":"南本町"},{"zipCode":"2730003","prefectureKana":"ﾁﾊﾞｹﾝ","cityKana":"ﾌﾅﾊﾞｼｼ","streetKana":"ﾐﾔﾓﾄ","prefecture":"千葉県","city":"船橋市","street":"宮本"},{"zipCode":"2730035","prefectureKana":"ﾁﾊﾞｹﾝ","cityKana":"ﾌﾅﾊﾞｼｼ","streetKana":"ﾓﾄﾅｶﾔﾏ","prefecture":"千葉県","city":"船橋市","street":"本中山"},{"zipCode":"2730045","prefectureKana":"ﾁﾊﾞｹﾝ","cityKana":"ﾌﾅﾊﾞｼｼ","streetKana":"ﾔﾏﾃ","prefecture":"千葉県","city":"船橋市","street":"山手"},{"zipCode":"2730026","prefectureKana":"ﾁﾊﾞｹﾝ","cityKana":"ﾌﾅﾊﾞｼｼ","streetKana":"ﾔﾏﾉﾁｮｳ","prefecture":"千葉県","city":"船橋市","street":"山野町"},{"zipCode":"2730013","prefectureKana":"ﾁﾊﾞｹﾝ","cityKana":"ﾌﾅﾊﾞｼｼ","streetKana":"ﾜｶﾏﾂ","prefecture":"千葉県","city":"船橋市","street":"若松"},{"zipCode":"2730100","prefectureKana":"ﾁﾊﾞｹﾝ","cityKana":"ｶﾏｶﾞﾔｼ","streetKana":"ｲｶﾆｹｲｻｲｶﾞﾅｲﾊﾞｱｲ","prefecture":"千葉県","city":"鎌ケ谷市","street":"以下に掲載がない場合"},{"zipCode":"2730132","prefectureKana":"ﾁﾊﾞｹﾝ","cityKana":"ｶﾏｶﾞﾔｼ","streetKana":"ｱﾜﾉ","prefecture":"千葉県","city":"鎌ケ谷市","street":"粟野"},{"zipCode":"2730102","prefectureKana":"ﾁﾊﾞｹﾝ","cityKana":"ｶﾏｶﾞﾔｼ","streetKana":"ｳｷｮｳﾂﾞｶ","prefecture":"千葉県","city":"鎌ケ谷市","street":"右京塚"},{"zipCode":"2730105","prefectureKana":"ﾁﾊﾞｹﾝ","cityKana":"ｶﾏｶﾞﾔｼ","streetKana":"ｶﾏｶﾞﾔ","prefecture":"千葉県","city":"鎌ケ谷市","street":"鎌ケ谷"},{"zipCode":"2730131","prefectureKana":"ﾁﾊﾞｹﾝ","cityKana":"ｶﾏｶﾞﾔｼ","streetKana":"ｶﾙｲｻﾞﾜ","prefecture":"千葉県","city":"鎌ケ谷市","street":"軽井沢"},{"zipCode":"2730111","prefectureKana":"ﾁﾊﾞｹﾝ","cityKana":"ｶﾏｶﾞﾔｼ","streetKana":"ｷﾀﾅｶｻﾞﾜ","prefecture":"千葉県","city":"鎌ケ谷市","street":"北中沢"},{"zipCode":"2730126","prefectureKana":"ﾁﾊﾞｹﾝ","cityKana":"ｶﾏｶﾞﾔｼ","streetKana":"ｷﾀﾊﾂﾄﾐ","prefecture":"千葉県","city":"鎌ケ谷市","street":"北初富"},{"zipCode":"2730127","prefectureKana":"ﾁﾊﾞｹﾝ","cityKana":"ｶﾏｶﾞﾔｼ","streetKana":"ｸｼｻﾞｷｼﾝﾃﾞﾝ","prefecture":"千葉県","city":"鎌ケ谷市","street":"串崎新田"},{"zipCode":"2730128","prefectureKana":"ﾁﾊﾞｹﾝ","cityKana":"ｶﾏｶﾞﾔｼ","streetKana":"ｸﾇｷﾞﾔﾏ","prefecture":"千葉県","city":"鎌ケ谷市","street":"くぬぎ山"},{"zipCode":"2730136","prefectureKana":"ﾁﾊﾞｹﾝ","cityKana":"ｶﾏｶﾞﾔｼ","streetKana":"ｻﾂﾏ","prefecture":"千葉県","city":"鎌ケ谷市","street":"佐津間"},{"zipCode":"2730107","prefectureKana":"ﾁﾊﾞｹﾝ","cityKana":"ｶﾏｶﾞﾔｼ","streetKana":"ｼﾝｶﾏｶﾞﾔ","prefecture":"千葉県","city":"鎌ケ谷市","street":"新鎌ケ谷"},{"zipCode":"2730124","prefectureKana":"ﾁﾊﾞｹﾝ","cityKana":"ｶﾏｶﾞﾔｼ","streetKana":"ﾁｭｳｵｳ","prefecture":"千葉県","city":"鎌ケ谷市","street":"中央"},{"zipCode":"2730101","prefectureKana":"ﾁﾊﾞｹﾝ","cityKana":"ｶﾏｶﾞﾔｼ","streetKana":"ﾄﾐｵｶ","prefecture":"千葉県","city":"鎌ケ谷市","street":"富岡"},{"zipCode":"2730135","prefectureKana":"ﾁﾊﾞｹﾝ","cityKana":"ｶﾏｶﾞﾔｼ","streetKana":"ﾅｶｻﾂﾏ","prefecture":"千葉県","city":"鎌ケ谷市","street":"中佐津間"},{"zipCode":"2730118","prefectureKana":"ﾁﾊﾞｹﾝ","cityKana":"ｶﾏｶﾞﾔｼ","streetKana":"ﾅｶｻﾞﾜ","prefecture":"千葉県","city":"鎌ケ谷市","street":"中沢"},{"zipCode":"2730119","prefectureKana":"ﾁﾊﾞｹﾝ","cityKana":"ｶﾏｶﾞﾔｼ","streetKana":"ﾅｶｻﾞﾜｼﾝﾏﾁ","prefecture":"千葉県","city":"鎌ケ谷市","street":"中沢新町"},{"zipCode":"2730134","prefectureKana":"ﾁﾊﾞｹﾝ","cityKana":"ｶﾏｶﾞﾔｼ","streetKana":"ﾆｼｻﾂﾏ","prefecture":"千葉県","city":"鎌ケ谷市","street":"西佐津間"},{"zipCode":"2730117","prefectureKana":"ﾁﾊﾞｹﾝ","cityKana":"ｶﾏｶﾞﾔｼ","streetKana":"ﾆｼﾐﾁﾉﾍﾞ","prefecture":"千葉県","city":"鎌ケ谷市","street":"西道野辺"},{"zipCode":"2730121","prefectureKana":"ﾁﾊﾞｹﾝ","cityKana":"ｶﾏｶﾞﾔｼ","streetKana":"ﾊﾂﾄﾐ","prefecture":"千葉県","city":"鎌ケ谷市","street":"初富"},{"zipCode":"2730125","prefectureKana":"ﾁﾊﾞｹﾝ","cityKana":"ｶﾏｶﾞﾔｼ","streetKana":"ﾊﾂﾄﾐﾎﾝﾁｮｳ","prefecture":"千葉県","city":"鎌ケ谷市","street":"初富本町"},{"zipCode":"2730104","prefectureKana":"ﾁﾊﾞｹﾝ","cityKana":"ｶﾏｶﾞﾔｼ","streetKana":"ﾋｶﾞｼｶﾏｶﾞﾔ","prefecture":"千葉県","city":"鎌ケ谷市","street":"東鎌ケ谷"},{"zipCode":"2730112","prefectureKana":"ﾁﾊﾞｹﾝ","cityKana":"ｶﾏｶﾞﾔｼ","streetKana":"ﾋｶﾞｼﾅｶｻﾞﾜ","prefecture":"千葉県","city":"鎌ケ谷市","street":"東中沢"},{"zipCode":"2730122","prefectureKana":"ﾁﾊﾞｹﾝ","cityKana":"ｶﾏｶﾞﾔｼ","streetKana":"ﾋｶﾞｼﾊﾂﾄﾐ","prefecture":"千葉県","city":"鎌ケ谷市","street":"東初富"},{"zipCode":"2730115","prefectureKana":"ﾁﾊﾞｹﾝ","cityKana":"ｶﾏｶﾞﾔｼ","streetKana":"ﾋｶﾞｼﾐﾁﾉﾍﾞ","prefecture":"千葉県","city":"鎌ケ谷市","street":"東道野辺"},{"zipCode":"2730116","prefectureKana":"ﾁﾊﾞｹﾝ","cityKana":"ｶﾏｶﾞﾔｼ","streetKana":"ﾏｺﾞﾒｻﾞﾜ","prefecture":"千葉県","city":"鎌ケ谷市","street":"馬込沢"},{"zipCode":"2730103","prefectureKana":"ﾁﾊﾞｹﾝ","cityKana":"ｶﾏｶﾞﾔｼ","streetKana":"ﾏﾙﾔﾏ","prefecture":"千葉県","city":"鎌ケ谷市","street":"丸山"},{"zipCode":"2730114","prefectureKana":"ﾁﾊﾞｹﾝ","cityKana":"ｶﾏｶﾞﾔｼ","streetKana":"ﾐﾁﾉﾍﾞ","prefecture":"千葉県","city":"鎌ケ谷市","street":"道野辺"},{"zipCode":"2730113","prefectureKana":"ﾁﾊﾞｹﾝ","cityKana":"ｶﾏｶﾞﾔｼ","streetKana":"ﾐﾁﾉﾍﾞﾁｭｳｵｳ","prefecture":"千葉県","city":"鎌ケ谷市","street":"道野辺中央"},{"zipCode":"2730137","prefectureKana":"ﾁﾊﾞｹﾝ","cityKana":"ｶﾏｶﾞﾔｼ","streetKana":"ﾐﾁﾉﾍﾞﾎﾝﾁｮｳ","prefecture":"千葉県","city":"鎌ケ谷市","street":"道野辺本町"},{"zipCode":"2730106","prefectureKana":"ﾁﾊﾞｹﾝ","cityKana":"ｶﾏｶﾞﾔｼ","streetKana":"ﾐﾅﾐｶﾏｶﾞﾔ","prefecture":"千葉県","city":"鎌ケ谷市","street":"南鎌ケ谷"},{"zipCode":"2730133","prefectureKana":"ﾁﾊﾞｹﾝ","cityKana":"ｶﾏｶﾞﾔｼ","streetKana":"ﾐﾅﾐｻﾂﾏ","prefecture":"千葉県","city":"鎌ケ谷市","street":"南佐津間"},{"zipCode":"2730123","prefectureKana":"ﾁﾊﾞｹﾝ","cityKana":"ｶﾏｶﾞﾔｼ","streetKana":"ﾐﾅﾐﾊﾂﾄﾐ","prefecture":"千葉県","city":"鎌ケ谷市","street":"南初富"}]