[{"zipCode":"2820010","prefectureKana":"ﾁﾊﾞｹﾝ","cityKana":"ﾅﾘﾀｼ","streetKana":"ｷﾁｵｶ(ﾅﾘﾀｺｸｻｲｸｳｺｳﾅｲ)","prefecture":"千葉県","city":"成田市","street":"吉岡（成田国際空港内）"},{"zipCode":"2820005","prefectureKana":"ﾁﾊﾞｹﾝ","cityKana":"ﾅﾘﾀｼ","streetKana":"ｷﾉﾈ(ﾅﾘﾀｺｸｻｲｸｳｺｳﾅｲ)","prefecture":"千葉県","city":"成田市","street":"木の根（成田国際空港内）"},{"zipCode":"2820027","prefectureKana":"ﾁﾊﾞｹﾝ","cityKana":"ﾅﾘﾀｼ","streetKana":"ｺｽｹﾞ(ﾅﾘﾀｺｸｻｲｸｳｺｳﾅｲ)","prefecture":"千葉県","city":"成田市","street":"小菅（成田国際空港内）"},{"zipCode":"2820021","prefectureKana":"ﾁﾊﾞｹﾝ","cityKana":"ﾅﾘﾀｼ","streetKana":"ｺﾏｲﾉ(ﾅﾘﾀｺｸｻｲｸｳｺｳﾅｲ)","prefecture":"千葉県","city":"成田市","street":"駒井野（成田国際空港内）"},{"zipCode":"2820011","prefectureKana":"ﾁﾊﾞｹﾝ","cityKana":"ﾅﾘﾀｼ","streetKana":"ｻﾝﾘﾂﾞｶ(ｺﾞﾘｮｳﾎﾞｸｼﾞｮｳ･ﾅﾘﾀｺｸｻｲｸｳｺｳﾅｲ)","prefecture":"千葉県","city":"成田市","street":"三里塚（御料牧場・成田国際空港内）"},{"zipCode":"2820002","prefectureKana":"ﾁﾊﾞｹﾝ","cityKana":"ﾅﾘﾀｼ","streetKana":"ﾃﾝｼﾞﾝﾐﾈ(ﾅﾘﾀｺｸｻｲｸｳｺｳﾅｲ)","prefecture":"千葉県","city":"成田市","street":"天神峰（成田国際空港内）"},{"zipCode":"2820001","prefectureKana":"ﾁﾊﾞｹﾝ","cityKana":"ﾅﾘﾀｼ","streetKana":"ﾃﾝﾅﾐ","prefecture":"千葉県","city":"成田市","street":"天浪"},{"zipCode":"2820003","prefectureKana":"ﾁﾊﾞｹﾝ","cityKana":"ﾅﾘﾀｼ","streetKana":"ﾄｳﾎｳ(ﾅﾘﾀｺｸｻｲｸｳｺｳﾅｲ)","prefecture":"千葉県","city":"成田市","street":"東峰（成田国際空港内）"},{"zipCode":"2820006","prefectureKana":"ﾁﾊﾞｹﾝ","cityKana":"ﾅﾘﾀｼ","streetKana":"ﾄｯｺｳ(ﾅﾘﾀｺｸｻｲｸｳｺｳﾅｲ)","prefecture":"千葉県","city":"成田市","street":"取香（成田国際空港内）"},{"zipCode":"2820009","prefectureKana":"ﾁﾊﾞｹﾝ","cityKana":"ﾅﾘﾀｼ","streetKana":"ﾄﾖﾐ(ﾅﾘﾀｺｸｻｲｸｳｺｳﾅｲ)","prefecture":"千葉県","city":"成田市","street":"十余三（成田国際空港内）"},{"zipCode":"2820012","prefectureKana":"ﾁﾊﾞｹﾝ","cityKana":"ﾅﾘﾀｼ","streetKana":"ﾋｶﾞｼｻﾝﾘﾂﾞｶ(ﾅﾘﾀｺｸｻｲｸｳｺｳﾅｲ)","prefecture":"千葉県","city":"成田市","street":"東三里塚（成田国際空港内）"},{"zipCode":"2820004","prefectureKana":"ﾁﾊﾞｹﾝ","cityKana":"ﾅﾘﾀｼ","streetKana":"ﾌﾙｺﾞﾒ(ﾅﾘﾀｺｸｻｲｸｳｺｳﾅｲ)","prefecture":"千葉県","city":"成田市","street":"古込（成田国際空港内）"},{"zipCode":"2820007","prefectureKana":"ﾁﾊﾞｹﾝ","cityKana":"ﾅﾘﾀｼ","streetKana":"ﾎﾘﾉｳﾁ(ﾅﾘﾀｺｸｻｲｸｳｺｳﾅｲ)","prefecture":"千葉県","city":"成田市","street":"堀之内（成田国際空港内）"},{"zipCode":"2820031","prefectureKana":"ﾁﾊﾞｹﾝ","cityKana":"ｶﾄﾘｸﾞﾝﾀｺﾏﾁ","streetKana":"ﾋﾄｸﾜﾀﾞ(ﾅﾘﾀｺｸｻｲｸｳｺｳﾅｲ)","prefecture":"千葉県","city":"香取郡多古町","street":"一鍬田（成田国際空港内）"},{"zipCode":"2820035","prefectureKana":"ﾁﾊﾞｹﾝ","cityKana":"ｻﾝﾌﾞｸﾞﾝｼﾊﾞﾔﾏﾏﾁ","streetKana":"ｲﾜﾔﾏ(ﾅﾘﾀｺｸｻｲｸｳｺｳﾅｲ)","prefecture":"千葉県","city":"山武郡芝山町","street":"岩山（成田国際空港内）"},{"zipCode":"2820034","prefectureKana":"ﾁﾊﾞｹﾝ","cityKana":"ｻﾝﾌﾞｸﾞﾝｼﾊﾞﾔﾏﾏﾁ","streetKana":"ｵｵｻﾄ(ﾅﾘﾀｺｸｻｲｸｳｺｳﾅｲ)","prefecture":"千葉県","city":"山武郡芝山町","street":"大里（成田国際空港内）"},{"zipCode":"2820032","prefectureKana":"ﾁﾊﾞｹﾝ","cityKana":"ｻﾝﾌﾞｸﾞﾝｼﾊﾞﾔﾏﾏﾁ","streetKana":"ｶﾔﾏｼﾝﾃﾞﾝ(ﾅﾘﾀｺｸｻｲｸｳｺｳﾅｲ)","prefecture":"千葉県","city":"山武郡芝山町","street":"香山新田（成田国際空港内）"},{"zipCode":"2820033","prefectureKana":"ﾁﾊﾞｹﾝ","cityKana":"ｻﾝﾌﾞｸﾞﾝｼﾊﾞﾔﾏﾏﾁ","streetKana":"ﾋｼﾀﾞ(ﾅﾘﾀｺｸｻｲｸｳｺｳﾅｲ)","prefecture":"千葉県","city":"山武郡芝山町","street":"菱田（成田国際空港内）"}]