[{"zipCode":"2970000","prefectureKana":"ﾁﾊﾞｹﾝ","cityKana":"ﾓﾊﾞﾗｼ","streetKana":"ｲｶﾆｹｲｻｲｶﾞﾅｲﾊﾞｱｲ","prefecture":"千葉県","city":"茂原市","street":"以下に掲載がない場合"},{"zipCode":"2970066","prefectureKana":"ﾁﾊﾞｹﾝ","cityKana":"ﾓﾊﾞﾗｼ","streetKana":"ｱｼｱﾐ","prefecture":"千葉県","city":"茂原市","street":"芦網"},{"zipCode":"2970058","prefectureKana":"ﾁﾊﾞｹﾝ","cityKana":"ﾓﾊﾞﾗｼ","streetKana":"ｲｼｶﾞﾐ","prefecture":"千葉県","city":"茂原市","street":"石神"},{"zipCode":"2970062","prefectureKana":"ﾁﾊﾞｹﾝ","cityKana":"ﾓﾊﾞﾗｼ","streetKana":"ｳﾁﾅｶﾞﾔ","prefecture":"千葉県","city":"茂原市","street":"内長谷"},{"zipCode":"2970033","prefectureKana":"ﾁﾊﾞｹﾝ","cityKana":"ﾓﾊﾞﾗｼ","streetKana":"ｵｵｼﾊﾞ","prefecture":"千葉県","city":"茂原市","street":"大芝"},{"zipCode":"2970072","prefectureKana":"ﾁﾊﾞｹﾝ","cityKana":"ﾓﾊﾞﾗｼ","streetKana":"ｵｵﾉﾎﾞﾘ","prefecture":"千葉県","city":"茂原市","street":"大登"},{"zipCode":"2970075","prefectureKana":"ﾁﾊﾞｹﾝ","cityKana":"ﾓﾊﾞﾗｼ","streetKana":"ｵｼﾋﾞ","prefecture":"千葉県","city":"茂原市","street":"押日"},{"zipCode":"2970036","prefectureKana":"ﾁﾊﾞｹﾝ","cityKana":"ﾓﾊﾞﾗｼ","streetKana":"ｶﾐﾅｶﾞﾖｼ","prefecture":"千葉県","city":"茂原市","street":"上永吉"},{"zipCode":"2970052","prefectureKana":"ﾁﾊﾞｹﾝ","cityKana":"ﾓﾊﾞﾗｼ","streetKana":"ｶﾐﾓﾊﾞﾗ","prefecture":"千葉県","city":"茂原市","street":"上茂原"},{"zipCode":"2970014","prefectureKana":"ﾁﾊﾞｹﾝ","cityKana":"ﾓﾊﾞﾗｼ","streetKana":"ｶﾜｼﾏﾄﾋﾞﾁ","prefecture":"千葉県","city":"茂原市","street":"川島飛地"},{"zipCode":"2970019","prefectureKana":"ﾁﾊﾞｹﾝ","cityKana":"ﾓﾊﾞﾗｼ","streetKana":"ｶﾝﾊﾞﾔｼ","prefecture":"千葉県","city":"茂原市","street":"上林"},{"zipCode":"2970016","prefectureKana":"ﾁﾊﾞｹﾝ","cityKana":"ﾓﾊﾞﾗｼ","streetKana":"ｷｻｷ","prefecture":"千葉県","city":"茂原市","street":"木崎"},{"zipCode":"2970003","prefectureKana":"ﾁﾊﾞｹﾝ","cityKana":"ﾓﾊﾞﾗｼ","streetKana":"ｷﾀﾀｶﾈﾄﾋﾞﾁ","prefecture":"千葉県","city":"茂原市","street":"北高根飛地"},{"zipCode":"2970009","prefectureKana":"ﾁﾊﾞｹﾝ","cityKana":"ﾓﾊﾞﾗｼ","streetKana":"ｷﾀﾂﾞｶ","prefecture":"千葉県","city":"茂原市","street":"北塚"},{"zipCode":"2970071","prefectureKana":"ﾁﾊﾞｹﾝ","cityKana":"ﾓﾊﾞﾗｼ","streetKana":"ｸﾛﾄﾞ","prefecture":"千葉県","city":"茂原市","street":"黒戸"},{"zipCode":"2970067","prefectureKana":"ﾁﾊﾞｹﾝ","cityKana":"ﾓﾊﾞﾗｼ","streetKana":"ｺｳｾｷ","prefecture":"千葉県","city":"茂原市","street":"国府関"},{"zipCode":"2970004","prefectureKana":"ﾁﾊﾞｹﾝ","cityKana":"ﾓﾊﾞﾗｼ","streetKana":"ｺｸﾞﾂﾜ","prefecture":"千葉県","city":"茂原市","street":"小轡"},{"zipCode":"2970007","prefectureKana":"ﾁﾊﾞｹﾝ","cityKana":"ﾓﾊﾞﾗｼ","streetKana":"ｺｼｱﾃ","prefecture":"千葉県","city":"茂原市","street":"腰当"},{"zipCode":"2970074","prefectureKana":"ﾁﾊﾞｹﾝ","cityKana":"ﾓﾊﾞﾗｼ","streetKana":"ｺﾊﾞﾔｼ","prefecture":"千葉県","city":"茂原市","street":"小林"},{"zipCode":"2970041","prefectureKana":"ﾁﾊﾞｹﾝ","cityKana":"ﾓﾊﾞﾗｼ","streetKana":"ｻﾙﾌﾞｸﾛ","prefecture":"千葉県","city":"茂原市","street":"猿袋"},{"zipCode":"2970042","prefectureKana":"ﾁﾊﾞｹﾝ","cityKana":"ﾓﾊﾞﾗｼ","streetKana":"ｻﾝｶﾞﾔ","prefecture":"千葉県","city":"茂原市","street":"三ケ谷"},{"zipCode":"2970008","prefectureKana":"ﾁﾊﾞｹﾝ","cityKana":"ﾓﾊﾞﾗｼ","streetKana":"ｼﾌﾞﾔ","prefecture":"千葉県","city":"茂原市","street":"渋谷"},{"zipCode":"2970035","prefectureKana":"ﾁﾊﾞｹﾝ","cityKana":"ﾓﾊﾞﾗｼ","streetKana":"ｼﾓﾅｶﾞﾖｼ","prefecture":"千葉県","city":"茂原市","street":"下永吉"},{"zipCode":"2970076","prefectureKana":"ﾁﾊﾞｹﾝ","cityKana":"ﾓﾊﾞﾗｼ","streetKana":"ｼｮｳﾖｼ","prefecture":"千葉県","city":"茂原市","street":"庄吉"},{"zipCode":"2970006","prefectureKana":"ﾁﾊﾞｹﾝ","cityKana":"ﾓﾊﾞﾗｼ","streetKana":"ｼﾝｺｸﾞﾂﾜ","prefecture":"千葉県","city":"茂原市","street":"新小轡"},{"zipCode":"2970053","prefectureKana":"ﾁﾊﾞｹﾝ","cityKana":"ﾓﾊﾞﾗｼ","streetKana":"ｽﾐﾀﾞ","prefecture":"千葉県","city":"茂原市","street":"墨田"},{"zipCode":"2970002","prefectureKana":"ﾁﾊﾞｹﾝ","cityKana":"ﾓﾊﾞﾗｼ","streetKana":"ｾﾝﾁｮｳ","prefecture":"千葉県","city":"茂原市","street":"千町"},{"zipCode":"2970044","prefectureKana":"ﾁﾊﾞｹﾝ","cityKana":"ﾓﾊﾞﾗｼ","streetKana":"ﾀﾞｲﾀﾞ","prefecture":"千葉県","city":"茂原市","street":"台田"},{"zipCode":"2970029","prefectureKana":"ﾁﾊﾞｹﾝ","cityKana":"ﾓﾊﾞﾗｼ","streetKana":"ﾀｶｼ","prefecture":"千葉県","city":"茂原市","street":"高師"},{"zipCode":"2970078","prefectureKana":"ﾁﾊﾞｹﾝ","cityKana":"ﾓﾊﾞﾗｼ","streetKana":"ﾀｶｼﾀﾞｲ","prefecture":"千葉県","city":"茂原市","street":"高師台"},{"zipCode":"2970021","prefectureKana":"ﾁﾊﾞｹﾝ","cityKana":"ﾓﾊﾞﾗｼ","streetKana":"ﾀｶｼﾁｮｳ","prefecture":"千葉県","city":"茂原市","street":"高師町"},{"zipCode":"2970043","prefectureKana":"ﾁﾊﾞｹﾝ","cityKana":"ﾓﾊﾞﾗｼ","streetKana":"ﾀﾁｷ","prefecture":"千葉県","city":"茂原市","street":"立木"},{"zipCode":"2970057","prefectureKana":"ﾁﾊﾞｹﾝ","cityKana":"ﾓﾊﾞﾗｼ","streetKana":"ﾁｭｳｾﾞﾝｼﾞ","prefecture":"千葉県","city":"茂原市","street":"中善寺"},{"zipCode":"2970027","prefectureKana":"ﾁﾊﾞｹﾝ","cityKana":"ﾓﾊﾞﾗｼ","streetKana":"ﾁｭｳﾌﾞ","prefecture":"千葉県","city":"茂原市","street":"中部"},{"zipCode":"2970023","prefectureKana":"ﾁﾊﾞｹﾝ","cityKana":"ﾓﾊﾞﾗｼ","streetKana":"ﾁﾖﾀﾞﾁｮｳ","prefecture":"千葉県","city":"茂原市","street":"千代田町"},{"zipCode":"2970055","prefectureKana":"ﾁﾊﾞｹﾝ","cityKana":"ﾓﾊﾞﾗｼ","streetKana":"ﾂﾅｼﾏ","prefecture":"千葉県","city":"茂原市","street":"綱島"},{"zipCode":"2970017","prefectureKana":"ﾁﾊﾞｹﾝ","cityKana":"ﾓﾊﾞﾗｼ","streetKana":"ﾄｳｺﾞｳ","prefecture":"千葉県","city":"茂原市","street":"東郷"},{"zipCode":"2970028","prefectureKana":"ﾁﾊﾞｹﾝ","cityKana":"ﾓﾊﾞﾗｼ","streetKana":"ﾄﾞｳﾋﾞｮｳ","prefecture":"千葉県","city":"茂原市","street":"道表"},{"zipCode":"2970015","prefectureKana":"ﾁﾊﾞｹﾝ","cityKana":"ﾓﾊﾞﾗｼ","streetKana":"ﾄｳﾌﾞﾀﾞｲ","prefecture":"千葉県","city":"茂原市","street":"東部台"},{"zipCode":"2970013","prefectureKana":"ﾁﾊﾞｹﾝ","cityKana":"ﾓﾊﾞﾗｼ","streetKana":"ﾅｶﾉｺﾞｳﾄﾋﾞﾁ","prefecture":"千葉県","city":"茂原市","street":"中之郷飛地"},{"zipCode":"2970034","prefectureKana":"ﾁﾊﾞｹﾝ","cityKana":"ﾓﾊﾞﾗｼ","streetKana":"ﾅｶﾉｼﾏﾁｮｳ","prefecture":"千葉県","city":"茂原市","street":"中の島町"},{"zipCode":"2970073","prefectureKana":"ﾁﾊﾞｹﾝ","cityKana":"ﾓﾊﾞﾗｼ","streetKana":"ﾅｶﾞｵ","prefecture":"千葉県","city":"茂原市","street":"長尾"},{"zipCode":"2970038","prefectureKana":"ﾁﾊﾞｹﾝ","cityKana":"ﾓﾊﾞﾗｼ","streetKana":"ﾅｶﾞｼﾐｽﾞ","prefecture":"千葉県","city":"茂原市","street":"長清水"},{"zipCode":"2970063","prefectureKana":"ﾁﾊﾞｹﾝ","cityKana":"ﾓﾊﾞﾗｼ","streetKana":"ﾅｶﾞﾔ","prefecture":"千葉県","city":"茂原市","street":"長谷"},{"zipCode":"2970001","prefectureKana":"ﾁﾊﾞｹﾝ","cityKana":"ﾓﾊﾞﾗｼ","streetKana":"ﾅﾅﾜﾀﾘ","prefecture":"千葉県","city":"茂原市","street":"七渡"},{"zipCode":"2970018","prefectureKana":"ﾁﾊﾞｹﾝ","cityKana":"ﾓﾊﾞﾗｼ","streetKana":"ﾊｷﾞﾜﾗﾁｮｳ","prefecture":"千葉県","city":"茂原市","street":"萩原町"},{"zipCode":"2970037","prefectureKana":"ﾁﾊﾞｹﾝ","cityKana":"ﾓﾊﾞﾗｼ","streetKana":"ﾊﾔﾉ","prefecture":"千葉県","city":"茂原市","street":"早野"},{"zipCode":"2970031","prefectureKana":"ﾁﾊﾞｹﾝ","cityKana":"ﾓﾊﾞﾗｼ","streetKana":"ﾊﾔﾉｼﾝﾃﾞﾝ","prefecture":"千葉県","city":"茂原市","street":"早野新田"},{"zipCode":"2970032","prefectureKana":"ﾁﾊﾞｹﾝ","cityKana":"ﾓﾊﾞﾗｼ","streetKana":"ﾋｶﾞｼﾓﾊﾞﾗ","prefecture":"千葉県","city":"茂原市","street":"東茂原"},{"zipCode":"2970005","prefectureKana":"ﾁﾊﾞｹﾝ","cityKana":"ﾓﾊﾞﾗｼ","streetKana":"ﾎﾝｺｸﾞﾂﾜ","prefecture":"千葉県","city":"茂原市","street":"本小轡"},{"zipCode":"2970022","prefectureKana":"ﾁﾊﾞｹﾝ","cityKana":"ﾓﾊﾞﾗｼ","streetKana":"ﾏﾁﾎﾞ","prefecture":"千葉県","city":"茂原市","street":"町保"},{"zipCode":"2970077","prefectureKana":"ﾁﾊﾞｹﾝ","cityKana":"ﾓﾊﾞﾗｼ","streetKana":"ﾏﾝﾅ","prefecture":"千葉県","city":"茂原市","street":"真名"},{"zipCode":"2970065","prefectureKana":"ﾁﾊﾞｹﾝ","cityKana":"ﾓﾊﾞﾗｼ","streetKana":"ﾐﾄﾞﾘｶﾞｵｶ","prefecture":"千葉県","city":"茂原市","street":"緑ケ丘"},{"zipCode":"2970025","prefectureKana":"ﾁﾊﾞｹﾝ","cityKana":"ﾓﾊﾞﾗｼ","streetKana":"ﾐﾄﾞﾘﾁｮｳ","prefecture":"千葉県","city":"茂原市","street":"緑町"},{"zipCode":"2970064","prefectureKana":"ﾁﾊﾞｹﾝ","cityKana":"ﾓﾊﾞﾗｼ","streetKana":"ﾐﾉﾜ","prefecture":"千葉県","city":"茂原市","street":"箕輪"},{"zipCode":"2970012","prefectureKana":"ﾁﾊﾞｹﾝ","cityKana":"ﾓﾊﾞﾗｼ","streetKana":"ﾑﾂﾉ","prefecture":"千葉県","city":"茂原市","street":"六ツ野"},{"zipCode":"2970026","prefectureKana":"ﾁﾊﾞｹﾝ","cityKana":"ﾓﾊﾞﾗｼ","streetKana":"ﾓﾊﾞﾗ","prefecture":"千葉県","city":"茂原市","street":"茂原"},{"zipCode":"2970039","prefectureKana":"ﾁﾊﾞｹﾝ","cityKana":"ﾓﾊﾞﾗｼ","streetKana":"ﾓﾊﾞﾗﾆｼ","prefecture":"千葉県","city":"茂原市","street":"茂原西"},{"zipCode":"2970045","prefectureKana":"ﾁﾊﾞｹﾝ","cityKana":"ﾓﾊﾞﾗｼ","streetKana":"ﾔｷﾞｭｳ","prefecture":"千葉県","city":"茂原市","street":"野牛"},{"zipCode":"2970024","prefectureKana":"ﾁﾊﾞｹﾝ","cityKana":"ﾓﾊﾞﾗｼ","streetKana":"ﾔﾁﾖ","prefecture":"千葉県","city":"茂原市","street":"八千代"},{"zipCode":"2970061","prefectureKana":"ﾁﾊﾞｹﾝ","cityKana":"ﾓﾊﾞﾗｼ","streetKana":"ﾔﾏｻｷ","prefecture":"千葉県","city":"茂原市","street":"山崎"},{"zipCode":"2970011","prefectureKana":"ﾁﾊﾞｹﾝ","cityKana":"ﾓﾊﾞﾗｼ","streetKana":"ﾔﾓﾄ","prefecture":"千葉県","city":"茂原市","street":"谷本"},{"zipCode":"2970054","prefectureKana":"ﾁﾊﾞｹﾝ","cityKana":"ﾓﾊﾞﾗｼ","streetKana":"ﾔﾜﾀﾊﾞﾗ","prefecture":"千葉県","city":"茂原市","street":"八幡原"},{"zipCode":"2970079","prefectureKana":"ﾁﾊﾞｹﾝ","cityKana":"ﾓﾊﾞﾗｼ","streetKana":"ﾕﾀｶ","prefecture":"千葉県","city":"茂原市","street":"ゆたか"},{"zipCode":"2970056","prefectureKana":"ﾁﾊﾞｹﾝ","cityKana":"ﾓﾊﾞﾗｼ","streetKana":"ﾛｸﾀﾀﾞｲ","prefecture":"千葉県","city":"茂原市","street":"六田台"},{"zipCode":"2970051","prefectureKana":"ﾁﾊﾞｹﾝ","cityKana":"ﾓﾊﾞﾗｼ","streetKana":"ﾜｼﾉｽ","prefecture":"千葉県","city":"茂原市","street":"鷲巣"},{"zipCode":"2970200","prefectureKana":"ﾁﾊﾞｹﾝ","cityKana":"ﾁｮｳｾｲｸﾞﾝﾅｶﾞﾗﾏﾁ","streetKana":"ｲｶﾆｹｲｻｲｶﾞﾅｲﾊﾞｱｲ","prefecture":"千葉県","city":"長生郡長柄町","street":"以下に掲載がない場合"},{"zipCode":"2970201","prefectureKana":"ﾁﾊﾞｹﾝ","cityKana":"ﾁｮｳｾｲｸﾞﾝﾅｶﾞﾗﾏﾁ","streetKana":"ｳｴﾉ","prefecture":"千葉県","city":"長生郡長柄町","street":"上野"},{"zipCode":"2970211","prefectureKana":"ﾁﾊﾞｹﾝ","cityKana":"ﾁｮｳｾｲｸﾞﾝﾅｶﾞﾗﾏﾁ","streetKana":"ｴﾓﾄ","prefecture":"千葉県","city":"長生郡長柄町","street":"榎本"},{"zipCode":"2970223","prefectureKana":"ﾁﾊﾞｹﾝ","cityKana":"ﾁｮｳｾｲｸﾞﾝﾅｶﾞﾗﾏﾁ","streetKana":"ｵｵﾂﾞｸﾗ","prefecture":"千葉県","city":"長生郡長柄町","street":"大津倉"},{"zipCode":"2970222","prefectureKana":"ﾁﾊﾞｹﾝ","cityKana":"ﾁｮｳｾｲｸﾞﾝﾅｶﾞﾗﾏﾁ","streetKana":"ｵｵﾆﾜ","prefecture":"千葉県","city":"長生郡長柄町","street":"大庭"},{"zipCode":"2970225","prefectureKana":"ﾁﾊﾞｹﾝ","cityKana":"ﾁｮｳｾｲｸﾞﾝﾅｶﾞﾗﾏﾁ","streetKana":"ｵｻｶﾍﾞ","prefecture":"千葉県","city":"長生郡長柄町","street":"刑部"},{"zipCode":"2970226","prefectureKana":"ﾁﾊﾞｹﾝ","cityKana":"ﾁｮｳｾｲｸﾞﾝﾅｶﾞﾗﾏﾁ","streetKana":"ｶﾅﾔ","prefecture":"千葉県","city":"長生郡長柄町","street":"金谷"},{"zipCode":"2970203","prefectureKana":"ﾁﾊﾞｹﾝ","cityKana":"ﾁｮｳｾｲｸﾞﾝﾅｶﾞﾗﾏﾁ","streetKana":"ｺｳﾘ","prefecture":"千葉県","city":"長生郡長柄町","street":"国府里"},{"zipCode":"2970212","prefectureKana":"ﾁﾊﾞｹﾝ","cityKana":"ﾁｮｳｾｲｸﾞﾝﾅｶﾞﾗﾏﾁ","streetKana":"ｺｴﾓﾄ","prefecture":"千葉県","city":"長生郡長柄町","street":"小榎本"},{"zipCode":"2970218","prefectureKana":"ﾁﾊﾞｹﾝ","cityKana":"ﾁｮｳｾｲｸﾞﾝﾅｶﾞﾗﾏﾁ","streetKana":"ｻｸﾗﾔ","prefecture":"千葉県","city":"長生郡長柄町","street":"桜谷"},{"zipCode":"2970235","prefectureKana":"ﾁﾊﾞｹﾝ","cityKana":"ﾁｮｳｾｲｸﾞﾝﾅｶﾞﾗﾏﾁ","streetKana":"ｻﾗｷﾞ","prefecture":"千葉県","city":"長生郡長柄町","street":"皿木"},{"zipCode":"2970221","prefectureKana":"ﾁﾊﾞｹﾝ","cityKana":"ﾁｮｳｾｲｸﾞﾝﾅｶﾞﾗﾏﾁ","streetKana":"ﾀｶﾔﾏ","prefecture":"千葉県","city":"長生郡長柄町","street":"高山"},{"zipCode":"2970224","prefectureKana":"ﾁﾊﾞｹﾝ","cityKana":"ﾁｮｳｾｲｸﾞﾝﾅｶﾞﾗﾏﾁ","streetKana":"ﾀｼﾛ","prefecture":"千葉県","city":"長生郡長柄町","street":"田代"},{"zipCode":"2970216","prefectureKana":"ﾁﾊﾞｹﾝ","cityKana":"ﾁｮｳｾｲｸﾞﾝﾅｶﾞﾗﾏﾁ","streetKana":"ﾀﾂﾄﾘ","prefecture":"千葉県","city":"長生郡長柄町","street":"立鳥"},{"zipCode":"2970205","prefectureKana":"ﾁﾊﾞｹﾝ","cityKana":"ﾁｮｳｾｲｸﾞﾝﾅｶﾞﾗﾏﾁ","streetKana":"ﾁﾖﾏﾙ","prefecture":"千葉県","city":"長生郡長柄町","street":"千代丸"},{"zipCode":"2970215","prefectureKana":"ﾁﾊﾞｹﾝ","cityKana":"ﾁｮｳｾｲｸﾞﾝﾅｶﾞﾗﾏﾁ","streetKana":"ﾄｳﾔ","prefecture":"千葉県","city":"長生郡長柄町","street":"鴇谷"},{"zipCode":"2970213","prefectureKana":"ﾁﾊﾞｹﾝ","cityKana":"ﾁｮｳｾｲｸﾞﾝﾅｶﾞﾗﾏﾁ","streetKana":"ﾄｸﾏｽ","prefecture":"千葉県","city":"長生郡長柄町","street":"徳増"},{"zipCode":"2970232","prefectureKana":"ﾁﾊﾞｹﾝ","cityKana":"ﾁｮｳｾｲｸﾞﾝﾅｶﾞﾗﾏﾁ","streetKana":"ﾅｶﾉﾀﾞｲ","prefecture":"千葉県","city":"長生郡長柄町","street":"中野台"},{"zipCode":"2970214","prefectureKana":"ﾁﾊﾞｹﾝ","cityKana":"ﾁｮｳｾｲｸﾞﾝﾅｶﾞﾗﾏﾁ","streetKana":"ﾅｶﾞﾄﾞﾐ","prefecture":"千葉県","city":"長生郡長柄町","street":"長富"},{"zipCode":"2970234","prefectureKana":"ﾁﾊﾞｹﾝ","cityKana":"ﾁｮｳｾｲｸﾞﾝﾅｶﾞﾗﾏﾁ","streetKana":"ﾅｶﾞﾗﾔﾏ","prefecture":"千葉県","city":"長生郡長柄町","street":"長柄山"},{"zipCode":"2970217","prefectureKana":"ﾁﾊﾞｹﾝ","cityKana":"ﾁｮｳｾｲｸﾞﾝﾅｶﾞﾗﾏﾁ","streetKana":"ﾊﾘｶﾞﾔ","prefecture":"千葉県","city":"長生郡長柄町","street":"針ケ谷"},{"zipCode":"2970207","prefectureKana":"ﾁﾊﾞｹﾝ","cityKana":"ﾁｮｳｾｲｸﾞﾝﾅｶﾞﾗﾏﾁ","streetKana":"ﾌﾅｷ","prefecture":"千葉県","city":"長生郡長柄町","street":"船木"},{"zipCode":"2970202","prefectureKana":"ﾁﾊﾞｹﾝ","cityKana":"ﾁｮｳｾｲｸﾞﾝﾅｶﾞﾗﾏﾁ","streetKana":"ﾐｼｮｳ","prefecture":"千葉県","city":"長生郡長柄町","street":"味庄"},{"zipCode":"2970231","prefectureKana":"ﾁﾊﾞｹﾝ","cityKana":"ﾁｮｳｾｲｸﾞﾝﾅｶﾞﾗﾏﾁ","streetKana":"ﾔﾏﾉｺﾞｳ","prefecture":"千葉県","city":"長生郡長柄町","street":"山之郷"},{"zipCode":"2970206","prefectureKana":"ﾁﾊﾞｹﾝ","cityKana":"ﾁｮｳｾｲｸﾞﾝﾅｶﾞﾗﾏﾁ","streetKana":"ﾔﾏﾝﾈ","prefecture":"千葉県","city":"長生郡長柄町","street":"山根"},{"zipCode":"2970204","prefectureKana":"ﾁﾊﾞｹﾝ","cityKana":"ﾁｮｳｾｲｸﾞﾝﾅｶﾞﾗﾏﾁ","streetKana":"ﾘｷﾏﾙ","prefecture":"千葉県","city":"長生郡長柄町","street":"力丸"},{"zipCode":"2970233","prefectureKana":"ﾁﾊﾞｹﾝ","cityKana":"ﾁｮｳｾｲｸﾞﾝﾅｶﾞﾗﾏﾁ","streetKana":"ﾛｸｼﾞｿﾞｳ","prefecture":"千葉県","city":"長生郡長柄町","street":"六地蔵"},{"zipCode":"2970100","prefectureKana":"ﾁﾊﾞｹﾝ","cityKana":"ﾁｮｳｾｲｸﾞﾝﾁｮｳﾅﾝﾏﾁ","streetKana":"ｲｶﾆｹｲｻｲｶﾞﾅｲﾊﾞｱｲ","prefecture":"千葉県","city":"長生郡長南町","street":"以下に掲載がない場合"},{"zipCode":"2970144","prefectureKana":"ﾁﾊﾞｹﾝ","cityKana":"ﾁｮｳｾｲｸﾞﾝﾁｮｳﾅﾝﾏﾁ","streetKana":"ｲﾁﾉﾉ","prefecture":"千葉県","city":"長生郡長南町","street":"市野々"},{"zipCode":"2970103","prefectureKana":"ﾁﾊﾞｹﾝ","cityKana":"ﾁｮｳｾｲｸﾞﾝﾁｮｳﾅﾝﾏﾁ","streetKana":"ｲﾏｲｽﾞﾐ","prefecture":"千葉県","city":"長生郡長南町","street":"今泉"},{"zipCode":"2970101","prefectureKana":"ﾁﾊﾞｹﾝ","cityKana":"ﾁｮｳｾｲｸﾞﾝﾁｮｳﾅﾝﾏﾁ","streetKana":"ｲﾜｶﾜ","prefecture":"千葉県","city":"長生郡長南町","street":"岩川"},{"zipCode":"2970154","prefectureKana":"ﾁﾊﾞｹﾝ","cityKana":"ﾁｮｳｾｲｸﾞﾝﾁｮｳﾅﾝﾏﾁ","streetKana":"ｲﾜﾅﾃﾞ","prefecture":"千葉県","city":"長生郡長南町","street":"岩撫"},{"zipCode":"2970142","prefectureKana":"ﾁﾊﾞｹﾝ","cityKana":"ﾁｮｳｾｲｸﾞﾝﾁｮｳﾅﾝﾏﾁ","streetKana":"ｵｻﾞﾜ","prefecture":"千葉県","city":"長生郡長南町","street":"小沢"},{"zipCode":"2970136","prefectureKana":"ﾁﾊﾞｹﾝ","cityKana":"ﾁｮｳｾｲｸﾞﾝﾁｮｳﾅﾝﾏﾁ","streetKana":"ｵﾌﾞﾀ","prefecture":"千葉県","city":"長生郡長南町","street":"小生田"},{"zipCode":"2970125","prefectureKana":"ﾁﾊﾞｹﾝ","cityKana":"ﾁｮｳｾｲｸﾞﾝﾁｮｳﾅﾝﾏﾁ","streetKana":"ｶｻﾓﾘ","prefecture":"千葉県","city":"長生郡長南町","street":"笠森"},{"zipCode":"2970137","prefectureKana":"ﾁﾊﾞｹﾝ","cityKana":"ﾁｮｳｾｲｸﾞﾝﾁｮｳﾅﾝﾏﾁ","streetKana":"ｶﾐｵﾉﾀﾞ","prefecture":"千葉県","city":"長生郡長南町","street":"上小野田"},{"zipCode":"2970132","prefectureKana":"ﾁﾊﾞｹﾝ","cityKana":"ﾁｮｳｾｲｸﾞﾝﾁｮｳﾅﾝﾏﾁ","streetKana":"ｷｭｳﾃﾞﾝ","prefecture":"千葉県","city":"長生郡長南町","street":"給田"},{"zipCode":"2970123","prefectureKana":"ﾁﾊﾞｹﾝ","cityKana":"ﾁｮｳｾｲｸﾞﾝﾁｮｳﾅﾝﾏﾁ","streetKana":"ｸﾗﾓﾁ","prefecture":"千葉県","city":"長生郡長南町","street":"蔵持"},{"zipCode":"2970122","prefectureKana":"ﾁﾊﾞｹﾝ","cityKana":"ﾁｮｳｾｲｸﾞﾝﾁｮｳﾅﾝﾏﾁ","streetKana":"ｻｶﾓﾄ","prefecture":"千葉県","city":"長生郡長南町","street":"坂本"},{"zipCode":"2970145","prefectureKana":"ﾁﾊﾞｹﾝ","cityKana":"ﾁｮｳｾｲｸﾞﾝﾁｮｳﾅﾝﾏﾁ","streetKana":"ｻﾂﾎﾞ","prefecture":"千葉県","city":"長生郡長南町","street":"佐坪"},{"zipCode":"2970134","prefectureKana":"ﾁﾊﾞｹﾝ","cityKana":"ﾁｮｳｾｲｸﾞﾝﾁｮｳﾅﾝﾏﾁ","streetKana":"ｼﾊﾞﾊﾗ","prefecture":"千葉県","city":"長生郡長南町","street":"芝原"},{"zipCode":"2970135","prefectureKana":"ﾁﾊﾞｹﾝ","cityKana":"ﾁｮｳｾｲｸﾞﾝﾁｮｳﾅﾝﾏﾁ","streetKana":"ｼﾞﾋｷ","prefecture":"千葉県","city":"長生郡長南町","street":"地引"},{"zipCode":"2970138","prefectureKana":"ﾁﾊﾞｹﾝ","cityKana":"ﾁｮｳｾｲｸﾞﾝﾁｮｳﾅﾝﾏﾁ","streetKana":"ｼﾓｵﾉﾀﾞ","prefecture":"千葉県","city":"長生郡長南町","street":"下小野田"},{"zipCode":"2970111","prefectureKana":"ﾁﾊﾞｹﾝ","cityKana":"ﾁｮｳｾｲｸﾞﾝﾁｮｳﾅﾝﾏﾁ","streetKana":"ｽﾀﾞ","prefecture":"千葉県","city":"長生郡長南町","street":"須田"},{"zipCode":"2970113","prefectureKana":"ﾁﾊﾞｹﾝ","cityKana":"ﾁｮｳｾｲｸﾞﾝﾁｮｳﾅﾝﾏﾁ","streetKana":"ｾｷﾊﾞﾗ","prefecture":"千葉県","city":"長生郡長南町","street":"関原"},{"zipCode":"2970114","prefectureKana":"ﾁﾊﾞｹﾝ","cityKana":"ﾁｮｳｾｲｸﾞﾝﾁｮｳﾅﾝﾏﾁ","streetKana":"ｾﾝｼﾞｭﾄﾞｳ","prefecture":"千葉県","city":"長生郡長南町","street":"千手堂"},{"zipCode":"2970115","prefectureKana":"ﾁﾊﾞｹﾝ","cityKana":"ﾁｮｳｾｲｸﾞﾝﾁｮｳﾅﾝﾏﾁ","streetKana":"ｾﾝﾀﾞ","prefecture":"千葉県","city":"長生郡長南町","street":"千田"},{"zipCode":"2970155","prefectureKana":"ﾁﾊﾞｹﾝ","cityKana":"ﾁｮｳｾｲｸﾞﾝﾁｮｳﾅﾝﾏﾁ","streetKana":"ﾀｹﾊﾞﾔｼ","prefecture":"千葉県","city":"長生郡長南町","street":"竹林"},{"zipCode":"2970105","prefectureKana":"ﾁﾊﾞｹﾝ","cityKana":"ﾁｮｳｾｲｸﾞﾝﾁｮｳﾅﾝﾏﾁ","streetKana":"ﾀﾅｹﾞ","prefecture":"千葉県","city":"長生郡長南町","street":"棚毛"},{"zipCode":"2970121","prefectureKana":"ﾁﾊﾞｹﾝ","cityKana":"ﾁｮｳｾｲｸﾞﾝﾁｮｳﾅﾝﾏﾁ","streetKana":"ﾁｮｳﾅﾝ","prefecture":"千葉県","city":"長生郡長南町","street":"長南"},{"zipCode":"2970133","prefectureKana":"ﾁﾊﾞｹﾝ","cityKana":"ﾁｮｳｾｲｸﾞﾝﾁｮｳﾅﾝﾏﾁ","streetKana":"ﾄﾖﾊﾗ","prefecture":"千葉県","city":"長生郡長南町","street":"豊原"},{"zipCode":"2970131","prefectureKana":"ﾁﾊﾞｹﾝ","cityKana":"ﾁｮｳｾｲｸﾞﾝﾁｮｳﾅﾝﾏﾁ","streetKana":"ﾅｶﾊﾗ","prefecture":"千葉県","city":"長生郡長南町","street":"中原"},{"zipCode":"2970124","prefectureKana":"ﾁﾊﾞｹﾝ","cityKana":"ﾁｮｳｾｲｸﾞﾝﾁｮｳﾅﾝﾏﾁ","streetKana":"ﾌｶｻﾜ","prefecture":"千葉県","city":"長生郡長南町","street":"深沢"},{"zipCode":"2970141","prefectureKana":"ﾁﾊﾞｹﾝ","cityKana":"ﾁｮｳｾｲｸﾞﾝﾁｮｳﾅﾝﾏﾁ","streetKana":"ﾎｳｵﾝｼﾞ","prefecture":"千葉県","city":"長生郡長南町","street":"報恩寺"},{"zipCode":"2970104","prefectureKana":"ﾁﾊﾞｹﾝ","cityKana":"ﾁｮｳｾｲｸﾞﾝﾁｮｳﾅﾝﾏﾁ","streetKana":"ﾏﾀﾄﾞﾐ","prefecture":"千葉県","city":"長生郡長南町","street":"又富"},{"zipCode":"2970152","prefectureKana":"ﾁﾊﾞｹﾝ","cityKana":"ﾁｮｳｾｲｸﾞﾝﾁｮｳﾅﾝﾏﾁ","streetKana":"ﾐｽﾞﾇﾏ","prefecture":"千葉県","city":"長生郡長南町","street":"水沼"},{"zipCode":"2970143","prefectureKana":"ﾁﾊﾞｹﾝ","cityKana":"ﾁｮｳｾｲｸﾞﾝﾁｮｳﾅﾝﾏﾁ","streetKana":"ﾐﾊﾗﾀﾞｲ","prefecture":"千葉県","city":"長生郡長南町","street":"美原台"},{"zipCode":"2970151","prefectureKana":"ﾁﾊﾞｹﾝ","cityKana":"ﾁｮｳｾｲｸﾞﾝﾁｮｳﾅﾝﾏﾁ","streetKana":"ﾐｮｳｶﾞｻﾞﾜ","prefecture":"千葉県","city":"長生郡長南町","street":"茗荷沢"},{"zipCode":"2970102","prefectureKana":"ﾁﾊﾞｹﾝ","cityKana":"ﾁｮｳｾｲｸﾞﾝﾁｮｳﾅﾝﾏﾁ","streetKana":"ﾓﾄﾀﾞｲ","prefecture":"千葉県","city":"長生郡長南町","street":"本台"},{"zipCode":"2970153","prefectureKana":"ﾁﾊﾞｹﾝ","cityKana":"ﾁｮｳｾｲｸﾞﾝﾁｮｳﾅﾝﾏﾁ","streetKana":"ﾔﾏｳﾁ","prefecture":"千葉県","city":"長生郡長南町","street":"山内"},{"zipCode":"2970112","prefectureKana":"ﾁﾊﾞｹﾝ","cityKana":"ﾁｮｳｾｲｸﾞﾝﾁｮｳﾅﾝﾏﾁ","streetKana":"ﾖﾈﾐﾁ","prefecture":"千葉県","city":"長生郡長南町","street":"米満"}]