[{"zipCode":"2980000","prefectureKana":"ﾁﾊﾞｹﾝ","cityKana":"ｲｽﾐｼ","streetKana":"ｲｶﾆｹｲｻｲｶﾞﾅｲﾊﾞｱｲ","prefecture":"千葉県","city":"いすみ市","street":"以下に掲載がない場合"},{"zipCode":"2980126","prefectureKana":"ﾁﾊﾞｹﾝ","cityKana":"ｲｽﾐｼ","streetKana":"ｲﾏｾﾞｷ","prefecture":"千葉県","city":"いすみ市","street":"今関"},{"zipCode":"2980011","prefectureKana":"ﾁﾊﾞｹﾝ","cityKana":"ｲｽﾐｼ","streetKana":"ｲﾜﾌﾈ","prefecture":"千葉県","city":"いすみ市","street":"岩船"},{"zipCode":"2980013","prefectureKana":"ﾁﾊﾞｹﾝ","cityKana":"ｲｽﾐｼ","streetKana":"ｵｲｹ","prefecture":"千葉県","city":"いすみ市","street":"小池"},{"zipCode":"2980113","prefectureKana":"ﾁﾊﾞｹﾝ","cityKana":"ｲｽﾐｼ","streetKana":"ｵｵﾉ","prefecture":"千葉県","city":"いすみ市","street":"大野"},{"zipCode":"2980004","prefectureKana":"ﾁﾊﾞｹﾝ","cityKana":"ｲｽﾐｼ","streetKana":"ｵｵﾊﾗ","prefecture":"千葉県","city":"いすみ市","street":"大原"},{"zipCode":"2980014","prefectureKana":"ﾁﾊﾞｹﾝ","cityKana":"ｲｽﾐｼ","streetKana":"ｵｵﾊﾗﾀﾞｲ","prefecture":"千葉県","city":"いすみ市","street":"大原台"},{"zipCode":"2980006","prefectureKana":"ﾁﾊﾞｹﾝ","cityKana":"ｲｽﾐｼ","streetKana":"ｵｵﾊﾗﾓｶﾞﾐﾀﾞｲ","prefecture":"千葉県","city":"いすみ市","street":"大原最上台"},{"zipCode":"2980029","prefectureKana":"ﾁﾊﾞｹﾝ","cityKana":"ｲｽﾐｼ","streetKana":"ｵｵﾜﾀﾞ","prefecture":"千葉県","city":"いすみ市","street":"大和田"},{"zipCode":"2980131","prefectureKana":"ﾁﾊﾞｹﾝ","cityKana":"ｲｽﾐｼ","streetKana":"ｵｷﾞﾜﾗ","prefecture":"千葉県","city":"いすみ市","street":"荻原"},{"zipCode":"2980012","prefectureKana":"ﾁﾊﾞｹﾝ","cityKana":"ｲｽﾐｼ","streetKana":"ｵｻﾞﾜ","prefecture":"千葉県","city":"いすみ市","street":"小沢"},{"zipCode":"2980102","prefectureKana":"ﾁﾊﾞｹﾝ","cityKana":"ｲｽﾐｼ","streetKana":"ｵﾀﾞｶ","prefecture":"千葉県","city":"いすみ市","street":"小高"},{"zipCode":"2980115","prefectureKana":"ﾁﾊﾞｹﾝ","cityKana":"ｲｽﾐｼ","streetKana":"ｶｷﾜﾀﾞ","prefecture":"千葉県","city":"いすみ市","street":"柿和田"},{"zipCode":"2980103","prefectureKana":"ﾁﾊﾞｹﾝ","cityKana":"ｲｽﾐｼ","streetKana":"ｶﾐｵｷ","prefecture":"千葉県","city":"いすみ市","street":"神置"},{"zipCode":"2980018","prefectureKana":"ﾁﾊﾞｹﾝ","cityKana":"ｲｽﾐｼ","streetKana":"ｶﾐﾌﾞｾ","prefecture":"千葉県","city":"いすみ市","street":"上布施"},{"zipCode":"2980123","prefectureKana":"ﾁﾊﾞｹﾝ","cityKana":"ｲｽﾐｼ","streetKana":"ｶﾘﾔ","prefecture":"千葉県","city":"いすみ市","street":"苅谷"},{"zipCode":"2980112","prefectureKana":"ﾁﾊﾞｹﾝ","cityKana":"ｲｽﾐｼ","streetKana":"ｺｳﾉﾀﾞｲ","prefecture":"千葉県","city":"いすみ市","street":"国府台"},{"zipCode":"2980101","prefectureKana":"ﾁﾊﾞｹﾝ","cityKana":"ｲｽﾐｼ","streetKana":"ｺﾏﾀｲ","prefecture":"千葉県","city":"いすみ市","street":"小又井"},{"zipCode":"2980135","prefectureKana":"ﾁﾊﾞｹﾝ","cityKana":"ｲｽﾐｼ","streetKana":"ｻｸﾀﾞ","prefecture":"千葉県","city":"いすみ市","street":"作田"},{"zipCode":"2980114","prefectureKana":"ﾁﾊﾞｹﾝ","cityKana":"ｲｽﾐｼ","streetKana":"ｻﾂﾓﾘ","prefecture":"千葉県","city":"いすみ市","street":"札森"},{"zipCode":"2980022","prefectureKana":"ﾁﾊﾞｹﾝ","cityKana":"ｲｽﾐｼ","streetKana":"ｻﾑﾛ","prefecture":"千葉県","city":"いすみ市","street":"佐室"},{"zipCode":"2980023","prefectureKana":"ﾁﾊﾞｹﾝ","cityKana":"ｲｽﾐｼ","streetKana":"ｻﾜﾍﾞ","prefecture":"千葉県","city":"いすみ市","street":"沢部"},{"zipCode":"2980121","prefectureKana":"ﾁﾊﾞｹﾝ","cityKana":"ｲｽﾐｼ","streetKana":"ｼﾏ","prefecture":"千葉県","city":"いすみ市","street":"島"},{"zipCode":"2980027","prefectureKana":"ﾁﾊﾞｹﾝ","cityKana":"ｲｽﾐｼ","streetKana":"ｼﾓﾊﾗ","prefecture":"千葉県","city":"いすみ市","street":"下原"},{"zipCode":"2980017","prefectureKana":"ﾁﾊﾞｹﾝ","cityKana":"ｲｽﾐｼ","streetKana":"ｼﾓﾌﾞｾ","prefecture":"千葉県","city":"いすみ市","street":"下布施"},{"zipCode":"2980015","prefectureKana":"ﾁﾊﾞｹﾝ","cityKana":"ｲｽﾐｼ","streetKana":"ｼｬｶﾔﾂ","prefecture":"千葉県","city":"いすみ市","street":"釈迦谷"},{"zipCode":"2980116","prefectureKana":"ﾁﾊﾞｹﾝ","cityKana":"ｲｽﾐｼ","streetKana":"ｼｮｳﾘｭｳｼﾞ","prefecture":"千葉県","city":"いすみ市","street":"正立寺"},{"zipCode":"2980106","prefectureKana":"ﾁﾊﾞｹﾝ","cityKana":"ｲｽﾐｼ","streetKana":"ｽｶﾞﾔ","prefecture":"千葉県","city":"いすみ市","street":"須賀谷"},{"zipCode":"2980021","prefectureKana":"ﾁﾊﾞｹﾝ","cityKana":"ｲｽﾐｼ","streetKana":"ﾀｶﾀﾞﾆ","prefecture":"千葉県","city":"いすみ市","street":"高谷"},{"zipCode":"2980024","prefectureKana":"ﾁﾊﾞｹﾝ","cityKana":"ｲｽﾐｼ","streetKana":"ﾅｶﾞｼ","prefecture":"千葉県","city":"いすみ市","street":"長志"},{"zipCode":"2980134","prefectureKana":"ﾁﾊﾞｹﾝ","cityKana":"ｲｽﾐｼ","streetKana":"ﾅﾒｶﾞﾜ","prefecture":"千葉県","city":"いすみ市","street":"行川"},{"zipCode":"2980005","prefectureKana":"ﾁﾊﾞｹﾝ","cityKana":"ｲｽﾐｼ","streetKana":"ﾆｯﾀ","prefecture":"千葉県","city":"いすみ市","street":"新田"},{"zipCode":"2980026","prefectureKana":"ﾁﾊﾞｹﾝ","cityKana":"ｲｽﾐｼ","streetKana":"ﾆｯﾀﾉ","prefecture":"千葉県","city":"いすみ市","street":"新田野"},{"zipCode":"2980016","prefectureKana":"ﾁﾊﾞｹﾝ","cityKana":"ｲｽﾐｼ","streetKana":"ﾆｯﾀﾜｶﾔﾏﾌｶﾎﾘｲﾘｱｲﾁ","prefecture":"千葉県","city":"いすみ市","street":"新田若山深堀入会地"},{"zipCode":"2980105","prefectureKana":"ﾁﾊﾞｹﾝ","cityKana":"ｲｽﾐｼ","streetKana":"ﾉｳｼﾞﾂ","prefecture":"千葉県","city":"いすみ市","street":"能実"},{"zipCode":"2980002","prefectureKana":"ﾁﾊﾞｹﾝ","cityKana":"ｲｽﾐｼ","streetKana":"ﾋｱﾘ","prefecture":"千葉県","city":"いすみ市","street":"日在"},{"zipCode":"2980133","prefectureKana":"ﾁﾊﾞｹﾝ","cityKana":"ｲｽﾐｼ","streetKana":"ﾋｷﾀﾞ","prefecture":"千葉県","city":"いすみ市","street":"引田"},{"zipCode":"2980003","prefectureKana":"ﾁﾊﾞｹﾝ","cityKana":"ｲｽﾐｼ","streetKana":"ﾌｶﾎﾘ","prefecture":"千葉県","city":"いすみ市","street":"深堀"},{"zipCode":"2980125","prefectureKana":"ﾁﾊﾞｹﾝ","cityKana":"ｲｽﾐｼ","streetKana":"ﾌｶﾔ","prefecture":"千葉県","city":"いすみ市","street":"深谷"},{"zipCode":"2980028","prefectureKana":"ﾁﾊﾞｹﾝ","cityKana":"ｲｽﾐｼ","streetKana":"ﾎｿｵ","prefecture":"千葉県","city":"いすみ市","street":"細尾"},{"zipCode":"2980117","prefectureKana":"ﾁﾊﾞｹﾝ","cityKana":"ｲｽﾐｼ","streetKana":"ﾏｽﾀﾞ","prefecture":"千葉県","city":"いすみ市","street":"増田"},{"zipCode":"2980104","prefectureKana":"ﾁﾊﾞｹﾝ","cityKana":"ｲｽﾐｼ","streetKana":"ﾏﾂﾏﾙ","prefecture":"千葉県","city":"いすみ市","street":"松丸"},{"zipCode":"2980111","prefectureKana":"ﾁﾊﾞｹﾝ","cityKana":"ｲｽﾐｼ","streetKana":"ﾏﾝｷﾞ","prefecture":"千葉県","city":"いすみ市","street":"万木"},{"zipCode":"2980132","prefectureKana":"ﾁﾊﾞｹﾝ","cityKana":"ｲｽﾐｼ","streetKana":"ﾔｵﾄﾒ","prefecture":"千葉県","city":"いすみ市","street":"八乙女"},{"zipCode":"2980124","prefectureKana":"ﾁﾊﾞｹﾝ","cityKana":"ｲｽﾐｼ","streetKana":"ﾔﾏｻ","prefecture":"千葉県","city":"いすみ市","street":"弥正"},{"zipCode":"2980025","prefectureKana":"ﾁﾊﾞｹﾝ","cityKana":"ｲｽﾐｼ","streetKana":"ﾔﾏﾀﾞ","prefecture":"千葉県","city":"いすみ市","street":"山田"},{"zipCode":"2980122","prefectureKana":"ﾁﾊﾞｹﾝ","cityKana":"ｲｽﾐｼ","streetKana":"ﾗｸﾏﾁ","prefecture":"千葉県","city":"いすみ市","street":"楽町"},{"zipCode":"2980001","prefectureKana":"ﾁﾊﾞｹﾝ","cityKana":"ｲｽﾐｼ","streetKana":"ﾜｶﾔﾏ","prefecture":"千葉県","city":"いすみ市","street":"若山"},{"zipCode":"2980200","prefectureKana":"ﾁﾊﾞｹﾝ","cityKana":"ｲｽﾐｸﾞﾝｵｵﾀｷﾏﾁ","streetKana":"ｲｶﾆｹｲｻｲｶﾞﾅｲﾊﾞｱｲ","prefecture":"千葉県","city":"夷隅郡大多喜町","street":"以下に掲載がない場合"},{"zipCode":"2980277","prefectureKana":"ﾁﾊﾞｹﾝ","cityKana":"ｲｽﾐｸﾞﾝｵｵﾀｷﾏﾁ","streetKana":"ｱﾜﾏﾀ","prefecture":"千葉県","city":"夷隅郡大多喜町","street":"粟又"},{"zipCode":"2980256","prefectureKana":"ﾁﾊﾞｹﾝ","cityKana":"ｲｽﾐｸﾞﾝｵｵﾀｷﾏﾁ","streetKana":"ｲｼｶﾞﾐ","prefecture":"千葉県","city":"夷隅郡大多喜町","street":"石神"},{"zipCode":"2980261","prefectureKana":"ﾁﾊﾞｹﾝ","cityKana":"ｲｽﾐｸﾞﾝｵｵﾀｷﾏﾁ","streetKana":"ｲﾀﾔ","prefecture":"千葉県","city":"夷隅郡大多喜町","street":"板谷"},{"zipCode":"2980272","prefectureKana":"ﾁﾊﾞｹﾝ","cityKana":"ｲｽﾐｸﾞﾝｵｵﾀｷﾏﾁ","streetKana":"ｲﾁｶﾜ","prefecture":"千葉県","city":"夷隅郡大多喜町","street":"市川"},{"zipCode":"2980263","prefectureKana":"ﾁﾊﾞｹﾝ","cityKana":"ｲｽﾐｸﾞﾝｵｵﾀｷﾏﾁ","streetKana":"ｲﾎﾀ","prefecture":"千葉県","city":"夷隅郡大多喜町","street":"伊保田"},{"zipCode":"2980223","prefectureKana":"ﾁﾊﾞｹﾝ","cityKana":"ｲｽﾐｸﾞﾝｵｵﾀｷﾏﾁ","streetKana":"ｳｴﾊﾞﾗ","prefecture":"千葉県","city":"夷隅郡大多喜町","street":"上原"},{"zipCode":"2980205","prefectureKana":"ﾁﾊﾞｹﾝ","cityKana":"ｲｽﾐｸﾞﾝｵｵﾀｷﾏﾁ","streetKana":"ｳｴﾊﾞﾗﾆｼﾍﾞﾀﾔﾅﾊﾞﾗｲﾘｱｲ","prefecture":"千葉県","city":"夷隅郡大多喜町","street":"上原西部田柳原入会"},{"zipCode":"2980235","prefectureKana":"ﾁﾊﾞｹﾝ","cityKana":"ｲｽﾐｸﾞﾝｵｵﾀｷﾏﾁ","streetKana":"ｳﾄｳﾊﾞﾗ","prefecture":"千葉県","city":"夷隅郡大多喜町","street":"宇筒原"},{"zipCode":"2980216","prefectureKana":"ﾁﾊﾞｹﾝ","cityKana":"ｲｽﾐｸﾞﾝｵｵﾀｷﾏﾁ","streetKana":"ｵｵﾀｷ","prefecture":"千葉県","city":"夷隅郡大多喜町","street":"大多喜"},{"zipCode":"2980264","prefectureKana":"ﾁﾊﾞｹﾝ","cityKana":"ｲｽﾐｸﾞﾝｵｵﾀｷﾏﾁ","streetKana":"ｵｵﾀﾀﾞｲ","prefecture":"千葉県","city":"夷隅郡大多喜町","street":"大田代"},{"zipCode":"2980225","prefectureKana":"ﾁﾊﾞｹﾝ","cityKana":"ｲｽﾐｸﾞﾝｵｵﾀｷﾏﾁ","streetKana":"ｵｵﾄ","prefecture":"千葉県","city":"夷隅郡大多喜町","street":"大戸"},{"zipCode":"2980234","prefectureKana":"ﾁﾊﾞｹﾝ","cityKana":"ｲｽﾐｸﾞﾝｵｵﾀｷﾏﾁ","streetKana":"ｵｼﾇﾏ","prefecture":"千葉県","city":"夷隅郡大多喜町","street":"押沼"},{"zipCode":"2980201","prefectureKana":"ﾁﾊﾞｹﾝ","cityKana":"ｲｽﾐｸﾞﾝｵｵﾀｷﾏﾁ","streetKana":"ｵﾄﾞﾛ","prefecture":"千葉県","city":"夷隅郡大多喜町","street":"小土呂"},{"zipCode":"2980279","prefectureKana":"ﾁﾊﾞｹﾝ","cityKana":"ｲｽﾐｸﾞﾝｵｵﾀｷﾏﾁ","streetKana":"ｵﾓｼﾞﾛ","prefecture":"千葉県","city":"夷隅郡大多喜町","street":"面白"},{"zipCode":"2980276","prefectureKana":"ﾁﾊﾞｹﾝ","cityKana":"ｲｽﾐｸﾞﾝｵｵﾀｷﾏﾁ","streetKana":"ｶｲｼｮ","prefecture":"千葉県","city":"夷隅郡大多喜町","street":"会所"},{"zipCode":"2980241","prefectureKana":"ﾁﾊﾞｹﾝ","cityKana":"ｲｽﾐｸﾞﾝｵｵﾀｷﾏﾁ","streetKana":"ｶﾐｼｷ","prefecture":"千葉県","city":"夷隅郡大多喜町","street":"紙敷"},{"zipCode":"2980253","prefectureKana":"ﾁﾊﾞｹﾝ","cityKana":"ｲｽﾐｸﾞﾝｵｵﾀｷﾏﾁ","streetKana":"ｶﾜﾊﾀ","prefecture":"千葉県","city":"夷隅郡大多喜町","street":"川畑"},{"zipCode":"2980251","prefectureKana":"ﾁﾊﾞｹﾝ","cityKana":"ｲｽﾐｸﾞﾝｵｵﾀｷﾏﾁ","streetKana":"ｸｶﾞﾊﾗ","prefecture":"千葉県","city":"夷隅郡大多喜町","street":"久我原"},{"zipCode":"2980267","prefectureKana":"ﾁﾊﾞｹﾝ","cityKana":"ｲｽﾐｸﾞﾝｵｵﾀｷﾏﾁ","streetKana":"ｸｽﾞﾌｼﾞ","prefecture":"千葉県","city":"夷隅郡大多喜町","street":"葛藤"},{"zipCode":"2980215","prefectureKana":"ﾁﾊﾞｹﾝ","cityKana":"ｲｽﾐｸﾞﾝｵｵﾀｷﾏﾁ","streetKana":"ｸﾎﾞ","prefecture":"千葉県","city":"夷隅郡大多喜町","street":"久保"},{"zipCode":"2980255","prefectureKana":"ﾁﾊﾞｹﾝ","cityKana":"ｲｽﾐｸﾞﾝｵｵﾀｷﾏﾁ","streetKana":"ｸﾛﾊﾗ","prefecture":"千葉県","city":"夷隅郡大多喜町","street":"黒原"},{"zipCode":"2980232","prefectureKana":"ﾁﾊﾞｹﾝ","cityKana":"ｲｽﾐｸﾞﾝｵｵﾀｷﾏﾁ","streetKana":"ｺｳﾁ","prefecture":"千葉県","city":"夷隅郡大多喜町","street":"小内"},{"zipCode":"2980238","prefectureKana":"ﾁﾊﾞｹﾝ","cityKana":"ｲｽﾐｸﾞﾝｵｵﾀｷﾏﾁ","streetKana":"ｺｳﾁﾌｴｸﾞﾗｲﾘｱｲ","prefecture":"千葉県","city":"夷隅郡大多喜町","street":"小内笛倉入会"},{"zipCode":"2980211","prefectureKana":"ﾁﾊﾞｹﾝ","cityKana":"ｲｽﾐｸﾞﾝｵｵﾀｷﾏﾁ","streetKana":"ｺｳﾔ","prefecture":"千葉県","city":"夷隅郡大多喜町","street":"紺屋"},{"zipCode":"2980278","prefectureKana":"ﾁﾊﾞｹﾝ","cityKana":"ｲｽﾐｸﾞﾝｵｵﾀｷﾏﾁ","streetKana":"ｺｻﾞﾜﾏﾀ","prefecture":"千葉県","city":"夷隅郡大多喜町","street":"小沢又"},{"zipCode":"2980265","prefectureKana":"ﾁﾊﾞｹﾝ","cityKana":"ｲｽﾐｸﾞﾝｵｵﾀｷﾏﾁ","streetKana":"ｺﾀﾀﾞｲ","prefecture":"千葉県","city":"夷隅郡大多喜町","street":"小田代"},{"zipCode":"2980242","prefectureKana":"ﾁﾊﾞｹﾝ","cityKana":"ｲｽﾐｸﾞﾝｵｵﾀｷﾏﾁ","streetKana":"ｺﾐｮｳ","prefecture":"千葉県","city":"夷隅郡大多喜町","street":"小苗"},{"zipCode":"2980228","prefectureKana":"ﾁﾊﾞｹﾝ","cityKana":"ｲｽﾐｸﾞﾝｵｵﾀｷﾏﾁ","streetKana":"ｺﾔﾏﾂ","prefecture":"千葉県","city":"夷隅郡大多喜町","street":"小谷松"},{"zipCode":"2980213","prefectureKana":"ﾁﾊﾞｹﾝ","cityKana":"ｲｽﾐｸﾞﾝｵｵﾀｷﾏﾁ","streetKana":"ｻｸﾗﾀﾞｲ","prefecture":"千葉県","city":"夷隅郡大多喜町","street":"桜台"},{"zipCode":"2980212","prefectureKana":"ﾁﾊﾞｹﾝ","cityKana":"ｲｽﾐｸﾞﾝｵｵﾀｷﾏﾁ","streetKana":"ｻﾙｲﾈ","prefecture":"千葉県","city":"夷隅郡大多喜町","street":"猿稲"},{"zipCode":"2980273","prefectureKana":"ﾁﾊﾞｹﾝ","cityKana":"ｲｽﾐｸﾞﾝｵｵﾀｷﾏﾁ","streetKana":"ｻﾝｼﾞｮｳ","prefecture":"千葉県","city":"夷隅郡大多喜町","street":"三条"},{"zipCode":"2980202","prefectureKana":"ﾁﾊﾞｹﾝ","cityKana":"ｲｽﾐｸﾞﾝｵｵﾀｷﾏﾁ","streetKana":"ｼﾓｵｵﾀｷ","prefecture":"千葉県","city":"夷隅郡大多喜町","street":"下大多喜"},{"zipCode":"2980246","prefectureKana":"ﾁﾊﾞｹﾝ","cityKana":"ｲｽﾐｸﾞﾝｵｵﾀｷﾏﾁ","streetKana":"ｼｮｳｼﾞ","prefecture":"千葉県","city":"夷隅郡大多喜町","street":"庄司"},{"zipCode":"2980214","prefectureKana":"ﾁﾊﾞｹﾝ","cityKana":"ｲｽﾐｸﾞﾝｵｵﾀｷﾏﾁ","streetKana":"ｼﾝﾏﾁ","prefecture":"千葉県","city":"夷隅郡大多喜町","street":"新丁"},{"zipCode":"2980207","prefectureKana":"ﾁﾊﾞｹﾝ","cityKana":"ｲｽﾐｸﾞﾝｵｵﾀｷﾏﾁ","streetKana":"ｾﾝｽﾞｲ","prefecture":"千葉県","city":"夷隅郡大多喜町","street":"泉水"},{"zipCode":"2980274","prefectureKana":"ﾁﾊﾞｹﾝ","cityKana":"ｲｽﾐｸﾞﾝｵｵﾀｷﾏﾁ","streetKana":"ﾀｼﾛ","prefecture":"千葉県","city":"夷隅郡大多喜町","street":"田代"},{"zipCode":"2980217","prefectureKana":"ﾁﾊﾞｹﾝ","cityKana":"ｲｽﾐｸﾞﾝｵｵﾀｷﾏﾁ","streetKana":"ﾀﾏﾁ","prefecture":"千葉県","city":"夷隅郡大多喜町","street":"田丁"},{"zipCode":"2980266","prefectureKana":"ﾁﾊﾞｹﾝ","cityKana":"ｲｽﾐｸﾞﾝｵｵﾀｷﾏﾁ","streetKana":"ﾂﾂﾓﾘ","prefecture":"千葉県","city":"夷隅郡大多喜町","street":"筒森"},{"zipCode":"2980271","prefectureKana":"ﾁﾊﾞｹﾝ","cityKana":"ｲｽﾐｸﾞﾝｵｵﾀｷﾏﾁ","streetKana":"ﾅｶﾉ","prefecture":"千葉県","city":"夷隅郡大多喜町","street":"中野"},{"zipCode":"2980227","prefectureKana":"ﾁﾊﾞｹﾝ","cityKana":"ｲｽﾐｸﾞﾝｵｵﾀｷﾏﾁ","streetKana":"ﾆｼﾍﾞﾀ","prefecture":"千葉県","city":"夷隅郡大多喜町","street":"西部田"},{"zipCode":"2980231","prefectureKana":"ﾁﾊﾞｹﾝ","cityKana":"ｲｽﾐｸﾞﾝｵｵﾀｷﾏﾁ","streetKana":"ﾊﾞﾊﾞｳﾁ","prefecture":"千葉県","city":"夷隅郡大多喜町","street":"馬場内"},{"zipCode":"2980237","prefectureKana":"ﾁﾊﾞｹﾝ","cityKana":"ｲｽﾐｸﾞﾝｵｵﾀｷﾏﾁ","streetKana":"ﾊﾗｳﾁ","prefecture":"千葉県","city":"夷隅郡大多喜町","street":"原内"},{"zipCode":"2980254","prefectureKana":"ﾁﾊﾞｹﾝ","cityKana":"ｲｽﾐｸﾞﾝｵｵﾀｷﾏﾁ","streetKana":"ﾋﾗｻﾜ","prefecture":"千葉県","city":"夷隅郡大多喜町","street":"平沢"},{"zipCode":"2980233","prefectureKana":"ﾁﾊﾞｹﾝ","cityKana":"ｲｽﾐｸﾞﾝｵｵﾀｷﾏﾁ","streetKana":"ﾌｴｸﾞﾗ","prefecture":"千葉県","city":"夷隅郡大多喜町","street":"笛倉"},{"zipCode":"2980204","prefectureKana":"ﾁﾊﾞｹﾝ","cityKana":"ｲｽﾐｸﾞﾝｵｵﾀｷﾏﾁ","streetKana":"ﾌﾅｺ","prefecture":"千葉県","city":"夷隅郡大多喜町","street":"船子"},{"zipCode":"2980226","prefectureKana":"ﾁﾊﾞｹﾝ","cityKana":"ｲｽﾐｸﾞﾝｵｵﾀｷﾏﾁ","streetKana":"ﾍﾀ","prefecture":"千葉県","city":"夷隅郡大多喜町","street":"部田"},{"zipCode":"2980262","prefectureKana":"ﾁﾊﾞｹﾝ","cityKana":"ｲｽﾐｸﾞﾝｵｵﾀｷﾏﾁ","streetKana":"ﾎﾘｷﾘ","prefecture":"千葉県","city":"夷隅郡大多喜町","street":"堀切"},{"zipCode":"2980224","prefectureKana":"ﾁﾊﾞｹﾝ","cityKana":"ｲｽﾐｸﾞﾝｵｵﾀｷﾏﾁ","streetKana":"ﾎﾘﾉｳﾁ","prefecture":"千葉県","city":"夷隅郡大多喜町","street":"堀之内"},{"zipCode":"2980244","prefectureKana":"ﾁﾊﾞｹﾝ","cityKana":"ｲｽﾐｸﾞﾝｵｵﾀｷﾏﾁ","streetKana":"ﾏﾂｵ","prefecture":"千葉県","city":"夷隅郡大多喜町","street":"松尾"},{"zipCode":"2980252","prefectureKana":"ﾁﾊﾞｹﾝ","cityKana":"ｲｽﾐｸﾞﾝｵｵﾀｷﾏﾁ","streetKana":"ﾐﾏﾀ","prefecture":"千葉県","city":"夷隅郡大多喜町","street":"三又"},{"zipCode":"2980236","prefectureKana":"ﾁﾊﾞｹﾝ","cityKana":"ｲｽﾐｸﾞﾝｵｵﾀｷﾏﾁ","streetKana":"ﾓﾌｸ","prefecture":"千葉県","city":"夷隅郡大多喜町","street":"百鉾"},{"zipCode":"2980203","prefectureKana":"ﾁﾊﾞｹﾝ","cityKana":"ｲｽﾐｸﾞﾝｵｵﾀｷﾏﾁ","streetKana":"ﾓﾘﾐﾔ","prefecture":"千葉県","city":"夷隅郡大多喜町","street":"森宮"},{"zipCode":"2980245","prefectureKana":"ﾁﾊﾞｹﾝ","cityKana":"ｲｽﾐｸﾞﾝｵｵﾀｷﾏﾁ","streetKana":"ﾔｷﾖｳ","prefecture":"千葉県","city":"夷隅郡大多喜町","street":"弥喜用"},{"zipCode":"2980222","prefectureKana":"ﾁﾊﾞｹﾝ","cityKana":"ｲｽﾐｸﾞﾝｵｵﾀｷﾏﾁ","streetKana":"ﾔｺｴ","prefecture":"千葉県","city":"夷隅郡大多喜町","street":"八声"},{"zipCode":"2980221","prefectureKana":"ﾁﾊﾞｹﾝ","cityKana":"ｲｽﾐｸﾞﾝｵｵﾀｷﾏﾁ","streetKana":"ﾔﾅﾊﾞﾗ","prefecture":"千葉県","city":"夷隅郡大多喜町","street":"柳原"},{"zipCode":"2980243","prefectureKana":"ﾁﾊﾞｹﾝ","cityKana":"ｲｽﾐｸﾞﾝｵｵﾀｷﾏﾁ","streetKana":"ﾕｸﾞﾗ","prefecture":"千葉県","city":"夷隅郡大多喜町","street":"湯倉"},{"zipCode":"2980275","prefectureKana":"ﾁﾊﾞｹﾝ","cityKana":"ｲｽﾐｸﾞﾝｵｵﾀｷﾏﾁ","streetKana":"ﾕﾐｷﾞ","prefecture":"千葉県","city":"夷隅郡大多喜町","street":"弓木"},{"zipCode":"2980206","prefectureKana":"ﾁﾊﾞｹﾝ","cityKana":"ｲｽﾐｸﾞﾝｵｵﾀｷﾏﾁ","streetKana":"ﾖｺﾔﾏ","prefecture":"千葉県","city":"夷隅郡大多喜町","street":"横山"}]