[{"zipCode":"3020000","prefectureKana":"ｲﾊﾞﾗｷｹﾝ","cityKana":"ﾄﾘﾃﾞｼ","streetKana":"ｲｶﾆｹｲｻｲｶﾞﾅｲﾊﾞｱｲ","prefecture":"茨城県","city":"取手市","street":"以下に掲載がない場合"},{"zipCode":"3020006","prefectureKana":"ｲﾊﾞﾗｷｹﾝ","cityKana":"ﾄﾘﾃﾞｼ","streetKana":"ｱｵﾔﾅｷﾞ","prefecture":"茨城県","city":"取手市","street":"青柳"},{"zipCode":"3020037","prefectureKana":"ｲﾊﾞﾗｷｹﾝ","cityKana":"ﾄﾘﾃﾞｼ","streetKana":"ｲﾁﾉﾀﾞｲ","prefecture":"茨城県","city":"取手市","street":"市之代"},{"zipCode":"3020026","prefectureKana":"ｲﾊﾞﾗｷｹﾝ","cityKana":"ﾄﾘﾃﾞｼ","streetKana":"ｲﾅ","prefecture":"茨城県","city":"取手市","street":"稲"},{"zipCode":"3020011","prefectureKana":"ｲﾊﾞﾗｷｹﾝ","cityKana":"ﾄﾘﾃﾞｼ","streetKana":"ｲﾉ","prefecture":"茨城県","city":"取手市","street":"井野"},{"zipCode":"3020015","prefectureKana":"ｲﾊﾞﾗｷｹﾝ","cityKana":"ﾄﾘﾃﾞｼ","streetKana":"ｲﾉﾀﾞｲ","prefecture":"茨城県","city":"取手市","street":"井野台"},{"zipCode":"3020012","prefectureKana":"ｲﾊﾞﾗｷｹﾝ","cityKana":"ﾄﾘﾃﾞｼ","streetKana":"ｲﾉﾀﾞﾝﾁ","prefecture":"茨城県","city":"取手市","street":"井野団地"},{"zipCode":"3020003","prefectureKana":"ｲﾊﾞﾗｷｹﾝ","cityKana":"ﾄﾘﾃﾞｼ","streetKana":"ｵｵﾎﾘ","prefecture":"茨城県","city":"取手市","street":"小堀"},{"zipCode":"3020001","prefectureKana":"ｲﾊﾞﾗｷｹﾝ","cityKana":"ﾄﾘﾃﾞｼ","streetKana":"ｵﾓﾝﾏ","prefecture":"茨城県","city":"取手市","street":"小文間"},{"zipCode":"3020036","prefectureKana":"ｲﾊﾞﾗｷｹﾝ","cityKana":"ﾄﾘﾃﾞｼ","streetKana":"ｶｲﾂﾞｶ","prefecture":"茨城県","city":"取手市","street":"貝塚"},{"zipCode":"3020035","prefectureKana":"ｲﾊﾞﾗｷｹﾝ","cityKana":"ﾄﾘﾃﾞｼ","streetKana":"ｶﾐﾀｶｲ","prefecture":"茨城県","city":"取手市","street":"上高井"},{"zipCode":"3020017","prefectureKana":"ｲﾊﾞﾗｷｹﾝ","cityKana":"ﾄﾘﾃﾞｼ","streetKana":"ｸﾜﾊﾞﾗ","prefecture":"茨城県","city":"取手市","street":"桑原"},{"zipCode":"3020027","prefectureKana":"ｲﾊﾞﾗｷｹﾝ","cityKana":"ﾄﾘﾃﾞｼ","streetKana":"ｺﾏﾊﾞ","prefecture":"茨城県","city":"取手市","street":"駒場"},{"zipCode":"3020033","prefectureKana":"ｲﾊﾞﾗｷｹﾝ","cityKana":"ﾄﾘﾃﾞｼ","streetKana":"ｺﾒﾉｲ","prefecture":"茨城県","city":"取手市","street":"米ノ井"},{"zipCode":"3020038","prefectureKana":"ｲﾊﾞﾗｷｹﾝ","cityKana":"ﾄﾘﾃﾞｼ","streetKana":"ｼﾓﾀｶｲ","prefecture":"茨城県","city":"取手市","street":"下高井"},{"zipCode":"3020031","prefectureKana":"ｲﾊﾞﾗｷｹﾝ","cityKana":"ﾄﾘﾃﾞｼ","streetKana":"ｼﾝﾄﾘﾃﾞ","prefecture":"茨城県","city":"取手市","street":"新取手"},{"zipCode":"3020024","prefectureKana":"ｲﾊﾞﾗｷｹﾝ","cityKana":"ﾄﾘﾃﾞｼ","streetKana":"ｼﾝﾏﾁ","prefecture":"茨城県","city":"取手市","street":"新町"},{"zipCode":"3020013","prefectureKana":"ｲﾊﾞﾗｷｹﾝ","cityKana":"ﾄﾘﾃﾞｼ","streetKana":"ﾀﾞｲｼｭｸ","prefecture":"茨城県","city":"取手市","street":"台宿"},{"zipCode":"3020014","prefectureKana":"ｲﾊﾞﾗｷｹﾝ","cityKana":"ﾄﾘﾃﾞｼ","streetKana":"ﾁｭｳｵｳﾁｮｳ","prefecture":"茨城県","city":"取手市","street":"中央町"},{"zipCode":"3020002","prefectureKana":"ｲﾊﾞﾗｷｹﾝ","cityKana":"ﾄﾘﾃﾞｼ","streetKana":"ﾁｮｳﾍﾞｴｼﾝﾃﾞﾝ","prefecture":"茨城県","city":"取手市","street":"長兵衛新田"},{"zipCode":"3020021","prefectureKana":"ｲﾊﾞﾗｷｹﾝ","cityKana":"ﾄﾘﾃﾞｼ","streetKana":"ﾃﾗﾀﾞ","prefecture":"茨城県","city":"取手市","street":"寺田"},{"zipCode":"3020034","prefectureKana":"ｲﾊﾞﾗｷｹﾝ","cityKana":"ﾄﾘﾃﾞｼ","streetKana":"ﾄｶﾞｼﾗ","prefecture":"茨城県","city":"取手市","street":"戸頭"},{"zipCode":"3020004","prefectureKana":"ｲﾊﾞﾗｷｹﾝ","cityKana":"ﾄﾘﾃﾞｼ","streetKana":"ﾄﾘﾃﾞ","prefecture":"茨城県","city":"取手市","street":"取手"},{"zipCode":"3020016","prefectureKana":"ｲﾊﾞﾗｷｹﾝ","cityKana":"ﾄﾘﾃﾞｼ","streetKana":"ﾅｶﾊﾗﾁｮｳ","prefecture":"茨城県","city":"取手市","street":"中原町"},{"zipCode":"3020025","prefectureKana":"ｲﾊﾞﾗｷｹﾝ","cityKana":"ﾄﾘﾃﾞｼ","streetKana":"ﾆｼ","prefecture":"茨城県","city":"取手市","street":"西"},{"zipCode":"3020032","prefectureKana":"ｲﾊﾞﾗｷｹﾝ","cityKana":"ﾄﾘﾃﾞｼ","streetKana":"ﾉﾉｲ","prefecture":"茨城県","city":"取手市","street":"野々井"},{"zipCode":"3020023","prefectureKana":"ｲﾊﾞﾗｷｹﾝ","cityKana":"ﾄﾘﾃﾞｼ","streetKana":"ﾊｸｻﾝ","prefecture":"茨城県","city":"取手市","street":"白山"},{"zipCode":"3020005","prefectureKana":"ｲﾊﾞﾗｷｹﾝ","cityKana":"ﾄﾘﾃﾞｼ","streetKana":"ﾋｶﾞｼ","prefecture":"茨城県","city":"取手市","street":"東"},{"zipCode":"3020022","prefectureKana":"ｲﾊﾞﾗｷｹﾝ","cityKana":"ﾄﾘﾃﾞｼ","streetKana":"ﾎﾝｺﾞｳ","prefecture":"茨城県","city":"取手市","street":"本郷"},{"zipCode":"3020039","prefectureKana":"ｲﾊﾞﾗｷｹﾝ","cityKana":"ﾄﾘﾃﾞｼ","streetKana":"ﾕﾒﾐﾉ","prefecture":"茨城県","city":"取手市","street":"ゆめみ野"},{"zipCode":"3020007","prefectureKana":"ｲﾊﾞﾗｷｹﾝ","cityKana":"ﾄﾘﾃﾞｼ","streetKana":"ﾖｼﾀﾞ","prefecture":"茨城県","city":"取手市","street":"吉田"},{"zipCode":"3020100","prefectureKana":"ｲﾊﾞﾗｷｹﾝ","cityKana":"ﾓﾘﾔｼ","streetKana":"ｲｶﾆｹｲｻｲｶﾞﾅｲﾊﾞｱｲ","prefecture":"茨城県","city":"守谷市","street":"以下に掲載がない場合"},{"zipCode":"3020111","prefectureKana":"ｲﾊﾞﾗｷｹﾝ","cityKana":"ﾓﾘﾔｼ","streetKana":"ｱｶﾎﾞﾂｹ","prefecture":"茨城県","city":"守谷市","street":"赤法花"},{"zipCode":"3020101","prefectureKana":"ｲﾊﾞﾗｷｹﾝ","cityKana":"ﾓﾘﾔｼ","streetKana":"ｲﾀﾄｲ","prefecture":"茨城県","city":"守谷市","street":"板戸井"},{"zipCode":"3020116","prefectureKana":"ｲﾊﾞﾗｷｹﾝ","cityKana":"ﾓﾘﾔｼ","streetKana":"ｵｵｶﾞｼﾜ","prefecture":"茨城県","city":"守谷市","street":"大柏"},{"zipCode":"3020107","prefectureKana":"ｲﾊﾞﾗｷｹﾝ","cityKana":"ﾓﾘﾔｼ","streetKana":"ｵｵｷ","prefecture":"茨城県","city":"守谷市","street":"大木"},{"zipCode":"3020103","prefectureKana":"ｲﾊﾞﾗｷｹﾝ","cityKana":"ﾓﾘﾔｼ","streetKana":"ｵｵﾔﾏｼﾝﾃﾞﾝ","prefecture":"茨城県","city":"守谷市","street":"大山新田"},{"zipCode":"3020123","prefectureKana":"ｲﾊﾞﾗｷｹﾝ","cityKana":"ﾓﾘﾔｼ","streetKana":"ｵﾄｺﾞ","prefecture":"茨城県","city":"守谷市","street":"乙子"},{"zipCode":"3020104","prefectureKana":"ｲﾊﾞﾗｷｹﾝ","cityKana":"ﾓﾘﾔｼ","streetKana":"ｸﾎﾞｶﾞｵｶ","prefecture":"茨城県","city":"守谷市","street":"久保ケ丘"},{"zipCode":"3020128","prefectureKana":"ｲﾊﾞﾗｷｹﾝ","cityKana":"ﾓﾘﾔｼ","streetKana":"ｹﾔｷﾀﾞｲ","prefecture":"茨城県","city":"守谷市","street":"けやき台"},{"zipCode":"3020125","prefectureKana":"ｲﾊﾞﾗｷｹﾝ","cityKana":"ﾓﾘﾔｼ","streetKana":"ｺｳﾔ","prefecture":"茨城県","city":"守谷市","street":"高野"},{"zipCode":"3020119","prefectureKana":"ｲﾊﾞﾗｷｹﾝ","cityKana":"ﾓﾘﾔｼ","streetKana":"ｺﾞｼｮｶﾞｵｶ","prefecture":"茨城県","city":"守谷市","street":"御所ケ丘"},{"zipCode":"3020122","prefectureKana":"ｲﾊﾞﾗｷｹﾝ","cityKana":"ﾓﾘﾔｼ","streetKana":"ｺﾔﾏ","prefecture":"茨城県","city":"守谷市","street":"小山"},{"zipCode":"3020126","prefectureKana":"ｲﾊﾞﾗｷｹﾝ","cityKana":"ﾓﾘﾔｼ","streetKana":"ｽｽﾞﾂｶ","prefecture":"茨城県","city":"守谷市","street":"鈴塚"},{"zipCode":"3020118","prefectureKana":"ｲﾊﾞﾗｷｹﾝ","cityKana":"ﾓﾘﾔｼ","streetKana":"ﾀﾂｻﾞﾜ","prefecture":"茨城県","city":"守谷市","street":"立沢"},{"zipCode":"3020115","prefectureKana":"ｲﾊﾞﾗｷｹﾝ","cityKana":"ﾓﾘﾔｼ","streetKana":"ﾁｭｳｵｳ","prefecture":"茨城県","city":"守谷市","street":"中央"},{"zipCode":"3020112","prefectureKana":"ｲﾊﾞﾗｷｹﾝ","cityKana":"ﾓﾘﾔｼ","streetKana":"ﾄﾞｳﾁ","prefecture":"茨城県","city":"守谷市","street":"同地"},{"zipCode":"3020117","prefectureKana":"ｲﾊﾞﾗｷｹﾝ","cityKana":"ﾓﾘﾔｼ","streetKana":"ﾉｷﾞｻｷ","prefecture":"茨城県","city":"守谷市","street":"野木崎"},{"zipCode":"3020131","prefectureKana":"ｲﾊﾞﾗｷｹﾝ","cityKana":"ﾓﾘﾔｼ","streetKana":"ﾋｶﾞｼﾉ","prefecture":"茨城県","city":"守谷市","street":"ひがし野"},{"zipCode":"3020109","prefectureKana":"ｲﾊﾞﾗｷｹﾝ","cityKana":"ﾓﾘﾔｼ","streetKana":"ﾎﾝﾁｮｳ","prefecture":"茨城県","city":"守谷市","street":"本町"},{"zipCode":"3020127","prefectureKana":"ｲﾊﾞﾗｷｹﾝ","cityKana":"ﾓﾘﾔｼ","streetKana":"ﾏﾂｶﾞｵｶ","prefecture":"茨城県","city":"守谷市","street":"松ケ丘"},{"zipCode":"3020108","prefectureKana":"ｲﾊﾞﾗｷｹﾝ","cityKana":"ﾓﾘﾔｼ","streetKana":"ﾏﾂﾅﾐ","prefecture":"茨城県","city":"守谷市","street":"松並"},{"zipCode":"3020132","prefectureKana":"ｲﾊﾞﾗｷｹﾝ","cityKana":"ﾓﾘﾔｼ","streetKana":"ﾏﾂﾅﾐｱｵﾊﾞ","prefecture":"茨城県","city":"守谷市","street":"松並青葉"},{"zipCode":"3020102","prefectureKana":"ｲﾊﾞﾗｷｹﾝ","cityKana":"ﾓﾘﾔｼ","streetKana":"ﾏﾂﾏｴﾀﾞｲ","prefecture":"茨城県","city":"守谷市","street":"松前台"},{"zipCode":"3020121","prefectureKana":"ｲﾊﾞﾗｷｹﾝ","cityKana":"ﾓﾘﾔｼ","streetKana":"ﾐｽﾞｷﾉ","prefecture":"茨城県","city":"守谷市","street":"みずき野"},{"zipCode":"3020124","prefectureKana":"ｲﾊﾞﾗｷｹﾝ","cityKana":"ﾓﾘﾔｼ","streetKana":"ﾐｿﾉ","prefecture":"茨城県","city":"守谷市","street":"美園"},{"zipCode":"3020106","prefectureKana":"ｲﾊﾞﾗｷｹﾝ","cityKana":"ﾓﾘﾔｼ","streetKana":"ﾐﾄﾞﾘ","prefecture":"茨城県","city":"守谷市","street":"緑"},{"zipCode":"3020105","prefectureKana":"ｲﾊﾞﾗｷｹﾝ","cityKana":"ﾓﾘﾔｼ","streetKana":"ﾔｸｼﾀﾞｲ","prefecture":"茨城県","city":"守谷市","street":"薬師台"},{"zipCode":"3020110","prefectureKana":"ｲﾊﾞﾗｷｹﾝ","cityKana":"ﾓﾘﾔｼ","streetKana":"ﾕﾘｶﾞｵｶ","prefecture":"茨城県","city":"守谷市","street":"百合ケ丘"}]