[{"zipCode":"3140000","prefectureKana":"ｲﾊﾞﾗｷｹﾝ","cityKana":"ｶｼﾏｼ","streetKana":"ｲｶﾆｹｲｻｲｶﾞﾅｲﾊﾞｱｲ","prefecture":"茨城県","city":"鹿嶋市","street":"以下に掲載がない場合"},{"zipCode":"3140021","prefectureKana":"ｲﾊﾞﾗｷｹﾝ","cityKana":"ｶｼﾏｼ","streetKana":"ｱｵｳ","prefecture":"茨城県","city":"鹿嶋市","street":"粟生"},{"zipCode":"3140002","prefectureKana":"ｲﾊﾞﾗｷｹﾝ","cityKana":"ｶｼﾏｼ","streetKana":"ｱｶｼ","prefecture":"茨城県","city":"鹿嶋市","street":"明石"},{"zipCode":"3140017","prefectureKana":"ｲﾊﾞﾗｷｹﾝ","cityKana":"ｶｼﾏｼ","streetKana":"ｱｻﾋｶﾞｵｶ","prefecture":"茨城県","city":"鹿嶋市","street":"旭ケ丘"},{"zipCode":"3140015","prefectureKana":"ｲﾊﾞﾗｷｹﾝ","cityKana":"ｶｼﾏｼ","streetKana":"ｲｽﾞﾐｶﾞﾜ","prefecture":"茨城県","city":"鹿嶋市","street":"泉川"},{"zipCode":"3140036","prefectureKana":"ｲﾊﾞﾗｷｹﾝ","cityKana":"ｶｼﾏｼ","streetKana":"ｵｵﾌﾅﾂ","prefecture":"茨城県","city":"鹿嶋市","street":"大船津"},{"zipCode":"3140004","prefectureKana":"ｲﾊﾞﾗｷｹﾝ","cityKana":"ｶｼﾏｼ","streetKana":"ｵﾘﾂ","prefecture":"茨城県","city":"鹿嶋市","street":"下津"},{"zipCode":"3140037","prefectureKana":"ｲﾊﾞﾗｷｹﾝ","cityKana":"ｶｼﾏｼ","streetKana":"ｶﾉ","prefecture":"茨城県","city":"鹿嶋市","street":"神野"},{"zipCode":"3140028","prefectureKana":"ｲﾊﾞﾗｷｹﾝ","cityKana":"ｶｼﾏｼ","streetKana":"ｷﾀｷ","prefecture":"茨城県","city":"鹿嶋市","street":"木滝"},{"zipCode":"3140026","prefectureKana":"ｲﾊﾞﾗｷｹﾝ","cityKana":"ｶｼﾏｼ","streetKana":"ｷﾀｷｻﾀﾞﾔﾜﾗｲﾘｱｲ","prefecture":"茨城県","city":"鹿嶋市","street":"木滝佐田谷原入会"},{"zipCode":"3140031","prefectureKana":"ｲﾊﾞﾗｷｹﾝ","cityKana":"ｶｼﾏｼ","streetKana":"ｷｭｳﾁｭｳ","prefecture":"茨城県","city":"鹿嶋市","street":"宮中"},{"zipCode":"3140016","prefectureKana":"ｲﾊﾞﾗｷｹﾝ","cityKana":"ｶｼﾏｼ","streetKana":"ｸﾆｽｴ","prefecture":"茨城県","city":"鹿嶋市","street":"国末"},{"zipCode":"3140030","prefectureKana":"ｲﾊﾞﾗｷｹﾝ","cityKana":"ｶｼﾏｼ","streetKana":"ｸﾘﾔ","prefecture":"茨城県","city":"鹿嶋市","street":"厨"},{"zipCode":"3140003","prefectureKana":"ｲﾊﾞﾗｷｹﾝ","cityKana":"ｶｼﾏｼ","streetKana":"ｺﾐﾔｻｸ","prefecture":"茨城県","city":"鹿嶋市","street":"小宮作"},{"zipCode":"3140027","prefectureKana":"ｲﾊﾞﾗｷｹﾝ","cityKana":"ｶｼﾏｼ","streetKana":"ｻﾀﾞ","prefecture":"茨城県","city":"鹿嶋市","street":"佐田"},{"zipCode":"3140044","prefectureKana":"ｲﾊﾞﾗｷｹﾝ","cityKana":"ｶｼﾏｼ","streetKana":"ｻﾙﾀ","prefecture":"茨城県","city":"鹿嶋市","street":"猿田"},{"zipCode":"3140001","prefectureKana":"ｲﾊﾞﾗｷｹﾝ","cityKana":"ｶｼﾏｼ","streetKana":"ｼﾐｽﾞ","prefecture":"茨城県","city":"鹿嶋市","street":"清水"},{"zipCode":"3140025","prefectureKana":"ｲﾊﾞﾗｷｹﾝ","cityKana":"ｶｼﾏｼ","streetKana":"ｼﾓﾊﾅﾜ","prefecture":"茨城県","city":"鹿嶋市","street":"下塙"},{"zipCode":"3140038","prefectureKana":"ｲﾊﾞﾗｷｹﾝ","cityKana":"ｶｼﾏｼ","streetKana":"ｼﾛﾔﾏ","prefecture":"茨城県","city":"鹿嶋市","street":"城山"},{"zipCode":"3140007","prefectureKana":"ｲﾊﾞﾗｷｹﾝ","cityKana":"ｶｼﾏｼ","streetKana":"ｼﾞﾝｺｳｼﾞ","prefecture":"茨城県","city":"鹿嶋市","street":"神向寺"},{"zipCode":"3140013","prefectureKana":"ｲﾊﾞﾗｷｹﾝ","cityKana":"ｶｼﾏｼ","streetKana":"ｼﾝﾊﾏ","prefecture":"茨城県","city":"鹿嶋市","street":"新浜"},{"zipCode":"3140047","prefectureKana":"ｲﾊﾞﾗｷｹﾝ","cityKana":"ｶｼﾏｼ","streetKana":"ｽｶ","prefecture":"茨城県","city":"鹿嶋市","street":"須賀"},{"zipCode":"3140005","prefectureKana":"ｲﾊﾞﾗｷｹﾝ","cityKana":"ｶｼﾏｼ","streetKana":"ﾀｶﾏｶﾞﾊﾗ","prefecture":"茨城県","city":"鹿嶋市","street":"高天原"},{"zipCode":"3140042","prefectureKana":"ｲﾊﾞﾗｷｹﾝ","cityKana":"ｶｼﾏｼ","streetKana":"ﾀﾉﾍﾞ","prefecture":"茨城県","city":"鹿嶋市","street":"田野辺"},{"zipCode":"3140043","prefectureKana":"ｲﾊﾞﾗｷｹﾝ","cityKana":"ｶｼﾏｼ","streetKana":"ﾀﾔ","prefecture":"茨城県","city":"鹿嶋市","street":"田谷"},{"zipCode":"3140048","prefectureKana":"ｲﾊﾞﾗｷｹﾝ","cityKana":"ｶｼﾏｼ","streetKana":"ﾀﾔﾇﾏ","prefecture":"茨城県","city":"鹿嶋市","street":"田谷沼"},{"zipCode":"3140046","prefectureKana":"ｲﾊﾞﾗｷｹﾝ","cityKana":"ｶｼﾏｼ","streetKana":"ﾂﾏｷﾞ","prefecture":"茨城県","city":"鹿嶋市","street":"爪木"},{"zipCode":"3140022","prefectureKana":"ｲﾊﾞﾗｷｹﾝ","cityKana":"ｶｼﾏｼ","streetKana":"ﾅｶﾞｽ","prefecture":"茨城県","city":"鹿嶋市","street":"長栖"},{"zipCode":"3140041","prefectureKana":"ｲﾊﾞﾗｷｹﾝ","cityKana":"ｶｼﾏｼ","streetKana":"ﾇﾏｵ","prefecture":"茨城県","city":"鹿嶋市","street":"沼尾"},{"zipCode":"3140035","prefectureKana":"ｲﾊﾞﾗｷｹﾝ","cityKana":"ｶｼﾏｼ","streetKana":"ﾈｻﾝﾀﾞ","prefecture":"茨城県","city":"鹿嶋市","street":"根三田"},{"zipCode":"3140034","prefectureKana":"ｲﾊﾞﾗｷｹﾝ","cityKana":"ｶｼﾏｼ","streetKana":"ﾊﾁｶﾞﾀ","prefecture":"茨城県","city":"鹿嶋市","street":"鉢形"},{"zipCode":"3140033","prefectureKana":"ｲﾊﾞﾗｷｹﾝ","cityKana":"ｶｼﾏｼ","streetKana":"ﾊﾁｶﾞﾀﾀﾞｲ","prefecture":"茨城県","city":"鹿嶋市","street":"鉢形台"},{"zipCode":"3140014","prefectureKana":"ｲﾊﾞﾗｷｹﾝ","cityKana":"ｶｼﾏｼ","streetKana":"ﾋｶﾘ","prefecture":"茨城県","city":"鹿嶋市","street":"光"},{"zipCode":"3140012","prefectureKana":"ｲﾊﾞﾗｷｹﾝ","cityKana":"ｶｼﾏｼ","streetKana":"ﾋﾗｲ","prefecture":"茨城県","city":"鹿嶋市","street":"平井"},{"zipCode":"3140039","prefectureKana":"ｲﾊﾞﾗｷｹﾝ","cityKana":"ｶｼﾏｼ","streetKana":"ﾐﾄﾞﾘｶﾞｵｶ","prefecture":"茨城県","city":"鹿嶋市","street":"緑ヶ丘"},{"zipCode":"3140011","prefectureKana":"ｲﾊﾞﾗｷｹﾝ","cityKana":"ｶｼﾏｼ","streetKana":"ﾐﾅﾄｶﾞｵｶ","prefecture":"茨城県","city":"鹿嶋市","street":"港ケ丘"},{"zipCode":"3140032","prefectureKana":"ｲﾊﾞﾗｷｹﾝ","cityKana":"ｶｼﾏｼ","streetKana":"ﾐﾔｼﾀ","prefecture":"茨城県","city":"鹿嶋市","street":"宮下"},{"zipCode":"3140006","prefectureKana":"ｲﾊﾞﾗｷｹﾝ","cityKana":"ｶｼﾏｼ","streetKana":"ﾐﾔﾂﾀﾞｲ","prefecture":"茨城県","city":"鹿嶋市","street":"宮津台"},{"zipCode":"3140045","prefectureKana":"ｲﾊﾞﾗｷｹﾝ","cityKana":"ｶｼﾏｼ","streetKana":"ﾔﾏﾉｳｴ","prefecture":"茨城県","city":"鹿嶋市","street":"山之上"},{"zipCode":"3140023","prefectureKana":"ｲﾊﾞﾗｷｹﾝ","cityKana":"ｶｼﾏｼ","streetKana":"ﾔﾜﾗ","prefecture":"茨城県","city":"鹿嶋市","street":"谷原"},{"zipCode":"3140024","prefectureKana":"ｲﾊﾞﾗｷｹﾝ","cityKana":"ｶｼﾏｼ","streetKana":"ﾜﾆｶﾞﾜ","prefecture":"茨城県","city":"鹿嶋市","street":"鰐川"},{"zipCode":"3140100","prefectureKana":"ｲﾊﾞﾗｷｹﾝ","cityKana":"ｶﾐｽｼ","streetKana":"ｲｶﾆｹｲｻｲｶﾞﾅｲﾊﾞｱｲ","prefecture":"茨城県","city":"神栖市","street":"以下に掲載がない場合"},{"zipCode":"3140133","prefectureKana":"ｲﾊﾞﾗｷｹﾝ","cityKana":"ｶﾐｽｼ","streetKana":"ｲｷｽ","prefecture":"茨城県","city":"神栖市","street":"息栖"},{"zipCode":"3140052","prefectureKana":"ｲﾊﾞﾗｷｹﾝ","cityKana":"ｶﾐｽｼ","streetKana":"ｲｷﾞﾘ(1901､1909-16､1909-20)","prefecture":"茨城県","city":"神栖市","street":"居切（１９０１、１９０９－１６、１９０９－２０）"},{"zipCode":"3140141","prefectureKana":"ｲﾊﾞﾗｷｹﾝ","cityKana":"ｶﾐｽｼ","streetKana":"ｲｷﾞﾘ(ｿﾉﾀ)","prefecture":"茨城県","city":"神栖市","street":"居切（その他）"},{"zipCode":"3140124","prefectureKana":"ｲﾊﾞﾗｷｹﾝ","cityKana":"ｶﾐｽｼ","streetKana":"ｲｼｶﾞﾐ","prefecture":"茨城県","city":"神栖市","street":"石神"},{"zipCode":"3140254","prefectureKana":"ｲﾊﾞﾗｷｹﾝ","cityKana":"ｶﾐｽｼ","streetKana":"ｵｵﾀ","prefecture":"茨城県","city":"神栖市","street":"太田"},{"zipCode":"3140257","prefectureKana":"ｲﾊﾞﾗｷｹﾝ","cityKana":"ｶﾐｽｼ","streetKana":"ｵｵﾀｼﾝﾏﾁ","prefecture":"茨城県","city":"神栖市","street":"太田新町"},{"zipCode":"3140144","prefectureKana":"ｲﾊﾞﾗｷｹﾝ","cityKana":"ｶﾐｽｼ","streetKana":"ｵｵﾉﾊﾗ","prefecture":"茨城県","city":"神栖市","street":"大野原"},{"zipCode":"3140128","prefectureKana":"ｲﾊﾞﾗｷｹﾝ","cityKana":"ｶﾐｽｼ","streetKana":"ｵｵﾉﾊﾗﾁｭｳｵｳ","prefecture":"茨城県","city":"神栖市","street":"大野原中央"},{"zipCode":"3140116","prefectureKana":"ｲﾊﾞﾗｷｹﾝ","cityKana":"ｶﾐｽｼ","streetKana":"ｵｸﾉﾔ","prefecture":"茨城県","city":"神栖市","street":"奥野谷"},{"zipCode":"3140134","prefectureKana":"ｲﾊﾞﾗｷｹﾝ","cityKana":"ｶﾐｽｼ","streetKana":"ｶﾞ","prefecture":"茨城県","city":"神栖市","street":"賀"},{"zipCode":"3140143","prefectureKana":"ｲﾊﾞﾗｷｹﾝ","cityKana":"ｶﾐｽｼ","streetKana":"ｶﾐｽ","prefecture":"茨城県","city":"神栖市","street":"神栖"},{"zipCode":"3140127","prefectureKana":"ｲﾊﾞﾗｷｹﾝ","cityKana":"ｶﾐｽｼ","streetKana":"ｷｻｷ","prefecture":"茨城県","city":"神栖市","street":"木崎"},{"zipCode":"3140101","prefectureKana":"ｲﾊﾞﾗｷｹﾝ","cityKana":"ｶﾐｽｼ","streetKana":"ｷﾀﾊﾏ","prefecture":"茨城県","city":"神栖市","street":"北浜"},{"zipCode":"3140115","prefectureKana":"ｲﾊﾞﾗｷｹﾝ","cityKana":"ｶﾐｽｼ","streetKana":"ｼｯﾃ","prefecture":"茨城県","city":"神栖市","street":"知手"},{"zipCode":"3140112","prefectureKana":"ｲﾊﾞﾗｷｹﾝ","cityKana":"ｶﾐｽｼ","streetKana":"ｼｯﾃﾁｭｳｵｳ","prefecture":"茨城県","city":"神栖市","street":"知手中央"},{"zipCode":"3140123","prefectureKana":"ｲﾊﾞﾗｷｹﾝ","cityKana":"ｶﾐｽｼ","streetKana":"ｼﾊﾞｻｷ","prefecture":"茨城県","city":"神栖市","street":"芝崎"},{"zipCode":"3140131","prefectureKana":"ｲﾊﾞﾗｷｹﾝ","cityKana":"ｶﾐｽｼ","streetKana":"ｼﾓﾊﾀｷ","prefecture":"茨城県","city":"神栖市","street":"下幡木"},{"zipCode":"3140253","prefectureKana":"ｲﾊﾞﾗｷｹﾝ","cityKana":"ｶﾐｽｼ","streetKana":"ｽﾀﾞ","prefecture":"茨城県","city":"神栖市","street":"須田"},{"zipCode":"3140255","prefectureKana":"ｲﾊﾞﾗｷｹﾝ","cityKana":"ｶﾐｽｼ","streetKana":"ｽﾅﾔﾏ","prefecture":"茨城県","city":"神栖市","street":"砂山"},{"zipCode":"3140125","prefectureKana":"ｲﾊﾞﾗｷｹﾝ","cityKana":"ｶﾐｽｼ","streetKana":"ﾀｶﾊﾏ","prefecture":"茨城県","city":"神栖市","street":"高浜"},{"zipCode":"3140126","prefectureKana":"ｲﾊﾞﾗｷｹﾝ","cityKana":"ｶﾐｽｼ","streetKana":"ﾀﾊﾞﾀ","prefecture":"茨城県","city":"神栖市","street":"田畑"},{"zipCode":"3140132","prefectureKana":"ｲﾊﾞﾗｷｹﾝ","cityKana":"ｶﾐｽｼ","streetKana":"ﾂﾂｲ","prefecture":"茨城県","city":"神栖市","street":"筒井"},{"zipCode":"3140342","prefectureKana":"ｲﾊﾞﾗｷｹﾝ","cityKana":"ｶﾐｽｼ","streetKana":"ﾄﾞｱｲｷﾀ","prefecture":"茨城県","city":"神栖市","street":"土合北"},{"zipCode":"3140347","prefectureKana":"ｲﾊﾞﾗｷｹﾝ","cityKana":"ｶﾐｽｼ","streetKana":"ﾄﾞｱｲﾁｭｳｵｳ","prefecture":"茨城県","city":"神栖市","street":"土合中央"},{"zipCode":"3140346","prefectureKana":"ｲﾊﾞﾗｷｹﾝ","cityKana":"ｶﾐｽｼ","streetKana":"ﾄﾞｱｲﾆｼ","prefecture":"茨城県","city":"神栖市","street":"土合西"},{"zipCode":"3140344","prefectureKana":"ｲﾊﾞﾗｷｹﾝ","cityKana":"ｶﾐｽｼ","streetKana":"ﾄﾞｱｲﾋｶﾞｼ","prefecture":"茨城県","city":"神栖市","street":"土合東"},{"zipCode":"3140343","prefectureKana":"ｲﾊﾞﾗｷｹﾝ","cityKana":"ｶﾐｽｼ","streetKana":"ﾄﾞｱｲﾎﾝﾁｮｳ","prefecture":"茨城県","city":"神栖市","street":"土合本町"},{"zipCode":"3140345","prefectureKana":"ｲﾊﾞﾗｷｹﾝ","cityKana":"ｶﾐｽｼ","streetKana":"ﾄﾞｱｲﾐﾅﾐ","prefecture":"茨城県","city":"神栖市","street":"土合南"},{"zipCode":"3140102","prefectureKana":"ｲﾊﾞﾗｷｹﾝ","cityKana":"ｶﾐｽｼ","streetKana":"ﾄｳﾜﾀﾞ","prefecture":"茨城県","city":"神栖市","street":"東和田"},{"zipCode":"3140114","prefectureKana":"ｲﾊﾞﾗｷｹﾝ","cityKana":"ｶﾐｽｼ","streetKana":"ﾆｯｶﾜ","prefecture":"茨城県","city":"神栖市","street":"日川"},{"zipCode":"3140122","prefectureKana":"ｲﾊﾞﾗｷｹﾝ","cityKana":"ｶﾐｽｼ","streetKana":"ﾊｷﾞﾜﾗ","prefecture":"茨城県","city":"神栖市","street":"萩原"},{"zipCode":"3140408","prefectureKana":"ｲﾊﾞﾗｷｹﾝ","cityKana":"ｶﾐｽｼ","streetKana":"ﾊｻｷ","prefecture":"茨城県","city":"神栖市","street":"波崎"},{"zipCode":"3140407","prefectureKana":"ｲﾊﾞﾗｷｹﾝ","cityKana":"ｶﾐｽｼ","streetKana":"ﾊｻｷｼﾝｺｳ","prefecture":"茨城県","city":"神栖市","street":"波崎新港"},{"zipCode":"3140103","prefectureKana":"ｲﾊﾞﾗｷｹﾝ","cityKana":"ｶﾐｽｼ","streetKana":"ﾋｶﾞｼﾌｶｼﾊﾞ","prefecture":"茨城県","city":"神栖市","street":"東深芝"},{"zipCode":"3140051","prefectureKana":"ｲﾊﾞﾗｷｹﾝ","cityKana":"ｶﾐｽｼ","streetKana":"ﾋｶﾘ","prefecture":"茨城県","city":"神栖市","street":"光"},{"zipCode":"3140146","prefectureKana":"ｲﾊﾞﾗｷｹﾝ","cityKana":"ｶﾐｽｼ","streetKana":"ﾋﾗｲｽﾞﾐ","prefecture":"茨城県","city":"神栖市","street":"平泉"},{"zipCode":"3140145","prefectureKana":"ｲﾊﾞﾗｷｹﾝ","cityKana":"ｶﾐｽｼ","streetKana":"ﾋﾗｲｽﾞﾐｿﾄ12ｲﾘｱｲ","prefecture":"茨城県","city":"神栖市","street":"平泉外１２入会"},{"zipCode":"3140145","prefectureKana":"ｲﾊﾞﾗｷｹﾝ","cityKana":"ｶﾐｽｼ","streetKana":"ﾋﾗｲｽﾞﾐﾋｶﾞｼ","prefecture":"茨城県","city":"神栖市","street":"平泉東"},{"zipCode":"3140148","prefectureKana":"ｲﾊﾞﾗｷｹﾝ","cityKana":"ｶﾐｽｼ","streetKana":"ﾌｶｼﾊﾞ","prefecture":"茨城県","city":"神栖市","street":"深芝"},{"zipCode":"3140142","prefectureKana":"ｲﾊﾞﾗｷｹﾝ","cityKana":"ｶﾐｽｼ","streetKana":"ﾌｶｼﾊﾞﾐﾅﾐ","prefecture":"茨城県","city":"神栖市","street":"深芝南"},{"zipCode":"3140135","prefectureKana":"ｲﾊﾞﾗｷｹﾝ","cityKana":"ｶﾐｽｼ","streetKana":"ﾎﾘﾜﾘ","prefecture":"茨城県","city":"神栖市","street":"堀割"},{"zipCode":"3140121","prefectureKana":"ｲﾊﾞﾗｷｹﾝ","cityKana":"ｶﾐｽｼ","streetKana":"ﾐｿﾞｸﾞﾁ","prefecture":"茨城県","city":"神栖市","street":"溝口"},{"zipCode":"3140111","prefectureKana":"ｲﾊﾞﾗｷｹﾝ","cityKana":"ｶﾐｽｼ","streetKana":"ﾐﾅﾐﾊﾏ","prefecture":"茨城県","city":"神栖市","street":"南浜"},{"zipCode":"3140341","prefectureKana":"ｲﾊﾞﾗｷｹﾝ","cityKana":"ｶﾐｽｼ","streetKana":"ﾔﾀﾍﾞ","prefecture":"茨城県","city":"神栖市","street":"矢田部"},{"zipCode":"3140252","prefectureKana":"ｲﾊﾞﾗｷｹﾝ","cityKana":"ｶﾐｽｼ","streetKana":"ﾔﾅｶﾞﾜ","prefecture":"茨城県","city":"神栖市","street":"柳川"},{"zipCode":"3140258","prefectureKana":"ｲﾊﾞﾗｷｹﾝ","cityKana":"ｶﾐｽｼ","streetKana":"ﾔﾅｶﾞﾜﾁｭｳｵｳ","prefecture":"茨城県","city":"神栖市","street":"柳川中央"},{"zipCode":"3140113","prefectureKana":"ｲﾊﾞﾗｷｹﾝ","cityKana":"ｶﾐｽｼ","streetKana":"ﾖｺｾ","prefecture":"茨城県","city":"神栖市","street":"横瀬"},{"zipCode":"3140256","prefectureKana":"ｲﾊﾞﾗｷｹﾝ","cityKana":"ｶﾐｽｼ","streetKana":"ﾜｶﾏﾂﾁｭｳｵｳ","prefecture":"茨城県","city":"神栖市","street":"若松中央"},{"zipCode":"3140147","prefectureKana":"ｲﾊﾞﾗｷｹﾝ","cityKana":"ｶﾐｽｼ","streetKana":"ﾜﾆｶﾞﾜ","prefecture":"茨城県","city":"神栖市","street":"鰐川"}]