[{"zipCode":"3210000","prefectureKana":"ﾄﾁｷﾞｹﾝ","cityKana":"ｳﾂﾉﾐﾔｼ","streetKana":"ｲｶﾆｹｲｻｲｶﾞﾅｲﾊﾞｱｲ","prefecture":"栃木県","city":"宇都宮市","street":"以下に掲載がない場合"},{"zipCode":"3210404","prefectureKana":"ﾄﾁｷﾞｹﾝ","cityKana":"ｳﾂﾉﾐﾔｼ","streetKana":"ｱｼﾇﾏﾁｮｳ","prefecture":"栃木県","city":"宇都宮市","street":"芦沼町"},{"zipCode":"3210347","prefectureKana":"ﾄﾁｷﾞｹﾝ","cityKana":"ｳﾂﾉﾐﾔｼ","streetKana":"ｲｲﾀﾞﾏﾁ","prefecture":"栃木県","city":"宇都宮市","street":"飯田町"},{"zipCode":"3212101","prefectureKana":"ﾄﾁｷﾞｹﾝ","cityKana":"ｳﾂﾉﾐﾔｼ","streetKana":"ｲｲﾔﾏﾏﾁ","prefecture":"栃木県","city":"宇都宮市","street":"飯山町"},{"zipCode":"3210912","prefectureKana":"ﾄﾁｷﾞｹﾝ","cityKana":"ｳﾂﾉﾐﾔｼ","streetKana":"ｲｼｲﾏﾁ","prefecture":"栃木県","city":"宇都宮市","street":"石井町"},{"zipCode":"3212103","prefectureKana":"ﾄﾁｷﾞｹﾝ","cityKana":"ｳﾂﾉﾐﾔｼ","streetKana":"ｲｼﾅﾀﾞﾏﾁ","prefecture":"栃木県","city":"宇都宮市","street":"石那田町"},{"zipCode":"3210952","prefectureKana":"ﾄﾁｷﾞｹﾝ","cityKana":"ｳﾂﾉﾐﾔｼ","streetKana":"ｲｽﾞﾐｶﾞｵｶ","prefecture":"栃木県","city":"宇都宮市","street":"泉が丘"},{"zipCode":"3213221","prefectureKana":"ﾄﾁｷﾞｹﾝ","cityKana":"ｳﾂﾉﾐﾔｼ","streetKana":"ｲﾀﾄﾞﾏﾁ","prefecture":"栃木県","city":"宇都宮市","street":"板戸町"},{"zipCode":"3210966","prefectureKana":"ﾄﾁｷﾞｹﾝ","cityKana":"ｳﾂﾉﾐﾔｼ","streetKana":"ｲﾏｲｽﾞﾐ","prefecture":"栃木県","city":"宇都宮市","street":"今泉"},{"zipCode":"3210961","prefectureKana":"ﾄﾁｷﾞｹﾝ","cityKana":"ｳﾂﾉﾐﾔｼ","streetKana":"ｲﾏｲｽﾞﾐｼﾝﾏﾁ","prefecture":"栃木県","city":"宇都宮市","street":"今泉新町"},{"zipCode":"3210962","prefectureKana":"ﾄﾁｷﾞｹﾝ","cityKana":"ｳﾂﾉﾐﾔｼ","streetKana":"ｲﾏｲｽﾞﾐﾁｮｳ","prefecture":"栃木県","city":"宇都宮市","street":"今泉町"},{"zipCode":"3210402","prefectureKana":"ﾄﾁｷﾞｹﾝ","cityKana":"ｳﾂﾉﾐﾔｼ","streetKana":"ｲﾏｻﾞﾄﾁｮｳ","prefecture":"栃木県","city":"宇都宮市","street":"今里町"},{"zipCode":"3210166","prefectureKana":"ﾄﾁｷﾞｹﾝ","cityKana":"ｳﾂﾉﾐﾔｼ","streetKana":"ｲﾏﾐﾔ","prefecture":"栃木県","city":"宇都宮市","street":"今宮"},{"zipCode":"3210973","prefectureKana":"ﾄﾁｷﾞｹﾝ","cityKana":"ｳﾂﾉﾐﾔｼ","streetKana":"ｲﾜｿﾞﾏﾁ","prefecture":"栃木県","city":"宇都宮市","street":"岩曽町"},{"zipCode":"3212117","prefectureKana":"ﾄﾁｷﾞｹﾝ","cityKana":"ｳﾂﾉﾐﾔｼ","streetKana":"ｲﾜﾊﾗﾏﾁ","prefecture":"栃木県","city":"宇都宮市","street":"岩原町"},{"zipCode":"3210976","prefectureKana":"ﾄﾁｷﾞｹﾝ","cityKana":"ｳﾂﾉﾐﾔｼ","streetKana":"ｲﾜﾓﾄﾁｮｳ","prefecture":"栃木県","city":"宇都宮市","street":"岩本町"},{"zipCode":"3210118","prefectureKana":"ﾄﾁｷﾞｹﾝ","cityKana":"ｳﾂﾉﾐﾔｼ","streetKana":"ｲﾝﾀｰﾊﾟｰｸ","prefecture":"栃木県","city":"宇都宮市","street":"インターパーク"},{"zipCode":"3210981","prefectureKana":"ﾄﾁｷﾞｹﾝ","cityKana":"ｳﾂﾉﾐﾔｼ","streetKana":"ｳｴﾉﾏﾁ","prefecture":"栃木県","city":"宇都宮市","street":"上野町"},{"zipCode":"3210405","prefectureKana":"ﾄﾁｷﾞｹﾝ","cityKana":"ｳﾂﾉﾐﾔｼ","streetKana":"ｳﾜﾀﾞﾁｮｳ","prefecture":"栃木県","city":"宇都宮市","street":"上田町"},{"zipCode":"3210964","prefectureKana":"ﾄﾁｷﾞｹﾝ","cityKana":"ｳﾂﾉﾐﾔｼ","streetKana":"ｴｷﾏｴﾄﾞｵﾘ","prefecture":"栃木県","city":"宇都宮市","street":"駅前通り"},{"zipCode":"3210107","prefectureKana":"ﾄﾁｷﾞｹﾝ","cityKana":"ｳﾂﾉﾐﾔｼ","streetKana":"ｴｿｼﾞﾏ","prefecture":"栃木県","city":"宇都宮市","street":"江曽島"},{"zipCode":"3210101","prefectureKana":"ﾄﾁｷﾞｹﾝ","cityKana":"ｳﾂﾉﾐﾔｼ","streetKana":"ｴｿｼﾞﾏﾎﾝﾁｮｳ","prefecture":"栃木県","city":"宇都宮市","street":"江曽島本町"},{"zipCode":"3210102","prefectureKana":"ﾄﾁｷﾞｹﾝ","cityKana":"ｳﾂﾉﾐﾔｼ","streetKana":"ｴｿｼﾞﾏﾏﾁ","prefecture":"栃木県","city":"宇都宮市","street":"江曽島町"},{"zipCode":"3212111","prefectureKana":"ﾄﾁｷﾞｹﾝ","cityKana":"ｳﾂﾉﾐﾔｼ","streetKana":"ｵｵｱﾐﾏﾁ","prefecture":"栃木県","city":"宇都宮市","street":"大網町"},{"zipCode":"3210161","prefectureKana":"ﾄﾁｷﾞｹﾝ","cityKana":"ｳﾂﾉﾐﾔｼ","streetKana":"ｵｵﾂｶﾁｮｳ","prefecture":"栃木県","city":"宇都宮市","street":"大塚町"},{"zipCode":"3210345","prefectureKana":"ﾄﾁｷﾞｹﾝ","cityKana":"ｳﾂﾉﾐﾔｼ","streetKana":"ｵｵﾔﾏﾁ","prefecture":"栃木県","city":"宇都宮市","street":"大谷町"},{"zipCode":"3210971","prefectureKana":"ﾄﾁｷﾞｹﾝ","cityKana":"ｳﾂﾉﾐﾔｼ","streetKana":"ｶｲﾄﾞｳﾏﾁ","prefecture":"栃木県","city":"宇都宮市","street":"海道町"},{"zipCode":"3210108","prefectureKana":"ﾄﾁｷﾞｹﾝ","cityKana":"ｳﾂﾉﾐﾔｼ","streetKana":"ｶｽｶﾞﾁｮｳ","prefecture":"栃木県","city":"宇都宮市","street":"春日町"},{"zipCode":"3210406","prefectureKana":"ﾄﾁｷﾞｹﾝ","cityKana":"ｳﾂﾉﾐﾔｼ","streetKana":"ｶﾈﾀﾞﾁｮｳ","prefecture":"栃木県","city":"宇都宮市","street":"金田町"},{"zipCode":"3212115","prefectureKana":"ﾄﾁｷﾞｹﾝ","cityKana":"ｳﾂﾉﾐﾔｼ","streetKana":"ｶﾐｶﾅｲﾏﾁ","prefecture":"栃木県","city":"宇都宮市","street":"上金井町"},{"zipCode":"3210913","prefectureKana":"ﾄﾁｷﾞｹﾝ","cityKana":"ｳﾂﾉﾐﾔｼ","streetKana":"ｶﾐｸﾜｼﾞﾏﾏﾁ","prefecture":"栃木県","city":"宇都宮市","street":"上桑島町"},{"zipCode":"3212104","prefectureKana":"ﾄﾁｷﾞｹﾝ","cityKana":"ｳﾂﾉﾐﾔｼ","streetKana":"ｶﾐｺｲｹﾏﾁ","prefecture":"栃木県","city":"宇都宮市","street":"上小池町"},{"zipCode":"3210401","prefectureKana":"ﾄﾁｷﾞｹﾝ","cityKana":"ｳﾂﾉﾐﾔｼ","streetKana":"ｶﾐｺｸﾞﾗﾁｮｳ","prefecture":"栃木県","city":"宇都宮市","street":"上小倉町"},{"zipCode":"3213233","prefectureKana":"ﾄﾁｷﾞｹﾝ","cityKana":"ｳﾂﾉﾐﾔｼ","streetKana":"ｶﾐｺﾓﾘﾔﾏﾁ","prefecture":"栃木県","city":"宇都宮市","street":"上籠谷町"},{"zipCode":"3210115","prefectureKana":"ﾄﾁｷﾞｹﾝ","cityKana":"ｳﾂﾉﾐﾔｼ","streetKana":"ｶﾐﾐﾀﾁｮｳ","prefecture":"栃木県","city":"宇都宮市","street":"上御田町"},{"zipCode":"3212112","prefectureKana":"ﾄﾁｷﾞｹﾝ","cityKana":"ｳﾂﾉﾐﾔｼ","streetKana":"ｶﾐﾖｺｸﾗﾏﾁ","prefecture":"栃木県","city":"宇都宮市","street":"上横倉町"},{"zipCode":"3210106","prefectureKana":"ﾄﾁｷﾞｹﾝ","cityKana":"ｳﾂﾉﾐﾔｼ","streetKana":"ｶﾐﾖｺﾀﾏﾁ","prefecture":"栃木県","city":"宇都宮市","street":"上横田町"},{"zipCode":"3213224","prefectureKana":"ﾄﾁｷﾞｹﾝ","cityKana":"ｳﾂﾉﾐﾔｼ","streetKana":"ｶﾘﾇﾏﾏﾁ","prefecture":"栃木県","city":"宇都宮市","street":"刈沼町"},{"zipCode":"3210111","prefectureKana":"ﾄﾁｷﾞｹﾝ","cityKana":"ｳﾂﾉﾐﾔｼ","streetKana":"ｶﾜﾀﾞﾏﾁ","prefecture":"栃木県","city":"宇都宮市","street":"川田町"},{"zipCode":"3210977","prefectureKana":"ﾄﾁｷﾞｹﾝ","cityKana":"ｳﾂﾉﾐﾔｼ","streetKana":"ｶﾜﾏﾀﾁｮｳ","prefecture":"栃木県","city":"宇都宮市","street":"川俣町"},{"zipCode":"3210965","prefectureKana":"ﾄﾁｷﾞｹﾝ","cityKana":"ｳﾂﾉﾐﾔｼ","streetKana":"ｶﾜﾑｺｳﾁｮｳ","prefecture":"栃木県","city":"宇都宮市","street":"川向町"},{"zipCode":"3210412","prefectureKana":"ﾄﾁｷﾞｹﾝ","cityKana":"ｳﾂﾉﾐﾔｼ","streetKana":"ｶﾝﾊﾟｸﾁｮｳ","prefecture":"栃木県","city":"宇都宮市","street":"関白町"},{"zipCode":"3210153","prefectureKana":"ﾄﾁｷﾞｹﾝ","cityKana":"ｳﾂﾉﾐﾔｼ","streetKana":"ｷﾀﾜｶﾏﾂﾊﾗ","prefecture":"栃木県","city":"宇都宮市","street":"北若松原"},{"zipCode":"3213231","prefectureKana":"ﾄﾁｷﾞｹﾝ","cityKana":"ｳﾂﾉﾐﾔｼ","streetKana":"ｷﾖﾊﾗｺｳｷﾞｮｳﾀﾞﾝﾁ","prefecture":"栃木県","city":"宇都宮市","street":"清原工業団地"},{"zipCode":"3213223","prefectureKana":"ﾄﾁｷﾞｹﾝ","cityKana":"ｳﾂﾉﾐﾔｼ","streetKana":"ｷﾖﾊﾗﾀﾞｲ","prefecture":"栃木県","city":"宇都宮市","street":"清原台"},{"zipCode":"3213234","prefectureKana":"ﾄﾁｷﾞｹﾝ","cityKana":"ｳﾂﾉﾐﾔｼ","streetKana":"ｸﾜｼﾞﾏﾏﾁ","prefecture":"栃木県","city":"宇都宮市","street":"桑島町"},{"zipCode":"3210951","prefectureKana":"ﾄﾁｷﾞｹﾝ","cityKana":"ｳﾂﾉﾐﾔｼ","streetKana":"ｺｴﾄﾞ","prefecture":"栃木県","city":"宇都宮市","street":"越戸"},{"zipCode":"3210951","prefectureKana":"ﾄﾁｷﾞｹﾝ","cityKana":"ｳﾂﾉﾐﾔｼ","streetKana":"ｺｴﾄﾞﾏﾁ","prefecture":"栃木県","city":"宇都宮市","street":"越戸町"},{"zipCode":"3210341","prefectureKana":"ﾄﾁｷﾞｹﾝ","cityKana":"ｳﾂﾉﾐﾔｼ","streetKana":"ｺｶﾞｼﾏﾁ","prefecture":"栃木県","city":"宇都宮市","street":"古賀志町"},{"zipCode":"3210135","prefectureKana":"ﾄﾁｷﾞｹﾝ","cityKana":"ｳﾂﾉﾐﾔｼ","streetKana":"ｺﾞﾀﾞｲ","prefecture":"栃木県","city":"宇都宮市","street":"五代"},{"zipCode":"3213235","prefectureKana":"ﾄﾁｷﾞｹﾝ","cityKana":"ｳﾂﾉﾐﾔｼ","streetKana":"ｺﾃﾔﾏﾏﾁ","prefecture":"栃木県","city":"宇都宮市","street":"鐺山町"},{"zipCode":"3210141","prefectureKana":"ﾄﾁｷﾞｹﾝ","cityKana":"ｳﾂﾉﾐﾔｼ","streetKana":"ｻﾂｷ","prefecture":"栃木県","city":"宇都宮市","street":"さつき"},{"zipCode":"3210922","prefectureKana":"ﾄﾁｷﾞｹﾝ","cityKana":"ｳﾂﾉﾐﾔｼ","streetKana":"ｻﾙﾔﾏﾏﾁ","prefecture":"栃木県","city":"宇都宮市","street":"さるやま町"},{"zipCode":"3212102","prefectureKana":"ﾄﾁｷﾞｹﾝ","cityKana":"ｳﾂﾉﾐﾔｼ","streetKana":"ｼﾉｲﾏﾁ","prefecture":"栃木県","city":"宇都宮市","street":"篠井町"},{"zipCode":"3210346","prefectureKana":"ﾄﾁｷﾞｹﾝ","cityKana":"ｳﾂﾉﾐﾔｼ","streetKana":"ｼﾓｱﾗﾊﾘﾏﾁ","prefecture":"栃木県","city":"宇都宮市","street":"下荒針町"},{"zipCode":"3212114","prefectureKana":"ﾄﾁｷﾞｹﾝ","cityKana":"ｳﾂﾉﾐﾔｼ","streetKana":"ｼﾓｶﾅｲﾏﾁ","prefecture":"栃木県","city":"宇都宮市","street":"下金井町"},{"zipCode":"3210972","prefectureKana":"ﾄﾁｷﾞｹﾝ","cityKana":"ｳﾂﾉﾐﾔｼ","streetKana":"ｼﾓｶﾜﾏﾀﾏﾁ","prefecture":"栃木県","city":"宇都宮市","street":"下川俣町"},{"zipCode":"3210914","prefectureKana":"ﾄﾁｷﾞｹﾝ","cityKana":"ｳﾂﾉﾐﾔｼ","streetKana":"ｼﾓｸﾜｼﾞﾏﾏﾁ","prefecture":"栃木県","city":"宇都宮市","street":"下桑島町"},{"zipCode":"3210924","prefectureKana":"ﾄﾁｷﾞｹﾝ","cityKana":"ｳﾂﾉﾐﾔｼ","streetKana":"ｼﾓｸﾞﾘ","prefecture":"栃木県","city":"宇都宮市","street":"下栗"},{"zipCode":"3210923","prefectureKana":"ﾄﾁｷﾞｹﾝ","cityKana":"ｳﾂﾉﾐﾔｼ","streetKana":"ｼﾓｸﾞﾘﾏﾁ","prefecture":"栃木県","city":"宇都宮市","street":"下栗町"},{"zipCode":"3212105","prefectureKana":"ﾄﾁｷﾞｹﾝ","cityKana":"ｳﾂﾉﾐﾔｼ","streetKana":"ｼﾓｺｲｹﾏﾁ","prefecture":"栃木県","city":"宇都宮市","street":"下小池町"},{"zipCode":"3210403","prefectureKana":"ﾄﾁｷﾞｹﾝ","cityKana":"ｳﾂﾉﾐﾔｼ","streetKana":"ｼﾓｺｸﾞﾗﾁｮｳ","prefecture":"栃木県","city":"宇都宮市","street":"下小倉町"},{"zipCode":"3210122","prefectureKana":"ﾄﾁｷﾞｹﾝ","cityKana":"ｳﾂﾉﾐﾔｼ","streetKana":"ｼﾓｿﾘﾏﾁﾁｮｳ","prefecture":"栃木県","city":"宇都宮市","street":"下反町町"},{"zipCode":"3210903","prefectureKana":"ﾄﾁｷﾞｹﾝ","cityKana":"ｳﾂﾉﾐﾔｼ","streetKana":"ｼﾓﾋﾗｲﾃﾞﾏﾁ","prefecture":"栃木県","city":"宇都宮市","street":"下平出町"},{"zipCode":"3212113","prefectureKana":"ﾄﾁｷﾞｹﾝ","cityKana":"ｳﾂﾉﾐﾔｼ","streetKana":"ｼﾓﾖｺｸﾗﾏﾁ","prefecture":"栃木県","city":"宇都宮市","street":"下横倉町"},{"zipCode":"3210124","prefectureKana":"ﾄﾁｷﾞｹﾝ","cityKana":"ｳﾂﾉﾐﾔｼ","streetKana":"ｼﾓﾖｺﾀﾁｮｳ","prefecture":"栃木県","city":"宇都宮市","street":"下横田町"},{"zipCode":"3210945","prefectureKana":"ﾄﾁｷﾞｹﾝ","cityKana":"ｳﾂﾉﾐﾔｼ","streetKana":"ｼｭｸｺﾞｳ","prefecture":"栃木県","city":"宇都宮市","street":"宿郷"},{"zipCode":"3210935","prefectureKana":"ﾄﾁｷﾞｹﾝ","cityKana":"ｳﾂﾉﾐﾔｼ","streetKana":"ｼﾞｮｳﾄｳ","prefecture":"栃木県","city":"宇都宮市","street":"城東"},{"zipCode":"3210117","prefectureKana":"ﾄﾁｷﾞｹﾝ","cityKana":"ｳﾂﾉﾐﾔｼ","streetKana":"ｼﾞｮｳﾅﾝ","prefecture":"栃木県","city":"宇都宮市","street":"城南"},{"zipCode":"3210413","prefectureKana":"ﾄﾁｷﾞｹﾝ","cityKana":"ｳﾂﾉﾐﾔｼ","streetKana":"ｼｮｳﾌｳﾀﾞｲ","prefecture":"栃木県","city":"宇都宮市","street":"松風台"},{"zipCode":"3210133","prefectureKana":"ﾄﾁｷﾞｹﾝ","cityKana":"ｳﾂﾉﾐﾔｼ","streetKana":"ｼﾝﾄﾐﾁｮｳ","prefecture":"栃木県","city":"宇都宮市","street":"新富町"},{"zipCode":"3210144","prefectureKana":"ﾄﾁｷﾞｹﾝ","cityKana":"ｳﾂﾉﾐﾔｼ","streetKana":"ｽｴﾋﾛ","prefecture":"栃木県","city":"宇都宮市","street":"末広"},{"zipCode":"3210132","prefectureKana":"ﾄﾁｷﾞｹﾝ","cityKana":"ｳﾂﾉﾐﾔｼ","streetKana":"ｽｽﾞﾒﾉﾐﾔ","prefecture":"栃木県","city":"宇都宮市","street":"雀の宮"},{"zipCode":"3210121","prefectureKana":"ﾄﾁｷﾞｹﾝ","cityKana":"ｳﾂﾉﾐﾔｼ","streetKana":"ｽｽﾞﾒﾉﾐﾔﾁｮｳ","prefecture":"栃木県","city":"宇都宮市","street":"雀宮町"},{"zipCode":"3210113","prefectureKana":"ﾄﾁｷﾞｹﾝ","cityKana":"ｳﾂﾉﾐﾔｼ","streetKana":"ｽﾅﾀﾏﾁ","prefecture":"栃木県","city":"宇都宮市","street":"砂田町"},{"zipCode":"3210975","prefectureKana":"ﾄﾁｷﾞｹﾝ","cityKana":"ｳﾂﾉﾐﾔｼ","streetKana":"ｾｷﾎﾞﾘﾁｮｳ","prefecture":"栃木県","city":"宇都宮市","street":"関堀町"},{"zipCode":"3210104","prefectureKana":"ﾄﾁｷﾞｹﾝ","cityKana":"ｳﾂﾉﾐﾔｼ","streetKana":"ﾀﾞｲｼﾝﾃﾞﾝ","prefecture":"栃木県","city":"宇都宮市","street":"台新田"},{"zipCode":"3210103","prefectureKana":"ﾄﾁｷﾞｹﾝ","cityKana":"ｳﾂﾉﾐﾔｼ","streetKana":"ﾀﾞｲｼﾝﾃﾞﾝﾏﾁ","prefecture":"栃木県","city":"宇都宮市","street":"台新田町"},{"zipCode":"3210134","prefectureKana":"ﾄﾁｷﾞｹﾝ","cityKana":"ｳﾂﾉﾐﾔｼ","streetKana":"ﾀｶｻｺﾞﾁｮｳ","prefecture":"栃木県","city":"宇都宮市","street":"高砂町"},{"zipCode":"3210416","prefectureKana":"ﾄﾁｷﾞｹﾝ","cityKana":"ｳﾂﾉﾐﾔｼ","streetKana":"ﾀｶﾏﾂﾁｮｳ","prefecture":"栃木県","city":"宇都宮市","street":"高松町"},{"zipCode":"3213236","prefectureKana":"ﾄﾁｷﾞｹﾝ","cityKana":"ｳﾂﾉﾐﾔｼ","streetKana":"ﾀｹｼﾀﾏﾁ","prefecture":"栃木県","city":"宇都宮市","street":"竹下町"},{"zipCode":"3210974","prefectureKana":"ﾄﾁｷﾞｹﾝ","cityKana":"ｳﾂﾉﾐﾔｼ","streetKana":"ﾀｹﾊﾞﾔｼﾏﾁ","prefecture":"栃木県","city":"宇都宮市","street":"竹林町"},{"zipCode":"3210343","prefectureKana":"ﾄﾁｷﾞｹﾝ","cityKana":"ｳﾂﾉﾐﾔｼ","streetKana":"ﾀｹﾞﾏﾁ","prefecture":"栃木県","city":"宇都宮市","street":"田下町"},{"zipCode":"3210344","prefectureKana":"ﾄﾁｷﾞｹﾝ","cityKana":"ｳﾂﾉﾐﾔｼ","streetKana":"ﾀﾉﾏﾁ","prefecture":"栃木県","city":"宇都宮市","street":"田野町"},{"zipCode":"3213237","prefectureKana":"ﾄﾁｷﾞｹﾝ","cityKana":"ｳﾂﾉﾐﾔｼ","streetKana":"ﾄﾞｳｼﾞｮｳｼﾞｭｸﾏﾁ","prefecture":"栃木県","city":"宇都宮市","street":"道場宿町"},{"zipCode":"3210123","prefectureKana":"ﾄﾁｷﾞｹﾝ","cityKana":"ｳﾂﾉﾐﾔｼ","streetKana":"ﾄｳﾔﾁｮｳ","prefecture":"栃木県","city":"宇都宮市","street":"東谷町"},{"zipCode":"3212116","prefectureKana":"ﾄﾁｷﾞｹﾝ","cityKana":"ｳﾂﾉﾐﾔｼ","streetKana":"ﾄｸｼﾞﾗﾏﾁ","prefecture":"栃木県","city":"宇都宮市","street":"徳次郎町"},{"zipCode":"3210911","prefectureKana":"ﾄﾁｷﾞｹﾝ","cityKana":"ｳﾂﾉﾐﾔｼ","streetKana":"ﾄﾝﾔﾏﾁ","prefecture":"栃木県","city":"宇都宮市","street":"問屋町"},{"zipCode":"3210968","prefectureKana":"ﾄﾁｷﾞｹﾝ","cityKana":"ｳﾂﾉﾐﾔｼ","streetKana":"ﾅｶｲﾏｲｽﾞﾐ","prefecture":"栃木県","city":"宇都宮市","street":"中今泉"},{"zipCode":"3210906","prefectureKana":"ﾄﾁｷﾞｹﾝ","cityKana":"ｳﾂﾉﾐﾔｼ","streetKana":"ﾅｶｸﾎﾞ","prefecture":"栃木県","city":"宇都宮市","street":"中久保"},{"zipCode":"3210414","prefectureKana":"ﾄﾁｷﾞｹﾝ","cityKana":"ｳﾂﾉﾐﾔｼ","streetKana":"ﾅｶｻﾞﾄﾁｮｳ","prefecture":"栃木県","city":"宇都宮市","street":"中里町"},{"zipCode":"3210114","prefectureKana":"ﾄﾁｷﾞｹﾝ","cityKana":"ｳﾂﾉﾐﾔｼ","streetKana":"ﾅｶｼﾞﾏﾁｮｳ","prefecture":"栃木県","city":"宇都宮市","street":"中島町"},{"zipCode":"3210917","prefectureKana":"ﾄﾁｷﾞｹﾝ","cityKana":"ｳﾂﾉﾐﾔｼ","streetKana":"ﾆｼｵｻｶﾍﾞﾏﾁ","prefecture":"栃木県","city":"宇都宮市","street":"西刑部町"},{"zipCode":"3210152","prefectureKana":"ﾄﾁｷﾞｹﾝ","cityKana":"ｳﾂﾉﾐﾔｼ","streetKana":"ﾆｼｶﾜﾀ","prefecture":"栃木県","city":"宇都宮市","street":"西川田"},{"zipCode":"3210154","prefectureKana":"ﾄﾁｷﾞｹﾝ","cityKana":"ｳﾂﾉﾐﾔｼ","streetKana":"ﾆｼｶﾜﾀﾋｶﾞｼﾏﾁ","prefecture":"栃木県","city":"宇都宮市","street":"西川田東町"},{"zipCode":"3210158","prefectureKana":"ﾄﾁｷﾞｹﾝ","cityKana":"ｳﾂﾉﾐﾔｼ","streetKana":"ﾆｼｶﾜﾀﾎﾝﾁｮｳ","prefecture":"栃木県","city":"宇都宮市","street":"西川田本町"},{"zipCode":"3210151","prefectureKana":"ﾄﾁｷﾞｹﾝ","cityKana":"ｳﾂﾉﾐﾔｼ","streetKana":"ﾆｼｶﾜﾀﾏﾁ","prefecture":"栃木県","city":"宇都宮市","street":"西川田町"},{"zipCode":"3210155","prefectureKana":"ﾄﾁｷﾞｹﾝ","cityKana":"ｳﾂﾉﾐﾔｼ","streetKana":"ﾆｼｶﾜﾀﾐﾅﾐ","prefecture":"栃木県","city":"宇都宮市","street":"西川田南"},{"zipCode":"3210967","prefectureKana":"ﾄﾁｷﾞｹﾝ","cityKana":"ｳﾂﾉﾐﾔｼ","streetKana":"ﾆｼｷ","prefecture":"栃木県","city":"宇都宮市","street":"錦"},{"zipCode":"3212118","prefectureKana":"ﾄﾁｷﾞｹﾝ","cityKana":"ｳﾂﾉﾐﾔｼ","streetKana":"ﾆｯｻﾄﾏﾁ","prefecture":"栃木県","city":"宇都宮市","street":"新里町"},{"zipCode":"3213222","prefectureKana":"ﾄﾁｷﾞｹﾝ","cityKana":"ｳﾂﾉﾐﾔｼ","streetKana":"ﾉｺﾞﾔﾏﾁ","prefecture":"栃木県","city":"宇都宮市","street":"野高谷町"},{"zipCode":"3210127","prefectureKana":"ﾄﾁｷﾞｹﾝ","cityKana":"ｳﾂﾉﾐﾔｼ","streetKana":"ﾊｷﾞｭｳﾀﾞﾁｮｳ","prefecture":"栃木県","city":"宇都宮市","street":"羽牛田町"},{"zipCode":"3210137","prefectureKana":"ﾄﾁｷﾞｹﾝ","cityKana":"ｳﾂﾉﾐﾔｼ","streetKana":"ﾊﾘｶﾞﾔ","prefecture":"栃木県","city":"宇都宮市","street":"針ケ谷"},{"zipCode":"3210147","prefectureKana":"ﾄﾁｷﾞｹﾝ","cityKana":"ｳﾂﾉﾐﾔｼ","streetKana":"ﾊﾘｶﾞﾔﾁｮｳ","prefecture":"栃木県","city":"宇都宮市","street":"針ケ谷町"},{"zipCode":"3210941","prefectureKana":"ﾄﾁｷﾞｹﾝ","cityKana":"ｳﾂﾉﾐﾔｼ","streetKana":"ﾋｶﾞｼｲﾏｲｽﾞﾐ","prefecture":"栃木県","city":"宇都宮市","street":"東今泉"},{"zipCode":"3210167","prefectureKana":"ﾄﾁｷﾞｹﾝ","cityKana":"ｳﾂﾉﾐﾔｼ","streetKana":"ﾋｶﾞｼｳﾗﾏﾁ","prefecture":"栃木県","city":"宇都宮市","street":"東浦町"},{"zipCode":"3210915","prefectureKana":"ﾄﾁｷﾞｹﾝ","cityKana":"ｳﾂﾉﾐﾔｼ","streetKana":"ﾋｶﾞｼｵｻｶﾍﾞﾏﾁ","prefecture":"栃木県","city":"宇都宮市","street":"東刑部町"},{"zipCode":"3210916","prefectureKana":"ﾄﾁｷﾞｹﾝ","cityKana":"ｳﾂﾉﾐﾔｼ","streetKana":"ﾋｶﾞｼｷﾉｼﾛﾏﾁ","prefecture":"栃木県","city":"宇都宮市","street":"東木代町"},{"zipCode":"3210953","prefectureKana":"ﾄﾁｷﾞｹﾝ","cityKana":"ｳﾂﾉﾐﾔｼ","streetKana":"ﾋｶﾞｼｼｭｸｺﾞｳ","prefecture":"栃木県","city":"宇都宮市","street":"東宿郷"},{"zipCode":"3210168","prefectureKana":"ﾄﾁｷﾞｹﾝ","cityKana":"ｳﾂﾉﾐﾔｼ","streetKana":"ﾋｶﾞｼﾊﾗﾏﾁ","prefecture":"栃木県","city":"宇都宮市","street":"東原町"},{"zipCode":"3210985","prefectureKana":"ﾄﾁｷﾞｹﾝ","cityKana":"ｳﾂﾉﾐﾔｼ","streetKana":"ﾋｶﾞｼﾏﾁ","prefecture":"栃木県","city":"宇都宮市","street":"東町"},{"zipCode":"3210944","prefectureKana":"ﾄﾁｷﾞｹﾝ","cityKana":"ｳﾂﾉﾐﾔｼ","streetKana":"ﾋｶﾞｼﾐﾈﾏﾁ","prefecture":"栃木県","city":"宇都宮市","street":"東峰町"},{"zipCode":"3210925","prefectureKana":"ﾄﾁｷﾞｹﾝ","cityKana":"ｳﾂﾉﾐﾔｼ","streetKana":"ﾋｶﾞｼﾔﾅｾﾞ","prefecture":"栃木県","city":"宇都宮市","street":"東簗瀬"},{"zipCode":"3210116","prefectureKana":"ﾄﾁｷﾞｹﾝ","cityKana":"ｳﾂﾉﾐﾔｼ","streetKana":"ﾋｶﾞｼﾖｺﾀﾏﾁ","prefecture":"栃木県","city":"宇都宮市","street":"東横田町"},{"zipCode":"3213232","prefectureKana":"ﾄﾁｷﾞｹﾝ","cityKana":"ｳﾂﾉﾐﾔｼ","streetKana":"ﾋﾑﾛﾏﾁ","prefecture":"栃木県","city":"宇都宮市","street":"氷室町"},{"zipCode":"3210138","prefectureKana":"ﾄﾁｷﾞｹﾝ","cityKana":"ｳﾂﾉﾐﾔｼ","streetKana":"ﾋｮｳｺﾞﾂｶ","prefecture":"栃木県","city":"宇都宮市","street":"兵庫塚"},{"zipCode":"3210156","prefectureKana":"ﾄﾁｷﾞｹﾝ","cityKana":"ｳﾂﾉﾐﾔｼ","streetKana":"ﾋｮｳｺﾞﾂｶﾏﾁ","prefecture":"栃木県","city":"宇都宮市","street":"兵庫塚町"},{"zipCode":"3210905","prefectureKana":"ﾄﾁｷﾞｹﾝ","cityKana":"ｳﾂﾉﾐﾔｼ","streetKana":"ﾋﾗｲﾃﾞｺｳｷﾞｮｳﾀﾞﾝﾁ","prefecture":"栃木県","city":"宇都宮市","street":"平出工業団地"},{"zipCode":"3210901","prefectureKana":"ﾄﾁｷﾞｹﾝ","cityKana":"ｳﾂﾉﾐﾔｼ","streetKana":"ﾋﾗｲﾃﾞﾏﾁ","prefecture":"栃木県","city":"宇都宮市","street":"平出町"},{"zipCode":"3210918","prefectureKana":"ﾄﾁｷﾞｹﾝ","cityKana":"ｳﾂﾉﾐﾔｼ","streetKana":"ﾋﾗﾂｶﾏﾁ","prefecture":"栃木県","city":"宇都宮市","street":"平塚町"},{"zipCode":"3210931","prefectureKana":"ﾄﾁｷﾞｹﾝ","cityKana":"ｳﾂﾉﾐﾔｼ","streetKana":"ﾋﾗﾏﾂﾁｮｳ","prefecture":"栃木県","city":"宇都宮市","street":"平松町"},{"zipCode":"3210932","prefectureKana":"ﾄﾁｷﾞｹﾝ","cityKana":"ｳﾂﾉﾐﾔｼ","streetKana":"ﾋﾗﾏﾂﾎﾝﾁｮｳ","prefecture":"栃木県","city":"宇都宮市","street":"平松本町"},{"zipCode":"3210342","prefectureKana":"ﾄﾁｷﾞｹﾝ","cityKana":"ｳﾂﾉﾐﾔｼ","streetKana":"ﾌｸｵｶﾏﾁ","prefecture":"栃木県","city":"宇都宮市","street":"福岡町"},{"zipCode":"3210146","prefectureKana":"ﾄﾁｷﾞｹﾝ","cityKana":"ｳﾂﾉﾐﾔｼ","streetKana":"ﾌｼﾞﾐﾁｮｳ","prefecture":"栃木県","city":"宇都宮市","street":"富士見町"},{"zipCode":"3210164","prefectureKana":"ﾄﾁｷﾞｹﾝ","cityKana":"ｳﾂﾉﾐﾔｼ","streetKana":"ﾌﾀﾊﾞ","prefecture":"栃木県","city":"宇都宮市","street":"双葉"},{"zipCode":"3210417","prefectureKana":"ﾄﾁｷﾞｹﾝ","cityKana":"ｳﾂﾉﾐﾔｼ","streetKana":"ﾌﾕﾑﾛﾁｮｳ","prefecture":"栃木県","city":"宇都宮市","street":"冬室町"},{"zipCode":"3210157","prefectureKana":"ﾄﾁｷﾞｹﾝ","cityKana":"ｳﾂﾉﾐﾔｼ","streetKana":"ﾏｸﾀﾏﾁ","prefecture":"栃木県","city":"宇都宮市","street":"幕田町"},{"zipCode":"3210407","prefectureKana":"ﾄﾁｷﾞｹﾝ","cityKana":"ｳﾂﾉﾐﾔｼ","streetKana":"ﾏﾂﾀﾞｼﾝﾃﾞﾝﾁｮｳ","prefecture":"栃木県","city":"宇都宮市","street":"松田新田町"},{"zipCode":"3213225","prefectureKana":"ﾄﾁｷﾞｹﾝ","cityKana":"ｳﾂﾉﾐﾔｼ","streetKana":"ﾏﾐｱﾅﾏﾁ","prefecture":"栃木県","city":"宇都宮市","street":"満美穴町"},{"zipCode":"3210921","prefectureKana":"ﾄﾁｷﾞｹﾝ","cityKana":"ｳﾂﾉﾐﾔｼ","streetKana":"ﾐｽﾞﾎ","prefecture":"栃木県","city":"宇都宮市","street":"瑞穂"},{"zipCode":"3210125","prefectureKana":"ﾄﾁｷﾞｹﾝ","cityKana":"ｳﾂﾉﾐﾔｼ","streetKana":"ﾐﾀﾅｶﾞｼﾏﾁｮｳ","prefecture":"栃木県","city":"宇都宮市","street":"御田長島町"},{"zipCode":"3210165","prefectureKana":"ﾄﾁｷﾞｹﾝ","cityKana":"ｳﾂﾉﾐﾔｼ","streetKana":"ﾐﾄﾞﾘ","prefecture":"栃木県","city":"宇都宮市","street":"緑"},{"zipCode":"3210136","prefectureKana":"ﾄﾁｷﾞｹﾝ","cityKana":"ｳﾂﾉﾐﾔｼ","streetKana":"ﾐﾄﾞﾘﾉﾏﾁ","prefecture":"栃木県","city":"宇都宮市","street":"みどり野町"},{"zipCode":"3210963","prefectureKana":"ﾄﾁｷﾞｹﾝ","cityKana":"ｳﾂﾉﾐﾔｼ","streetKana":"ﾐﾅﾐｵｵﾄﾞｵﾘ","prefecture":"栃木県","city":"宇都宮市","street":"南大通り"},{"zipCode":"3210143","prefectureKana":"ﾄﾁｷﾞｹﾝ","cityKana":"ｳﾂﾉﾐﾔｼ","streetKana":"ﾐﾅﾐﾀｶｻｺﾞﾁｮｳ","prefecture":"栃木県","city":"宇都宮市","street":"南高砂町"},{"zipCode":"3210142","prefectureKana":"ﾄﾁｷﾞｹﾝ","cityKana":"ｳﾂﾉﾐﾔｼ","streetKana":"ﾐﾅﾐﾏﾁ","prefecture":"栃木県","city":"宇都宮市","street":"南町"},{"zipCode":"3210942","prefectureKana":"ﾄﾁｷﾞｹﾝ","cityKana":"ｳﾂﾉﾐﾔｼ","streetKana":"ﾐﾈ","prefecture":"栃木県","city":"宇都宮市","street":"峰"},{"zipCode":"3210943","prefectureKana":"ﾄﾁｷﾞｹﾝ","cityKana":"ｳﾂﾉﾐﾔｼ","streetKana":"ﾐﾈﾏﾁ","prefecture":"栃木県","city":"宇都宮市","street":"峰町"},{"zipCode":"3210131","prefectureKana":"ﾄﾁｷﾞｹﾝ","cityKana":"ｳﾂﾉﾐﾔｼ","streetKana":"ﾐﾔﾉｳﾁ","prefecture":"栃木県","city":"宇都宮市","street":"宮の内"},{"zipCode":"3210969","prefectureKana":"ﾄﾁｷﾞｹﾝ","cityKana":"ｳﾂﾉﾐﾔｼ","streetKana":"ﾐﾔﾐﾗｲ","prefecture":"栃木県","city":"宇都宮市","street":"宮みらい"},{"zipCode":"3210163","prefectureKana":"ﾄﾁｷﾞｹﾝ","cityKana":"ｳﾂﾉﾐﾔｼ","streetKana":"ﾐﾔﾓﾄﾁｮｳ","prefecture":"栃木県","city":"宇都宮市","street":"宮本町"},{"zipCode":"3210411","prefectureKana":"ﾄﾁｷﾞｹﾝ","cityKana":"ｳﾂﾉﾐﾔｼ","streetKana":"ﾐﾔﾔﾏﾀﾞﾁｮｳ","prefecture":"栃木県","city":"宇都宮市","street":"宮山田町"},{"zipCode":"3210982","prefectureKana":"ﾄﾁｷﾞｹﾝ","cityKana":"ｳﾂﾉﾐﾔｼ","streetKana":"ﾐﾕｷｶﾞﾊﾗﾏﾁ","prefecture":"栃木県","city":"宇都宮市","street":"御幸ケ原町"},{"zipCode":"3210984","prefectureKana":"ﾄﾁｷﾞｹﾝ","cityKana":"ｳﾂﾉﾐﾔｼ","streetKana":"ﾐﾕｷﾁｮｳ","prefecture":"栃木県","city":"宇都宮市","street":"御幸町"},{"zipCode":"3210983","prefectureKana":"ﾄﾁｷﾞｹﾝ","cityKana":"ｳﾂﾉﾐﾔｼ","streetKana":"ﾐﾕｷﾎﾝﾁｮｳ","prefecture":"栃木県","city":"宇都宮市","street":"御幸本町"},{"zipCode":"3210415","prefectureKana":"ﾄﾁｷﾞｹﾝ","cityKana":"ｳﾂﾉﾐﾔｼ","streetKana":"ﾒﾝﾉｳﾁﾁｮｳ","prefecture":"栃木県","city":"宇都宮市","street":"免ノ内町"},{"zipCode":"3210954","prefectureKana":"ﾄﾁｷﾞｹﾝ","cityKana":"ｳﾂﾉﾐﾔｼ","streetKana":"ﾓﾄｲﾏｲｽﾞﾐ","prefecture":"栃木県","city":"宇都宮市","street":"元今泉"},{"zipCode":"3210145","prefectureKana":"ﾄﾁｷﾞｹﾝ","cityKana":"ｳﾂﾉﾐﾔｼ","streetKana":"ﾓﾊﾞﾗ","prefecture":"栃木県","city":"宇都宮市","street":"茂原"},{"zipCode":"3210126","prefectureKana":"ﾄﾁｷﾞｹﾝ","cityKana":"ｳﾂﾉﾐﾔｼ","streetKana":"ﾓﾊﾞﾗﾁｮｳ","prefecture":"栃木県","city":"宇都宮市","street":"茂原町"},{"zipCode":"3210112","prefectureKana":"ﾄﾁｷﾞｹﾝ","cityKana":"ｳﾂﾉﾐﾔｼ","streetKana":"ﾔｲﾀﾏﾁ","prefecture":"栃木県","city":"宇都宮市","street":"屋板町"},{"zipCode":"3210169","prefectureKana":"ﾄﾁｷﾞｹﾝ","cityKana":"ｳﾂﾉﾐﾔｼ","streetKana":"ﾔﾁﾖ","prefecture":"栃木県","city":"宇都宮市","street":"八千代"},{"zipCode":"3210902","prefectureKana":"ﾄﾁｷﾞｹﾝ","cityKana":"ｳﾂﾉﾐﾔｼ","streetKana":"ﾔﾅｷﾞﾀﾏﾁ","prefecture":"栃木県","city":"宇都宮市","street":"柳田町"},{"zipCode":"3210934","prefectureKana":"ﾄﾁｷﾞｹﾝ","cityKana":"ｳﾂﾉﾐﾔｼ","streetKana":"ﾔﾅｾﾞ","prefecture":"栃木県","city":"宇都宮市","street":"簗瀬"},{"zipCode":"3210933","prefectureKana":"ﾄﾁｷﾞｹﾝ","cityKana":"ｳﾂﾉﾐﾔｼ","streetKana":"ﾔﾅｾﾞﾏﾁ","prefecture":"栃木県","city":"宇都宮市","street":"簗瀬町"},{"zipCode":"3210162","prefectureKana":"ﾄﾁｷﾞｹﾝ","cityKana":"ｳﾂﾉﾐﾔｼ","streetKana":"ﾔﾏﾄ(1､2ﾁｮｳﾒ)","prefecture":"栃木県","city":"宇都宮市","street":"大和（１、２丁目）"},{"zipCode":"3213226","prefectureKana":"ﾄﾁｷﾞｹﾝ","cityKana":"ｳﾂﾉﾐﾔｼ","streetKana":"ﾕｲﾉﾓﾘ","prefecture":"栃木県","city":"宇都宮市","street":"ゆいの杜"},{"zipCode":"3210904","prefectureKana":"ﾄﾁｷﾞｹﾝ","cityKana":"ｳﾂﾉﾐﾔｼ","streetKana":"ﾖｳﾄｳ","prefecture":"栃木県","city":"宇都宮市","street":"陽東"},{"zipCode":"3210105","prefectureKana":"ﾄﾁｷﾞｹﾝ","cityKana":"ｳﾂﾉﾐﾔｼ","streetKana":"ﾖｺﾀｼﾝﾏﾁ","prefecture":"栃木県","city":"宇都宮市","street":"横田新町"},{"zipCode":"3210139","prefectureKana":"ﾄﾁｷﾞｹﾝ","cityKana":"ｳﾂﾉﾐﾔｼ","streetKana":"ﾜｶﾏﾂﾊﾗ","prefecture":"栃木県","city":"宇都宮市","street":"若松原"},{"zipCode":"3211111","prefectureKana":"ﾄﾁｷﾞｹﾝ","cityKana":"ｶﾇﾏｼ","streetKana":"ｲﾀｶﾞ","prefecture":"栃木県","city":"鹿沼市","street":"板荷"},{"zipCode":"3211200","prefectureKana":"ﾄﾁｷﾞｹﾝ","cityKana":"ﾆｯｺｳｼ","streetKana":"ｲｶﾆｹｲｻｲｶﾞﾅｲﾊﾞｱｲ","prefecture":"栃木県","city":"日光市","street":"以下に掲載がない場合"},{"zipCode":"3211413","prefectureKana":"ﾄﾁｷﾞｹﾝ","cityKana":"ﾆｯｺｳｼ","streetKana":"ｱｲｵｲﾁｮｳ","prefecture":"栃木県","city":"日光市","street":"相生町"},{"zipCode":"3212604","prefectureKana":"ﾄﾁｷﾞｹﾝ","cityKana":"ﾆｯｺｳｼ","streetKana":"ｱｶｼﾀ","prefecture":"栃木県","city":"日光市","street":"赤下"},{"zipCode":"3211511","prefectureKana":"ﾄﾁｷﾞｹﾝ","cityKana":"ﾆｯｺｳｼ","streetKana":"ｱｼｵﾏﾁ","prefecture":"栃木県","city":"日光市","street":"足尾町"},{"zipCode":"3211502","prefectureKana":"ﾄﾁｷﾞｹﾝ","cityKana":"ﾆｯｺｳｼ","streetKana":"ｱｼｵﾏﾁｱｶｸﾗ","prefecture":"栃木県","city":"日光市","street":"足尾町赤倉"},{"zipCode":"3211524","prefectureKana":"ﾄﾁｷﾞｹﾝ","cityKana":"ﾆｯｺｳｼ","streetKana":"ｱｼｵﾏﾁｱｶｻﾜ","prefecture":"栃木県","city":"日光市","street":"足尾町赤沢"},{"zipCode":"3211501","prefectureKana":"ﾄﾁｷﾞｹﾝ","cityKana":"ﾆｯｺｳｼ","streetKana":"ｱｼｵﾏﾁｱﾀｺﾞｼﾀ","prefecture":"栃木県","city":"日光市","street":"足尾町愛宕下"},{"zipCode":"3211505","prefectureKana":"ﾄﾁｷﾞｹﾝ","cityKana":"ﾆｯｺｳｼ","streetKana":"ｱｼｵﾏﾁｳｴﾉﾀｲﾗ","prefecture":"栃木県","city":"日光市","street":"足尾町上の平"},{"zipCode":"3211512","prefectureKana":"ﾄﾁｷﾞｹﾝ","cityKana":"ﾆｯｺｳｼ","streetKana":"ｱｼｵﾏﾁｶｹﾐｽﾞ","prefecture":"栃木県","city":"日光市","street":"足尾町掛水"},{"zipCode":"3211504","prefectureKana":"ﾄﾁｷﾞｹﾝ","cityKana":"ﾆｯｺｳｼ","streetKana":"ｱｼｵﾏﾁｶﾐﾏﾄｳ","prefecture":"栃木県","city":"日光市","street":"足尾町上間藤"},{"zipCode":"3211506","prefectureKana":"ﾄﾁｷﾞｹﾝ","cityKana":"ﾆｯｺｳｼ","streetKana":"ｱｼｵﾏﾁｼﾓﾏﾄｳ","prefecture":"栃木県","city":"日光市","street":"足尾町下間藤"},{"zipCode":"3211515","prefectureKana":"ﾄﾁｷﾞｹﾝ","cityKana":"ﾆｯｺｳｼ","streetKana":"ｱｼｵﾏﾁｽﾅﾊﾀ","prefecture":"栃木県","city":"日光市","street":"足尾町砂畑"},{"zipCode":"3211514","prefectureKana":"ﾄﾁｷﾞｹﾝ","cityKana":"ﾆｯｺｳｼ","streetKana":"ｱｼｵﾏﾁﾂｳﾄﾞｳ","prefecture":"栃木県","city":"日光市","street":"足尾町通洞"},{"zipCode":"3211521","prefectureKana":"ﾄﾁｷﾞｹﾝ","cityKana":"ﾆｯｺｳｼ","streetKana":"ｱｼｵﾏﾁﾄｵｼﾞﾓ","prefecture":"栃木県","city":"日光市","street":"足尾町遠下"},{"zipCode":"3211522","prefectureKana":"ﾄﾁｷﾞｹﾝ","cityKana":"ﾆｯｺｳｼ","streetKana":"ｱｼｵﾏﾁﾅｶｻｲ","prefecture":"栃木県","city":"日光市","street":"足尾町中才"},{"zipCode":"3211507","prefectureKana":"ﾄﾁｷﾞｹﾝ","cityKana":"ﾆｯｺｳｼ","streetKana":"ｱｼｵﾏﾁﾅﾝｷｮｳ","prefecture":"栃木県","city":"日光市","street":"足尾町南橋"},{"zipCode":"3211503","prefectureKana":"ﾄﾁｷﾞｹﾝ","cityKana":"ﾆｯｺｳｼ","streetKana":"ｱｼｵﾏﾁﾌｶｻﾜ","prefecture":"栃木県","city":"日光市","street":"足尾町深沢"},{"zipCode":"3211508","prefectureKana":"ﾄﾁｷﾞｹﾝ","cityKana":"ﾆｯｺｳｼ","streetKana":"ｱｼｵﾏﾁﾎﾝｻﾞﾝ","prefecture":"栃木県","city":"日光市","street":"足尾町本山"},{"zipCode":"3211523","prefectureKana":"ﾄﾁｷﾞｹﾝ","cityKana":"ﾆｯｺｳｼ","streetKana":"ｱｼｵﾏﾁﾏﾂﾊﾞﾗ","prefecture":"栃木県","city":"日光市","street":"足尾町松原"},{"zipCode":"3211513","prefectureKana":"ﾄﾁｷﾞｹﾝ","cityKana":"ﾆｯｺｳｼ","streetKana":"ｱｼｵﾏﾁﾑｶｲﾊﾗ","prefecture":"栃木県","city":"日光市","street":"足尾町向原"},{"zipCode":"3212615","prefectureKana":"ﾄﾁｷﾞｹﾝ","cityKana":"ﾆｯｺｳｼ","streetKana":"ｲｶﾘ(ﾋｶﾞｼﾔﾏ)","prefecture":"栃木県","city":"日光市","street":"五十里（東山）"},{"zipCode":"3212806","prefectureKana":"ﾄﾁｷﾞｹﾝ","cityKana":"ﾆｯｺｳｼ","streetKana":"ｲｶﾘ(ｿﾉﾀ)","prefecture":"栃木県","city":"日光市","street":"五十里（その他）"},{"zipCode":"3211405","prefectureKana":"ﾄﾁｷﾞｹﾝ","cityKana":"ﾆｯｺｳｼ","streetKana":"ｲｼﾔﾏﾁ","prefecture":"栃木県","city":"日光市","street":"石屋町"},{"zipCode":"3211425","prefectureKana":"ﾄﾁｷﾞｹﾝ","cityKana":"ﾆｯｺｳｼ","streetKana":"ｲｽﾞﾐ","prefecture":"栃木県","city":"日光市","street":"和泉"},{"zipCode":"3211102","prefectureKana":"ﾄﾁｷﾞｹﾝ","cityKana":"ﾆｯｺｳｼ","streetKana":"ｲﾀﾊﾞｼ","prefecture":"栃木県","city":"日光市","street":"板橋"},{"zipCode":"3211411","prefectureKana":"ﾄﾁｷﾞｹﾝ","cityKana":"ﾆｯｺｳｼ","streetKana":"ｲﾅﾘﾏﾁ","prefecture":"栃木県","city":"日光市","street":"稲荷町"},{"zipCode":"3212344","prefectureKana":"ﾄﾁｷﾞｹﾝ","cityKana":"ﾆｯｺｳｼ","streetKana":"ｲﾉｸﾗ","prefecture":"栃木県","city":"日光市","street":"猪倉"},{"zipCode":"3211261","prefectureKana":"ﾄﾁｷﾞｹﾝ","cityKana":"ﾆｯｺｳｼ","streetKana":"ｲﾏｲﾁ","prefecture":"栃木県","city":"日光市","street":"今市"},{"zipCode":"3211272","prefectureKana":"ﾄﾁｷﾞｹﾝ","cityKana":"ﾆｯｺｳｼ","streetKana":"ｲﾏｲﾁﾎﾝﾁｮｳ","prefecture":"栃木県","city":"日光市","street":"今市本町"},{"zipCode":"3211104","prefectureKana":"ﾄﾁｷﾞｹﾝ","cityKana":"ﾆｯｺｳｼ","streetKana":"ｲﾜｻﾞｷ","prefecture":"栃木県","city":"日光市","street":"岩崎"},{"zipCode":"3212333","prefectureKana":"ﾄﾁｷﾞｹﾝ","cityKana":"ﾆｯｺｳｼ","streetKana":"ｳｽｲｻﾞﾜ","prefecture":"栃木県","city":"日光市","street":"薄井沢"},{"zipCode":"3212411","prefectureKana":"ﾄﾁｷﾞｹﾝ","cityKana":"ﾆｯｺｳｼ","streetKana":"ｵｵｸﾜﾏﾁ","prefecture":"栃木県","city":"日光市","street":"大桑町"},{"zipCode":"3212341","prefectureKana":"ﾄﾁｷﾞｹﾝ","cityKana":"ﾆｯｺｳｼ","streetKana":"ｵｵｻﾜﾏﾁ","prefecture":"栃木県","city":"日光市","street":"大沢町"},{"zipCode":"3212332","prefectureKana":"ﾄﾁｷﾞｹﾝ","cityKana":"ﾆｯｺｳｼ","streetKana":"ｵｵﾑﾛ","prefecture":"栃木県","city":"日光市","street":"大室"},{"zipCode":"3212402","prefectureKana":"ﾄﾁｷﾞｹﾝ","cityKana":"ﾆｯｺｳｼ","streetKana":"ｵｵﾜﾀﾘ","prefecture":"栃木県","city":"日光市","street":"大渡"},{"zipCode":"3212336","prefectureKana":"ﾄﾁｷﾞｹﾝ","cityKana":"ﾆｯｺｳｼ","streetKana":"ｵﾄﾛｻﾞﾜ","prefecture":"栃木県","city":"日光市","street":"荊沢"},{"zipCode":"3212354","prefectureKana":"ﾄﾁｷﾞｹﾝ","cityKana":"ﾆｯｺｳｼ","streetKana":"ｶﾀｸﾗ","prefecture":"栃木県","city":"日光市","street":"嘉多蔵"},{"zipCode":"3212715","prefectureKana":"ﾄﾁｷﾞｹﾝ","cityKana":"ﾆｯｺｳｼ","streetKana":"ｶﾐｸﾘﾔﾏ","prefecture":"栃木県","city":"日光市","street":"上栗山"},{"zipCode":"3211401","prefectureKana":"ﾄﾁｷﾞｹﾝ","cityKana":"ﾆｯｺｳｼ","streetKana":"ｶﾐﾊﾂｲｼﾏﾁ","prefecture":"栃木県","city":"日光市","street":"上鉢石町"},{"zipCode":"3212802","prefectureKana":"ﾄﾁｷﾞｹﾝ","cityKana":"ﾆｯｺｳｼ","streetKana":"ｶﾐﾐﾖﾘ","prefecture":"栃木県","city":"日光市","street":"上三依"},{"zipCode":"3212524","prefectureKana":"ﾄﾁｷﾞｹﾝ","cityKana":"ﾆｯｺｳｼ","streetKana":"ｶﾗｸﾗ","prefecture":"栃木県","city":"日光市","street":"柄倉"},{"zipCode":"3212611","prefectureKana":"ﾄﾁｷﾞｹﾝ","cityKana":"ﾆｯｺｳｼ","streetKana":"ｶﾜｼﾞｵﾝｾﾝｶﾜｼﾞ","prefecture":"栃木県","city":"日光市","street":"川治温泉川治"},{"zipCode":"3212612","prefectureKana":"ﾄﾁｷﾞｹﾝ","cityKana":"ﾆｯｺｳｼ","streetKana":"ｶﾜｼﾞｵﾝｾﾝﾀｶﾊﾗ","prefecture":"栃木県","city":"日光市","street":"川治温泉高原"},{"zipCode":"3212614","prefectureKana":"ﾄﾁｷﾞｹﾝ","cityKana":"ﾆｯｺｳｼ","streetKana":"ｶﾜｼﾞｵﾝｾﾝﾀｷ","prefecture":"栃木県","city":"日光市","street":"川治温泉滝"},{"zipCode":"3212717","prefectureKana":"ﾄﾁｷﾞｹﾝ","cityKana":"ﾆｯｺｳｼ","streetKana":"ｶﾜﾏﾀ","prefecture":"栃木県","city":"日光市","street":"川俣"},{"zipCode":"3212401","prefectureKana":"ﾄﾁｷﾞｹﾝ","cityKana":"ﾆｯｺｳｼ","streetKana":"ｶﾜﾑﾛ","prefecture":"栃木県","city":"日光市","street":"川室"},{"zipCode":"3211273","prefectureKana":"ﾄﾁｷﾞｹﾝ","cityKana":"ﾆｯｺｳｼ","streetKana":"ｷﾁｻﾜ","prefecture":"栃木県","city":"日光市","street":"吉沢"},{"zipCode":"3212522","prefectureKana":"ﾄﾁｷﾞｹﾝ","cityKana":"ﾆｯｺｳｼ","streetKana":"ｷﾇｶﾞﾜｵﾝｾﾝｵｵﾊﾗ","prefecture":"栃木県","city":"日光市","street":"鬼怒川温泉大原"},{"zipCode":"3212526","prefectureKana":"ﾄﾁｷﾞｹﾝ","cityKana":"ﾆｯｺｳｼ","streetKana":"ｷﾇｶﾞﾜｵﾝｾﾝﾀｷ","prefecture":"栃木県","city":"日光市","street":"鬼怒川温泉滝"},{"zipCode":"3211444","prefectureKana":"ﾄﾁｷﾞｹﾝ","cityKana":"ﾆｯｺｳｼ","streetKana":"ｷﾖﾀｷ","prefecture":"栃木県","city":"日光市","street":"清滝"},{"zipCode":"3211441","prefectureKana":"ﾄﾁｷﾞｹﾝ","cityKana":"ﾆｯｺｳｼ","streetKana":"ｷﾖﾀｷｱﾗｻﾜﾏﾁ","prefecture":"栃木県","city":"日光市","street":"清滝安良沢町"},{"zipCode":"3211443","prefectureKana":"ﾄﾁｷﾞｹﾝ","cityKana":"ﾆｯｺｳｼ","streetKana":"ｷﾖﾀｷｻｸﾗｶﾞｵｶﾏﾁ","prefecture":"栃木県","city":"日光市","street":"清滝桜ケ丘町"},{"zipCode":"3211448","prefectureKana":"ﾄﾁｷﾞｹﾝ","cityKana":"ﾆｯｺｳｼ","streetKana":"ｷﾖﾀｷｼﾝﾎｿｵﾏﾁ","prefecture":"栃木県","city":"日光市","street":"清滝新細尾町"},{"zipCode":"3211442","prefectureKana":"ﾄﾁｷﾞｹﾝ","cityKana":"ﾆｯｺｳｼ","streetKana":"ｷﾖﾀｷﾀﾝｾﾞﾏﾁ","prefecture":"栃木県","city":"日光市","street":"清滝丹勢町"},{"zipCode":"3211446","prefectureKana":"ﾄﾁｷﾞｹﾝ","cityKana":"ﾆｯｺｳｼ","streetKana":"ｷﾖﾀｷﾅｶﾔｽﾄﾞﾏﾁ","prefecture":"栃木県","city":"日光市","street":"清滝中安戸町"},{"zipCode":"3211447","prefectureKana":"ﾄﾁｷﾞｹﾝ","cityKana":"ﾆｯｺｳｼ","streetKana":"ｷﾖﾀｷﾜﾉｼﾛﾏﾁ","prefecture":"栃木県","city":"日光市","street":"清滝和の代町"},{"zipCode":"3212345","prefectureKana":"ﾄﾁｷﾞｹﾝ","cityKana":"ﾆｯｺｳｼ","streetKana":"ｷﾜﾀﾞｼﾏ","prefecture":"栃木県","city":"日光市","street":"木和田島"},{"zipCode":"3211436","prefectureKana":"ﾄﾁｷﾞｹﾝ","cityKana":"ﾆｯｺｳｼ","streetKana":"ｸｼﾞﾗﾏﾁ","prefecture":"栃木県","city":"日光市","street":"久次良町"},{"zipCode":"3212353","prefectureKana":"ﾄﾁｷﾞｹﾝ","cityKana":"ﾆｯｺｳｼ","streetKana":"ｸﾂｶｹ","prefecture":"栃木県","city":"日光市","street":"沓掛"},{"zipCode":"3212412","prefectureKana":"ﾄﾁｷﾞｹﾝ","cityKana":"ﾆｯｺｳｼ","streetKana":"ｸﾗｶﾞｻｷ","prefecture":"栃木県","city":"日光市","street":"倉ケ崎"},{"zipCode":"3212413","prefectureKana":"ﾄﾁｷﾞｹﾝ","cityKana":"ﾆｯｺｳｼ","streetKana":"ｸﾗｶﾞｻｷｼﾝﾃﾞﾝ","prefecture":"栃木県","city":"日光市","street":"倉ケ崎新田"},{"zipCode":"3212421","prefectureKana":"ﾄﾁｷﾞｹﾝ","cityKana":"ﾆｯｺｳｼ","streetKana":"ｸﾘﾊﾞﾗ","prefecture":"栃木県","city":"日光市","street":"栗原"},{"zipCode":"3212713","prefectureKana":"ﾄﾁｷﾞｹﾝ","cityKana":"ﾆｯｺｳｼ","streetKana":"ｸﾛﾍﾞ","prefecture":"栃木県","city":"日光市","street":"黒部"},{"zipCode":"3211106","prefectureKana":"ﾄﾁｷﾞｹﾝ","cityKana":"ﾆｯｺｳｼ","streetKana":"ｺｸﾞﾗ","prefecture":"栃木県","city":"日光市","street":"小倉"},{"zipCode":"3211404","prefectureKana":"ﾄﾁｷﾞｹﾝ","cityKana":"ﾆｯｺｳｼ","streetKana":"ｺﾞｺｳﾏﾁ","prefecture":"栃木県","city":"日光市","street":"御幸町"},{"zipCode":"3212525","prefectureKana":"ﾄﾁｷﾞｹﾝ","cityKana":"ﾆｯｺｳｼ","streetKana":"ｺｻｺﾞｴ","prefecture":"栃木県","city":"日光市","street":"小佐越"},{"zipCode":"3211107","prefectureKana":"ﾄﾁｷﾞｹﾝ","cityKana":"ﾆｯｺｳｼ","streetKana":"ｺｼﾛ","prefecture":"栃木県","city":"日光市","street":"小代"},{"zipCode":"3212352","prefectureKana":"ﾄﾁｷﾞｹﾝ","cityKana":"ﾆｯｺｳｼ","streetKana":"ｺﾊﾞﾔｼ","prefecture":"栃木県","city":"日光市","street":"小林"},{"zipCode":"3212426","prefectureKana":"ﾄﾁｷﾞｹﾝ","cityKana":"ﾆｯｺｳｼ","streetKana":"ｺﾋﾞｬｸ(ﾂﾂｵｷ)","prefecture":"栃木県","city":"日光市","street":"小百（筒置）"},{"zipCode":"3212424","prefectureKana":"ﾄﾁｷﾞｹﾝ","cityKana":"ﾆｯｺｳｼ","streetKana":"ｺﾋﾞｬｸ(ﾄﾔｼﾀ)","prefecture":"栃木県","city":"日光市","street":"小百（鳥屋下）"},{"zipCode":"3212425","prefectureKana":"ﾄﾁｷﾞｹﾝ","cityKana":"ﾆｯｺｳｼ","streetKana":"ｺﾋﾞｬｸ(ﾅﾗﾊﾗ)","prefecture":"栃木県","city":"日光市","street":"小百（楢原）"},{"zipCode":"3211265","prefectureKana":"ﾄﾁｷﾞｹﾝ","cityKana":"ﾆｯｺｳｼ","streetKana":"ｺﾋﾞｬｸ(ｿﾉﾀ)","prefecture":"栃木県","city":"日光市","street":"小百（その他）"},{"zipCode":"3212427","prefectureKana":"ﾄﾁｷﾞｹﾝ","cityKana":"ﾆｯｺｳｼ","streetKana":"ｻｹﾞﾌﾞ","prefecture":"栃木県","city":"日光市","street":"佐下部"},{"zipCode":"3212355","prefectureKana":"ﾄﾁｷﾞｹﾝ","cityKana":"ﾆｯｺｳｼ","streetKana":"ｻﾜﾏﾀ","prefecture":"栃木県","city":"日光市","street":"沢又"},{"zipCode":"3211431","prefectureKana":"ﾄﾁｷﾞｹﾝ","cityKana":"ﾆｯｺｳｼ","streetKana":"ｻﾝﾅｲ","prefecture":"栃木県","city":"日光市","street":"山内"},{"zipCode":"3212351","prefectureKana":"ﾄﾁｷﾞｹﾝ","cityKana":"ﾆｯｺｳｼ","streetKana":"ｼｵﾉﾑﾛﾏﾁ","prefecture":"栃木県","city":"日光市","street":"塩野室町"},{"zipCode":"3211423","prefectureKana":"ﾄﾁｷﾞｹﾝ","cityKana":"ﾆｯｺｳｼ","streetKana":"ｼﾁﾘ","prefecture":"栃木県","city":"日光市","street":"七里"},{"zipCode":"3211276","prefectureKana":"ﾄﾁｷﾞｹﾝ","cityKana":"ﾆｯｺｳｼ","streetKana":"ｼﾓﾉｳﾁ","prefecture":"栃木県","city":"日光市","street":"下の内"},{"zipCode":"3211403","prefectureKana":"ﾄﾁｷﾞｹﾝ","cityKana":"ﾆｯｺｳｼ","streetKana":"ｼﾓﾊﾂｲｼﾏﾁ","prefecture":"栃木県","city":"日光市","street":"下鉢石町"},{"zipCode":"3211263","prefectureKana":"ﾄﾁｷﾞｹﾝ","cityKana":"ﾆｯｺｳｼ","streetKana":"ｾｶﾞﾜ","prefecture":"栃木県","city":"日光市","street":"瀬川"},{"zipCode":"3211264","prefectureKana":"ﾄﾁｷﾞｹﾝ","cityKana":"ﾆｯｺｳｼ","streetKana":"ｾﾉｵ","prefecture":"栃木県","city":"日光市","street":"瀬尾"},{"zipCode":"3212804","prefectureKana":"ﾄﾁｷﾞｹﾝ","cityKana":"ﾆｯｺｳｼ","streetKana":"ｾﾘｻﾜ","prefecture":"栃木県","city":"日光市","street":"芹沢"},{"zipCode":"3212405","prefectureKana":"ﾄﾁｷﾞｹﾝ","cityKana":"ﾆｯｺｳｼ","streetKana":"ｾﾘﾇﾏ","prefecture":"栃木県","city":"日光市","street":"芹沼"},{"zipCode":"3211277","prefectureKana":"ﾄﾁｷﾞｹﾝ","cityKana":"ﾆｯｺｳｼ","streetKana":"ｾﾝﾎﾞﾝｷﾞ","prefecture":"栃木県","city":"日光市","street":"千本木"},{"zipCode":"3212422","prefectureKana":"ﾄﾁｷﾞｹﾝ","cityKana":"ﾆｯｺｳｼ","streetKana":"ﾀｶｼﾊﾞ","prefecture":"栃木県","city":"日光市","street":"高柴"},{"zipCode":"3212523","prefectureKana":"ﾄﾁｷﾞｹﾝ","cityKana":"ﾆｯｺｳｼ","streetKana":"ﾀｶﾄｸ","prefecture":"栃木県","city":"日光市","street":"高徳"},{"zipCode":"3212616","prefectureKana":"ﾄﾁｷﾞｹﾝ","cityKana":"ﾆｯｺｳｼ","streetKana":"ﾀｶﾊﾗ","prefecture":"栃木県","city":"日光市","street":"高原"},{"zipCode":"3211356","prefectureKana":"ﾄﾁｷﾞｹﾝ","cityKana":"ﾆｯｺｳｼ","streetKana":"ﾀｷｶﾞﾊﾗ","prefecture":"栃木県","city":"日光市","street":"滝ケ原"},{"zipCode":"3211433","prefectureKana":"ﾄﾁｷﾞｹﾝ","cityKana":"ﾆｯｺｳｼ","streetKana":"ﾀｸﾐﾁｮｳ","prefecture":"栃木県","city":"日光市","street":"匠町"},{"zipCode":"3211449","prefectureKana":"ﾄﾁｷﾞｹﾝ","cityKana":"ﾆｯｺｳｼ","streetKana":"ﾀﾝｾﾞ","prefecture":"栃木県","city":"日光市","street":"丹勢"},{"zipCode":"3211266","prefectureKana":"ﾄﾁｷﾞｹﾝ","cityKana":"ﾆｯｺｳｼ","streetKana":"ﾁｭｳｵｳﾁｮｳ","prefecture":"栃木県","city":"日光市","street":"中央町"},{"zipCode":"3211661","prefectureKana":"ﾄﾁｷﾞｹﾝ","cityKana":"ﾆｯｺｳｼ","streetKana":"ﾁｭｳｸﾞｳｼ","prefecture":"栃木県","city":"日光市","street":"中宮祠"},{"zipCode":"3211103","prefectureKana":"ﾄﾁｷﾞｹﾝ","cityKana":"ﾆｯｺｳｼ","streetKana":"ﾁｮｳｶ","prefecture":"栃木県","city":"日光市","street":"手岡"},{"zipCode":"3211412","prefectureKana":"ﾄﾁｷﾞｹﾝ","cityKana":"ﾆｯｺｳｼ","streetKana":"ﾄｳﾜﾁｮｳ","prefecture":"栃木県","city":"日光市","street":"東和町"},{"zipCode":"3211421","prefectureKana":"ﾄﾁｷﾞｹﾝ","cityKana":"ﾆｯｺｳｼ","streetKana":"ﾄｺﾛﾉ","prefecture":"栃木県","city":"日光市","street":"所野"},{"zipCode":"3211274","prefectureKana":"ﾄﾁｷﾞｹﾝ","cityKana":"ﾆｯｺｳｼ","streetKana":"ﾄﾞｻﾜ","prefecture":"栃木県","city":"日光市","street":"土沢"},{"zipCode":"3212805","prefectureKana":"ﾄﾁｷﾞｹﾝ","cityKana":"ﾆｯｺｳｼ","streetKana":"ﾄｯｺｻﾞﾜ","prefecture":"栃木県","city":"日光市","street":"独鈷沢"},{"zipCode":"3212404","prefectureKana":"ﾄﾁｷﾞｹﾝ","cityKana":"ﾆｯｺｳｼ","streetKana":"ﾄﾄﾞﾛｸ","prefecture":"栃木県","city":"日光市","street":"轟"},{"zipCode":"3212414","prefectureKana":"ﾄﾁｷﾞｹﾝ","cityKana":"ﾆｯｺｳｼ","streetKana":"ﾄﾖﾀﾞ","prefecture":"栃木県","city":"日光市","street":"豊田"},{"zipCode":"3212714","prefectureKana":"ﾄﾁｷﾞｹﾝ","cityKana":"ﾆｯｺｳｼ","streetKana":"ﾄﾞﾛﾌﾞ","prefecture":"栃木県","city":"日光市","street":"土呂部"},{"zipCode":"3211354","prefectureKana":"ﾄﾁｷﾞｹﾝ","cityKana":"ﾆｯｺｳｼ","streetKana":"ﾅｶｵｺﾛｶﾞﾜ","prefecture":"栃木県","city":"日光市","street":"中小来川"},{"zipCode":"3211108","prefectureKana":"ﾄﾁｷﾞｹﾝ","cityKana":"ﾆｯｺｳｼ","streetKana":"ﾅｶﾞﾊﾀ","prefecture":"栃木県","city":"日光市","street":"長畑"},{"zipCode":"3211402","prefectureKana":"ﾄﾁｷﾞｹﾝ","cityKana":"ﾆｯｺｳｼ","streetKana":"ﾅｶﾊﾂｲｼﾏﾁ","prefecture":"栃木県","city":"日光市","street":"中鉢石町"},{"zipCode":"3212803","prefectureKana":"ﾄﾁｷﾞｹﾝ","cityKana":"ﾆｯｺｳｼ","streetKana":"ﾅｶﾐﾖﾘ","prefecture":"栃木県","city":"日光市","street":"中三依"},{"zipCode":"3211271","prefectureKana":"ﾄﾁｷﾞｹﾝ","cityKana":"ﾆｯｺｳｼ","streetKana":"ﾅﾐｷﾁｮｳ","prefecture":"栃木県","city":"日光市","street":"並木町"},{"zipCode":"3211355","prefectureKana":"ﾄﾁｷﾞｹﾝ","cityKana":"ﾆｯｺｳｼ","streetKana":"ﾆｼｵｺﾛｶﾞﾜ","prefecture":"栃木県","city":"日光市","street":"西小来川"},{"zipCode":"3212603","prefectureKana":"ﾄﾁｷﾞｹﾝ","cityKana":"ﾆｯｺｳｼ","streetKana":"ﾆｼｶﾜ","prefecture":"栃木県","city":"日光市","street":"西川"},{"zipCode":"3211415","prefectureKana":"ﾄﾁｷﾞｹﾝ","cityKana":"ﾆｯｺｳｼ","streetKana":"ﾆｯｺｳ","prefecture":"栃木県","city":"日光市","street":"日光"},{"zipCode":"3212342","prefectureKana":"ﾄﾁｷﾞｹﾝ","cityKana":"ﾆｯｺｳｼ","streetKana":"ﾈﾑﾛ","prefecture":"栃木県","city":"日光市","street":"根室"},{"zipCode":"3212716","prefectureKana":"ﾄﾁｷﾞｹﾝ","cityKana":"ﾆｯｺｳｼ","streetKana":"ﾉｶﾄﾞ","prefecture":"栃木県","city":"日光市","street":"野門"},{"zipCode":"3211424","prefectureKana":"ﾄﾁｷﾞｹﾝ","cityKana":"ﾆｯｺｳｼ","streetKana":"ﾉｸﾞﾁ","prefecture":"栃木県","city":"日光市","street":"野口"},{"zipCode":"3211435","prefectureKana":"ﾄﾁｷﾞｹﾝ","cityKana":"ﾆｯｺｳｼ","streetKana":"ﾊﾅｲｼﾁｮｳ","prefecture":"栃木県","city":"日光市","street":"花石町"},{"zipCode":"3212423","prefectureKana":"ﾄﾁｷﾞｹﾝ","cityKana":"ﾆｯｺｳｼ","streetKana":"ﾊﾗｼﾞｭｸ","prefecture":"栃木県","city":"日光市","street":"原宿"},{"zipCode":"3212331","prefectureKana":"ﾄﾁｷﾞｹﾝ","cityKana":"ﾆｯｺｳｼ","streetKana":"ﾊﾘｶﾞｲ","prefecture":"栃木県","city":"日光市","street":"針貝"},{"zipCode":"3211414","prefectureKana":"ﾄﾁｷﾞｹﾝ","cityKana":"ﾆｯｺｳｼ","streetKana":"ﾊﾝｶﾞｷﾒﾝ","prefecture":"栃木県","city":"日光市","street":"萩垣面"},{"zipCode":"3212712","prefectureKana":"ﾄﾁｷﾞｹﾝ","cityKana":"ﾆｯｺｳｼ","streetKana":"ﾋｶｹﾞ","prefecture":"栃木県","city":"日光市","street":"日蔭"},{"zipCode":"3211351","prefectureKana":"ﾄﾁｷﾞｹﾝ","cityKana":"ﾆｯｺｳｼ","streetKana":"ﾋｶﾞｼｵｺﾛｶﾞﾜ","prefecture":"栃木県","city":"日光市","street":"東小来川"},{"zipCode":"3212602","prefectureKana":"ﾄﾁｷﾞｹﾝ","cityKana":"ﾆｯｺｳｼ","streetKana":"ﾋﾄﾂｲｼ","prefecture":"栃木県","city":"日光市","street":"一ツ石"},{"zipCode":"3212711","prefectureKana":"ﾄﾁｷﾞｹﾝ","cityKana":"ﾆｯｺｳｼ","streetKana":"ﾋﾅﾀ","prefecture":"栃木県","city":"日光市","street":"日向"},{"zipCode":"3211262","prefectureKana":"ﾄﾁｷﾞｹﾝ","cityKana":"ﾆｯｺｳｼ","streetKana":"ﾋﾗｶﾞｻｷ","prefecture":"栃木県","city":"日光市","street":"平ケ崎"},{"zipCode":"3212613","prefectureKana":"ﾄﾁｷﾞｹﾝ","cityKana":"ﾆｯｺｳｼ","streetKana":"ﾌｼﾞﾊﾗ(1047-1268ｵﾖﾋﾞｼﾓﾀｲﾗ)","prefecture":"栃木県","city":"日光市","street":"藤原（１０４７～１２６８及び下平）"},{"zipCode":"3212521","prefectureKana":"ﾄﾁｷﾞｹﾝ","cityKana":"ﾆｯｺｳｼ","streetKana":"ﾌｼﾞﾊﾗ(ｿﾉﾀ)","prefecture":"栃木県","city":"日光市","street":"藤原（その他）"},{"zipCode":"3211105","prefectureKana":"ﾄﾁｷﾞｹﾝ","cityKana":"ﾆｯｺｳｼ","streetKana":"ﾌﾊﾞｻﾐﾏﾁ","prefecture":"栃木県","city":"日光市","street":"文挾町"},{"zipCode":"3211422","prefectureKana":"ﾄﾁｷﾞｹﾝ","cityKana":"ﾆｯｺｳｼ","streetKana":"ﾎｳﾃﾞﾝ","prefecture":"栃木県","city":"日光市","street":"宝殿"},{"zipCode":"3211445","prefectureKana":"ﾄﾁｷﾞｹﾝ","cityKana":"ﾆｯｺｳｼ","streetKana":"ﾎｿｵﾏﾁ","prefecture":"栃木県","city":"日光市","street":"細尾町"},{"zipCode":"3211434","prefectureKana":"ﾄﾁｷﾞｹﾝ","cityKana":"ﾆｯｺｳｼ","streetKana":"ﾎﾝﾁｮｳ","prefecture":"栃木県","city":"日光市","street":"本町"},{"zipCode":"3212403","prefectureKana":"ﾄﾁｷﾞｹﾝ","cityKana":"ﾆｯｺｳｼ","streetKana":"ﾏﾁﾔ","prefecture":"栃木県","city":"日光市","street":"町谷"},{"zipCode":"3211406","prefectureKana":"ﾄﾁｷﾞｹﾝ","cityKana":"ﾆｯｺｳｼ","streetKana":"ﾏﾂﾊﾞﾗﾁｮｳ","prefecture":"栃木県","city":"日光市","street":"松原町"},{"zipCode":"3212334","prefectureKana":"ﾄﾁｷﾞｹﾝ","cityKana":"ﾆｯｺｳｼ","streetKana":"ﾐｽﾞﾅｼ","prefecture":"栃木県","city":"日光市","street":"水無"},{"zipCode":"3211353","prefectureKana":"ﾄﾁｷﾞｹﾝ","cityKana":"ﾆｯｺｳｼ","streetKana":"ﾐﾅﾐｵｺﾛｶﾞﾜ","prefecture":"栃木県","city":"日光市","street":"南小来川"},{"zipCode":"3211352","prefectureKana":"ﾄﾁｷﾞｹﾝ","cityKana":"ﾆｯｺｳｼ","streetKana":"ﾐﾔｵｺﾛｶﾞﾜ","prefecture":"栃木県","city":"日光市","street":"宮小来川"},{"zipCode":"3211101","prefectureKana":"ﾄﾁｷﾞｹﾝ","cityKana":"ﾆｯｺｳｼ","streetKana":"ﾐｮｳｼﾞﾝ","prefecture":"栃木県","city":"日光市","street":"明神"},{"zipCode":"3211275","prefectureKana":"ﾄﾁｷﾞｹﾝ","cityKana":"ﾆｯｺｳｼ","streetKana":"ﾑﾛｾﾞ","prefecture":"栃木県","city":"日光市","street":"室瀬"},{"zipCode":"3212335","prefectureKana":"ﾄﾁｷﾞｹﾝ","cityKana":"ﾆｯｺｳｼ","streetKana":"ﾓﾘﾄﾓ","prefecture":"栃木県","city":"日光市","street":"森友"},{"zipCode":"3211432","prefectureKana":"ﾄﾁｷﾞｹﾝ","cityKana":"ﾆｯｺｳｼ","streetKana":"ﾔｽｶﾜﾁｮｳ","prefecture":"栃木県","city":"日光市","street":"安川町"},{"zipCode":"3212356","prefectureKana":"ﾄﾁｷﾞｹﾝ","cityKana":"ﾆｯｺｳｼ","streetKana":"ﾔﾉｸﾁ","prefecture":"栃木県","city":"日光市","street":"矢野口"},{"zipCode":"3212343","prefectureKana":"ﾄﾁｷﾞｹﾝ","cityKana":"ﾆｯｺｳｼ","streetKana":"ﾔﾏｸﾞﾁ","prefecture":"栃木県","city":"日光市","street":"山口"},{"zipCode":"3211426","prefectureKana":"ﾄﾁｷﾞｹﾝ","cityKana":"ﾆｯｺｳｼ","streetKana":"ﾔﾏｸﾎﾞ","prefecture":"栃木県","city":"日光市","street":"山久保"},{"zipCode":"3212601","prefectureKana":"ﾄﾁｷﾞｹﾝ","cityKana":"ﾆｯｺｳｼ","streetKana":"ﾕﾆｼｶﾜ","prefecture":"栃木県","city":"日光市","street":"湯西川"},{"zipCode":"3211662","prefectureKana":"ﾄﾁｷﾞｹﾝ","cityKana":"ﾆｯｺｳｼ","streetKana":"ﾕﾓﾄ","prefecture":"栃木県","city":"日光市","street":"湯元"},{"zipCode":"3212801","prefectureKana":"ﾄﾁｷﾞｹﾝ","cityKana":"ﾆｯｺｳｼ","streetKana":"ﾖｺｶﾜ","prefecture":"栃木県","city":"日光市","street":"横川"},{"zipCode":"3211407","prefectureKana":"ﾄﾁｷﾞｹﾝ","cityKana":"ﾆｯｺｳｼ","streetKana":"ﾜｶｽｷﾞﾁｮｳ","prefecture":"栃木県","city":"日光市","street":"若杉町"},{"zipCode":"3212718","prefectureKana":"ﾄﾁｷﾞｹﾝ","cityKana":"ﾆｯｺｳｼ","streetKana":"ﾜｶﾏ","prefecture":"栃木県","city":"日光市","street":"若間"},{"zipCode":"3214300","prefectureKana":"ﾄﾁｷﾞｹﾝ","cityKana":"ﾓｵｶｼ","streetKana":"ｲｶﾆｹｲｻｲｶﾞﾅｲﾊﾞｱｲ","prefecture":"栃木県","city":"真岡市","street":"以下に掲載がない場合"},{"zipCode":"3214531","prefectureKana":"ﾄﾁｷﾞｹﾝ","cityKana":"ﾓｵｶｼ","streetKana":"ｱｵﾀ","prefecture":"栃木県","city":"真岡市","street":"青田"},{"zipCode":"3214312","prefectureKana":"ﾄﾁｷﾞｹﾝ","cityKana":"ﾓｵｶｼ","streetKana":"ｱｵﾔ","prefecture":"栃木県","city":"真岡市","street":"青谷"},{"zipCode":"3214401","prefectureKana":"ﾄﾁｷﾞｹﾝ","cityKana":"ﾓｵｶｼ","streetKana":"ｱｶﾊﾞﾈ","prefecture":"栃木県","city":"真岡市","street":"赤羽"},{"zipCode":"3214512","prefectureKana":"ﾄﾁｷﾞｹﾝ","cityKana":"ﾓｵｶｼ","streetKana":"ｱﾍﾞｵｶ","prefecture":"栃木県","city":"真岡市","street":"阿部岡"},{"zipCode":"3214517","prefectureKana":"ﾄﾁｷﾞｹﾝ","cityKana":"ﾓｵｶｼ","streetKana":"ｱﾍﾞｼﾅ","prefecture":"栃木県","city":"真岡市","street":"阿部品"},{"zipCode":"3214305","prefectureKana":"ﾄﾁｷﾞｹﾝ","cityKana":"ﾓｵｶｼ","streetKana":"ｱﾗﾏﾁ","prefecture":"栃木県","city":"真岡市","street":"荒町"},{"zipCode":"3214405","prefectureKana":"ﾄﾁｷﾞｹﾝ","cityKana":"ﾓｵｶｼ","streetKana":"ｲｲｶﾞｲ","prefecture":"栃木県","city":"真岡市","street":"飯貝"},{"zipCode":"3214546","prefectureKana":"ﾄﾁｷﾞｹﾝ","cityKana":"ﾓｵｶｼ","streetKana":"ｲｻｶﾞﾊﾗ","prefecture":"栃木県","city":"真岡市","street":"砂ケ原"},{"zipCode":"3214507","prefectureKana":"ﾄﾁｷﾞｹﾝ","cityKana":"ﾓｵｶｼ","streetKana":"ｲｼｼﾞﾏ","prefecture":"栃木県","city":"真岡市","street":"石島"},{"zipCode":"3214342","prefectureKana":"ﾄﾁｷﾞｹﾝ","cityKana":"ﾓｵｶｼ","streetKana":"ｲｾｻｷ","prefecture":"栃木県","city":"真岡市","street":"伊勢崎"},{"zipCode":"3214356","prefectureKana":"ﾄﾁｷﾞｹﾝ","cityKana":"ﾓｵｶｼ","streetKana":"ｵｵﾇﾏ","prefecture":"栃木県","city":"真岡市","street":"大沼"},{"zipCode":"3214506","prefectureKana":"ﾄﾁｷﾞｹﾝ","cityKana":"ﾓｵｶｼ","streetKana":"ｵｵﾈﾀﾞ","prefecture":"栃木県","city":"真岡市","street":"大根田"},{"zipCode":"3214332","prefectureKana":"ﾄﾁｷﾞｹﾝ","cityKana":"ﾓｵｶｼ","streetKana":"ｵｵﾔｼﾝﾏﾁ","prefecture":"栃木県","city":"真岡市","street":"大谷新町"},{"zipCode":"3214338","prefectureKana":"ﾄﾁｷﾞｹﾝ","cityKana":"ﾓｵｶｼ","streetKana":"ｵｵﾔﾀﾞｲﾏﾁ","prefecture":"栃木県","city":"真岡市","street":"大谷台町"},{"zipCode":"3214333","prefectureKana":"ﾄﾁｷﾞｹﾝ","cityKana":"ﾓｵｶｼ","streetKana":"ｵｵﾔﾎﾝﾏﾁ","prefecture":"栃木県","city":"真岡市","street":"大谷本町"},{"zipCode":"3214508","prefectureKana":"ﾄﾁｷﾞｹﾝ","cityKana":"ﾓｵｶｼ","streetKana":"ｵｵﾜﾀﾞ","prefecture":"栃木県","city":"真岡市","street":"大和田"},{"zipCode":"3214505","prefectureKana":"ﾄﾁｷﾞｹﾝ","cityKana":"ﾓｵｶｼ","streetKana":"ｵｷ","prefecture":"栃木県","city":"真岡市","street":"沖"},{"zipCode":"3214347","prefectureKana":"ﾄﾁｷﾞｹﾝ","cityKana":"ﾓｵｶｼ","streetKana":"ｶｸﾗ","prefecture":"栃木県","city":"真岡市","street":"加倉"},{"zipCode":"3214353","prefectureKana":"ﾄﾁｷﾞｹﾝ","cityKana":"ﾓｵｶｼ","streetKana":"ｶｽﾀﾞ","prefecture":"栃木県","city":"真岡市","street":"粕田"},{"zipCode":"3214366","prefectureKana":"ﾄﾁｷﾞｹﾝ","cityKana":"ﾓｵｶｼ","streetKana":"ｶﾂｳﾘ","prefecture":"栃木県","city":"真岡市","street":"勝瓜"},{"zipCode":"3214536","prefectureKana":"ﾄﾁｷﾞｹﾝ","cityKana":"ﾓｵｶｼ","streetKana":"ｶﾐｴﾂﾞﾗ","prefecture":"栃木県","city":"真岡市","street":"上江連"},{"zipCode":"3214542","prefectureKana":"ﾄﾁｷﾞｹﾝ","cityKana":"ﾓｵｶｼ","streetKana":"ｶﾐｵｵｿﾞ","prefecture":"栃木県","city":"真岡市","street":"上大曽"},{"zipCode":"3214411","prefectureKana":"ﾄﾁｷﾞｹﾝ","cityKana":"ﾓｵｶｼ","streetKana":"ｶﾐｵｵﾀﾞﾜ","prefecture":"栃木県","city":"真岡市","street":"上大田和"},{"zipCode":"3214355","prefectureKana":"ﾄﾁｷﾞｹﾝ","cityKana":"ﾓｵｶｼ","streetKana":"ｶﾐｵｵﾇﾏ","prefecture":"栃木県","city":"真岡市","street":"上大沼"},{"zipCode":"3214337","prefectureKana":"ﾄﾁｷﾞｹﾝ","cityKana":"ﾓｵｶｼ","streetKana":"ｶﾐｺｳﾏｷﾞ","prefecture":"栃木県","city":"真岡市","street":"上高間木"},{"zipCode":"3214416","prefectureKana":"ﾄﾁｷﾞｹﾝ","cityKana":"ﾓｵｶｼ","streetKana":"ｶﾐｻｷﾞﾉﾔ","prefecture":"栃木県","city":"真岡市","street":"上鷺谷"},{"zipCode":"3214541","prefectureKana":"ﾄﾁｷﾞｹﾝ","cityKana":"ﾓｵｶｼ","streetKana":"ｶﾐﾔｶﾞｲ","prefecture":"栃木県","city":"真岡市","street":"上谷貝"},{"zipCode":"3214363","prefectureKana":"ﾄﾁｷﾞｹﾝ","cityKana":"ﾓｵｶｼ","streetKana":"ｶﾒﾔﾏ","prefecture":"栃木県","city":"真岡市","street":"亀山"},{"zipCode":"3214344","prefectureKana":"ﾄﾁｷﾞｹﾝ","cityKana":"ﾓｵｶｼ","streetKana":"ｶﾔﾂﾂﾐ","prefecture":"栃木県","city":"真岡市","street":"茅堤"},{"zipCode":"3214367","prefectureKana":"ﾄﾁｷﾞｹﾝ","cityKana":"ﾓｵｶｼ","streetKana":"ｷﾇｶﾞｵｶ","prefecture":"栃木県","city":"真岡市","street":"鬼怒ケ丘"},{"zipCode":"3214316","prefectureKana":"ﾄﾁｷﾞｹﾝ","cityKana":"ﾓｵｶｼ","streetKana":"ｷﾐｼﾞﾏ","prefecture":"栃木県","city":"真岡市","street":"君島"},{"zipCode":"3214406","prefectureKana":"ﾄﾁｷﾞｹﾝ","cityKana":"ﾓｵｶｼ","streetKana":"ｷｮｳｾﾝ","prefecture":"栃木県","city":"真岡市","street":"京泉"},{"zipCode":"3214521","prefectureKana":"ﾄﾁｷﾞｹﾝ","cityKana":"ﾓｵｶｼ","streetKana":"ｸｹﾞﾀ","prefecture":"栃木県","city":"真岡市","street":"久下田"},{"zipCode":"3214522","prefectureKana":"ﾄﾁｷﾞｹﾝ","cityKana":"ﾓｵｶｼ","streetKana":"ｸｹﾞﾀﾆｼ","prefecture":"栃木県","city":"真岡市","street":"久下田西"},{"zipCode":"3214369","prefectureKana":"ﾄﾁｷﾞｹﾝ","cityKana":"ﾓｵｶｼ","streetKana":"ｸﾏｸﾗ","prefecture":"栃木県","city":"真岡市","street":"熊倉"},{"zipCode":"3214362","prefectureKana":"ﾄﾁｷﾞｹﾝ","cityKana":"ﾓｵｶｼ","streetKana":"ｸﾏｸﾗﾁｮｳ","prefecture":"栃木県","city":"真岡市","street":"熊倉町"},{"zipCode":"3214503","prefectureKana":"ﾄﾁｷﾞｹﾝ","cityKana":"ﾓｵｶｼ","streetKana":"ｸﾜﾉｶﾞﾜ","prefecture":"栃木県","city":"真岡市","street":"桑ノ川"},{"zipCode":"3214343","prefectureKana":"ﾄﾁｷﾞｹﾝ","cityKana":"ﾓｵｶｼ","streetKana":"ｺﾊﾞｼ","prefecture":"栃木県","city":"真岡市","street":"小橋"},{"zipCode":"3214321","prefectureKana":"ﾄﾁｷﾞｹﾝ","cityKana":"ﾓｵｶｼ","streetKana":"ｺﾊﾞﾔｼ","prefecture":"栃木県","city":"真岡市","street":"小林"},{"zipCode":"3214535","prefectureKana":"ﾄﾁｷﾞｹﾝ","cityKana":"ﾓｵｶｼ","streetKana":"ｺﾔﾏ","prefecture":"栃木県","city":"真岡市","street":"古山"},{"zipCode":"3214534","prefectureKana":"ﾄﾁｷﾞｹﾝ","cityKana":"ﾓｵｶｼ","streetKana":"ｻｶｲ","prefecture":"栃木県","city":"真岡市","street":"境"},{"zipCode":"3214523","prefectureKana":"ﾄﾁｷﾞｹﾝ","cityKana":"ﾓｵｶｼ","streetKana":"ｻｸﾗ","prefecture":"栃木県","city":"真岡市","street":"さくら"},{"zipCode":"3214315","prefectureKana":"ﾄﾁｷﾞｹﾝ","cityKana":"ﾓｵｶｼ","streetKana":"ｻﾔﾄﾞ","prefecture":"栃木県","city":"真岡市","street":"道祖土"},{"zipCode":"3214504","prefectureKana":"ﾄﾁｷﾞｹﾝ","cityKana":"ﾓｵｶｼ","streetKana":"ｼｶ","prefecture":"栃木県","city":"真岡市","street":"鹿"},{"zipCode":"3214326","prefectureKana":"ﾄﾁｷﾞｹﾝ","cityKana":"ﾓｵｶｼ","streetKana":"ｼﾏ","prefecture":"栃木県","city":"真岡市","street":"島"},{"zipCode":"3214402","prefectureKana":"ﾄﾁｷﾞｹﾝ","cityKana":"ﾓｵｶｼ","streetKana":"ｼﾐｽﾞ","prefecture":"栃木県","city":"真岡市","street":"清水"},{"zipCode":"3214543","prefectureKana":"ﾄﾁｷﾞｹﾝ","cityKana":"ﾓｵｶｼ","streetKana":"ｼﾓｵｵｿﾞ","prefecture":"栃木県","city":"真岡市","street":"下大曽"},{"zipCode":"3214413","prefectureKana":"ﾄﾁｷﾞｹﾝ","cityKana":"ﾓｵｶｼ","streetKana":"ｼﾓｵｵﾀﾞﾜ","prefecture":"栃木県","city":"真岡市","street":"下大田和"},{"zipCode":"3214357","prefectureKana":"ﾄﾁｷﾞｹﾝ","cityKana":"ﾓｵｶｼ","streetKana":"ｼﾓｵｵﾇﾏ","prefecture":"栃木県","city":"真岡市","street":"下大沼"},{"zipCode":"3214335","prefectureKana":"ﾄﾁｷﾞｹﾝ","cityKana":"ﾓｵｶｼ","streetKana":"ｼﾓｺｳﾏｷﾞ","prefecture":"栃木県","city":"真岡市","street":"下高間木"},{"zipCode":"3214415","prefectureKana":"ﾄﾁｷﾞｹﾝ","cityKana":"ﾓｵｶｼ","streetKana":"ｼﾓｺﾓﾘﾔ","prefecture":"栃木県","city":"真岡市","street":"下籠谷"},{"zipCode":"3214414","prefectureKana":"ﾄﾁｷﾞｹﾝ","cityKana":"ﾓｵｶｼ","streetKana":"ｼﾓｻｷﾞﾉﾔ","prefecture":"栃木県","city":"真岡市","street":"下鷺谷"},{"zipCode":"3214313","prefectureKana":"ﾄﾁｷﾞｹﾝ","cityKana":"ﾓｵｶｼ","streetKana":"ｽｶﾞﾏ","prefecture":"栃木県","city":"真岡市","street":"須釜"},{"zipCode":"3214515","prefectureKana":"ﾄﾁｷﾞｹﾝ","cityKana":"ﾓｵｶｼ","streetKana":"ｿﾘﾏﾁ","prefecture":"栃木県","city":"真岡市","street":"反町"},{"zipCode":"3214545","prefectureKana":"ﾄﾁｷﾞｹﾝ","cityKana":"ﾓｵｶｼ","streetKana":"ﾀﾞｲﾄﾞｳｲｽﾞﾐ","prefecture":"栃木県","city":"真岡市","street":"大道泉"},{"zipCode":"3214306","prefectureKana":"ﾄﾁｷﾞｹﾝ","cityKana":"ﾓｵｶｼ","streetKana":"ﾀﾞｲﾏﾁ","prefecture":"栃木県","city":"真岡市","street":"台町"},{"zipCode":"3214341","prefectureKana":"ﾄﾁｷﾞｹﾝ","cityKana":"ﾓｵｶｼ","streetKana":"ﾀｶｾﾁｮｳ","prefecture":"栃木県","city":"真岡市","street":"高勢町"},{"zipCode":"3214511","prefectureKana":"ﾄﾁｷﾞｹﾝ","cityKana":"ﾓｵｶｼ","streetKana":"ﾀｶﾀﾞ","prefecture":"栃木県","city":"真岡市","street":"高田"},{"zipCode":"3214404","prefectureKana":"ﾄﾁｷﾞｹﾝ","cityKana":"ﾓｵｶｼ","streetKana":"ﾀｼﾞﾏ","prefecture":"栃木県","city":"真岡市","street":"田島"},{"zipCode":"3214325","prefectureKana":"ﾄﾁｷﾞｹﾝ","cityKana":"ﾓｵｶｼ","streetKana":"ﾀﾏﾁ","prefecture":"栃木県","city":"真岡市","street":"田町"},{"zipCode":"3214302","prefectureKana":"ﾄﾁｷﾞｹﾝ","cityKana":"ﾓｵｶｼ","streetKana":"ﾂﾙﾀ","prefecture":"栃木県","city":"真岡市","street":"鶴田"},{"zipCode":"3214345","prefectureKana":"ﾄﾁｷﾞｹﾝ","cityKana":"ﾓｵｶｼ","streetKana":"ﾃﾗｳﾁ","prefecture":"栃木県","city":"真岡市","street":"寺内"},{"zipCode":"3214368","prefectureKana":"ﾄﾁｷﾞｹﾝ","cityKana":"ﾓｵｶｼ","streetKana":"ﾃﾗｸﾎﾞ","prefecture":"栃木県","city":"真岡市","street":"寺久保"},{"zipCode":"3214354","prefectureKana":"ﾄﾁｷﾞｹﾝ","cityKana":"ﾓｵｶｼ","streetKana":"ﾃﾗﾌﾞﾝ","prefecture":"栃木県","city":"真岡市","street":"寺分"},{"zipCode":"3214309","prefectureKana":"ﾄﾁｷﾞｹﾝ","cityKana":"ﾓｵｶｼ","streetKana":"ﾄｳｺｳｼﾞ","prefecture":"栃木県","city":"真岡市","street":"東光寺"},{"zipCode":"3214351","prefectureKana":"ﾄﾁｷﾞｹﾝ","cityKana":"ﾓｵｶｼ","streetKana":"ﾅｶ","prefecture":"栃木県","city":"真岡市","street":"中"},{"zipCode":"3214308","prefectureKana":"ﾄﾁｷﾞｹﾝ","cityKana":"ﾓｵｶｼ","streetKana":"ﾅｶｺﾞｳ","prefecture":"栃木県","city":"真岡市","street":"中郷"},{"zipCode":"3214532","prefectureKana":"ﾄﾁｷﾞｹﾝ","cityKana":"ﾓｵｶｼ","streetKana":"ﾅｶﾞｼﾏ","prefecture":"栃木県","city":"真岡市","street":"長島"},{"zipCode":"3214364","prefectureKana":"ﾄﾁｷﾞｹﾝ","cityKana":"ﾓｵｶｼ","streetKana":"ﾅｶﾞﾀ","prefecture":"栃木県","city":"真岡市","street":"長田"},{"zipCode":"3214539","prefectureKana":"ﾄﾁｷﾞｹﾝ","cityKana":"ﾓｵｶｼ","streetKana":"ﾅｶﾞﾇﾏ","prefecture":"栃木県","city":"真岡市","street":"長沼"},{"zipCode":"3214361","prefectureKana":"ﾄﾁｷﾞｹﾝ","cityKana":"ﾓｵｶｼ","streetKana":"ﾅﾐｷﾁｮｳ","prefecture":"栃木県","city":"真岡市","street":"並木町"},{"zipCode":"3214537","prefectureKana":"ﾄﾁｷﾞｹﾝ","cityKana":"ﾓｵｶｼ","streetKana":"ﾆｼｵｵｼﾞﾏ","prefecture":"栃木県","city":"真岡市","street":"西大島"},{"zipCode":"3214336","prefectureKana":"ﾄﾁｷﾞｹﾝ","cityKana":"ﾓｵｶｼ","streetKana":"ﾆｼｺｳﾏｷﾞ","prefecture":"栃木県","city":"真岡市","street":"西高間木"},{"zipCode":"3214307","prefectureKana":"ﾄﾁｷﾞｹﾝ","cityKana":"ﾓｵｶｼ","streetKana":"ﾆｼｺﾞｳ","prefecture":"栃木県","city":"真岡市","street":"西郷"},{"zipCode":"3214301","prefectureKana":"ﾄﾁｷﾞｹﾝ","cityKana":"ﾓｵｶｼ","streetKana":"ﾆｼﾀﾞｲ","prefecture":"栃木県","city":"真岡市","street":"西田井"},{"zipCode":"3214324","prefectureKana":"ﾄﾁｷﾞｹﾝ","cityKana":"ﾓｵｶｼ","streetKana":"ﾆｼﾇﾏ","prefecture":"栃木県","city":"真岡市","street":"西沼"},{"zipCode":"3214516","prefectureKana":"ﾄﾁｷﾞｹﾝ","cityKana":"ﾓｵｶｼ","streetKana":"ﾈｺﾞﾔ","prefecture":"栃木県","city":"真岡市","street":"根小屋"},{"zipCode":"3214311","prefectureKana":"ﾄﾁｷﾞｹﾝ","cityKana":"ﾓｵｶｼ","streetKana":"ﾈﾓﾄ","prefecture":"栃木県","city":"真岡市","street":"根本"},{"zipCode":"3214331","prefectureKana":"ﾄﾁｷﾞｹﾝ","cityKana":"ﾓｵｶｼ","streetKana":"ﾊｸﾌｶﾞｵｶ","prefecture":"栃木県","city":"真岡市","street":"白布ケ丘"},{"zipCode":"3214303","prefectureKana":"ﾄﾁｷﾞｹﾝ","cityKana":"ﾓｵｶｼ","streetKana":"ﾊﾁｼﾞｮｳ","prefecture":"栃木県","city":"真岡市","street":"八條"},{"zipCode":"3214403","prefectureKana":"ﾄﾁｷﾞｹﾝ","cityKana":"ﾓｵｶｼ","streetKana":"ﾊﾗﾏﾁ","prefecture":"栃木県","city":"真岡市","street":"原町"},{"zipCode":"3214322","prefectureKana":"ﾄﾁｷﾞｹﾝ","cityKana":"ﾓｵｶｼ","streetKana":"ﾋｶﾞｼｵｵｼﾏ","prefecture":"栃木県","city":"真岡市","street":"東大島"},{"zipCode":"3214304","prefectureKana":"ﾄﾁｷﾞｹﾝ","cityKana":"ﾓｵｶｼ","streetKana":"ﾋｶﾞｼｺﾞｳ","prefecture":"栃木県","city":"真岡市","street":"東郷"},{"zipCode":"3214323","prefectureKana":"ﾄﾁｷﾞｹﾝ","cityKana":"ﾓｵｶｼ","streetKana":"ﾋｶﾞｼﾇﾏ","prefecture":"栃木県","city":"真岡市","street":"東沼"},{"zipCode":"3214533","prefectureKana":"ﾄﾁｷﾞｹﾝ","cityKana":"ﾓｵｶｼ","streetKana":"ﾎﾄﾞｼﾏ","prefecture":"栃木県","city":"真岡市","street":"程島"},{"zipCode":"3214412","prefectureKana":"ﾄﾁｷﾞｹﾝ","cityKana":"ﾓｵｶｼ","streetKana":"ﾎﾘｳﾁ","prefecture":"栃木県","city":"真岡市","street":"堀内"},{"zipCode":"3214544","prefectureKana":"ﾄﾁｷﾞｹﾝ","cityKana":"ﾓｵｶｼ","streetKana":"ﾎﾘｺﾞﾒ","prefecture":"栃木県","city":"真岡市","street":"堀込"},{"zipCode":"3214346","prefectureKana":"ﾄﾁｷﾞｹﾝ","cityKana":"ﾓｵｶｼ","streetKana":"ﾏﾂﾔﾏﾁｮｳ","prefecture":"栃木県","city":"真岡市","street":"松山町"},{"zipCode":"3214514","prefectureKana":"ﾄﾁｷﾞｹﾝ","cityKana":"ﾓｵｶｼ","streetKana":"ﾐﾄﾍﾞ","prefecture":"栃木県","city":"真岡市","street":"水戸部"},{"zipCode":"3214314","prefectureKana":"ﾄﾁｷﾞｹﾝ","cityKana":"ﾓｵｶｼ","streetKana":"ﾐﾅﾐﾀｶｵｶ","prefecture":"栃木県","city":"真岡市","street":"南高岡"},{"zipCode":"3214513","prefectureKana":"ﾄﾁｷﾞｹﾝ","cityKana":"ﾓｵｶｼ","streetKana":"ﾐﾔ","prefecture":"栃木県","city":"真岡市","street":"三谷"},{"zipCode":"3214502","prefectureKana":"ﾄﾁｷﾞｹﾝ","cityKana":"ﾓｵｶｼ","streetKana":"ﾓﾉｲ","prefecture":"栃木県","city":"真岡市","street":"物井"},{"zipCode":"3214547","prefectureKana":"ﾄﾁｷﾞｹﾝ","cityKana":"ﾓｵｶｼ","streetKana":"ﾔｶﾞｲｼﾝﾃﾞﾝ","prefecture":"栃木県","city":"真岡市","street":"谷貝新田"},{"zipCode":"3214334","prefectureKana":"ﾄﾁｷﾞｹﾝ","cityKana":"ﾓｵｶｼ","streetKana":"ﾔｷﾞｵｶ","prefecture":"栃木県","city":"真岡市","street":"八木岡"},{"zipCode":"3214365","prefectureKana":"ﾄﾁｷﾞｹﾝ","cityKana":"ﾓｵｶｼ","streetKana":"ﾔﾅｷﾞﾊﾞﾔｼ","prefecture":"栃木県","city":"真岡市","street":"柳林"},{"zipCode":"3214501","prefectureKana":"ﾄﾁｷﾞｹﾝ","cityKana":"ﾓｵｶｼ","streetKana":"ﾖｺﾀ","prefecture":"栃木県","city":"真岡市","street":"横田"},{"zipCode":"3214551","prefectureKana":"ﾄﾁｷﾞｹﾝ","cityKana":"ﾓｵｶｼ","streetKana":"ﾜｶﾀﾋﾞ(5ﾁｮｳﾌﾞ)","prefecture":"栃木県","city":"真岡市","street":"若旅（五丁歩）"},{"zipCode":"3214352","prefectureKana":"ﾄﾁｷﾞｹﾝ","cityKana":"ﾓｵｶｼ","streetKana":"ﾜｶﾀﾋﾞ(ｿﾉﾀ)","prefecture":"栃木県","city":"真岡市","street":"若旅（その他）"},{"zipCode":"3214538","prefectureKana":"ﾄﾁｷﾞｹﾝ","cityKana":"ﾓｵｶｼ","streetKana":"ﾜｼﾉｽ","prefecture":"栃木県","city":"真岡市","street":"鷲巣"},{"zipCode":"3210600","prefectureKana":"ﾄﾁｷﾞｹﾝ","cityKana":"ﾅｽｶﾗｽﾔﾏｼ","streetKana":"ｲｶﾆｹｲｻｲｶﾞﾅｲﾊﾞｱｲ","prefecture":"栃木県","city":"那須烏山市","street":"以下に掲載がない場合"},{"zipCode":"3210624","prefectureKana":"ﾄﾁｷﾞｹﾝ","cityKana":"ﾅｽｶﾗｽﾔﾏｼ","streetKana":"ｱｻﾋ","prefecture":"栃木県","city":"那須烏山市","street":"旭"},{"zipCode":"3210629","prefectureKana":"ﾄﾁｷﾞｹﾝ","cityKana":"ﾅｽｶﾗｽﾔﾏｼ","streetKana":"ｱﾀｺﾞﾀﾞｲ","prefecture":"栃木県","city":"那須烏山市","street":"愛宕台"},{"zipCode":"3210521","prefectureKana":"ﾄﾁｷﾞｹﾝ","cityKana":"ﾅｽｶﾗｽﾔﾏｼ","streetKana":"ｲﾜｺ","prefecture":"栃木県","city":"那須烏山市","street":"岩子"},{"zipCode":"3210527","prefectureKana":"ﾄﾁｷﾞｹﾝ","cityKana":"ﾅｽｶﾗｽﾔﾏｼ","streetKana":"ｳｲ","prefecture":"栃木県","city":"那須烏山市","street":"宇井"},{"zipCode":"3210522","prefectureKana":"ﾄﾁｷﾞｹﾝ","cityKana":"ﾅｽｶﾗｽﾔﾏｼ","streetKana":"ｵｵｶﾞﾈ","prefecture":"栃木県","city":"那須烏山市","street":"大金"},{"zipCode":"3210613","prefectureKana":"ﾄﾁｷﾞｹﾝ","cityKana":"ﾅｽｶﾗｽﾔﾏｼ","streetKana":"ｵｵｷﾞｽ","prefecture":"栃木県","city":"那須烏山市","street":"大木須"},{"zipCode":"3210602","prefectureKana":"ﾄﾁｷﾞｹﾝ","cityKana":"ﾅｽｶﾗｽﾔﾏｼ","streetKana":"ｵｵｹ","prefecture":"栃木県","city":"那須烏山市","street":"大桶"},{"zipCode":"3210516","prefectureKana":"ﾄﾁｷﾞｹﾝ","cityKana":"ﾅｽｶﾗｽﾔﾏｼ","streetKana":"ｵｵｻﾄ","prefecture":"栃木県","city":"那須烏山市","street":"大里"},{"zipCode":"3210612","prefectureKana":"ﾄﾁｷﾞｹﾝ","cityKana":"ﾅｽｶﾗｽﾔﾏｼ","streetKana":"ｵｵｻﾜ","prefecture":"栃木県","city":"那須烏山市","street":"大沢"},{"zipCode":"3210528","prefectureKana":"ﾄﾁｷﾞｹﾝ","cityKana":"ﾅｽｶﾗｽﾔﾏｼ","streetKana":"ｵｸﾞﾗ","prefecture":"栃木県","city":"那須烏山市","street":"小倉"},{"zipCode":"3210636","prefectureKana":"ﾄﾁｷﾞｹﾝ","cityKana":"ﾅｽｶﾗｽﾔﾏｼ","streetKana":"ｵﾁｱｲ","prefecture":"栃木県","city":"那須烏山市","street":"落合"},{"zipCode":"3210623","prefectureKana":"ﾄﾁｷﾞｹﾝ","cityKana":"ﾅｽｶﾗｽﾔﾏｼ","streetKana":"ｵﾓﾃ","prefecture":"栃木県","city":"那須烏山市","street":"表"},{"zipCode":"3210628","prefectureKana":"ﾄﾁｷﾞｹﾝ","cityKana":"ﾅｽｶﾗｽﾔﾏｼ","streetKana":"ｶﾅｲ","prefecture":"栃木県","city":"那須烏山市","street":"金井"},{"zipCode":"3210632","prefectureKana":"ﾄﾁｷﾞｹﾝ","cityKana":"ﾅｽｶﾗｽﾔﾏｼ","streetKana":"ｶﾅｶﾞ","prefecture":"栃木県","city":"那須烏山市","street":"神長"},{"zipCode":"3210505","prefectureKana":"ﾄﾁｷﾞｹﾝ","cityKana":"ﾅｽｶﾗｽﾔﾏｼ","streetKana":"ｶﾐｶﾜｲ","prefecture":"栃木県","city":"那須烏山市","street":"上川井"},{"zipCode":"3210617","prefectureKana":"ﾄﾁｷﾞｹﾝ","cityKana":"ﾅｽｶﾗｽﾔﾏｼ","streetKana":"ｶﾐｻﾞｶｲ","prefecture":"栃木県","city":"那須烏山市","street":"上境"},{"zipCode":"3210611","prefectureKana":"ﾄﾁｷﾞｹﾝ","cityKana":"ﾅｽｶﾗｽﾔﾏｼ","streetKana":"ｷｮｳﾉ","prefecture":"栃木県","city":"那須烏山市","street":"興野"},{"zipCode":"3210502","prefectureKana":"ﾄﾁｷﾞｹﾝ","cityKana":"ﾅｽｶﾗｽﾔﾏｼ","streetKana":"ｸﾏﾀﾞ","prefecture":"栃木県","city":"那須烏山市","street":"熊田"},{"zipCode":"3210534","prefectureKana":"ﾄﾁｷﾞｹﾝ","cityKana":"ﾅｽｶﾗｽﾔﾏｼ","streetKana":"ｺｳﾉﾔﾏ","prefecture":"栃木県","city":"那須烏山市","street":"鴻野山"},{"zipCode":"3210511","prefectureKana":"ﾄﾁｷﾞｹﾝ","cityKana":"ﾅｽｶﾗｽﾔﾏｼ","streetKana":"ｺｶﾞﾜﾗ","prefecture":"栃木県","city":"那須烏山市","street":"小河原"},{"zipCode":"3210614","prefectureKana":"ﾄﾁｷﾞｹﾝ","cityKana":"ﾅｽｶﾗｽﾔﾏｼ","streetKana":"ｺｷﾞｽ","prefecture":"栃木県","city":"那須烏山市","street":"小木須"},{"zipCode":"3210535","prefectureKana":"ﾄﾁｷﾞｹﾝ","cityKana":"ﾅｽｶﾗｽﾔﾏｼ","streetKana":"ｺｼﾞﾛｲ","prefecture":"栃木県","city":"那須烏山市","street":"小白井"},{"zipCode":"3210513","prefectureKana":"ﾄﾁｷﾞｹﾝ","cityKana":"ﾅｽｶﾗｽﾔﾏｼ","streetKana":"ｺﾊﾞﾅ","prefecture":"栃木県","city":"那須烏山市","street":"小塙"},{"zipCode":"3210615","prefectureKana":"ﾄﾁｷﾞｹﾝ","cityKana":"ﾅｽｶﾗｽﾔﾏｼ","streetKana":"ｺﾊﾗｻﾞﾜ","prefecture":"栃木県","city":"那須烏山市","street":"小原沢"},{"zipCode":"3210531","prefectureKana":"ﾄﾁｷﾞｹﾝ","cityKana":"ﾅｽｶﾗｽﾔﾏｼ","streetKana":"ｻﾝｶﾞ","prefecture":"栃木県","city":"那須烏山市","street":"三箇"},{"zipCode":"3210501","prefectureKana":"ﾄﾁｷﾞｹﾝ","cityKana":"ﾅｽｶﾗｽﾔﾏｼ","streetKana":"ｼﾄﾘ","prefecture":"栃木県","city":"那須烏山市","street":"志鳥"},{"zipCode":"3210504","prefectureKana":"ﾄﾁｷﾞｹﾝ","cityKana":"ﾅｽｶﾗｽﾔﾏｼ","streetKana":"ｼﾓｶﾜｲ","prefecture":"栃木県","city":"那須烏山市","street":"下川井"},{"zipCode":"3210616","prefectureKana":"ﾄﾁｷﾞｹﾝ","cityKana":"ﾅｽｶﾗｽﾔﾏｼ","streetKana":"ｼﾓｻﾞｶｲ","prefecture":"栃木県","city":"那須烏山市","street":"下境"},{"zipCode":"3210622","prefectureKana":"ﾄﾁｷﾞｹﾝ","cityKana":"ﾅｽｶﾗｽﾔﾏｼ","streetKana":"ｼﾞｮｳﾄｳ","prefecture":"栃木県","city":"那須烏山市","street":"城東"},{"zipCode":"3210601","prefectureKana":"ﾄﾁｷﾞｹﾝ","cityKana":"ﾅｽｶﾗｽﾔﾏｼ","streetKana":"ｼﾗｸ","prefecture":"栃木県","city":"那須烏山市","street":"白久"},{"zipCode":"3210631","prefectureKana":"ﾄﾁｷﾞｹﾝ","cityKana":"ﾅｽｶﾗｽﾔﾏｼ","streetKana":"ｼﾛﾔﾏ","prefecture":"栃木県","city":"那須烏山市","street":"城山"},{"zipCode":"3210523","prefectureKana":"ﾄﾁｷﾞｹﾝ","cityKana":"ﾅｽｶﾗｽﾔﾏｼ","streetKana":"ｿﾘﾊﾀ","prefecture":"栃木県","city":"那須烏山市","street":"曲畑"},{"zipCode":"3210512","prefectureKana":"ﾄﾁｷﾞｹﾝ","cityKana":"ﾅｽｶﾗｽﾔﾏｼ","streetKana":"ﾀｶｾ","prefecture":"栃木県","city":"那須烏山市","street":"高瀬"},{"zipCode":"3210633","prefectureKana":"ﾄﾁｷﾞｹﾝ","cityKana":"ﾅｽｶﾗｽﾔﾏｼ","streetKana":"ﾀｷ","prefecture":"栃木県","city":"那須烏山市","street":"滝"},{"zipCode":"3210605","prefectureKana":"ﾄﾁｷﾞｹﾝ","cityKana":"ﾅｽｶﾗｽﾔﾏｼ","streetKana":"ﾀｷﾀ","prefecture":"栃木県","city":"那須烏山市","street":"滝田"},{"zipCode":"3210526","prefectureKana":"ﾄﾁｷﾞｹﾝ","cityKana":"ﾅｽｶﾗｽﾔﾏｼ","streetKana":"ﾀﾉｸﾗ","prefecture":"栃木県","city":"那須烏山市","street":"田野倉"},{"zipCode":"3210621","prefectureKana":"ﾄﾁｷﾞｹﾝ","cityKana":"ﾅｽｶﾗｽﾔﾏｼ","streetKana":"ﾁｭｳｵｳ","prefecture":"栃木県","city":"那須烏山市","street":"中央"},{"zipCode":"3210503","prefectureKana":"ﾄﾁｷﾞｹﾝ","cityKana":"ﾅｽｶﾗｽﾔﾏｼ","streetKana":"ﾂｷﾅﾐ","prefecture":"栃木県","city":"那須烏山市","street":"月次"},{"zipCode":"3210517","prefectureKana":"ﾄﾁｷﾞｹﾝ","cityKana":"ﾅｽｶﾗｽﾔﾏｼ","streetKana":"ﾄｳﾊﾞﾗ","prefecture":"栃木県","city":"那須烏山市","street":"東原"},{"zipCode":"3210604","prefectureKana":"ﾄﾁｷﾞｹﾝ","cityKana":"ﾅｽｶﾗｽﾔﾏｼ","streetKana":"ﾅｶﾔﾏ","prefecture":"栃木県","city":"那須烏山市","street":"中山"},{"zipCode":"3210634","prefectureKana":"ﾄﾁｷﾞｹﾝ","cityKana":"ﾅｽｶﾗｽﾔﾏｼ","streetKana":"ﾉｶﾞﾐ","prefecture":"栃木県","city":"那須烏山市","street":"野上"},{"zipCode":"3210626","prefectureKana":"ﾄﾁｷﾞｹﾝ","cityKana":"ﾅｽｶﾗｽﾔﾏｼ","streetKana":"ﾊﾂﾈ","prefecture":"栃木県","city":"那須烏山市","street":"初音"},{"zipCode":"3210525","prefectureKana":"ﾄﾁｷﾞｹﾝ","cityKana":"ﾅｽｶﾗｽﾔﾏｼ","streetKana":"ﾌｸｵｶ","prefecture":"栃木県","city":"那須烏山市","street":"福岡"},{"zipCode":"3210532","prefectureKana":"ﾄﾁｷﾞｹﾝ","cityKana":"ﾅｽｶﾗｽﾔﾏｼ","streetKana":"ﾌｼﾞﾀ","prefecture":"栃木県","city":"那須烏山市","street":"藤田"},{"zipCode":"3210515","prefectureKana":"ﾄﾁｷﾞｹﾝ","cityKana":"ﾅｽｶﾗｽﾔﾏｼ","streetKana":"ﾏｶﾞﾂﾀ","prefecture":"栃木県","city":"那須烏山市","street":"曲田"},{"zipCode":"3210627","prefectureKana":"ﾄﾁｷﾞｹﾝ","cityKana":"ﾅｽｶﾗｽﾔﾏｼ","streetKana":"ﾐﾅﾐ","prefecture":"栃木県","city":"那須烏山市","street":"南"},{"zipCode":"3210533","prefectureKana":"ﾄﾁｷﾞｹﾝ","cityKana":"ﾅｽｶﾗｽﾔﾏｼ","streetKana":"ﾐﾅﾐｵｵﾜｸﾞ","prefecture":"栃木県","city":"那須烏山市","street":"南大和久"},{"zipCode":"3210625","prefectureKana":"ﾄﾁｷﾞｹﾝ","cityKana":"ﾅｽｶﾗｽﾔﾏｼ","streetKana":"ﾐﾔﾊﾞﾗ","prefecture":"栃木県","city":"那須烏山市","street":"宮原"},{"zipCode":"3210635","prefectureKana":"ﾄﾁｷﾞｹﾝ","cityKana":"ﾅｽｶﾗｽﾔﾏｼ","streetKana":"ﾑｶﾀﾞ","prefecture":"栃木県","city":"那須烏山市","street":"向田"},{"zipCode":"3210514","prefectureKana":"ﾄﾁｷﾞｹﾝ","cityKana":"ﾅｽｶﾗｽﾔﾏｼ","streetKana":"ﾓﾘﾀ","prefecture":"栃木県","city":"那須烏山市","street":"森田"},{"zipCode":"3210603","prefectureKana":"ﾄﾁｷﾞｹﾝ","cityKana":"ﾅｽｶﾗｽﾔﾏｼ","streetKana":"ﾔｱｻﾞﾐ","prefecture":"栃木県","city":"那須烏山市","street":"谷浅見"},{"zipCode":"3210524","prefectureKana":"ﾄﾁｷﾞｹﾝ","cityKana":"ﾅｽｶﾗｽﾔﾏｼ","streetKana":"ﾔｶｼﾛ","prefecture":"栃木県","city":"那須烏山市","street":"八ケ代"},{"zipCode":"3210618","prefectureKana":"ﾄﾁｷﾞｹﾝ","cityKana":"ﾅｽｶﾗｽﾔﾏｼ","streetKana":"ﾖｺﾏｸﾗ","prefecture":"栃木県","city":"那須烏山市","street":"横枕"},{"zipCode":"3214200","prefectureKana":"ﾄﾁｷﾞｹﾝ","cityKana":"ﾊｶﾞｸﾞﾝﾏｼｺﾏﾁ","streetKana":"ｲｶﾆｹｲｻｲｶﾞﾅｲﾊﾞｱｲ","prefecture":"栃木県","city":"芳賀郡益子町","street":"以下に掲載がない場合"},{"zipCode":"3214102","prefectureKana":"ﾄﾁｷﾞｹﾝ","cityKana":"ﾊｶﾞｸﾞﾝﾏｼｺﾏﾁ","streetKana":"ｱｼﾇﾏ","prefecture":"栃木県","city":"芳賀郡益子町","street":"芦沼"},{"zipCode":"3214223","prefectureKana":"ﾄﾁｷﾞｹﾝ","cityKana":"ﾊｶﾞｸﾞﾝﾏｼｺﾏﾁ","streetKana":"ｳﾒｶﾞｳﾁ","prefecture":"栃木県","city":"芳賀郡益子町","street":"梅ケ内"},{"zipCode":"3214221","prefectureKana":"ﾄﾁｷﾞｹﾝ","cityKana":"ﾊｶﾞｸﾞﾝﾏｼｺﾏﾁ","streetKana":"ｵｵｺﾞｳﾄﾞ","prefecture":"栃木県","city":"芳賀郡益子町","street":"大郷戸"},{"zipCode":"3214104","prefectureKana":"ﾄﾁｷﾞｹﾝ","cityKana":"ﾊｶﾞｸﾞﾝﾏｼｺﾏﾁ","streetKana":"ｵｵｻﾜ","prefecture":"栃木県","city":"芳賀郡益子町","street":"大沢"},{"zipCode":"3214103","prefectureKana":"ﾄﾁｷﾞｹﾝ","cityKana":"ﾊｶﾞｸﾞﾝﾏｼｺﾏﾁ","streetKana":"ｵｵﾋﾗ","prefecture":"栃木県","city":"芳賀郡益子町","street":"大平"},{"zipCode":"3214101","prefectureKana":"ﾄﾁｷﾞｹﾝ","cityKana":"ﾊｶﾞｸﾞﾝﾏｼｺﾏﾁ","streetKana":"ｵﾔｹ","prefecture":"栃木県","city":"芳賀郡益子町","street":"小宅"},{"zipCode":"3214212","prefectureKana":"ﾄﾁｷﾞｹﾝ","cityKana":"ﾊｶﾞｸﾞﾝﾏｼｺﾏﾁ","streetKana":"ｶﾐｵｵﾊﾞ","prefecture":"栃木県","city":"芳賀郡益子町","street":"上大羽"},{"zipCode":"3214226","prefectureKana":"ﾄﾁｷﾞｹﾝ","cityKana":"ﾊｶﾞｸﾞﾝﾏｼｺﾏﾁ","streetKana":"ｶﾐﾔﾏ","prefecture":"栃木県","city":"芳賀郡益子町","street":"上山"},{"zipCode":"3214105","prefectureKana":"ﾄﾁｷﾞｹﾝ","cityKana":"ﾊｶﾞｸﾞﾝﾏｼｺﾏﾁ","streetKana":"ｷﾀﾅｶ","prefecture":"栃木県","city":"芳賀郡益子町","street":"北中"},{"zipCode":"3214222","prefectureKana":"ﾄﾁｷﾞｹﾝ","cityKana":"ﾊｶﾞｸﾞﾝﾏｼｺﾏﾁ","streetKana":"ｺｲｽﾞﾐ","prefecture":"栃木県","city":"芳賀郡益子町","street":"小泉"},{"zipCode":"3214211","prefectureKana":"ﾄﾁｷﾞｹﾝ","cityKana":"ﾊｶﾞｸﾞﾝﾏｼｺﾏﾁ","streetKana":"ｼﾓｵｵﾊﾞ","prefecture":"栃木県","city":"芳賀郡益子町","street":"下大羽"},{"zipCode":"3214218","prefectureKana":"ﾄﾁｷﾞｹﾝ","cityKana":"ﾊｶﾞｸﾞﾝﾏｼｺﾏﾁ","streetKana":"ｼﾞｮｳﾅｲｻﾞｶ","prefecture":"栃木県","city":"芳賀郡益子町","street":"城内坂"},{"zipCode":"3214225","prefectureKana":"ﾄﾁｷﾞｹﾝ","cityKana":"ﾊｶﾞｸﾞﾝﾏｼｺﾏﾁ","streetKana":"ﾅｶﾞﾂﾂﾐ","prefecture":"栃木県","city":"芳賀郡益子町","street":"長堤"},{"zipCode":"3214106","prefectureKana":"ﾄﾁｷﾞｹﾝ","cityKana":"ﾊｶﾞｸﾞﾝﾏｼｺﾏﾁ","streetKana":"ﾅﾅｲ","prefecture":"栃木県","city":"芳賀郡益子町","street":"七井"},{"zipCode":"3214107","prefectureKana":"ﾄﾁｷﾞｹﾝ","cityKana":"ﾊｶﾞｸﾞﾝﾏｼｺﾏﾁ","streetKana":"ﾅﾅｲﾁｭｳｵｳ","prefecture":"栃木県","city":"芳賀郡益子町","street":"七井中央"},{"zipCode":"3214215","prefectureKana":"ﾄﾁｷﾞｹﾝ","cityKana":"ﾊｶﾞｸﾞﾝﾏｼｺﾏﾁ","streetKana":"ﾅﾊﾞﾀﾒ","prefecture":"栃木県","city":"芳賀郡益子町","street":"生田目"},{"zipCode":"3214216","prefectureKana":"ﾄﾁｷﾞｹﾝ","cityKana":"ﾊｶﾞｸﾞﾝﾏｼｺﾏﾁ","streetKana":"ﾊﾅﾜ","prefecture":"栃木県","city":"芳賀郡益子町","street":"塙"},{"zipCode":"3214227","prefectureKana":"ﾄﾁｷﾞｹﾝ","cityKana":"ﾊｶﾞｸﾞﾝﾏｼｺﾏﾁ","streetKana":"ﾋｶﾞｼﾀﾞｲ","prefecture":"栃木県","city":"芳賀郡益子町","street":"東田井"},{"zipCode":"3214214","prefectureKana":"ﾄﾁｷﾞｹﾝ","cityKana":"ﾊｶﾞｸﾞﾝﾏｼｺﾏﾁ","streetKana":"ﾏｴｻﾞﾜ","prefecture":"栃木県","city":"芳賀郡益子町","street":"前沢"},{"zipCode":"3214217","prefectureKana":"ﾄﾁｷﾞｹﾝ","cityKana":"ﾊｶﾞｸﾞﾝﾏｼｺﾏﾁ","streetKana":"ﾏｼｺ","prefecture":"栃木県","city":"芳賀郡益子町","street":"益子"},{"zipCode":"3214224","prefectureKana":"ﾄﾁｷﾞｹﾝ","cityKana":"ﾊｶﾞｸﾞﾝﾏｼｺﾏﾁ","streetKana":"ﾓﾄﾇﾏ","prefecture":"栃木県","city":"芳賀郡益子町","street":"本沼"},{"zipCode":"3214213","prefectureKana":"ﾄﾁｷﾞｹﾝ","cityKana":"ﾊｶﾞｸﾞﾝﾏｼｺﾏﾁ","streetKana":"ﾔﾏﾓﾄ","prefecture":"栃木県","city":"芳賀郡益子町","street":"山本"},{"zipCode":"3213500","prefectureKana":"ﾄﾁｷﾞｹﾝ","cityKana":"ﾊｶﾞｸﾞﾝﾓﾃｷﾞﾏﾁ","streetKana":"ｲｶﾆｹｲｻｲｶﾞﾅｲﾊﾞｱｲ","prefecture":"栃木県","city":"芳賀郡茂木町","street":"以下に掲載がない場合"},{"zipCode":"3213535","prefectureKana":"ﾄﾁｷﾞｹﾝ","cityKana":"ﾊｶﾞｸﾞﾝﾓﾃｷﾞﾏﾁ","streetKana":"ｱｲﾀﾞ","prefecture":"栃木県","city":"芳賀郡茂木町","street":"鮎田"},{"zipCode":"3213621","prefectureKana":"ﾄﾁｷﾞｹﾝ","cityKana":"ﾊｶﾞｸﾞﾝﾓﾃｷﾞﾏﾁ","streetKana":"ｱﾏｺ","prefecture":"栃木県","city":"芳賀郡茂木町","street":"天子"},{"zipCode":"3213626","prefectureKana":"ﾄﾁｷﾞｹﾝ","cityKana":"ﾊｶﾞｸﾞﾝﾓﾃｷﾞﾏﾁ","streetKana":"ｲｲ","prefecture":"栃木県","city":"芳賀郡茂木町","street":"飯"},{"zipCode":"3213702","prefectureKana":"ﾄﾁｷﾞｹﾝ","cityKana":"ﾊｶﾞｸﾞﾝﾓﾃｷﾞﾏﾁ","streetKana":"ｲｲﾉ","prefecture":"栃木県","city":"芳賀郡茂木町","street":"飯野"},{"zipCode":"3213705","prefectureKana":"ﾄﾁｷﾞｹﾝ","cityKana":"ﾊｶﾞｸﾞﾝﾓﾃｷﾞﾏﾁ","streetKana":"ｲﾘｺﾞｳ","prefecture":"栃木県","city":"芳賀郡茂木町","street":"入郷"},{"zipCode":"3213541","prefectureKana":"ﾄﾁｷﾞｹﾝ","cityKana":"ﾊｶﾞｸﾞﾝﾓﾃｷﾞﾏﾁ","streetKana":"ｳｺﾞｳﾀﾞ","prefecture":"栃木県","city":"芳賀郡茂木町","street":"烏生田"},{"zipCode":"3213561","prefectureKana":"ﾄﾁｷﾞｹﾝ","cityKana":"ﾊｶﾞｸﾞﾝﾓﾃｷﾞﾏﾁ","streetKana":"ｳﾗｺﾞｳ","prefecture":"栃木県","city":"芳賀郡茂木町","street":"後郷"},{"zipCode":"3213534","prefectureKana":"ﾄﾁｷﾞｹﾝ","cityKana":"ﾊｶﾞｸﾞﾝﾓﾃｷﾞﾏﾁ","streetKana":"ｵｳﾒ","prefecture":"栃木県","city":"芳賀郡茂木町","street":"青梅"},{"zipCode":"3213554","prefectureKana":"ﾄﾁｷﾞｹﾝ","cityKana":"ﾊｶﾞｸﾞﾝﾓﾃｷﾞﾏﾁ","streetKana":"ｵｵｾ","prefecture":"栃木県","city":"芳賀郡茂木町","street":"大瀬"},{"zipCode":"3213553","prefectureKana":"ﾄﾁｷﾞｹﾝ","cityKana":"ﾊｶﾞｸﾞﾝﾓﾃｷﾞﾏﾁ","streetKana":"ｵｵﾊﾞﾀｹ","prefecture":"栃木県","city":"芳賀郡茂木町","street":"大畑"},{"zipCode":"3213627","prefectureKana":"ﾄﾁｷﾞｹﾝ","cityKana":"ﾊｶﾞｸﾞﾝﾓﾃｷﾞﾏﾁ","streetKana":"ｵﾇｷ","prefecture":"栃木県","city":"芳賀郡茂木町","street":"小貫"},{"zipCode":"3213707","prefectureKana":"ﾄﾁｷﾞｹﾝ","cityKana":"ﾊｶﾞｸﾞﾝﾓﾃｷﾞﾏﾁ","streetKana":"ｵﾌﾞｶ","prefecture":"栃木県","city":"芳賀郡茂木町","street":"小深"},{"zipCode":"3213624","prefectureKana":"ﾄﾁｷﾞｹﾝ","cityKana":"ﾊｶﾞｸﾞﾝﾓﾃｷﾞﾏﾁ","streetKana":"ｵﾔﾏ","prefecture":"栃木県","city":"芳賀郡茂木町","street":"小山"},{"zipCode":"3213536","prefectureKana":"ﾄﾁｷﾞｹﾝ","cityKana":"ﾊｶﾞｸﾞﾝﾓﾃｷﾞﾏﾁ","streetKana":"ｶﾉｲ","prefecture":"栃木県","city":"芳賀郡茂木町","street":"神井"},{"zipCode":"3213543","prefectureKana":"ﾄﾁｷﾞｹﾝ","cityKana":"ﾊｶﾞｸﾞﾝﾓﾃｷﾞﾏﾁ","streetKana":"ｶﾐｳﾗｺﾞｳ","prefecture":"栃木県","city":"芳賀郡茂木町","street":"上後郷"},{"zipCode":"3213546","prefectureKana":"ﾄﾁｷﾞｹﾝ","cityKana":"ﾊｶﾞｸﾞﾝﾓﾃｷﾞﾏﾁ","streetKana":"ｶﾐｽｶﾞﾏﾀ","prefecture":"栃木県","city":"芳賀郡茂木町","street":"上菅又"},{"zipCode":"3213703","prefectureKana":"ﾄﾁｷﾞｹﾝ","cityKana":"ﾊｶﾞｸﾞﾝﾓﾃｷﾞﾏﾁ","streetKana":"ｶﾜｲ","prefecture":"栃木県","city":"芳賀郡茂木町","street":"河井"},{"zipCode":"3213706","prefectureKana":"ﾄﾁｷﾞｹﾝ","cityKana":"ﾊｶﾞｸﾞﾝﾓﾃｷﾞﾏﾁ","streetKana":"ｶﾜﾏﾀ","prefecture":"栃木県","city":"芳賀郡茂木町","street":"河又"},{"zipCode":"3213622","prefectureKana":"ﾄﾁｷﾞｹﾝ","cityKana":"ﾊｶﾞｸﾞﾝﾓﾃｷﾞﾏﾁ","streetKana":"ｷﾀﾀｶｵｶ","prefecture":"栃木県","city":"芳賀郡茂木町","street":"北高岡"},{"zipCode":"3213623","prefectureKana":"ﾄﾁｷﾞｹﾝ","cityKana":"ﾊｶﾞｸﾞﾝﾓﾃｷﾞﾏﾁ","streetKana":"ｷﾊﾞﾀ","prefecture":"栃木県","city":"芳賀郡茂木町","street":"木幡"},{"zipCode":"3213557","prefectureKana":"ﾄﾁｷﾞｹﾝ","cityKana":"ﾊｶﾞｸﾞﾝﾓﾃｷﾞﾏﾁ","streetKana":"ｸﾛﾀﾞ","prefecture":"栃木県","city":"芳賀郡茂木町","street":"黒田"},{"zipCode":"3213566","prefectureKana":"ﾄﾁｷﾞｹﾝ","cityKana":"ﾊｶﾞｸﾞﾝﾓﾃｷﾞﾏﾁ","streetKana":"ｺｲﾄﾞ","prefecture":"栃木県","city":"芳賀郡茂木町","street":"小井戸"},{"zipCode":"3213544","prefectureKana":"ﾄﾁｷﾞｹﾝ","cityKana":"ﾊｶﾞｸﾞﾝﾓﾃｷﾞﾏﾁ","streetKana":"ｻｶﾉｲ","prefecture":"栃木県","city":"芳賀郡茂木町","street":"坂井"},{"zipCode":"3213542","prefectureKana":"ﾄﾁｷﾞｹﾝ","cityKana":"ﾊｶﾞｸﾞﾝﾓﾃｷﾞﾏﾁ","streetKana":"ｻｻﾞﾗｼ","prefecture":"栃木県","city":"芳賀郡茂木町","street":"九石"},{"zipCode":"3213565","prefectureKana":"ﾄﾁｷﾞｹﾝ","cityKana":"ﾊｶﾞｸﾞﾝﾓﾃｷﾞﾏﾁ","streetKana":"ｼｵﾀﾞ","prefecture":"栃木県","city":"芳賀郡茂木町","street":"塩田"},{"zipCode":"3213545","prefectureKana":"ﾄﾁｷﾞｹﾝ","cityKana":"ﾊｶﾞｸﾞﾝﾓﾃｷﾞﾏﾁ","streetKana":"ｼﾓｽｶﾞﾏﾀ","prefecture":"栃木県","city":"芳賀郡茂木町","street":"下菅又"},{"zipCode":"3213547","prefectureKana":"ﾄﾁｷﾞｹﾝ","cityKana":"ﾊｶﾞｸﾞﾝﾓﾃｷﾞﾏﾁ","streetKana":"ｾﾝﾎﾞ","prefecture":"栃木県","city":"芳賀郡茂木町","street":"千本"},{"zipCode":"3213552","prefectureKana":"ﾄﾁｷﾞｹﾝ","cityKana":"ﾊｶﾞｸﾞﾝﾓﾃｷﾞﾏﾁ","streetKana":"ﾀｹﾜﾗ","prefecture":"栃木県","city":"芳賀郡茂木町","street":"竹原"},{"zipCode":"3213555","prefectureKana":"ﾄﾁｷﾞｹﾝ","cityKana":"ﾊｶﾞｸﾞﾝﾓﾃｷﾞﾏﾁ","streetKana":"ﾄｺﾛｸｻ","prefecture":"栃木県","city":"芳賀郡茂木町","street":"所草"},{"zipCode":"3213551","prefectureKana":"ﾄﾁｷﾞｹﾝ","cityKana":"ﾊｶﾞｸﾞﾝﾓﾃｷﾞﾏﾁ","streetKana":"ﾅﾏｲ","prefecture":"栃木県","city":"芳賀郡茂木町","street":"生井"},{"zipCode":"3213563","prefectureKana":"ﾄﾁｷﾞｹﾝ","cityKana":"ﾊｶﾞｸﾞﾝﾓﾃｷﾞﾏﾁ","streetKana":"ﾊﾔｼ","prefecture":"栃木県","city":"芳賀郡茂木町","street":"林"},{"zipCode":"3213533","prefectureKana":"ﾄﾁｷﾞｹﾝ","cityKana":"ﾊｶﾞｸﾞﾝﾓﾃｷﾞﾏﾁ","streetKana":"ﾋﾔﾏ(ｿﾉﾀ)","prefecture":"栃木県","city":"芳賀郡茂木町","street":"桧山（その他）"},{"zipCode":"3213628","prefectureKana":"ﾄﾁｷﾞｹﾝ","cityKana":"ﾊｶﾞｸﾞﾝﾓﾃｷﾞﾏﾁ","streetKana":"ﾌｶｻﾜ","prefecture":"栃木県","city":"芳賀郡茂木町","street":"深沢"},{"zipCode":"3213625","prefectureKana":"ﾄﾁｷﾞｹﾝ","cityKana":"ﾊｶﾞｸﾞﾝﾓﾃｷﾞﾏﾁ","streetKana":"ﾌｸﾞﾃ","prefecture":"栃木県","city":"芳賀郡茂木町","street":"福手"},{"zipCode":"3213562","prefectureKana":"ﾄﾁｷﾞｹﾝ","cityKana":"ﾊｶﾞｸﾞﾝﾓﾃｷﾞﾏﾁ","streetKana":"ﾏｶﾄﾞ","prefecture":"栃木県","city":"芳賀郡茂木町","street":"馬門"},{"zipCode":"3213704","prefectureKana":"ﾄﾁｷﾞｹﾝ","cityKana":"ﾊｶﾞｸﾞﾝﾓﾃｷﾞﾏﾁ","streetKana":"ﾏｷﾞﾉ","prefecture":"栃木県","city":"芳賀郡茂木町","street":"牧野"},{"zipCode":"3213564","prefectureKana":"ﾄﾁｷﾞｹﾝ","cityKana":"ﾊｶﾞｸﾞﾝﾓﾃｷﾞﾏﾁ","streetKana":"ﾏｼｲ","prefecture":"栃木県","city":"芳賀郡茂木町","street":"増井"},{"zipCode":"3213556","prefectureKana":"ﾄﾁｷﾞｹﾝ","cityKana":"ﾊｶﾞｸﾞﾝﾓﾃｷﾞﾏﾁ","streetKana":"ﾏﾁﾀﾞ","prefecture":"栃木県","city":"芳賀郡茂木町","street":"町田"},{"zipCode":"3213532","prefectureKana":"ﾄﾁｷﾞｹﾝ","cityKana":"ﾊｶﾞｸﾞﾝﾓﾃｷﾞﾏﾁ","streetKana":"ﾐｻｶ","prefecture":"栃木県","city":"芳賀郡茂木町","street":"三坂"},{"zipCode":"3213531","prefectureKana":"ﾄﾁｷﾞｹﾝ","cityKana":"ﾊｶﾞｸﾞﾝﾓﾃｷﾞﾏﾁ","streetKana":"ﾓﾃｷﾞ","prefecture":"栃木県","city":"芳賀郡茂木町","street":"茂木"},{"zipCode":"3213701","prefectureKana":"ﾄﾁｷﾞｹﾝ","cityKana":"ﾊｶﾞｸﾞﾝﾓﾃｷﾞﾏﾁ","streetKana":"ﾔﾏｳﾁ","prefecture":"栃木県","city":"芳賀郡茂木町","street":"山内"},{"zipCode":"3213400","prefectureKana":"ﾄﾁｷﾞｹﾝ","cityKana":"ﾊｶﾞｸﾞﾝｲﾁｶｲﾏﾁ","streetKana":"ｲｶﾆｹｲｻｲｶﾞﾅｲﾊﾞｱｲ","prefecture":"栃木県","city":"芳賀郡市貝町","street":"以下に掲載がない場合"},{"zipCode":"3213426","prefectureKana":"ﾄﾁｷﾞｹﾝ","cityKana":"ﾊｶﾞｸﾞﾝｲﾁｶｲﾏﾁ","streetKana":"ｱｶﾊﾞﾈ","prefecture":"栃木県","city":"芳賀郡市貝町","street":"赤羽"},{"zipCode":"3213422","prefectureKana":"ﾄﾁｷﾞｹﾝ","cityKana":"ﾊｶﾞｸﾞﾝｲﾁｶｲﾏﾁ","streetKana":"ｲｼｵﾛｼ","prefecture":"栃木県","city":"芳賀郡市貝町","street":"石下"},{"zipCode":"3213423","prefectureKana":"ﾄﾁｷﾞｹﾝ","cityKana":"ﾊｶﾞｸﾞﾝｲﾁｶｲﾏﾁ","streetKana":"ｲﾁﾊﾅ","prefecture":"栃木県","city":"芳賀郡市貝町","street":"市塙"},{"zipCode":"3213405","prefectureKana":"ﾄﾁｷﾞｹﾝ","cityKana":"ﾊｶﾞｸﾞﾝｲﾁｶｲﾏﾁ","streetKana":"ｵｵﾔﾂ","prefecture":"栃木県","city":"芳賀郡市貝町","street":"大谷津"},{"zipCode":"3213424","prefectureKana":"ﾄﾁｷﾞｹﾝ","cityKana":"ﾊｶﾞｸﾞﾝｲﾁｶｲﾏﾁ","streetKana":"ｶﾐﾈ","prefecture":"栃木県","city":"芳賀郡市貝町","street":"上根"},{"zipCode":"3213411","prefectureKana":"ﾄﾁｷﾞｹﾝ","cityKana":"ﾊｶﾞｸﾞﾝｲﾁｶｲﾏﾁ","streetKana":"ｶﾘｳﾀ","prefecture":"栃木県","city":"芳賀郡市貝町","street":"刈生田"},{"zipCode":"3213421","prefectureKana":"ﾄﾁｷﾞｹﾝ","cityKana":"ﾊｶﾞｸﾞﾝｲﾁｶｲﾏﾁ","streetKana":"ｻｻﾊﾗﾀﾞ","prefecture":"栃木県","city":"芳賀郡市貝町","street":"笹原田"},{"zipCode":"3213406","prefectureKana":"ﾄﾁｷﾞｹﾝ","cityKana":"ﾊｶﾞｸﾞﾝｲﾁｶｲﾏﾁ","streetKana":"ｼｵﾀﾞ","prefecture":"栃木県","city":"芳賀郡市貝町","street":"塩田"},{"zipCode":"3213414","prefectureKana":"ﾄﾁｷﾞｹﾝ","cityKana":"ﾊｶﾞｸﾞﾝｲﾁｶｲﾏﾁ","streetKana":"ｼｭｳｶﾞｲ","prefecture":"栃木県","city":"芳賀郡市貝町","street":"椎谷"},{"zipCode":"3213415","prefectureKana":"ﾄﾁｷﾞｹﾝ","cityKana":"ﾊｶﾞｸﾞﾝｲﾁｶｲﾏﾁ","streetKana":"ｽｷﾞﾔﾏ","prefecture":"栃木県","city":"芳賀郡市貝町","street":"杉山"},{"zipCode":"3213401","prefectureKana":"ﾄﾁｷﾞｹﾝ","cityKana":"ﾊｶﾞｸﾞﾝｲﾁｶｲﾏﾁ","streetKana":"ﾀｹｳﾁ","prefecture":"栃木県","city":"芳賀郡市貝町","street":"竹内"},{"zipCode":"3213425","prefectureKana":"ﾄﾁｷﾞｹﾝ","cityKana":"ﾊｶﾞｸﾞﾝｲﾁｶｲﾏﾁ","streetKana":"ﾀﾀﾗ","prefecture":"栃木県","city":"芳賀郡市貝町","street":"多田羅"},{"zipCode":"3213412","prefectureKana":"ﾄﾁｷﾞｹﾝ","cityKana":"ﾊｶﾞｸﾞﾝｲﾁｶｲﾏﾁ","streetKana":"ﾀﾉﾍﾞ","prefecture":"栃木県","city":"芳賀郡市貝町","street":"田野辺"},{"zipCode":"3213404","prefectureKana":"ﾄﾁｷﾞｹﾝ","cityKana":"ﾊｶﾞｸﾞﾝｲﾁｶｲﾏﾁ","streetKana":"ﾂﾂﾞｷﾔ","prefecture":"栃木県","city":"芳賀郡市貝町","street":"続谷"},{"zipCode":"3213403","prefectureKana":"ﾄﾁｷﾞｹﾝ","cityKana":"ﾊｶﾞｸﾞﾝｲﾁｶｲﾏﾁ","streetKana":"ﾊﾌﾞﾂ","prefecture":"栃木県","city":"芳賀郡市貝町","street":"羽仏"},{"zipCode":"3213413","prefectureKana":"ﾄﾁｷﾞｹﾝ","cityKana":"ﾊｶﾞｸﾞﾝｲﾁｶｲﾏﾁ","streetKana":"ﾌﾐﾔ","prefecture":"栃木県","city":"芳賀郡市貝町","street":"文谷"},{"zipCode":"3213402","prefectureKana":"ﾄﾁｷﾞｹﾝ","cityKana":"ﾊｶﾞｸﾞﾝｲﾁｶｲﾏﾁ","streetKana":"ﾐｱｹﾞ","prefecture":"栃木県","city":"芳賀郡市貝町","street":"見上"},{"zipCode":"3213300","prefectureKana":"ﾄﾁｷﾞｹﾝ","cityKana":"ﾊｶﾞｸﾞﾝﾊｶﾞﾏﾁ","streetKana":"ｲｶﾆｹｲｻｲｶﾞﾅｲﾊﾞｱｲ","prefecture":"栃木県","city":"芳賀郡芳賀町","street":"以下に掲載がない場合"},{"zipCode":"3213303","prefectureKana":"ﾄﾁｷﾞｹﾝ","cityKana":"ﾊｶﾞｸﾞﾝﾊｶﾞﾏﾁ","streetKana":"ｲﾅｹﾞﾀ","prefecture":"栃木県","city":"芳賀郡芳賀町","street":"稲毛田"},{"zipCode":"3213314","prefectureKana":"ﾄﾁｷﾞｹﾝ","cityKana":"ﾊｶﾞｸﾞﾝﾊｶﾞﾏﾁ","streetKana":"ｳﾁｺﾞｼﾝﾃﾞﾝ","prefecture":"栃木県","city":"芳賀郡芳賀町","street":"打越新田"},{"zipCode":"3213304","prefectureKana":"ﾄﾁｷﾞｹﾝ","cityKana":"ﾊｶﾞｸﾞﾝﾊｶﾞﾏﾁ","streetKana":"ｳﾊﾞｶﾞｲ","prefecture":"栃木県","city":"芳賀郡芳賀町","street":"祖母井"},{"zipCode":"3213307","prefectureKana":"ﾄﾁｷﾞｹﾝ","cityKana":"ﾊｶﾞｸﾞﾝﾊｶﾞﾏﾁ","streetKana":"ｳﾊﾞｶﾞｲﾐﾅﾐ","prefecture":"栃木県","city":"芳賀郡芳賀町","street":"祖母井南"},{"zipCode":"3213302","prefectureKana":"ﾄﾁｷﾞｹﾝ","cityKana":"ﾊｶﾞｸﾞﾝﾊｶﾞﾏﾁ","streetKana":"ｶﾐｲﾅｹﾞﾀ","prefecture":"栃木県","city":"芳賀郡芳賀町","street":"上稲毛田"},{"zipCode":"3213311","prefectureKana":"ﾄﾁｷﾞｹﾝ","cityKana":"ﾊｶﾞｸﾞﾝﾊｶﾞﾏﾁ","streetKana":"ｶﾐﾉﾌﾞ","prefecture":"栃木県","city":"芳賀郡芳賀町","street":"上延生"},{"zipCode":"3213323","prefectureKana":"ﾄﾁｷﾞｹﾝ","cityKana":"ﾊｶﾞｸﾞﾝﾊｶﾞﾏﾁ","streetKana":"ｷﾀﾅｶﾞｼﾏ","prefecture":"栃木県","city":"芳賀郡芳賀町","street":"北長島"},{"zipCode":"3213301","prefectureKana":"ﾄﾁｷﾞｹﾝ","cityKana":"ﾊｶﾞｸﾞﾝﾊｶﾞﾏﾁ","streetKana":"ｷｭｳﾌﾞ","prefecture":"栃木県","city":"芳賀郡芳賀町","street":"給部"},{"zipCode":"3213321","prefectureKana":"ﾄﾁｷﾞｹﾝ","cityKana":"ﾊｶﾞｸﾞﾝﾊｶﾞﾏﾁ","streetKana":"ｼﾓﾀｶﾈｻﾞﾜ","prefecture":"栃木県","city":"芳賀郡芳賀町","street":"下高根沢"},{"zipCode":"3213312","prefectureKana":"ﾄﾁｷﾞｹﾝ","cityKana":"ﾊｶﾞｸﾞﾝﾊｶﾞﾏﾁ","streetKana":"ｼﾓﾉﾌﾞ","prefecture":"栃木県","city":"芳賀郡芳賀町","street":"下延生"},{"zipCode":"3213315","prefectureKana":"ﾄﾁｷﾞｹﾝ","cityKana":"ﾊｶﾞｸﾞﾝﾊｶﾞﾏﾁ","streetKana":"ﾆｼﾀｶﾊｼ","prefecture":"栃木県","city":"芳賀郡芳賀町","street":"西高橋"},{"zipCode":"3213324","prefectureKana":"ﾄﾁｷﾞｹﾝ","cityKana":"ﾊｶﾞｸﾞﾝﾊｶﾞﾏﾁ","streetKana":"ﾆｼﾐｽﾞﾇﾏ","prefecture":"栃木県","city":"芳賀郡芳賀町","street":"西水沼"},{"zipCode":"3213325","prefectureKana":"ﾄﾁｷﾞｹﾝ","cityKana":"ﾊｶﾞｸﾞﾝﾊｶﾞﾏﾁ","streetKana":"ﾊｶﾞﾀﾞｲ","prefecture":"栃木県","city":"芳賀郡芳賀町","street":"芳賀台"},{"zipCode":"3213313","prefectureKana":"ﾄﾁｷﾞｹﾝ","cityKana":"ﾊｶﾞｸﾞﾝﾊｶﾞﾏﾁ","streetKana":"ﾋｶﾞｼﾀｶﾊｼ","prefecture":"栃木県","city":"芳賀郡芳賀町","street":"東高橋"},{"zipCode":"3213322","prefectureKana":"ﾄﾁｷﾞｹﾝ","cityKana":"ﾊｶﾞｸﾞﾝﾊｶﾞﾏﾁ","streetKana":"ﾋｶﾞｼﾐｽﾞﾇﾏ","prefecture":"栃木県","city":"芳賀郡芳賀町","street":"東水沼"},{"zipCode":"3213305","prefectureKana":"ﾄﾁｷﾞｹﾝ","cityKana":"ﾊｶﾞｸﾞﾝﾊｶﾞﾏﾁ","streetKana":"ﾎｳｼﾄ","prefecture":"栃木県","city":"芳賀郡芳賀町","street":"芳志戸"},{"zipCode":"3213306","prefectureKana":"ﾄﾁｷﾞｹﾝ","cityKana":"ﾊｶﾞｸﾞﾝﾊｶﾞﾏﾁ","streetKana":"ﾔﾂｷﾞ","prefecture":"栃木県","city":"芳賀郡芳賀町","street":"八ツ木"},{"zipCode":"3213316","prefectureKana":"ﾄﾁｷﾞｹﾝ","cityKana":"ﾊｶﾞｸﾞﾝﾊｶﾞﾏﾁ","streetKana":"ﾖﾉｳ","prefecture":"栃木県","city":"芳賀郡芳賀町","street":"与能"},{"zipCode":"3210200","prefectureKana":"ﾄﾁｷﾞｹﾝ","cityKana":"ｼﾓﾂｶﾞｸﾞﾝﾐﾌﾞﾏﾁ","streetKana":"ｲｶﾆｹｲｻｲｶﾞﾅｲﾊﾞｱｲ","prefecture":"栃木県","city":"下都賀郡壬生町","street":"以下に掲載がない場合"},{"zipCode":"3210206","prefectureKana":"ﾄﾁｷﾞｹﾝ","cityKana":"ｼﾓﾂｶﾞｸﾞﾝﾐﾌﾞﾏﾁ","streetKana":"ｱｹﾎﾞﾉﾁｮｳ","prefecture":"栃木県","city":"下都賀郡壬生町","street":"あけぼの町"},{"zipCode":"3210213","prefectureKana":"ﾄﾁｷﾞｹﾝ","cityKana":"ｼﾓﾂｶﾞｸﾞﾝﾐﾌﾞﾏﾁ","streetKana":"ｲｽﾞﾐﾁｮｳ","prefecture":"栃木県","city":"下都賀郡壬生町","street":"いずみ町"},{"zipCode":"3210222","prefectureKana":"ﾄﾁｷﾞｹﾝ","cityKana":"ｼﾓﾂｶﾞｸﾞﾝﾐﾌﾞﾏﾁ","streetKana":"ｴｷﾋｶﾞｼﾁｮｳ","prefecture":"栃木県","city":"下都賀郡壬生町","street":"駅東町"},{"zipCode":"3210218","prefectureKana":"ﾄﾁｷﾞｹﾝ","cityKana":"ｼﾓﾂｶﾞｸﾞﾝﾐﾌﾞﾏﾁ","streetKana":"ｵﾁｱｲ","prefecture":"栃木県","city":"下都賀郡壬生町","street":"落合"},{"zipCode":"3210202","prefectureKana":"ﾄﾁｷﾞｹﾝ","cityKana":"ｼﾓﾂｶﾞｸﾞﾝﾐﾌﾞﾏﾁ","streetKana":"ｵﾓﾁｬﾉﾏﾁ","prefecture":"栃木県","city":"下都賀郡壬生町","street":"おもちゃのまち"},{"zipCode":"3210224","prefectureKana":"ﾄﾁｷﾞｹﾝ","cityKana":"ｼﾓﾂｶﾞｸﾞﾝﾐﾌﾞﾏﾁ","streetKana":"ｵﾓﾃﾏﾁ","prefecture":"栃木県","city":"下都賀郡壬生町","street":"表町"},{"zipCode":"3210236","prefectureKana":"ﾄﾁｷﾞｹﾝ","cityKana":"ｼﾓﾂｶﾞｸﾞﾝﾐﾌﾞﾏﾁ","streetKana":"ｶﾐｲﾅﾊﾞ","prefecture":"栃木県","city":"下都賀郡壬生町","street":"上稲葉"},{"zipCode":"3210231","prefectureKana":"ﾄﾁｷﾞｹﾝ","cityKana":"ｼﾓﾂｶﾞｸﾞﾝﾐﾌﾞﾏﾁ","streetKana":"ｶﾐﾀﾞ","prefecture":"栃木県","city":"下都賀郡壬生町","street":"上田"},{"zipCode":"3210207","prefectureKana":"ﾄﾁｷﾞｹﾝ","cityKana":"ｼﾓﾂｶﾞｸﾞﾝﾐﾌﾞﾏﾁ","streetKana":"ｷﾀｺﾊﾞﾔｼ","prefecture":"栃木県","city":"下都賀郡壬生町","street":"北小林"},{"zipCode":"3210211","prefectureKana":"ﾄﾁｷﾞｹﾝ","cityKana":"ｼﾓﾂｶﾞｸﾞﾝﾐﾌﾞﾏﾁ","streetKana":"ｸﾆﾔ","prefecture":"栃木県","city":"下都賀郡壬生町","street":"国谷"},{"zipCode":"3210212","prefectureKana":"ﾄﾁｷﾞｹﾝ","cityKana":"ｼﾓﾂｶﾞｸﾞﾝﾐﾌﾞﾏﾁ","streetKana":"ｺﾄﾌﾞｷﾁｮｳ","prefecture":"栃木県","city":"下都賀郡壬生町","street":"寿町"},{"zipCode":"3210203","prefectureKana":"ﾄﾁｷﾞｹﾝ","cityKana":"ｼﾓﾂｶﾞｸﾞﾝﾐﾌﾞﾏﾁ","streetKana":"ｻｲﾜｲﾁｮｳ","prefecture":"栃木県","city":"下都賀郡壬生町","street":"幸町"},{"zipCode":"3210217","prefectureKana":"ﾄﾁｷﾞｹﾝ","cityKana":"ｼﾓﾂｶﾞｸﾞﾝﾐﾌﾞﾏﾁ","streetKana":"ｼﾎｳ","prefecture":"栃木県","city":"下都賀郡壬生町","street":"至宝"},{"zipCode":"3210237","prefectureKana":"ﾄﾁｷﾞｹﾝ","cityKana":"ｼﾓﾂｶﾞｸﾞﾝﾐﾌﾞﾏﾁ","streetKana":"ｼﾓｲﾅﾊﾞ","prefecture":"栃木県","city":"下都賀郡壬生町","street":"下稲葉"},{"zipCode":"3210233","prefectureKana":"ﾄﾁｷﾞｹﾝ","cityKana":"ｼﾓﾂｶﾞｸﾞﾝﾐﾌﾞﾏﾁ","streetKana":"ｽｹｶﾞｲ","prefecture":"栃木県","city":"下都賀郡壬生町","street":"助谷"},{"zipCode":"3210228","prefectureKana":"ﾄﾁｷﾞｹﾝ","cityKana":"ｼﾓﾂｶﾞｸﾞﾝﾐﾌﾞﾏﾁ","streetKana":"ﾀﾞｲｼﾏﾁ","prefecture":"栃木県","city":"下都賀郡壬生町","street":"大師町"},{"zipCode":"3210226","prefectureKana":"ﾄﾁｷﾞｹﾝ","cityKana":"ｼﾓﾂｶﾞｸﾞﾝﾐﾌﾞﾏﾁ","streetKana":"ﾁｭｳｵｳﾁｮｳ","prefecture":"栃木県","city":"下都賀郡壬生町","street":"中央町"},{"zipCode":"3210227","prefectureKana":"ﾄﾁｷﾞｹﾝ","cityKana":"ｼﾓﾂｶﾞｸﾞﾝﾐﾌﾞﾏﾁ","streetKana":"ﾄｵﾘﾏﾁ","prefecture":"栃木県","city":"下都賀郡壬生町","street":"通町"},{"zipCode":"3210232","prefectureKana":"ﾄﾁｷﾞｹﾝ","cityKana":"ｼﾓﾂｶﾞｸﾞﾝﾐﾌﾞﾏﾁ","streetKana":"ﾅｶｲｽﾞﾐ","prefecture":"栃木県","city":"下都賀郡壬生町","street":"中泉"},{"zipCode":"3210235","prefectureKana":"ﾄﾁｷﾞｹﾝ","cityKana":"ｼﾓﾂｶﾞｸﾞﾝﾐﾌﾞﾏﾁ","streetKana":"ﾅﾅﾂｲｼ","prefecture":"栃木県","city":"下都賀郡壬生町","street":"七ツ石"},{"zipCode":"3210234","prefectureKana":"ﾄﾁｷﾞｹﾝ","cityKana":"ｼﾓﾂｶﾞｸﾞﾝﾐﾌﾞﾏﾁ","streetKana":"ﾊﾆｭｳﾀﾞ","prefecture":"栃木県","city":"下都賀郡壬生町","street":"羽生田"},{"zipCode":"3210219","prefectureKana":"ﾄﾁｷﾞｹﾝ","cityKana":"ｼﾓﾂｶﾞｸﾞﾝﾐﾌﾞﾏﾁ","streetKana":"ﾌｸﾜﾀﾞ","prefecture":"栃木県","city":"下都賀郡壬生町","street":"福和田"},{"zipCode":"3210221","prefectureKana":"ﾄﾁｷﾞｹﾝ","cityKana":"ｼﾓﾂｶﾞｸﾞﾝﾐﾌﾞﾏﾁ","streetKana":"ﾌｼﾞｲ","prefecture":"栃木県","city":"下都賀郡壬生町","street":"藤井"},{"zipCode":"3210225","prefectureKana":"ﾄﾁｷﾞｹﾝ","cityKana":"ｼﾓﾂｶﾞｸﾞﾝﾐﾌﾞﾏﾁ","streetKana":"ﾎﾝﾏﾙ","prefecture":"栃木県","city":"下都賀郡壬生町","street":"本丸"},{"zipCode":"3210204","prefectureKana":"ﾄﾁｷﾞｹﾝ","cityKana":"ｼﾓﾂｶﾞｸﾞﾝﾐﾌﾞﾏﾁ","streetKana":"ﾐﾄﾞﾘﾁｮｳ","prefecture":"栃木県","city":"下都賀郡壬生町","street":"緑町"},{"zipCode":"3210214","prefectureKana":"ﾄﾁｷﾞｹﾝ","cityKana":"ｼﾓﾂｶﾞｸﾞﾝﾐﾌﾞﾏﾁ","streetKana":"ﾐﾌﾞｺｳ","prefecture":"栃木県","city":"下都賀郡壬生町","street":"壬生甲"},{"zipCode":"3210215","prefectureKana":"ﾄﾁｷﾞｹﾝ","cityKana":"ｼﾓﾂｶﾞｸﾞﾝﾐﾌﾞﾏﾁ","streetKana":"ﾐﾌﾞｵﾂ","prefecture":"栃木県","city":"下都賀郡壬生町","street":"壬生乙"},{"zipCode":"3210216","prefectureKana":"ﾄﾁｷﾞｹﾝ","cityKana":"ｼﾓﾂｶﾞｸﾞﾝﾐﾌﾞﾏﾁ","streetKana":"ﾐﾌﾞﾃｲ","prefecture":"栃木県","city":"下都賀郡壬生町","street":"壬生丁"},{"zipCode":"3210238","prefectureKana":"ﾄﾁｷﾞｹﾝ","cityKana":"ｼﾓﾂｶﾞｸﾞﾝﾐﾌﾞﾏﾁ","streetKana":"ﾐﾌﾞﾊﾆｭｳﾀﾞｻﾝｷﾞｮｳﾀﾞﾝﾁ","prefecture":"栃木県","city":"下都賀郡壬生町","street":"みぶ羽生田産業団地"},{"zipCode":"3210223","prefectureKana":"ﾄﾁｷﾞｹﾝ","cityKana":"ｼﾓﾂｶﾞｸﾞﾝﾐﾌﾞﾏﾁ","streetKana":"ﾓﾄﾏﾁ","prefecture":"栃木県","city":"下都賀郡壬生町","street":"元町"},{"zipCode":"3210201","prefectureKana":"ﾄﾁｷﾞｹﾝ","cityKana":"ｼﾓﾂｶﾞｸﾞﾝﾐﾌﾞﾏﾁ","streetKana":"ﾔｽﾂﾞｶ","prefecture":"栃木県","city":"下都賀郡壬生町","street":"安塚"},{"zipCode":"3210205","prefectureKana":"ﾄﾁｷﾞｹﾝ","cityKana":"ｼﾓﾂｶﾞｸﾞﾝﾐﾌﾞﾏﾁ","streetKana":"ﾜｶｸｻﾁｮｳ","prefecture":"栃木県","city":"下都賀郡壬生町","street":"若草町"},{"zipCode":"3212501","prefectureKana":"ﾄﾁｷﾞｹﾝ","cityKana":"ｼｵﾔｸﾞﾝｼｵﾔﾏﾁ","streetKana":"ｶﾐﾃﾗｼﾏ(1653､1661､1678､1694ﾊﾞﾝﾁ)","prefecture":"栃木県","city":"塩谷郡塩谷町","street":"上寺島（１６５３、１６６１、１６７８、１６９４番地）"}]