[{"zipCode":"3231102","prefectureKana":"ﾄﾁｷﾞｹﾝ","cityKana":"ﾄﾁｷﾞｼ","streetKana":"ﾌｼﾞｵｶﾏﾁｱｶﾏ","prefecture":"栃木県","city":"栃木市","street":"藤岡町赤麻"},{"zipCode":"3231103","prefectureKana":"ﾄﾁｷﾞｹﾝ","cityKana":"ﾄﾁｷﾞｼ","streetKana":"ﾌｼﾞｵｶﾏﾁｳﾁﾉ","prefecture":"栃木県","city":"栃木市","street":"藤岡町内野"},{"zipCode":"3231108","prefectureKana":"ﾄﾁｷﾞｹﾝ","cityKana":"ﾄﾁｷﾞｼ","streetKana":"ﾌｼﾞｵｶﾏﾁｵｵﾀ","prefecture":"栃木県","city":"栃木市","street":"藤岡町太田"},{"zipCode":"3231107","prefectureKana":"ﾄﾁｷﾞｹﾝ","cityKana":"ﾄﾁｷﾞｼ","streetKana":"ﾌｼﾞｵｶﾏﾁｵｵﾀﾞﾜ","prefecture":"栃木県","city":"栃木市","street":"藤岡町大田和"},{"zipCode":"3231101","prefectureKana":"ﾄﾁｷﾞｹﾝ","cityKana":"ﾄﾁｷﾞｼ","streetKana":"ﾌｼﾞｵｶﾏﾁｵｵﾏｴ","prefecture":"栃木県","city":"栃木市","street":"藤岡町大前"},{"zipCode":"3231105","prefectureKana":"ﾄﾁｷﾞｹﾝ","cityKana":"ﾄﾁｷﾞｼ","streetKana":"ﾌｼﾞｵｶﾏﾁｺｳ","prefecture":"栃木県","city":"栃木市","street":"藤岡町甲"},{"zipCode":"3231106","prefectureKana":"ﾄﾁｷﾞｹﾝ","cityKana":"ﾄﾁｷﾞｼ","streetKana":"ﾌｼﾞｵｶﾏﾁﾂｶﾞ","prefecture":"栃木県","city":"栃木市","street":"藤岡町都賀"},{"zipCode":"3231104","prefectureKana":"ﾄﾁｷﾞｹﾝ","cityKana":"ﾄﾁｷﾞｼ","streetKana":"ﾌｼﾞｵｶﾏﾁﾌｼﾞｵｶ","prefecture":"栃木県","city":"栃木市","street":"藤岡町藤岡"},{"zipCode":"3230000","prefectureKana":"ﾄﾁｷﾞｹﾝ","cityKana":"ｵﾔﾏｼ","streetKana":"ｲｶﾆｹｲｻｲｶﾞﾅｲﾊﾞｱｲ","prefecture":"栃木県","city":"小山市","street":"以下に掲載がない場合"},{"zipCode":"3230826","prefectureKana":"ﾄﾁｷﾞｹﾝ","cityKana":"ｵﾔﾏｼ","streetKana":"ｱﾏｶﾞﾔ","prefecture":"栃木県","city":"小山市","street":"雨ケ谷"},{"zipCode":"3230824","prefectureKana":"ﾄﾁｷﾞｹﾝ","cityKana":"ｵﾔﾏｼ","streetKana":"ｱﾏｶﾞﾔｼﾝﾃﾞﾝ","prefecture":"栃木県","city":"小山市","street":"雨ケ谷新田"},{"zipCode":"3230831","prefectureKana":"ﾄﾁｷﾞｹﾝ","cityKana":"ｵﾔﾏｼ","streetKana":"ｱﾏｶﾞﾔﾁｮｳ","prefecture":"栃木県","city":"小山市","street":"雨ケ谷町"},{"zipCode":"3230013","prefectureKana":"ﾄﾁｷﾞｹﾝ","cityKana":"ｵﾔﾏｼ","streetKana":"ｱﾗｲ","prefecture":"栃木県","city":"小山市","street":"荒井"},{"zipCode":"3230006","prefectureKana":"ﾄﾁｷﾞｹﾝ","cityKana":"ｵﾔﾏｼ","streetKana":"ｱﾗｶﾜ","prefecture":"栃木県","city":"小山市","street":"荒川"},{"zipCode":"3230017","prefectureKana":"ﾄﾁｷﾞｹﾝ","cityKana":"ｵﾔﾏｼ","streetKana":"ｲｲﾂﾞｶ","prefecture":"栃木県","city":"小山市","street":"飯塚"},{"zipCode":"3230054","prefectureKana":"ﾄﾁｷﾞｹﾝ","cityKana":"ｵﾔﾏｼ","streetKana":"ｲｵｶ","prefecture":"栃木県","city":"小山市","street":"井岡"},{"zipCode":"3230051","prefectureKana":"ﾄﾁｷﾞｹﾝ","cityKana":"ｵﾔﾏｼ","streetKana":"ｲｺﾏ","prefecture":"栃木県","city":"小山市","street":"生駒"},{"zipCode":"3230045","prefectureKana":"ﾄﾁｷﾞｹﾝ","cityKana":"ｵﾔﾏｼ","streetKana":"ｲｼﾉｳｴ","prefecture":"栃木県","city":"小山市","street":"石ノ上"},{"zipCode":"3230808","prefectureKana":"ﾄﾁｷﾞｹﾝ","cityKana":"ｵﾔﾏｼ","streetKana":"ｲﾃﾞｲ","prefecture":"栃木県","city":"小山市","street":"出井"},{"zipCode":"3230021","prefectureKana":"ﾄﾁｷﾞｹﾝ","cityKana":"ｵﾔﾏｼ","streetKana":"ｲﾅﾊﾞｺﾞｳ","prefecture":"栃木県","city":"小山市","street":"稲葉郷"},{"zipCode":"3230811","prefectureKana":"ﾄﾁｷﾞｹﾝ","cityKana":"ｵﾔﾏｼ","streetKana":"ｲﾇﾂﾞｶ","prefecture":"栃木県","city":"小山市","street":"犬塚"},{"zipCode":"3230067","prefectureKana":"ﾄﾁｷﾞｹﾝ","cityKana":"ｵﾔﾏｼ","streetKana":"ｲﾏｻﾞﾄ","prefecture":"栃木県","city":"小山市","street":"今里"},{"zipCode":"3230022","prefectureKana":"ﾄﾁｷﾞｹﾝ","cityKana":"ｵﾔﾏｼ","streetKana":"ｴｷﾋｶﾞｼﾄﾞｵﾘ","prefecture":"栃木県","city":"小山市","street":"駅東通り"},{"zipCode":"3230822","prefectureKana":"ﾄﾁｷﾞｹﾝ","cityKana":"ｵﾔﾏｼ","streetKana":"ｴｷﾐﾅﾐﾁｮｳ","prefecture":"栃木県","city":"小山市","street":"駅南町"},{"zipCode":"3230058","prefectureKana":"ﾄﾁｷﾞｹﾝ","cityKana":"ｵﾔﾏｼ","streetKana":"ｵｵｶﾜｼﾏ","prefecture":"栃木県","city":"小山市","street":"大川島"},{"zipCode":"3230009","prefectureKana":"ﾄﾁｷﾞｹﾝ","cityKana":"ｵﾔﾏｼ","streetKana":"ｵｵﾓﾄ","prefecture":"栃木県","city":"小山市","street":"大本"},{"zipCode":"3230001","prefectureKana":"ﾄﾁｷﾞｹﾝ","cityKana":"ｵﾔﾏｼ","streetKana":"ｵﾔｹ","prefecture":"栃木県","city":"小山市","street":"小宅"},{"zipCode":"3230825","prefectureKana":"ﾄﾁｷﾞｹﾝ","cityKana":"ｵﾔﾏｼ","streetKana":"ｵﾔﾏ","prefecture":"栃木県","city":"小山市","street":"小山"},{"zipCode":"3230063","prefectureKana":"ﾄﾁｷﾞｹﾝ","cityKana":"ｵﾔﾏｼ","streetKana":"ｶﾐｲｼﾂﾞｶ","prefecture":"栃木県","city":"小山市","street":"上石塚"},{"zipCode":"3230056","prefectureKana":"ﾄﾁｷﾞｹﾝ","cityKana":"ｵﾔﾏｼ","streetKana":"ｶﾐｲｽﾞﾐ","prefecture":"栃木県","city":"小山市","street":"上泉"},{"zipCode":"3230066","prefectureKana":"ﾄﾁｷﾞｹﾝ","cityKana":"ｵﾔﾏｼ","streetKana":"ｶﾐｺｳﾂﾞｶ","prefecture":"栃木県","city":"小山市","street":"上国府塚"},{"zipCode":"3230069","prefectureKana":"ﾄﾁｷﾞｹﾝ","cityKana":"ｵﾔﾏｼ","streetKana":"ｶﾐﾊﾂﾀﾞ","prefecture":"栃木県","city":"小山市","street":"上初田"},{"zipCode":"3230828","prefectureKana":"ﾄﾁｷﾞｹﾝ","cityKana":"ｵﾔﾏｼ","streetKana":"ｶﾐﾔﾏ","prefecture":"栃木県","city":"小山市","street":"神山"},{"zipCode":"3230804","prefectureKana":"ﾄﾁｷﾞｹﾝ","cityKana":"ｵﾔﾏｼ","streetKana":"ｶﾔﾊﾞｼ","prefecture":"栃木県","city":"小山市","street":"萱橋"},{"zipCode":"3230014","prefectureKana":"ﾄﾁｷﾞｹﾝ","cityKana":"ｵﾔﾏｼ","streetKana":"ｷｻﾞﾜ","prefecture":"栃木県","city":"小山市","street":"喜沢"},{"zipCode":"3230803","prefectureKana":"ﾄﾁｷﾞｹﾝ","cityKana":"ｵﾔﾏｼ","streetKana":"ｷﾀｲｲﾀﾞ","prefecture":"栃木県","city":"小山市","street":"北飯田"},{"zipCode":"3230002","prefectureKana":"ﾄﾁｷﾞｹﾝ","cityKana":"ｵﾔﾏｼ","streetKana":"ｸﾛﾓﾄ","prefecture":"栃木県","city":"小山市","street":"黒本"},{"zipCode":"3230008","prefectureKana":"ﾄﾁｷﾞｹﾝ","cityKana":"ｵﾔﾏｼ","streetKana":"ｺｸﾞｽﾘ","prefecture":"栃木県","city":"小山市","street":"小薬"},{"zipCode":"3230053","prefectureKana":"ﾄﾁｷﾞｹﾝ","cityKana":"ｵﾔﾏｼ","streetKana":"ｺﾌﾞｸﾛ","prefecture":"栃木県","city":"小山市","street":"小袋"},{"zipCode":"3230015","prefectureKana":"ﾄﾁｷﾞｹﾝ","cityKana":"ｵﾔﾏｼ","streetKana":"ｻﾝﾊﾞｲｶﾜｷﾞｼ","prefecture":"栃木県","city":"小山市","street":"三拝川岸"},{"zipCode":"3230043","prefectureKana":"ﾄﾁｷﾞｹﾝ","cityKana":"ｵﾔﾏｼ","streetKana":"ｼｵｻﾞﾜ","prefecture":"栃木県","city":"小山市","street":"塩沢"},{"zipCode":"3230005","prefectureKana":"ﾄﾁｷﾞｹﾝ","cityKana":"ｵﾔﾏｼ","streetKana":"ｼﾌﾞｲ","prefecture":"栃木県","city":"小山市","street":"渋井"},{"zipCode":"3230004","prefectureKana":"ﾄﾁｷﾞｹﾝ","cityKana":"ｵﾔﾏｼ","streetKana":"ｼﾏﾀﾞ","prefecture":"栃木県","city":"小山市","street":"島田"},{"zipCode":"3230064","prefectureKana":"ﾄﾁｷﾞｹﾝ","cityKana":"ｵﾔﾏｼ","streetKana":"ｼﾓｲｼﾂﾞｶ","prefecture":"栃木県","city":"小山市","street":"下石塚"},{"zipCode":"3230055","prefectureKana":"ﾄﾁｷﾞｹﾝ","cityKana":"ｵﾔﾏｼ","streetKana":"ｼﾓｲｽﾞﾐ","prefecture":"栃木県","city":"小山市","street":"下泉"},{"zipCode":"3230052","prefectureKana":"ﾄﾁｷﾞｹﾝ","cityKana":"ｵﾔﾏｼ","streetKana":"ｼﾓｶﾜﾗﾀﾞ","prefecture":"栃木県","city":"小山市","street":"下河原田"},{"zipCode":"3230065","prefectureKana":"ﾄﾁｷﾞｹﾝ","cityKana":"ｵﾔﾏｼ","streetKana":"ｼﾓｺｳﾂﾞｶ","prefecture":"栃木県","city":"小山市","street":"下国府塚"},{"zipCode":"3230068","prefectureKana":"ﾄﾁｷﾞｹﾝ","cityKana":"ｵﾔﾏｼ","streetKana":"ｼﾓﾊﾂﾀﾞ","prefecture":"栃木県","city":"小山市","street":"下初田"},{"zipCode":"3230807","prefectureKana":"ﾄﾁｷﾞｹﾝ","cityKana":"ｵﾔﾏｼ","streetKana":"ｼﾞｮｳﾄｳ","prefecture":"栃木県","city":"小山市","street":"城東"},{"zipCode":"3230029","prefectureKana":"ﾄﾁｷﾞｹﾝ","cityKana":"ｵﾔﾏｼ","streetKana":"ｼﾞｮｳﾎｸ","prefecture":"栃木県","city":"小山市","street":"城北"},{"zipCode":"3230025","prefectureKana":"ﾄﾁｷﾞｹﾝ","cityKana":"ｵﾔﾏｼ","streetKana":"ｼﾛﾔﾏﾁｮｳ","prefecture":"栃木県","city":"小山市","street":"城山町"},{"zipCode":"3230033","prefectureKana":"ﾄﾁｷﾞｹﾝ","cityKana":"ｵﾔﾏｼ","streetKana":"ｼﾝﾒｲﾁｮｳ","prefecture":"栃木県","city":"小山市","street":"神明町"},{"zipCode":"3230061","prefectureKana":"ﾄﾁｷﾞｹﾝ","cityKana":"ｵﾔﾏｼ","streetKana":"ｿｼﾏ","prefecture":"栃木県","city":"小山市","street":"卒島"},{"zipCode":"3230041","prefectureKana":"ﾄﾁｷﾞｹﾝ","cityKana":"ｵﾔﾏｼ","streetKana":"ﾀﾞｲｷﾞｮｳｼﾞ","prefecture":"栃木県","city":"小山市","street":"大行寺"},{"zipCode":"3230154","prefectureKana":"ﾄﾁｷﾞｹﾝ","cityKana":"ｵﾔﾏｼ","streetKana":"ﾀｶﾊｼ","prefecture":"栃木県","city":"小山市","street":"高椅"},{"zipCode":"3230151","prefectureKana":"ﾄﾁｷﾞｹﾝ","cityKana":"ｵﾔﾏｼ","streetKana":"ﾀｶﾞﾜ","prefecture":"栃木県","city":"小山市","street":"田川"},{"zipCode":"3230815","prefectureKana":"ﾄﾁｷﾞｹﾝ","cityKana":"ｵﾔﾏｼ","streetKana":"ﾀｹｲ","prefecture":"栃木県","city":"小山市","street":"武井"},{"zipCode":"3230062","prefectureKana":"ﾄﾁｷﾞｹﾝ","cityKana":"ｵﾔﾏｼ","streetKana":"ﾀﾂｷﾞ","prefecture":"栃木県","city":"小山市","street":"立木"},{"zipCode":"3230814","prefectureKana":"ﾄﾁｷﾞｹﾝ","cityKana":"ｵﾔﾏｼ","streetKana":"ﾀﾏ","prefecture":"栃木県","city":"小山市","street":"田間"},{"zipCode":"3230023","prefectureKana":"ﾄﾁｷﾞｹﾝ","cityKana":"ｵﾔﾏｼ","streetKana":"ﾁｭｳｵｳﾁｮｳ","prefecture":"栃木県","city":"小山市","street":"中央町"},{"zipCode":"3230818","prefectureKana":"ﾄﾁｷﾞｹﾝ","cityKana":"ｵﾔﾏｼ","streetKana":"ﾂｶｻﾞｷ","prefecture":"栃木県","city":"小山市","street":"塚崎"},{"zipCode":"3230032","prefectureKana":"ﾄﾁｷﾞｹﾝ","cityKana":"ｵﾔﾏｼ","streetKana":"ﾃﾝｼﾞﾝﾁｮｳ","prefecture":"栃木県","city":"小山市","street":"天神町"},{"zipCode":"3230042","prefectureKana":"ﾄﾁｷﾞｹﾝ","cityKana":"ｵﾔﾏｼ","streetKana":"ﾄｼﾞｮｳ","prefecture":"栃木県","city":"小山市","street":"外城"},{"zipCode":"3230812","prefectureKana":"ﾄﾁｷﾞｹﾝ","cityKana":"ｵﾔﾏｼ","streetKana":"ﾄﾞﾄｳ","prefecture":"栃木県","city":"小山市","street":"土塔"},{"zipCode":"3230157","prefectureKana":"ﾄﾁｷﾞｹﾝ","cityKana":"ｵﾔﾏｼ","streetKana":"ﾅｶｶﾞﾜﾗ","prefecture":"栃木県","city":"小山市","street":"中河原"},{"zipCode":"3230806","prefectureKana":"ﾄﾁｷﾞｹﾝ","cityKana":"ｵﾔﾏｼ","streetKana":"ﾅｶｸｷ","prefecture":"栃木県","city":"小山市","street":"中久喜"},{"zipCode":"3230156","prefectureKana":"ﾄﾁｷﾞｹﾝ","cityKana":"ｵﾔﾏｼ","streetKana":"ﾅｶｼﾞﾏ","prefecture":"栃木県","city":"小山市","street":"中島"},{"zipCode":"3230820","prefectureKana":"ﾄﾁｷﾞｹﾝ","cityKana":"ｵﾔﾏｼ","streetKana":"ﾆｼｼﾞｮｳﾅﾝ","prefecture":"栃木県","city":"小山市","street":"西城南"},{"zipCode":"3230152","prefectureKana":"ﾄﾁｷﾞｹﾝ","cityKana":"ｵﾔﾏｼ","streetKana":"ﾉﾌﾞｼﾏ","prefecture":"栃木県","city":"小山市","street":"延島"},{"zipCode":"3230153","prefectureKana":"ﾄﾁｷﾞｹﾝ","cityKana":"ｵﾔﾏｼ","streetKana":"ﾉﾌﾞｼﾏｼﾝﾃﾞﾝ","prefecture":"栃木県","city":"小山市","street":"延島新田"},{"zipCode":"3230046","prefectureKana":"ﾄﾁｷﾞｹﾝ","cityKana":"ｵﾔﾏｼ","streetKana":"ﾊｷﾞｼﾏ","prefecture":"栃木県","city":"小山市","street":"萩島"},{"zipCode":"3230801","prefectureKana":"ﾄﾁｷﾞｹﾝ","cityKana":"ｵﾔﾏｼ","streetKana":"ﾊﾁｶﾞﾀ","prefecture":"栃木県","city":"小山市","street":"鉢形"},{"zipCode":"3230027","prefectureKana":"ﾄﾁｷﾞｹﾝ","cityKana":"ｵﾔﾏｼ","streetKana":"ﾊﾅｶﾞｷﾁｮｳ","prefecture":"栃木県","city":"小山市","street":"花垣町"},{"zipCode":"3230012","prefectureKana":"ﾄﾁｷﾞｹﾝ","cityKana":"ｵﾔﾏｼ","streetKana":"ﾊﾈｶﾜ","prefecture":"栃木県","city":"小山市","street":"羽川"},{"zipCode":"3230003","prefectureKana":"ﾄﾁｷﾞｹﾝ","cityKana":"ｵﾔﾏｼ","streetKana":"ﾋｶﾞｼｼﾏﾀﾞ","prefecture":"栃木県","city":"小山市","street":"東島田"},{"zipCode":"3230829","prefectureKana":"ﾄﾁｷﾞｹﾝ","cityKana":"ｵﾔﾏｼ","streetKana":"ﾋｶﾞｼｼﾞｮｳﾅﾝ","prefecture":"栃木県","city":"小山市","street":"東城南"},{"zipCode":"3230817","prefectureKana":"ﾄﾁｷﾞｹﾝ","cityKana":"ｵﾔﾏｼ","streetKana":"ﾋｶﾞｼﾉﾀﾞ","prefecture":"栃木県","city":"小山市","street":"東野田"},{"zipCode":"3230802","prefectureKana":"ﾄﾁｷﾞｹﾝ","cityKana":"ｵﾔﾏｼ","streetKana":"ﾋｶﾞｼﾔﾏﾀﾞ","prefecture":"栃木県","city":"小山市","street":"東山田"},{"zipCode":"3230034","prefectureKana":"ﾄﾁｷﾞｹﾝ","cityKana":"ｵﾔﾏｼ","streetKana":"ﾋﾄﾄﾉﾔ(ﾁｮｳﾒ)","prefecture":"栃木県","city":"小山市","street":"神鳥谷（丁目）"},{"zipCode":"3230827","prefectureKana":"ﾄﾁｷﾞｹﾝ","cityKana":"ｵﾔﾏｼ","streetKana":"ﾋﾄﾄﾉﾔ(ﾊﾞﾝﾁ)","prefecture":"栃木県","city":"小山市","street":"神鳥谷（番地）"},{"zipCode":"3230155","prefectureKana":"ﾄﾁｷﾞｹﾝ","cityKana":"ｵﾔﾏｼ","streetKana":"ﾌｸﾗ","prefecture":"栃木県","city":"小山市","street":"福良"},{"zipCode":"3230016","prefectureKana":"ﾄﾁｷﾞｹﾝ","cityKana":"ｵﾔﾏｼ","streetKana":"ﾌｿｳ","prefecture":"栃木県","city":"小山市","street":"扶桑"},{"zipCode":"3230026","prefectureKana":"ﾄﾁｷﾞｹﾝ","cityKana":"ｵﾔﾏｼ","streetKana":"ﾎﾝｺﾞｳﾁｮｳ","prefecture":"栃木県","city":"小山市","street":"本郷町"},{"zipCode":"3230007","prefectureKana":"ﾄﾁｷﾞｹﾝ","cityKana":"ｵﾔﾏｼ","streetKana":"ﾏﾂﾇﾏ","prefecture":"栃木県","city":"小山市","street":"松沼"},{"zipCode":"3230044","prefectureKana":"ﾄﾁｷﾞｹﾝ","cityKana":"ｵﾔﾏｼ","streetKana":"ﾏﾅｶ","prefecture":"栃木県","city":"小山市","street":"間中"},{"zipCode":"3230821","prefectureKana":"ﾄﾁｷﾞｹﾝ","cityKana":"ｵﾔﾏｼ","streetKana":"ﾐﾂﾐﾈ","prefecture":"栃木県","city":"小山市","street":"三峯"},{"zipCode":"3230816","prefectureKana":"ﾄﾁｷﾞｹﾝ","cityKana":"ｵﾔﾏｼ","streetKana":"ﾐﾅﾐｲｽﾞﾐ","prefecture":"栃木県","city":"小山市","street":"南和泉"},{"zipCode":"3230057","prefectureKana":"ﾄﾁｷﾞｹﾝ","cityKana":"ｵﾔﾏｼ","streetKana":"ﾐﾅﾐｵﾊﾞﾔｼ","prefecture":"栃木県","city":"小山市","street":"南小林"},{"zipCode":"3230011","prefectureKana":"ﾄﾁｷﾞｹﾝ","cityKana":"ｵﾔﾏｼ","streetKana":"ﾐﾅﾐﾊﾝﾀﾞ","prefecture":"栃木県","city":"小山市","street":"南半田"},{"zipCode":"3230024","prefectureKana":"ﾄﾁｷﾞｹﾝ","cityKana":"ｵﾔﾏｼ","streetKana":"ﾐﾔﾓﾄﾁｮｳ","prefecture":"栃木県","city":"小山市","street":"宮本町"},{"zipCode":"3230805","prefectureKana":"ﾄﾁｷﾞｹﾝ","cityKana":"ｵﾔﾏｼ","streetKana":"ﾑｶｲﾉ","prefecture":"栃木県","city":"小山市","street":"向野"},{"zipCode":"3230823","prefectureKana":"ﾄﾁｷﾞｹﾝ","cityKana":"ｵﾔﾏｼ","streetKana":"ﾑｶｲﾊﾗｼﾝﾃﾞﾝ","prefecture":"栃木県","city":"小山市","street":"向原新田"},{"zipCode":"3230158","prefectureKana":"ﾄﾁｷﾞｹﾝ","cityKana":"ｵﾔﾏｼ","streetKana":"ﾔﾅ","prefecture":"栃木県","city":"小山市","street":"梁"},{"zipCode":"3230031","prefectureKana":"ﾄﾁｷﾞｹﾝ","cityKana":"ｵﾔﾏｼ","streetKana":"ﾔﾊﾀﾁｮｳ","prefecture":"栃木県","city":"小山市","street":"八幡町"},{"zipCode":"3230813","prefectureKana":"ﾄﾁｷﾞｹﾝ","cityKana":"ｵﾔﾏｼ","streetKana":"ﾖｺｸﾗ","prefecture":"栃木県","city":"小山市","street":"横倉"},{"zipCode":"3230819","prefectureKana":"ﾄﾁｷﾞｹﾝ","cityKana":"ｵﾔﾏｼ","streetKana":"ﾖｺｸﾗｼﾝﾃﾞﾝ","prefecture":"栃木県","city":"小山市","street":"横倉新田"},{"zipCode":"3230028","prefectureKana":"ﾄﾁｷﾞｹﾝ","cityKana":"ｵﾔﾏｼ","streetKana":"ﾜｶｷﾞﾁｮｳ","prefecture":"栃木県","city":"小山市","street":"若木町"},{"zipCode":"3230111","prefectureKana":"ﾄﾁｷﾞｹﾝ","cityKana":"ｼﾓﾂｹｼ","streetKana":"ｲｿﾍﾞ","prefecture":"栃木県","city":"下野市","street":"磯部"},{"zipCode":"3230103","prefectureKana":"ﾄﾁｷﾞｹﾝ","cityKana":"ｼﾓﾂｹｼ","streetKana":"ｶﾐｶﾜｼﾏ","prefecture":"栃木県","city":"下野市","street":"上川島"},{"zipCode":"3230113","prefectureKana":"ﾄﾁｷﾞｹﾝ","cityKana":"ｼﾓﾂｹｼ","streetKana":"ｶﾐﾂﾎﾞﾔﾏ","prefecture":"栃木県","city":"下野市","street":"上坪山"},{"zipCode":"3230102","prefectureKana":"ﾄﾁｷﾞｹﾝ","cityKana":"ｼﾓﾂｹｼ","streetKana":"ｶﾐﾖｼﾀﾞ","prefecture":"栃木県","city":"下野市","street":"上吉田"},{"zipCode":"3230114","prefectureKana":"ﾄﾁｷﾞｹﾝ","cityKana":"ｼﾓﾂｹｼ","streetKana":"ｷﾇｲﾀ","prefecture":"栃木県","city":"下野市","street":"絹板"},{"zipCode":"3230101","prefectureKana":"ﾄﾁｷﾞｹﾝ","cityKana":"ｼﾓﾂｹｼ","streetKana":"ｻﾝﾉｳﾔﾏ","prefecture":"栃木県","city":"下野市","street":"三王山"},{"zipCode":"3230115","prefectureKana":"ﾄﾁｷﾞｹﾝ","cityKana":"ｼﾓﾂｹｼ","streetKana":"ｼﾓﾂﾎﾞﾔﾏ","prefecture":"栃木県","city":"下野市","street":"下坪山"},{"zipCode":"3230106","prefectureKana":"ﾄﾁｷﾞｹﾝ","cityKana":"ｼﾓﾂｹｼ","streetKana":"ｼﾓﾖｼﾀﾞ","prefecture":"栃木県","city":"下野市","street":"下吉田"},{"zipCode":"3230104","prefectureKana":"ﾄﾁｷﾞｹﾝ","cityKana":"ｼﾓﾂｹｼ","streetKana":"ﾅｶｶﾜｼﾏ","prefecture":"栃木県","city":"下野市","street":"中川島"},{"zipCode":"3230116","prefectureKana":"ﾄﾁｷﾞｹﾝ","cityKana":"ｼﾓﾂｹｼ","streetKana":"ﾊﾅﾀﾞ","prefecture":"栃木県","city":"下野市","street":"花田"},{"zipCode":"3230112","prefectureKana":"ﾄﾁｷﾞｹﾝ","cityKana":"ｼﾓﾂｹｼ","streetKana":"ﾋｶﾞｼﾈ","prefecture":"栃木県","city":"下野市","street":"東根"},{"zipCode":"3230107","prefectureKana":"ﾄﾁｷﾞｹﾝ","cityKana":"ｼﾓﾂｹｼ","streetKana":"ﾍﾞｯﾄｳｶﾞﾜﾗ","prefecture":"栃木県","city":"下野市","street":"別当河原"},{"zipCode":"3230105","prefectureKana":"ﾄﾁｷﾞｹﾝ","cityKana":"ｼﾓﾂｹｼ","streetKana":"ﾓﾄﾖｼﾀﾞ","prefecture":"栃木県","city":"下野市","street":"本吉田"}]