[{"zipCode":"3250000","prefectureKana":"ﾄﾁｷﾞｹﾝ","cityKana":"ﾅｽｼｵﾊﾞﾗｼ","streetKana":"ｲｶﾆｹｲｻｲｶﾞﾅｲﾊﾞｱｲ","prefecture":"栃木県","city":"那須塩原市","street":"以下に掲載がない場合"},{"zipCode":"3250103","prefectureKana":"ﾄﾁｷﾞｹﾝ","cityKana":"ﾅｽｼｵﾊﾞﾗｼ","streetKana":"ｱｵｷ","prefecture":"栃木県","city":"那須塩原市","street":"青木"},{"zipCode":"3250073","prefectureKana":"ﾄﾁｷﾞｹﾝ","cityKana":"ﾅｽｼｵﾊﾞﾗｼ","streetKana":"ｱﾜﾁｮｳ","prefecture":"栃木県","city":"那須塩原市","street":"阿波町"},{"zipCode":"3250021","prefectureKana":"ﾄﾁｷﾞｹﾝ","cityKana":"ﾅｽｼｵﾊﾞﾗｼ","streetKana":"ｱﾝﾄﾞｳﾁｮｳ","prefecture":"栃木県","city":"那須塩原市","street":"安藤町"},{"zipCode":"3250111","prefectureKana":"ﾄﾁｷﾞｹﾝ","cityKana":"ﾅｽｼｵﾊﾞﾗｼ","streetKana":"ｲﾀﾑﾛ","prefecture":"栃木県","city":"那須塩原市","street":"板室"},{"zipCode":"3250075","prefectureKana":"ﾄﾁｷﾞｹﾝ","cityKana":"ﾅｽｼｵﾊﾞﾗｼ","streetKana":"ｶｽｶﾞﾁｮｳ","prefecture":"栃木県","city":"那須塩原市","street":"春日町"},{"zipCode":"3250104","prefectureKana":"ﾄﾁｷﾞｹﾝ","cityKana":"ﾅｽｼｵﾊﾞﾗｼ","streetKana":"ｶﾉｻｷｼﾝﾃﾞﾝ","prefecture":"栃木県","city":"那須塩原市","street":"鹿野崎新田"},{"zipCode":"3250026","prefectureKana":"ﾄﾁｷﾞｹﾝ","cityKana":"ﾅｽｼｵﾊﾞﾗｼ","streetKana":"ｶﾐｱﾂｻｷ","prefecture":"栃木県","city":"那須塩原市","street":"上厚崎"},{"zipCode":"3250102","prefectureKana":"ﾄﾁｷﾞｹﾝ","cityKana":"ﾅｽｼｵﾊﾞﾗｼ","streetKana":"ｶﾒﾔﾏ","prefecture":"栃木県","city":"那須塩原市","street":"亀山"},{"zipCode":"3250039","prefectureKana":"ﾄﾁｷﾞｹﾝ","cityKana":"ﾅｽｼｵﾊﾞﾗｼ","streetKana":"ｷﾀｻｶｴﾁｮｳ","prefecture":"栃木県","city":"那須塩原市","street":"北栄町"},{"zipCode":"3250027","prefectureKana":"ﾄﾁｷﾞｹﾝ","cityKana":"ﾅｽｼｵﾊﾞﾗｼ","streetKana":"ｷｮｳｺﾝｼｬ","prefecture":"栃木県","city":"那須塩原市","street":"共墾社"},{"zipCode":"3250067","prefectureKana":"ﾄﾁｷﾞｹﾝ","cityKana":"ﾅｽｼｵﾊﾞﾗｼ","streetKana":"ｷﾖｽﾐﾁｮｳ","prefecture":"栃木県","city":"那須塩原市","street":"清住町"},{"zipCode":"3250116","prefectureKana":"ﾄﾁｷﾞｹﾝ","cityKana":"ﾅｽｼｵﾊﾞﾗｼ","streetKana":"ｷﾜﾀﾊﾀ","prefecture":"栃木県","city":"那須塩原市","street":"木綿畑"},{"zipCode":"3250017","prefectureKana":"ﾄﾁｷﾞｹﾝ","cityKana":"ﾅｽｼｵﾊﾞﾗｼ","streetKana":"ｸﾛｲｿ","prefecture":"栃木県","city":"那須塩原市","street":"黒磯"},{"zipCode":"3250057","prefectureKana":"ﾄﾁｷﾞｹﾝ","cityKana":"ﾅｽｼｵﾊﾞﾗｼ","streetKana":"ｸﾛｲｿｻｲﾜｲﾁｮｳ","prefecture":"栃木県","city":"那須塩原市","street":"黒磯幸町"},{"zipCode":"3250012","prefectureKana":"ﾄﾁｷﾞｹﾝ","cityKana":"ﾅｽｼｵﾊﾞﾗｼ","streetKana":"ｺｴﾎﾞﾘ","prefecture":"栃木県","city":"那須塩原市","street":"越堀"},{"zipCode":"3250035","prefectureKana":"ﾄﾁｷﾞｹﾝ","cityKana":"ﾅｽｼｵﾊﾞﾗｼ","streetKana":"ｺﾕｲ","prefecture":"栃木県","city":"那須塩原市","street":"小結"},{"zipCode":"3250048","prefectureKana":"ﾄﾁｷﾞｹﾝ","cityKana":"ﾅｽｼｵﾊﾞﾗｼ","streetKana":"ｻﾞｲﾓｸﾁｮｳ","prefecture":"栃木県","city":"那須塩原市","street":"材木町"},{"zipCode":"3250033","prefectureKana":"ﾄﾁｷﾞｹﾝ","cityKana":"ﾅｽｼｵﾊﾞﾗｼ","streetKana":"ｻｷﾀﾏ","prefecture":"栃木県","city":"那須塩原市","street":"埼玉"},{"zipCode":"3250042","prefectureKana":"ﾄﾁｷﾞｹﾝ","cityKana":"ﾅｽｼｵﾊﾞﾗｼ","streetKana":"ｻｸﾗﾁｮｳ","prefecture":"栃木県","city":"那須塩原市","street":"桜町"},{"zipCode":"3250118","prefectureKana":"ﾄﾁｷﾞｹﾝ","cityKana":"ﾅｽｼｵﾊﾞﾗｼ","streetKana":"ｼｷﾞｳﾁ","prefecture":"栃木県","city":"那須塩原市","street":"鴫内"},{"zipCode":"3250025","prefectureKana":"ﾄﾁｷﾞｹﾝ","cityKana":"ﾅｽｼｵﾊﾞﾗｼ","streetKana":"ｼﾓｱﾂｻｷ","prefecture":"栃木県","city":"那須塩原市","street":"下厚崎"},{"zipCode":"3250054","prefectureKana":"ﾄﾁｷﾞｹﾝ","cityKana":"ﾅｽｼｵﾊﾞﾗｼ","streetKana":"ｼﾝｱｻﾋ","prefecture":"栃木県","city":"那須塩原市","street":"新朝日"},{"zipCode":"3250071","prefectureKana":"ﾄﾁｷﾞｹﾝ","cityKana":"ﾅｽｼｵﾊﾞﾗｼ","streetKana":"ｼﾝﾏﾁ","prefecture":"栃木県","city":"那須塩原市","street":"新町"},{"zipCode":"3250066","prefectureKana":"ﾄﾁｷﾞｹﾝ","cityKana":"ﾅｽｼｵﾊﾞﾗｼ","streetKana":"ｼﾝﾐﾄﾞﾘﾁｮｳ","prefecture":"栃木県","city":"那須塩原市","street":"新緑町"},{"zipCode":"3250061","prefectureKana":"ﾄﾁｷﾞｹﾝ","cityKana":"ﾅｽｼｵﾊﾞﾗｼ","streetKana":"ｽｴﾋﾛﾁｮｳ","prefecture":"栃木県","city":"那須塩原市","street":"末広町"},{"zipCode":"3250062","prefectureKana":"ﾄﾁｷﾞｹﾝ","cityKana":"ﾅｽｼｵﾊﾞﾗｼ","streetKana":"ｽﾐﾖｼﾁｮｳ","prefecture":"栃木県","city":"那須塩原市","street":"住吉町"},{"zipCode":"3250046","prefectureKana":"ﾄﾁｷﾞｹﾝ","cityKana":"ﾅｽｼｵﾊﾞﾗｼ","streetKana":"ﾀﾞｲｺｸﾁｮｳ","prefecture":"栃木県","city":"那須塩原市","street":"大黒町"},{"zipCode":"3250045","prefectureKana":"ﾄﾁｷﾞｹﾝ","cityKana":"ﾅｽｼｵﾊﾞﾗｼ","streetKana":"ﾀｶｻｺﾞﾁｮｳ","prefecture":"栃木県","city":"那須塩原市","street":"高砂町"},{"zipCode":"3250107","prefectureKana":"ﾄﾁｷﾞｹﾝ","cityKana":"ﾅｽｼｵﾊﾞﾗｼ","streetKana":"ﾀｶﾊﾞﾔｼ","prefecture":"栃木県","city":"那須塩原市","street":"高林"},{"zipCode":"3250052","prefectureKana":"ﾄﾁｷﾞｹﾝ","cityKana":"ﾅｽｼｵﾊﾞﾗｼ","streetKana":"ﾁｭｳｵｳﾁｮｳ","prefecture":"栃木県","city":"那須塩原市","street":"中央町"},{"zipCode":"3250011","prefectureKana":"ﾄﾁｷﾞｹﾝ","cityKana":"ﾅｽｼｵﾊﾞﾗｼ","streetKana":"ﾃﾗｺﾞ","prefecture":"栃木県","city":"那須塩原市","street":"寺子"},{"zipCode":"3250016","prefectureKana":"ﾄﾁｷﾞｹﾝ","cityKana":"ﾅｽｼｵﾊﾞﾗｼ","streetKana":"ﾄｳｴｲ","prefecture":"栃木県","city":"那須塩原市","street":"東栄"},{"zipCode":"3250106","prefectureKana":"ﾄﾁｷﾞｹﾝ","cityKana":"ﾅｽｼｵﾊﾞﾗｼ","streetKana":"ﾄﾞｳｼﾞﾏ","prefecture":"栃木県","city":"那須塩原市","street":"洞島"},{"zipCode":"3250114","prefectureKana":"ﾄﾁｷﾞｹﾝ","cityKana":"ﾅｽｼｵﾊﾞﾗｼ","streetKana":"ﾄﾀﾞ","prefecture":"栃木県","city":"那須塩原市","street":"戸田"},{"zipCode":"3250023","prefectureKana":"ﾄﾁｷﾞｹﾝ","cityKana":"ﾅｽｼｵﾊﾞﾗｼ","streetKana":"ﾄﾖｳﾗ","prefecture":"栃木県","city":"那須塩原市","street":"豊浦"},{"zipCode":"3250038","prefectureKana":"ﾄﾁｷﾞｹﾝ","cityKana":"ﾅｽｼｵﾊﾞﾗｼ","streetKana":"ﾄﾖｳﾗｷﾀﾏﾁ","prefecture":"栃木県","city":"那須塩原市","street":"豊浦北町"},{"zipCode":"3250064","prefectureKana":"ﾄﾁｷﾞｹﾝ","cityKana":"ﾅｽｼｵﾊﾞﾗｼ","streetKana":"ﾄﾖｳﾗﾁｮｳ","prefecture":"栃木県","city":"那須塩原市","street":"豊浦町"},{"zipCode":"3250063","prefectureKana":"ﾄﾁｷﾞｹﾝ","cityKana":"ﾅｽｼｵﾊﾞﾗｼ","streetKana":"ﾄﾖｳﾗﾅｶﾏﾁ","prefecture":"栃木県","city":"那須塩原市","street":"豊浦中町"},{"zipCode":"3250065","prefectureKana":"ﾄﾁｷﾞｹﾝ","cityKana":"ﾅｽｼｵﾊﾞﾗｼ","streetKana":"ﾄﾖｳﾗﾐﾅﾐﾁｮｳ","prefecture":"栃木県","city":"那須塩原市","street":"豊浦南町"},{"zipCode":"3250072","prefectureKana":"ﾄﾁｷﾞｹﾝ","cityKana":"ﾅｽｼｵﾊﾞﾗｼ","streetKana":"ﾄﾖｽﾐﾁｮｳ","prefecture":"栃木県","city":"那須塩原市","street":"豊住町"},{"zipCode":"3250036","prefectureKana":"ﾄﾁｷﾞｹﾝ","cityKana":"ﾅｽｼｵﾊﾞﾗｼ","streetKana":"ﾄﾘﾉﾒ","prefecture":"栃木県","city":"那須塩原市","street":"鳥野目"},{"zipCode":"3250013","prefectureKana":"ﾄﾁｷﾞｹﾝ","cityKana":"ﾅｽｼｵﾊﾞﾗｼ","streetKana":"ﾅﾍﾞｶｹ","prefecture":"栃木県","city":"那須塩原市","street":"鍋掛"},{"zipCode":"3250031","prefectureKana":"ﾄﾁｷﾞｹﾝ","cityKana":"ﾅｽｼｵﾊﾞﾗｼ","streetKana":"ﾅﾐｷﾁｮｳ","prefecture":"栃木県","city":"那須塩原市","street":"並木町"},{"zipCode":"3250101","prefectureKana":"ﾄﾁｷﾞｹﾝ","cityKana":"ﾅｽｼｵﾊﾞﾗｼ","streetKana":"ﾆｼｲﾜｻﾞｷ","prefecture":"栃木県","city":"那須塩原市","street":"西岩崎"},{"zipCode":"3250058","prefectureKana":"ﾄﾁｷﾞｹﾝ","cityKana":"ﾅｽｼｵﾊﾞﾗｼ","streetKana":"ﾆｼｷﾁｮｳ","prefecture":"栃木県","city":"那須塩原市","street":"錦町"},{"zipCode":"3250076","prefectureKana":"ﾄﾁｷﾞｹﾝ","cityKana":"ﾅｽｼｵﾊﾞﾗｼ","streetKana":"ﾆｼｼﾝﾏﾁ","prefecture":"栃木県","city":"那須塩原市","street":"西新町"},{"zipCode":"3250014","prefectureKana":"ﾄﾁｷﾞｹﾝ","cityKana":"ﾅｽｼｵﾊﾞﾗｼ","streetKana":"ﾉﾏ","prefecture":"栃木県","city":"那須塩原市","street":"野間"},{"zipCode":"3250043","prefectureKana":"ﾄﾁｷﾞｹﾝ","cityKana":"ﾅｽｼｵﾊﾞﾗｼ","streetKana":"ﾊｼﾓﾄﾁｮｳ","prefecture":"栃木県","city":"那須塩原市","street":"橋本町"},{"zipCode":"3250015","prefectureKana":"ﾄﾁｷﾞｹﾝ","cityKana":"ﾅｽｼｵﾊﾞﾗｼ","streetKana":"ﾊﾗﾏﾁ","prefecture":"栃木県","city":"那須塩原市","street":"原町"},{"zipCode":"3250022","prefectureKana":"ﾄﾁｷﾞｹﾝ","cityKana":"ﾅｽｼｵﾊﾞﾗｼ","streetKana":"ﾋｶﾞｼﾄﾖｳﾗ","prefecture":"栃木県","city":"那須塩原市","street":"東豊浦"},{"zipCode":"3250034","prefectureKana":"ﾄﾁｷﾞｹﾝ","cityKana":"ﾅｽｼｵﾊﾞﾗｼ","streetKana":"ﾋｶﾞｼﾊﾗ","prefecture":"栃木県","city":"那須塩原市","street":"東原"},{"zipCode":"3250041","prefectureKana":"ﾄﾁｷﾞｹﾝ","cityKana":"ﾅｽｼｵﾊﾞﾗｼ","streetKana":"ﾋｶﾞｼﾔﾏﾄﾁｮｳ","prefecture":"栃木県","city":"那須塩原市","street":"東大和町"},{"zipCode":"3250113","prefectureKana":"ﾄﾁｷﾞｹﾝ","cityKana":"ﾅｽｼｵﾊﾞﾗｼ","streetKana":"ﾎｿﾀﾞｹ","prefecture":"栃木県","city":"那須塩原市","street":"細竹"},{"zipCode":"3250053","prefectureKana":"ﾄﾁｷﾞｹﾝ","cityKana":"ﾅｽｼｵﾊﾞﾗｼ","streetKana":"ﾎﾝｺﾞｳﾁｮｳ","prefecture":"栃木県","city":"那須塩原市","street":"本郷町"},{"zipCode":"3250056","prefectureKana":"ﾄﾁｷﾞｹﾝ","cityKana":"ﾅｽｼｵﾊﾞﾗｼ","streetKana":"ﾎﾝﾁｮｳ","prefecture":"栃木県","city":"那須塩原市","street":"本町"},{"zipCode":"3250074","prefectureKana":"ﾄﾁｷﾞｹﾝ","cityKana":"ﾅｽｼｵﾊﾞﾗｼ","streetKana":"ﾏﾂｳﾗﾁｮｳ","prefecture":"栃木県","city":"那須塩原市","street":"松浦町"},{"zipCode":"3250105","prefectureKana":"ﾄﾁｷﾞｹﾝ","cityKana":"ﾅｽｼｵﾊﾞﾗｼ","streetKana":"ﾐﾉﾜ","prefecture":"栃木県","city":"那須塩原市","street":"箕輪"},{"zipCode":"3250037","prefectureKana":"ﾄﾁｷﾞｹﾝ","cityKana":"ﾅｽｼｵﾊﾞﾗｼ","streetKana":"ﾐﾊﾗﾁｮｳ","prefecture":"栃木県","city":"那須塩原市","street":"美原町"},{"zipCode":"3250055","prefectureKana":"ﾄﾁｷﾞｹﾝ","cityKana":"ﾅｽｼｵﾊﾞﾗｼ","streetKana":"ﾐﾔﾁｮｳ","prefecture":"栃木県","city":"那須塩原市","street":"宮町"},{"zipCode":"3250115","prefectureKana":"ﾄﾁｷﾞｹﾝ","cityKana":"ﾅｽｼｵﾊﾞﾗｼ","streetKana":"ﾓﾑﾗ","prefecture":"栃木県","city":"那須塩原市","street":"百村"},{"zipCode":"3250108","prefectureKana":"ﾄﾁｷﾞｹﾝ","cityKana":"ﾅｽｼｵﾊﾞﾗｼ","streetKana":"ﾔﾂﾎﾞ","prefecture":"栃木県","city":"那須塩原市","street":"箭坪"},{"zipCode":"3250044","prefectureKana":"ﾄﾁｷﾞｹﾝ","cityKana":"ﾅｽｼｵﾊﾞﾗｼ","streetKana":"ﾔﾖｲﾁｮｳ","prefecture":"栃木県","city":"那須塩原市","street":"弥生町"},{"zipCode":"3250112","prefectureKana":"ﾄﾁｷﾞｹﾝ","cityKana":"ﾅｽｼｵﾊﾞﾗｼ","streetKana":"ﾕｲ","prefecture":"栃木県","city":"那須塩原市","street":"油井"},{"zipCode":"3250117","prefectureKana":"ﾄﾁｷﾞｹﾝ","cityKana":"ﾅｽｼｵﾊﾞﾗｼ","streetKana":"ﾕｸﾞｳ","prefecture":"栃木県","city":"那須塩原市","street":"湯宮"},{"zipCode":"3250051","prefectureKana":"ﾄﾁｷﾞｹﾝ","cityKana":"ﾅｽｼｵﾊﾞﾗｼ","streetKana":"ﾕﾀｶﾁｮｳ","prefecture":"栃木県","city":"那須塩原市","street":"豊町"},{"zipCode":"3250032","prefectureKana":"ﾄﾁｷﾞｹﾝ","cityKana":"ﾅｽｼｵﾊﾞﾗｼ","streetKana":"ﾜｶｸｻﾁｮｳ","prefecture":"栃木県","city":"那須塩原市","street":"若草町"},{"zipCode":"3250047","prefectureKana":"ﾄﾁｷﾞｹﾝ","cityKana":"ﾅｽｼｵﾊﾞﾗｼ","streetKana":"ﾜｶﾊﾞﾁｮｳ","prefecture":"栃木県","city":"那須塩原市","street":"若葉町"},{"zipCode":"3250024","prefectureKana":"ﾄﾁｷﾞｹﾝ","cityKana":"ﾅｽｼｵﾊﾞﾗｼ","streetKana":"ﾜﾀﾅﾍﾞ","prefecture":"栃木県","city":"那須塩原市","street":"渡辺"},{"zipCode":"3250304","prefectureKana":"ﾄﾁｷﾞｹﾝ","cityKana":"ﾅｽｸﾞﾝﾅｽﾏﾁ","streetKana":"ﾀｶｸｺｳ(2888､4595､5235-6019､6021-6112､","prefecture":"栃木県","city":"那須郡那須町","street":"高久甲（２８８８、４５９５、５２３５～６０１９、６０２１～６１１２、"},{"zipCode":"3250304","prefectureKana":"ﾄﾁｷﾞｹﾝ","cityKana":"ﾅｽｸﾞﾝﾅｽﾏﾁ","streetKana":"6114-6141､6328､6437､6438)","prefecture":"栃木県","city":"那須郡那須町","street":"６１１４～６１４１、６３２８、６４３７、６４３８）"},{"zipCode":"3250001","prefectureKana":"ﾄﾁｷﾞｹﾝ","cityKana":"ﾅｽｸﾞﾝﾅｽﾏﾁ","streetKana":"ﾀｶｸｺｳ(ｿﾉﾀ)","prefecture":"栃木県","city":"那須郡那須町","street":"高久甲（その他）"},{"zipCode":"3250303","prefectureKana":"ﾄﾁｷﾞｹﾝ","cityKana":"ﾅｽｸﾞﾝﾅｽﾏﾁ","streetKana":"ﾀｶｸｵﾂ","prefecture":"栃木県","city":"那須郡那須町","street":"高久乙"},{"zipCode":"3250002","prefectureKana":"ﾄﾁｷﾞｹﾝ","cityKana":"ﾅｽｸﾞﾝﾅｽﾏﾁ","streetKana":"ﾀｶｸﾍｲ(ﾎﾂﾞﾐ､ﾔﾏﾅｼ)","prefecture":"栃木県","city":"那須郡那須町","street":"高久丙（穂積、山梨子）"},{"zipCode":"3250302","prefectureKana":"ﾄﾁｷﾞｹﾝ","cityKana":"ﾅｽｸﾞﾝﾅｽﾏﾁ","streetKana":"ﾀｶｸﾍｲ(ｿﾉﾀ)","prefecture":"栃木県","city":"那須郡那須町","street":"高久丙（その他）"},{"zipCode":"3250003","prefectureKana":"ﾄﾁｷﾞｹﾝ","cityKana":"ﾅｽｸﾞﾝﾅｽﾏﾁ","streetKana":"ﾃﾗｺｵﾂ(720ﾊﾞﾝﾁ)","prefecture":"栃木県","city":"那須郡那須町","street":"寺子乙（７２０番地）"},{"zipCode":"3250301","prefectureKana":"ﾄﾁｷﾞｹﾝ","cityKana":"ﾅｽｸﾞﾝﾅｽﾏﾁ","streetKana":"ﾕﾓﾄ","prefecture":"栃木県","city":"那須郡那須町","street":"湯本"}]