[{"zipCode":"3260000","prefectureKana":"ﾄﾁｷﾞｹﾝ","cityKana":"ｱｼｶｶﾞｼ","streetKana":"ｲｶﾆｹｲｻｲｶﾞﾅｲﾊﾞｱｲ","prefecture":"栃木県","city":"足利市","street":"以下に掲載がない場合"},{"zipCode":"3260052","prefectureKana":"ﾄﾁｷﾞｹﾝ","cityKana":"ｱｼｶｶﾞｼ","streetKana":"ｱｲｵｲﾁｮｳ","prefecture":"栃木県","city":"足利市","street":"相生町"},{"zipCode":"3260062","prefectureKana":"ﾄﾁｷﾞｹﾝ","cityKana":"ｱｼｶｶﾞｼ","streetKana":"ｱｶﾏﾂﾀﾞｲ","prefecture":"栃木県","city":"足利市","street":"赤松台"},{"zipCode":"3260328","prefectureKana":"ﾄﾁｷﾞｹﾝ","cityKana":"ｱｼｶｶﾞｼ","streetKana":"ｱｶﾞﾀﾁｮｳ","prefecture":"栃木県","city":"足利市","street":"県町"},{"zipCode":"3260823","prefectureKana":"ﾄﾁｷﾞｹﾝ","cityKana":"ｱｼｶｶﾞｼ","streetKana":"ｱｻｸﾗﾁｮｳ","prefecture":"栃木県","city":"足利市","street":"朝倉町"},{"zipCode":"3260802","prefectureKana":"ﾄﾁｷﾞｹﾝ","cityKana":"ｱｼｶｶﾞｼ","streetKana":"ｱｻﾋﾁｮｳ","prefecture":"栃木県","city":"足利市","street":"旭町"},{"zipCode":"3260832","prefectureKana":"ﾄﾁｷﾞｹﾝ","cityKana":"ｱｼｶｶﾞｼ","streetKana":"ｱﾗｶﾈﾁｮｳ","prefecture":"栃木県","city":"足利市","street":"荒金町"},{"zipCode":"3260834","prefectureKana":"ﾄﾁｷﾞｹﾝ","cityKana":"ｱｼｶｶﾞｼ","streetKana":"ｱﾗｼﾞｭｸﾁｮｳ","prefecture":"栃木県","city":"足利市","street":"新宿町"},{"zipCode":"3260103","prefectureKana":"ﾄﾁｷﾞｹﾝ","cityKana":"ｱｼｶｶﾞｼ","streetKana":"ｱﾜﾉﾔﾁｮｳ","prefecture":"栃木県","city":"足利市","street":"粟谷町"},{"zipCode":"3260803","prefectureKana":"ﾄﾁｷﾞｹﾝ","cityKana":"ｱｼｶｶﾞｼ","streetKana":"ｲｴﾄﾐﾁｮｳ","prefecture":"栃木県","city":"足利市","street":"家富町"},{"zipCode":"3260014","prefectureKana":"ﾄﾁｷﾞｹﾝ","cityKana":"ｱｼｶｶﾞｼ","streetKana":"ｲｶﾙｷﾞﾁｮｳ","prefecture":"栃木県","city":"足利市","street":"鵤木町"},{"zipCode":"3260811","prefectureKana":"ﾄﾁｷﾞｹﾝ","cityKana":"ｱｼｶｶﾞｼ","streetKana":"ｲｸﾞｻﾁｮｳ","prefecture":"栃木県","city":"足利市","street":"井草町"},{"zipCode":"3260053","prefectureKana":"ﾄﾁｷﾞｹﾝ","cityKana":"ｱｼｶｶﾞｼ","streetKana":"ｲｾﾁｮｳ","prefecture":"栃木県","city":"足利市","street":"伊勢町"},{"zipCode":"3260054","prefectureKana":"ﾄﾁｷﾞｹﾝ","cityKana":"ｱｼｶｶﾞｼ","streetKana":"ｲｾﾐﾅﾐﾁｮｳ","prefecture":"栃木県","city":"足利市","street":"伊勢南町"},{"zipCode":"3260102","prefectureKana":"ﾄﾁｷﾞｹﾝ","cityKana":"ｱｼｶｶﾞｼ","streetKana":"ｲﾀｸﾗﾁｮｳ","prefecture":"栃木県","city":"足利市","street":"板倉町"},{"zipCode":"3260842","prefectureKana":"ﾄﾁｷﾞｹﾝ","cityKana":"ｱｼｶｶﾞｼ","streetKana":"ｲﾏﾌｸﾁｮｳ","prefecture":"栃木県","city":"足利市","street":"今福町"},{"zipCode":"3260046","prefectureKana":"ﾄﾁｷﾞｹﾝ","cityKana":"ｱｼｶｶﾞｼ","streetKana":"ｲﾜｲﾁｮｳ","prefecture":"栃木県","city":"足利市","street":"岩井町"},{"zipCode":"3260055","prefectureKana":"ﾄﾁｷﾞｹﾝ","cityKana":"ｱｼｶｶﾞｼ","streetKana":"ｴｲﾗｸﾁｮｳ","prefecture":"栃木県","city":"足利市","street":"永楽町"},{"zipCode":"3260067","prefectureKana":"ﾄﾁｷﾞｹﾝ","cityKana":"ｱｼｶｶﾞｼ","streetKana":"ｴｶﾞﾜﾁｮｳ","prefecture":"栃木県","city":"足利市","street":"江川町"},{"zipCode":"3260841","prefectureKana":"ﾄﾁｷﾞｹﾝ","cityKana":"ｱｼｶｶﾞｼ","streetKana":"ｵｵｲﾜﾁｮｳ","prefecture":"栃木県","city":"足利市","street":"大岩町"},{"zipCode":"3260012","prefectureKana":"ﾄﾁｷﾞｹﾝ","cityKana":"ｱｼｶｶﾞｼ","streetKana":"ｵｵｸﾎﾞﾁｮｳ","prefecture":"栃木県","city":"足利市","street":"大久保町"},{"zipCode":"3260005","prefectureKana":"ﾄﾁｷﾞｹﾝ","cityKana":"ｱｼｶｶﾞｼ","streetKana":"ｵｵﾂｷﾁｮｳ","prefecture":"栃木県","city":"足利市","street":"大月町"},{"zipCode":"3260011","prefectureKana":"ﾄﾁｷﾞｹﾝ","cityKana":"ｱｼｶｶﾞｼ","streetKana":"ｵｵﾇﾏﾀﾁｮｳ","prefecture":"栃木県","city":"足利市","street":"大沼田町"},{"zipCode":"3260051","prefectureKana":"ﾄﾁｷﾞｹﾝ","cityKana":"ｱｼｶｶﾞｼ","streetKana":"ｵｵﾊｼﾁｮｳ","prefecture":"栃木県","city":"足利市","street":"大橋町"},{"zipCode":"3260845","prefectureKana":"ﾄﾁｷﾞｹﾝ","cityKana":"ｱｼｶｶﾞｼ","streetKana":"ｵｵﾏｴﾁｮｳ","prefecture":"栃木県","city":"足利市","street":"大前町"},{"zipCode":"3260326","prefectureKana":"ﾄﾁｷﾞｹﾝ","cityKana":"ｱｼｶｶﾞｼ","streetKana":"ｵｿﾞﾈﾁｮｳ","prefecture":"栃木県","city":"足利市","street":"小曽根町"},{"zipCode":"3260141","prefectureKana":"ﾄﾁｷﾞｹﾝ","cityKana":"ｱｼｶｶﾞｼ","streetKana":"ｵﾏﾀﾁｮｳ","prefecture":"栃木県","city":"足利市","street":"小俣町"},{"zipCode":"3260142","prefectureKana":"ﾄﾁｷﾞｹﾝ","cityKana":"ｱｼｶｶﾞｼ","streetKana":"ｵﾏﾀﾐﾅﾐﾁｮｳ","prefecture":"栃木県","city":"足利市","street":"小俣南町"},{"zipCode":"3260006","prefectureKana":"ﾄﾁｷﾞｹﾝ","cityKana":"ｱｼｶｶﾞｼ","streetKana":"ｶｶﾎﾞﾁｮｳ","prefecture":"栃木県","city":"足利市","street":"利保町"},{"zipCode":"3260844","prefectureKana":"ﾄﾁｷﾞｹﾝ","cityKana":"ｱｼｶｶﾞｼ","streetKana":"ｶｼﾏﾁｮｳ","prefecture":"栃木県","city":"足利市","street":"鹿島町"},{"zipCode":"3260004","prefectureKana":"ﾄﾁｷﾞｹﾝ","cityKana":"ｱｼｶｶﾞｼ","streetKana":"ｶﾊﾞｻｷﾁｮｳ","prefecture":"栃木県","city":"足利市","street":"樺崎町"},{"zipCode":"3260335","prefectureKana":"ﾄﾁｷﾞｹﾝ","cityKana":"ｱｼｶｶﾞｼ","streetKana":"ｶﾐｼﾌﾞﾀﾚﾁｮｳ","prefecture":"栃木県","city":"足利市","street":"上渋垂町"},{"zipCode":"3260826","prefectureKana":"ﾄﾁｷﾞｹﾝ","cityKana":"ｱｼｶｶﾞｼ","streetKana":"ｶﾘﾔﾄﾞﾁｮｳ","prefecture":"栃木県","city":"足利市","street":"借宿町"},{"zipCode":"3260013","prefectureKana":"ﾄﾁｷﾞｹﾝ","cityKana":"ｱｼｶｶﾞｼ","streetKana":"ｶﾜｻｷﾁｮｳ","prefecture":"栃木県","city":"足利市","street":"川崎町"},{"zipCode":"3260324","prefectureKana":"ﾄﾁｷﾞｹﾝ","cityKana":"ｱｼｶｶﾞｼ","streetKana":"ｸﾎﾞﾀﾁｮｳ","prefecture":"栃木県","city":"足利市","street":"久保田町"},{"zipCode":"3260016","prefectureKana":"ﾄﾁｷﾞｹﾝ","cityKana":"ｱｼｶｶﾞｼ","streetKana":"ｹﾉｼﾝﾏﾁ","prefecture":"栃木県","city":"足利市","street":"毛野新町"},{"zipCode":"3260025","prefectureKana":"ﾄﾁｷﾞｹﾝ","cityKana":"ｱｼｶｶﾞｼ","streetKana":"ｺﾄﾌﾞｷﾁｮｳ","prefecture":"栃木県","city":"足利市","street":"寿町"},{"zipCode":"3260815","prefectureKana":"ﾄﾁｷﾞｹﾝ","cityKana":"ｱｼｶｶﾞｼ","streetKana":"ｻｶｴﾁｮｳ","prefecture":"栃木県","city":"足利市","street":"栄町"},{"zipCode":"3260835","prefectureKana":"ﾄﾁｷﾞｹﾝ","cityKana":"ｱｼｶｶﾞｼ","streetKana":"ｻﾄﾔﾊﾞﾁｮｳ","prefecture":"栃木県","city":"足利市","street":"里矢場町"},{"zipCode":"3260023","prefectureKana":"ﾄﾁｷﾞｹﾝ","cityKana":"ｱｼｶｶﾞｼ","streetKana":"ｻﾙﾀﾁｮｳ","prefecture":"栃木県","city":"足利市","street":"猿田町"},{"zipCode":"3260337","prefectureKana":"ﾄﾁｷﾞｹﾝ","cityKana":"ｱｼｶｶﾞｼ","streetKana":"ｼﾏﾀﾞﾁｮｳ","prefecture":"栃木県","city":"足利市","street":"島田町"},{"zipCode":"3260334","prefectureKana":"ﾄﾁｷﾞｹﾝ","cityKana":"ｱｼｶｶﾞｼ","streetKana":"ｼﾓｼﾌﾞﾀﾚﾁｮｳ","prefecture":"栃木県","city":"足利市","street":"下渋垂町"},{"zipCode":"3260813","prefectureKana":"ﾄﾁｷﾞｹﾝ","cityKana":"ｱｼｶｶﾞｼ","streetKana":"ｼｮｳﾍｲﾁｮｳ","prefecture":"栃木県","city":"足利市","street":"昌平町"},{"zipCode":"3260063","prefectureKana":"ﾄﾁｷﾞｹﾝ","cityKana":"ｱｼｶｶﾞｼ","streetKana":"ｼﾝﾔﾏﾁｮｳ","prefecture":"栃木県","city":"足利市","street":"新山町"},{"zipCode":"3260031","prefectureKana":"ﾄﾁｷﾞｹﾝ","cityKana":"ｱｼｶｶﾞｼ","streetKana":"ｽｴﾋﾛﾁｮｳ","prefecture":"栃木県","city":"足利市","street":"末広町"},{"zipCode":"3260044","prefectureKana":"ﾄﾁｷﾞｹﾝ","cityKana":"ｱｼｶｶﾞｼ","streetKana":"ｽｹﾄﾞ","prefecture":"栃木県","city":"足利市","street":"助戸"},{"zipCode":"3260048","prefectureKana":"ﾄﾁｷﾞｹﾝ","cityKana":"ｱｼｶｶﾞｼ","streetKana":"ｽｹﾄﾞｵｵﾊｼﾁｮｳ","prefecture":"栃木県","city":"足利市","street":"助戸大橋町"},{"zipCode":"3260041","prefectureKana":"ﾄﾁｷﾞｹﾝ","cityKana":"ｱｼｶｶﾞｼ","streetKana":"ｽｹﾄﾞｼﾝﾔﾏﾁｮｳ","prefecture":"栃木県","city":"足利市","street":"助戸新山町"},{"zipCode":"3260043","prefectureKana":"ﾄﾁｷﾞｹﾝ","cityKana":"ｱｼｶｶﾞｼ","streetKana":"ｽｹﾄﾞﾅｶﾁｮｳ","prefecture":"栃木県","city":"足利市","street":"助戸仲町"},{"zipCode":"3260042","prefectureKana":"ﾄﾁｷﾞｹﾝ","cityKana":"ｱｼｶｶﾞｼ","streetKana":"ｽｹﾄﾞﾋｶﾞｼﾔﾏﾁｮｳ","prefecture":"栃木県","city":"足利市","street":"助戸東山町"},{"zipCode":"3260007","prefectureKana":"ﾄﾁｷﾞｹﾝ","cityKana":"ｱｼｶｶﾞｼ","streetKana":"ｽｹﾞﾀﾁｮｳ","prefecture":"栃木県","city":"足利市","street":"菅田町"},{"zipCode":"3260807","prefectureKana":"ﾄﾁｷﾞｹﾝ","cityKana":"ｱｼｶｶﾞｼ","streetKana":"ﾀｲｼｮｳﾁｮｳ","prefecture":"栃木県","city":"足利市","street":"大正町"},{"zipCode":"3260056","prefectureKana":"ﾄﾁｷﾞｹﾝ","cityKana":"ｱｼｶｶﾞｼ","streetKana":"ﾀﾞｲﾁｮｳ","prefecture":"栃木県","city":"足利市","street":"大町"},{"zipCode":"3260812","prefectureKana":"ﾄﾁｷﾞｹﾝ","cityKana":"ｱｼｶｶﾞｼ","streetKana":"ﾀﾞｲﾓﾝﾄﾞｵﾘ","prefecture":"栃木県","city":"足利市","street":"大門通"},{"zipCode":"3260325","prefectureKana":"ﾄﾁｷﾞｹﾝ","cityKana":"ｱｼｶｶﾞｼ","streetKana":"ﾀｶﾏﾂﾁｮｳ","prefecture":"栃木県","city":"足利市","street":"高松町"},{"zipCode":"3260061","prefectureKana":"ﾄﾁｷﾞｹﾝ","cityKana":"ｱｼｶｶﾞｼ","streetKana":"ﾀｼﾞﾏﾁｮｳ","prefecture":"栃木県","city":"足利市","street":"田島町"},{"zipCode":"3260066","prefectureKana":"ﾄﾁｷﾞｹﾝ","cityKana":"ｱｼｶｶﾞｼ","streetKana":"ﾀﾄﾞｺﾛﾁｮｳ","prefecture":"栃木県","city":"足利市","street":"田所町"},{"zipCode":"3260822","prefectureKana":"ﾄﾁｷﾞｹﾝ","cityKana":"ｱｼｶｶﾞｼ","streetKana":"ﾀﾅｶﾁｮｳ","prefecture":"栃木県","city":"足利市","street":"田中町"},{"zipCode":"3260045","prefectureKana":"ﾄﾁｷﾞｹﾝ","cityKana":"ｱｼｶｶﾞｼ","streetKana":"ﾁﾄｾﾁｮｳ","prefecture":"栃木県","city":"足利市","street":"千歳町"},{"zipCode":"3260068","prefectureKana":"ﾄﾁｷﾞｹﾝ","cityKana":"ｱｼｶｶﾞｼ","streetKana":"ﾂｷﾔﾁｮｳ","prefecture":"栃木県","city":"足利市","street":"月谷町"},{"zipCode":"3260022","prefectureKana":"ﾄﾁｷﾞｹﾝ","cityKana":"ｱｼｶｶﾞｼ","streetKana":"ﾂﾈﾐﾁｮｳ","prefecture":"栃木県","city":"足利市","street":"常見町"},{"zipCode":"3260814","prefectureKana":"ﾄﾁｷﾞｹﾝ","cityKana":"ｱｼｶｶﾞｼ","streetKana":"ﾄｵﾘ","prefecture":"栃木県","city":"足利市","street":"通"},{"zipCode":"3260026","prefectureKana":"ﾄﾁｷﾞｹﾝ","cityKana":"ｱｼｶｶﾞｼ","streetKana":"ﾄｷﾜﾁｮｳ","prefecture":"栃木県","city":"足利市","street":"常盤町"},{"zipCode":"3260805","prefectureKana":"ﾄﾁｷﾞｹﾝ","cityKana":"ｱｼｶｶﾞｼ","streetKana":"ﾄﾓｴﾁｮｳ","prefecture":"栃木県","city":"足利市","street":"巴町"},{"zipCode":"3260333","prefectureKana":"ﾄﾁｷﾞｹﾝ","cityKana":"ｱｼｶｶﾞｼ","streetKana":"ﾄﾝﾔﾁｮｳ","prefecture":"栃木県","city":"足利市","street":"問屋町"},{"zipCode":"3260825","prefectureKana":"ﾄﾁｷﾞｹﾝ","cityKana":"ｱｼｶｶﾞｼ","streetKana":"ﾅｶｶﾞﾜﾁｮｳ","prefecture":"栃木県","city":"足利市","street":"中川町"},{"zipCode":"3260001","prefectureKana":"ﾄﾁｷﾞｹﾝ","cityKana":"ｱｼｶｶﾞｼ","streetKana":"ﾅｸﾞｻｶﾐﾁｮｳ","prefecture":"栃木県","city":"足利市","street":"名草上町"},{"zipCode":"3260002","prefectureKana":"ﾄﾁｷﾞｹﾝ","cityKana":"ｱｼｶｶﾞｼ","streetKana":"ﾅｸﾞｻﾅｶﾁｮｳ","prefecture":"栃木県","city":"足利市","street":"名草中町"},{"zipCode":"3260003","prefectureKana":"ﾄﾁｷﾞｹﾝ","cityKana":"ｱｼｶｶﾞｼ","streetKana":"ﾅｸﾞｻｼﾓﾁｮｳ","prefecture":"栃木県","city":"足利市","street":"名草下町"},{"zipCode":"3260837","prefectureKana":"ﾄﾁｷﾞｹﾝ","cityKana":"ｱｼｶｶﾞｼ","streetKana":"ﾆｼｱﾗｲﾁｮｳ","prefecture":"栃木県","city":"足利市","street":"西新井町"},{"zipCode":"3260047","prefectureKana":"ﾄﾁｷﾞｹﾝ","cityKana":"ｱｼｶｶﾞｼ","streetKana":"ﾆｼｷﾁｮｳ","prefecture":"栃木県","city":"足利市","street":"錦町"},{"zipCode":"3260065","prefectureKana":"ﾄﾁｷﾞｹﾝ","cityKana":"ｱｼｶｶﾞｼ","streetKana":"ﾆｼｻﾜﾗｺﾞﾁｮｳ","prefecture":"栃木県","city":"足利市","street":"西砂原後町"},{"zipCode":"3260817","prefectureKana":"ﾄﾁｷﾞｹﾝ","cityKana":"ｱｼｶｶﾞｼ","streetKana":"ﾆｼﾉﾐﾔﾁｮｳ","prefecture":"栃木県","city":"足利市","street":"西宮町"},{"zipCode":"3260322","prefectureKana":"ﾄﾁｷﾞｹﾝ","cityKana":"ｱｼｶｶﾞｼ","streetKana":"ﾉﾀﾞﾁｮｳ","prefecture":"栃木県","city":"足利市","street":"野田町"},{"zipCode":"3260327","prefectureKana":"ﾄﾁｷﾞｹﾝ","cityKana":"ｱｼｶｶﾞｼ","streetKana":"ﾊｶﾘﾁｮｳ","prefecture":"栃木県","city":"足利市","street":"羽刈町"},{"zipCode":"3260143","prefectureKana":"ﾄﾁｷﾞｹﾝ","cityKana":"ｱｼｶｶﾞｼ","streetKana":"ﾊｼﾞｶﾁｮｳ","prefecture":"栃木県","city":"足利市","street":"葉鹿町"},{"zipCode":"3260144","prefectureKana":"ﾄﾁｷﾞｹﾝ","cityKana":"ｱｼｶｶﾞｼ","streetKana":"ﾊｼﾞｶﾐﾅﾐﾁｮｳ","prefecture":"栃木県","city":"足利市","street":"葉鹿南町"},{"zipCode":"3260033","prefectureKana":"ﾄﾁｷﾞｹﾝ","cityKana":"ｱｼｶｶﾞｼ","streetKana":"ﾊﾅｿﾞﾉﾁｮｳ","prefecture":"栃木県","city":"足利市","street":"花園町"},{"zipCode":"3260064","prefectureKana":"ﾄﾁｷﾞｹﾝ","cityKana":"ｱｼｶｶﾞｼ","streetKana":"ﾋｶﾞｼｻﾜﾗｺﾞﾁｮｳ","prefecture":"栃木県","city":"足利市","street":"東砂原後町"},{"zipCode":"3260034","prefectureKana":"ﾄﾁｷﾞｹﾝ","cityKana":"ｱｼｶｶﾞｼ","streetKana":"ﾋｻﾏﾂﾁｮｳ","prefecture":"栃木県","city":"足利市","street":"久松町"},{"zipCode":"3260338","prefectureKana":"ﾄﾁｷﾞｹﾝ","cityKana":"ｱｼｶｶﾞｼ","streetKana":"ﾌｸｲﾁｮｳ","prefecture":"栃木県","city":"足利市","street":"福居町"},{"zipCode":"3260332","prefectureKana":"ﾄﾁｷﾞｹﾝ","cityKana":"ｱｼｶｶﾞｼ","streetKana":"ﾌｸﾄﾐｼﾝﾁｮｳ","prefecture":"栃木県","city":"足利市","street":"福富新町"},{"zipCode":"3260331","prefectureKana":"ﾄﾁｷﾞｹﾝ","cityKana":"ｱｼｶｶﾞｼ","streetKana":"ﾌｸﾄﾐﾁｮｳ","prefecture":"栃木県","city":"足利市","street":"福富町"},{"zipCode":"3260037","prefectureKana":"ﾄﾁｷﾞｹﾝ","cityKana":"ｱｼｶｶﾞｼ","streetKana":"ﾌｼﾞﾐﾁｮｳ","prefecture":"栃木県","city":"足利市","street":"富士見町"},{"zipCode":"3260833","prefectureKana":"ﾄﾁｷﾞｹﾝ","cityKana":"ｱｼｶｶﾞｼ","streetKana":"ﾌｼﾞﾓﾄﾁｮｳ","prefecture":"栃木県","city":"足利市","street":"藤本町"},{"zipCode":"3260831","prefectureKana":"ﾄﾁｷﾞｹﾝ","cityKana":"ｱｼｶｶﾞｼ","streetKana":"ﾎﾘｺﾞﾒﾁｮｳ","prefecture":"栃木県","city":"足利市","street":"堀込町"},{"zipCode":"3260808","prefectureKana":"ﾄﾁｷﾞｹﾝ","cityKana":"ｱｼｶｶﾞｼ","streetKana":"ﾎﾝｼﾞｮｳ","prefecture":"栃木県","city":"足利市","street":"本城"},{"zipCode":"3260032","prefectureKana":"ﾄﾁｷﾞｹﾝ","cityKana":"ｱｼｶｶﾞｼ","streetKana":"ﾏｻｺﾞﾁｮｳ","prefecture":"栃木県","city":"足利市","street":"真砂町"},{"zipCode":"3260101","prefectureKana":"ﾄﾁｷﾞｹﾝ","cityKana":"ｱｼｶｶﾞｼ","streetKana":"ﾏﾂﾀﾞﾁｮｳ","prefecture":"栃木県","city":"足利市","street":"松田町"},{"zipCode":"3260057","prefectureKana":"ﾄﾁｷﾞｹﾝ","cityKana":"ｱｼｶｶﾞｼ","streetKana":"ﾏﾙﾔﾏﾁｮｳ","prefecture":"栃木県","city":"足利市","street":"丸山町"},{"zipCode":"3260323","prefectureKana":"ﾄﾁｷﾞｹﾝ","cityKana":"ｱｼｶｶﾞｼ","streetKana":"ﾐｽﾞﾎﾉﾁｮｳ","prefecture":"栃木県","city":"足利市","street":"瑞穂野町"},{"zipCode":"3260816","prefectureKana":"ﾄﾁｷﾞｹﾝ","cityKana":"ｱｼｶｶﾞｼ","streetKana":"ﾐﾄﾞﾘﾁｮｳ","prefecture":"栃木県","city":"足利市","street":"緑町"},{"zipCode":"3260836","prefectureKana":"ﾄﾁｷﾞｹﾝ","cityKana":"ｱｼｶｶﾞｼ","streetKana":"ﾐﾅﾐｵｵﾏﾁ","prefecture":"栃木県","city":"足利市","street":"南大町"},{"zipCode":"3260821","prefectureKana":"ﾄﾁｷﾞｹﾝ","cityKana":"ｱｼｶｶﾞｼ","streetKana":"ﾐﾅﾐﾁｮｳ","prefecture":"栃木県","city":"足利市","street":"南町"},{"zipCode":"3260027","prefectureKana":"ﾄﾁｷﾞｹﾝ","cityKana":"ｱｼｶｶﾞｼ","streetKana":"ﾐﾔｷﾀﾁｮｳ","prefecture":"栃木県","city":"足利市","street":"宮北町"},{"zipCode":"3260058","prefectureKana":"ﾄﾁｷﾞｹﾝ","cityKana":"ｱｼｶｶﾞｼ","streetKana":"ﾓﾄｶﾞｸﾁｮｳ","prefecture":"栃木県","city":"足利市","street":"元学町"},{"zipCode":"3260336","prefectureKana":"ﾄﾁｷﾞｹﾝ","cityKana":"ｱｼｶｶﾞｼ","streetKana":"ﾓﾓｶﾞｼﾗﾁｮｳ","prefecture":"栃木県","city":"足利市","street":"百頭町"},{"zipCode":"3260015","prefectureKana":"ﾄﾁｷﾞｹﾝ","cityKana":"ｱｼｶｶﾞｼ","streetKana":"ﾔﾂｸﾇｷﾞﾁｮｳ","prefecture":"栃木県","city":"足利市","street":"八椚町"},{"zipCode":"3260806","prefectureKana":"ﾄﾁｷﾞｹﾝ","cityKana":"ｱｼｶｶﾞｼ","streetKana":"ﾔﾅｷﾞﾜﾗﾁｮｳ","prefecture":"栃木県","city":"足利市","street":"柳原町"},{"zipCode":"3260321","prefectureKana":"ﾄﾁｷﾞｹﾝ","cityKana":"ｱｼｶｶﾞｼ","streetKana":"ﾔﾅﾀﾞﾁｮｳ","prefecture":"栃木県","city":"足利市","street":"梁田町"},{"zipCode":"3260021","prefectureKana":"ﾄﾁｷﾞｹﾝ","cityKana":"ｱｼｶｶﾞｼ","streetKana":"ﾔﾏｶﾞﾜﾁｮｳ","prefecture":"栃木県","city":"足利市","street":"山川町"},{"zipCode":"3260846","prefectureKana":"ﾄﾁｷﾞｹﾝ","cityKana":"ｱｼｶｶﾞｼ","streetKana":"ﾔﾏｼﾀﾁｮｳ","prefecture":"栃木県","city":"足利市","street":"山下町"},{"zipCode":"3260036","prefectureKana":"ﾄﾁｷﾞｹﾝ","cityKana":"ｱｼｶｶﾞｼ","streetKana":"ﾔﾖｲﾁｮｳ","prefecture":"栃木県","city":"足利市","street":"弥生町"},{"zipCode":"3260824","prefectureKana":"ﾄﾁｷﾞｹﾝ","cityKana":"ｱｼｶｶﾞｼ","streetKana":"ﾔﾜﾀﾁｮｳ","prefecture":"栃木県","city":"足利市","street":"八幡町"},{"zipCode":"3260801","prefectureKana":"ﾄﾁｷﾞｹﾝ","cityKana":"ｱｼｶｶﾞｼ","streetKana":"ﾕｳﾗｸﾁｮｳ","prefecture":"栃木県","city":"足利市","street":"有楽町"},{"zipCode":"3260804","prefectureKana":"ﾄﾁｷﾞｹﾝ","cityKana":"ｱｼｶｶﾞｼ","streetKana":"ﾕｷﾜﾁｮｳ","prefecture":"栃木県","city":"足利市","street":"雪輪町"},{"zipCode":"3260035","prefectureKana":"ﾄﾁｷﾞｹﾝ","cityKana":"ｱｼｶｶﾞｼ","streetKana":"ﾖｼﾁｮｳ","prefecture":"栃木県","city":"足利市","street":"芳町"},{"zipCode":"3260843","prefectureKana":"ﾄﾁｷﾞｹﾝ","cityKana":"ｱｼｶｶﾞｼ","streetKana":"ﾖﾍﾞﾁｮｳ","prefecture":"栃木県","city":"足利市","street":"五十部町"},{"zipCode":"3260024","prefectureKana":"ﾄﾁｷﾞｹﾝ","cityKana":"ｱｼｶｶﾞｼ","streetKana":"ﾜｶｸｻﾁｮｳ","prefecture":"栃木県","city":"足利市","street":"若草町"}]