[{"zipCode":"3280000","prefectureKana":"ﾄﾁｷﾞｹﾝ","cityKana":"ﾄﾁｷﾞｼ","streetKana":"ｲｶﾆｹｲｻｲｶﾞﾅｲﾊﾞｱｲ","prefecture":"栃木県","city":"栃木市","street":"以下に掲載がない場合"},{"zipCode":"3280035","prefectureKana":"ﾄﾁｷﾞｹﾝ","cityKana":"ﾄﾁｷﾞｼ","streetKana":"ｱｻﾋﾁｮｳ","prefecture":"栃木県","city":"栃木市","street":"旭町"},{"zipCode":"3280131","prefectureKana":"ﾄﾁｷﾞｹﾝ","cityKana":"ﾄﾁｷﾞｼ","streetKana":"ｱｽﾞｻﾏﾁ","prefecture":"栃木県","city":"栃木市","street":"梓町"},{"zipCode":"3280061","prefectureKana":"ﾄﾁｷﾞｹﾝ","cityKana":"ﾄﾁｷﾞｼ","streetKana":"ｱﾗｲﾏﾁ","prefecture":"栃木県","city":"栃木市","street":"新井町"},{"zipCode":"3280062","prefectureKana":"ﾄﾁｷﾞｹﾝ","cityKana":"ﾄﾁｷﾞｼ","streetKana":"ｲｽﾞﾐｶﾞﾜﾏﾁ","prefecture":"栃木県","city":"栃木市","street":"泉川町"},{"zipCode":"3280014","prefectureKana":"ﾄﾁｷﾞｹﾝ","cityKana":"ﾄﾁｷﾞｼ","streetKana":"ｲｽﾞﾐﾁｮｳ","prefecture":"栃木県","city":"栃木市","street":"泉町"},{"zipCode":"3280206","prefectureKana":"ﾄﾁｷﾞｹﾝ","cityKana":"ﾄﾁｷﾞｼ","streetKana":"ｲｽﾞﾙﾏﾁ","prefecture":"栃木県","city":"栃木市","street":"出流町"},{"zipCode":"3280027","prefectureKana":"ﾄﾁｷﾞｹﾝ","cityKana":"ﾄﾁｷﾞｼ","streetKana":"ｲﾏｲｽﾞﾐﾏﾁ","prefecture":"栃木県","city":"栃木市","street":"今泉町"},{"zipCode":"3280016","prefectureKana":"ﾄﾁｷﾞｹﾝ","cityKana":"ﾄﾁｷﾞｼ","streetKana":"ｲﾘﾌﾈﾁｮｳ","prefecture":"栃木県","city":"栃木市","street":"入舟町"},{"zipCode":"3280052","prefectureKana":"ﾄﾁｷﾞｹﾝ","cityKana":"ﾄﾁｷﾞｼ","streetKana":"ｲﾜｲﾁｮｳ","prefecture":"栃木県","city":"栃木市","street":"祝町"},{"zipCode":"3280063","prefectureKana":"ﾄﾁｷﾞｹﾝ","cityKana":"ﾄﾁｷﾞｼ","streetKana":"ｲﾜﾃﾞﾏﾁ","prefecture":"栃木県","city":"栃木市","street":"岩出町"},{"zipCode":"3280204","prefectureKana":"ﾄﾁｷﾞｹﾝ","cityKana":"ﾄﾁｷﾞｼ","streetKana":"ｳﾒｻﾞﾜﾏﾁ","prefecture":"栃木県","city":"栃木市","street":"梅沢町"},{"zipCode":"3280202","prefectureKana":"ﾄﾁｷﾞｹﾝ","cityKana":"ﾄﾁｷﾞｼ","streetKana":"ｵｵｸﾎﾞﾏﾁ","prefecture":"栃木県","city":"栃木市","street":"大久保町"},{"zipCode":"3280007","prefectureKana":"ﾄﾁｷﾞｹﾝ","cityKana":"ﾄﾁｷﾞｼ","streetKana":"ｵｵﾂｶﾏﾁ","prefecture":"栃木県","city":"栃木市","street":"大塚町"},{"zipCode":"3280068","prefectureKana":"ﾄﾁｷﾞｹﾝ","cityKana":"ﾄﾁｷﾞｼ","streetKana":"ｵｵﾐﾅｶﾞﾜﾏﾁ","prefecture":"栃木県","city":"栃木市","street":"大皆川町"},{"zipCode":"3280011","prefectureKana":"ﾄﾁｷﾞｹﾝ","cityKana":"ﾄﾁｷﾞｼ","streetKana":"ｵｵﾐﾔﾏﾁ","prefecture":"栃木県","city":"栃木市","street":"大宮町"},{"zipCode":"3280133","prefectureKana":"ﾄﾁｷﾞｹﾝ","cityKana":"ﾄﾁｷﾞｼ","streetKana":"ｵｵﾓﾘﾏﾁ","prefecture":"栃木県","city":"栃木市","street":"大森町"},{"zipCode":"3280065","prefectureKana":"ﾄﾁｷﾞｹﾝ","cityKana":"ﾄﾁｷﾞｼ","streetKana":"ｵﾉｸﾞﾁﾏﾁ","prefecture":"栃木県","city":"栃木市","street":"小野口町"},{"zipCode":"3280072","prefectureKana":"ﾄﾁｷﾞｹﾝ","cityKana":"ﾄﾁｷﾞｼ","streetKana":"ｶｳｴﾓﾝﾁｮｳ","prefecture":"栃木県","city":"栃木市","street":"嘉右衛門町"},{"zipCode":"3280066","prefectureKana":"ﾄﾁｷﾞｹﾝ","cityKana":"ﾄﾁｷﾞｼ","streetKana":"ｶｼﾜｸﾞﾗﾏﾁ","prefecture":"栃木県","city":"栃木市","street":"柏倉町"},{"zipCode":"3280053","prefectureKana":"ﾄﾁｷﾞｹﾝ","cityKana":"ﾄﾁｷﾞｼ","streetKana":"ｶﾀﾔﾅｷﾞﾁｮｳ","prefecture":"栃木県","city":"栃木市","street":"片柳町"},{"zipCode":"3280041","prefectureKana":"ﾄﾁｷﾞｹﾝ","cityKana":"ﾄﾁｷﾞｼ","streetKana":"ｶﾜｲﾁｮｳ","prefecture":"栃木県","city":"栃木市","street":"河合町"},{"zipCode":"3280123","prefectureKana":"ﾄﾁｷﾞｹﾝ","cityKana":"ﾄﾁｷﾞｼ","streetKana":"ｶﾜﾗﾀﾞﾏﾁ","prefecture":"栃木県","city":"栃木市","street":"川原田町"},{"zipCode":"3280032","prefectureKana":"ﾄﾁｷﾞｹﾝ","cityKana":"ﾄﾁｷﾞｼ","streetKana":"ｶﾝﾀﾞﾁｮｳ","prefecture":"栃木県","city":"栃木市","street":"神田町"},{"zipCode":"3280122","prefectureKana":"ﾄﾁｷﾞｹﾝ","cityKana":"ﾄﾁｷﾞｼ","streetKana":"ｷﾉｼﾞﾏﾁ","prefecture":"栃木県","city":"栃木市","street":"木野地町"},{"zipCode":"3280021","prefectureKana":"ﾄﾁｷﾞｹﾝ","cityKana":"ﾄﾁｷﾞｼ","streetKana":"ｸﾎﾞﾀﾏﾁ","prefecture":"栃木県","city":"栃木市","street":"久保田町"},{"zipCode":"3280006","prefectureKana":"ﾄﾁｷﾞｹﾝ","cityKana":"ﾄﾁｷﾞｼ","streetKana":"ｺｳﾏﾁ","prefecture":"栃木県","city":"栃木市","street":"国府町"},{"zipCode":"3280023","prefectureKana":"ﾄﾁｷﾞｹﾝ","cityKana":"ﾄﾁｷﾞｼ","streetKana":"ｺｳﾔﾏﾁ","prefecture":"栃木県","city":"栃木市","street":"高谷町"},{"zipCode":"3280073","prefectureKana":"ﾄﾁｷﾞｹﾝ","cityKana":"ﾄﾁｷﾞｼ","streetKana":"ｺﾋﾗﾁｮｳ","prefecture":"栃木県","city":"栃木市","street":"小平町"},{"zipCode":"3280043","prefectureKana":"ﾄﾁｷﾞｹﾝ","cityKana":"ﾄﾁｷﾞｼ","streetKana":"ｻｶｲﾁｮｳ","prefecture":"栃木県","city":"栃木市","street":"境町"},{"zipCode":"3280064","prefectureKana":"ﾄﾁｷﾞｹﾝ","cityKana":"ﾄﾁｷﾞｼ","streetKana":"ｼﾄﾘﾏﾁ","prefecture":"栃木県","city":"栃木市","street":"志鳥町"},{"zipCode":"3280033","prefectureKana":"ﾄﾁｷﾞｹﾝ","cityKana":"ﾄﾁｷﾞｼ","streetKana":"ｼﾞｮｳﾅｲﾁｮｳ","prefecture":"栃木県","city":"栃木市","street":"城内町"},{"zipCode":"3280013","prefectureKana":"ﾄﾁｷﾞｹﾝ","cityKana":"ﾄﾁｷﾞｼ","streetKana":"ｼｮｳﾜﾁｮｳ","prefecture":"栃木県","city":"栃木市","street":"昭和町"},{"zipCode":"3280203","prefectureKana":"ﾄﾁｷﾞｹﾝ","cityKana":"ﾄﾁｷﾞｼ","streetKana":"ｼﾘｳﾁﾏﾁ","prefecture":"栃木県","city":"栃木市","street":"尻内町"},{"zipCode":"3280002","prefectureKana":"ﾄﾁｷﾞｹﾝ","cityKana":"ﾄﾁｷﾞｼ","streetKana":"ｿｳｼﾞｬﾏﾁ","prefecture":"栃木県","city":"栃木市","street":"惣社町"},{"zipCode":"3280074","prefectureKana":"ﾄﾁｷﾞｹﾝ","cityKana":"ﾄﾁｷﾞｼ","streetKana":"ｿﾉﾍﾞﾁｮｳ","prefecture":"栃木県","city":"栃木市","street":"薗部町"},{"zipCode":"3280003","prefectureKana":"ﾄﾁｷﾞｹﾝ","cityKana":"ﾄﾁｷﾞｼ","streetKana":"ﾀﾞｲｺｳｼﾞﾏﾁ","prefecture":"栃木県","city":"栃木市","street":"大光寺町"},{"zipCode":"3280071","prefectureKana":"ﾄﾁｷﾞｹﾝ","cityKana":"ﾄﾁｷﾞｼ","streetKana":"ﾀﾞｲﾁｮｳ","prefecture":"栃木県","city":"栃木市","street":"大町"},{"zipCode":"3280004","prefectureKana":"ﾄﾁｷﾞｹﾝ","cityKana":"ﾄﾁｷﾞｼ","streetKana":"ﾀﾑﾗﾏﾁ","prefecture":"栃木県","city":"栃木市","street":"田村町"},{"zipCode":"3280135","prefectureKana":"ﾄﾁｷﾞｹﾝ","cityKana":"ﾄﾁｷﾞｼ","streetKana":"ﾁﾂﾞｶﾏﾁ","prefecture":"栃木県","city":"栃木市","street":"千塚町"},{"zipCode":"3280111","prefectureKana":"ﾄﾁｷﾞｹﾝ","cityKana":"ﾄﾁｷﾞｼ","streetKana":"ﾂｶﾞﾏﾁｲｴﾅｶ","prefecture":"栃木県","city":"栃木市","street":"都賀町家中"},{"zipCode":"3280105","prefectureKana":"ﾄﾁｷﾞｹﾝ","cityKana":"ﾄﾁｷﾞｼ","streetKana":"ﾂｶﾞﾏﾁｳｽｸﾎﾞ","prefecture":"栃木県","city":"栃木市","street":"都賀町臼久保"},{"zipCode":"3280101","prefectureKana":"ﾄﾁｷﾞｹﾝ","cityKana":"ﾄﾁｷﾞｼ","streetKana":"ﾂｶﾞﾏﾁｵｵｶﾞｷ","prefecture":"栃木県","city":"栃木市","street":"都賀町大柿"},{"zipCode":"3280106","prefectureKana":"ﾄﾁｷﾞｹﾝ","cityKana":"ﾄﾁｷﾞｼ","streetKana":"ﾂｶﾞﾏﾁｵｵﾊｼ","prefecture":"栃木県","city":"栃木市","street":"都賀町大橋"},{"zipCode":"3280113","prefectureKana":"ﾄﾁｷﾞｹﾝ","cityKana":"ﾄﾁｷﾞｼ","streetKana":"ﾂｶﾞﾏﾁｶｯｾﾝﾊﾞ","prefecture":"栃木県","city":"栃木市","street":"都賀町合戦場"},{"zipCode":"3280104","prefectureKana":"ﾄﾁｷﾞｹﾝ","cityKana":"ﾄﾁｷﾞｼ","streetKana":"ﾂｶﾞﾏﾁｷ","prefecture":"栃木県","city":"栃木市","street":"都賀町木"},{"zipCode":"3280102","prefectureKana":"ﾄﾁｷﾞｹﾝ","cityKana":"ﾄﾁｷﾞｼ","streetKana":"ﾂｶﾞﾏﾁﾄﾐﾊﾘ","prefecture":"栃木県","city":"栃木市","street":"都賀町富張"},{"zipCode":"3280103","prefectureKana":"ﾄﾁｷﾞｹﾝ","cityKana":"ﾄﾁｷﾞｼ","streetKana":"ﾂｶﾞﾏﾁﾊﾗｼﾞｭｸ","prefecture":"栃木県","city":"栃木市","street":"都賀町原宿"},{"zipCode":"3280112","prefectureKana":"ﾄﾁｷﾞｹﾝ","cityKana":"ﾄﾁｷﾞｼ","streetKana":"ﾂｶﾞﾏﾁﾋﾗｶﾜ","prefecture":"栃木県","city":"栃木市","street":"都賀町平川"},{"zipCode":"3280107","prefectureKana":"ﾄﾁｷﾞｹﾝ","cityKana":"ﾄﾁｷﾞｼ","streetKana":"ﾂｶﾞﾏﾁﾌｶｻﾜ","prefecture":"栃木県","city":"栃木市","street":"都賀町深沢"},{"zipCode":"3280114","prefectureKana":"ﾄﾁｷﾞｹﾝ","cityKana":"ﾄﾁｷﾞｼ","streetKana":"ﾂｶﾞﾏﾁﾏｽﾂﾞｶ","prefecture":"栃木県","city":"栃木市","street":"都賀町升塚"},{"zipCode":"3280132","prefectureKana":"ﾄﾁｷﾞｹﾝ","cityKana":"ﾄﾁｷﾞｼ","streetKana":"ﾅｶｶﾞﾀﾏﾁ","prefecture":"栃木県","city":"栃木市","street":"仲方町"},{"zipCode":"3280025","prefectureKana":"ﾄﾁｷﾞｹﾝ","cityKana":"ﾄﾁｷﾞｼ","streetKana":"ﾅｶｼｱｹﾞﾏﾁ","prefecture":"栃木県","city":"栃木市","street":"仲仕上町"},{"zipCode":"3280205","prefectureKana":"ﾄﾁｷﾞｹﾝ","cityKana":"ﾄﾁｷﾞｼ","streetKana":"ﾅﾍﾞﾔﾏﾏﾁ","prefecture":"栃木県","city":"栃木市","street":"鍋山町"},{"zipCode":"3280017","prefectureKana":"ﾄﾁｷﾞｹﾝ","cityKana":"ﾄﾁｷﾞｼ","streetKana":"ﾆｼｷﾁｮｳ","prefecture":"栃木県","city":"栃木市","street":"錦町"},{"zipCode":"3280042","prefectureKana":"ﾄﾁｷﾞｹﾝ","cityKana":"ﾄﾁｷﾞｼ","streetKana":"ﾇﾏﾜﾀﾞﾁｮｳ","prefecture":"栃木県","city":"栃木市","street":"沼和田町"},{"zipCode":"3280124","prefectureKana":"ﾄﾁｷﾞｹﾝ","cityKana":"ﾄﾁｷﾞｼ","streetKana":"ﾉﾅｶﾏﾁ","prefecture":"栃木県","city":"栃木市","street":"野中町"},{"zipCode":"3280075","prefectureKana":"ﾄﾁｷﾞｹﾝ","cityKana":"ﾄﾁｷﾞｼ","streetKana":"ﾊｺﾉﾓﾘﾏﾁ","prefecture":"栃木県","city":"栃木市","street":"箱森町"},{"zipCode":"3280024","prefectureKana":"ﾄﾁｷﾞｹﾝ","cityKana":"ﾄﾁｷﾞｼ","streetKana":"ﾋﾉｸﾁﾏﾁ","prefecture":"栃木県","city":"栃木市","street":"樋ノ口町"},{"zipCode":"3280031","prefectureKana":"ﾄﾁｷﾞｹﾝ","cityKana":"ﾄﾁｷﾞｼ","streetKana":"ﾋﾉﾃﾞﾁｮｳ","prefecture":"栃木県","city":"栃木市","street":"日ノ出町"},{"zipCode":"3280054","prefectureKana":"ﾄﾁｷﾞｹﾝ","cityKana":"ﾄﾁｷﾞｼ","streetKana":"ﾋﾗｲﾁｮｳ","prefecture":"栃木県","city":"栃木市","street":"平井町"},{"zipCode":"3280012","prefectureKana":"ﾄﾁｷﾞｹﾝ","cityKana":"ﾄﾁｷﾞｼ","streetKana":"ﾋﾗﾔﾅｷﾞﾏﾁ","prefecture":"栃木県","city":"栃木市","street":"平柳町"},{"zipCode":"3280125","prefectureKana":"ﾄﾁｷﾞｹﾝ","cityKana":"ﾄﾁｷﾞｼ","streetKana":"ﾌｷｱｹﾞﾏﾁ","prefecture":"栃木県","city":"栃木市","street":"吹上町"},{"zipCode":"3280026","prefectureKana":"ﾄﾁｷﾞｹﾝ","cityKana":"ﾄﾁｷﾞｼ","streetKana":"ﾌｼﾞﾀﾏﾁ","prefecture":"栃木県","city":"栃木市","street":"藤田町"},{"zipCode":"3280044","prefectureKana":"ﾄﾁｷﾞｹﾝ","cityKana":"ﾄﾁｷﾞｼ","streetKana":"ﾌｼﾞﾐﾁｮｳ","prefecture":"栃木県","city":"栃木市","street":"富士見町"},{"zipCode":"3280201","prefectureKana":"ﾄﾁｷﾞｹﾝ","cityKana":"ﾄﾁｷﾞｼ","streetKana":"ﾎｼﾉﾏﾁ","prefecture":"栃木県","city":"栃木市","street":"星野町"},{"zipCode":"3280121","prefectureKana":"ﾄﾁｷﾞｹﾝ","cityKana":"ﾄﾁｷﾞｼ","streetKana":"ﾎｿﾎﾞﾘﾏﾁ","prefecture":"栃木県","city":"栃木市","street":"細堀町"},{"zipCode":"3280034","prefectureKana":"ﾄﾁｷﾞｹﾝ","cityKana":"ﾄﾁｷﾞｼ","streetKana":"ﾎﾝﾁｮｳ","prefecture":"栃木県","city":"栃木市","street":"本町"},{"zipCode":"3280067","prefectureKana":"ﾄﾁｷﾞｹﾝ","cityKana":"ﾄﾁｷﾞｼ","streetKana":"ﾐﾅｶﾞﾜｼﾞｮｳﾅｲﾏﾁ","prefecture":"栃木県","city":"栃木市","street":"皆川城内町"},{"zipCode":"3280045","prefectureKana":"ﾄﾁｷﾞｹﾝ","cityKana":"ﾄﾁｷﾞｼ","streetKana":"ﾐﾅﾄﾁｮｳ","prefecture":"栃木県","city":"栃木市","street":"湊町"},{"zipCode":"3280022","prefectureKana":"ﾄﾁｷﾞｹﾝ","cityKana":"ﾄﾁｷﾞｼ","streetKana":"ﾐﾔﾀﾏﾁ","prefecture":"栃木県","city":"栃木市","street":"宮田町"},{"zipCode":"3280134","prefectureKana":"ﾄﾁｷﾞｹﾝ","cityKana":"ﾄﾁｷﾞｼ","streetKana":"ﾐﾔﾏﾁ","prefecture":"栃木県","city":"栃木市","street":"宮町"},{"zipCode":"3280036","prefectureKana":"ﾄﾁｷﾞｹﾝ","cityKana":"ﾄﾁｷﾞｼ","streetKana":"ﾑﾛﾏﾁ","prefecture":"栃木県","city":"栃木市","street":"室町"},{"zipCode":"3280051","prefectureKana":"ﾄﾁｷﾞｹﾝ","cityKana":"ﾄﾁｷﾞｼ","streetKana":"ﾔﾅｷﾞﾊﾞｼﾁｮｳ","prefecture":"栃木県","city":"栃木市","street":"柳橋町"},{"zipCode":"3280001","prefectureKana":"ﾄﾁｷﾞｹﾝ","cityKana":"ﾄﾁｷﾞｼ","streetKana":"ﾔﾅｷﾞﾊﾗﾏﾁ","prefecture":"栃木県","city":"栃木市","street":"柳原町"},{"zipCode":"3280037","prefectureKana":"ﾄﾁｷﾞｹﾝ","cityKana":"ﾄﾁｷﾞｼ","streetKana":"ﾔﾏﾄﾁｮｳ","prefecture":"栃木県","city":"栃木市","street":"倭町"},{"zipCode":"3280005","prefectureKana":"ﾄﾁｷﾞｹﾝ","cityKana":"ﾄﾁｷﾞｼ","streetKana":"ﾖﾘｲﾏﾁ","prefecture":"栃木県","city":"栃木市","street":"寄居町"},{"zipCode":"3280015","prefectureKana":"ﾄﾁｷﾞｹﾝ","cityKana":"ﾄﾁｷﾞｼ","streetKana":"ﾖﾛｽﾞﾁｮｳ","prefecture":"栃木県","city":"栃木市","street":"万町"},{"zipCode":"3280221","prefectureKana":"ﾄﾁｷﾞｹﾝ","cityKana":"ｻﾉｼ","streetKana":"ｾﾝﾊﾞﾁｮｳ(ﾊﾞﾝﾄﾞｳ､ﾏﾂｶﾞｻｶ)","prefecture":"栃木県","city":"佐野市","street":"仙波町（坂東、松ケ坂）"},{"zipCode":"3280211","prefectureKana":"ﾄﾁｷﾞｹﾝ","cityKana":"ｶﾇﾏｼ","streetKana":"ｶﾐﾅｶﾞﾉ","prefecture":"栃木県","city":"鹿沼市","street":"上永野"},{"zipCode":"3280212","prefectureKana":"ﾄﾁｷﾞｹﾝ","cityKana":"ｶﾇﾏｼ","streetKana":"ｼﾓﾅｶﾞﾉ","prefecture":"栃木県","city":"鹿沼市","street":"下永野"}]