[{"zipCode":"3310000","prefectureKana":"ｻｲﾀﾏｹﾝ","cityKana":"ｻｲﾀﾏｼﾆｼｸ","streetKana":"ｲｶﾆｹｲｻｲｶﾞﾅｲﾊﾞｱｲ","prefecture":"埼玉県","city":"さいたま市西区","street":"以下に掲載がない場合"},{"zipCode":"3310058","prefectureKana":"ｻｲﾀﾏｹﾝ","cityKana":"ｻｲﾀﾏｼﾆｼｸ","streetKana":"ｲｲﾀﾞ","prefecture":"埼玉県","city":"さいたま市西区","street":"飯田"},{"zipCode":"3310068","prefectureKana":"ｻｲﾀﾏｹﾝ","cityKana":"ｻｲﾀﾏｼﾆｼｸ","streetKana":"ｲｲﾀﾞｼﾝﾃﾞﾝ","prefecture":"埼玉県","city":"さいたま市西区","street":"飯田新田"},{"zipCode":"3310053","prefectureKana":"ｻｲﾀﾏｹﾝ","cityKana":"ｻｲﾀﾏｼﾆｼｸ","streetKana":"ｳｴﾀﾔﾎﾝ","prefecture":"埼玉県","city":"さいたま市西区","street":"植田谷本"},{"zipCode":"3310067","prefectureKana":"ｻｲﾀﾏｹﾝ","cityKana":"ｻｲﾀﾏｼﾆｼｸ","streetKana":"ｳｴﾀﾔﾎﾝﾑﾗｼﾝﾃﾞﾝ","prefecture":"埼玉県","city":"さいたま市西区","street":"植田谷本村新田"},{"zipCode":"3310045","prefectureKana":"ｻｲﾀﾏｹﾝ","cityKana":"ｻｲﾀﾏｼﾆｼｸ","streetKana":"ｳﾁﾉﾎﾝｺﾞｳ","prefecture":"埼玉県","city":"さいたま市西区","street":"内野本郷"},{"zipCode":"3310047","prefectureKana":"ｻｲﾀﾏｹﾝ","cityKana":"ｻｲﾀﾏｼﾆｼｸ","streetKana":"ｻｼｵｳｷﾞ","prefecture":"埼玉県","city":"さいたま市西区","street":"指扇"},{"zipCode":"3310076","prefectureKana":"ｻｲﾀﾏｹﾝ","cityKana":"ｻｲﾀﾏｼﾆｼｸ","streetKana":"ｻｼｵｳｷﾞﾘｮｳﾂｼﾞ","prefecture":"埼玉県","city":"さいたま市西区","street":"指扇領辻"},{"zipCode":"3310073","prefectureKana":"ｻｲﾀﾏｹﾝ","cityKana":"ｻｲﾀﾏｼﾆｼｸ","streetKana":"ｻｼｵｳｷﾞﾘｮｳﾍﾞｯｼｮ","prefecture":"埼玉県","city":"さいたま市西区","street":"指扇領別所"},{"zipCode":"3310064","prefectureKana":"ｻｲﾀﾏｹﾝ","cityKana":"ｻｲﾀﾏｼﾆｼｸ","streetKana":"ｻｼﾞｶﾜ","prefecture":"埼玉県","city":"さいたま市西区","street":"佐知川"},{"zipCode":"3310056","prefectureKana":"ｻｲﾀﾏｹﾝ","cityKana":"ｻｲﾀﾏｼﾆｼｸ","streetKana":"ｻﾝｼﾞｮｳﾏﾁ","prefecture":"埼玉県","city":"さいたま市西区","street":"三条町"},{"zipCode":"3310054","prefectureKana":"ｻｲﾀﾏｹﾝ","cityKana":"ｻｲﾀﾏｼﾆｼｸ","streetKana":"ｼﾏﾈ","prefecture":"埼玉県","city":"さいたま市西区","street":"島根"},{"zipCode":"3310055","prefectureKana":"ｻｲﾀﾏｹﾝ","cityKana":"ｻｲﾀﾏｼﾆｼｸ","streetKana":"ｼｮｳﾜ","prefecture":"埼玉県","city":"さいたま市西区","street":"昭和"},{"zipCode":"3310048","prefectureKana":"ｻｲﾀﾏｹﾝ","cityKana":"ｻｲﾀﾏｼﾆｼｸ","streetKana":"ｾｲｶﾞﾝｼﾞ","prefecture":"埼玉県","city":"さいたま市西区","street":"清河寺"},{"zipCode":"3310071","prefectureKana":"ｻｲﾀﾏｹﾝ","cityKana":"ｻｲﾀﾏｼﾆｼｸ","streetKana":"ﾀｶｷﾞ","prefecture":"埼玉県","city":"さいたま市西区","street":"高木"},{"zipCode":"3310066","prefectureKana":"ｻｲﾀﾏｹﾝ","cityKana":"ｻｲﾀﾏｼﾆｼｸ","streetKana":"ﾂｶﾓﾄ","prefecture":"埼玉県","city":"さいたま市西区","street":"塚本"},{"zipCode":"3310060","prefectureKana":"ｻｲﾀﾏｹﾝ","cityKana":"ｻｲﾀﾏｼﾆｼｸ","streetKana":"ﾂｶﾓﾄﾁｮｳ","prefecture":"埼玉県","city":"さいたま市西区","street":"塚本町"},{"zipCode":"3310062","prefectureKana":"ｻｲﾀﾏｹﾝ","cityKana":"ｻｲﾀﾏｼﾆｼｸ","streetKana":"ﾂﾁﾔ","prefecture":"埼玉県","city":"さいたま市西区","street":"土屋"},{"zipCode":"3310077","prefectureKana":"ｻｲﾀﾏｹﾝ","cityKana":"ｻｲﾀﾏｼﾆｼｸ","streetKana":"ﾅｶｸｷﾞ","prefecture":"埼玉県","city":"さいたま市西区","street":"中釘"},{"zipCode":"3310057","prefectureKana":"ｻｲﾀﾏｹﾝ","cityKana":"ｻｲﾀﾏｼﾆｼｸ","streetKana":"ﾅｶﾉﾊﾞﾔｼ","prefecture":"埼玉県","city":"さいたま市西区","street":"中野林"},{"zipCode":"3310061","prefectureKana":"ｻｲﾀﾏｹﾝ","cityKana":"ｻｲﾀﾏｼﾆｼｸ","streetKana":"ﾆｼｱｽﾏ","prefecture":"埼玉県","city":"さいたま市西区","street":"西遊馬"},{"zipCode":"3310049","prefectureKana":"ｻｲﾀﾏｹﾝ","cityKana":"ｻｲﾀﾏｼﾆｼｸ","streetKana":"ﾆｼｱﾗｲ","prefecture":"埼玉県","city":"さいたま市西区","street":"西新井"},{"zipCode":"3310078","prefectureKana":"ｻｲﾀﾏｹﾝ","cityKana":"ｻｲﾀﾏｼﾆｼｸ","streetKana":"ﾆｼｵｵﾐﾔ","prefecture":"埼玉県","city":"さいたま市西区","street":"西大宮"},{"zipCode":"3310072","prefectureKana":"ｻｲﾀﾏｹﾝ","cityKana":"ｻｲﾀﾏｼﾆｼｸ","streetKana":"ﾋﾗｶﾀﾘｮｳﾘｮｳｹ","prefecture":"埼玉県","city":"さいたま市西区","street":"平方領々家"},{"zipCode":"3310065","prefectureKana":"ｻｲﾀﾏｹﾝ","cityKana":"ｻｲﾀﾏｼﾆｼｸ","streetKana":"ﾌﾀﾂﾐﾔ","prefecture":"埼玉県","city":"さいたま市西区","street":"二ツ宮"},{"zipCode":"3310063","prefectureKana":"ｻｲﾀﾏｹﾝ","cityKana":"ｻｲﾀﾏｼﾆｼｸ","streetKana":"ﾌﾟﾗｻﾞ","prefecture":"埼玉県","city":"さいたま市西区","street":"プラザ"},{"zipCode":"3310074","prefectureKana":"ｻｲﾀﾏｹﾝ","cityKana":"ｻｲﾀﾏｼﾆｼｸ","streetKana":"ﾎｳﾗｲ","prefecture":"埼玉県","city":"さいたま市西区","street":"宝来"},{"zipCode":"3310059","prefectureKana":"ｻｲﾀﾏｹﾝ","cityKana":"ｻｲﾀﾏｼﾆｼｸ","streetKana":"ﾐｽﾞﾊﾀ","prefecture":"埼玉県","city":"さいたま市西区","street":"水判土"},{"zipCode":"3310075","prefectureKana":"ｻｲﾀﾏｹﾝ","cityKana":"ｻｲﾀﾏｼﾆｼｸ","streetKana":"ﾐﾈｷﾞｼ","prefecture":"埼玉県","city":"さいたま市西区","street":"峰岸"},{"zipCode":"3310052","prefectureKana":"ｻｲﾀﾏｹﾝ","cityKana":"ｻｲﾀﾏｼﾆｼｸ","streetKana":"ﾐﾊｼ","prefecture":"埼玉県","city":"さいたま市西区","street":"三橋"},{"zipCode":"3310046","prefectureKana":"ｻｲﾀﾏｹﾝ","cityKana":"ｻｲﾀﾏｼﾆｼｸ","streetKana":"ﾐﾔﾏｴﾁｮｳ","prefecture":"埼玉県","city":"さいたま市西区","street":"宮前町"},{"zipCode":"3310069","prefectureKana":"ｻｲﾀﾏｹﾝ","cityKana":"ｻｲﾀﾏｼﾆｼｸ","streetKana":"ﾕｷﾞﾁｮｳ","prefecture":"埼玉県","city":"さいたま市西区","street":"湯木町"},{"zipCode":"3310800","prefectureKana":"ｻｲﾀﾏｹﾝ","cityKana":"ｻｲﾀﾏｼｷﾀｸ","streetKana":"ｲｶﾆｹｲｻｲｶﾞﾅｲﾊﾞｱｲ","prefecture":"埼玉県","city":"さいたま市北区","street":"以下に掲載がない場合"},{"zipCode":"3310813","prefectureKana":"ｻｲﾀﾏｹﾝ","cityKana":"ｻｲﾀﾏｼｷﾀｸ","streetKana":"ｳｴﾀｹﾁｮｳ","prefecture":"埼玉県","city":"さいたま市北区","street":"植竹町"},{"zipCode":"3310815","prefectureKana":"ｻｲﾀﾏｹﾝ","cityKana":"ｻｲﾀﾏｼｷﾀｸ","streetKana":"ｵｵﾅﾘﾁｮｳ","prefecture":"埼玉県","city":"さいたま市北区","street":"大成町"},{"zipCode":"3310824","prefectureKana":"ｻｲﾀﾏｹﾝ","cityKana":"ｻｲﾀﾏｼｷﾀｸ","streetKana":"ｶﾐｶ","prefecture":"埼玉県","city":"さいたま市北区","street":"上加"},{"zipCode":"3310825","prefectureKana":"ｻｲﾀﾏｹﾝ","cityKana":"ｻｲﾀﾏｼｷﾀｸ","streetKana":"ｸｼﾋｷﾁｮｳ","prefecture":"埼玉県","city":"さいたま市北区","street":"櫛引町"},{"zipCode":"3310801","prefectureKana":"ｻｲﾀﾏｹﾝ","cityKana":"ｻｲﾀﾏｼｷﾀｸ","streetKana":"ｺﾝﾊﾞﾁｮｳ","prefecture":"埼玉県","city":"さいたま市北区","street":"今羽町"},{"zipCode":"3310804","prefectureKana":"ｻｲﾀﾏｹﾝ","cityKana":"ｻｲﾀﾏｼｷﾀｸ","streetKana":"ﾄﾛﾁｮｳ","prefecture":"埼玉県","city":"さいたま市北区","street":"土呂町"},{"zipCode":"3310822","prefectureKana":"ｻｲﾀﾏｹﾝ","cityKana":"ｻｲﾀﾏｼｷﾀｸ","streetKana":"ﾅﾗﾁｮｳ","prefecture":"埼玉県","city":"さいたま市北区","street":"奈良町"},{"zipCode":"3310823","prefectureKana":"ｻｲﾀﾏｹﾝ","cityKana":"ｻｲﾀﾏｼｷﾀｸ","streetKana":"ﾆｯｼﾝﾁｮｳ","prefecture":"埼玉県","city":"さいたま市北区","street":"日進町"},{"zipCode":"3310814","prefectureKana":"ｻｲﾀﾏｹﾝ","cityKana":"ｻｲﾀﾏｼｷﾀｸ","streetKana":"ﾋｶﾞｼｵｵﾅﾘﾁｮｳ","prefecture":"埼玉県","city":"さいたま市北区","street":"東大成町"},{"zipCode":"3310821","prefectureKana":"ｻｲﾀﾏｹﾝ","cityKana":"ｻｲﾀﾏｼｷﾀｸ","streetKana":"ﾍﾞｯｼｮﾁｮｳ","prefecture":"埼玉県","city":"さいたま市北区","street":"別所町"},{"zipCode":"3310802","prefectureKana":"ｻｲﾀﾏｹﾝ","cityKana":"ｻｲﾀﾏｼｷﾀｸ","streetKana":"ﾎﾝｺﾞｳﾁｮｳ","prefecture":"埼玉県","city":"さいたま市北区","street":"本郷町"},{"zipCode":"3310805","prefectureKana":"ｻｲﾀﾏｹﾝ","cityKana":"ｻｲﾀﾏｼｷﾀｸ","streetKana":"ﾎﾞﾝｻｲﾁｮｳ","prefecture":"埼玉県","city":"さいたま市北区","street":"盆栽町"},{"zipCode":"3310803","prefectureKana":"ｻｲﾀﾏｹﾝ","cityKana":"ｻｲﾀﾏｼｷﾀｸ","streetKana":"ﾐﾇﾏ","prefecture":"埼玉県","city":"さいたま市北区","street":"見沼"},{"zipCode":"3310812","prefectureKana":"ｻｲﾀﾏｹﾝ","cityKana":"ｻｲﾀﾏｼｷﾀｸ","streetKana":"ﾐﾔﾊﾗﾁｮｳ","prefecture":"埼玉県","city":"さいたま市北区","street":"宮原町"},{"zipCode":"3310811","prefectureKana":"ｻｲﾀﾏｹﾝ","cityKana":"ｻｲﾀﾏｼｷﾀｸ","streetKana":"ﾖｼﾉﾁｮｳ","prefecture":"埼玉県","city":"さいたま市北区","street":"吉野町"}]