[{"zipCode":"3510000","prefectureKana":"ｻｲﾀﾏｹﾝ","cityKana":"ｱｻｶｼ","streetKana":"ｲｶﾆｹｲｻｲｶﾞﾅｲﾊﾞｱｲ","prefecture":"埼玉県","city":"朝霞市","street":"以下に掲載がない場合"},{"zipCode":"3510016","prefectureKana":"ｻｲﾀﾏｹﾝ","cityKana":"ｱｻｶｼ","streetKana":"ｱｵﾊﾞﾀﾞｲ","prefecture":"埼玉県","city":"朝霞市","street":"青葉台"},{"zipCode":"3510035","prefectureKana":"ｻｲﾀﾏｹﾝ","cityKana":"ｱｻｶｼ","streetKana":"ｱｻｼｶﾞｵｶ","prefecture":"埼玉県","city":"朝霞市","street":"朝志ケ丘"},{"zipCode":"3510007","prefectureKana":"ｻｲﾀﾏｹﾝ","cityKana":"ｱｻｶｼ","streetKana":"ｵｶ","prefecture":"埼玉県","city":"朝霞市","street":"岡"},{"zipCode":"3510001","prefectureKana":"ｻｲﾀﾏｹﾝ","cityKana":"ｱｻｶｼ","streetKana":"ｶﾐｳﾁﾏｷﾞ","prefecture":"埼玉県","city":"朝霞市","street":"上内間木"},{"zipCode":"3510036","prefectureKana":"ｻｲﾀﾏｹﾝ","cityKana":"ｱｻｶｼ","streetKana":"ｷﾀﾊﾗ","prefecture":"埼玉県","city":"朝霞市","street":"北原"},{"zipCode":"3510015","prefectureKana":"ｻｲﾀﾏｹﾝ","cityKana":"ｱｻｶｼ","streetKana":"ｻｲﾜｲﾁｮｳ","prefecture":"埼玉県","city":"朝霞市","street":"幸町"},{"zipCode":"3510012","prefectureKana":"ｻｲﾀﾏｹﾝ","cityKana":"ｱｻｶｼ","streetKana":"ｻｶｴﾁｮｳ","prefecture":"埼玉県","city":"朝霞市","street":"栄町"},{"zipCode":"3510002","prefectureKana":"ｻｲﾀﾏｹﾝ","cityKana":"ｱｻｶｼ","streetKana":"ｼﾓｳﾁﾏｷﾞ","prefecture":"埼玉県","city":"朝霞市","street":"下内間木"},{"zipCode":"3510024","prefectureKana":"ｻｲﾀﾏｹﾝ","cityKana":"ｱｻｶｼ","streetKana":"ｾﾝｽﾞｲ","prefecture":"埼玉県","city":"朝霞市","street":"泉水"},{"zipCode":"3510003","prefectureKana":"ｻｲﾀﾏｹﾝ","cityKana":"ｱｻｶｼ","streetKana":"ﾀﾞｲ","prefecture":"埼玉県","city":"朝霞市","street":"台"},{"zipCode":"3510032","prefectureKana":"ｻｲﾀﾏｹﾝ","cityKana":"ｱｻｶｼ","streetKana":"ﾀｼﾞﾏ","prefecture":"埼玉県","city":"朝霞市","street":"田島"},{"zipCode":"3510006","prefectureKana":"ｻｲﾀﾏｹﾝ","cityKana":"ｱｻｶｼ","streetKana":"ﾅｶﾁｮｳ","prefecture":"埼玉県","city":"朝霞市","street":"仲町"},{"zipCode":"3510034","prefectureKana":"ｻｲﾀﾏｹﾝ","cityKana":"ｱｻｶｼ","streetKana":"ﾆｼﾊﾗ","prefecture":"埼玉県","city":"朝霞市","street":"西原"},{"zipCode":"3510021","prefectureKana":"ｻｲﾀﾏｹﾝ","cityKana":"ｱｻｶｼ","streetKana":"ﾆｼﾍﾞﾝｻﾞｲ","prefecture":"埼玉県","city":"朝霞市","street":"西弁財"},{"zipCode":"3510004","prefectureKana":"ｻｲﾀﾏｹﾝ","cityKana":"ｱｻｶｼ","streetKana":"ﾈｷﾞｼ","prefecture":"埼玉県","city":"朝霞市","street":"根岸"},{"zipCode":"3510005","prefectureKana":"ｻｲﾀﾏｹﾝ","cityKana":"ｱｻｶｼ","streetKana":"ﾈｷﾞｼﾀﾞｲ","prefecture":"埼玉県","city":"朝霞市","street":"根岸台"},{"zipCode":"3510033","prefectureKana":"ｻｲﾀﾏｹﾝ","cityKana":"ｱｻｶｼ","streetKana":"ﾊﾏｻｷ","prefecture":"埼玉県","city":"朝霞市","street":"浜崎"},{"zipCode":"3510022","prefectureKana":"ｻｲﾀﾏｹﾝ","cityKana":"ｱｻｶｼ","streetKana":"ﾋｶﾞｼﾍﾞﾝｻﾞｲ","prefecture":"埼玉県","city":"朝霞市","street":"東弁財"},{"zipCode":"3510013","prefectureKana":"ｻｲﾀﾏｹﾝ","cityKana":"ｱｻｶｼ","streetKana":"ﾋｻﾞｵﾘ","prefecture":"埼玉県","city":"朝霞市","street":"膝折"},{"zipCode":"3510014","prefectureKana":"ｻｲﾀﾏｹﾝ","cityKana":"ｱｻｶｼ","streetKana":"ﾋｻﾞｵﾘﾁｮｳ","prefecture":"埼玉県","city":"朝霞市","street":"膝折町"},{"zipCode":"3510011","prefectureKana":"ｻｲﾀﾏｹﾝ","cityKana":"ｱｻｶｼ","streetKana":"ﾎﾝﾁｮｳ","prefecture":"埼玉県","city":"朝霞市","street":"本町"},{"zipCode":"3510023","prefectureKana":"ｻｲﾀﾏｹﾝ","cityKana":"ｱｻｶｼ","streetKana":"ﾐｿﾞﾇﾏ","prefecture":"埼玉県","city":"朝霞市","street":"溝沼"},{"zipCode":"3510025","prefectureKana":"ｻｲﾀﾏｹﾝ","cityKana":"ｱｻｶｼ","streetKana":"ﾐﾊﾗ","prefecture":"埼玉県","city":"朝霞市","street":"三原"},{"zipCode":"3510031","prefectureKana":"ｻｲﾀﾏｹﾝ","cityKana":"ｱｻｶｼ","streetKana":"ﾐﾔﾄﾞ","prefecture":"埼玉県","city":"朝霞市","street":"宮戸"},{"zipCode":"3510100","prefectureKana":"ｻｲﾀﾏｹﾝ","cityKana":"ﾜｺｳｼ","streetKana":"ｲｶﾆｹｲｻｲｶﾞﾅｲﾊﾞｱｲ","prefecture":"埼玉県","city":"和光市","street":"以下に掲載がない場合"},{"zipCode":"3510111","prefectureKana":"ｻｲﾀﾏｹﾝ","cityKana":"ﾜｺｳｼ","streetKana":"ｼﾓﾆｲｸﾗ","prefecture":"埼玉県","city":"和光市","street":"下新倉"},{"zipCode":"3510101","prefectureKana":"ｻｲﾀﾏｹﾝ","cityKana":"ﾜｺｳｼ","streetKana":"ｼﾗｺ","prefecture":"埼玉県","city":"和光市","street":"白子"},{"zipCode":"3510102","prefectureKana":"ｻｲﾀﾏｹﾝ","cityKana":"ﾜｺｳｼ","streetKana":"ｽﾜ","prefecture":"埼玉県","city":"和光市","street":"諏訪"},{"zipCode":"3510103","prefectureKana":"ｻｲﾀﾏｹﾝ","cityKana":"ﾜｺｳｼ","streetKana":"ｽﾜﾊﾗﾀﾞﾝﾁ","prefecture":"埼玉県","city":"和光市","street":"諏訪原団地"},{"zipCode":"3510113","prefectureKana":"ｻｲﾀﾏｹﾝ","cityKana":"ﾜｺｳｼ","streetKana":"ﾁｭｳｵｳ","prefecture":"埼玉県","city":"和光市","street":"中央"},{"zipCode":"3510115","prefectureKana":"ｻｲﾀﾏｹﾝ","cityKana":"ﾜｺｳｼ","streetKana":"ﾆｲｸﾗ","prefecture":"埼玉県","city":"和光市","street":"新倉"},{"zipCode":"3510105","prefectureKana":"ｻｲﾀﾏｹﾝ","cityKana":"ﾜｺｳｼ","streetKana":"ﾆｼﾔﾏﾄﾀﾞﾝﾁ","prefecture":"埼玉県","city":"和光市","street":"西大和団地"},{"zipCode":"3510106","prefectureKana":"ｻｲﾀﾏｹﾝ","cityKana":"ﾜｺｳｼ","streetKana":"ﾋﾛｻﾜ","prefecture":"埼玉県","city":"和光市","street":"広沢"},{"zipCode":"3510114","prefectureKana":"ｻｲﾀﾏｹﾝ","cityKana":"ﾜｺｳｼ","streetKana":"ﾎﾝﾁｮｳ","prefecture":"埼玉県","city":"和光市","street":"本町"},{"zipCode":"3510116","prefectureKana":"ｻｲﾀﾏｹﾝ","cityKana":"ﾜｺｳｼ","streetKana":"ﾏﾂﾉｷｼﾞﾏﾁｮｳ","prefecture":"埼玉県","city":"和光市","street":"松ノ木島町"},{"zipCode":"3510112","prefectureKana":"ｻｲﾀﾏｹﾝ","cityKana":"ﾜｺｳｼ","streetKana":"ﾏﾙﾔﾏﾀﾞｲ","prefecture":"埼玉県","city":"和光市","street":"丸山台"},{"zipCode":"3510104","prefectureKana":"ｻｲﾀﾏｹﾝ","cityKana":"ﾜｺｳｼ","streetKana":"ﾐﾅﾐ","prefecture":"埼玉県","city":"和光市","street":"南"}]