[{"zipCode":"3530000","prefectureKana":"ｻｲﾀﾏｹﾝ","cityKana":"ｼｷｼ","streetKana":"ｲｶﾆｹｲｻｲｶﾞﾅｲﾊﾞｱｲ","prefecture":"埼玉県","city":"志木市","street":"以下に掲載がない場合"},{"zipCode":"3530007","prefectureKana":"ｻｲﾀﾏｹﾝ","cityKana":"ｼｷｼ","streetKana":"ｶｼﾜﾁｮｳ","prefecture":"埼玉県","city":"志木市","street":"柏町"},{"zipCode":"3530001","prefectureKana":"ｻｲﾀﾏｹﾝ","cityKana":"ｼｷｼ","streetKana":"ｶﾐﾑﾈｵｶ","prefecture":"埼玉県","city":"志木市","street":"上宗岡"},{"zipCode":"3530005","prefectureKana":"ｻｲﾀﾏｹﾝ","cityKana":"ｼｷｼ","streetKana":"ｻｲﾜｲﾁｮｳ","prefecture":"埼玉県","city":"志木市","street":"幸町"},{"zipCode":"3530003","prefectureKana":"ｻｲﾀﾏｹﾝ","cityKana":"ｼｷｼ","streetKana":"ｼﾓﾑﾈｵｶ","prefecture":"埼玉県","city":"志木市","street":"下宗岡"},{"zipCode":"3530006","prefectureKana":"ｻｲﾀﾏｹﾝ","cityKana":"ｼｷｼ","streetKana":"ﾀﾃ","prefecture":"埼玉県","city":"志木市","street":"館"},{"zipCode":"3530002","prefectureKana":"ｻｲﾀﾏｹﾝ","cityKana":"ｼｷｼ","streetKana":"ﾅｶﾑﾈｵｶ","prefecture":"埼玉県","city":"志木市","street":"中宗岡"},{"zipCode":"3530004","prefectureKana":"ｻｲﾀﾏｹﾝ","cityKana":"ｼｷｼ","streetKana":"ﾎﾝﾁｮｳ","prefecture":"埼玉県","city":"志木市","street":"本町"},{"zipCode":"3530008","prefectureKana":"ｻｲﾀﾏｹﾝ","cityKana":"ｼｷｼ","streetKana":"ﾑﾈｵｶ","prefecture":"埼玉県","city":"志木市","street":"宗岡"}]