[{"zipCode":"3550000","prefectureKana":"ｻｲﾀﾏｹﾝ","cityKana":"ﾋｶﾞｼﾏﾂﾔﾏｼ","streetKana":"ｲｶﾆｹｲｻｲｶﾞﾅｲﾊﾞｱｲ","prefecture":"埼玉県","city":"東松山市","street":"以下に掲載がない場合"},{"zipCode":"3550048","prefectureKana":"ｻｲﾀﾏｹﾝ","cityKana":"ﾋｶﾞｼﾏﾂﾔﾏｼ","streetKana":"ｱｽﾞﾏﾁｮｳ","prefecture":"埼玉県","city":"東松山市","street":"あずま町"},{"zipCode":"3550072","prefectureKana":"ｻｲﾀﾏｹﾝ","cityKana":"ﾋｶﾞｼﾏﾂﾔﾏｼ","streetKana":"ｲｼﾊﾞｼ","prefecture":"埼玉県","city":"東松山市","street":"石橋"},{"zipCode":"3550026","prefectureKana":"ｻｲﾀﾏｹﾝ","cityKana":"ﾋｶﾞｼﾏﾂﾔﾏｼ","streetKana":"ｲｽﾞﾐﾁｮｳ","prefecture":"埼玉県","city":"東松山市","street":"和泉町"},{"zipCode":"3550006","prefectureKana":"ｻｲﾀﾏｹﾝ","cityKana":"ﾋｶﾞｼﾏﾂﾔﾏｼ","streetKana":"ｲﾁﾉｶﾜ","prefecture":"埼玉県","city":"東松山市","street":"市ノ川"},{"zipCode":"3550042","prefectureKana":"ｻｲﾀﾏｹﾝ","cityKana":"ﾋｶﾞｼﾏﾂﾔﾏｼ","streetKana":"ｲﾏｲｽﾞﾐ","prefecture":"埼玉県","city":"東松山市","street":"今泉"},{"zipCode":"3550065","prefectureKana":"ｻｲﾀﾏｹﾝ","cityKana":"ﾋｶﾞｼﾏﾂﾔﾏｼ","streetKana":"ｲﾜﾄﾞﾉ","prefecture":"埼玉県","city":"東松山市","street":"岩殿"},{"zipCode":"3550046","prefectureKana":"ｻｲﾀﾏｹﾝ","cityKana":"ﾋｶﾞｼﾏﾂﾔﾏｼ","streetKana":"ｵｵｸﾛﾍﾞ","prefecture":"埼玉県","city":"東松山市","street":"大黒部"},{"zipCode":"3550008","prefectureKana":"ｻｲﾀﾏｹﾝ","cityKana":"ﾋｶﾞｼﾏﾂﾔﾏｼ","streetKana":"ｵｵﾔ","prefecture":"埼玉県","city":"東松山市","street":"大谷"},{"zipCode":"3550001","prefectureKana":"ｻｲﾀﾏｹﾝ","cityKana":"ﾋｶﾞｼﾏﾂﾔﾏｼ","streetKana":"ｵｶ","prefecture":"埼玉県","city":"東松山市","street":"岡"},{"zipCode":"3550022","prefectureKana":"ｻｲﾀﾏｹﾝ","cityKana":"ﾋｶﾞｼﾏﾂﾔﾏｼ","streetKana":"ｵﾁｬﾔﾏﾁｮｳ","prefecture":"埼玉県","city":"東松山市","street":"御茶山町"},{"zipCode":"3550034","prefectureKana":"ｻｲﾀﾏｹﾝ","cityKana":"ﾋｶﾞｼﾏﾂﾔﾏｼ","streetKana":"ｶｼﾜｻﾞｷ","prefecture":"埼玉県","city":"東松山市","street":"柏崎"},{"zipCode":"3550074","prefectureKana":"ｻｲﾀﾏｹﾝ","cityKana":"ﾋｶﾞｼﾏﾂﾔﾏｼ","streetKana":"ｶﾐｵｼﾀﾞﾘ","prefecture":"埼玉県","city":"東松山市","street":"上押垂"},{"zipCode":"3550077","prefectureKana":"ｻｲﾀﾏｹﾝ","cityKana":"ﾋｶﾞｼﾏﾂﾔﾏｼ","streetKana":"ｶﾐｶﾞﾗｺ","prefecture":"埼玉県","city":"東松山市","street":"上唐子"},{"zipCode":"3550011","prefectureKana":"ｻｲﾀﾏｹﾝ","cityKana":"ﾋｶﾞｼﾏﾂﾔﾏｼ","streetKana":"ｶﾐﾁｮｳ","prefecture":"埼玉県","city":"東松山市","street":"加美町"},{"zipCode":"3550073","prefectureKana":"ｻｲﾀﾏｹﾝ","cityKana":"ﾋｶﾞｼﾏﾂﾔﾏｼ","streetKana":"ｶﾐﾉﾓﾄ","prefecture":"埼玉県","city":"東松山市","street":"上野本"},{"zipCode":"3550061","prefectureKana":"ｻｲﾀﾏｹﾝ","cityKana":"ﾋｶﾞｼﾏﾂﾔﾏｼ","streetKana":"ｸｽﾞﾌﾞｸﾛ","prefecture":"埼玉県","city":"東松山市","street":"葛袋"},{"zipCode":"3550064","prefectureKana":"ｻｲﾀﾏｹﾝ","cityKana":"ﾋｶﾞｼﾏﾂﾔﾏｼ","streetKana":"ｹﾂｶ","prefecture":"埼玉県","city":"東松山市","street":"毛塚"},{"zipCode":"3550066","prefectureKana":"ｻｲﾀﾏｹﾝ","cityKana":"ﾋｶﾞｼﾏﾂﾔﾏｼ","streetKana":"ｺﾞｳﾄﾞ","prefecture":"埼玉県","city":"東松山市","street":"神戸"},{"zipCode":"3550031","prefectureKana":"ｻｲﾀﾏｹﾝ","cityKana":"ﾋｶﾞｼﾏﾂﾔﾏｼ","streetKana":"ｺﾞﾘｮｳﾁｮｳ","prefecture":"埼玉県","city":"東松山市","street":"五領町"},{"zipCode":"3550013","prefectureKana":"ｻｲﾀﾏｹﾝ","cityKana":"ﾋｶﾞｼﾏﾂﾔﾏｼ","streetKana":"ｺﾏﾂﾊﾞﾗﾁｮｳ","prefecture":"埼玉県","city":"東松山市","street":"小松原町"},{"zipCode":"3550016","prefectureKana":"ｻｲﾀﾏｹﾝ","cityKana":"ﾋｶﾞｼﾏﾂﾔﾏｼ","streetKana":"ｻﾞｲﾓｸﾁｮｳ","prefecture":"埼玉県","city":"東松山市","street":"材木町"},{"zipCode":"3550025","prefectureKana":"ｻｲﾀﾏｹﾝ","cityKana":"ﾋｶﾞｼﾏﾂﾔﾏｼ","streetKana":"ｻｲﾜｲﾁｮｳ","prefecture":"埼玉県","city":"東松山市","street":"幸町"},{"zipCode":"3550052","prefectureKana":"ｻｲﾀﾏｹﾝ","cityKana":"ﾋｶﾞｼﾏﾂﾔﾏｼ","streetKana":"ｻｸﾗﾔﾏﾀﾞｲ","prefecture":"埼玉県","city":"東松山市","street":"桜山台"},{"zipCode":"3550004","prefectureKana":"ｻｲﾀﾏｹﾝ","cityKana":"ﾋｶﾞｼﾏﾂﾔﾏｼ","streetKana":"ｻﾜｸﾞﾁﾁｮｳ","prefecture":"埼玉県","city":"東松山市","street":"沢口町"},{"zipCode":"3550075","prefectureKana":"ｻｲﾀﾏｹﾝ","cityKana":"ﾋｶﾞｼﾏﾂﾔﾏｼ","streetKana":"ｼﾓｵｵﾄﾞﾘ","prefecture":"埼玉県","city":"東松山市","street":"下青鳥"},{"zipCode":"3550041","prefectureKana":"ｻｲﾀﾏｹﾝ","cityKana":"ﾋｶﾞｼﾏﾂﾔﾏｼ","streetKana":"ｼﾓｵｼﾀﾞﾘ","prefecture":"埼玉県","city":"東松山市","street":"下押垂"},{"zipCode":"3550076","prefectureKana":"ｻｲﾀﾏｹﾝ","cityKana":"ﾋｶﾞｼﾏﾂﾔﾏｼ","streetKana":"ｼﾓｶﾞﾗｺ","prefecture":"埼玉県","city":"東松山市","street":"下唐子"},{"zipCode":"3550036","prefectureKana":"ｻｲﾀﾏｹﾝ","cityKana":"ﾋｶﾞｼﾏﾂﾔﾏｼ","streetKana":"ｼﾓﾉﾓﾄ","prefecture":"埼玉県","city":"東松山市","street":"下野本"},{"zipCode":"3550044","prefectureKana":"ｻｲﾀﾏｹﾝ","cityKana":"ﾋｶﾞｼﾏﾂﾔﾏｼ","streetKana":"ｼｮｳﾀﾞｲ","prefecture":"埼玉県","city":"東松山市","street":"正代"},{"zipCode":"3550071","prefectureKana":"ｻｲﾀﾏｹﾝ","cityKana":"ﾋｶﾞｼﾏﾂﾔﾏｼ","streetKana":"ｼﾝｺﾞｳ","prefecture":"埼玉県","city":"東松山市","street":"新郷"},{"zipCode":"3550032","prefectureKana":"ｻｲﾀﾏｹﾝ","cityKana":"ﾋｶﾞｼﾏﾂﾔﾏｼ","streetKana":"ｼﾝｼﾞｭｸﾁｮｳ","prefecture":"埼玉県","city":"東松山市","street":"新宿町"},{"zipCode":"3550021","prefectureKana":"ｻｲﾀﾏｹﾝ","cityKana":"ﾋｶﾞｼﾏﾂﾔﾏｼ","streetKana":"ｼﾝﾒｲﾁｮｳ","prefecture":"埼玉県","city":"東松山市","street":"神明町"},{"zipCode":"3550019","prefectureKana":"ｻｲﾀﾏｹﾝ","cityKana":"ﾋｶﾞｼﾏﾂﾔﾏｼ","streetKana":"ｽﾅﾀﾞﾁｮｳ","prefecture":"埼玉県","city":"東松山市","street":"砂田町"},{"zipCode":"3550047","prefectureKana":"ｻｲﾀﾏｹﾝ","cityKana":"ﾋｶﾞｼﾏﾂﾔﾏｼ","streetKana":"ﾀｶｻｶ","prefecture":"埼玉県","city":"東松山市","street":"高坂"},{"zipCode":"3550053","prefectureKana":"ｻｲﾀﾏｹﾝ","cityKana":"ﾋｶﾞｼﾏﾂﾔﾏｼ","streetKana":"ﾀｷﾞ","prefecture":"埼玉県","city":"東松山市","street":"田木"},{"zipCode":"3550003","prefectureKana":"ｻｲﾀﾏｹﾝ","cityKana":"ﾋｶﾞｼﾏﾂﾔﾏｼ","streetKana":"ﾄﾉﾔﾏﾁｮｳ","prefecture":"埼玉県","city":"東松山市","street":"殿山町"},{"zipCode":"3550009","prefectureKana":"ｻｲﾀﾏｹﾝ","cityKana":"ﾋｶﾞｼﾏﾂﾔﾏｼ","streetKana":"ﾅｶﾀﾞﾁｮｳ","prefecture":"埼玉県","city":"東松山市","street":"仲田町"},{"zipCode":"3550062","prefectureKana":"ｻｲﾀﾏｹﾝ","cityKana":"ﾋｶﾞｼﾏﾂﾔﾏｼ","streetKana":"ﾆｼﾓﾄｼﾞｭｸ","prefecture":"埼玉県","city":"東松山市","street":"西本宿"},{"zipCode":"3550007","prefectureKana":"ｻｲﾀﾏｹﾝ","cityKana":"ﾋｶﾞｼﾏﾂﾔﾏｼ","streetKana":"ﾉﾀﾞ","prefecture":"埼玉県","city":"東松山市","street":"野田"},{"zipCode":"3550051","prefectureKana":"ｻｲﾀﾏｹﾝ","cityKana":"ﾋｶﾞｼﾏﾂﾔﾏｼ","streetKana":"ﾊｸｻﾝﾀﾞｲ","prefecture":"埼玉県","city":"東松山市","street":"白山台"},{"zipCode":"3550054","prefectureKana":"ｻｲﾀﾏｹﾝ","cityKana":"ﾋｶﾞｼﾏﾂﾔﾏｼ","streetKana":"ﾊﾀﾀﾃﾀﾞｲ","prefecture":"埼玉県","city":"東松山市","street":"旗立台"},{"zipCode":"3550043","prefectureKana":"ｻｲﾀﾏｹﾝ","cityKana":"ﾋｶﾞｼﾏﾂﾔﾏｼ","streetKana":"ﾊﾔﾏﾀ","prefecture":"埼玉県","city":"東松山市","street":"早俣"},{"zipCode":"3550067","prefectureKana":"ｻｲﾀﾏｹﾝ","cityKana":"ﾋｶﾞｼﾏﾂﾔﾏｼ","streetKana":"ﾊﾞﾝﾄﾞｳﾔﾏ","prefecture":"埼玉県","city":"東松山市","street":"坂東山"},{"zipCode":"3550002","prefectureKana":"ｻｲﾀﾏｹﾝ","cityKana":"ﾋｶﾞｼﾏﾂﾔﾏｼ","streetKana":"ﾋｶﾞｼﾀﾞｲﾗ","prefecture":"埼玉県","city":"東松山市","street":"東平"},{"zipCode":"3550012","prefectureKana":"ｻｲﾀﾏｹﾝ","cityKana":"ﾋｶﾞｼﾏﾂﾔﾏｼ","streetKana":"ﾋﾖｼﾁｮｳ","prefecture":"埼玉県","city":"東松山市","street":"日吉町"},{"zipCode":"3550035","prefectureKana":"ｻｲﾀﾏｹﾝ","cityKana":"ﾋｶﾞｼﾏﾂﾔﾏｼ","streetKana":"ﾌﾙｺｵﾘ","prefecture":"埼玉県","city":"東松山市","street":"古凍"},{"zipCode":"3550015","prefectureKana":"ｻｲﾀﾏｹﾝ","cityKana":"ﾋｶﾞｼﾏﾂﾔﾏｼ","streetKana":"ﾎﾝﾁｮｳ","prefecture":"埼玉県","city":"東松山市","street":"本町"},{"zipCode":"3550055","prefectureKana":"ｻｲﾀﾏｹﾝ","cityKana":"ﾋｶﾞｼﾏﾂﾔﾏｼ","streetKana":"ﾏﾂｶｾﾞﾀﾞｲ","prefecture":"埼玉県","city":"東松山市","street":"松風台"},{"zipCode":"3550017","prefectureKana":"ｻｲﾀﾏｹﾝ","cityKana":"ﾋｶﾞｼﾏﾂﾔﾏｼ","streetKana":"ﾏﾂﾊﾞﾁｮｳ","prefecture":"埼玉県","city":"東松山市","street":"松葉町"},{"zipCode":"3550014","prefectureKana":"ｻｲﾀﾏｹﾝ","cityKana":"ﾋｶﾞｼﾏﾂﾔﾏｼ","streetKana":"ﾏﾂﾓﾄﾁｮｳ","prefecture":"埼玉県","city":"東松山市","street":"松本町"},{"zipCode":"3550005","prefectureKana":"ｻｲﾀﾏｹﾝ","cityKana":"ﾋｶﾞｼﾏﾂﾔﾏｼ","streetKana":"ﾏﾂﾔﾏ","prefecture":"埼玉県","city":"東松山市","street":"松山"},{"zipCode":"3550018","prefectureKana":"ｻｲﾀﾏｹﾝ","cityKana":"ﾋｶﾞｼﾏﾂﾔﾏｼ","streetKana":"ﾏﾂﾔﾏﾁｮｳ","prefecture":"埼玉県","city":"東松山市","street":"松山町"},{"zipCode":"3550027","prefectureKana":"ｻｲﾀﾏｹﾝ","cityKana":"ﾋｶﾞｼﾏﾂﾔﾏｼ","streetKana":"ﾐﾄﾞﾘﾁｮｳ","prefecture":"埼玉県","city":"東松山市","street":"美土里町"},{"zipCode":"3550010","prefectureKana":"ｻｲﾀﾏｹﾝ","cityKana":"ﾋｶﾞｼﾏﾂﾔﾏｼ","streetKana":"ﾐﾊﾗﾁｮｳ","prefecture":"埼玉県","city":"東松山市","street":"美原町"},{"zipCode":"3550045","prefectureKana":"ｻｲﾀﾏｹﾝ","cityKana":"ﾋｶﾞｼﾏﾂﾔﾏｼ","streetKana":"ﾐﾔﾊﾅ","prefecture":"埼玉県","city":"東松山市","street":"宮鼻"},{"zipCode":"3550063","prefectureKana":"ｻｲﾀﾏｹﾝ","cityKana":"ﾋｶﾞｼﾏﾂﾔﾏｼ","streetKana":"ﾓﾄｼﾞｭｸ","prefecture":"埼玉県","city":"東松山市","street":"元宿"},{"zipCode":"3550028","prefectureKana":"ｻｲﾀﾏｹﾝ","cityKana":"ﾋｶﾞｼﾏﾂﾔﾏｼ","streetKana":"ﾔｷｭｳﾁｮｳ","prefecture":"埼玉県","city":"東松山市","street":"箭弓町"},{"zipCode":"3550033","prefectureKana":"ｻｲﾀﾏｹﾝ","cityKana":"ﾋｶﾞｼﾏﾂﾔﾏｼ","streetKana":"ﾔﾏｻﾞｷﾁｮｳ","prefecture":"埼玉県","city":"東松山市","street":"山崎町"},{"zipCode":"3550023","prefectureKana":"ｻｲﾀﾏｹﾝ","cityKana":"ﾋｶﾞｼﾏﾂﾔﾏｼ","streetKana":"ﾛｸﾀﾝﾁｮｳ","prefecture":"埼玉県","city":"東松山市","street":"六反町"},{"zipCode":"3550024","prefectureKana":"ｻｲﾀﾏｹﾝ","cityKana":"ﾋｶﾞｼﾏﾂﾔﾏｼ","streetKana":"ﾛｯｹﾝﾁｮｳ","prefecture":"埼玉県","city":"東松山市","street":"六軒町"},{"zipCode":"3550037","prefectureKana":"ｻｲﾀﾏｹﾝ","cityKana":"ﾋｶﾞｼﾏﾂﾔﾏｼ","streetKana":"ﾜｶﾏﾂﾁｮｳ","prefecture":"埼玉県","city":"東松山市","street":"若松町"},{"zipCode":"3550800","prefectureKana":"ｻｲﾀﾏｹﾝ","cityKana":"ﾋｷｸﾞﾝﾅﾒｶﾞﾜﾏﾁ","streetKana":"ｲｶﾆｹｲｻｲｶﾞﾅｲﾊﾞｱｲ","prefecture":"埼玉県","city":"比企郡滑川町","street":"以下に掲載がない場合"},{"zipCode":"3550806","prefectureKana":"ｻｲﾀﾏｹﾝ","cityKana":"ﾋｷｸﾞﾝﾅﾒｶﾞﾜﾏﾁ","streetKana":"ｲｺ","prefecture":"埼玉県","city":"比企郡滑川町","street":"伊古"},{"zipCode":"3550807","prefectureKana":"ｻｲﾀﾏｹﾝ","cityKana":"ﾋｷｸﾞﾝﾅﾒｶﾞﾜﾏﾁ","streetKana":"ｲｽﾞﾐ","prefecture":"埼玉県","city":"比企郡滑川町","street":"和泉"},{"zipCode":"3550808","prefectureKana":"ｻｲﾀﾏｹﾝ","cityKana":"ﾋｷｸﾞﾝﾅﾒｶﾞﾜﾏﾁ","streetKana":"ｽｶﾞﾀﾞ","prefecture":"埼玉県","city":"比企郡滑川町","street":"菅田"},{"zipCode":"3550813","prefectureKana":"ｻｲﾀﾏｹﾝ","cityKana":"ﾋｷｸﾞﾝﾅﾒｶﾞﾜﾏﾁ","streetKana":"ﾂｷﾉﾜ","prefecture":"埼玉県","city":"比企郡滑川町","street":"月輪"},{"zipCode":"3550815","prefectureKana":"ｻｲﾀﾏｹﾝ","cityKana":"ﾋｷｸﾞﾝﾅﾒｶﾞﾜﾏﾁ","streetKana":"ﾂｷﾉﾜ","prefecture":"埼玉県","city":"比企郡滑川町","street":"月の輪"},{"zipCode":"3550801","prefectureKana":"ｻｲﾀﾏｹﾝ","cityKana":"ﾋｷｸﾞﾝﾅﾒｶﾞﾜﾏﾁ","streetKana":"ﾂﾁｼｵ","prefecture":"埼玉県","city":"比企郡滑川町","street":"土塩"},{"zipCode":"3550804","prefectureKana":"ｻｲﾀﾏｹﾝ","cityKana":"ﾋｷｸﾞﾝﾅﾒｶﾞﾜﾏﾁ","streetKana":"ﾅｶｵ","prefecture":"埼玉県","city":"比企郡滑川町","street":"中尾"},{"zipCode":"3550811","prefectureKana":"ｻｲﾀﾏｹﾝ","cityKana":"ﾋｷｸﾞﾝﾅﾒｶﾞﾜﾏﾁ","streetKana":"ﾊﾈｵ","prefecture":"埼玉県","city":"比企郡滑川町","street":"羽尾"},{"zipCode":"3550803","prefectureKana":"ｻｲﾀﾏｹﾝ","cityKana":"ﾋｷｸﾞﾝﾅﾒｶﾞﾜﾏﾁ","streetKana":"ﾌｸﾀﾞ","prefecture":"埼玉県","city":"比企郡滑川町","street":"福田"},{"zipCode":"3550805","prefectureKana":"ｻｲﾀﾏｹﾝ","cityKana":"ﾋｷｸﾞﾝﾅﾒｶﾞﾜﾏﾁ","streetKana":"ﾐｽﾞﾌｻ","prefecture":"埼玉県","city":"比企郡滑川町","street":"水房"},{"zipCode":"3550814","prefectureKana":"ｻｲﾀﾏｹﾝ","cityKana":"ﾋｷｸﾞﾝﾅﾒｶﾞﾜﾏﾁ","streetKana":"ﾐﾅﾐﾉ","prefecture":"埼玉県","city":"比企郡滑川町","street":"みなみ野"},{"zipCode":"3550812","prefectureKana":"ｻｲﾀﾏｹﾝ","cityKana":"ﾋｷｸﾞﾝﾅﾒｶﾞﾜﾏﾁ","streetKana":"ﾐﾔｺ","prefecture":"埼玉県","city":"比企郡滑川町","street":"都"},{"zipCode":"3550802","prefectureKana":"ｻｲﾀﾏｹﾝ","cityKana":"ﾋｷｸﾞﾝﾅﾒｶﾞﾜﾏﾁ","streetKana":"ﾔﾏﾀ","prefecture":"埼玉県","city":"比企郡滑川町","street":"山田"},{"zipCode":"3550200","prefectureKana":"ｻｲﾀﾏｹﾝ","cityKana":"ﾋｷｸﾞﾝﾗﾝｻﾞﾝﾏﾁ","streetKana":"ｲｶﾆｹｲｻｲｶﾞﾅｲﾊﾞｱｲ","prefecture":"埼玉県","city":"比企郡嵐山町","street":"以下に掲載がない場合"},{"zipCode":"3550222","prefectureKana":"ｻｲﾀﾏｹﾝ","cityKana":"ﾋｷｸﾞﾝﾗﾝｻﾞﾝﾏﾁ","streetKana":"ｵｵｸﾗ","prefecture":"埼玉県","city":"比企郡嵐山町","street":"大蔵"},{"zipCode":"3550206","prefectureKana":"ｻｲﾀﾏｹﾝ","cityKana":"ﾋｷｸﾞﾝﾗﾝｻﾞﾝﾏﾁ","streetKana":"ｵﾂﾊﾞﾀ","prefecture":"埼玉県","city":"比企郡嵐山町","street":"越畑"},{"zipCode":"3550203","prefectureKana":"ｻｲﾀﾏｹﾝ","cityKana":"ﾋｷｸﾞﾝﾗﾝｻﾞﾝﾏﾁ","streetKana":"ｶﾁﾀﾞ","prefecture":"埼玉県","city":"比企郡嵐山町","street":"勝田"},{"zipCode":"3550225","prefectureKana":"ｻｲﾀﾏｹﾝ","cityKana":"ﾋｷｸﾞﾝﾗﾝｻﾞﾝﾏﾁ","streetKana":"ｶﾏｶﾞﾀ","prefecture":"埼玉県","city":"比企郡嵐山町","street":"鎌形"},{"zipCode":"3550213","prefectureKana":"ｻｲﾀﾏｹﾝ","cityKana":"ﾋｷｸﾞﾝﾗﾝｻﾞﾝﾏﾁ","streetKana":"ｶﾜｼﾏ","prefecture":"埼玉県","city":"比企郡嵐山町","street":"川島"},{"zipCode":"3550214","prefectureKana":"ｻｲﾀﾏｹﾝ","cityKana":"ﾋｷｸﾞﾝﾗﾝｻﾞﾝﾏﾁ","streetKana":"ｼｶﾞ","prefecture":"埼玉県","city":"比企郡嵐山町","street":"志賀"},{"zipCode":"3550224","prefectureKana":"ｻｲﾀﾏｹﾝ","cityKana":"ﾋｷｸﾞﾝﾗﾝｻﾞﾝﾏﾁ","streetKana":"ｼｮｳｸﾞﾝｻﾜ","prefecture":"埼玉県","city":"比企郡嵐山町","street":"将軍沢"},{"zipCode":"3550221","prefectureKana":"ｻｲﾀﾏｹﾝ","cityKana":"ﾋｷｸﾞﾝﾗﾝｻﾞﾝﾏﾁ","streetKana":"ｽｶﾞﾔ","prefecture":"埼玉県","city":"比企郡嵐山町","street":"菅谷"},{"zipCode":"3550211","prefectureKana":"ｻｲﾀﾏｹﾝ","cityKana":"ﾋｷｸﾞﾝﾗﾝｻﾞﾝﾏﾁ","streetKana":"ｽｷﾞﾔﾏ","prefecture":"埼玉県","city":"比企郡嵐山町","street":"杉山"},{"zipCode":"3550227","prefectureKana":"ｻｲﾀﾏｹﾝ","cityKana":"ﾋｷｸﾞﾝﾗﾝｻﾞﾝﾏﾁ","streetKana":"ｾﾝｼﾞｭﾄﾞｳ","prefecture":"埼玉県","city":"比企郡嵐山町","street":"千手堂"},{"zipCode":"3550212","prefectureKana":"ｻｲﾀﾏｹﾝ","cityKana":"ﾋｷｸﾞﾝﾗﾝｻﾞﾝﾏﾁ","streetKana":"ﾀﾛｳﾏﾙ","prefecture":"埼玉県","city":"比企郡嵐山町","street":"太郎丸"},{"zipCode":"3550226","prefectureKana":"ｻｲﾀﾏｹﾝ","cityKana":"ﾋｷｸﾞﾝﾗﾝｻﾞﾝﾏﾁ","streetKana":"ﾄｵﾔﾏ","prefecture":"埼玉県","city":"比企郡嵐山町","street":"遠山"},{"zipCode":"3550223","prefectureKana":"ｻｲﾀﾏｹﾝ","cityKana":"ﾋｷｸﾞﾝﾗﾝｻﾞﾝﾏﾁ","streetKana":"ﾈｷﾞｼ","prefecture":"埼玉県","city":"比企郡嵐山町","street":"根岸"},{"zipCode":"3550204","prefectureKana":"ｻｲﾀﾏｹﾝ","cityKana":"ﾋｷｸﾞﾝﾗﾝｻﾞﾝﾏﾁ","streetKana":"ﾊﾅﾐﾀﾞｲ","prefecture":"埼玉県","city":"比企郡嵐山町","street":"花見台"},{"zipCode":"3550215","prefectureKana":"ｻｲﾀﾏｹﾝ","cityKana":"ﾋｷｸﾞﾝﾗﾝｻﾞﾝﾏﾁ","streetKana":"ﾋﾗｻﾜ","prefecture":"埼玉県","city":"比企郡嵐山町","street":"平沢"},{"zipCode":"3550205","prefectureKana":"ｻｲﾀﾏｹﾝ","cityKana":"ﾋｷｸﾞﾝﾗﾝｻﾞﾝﾏﾁ","streetKana":"ﾋﾛﾉ","prefecture":"埼玉県","city":"比企郡嵐山町","street":"広野"},{"zipCode":"3550201","prefectureKana":"ｻｲﾀﾏｹﾝ","cityKana":"ﾋｷｸﾞﾝﾗﾝｻﾞﾝﾏﾁ","streetKana":"ﾌﾙｻﾄ","prefecture":"埼玉県","city":"比企郡嵐山町","street":"古里"},{"zipCode":"3550216","prefectureKana":"ｻｲﾀﾏｹﾝ","cityKana":"ﾋｷｸﾞﾝﾗﾝｻﾞﾝﾏﾁ","streetKana":"ﾑｻｼﾀﾞｲ","prefecture":"埼玉県","city":"比企郡嵐山町","street":"むさし台"},{"zipCode":"3550202","prefectureKana":"ｻｲﾀﾏｹﾝ","cityKana":"ﾋｷｸﾞﾝﾗﾝｻﾞﾝﾏﾁ","streetKana":"ﾖｼﾀﾞ","prefecture":"埼玉県","city":"比企郡嵐山町","street":"吉田"},{"zipCode":"3550300","prefectureKana":"ｻｲﾀﾏｹﾝ","cityKana":"ﾋｷｸﾞﾝｵｶﾞﾜﾏﾁ","streetKana":"ｲｶﾆｹｲｻｲｶﾞﾅｲﾊﾞｱｲ","prefecture":"埼玉県","city":"比企郡小川町","street":"以下に掲載がない場合"},{"zipCode":"3550324","prefectureKana":"ｻｲﾀﾏｹﾝ","cityKana":"ﾋｷｸﾞﾝｵｶﾞﾜﾏﾁ","streetKana":"ｱｵﾔﾏ","prefecture":"埼玉県","city":"比企郡小川町","street":"青山"},{"zipCode":"3550333","prefectureKana":"ｻｲﾀﾏｹﾝ","cityKana":"ﾋｷｸﾞﾝｵｶﾞﾜﾏﾁ","streetKana":"ｲｲﾀﾞ","prefecture":"埼玉県","city":"比企郡小川町","street":"飯田"},{"zipCode":"3550304","prefectureKana":"ｻｲﾀﾏｹﾝ","cityKana":"ﾋｷｸﾞﾝｵｶﾞﾜﾏﾁ","streetKana":"ｲｾﾈ","prefecture":"埼玉県","city":"比企郡小川町","street":"伊勢根"},{"zipCode":"3550328","prefectureKana":"ｻｲﾀﾏｹﾝ","cityKana":"ﾋｷｸﾞﾝｵｶﾞﾜﾏﾁ","streetKana":"ｵｵﾂｶ","prefecture":"埼玉県","city":"比企郡小川町","street":"大塚"},{"zipCode":"3550321","prefectureKana":"ｻｲﾀﾏｹﾝ","cityKana":"ﾋｷｸﾞﾝｵｶﾞﾜﾏﾁ","streetKana":"ｵｶﾞﾜ","prefecture":"埼玉県","city":"比企郡小川町","street":"小川"},{"zipCode":"3550316","prefectureKana":"ｻｲﾀﾏｹﾝ","cityKana":"ﾋｷｸﾞﾝｵｶﾞﾜﾏﾁ","streetKana":"ｶｸﾔﾏ","prefecture":"埼玉県","city":"比企郡小川町","street":"角山"},{"zipCode":"3550334","prefectureKana":"ｻｲﾀﾏｹﾝ","cityKana":"ﾋｷｸﾞﾝｵｶﾞﾜﾏﾁ","streetKana":"ｶｻﾊﾗ","prefecture":"埼玉県","city":"比企郡小川町","street":"笠原"},{"zipCode":"3550325","prefectureKana":"ｻｲﾀﾏｹﾝ","cityKana":"ﾋｷｸﾞﾝｵｶﾞﾜﾏﾁ","streetKana":"ｶﾐﾌﾙﾃﾗ","prefecture":"埼玉県","city":"比企郡小川町","street":"上古寺"},{"zipCode":"3550312","prefectureKana":"ｻｲﾀﾏｹﾝ","cityKana":"ﾋｷｸﾞﾝｵｶﾞﾜﾏﾁ","streetKana":"ｶﾐﾖｺﾀ","prefecture":"埼玉県","city":"比企郡小川町","street":"上横田"},{"zipCode":"3550335","prefectureKana":"ｻｲﾀﾏｹﾝ","cityKana":"ﾋｷｸﾞﾝｵｶﾞﾜﾏﾁ","streetKana":"ｷﾍﾞ","prefecture":"埼玉県","city":"比企郡小川町","street":"木部"},{"zipCode":"3550337","prefectureKana":"ｻｲﾀﾏｹﾝ","cityKana":"ﾋｷｸﾞﾝｵｶﾞﾜﾏﾁ","streetKana":"ｷﾛｺ","prefecture":"埼玉県","city":"比企郡小川町","street":"木呂子"},{"zipCode":"3550311","prefectureKana":"ｻｲﾀﾏｹﾝ","cityKana":"ﾋｷｸﾞﾝｵｶﾞﾜﾏﾁ","streetKana":"ｺｳﾔ","prefecture":"埼玉県","city":"比企郡小川町","street":"高谷"},{"zipCode":"3550327","prefectureKana":"ｻｲﾀﾏｹﾝ","cityKana":"ﾋｷｸﾞﾝｵｶﾞﾜﾏﾁ","streetKana":"ｺｼｺﾞｴ","prefecture":"埼玉県","city":"比企郡小川町","street":"腰越"},{"zipCode":"3550323","prefectureKana":"ｻｲﾀﾏｹﾝ","cityKana":"ﾋｷｸﾞﾝｵｶﾞﾜﾏﾁ","streetKana":"ｼﾓｻﾞﾄ","prefecture":"埼玉県","city":"比企郡小川町","street":"下里"},{"zipCode":"3550326","prefectureKana":"ｻｲﾀﾏｹﾝ","cityKana":"ﾋｷｸﾞﾝｵｶﾞﾜﾏﾁ","streetKana":"ｼﾓﾌﾙﾃﾗ","prefecture":"埼玉県","city":"比企郡小川町","street":"下古寺"},{"zipCode":"3550313","prefectureKana":"ｻｲﾀﾏｹﾝ","cityKana":"ﾋｷｸﾞﾝｵｶﾞﾜﾏﾁ","streetKana":"ｼﾓﾖｺﾀ","prefecture":"埼玉県","city":"比企郡小川町","street":"下横田"},{"zipCode":"3550336","prefectureKana":"ｻｲﾀﾏｹﾝ","cityKana":"ﾋｷｸﾞﾝｵｶﾞﾜﾏﾁ","streetKana":"ｽｸﾞﾛ","prefecture":"埼玉県","city":"比企郡小川町","street":"勝呂"},{"zipCode":"3550302","prefectureKana":"ｻｲﾀﾏｹﾝ","cityKana":"ﾋｷｸﾞﾝｵｶﾞﾜﾏﾁ","streetKana":"ﾀｶﾉｽ","prefecture":"埼玉県","city":"比企郡小川町","street":"鷹巣"},{"zipCode":"3550306","prefectureKana":"ｻｲﾀﾏｹﾝ","cityKana":"ﾋｷｸﾞﾝｵｶﾞﾜﾏﾁ","streetKana":"ﾀｶﾐ","prefecture":"埼玉県","city":"比企郡小川町","street":"高見"},{"zipCode":"3550314","prefectureKana":"ｻｲﾀﾏｹﾝ","cityKana":"ﾋｷｸﾞﾝｵｶﾞﾜﾏﾁ","streetKana":"ﾅｶﾂﾒ","prefecture":"埼玉県","city":"比企郡小川町","street":"中爪"},{"zipCode":"3550303","prefectureKana":"ｻｲﾀﾏｹﾝ","cityKana":"ﾋｷｸﾞﾝｵｶﾞﾜﾏﾁ","streetKana":"ﾅﾗﾅｼ","prefecture":"埼玉県","city":"比企郡小川町","street":"奈良梨"},{"zipCode":"3550301","prefectureKana":"ｻｲﾀﾏｹﾝ","cityKana":"ﾋｷｸﾞﾝｵｶﾞﾜﾏﾁ","streetKana":"ﾆｼﾌﾙｻﾄ","prefecture":"埼玉県","city":"比企郡小川町","street":"西古里"},{"zipCode":"3550305","prefectureKana":"ｻｲﾀﾏｹﾝ","cityKana":"ﾋｷｸﾞﾝｵｶﾞﾜﾏﾁ","streetKana":"ﾉｳﾏｽ","prefecture":"埼玉県","city":"比企郡小川町","street":"能増"},{"zipCode":"3550317","prefectureKana":"ｻｲﾀﾏｹﾝ","cityKana":"ﾋｷｸﾞﾝｵｶﾞﾜﾏﾁ","streetKana":"ﾊﾗｶﾞﾜ","prefecture":"埼玉県","city":"比企郡小川町","street":"原川"},{"zipCode":"3550322","prefectureKana":"ｻｲﾀﾏｹﾝ","cityKana":"ﾋｷｸﾞﾝｵｶﾞﾜﾏﾁ","streetKana":"ﾋｶﾞｼｵｶﾞﾜ","prefecture":"埼玉県","city":"比企郡小川町","street":"東小川"},{"zipCode":"3550318","prefectureKana":"ｻｲﾀﾏｹﾝ","cityKana":"ﾋｷｸﾞﾝｵｶﾞﾜﾏﾁ","streetKana":"ﾋﾊﾞﾘﾀﾞｲ","prefecture":"埼玉県","city":"比企郡小川町","street":"ひばり台"},{"zipCode":"3550332","prefectureKana":"ｻｲﾀﾏｹﾝ","cityKana":"ﾋｷｸﾞﾝｵｶﾞﾜﾏﾁ","streetKana":"ﾏｽｵ","prefecture":"埼玉県","city":"比企郡小川町","street":"増尾"},{"zipCode":"3550315","prefectureKana":"ｻｲﾀﾏｹﾝ","cityKana":"ﾋｷｸﾞﾝｵｶﾞﾜﾏﾁ","streetKana":"ﾐﾄﾞﾘｶﾞｵｶ","prefecture":"埼玉県","city":"比企郡小川町","street":"みどりが丘"},{"zipCode":"3550331","prefectureKana":"ｻｲﾀﾏｹﾝ","cityKana":"ﾋｷｸﾞﾝｵｶﾞﾜﾏﾁ","streetKana":"ﾕｷｴ","prefecture":"埼玉県","city":"比企郡小川町","street":"靱負"},{"zipCode":"3550100","prefectureKana":"ｻｲﾀﾏｹﾝ","cityKana":"ﾋｷｸﾞﾝﾖｼﾐﾏﾁ","streetKana":"ｲｶﾆｹｲｻｲｶﾞﾅｲﾊﾞｱｲ","prefecture":"埼玉県","city":"比企郡吉見町","street":"以下に掲載がない場合"},{"zipCode":"3550131","prefectureKana":"ｻｲﾀﾏｹﾝ","cityKana":"ﾋｷｸﾞﾝﾖｼﾐﾏﾁ","streetKana":"ｱﾗｺ","prefecture":"埼玉県","city":"比企郡吉見町","street":"荒子"},{"zipCode":"3550132","prefectureKana":"ｻｲﾀﾏｹﾝ","cityKana":"ﾋｷｸﾞﾝﾖｼﾐﾏﾁ","streetKana":"ｲｲｼﾞﾏｼﾝﾃﾞﾝ","prefecture":"埼玉県","city":"比企郡吉見町","street":"飯島新田"},{"zipCode":"3550103","prefectureKana":"ｻｲﾀﾏｹﾝ","cityKana":"ﾋｷｸﾞﾝﾖｼﾐﾏﾁ","streetKana":"ｲﾏｲｽﾞﾐ","prefecture":"埼玉県","city":"比企郡吉見町","street":"今泉"},{"zipCode":"3550136","prefectureKana":"ｻｲﾀﾏｹﾝ","cityKana":"ﾋｷｸﾞﾝﾖｼﾐﾏﾁ","streetKana":"ｴﾂﾅ","prefecture":"埼玉県","city":"比企郡吉見町","street":"江綱"},{"zipCode":"3550133","prefectureKana":"ｻｲﾀﾏｹﾝ","cityKana":"ﾋｷｸﾞﾝﾖｼﾐﾏﾁ","streetKana":"ｴﾜｲ","prefecture":"埼玉県","city":"比企郡吉見町","street":"江和井"},{"zipCode":"3550134","prefectureKana":"ｻｲﾀﾏｹﾝ","cityKana":"ﾋｷｸﾞﾝﾖｼﾐﾏﾁ","streetKana":"ｵｵｸｼ","prefecture":"埼玉県","city":"比企郡吉見町","street":"大串"},{"zipCode":"3550127","prefectureKana":"ｻｲﾀﾏｹﾝ","cityKana":"ﾋｷｸﾞﾝﾖｼﾐﾏﾁ","streetKana":"ｵｵﾜﾀﾞ","prefecture":"埼玉県","city":"比企郡吉見町","street":"大和田"},{"zipCode":"3550125","prefectureKana":"ｻｲﾀﾏｹﾝ","cityKana":"ﾋｷｸﾞﾝﾖｼﾐﾏﾁ","streetKana":"ｶﾊﾞｶﾘﾔ","prefecture":"埼玉県","city":"比企郡吉見町","street":"蚊斗谷"},{"zipCode":"3550115","prefectureKana":"ｻｲﾀﾏｹﾝ","cityKana":"ﾋｷｸﾞﾝﾖｼﾐﾏﾁ","streetKana":"ｶﾐｷﾞﾝﾔ","prefecture":"埼玉県","city":"比企郡吉見町","street":"上銀谷"},{"zipCode":"3550105","prefectureKana":"ｻｲﾀﾏｹﾝ","cityKana":"ﾋｷｸﾞﾝﾖｼﾐﾏﾁ","streetKana":"ｶﾐｽﾞﾅ","prefecture":"埼玉県","city":"比企郡吉見町","street":"上砂"},{"zipCode":"3550165","prefectureKana":"ｻｲﾀﾏｹﾝ","cityKana":"ﾋｷｸﾞﾝﾖｼﾐﾏﾁ","streetKana":"ｶﾐﾎｿﾔ","prefecture":"埼玉県","city":"比企郡吉見町","street":"上細谷"},{"zipCode":"3550111","prefectureKana":"ｻｲﾀﾏｹﾝ","cityKana":"ﾋｷｸﾞﾝﾖｼﾐﾏﾁ","streetKana":"ｷﾀｼﾓｽﾞﾅ","prefecture":"埼玉県","city":"比企郡吉見町","street":"北下砂"},{"zipCode":"3550155","prefectureKana":"ｻｲﾀﾏｹﾝ","cityKana":"ﾋｷｸﾞﾝﾖｼﾐﾏﾁ","streetKana":"ｷﾀﾖｼﾐ","prefecture":"埼玉県","city":"比企郡吉見町","street":"北吉見"},{"zipCode":"3550137","prefectureKana":"ｻｲﾀﾏｹﾝ","cityKana":"ﾋｷｸﾞﾝﾖｼﾐﾏﾁ","streetKana":"ｸﾎﾞﾀ","prefecture":"埼玉県","city":"比企郡吉見町","street":"久保田"},{"zipCode":"3550124","prefectureKana":"ｻｲﾀﾏｹﾝ","cityKana":"ﾋｷｸﾞﾝﾖｼﾐﾏﾁ","streetKana":"ｸﾎﾞﾀｼﾝﾃﾞﾝ","prefecture":"埼玉県","city":"比企郡吉見町","street":"久保田新田"},{"zipCode":"3550153","prefectureKana":"ｻｲﾀﾏｹﾝ","cityKana":"ﾋｷｸﾞﾝﾖｼﾐﾏﾁ","streetKana":"ｸﾒﾀﾞ","prefecture":"埼玉県","city":"比企郡吉見町","street":"久米田"},{"zipCode":"3550166","prefectureKana":"ｻｲﾀﾏｹﾝ","cityKana":"ﾋｷｸﾞﾝﾖｼﾐﾏﾁ","streetKana":"ｸﾛｲﾜ","prefecture":"埼玉県","city":"比企郡吉見町","street":"黒岩"},{"zipCode":"3550164","prefectureKana":"ｻｲﾀﾏｹﾝ","cityKana":"ﾋｷｸﾞﾝﾖｼﾐﾏﾁ","streetKana":"ｺｱﾗｲ","prefecture":"埼玉県","city":"比企郡吉見町","street":"小新井"},{"zipCode":"3550151","prefectureKana":"ｻｲﾀﾏｹﾝ","cityKana":"ﾋｷｸﾞﾝﾖｼﾐﾏﾁ","streetKana":"ｺﾞｼｮ","prefecture":"埼玉県","city":"比企郡吉見町","street":"御所"},{"zipCode":"3550114","prefectureKana":"ｻｲﾀﾏｹﾝ","cityKana":"ﾋｷｸﾞﾝﾖｼﾐﾏﾁ","streetKana":"ｺﾐｮｳ","prefecture":"埼玉県","city":"比企郡吉見町","street":"古名"},{"zipCode":"3550113","prefectureKana":"ｻｲﾀﾏｹﾝ","cityKana":"ﾋｷｸﾞﾝﾖｼﾐﾏﾁ","streetKana":"ｺﾐｮｳｼﾝﾃﾞﾝ","prefecture":"埼玉県","city":"比企郡吉見町","street":"古名新田"},{"zipCode":"3550104","prefectureKana":"ｻｲﾀﾏｹﾝ","cityKana":"ﾋｷｸﾞﾝﾖｼﾐﾏﾁ","streetKana":"ｼﾞﾄｳﾎｳ","prefecture":"埼玉県","city":"比企郡吉見町","street":"地頭方"},{"zipCode":"3550116","prefectureKana":"ｻｲﾀﾏｹﾝ","cityKana":"ﾋｷｸﾞﾝﾖｼﾐﾏﾁ","streetKana":"ｼﾓｷﾞﾝﾔ","prefecture":"埼玉県","city":"比企郡吉見町","street":"下銀谷"},{"zipCode":"3550118","prefectureKana":"ｻｲﾀﾏｹﾝ","cityKana":"ﾋｷｸﾞﾝﾖｼﾐﾏﾁ","streetKana":"ｼﾓﾎｿﾔ","prefecture":"埼玉県","city":"比企郡吉見町","street":"下細谷"},{"zipCode":"3550123","prefectureKana":"ｻｲﾀﾏｹﾝ","cityKana":"ﾋｷｸﾞﾝﾖｼﾐﾏﾁ","streetKana":"ｽﾉｺｼﾝﾃﾞﾝ","prefecture":"埼玉県","city":"比企郡吉見町","street":"須ノ子新田"},{"zipCode":"3550122","prefectureKana":"ｻｲﾀﾏｹﾝ","cityKana":"ﾋｷｸﾞﾝﾖｼﾐﾏﾁ","streetKana":"ﾀｶｵｼﾝﾃﾞﾝ","prefecture":"埼玉県","city":"比企郡吉見町","street":"高尾新田"},{"zipCode":"3550167","prefectureKana":"ｻｲﾀﾏｹﾝ","cityKana":"ﾋｷｸﾞﾝﾖｼﾐﾏﾁ","streetKana":"ﾀｺｳ","prefecture":"埼玉県","city":"比企郡吉見町","street":"田甲"},{"zipCode":"3550119","prefectureKana":"ｻｲﾀﾏｹﾝ","cityKana":"ﾋｷｸﾞﾝﾖｼﾐﾏﾁ","streetKana":"ﾅｶｱﾗｲ","prefecture":"埼玉県","city":"比企郡吉見町","street":"中新井"},{"zipCode":"3550106","prefectureKana":"ｻｲﾀﾏｹﾝ","cityKana":"ﾋｷｸﾞﾝﾖｼﾐﾏﾁ","streetKana":"ﾅｶｿﾞﾈ","prefecture":"埼玉県","city":"比企郡吉見町","street":"中曽根"},{"zipCode":"3550156","prefectureKana":"ｻｲﾀﾏｹﾝ","cityKana":"ﾋｷｸﾞﾝﾖｼﾐﾏﾁ","streetKana":"ﾅｶﾞﾔﾂ","prefecture":"埼玉県","city":"比企郡吉見町","street":"長谷"},{"zipCode":"3550157","prefectureKana":"ｻｲﾀﾏｹﾝ","cityKana":"ﾋｷｸﾞﾝﾖｼﾐﾏﾁ","streetKana":"ﾆｼﾖｼﾐ","prefecture":"埼玉県","city":"比企郡吉見町","street":"西吉見"},{"zipCode":"3550121","prefectureKana":"ｻｲﾀﾏｹﾝ","cityKana":"ﾋｷｸﾞﾝﾖｼﾐﾏﾁ","streetKana":"ﾊｽﾇﾏｼﾝﾃﾞﾝ","prefecture":"埼玉県","city":"比企郡吉見町","street":"蓮沼新田"},{"zipCode":"3550110","prefectureKana":"ｻｲﾀﾏｹﾝ","cityKana":"ﾋｷｸﾞﾝﾖｼﾐﾏﾁ","streetKana":"ﾋｶﾞｼﾉ","prefecture":"埼玉県","city":"比企郡吉見町","street":"東野"},{"zipCode":"3550101","prefectureKana":"ｻｲﾀﾏｹﾝ","cityKana":"ﾋｷｸﾞﾝﾖｼﾐﾏﾁ","streetKana":"ﾋﾄﾂｷﾞ","prefecture":"埼玉県","city":"比企郡吉見町","street":"一ツ木"},{"zipCode":"3550163","prefectureKana":"ｻｲﾀﾏｹﾝ","cityKana":"ﾋｷｸﾞﾝﾖｼﾐﾏﾁ","streetKana":"ﾎﾝｻﾞﾜ","prefecture":"埼玉県","city":"比企郡吉見町","street":"本沢"},{"zipCode":"3550135","prefectureKana":"ｻｲﾀﾏｹﾝ","cityKana":"ﾋｷｸﾞﾝﾖｼﾐﾏﾁ","streetKana":"ﾏｴｺﾞｳﾁ","prefecture":"埼玉県","city":"比企郡吉見町","street":"前河内"},{"zipCode":"3550162","prefectureKana":"ｻｲﾀﾏｹﾝ","cityKana":"ﾋｷｸﾞﾝﾖｼﾐﾏﾁ","streetKana":"ﾏﾂｻﾞｷ","prefecture":"埼玉県","city":"比企郡吉見町","street":"松崎"},{"zipCode":"3550112","prefectureKana":"ｻｲﾀﾏｹﾝ","cityKana":"ﾋｷｸﾞﾝﾖｼﾐﾏﾁ","streetKana":"ﾏﾙﾇｷ","prefecture":"埼玉県","city":"比企郡吉見町","street":"丸貫"},{"zipCode":"3550126","prefectureKana":"ｻｲﾀﾏｹﾝ","cityKana":"ﾋｷｸﾞﾝﾖｼﾐﾏﾁ","streetKana":"ﾏﾝｺｳｼﾞ","prefecture":"埼玉県","city":"比企郡吉見町","street":"万光寺"},{"zipCode":"3550154","prefectureKana":"ｻｲﾀﾏｹﾝ","cityKana":"ﾋｷｸﾞﾝﾖｼﾐﾏﾁ","streetKana":"ﾐﾅﾐﾖｼﾐ","prefecture":"埼玉県","city":"比企郡吉見町","street":"南吉見"},{"zipCode":"3550102","prefectureKana":"ｻｲﾀﾏｹﾝ","cityKana":"ﾋｷｸﾞﾝﾖｼﾐﾏﾁ","streetKana":"ﾒｲｼｭｳ","prefecture":"埼玉県","city":"比企郡吉見町","street":"明秋"},{"zipCode":"3550117","prefectureKana":"ｻｲﾀﾏｹﾝ","cityKana":"ﾋｷｸﾞﾝﾖｼﾐﾏﾁ","streetKana":"ﾔｸﾞﾁ","prefecture":"埼玉県","city":"比企郡吉見町","street":"谷口"},{"zipCode":"3550161","prefectureKana":"ｻｲﾀﾏｹﾝ","cityKana":"ﾋｷｸﾞﾝﾖｼﾐﾏﾁ","streetKana":"ﾔﾏﾉｼﾀ","prefecture":"埼玉県","city":"比企郡吉見町","street":"山ノ下"},{"zipCode":"3550152","prefectureKana":"ｻｲﾀﾏｹﾝ","cityKana":"ﾋｷｸﾞﾝﾖｼﾐﾏﾁ","streetKana":"ﾜﾅ","prefecture":"埼玉県","city":"比企郡吉見町","street":"和名"},{"zipCode":"3550300","prefectureKana":"ｻｲﾀﾏｹﾝ","cityKana":"ﾋｷｸﾞﾝﾄｷｶﾞﾜﾏﾁ","streetKana":"ｲｶﾆｹｲｻｲｶﾞﾅｲﾊﾞｱｲ","prefecture":"埼玉県","city":"比企郡ときがわ町","street":"以下に掲載がない場合"},{"zipCode":"3550363","prefectureKana":"ｻｲﾀﾏｹﾝ","cityKana":"ﾋｷｸﾞﾝﾄｷｶﾞﾜﾏﾁ","streetKana":"ｵｵﾂｷ","prefecture":"埼玉県","city":"比企郡ときがわ町","street":"大附"},{"zipCode":"3550366","prefectureKana":"ｻｲﾀﾏｹﾝ","cityKana":"ﾋｷｸﾞﾝﾄｷｶﾞﾜﾏﾁ","streetKana":"ｵｵﾉ","prefecture":"埼玉県","city":"比企郡ときがわ町","street":"大野"},{"zipCode":"3550365","prefectureKana":"ｻｲﾀﾏｹﾝ","cityKana":"ﾋｷｸﾞﾝﾄｷｶﾞﾜﾏﾁ","streetKana":"ｸﾇｷﾞﾀﾞｲﾗ","prefecture":"埼玉県","city":"比企郡ときがわ町","street":"椚平"},{"zipCode":"3550351","prefectureKana":"ｻｲﾀﾏｹﾝ","cityKana":"ﾋｷｸﾞﾝﾄｷｶﾞﾜﾏﾁ","streetKana":"ｸﾓｶﾞﾜﾗ","prefecture":"埼玉県","city":"比企郡ときがわ町","street":"雲河原"},{"zipCode":"3550343","prefectureKana":"ｻｲﾀﾏｹﾝ","cityKana":"ﾋｷｸﾞﾝﾄｷｶﾞﾜﾏﾁ","streetKana":"ｺﾞﾐｮｳ","prefecture":"埼玉県","city":"比企郡ときがわ町","street":"五明"},{"zipCode":"3550356","prefectureKana":"ｻｲﾀﾏｹﾝ","cityKana":"ﾋｷｸﾞﾝﾄｷｶﾞﾜﾏﾁ","streetKana":"ｾｷﾎﾞﾘ","prefecture":"埼玉県","city":"比企郡ときがわ町","street":"関堀"},{"zipCode":"3550358","prefectureKana":"ｻｲﾀﾏｹﾝ","cityKana":"ﾋｷｸﾞﾝﾄｷｶﾞﾜﾏﾁ","streetKana":"ｾﾄﾓﾄｶﾐ","prefecture":"埼玉県","city":"比企郡ときがわ町","street":"瀬戸元上"},{"zipCode":"3550359","prefectureKana":"ｻｲﾀﾏｹﾝ","cityKana":"ﾋｷｸﾞﾝﾄｷｶﾞﾜﾏﾁ","streetKana":"ｾﾄﾓﾄｼﾓ","prefecture":"埼玉県","city":"比企郡ときがわ町","street":"瀬戸元下"},{"zipCode":"3550341","prefectureKana":"ｻｲﾀﾏｹﾝ","cityKana":"ﾋｷｸﾞﾝﾄｷｶﾞﾜﾏﾁ","streetKana":"ﾀｸﾞﾛ","prefecture":"埼玉県","city":"比企郡ときがわ町","street":"田黒"},{"zipCode":"3550357","prefectureKana":"ｻｲﾀﾏｹﾝ","cityKana":"ﾋｷｸﾞﾝﾄｷｶﾞﾜﾏﾁ","streetKana":"ﾀﾅｶ","prefecture":"埼玉県","city":"比企郡ときがわ町","street":"田中"},{"zipCode":"3550342","prefectureKana":"ｻｲﾀﾏｹﾝ","cityKana":"ﾋｷｸﾞﾝﾄｷｶﾞﾜﾏﾁ","streetKana":"ﾀﾏｶﾞﾜ","prefecture":"埼玉県","city":"比企郡ときがわ町","street":"玉川"},{"zipCode":"3550364","prefectureKana":"ｻｲﾀﾏｹﾝ","cityKana":"ﾋｷｸﾞﾝﾄｷｶﾞﾜﾏﾁ","streetKana":"ﾆｼﾀﾞｲﾗ","prefecture":"埼玉県","city":"比企郡ときがわ町","street":"西平"},{"zipCode":"3550354","prefectureKana":"ｻｲﾀﾏｹﾝ","cityKana":"ﾋｷｸﾞﾝﾄｷｶﾞﾜﾏﾁ","streetKana":"ﾊﾞﾝｼﾞｮｳ","prefecture":"埼玉県","city":"比企郡ときがわ町","street":"番匠"},{"zipCode":"3550355","prefectureKana":"ｻｲﾀﾏｹﾝ","cityKana":"ﾋｷｸﾞﾝﾄｷｶﾞﾜﾏﾁ","streetKana":"ﾊﾞﾝﾊﾞ","prefecture":"埼玉県","city":"比企郡ときがわ町","street":"馬場"},{"zipCode":"3550344","prefectureKana":"ｻｲﾀﾏｹﾝ","cityKana":"ﾋｷｸﾞﾝﾄｷｶﾞﾜﾏﾁ","streetKana":"ﾋｶｹﾞ","prefecture":"埼玉県","city":"比企郡ときがわ町","street":"日影"},{"zipCode":"3550352","prefectureKana":"ｻｲﾀﾏｹﾝ","cityKana":"ﾋｷｸﾞﾝﾄｷｶﾞﾜﾏﾁ","streetKana":"ﾍﾞｯｼｮ","prefecture":"埼玉県","city":"比企郡ときがわ町","street":"別所"},{"zipCode":"3550353","prefectureKana":"ｻｲﾀﾏｹﾝ","cityKana":"ﾋｷｸﾞﾝﾄｷｶﾞﾜﾏﾁ","streetKana":"ﾎﾝｺﾞｳ","prefecture":"埼玉県","city":"比企郡ときがわ町","street":"本郷"},{"zipCode":"3550361","prefectureKana":"ｻｲﾀﾏｹﾝ","cityKana":"ﾋｷｸﾞﾝﾄｷｶﾞﾜﾏﾁ","streetKana":"ﾓﾓﾉｷ","prefecture":"埼玉県","city":"比企郡ときがわ町","street":"桃木"},{"zipCode":"3550300","prefectureKana":"ｻｲﾀﾏｹﾝ","cityKana":"ﾁﾁﾌﾞｸﾞﾝﾋｶﾞｼﾁﾁﾌﾞﾑﾗ","streetKana":"ｲｶﾆｹｲｻｲｶﾞﾅｲﾊﾞｱｲ","prefecture":"埼玉県","city":"秩父郡東秩父村","street":"以下に掲載がない場合"},{"zipCode":"3550371","prefectureKana":"ｻｲﾀﾏｹﾝ","cityKana":"ﾁﾁﾌﾞｸﾞﾝﾋｶﾞｼﾁﾁﾌﾞﾑﾗ","streetKana":"ｵｵｳﾁｻﾞﾜ","prefecture":"埼玉県","city":"秩父郡東秩父村","street":"大内沢"},{"zipCode":"3550373","prefectureKana":"ｻｲﾀﾏｹﾝ","cityKana":"ﾁﾁﾌﾞｸﾞﾝﾋｶﾞｼﾁﾁﾌﾞﾑﾗ","streetKana":"ｵｸｻﾜ","prefecture":"埼玉県","city":"秩父郡東秩父村","street":"奥沢"},{"zipCode":"3550376","prefectureKana":"ｻｲﾀﾏｹﾝ","cityKana":"ﾁﾁﾌﾞｸﾞﾝﾋｶﾞｼﾁﾁﾌﾞﾑﾗ","streetKana":"ｶｲﾔ","prefecture":"埼玉県","city":"秩父郡東秩父村","street":"皆谷"},{"zipCode":"3550372","prefectureKana":"ｻｲﾀﾏｹﾝ","cityKana":"ﾁﾁﾌﾞｸﾞﾝﾋｶﾞｼﾁﾁﾌﾞﾑﾗ","streetKana":"ｻｶﾓﾄ","prefecture":"埼玉県","city":"秩父郡東秩父村","street":"坂本"},{"zipCode":"3550377","prefectureKana":"ｻｲﾀﾏｹﾝ","cityKana":"ﾁﾁﾌﾞｸﾞﾝﾋｶﾞｼﾁﾁﾌﾞﾑﾗ","streetKana":"ｼﾛｲｼ","prefecture":"埼玉県","city":"秩父郡東秩父村","street":"白石"},{"zipCode":"3550375","prefectureKana":"ｻｲﾀﾏｹﾝ","cityKana":"ﾁﾁﾌﾞｸﾞﾝﾋｶﾞｼﾁﾁﾌﾞﾑﾗ","streetKana":"ﾐﾄﾞｳ","prefecture":"埼玉県","city":"秩父郡東秩父村","street":"御堂"},{"zipCode":"3550374","prefectureKana":"ｻｲﾀﾏｹﾝ","cityKana":"ﾁﾁﾌﾞｸﾞﾝﾋｶﾞｼﾁﾁﾌﾞﾑﾗ","streetKana":"ﾔｽﾄﾞ","prefecture":"埼玉県","city":"秩父郡東秩父村","street":"安戸"}]