[{"zipCode":"3570000","prefectureKana":"ｻｲﾀﾏｹﾝ","cityKana":"ﾊﾝﾉｳｼ","streetKana":"ｲｶﾆｹｲｻｲｶﾞﾅｲﾊﾞｱｲ","prefecture":"埼玉県","city":"飯能市","street":"以下に掲載がない場合"},{"zipCode":"3570003","prefectureKana":"ｻｲﾀﾏｹﾝ","cityKana":"ﾊﾝﾉｳｼ","streetKana":"ｱｵｷ","prefecture":"埼玉県","city":"飯能市","street":"青木"},{"zipCode":"3570128","prefectureKana":"ｻｲﾀﾏｹﾝ","cityKana":"ﾊﾝﾉｳｼ","streetKana":"ｱｶｻﾞﾜ","prefecture":"埼玉県","city":"飯能市","street":"赤沢"},{"zipCode":"3570069","prefectureKana":"ｻｲﾀﾏｹﾝ","cityKana":"ﾊﾝﾉｳｼ","streetKana":"ｱｶﾈﾀﾞｲ","prefecture":"埼玉県","city":"飯能市","street":"茜台"},{"zipCode":"3570216","prefectureKana":"ｻｲﾀﾏｹﾝ","cityKana":"ﾊﾝﾉｳｼ","streetKana":"ｱｶﾞﾉ","prefecture":"埼玉県","city":"飯能市","street":"吾野"},{"zipCode":"3570013","prefectureKana":"ｻｲﾀﾏｹﾝ","cityKana":"ﾊﾝﾉｳｼ","streetKana":"ｱｼｶﾘﾊﾞ","prefecture":"埼玉県","city":"飯能市","street":"芦苅場"},{"zipCode":"3570046","prefectureKana":"ｻｲﾀﾏｹﾝ","cityKana":"ﾊﾝﾉｳｼ","streetKana":"ｱｽﾞ","prefecture":"埼玉県","city":"飯能市","street":"阿須"},{"zipCode":"3570034","prefectureKana":"ｻｲﾀﾏｹﾝ","cityKana":"ﾊﾝﾉｳｼ","streetKana":"ｱｽﾞﾏﾁｮｳ","prefecture":"埼玉県","city":"飯能市","street":"東町"},{"zipCode":"3570037","prefectureKana":"ｻｲﾀﾏｹﾝ","cityKana":"ﾊﾝﾉｳｼ","streetKana":"ｲﾅﾘﾁｮｳ","prefecture":"埼玉県","city":"飯能市","street":"稲荷町"},{"zipCode":"3570212","prefectureKana":"ｻｲﾀﾏｹﾝ","cityKana":"ﾊﾝﾉｳｼ","streetKana":"ｲﾉｳｴ","prefecture":"埼玉県","city":"飯能市","street":"井上"},{"zipCode":"3570023","prefectureKana":"ｻｲﾀﾏｹﾝ","cityKana":"ﾊﾝﾉｳｼ","streetKana":"ｲﾜｻﾜ","prefecture":"埼玉県","city":"飯能市","street":"岩沢"},{"zipCode":"3570048","prefectureKana":"ｻｲﾀﾏｹﾝ","cityKana":"ﾊﾝﾉｳｼ","streetKana":"ｲﾜﾌﾞﾁ","prefecture":"埼玉県","city":"飯能市","street":"岩渕"},{"zipCode":"3570065","prefectureKana":"ｻｲﾀﾏｹﾝ","cityKana":"ﾊﾝﾉｳｼ","streetKana":"ｵｵｶﾜﾗ","prefecture":"埼玉県","city":"飯能市","street":"大河原"},{"zipCode":"3570047","prefectureKana":"ｻｲﾀﾏｹﾝ","cityKana":"ﾊﾝﾉｳｼ","streetKana":"ｵﾁｱｲ","prefecture":"埼玉県","city":"飯能市","street":"落合"},{"zipCode":"3570045","prefectureKana":"ｻｲﾀﾏｹﾝ","cityKana":"ﾊﾝﾉｳｼ","streetKana":"ｶｻﾇｲ","prefecture":"埼玉県","city":"飯能市","street":"笠縫"},{"zipCode":"3570125","prefectureKana":"ｻｲﾀﾏｹﾝ","cityKana":"ﾊﾝﾉｳｼ","streetKana":"ｶﾐｱｶﾀﾞｸﾐ","prefecture":"埼玉県","city":"飯能市","street":"上赤工"},{"zipCode":"3570056","prefectureKana":"ｻｲﾀﾏｹﾝ","cityKana":"ﾊﾝﾉｳｼ","streetKana":"ｶﾐﾅｵﾀｹｶﾐﾌﾞﾝ","prefecture":"埼玉県","city":"飯能市","street":"上直竹上分"},{"zipCode":"3570055","prefectureKana":"ｻｲﾀﾏｹﾝ","cityKana":"ﾊﾝﾉｳｼ","streetKana":"ｶﾐﾅｵﾀｹｼﾓﾌﾞﾝ","prefecture":"埼玉県","city":"飯能市","street":"上直竹下分"},{"zipCode":"3570206","prefectureKana":"ｻｲﾀﾏｹﾝ","cityKana":"ﾊﾝﾉｳｼ","streetKana":"ｶﾐﾅｶﾞｻﾜ","prefecture":"埼玉県","city":"飯能市","street":"上長沢"},{"zipCode":"3570111","prefectureKana":"ｻｲﾀﾏｹﾝ","cityKana":"ﾊﾝﾉｳｼ","streetKana":"ｶﾐﾅｸﾞﾘ","prefecture":"埼玉県","city":"飯能市","street":"上名栗"},{"zipCode":"3570053","prefectureKana":"ｻｲﾀﾏｹﾝ","cityKana":"ﾊﾝﾉｳｼ","streetKana":"ｶﾐﾊﾀ","prefecture":"埼玉県","city":"飯能市","street":"上畑"},{"zipCode":"3570127","prefectureKana":"ｻｲﾀﾏｹﾝ","cityKana":"ﾊﾝﾉｳｼ","streetKana":"ｶﾗﾀｹ","prefecture":"埼玉県","city":"飯能市","street":"唐竹"},{"zipCode":"3570051","prefectureKana":"ｻｲﾀﾏｹﾝ","cityKana":"ﾊﾝﾉｳｼ","streetKana":"ｶﾛｳ","prefecture":"埼玉県","city":"飯能市","street":"苅生"},{"zipCode":"3570011","prefectureKana":"ｻｲﾀﾏｹﾝ","cityKana":"ﾊﾝﾉｳｼ","streetKana":"ｶﾜｻｷ","prefecture":"埼玉県","city":"飯能市","street":"川崎"},{"zipCode":"3570044","prefectureKana":"ｻｲﾀﾏｹﾝ","cityKana":"ﾊﾝﾉｳｼ","streetKana":"ｶﾜﾃﾞﾗ","prefecture":"埼玉県","city":"飯能市","street":"川寺"},{"zipCode":"3570201","prefectureKana":"ｻｲﾀﾏｹﾝ","cityKana":"ﾊﾝﾉｳｼ","streetKana":"ｷﾀｶﾞﾜ","prefecture":"埼玉県","city":"飯能市","street":"北川"},{"zipCode":"3570064","prefectureKana":"ｻｲﾀﾏｹﾝ","cityKana":"ﾊﾝﾉｳｼ","streetKana":"ｸｹﾞ","prefecture":"埼玉県","city":"飯能市","street":"久下"},{"zipCode":"3570068","prefectureKana":"ｻｲﾀﾏｹﾝ","cityKana":"ﾊﾝﾉｳｼ","streetKana":"ｸｽﾐ","prefecture":"埼玉県","city":"飯能市","street":"久須美"},{"zipCode":"3570066","prefectureKana":"ｻｲﾀﾏｹﾝ","cityKana":"ﾊﾝﾉｳｼ","streetKana":"ｺｲﾜｲ","prefecture":"埼玉県","city":"飯能市","street":"小岩井"},{"zipCode":"3570015","prefectureKana":"ｻｲﾀﾏｹﾝ","cityKana":"ﾊﾝﾉｳｼ","streetKana":"ｺｸﾎﾞ","prefecture":"埼玉県","city":"飯能市","street":"小久保"},{"zipCode":"3570204","prefectureKana":"ｻｲﾀﾏｹﾝ","cityKana":"ﾊﾝﾉｳｼ","streetKana":"ｺｼｭｳ","prefecture":"埼玉県","city":"飯能市","street":"虎秀"},{"zipCode":"3570067","prefectureKana":"ｻｲﾀﾏｹﾝ","cityKana":"ﾊﾝﾉｳｼ","streetKana":"ｺｾﾄﾞ","prefecture":"埼玉県","city":"飯能市","street":"小瀬戸"},{"zipCode":"3570215","prefectureKana":"ｻｲﾀﾏｹﾝ","cityKana":"ﾊﾝﾉｳｼ","streetKana":"ｻｶｲｼ","prefecture":"埼玉県","city":"飯能市","street":"坂石"},{"zipCode":"3570213","prefectureKana":"ｻｲﾀﾏｹﾝ","cityKana":"ﾊﾝﾉｳｼ","streetKana":"ｻｶｲｼﾏﾁﾌﾞﾝ","prefecture":"埼玉県","city":"飯能市","street":"坂石町分"},{"zipCode":"3570025","prefectureKana":"ｻｲﾀﾏｹﾝ","cityKana":"ﾊﾝﾉｳｼ","streetKana":"ｻｶｴﾁｮｳ","prefecture":"埼玉県","city":"飯能市","street":"栄町"},{"zipCode":"3570218","prefectureKana":"ｻｲﾀﾏｹﾝ","cityKana":"ﾊﾝﾉｳｼ","streetKana":"ｻｶﾓﾄ","prefecture":"埼玉県","city":"飯能市","street":"坂元"},{"zipCode":"3570126","prefectureKana":"ｻｲﾀﾏｹﾝ","cityKana":"ﾊﾝﾉｳｼ","streetKana":"ｼﾓｱｶﾀﾞｸﾐ","prefecture":"埼玉県","city":"飯能市","street":"下赤工"},{"zipCode":"3570016","prefectureKana":"ｻｲﾀﾏｹﾝ","cityKana":"ﾊﾝﾉｳｼ","streetKana":"ｼﾓｶｼﾞ","prefecture":"埼玉県","city":"飯能市","street":"下加治"},{"zipCode":"3570012","prefectureKana":"ｻｲﾀﾏｹﾝ","cityKana":"ﾊﾝﾉｳｼ","streetKana":"ｼﾓｶﾜｻｷ","prefecture":"埼玉県","city":"飯能市","street":"下川崎"},{"zipCode":"3570054","prefectureKana":"ｻｲﾀﾏｹﾝ","cityKana":"ﾊﾝﾉｳｼ","streetKana":"ｼﾓﾅｵﾀｹ","prefecture":"埼玉県","city":"飯能市","street":"下直竹"},{"zipCode":"3570112","prefectureKana":"ｻｲﾀﾏｹﾝ","cityKana":"ﾊﾝﾉｳｼ","streetKana":"ｼﾓﾅｸﾞﾘ","prefecture":"埼玉県","city":"飯能市","street":"下名栗"},{"zipCode":"3570052","prefectureKana":"ｻｲﾀﾏｹﾝ","cityKana":"ﾊﾝﾉｳｼ","streetKana":"ｼﾓﾊﾀ","prefecture":"埼玉県","city":"飯能市","street":"下畑"},{"zipCode":"3570205","prefectureKana":"ｻｲﾀﾏｹﾝ","cityKana":"ﾊﾝﾉｳｼ","streetKana":"ｼﾗｺ","prefecture":"埼玉県","city":"飯能市","street":"白子"},{"zipCode":"3570022","prefectureKana":"ｻｲﾀﾏｹﾝ","cityKana":"ﾊﾝﾉｳｼ","streetKana":"ｼﾝｺｳ","prefecture":"埼玉県","city":"飯能市","street":"新光"},{"zipCode":"3570004","prefectureKana":"ｻｲﾀﾏｹﾝ","cityKana":"ﾊﾝﾉｳｼ","streetKana":"ｼﾝﾏﾁ","prefecture":"埼玉県","city":"飯能市","street":"新町"},{"zipCode":"3570049","prefectureKana":"ｻｲﾀﾏｹﾝ","cityKana":"ﾊﾝﾉｳｼ","streetKana":"ｿﾔﾁｮｳ","prefecture":"埼玉県","city":"飯能市","street":"征矢町"},{"zipCode":"3570202","prefectureKana":"ｻｲﾀﾏｹﾝ","cityKana":"ﾊﾝﾉｳｼ","streetKana":"ﾀｶﾔﾏ","prefecture":"埼玉県","city":"飯能市","street":"高山"},{"zipCode":"3570002","prefectureKana":"ｻｲﾀﾏｹﾝ","cityKana":"ﾊﾝﾉｳｼ","streetKana":"ﾅｶｲ","prefecture":"埼玉県","city":"飯能市","street":"中居"},{"zipCode":"3570038","prefectureKana":"ｻｲﾀﾏｹﾝ","cityKana":"ﾊﾝﾉｳｼ","streetKana":"ﾅｶﾁｮｳ","prefecture":"埼玉県","city":"飯能市","street":"仲町"},{"zipCode":"3570121","prefectureKana":"ｻｲﾀﾏｹﾝ","cityKana":"ﾊﾝﾉｳｼ","streetKana":"ﾅｶﾄｳｶﾐｺﾞｳ","prefecture":"埼玉県","city":"飯能市","street":"中藤上郷"},{"zipCode":"3570122","prefectureKana":"ｻｲﾀﾏｹﾝ","cityKana":"ﾊﾝﾉｳｼ","streetKana":"ﾅｶﾄｳﾅｶｺﾞｳ","prefecture":"埼玉県","city":"飯能市","street":"中藤中郷"},{"zipCode":"3570123","prefectureKana":"ｻｲﾀﾏｹﾝ","cityKana":"ﾊﾝﾉｳｼ","streetKana":"ﾅｶﾄｳｼﾓｺﾞｳ","prefecture":"埼玉県","city":"飯能市","street":"中藤下郷"},{"zipCode":"3570006","prefectureKana":"ｻｲﾀﾏｹﾝ","cityKana":"ﾊﾝﾉｳｼ","streetKana":"ﾅｶﾔﾏ","prefecture":"埼玉県","city":"飯能市","street":"中山"},{"zipCode":"3570203","prefectureKana":"ｻｲﾀﾏｹﾝ","cityKana":"ﾊﾝﾉｳｼ","streetKana":"ﾅｶﾞｻﾜ","prefecture":"埼玉県","city":"飯能市","street":"長沢"},{"zipCode":"3570062","prefectureKana":"ｻｲﾀﾏｹﾝ","cityKana":"ﾊﾝﾉｳｼ","streetKana":"ﾅｶﾞﾀ","prefecture":"埼玉県","city":"飯能市","street":"永田"},{"zipCode":"3570061","prefectureKana":"ｻｲﾀﾏｹﾝ","cityKana":"ﾊﾝﾉｳｼ","streetKana":"ﾅｶﾞﾀﾀﾞｲ","prefecture":"埼玉県","city":"飯能市","street":"永田台"},{"zipCode":"3570021","prefectureKana":"ｻｲﾀﾏｹﾝ","cityKana":"ﾊﾝﾉｳｼ","streetKana":"ﾅﾐﾔﾅｷﾞ","prefecture":"埼玉県","city":"飯能市","street":"双柳"},{"zipCode":"3570033","prefectureKana":"ｻｲﾀﾏｹﾝ","cityKana":"ﾊﾝﾉｳｼ","streetKana":"ﾊﾁﾏﾝﾁｮｳ","prefecture":"埼玉県","city":"飯能市","street":"八幡町"},{"zipCode":"3570124","prefectureKana":"ｻｲﾀﾏｹﾝ","cityKana":"ﾊﾝﾉｳｼ","streetKana":"ﾊﾗｲﾁﾊﾞ","prefecture":"埼玉県","city":"飯能市","street":"原市場"},{"zipCode":"3570005","prefectureKana":"ｻｲﾀﾏｹﾝ","cityKana":"ﾊﾝﾉｳｼ","streetKana":"ﾊﾗﾏﾁ","prefecture":"埼玉県","city":"飯能市","street":"原町"},{"zipCode":"3570063","prefectureKana":"ｻｲﾀﾏｹﾝ","cityKana":"ﾊﾝﾉｳｼ","streetKana":"ﾊﾝﾉｳ","prefecture":"埼玉県","city":"飯能市","street":"飯能"},{"zipCode":"3570211","prefectureKana":"ｻｲﾀﾏｹﾝ","cityKana":"ﾊﾝﾉｳｼ","streetKana":"ﾋﾗｯﾄ","prefecture":"埼玉県","city":"飯能市","street":"平戸"},{"zipCode":"3570014","prefectureKana":"ｻｲﾀﾏｹﾝ","cityKana":"ﾊﾝﾉｳｼ","streetKana":"ﾋﾗﾏﾂ","prefecture":"埼玉県","city":"飯能市","street":"平松"},{"zipCode":"3570032","prefectureKana":"ｻｲﾀﾏｹﾝ","cityKana":"ﾊﾝﾉｳｼ","streetKana":"ﾎﾝﾁｮｳ","prefecture":"埼玉県","city":"飯能市","street":"本町"},{"zipCode":"3570043","prefectureKana":"ｻｲﾀﾏｹﾝ","cityKana":"ﾊﾝﾉｳｼ","streetKana":"ﾏｴｶﾞﾇｷ","prefecture":"埼玉県","city":"飯能市","street":"前ケ貫"},{"zipCode":"3570041","prefectureKana":"ｻｲﾀﾏｹﾝ","cityKana":"ﾊﾝﾉｳｼ","streetKana":"ﾐｽｷﾞﾀﾞｲ","prefecture":"埼玉県","city":"飯能市","street":"美杉台"},{"zipCode":"3570024","prefectureKana":"ｻｲﾀﾏｹﾝ","cityKana":"ﾊﾝﾉｳｼ","streetKana":"ﾐﾄﾞﾘﾁｮｳ","prefecture":"埼玉県","city":"飯能市","street":"緑町"},{"zipCode":"3570214","prefectureKana":"ｻｲﾀﾏｹﾝ","cityKana":"ﾊﾝﾉｳｼ","streetKana":"ﾐﾅﾐ","prefecture":"埼玉県","city":"飯能市","street":"南"},{"zipCode":"3570217","prefectureKana":"ｻｲﾀﾏｹﾝ","cityKana":"ﾊﾝﾉｳｼ","streetKana":"ﾐﾅﾐｶﾜ","prefecture":"埼玉県","city":"飯能市","street":"南川"},{"zipCode":"3570036","prefectureKana":"ｻｲﾀﾏｹﾝ","cityKana":"ﾊﾝﾉｳｼ","streetKana":"ﾐﾅﾐﾁｮｳ","prefecture":"埼玉県","city":"飯能市","street":"南町"},{"zipCode":"3570001","prefectureKana":"ｻｲﾀﾏｹﾝ","cityKana":"ﾊﾝﾉｳｼ","streetKana":"ﾐﾔｻﾞﾜ","prefecture":"埼玉県","city":"飯能市","street":"宮沢"},{"zipCode":"3570042","prefectureKana":"ｻｲﾀﾏｹﾝ","cityKana":"ﾊﾝﾉｳｼ","streetKana":"ﾔｵﾛｼ","prefecture":"埼玉県","city":"飯能市","street":"矢颪"},{"zipCode":"3570035","prefectureKana":"ｻｲﾀﾏｹﾝ","cityKana":"ﾊﾝﾉｳｼ","streetKana":"ﾔﾅｷﾞﾁｮｳ","prefecture":"埼玉県","city":"飯能市","street":"柳町"},{"zipCode":"3570031","prefectureKana":"ｻｲﾀﾏｹﾝ","cityKana":"ﾊﾝﾉｳｼ","streetKana":"ﾔﾏﾃﾁｮｳ","prefecture":"埼玉県","city":"飯能市","street":"山手町"}]