[{"zipCode":"3620000","prefectureKana":"ｻｲﾀﾏｹﾝ","cityKana":"ｱｹﾞｵｼ","streetKana":"ｲｶﾆｹｲｻｲｶﾞﾅｲﾊﾞｱｲ","prefecture":"埼玉県","city":"上尾市","street":"以下に掲載がない場合"},{"zipCode":"3620025","prefectureKana":"ｻｲﾀﾏｹﾝ","cityKana":"ｱｹﾞｵｼ","streetKana":"ｱｹﾞｵｼﾓ","prefecture":"埼玉県","city":"上尾市","street":"上尾下"},{"zipCode":"3620012","prefectureKana":"ｻｲﾀﾏｹﾝ","cityKana":"ｱｹﾞｵｼ","streetKana":"ｱｹﾞｵｼｭｸ","prefecture":"埼玉県","city":"上尾市","street":"上尾宿"},{"zipCode":"3620013","prefectureKana":"ｻｲﾀﾏｹﾝ","cityKana":"ｱｹﾞｵｼ","streetKana":"ｱｹﾞｵﾑﾗ","prefecture":"埼玉県","city":"上尾市","street":"上尾村"},{"zipCode":"3620073","prefectureKana":"ｻｲﾀﾏｹﾝ","cityKana":"ｱｹﾞｵｼ","streetKana":"ｱｻﾏﾀﾞｲ","prefecture":"埼玉県","city":"上尾市","street":"浅間台"},{"zipCode":"3620031","prefectureKana":"ｻｲﾀﾏｹﾝ","cityKana":"ｱｹﾞｵｼ","streetKana":"ｱｽﾞﾏﾁｮｳ","prefecture":"埼玉県","city":"上尾市","street":"東町"},{"zipCode":"3620065","prefectureKana":"ｻｲﾀﾏｹﾝ","cityKana":"ｱｹﾞｵｼ","streetKana":"ｱｾﾞﾖｼ","prefecture":"埼玉県","city":"上尾市","street":"畔吉"},{"zipCode":"3620034","prefectureKana":"ｻｲﾀﾏｹﾝ","cityKana":"ｱｹﾞｵｼ","streetKana":"ｱﾀｺﾞ","prefecture":"埼玉県","city":"上尾市","street":"愛宕"},{"zipCode":"3620062","prefectureKana":"ｻｲﾀﾏｹﾝ","cityKana":"ｱｹﾞｵｼ","streetKana":"ｲｽﾞﾐﾀﾞｲ","prefecture":"埼玉県","city":"上尾市","street":"泉台"},{"zipCode":"3620046","prefectureKana":"ｻｲﾀﾏｹﾝ","cityKana":"ｱｹﾞｵｼ","streetKana":"ｲｯﾁｮｳﾒ","prefecture":"埼玉県","city":"上尾市","street":"壱丁目"},{"zipCode":"3620081","prefectureKana":"ｻｲﾀﾏｹﾝ","cityKana":"ｱｹﾞｵｼ","streetKana":"ｲｯﾁｮｳﾒｷﾀ","prefecture":"埼玉県","city":"上尾市","street":"壱丁目北"},{"zipCode":"3620084","prefectureKana":"ｻｲﾀﾏｹﾝ","cityKana":"ｱｹﾞｵｼ","streetKana":"ｲｯﾁｮｳﾒﾆｼ","prefecture":"埼玉県","city":"上尾市","street":"壱丁目西"},{"zipCode":"3620082","prefectureKana":"ｻｲﾀﾏｹﾝ","cityKana":"ｱｹﾞｵｼ","streetKana":"ｲｯﾁｮｳﾒﾋｶﾞｼ","prefecture":"埼玉県","city":"上尾市","street":"壱丁目東"},{"zipCode":"3620083","prefectureKana":"ｻｲﾀﾏｹﾝ","cityKana":"ｱｹﾞｵｼ","streetKana":"ｲｯﾁｮｳﾒﾐﾅﾐ","prefecture":"埼玉県","city":"上尾市","street":"壱丁目南"},{"zipCode":"3620071","prefectureKana":"ｻｲﾀﾏｹﾝ","cityKana":"ｱｹﾞｵｼ","streetKana":"ｲﾄﾞｷﾞ","prefecture":"埼玉県","city":"上尾市","street":"井戸木"},{"zipCode":"3620047","prefectureKana":"ｻｲﾀﾏｹﾝ","cityKana":"ｱｹﾞｵｼ","streetKana":"ｲﾏｲｽﾞﾐ","prefecture":"埼玉県","city":"上尾市","street":"今泉"},{"zipCode":"3620058","prefectureKana":"ｻｲﾀﾏｹﾝ","cityKana":"ｱｹﾞｵｼ","streetKana":"ｳｴﾉ","prefecture":"埼玉県","city":"上尾市","street":"上野"},{"zipCode":"3620056","prefectureKana":"ｻｲﾀﾏｹﾝ","cityKana":"ｱｹﾞｵｼ","streetKana":"ｳｴﾉﾎﾝｺﾞｳ","prefecture":"埼玉県","city":"上尾市","street":"上野本郷"},{"zipCode":"3620044","prefectureKana":"ｻｲﾀﾏｹﾝ","cityKana":"ｱｹﾞｵｼ","streetKana":"ｵｵﾔﾎﾝｺﾞｳ","prefecture":"埼玉県","city":"上尾市","street":"大谷本郷"},{"zipCode":"3620075","prefectureKana":"ｻｲﾀﾏｹﾝ","cityKana":"ｱｹﾞｵｼ","streetKana":"ｶｼﾜｻﾞ","prefecture":"埼玉県","city":"上尾市","street":"柏座"},{"zipCode":"3620074","prefectureKana":"ｻｲﾀﾏｹﾝ","cityKana":"ｱｹﾞｵｼ","streetKana":"ｶｽｶﾞ","prefecture":"埼玉県","city":"上尾市","street":"春日"},{"zipCode":"3620001","prefectureKana":"ｻｲﾀﾏｹﾝ","cityKana":"ｱｹﾞｵｼ","streetKana":"ｶﾐ","prefecture":"埼玉県","city":"上尾市","street":"上"},{"zipCode":"3620037","prefectureKana":"ｻｲﾀﾏｹﾝ","cityKana":"ｱｹﾞｵｼ","streetKana":"ｶﾐﾁｮｳ","prefecture":"埼玉県","city":"上尾市","street":"上町"},{"zipCode":"3620008","prefectureKana":"ｻｲﾀﾏｹﾝ","cityKana":"ｱｹﾞｵｼ","streetKana":"ｶﾐﾋﾗﾁｭｳｵｳ","prefecture":"埼玉県","city":"上尾市","street":"上平中央"},{"zipCode":"3620048","prefectureKana":"ｻｲﾀﾏｹﾝ","cityKana":"ｱｹﾞｵｼ","streetKana":"ｶﾜ","prefecture":"埼玉県","city":"上尾市","street":"川"},{"zipCode":"3620022","prefectureKana":"ｻｲﾀﾏｹﾝ","cityKana":"ｱｹﾞｵｼ","streetKana":"ｶﾜﾗﾌﾞｷ","prefecture":"埼玉県","city":"上尾市","street":"瓦葺"},{"zipCode":"3620007","prefectureKana":"ｻｲﾀﾏｹﾝ","cityKana":"ｱｹﾞｵｼ","streetKana":"ｸﾎﾞ","prefecture":"埼玉県","city":"上尾市","street":"久保"},{"zipCode":"3620063","prefectureKana":"ｻｲﾀﾏｹﾝ","cityKana":"ｱｹﾞｵｼ","streetKana":"ｺｲｽﾞﾐ","prefecture":"埼玉県","city":"上尾市","street":"小泉"},{"zipCode":"3620064","prefectureKana":"ｻｲﾀﾏｹﾝ","cityKana":"ｱｹﾞｵｼ","streetKana":"ｺｼｷﾔ","prefecture":"埼玉県","city":"上尾市","street":"小敷谷"},{"zipCode":"3620024","prefectureKana":"ｻｲﾀﾏｹﾝ","cityKana":"ｱｹﾞｵｼ","streetKana":"ｺﾞﾊﾞﾝﾁｮｳ","prefecture":"埼玉県","city":"上尾市","street":"五番町"},{"zipCode":"3620033","prefectureKana":"ｻｲﾀﾏｹﾝ","cityKana":"ｱｹﾞｵｼ","streetKana":"ｻｶｴﾁｮｳ","prefecture":"埼玉県","city":"上尾市","street":"栄町"},{"zipCode":"3620051","prefectureKana":"ｻｲﾀﾏｹﾝ","cityKana":"ｱｹﾞｵｼ","streetKana":"ｼﾞﾄｳｶﾞﾀ","prefecture":"埼玉県","city":"上尾市","street":"地頭方"},{"zipCode":"3620004","prefectureKana":"ｻｲﾀﾏｹﾝ","cityKana":"ｱｹﾞｵｼ","streetKana":"ｽｶﾔ","prefecture":"埼玉県","city":"上尾市","street":"須ケ谷"},{"zipCode":"3620003","prefectureKana":"ｻｲﾀﾏｹﾝ","cityKana":"ｱｹﾞｵｼ","streetKana":"ｽｶﾞﾔ","prefecture":"埼玉県","city":"上尾市","street":"菅谷"},{"zipCode":"3620054","prefectureKana":"ｻｲﾀﾏｹﾝ","cityKana":"ｱｹﾞｵｼ","streetKana":"ﾂﾂﾐｻｷ","prefecture":"埼玉県","city":"上尾市","street":"堤崎"},{"zipCode":"3620053","prefectureKana":"ｻｲﾀﾏｹﾝ","cityKana":"ｱｹﾞｵｼ","streetKana":"ﾄｻｷ","prefecture":"埼玉県","city":"上尾市","street":"戸崎"},{"zipCode":"3620052","prefectureKana":"ｻｲﾀﾏｹﾝ","cityKana":"ｱｹﾞｵｼ","streetKana":"ﾅｶｱﾗｲ","prefecture":"埼玉県","city":"上尾市","street":"中新井"},{"zipCode":"3620035","prefectureKana":"ｻｲﾀﾏｹﾝ","cityKana":"ｱｹﾞｵｼ","streetKana":"ﾅｶﾁｮｳ","prefecture":"埼玉県","city":"上尾市","street":"仲町"},{"zipCode":"3620072","prefectureKana":"ｻｲﾀﾏｹﾝ","cityKana":"ｱｹﾞｵｼ","streetKana":"ﾅｶﾂﾞﾏ","prefecture":"埼玉県","city":"上尾市","street":"中妻"},{"zipCode":"3620067","prefectureKana":"ｻｲﾀﾏｹﾝ","cityKana":"ｱｹﾞｵｼ","streetKana":"ﾅｶﾌﾞﾝ","prefecture":"埼玉県","city":"上尾市","street":"中分"},{"zipCode":"3620057","prefectureKana":"ｻｲﾀﾏｹﾝ","cityKana":"ｱｹﾞｵｼ","streetKana":"ﾆｼｶｲﾂﾞｶ","prefecture":"埼玉県","city":"上尾市","street":"西貝塚"},{"zipCode":"3620006","prefectureKana":"ｻｲﾀﾏｹﾝ","cityKana":"ｱｹﾞｵｼ","streetKana":"ﾆｼｷﾁｮｳ","prefecture":"埼玉県","city":"上尾市","street":"錦町"},{"zipCode":"3620043","prefectureKana":"ｻｲﾀﾏｹﾝ","cityKana":"ｱｹﾞｵｼ","streetKana":"ﾆｼﾐﾔｼﾀ","prefecture":"埼玉県","city":"上尾市","street":"西宮下"},{"zipCode":"3620005","prefectureKana":"ｻｲﾀﾏｹﾝ","cityKana":"ｱｹﾞｵｼ","streetKana":"ﾆｼﾓﾝｾﾞﾝ","prefecture":"埼玉県","city":"上尾市","street":"西門前"},{"zipCode":"3620021","prefectureKana":"ｻｲﾀﾏｹﾝ","cityKana":"ｱｹﾞｵｼ","streetKana":"ﾊﾗｲﾁ","prefecture":"埼玉県","city":"上尾市","street":"原市"},{"zipCode":"3620026","prefectureKana":"ｻｲﾀﾏｹﾝ","cityKana":"ｱｹﾞｵｼ","streetKana":"ﾊﾗｲﾁｷﾀ","prefecture":"埼玉県","city":"上尾市","street":"原市北"},{"zipCode":"3620023","prefectureKana":"ｻｲﾀﾏｹﾝ","cityKana":"ｱｹﾞｵｼ","streetKana":"ﾊﾗｲﾁﾅｶ","prefecture":"埼玉県","city":"上尾市","street":"原市中"},{"zipCode":"3620016","prefectureKana":"ｻｲﾀﾏｹﾝ","cityKana":"ｱｹﾞｵｼ","streetKana":"ﾊﾗｼﾝﾏﾁ","prefecture":"埼玉県","city":"上尾市","street":"原新町"},{"zipCode":"3620032","prefectureKana":"ｻｲﾀﾏｹﾝ","cityKana":"ｱｹﾞｵｼ","streetKana":"ﾋﾉﾃﾞ","prefecture":"埼玉県","city":"上尾市","street":"日の出"},{"zipCode":"3620059","prefectureKana":"ｻｲﾀﾏｹﾝ","cityKana":"ｱｹﾞｵｼ","streetKana":"ﾋﾗｶﾀ","prefecture":"埼玉県","city":"上尾市","street":"平方"},{"zipCode":"3620055","prefectureKana":"ｻｲﾀﾏｹﾝ","cityKana":"ｱｹﾞｵｼ","streetKana":"ﾋﾗｶﾀﾘｮｳﾘｮｳｹ","prefecture":"埼玉県","city":"上尾市","street":"平方領々家"},{"zipCode":"3620011","prefectureKana":"ｻｲﾀﾏｹﾝ","cityKana":"ｱｹﾞｵｼ","streetKana":"ﾋﾗﾂｶ","prefecture":"埼玉県","city":"上尾市","street":"平塚"},{"zipCode":"3620061","prefectureKana":"ｻｲﾀﾏｹﾝ","cityKana":"ｱｹﾞｵｼ","streetKana":"ﾌｼﾞﾅﾐ","prefecture":"埼玉県","city":"上尾市","street":"藤波"},{"zipCode":"3620041","prefectureKana":"ｻｲﾀﾏｹﾝ","cityKana":"ｱｹﾞｵｼ","streetKana":"ﾌｼﾞﾐ","prefecture":"埼玉県","city":"上尾市","street":"富士見"},{"zipCode":"3620017","prefectureKana":"ｻｲﾀﾏｹﾝ","cityKana":"ｱｹﾞｵｼ","streetKana":"ﾌﾀﾂﾐﾔ","prefecture":"埼玉県","city":"上尾市","street":"二ツ宮"},{"zipCode":"3620076","prefectureKana":"ｻｲﾀﾏｹﾝ","cityKana":"ｱｹﾞｵｼ","streetKana":"ﾍﾞﾝｻﾞｲ","prefecture":"埼玉県","city":"上尾市","street":"弁財"},{"zipCode":"3620014","prefectureKana":"ｻｲﾀﾏｹﾝ","cityKana":"ｱｹﾞｵｼ","streetKana":"ﾎﾝﾁｮｳ","prefecture":"埼玉県","city":"上尾市","street":"本町"},{"zipCode":"3620015","prefectureKana":"ｻｲﾀﾏｹﾝ","cityKana":"ｱｹﾞｵｼ","streetKana":"ﾐﾄﾞﾘｶﾞｵｶ","prefecture":"埼玉県","city":"上尾市","street":"緑丘"},{"zipCode":"3620002","prefectureKana":"ｻｲﾀﾏｹﾝ","cityKana":"ｱｹﾞｵｼ","streetKana":"ﾐﾅﾐ","prefecture":"埼玉県","city":"上尾市","street":"南"},{"zipCode":"3620036","prefectureKana":"ｻｲﾀﾏｹﾝ","cityKana":"ｱｹﾞｵｼ","streetKana":"ﾐﾔﾓﾄﾁｮｳ","prefecture":"埼玉県","city":"上尾市","street":"宮本町"},{"zipCode":"3620045","prefectureKana":"ｻｲﾀﾏｹﾝ","cityKana":"ｱｹﾞｵｼ","streetKana":"ﾑｺｳﾔﾏ","prefecture":"埼玉県","city":"上尾市","street":"向山"},{"zipCode":"3620042","prefectureKana":"ｻｲﾀﾏｹﾝ","cityKana":"ｱｹﾞｵｼ","streetKana":"ﾔﾂ","prefecture":"埼玉県","city":"上尾市","street":"谷津"},{"zipCode":"3620066","prefectureKana":"ｻｲﾀﾏｹﾝ","cityKana":"ｱｹﾞｵｼ","streetKana":"ﾘｮｳｹ","prefecture":"埼玉県","city":"上尾市","street":"領家"},{"zipCode":"3620800","prefectureKana":"ｻｲﾀﾏｹﾝ","cityKana":"ｷﾀｱﾀﾞﾁｸﾞﾝｲﾅﾏﾁ","streetKana":"ｲｶﾆｹｲｻｲｶﾞﾅｲﾊﾞｱｲ","prefecture":"埼玉県","city":"北足立郡伊奈町","street":"以下に掲載がない場合"},{"zipCode":"3620812","prefectureKana":"ｻｲﾀﾏｹﾝ","cityKana":"ｷﾀｱﾀﾞﾁｸﾞﾝｲﾅﾏﾁ","streetKana":"ｳﾁｼﾞｭｸﾀﾞｲ","prefecture":"埼玉県","city":"北足立郡伊奈町","street":"内宿台"},{"zipCode":"3620803","prefectureKana":"ｻｲﾀﾏｹﾝ","cityKana":"ｷﾀｱﾀﾞﾁｸﾞﾝｲﾅﾏﾁ","streetKana":"ｵｵﾊﾞﾘ","prefecture":"埼玉県","city":"北足立郡伊奈町","street":"大針"},{"zipCode":"3620813","prefectureKana":"ｻｲﾀﾏｹﾝ","cityKana":"ｷﾀｱﾀﾞﾁｸﾞﾝｲﾅﾏﾁ","streetKana":"ｶﾞｸｴﾝ","prefecture":"埼玉県","city":"北足立郡伊奈町","street":"学園"},{"zipCode":"3620807","prefectureKana":"ｻｲﾀﾏｹﾝ","cityKana":"ｷﾀｱﾀﾞﾁｸﾞﾝｲﾅﾏﾁ","streetKana":"ｺﾄﾌﾞｷ","prefecture":"埼玉県","city":"北足立郡伊奈町","street":"寿"},{"zipCode":"3620801","prefectureKana":"ｻｲﾀﾏｹﾝ","cityKana":"ｷﾀｱﾀﾞﾁｸﾞﾝｲﾅﾏﾁ","streetKana":"ｺﾊﾞﾘｳﾁｼﾞｭｸ","prefecture":"埼玉県","city":"北足立郡伊奈町","street":"小針内宿"},{"zipCode":"3620808","prefectureKana":"ｻｲﾀﾏｹﾝ","cityKana":"ｷﾀｱﾀﾞﾁｸﾞﾝｲﾅﾏﾁ","streetKana":"ｺﾊﾞﾘｼﾝｼｭｸ","prefecture":"埼玉県","city":"北足立郡伊奈町","street":"小針新宿"},{"zipCode":"3620806","prefectureKana":"ｻｲﾀﾏｹﾝ","cityKana":"ｷﾀｱﾀﾞﾁｸﾞﾝｲﾅﾏﾁ","streetKana":"ｺﾑﾛ","prefecture":"埼玉県","city":"北足立郡伊奈町","street":"小室"},{"zipCode":"3620805","prefectureKana":"ｻｲﾀﾏｹﾝ","cityKana":"ｷﾀｱﾀﾞﾁｸﾞﾝｲﾅﾏﾁ","streetKana":"ｻｶｴ","prefecture":"埼玉県","city":"北足立郡伊奈町","street":"栄"},{"zipCode":"3620809","prefectureKana":"ｻｲﾀﾏｹﾝ","cityKana":"ｷﾀｱﾀﾞﾁｸﾞﾝｲﾅﾏﾁ","streetKana":"ﾁｭｳｵｳ","prefecture":"埼玉県","city":"北足立郡伊奈町","street":"中央"},{"zipCode":"3620811","prefectureKana":"ｻｲﾀﾏｹﾝ","cityKana":"ｷﾀｱﾀﾞﾁｸﾞﾝｲﾅﾏﾁ","streetKana":"ﾆｼｺﾊﾞﾘ","prefecture":"埼玉県","city":"北足立郡伊奈町","street":"西小針"},{"zipCode":"3620802","prefectureKana":"ｻｲﾀﾏｹﾝ","cityKana":"ｷﾀｱﾀﾞﾁｸﾞﾝｲﾅﾏﾁ","streetKana":"ﾊﾇｷ","prefecture":"埼玉県","city":"北足立郡伊奈町","street":"羽貫"},{"zipCode":"3620804","prefectureKana":"ｻｲﾀﾏｹﾝ","cityKana":"ｷﾀｱﾀﾞﾁｸﾞﾝｲﾅﾏﾁ","streetKana":"ﾎﾝﾁｮｳ","prefecture":"埼玉県","city":"北足立郡伊奈町","street":"本町"}]