[{"zipCode":"3650000","prefectureKana":"ｻｲﾀﾏｹﾝ","cityKana":"ｺｳﾉｽｼ","streetKana":"ｲｶﾆｹｲｻｲｶﾞﾅｲﾊﾞｱｲ","prefecture":"埼玉県","city":"鴻巣市","street":"以下に掲載がない場合"},{"zipCode":"3650068","prefectureKana":"ｻｲﾀﾏｹﾝ","cityKana":"ｺｳﾉｽｼ","streetKana":"ｱｲﾉﾏﾁ","prefecture":"埼玉県","city":"鴻巣市","street":"愛の町"},{"zipCode":"3650002","prefectureKana":"ｻｲﾀﾏｹﾝ","cityKana":"ｺｳﾉｽｼ","streetKana":"ｱｶｷﾞ","prefecture":"埼玉県","city":"鴻巣市","street":"赤城"},{"zipCode":"3650001","prefectureKana":"ｻｲﾀﾏｹﾝ","cityKana":"ｺｳﾉｽｼ","streetKana":"ｱｶｷﾞﾀﾞｲ","prefecture":"埼玉県","city":"鴻巣市","street":"赤城台"},{"zipCode":"3650064","prefectureKana":"ｻｲﾀﾏｹﾝ","cityKana":"ｺｳﾉｽｼ","streetKana":"ｱｶﾐﾀﾞｲ","prefecture":"埼玉県","city":"鴻巣市","street":"赤見台"},{"zipCode":"3650011","prefectureKana":"ｻｲﾀﾏｹﾝ","cityKana":"ｺｳﾉｽｼ","streetKana":"ｱﾗｲ","prefecture":"埼玉県","city":"鴻巣市","street":"新井"},{"zipCode":"3650021","prefectureKana":"ｻｲﾀﾏｹﾝ","cityKana":"ｺｳﾉｽｼ","streetKana":"ｱﾝﾖｳｼﾞ","prefecture":"埼玉県","city":"鴻巣市","street":"安養寺"},{"zipCode":"3650072","prefectureKana":"ｻｲﾀﾏｹﾝ","cityKana":"ｺｳﾉｽｼ","streetKana":"ｲﾁﾉﾅﾜ","prefecture":"埼玉県","city":"鴻巣市","street":"市ノ縄"},{"zipCode":"3650063","prefectureKana":"ｻｲﾀﾏｹﾝ","cityKana":"ｺｳﾉｽｼ","streetKana":"ｲﾅﾘﾁｮｳ","prefecture":"埼玉県","city":"鴻巣市","street":"稲荷町"},{"zipCode":"3650033","prefectureKana":"ｻｲﾀﾏｹﾝ","cityKana":"ｺｳﾉｽｼ","streetKana":"ｵｲﾈﾂﾞｶ","prefecture":"埼玉県","city":"鴻巣市","street":"生出塚"},{"zipCode":"3650054","prefectureKana":"ｻｲﾀﾏｹﾝ","cityKana":"ｺｳﾉｽｼ","streetKana":"ｵｵﾏ","prefecture":"埼玉県","city":"鴻巣市","street":"大間"},{"zipCode":"3650023","prefectureKana":"ｻｲﾀﾏｹﾝ","cityKana":"ｺｳﾉｽｼ","streetKana":"ｶｻﾊﾗ","prefecture":"埼玉県","city":"鴻巣市","street":"笠原"},{"zipCode":"3650078","prefectureKana":"ｻｲﾀﾏｹﾝ","cityKana":"ｺｳﾉｽｼ","streetKana":"ｶﾐ","prefecture":"埼玉県","city":"鴻巣市","street":"加美"},{"zipCode":"3650012","prefectureKana":"ｻｲﾀﾏｹﾝ","cityKana":"ｺｳﾉｽｼ","streetKana":"ｶﾐｴｹﾞ","prefecture":"埼玉県","city":"鴻巣市","street":"上会下"},{"zipCode":"3650034","prefectureKana":"ｻｲﾀﾏｹﾝ","cityKana":"ｺｳﾉｽｼ","streetKana":"ｶﾐｵｲﾈﾂﾞｶ","prefecture":"埼玉県","city":"鴻巣市","street":"上生出塚"},{"zipCode":"3650027","prefectureKana":"ｻｲﾀﾏｹﾝ","cityKana":"ｺｳﾉｽｼ","streetKana":"ｶﾐﾔ","prefecture":"埼玉県","city":"鴻巣市","street":"上谷"},{"zipCode":"3650061","prefectureKana":"ｻｲﾀﾏｹﾝ","cityKana":"ｺｳﾉｽｼ","streetKana":"ｶﾜﾂﾞﾗ","prefecture":"埼玉県","city":"鴻巣市","street":"川面"},{"zipCode":"3650058","prefectureKana":"ｻｲﾀﾏｹﾝ","cityKana":"ｺｳﾉｽｼ","streetKana":"ｷﾀﾅｶﾉ","prefecture":"埼玉県","city":"鴻巣市","street":"北中野"},{"zipCode":"3650003","prefectureKana":"ｻｲﾀﾏｹﾝ","cityKana":"ｺｳﾉｽｼ","streetKana":"ｷﾀﾈ","prefecture":"埼玉県","city":"鴻巣市","street":"北根"},{"zipCode":"3650014","prefectureKana":"ｻｲﾀﾏｹﾝ","cityKana":"ｺｳﾉｽｼ","streetKana":"ｸｽ","prefecture":"埼玉県","city":"鴻巣市","street":"屈巣"},{"zipCode":"3650022","prefectureKana":"ｻｲﾀﾏｹﾝ","cityKana":"ｺｳﾉｽｼ","streetKana":"ｺﾞｳｼﾞ","prefecture":"埼玉県","city":"鴻巣市","street":"郷地"},{"zipCode":"3650028","prefectureKana":"ｻｲﾀﾏｹﾝ","cityKana":"ｺｳﾉｽｼ","streetKana":"ｺｳﾉｽ","prefecture":"埼玉県","city":"鴻巣市","street":"鴻巣"},{"zipCode":"3650041","prefectureKana":"ｻｲﾀﾏｹﾝ","cityKana":"ｺｳﾉｽｼ","streetKana":"ｺﾏﾂ","prefecture":"埼玉県","city":"鴻巣市","street":"小松"},{"zipCode":"3650057","prefectureKana":"ｻｲﾀﾏｹﾝ","cityKana":"ｺｳﾉｽｼ","streetKana":"ｻｲﾜｲﾁｮｳ","prefecture":"埼玉県","city":"鴻巣市","street":"幸町"},{"zipCode":"3650013","prefectureKana":"ｻｲﾀﾏｹﾝ","cityKana":"ｺｳﾉｽｼ","streetKana":"ｻｶｲ","prefecture":"埼玉県","city":"鴻巣市","street":"境"},{"zipCode":"3650055","prefectureKana":"ｻｲﾀﾏｹﾝ","cityKana":"ｺｳﾉｽｼ","streetKana":"ｻｶｴﾁｮｳ","prefecture":"埼玉県","city":"鴻巣市","street":"栄町"},{"zipCode":"3650047","prefectureKana":"ｻｲﾀﾏｹﾝ","cityKana":"ｺｳﾉｽｼ","streetKana":"ｻｶｻｶﾞﾜ","prefecture":"埼玉県","city":"鴻巣市","street":"逆川"},{"zipCode":"3650035","prefectureKana":"ｻｲﾀﾏｹﾝ","cityKana":"ｺｳﾉｽｼ","streetKana":"ｼﾓｵｲﾈﾂﾞｶ","prefecture":"埼玉県","city":"鴻巣市","street":"下生出塚"},{"zipCode":"3650025","prefectureKana":"ｻｲﾀﾏｹﾝ","cityKana":"ｺｳﾉｽｼ","streetKana":"ｼﾓﾔ","prefecture":"埼玉県","city":"鴻巣市","street":"下谷"},{"zipCode":"3650024","prefectureKana":"ｻｲﾀﾏｹﾝ","cityKana":"ｺｳﾉｽｼ","streetKana":"ｼﾞｮｳｺｳ","prefecture":"埼玉県","city":"鴻巣市","street":"常光"},{"zipCode":"3650074","prefectureKana":"ｻｲﾀﾏｹﾝ","cityKana":"ｺｳﾉｽｼ","streetKana":"ｼﾝﾒｲ","prefecture":"埼玉県","city":"鴻巣市","street":"神明"},{"zipCode":"3650067","prefectureKana":"ｻｲﾀﾏｹﾝ","cityKana":"ｺｳﾉｽｼ","streetKana":"ｽﾐﾚﾉ","prefecture":"埼玉県","city":"鴻巣市","street":"すみれ野"},{"zipCode":"3650004","prefectureKana":"ｻｲﾀﾏｹﾝ","cityKana":"ｺｳﾉｽｼ","streetKana":"ｾｷｼﾝﾃﾞﾝ","prefecture":"埼玉県","city":"鴻巣市","street":"関新田"},{"zipCode":"3650044","prefectureKana":"ｻｲﾀﾏｹﾝ","cityKana":"ｺｳﾉｽｼ","streetKana":"ﾀｷﾏﾑﾛ","prefecture":"埼玉県","city":"鴻巣市","street":"滝馬室"},{"zipCode":"3650032","prefectureKana":"ｻｲﾀﾏｹﾝ","cityKana":"ｺｳﾉｽｼ","streetKana":"ﾁｭｳｵｳ","prefecture":"埼玉県","city":"鴻巣市","street":"中央"},{"zipCode":"3650056","prefectureKana":"ｻｲﾀﾏｹﾝ","cityKana":"ｺｳﾉｽｼ","streetKana":"ﾂﾂﾐﾁｮｳ","prefecture":"埼玉県","city":"鴻巣市","street":"堤町"},{"zipCode":"3650071","prefectureKana":"ｻｲﾀﾏｹﾝ","cityKana":"ｺｳﾉｽｼ","streetKana":"ﾃﾗﾔ","prefecture":"埼玉県","city":"鴻巣市","street":"寺谷"},{"zipCode":"3650036","prefectureKana":"ｻｲﾀﾏｹﾝ","cityKana":"ｺｳﾉｽｼ","streetKana":"ﾃﾝｼﾞﾝ","prefecture":"埼玉県","city":"鴻巣市","street":"天神"},{"zipCode":"3650065","prefectureKana":"ｻｲﾀﾏｹﾝ","cityKana":"ｺｳﾉｽｼ","streetKana":"ﾅｶｲ","prefecture":"埼玉県","city":"鴻巣市","street":"中井"},{"zipCode":"3650026","prefectureKana":"ｻｲﾀﾏｹﾝ","cityKana":"ｺｳﾉｽｼ","streetKana":"ﾆｼﾅｶｿﾞﾈ","prefecture":"埼玉県","city":"鴻巣市","street":"西中曽根"},{"zipCode":"3650037","prefectureKana":"ｻｲﾀﾏｹﾝ","cityKana":"ｺｳﾉｽｼ","streetKana":"ﾆﾝｷﾞｮｳ","prefecture":"埼玉県","city":"鴻巣市","street":"人形"},{"zipCode":"3650059","prefectureKana":"ｻｲﾀﾏｹﾝ","cityKana":"ｺｳﾉｽｼ","streetKana":"ﾇｶﾀ","prefecture":"埼玉県","city":"鴻巣市","street":"糠田"},{"zipCode":"3650052","prefectureKana":"ｻｲﾀﾏｹﾝ","cityKana":"ｺｳﾉｽｼ","streetKana":"ﾉﾎﾞﾘﾄ","prefecture":"埼玉県","city":"鴻巣市","street":"登戸"},{"zipCode":"3650073","prefectureKana":"ｻｲﾀﾏｹﾝ","cityKana":"ｺｳﾉｽｼ","streetKana":"ﾊﾁﾏﾝﾃﾞﾝ","prefecture":"埼玉県","city":"鴻巣市","street":"八幡田"},{"zipCode":"3650043","prefectureKana":"ｻｲﾀﾏｹﾝ","cityKana":"ｺｳﾉｽｼ","streetKana":"ﾊﾗﾏﾑﾛ","prefecture":"埼玉県","city":"鴻巣市","street":"原馬室"},{"zipCode":"3650045","prefectureKana":"ｻｲﾀﾏｹﾝ","cityKana":"ｺｳﾉｽｼ","streetKana":"ﾋｶﾜﾁｮｳ","prefecture":"埼玉県","city":"鴻巣市","street":"氷川町"},{"zipCode":"3650039","prefectureKana":"ｻｲﾀﾏｹﾝ","cityKana":"ｺｳﾉｽｼ","streetKana":"ﾋｶﾞｼ","prefecture":"埼玉県","city":"鴻巣市","street":"東"},{"zipCode":"3650031","prefectureKana":"ｻｲﾀﾏｹﾝ","cityKana":"ｺｳﾉｽｼ","streetKana":"ﾋﾊﾞﾘﾉ","prefecture":"埼玉県","city":"鴻巣市","street":"ひばり野"},{"zipCode":"3650005","prefectureKana":"ｻｲﾀﾏｹﾝ","cityKana":"ｺｳﾉｽｼ","streetKana":"ﾋﾛﾀﾞ","prefecture":"埼玉県","city":"鴻巣市","street":"広田"},{"zipCode":"3650046","prefectureKana":"ｻｲﾀﾏｹﾝ","cityKana":"ｺｳﾉｽｼ","streetKana":"ﾌｼﾞﾐﾁｮｳ","prefecture":"埼玉県","city":"鴻巣市","street":"富士見町"},{"zipCode":"3650038","prefectureKana":"ｻｲﾀﾏｹﾝ","cityKana":"ｺｳﾉｽｼ","streetKana":"ﾎﾝﾁｮｳ","prefecture":"埼玉県","city":"鴻巣市","street":"本町"},{"zipCode":"3650076","prefectureKana":"ｻｲﾀﾏｹﾝ","cityKana":"ｺｳﾉｽｼ","streetKana":"ﾎﾝﾐﾔﾁｮｳ","prefecture":"埼玉県","city":"鴻巣市","street":"本宮町"},{"zipCode":"3650042","prefectureKana":"ｻｲﾀﾏｹﾝ","cityKana":"ｺｳﾉｽｼ","streetKana":"ﾏﾂﾊﾞﾗ","prefecture":"埼玉県","city":"鴻巣市","street":"松原"},{"zipCode":"3650062","prefectureKana":"ｻｲﾀﾏｹﾝ","cityKana":"ｺｳﾉｽｼ","streetKana":"ﾐﾀﾞ","prefecture":"埼玉県","city":"鴻巣市","street":"箕田"},{"zipCode":"3650066","prefectureKana":"ｻｲﾀﾏｹﾝ","cityKana":"ｺｳﾉｽｼ","streetKana":"ﾐﾂｷﾞ","prefecture":"埼玉県","city":"鴻巣市","street":"三ツ木"},{"zipCode":"3650053","prefectureKana":"ｻｲﾀﾏｹﾝ","cityKana":"ｺｳﾉｽｼ","streetKana":"ﾐﾄﾞﾘﾁｮｳ","prefecture":"埼玉県","city":"鴻巣市","street":"緑町"},{"zipCode":"3650075","prefectureKana":"ｻｲﾀﾏｹﾝ","cityKana":"ｺｳﾉｽｼ","streetKana":"ﾐﾔｼﾞ","prefecture":"埼玉県","city":"鴻巣市","street":"宮地"},{"zipCode":"3650051","prefectureKana":"ｻｲﾀﾏｹﾝ","cityKana":"ｺｳﾉｽｼ","streetKana":"ﾐﾔﾏｴ","prefecture":"埼玉県","city":"鴻巣市","street":"宮前"},{"zipCode":"3650077","prefectureKana":"ｻｲﾀﾏｹﾝ","cityKana":"ｺｳﾉｽｼ","streetKana":"ﾗｲﾃﾞﾝ","prefecture":"埼玉県","city":"鴻巣市","street":"雷電"}]