[{"zipCode":"3660000","prefectureKana":"ｻｲﾀﾏｹﾝ","cityKana":"ﾌｶﾔｼ","streetKana":"ｲｶﾆｹｲｻｲｶﾞﾅｲﾊﾞｱｲ","prefecture":"埼玉県","city":"深谷市","street":"以下に掲載がない場合"},{"zipCode":"3660053","prefectureKana":"ｻｲﾀﾏｹﾝ","cityKana":"ﾌｶﾔｼ","streetKana":"ｱｷﾓﾄﾁｮｳ","prefecture":"埼玉県","city":"深谷市","street":"秋元町"},{"zipCode":"3660024","prefectureKana":"ｻｲﾀﾏｹﾝ","cityKana":"ﾌｶﾔｼ","streetKana":"ｱｹﾄ","prefecture":"埼玉県","city":"深谷市","street":"明戸"},{"zipCode":"3660016","prefectureKana":"ｻｲﾀﾏｹﾝ","cityKana":"ﾌｶﾔｼ","streetKana":"ｱﾗｲ","prefecture":"埼玉県","city":"深谷市","street":"新井"},{"zipCode":"3660011","prefectureKana":"ｻｲﾀﾏｹﾝ","cityKana":"ﾌｶﾔｼ","streetKana":"ｲｼﾂﾞｶ","prefecture":"埼玉県","city":"深谷市","street":"石塚"},{"zipCode":"3660836","prefectureKana":"ｻｲﾀﾏｹﾝ","cityKana":"ﾌｶﾔｼ","streetKana":"ｲｾｶﾞﾀ","prefecture":"埼玉県","city":"深谷市","street":"伊勢方"},{"zipCode":"3660026","prefectureKana":"ｻｲﾀﾏｹﾝ","cityKana":"ﾌｶﾔｼ","streetKana":"ｲﾅﾘﾁｮｳ","prefecture":"埼玉県","city":"深谷市","street":"稲荷町"},{"zipCode":"3660028","prefectureKana":"ｻｲﾀﾏｹﾝ","cityKana":"ﾌｶﾔｼ","streetKana":"ｲﾅﾘﾁｮｳｷﾀ","prefecture":"埼玉県","city":"深谷市","street":"稲荷町北"},{"zipCode":"3660831","prefectureKana":"ｻｲﾀﾏｹﾝ","cityKana":"ﾌｶﾔｼ","streetKana":"ｳﾁｶﾞｼﾏ","prefecture":"埼玉県","city":"深谷市","street":"内ケ島"},{"zipCode":"3660801","prefectureKana":"ｻｲﾀﾏｹﾝ","cityKana":"ﾌｶﾔｼ","streetKana":"ｳﾜﾉﾀﾞｲ","prefecture":"埼玉県","city":"深谷市","street":"上野台"},{"zipCode":"3660012","prefectureKana":"ｻｲﾀﾏｹﾝ","cityKana":"ﾌｶﾔｼ","streetKana":"ｴﾊﾞﾗ","prefecture":"埼玉県","city":"深谷市","street":"江原"},{"zipCode":"3660838","prefectureKana":"ｻｲﾀﾏｹﾝ","cityKana":"ﾌｶﾔｼ","streetKana":"ｵｵﾂｶｼﾞﾏ","prefecture":"埼玉県","city":"深谷市","street":"大塚島"},{"zipCode":"3660003","prefectureKana":"ｻｲﾀﾏｹﾝ","cityKana":"ﾌｶﾔｼ","streetKana":"ｵｵﾂﾞｶ","prefecture":"埼玉県","city":"深谷市","street":"大塚"},{"zipCode":"3660814","prefectureKana":"ｻｲﾀﾏｹﾝ","cityKana":"ﾌｶﾔｼ","streetKana":"ｵｵﾔ","prefecture":"埼玉県","city":"深谷市","street":"大谷"},{"zipCode":"3660837","prefectureKana":"ｻｲﾀﾏｹﾝ","cityKana":"ﾌｶﾔｼ","streetKana":"ｵｷｱｲ","prefecture":"埼玉県","city":"深谷市","street":"起会"},{"zipCode":"3660812","prefectureKana":"ｻｲﾀﾏｹﾝ","cityKana":"ﾌｶﾔｼ","streetKana":"ｵﾘﾉｸﾁ","prefecture":"埼玉県","city":"深谷市","street":"折之口"},{"zipCode":"3660816","prefectureKana":"ｻｲﾀﾏｹﾝ","cityKana":"ﾌｶﾔｼ","streetKana":"ｶｼｱｲ","prefecture":"埼玉県","city":"深谷市","street":"樫合"},{"zipCode":"3660817","prefectureKana":"ｻｲﾀﾏｹﾝ","cityKana":"ﾌｶﾔｼ","streetKana":"ｶｼｱｲ","prefecture":"埼玉県","city":"深谷市","street":"柏合"},{"zipCode":"3660051","prefectureKana":"ｻｲﾀﾏｹﾝ","cityKana":"ﾌｶﾔｼ","streetKana":"ｶﾐｼﾊﾞﾁｮｳﾋｶﾞｼ","prefecture":"埼玉県","city":"深谷市","street":"上柴町東"},{"zipCode":"3660052","prefectureKana":"ｻｲﾀﾏｹﾝ","cityKana":"ﾌｶﾔｼ","streetKana":"ｶﾐｼﾊﾞﾁｮｳﾆｼ","prefecture":"埼玉県","city":"深谷市","street":"上柴町西"},{"zipCode":"3660004","prefectureKana":"ｻｲﾀﾏｹﾝ","cityKana":"ﾌｶﾔｼ","streetKana":"ｶﾐﾃﾊﾞｶ","prefecture":"埼玉県","city":"深谷市","street":"上手計"},{"zipCode":"3660021","prefectureKana":"ｻｲﾀﾏｹﾝ","cityKana":"ﾌｶﾔｼ","streetKana":"ｶﾐﾏｽﾀﾞ","prefecture":"埼玉県","city":"深谷市","street":"上増田"},{"zipCode":"3660818","prefectureKana":"ｻｲﾀﾏｹﾝ","cityKana":"ﾌｶﾔｼ","streetKana":"ｶﾔﾊﾞ","prefecture":"埼玉県","city":"深谷市","street":"萱場"},{"zipCode":"3660008","prefectureKana":"ｻｲﾀﾏｹﾝ","cityKana":"ﾌｶﾔｼ","streetKana":"ｷﾀｱｶﾞﾉ","prefecture":"埼玉県","city":"深谷市","street":"北阿賀野"},{"zipCode":"3660815","prefectureKana":"ｻｲﾀﾏｹﾝ","cityKana":"ﾌｶﾔｼ","streetKana":"ｸｼﾋﾞｷ","prefecture":"埼玉県","city":"深谷市","street":"櫛引"},{"zipCode":"3660033","prefectureKana":"ｻｲﾀﾏｹﾝ","cityKana":"ﾌｶﾔｼ","streetKana":"ｺｸｻｲｼﾞ","prefecture":"埼玉県","city":"深谷市","street":"国済寺"},{"zipCode":"3660031","prefectureKana":"ｻｲﾀﾏｹﾝ","cityKana":"ﾌｶﾔｼ","streetKana":"ｺｸｻｲｼﾞﾁｮｳ","prefecture":"埼玉県","city":"深谷市","street":"国済寺町"},{"zipCode":"3660025","prefectureKana":"ｻｲﾀﾏｹﾝ","cityKana":"ﾌｶﾔｼ","streetKana":"ｺﾄﾌﾞｷﾁｮｳ","prefecture":"埼玉県","city":"深谷市","street":"寿町"},{"zipCode":"3660813","prefectureKana":"ｻｲﾀﾏｹﾝ","cityKana":"ﾌｶﾔｼ","streetKana":"ｻｶｲ","prefecture":"埼玉県","city":"深谷市","street":"境"},{"zipCode":"3660827","prefectureKana":"ｻｲﾀﾏｹﾝ","cityKana":"ﾌｶﾔｼ","streetKana":"ｻｶｴﾁｮｳ","prefecture":"埼玉県","city":"深谷市","street":"栄町"},{"zipCode":"3660802","prefectureKana":"ｻｲﾀﾏｹﾝ","cityKana":"ﾌｶﾔｼ","streetKana":"ｻｸﾗｶﾞｵｶ","prefecture":"埼玉県","city":"深谷市","street":"桜ケ丘"},{"zipCode":"3660002","prefectureKana":"ｻｲﾀﾏｹﾝ","cityKana":"ﾌｶﾔｼ","streetKana":"ｼﾓﾃﾊﾞｶ","prefecture":"埼玉県","city":"深谷市","street":"下手計"},{"zipCode":"3660810","prefectureKana":"ｻｲﾀﾏｹﾝ","cityKana":"ﾌｶﾔｼ","streetKana":"ｼｭｸﾈ","prefecture":"埼玉県","city":"深谷市","street":"宿根"},{"zipCode":"3660029","prefectureKana":"ｻｲﾀﾏｹﾝ","cityKana":"ﾌｶﾔｼ","streetKana":"ｼﾞｮｳｼｷﾒﾝ","prefecture":"埼玉県","city":"深谷市","street":"上敷免"},{"zipCode":"3660019","prefectureKana":"ｻｲﾀﾏｹﾝ","cityKana":"ﾌｶﾔｼ","streetKana":"ｼﾝｶﾞｲ","prefecture":"埼玉県","city":"深谷市","street":"新戒"},{"zipCode":"3660010","prefectureKana":"ｻｲﾀﾏｹﾝ","cityKana":"ﾌｶﾔｼ","streetKana":"ﾀｶｼﾏ","prefecture":"埼玉県","city":"深谷市","street":"高島"},{"zipCode":"3660832","prefectureKana":"ｻｲﾀﾏｹﾝ","cityKana":"ﾌｶﾔｼ","streetKana":"ﾀｶﾊﾞﾀｹ","prefecture":"埼玉県","city":"深谷市","street":"高畑"},{"zipCode":"3660826","prefectureKana":"ｻｲﾀﾏｹﾝ","cityKana":"ﾌｶﾔｼ","streetKana":"ﾀﾄﾞｺﾛﾁｮｳ","prefecture":"埼玉県","city":"深谷市","street":"田所町"},{"zipCode":"3660821","prefectureKana":"ｻｲﾀﾏｹﾝ","cityKana":"ﾌｶﾔｼ","streetKana":"ﾀﾔ","prefecture":"埼玉県","city":"深谷市","street":"田谷"},{"zipCode":"3660006","prefectureKana":"ｻｲﾀﾏｹﾝ","cityKana":"ﾌｶﾔｼ","streetKana":"ﾁｱﾗｲｼﾞﾏ","prefecture":"埼玉県","city":"深谷市","street":"血洗島"},{"zipCode":"3660027","prefectureKana":"ｻｲﾀﾏｹﾝ","cityKana":"ﾌｶﾔｼ","streetKana":"ﾃﾝｼﾞﾝﾁｮｳ","prefecture":"埼玉県","city":"深谷市","street":"天神町"},{"zipCode":"3660034","prefectureKana":"ｻｲﾀﾏｹﾝ","cityKana":"ﾌｶﾔｼ","streetKana":"ﾄｷﾜﾁｮｳ","prefecture":"埼玉県","city":"深谷市","street":"常盤町"},{"zipCode":"3660833","prefectureKana":"ｻｲﾀﾏｹﾝ","cityKana":"ﾌｶﾔｼ","streetKana":"ﾄﾓﾘ","prefecture":"埼玉県","city":"深谷市","street":"戸森"},{"zipCode":"3660001","prefectureKana":"ｻｲﾀﾏｹﾝ","cityKana":"ﾌｶﾔｼ","streetKana":"ﾅｶｾﾞ","prefecture":"埼玉県","city":"深谷市","street":"中瀬"},{"zipCode":"3660822","prefectureKana":"ｻｲﾀﾏｹﾝ","cityKana":"ﾌｶﾔｼ","streetKana":"ﾅｶﾁｮｳ","prefecture":"埼玉県","city":"深谷市","street":"仲町"},{"zipCode":"3660018","prefectureKana":"ｻｲﾀﾏｹﾝ","cityKana":"ﾌｶﾔｼ","streetKana":"ﾅﾘﾂﾞｶ","prefecture":"埼玉県","city":"深谷市","street":"成塚"},{"zipCode":"3660829","prefectureKana":"ｻｲﾀﾏｹﾝ","cityKana":"ﾌｶﾔｼ","streetKana":"ﾆｼｵｵﾇﾏ","prefecture":"埼玉県","city":"深谷市","street":"西大沼"},{"zipCode":"3660824","prefectureKana":"ｻｲﾀﾏｹﾝ","cityKana":"ﾌｶﾔｼ","streetKana":"ﾆｼｼﾞﾏﾁｮｳ(ﾆｼｼﾞﾏ)","prefecture":"埼玉県","city":"深谷市","street":"西島町（西島）"},{"zipCode":"3660017","prefectureKana":"ｻｲﾀﾏｹﾝ","cityKana":"ﾌｶﾔｼ","streetKana":"ﾇﾏｼﾞﾘ","prefecture":"埼玉県","city":"深谷市","street":"沼尻"},{"zipCode":"3660015","prefectureKana":"ｻｲﾀﾏｹﾝ","cityKana":"ﾌｶﾔｼ","streetKana":"ﾊｽﾇﾏ","prefecture":"埼玉県","city":"深谷市","street":"蓮沼"},{"zipCode":"3660032","prefectureKana":"ｻｲﾀﾏｹﾝ","cityKana":"ﾌｶﾔｼ","streetKana":"ﾊﾀﾗﾁｮｳ","prefecture":"埼玉県","city":"深谷市","street":"幡羅町"},{"zipCode":"3660035","prefectureKana":"ｻｲﾀﾏｹﾝ","cityKana":"ﾌｶﾔｼ","streetKana":"ﾊﾗｺﾞｳ","prefecture":"埼玉県","city":"深谷市","street":"原郷"},{"zipCode":"3660828","prefectureKana":"ｻｲﾀﾏｹﾝ","cityKana":"ﾌｶﾔｼ","streetKana":"ﾋｶﾞｼｵｵﾇﾏ","prefecture":"埼玉県","city":"深谷市","street":"東大沼"},{"zipCode":"3660041","prefectureKana":"ｻｲﾀﾏｹﾝ","cityKana":"ﾌｶﾔｼ","streetKana":"ﾋｶﾞｼｶﾞﾀ","prefecture":"埼玉県","city":"深谷市","street":"東方"},{"zipCode":"3660042","prefectureKana":"ｻｲﾀﾏｹﾝ","cityKana":"ﾌｶﾔｼ","streetKana":"ﾋｶﾞｼｶﾞﾀﾁｮｳ","prefecture":"埼玉県","city":"深谷市","street":"東方町"},{"zipCode":"3660811","prefectureKana":"ｻｲﾀﾏｹﾝ","cityKana":"ﾌｶﾔｼ","streetKana":"ﾋﾄﾐ","prefecture":"埼玉県","city":"深谷市","street":"人見"},{"zipCode":"3660825","prefectureKana":"ｻｲﾀﾏｹﾝ","cityKana":"ﾌｶﾔｼ","streetKana":"ﾌｶﾔﾁｮｳ","prefecture":"埼玉県","city":"深谷市","street":"深谷町"},{"zipCode":"3660014","prefectureKana":"ｻｲﾀﾏｹﾝ","cityKana":"ﾌｶﾔｼ","streetKana":"ﾌｼﾞﾉｷ","prefecture":"埼玉県","city":"深谷市","street":"藤野木"},{"zipCode":"3660061","prefectureKana":"ｻｲﾀﾏｹﾝ","cityKana":"ﾌｶﾔｼ","streetKana":"ﾌﾀﾂｺﾞﾔ","prefecture":"埼玉県","city":"深谷市","street":"二ツ小屋"},{"zipCode":"3660013","prefectureKana":"ｻｲﾀﾏｹﾝ","cityKana":"ﾌｶﾔｼ","streetKana":"ﾎﾘｺﾞﾒ","prefecture":"埼玉県","city":"深谷市","street":"堀米"},{"zipCode":"3660022","prefectureKana":"ｻｲﾀﾏｹﾝ","cityKana":"ﾌｶﾔｼ","streetKana":"ﾎﾝﾀﾞｶﾞﾔ","prefecture":"埼玉県","city":"深谷市","street":"本田ケ谷"},{"zipCode":"3660062","prefectureKana":"ｻｲﾀﾏｹﾝ","cityKana":"ﾌｶﾔｼ","streetKana":"ﾏｴｺﾞﾔ","prefecture":"埼玉県","city":"深谷市","street":"前小屋"},{"zipCode":"3660834","prefectureKana":"ｻｲﾀﾏｹﾝ","cityKana":"ﾌｶﾔｼ","streetKana":"ﾏｶﾞﾂﾀ(ﾆｼｷﾏﾁ)","prefecture":"埼玉県","city":"深谷市","street":"曲田（錦町）"},{"zipCode":"3660005","prefectureKana":"ｻｲﾀﾏｹﾝ","cityKana":"ﾌｶﾔｼ","streetKana":"ﾏﾁﾀﾞ","prefecture":"埼玉県","city":"深谷市","street":"町田"},{"zipCode":"3660054","prefectureKana":"ｻｲﾀﾏｹﾝ","cityKana":"ﾌｶﾔｼ","streetKana":"ﾐﾄﾞﾘｶﾞｵｶ","prefecture":"埼玉県","city":"深谷市","street":"緑ケ丘"},{"zipCode":"3660007","prefectureKana":"ｻｲﾀﾏｹﾝ","cityKana":"ﾌｶﾔｼ","streetKana":"ﾐﾅﾐｱｶﾞﾉ","prefecture":"埼玉県","city":"深谷市","street":"南阿賀野"},{"zipCode":"3660819","prefectureKana":"ｻｲﾀﾏｹﾝ","cityKana":"ﾌｶﾔｼ","streetKana":"ﾐﾊﾗｼﾁｮｳ","prefecture":"埼玉県","city":"深谷市","street":"見晴町"},{"zipCode":"3660023","prefectureKana":"ｻｲﾀﾏｹﾝ","cityKana":"ﾌｶﾔｼ","streetKana":"ﾐﾔｶﾞﾔﾄ","prefecture":"埼玉県","city":"深谷市","street":"宮ケ谷戸"},{"zipCode":"3660823","prefectureKana":"ｻｲﾀﾏｹﾝ","cityKana":"ﾌｶﾔｼ","streetKana":"ﾓﾄｽﾐﾁｮｳ","prefecture":"埼玉県","city":"深谷市","street":"本住町"},{"zipCode":"3660839","prefectureKana":"ｻｲﾀﾏｹﾝ","cityKana":"ﾌｶﾔｼ","streetKana":"ﾔｼﾞﾏ","prefecture":"埼玉県","city":"深谷市","street":"矢島"},{"zipCode":"3660835","prefectureKana":"ｻｲﾀﾏｹﾝ","cityKana":"ﾌｶﾔｼ","streetKana":"ﾔﾉ","prefecture":"埼玉県","city":"深谷市","street":"谷之"},{"zipCode":"3660009","prefectureKana":"ｻｲﾀﾏｹﾝ","cityKana":"ﾌｶﾔｼ","streetKana":"ﾖｺｾﾞ","prefecture":"埼玉県","city":"深谷市","street":"横瀬"}]