[{"zipCode":"3720000","prefectureKana":"ｸﾞﾝﾏｹﾝ","cityKana":"ｲｾｻｷｼ","streetKana":"ｲｶﾆｹｲｻｲｶﾞﾅｲﾊﾞｱｲ","prefecture":"群馬県","city":"伊勢崎市","street":"以下に掲載がない場合"},{"zipCode":"3720821","prefectureKana":"ｸﾞﾝﾏｹﾝ","cityKana":"ｲｾｻｷｼ","streetKana":"ｱﾐﾀﾞｲｼﾞﾏﾁ","prefecture":"群馬県","city":"伊勢崎市","street":"阿弥大寺町"},{"zipCode":"3720007","prefectureKana":"ｸﾞﾝﾏｹﾝ","cityKana":"ｲｾｻｷｼ","streetKana":"ｱﾝﾎﾞﾘﾏﾁ","prefecture":"群馬県","city":"伊勢崎市","street":"安堀町"},{"zipCode":"3720854","prefectureKana":"ｸﾞﾝﾏｹﾝ","cityKana":"ｲｾｻｷｼ","streetKana":"ｲｲｼﾞﾏﾁｮｳ","prefecture":"群馬県","city":"伊勢崎市","street":"飯島町"},{"zipCode":"3720804","prefectureKana":"ｸﾞﾝﾏｹﾝ","cityKana":"ｲｾｻｷｼ","streetKana":"ｲﾅﾘﾁｮｳ","prefecture":"群馬県","city":"伊勢崎市","street":"稲荷町"},{"zipCode":"3720005","prefectureKana":"ｸﾞﾝﾏｹﾝ","cityKana":"ｲｾｻｷｼ","streetKana":"ｲﾇｲﾁｮｳ","prefecture":"群馬県","city":"伊勢崎市","street":"乾町"},{"zipCode":"3720031","prefectureKana":"ｸﾞﾝﾏｹﾝ","cityKana":"ｲｾｻｷｼ","streetKana":"ｲﾏｲｽﾞﾐﾁｮｳ","prefecture":"群馬県","city":"伊勢崎市","street":"今泉町"},{"zipCode":"3720823","prefectureKana":"ｸﾞﾝﾏｹﾝ","cityKana":"ｲｾｻｷｼ","streetKana":"ｲﾏｲﾁｮｳ","prefecture":"群馬県","city":"伊勢崎市","street":"今井町"},{"zipCode":"3720006","prefectureKana":"ｸﾞﾝﾏｹﾝ","cityKana":"ｲｾｻｷｼ","streetKana":"ｵｵﾀﾏﾁ","prefecture":"群馬県","city":"伊勢崎市","street":"太田町"},{"zipCode":"3720048","prefectureKana":"ｸﾞﾝﾏｹﾝ","cityKana":"ｲｾｻｷｼ","streetKana":"ｵｵﾃﾏﾁ","prefecture":"群馬県","city":"伊勢崎市","street":"大手町"},{"zipCode":"3720015","prefectureKana":"ｸﾞﾝﾏｹﾝ","cityKana":"ｲｾｻｷｼ","streetKana":"ｶｼﾏﾁｮｳ","prefecture":"群馬県","city":"伊勢崎市","street":"鹿島町"},{"zipCode":"3720023","prefectureKana":"ｸﾞﾝﾏｹﾝ","cityKana":"ｲｾｻｷｼ","streetKana":"ｶｽｶﾜﾁｮｳ","prefecture":"群馬県","city":"伊勢崎市","street":"粕川町"},{"zipCode":"3720045","prefectureKana":"ｸﾞﾝﾏｹﾝ","cityKana":"ｲｾｻｷｼ","streetKana":"ｶﾐｲｽﾞﾐﾁｮｳ","prefecture":"群馬県","city":"伊勢崎市","street":"上泉町"},{"zipCode":"3720013","prefectureKana":"ｸﾞﾝﾏｹﾝ","cityKana":"ｲｾｻｷｼ","streetKana":"ｶﾐｳｴｷﾎﾝﾏﾁ","prefecture":"群馬県","city":"伊勢崎市","street":"上植木本町"},{"zipCode":"3720021","prefectureKana":"ｸﾞﾝﾏｹﾝ","cityKana":"ｲｾｻｷｼ","streetKana":"ｶﾐｽﾜﾁｮｳ","prefecture":"群馬県","city":"伊勢崎市","street":"上諏訪町"},{"zipCode":"3720851","prefectureKana":"ｸﾞﾝﾏｹﾝ","cityKana":"ｲｾｻｷｼ","streetKana":"ｶﾐﾊｽﾁｮｳ","prefecture":"群馬県","city":"伊勢崎市","street":"上蓮町"},{"zipCode":"3720032","prefectureKana":"ｸﾞﾝﾏｹﾝ","cityKana":"ｲｾｻｷｼ","streetKana":"ｷﾀｾﾝｷﾞﾁｮｳ","prefecture":"群馬県","city":"伊勢崎市","street":"北千木町"},{"zipCode":"3720056","prefectureKana":"ｸﾞﾝﾏｹﾝ","cityKana":"ｲｾｻｷｼ","streetKana":"ｷﾀﾏﾁ","prefecture":"群馬県","city":"伊勢崎市","street":"喜多町"},{"zipCode":"3720055","prefectureKana":"ｸﾞﾝﾏｹﾝ","cityKana":"ｲｾｻｷｼ","streetKana":"ｸﾙﾜﾁｮｳ","prefecture":"群馬県","city":"伊勢崎市","street":"曲輪町"},{"zipCode":"3720003","prefectureKana":"ｸﾞﾝﾏｹﾝ","cityKana":"ｲｾｻｷｼ","streetKana":"ｹｿﾞｳｼﾞﾏﾁ","prefecture":"群馬県","city":"伊勢崎市","street":"華蔵寺町"},{"zipCode":"3720843","prefectureKana":"ｸﾞﾝﾏｹﾝ","cityKana":"ｲｾｻｷｼ","streetKana":"ｹﾞﾄﾞｳｼﾞﾁｮｳ","prefecture":"群馬県","city":"伊勢崎市","street":"下道寺町"},{"zipCode":"3720853","prefectureKana":"ｸﾞﾝﾏｹﾝ","cityKana":"ｲｾｻｷｼ","streetKana":"ｺｸﾘｮｳﾁｮｳ","prefecture":"群馬県","city":"伊勢崎市","street":"国領町"},{"zipCode":"3720052","prefectureKana":"ｸﾞﾝﾏｹﾝ","cityKana":"ｲｾｻｷｼ","streetKana":"ｺﾄﾌﾞｷﾁｮｳ","prefecture":"群馬県","city":"伊勢崎市","street":"寿町"},{"zipCode":"3720831","prefectureKana":"ｸﾞﾝﾏｹﾝ","cityKana":"ｲｾｻｷｼ","streetKana":"ｻﾝﾉｳﾁｮｳ","prefecture":"群馬県","city":"伊勢崎市","street":"山王町"},{"zipCode":"3720046","prefectureKana":"ｸﾞﾝﾏｹﾝ","cityKana":"ｲｾｻｷｼ","streetKana":"ｻﾝｺｳﾁｮｳ","prefecture":"群馬県","city":"伊勢崎市","street":"三光町"},{"zipCode":"3720011","prefectureKana":"ｸﾞﾝﾏｹﾝ","cityKana":"ｲｾｻｷｼ","streetKana":"ｻﾝﾜﾁｮｳ","prefecture":"群馬県","city":"伊勢崎市","street":"三和町"},{"zipCode":"3720824","prefectureKana":"ｸﾞﾝﾏｹﾝ","cityKana":"ｲｾｻｷｼ","streetKana":"ｼﾊﾞﾏﾁ","prefecture":"群馬県","city":"伊勢崎市","street":"柴町"},{"zipCode":"3720024","prefectureKana":"ｸﾞﾝﾏｹﾝ","cityKana":"ｲｾｻｷｼ","streetKana":"ｼﾓｳｴｷﾁｮｳ","prefecture":"群馬県","city":"伊勢崎市","street":"下植木町"},{"zipCode":"3720852","prefectureKana":"ｸﾞﾝﾏｹﾝ","cityKana":"ｲｾｻｷｼ","streetKana":"ｼﾓﾊｽﾁｮｳ","prefecture":"群馬県","city":"伊勢崎市","street":"下蓮町"},{"zipCode":"3720014","prefectureKana":"ｸﾞﾝﾏｹﾝ","cityKana":"ｲｾｻｷｼ","streetKana":"ｼｮｳﾜﾁｮｳ","prefecture":"群馬県","city":"伊勢崎市","street":"昭和町"},{"zipCode":"3720038","prefectureKana":"ｸﾞﾝﾏｹﾝ","cityKana":"ｲｾｻｷｼ","streetKana":"ｼﾝｴｲﾁｮｳ","prefecture":"群馬県","city":"伊勢崎市","street":"新栄町"},{"zipCode":"3720057","prefectureKana":"ｸﾞﾝﾏｹﾝ","cityKana":"ｲｾｻｷｼ","streetKana":"ｽｴﾋﾛﾁｮｳ","prefecture":"群馬県","city":"伊勢崎市","street":"末広町"},{"zipCode":"3720841","prefectureKana":"ｸﾞﾝﾏｹﾝ","cityKana":"ｲｾｻｷｼ","streetKana":"ﾀﾞｲｼｮｳｼﾞﾁｮｳ","prefecture":"群馬県","city":"伊勢崎市","street":"大正寺町"},{"zipCode":"3720802","prefectureKana":"ｸﾞﾝﾏｹﾝ","cityKana":"ｲｾｻｷｼ","streetKana":"ﾀﾅｶｼﾞﾏﾏﾁ","prefecture":"群馬県","city":"伊勢崎市","street":"田中島町"},{"zipCode":"3720814","prefectureKana":"ｸﾞﾝﾏｹﾝ","cityKana":"ｲｾｻｷｼ","streetKana":"ﾀﾅｶﾏﾁ","prefecture":"群馬県","city":"伊勢崎市","street":"田中町"},{"zipCode":"3720042","prefectureKana":"ｸﾞﾝﾏｹﾝ","cityKana":"ｲｾｻｷｼ","streetKana":"ﾁｭｳｵｳﾁｮｳ","prefecture":"群馬県","city":"伊勢崎市","street":"中央町"},{"zipCode":"3720004","prefectureKana":"ｸﾞﾝﾏｹﾝ","cityKana":"ｲｾｻｷｼ","streetKana":"ﾂﾂﾐｼﾀﾁｮｳ","prefecture":"群馬県","city":"伊勢崎市","street":"堤下町"},{"zipCode":"3720002","prefectureKana":"ｸﾞﾝﾏｹﾝ","cityKana":"ｲｾｻｷｼ","streetKana":"ﾂﾂﾐﾆｼﾏﾁ","prefecture":"群馬県","city":"伊勢崎市","street":"堤西町"},{"zipCode":"3720817","prefectureKana":"ｸﾞﾝﾏｹﾝ","cityKana":"ｲｾｻｷｼ","streetKana":"ﾂﾅﾄﾘﾎﾝﾏﾁ","prefecture":"群馬県","city":"伊勢崎市","street":"連取本町"},{"zipCode":"3720818","prefectureKana":"ｸﾞﾝﾏｹﾝ","cityKana":"ｲｾｻｷｼ","streetKana":"ﾂﾅﾄﾘﾓﾄﾏﾁ","prefecture":"群馬県","city":"伊勢崎市","street":"連取元町"},{"zipCode":"3720812","prefectureKana":"ｸﾞﾝﾏｹﾝ","cityKana":"ｲｾｻｷｼ","streetKana":"ﾂﾅﾄﾘﾏﾁ","prefecture":"群馬県","city":"伊勢崎市","street":"連取町"},{"zipCode":"3720833","prefectureKana":"ｸﾞﾝﾏｹﾝ","cityKana":"ｲｾｻｷｼ","streetKana":"ﾄﾐﾂﾞｶﾁｮｳ","prefecture":"群馬県","city":"伊勢崎市","street":"富塚町"},{"zipCode":"3720825","prefectureKana":"ｸﾞﾝﾏｹﾝ","cityKana":"ｲｾｻｷｼ","streetKana":"ﾄﾔﾂﾞｶﾏﾁ","prefecture":"群馬県","city":"伊勢崎市","street":"戸谷塚町"},{"zipCode":"3720012","prefectureKana":"ｸﾞﾝﾏｹﾝ","cityKana":"ｲｾｻｷｼ","streetKana":"ﾄﾖｼﾛﾁｮｳ","prefecture":"群馬県","city":"伊勢崎市","street":"豊城町"},{"zipCode":"3720822","prefectureKana":"ｸﾞﾝﾏｹﾝ","cityKana":"ｲｾｻｷｼ","streetKana":"ﾅｶﾏﾁ","prefecture":"群馬県","city":"伊勢崎市","street":"中町"},{"zipCode":"3720855","prefectureKana":"ｸﾞﾝﾏｹﾝ","cityKana":"ｲｾｻｷｼ","streetKana":"ﾅｶﾞﾇﾏﾏﾁ","prefecture":"群馬県","city":"伊勢崎市","street":"長沼町"},{"zipCode":"3720816","prefectureKana":"ｸﾞﾝﾏｹﾝ","cityKana":"ｲｾｻｷｼ","streetKana":"ﾆｼｶﾐﾉﾐﾔﾏﾁ","prefecture":"群馬県","city":"伊勢崎市","street":"西上之宮町"},{"zipCode":"3720058","prefectureKana":"ｸﾞﾝﾏｹﾝ","cityKana":"ｲｾｻｷｼ","streetKana":"ﾆｼﾀﾞﾏﾁ","prefecture":"群馬県","city":"伊勢崎市","street":"西田町"},{"zipCode":"3720813","prefectureKana":"ｸﾞﾝﾏｹﾝ","cityKana":"ｲｾｻｷｼ","streetKana":"ﾆﾗﾂﾞｶﾏﾁ","prefecture":"群馬県","city":"伊勢崎市","street":"韮塚町"},{"zipCode":"3720844","prefectureKana":"ｸﾞﾝﾏｹﾝ","cityKana":"ｲｾｻｷｼ","streetKana":"ﾊｸﾞﾛﾁｮｳ","prefecture":"群馬県","city":"伊勢崎市","street":"羽黒町"},{"zipCode":"3720001","prefectureKana":"ｸﾞﾝﾏｹﾝ","cityKana":"ｲｾｻｷｼ","streetKana":"ﾊｼｴﾏﾁ","prefecture":"群馬県","city":"伊勢崎市","street":"波志江町"},{"zipCode":"3720815","prefectureKana":"ｸﾞﾝﾏｹﾝ","cityKana":"ｲｾｻｷｼ","streetKana":"ﾋｶﾞｼｶﾐﾉﾐﾔﾏﾁ","prefecture":"群馬県","city":"伊勢崎市","street":"東上之宮町"},{"zipCode":"3720025","prefectureKana":"ｸﾞﾝﾏｹﾝ","cityKana":"ｲｾｻｷｼ","streetKana":"ﾋｶﾞｼﾎﾝﾏﾁ","prefecture":"群馬県","city":"伊勢崎市","street":"東本町"},{"zipCode":"3720022","prefectureKana":"ｸﾞﾝﾏｹﾝ","cityKana":"ｲｾｻｷｼ","streetKana":"ﾋﾉﾃﾞﾁｮｳ","prefecture":"群馬県","city":"伊勢崎市","street":"日乃出町"},{"zipCode":"3720039","prefectureKana":"ｸﾞﾝﾏｹﾝ","cityKana":"ｲｾｻｷｼ","streetKana":"ﾋﾛｾﾁｮｳ","prefecture":"群馬県","city":"伊勢崎市","street":"ひろせ町"},{"zipCode":"3720826","prefectureKana":"ｸﾞﾝﾏｹﾝ","cityKana":"ｲｾｻｷｼ","streetKana":"ﾌｸｼﾞﾏﾏﾁ","prefecture":"群馬県","city":"伊勢崎市","street":"福島町"},{"zipCode":"3720041","prefectureKana":"ｸﾞﾝﾏｹﾝ","cityKana":"ｲｾｻｷｼ","streetKana":"ﾍｲﾜﾁｮｳ","prefecture":"群馬県","city":"伊勢崎市","street":"平和町"},{"zipCode":"3720834","prefectureKana":"ｸﾞﾝﾏｹﾝ","cityKana":"ｲｾｻｷｼ","streetKana":"ﾎﾘｸﾞﾁﾏﾁ","prefecture":"群馬県","city":"伊勢崎市","street":"堀口町"},{"zipCode":"3720016","prefectureKana":"ｸﾞﾝﾏｹﾝ","cityKana":"ｲｾｻｷｼ","streetKana":"ﾎﾝｾｷﾁｮｳ","prefecture":"群馬県","city":"伊勢崎市","street":"本関町"},{"zipCode":"3720047","prefectureKana":"ｸﾞﾝﾏｹﾝ","cityKana":"ｲｾｻｷｼ","streetKana":"ﾎﾝﾏﾁ","prefecture":"群馬県","city":"伊勢崎市","street":"本町"},{"zipCode":"3720842","prefectureKana":"ｸﾞﾝﾏｹﾝ","cityKana":"ｲｾｻｷｼ","streetKana":"ﾏﾐﾂﾞｶﾏﾁ","prefecture":"群馬県","city":"伊勢崎市","street":"馬見塚町"},{"zipCode":"3720043","prefectureKana":"ｸﾞﾝﾏｹﾝ","cityKana":"ｲｾｻｷｼ","streetKana":"ﾐﾄﾞﾘﾁｮｳ","prefecture":"群馬県","city":"伊勢崎市","street":"緑町"},{"zipCode":"3720033","prefectureKana":"ｸﾞﾝﾏｹﾝ","cityKana":"ｲｾｻｷｼ","streetKana":"ﾐﾅﾐｾﾝｷﾞﾁｮｳ","prefecture":"群馬県","city":"伊勢崎市","street":"南千木町"},{"zipCode":"3720037","prefectureKana":"ｸﾞﾝﾏｹﾝ","cityKana":"ｲｾｻｷｼ","streetKana":"ﾐﾓﾛﾁｮｳ","prefecture":"群馬県","city":"伊勢崎市","street":"美茂呂町"},{"zipCode":"3720801","prefectureKana":"ｸﾞﾝﾏｹﾝ","cityKana":"ｲｾｻｷｼ","streetKana":"ﾐﾔｺﾏﾁ","prefecture":"群馬県","city":"伊勢崎市","street":"宮子町"},{"zipCode":"3720803","prefectureKana":"ｸﾞﾝﾏｹﾝ","cityKana":"ｲｾｻｷｼ","streetKana":"ﾐﾔﾌﾙﾏﾁ","prefecture":"群馬県","city":"伊勢崎市","street":"宮古町"},{"zipCode":"3720026","prefectureKana":"ｸﾞﾝﾏｹﾝ","cityKana":"ｲｾｻｷｼ","streetKana":"ﾐﾔﾏｴﾁｮｳ","prefecture":"群馬県","city":"伊勢崎市","street":"宮前町"},{"zipCode":"3720053","prefectureKana":"ｸﾞﾝﾏｹﾝ","cityKana":"ｲｾｻｷｼ","streetKana":"ﾑﾈﾀｶﾁｮｳ","prefecture":"群馬県","city":"伊勢崎市","street":"宗高町"},{"zipCode":"3720034","prefectureKana":"ｸﾞﾝﾏｹﾝ","cityKana":"ｲｾｻｷｼ","streetKana":"ﾓﾛﾏﾁ","prefecture":"群馬県","city":"伊勢崎市","street":"茂呂町"},{"zipCode":"3720036","prefectureKana":"ｸﾞﾝﾏｹﾝ","cityKana":"ｲｾｻｷｼ","streetKana":"ﾓﾛﾐﾅﾐﾁｮｳ","prefecture":"群馬県","city":"伊勢崎市","street":"茂呂南町"},{"zipCode":"3720044","prefectureKana":"ｸﾞﾝﾏｹﾝ","cityKana":"ｲｾｻｷｼ","streetKana":"ﾔｻｶﾁｮｳ","prefecture":"群馬県","city":"伊勢崎市","street":"八坂町"},{"zipCode":"3720827","prefectureKana":"ｸﾞﾝﾏｹﾝ","cityKana":"ｲｾｻｷｼ","streetKana":"ﾔｯﾀｼﾞﾏﾏﾁ","prefecture":"群馬県","city":"伊勢崎市","street":"八斗島町"},{"zipCode":"3720054","prefectureKana":"ｸﾞﾝﾏｹﾝ","cityKana":"ｲｾｻｷｼ","streetKana":"ﾔﾅｷﾞﾊﾗﾁｮｳ","prefecture":"群馬県","city":"伊勢崎市","street":"柳原町"},{"zipCode":"3720051","prefectureKana":"ｸﾞﾝﾏｹﾝ","cityKana":"ｲｾｻｷｼ","streetKana":"ﾔﾊﾀﾁｮｳ","prefecture":"群馬県","city":"伊勢崎市","street":"八幡町"},{"zipCode":"3720832","prefectureKana":"ｸﾞﾝﾏｹﾝ","cityKana":"ｲｾｻｷｼ","streetKana":"ﾖｹﾞﾁｮｳ","prefecture":"群馬県","city":"伊勢崎市","street":"除ケ町"},{"zipCode":"3720811","prefectureKana":"ｸﾞﾝﾏｹﾝ","cityKana":"ｲｾｻｷｼ","streetKana":"ﾜｶﾊﾞﾁｮｳ","prefecture":"群馬県","city":"伊勢崎市","street":"若葉町"}]