[{"zipCode":"3730000","prefectureKana":"ｸﾞﾝﾏｹﾝ","cityKana":"ｵｵﾀｼ","streetKana":"ｲｶﾆｹｲｻｲｶﾞﾅｲﾊﾞｱｲ","prefecture":"群馬県","city":"太田市","street":"以下に掲載がない場合"},{"zipCode":"3730814","prefectureKana":"ｸﾞﾝﾏｹﾝ","cityKana":"ｵｵﾀｼ","streetKana":"ｱｻﾋﾁｮｳ","prefecture":"群馬県","city":"太田市","street":"朝日町"},{"zipCode":"3730852","prefectureKana":"ｸﾞﾝﾏｹﾝ","cityKana":"ｵｵﾀｼ","streetKana":"ｱﾗｲﾁｮｳ","prefecture":"群馬県","city":"太田市","street":"新井町"},{"zipCode":"3730851","prefectureKana":"ｸﾞﾝﾏｹﾝ","cityKana":"ｵｵﾀｼ","streetKana":"ｲｲﾀﾞﾁｮｳ","prefecture":"群馬県","city":"太田市","street":"飯田町"},{"zipCode":"3730817","prefectureKana":"ｸﾞﾝﾏｹﾝ","cityKana":"ｵｵﾀｼ","streetKana":"ｲｲﾂﾞｶﾁｮｳ","prefecture":"群馬県","city":"太田市","street":"飯塚町"},{"zipCode":"3730007","prefectureKana":"ｸﾞﾝﾏｹﾝ","cityKana":"ｵｵﾀｼ","streetKana":"ｲｼﾊﾞｼﾁｮｳ","prefecture":"群馬県","city":"太田市","street":"石橋町"},{"zipCode":"3730808","prefectureKana":"ｸﾞﾝﾏｹﾝ","cityKana":"ｵｵﾀｼ","streetKana":"ｲｼﾊﾗﾁｮｳ","prefecture":"群馬県","city":"太田市","street":"石原町"},{"zipCode":"3730845","prefectureKana":"ｸﾞﾝﾏｹﾝ","cityKana":"ｵｵﾀｼ","streetKana":"ｲｽﾞﾐﾁｮｳ","prefecture":"群馬県","city":"太田市","street":"泉町"},{"zipCode":"3730013","prefectureKana":"ｸﾞﾝﾏｹﾝ","cityKana":"ｵｵﾀｼ","streetKana":"ｲﾁﾊﾞﾁｮｳ","prefecture":"群馬県","city":"太田市","street":"市場町"},{"zipCode":"3730841","prefectureKana":"ｸﾞﾝﾏｹﾝ","cityKana":"ｵｵﾀｼ","streetKana":"ｲﾜｾｶﾞﾜﾁｮｳ","prefecture":"群馬県","city":"太田市","street":"岩瀬川町"},{"zipCode":"3730014","prefectureKana":"ｸﾞﾝﾏｹﾝ","cityKana":"ｵｵﾀｼ","streetKana":"ｳｴｷﾉﾁｮｳ","prefecture":"群馬県","city":"太田市","street":"植木野町"},{"zipCode":"3730833","prefectureKana":"ｸﾞﾝﾏｹﾝ","cityKana":"ｵｵﾀｼ","streetKana":"ｳｼｻﾞﾜﾁｮｳ","prefecture":"群馬県","city":"太田市","street":"牛沢町"},{"zipCode":"3730813","prefectureKana":"ｸﾞﾝﾏｹﾝ","cityKana":"ｵｵﾀｼ","streetKana":"ｳﾁｶﾞｼﾏﾁｮｳ","prefecture":"群馬県","city":"太田市","street":"内ケ島町"},{"zipCode":"3730055","prefectureKana":"ｸﾞﾝﾏｹﾝ","cityKana":"ｵｵﾀｼ","streetKana":"ｵｵｼﾏﾁｮｳ","prefecture":"群馬県","city":"太田市","street":"大島町"},{"zipCode":"3730075","prefectureKana":"ｸﾞﾝﾏｹﾝ","cityKana":"ｵｵﾀｼ","streetKana":"ｵｵﾜｼﾁｮｳ","prefecture":"群馬県","city":"太田市","street":"大鷲町"},{"zipCode":"3730045","prefectureKana":"ｸﾞﾝﾏｹﾝ","cityKana":"ｵｵﾀｼ","streetKana":"ｵｷﾉﾁｮｳ","prefecture":"群馬県","city":"太田市","street":"沖野町"},{"zipCode":"3730804","prefectureKana":"ｸﾞﾝﾏｹﾝ","cityKana":"ｵｵﾀｼ","streetKana":"ｵｷﾉｺﾞｳﾁｮｳ","prefecture":"群馬県","city":"太田市","street":"沖之郷町"},{"zipCode":"3730027","prefectureKana":"ｸﾞﾝﾏｹﾝ","cityKana":"ｵｵﾀｼ","streetKana":"ｶﾅﾔﾏﾁｮｳ","prefecture":"群馬県","city":"太田市","street":"金山町"},{"zipCode":"3730074","prefectureKana":"ｸﾞﾝﾏｹﾝ","cityKana":"ｵｵﾀｼ","streetKana":"ｶﾐｺﾞｳﾄﾞﾁｮｳ","prefecture":"群馬県","city":"太田市","street":"上強戸町"},{"zipCode":"3730024","prefectureKana":"ｸﾞﾝﾏｹﾝ","cityKana":"ｵｵﾀｼ","streetKana":"ｶﾐｺﾊﾞﾔｼﾁｮｳ","prefecture":"群馬県","city":"太田市","street":"上小林町"},{"zipCode":"3730044","prefectureKana":"ｸﾞﾝﾏｹﾝ","cityKana":"ｵｵﾀｼ","streetKana":"ｶﾐﾀｼﾞﾏﾁｮｳ","prefecture":"群馬県","city":"太田市","street":"上田島町"},{"zipCode":"3730003","prefectureKana":"ｸﾞﾝﾏｹﾝ","cityKana":"ｵｵﾀｼ","streetKana":"ｷﾀｶﾅｲﾁｮｳ","prefecture":"群馬県","city":"太田市","street":"北金井町"},{"zipCode":"3730012","prefectureKana":"ｸﾞﾝﾏｹﾝ","cityKana":"ｵｵﾀｼ","streetKana":"ｷﾖﾊﾗﾁｮｳ","prefecture":"群馬県","city":"太田市","street":"清原町"},{"zipCode":"3730025","prefectureKana":"ｸﾞﾝﾏｹﾝ","cityKana":"ｵｵﾀｼ","streetKana":"ｸﾏﾉﾁｮｳ","prefecture":"群馬県","city":"太田市","street":"熊野町"},{"zipCode":"3730004","prefectureKana":"ｸﾞﾝﾏｹﾝ","cityKana":"ｵｵﾀｼ","streetKana":"ｺﾞｳﾄﾞﾁｮｳ","prefecture":"群馬県","city":"太田市","street":"強戸町"},{"zipCode":"3730818","prefectureKana":"ｸﾞﾝﾏｹﾝ","cityKana":"ｵｵﾀｼ","streetKana":"ｺﾏｲｷﾞﾁｮｳ","prefecture":"群馬県","city":"太田市","street":"小舞木町"},{"zipCode":"3730807","prefectureKana":"ｸﾞﾝﾏｹﾝ","cityKana":"ｵｵﾀｼ","streetKana":"ｼﾓｺﾊﾞﾔｼﾁｮｳ","prefecture":"群馬県","city":"太田市","street":"下小林町"},{"zipCode":"3730844","prefectureKana":"ｸﾞﾝﾏｹﾝ","cityKana":"ｵｵﾀｼ","streetKana":"ｼﾓﾀｼﾞﾏﾁｮｳ","prefecture":"群馬県","city":"太田市","street":"下田島町"},{"zipCode":"3730821","prefectureKana":"ｸﾞﾝﾏｹﾝ","cityKana":"ｵｵﾀｼ","streetKana":"ｼﾓﾊﾏﾀﾞﾁｮｳ","prefecture":"群馬県","city":"太田市","street":"下浜田町"},{"zipCode":"3730038","prefectureKana":"ｸﾞﾝﾏｹﾝ","cityKana":"ｵｵﾀｼ","streetKana":"ｼﾞｮｳｻｲﾁｮｳ","prefecture":"群馬県","city":"太田市","street":"城西町"},{"zipCode":"3730822","prefectureKana":"ｸﾞﾝﾏｹﾝ","cityKana":"ｵｵﾀｼ","streetKana":"ｼｮｳﾔﾏﾁ","prefecture":"群馬県","city":"太田市","street":"庄屋町"},{"zipCode":"3730037","prefectureKana":"ｸﾞﾝﾏｹﾝ","cityKana":"ｵｵﾀｼ","streetKana":"ｼﾝﾄﾞｳﾁｮｳ","prefecture":"群馬県","city":"太田市","street":"新道町"},{"zipCode":"3730862","prefectureKana":"ｸﾞﾝﾏｹﾝ","cityKana":"ｵｵﾀｼ","streetKana":"ｽｴﾋﾛﾁｮｳ","prefecture":"群馬県","city":"太田市","street":"末広町"},{"zipCode":"3730002","prefectureKana":"ｸﾞﾝﾏｹﾝ","cityKana":"ｵｵﾀｼ","streetKana":"ｽｶﾞｼｵﾁｮｳ","prefecture":"群馬県","city":"太田市","street":"菅塩町"},{"zipCode":"3730028","prefectureKana":"ｸﾞﾝﾏｹﾝ","cityKana":"ｵｵﾀｼ","streetKana":"ｽﾊﾞﾙﾁｮｳ","prefecture":"群馬県","city":"太田市","street":"スバル町"},{"zipCode":"3730801","prefectureKana":"ｸﾞﾝﾏｹﾝ","cityKana":"ｵｵﾀｼ","streetKana":"ﾀﾞｲﾉｺﾞｳﾁｮｳ","prefecture":"群馬県","city":"太田市","street":"台之郷町"},{"zipCode":"3730072","prefectureKana":"ｸﾞﾝﾏｹﾝ","cityKana":"ｵｵﾀｼ","streetKana":"ﾀｶｾﾞﾁｮｳ","prefecture":"群馬県","city":"太田市","street":"高瀬町"},{"zipCode":"3730825","prefectureKana":"ｸﾞﾝﾏｹﾝ","cityKana":"ｵｵﾀｼ","streetKana":"ﾀｶﾊﾔｼﾋｶﾞｼﾁｮｳ","prefecture":"群馬県","city":"太田市","street":"高林東町"},{"zipCode":"3730828","prefectureKana":"ｸﾞﾝﾏｹﾝ","cityKana":"ｵｵﾀｼ","streetKana":"ﾀｶﾊﾔｼﾆｼﾁｮｳ","prefecture":"群馬県","city":"太田市","street":"高林西町"},{"zipCode":"3730827","prefectureKana":"ｸﾞﾝﾏｹﾝ","cityKana":"ｵｵﾀｼ","streetKana":"ﾀｶﾊﾔｼﾐﾅﾐﾁｮｳ","prefecture":"群馬県","city":"太田市","street":"高林南町"},{"zipCode":"3730829","prefectureKana":"ｸﾞﾝﾏｹﾝ","cityKana":"ｵｵﾀｼ","streetKana":"ﾀｶﾊﾔｼｷﾀﾁｮｳ","prefecture":"群馬県","city":"太田市","street":"高林北町"},{"zipCode":"3730824","prefectureKana":"ｸﾞﾝﾏｹﾝ","cityKana":"ｵｵﾀｼ","streetKana":"ﾀｶﾊﾔｼｺﾄﾌﾞｷﾁｮｳ","prefecture":"群馬県","city":"太田市","street":"高林寿町"},{"zipCode":"3730042","prefectureKana":"ｸﾞﾝﾏｹﾝ","cityKana":"ｵｵﾀｼ","streetKana":"ﾀｶﾗﾏﾁ","prefecture":"群馬県","city":"太田市","street":"宝町"},{"zipCode":"3730011","prefectureKana":"ｸﾞﾝﾏｹﾝ","cityKana":"ｵｵﾀｼ","streetKana":"ﾀﾀﾞｶﾘﾁｮｳ","prefecture":"群馬県","city":"太田市","street":"只上町"},{"zipCode":"3730008","prefectureKana":"ｸﾞﾝﾏｹﾝ","cityKana":"ｵｵﾀｼ","streetKana":"ﾂﾙｳﾀﾞﾁｮｳ","prefecture":"群馬県","city":"太田市","street":"鶴生田町"},{"zipCode":"3730052","prefectureKana":"ｸﾞﾝﾏｹﾝ","cityKana":"ｵｵﾀｼ","streetKana":"ﾃﾗｲﾁｮｳ","prefecture":"群馬県","city":"太田市","street":"寺井町"},{"zipCode":"3730051","prefectureKana":"ｸﾞﾝﾏｹﾝ","cityKana":"ｵｵﾀｼ","streetKana":"ﾃﾝﾗﾁｮｳ","prefecture":"群馬県","city":"太田市","street":"天良町"},{"zipCode":"3730832","prefectureKana":"ｸﾞﾝﾏｹﾝ","cityKana":"ｵｵﾀｼ","streetKana":"ﾄﾐｻﾞﾜﾁｮｳ","prefecture":"群馬県","city":"太田市","street":"富沢町"},{"zipCode":"3730023","prefectureKana":"ｸﾞﾝﾏｹﾝ","cityKana":"ｵｵﾀｼ","streetKana":"ﾄﾐﾜｶﾁｮｳ","prefecture":"群馬県","city":"太田市","street":"富若町"},{"zipCode":"3730053","prefectureKana":"ｸﾞﾝﾏｹﾝ","cityKana":"ｵｵﾀｼ","streetKana":"ﾄﾘﾔﾏﾁｮｳ","prefecture":"群馬県","city":"太田市","street":"鳥山町"},{"zipCode":"3730061","prefectureKana":"ｸﾞﾝﾏｹﾝ","cityKana":"ｵｵﾀｼ","streetKana":"ﾄﾘﾔﾏｶﾐﾁｮｳ","prefecture":"群馬県","city":"太田市","street":"鳥山上町"},{"zipCode":"3730062","prefectureKana":"ｸﾞﾝﾏｹﾝ","cityKana":"ｵｵﾀｼ","streetKana":"ﾄﾘﾔﾏﾅｶﾁｮｳ","prefecture":"群馬県","city":"太田市","street":"鳥山中町"},{"zipCode":"3730063","prefectureKana":"ｸﾞﾝﾏｹﾝ","cityKana":"ｵｵﾀｼ","streetKana":"ﾄﾘﾔﾏｼﾓﾁｮｳ","prefecture":"群馬県","city":"太田市","street":"鳥山下町"},{"zipCode":"3730846","prefectureKana":"ｸﾞﾝﾏｹﾝ","cityKana":"ｵｵﾀｼ","streetKana":"ﾅｶﾈﾁｮｳ","prefecture":"群馬県","city":"太田市","street":"中根町"},{"zipCode":"3730054","prefectureKana":"ｸﾞﾝﾏｹﾝ","cityKana":"ｵｵﾀｼ","streetKana":"ﾅｶﾞﾃﾁｮｳ","prefecture":"群馬県","city":"太田市","street":"長手町"},{"zipCode":"3730006","prefectureKana":"ｸﾞﾝﾏｹﾝ","cityKana":"ｵｵﾀｼ","streetKana":"ﾅﾘﾂﾞｶﾁｮｳ","prefecture":"群馬県","city":"太田市","street":"成塚町"},{"zipCode":"3730819","prefectureKana":"ｸﾞﾝﾏｹﾝ","cityKana":"ｵｵﾀｼ","streetKana":"ﾆｲｼﾞﾏﾁｮｳ","prefecture":"群馬県","city":"太田市","street":"新島町"},{"zipCode":"3730032","prefectureKana":"ｸﾞﾝﾏｹﾝ","cityKana":"ｵｵﾀｼ","streetKana":"ﾆｲﾉﾁｮｳ","prefecture":"群馬県","city":"太田市","street":"新野町"},{"zipCode":"3730847","prefectureKana":"ｸﾞﾝﾏｹﾝ","cityKana":"ｵｵﾀｼ","streetKana":"ﾆｼｼﾝﾏﾁ","prefecture":"群馬県","city":"太田市","street":"西新町"},{"zipCode":"3730001","prefectureKana":"ｸﾞﾝﾏｹﾝ","cityKana":"ｵｵﾀｼ","streetKana":"ﾆｼﾅｶﾞｵｶﾁｮｳ","prefecture":"群馬県","city":"太田市","street":"西長岡町"},{"zipCode":"3730043","prefectureKana":"ｸﾞﾝﾏｹﾝ","cityKana":"ｵｵﾀｼ","streetKana":"ﾆｼﾉﾔﾁｮｳ","prefecture":"群馬県","city":"太田市","street":"西野谷町"},{"zipCode":"3730033","prefectureKana":"ｸﾞﾝﾏｹﾝ","cityKana":"ｵｵﾀｼ","streetKana":"ﾆｼﾎﾝﾁｮｳ","prefecture":"群馬県","city":"太田市","street":"西本町"},{"zipCode":"3730823","prefectureKana":"ｸﾞﾝﾏｹﾝ","cityKana":"ｵｵﾀｼ","streetKana":"ﾆｼﾔｼﾞﾏﾁｮｳ","prefecture":"群馬県","city":"太田市","street":"西矢島町"},{"zipCode":"3730029","prefectureKana":"ｸﾞﾝﾏｹﾝ","cityKana":"ｵｵﾀｼ","streetKana":"ﾆﾗｶﾞﾜﾁｮｳ","prefecture":"群馬県","city":"太田市","street":"韮川町"},{"zipCode":"3730056","prefectureKana":"ｸﾞﾝﾏｹﾝ","cityKana":"ｵｵﾀｼ","streetKana":"ﾊﾁﾏﾝﾁｮｳ","prefecture":"群馬県","city":"太田市","street":"八幡町"},{"zipCode":"3730853","prefectureKana":"ｸﾞﾝﾏｹﾝ","cityKana":"ｵｵﾀｼ","streetKana":"ﾊﾏﾁｮｳ","prefecture":"群馬県","city":"太田市","street":"浜町"},{"zipCode":"3730071","prefectureKana":"ｸﾞﾝﾏｹﾝ","cityKana":"ｵｵﾀｼ","streetKana":"ﾊﾗｼﾞｭｸﾁｮｳ","prefecture":"群馬県","city":"太田市","street":"原宿町"},{"zipCode":"3730021","prefectureKana":"ｸﾞﾝﾏｹﾝ","cityKana":"ｵｵﾀｼ","streetKana":"ﾋｶﾞｼｲﾏｲｽﾞﾐﾁｮｳ","prefecture":"群馬県","city":"太田市","street":"東今泉町"},{"zipCode":"3730022","prefectureKana":"ｸﾞﾝﾏｹﾝ","cityKana":"ｵｵﾀｼ","streetKana":"ﾋｶﾞｼｶﾅｲﾁｮｳ","prefecture":"群馬県","city":"太田市","street":"東金井町"},{"zipCode":"3730015","prefectureKana":"ｸﾞﾝﾏｹﾝ","cityKana":"ｵｵﾀｼ","streetKana":"ﾋｶﾞｼｼﾝﾏﾁ","prefecture":"群馬県","city":"太田市","street":"東新町"},{"zipCode":"3730812","prefectureKana":"ｸﾞﾝﾏｹﾝ","cityKana":"ｵｵﾀｼ","streetKana":"ﾋｶﾞｼﾅｶﾞｵｶﾁｮｳ","prefecture":"群馬県","city":"太田市","street":"東長岡町"},{"zipCode":"3730815","prefectureKana":"ｸﾞﾝﾏｹﾝ","cityKana":"ｵｵﾀｼ","streetKana":"ﾋｶﾞｼﾍﾞｯｼｮﾁｮｳ","prefecture":"群馬県","city":"太田市","street":"東別所町"},{"zipCode":"3730026","prefectureKana":"ｸﾞﾝﾏｹﾝ","cityKana":"ｵｵﾀｼ","streetKana":"ﾋｶﾞｼﾎﾝﾁｮｳ","prefecture":"群馬県","city":"太田市","street":"東本町"},{"zipCode":"3730816","prefectureKana":"ｸﾞﾝﾏｹﾝ","cityKana":"ｵｵﾀｼ","streetKana":"ﾋｶﾞｼﾔｼﾞﾏﾁｮｳ","prefecture":"群馬県","city":"太田市","street":"東矢島町"},{"zipCode":"3730831","prefectureKana":"ｸﾞﾝﾏｹﾝ","cityKana":"ｵｵﾀｼ","streetKana":"ﾌｸｻﾞﾜﾁｮｳ","prefecture":"群馬県","city":"太田市","street":"福沢町"},{"zipCode":"3730034","prefectureKana":"ｸﾞﾝﾏｹﾝ","cityKana":"ｵｵﾀｼ","streetKana":"ﾌｼﾞｱｸﾞﾁｮｳ","prefecture":"群馬県","city":"太田市","street":"藤阿久町"},{"zipCode":"3730035","prefectureKana":"ｸﾞﾝﾏｹﾝ","cityKana":"ｵｵﾀｼ","streetKana":"ﾌｼﾞｸﾗﾁｮｳ","prefecture":"群馬県","city":"太田市","street":"藤久良町"},{"zipCode":"3730826","prefectureKana":"ｸﾞﾝﾏｹﾝ","cityKana":"ｵｵﾀｼ","streetKana":"ﾌﾙﾄﾁｮｳ","prefecture":"群馬県","city":"太田市","street":"古戸町"},{"zipCode":"3730041","prefectureKana":"ｸﾞﾝﾏｹﾝ","cityKana":"ｵｵﾀｼ","streetKana":"ﾍﾞｯｼｮﾁｮｳ","prefecture":"群馬県","city":"太田市","street":"別所町"},{"zipCode":"3730842","prefectureKana":"ｸﾞﾝﾏｹﾝ","cityKana":"ｵｵﾀｼ","streetKana":"ﾎｿﾔﾁｮｳ","prefecture":"群馬県","city":"太田市","street":"細谷町"},{"zipCode":"3730057","prefectureKana":"ｸﾞﾝﾏｹﾝ","cityKana":"ｵｵﾀｼ","streetKana":"ﾎﾝﾁｮｳ","prefecture":"群馬県","city":"太田市","street":"本町"},{"zipCode":"3730018","prefectureKana":"ｸﾞﾝﾏｹﾝ","cityKana":"ｵｵﾀｼ","streetKana":"ﾏﾙﾔﾏﾁｮｳ","prefecture":"群馬県","city":"太田市","street":"丸山町"},{"zipCode":"3730073","prefectureKana":"ｸﾞﾝﾏｹﾝ","cityKana":"ｵｵﾀｼ","streetKana":"ﾐﾄﾞﾘﾁｮｳ","prefecture":"群馬県","city":"太田市","street":"緑町"},{"zipCode":"3730861","prefectureKana":"ｸﾞﾝﾏｹﾝ","cityKana":"ｵｵﾀｼ","streetKana":"ﾐﾅﾐﾔｼﾞﾏﾁｮｳ","prefecture":"群馬県","city":"太田市","street":"南矢島町"},{"zipCode":"3730809","prefectureKana":"ｸﾞﾝﾏｹﾝ","cityKana":"ｵｵﾀｼ","streetKana":"ﾓﾃｷﾞﾁｮｳ","prefecture":"群馬県","city":"太田市","street":"茂木町"},{"zipCode":"3730805","prefectureKana":"ｸﾞﾝﾏｹﾝ","cityKana":"ｵｵﾀｼ","streetKana":"ﾔｴｶﾞｻﾁｮｳ","prefecture":"群馬県","city":"太田市","street":"八重笠町"},{"zipCode":"3730811","prefectureKana":"ｸﾞﾝﾏｹﾝ","cityKana":"ｵｵﾀｼ","streetKana":"ﾔｽﾗｵｶﾁｮｳ","prefecture":"群馬県","city":"太田市","street":"安良岡町"},{"zipCode":"3730016","prefectureKana":"ｸﾞﾝﾏｹﾝ","cityKana":"ｵｵﾀｼ","streetKana":"ﾔﾀﾎﾞﾘﾁｮｳ","prefecture":"群馬県","city":"太田市","street":"矢田堀町"},{"zipCode":"3730803","prefectureKana":"ｸﾞﾝﾏｹﾝ","cityKana":"ｵｵﾀｼ","streetKana":"ﾔﾊﾞﾁｮｳ","prefecture":"群馬県","city":"太田市","street":"矢場町"},{"zipCode":"3730802","prefectureKana":"ｸﾞﾝﾏｹﾝ","cityKana":"ｵｵﾀｼ","streetKana":"ﾔﾊﾞｼﾝﾏﾁ","prefecture":"群馬県","city":"太田市","street":"矢場新町"},{"zipCode":"3730036","prefectureKana":"ｸﾞﾝﾏｹﾝ","cityKana":"ｵｵﾀｼ","streetKana":"ﾕﾗﾁｮｳ","prefecture":"群馬県","city":"太田市","street":"由良町"},{"zipCode":"3730019","prefectureKana":"ｸﾞﾝﾏｹﾝ","cityKana":"ｵｵﾀｼ","streetKana":"ﾖｼｻﾞﾜﾁｮｳ","prefecture":"群馬県","city":"太田市","street":"吉沢町"},{"zipCode":"3730843","prefectureKana":"ｸﾞﾝﾏｹﾝ","cityKana":"ｵｵﾀｼ","streetKana":"ﾖﾈｻﾞﾜﾁｮｳ","prefecture":"群馬県","city":"太田市","street":"米沢町"},{"zipCode":"3730806","prefectureKana":"ｸﾞﾝﾏｹﾝ","cityKana":"ｵｵﾀｼ","streetKana":"ﾘｭｳﾏｲﾁｮｳ","prefecture":"群馬県","city":"太田市","street":"龍舞町"},{"zipCode":"3730031","prefectureKana":"ｸﾞﾝﾏｹﾝ","cityKana":"ｵｵﾀｼ","streetKana":"ﾜｷﾔﾁｮｳ","prefecture":"群馬県","city":"太田市","street":"脇屋町"}]