[{"zipCode":"3780000","prefectureKana":"ｸﾞﾝﾏｹﾝ","cityKana":"ﾇﾏﾀｼ","streetKana":"ｲｶﾆｹｲｻｲｶﾞﾅｲﾊﾞｱｲ","prefecture":"群馬県","city":"沼田市","street":"以下に掲載がない場合"},{"zipCode":"3780076","prefectureKana":"ｸﾞﾝﾏｹﾝ","cityKana":"ﾇﾏﾀｼ","streetKana":"ｱｷﾂﾞｶﾏﾁ","prefecture":"群馬県","city":"沼田市","street":"秋塚町"},{"zipCode":"3780077","prefectureKana":"ｸﾞﾝﾏｹﾝ","cityKana":"ﾇﾏﾀｼ","streetKana":"ｲｼｽﾞﾐﾏﾁ","prefecture":"群馬県","city":"沼田市","street":"石墨町"},{"zipCode":"3780035","prefectureKana":"ｸﾞﾝﾏｹﾝ","cityKana":"ﾇﾏﾀｼ","streetKana":"ｲﾄﾞﾉｳｴﾏﾁ","prefecture":"群馬県","city":"沼田市","street":"井土上町"},{"zipCode":"3780025","prefectureKana":"ｸﾞﾝﾏｹﾝ","cityKana":"ﾇﾏﾀｼ","streetKana":"ｲﾏｲﾏﾁ","prefecture":"群馬県","city":"沼田市","street":"今井町"},{"zipCode":"3780021","prefectureKana":"ｸﾞﾝﾏｹﾝ","cityKana":"ﾇﾏﾀｼ","streetKana":"ｲﾜﾓﾄﾏﾁ","prefecture":"群馬県","city":"沼田市","street":"岩本町"},{"zipCode":"3780031","prefectureKana":"ｸﾞﾝﾏｹﾝ","cityKana":"ﾇﾏﾀｼ","streetKana":"ｳｽﾈﾏﾁ","prefecture":"群馬県","city":"沼田市","street":"薄根町"},{"zipCode":"3780068","prefectureKana":"ｸﾞﾝﾏｹﾝ","cityKana":"ﾇﾏﾀｼ","streetKana":"ｳｿｲﾏﾁ","prefecture":"群馬県","city":"沼田市","street":"宇楚井町"},{"zipCode":"3780067","prefectureKana":"ｸﾞﾝﾏｹﾝ","cityKana":"ﾇﾏﾀｼ","streetKana":"ｵｵｶﾞﾏﾏﾁ","prefecture":"群馬県","city":"沼田市","street":"大釜町"},{"zipCode":"3780061","prefectureKana":"ｸﾞﾝﾏｹﾝ","cityKana":"ﾇﾏﾀｼ","streetKana":"ｵｶﾔﾏﾁ","prefecture":"群馬県","city":"沼田市","street":"岡谷町"},{"zipCode":"3780034","prefectureKana":"ｸﾞﾝﾏｹﾝ","cityKana":"ﾇﾏﾀｼ","streetKana":"ｵﾝﾀﾞﾏﾁ","prefecture":"群馬県","city":"沼田市","street":"恩田町"},{"zipCode":"3780018","prefectureKana":"ｸﾞﾝﾏｹﾝ","cityKana":"ﾇﾏﾀｼ","streetKana":"ｶｼﾞﾏﾁ","prefecture":"群馬県","city":"沼田市","street":"鍛冶町"},{"zipCode":"3780026","prefectureKana":"ｸﾞﾝﾏｹﾝ","cityKana":"ﾇﾏﾀｼ","streetKana":"ｶﾐｶﾜﾀﾞﾏﾁ","prefecture":"群馬県","city":"沼田市","street":"上川田町"},{"zipCode":"3780003","prefectureKana":"ｸﾞﾝﾏｹﾝ","cityKana":"ﾇﾏﾀｼ","streetKana":"ｶﾐｸﾔﾏﾁ","prefecture":"群馬県","city":"沼田市","street":"上久屋町"},{"zipCode":"3780011","prefectureKana":"ｸﾞﾝﾏｹﾝ","cityKana":"ﾇﾏﾀｼ","streetKana":"ｶﾐﾇﾏｽﾏﾁ","prefecture":"群馬県","city":"沼田市","street":"上沼須町"},{"zipCode":"3780047","prefectureKana":"ｸﾞﾝﾏｹﾝ","cityKana":"ﾇﾏﾀｼ","streetKana":"ｶﾐﾉﾁｮｳ","prefecture":"群馬県","city":"沼田市","street":"上之町"},{"zipCode":"3780051","prefectureKana":"ｸﾞﾝﾏｹﾝ","cityKana":"ﾇﾏﾀｼ","streetKana":"ｶﾐﾊﾗﾏﾁ","prefecture":"群馬県","city":"沼田市","street":"上原町"},{"zipCode":"3780071","prefectureKana":"ｸﾞﾝﾏｹﾝ","cityKana":"ﾇﾏﾀｼ","streetKana":"ｶﾐﾎｯﾁﾏﾁ","prefecture":"群馬県","city":"沼田市","street":"上発知町"},{"zipCode":"3780005","prefectureKana":"ｸﾞﾝﾏｹﾝ","cityKana":"ﾇﾏﾀｼ","streetKana":"ｸﾔﾊﾗﾏﾁ","prefecture":"群馬県","city":"沼田市","street":"久屋原町"},{"zipCode":"3780045","prefectureKana":"ｸﾞﾝﾏｹﾝ","cityKana":"ﾇﾏﾀｼ","streetKana":"ｻﾞｲﾓｸﾁｮｳ","prefecture":"群馬県","city":"沼田市","street":"材木町"},{"zipCode":"3780014","prefectureKana":"ｸﾞﾝﾏｹﾝ","cityKana":"ﾇﾏﾀｼ","streetKana":"ｻｶｴﾏﾁ","prefecture":"群馬県","city":"沼田市","street":"栄町"},{"zipCode":"3780052","prefectureKana":"ｸﾞﾝﾏｹﾝ","cityKana":"ﾇﾏﾀｼ","streetKana":"ｻｸﾗﾏﾁ","prefecture":"群馬県","city":"沼田市","street":"桜町"},{"zipCode":"3780023","prefectureKana":"ｸﾞﾝﾏｹﾝ","cityKana":"ﾇﾏﾀｼ","streetKana":"ｻｻｵﾏﾁ","prefecture":"群馬県","city":"沼田市","street":"篠尾町"},{"zipCode":"3780078","prefectureKana":"ｸﾞﾝﾏｹﾝ","cityKana":"ﾇﾏﾀｼ","streetKana":"ｻﾔﾏﾏﾁ","prefecture":"群馬県","city":"沼田市","street":"佐山町"},{"zipCode":"3780016","prefectureKana":"ｸﾞﾝﾏｹﾝ","cityKana":"ﾇﾏﾀｼ","streetKana":"ｼﾐｽﾞﾁｮｳ","prefecture":"群馬県","city":"沼田市","street":"清水町"},{"zipCode":"3780024","prefectureKana":"ｸﾞﾝﾏｹﾝ","cityKana":"ﾇﾏﾀｼ","streetKana":"ｼﾓｶﾜﾀﾞﾏﾁ","prefecture":"群馬県","city":"沼田市","street":"下川田町"},{"zipCode":"3780004","prefectureKana":"ｸﾞﾝﾏｹﾝ","cityKana":"ﾇﾏﾀｼ","streetKana":"ｼﾓｸﾔﾏﾁ","prefecture":"群馬県","city":"沼田市","street":"下久屋町"},{"zipCode":"3780063","prefectureKana":"ｸﾞﾝﾏｹﾝ","cityKana":"ﾇﾏﾀｼ","streetKana":"ｼﾓﾇﾏﾀﾏﾁ","prefecture":"群馬県","city":"沼田市","street":"下沼田町"},{"zipCode":"3780044","prefectureKana":"ｸﾞﾝﾏｹﾝ","cityKana":"ﾇﾏﾀｼ","streetKana":"ｼﾓﾉﾁｮｳ","prefecture":"群馬県","city":"沼田市","street":"下之町"},{"zipCode":"3780074","prefectureKana":"ｸﾞﾝﾏｹﾝ","cityKana":"ﾇﾏﾀｼ","streetKana":"ｼﾓﾎｯﾁﾏﾁ","prefecture":"群馬県","city":"沼田市","street":"下発知町"},{"zipCode":"3780033","prefectureKana":"ｸﾞﾝﾏｹﾝ","cityKana":"ﾇﾏﾀｼ","streetKana":"ｼﾗｲﾜﾏﾁ","prefecture":"群馬県","city":"沼田市","street":"白岩町"},{"zipCode":"3780123","prefectureKana":"ｸﾞﾝﾏｹﾝ","cityKana":"ﾇﾏﾀｼ","streetKana":"ｼﾗｻﾜﾏﾁｲﾜﾑﾛ","prefecture":"群馬県","city":"沼田市","street":"白沢町岩室"},{"zipCode":"3780124","prefectureKana":"ｸﾞﾝﾏｹﾝ","cityKana":"ﾇﾏﾀｼ","streetKana":"ｼﾗｻﾜﾏﾁｵｱｲ","prefecture":"群馬県","city":"沼田市","street":"白沢町尾合"},{"zipCode":"3780126","prefectureKana":"ｸﾞﾝﾏｹﾝ","cityKana":"ﾇﾏﾀｼ","streetKana":"ｼﾗｻﾜﾏﾁｶﾐｺｺﾌﾞ","prefecture":"群馬県","city":"沼田市","street":"白沢町上古語父"},{"zipCode":"3780127","prefectureKana":"ｸﾞﾝﾏｹﾝ","cityKana":"ﾇﾏﾀｼ","streetKana":"ｼﾗｻﾜﾏﾁｼﾓｺｺﾌﾞ","prefecture":"群馬県","city":"沼田市","street":"白沢町下古語父"},{"zipCode":"3780121","prefectureKana":"ｸﾞﾝﾏｹﾝ","cityKana":"ﾇﾏﾀｼ","streetKana":"ｼﾗｻﾜﾏﾁﾀｶﾋﾗ","prefecture":"群馬県","city":"沼田市","street":"白沢町高平"},{"zipCode":"3780122","prefectureKana":"ｸﾞﾝﾏｹﾝ","cityKana":"ﾇﾏﾀｼ","streetKana":"ｼﾗｻﾜﾏﾁﾅﾏｴ","prefecture":"群馬県","city":"沼田市","street":"白沢町生枝"},{"zipCode":"3780125","prefectureKana":"ｸﾞﾝﾏｹﾝ","cityKana":"ﾇﾏﾀｼ","streetKana":"ｼﾗｻﾜﾏﾁﾋﾗｲﾃﾞ","prefecture":"群馬県","city":"沼田市","street":"白沢町平出"},{"zipCode":"3780013","prefectureKana":"ｸﾞﾝﾏｹﾝ","cityKana":"ﾇﾏﾀｼ","streetKana":"ｼﾝﾏﾁ","prefecture":"群馬県","city":"沼田市","street":"新町"},{"zipCode":"3780032","prefectureKana":"ｸﾞﾝﾏｹﾝ","cityKana":"ﾇﾏﾀｼ","streetKana":"ｽｽﾞﾘﾀﾞﾏﾁ","prefecture":"群馬県","city":"沼田市","street":"硯田町"},{"zipCode":"3780064","prefectureKana":"ｸﾞﾝﾏｹﾝ","cityKana":"ﾇﾏﾀｼ","streetKana":"ｾﾞﾝｹｲｼﾞﾏﾁ","prefecture":"群馬県","city":"沼田市","street":"善桂寺町"},{"zipCode":"3780056","prefectureKana":"ｸﾞﾝﾏｹﾝ","cityKana":"ﾇﾏﾀｼ","streetKana":"ﾀｶﾊｼﾊﾞﾏﾁ","prefecture":"群馬県","city":"沼田市","street":"高橋場町"},{"zipCode":"3780015","prefectureKana":"ｸﾞﾝﾏｹﾝ","cityKana":"ﾇﾏﾀｼ","streetKana":"ﾄｶﾞﾉﾏﾁ","prefecture":"群馬県","city":"沼田市","street":"戸鹿野町"},{"zipCode":"3780001","prefectureKana":"ｸﾞﾝﾏｹﾝ","cityKana":"ﾇﾏﾀｼ","streetKana":"ﾄｶﾐﾏﾁ","prefecture":"群馬県","city":"沼田市","street":"戸神町"},{"zipCode":"3780314","prefectureKana":"ｸﾞﾝﾏｹﾝ","cityKana":"ﾇﾏﾀｼ","streetKana":"ﾄﾈﾏﾁｱｵｷ","prefecture":"群馬県","city":"沼田市","street":"利根町青木"},{"zipCode":"3780305","prefectureKana":"ｸﾞﾝﾏｹﾝ","cityKana":"ﾇﾏﾀｼ","streetKana":"ﾄﾈﾏﾁｱﾅﾊﾞﾗ","prefecture":"群馬県","city":"沼田市","street":"利根町穴原"},{"zipCode":"3780326","prefectureKana":"ｸﾞﾝﾏｹﾝ","cityKana":"ﾇﾏﾀｼ","streetKana":"ﾄﾈﾏﾁｲｼﾄﾞｼﾝﾃﾞﾝ","prefecture":"群馬県","city":"沼田市","street":"利根町石戸新田"},{"zipCode":"3780322","prefectureKana":"ｸﾞﾝﾏｹﾝ","cityKana":"ﾇﾏﾀｼ","streetKana":"ﾄﾈﾏﾁｵｲｶﾞﾐ","prefecture":"群馬県","city":"沼田市","street":"利根町老神"},{"zipCode":"3780323","prefectureKana":"ｸﾞﾝﾏｹﾝ","cityKana":"ﾇﾏﾀｼ","streetKana":"ﾄﾈﾏﾁｵｵﾊﾗ","prefecture":"群馬県","city":"沼田市","street":"利根町大原"},{"zipCode":"3780304","prefectureKana":"ｸﾞﾝﾏｹﾝ","cityKana":"ﾇﾏﾀｼ","streetKana":"ﾄﾈﾏﾁｵｵﾖｳ","prefecture":"群馬県","city":"沼田市","street":"利根町大楊"},{"zipCode":"3780303","prefectureKana":"ｸﾞﾝﾏｹﾝ","cityKana":"ﾇﾏﾀｼ","streetKana":"ﾄﾈﾏﾁｵｯｶｲ","prefecture":"群馬県","city":"沼田市","street":"利根町追貝"},{"zipCode":"3780307","prefectureKana":"ｸﾞﾝﾏｹﾝ","cityKana":"ﾇﾏﾀｼ","streetKana":"ﾄﾈﾏﾁｶｷﾀﾞｲﾗ","prefecture":"群馬県","city":"沼田市","street":"利根町柿平"},{"zipCode":"3780311","prefectureKana":"ｸﾞﾝﾏｹﾝ","cityKana":"ﾇﾏﾀｼ","streetKana":"ﾄﾈﾏﾁｺﾏﾂ","prefecture":"群馬県","city":"沼田市","street":"利根町小松"},{"zipCode":"3780315","prefectureKana":"ｸﾞﾝﾏｹﾝ","cityKana":"ﾇﾏﾀｼ","streetKana":"ﾄﾈﾏﾁｽﾅｶﾞﾜ","prefecture":"群馬県","city":"沼田市","street":"利根町砂川"},{"zipCode":"3780324","prefectureKana":"ｸﾞﾝﾏｹﾝ","cityKana":"ﾇﾏﾀｼ","streetKana":"ﾄﾈﾏﾁｿﾉﾊﾗ","prefecture":"群馬県","city":"沼田市","street":"利根町園原"},{"zipCode":"3780321","prefectureKana":"ｸﾞﾝﾏｹﾝ","cityKana":"ﾇﾏﾀｼ","streetKana":"ﾄﾈﾏﾁﾀｶﾄﾔ","prefecture":"群馬県","city":"沼田市","street":"利根町高戸谷"},{"zipCode":"3780317","prefectureKana":"ｸﾞﾝﾏｹﾝ","cityKana":"ﾇﾏﾀｼ","streetKana":"ﾄﾈﾏﾁﾀﾅ","prefecture":"群馬県","city":"沼田市","street":"利根町多那"},{"zipCode":"3780302","prefectureKana":"ｸﾞﾝﾏｹﾝ","cityKana":"ﾇﾏﾀｼ","streetKana":"ﾄﾈﾏﾁﾁﾄﾞﾘ","prefecture":"群馬県","city":"沼田市","street":"利根町千鳥"},{"zipCode":"3780316","prefectureKana":"ｸﾞﾝﾏｹﾝ","cityKana":"ﾇﾏﾀｼ","streetKana":"ﾄﾈﾏﾁﾆﾎﾝﾏﾂ","prefecture":"群馬県","city":"沼田市","street":"利根町二本松"},{"zipCode":"3780312","prefectureKana":"ｸﾞﾝﾏｹﾝ","cityKana":"ﾇﾏﾀｼ","streetKana":"ﾄﾈﾏﾁﾈﾘ","prefecture":"群馬県","city":"沼田市","street":"利根町根利"},{"zipCode":"3780313","prefectureKana":"ｸﾞﾝﾏｹﾝ","cityKana":"ﾇﾏﾀｼ","streetKana":"ﾄﾈﾏﾁﾋｶｹﾞﾅﾝｺﾞｳ","prefecture":"群馬県","city":"沼田市","street":"利根町日影南郷"},{"zipCode":"3780306","prefectureKana":"ｸﾞﾝﾏｹﾝ","cityKana":"ﾇﾏﾀｼ","streetKana":"ﾄﾈﾏﾁﾋﾅﾀﾅﾝｺﾞｳ","prefecture":"群馬県","city":"沼田市","street":"利根町日向南郷"},{"zipCode":"3780301","prefectureKana":"ｸﾞﾝﾏｹﾝ","cityKana":"ﾇﾏﾀｼ","streetKana":"ﾄﾈﾏﾁﾋﾗｶﾞﾜ","prefecture":"群馬県","city":"沼田市","street":"利根町平川"},{"zipCode":"3780325","prefectureKana":"ｸﾞﾝﾏｹﾝ","cityKana":"ﾇﾏﾀｼ","streetKana":"ﾄﾈﾏﾁﾜｸﾐ","prefecture":"群馬県","city":"沼田市","street":"利根町輪組"},{"zipCode":"3780072","prefectureKana":"ｸﾞﾝﾏｹﾝ","cityKana":"ﾇﾏﾀｼ","streetKana":"ﾅｶﾎｯﾁﾏﾁ","prefecture":"群馬県","city":"沼田市","street":"中発知町"},{"zipCode":"3780048","prefectureKana":"ｸﾞﾝﾏｹﾝ","cityKana":"ﾇﾏﾀｼ","streetKana":"ﾅｶﾏﾁ","prefecture":"群馬県","city":"沼田市","street":"中町"},{"zipCode":"3780075","prefectureKana":"ｸﾞﾝﾏｹﾝ","cityKana":"ﾇﾏﾀｼ","streetKana":"ﾅﾗﾏﾁ","prefecture":"群馬県","city":"沼田市","street":"奈良町"},{"zipCode":"3780042","prefectureKana":"ｸﾞﾝﾏｹﾝ","cityKana":"ﾇﾏﾀｼ","streetKana":"ﾆｼｸﾗｳﾁﾏﾁ","prefecture":"群馬県","city":"沼田市","street":"西倉内町"},{"zipCode":"3780054","prefectureKana":"ｸﾞﾝﾏｹﾝ","cityKana":"ﾇﾏﾀｼ","streetKana":"ﾆｼﾊﾗｼﾝﾏﾁ","prefecture":"群馬県","city":"沼田市","street":"西原新町"},{"zipCode":"3780012","prefectureKana":"ｸﾞﾝﾏｹﾝ","cityKana":"ﾇﾏﾀｼ","streetKana":"ﾇﾏｽﾏﾁ","prefecture":"群馬県","city":"沼田市","street":"沼須町"},{"zipCode":"3780046","prefectureKana":"ｸﾞﾝﾏｹﾝ","cityKana":"ﾇﾏﾀｼ","streetKana":"ﾊﾞｸﾛｳﾏﾁ","prefecture":"群馬県","city":"沼田市","street":"馬喰町"},{"zipCode":"3780066","prefectureKana":"ｸﾞﾝﾏｹﾝ","cityKana":"ﾇﾏﾀｼ","streetKana":"ﾊﾗﾏﾁ","prefecture":"群馬県","city":"沼田市","street":"原町"},{"zipCode":"3780041","prefectureKana":"ｸﾞﾝﾏｹﾝ","cityKana":"ﾇﾏﾀｼ","streetKana":"ﾊﾙﾅﾏﾁ","prefecture":"群馬県","city":"沼田市","street":"榛名町"},{"zipCode":"3780043","prefectureKana":"ｸﾞﾝﾏｹﾝ","cityKana":"ﾇﾏﾀｼ","streetKana":"ﾋｶﾞｼｸﾗｳﾁﾏﾁ","prefecture":"群馬県","city":"沼田市","street":"東倉内町"},{"zipCode":"3780053","prefectureKana":"ｸﾞﾝﾏｹﾝ","cityKana":"ﾇﾏﾀｼ","streetKana":"ﾋｶﾞｼﾊﾗｼﾝﾏﾁ","prefecture":"群馬県","city":"沼田市","street":"東原新町"},{"zipCode":"3780017","prefectureKana":"ｸﾞﾝﾏｹﾝ","cityKana":"ﾇﾏﾀｼ","streetKana":"ﾎﾞｳｼﾝﾃﾞﾝﾏﾁ","prefecture":"群馬県","city":"沼田市","street":"坊新田町"},{"zipCode":"3780073","prefectureKana":"ｸﾞﾝﾏｹﾝ","cityKana":"ﾇﾏﾀｼ","streetKana":"ﾎｯﾁｼﾝﾃﾞﾝﾏﾁ","prefecture":"群馬県","city":"沼田市","street":"発知新田町"},{"zipCode":"3780065","prefectureKana":"ｸﾞﾝﾏｹﾝ","cityKana":"ﾇﾏﾀｼ","streetKana":"ﾎﾘﾒｸﾞﾘﾏﾁ","prefecture":"群馬県","city":"沼田市","street":"堀廻町"},{"zipCode":"3780062","prefectureKana":"ｸﾞﾝﾏｹﾝ","cityKana":"ﾇﾏﾀｼ","streetKana":"ﾏﾁﾀﾞﾏﾁ","prefecture":"群馬県","city":"沼田市","street":"町田町"},{"zipCode":"3780022","prefectureKana":"ｸﾞﾝﾏｹﾝ","cityKana":"ﾇﾏﾀｼ","streetKana":"ﾔｶﾀﾊﾞﾗﾏﾁ","prefecture":"群馬県","city":"沼田市","street":"屋形原町"},{"zipCode":"3780055","prefectureKana":"ｸﾞﾝﾏｹﾝ","cityKana":"ﾇﾏﾀｼ","streetKana":"ﾔﾅｷﾞﾏﾁ","prefecture":"群馬県","city":"沼田市","street":"柳町"},{"zipCode":"3780002","prefectureKana":"ｸﾞﾝﾏｹﾝ","cityKana":"ﾇﾏﾀｼ","streetKana":"ﾖｺﾂﾞｶﾏﾁ","prefecture":"群馬県","city":"沼田市","street":"横塚町"},{"zipCode":"3780400","prefectureKana":"ｸﾞﾝﾏｹﾝ","cityKana":"ﾄﾈｸﾞﾝｶﾀｼﾅﾑﾗ","streetKana":"ｲｶﾆｹｲｻｲｶﾞﾅｲﾊﾞｱｲ","prefecture":"群馬県","city":"利根郡片品村","street":"以下に掲載がない場合"},{"zipCode":"3780415","prefectureKana":"ｸﾞﾝﾏｹﾝ","cityKana":"ﾄﾈｸﾞﾝｶﾀｼﾅﾑﾗ","streetKana":"ｶﾏﾀﾞ","prefecture":"群馬県","city":"利根郡片品村","street":"鎌田"},{"zipCode":"3780413","prefectureKana":"ｸﾞﾝﾏｹﾝ","cityKana":"ﾄﾈｸﾞﾝｶﾀｼﾅﾑﾗ","streetKana":"ｺｼﾓﾄ","prefecture":"群馬県","city":"利根郡片品村","street":"越本"},{"zipCode":"3780405","prefectureKana":"ｸﾞﾝﾏｹﾝ","cityKana":"ﾄﾈｸﾞﾝｶﾀｼﾅﾑﾗ","streetKana":"ｼﾓﾀﾞｲﾗ","prefecture":"群馬県","city":"利根郡片品村","street":"下平"},{"zipCode":"3780401","prefectureKana":"ｸﾞﾝﾏｹﾝ","cityKana":"ﾄﾈｸﾞﾝｶﾀｼﾅﾑﾗ","streetKana":"ｽｶｶﾞﾜ","prefecture":"群馬県","city":"利根郡片品村","street":"須賀川"},{"zipCode":"3780403","prefectureKana":"ｸﾞﾝﾏｹﾝ","cityKana":"ﾄﾈｸﾞﾝｶﾀｼﾅﾑﾗ","streetKana":"ｽｶﾞﾇﾏ","prefecture":"群馬県","city":"利根郡片品村","street":"菅沼"},{"zipCode":"3780406","prefectureKana":"ｸﾞﾝﾏｹﾝ","cityKana":"ﾄﾈｸﾞﾝｶﾀｼﾅﾑﾗ","streetKana":"ｽﾙﾌﾞﾁ","prefecture":"群馬県","city":"利根郡片品村","street":"摺淵"},{"zipCode":"3780404","prefectureKana":"ｸﾞﾝﾏｹﾝ","cityKana":"ﾄﾈｸﾞﾝｶﾀｼﾅﾑﾗ","streetKana":"ﾂｲｼﾞ","prefecture":"群馬県","city":"利根郡片品村","street":"築地"},{"zipCode":"3780412","prefectureKana":"ｸﾞﾝﾏｹﾝ","cityKana":"ﾄﾈｸﾞﾝｶﾀｼﾅﾑﾗ","streetKana":"ﾂﾁｲﾃﾞ","prefecture":"群馬県","city":"利根郡片品村","street":"土出"},{"zipCode":"3780411","prefectureKana":"ｸﾞﾝﾏｹﾝ","cityKana":"ﾄﾈｸﾞﾝｶﾀｼﾅﾑﾗ","streetKana":"ﾄｸﾗ","prefecture":"群馬県","city":"利根郡片品村","street":"戸倉"},{"zipCode":"3780407","prefectureKana":"ｸﾞﾝﾏｹﾝ","cityKana":"ﾄﾈｸﾞﾝｶﾀｼﾅﾑﾗ","streetKana":"ﾊﾀﾔ","prefecture":"群馬県","city":"利根郡片品村","street":"幡谷"},{"zipCode":"3780408","prefectureKana":"ｸﾞﾝﾏｹﾝ","cityKana":"ﾄﾈｸﾞﾝｶﾀｼﾅﾑﾗ","streetKana":"ﾊﾅｻｸ","prefecture":"群馬県","city":"利根郡片品村","street":"花咲"},{"zipCode":"3780409","prefectureKana":"ｸﾞﾝﾏｹﾝ","cityKana":"ﾄﾈｸﾞﾝｶﾀｼﾅﾑﾗ","streetKana":"ﾊﾘﾔﾏ","prefecture":"群馬県","city":"利根郡片品村","street":"針山"},{"zipCode":"3780414","prefectureKana":"ｸﾞﾝﾏｹﾝ","cityKana":"ﾄﾈｸﾞﾝｶﾀｼﾅﾑﾗ","streetKana":"ﾋｶﾞｼｵｶﾞﾜ","prefecture":"群馬県","city":"利根郡片品村","street":"東小川"},{"zipCode":"3780402","prefectureKana":"ｸﾞﾝﾏｹﾝ","cityKana":"ﾄﾈｸﾞﾝｶﾀｼﾅﾑﾗ","streetKana":"ﾐｻﾞﾉﾘ","prefecture":"群馬県","city":"利根郡片品村","street":"御座入"},{"zipCode":"3780100","prefectureKana":"ｸﾞﾝﾏｹﾝ","cityKana":"ﾄﾈｸﾞﾝｶﾜﾊﾞﾑﾗ","streetKana":"ｲｶﾆｹｲｻｲｶﾞﾅｲﾊﾞｱｲ","prefecture":"群馬県","city":"利根郡川場村","street":"以下に掲載がない場合"},{"zipCode":"3780104","prefectureKana":"ｸﾞﾝﾏｹﾝ","cityKana":"ﾄﾈｸﾞﾝｶﾜﾊﾞﾑﾗ","streetKana":"ｵｵﾀｶﾞﾜ","prefecture":"群馬県","city":"利根郡川場村","street":"太田川"},{"zipCode":"3780102","prefectureKana":"ｸﾞﾝﾏｹﾝ","cityKana":"ﾄﾈｸﾞﾝｶﾜﾊﾞﾑﾗ","streetKana":"ｶﾜﾊﾞﾕﾊﾞﾗ","prefecture":"群馬県","city":"利根郡川場村","street":"川場湯原"},{"zipCode":"3780105","prefectureKana":"ｸﾞﾝﾏｹﾝ","cityKana":"ﾄﾈｸﾞﾝｶﾜﾊﾞﾑﾗ","streetKana":"ｺﾀｶﾞﾜ","prefecture":"群馬県","city":"利根郡川場村","street":"小田川"},{"zipCode":"3780112","prefectureKana":"ｸﾞﾝﾏｹﾝ","cityKana":"ﾄﾈｸﾞﾝｶﾜﾊﾞﾑﾗ","streetKana":"ﾀﾂｲﾜ","prefecture":"群馬県","city":"利根郡川場村","street":"立岩"},{"zipCode":"3780114","prefectureKana":"ｸﾞﾝﾏｹﾝ","cityKana":"ﾄﾈｸﾞﾝｶﾜﾊﾞﾑﾗ","streetKana":"ﾃﾝｼﾞﾝ","prefecture":"群馬県","city":"利根郡川場村","street":"天神"},{"zipCode":"3780103","prefectureKana":"ｸﾞﾝﾏｹﾝ","cityKana":"ﾄﾈｸﾞﾝｶﾜﾊﾞﾑﾗ","streetKana":"ﾅｶﾉ","prefecture":"群馬県","city":"利根郡川場村","street":"中野"},{"zipCode":"3780113","prefectureKana":"ｸﾞﾝﾏｹﾝ","cityKana":"ﾄﾈｸﾞﾝｶﾜﾊﾞﾑﾗ","streetKana":"ﾅﾏｼﾅ","prefecture":"群馬県","city":"利根郡川場村","street":"生品"},{"zipCode":"3780111","prefectureKana":"ｸﾞﾝﾏｹﾝ","cityKana":"ﾄﾈｸﾞﾝｶﾜﾊﾞﾑﾗ","streetKana":"ﾊｷﾞﾑﾛ","prefecture":"群馬県","city":"利根郡川場村","street":"萩室"},{"zipCode":"3780115","prefectureKana":"ｸﾞﾝﾏｹﾝ","cityKana":"ﾄﾈｸﾞﾝｶﾜﾊﾞﾑﾗ","streetKana":"ﾓﾝｾﾞﾝ","prefecture":"群馬県","city":"利根郡川場村","street":"門前"},{"zipCode":"3780101","prefectureKana":"ｸﾞﾝﾏｹﾝ","cityKana":"ﾄﾈｸﾞﾝｶﾜﾊﾞﾑﾗ","streetKana":"ﾔﾁ","prefecture":"群馬県","city":"利根郡川場村","street":"谷地"}]