[{"zipCode":"3800918","prefectureKana":"ﾅｶﾞﾉｹﾝ","cityKana":"ﾅｶﾞﾉｼ","streetKana":"ｱｰｸｽ","prefecture":"長野県","city":"長野市","street":"アークス"},{"zipCode":"3800838","prefectureKana":"ﾅｶﾞﾉｹﾝ","cityKana":"ﾅｶﾞﾉｼ","streetKana":"ｱｶﾞﾀﾏﾁ","prefecture":"長野県","city":"長野市","street":"県町"},{"zipCode":"3800888","prefectureKana":"ﾅｶﾞﾉｹﾝ","cityKana":"ﾅｶﾞﾉｼ","streetKana":"ｱｹﾞﾔ","prefecture":"長野県","city":"長野市","street":"上ケ屋"},{"zipCode":"3800846","prefectureKana":"ﾅｶﾞﾉｹﾝ","cityKana":"ﾅｶﾞﾉｼ","streetKana":"ｱｻﾋﾏﾁ","prefecture":"長野県","city":"長野市","street":"旭町"},{"zipCode":"3800941","prefectureKana":"ﾅｶﾞﾉｹﾝ","cityKana":"ﾅｶﾞﾉｼ","streetKana":"ｱﾓﾘ","prefecture":"長野県","city":"長野市","street":"安茂里"},{"zipCode":"3800945","prefectureKana":"ﾅｶﾞﾉｹﾝ","cityKana":"ﾅｶﾞﾉｼ","streetKana":"ｱﾓﾘｷｮｳｶﾀﾞｲ","prefecture":"長野県","city":"長野市","street":"安茂里杏花台"},{"zipCode":"3800961","prefectureKana":"ﾅｶﾞﾉｹﾝ","cityKana":"ﾅｶﾞﾉｼ","streetKana":"ｱﾓﾘｺｲﾁ","prefecture":"長野県","city":"長野市","street":"安茂里小市"},{"zipCode":"3800956","prefectureKana":"ﾅｶﾞﾉｹﾝ","cityKana":"ﾅｶﾞﾉｼ","streetKana":"ｱﾓﾘｺｳｼﾞ","prefecture":"長野県","city":"長野市","street":"安茂里小路"},{"zipCode":"3800944","prefectureKana":"ﾅｶﾞﾉｹﾝ","cityKana":"ﾅｶﾞﾉｼ","streetKana":"ｱﾓﾘｺﾒﾑﾗ","prefecture":"長野県","city":"長野市","street":"安茂里米村"},{"zipCode":"3800953","prefectureKana":"ﾅｶﾞﾉｹﾝ","cityKana":"ﾅｶﾞﾉｼ","streetKana":"ｱﾓﾘｻｲﾎｸ","prefecture":"長野県","city":"長野市","street":"安茂里犀北"},{"zipCode":"3800954","prefectureKana":"ﾅｶﾞﾉｹﾝ","cityKana":"ﾅｶﾞﾉｼ","streetKana":"ｱﾓﾘｻｲﾎｸﾀﾞﾝﾁ","prefecture":"長野県","city":"長野市","street":"安茂里犀北団地"},{"zipCode":"3800943","prefectureKana":"ﾅｶﾞﾉｹﾝ","cityKana":"ﾅｶﾞﾉｼ","streetKana":"ｱﾓﾘｻｼﾃﾞ","prefecture":"長野県","city":"長野市","street":"安茂里差出"},{"zipCode":"3800957","prefectureKana":"ﾅｶﾞﾉｹﾝ","cityKana":"ﾅｶﾞﾉｼ","streetKana":"ｱﾓﾘﾀﾞｲﾓﾝ","prefecture":"長野県","city":"長野市","street":"安茂里大門"},{"zipCode":"3800955","prefectureKana":"ﾅｶﾞﾉｹﾝ","cityKana":"ﾅｶﾞﾉｼ","streetKana":"ｱﾓﾘﾆｼｶﾞﾜﾗ","prefecture":"長野県","city":"長野市","street":"安茂里西河原"},{"zipCode":"3800804","prefectureKana":"ﾅｶﾞﾉｹﾝ","cityKana":"ﾅｶﾞﾉｼ","streetKana":"ｱﾗﾔ","prefecture":"長野県","city":"長野市","street":"荒屋"},{"zipCode":"3800883","prefectureKana":"ﾅｶﾞﾉｹﾝ","cityKana":"ﾅｶﾞﾉｼ","streetKana":"ｲｽﾞﾐﾀﾞｲﾗ","prefecture":"長野県","city":"長野市","street":"泉平"},{"zipCode":"3800854","prefectureKana":"ﾅｶﾞﾉｹﾝ","cityKana":"ﾅｶﾞﾉｼ","streetKana":"ｲｾﾏﾁ","prefecture":"長野県","city":"長野市","street":"伊勢町"},{"zipCode":"3800958","prefectureKana":"ﾅｶﾞﾉｹﾝ","cityKana":"ﾅｶﾞﾉｼ","streetKana":"ｲｾﾐﾔ","prefecture":"長野県","city":"長野市","street":"伊勢宮"},{"zipCode":"3800911","prefectureKana":"ﾅｶﾞﾉｹﾝ","cityKana":"ﾅｶﾞﾉｼ","streetKana":"ｲﾅﾊﾞ","prefecture":"長野県","city":"長野市","street":"稲葉"},{"zipCode":"3800915","prefectureKana":"ﾅｶﾞﾉｹﾝ","cityKana":"ﾅｶﾞﾉｼ","streetKana":"ｲﾅﾊﾞｶﾐｾﾝﾀﾞ","prefecture":"長野県","city":"長野市","street":"稲葉上千田"},{"zipCode":"3800916","prefectureKana":"ﾅｶﾞﾉｹﾝ","cityKana":"ﾅｶﾞﾉｼ","streetKana":"ｲﾅﾊﾞﾅｶｾﾝﾀﾞ","prefecture":"長野県","city":"長野市","street":"稲葉中千田"},{"zipCode":"3800912","prefectureKana":"ﾅｶﾞﾉｹﾝ","cityKana":"ﾅｶﾞﾉｼ","streetKana":"ｲﾅﾊﾞﾋﾂﾞﾒ","prefecture":"長野県","city":"長野市","street":"稲葉日詰"},{"zipCode":"3800917","prefectureKana":"ﾅｶﾞﾉｹﾝ","cityKana":"ﾅｶﾞﾉｼ","streetKana":"ｲﾅﾊﾞﾐﾅﾐﾏﾀ","prefecture":"長野県","city":"長野市","street":"稲葉南俣"},{"zipCode":"3800914","prefectureKana":"ﾅｶﾞﾉｹﾝ","cityKana":"ﾅｶﾞﾉｼ","streetKana":"ｲﾅﾊﾞﾓﾀｲ","prefecture":"長野県","city":"長野市","street":"稲葉母袋"},{"zipCode":"3800901","prefectureKana":"ﾅｶﾞﾉｹﾝ","cityKana":"ﾅｶﾞﾉｼ","streetKana":"ｲﾏﾁ","prefecture":"長野県","city":"長野市","street":"居町"},{"zipCode":"3800887","prefectureKana":"ﾅｶﾞﾉｹﾝ","cityKana":"ﾅｶﾞﾉｼ","streetKana":"ｲﾘﾔﾏ","prefecture":"長野県","city":"長野市","street":"入山"},{"zipCode":"3800802","prefectureKana":"ﾅｶﾞﾉｹﾝ","cityKana":"ﾅｶﾞﾉｼ","streetKana":"ｳｴﾏﾂ","prefecture":"長野県","city":"長野市","street":"上松"},{"zipCode":"3800867","prefectureKana":"ﾅｶﾞﾉｹﾝ","cityKana":"ﾅｶﾞﾉｼ","streetKana":"ｵｳｼｮｳｼﾞ","prefecture":"長野県","city":"長野市","street":"往生地"},{"zipCode":"3800936","prefectureKana":"ﾅｶﾞﾉｹﾝ","cityKana":"ﾅｶﾞﾉｼ","streetKana":"ｵｶﾀﾞﾏﾁ","prefecture":"長野県","city":"長野市","street":"岡田町"},{"zipCode":"3800881","prefectureKana":"ﾅｶﾞﾉｹﾝ","cityKana":"ﾅｶﾞﾉｼ","streetKana":"ｶﾄﾞｻﾜ","prefecture":"長野県","city":"長野市","street":"門沢"},{"zipCode":"3800821","prefectureKana":"ﾅｶﾞﾉｹﾝ","cityKana":"ﾅｶﾞﾉｼ","streetKana":"ｶﾐﾁﾄｾﾏﾁ","prefecture":"長野県","city":"長野市","street":"上千歳町"},{"zipCode":"3800858","prefectureKana":"ﾅｶﾞﾉｹﾝ","cityKana":"ﾅｶﾞﾉｼ","streetKana":"ｶﾐﾆｼﾉﾓﾝﾁｮｳ","prefecture":"長野県","city":"長野市","street":"上西之門町"},{"zipCode":"3800913","prefectureKana":"ﾅｶﾞﾉｹﾝ","cityKana":"ﾅｶﾞﾉｼ","streetKana":"ｶﾜｲｼﾝﾃﾞﾝ","prefecture":"長野県","city":"長野市","street":"川合新田"},{"zipCode":"3800855","prefectureKana":"ﾅｶﾞﾉｹﾝ","cityKana":"ﾅｶﾞﾉｼ","streetKana":"ｶﾞﾝｾﾞｷﾁｮｳ","prefecture":"長野県","city":"長野市","street":"岩石町"},{"zipCode":"3800826","prefectureKana":"ﾅｶﾞﾉｹﾝ","cityKana":"ﾅｶﾞﾉｼ","streetKana":"ｷﾀｲｼﾄﾞｳﾁｮｳ","prefecture":"長野県","city":"長野市","street":"北石堂町"},{"zipCode":"3800866","prefectureKana":"ﾅｶﾞﾉｹﾝ","cityKana":"ﾅｶﾞﾉｼ","streetKana":"ｷﾂﾈｲｹ","prefecture":"長野県","city":"長野市","street":"狐池"},{"zipCode":"3800921","prefectureKana":"ﾅｶﾞﾉｹﾝ","cityKana":"ﾅｶﾞﾉｼ","streetKana":"ｸﾘﾀ","prefecture":"長野県","city":"長野市","street":"栗田"},{"zipCode":"3800927","prefectureKana":"ﾅｶﾞﾉｹﾝ","cityKana":"ﾅｶﾞﾉｼ","streetKana":"ｸﾘﾀｷﾀﾅｶ","prefecture":"長野県","city":"長野市","street":"栗田北中"},{"zipCode":"3800942","prefectureKana":"ﾅｶﾞﾉｹﾝ","cityKana":"ﾅｶﾞﾉｼ","streetKana":"ｺｼﾊﾞﾐ","prefecture":"長野県","city":"長野市","street":"小柴見"},{"zipCode":"3800875","prefectureKana":"ﾅｶﾞﾉｹﾝ","cityKana":"ﾅｶﾞﾉｼ","streetKana":"ｺﾅﾍﾞ","prefecture":"長野県","city":"長野市","street":"小鍋"},{"zipCode":"3800833","prefectureKana":"ﾅｶﾞﾉｹﾝ","cityKana":"ﾅｶﾞﾉｼ","streetKana":"ｺﾞﾝﾄﾞｳﾁｮｳ","prefecture":"長野県","city":"長野市","street":"権堂町"},{"zipCode":"3800863","prefectureKana":"ﾅｶﾞﾉｹﾝ","cityKana":"ﾅｶﾞﾉｼ","streetKana":"ｻｶｴﾁｮｳ","prefecture":"長野県","city":"長野市","street":"栄町"},{"zipCode":"3800885","prefectureKana":"ﾅｶﾞﾉｹﾝ","cityKana":"ﾅｶﾞﾉｼ","streetKana":"ｻｸﾗ","prefecture":"長野県","city":"長野市","street":"桜"},{"zipCode":"3800862","prefectureKana":"ﾅｶﾞﾉｹﾝ","cityKana":"ﾅｶﾞﾉｼ","streetKana":"ｻｸﾗｴﾁｮｳ","prefecture":"長野県","city":"長野市","street":"桜枝町"},{"zipCode":"3800948","prefectureKana":"ﾅｶﾞﾉｹﾝ","cityKana":"ﾅｶﾞﾉｼ","streetKana":"ｻｼﾃﾞﾐﾅﾐ","prefecture":"長野県","city":"長野市","street":"差出南"},{"zipCode":"3800812","prefectureKana":"ﾅｶﾞﾉｹﾝ","cityKana":"ﾅｶﾞﾉｼ","streetKana":"ｻﾅｴﾁｮｳ","prefecture":"長野県","city":"長野市","street":"早苗町"},{"zipCode":"3800877","prefectureKana":"ﾅｶﾞﾉｹﾝ","cityKana":"ﾅｶﾞﾉｼ","streetKana":"ｼｮｳﾌﾞ","prefecture":"長野県","city":"長野市","street":"塩生"},{"zipCode":"3800873","prefectureKana":"ﾅｶﾞﾉｹﾝ","cityKana":"ﾅｶﾞﾉｼ","streetKana":"ｼﾝｽﾜ","prefecture":"長野県","city":"長野市","street":"新諏訪"},{"zipCode":"3800873","prefectureKana":"ﾅｶﾞﾉｹﾝ","cityKana":"ﾅｶﾞﾉｼ","streetKana":"ｼﾝｽﾜﾁｮｳ","prefecture":"長野県","city":"長野市","street":"新諏訪町"},{"zipCode":"3800835","prefectureKana":"ﾅｶﾞﾉｹﾝ","cityKana":"ﾅｶﾞﾉｼ","streetKana":"ｼﾝﾃﾞﾝﾁｮｳ","prefecture":"長野県","city":"長野市","street":"新田町"},{"zipCode":"3800853","prefectureKana":"ﾅｶﾞﾉｹﾝ","cityKana":"ﾅｶﾞﾉｼ","streetKana":"ｼﾝﾏﾁ","prefecture":"長野県","city":"長野市","street":"新町"},{"zipCode":"3800825","prefectureKana":"ﾅｶﾞﾉｹﾝ","cityKana":"ﾅｶﾞﾉｼ","streetKana":"ｽｴﾋﾛﾁｮｳ","prefecture":"長野県","city":"長野市","street":"末広町"},{"zipCode":"3800844","prefectureKana":"ﾅｶﾞﾉｹﾝ","cityKana":"ﾅｶﾞﾉｼ","streetKana":"ｽﾜﾁｮｳ","prefecture":"長野県","city":"長野市","street":"諏訪町"},{"zipCode":"3800841","prefectureKana":"ﾅｶﾞﾉｹﾝ","cityKana":"ﾅｶﾞﾉｼ","streetKana":"ﾀﾞｲﾓﾝﾁｮｳ","prefecture":"長野県","city":"長野市","street":"大門町"},{"zipCode":"3800884","prefectureKana":"ﾅｶﾞﾉｹﾝ","cityKana":"ﾅｶﾞﾉｼ","streetKana":"ﾀﾀﾗ","prefecture":"長野県","city":"長野市","street":"鑪"},{"zipCode":"3800864","prefectureKana":"ﾅｶﾞﾉｹﾝ","cityKana":"ﾅｶﾞﾉｼ","streetKana":"ﾀﾂﾏﾁ","prefecture":"長野県","city":"長野市","street":"立町"},{"zipCode":"3800815","prefectureKana":"ﾅｶﾞﾉｹﾝ","cityKana":"ﾅｶﾞﾉｼ","streetKana":"ﾀﾏﾁ","prefecture":"長野県","city":"長野市","street":"田町"},{"zipCode":"3800872","prefectureKana":"ﾅｶﾞﾉｹﾝ","cityKana":"ﾅｶﾞﾉｼ","streetKana":"ﾂﾏｼﾅ","prefecture":"長野県","city":"長野市","street":"妻科"},{"zipCode":"3800907","prefectureKana":"ﾅｶﾞﾉｹﾝ","cityKana":"ﾅｶﾞﾉｼ","streetKana":"ﾂﾙｶﾞ","prefecture":"長野県","city":"長野市","street":"鶴賀"},{"zipCode":"3800901","prefectureKana":"ﾅｶﾞﾉｹﾝ","cityKana":"ﾅｶﾞﾉｼ","streetKana":"ﾂﾙｶﾞ(ｲﾏﾁ)","prefecture":"長野県","city":"長野市","street":"鶴賀（居町）"},{"zipCode":"3800821","prefectureKana":"ﾅｶﾞﾉｹﾝ","cityKana":"ﾅｶﾞﾉｼ","streetKana":"ﾂﾙｶﾞ(ｶﾐﾁﾄｾﾏﾁ)","prefecture":"長野県","city":"長野市","street":"鶴賀（上千歳町）"},{"zipCode":"3800833","prefectureKana":"ﾅｶﾞﾉｹﾝ","cityKana":"ﾅｶﾞﾉｼ","streetKana":"ﾂﾙｶﾞ(ｺﾞﾝﾄﾞｳﾁｮｳ)","prefecture":"長野県","city":"長野市","street":"鶴賀（権堂町）"},{"zipCode":"3800812","prefectureKana":"ﾅｶﾞﾉｹﾝ","cityKana":"ﾅｶﾞﾉｼ","streetKana":"ﾂﾙｶﾞ(ｻﾅｴﾁｮｳ)","prefecture":"長野県","city":"長野市","street":"鶴賀（早苗町）"},{"zipCode":"3800815","prefectureKana":"ﾅｶﾞﾉｹﾝ","cityKana":"ﾅｶﾞﾉｼ","streetKana":"ﾂﾙｶﾞ(ﾀﾏﾁ)","prefecture":"長野県","city":"長野市","street":"鶴賀（田町）"},{"zipCode":"3800834","prefectureKana":"ﾅｶﾞﾉｹﾝ","cityKana":"ﾅｶﾞﾉｼ","streetKana":"ﾂﾙｶﾞ(ﾄｲｺﾞｼｮﾏﾁ)","prefecture":"長野県","city":"長野市","street":"鶴賀（問御所町）"},{"zipCode":"3800902","prefectureKana":"ﾅｶﾞﾉｹﾝ","cityKana":"ﾅｶﾞﾉｼ","streetKana":"ﾂﾙｶﾞ(ﾅｶｾﾞｷ)","prefecture":"長野県","city":"長野市","street":"鶴賀（中堰）"},{"zipCode":"3800906","prefectureKana":"ﾅｶﾞﾉｹﾝ","cityKana":"ﾅｶﾞﾉｼ","streetKana":"ﾂﾙｶﾞ(ﾅﾅｾ)","prefecture":"長野県","city":"長野市","street":"鶴賀（七瀬）"},{"zipCode":"3800904","prefectureKana":"ﾅｶﾞﾉｹﾝ","cityKana":"ﾅｶﾞﾉｼ","streetKana":"ﾂﾙｶﾞ(ﾅﾅｾﾅｶﾏﾁ)","prefecture":"長野県","city":"長野市","street":"鶴賀（七瀬中町）"},{"zipCode":"3800905","prefectureKana":"ﾅｶﾞﾉｹﾝ","cityKana":"ﾅｶﾞﾉｼ","streetKana":"ﾂﾙｶﾞ(ﾅﾅｾﾅﾝﾌﾞ)","prefecture":"長野県","city":"長野市","street":"鶴賀（七瀬南部）"},{"zipCode":"3800814","prefectureKana":"ﾅｶﾞﾉｹﾝ","cityKana":"ﾅｶﾞﾉｼ","streetKana":"ﾂﾙｶﾞ(ﾆｼﾂﾙｶﾞﾏﾁ)","prefecture":"長野県","city":"長野市","street":"鶴賀（西鶴賀町）"},{"zipCode":"3800811","prefectureKana":"ﾅｶﾞﾉｹﾝ","cityKana":"ﾅｶﾞﾉｼ","streetKana":"ﾂﾙｶﾞ(ﾋｶﾞｼﾂﾙｶﾞﾏﾁ)","prefecture":"長野県","city":"長野市","street":"鶴賀（東鶴賀町）"},{"zipCode":"3800813","prefectureKana":"ﾅｶﾞﾉｹﾝ","cityKana":"ﾅｶﾞﾉｼ","streetKana":"ﾂﾙｶﾞ(ﾐﾄﾞﾘﾁｮｳ)","prefecture":"長野県","city":"長野市","street":"鶴賀（緑町）"},{"zipCode":"3800822","prefectureKana":"ﾅｶﾞﾉｹﾝ","cityKana":"ﾅｶﾞﾉｼ","streetKana":"ﾂﾙｶﾞ(ﾐﾅﾐﾁﾄｾﾏﾁ)","prefecture":"長野県","city":"長野市","street":"鶴賀（南千歳町）"},{"zipCode":"3800903","prefectureKana":"ﾅｶﾞﾉｹﾝ","cityKana":"ﾅｶﾞﾉｼ","streetKana":"ﾂﾙｶﾞ(ﾐﾈﾑﾗ)","prefecture":"長野県","city":"長野市","street":"鶴賀（峰村）"},{"zipCode":"3800834","prefectureKana":"ﾅｶﾞﾉｹﾝ","cityKana":"ﾅｶﾞﾉｼ","streetKana":"ﾄｲｺﾞｼｮﾏﾁ","prefecture":"長野県","city":"長野市","street":"問御所町"},{"zipCode":"3800882","prefectureKana":"ﾅｶﾞﾉｹﾝ","cityKana":"ﾅｶﾞﾉｼ","streetKana":"ﾄﾐﾀﾞ","prefecture":"長野県","city":"長野市","street":"富田"},{"zipCode":"3800935","prefectureKana":"ﾅｶﾞﾉｹﾝ","cityKana":"ﾅｶﾞﾉｼ","streetKana":"ﾅｶｺﾞｼｮ","prefecture":"長野県","city":"長野市","street":"中御所"},{"zipCode":"3800934","prefectureKana":"ﾅｶﾞﾉｹﾝ","cityKana":"ﾅｶﾞﾉｼ","streetKana":"ﾅｶｺﾞｼｮﾏﾁ","prefecture":"長野県","city":"長野市","street":"中御所町"},{"zipCode":"3800843","prefectureKana":"ﾅｶﾞﾉｹﾝ","cityKana":"ﾅｶﾞﾉｼ","streetKana":"ﾅｶﾞﾄﾁｮｳ","prefecture":"長野県","city":"長野市","street":"長門町"},{"zipCode":"3800922","prefectureKana":"ﾅｶﾞﾉｹﾝ","cityKana":"ﾅｶﾞﾉｼ","streetKana":"ﾅﾅｾ","prefecture":"長野県","city":"長野市","street":"七瀬"},{"zipCode":"3800904","prefectureKana":"ﾅｶﾞﾉｹﾝ","cityKana":"ﾅｶﾞﾉｼ","streetKana":"ﾅﾅｾﾅｶﾏﾁ","prefecture":"長野県","city":"長野市","street":"七瀬中町"},{"zipCode":"3800905","prefectureKana":"ﾅｶﾞﾉｹﾝ","cityKana":"ﾅｶﾞﾉｼ","streetKana":"ﾅﾅｾﾅﾝﾌﾞ","prefecture":"長野県","city":"長野市","street":"七瀬南部"},{"zipCode":"3800845","prefectureKana":"ﾅｶﾞﾉｹﾝ","cityKana":"ﾅｶﾞﾉｼ","streetKana":"ﾆｼｺﾞﾁｮｳ","prefecture":"長野県","city":"長野市","street":"西後町"},{"zipCode":"3800814","prefectureKana":"ﾅｶﾞﾉｹﾝ","cityKana":"ﾅｶﾞﾉｼ","streetKana":"ﾆｼﾂﾙｶﾞﾏﾁ","prefecture":"長野県","city":"長野市","street":"西鶴賀町"},{"zipCode":"3800871","prefectureKana":"ﾅｶﾞﾉｹﾝ","cityKana":"ﾅｶﾞﾉｼ","streetKana":"ﾆｼﾅｶﾞﾉ","prefecture":"長野県","city":"長野市","street":"西長野"},{"zipCode":"3800857","prefectureKana":"ﾅｶﾞﾉｹﾝ","cityKana":"ﾅｶﾞﾉｼ","streetKana":"ﾆｼﾉﾓﾝﾁｮｳ","prefecture":"長野県","city":"長野市","street":"西之門町"},{"zipCode":"3800842","prefectureKana":"ﾅｶﾞﾉｹﾝ","cityKana":"ﾅｶﾞﾉｼ","streetKana":"ﾆｼﾏﾁ","prefecture":"長野県","city":"長野市","street":"西町"},{"zipCode":"3800801","prefectureKana":"ﾅｶﾞﾉｹﾝ","cityKana":"ﾅｶﾞﾉｼ","streetKana":"ﾊｺｼﾐｽﾞ","prefecture":"長野県","city":"長野市","street":"箱清水"},{"zipCode":"3800865","prefectureKana":"ﾅｶﾞﾉｹﾝ","cityKana":"ﾅｶﾞﾉｼ","streetKana":"ﾊﾅｻｷﾁｮｳ","prefecture":"長野県","city":"長野市","street":"花咲町"},{"zipCode":"3800832","prefectureKana":"ﾅｶﾞﾉｹﾝ","cityKana":"ﾅｶﾞﾉｼ","streetKana":"ﾋｶﾞｼｺﾞﾁｮｳ","prefecture":"長野県","city":"長野市","street":"東後町"},{"zipCode":"3800811","prefectureKana":"ﾅｶﾞﾉｹﾝ","cityKana":"ﾅｶﾞﾉｼ","streetKana":"ﾋｶﾞｼﾂﾙｶﾞﾏﾁ","prefecture":"長野県","city":"長野市","street":"東鶴賀町"},{"zipCode":"3800852","prefectureKana":"ﾅｶﾞﾉｹﾝ","cityKana":"ﾅｶﾞﾉｼ","streetKana":"ﾋｶﾞｼﾉﾓﾝﾁｮｳ","prefecture":"長野県","city":"長野市","street":"東之門町"},{"zipCode":"3800831","prefectureKana":"ﾅｶﾞﾉｹﾝ","cityKana":"ﾅｶﾞﾉｼ","streetKana":"ﾋｶﾞｼﾏﾁ","prefecture":"長野県","city":"長野市","street":"東町"},{"zipCode":"3800947","prefectureKana":"ﾅｶﾞﾉｹﾝ","cityKana":"ﾅｶﾞﾉｼ","streetKana":"ﾋﾗｼﾊﾞ","prefecture":"長野県","city":"長野市","street":"平柴"},{"zipCode":"3800946","prefectureKana":"ﾅｶﾞﾉｹﾝ","cityKana":"ﾅｶﾞﾉｼ","streetKana":"ﾋﾗｼﾊﾞﾀﾞｲ","prefecture":"長野県","city":"長野市","street":"平柴台"},{"zipCode":"3800886","prefectureKana":"ﾅｶﾞﾉｹﾝ","cityKana":"ﾅｶﾞﾉｼ","streetKana":"ﾋﾛｾ","prefecture":"長野県","city":"長野市","street":"広瀬"},{"zipCode":"3800813","prefectureKana":"ﾅｶﾞﾉｹﾝ","cityKana":"ﾅｶﾞﾉｼ","streetKana":"ﾐﾄﾞﾘﾁｮｳ","prefecture":"長野県","city":"長野市","street":"緑町"},{"zipCode":"3800836","prefectureKana":"ﾅｶﾞﾉｹﾝ","cityKana":"ﾅｶﾞﾉｼ","streetKana":"ﾐﾅﾐｱｶﾞﾀﾏﾁ","prefecture":"長野県","city":"長野市","street":"南県町"},{"zipCode":"3800824","prefectureKana":"ﾅｶﾞﾉｹﾝ","cityKana":"ﾅｶﾞﾉｼ","streetKana":"ﾐﾅﾐｲｼﾄﾞｳﾁｮｳ","prefecture":"長野県","city":"長野市","street":"南石堂町"},{"zipCode":"3800823","prefectureKana":"ﾅｶﾞﾉｹﾝ","cityKana":"ﾅｶﾞﾉｼ","streetKana":"ﾐﾅﾐﾁﾄｾ","prefecture":"長野県","city":"長野市","street":"南千歳"},{"zipCode":"3800822","prefectureKana":"ﾅｶﾞﾉｹﾝ","cityKana":"ﾅｶﾞﾉｼ","streetKana":"ﾐﾅﾐﾁﾄｾﾏﾁ","prefecture":"長野県","city":"長野市","street":"南千歳町"},{"zipCode":"3800837","prefectureKana":"ﾅｶﾞﾉｹﾝ","cityKana":"ﾅｶﾞﾉｼ","streetKana":"ﾐﾅﾐﾅｶﾞﾉ(ﾊﾊﾞｼﾀ)","prefecture":"長野県","city":"長野市","street":"南長野（幅下）"},{"zipCode":"3800952","prefectureKana":"ﾅｶﾞﾉｹﾝ","cityKana":"ﾅｶﾞﾉｼ","streetKana":"ﾐﾔｵｷ","prefecture":"長野県","city":"長野市","street":"宮沖"},{"zipCode":"3800803","prefectureKana":"ﾅｶﾞﾉｹﾝ","cityKana":"ﾅｶﾞﾉｼ","streetKana":"ﾐﾜ","prefecture":"長野県","city":"長野市","street":"三輪"},{"zipCode":"3800816","prefectureKana":"ﾅｶﾞﾉｹﾝ","cityKana":"ﾅｶﾞﾉｼ","streetKana":"ﾐﾜﾀﾏﾁ","prefecture":"長野県","city":"長野市","street":"三輪田町"},{"zipCode":"3800874","prefectureKana":"ﾅｶﾞﾉｹﾝ","cityKana":"ﾅｶﾞﾉｼ","streetKana":"ﾓｽｹﾞ","prefecture":"長野県","city":"長野市","street":"茂菅"},{"zipCode":"3800851","prefectureKana":"ﾅｶﾞﾉｹﾝ","cityKana":"ﾅｶﾞﾉｼ","streetKana":"ﾓﾄﾖｼﾁｮｳ","prefecture":"長野県","city":"長野市","street":"元善町"},{"zipCode":"3800805","prefectureKana":"ﾅｶﾞﾉｹﾝ","cityKana":"ﾅｶﾞﾉｼ","streetKana":"ﾔﾅｷﾞﾏﾁ","prefecture":"長野県","city":"長野市","street":"柳町"},{"zipCode":"3800876","prefectureKana":"ﾅｶﾞﾉｹﾝ","cityKana":"ﾅｶﾞﾉｼ","streetKana":"ﾔﾏﾀﾞﾅｶ","prefecture":"長野県","city":"長野市","street":"山田中"},{"zipCode":"3800861","prefectureKana":"ﾅｶﾞﾉｹﾝ","cityKana":"ﾅｶﾞﾉｼ","streetKana":"ﾖｺｻﾜﾁｮｳ","prefecture":"長野県","city":"長野市","street":"横沢町"},{"zipCode":"3800856","prefectureKana":"ﾅｶﾞﾉｹﾝ","cityKana":"ﾅｶﾞﾉｼ","streetKana":"ﾖｺﾏﾁ","prefecture":"長野県","city":"長野市","street":"横町"},{"zipCode":"3800807","prefectureKana":"ﾅｶﾞﾉｹﾝ","cityKana":"ﾅｶﾞﾉｼ","streetKana":"ﾖｺﾔﾏ","prefecture":"長野県","city":"長野市","street":"横山"},{"zipCode":"3800806","prefectureKana":"ﾅｶﾞﾉｹﾝ","cityKana":"ﾅｶﾞﾉｼ","streetKana":"ﾖﾄﾞｶﾞﾊﾞｼ","prefecture":"長野県","city":"長野市","street":"淀ケ橋"},{"zipCode":"3800928","prefectureKana":"ﾅｶﾞﾉｹﾝ","cityKana":"ﾅｶﾞﾉｼ","streetKana":"ﾜｶｻﾄ","prefecture":"長野県","city":"長野市","street":"若里"},{"zipCode":"3800847","prefectureKana":"ﾅｶﾞﾉｹﾝ","cityKana":"ﾅｶﾞﾉｼ","streetKana":"ﾜｶﾏﾂﾁｮｳ","prefecture":"長野県","city":"長野市","street":"若松町"}]