[{"zipCode":"3850000","prefectureKana":"ﾅｶﾞﾉｹﾝ","cityKana":"ｻｸｼ","streetKana":"ｲｶﾆｹｲｻｲｶﾞﾅｲﾊﾞｱｲ","prefecture":"長野県","city":"佐久市","street":"以下に掲載がない場合"},{"zipCode":"3850054","prefectureKana":"ﾅｶﾞﾉｹﾝ","cityKana":"ｻｸｼ","streetKana":"ｱﾄﾍﾞ","prefecture":"長野県","city":"佐久市","street":"跡部"},{"zipCode":"3850007","prefectureKana":"ﾅｶﾞﾉｹﾝ","cityKana":"ｻｸｼ","streetKana":"ｱﾗｺﾀﾞ","prefecture":"長野県","city":"佐久市","street":"新子田"},{"zipCode":"3850015","prefectureKana":"ﾅｶﾞﾉｹﾝ","cityKana":"ｻｸｼ","streetKana":"ｲﾏｲ","prefecture":"長野県","city":"佐久市","street":"今井"},{"zipCode":"3850022","prefectureKana":"ﾅｶﾞﾉｹﾝ","cityKana":"ｻｸｼ","streetKana":"ｲﾜﾑﾗﾀﾞ","prefecture":"長野県","city":"佐久市","street":"岩村田"},{"zipCode":"3850023","prefectureKana":"ﾅｶﾞﾉｹﾝ","cityKana":"ｻｸｼ","streetKana":"ｲﾜﾑﾗﾀﾞｷﾀ","prefecture":"長野県","city":"佐久市","street":"岩村田北"},{"zipCode":"3850031","prefectureKana":"ﾅｶﾞﾉｹﾝ","cityKana":"ｻｸｼ","streetKana":"ｳﾁﾔﾏ","prefecture":"長野県","city":"佐久市","street":"内山"},{"zipCode":"3850045","prefectureKana":"ﾅｶﾞﾉｹﾝ","cityKana":"ｻｸｼ","streetKana":"ｵｵｻﾜ","prefecture":"長野県","city":"佐久市","street":"大沢"},{"zipCode":"3850033","prefectureKana":"ﾅｶﾞﾉｹﾝ","cityKana":"ｻｸｼ","streetKana":"ｵｵﾀﾍﾞ","prefecture":"長野県","city":"佐久市","street":"太田部"},{"zipCode":"3850009","prefectureKana":"ﾅｶﾞﾉｹﾝ","cityKana":"ｻｸｼ","streetKana":"ｵﾀｲ","prefecture":"長野県","city":"佐久市","street":"小田井"},{"zipCode":"3850041","prefectureKana":"ﾅｶﾞﾉｹﾝ","cityKana":"ｻｸｼ","streetKana":"ｶｼﾞﾔ","prefecture":"長野県","city":"佐久市","street":"鍛冶屋"},{"zipCode":"3850002","prefectureKana":"ﾅｶﾞﾉｹﾝ","cityKana":"ｻｸｼ","streetKana":"ｶﾐﾋﾗｵ","prefecture":"長野県","city":"佐久市","street":"上平尾"},{"zipCode":"3850005","prefectureKana":"ﾅｶﾞﾉｹﾝ","cityKana":"ｻｸｼ","streetKana":"ｺｳｻｶ","prefecture":"長野県","city":"佐久市","street":"香坂"},{"zipCode":"3850047","prefectureKana":"ﾅｶﾞﾉｹﾝ","cityKana":"ｻｸｼ","streetKana":"ｺﾐﾔﾏ","prefecture":"長野県","city":"佐久市","street":"小宮山"},{"zipCode":"3850028","prefectureKana":"ﾅｶﾞﾉｹﾝ","cityKana":"ｻｸｼ","streetKana":"ｻｸﾀﾞｲﾗｴｷﾋｶﾞｼ","prefecture":"長野県","city":"佐久市","street":"佐久平駅東"},{"zipCode":"3850029","prefectureKana":"ﾅｶﾞﾉｹﾝ","cityKana":"ｻｸｼ","streetKana":"ｻｸﾀﾞｲﾗｴｷﾐﾅﾐ","prefecture":"長野県","city":"佐久市","street":"佐久平駅南"},{"zipCode":"3850027","prefectureKana":"ﾅｶﾞﾉｹﾝ","cityKana":"ｻｸｼ","streetKana":"ｻｸﾀﾞｲﾗｴｷｷﾀ","prefecture":"長野県","city":"佐久市","street":"佐久平駅北"},{"zipCode":"3850056","prefectureKana":"ﾅｶﾞﾉｹﾝ","cityKana":"ｻｸｼ","streetKana":"ｻｸﾗｲ","prefecture":"長野県","city":"佐久市","street":"桜井"},{"zipCode":"3850011","prefectureKana":"ﾅｶﾞﾉｹﾝ","cityKana":"ｻｸｼ","streetKana":"ｻﾙｸﾎﾞ","prefecture":"長野県","city":"佐久市","street":"猿久保"},{"zipCode":"3850006","prefectureKana":"ﾅｶﾞﾉｹﾝ","cityKana":"ｻｸｼ","streetKana":"ｼｶﾞ","prefecture":"長野県","city":"佐久市","street":"志賀"},{"zipCode":"3850003","prefectureKana":"ﾅｶﾞﾉｹﾝ","cityKana":"ｻｸｼ","streetKana":"ｼﾓﾋﾗｵ","prefecture":"長野県","city":"佐久市","street":"下平尾"},{"zipCode":"3850035","prefectureKana":"ﾅｶﾞﾉｹﾝ","cityKana":"ｻｸｼ","streetKana":"ｾﾄ","prefecture":"長野県","city":"佐久市","street":"瀬戸"},{"zipCode":"3850042","prefectureKana":"ﾅｶﾞﾉｹﾝ","cityKana":"ｻｸｼ","streetKana":"ﾀｶﾔｷﾞ","prefecture":"長野県","city":"佐久市","street":"高柳"},{"zipCode":"3850025","prefectureKana":"ﾅｶﾞﾉｹﾝ","cityKana":"ｻｸｼ","streetKana":"ﾂｶﾊﾞﾗ","prefecture":"長野県","city":"佐久市","street":"塚原"},{"zipCode":"3850026","prefectureKana":"ﾅｶﾞﾉｹﾝ","cityKana":"ｻｸｼ","streetKana":"ﾄｷﾀﾞ","prefecture":"長野県","city":"佐久市","street":"常田"},{"zipCode":"3850032","prefectureKana":"ﾅｶﾞﾉｹﾝ","cityKana":"ｻｸｼ","streetKana":"ﾄｷﾜ","prefecture":"長野県","city":"佐久市","street":"常和"},{"zipCode":"3850061","prefectureKana":"ﾅｶﾞﾉｹﾝ","cityKana":"ｻｸｼ","streetKana":"ﾄﾓﾉ","prefecture":"長野県","city":"佐久市","street":"伴野"},{"zipCode":"3850043","prefectureKana":"ﾅｶﾞﾉｹﾝ","cityKana":"ｻｸｼ","streetKana":"ﾄﾘﾃﾞﾏﾁ","prefecture":"長野県","city":"佐久市","street":"取出町"},{"zipCode":"3850051","prefectureKana":"ﾅｶﾞﾉｹﾝ","cityKana":"ｻｸｼ","streetKana":"ﾅｶｺﾞﾐ","prefecture":"長野県","city":"佐久市","street":"中込"},{"zipCode":"3850021","prefectureKana":"ﾅｶﾞﾉｹﾝ","cityKana":"ｻｸｼ","streetKana":"ﾅｶﾞﾄﾛ","prefecture":"長野県","city":"佐久市","street":"長土呂"},{"zipCode":"3850016","prefectureKana":"ﾅｶﾞﾉｹﾝ","cityKana":"ｻｸｼ","streetKana":"ﾅﾙｾ","prefecture":"長野県","city":"佐久市","street":"鳴瀬"},{"zipCode":"3850062","prefectureKana":"ﾅｶﾞﾉｹﾝ","cityKana":"ｻｸｼ","streetKana":"ﾈｷﾞｼ","prefecture":"長野県","city":"佐久市","street":"根岸"},{"zipCode":"3850012","prefectureKana":"ﾅｶﾞﾉｹﾝ","cityKana":"ｻｸｼ","streetKana":"ﾈﾈｲ","prefecture":"長野県","city":"佐久市","street":"根々井"},{"zipCode":"3850053","prefectureKana":"ﾅｶﾞﾉｹﾝ","cityKana":"ｻｸｼ","streetKana":"ﾉｻﾞﾜ","prefecture":"長野県","city":"佐久市","street":"野沢"},{"zipCode":"3850052","prefectureKana":"ﾅｶﾞﾉｹﾝ","cityKana":"ｻｸｼ","streetKana":"ﾊﾗ","prefecture":"長野県","city":"佐久市","street":"原"},{"zipCode":"3850063","prefectureKana":"ﾅｶﾞﾉｹﾝ","cityKana":"ｻｸｼ","streetKana":"ﾋｶﾞｼﾀﾃｼﾅ","prefecture":"長野県","city":"佐久市","street":"東立科"},{"zipCode":"3850034","prefectureKana":"ﾅｶﾞﾉｹﾝ","cityKana":"ｻｸｼ","streetKana":"ﾋﾗｶ","prefecture":"長野県","city":"佐久市","street":"平賀"},{"zipCode":"3850024","prefectureKana":"ﾅｶﾞﾉｹﾝ","cityKana":"ｻｸｼ","streetKana":"ﾋﾗﾂｶ","prefecture":"長野県","city":"佐久市","street":"平塚"},{"zipCode":"3850044","prefectureKana":"ﾅｶﾞﾉｹﾝ","cityKana":"ｻｸｼ","streetKana":"ﾎﾝｼﾝﾏﾁ","prefecture":"長野県","city":"佐久市","street":"本新町"},{"zipCode":"3850046","prefectureKana":"ﾅｶﾞﾉｹﾝ","cityKana":"ｻｸｼ","streetKana":"ﾏｴﾔﾏ","prefecture":"長野県","city":"佐久市","street":"前山"},{"zipCode":"3850014","prefectureKana":"ﾅｶﾞﾉｹﾝ","cityKana":"ｻｸｼ","streetKana":"ﾐｶﾜﾀﾞ","prefecture":"長野県","city":"佐久市","street":"三河田"},{"zipCode":"3850055","prefectureKana":"ﾅｶﾞﾉｹﾝ","cityKana":"ｻｸｼ","streetKana":"ﾐﾁﾂﾞｶ","prefecture":"長野県","city":"佐久市","street":"三塚"},{"zipCode":"3850004","prefectureKana":"ﾅｶﾞﾉｹﾝ","cityKana":"ｻｸｼ","streetKana":"ﾔｽﾊﾗ","prefecture":"長野県","city":"佐久市","street":"安原"},{"zipCode":"3850001","prefectureKana":"ﾅｶﾞﾉｹﾝ","cityKana":"ｻｸｼ","streetKana":"ﾖｺﾈ","prefecture":"長野県","city":"佐久市","street":"横根"},{"zipCode":"3850013","prefectureKana":"ﾅｶﾞﾉｹﾝ","cityKana":"ｻｸｼ","streetKana":"ﾖｺﾜ","prefecture":"長野県","city":"佐久市","street":"横和"}]