[{"zipCode":"3910000","prefectureKana":"ﾅｶﾞﾉｹﾝ","cityKana":"ﾁﾉｼ","streetKana":"ｲｶﾆｹｲｻｲｶﾞﾅｲﾊﾞｱｲ","prefecture":"長野県","city":"茅野市","street":"以下に掲載がない場合"},{"zipCode":"3910214","prefectureKana":"ﾅｶﾞﾉｹﾝ","cityKana":"ﾁﾉｼ","streetKana":"ｲｽﾞﾐﾉ","prefecture":"長野県","city":"茅野市","street":"泉野"},{"zipCode":"3910012","prefectureKana":"ﾅｶﾞﾉｹﾝ","cityKana":"ﾁﾉｼ","streetKana":"ｶﾅｻﾞﾜ","prefecture":"長野県","city":"茅野市","street":"金沢"},{"zipCode":"3910212","prefectureKana":"ﾅｶﾞﾉｹﾝ","cityKana":"ﾁﾉｼ","streetKana":"ｷﾀﾔﾏ(ｼﾌﾞｺﾞﾃﾝﾕ･ｼﾌﾞﾉﾕ)","prefecture":"長野県","city":"茅野市","street":"北山（渋御殿湯・渋の湯）"},{"zipCode":"3910301","prefectureKana":"ﾅｶﾞﾉｹﾝ","cityKana":"ﾁﾉｼ","streetKana":"ｷﾀﾔﾏ(ｿﾉﾀ)","prefecture":"長野県","city":"茅野市","street":"北山（その他）"},{"zipCode":"3910211","prefectureKana":"ﾅｶﾞﾉｹﾝ","cityKana":"ﾁﾉｼ","streetKana":"ｺﾋｶﾞｼ","prefecture":"長野県","city":"茅野市","street":"湖東"},{"zipCode":"3910004","prefectureKana":"ﾅｶﾞﾉｹﾝ","cityKana":"ﾁﾉｼ","streetKana":"ｼﾞｮｳﾔﾏ","prefecture":"長野県","city":"茅野市","street":"城山"},{"zipCode":"3910011","prefectureKana":"ﾅｶﾞﾉｹﾝ","cityKana":"ﾁﾉｼ","streetKana":"ﾀﾏｶﾞﾜ","prefecture":"長野県","city":"茅野市","street":"玉川"},{"zipCode":"3910001","prefectureKana":"ﾅｶﾞﾉｹﾝ","cityKana":"ﾁﾉｼ","streetKana":"ﾁﾉ","prefecture":"長野県","city":"茅野市","street":"ちの"},{"zipCode":"3910002","prefectureKana":"ﾅｶﾞﾉｹﾝ","cityKana":"ﾁﾉｼ","streetKana":"ﾂｶﾊﾗ","prefecture":"長野県","city":"茅野市","street":"塚原"},{"zipCode":"3910213","prefectureKana":"ﾅｶﾞﾉｹﾝ","cityKana":"ﾁﾉｼ","streetKana":"ﾄﾖﾋﾗ","prefecture":"長野県","city":"茅野市","street":"豊平"},{"zipCode":"3910215","prefectureKana":"ﾅｶﾞﾉｹﾝ","cityKana":"ﾁﾉｼ","streetKana":"ﾅｶｵｵｼｵ","prefecture":"長野県","city":"茅野市","street":"中大塩"},{"zipCode":"3910005","prefectureKana":"ﾅｶﾞﾉｹﾝ","cityKana":"ﾁﾉｼ","streetKana":"ﾅｶﾏﾁ","prefecture":"長野県","city":"茅野市","street":"仲町"},{"zipCode":"3910003","prefectureKana":"ﾅｶﾞﾉｹﾝ","cityKana":"ﾁﾉｼ","streetKana":"ﾎﾝﾏﾁ","prefecture":"長野県","city":"茅野市","street":"本町"},{"zipCode":"3910013","prefectureKana":"ﾅｶﾞﾉｹﾝ","cityKana":"ﾁﾉｼ","streetKana":"ﾐﾔｶﾞﾜ","prefecture":"長野県","city":"茅野市","street":"宮川"},{"zipCode":"3910216","prefectureKana":"ﾅｶﾞﾉｹﾝ","cityKana":"ﾁﾉｼ","streetKana":"ﾖﾈｻﾞﾜ","prefecture":"長野県","city":"茅野市","street":"米沢"},{"zipCode":"3910321","prefectureKana":"ﾅｶﾞﾉｹﾝ","cityKana":"ｷﾀｻｸｸﾞﾝﾀﾃｼﾅﾏﾁ","streetKana":"ｱｼﾀﾞﾊﾂｶﾉ(1519-1635)","prefecture":"長野県","city":"北佐久郡立科町","street":"芦田八ケ野（１５１９～１６３５）"},{"zipCode":"3910321","prefectureKana":"ﾅｶﾞﾉｹﾝ","cityKana":"ｷﾀｻｸｸﾞﾝﾀﾃｼﾅﾏﾁ","streetKana":"ｲｹﾉﾀｲﾗ","prefecture":"長野県","city":"北佐久郡立科町","street":"池の平"},{"zipCode":"3910021","prefectureKana":"ﾅｶﾞﾉｹﾝ","cityKana":"ｽﾜｸﾞﾝﾌｼﾞﾐﾏﾁ","streetKana":"ﾌｼﾞﾐ(ﾆｭｳｶｻｺ)","prefecture":"長野県","city":"諏訪郡富士見町","street":"富士見（入笠湖）"},{"zipCode":"3910100","prefectureKana":"ﾅｶﾞﾉｹﾝ","cityKana":"ｽﾜｸﾞﾝﾊﾗﾑﾗ","streetKana":"ｲｶﾆｹｲｻｲｶﾞﾅｲﾊﾞｱｲ","prefecture":"長野県","city":"諏訪郡原村","street":"以下に掲載がない場合"},{"zipCode":"3910101","prefectureKana":"ﾅｶﾞﾉｹﾝ","cityKana":"ｽﾜｸﾞﾝﾊﾗﾑﾗ","streetKana":"ｵｵｸﾎﾞ","prefecture":"長野県","city":"諏訪郡原村","street":"大久保"},{"zipCode":"3910105","prefectureKana":"ﾅｶﾞﾉｹﾝ","cityKana":"ｽﾜｸﾞﾝﾊﾗﾑﾗ","streetKana":"ｶｼﾜｷﾞ","prefecture":"長野県","city":"諏訪郡原村","street":"柏木"},{"zipCode":"3910111","prefectureKana":"ﾅｶﾞﾉｹﾝ","cityKana":"ｽﾜｸﾞﾝﾊﾗﾑﾗ","streetKana":"ｶﾐｻﾄ","prefecture":"長野県","city":"諏訪郡原村","street":"上里"},{"zipCode":"3910106","prefectureKana":"ﾅｶﾞﾉｹﾝ","cityKana":"ｽﾜｸﾞﾝﾊﾗﾑﾗ","streetKana":"ｼｮｳﾌﾞｻﾞﾜ","prefecture":"長野県","city":"諏訪郡原村","street":"菖蒲沢"},{"zipCode":"3910108","prefectureKana":"ﾅｶﾞﾉｹﾝ","cityKana":"ｽﾜｸﾞﾝﾊﾗﾑﾗ","streetKana":"ﾅｶｼﾝﾃﾞﾝ","prefecture":"長野県","city":"諏訪郡原村","street":"中新田"},{"zipCode":"3910112","prefectureKana":"ﾅｶﾞﾉｹﾝ","cityKana":"ｽﾜｸﾞﾝﾊﾗﾑﾗ","streetKana":"ﾉｳｼﾞｮｳ","prefecture":"長野県","city":"諏訪郡原村","street":"農場"},{"zipCode":"3910104","prefectureKana":"ﾅｶﾞﾉｹﾝ","cityKana":"ｽﾜｸﾞﾝﾊﾗﾑﾗ","streetKana":"ﾊﾗｲｻﾞﾜ","prefecture":"長野県","city":"諏訪郡原村","street":"払沢"},{"zipCode":"3910115","prefectureKana":"ﾅｶﾞﾉｹﾝ","cityKana":"ｽﾜｸﾞﾝﾊﾗﾑﾗ","streetKana":"ﾊﾗﾔﾏ","prefecture":"長野県","city":"諏訪郡原村","street":"原山"},{"zipCode":"3910116","prefectureKana":"ﾅｶﾞﾉｹﾝ","cityKana":"ｽﾜｸﾞﾝﾊﾗﾑﾗ","streetKana":"ﾊﾝﾉｷ","prefecture":"長野県","city":"諏訪郡原村","street":"判の木"},{"zipCode":"3910114","prefectureKana":"ﾅｶﾞﾉｹﾝ","cityKana":"ｽﾜｸﾞﾝﾊﾗﾑﾗ","streetKana":"ﾍﾟﾝｼｮﾝ","prefecture":"長野県","city":"諏訪郡原村","street":"ペンション"},{"zipCode":"3910109","prefectureKana":"ﾅｶﾞﾉｹﾝ","cityKana":"ｽﾜｸﾞﾝﾊﾗﾑﾗ","streetKana":"ﾐﾅﾐﾊﾗ","prefecture":"長野県","city":"諏訪郡原村","street":"南原"},{"zipCode":"3910107","prefectureKana":"ﾅｶﾞﾉｹﾝ","cityKana":"ｽﾜｸﾞﾝﾊﾗﾑﾗ","streetKana":"ﾑﾛｳﾁ","prefecture":"長野県","city":"諏訪郡原村","street":"室内"},{"zipCode":"3910113","prefectureKana":"ﾅｶﾞﾉｹﾝ","cityKana":"ｽﾜｸﾞﾝﾊﾗﾑﾗ","streetKana":"ﾔﾂｶﾞﾈ","prefecture":"長野県","city":"諏訪郡原村","street":"やつがね"},{"zipCode":"3910103","prefectureKana":"ﾅｶﾞﾉｹﾝ","cityKana":"ｽﾜｸﾞﾝﾊﾗﾑﾗ","streetKana":"ﾔﾂﾃﾞ","prefecture":"長野県","city":"諏訪郡原村","street":"八ツ手"},{"zipCode":"3910102","prefectureKana":"ﾅｶﾞﾉｹﾝ","cityKana":"ｽﾜｸﾞﾝﾊﾗﾑﾗ","streetKana":"ﾔﾅｷﾞｻﾜ","prefecture":"長野県","city":"諏訪郡原村","street":"柳沢"}]