[{"zipCode":"3990000","prefectureKana":"ﾅｶﾞﾉｹﾝ","cityKana":"ﾏﾂﾓﾄｼ","streetKana":"ｲｶﾆｹｲｻｲｶﾞﾅｲﾊﾞｱｲ","prefecture":"長野県","city":"松本市","street":"以下に掲載がない場合"},{"zipCode":"3997402","prefectureKana":"ﾅｶﾞﾉｹﾝ","cityKana":"ﾏﾂﾓﾄｼ","streetKana":"ｱｲﾀﾞ","prefecture":"長野県","city":"松本市","street":"会田"},{"zipCode":"3997415","prefectureKana":"ﾅｶﾞﾉｹﾝ","cityKana":"ﾏﾂﾓﾄｼ","streetKana":"ｱｶﾇﾀ","prefecture":"長野県","city":"松本市","street":"赤怒田"},{"zipCode":"3997403","prefectureKana":"ﾅｶﾞﾉｹﾝ","cityKana":"ﾏﾂﾓﾄｼ","streetKana":"ｱﾅｻﾞﾜ","prefecture":"長野県","city":"松本市","street":"穴沢"},{"zipCode":"3990007","prefectureKana":"ﾅｶﾞﾉｹﾝ","cityKana":"ﾏﾂﾓﾄｼ","streetKana":"ｲｼｼﾊﾞ(3､4ﾁｮｳﾒ)","prefecture":"長野県","city":"松本市","street":"石芝（３、４丁目）"},{"zipCode":"3997405","prefectureKana":"ﾅｶﾞﾉｹﾝ","cityKana":"ﾏﾂﾓﾄｼ","streetKana":"ｲﾀﾊﾞ","prefecture":"長野県","city":"松本市","street":"板場"},{"zipCode":"3990004","prefectureKana":"ﾅｶﾞﾉｹﾝ","cityKana":"ﾏﾂﾓﾄｼ","streetKana":"ｲﾁﾊﾞ","prefecture":"長野県","city":"松本市","street":"市場"},{"zipCode":"3990023","prefectureKana":"ﾅｶﾞﾉｹﾝ","cityKana":"ﾏﾂﾓﾄｼ","streetKana":"ｳﾁﾀﾞ","prefecture":"長野県","city":"松本市","street":"内田"},{"zipCode":"3997413","prefectureKana":"ﾅｶﾞﾉｹﾝ","cityKana":"ﾏﾂﾓﾄｼ","streetKana":"ｶﾅﾔﾏﾏﾁ","prefecture":"長野県","city":"松本市","street":"金山町"},{"zipCode":"3997417","prefectureKana":"ﾅｶﾞﾉｹﾝ","cityKana":"ﾏﾂﾓﾄｼ","streetKana":"ｶﾘﾔﾊﾗﾏﾁ","prefecture":"長野県","city":"松本市","street":"刈谷原町"},{"zipCode":"3997401","prefectureKana":"ﾅｶﾞﾉｹﾝ","cityKana":"ﾏﾂﾓﾄｼ","streetKana":"ｺﾞｼﾞｮｳ","prefecture":"長野県","city":"松本市","street":"五常"},{"zipCode":"3990024","prefectureKana":"ﾅｶﾞﾉｹﾝ","cityKana":"ﾏﾂﾓﾄｼ","streetKana":"ｺﾄﾌﾞｷｺｱｶ","prefecture":"長野県","city":"松本市","street":"寿小赤"},{"zipCode":"3990012","prefectureKana":"ﾅｶﾞﾉｹﾝ","cityKana":"ﾏﾂﾓﾄｼ","streetKana":"ｺﾄﾌﾞｷｼﾗｾﾌﾞﾁ","prefecture":"長野県","city":"松本市","street":"寿白瀬渕"},{"zipCode":"3990025","prefectureKana":"ﾅｶﾞﾉｹﾝ","cityKana":"ﾏﾂﾓﾄｼ","streetKana":"ｺﾄﾌﾞｷﾀﾞｲ","prefecture":"長野県","city":"松本市","street":"寿台"},{"zipCode":"3990021","prefectureKana":"ﾅｶﾞﾉｹﾝ","cityKana":"ﾏﾂﾓﾄｼ","streetKana":"ｺﾄﾌﾞｷﾄﾖｵｶ","prefecture":"長野県","city":"松本市","street":"寿豊丘"},{"zipCode":"3990011","prefectureKana":"ﾅｶﾞﾉｹﾝ","cityKana":"ﾏﾂﾓﾄｼ","streetKana":"ｺﾄﾌﾞｷｷﾀ","prefecture":"長野県","city":"松本市","street":"寿北"},{"zipCode":"3990026","prefectureKana":"ﾅｶﾞﾉｹﾝ","cityKana":"ﾏﾂﾓﾄｼ","streetKana":"ｺﾄﾌﾞｷﾅｶ","prefecture":"長野県","city":"松本市","street":"寿中"},{"zipCode":"3990027","prefectureKana":"ﾅｶﾞﾉｹﾝ","cityKana":"ﾏﾂﾓﾄｼ","streetKana":"ｺﾄﾌﾞｷﾐﾅﾐ","prefecture":"長野県","city":"松本市","street":"寿南"},{"zipCode":"3990039","prefectureKana":"ﾅｶﾞﾉｹﾝ","cityKana":"ﾏﾂﾓﾄｼ","streetKana":"ｺﾔｷﾀ","prefecture":"長野県","city":"松本市","street":"小屋北"},{"zipCode":"3990038","prefectureKana":"ﾅｶﾞﾉｹﾝ","cityKana":"ﾏﾂﾓﾄｼ","streetKana":"ｺﾔﾐﾅﾐ","prefecture":"長野県","city":"松本市","street":"小屋南"},{"zipCode":"3990033","prefectureKana":"ﾅｶﾞﾉｹﾝ","cityKana":"ﾏﾂﾓﾄｼ","streetKana":"ｻｻｶﾞ","prefecture":"長野県","city":"松本市","street":"笹賀"},{"zipCode":"3998251","prefectureKana":"ﾅｶﾞﾉｹﾝ","cityKana":"ﾏﾂﾓﾄｼ","streetKana":"ｼﾏｳﾁ(9820､9821､9823-9830､9864ﾊﾞﾝﾁｲｼﾞｮｳ)","prefecture":"長野県","city":"松本市","street":"島内（９８２０、９８２１、９８２３～９８３０、９８６４番地以上）"},{"zipCode":"3997418","prefectureKana":"ﾅｶﾞﾉｹﾝ","cityKana":"ﾏﾂﾓﾄｼ","streetKana":"ｿﾘﾏﾁ","prefecture":"長野県","city":"松本市","street":"反町"},{"zipCode":"3997414","prefectureKana":"ﾅｶﾞﾉｹﾝ","cityKana":"ﾏﾂﾓﾄｼ","streetKana":"ﾄﾉﾉｲﾘ","prefecture":"長野県","city":"松本市","street":"殿野入"},{"zipCode":"3997404","prefectureKana":"ﾅｶﾞﾉｹﾝ","cityKana":"ﾏﾂﾓﾄｼ","streetKana":"ﾄﾘｲﾃﾞ","prefecture":"長野県","city":"松本市","street":"取出"},{"zipCode":"3997411","prefectureKana":"ﾅｶﾞﾉｹﾝ","cityKana":"ﾏﾂﾓﾄｼ","streetKana":"ﾅｶｶﾞﾜ","prefecture":"長野県","city":"松本市","street":"中川"},{"zipCode":"3997416","prefectureKana":"ﾅｶﾞﾉｹﾝ","cityKana":"ﾏﾂﾓﾄｼ","streetKana":"ﾅﾅｱﾗｼ","prefecture":"長野県","city":"松本市","street":"七嵐"},{"zipCode":"3990006","prefectureKana":"ﾅｶﾞﾉｹﾝ","cityKana":"ﾏﾂﾓﾄｼ","streetKana":"ﾉﾐｿﾞﾆｼ","prefecture":"長野県","city":"松本市","street":"野溝西"},{"zipCode":"3990034","prefectureKana":"ﾅｶﾞﾉｹﾝ","cityKana":"ﾏﾂﾓﾄｼ","streetKana":"ﾉﾐｿﾞﾋｶﾞｼ","prefecture":"長野県","city":"松本市","street":"野溝東"},{"zipCode":"3990005","prefectureKana":"ﾅｶﾞﾉｹﾝ","cityKana":"ﾏﾂﾓﾄｼ","streetKana":"ﾉﾐｿﾞﾓｯｺｳ","prefecture":"長野県","city":"松本市","street":"野溝木工"},{"zipCode":"3990014","prefectureKana":"ﾅｶﾞﾉｹﾝ","cityKana":"ﾏﾂﾓﾄｼ","streetKana":"ﾋﾗﾀﾋｶﾞｼ","prefecture":"長野県","city":"松本市","street":"平田東"},{"zipCode":"3990015","prefectureKana":"ﾅｶﾞﾉｹﾝ","cityKana":"ﾏﾂﾓﾄｼ","streetKana":"ﾋﾗﾀﾆｼ","prefecture":"長野県","city":"松本市","street":"平田西"},{"zipCode":"3997412","prefectureKana":"ﾅｶﾞﾉｹﾝ","cityKana":"ﾏﾂﾓﾄｼ","streetKana":"ﾎﾌｸｼﾞﾏﾁ","prefecture":"長野県","city":"松本市","street":"保福寺町"},{"zipCode":"3990022","prefectureKana":"ﾅｶﾞﾉｹﾝ","cityKana":"ﾏﾂﾓﾄｼ","streetKana":"ﾏﾂﾊﾞﾗ","prefecture":"長野県","city":"松本市","street":"松原"},{"zipCode":"3990001","prefectureKana":"ﾅｶﾞﾉｹﾝ","cityKana":"ﾏﾂﾓﾄｼ","streetKana":"ﾐﾔﾀ","prefecture":"長野県","city":"松本市","street":"宮田"},{"zipCode":"3990035","prefectureKana":"ﾅｶﾞﾉｹﾝ","cityKana":"ﾏﾂﾓﾄｼ","streetKana":"ﾑﾗｲﾏﾁｷﾀ","prefecture":"長野県","city":"松本市","street":"村井町北"},{"zipCode":"3990037","prefectureKana":"ﾅｶﾞﾉｹﾝ","cityKana":"ﾏﾂﾓﾄｼ","streetKana":"ﾑﾗｲﾏﾁﾆｼ","prefecture":"長野県","city":"松本市","street":"村井町西"},{"zipCode":"3990036","prefectureKana":"ﾅｶﾞﾉｹﾝ","cityKana":"ﾏﾂﾓﾄｼ","streetKana":"ﾑﾗｲﾏﾁﾐﾅﾐ","prefecture":"長野県","city":"松本市","street":"村井町南"},{"zipCode":"3990002","prefectureKana":"ﾅｶﾞﾉｹﾝ","cityKana":"ﾏﾂﾓﾄｼ","streetKana":"ﾖｼﾉ","prefecture":"長野県","city":"松本市","street":"芳野"},{"zipCode":"3992434","prefectureKana":"ﾅｶﾞﾉｹﾝ","cityKana":"ｲｲﾀﾞｼ","streetKana":"ｲｽﾞｷ","prefecture":"長野県","city":"飯田市","street":"伊豆木"},{"zipCode":"3992564","prefectureKana":"ﾅｶﾞﾉｹﾝ","cityKana":"ｲｲﾀﾞｼ","streetKana":"ｶﾐｶﾜｼﾞ","prefecture":"長野県","city":"飯田市","street":"上川路"},{"zipCode":"3992611","prefectureKana":"ﾅｶﾞﾉｹﾝ","cityKana":"ｲｲﾀﾞｼ","streetKana":"ｶﾐﾋｻｶﾀ","prefecture":"長野県","city":"飯田市","street":"上久堅"},{"zipCode":"3992612","prefectureKana":"ﾅｶﾞﾉｹﾝ","cityKana":"ｲｲﾀﾞｼ","streetKana":"ｶﾐﾋｻｶﾀﾎﾞ","prefecture":"長野県","city":"飯田市","street":"上久堅戊"},{"zipCode":"3991403","prefectureKana":"ﾅｶﾞﾉｹﾝ","cityKana":"ｲｲﾀﾞｼ","streetKana":"ｶﾐﾑﾗ","prefecture":"長野県","city":"飯田市","street":"上村"},{"zipCode":"3992431","prefectureKana":"ﾅｶﾞﾉｹﾝ","cityKana":"ｲｲﾀﾞｼ","streetKana":"ｶﾜｼﾞ","prefecture":"長野県","city":"飯田市","street":"川路"},{"zipCode":"3992565","prefectureKana":"ﾅｶﾞﾉｹﾝ","cityKana":"ｲｲﾀﾞｼ","streetKana":"ｷﾘﾊﾞﾔｼ","prefecture":"長野県","city":"飯田市","street":"桐林"},{"zipCode":"3992566","prefectureKana":"ﾅｶﾞﾉｹﾝ","cityKana":"ｲｲﾀﾞｼ","streetKana":"ｼﾏ","prefecture":"長野県","city":"飯田市","street":"嶋"},{"zipCode":"3992432","prefectureKana":"ﾅｶﾞﾉｹﾝ","cityKana":"ｲｲﾀﾞｼ","streetKana":"ｼﾓｾﾞ","prefecture":"長野県","city":"飯田市","street":"下瀬"},{"zipCode":"3992606","prefectureKana":"ﾅｶﾞﾉｹﾝ","cityKana":"ｲｲﾀﾞｼ","streetKana":"ｼﾓﾋｻｶﾀｲﾅﾊﾞ","prefecture":"長野県","city":"飯田市","street":"下久堅稲葉"},{"zipCode":"3992604","prefectureKana":"ﾅｶﾞﾉｹﾝ","cityKana":"ｲｲﾀﾞｼ","streetKana":"ｼﾓﾋｻｶﾀｶｷﾉｻﾜ","prefecture":"長野県","city":"飯田市","street":"下久堅柿野沢"},{"zipCode":"3992605","prefectureKana":"ﾅｶﾞﾉｹﾝ","cityKana":"ｲｲﾀﾞｼ","streetKana":"ｼﾓﾋｻｶﾀｺﾊﾞﾔｼ","prefecture":"長野県","city":"飯田市","street":"下久堅小林"},{"zipCode":"3992602","prefectureKana":"ﾅｶﾞﾉｹﾝ","cityKana":"ｲｲﾀﾞｼ","streetKana":"ｼﾓﾋｻｶﾀｼﾓﾄﾗｲﾜ","prefecture":"長野県","city":"飯田市","street":"下久堅下虎岩"},{"zipCode":"3992603","prefectureKana":"ﾅｶﾞﾉｹﾝ","cityKana":"ｲｲﾀﾞｼ","streetKana":"ｼﾓﾋｻｶﾀﾁｸﾀﾞｲﾗ","prefecture":"長野県","city":"飯田市","street":"下久堅知久平"},{"zipCode":"3992607","prefectureKana":"ﾅｶﾞﾉｹﾝ","cityKana":"ｲｲﾀﾞｼ","streetKana":"ｼﾓﾋｻｶﾀﾐﾅﾊﾞﾗ","prefecture":"長野県","city":"飯田市","street":"下久堅南原"},{"zipCode":"3992561","prefectureKana":"ﾅｶﾞﾉｹﾝ","cityKana":"ｲｲﾀﾞｼ","streetKana":"ﾀﾞｼﾅ","prefecture":"長野県","city":"飯田市","street":"駄科"},{"zipCode":"3992221","prefectureKana":"ﾅｶﾞﾉｹﾝ","cityKana":"ｲｲﾀﾞｼ","streetKana":"ﾀﾂｴ","prefecture":"長野県","city":"飯田市","street":"龍江"},{"zipCode":"3992433","prefectureKana":"ﾅｶﾞﾉｹﾝ","cityKana":"ｲｲﾀﾞｼ","streetKana":"ﾀﾃｲｼ","prefecture":"長野県","city":"飯田市","street":"立石"},{"zipCode":"3992223","prefectureKana":"ﾅｶﾞﾉｹﾝ","cityKana":"ｲｲﾀﾞｼ","streetKana":"ﾁﾊｴ","prefecture":"長野県","city":"飯田市","street":"千栄"},{"zipCode":"3992222","prefectureKana":"ﾅｶﾞﾉｹﾝ","cityKana":"ｲｲﾀﾞｼ","streetKana":"ﾁﾖ","prefecture":"長野県","city":"飯田市","street":"千代"},{"zipCode":"3992563","prefectureKana":"ﾅｶﾞﾉｹﾝ","cityKana":"ｲｲﾀﾞｼ","streetKana":"ﾄｷﾏﾀ","prefecture":"長野県","city":"飯田市","street":"時又"},{"zipCode":"3992601","prefectureKana":"ﾅｶﾞﾉｹﾝ","cityKana":"ｲｲﾀﾞｼ","streetKana":"ﾄﾗｲﾜ","prefecture":"長野県","city":"飯田市","street":"虎岩"},{"zipCode":"3992562","prefectureKana":"ﾅｶﾞﾉｹﾝ","cityKana":"ｲｲﾀﾞｼ","streetKana":"ﾅｶﾞﾉﾊﾗ","prefecture":"長野県","city":"飯田市","street":"長野原"},{"zipCode":"3991401","prefectureKana":"ﾅｶﾞﾉｹﾝ","cityKana":"ｲｲﾀﾞｼ","streetKana":"ﾐﾅﾐｼﾅﾉｷｻﾞﾜ","prefecture":"長野県","city":"飯田市","street":"南信濃木沢"},{"zipCode":"3991221","prefectureKana":"ﾅｶﾞﾉｹﾝ","cityKana":"ｲｲﾀﾞｼ","streetKana":"ﾐﾅﾐｼﾅﾉﾐﾅﾐﾜﾀﾞ(ﾏﾝｺﾞ)","prefecture":"長野県","city":"飯田市","street":"南信濃南和田（万古）"},{"zipCode":"3991313","prefectureKana":"ﾅｶﾞﾉｹﾝ","cityKana":"ｲｲﾀﾞｼ","streetKana":"ﾐﾅﾐｼﾅﾉﾐﾅﾐﾜﾀﾞ(ｿﾉﾀ)","prefecture":"長野県","city":"飯田市","street":"南信濃南和田（その他）"},{"zipCode":"3991312","prefectureKana":"ﾅｶﾞﾉｹﾝ","cityKana":"ｲｲﾀﾞｼ","streetKana":"ﾐﾅﾐｼﾅﾉﾔｴｺﾞｳﾁ","prefecture":"長野県","city":"飯田市","street":"南信濃八重河内"},{"zipCode":"3991311","prefectureKana":"ﾅｶﾞﾉｹﾝ","cityKana":"ｲｲﾀﾞｼ","streetKana":"ﾐﾅﾐｼﾅﾉﾜﾀﾞ","prefecture":"長野県","city":"飯田市","street":"南信濃和田"},{"zipCode":"3994431","prefectureKana":"ﾅｶﾞﾉｹﾝ","cityKana":"ｲﾅｼ","streetKana":"ﾆｼﾊﾙﾁｶ","prefecture":"長野県","city":"伊那市","street":"西春近"},{"zipCode":"3994501","prefectureKana":"ﾅｶﾞﾉｹﾝ","cityKana":"ｲﾅｼ","streetKana":"ﾆｼﾐﾉﾜ","prefecture":"長野県","city":"伊那市","street":"西箕輪"},{"zipCode":"3994432","prefectureKana":"ﾅｶﾞﾉｹﾝ","cityKana":"ｲﾅｼ","streetKana":"ﾋｶﾞｼﾊﾙﾁｶ","prefecture":"長野県","city":"伊那市","street":"東春近"},{"zipCode":"3994100","prefectureKana":"ﾅｶﾞﾉｹﾝ","cityKana":"ｺﾏｶﾞﾈｼ","streetKana":"ｲｶﾆｹｲｻｲｶﾞﾅｲﾊﾞｱｲ","prefecture":"長野県","city":"駒ヶ根市","street":"以下に掲載がない場合"},{"zipCode":"3994113","prefectureKana":"ﾅｶﾞﾉｹﾝ","cityKana":"ｺﾏｶﾞﾈｼ","streetKana":"ｱｶｽﾞﾏﾁ","prefecture":"長野県","city":"駒ヶ根市","street":"赤須町"},{"zipCode":"3994105","prefectureKana":"ﾅｶﾞﾉｹﾝ","cityKana":"ｺﾏｶﾞﾈｼ","streetKana":"ｱｶｽﾞﾋｶﾞｼ","prefecture":"長野県","city":"駒ヶ根市","street":"赤須東"},{"zipCode":"3994117","prefectureKana":"ﾅｶﾞﾉｹﾝ","cityKana":"ｺﾏｶﾞﾈｼ","streetKana":"ｱｶﾎ","prefecture":"長野県","city":"駒ヶ根市","street":"赤穂"},{"zipCode":"3994102","prefectureKana":"ﾅｶﾞﾉｹﾝ","cityKana":"ｺﾏｶﾞﾈｼ","streetKana":"ｲｲｻﾞｶ","prefecture":"長野県","city":"駒ヶ根市","street":"飯坂"},{"zipCode":"3994115","prefectureKana":"ﾅｶﾞﾉｹﾝ","cityKana":"ｺﾏｶﾞﾈｼ","streetKana":"ｳﾜﾌﾞｻｶｴﾏﾁ","prefecture":"長野県","city":"駒ヶ根市","street":"上穂栄町"},{"zipCode":"3994114","prefectureKana":"ﾅｶﾞﾉｹﾝ","cityKana":"ｺﾏｶﾞﾈｼ","streetKana":"ｳﾜﾌﾞﾐﾅﾐ","prefecture":"長野県","city":"駒ヶ根市","street":"上穂南"},{"zipCode":"3994116","prefectureKana":"ﾅｶﾞﾉｹﾝ","cityKana":"ｺﾏｶﾞﾈｼ","streetKana":"ｳﾜﾌﾞｷﾀ","prefecture":"長野県","city":"駒ヶ根市","street":"上穂北"},{"zipCode":"3994111","prefectureKana":"ﾅｶﾞﾉｹﾝ","cityKana":"ｺﾏｶﾞﾈｼ","streetKana":"ｷﾀﾏﾁ","prefecture":"長野県","city":"駒ヶ根市","street":"北町"},{"zipCode":"3994104","prefectureKana":"ﾅｶﾞﾉｹﾝ","cityKana":"ｺﾏｶﾞﾈｼ","streetKana":"ｷｮｳﾂﾞｶ","prefecture":"長野県","city":"駒ヶ根市","street":"経塚"},{"zipCode":"3994108","prefectureKana":"ﾅｶﾞﾉｹﾝ","cityKana":"ｺﾏｶﾞﾈｼ","streetKana":"ｼﾓｲﾁﾊﾞ","prefecture":"長野県","city":"駒ヶ根市","street":"下市場"},{"zipCode":"3994232","prefectureKana":"ﾅｶﾞﾉｹﾝ","cityKana":"ｺﾏｶﾞﾈｼ","streetKana":"ｼﾓﾀﾞｲﾗ(2070-2119､2309-2311､2419､2421-2426","prefecture":"長野県","city":"駒ヶ根市","street":"下平（２０７０～２１１９、２３０９～２３１１、２４１９、２４２１～２４２６"},{"zipCode":"3994232","prefectureKana":"ﾅｶﾞﾉｹﾝ","cityKana":"ｺﾏｶﾞﾈｼ","streetKana":"､2433-2450)","prefecture":"長野県","city":"駒ヶ根市","street":"、２４３３～２４５０）"},{"zipCode":"3994101","prefectureKana":"ﾅｶﾞﾉｹﾝ","cityKana":"ｺﾏｶﾞﾈｼ","streetKana":"ｼﾓﾀﾞｲﾗ(ｿﾉﾀ)","prefecture":"長野県","city":"駒ヶ根市","street":"下平（その他）"},{"zipCode":"3994112","prefectureKana":"ﾅｶﾞﾉｹﾝ","cityKana":"ｺﾏｶﾞﾈｼ","streetKana":"ﾁｭｳｵｳ","prefecture":"長野県","city":"駒ヶ根市","street":"中央"},{"zipCode":"3994231","prefectureKana":"ﾅｶﾞﾉｹﾝ","cityKana":"ｺﾏｶﾞﾈｼ","streetKana":"ﾅｶｻﾞﾜ","prefecture":"長野県","city":"駒ヶ根市","street":"中沢"},{"zipCode":"3994103","prefectureKana":"ﾅｶﾞﾉｹﾝ","cityKana":"ｺﾏｶﾞﾈｼ","streetKana":"ﾅｼﾉｷ","prefecture":"長野県","city":"駒ヶ根市","street":"梨の木"},{"zipCode":"3994321","prefectureKana":"ﾅｶﾞﾉｹﾝ","cityKana":"ｺﾏｶﾞﾈｼ","streetKana":"ﾋｶﾞｼｲﾅ","prefecture":"長野県","city":"駒ヶ根市","street":"東伊那"},{"zipCode":"3994106","prefectureKana":"ﾅｶﾞﾉｹﾝ","cityKana":"ｺﾏｶﾞﾈｼ","streetKana":"ﾋｶﾞｼﾏﾁ","prefecture":"長野県","city":"駒ヶ根市","street":"東町"},{"zipCode":"3994107","prefectureKana":"ﾅｶﾞﾉｹﾝ","cityKana":"ｺﾏｶﾞﾈｼ","streetKana":"ﾐﾅﾐﾀﾞ","prefecture":"長野県","city":"駒ヶ根市","street":"南田"},{"zipCode":"3999101","prefectureKana":"ﾅｶﾞﾉｹﾝ","cityKana":"ｵｵﾏﾁｼ","streetKana":"ﾐｱｻ","prefecture":"長野県","city":"大町市","street":"美麻"},{"zipCode":"3997301","prefectureKana":"ﾅｶﾞﾉｹﾝ","cityKana":"ｵｵﾏﾁｼ","streetKana":"ﾔｻｶ","prefecture":"長野県","city":"大町市","street":"八坂"},{"zipCode":"3997302","prefectureKana":"ﾅｶﾞﾉｹﾝ","cityKana":"ｵｵﾏﾁｼ","streetKana":"ﾔｻｶｼｮｳﾌﾞ","prefecture":"長野県","city":"大町市","street":"八坂菖蒲"},{"zipCode":"3990700","prefectureKana":"ﾅｶﾞﾉｹﾝ","cityKana":"ｼｵｼﾞﾘｼ","streetKana":"ｲｶﾆｹｲｻｲｶﾞﾅｲﾊﾞｱｲ","prefecture":"長野県","city":"塩尻市","street":"以下に掲載がない場合"},{"zipCode":"3990713","prefectureKana":"ﾅｶﾞﾉｹﾝ","cityKana":"ｼｵｼﾞﾘｼ","streetKana":"ｵｵｺﾞﾔ","prefecture":"長野県","city":"塩尻市","street":"大小屋"},{"zipCode":"3990722","prefectureKana":"ﾅｶﾞﾉｹﾝ","cityKana":"ｼｵｼﾞﾘｼ","streetKana":"ｶｷｻﾞﾜ","prefecture":"長野県","city":"塩尻市","street":"柿沢"},{"zipCode":"3990071","prefectureKana":"ﾅｶﾞﾉｹﾝ","cityKana":"ｼｵｼﾞﾘｼ","streetKana":"ｶﾀｵｶ(3635､3680､5794､6114ﾊﾞﾝﾁ)","prefecture":"長野県","city":"塩尻市","street":"片丘（３６３５、３６８０、５７９４、６１１４番地）"},{"zipCode":"3990711","prefectureKana":"ﾅｶﾞﾉｹﾝ","cityKana":"ｼｵｼﾞﾘｼ","streetKana":"ｶﾀｵｶ(ｿﾉﾀ)","prefecture":"長野県","city":"塩尻市","street":"片丘（その他）"},{"zipCode":"3990721","prefectureKana":"ﾅｶﾞﾉｹﾝ","cityKana":"ｼｵｼﾞﾘｼ","streetKana":"ｶﾅｲ","prefecture":"長野県","city":"塩尻市","street":"金井"},{"zipCode":"3990724","prefectureKana":"ﾅｶﾞﾉｹﾝ","cityKana":"ｼｵｼﾞﾘｼ","streetKana":"ｶﾐﾆｼｼﾞｮｳ","prefecture":"長野県","city":"塩尻市","street":"上西条"},{"zipCode":"3996302","prefectureKana":"ﾅｶﾞﾉｹﾝ","cityKana":"ｼｵｼﾞﾘｼ","streetKana":"ｷｿﾋﾗｻﾜ","prefecture":"長野県","city":"塩尻市","street":"木曽平沢"},{"zipCode":"3990651","prefectureKana":"ﾅｶﾞﾉｹﾝ","cityKana":"ｼｵｼﾞﾘｼ","streetKana":"ｷﾀｵﾉ","prefecture":"長野県","city":"塩尻市","street":"北小野"},{"zipCode":"3990723","prefectureKana":"ﾅｶﾞﾉｹﾝ","cityKana":"ｼｵｼﾞﾘｼ","streetKana":"ｷｭｳｼｵｼﾞﾘ","prefecture":"長野県","city":"塩尻市","street":"旧塩尻"},{"zipCode":"3990716","prefectureKana":"ﾅｶﾞﾉｹﾝ","cityKana":"ｼｵｼﾞﾘｼ","streetKana":"ｻｼﾞｷ","prefecture":"長野県","city":"塩尻市","street":"桟敷"},{"zipCode":"3990712","prefectureKana":"ﾅｶﾞﾉｹﾝ","cityKana":"ｼｵｼﾞﾘｼ","streetKana":"ｼｵｼﾞﾘﾏﾁ","prefecture":"長野県","city":"塩尻市","street":"塩尻町"},{"zipCode":"3990726","prefectureKana":"ﾅｶﾞﾉｹﾝ","cityKana":"ｼｵｼﾞﾘｼ","streetKana":"ｼﾓﾆｼｼﾞｮｳ","prefecture":"長野県","city":"塩尻市","street":"下西条"},{"zipCode":"3996462","prefectureKana":"ﾅｶﾞﾉｹﾝ","cityKana":"ｼｵｼﾞﾘｼ","streetKana":"ｾﾊﾞ","prefecture":"長野県","city":"塩尻市","street":"洗馬"},{"zipCode":"3996461","prefectureKana":"ﾅｶﾞﾉｹﾝ","cityKana":"ｼｵｼﾞﾘｼ","streetKana":"ｿｳｶﾞ","prefecture":"長野県","city":"塩尻市","street":"宗賀"},{"zipCode":"3990744","prefectureKana":"ﾅｶﾞﾉｹﾝ","cityKana":"ｼｵｼﾞﾘｼ","streetKana":"ﾀﾞｲﾓﾝ7ｸ","prefecture":"長野県","city":"塩尻市","street":"大門七区"},{"zipCode":"3990742","prefectureKana":"ﾅｶﾞﾉｹﾝ","cityKana":"ｼｵｼﾞﾘｼ","streetKana":"ﾀﾞｲﾓﾝｲｽﾞﾐﾁｮｳ","prefecture":"長野県","city":"塩尻市","street":"大門泉町"},{"zipCode":"3990745","prefectureKana":"ﾅｶﾞﾉｹﾝ","cityKana":"ｼｵｼﾞﾘｼ","streetKana":"ﾀﾞｲﾓﾝｷｷｮｳﾁｮｳ","prefecture":"長野県","city":"塩尻市","street":"大門桔梗町"},{"zipCode":"3990741","prefectureKana":"ﾅｶﾞﾉｹﾝ","cityKana":"ｼｵｼﾞﾘｼ","streetKana":"ﾀﾞｲﾓﾝｻｲﾜｲﾁｮｳ","prefecture":"長野県","city":"塩尻市","street":"大門幸町"},{"zipCode":"3990743","prefectureKana":"ﾅｶﾞﾉｹﾝ","cityKana":"ｼｵｼﾞﾘｼ","streetKana":"ﾀﾞｲﾓﾝﾀｶﾞﾜﾁｮｳ","prefecture":"長野県","city":"塩尻市","street":"大門田川町"},{"zipCode":"3990746","prefectureKana":"ﾅｶﾞﾉｹﾝ","cityKana":"ｼｵｼﾞﾘｼ","streetKana":"ﾀﾞｲﾓﾝﾅﾐｷﾁｮｳ","prefecture":"長野県","city":"塩尻市","street":"大門並木町"},{"zipCode":"3990736","prefectureKana":"ﾅｶﾞﾉｹﾝ","cityKana":"ｼｵｼﾞﾘｼ","streetKana":"ﾀﾞｲﾓﾝ1ﾊﾞﾝﾁｮｳ","prefecture":"長野県","city":"塩尻市","street":"大門一番町"},{"zipCode":"3990735","prefectureKana":"ﾅｶﾞﾉｹﾝ","cityKana":"ｼｵｼﾞﾘｼ","streetKana":"ﾀﾞｲﾓﾝ2ﾊﾞﾝﾁｮｳ","prefecture":"長野県","city":"塩尻市","street":"大門二番町"},{"zipCode":"3990733","prefectureKana":"ﾅｶﾞﾉｹﾝ","cityKana":"ｼｵｼﾞﾘｼ","streetKana":"ﾀﾞｲﾓﾝ3ﾊﾞﾝﾁｮｳ","prefecture":"長野県","city":"塩尻市","street":"大門三番町"},{"zipCode":"3990734","prefectureKana":"ﾅｶﾞﾉｹﾝ","cityKana":"ｼｵｼﾞﾘｼ","streetKana":"ﾀﾞｲﾓﾝ4ﾊﾞﾝﾁｮｳ","prefecture":"長野県","city":"塩尻市","street":"大門四番町"},{"zipCode":"3990732","prefectureKana":"ﾅｶﾞﾉｹﾝ","cityKana":"ｼｵｼﾞﾘｼ","streetKana":"ﾀﾞｲﾓﾝ5ﾊﾞﾝﾁｮｳ","prefecture":"長野県","city":"塩尻市","street":"大門五番町"},{"zipCode":"3990731","prefectureKana":"ﾅｶﾞﾉｹﾝ","cityKana":"ｼｵｼﾞﾘｼ","streetKana":"ﾀﾞｲﾓﾝ6ﾊﾞﾝﾁｮｳ","prefecture":"長野県","city":"塩尻市","street":"大門六番町"},{"zipCode":"3990738","prefectureKana":"ﾅｶﾞﾉｹﾝ","cityKana":"ｼｵｼﾞﾘｼ","streetKana":"ﾀﾞｲﾓﾝ7ﾊﾞﾝﾁｮｳ","prefecture":"長野県","city":"塩尻市","street":"大門七番町"},{"zipCode":"3990737","prefectureKana":"ﾅｶﾞﾉｹﾝ","cityKana":"ｼｵｼﾞﾘｼ","streetKana":"ﾀﾞｲﾓﾝ8ﾊﾞﾝﾁｮｳ","prefecture":"長野県","city":"塩尻市","street":"大門八番町"},{"zipCode":"3990744","prefectureKana":"ﾅｶﾞﾉｹﾝ","cityKana":"ｼｵｼﾞﾘｼ","streetKana":"ﾀﾞｲﾓﾝ(ﾊﾞﾝﾁ)","prefecture":"長野県","city":"塩尻市","street":"大門（番地）"},{"zipCode":"3990725","prefectureKana":"ﾅｶﾞﾉｹﾝ","cityKana":"ｼｵｼﾞﾘｼ","streetKana":"ﾅｶﾆｼｼﾞｮｳ","prefecture":"長野県","city":"塩尻市","street":"中西条"},{"zipCode":"3990715","prefectureKana":"ﾅｶﾞﾉｹﾝ","cityKana":"ｼｵｼﾞﾘｼ","streetKana":"ﾅｶﾞｳﾈ","prefecture":"長野県","city":"塩尻市","street":"長畝"},{"zipCode":"3996303","prefectureKana":"ﾅｶﾞﾉｹﾝ","cityKana":"ｼｵｼﾞﾘｼ","streetKana":"ﾅﾗｲ","prefecture":"長野県","city":"塩尻市","street":"奈良井"},{"zipCode":"3996301","prefectureKana":"ﾅｶﾞﾉｹﾝ","cityKana":"ｼｵｼﾞﾘｼ","streetKana":"ﾆｴｶﾜ","prefecture":"長野県","city":"塩尻市","street":"贄川"},{"zipCode":"3990705","prefectureKana":"ﾅｶﾞﾉｹﾝ","cityKana":"ｼｵｼﾞﾘｼ","streetKana":"ﾋﾛｵｶｶﾀｲｼ","prefecture":"長野県","city":"塩尻市","street":"広丘堅石"},{"zipCode":"3990704","prefectureKana":"ﾅｶﾞﾉｹﾝ","cityKana":"ｼｵｼﾞﾘｼ","streetKana":"ﾋﾛｵｶｺﾞｳﾊﾞﾗ","prefecture":"長野県","city":"塩尻市","street":"広丘郷原"},{"zipCode":"3990703","prefectureKana":"ﾅｶﾞﾉｹﾝ","cityKana":"ｼｵｼﾞﾘｼ","streetKana":"ﾋﾛｵｶﾀｶｲﾃﾞ","prefecture":"長野県","city":"塩尻市","street":"広丘高出"},{"zipCode":"3990702","prefectureKana":"ﾅｶﾞﾉｹﾝ","cityKana":"ｼｵｼﾞﾘｼ","streetKana":"ﾋﾛｵｶﾉﾑﾗ","prefecture":"長野県","city":"塩尻市","street":"広丘野村"},{"zipCode":"3990706","prefectureKana":"ﾅｶﾞﾉｹﾝ","cityKana":"ｼｵｼﾞﾘｼ","streetKana":"ﾋﾛｵｶﾊﾗｼﾝﾃﾞﾝ","prefecture":"長野県","city":"塩尻市","street":"広丘原新田"},{"zipCode":"3990701","prefectureKana":"ﾅｶﾞﾉｹﾝ","cityKana":"ｼｵｼﾞﾘｼ","streetKana":"ﾋﾛｵｶﾖｼﾀﾞ","prefecture":"長野県","city":"塩尻市","street":"広丘吉田"},{"zipCode":"3990714","prefectureKana":"ﾅｶﾞﾉｹﾝ","cityKana":"ｼｵｼﾞﾘｼ","streetKana":"ﾎﾘﾉｳﾁ","prefecture":"長野県","city":"塩尻市","street":"堀ノ内"},{"zipCode":"3990727","prefectureKana":"ﾅｶﾞﾉｹﾝ","cityKana":"ｼｵｼﾞﾘｼ","streetKana":"ﾐﾄﾞﾘｺ","prefecture":"長野県","city":"塩尻市","street":"みどり湖"},{"zipCode":"3990728","prefectureKana":"ﾅｶﾞﾉｹﾝ","cityKana":"ｼｵｼﾞﾘｼ","streetKana":"ﾐﾈﾊﾗ","prefecture":"長野県","city":"塩尻市","street":"峰原"},{"zipCode":"3998200","prefectureKana":"ﾅｶﾞﾉｹﾝ","cityKana":"ｱﾂﾞﾐﾉｼ","streetKana":"ｲｶﾆｹｲｻｲｶﾞﾅｲﾊﾞｱｲ","prefecture":"長野県","city":"安曇野市","street":"以下に掲載がない場合"},{"zipCode":"3997102","prefectureKana":"ﾅｶﾞﾉｹﾝ","cityKana":"ｱﾂﾞﾐﾉｼ","streetKana":"ｱｶｼﾅﾅｶｶﾞﾜﾃ","prefecture":"長野県","city":"安曇野市","street":"明科中川手"},{"zipCode":"3997104","prefectureKana":"ﾅｶﾞﾉｹﾝ","cityKana":"ｱﾂﾞﾐﾉｼ","streetKana":"ｱｶｼﾅﾅﾅｷ","prefecture":"長野県","city":"安曇野市","street":"明科七貴"},{"zipCode":"3997101","prefectureKana":"ﾅｶﾞﾉｹﾝ","cityKana":"ｱﾂﾞﾐﾉｼ","streetKana":"ｱｶｼﾅﾋｶﾞｼｶﾜﾃ","prefecture":"長野県","city":"安曇野市","street":"明科東川手"},{"zipCode":"3997103","prefectureKana":"ﾅｶﾞﾉｹﾝ","cityKana":"ｱﾂﾞﾐﾉｼ","streetKana":"ｱｶｼﾅﾋｶﾙ","prefecture":"長野県","city":"安曇野市","street":"明科光"},{"zipCode":"3997105","prefectureKana":"ﾅｶﾞﾉｹﾝ","cityKana":"ｱﾂﾞﾐﾉｼ","streetKana":"ｱｶｼﾅﾐﾅﾐﾘｸｺﾞｳ","prefecture":"長野県","city":"安曇野市","street":"明科南陸郷"},{"zipCode":"3998205","prefectureKana":"ﾅｶﾞﾉｹﾝ","cityKana":"ｱﾂﾞﾐﾉｼ","streetKana":"ﾄﾖｼﾅ","prefecture":"長野県","city":"安曇野市","street":"豊科"},{"zipCode":"3998204","prefectureKana":"ﾅｶﾞﾉｹﾝ","cityKana":"ｱﾂﾞﾐﾉｼ","streetKana":"ﾄﾖｼﾅﾀｷﾍﾞ","prefecture":"長野県","city":"安曇野市","street":"豊科高家"},{"zipCode":"3998203","prefectureKana":"ﾅｶﾞﾉｹﾝ","cityKana":"ｱﾂﾞﾐﾉｼ","streetKana":"ﾄﾖｼﾅﾀｻﾞﾜ","prefecture":"長野県","city":"安曇野市","street":"豊科田沢"},{"zipCode":"3998202","prefectureKana":"ﾅｶﾞﾉｹﾝ","cityKana":"ｱﾂﾞﾐﾉｼ","streetKana":"ﾄﾖｼﾅﾋｶﾙ","prefecture":"長野県","city":"安曇野市","street":"豊科光"},{"zipCode":"3998201","prefectureKana":"ﾅｶﾞﾉｹﾝ","cityKana":"ｱﾂﾞﾐﾉｼ","streetKana":"ﾄﾖｼﾅﾐﾅﾐﾎﾀｶ","prefecture":"長野県","city":"安曇野市","street":"豊科南穂高"},{"zipCode":"3998303","prefectureKana":"ﾅｶﾞﾉｹﾝ","cityKana":"ｱﾂﾞﾐﾉｼ","streetKana":"ﾎﾀｶ","prefecture":"長野県","city":"安曇野市","street":"穂高"},{"zipCode":"3998301","prefectureKana":"ﾅｶﾞﾉｹﾝ","cityKana":"ｱﾂﾞﾐﾉｼ","streetKana":"ﾎﾀｶｱﾘｱｹ","prefecture":"長野県","city":"安曇野市","street":"穂高有明"},{"zipCode":"3998304","prefectureKana":"ﾅｶﾞﾉｹﾝ","cityKana":"ｱﾂﾞﾐﾉｼ","streetKana":"ﾎﾀｶｶｼﾜﾊﾞﾗ","prefecture":"長野県","city":"安曇野市","street":"穂高柏原"},{"zipCode":"3998302","prefectureKana":"ﾅｶﾞﾉｹﾝ","cityKana":"ｱﾂﾞﾐﾉｼ","streetKana":"ﾎﾀｶｷﾀﾎﾀｶ","prefecture":"長野県","city":"安曇野市","street":"穂高北穂高"},{"zipCode":"3998305","prefectureKana":"ﾅｶﾞﾉｹﾝ","cityKana":"ｱﾂﾞﾐﾉｼ","streetKana":"ﾎﾀｶﾏｷ","prefecture":"長野県","city":"安曇野市","street":"穂高牧"},{"zipCode":"3998211","prefectureKana":"ﾅｶﾞﾉｹﾝ","cityKana":"ｱﾂﾞﾐﾉｼ","streetKana":"ﾎﾘｶﾞﾈｶﾗｽｶﾞﾜ","prefecture":"長野県","city":"安曇野市","street":"堀金烏川"},{"zipCode":"3998212","prefectureKana":"ﾅｶﾞﾉｹﾝ","cityKana":"ｱﾂﾞﾐﾉｼ","streetKana":"ﾎﾘｶﾞﾈﾐﾀ","prefecture":"長野県","city":"安曇野市","street":"堀金三田"},{"zipCode":"3998103","prefectureKana":"ﾅｶﾞﾉｹﾝ","cityKana":"ｱﾂﾞﾐﾉｼ","streetKana":"ﾐｻﾄｵｸﾞﾗ","prefecture":"長野県","city":"安曇野市","street":"三郷小倉"},{"zipCode":"3998101","prefectureKana":"ﾅｶﾞﾉｹﾝ","cityKana":"ｱﾂﾞﾐﾉｼ","streetKana":"ﾐｻﾄﾒｲｾｲ","prefecture":"長野県","city":"安曇野市","street":"三郷明盛"},{"zipCode":"3998102","prefectureKana":"ﾅｶﾞﾉｹﾝ","cityKana":"ｱﾂﾞﾐﾉｼ","streetKana":"ﾐｻﾄﾕﾀｶ","prefecture":"長野県","city":"安曇野市","street":"三郷温"},{"zipCode":"3990200","prefectureKana":"ﾅｶﾞﾉｹﾝ","cityKana":"ｽﾜｸﾞﾝﾌｼﾞﾐﾏﾁ","streetKana":"ｲｶﾆｹｲｻｲｶﾞﾅｲﾊﾞｱｲ","prefecture":"長野県","city":"諏訪郡富士見町","street":"以下に掲載がない場合"},{"zipCode":"3990102","prefectureKana":"ﾅｶﾞﾉｹﾝ","cityKana":"ｽﾜｸﾞﾝﾌｼﾞﾐﾏﾁ","streetKana":"ｵﾁｱｲ(3060､3600-4600ﾊﾞﾝﾁ)","prefecture":"長野県","city":"諏訪郡富士見町","street":"落合（３０６０、３６００～４６００番地）"},{"zipCode":"3990214","prefectureKana":"ﾅｶﾞﾉｹﾝ","cityKana":"ｽﾜｸﾞﾝﾌｼﾞﾐﾏﾁ","streetKana":"ｵﾁｱｲ(ｿﾉﾀ)","prefecture":"長野県","city":"諏訪郡富士見町","street":"落合（その他）"},{"zipCode":"3990213","prefectureKana":"ﾅｶﾞﾉｹﾝ","cityKana":"ｽﾜｸﾞﾝﾌｼﾞﾐﾏﾁ","streetKana":"ｵｯｺﾄ","prefecture":"長野県","city":"諏訪郡富士見町","street":"乙事"},{"zipCode":"3990101","prefectureKana":"ﾅｶﾞﾉｹﾝ","cityKana":"ｽﾜｸﾞﾝﾌｼﾞﾐﾏﾁ","streetKana":"ｻｶｲ","prefecture":"長野県","city":"諏訪郡富士見町","street":"境"},{"zipCode":"3990212","prefectureKana":"ﾅｶﾞﾉｹﾝ","cityKana":"ｽﾜｸﾞﾝﾌｼﾞﾐﾏﾁ","streetKana":"ﾀﾂｻﾞﾜ","prefecture":"長野県","city":"諏訪郡富士見町","street":"立沢"},{"zipCode":"3990211","prefectureKana":"ﾅｶﾞﾉｹﾝ","cityKana":"ｽﾜｸﾞﾝﾌｼﾞﾐﾏﾁ","streetKana":"ﾌｼﾞﾐ(ｿﾉﾀ)","prefecture":"長野県","city":"諏訪郡富士見町","street":"富士見（その他）"},{"zipCode":"3990400","prefectureKana":"ﾅｶﾞﾉｹﾝ","cityKana":"ｶﾐｲﾅｸﾞﾝﾀﾂﾉﾏﾁ","streetKana":"ｲｶﾆｹｲｻｲｶﾞﾅｲﾊﾞｱｲ","prefecture":"長野県","city":"上伊那郡辰野町","street":"以下に掲載がない場合"},{"zipCode":"3990424","prefectureKana":"ﾅｶﾞﾉｹﾝ","cityKana":"ｶﾐｲﾅｸﾞﾝﾀﾂﾉﾏﾁ","streetKana":"ｱｶﾊﾈ","prefecture":"長野県","city":"上伊那郡辰野町","street":"赤羽"},{"zipCode":"3990428","prefectureKana":"ﾅｶﾞﾉｹﾝ","cityKana":"ｶﾐｲﾅｸﾞﾝﾀﾂﾉﾏﾁ","streetKana":"ｲﾅﾄﾐ","prefecture":"長野県","city":"上伊那郡辰野町","street":"伊那富"},{"zipCode":"3990601","prefectureKana":"ﾅｶﾞﾉｹﾝ","cityKana":"ｶﾐｲﾅｸﾞﾝﾀﾂﾉﾏﾁ","streetKana":"ｵﾉ","prefecture":"長野県","city":"上伊那郡辰野町","street":"小野"},{"zipCode":"3990512","prefectureKana":"ﾅｶﾞﾉｹﾝ","cityKana":"ｶﾐｲﾅｸﾞﾝﾀﾂﾉﾏﾁ","streetKana":"ｶﾐｼﾞﾏ","prefecture":"長野県","city":"上伊那郡辰野町","street":"上島"},{"zipCode":"3990423","prefectureKana":"ﾅｶﾞﾉｹﾝ","cityKana":"ｶﾐｲﾅｸﾞﾝﾀﾂﾉﾏﾁ","streetKana":"ｻﾜｿｺ","prefecture":"長野県","city":"上伊那郡辰野町","street":"沢底"},{"zipCode":"3990421","prefectureKana":"ﾅｶﾞﾉｹﾝ","cityKana":"ｶﾐｲﾅｸﾞﾝﾀﾂﾉﾏﾁ","streetKana":"ﾀﾂﾉ","prefecture":"長野県","city":"上伊那郡辰野町","street":"辰野"},{"zipCode":"3990427","prefectureKana":"ﾅｶﾞﾉｹﾝ","cityKana":"ｶﾐｲﾅｸﾞﾝﾀﾂﾉﾏﾁ","streetKana":"ﾁｭｳｵｳ","prefecture":"長野県","city":"上伊那郡辰野町","street":"中央"},{"zipCode":"3990425","prefectureKana":"ﾅｶﾞﾉｹﾝ","cityKana":"ｶﾐｲﾅｸﾞﾝﾀﾂﾉﾏﾁ","streetKana":"ﾋｸﾞﾁ","prefecture":"長野県","city":"上伊那郡辰野町","street":"樋口"},{"zipCode":"3990422","prefectureKana":"ﾅｶﾞﾉｹﾝ","cityKana":"ｶﾐｲﾅｸﾞﾝﾀﾂﾉﾏﾁ","streetKana":"ﾋﾗｲﾃﾞ","prefecture":"長野県","city":"上伊那郡辰野町","street":"平出"},{"zipCode":"3990426","prefectureKana":"ﾅｶﾞﾉｹﾝ","cityKana":"ｶﾐｲﾅｸﾞﾝﾀﾂﾉﾏﾁ","streetKana":"ﾐﾔｷ","prefecture":"長野県","city":"上伊那郡辰野町","street":"宮木"},{"zipCode":"3990511","prefectureKana":"ﾅｶﾞﾉｹﾝ","cityKana":"ｶﾐｲﾅｸﾞﾝﾀﾂﾉﾏﾁ","streetKana":"ﾖｺｶﾜ","prefecture":"長野県","city":"上伊那郡辰野町","street":"横川"},{"zipCode":"3994600","prefectureKana":"ﾅｶﾞﾉｹﾝ","cityKana":"ｶﾐｲﾅｸﾞﾝﾐﾉﾜﾏﾁ","streetKana":"ｲｶﾆｹｲｻｲｶﾞﾅｲﾊﾞｱｲ","prefecture":"長野県","city":"上伊那郡箕輪町","street":"以下に掲載がない場合"},{"zipCode":"3994605","prefectureKana":"ﾅｶﾞﾉｹﾝ","cityKana":"ｶﾐｲﾅｸﾞﾝﾐﾉﾜﾏﾁ","streetKana":"ﾅｶｿﾞﾈ","prefecture":"長野県","city":"上伊那郡箕輪町","street":"中曽根"},{"zipCode":"3994601","prefectureKana":"ﾅｶﾞﾉｹﾝ","cityKana":"ｶﾐｲﾅｸﾞﾝﾐﾉﾜﾏﾁ","streetKana":"ﾅｶﾐﾉﾜ","prefecture":"長野県","city":"上伊那郡箕輪町","street":"中箕輪"},{"zipCode":"3994602","prefectureKana":"ﾅｶﾞﾉｹﾝ","cityKana":"ｶﾐｲﾅｸﾞﾝﾐﾉﾜﾏﾁ","streetKana":"ﾋｶﾞｼﾐﾉﾜ","prefecture":"長野県","city":"上伊那郡箕輪町","street":"東箕輪"},{"zipCode":"3994604","prefectureKana":"ﾅｶﾞﾉｹﾝ","cityKana":"ｶﾐｲﾅｸﾞﾝﾐﾉﾜﾏﾁ","streetKana":"ﾌｸﾖ","prefecture":"長野県","city":"上伊那郡箕輪町","street":"福与"},{"zipCode":"3994603","prefectureKana":"ﾅｶﾞﾉｹﾝ","cityKana":"ｶﾐｲﾅｸﾞﾝﾐﾉﾜﾏﾁ","streetKana":"ﾐｯｶﾏﾁ","prefecture":"長野県","city":"上伊那郡箕輪町","street":"三日町"},{"zipCode":"3993700","prefectureKana":"ﾅｶﾞﾉｹﾝ","cityKana":"ｶﾐｲﾅｸﾞﾝｲｲｼﾞﾏﾏﾁ","streetKana":"ｲｶﾆｹｲｻｲｶﾞﾅｲﾊﾞｱｲ","prefecture":"長野県","city":"上伊那郡飯島町","street":"以下に掲載がない場合"},{"zipCode":"3993702","prefectureKana":"ﾅｶﾞﾉｹﾝ","cityKana":"ｶﾐｲﾅｸﾞﾝｲｲｼﾞﾏﾏﾁ","streetKana":"ｲｲｼﾞﾏ","prefecture":"長野県","city":"上伊那郡飯島町","street":"飯島"},{"zipCode":"3993701","prefectureKana":"ﾅｶﾞﾉｹﾝ","cityKana":"ｶﾐｲﾅｸﾞﾝｲｲｼﾞﾏﾏﾁ","streetKana":"ﾀｷﾞﾘ","prefecture":"長野県","city":"上伊那郡飯島町","street":"田切"},{"zipCode":"3993705","prefectureKana":"ﾅｶﾞﾉｹﾝ","cityKana":"ｶﾐｲﾅｸﾞﾝｲｲｼﾞﾏﾏﾁ","streetKana":"ﾅﾅｸﾎﾞ","prefecture":"長野県","city":"上伊那郡飯島町","street":"七久保"},{"zipCode":"3993703","prefectureKana":"ﾅｶﾞﾉｹﾝ","cityKana":"ｶﾐｲﾅｸﾞﾝｲｲｼﾞﾏﾏﾁ","streetKana":"ﾋｯｿﾘ","prefecture":"長野県","city":"上伊那郡飯島町","street":"日曽利"},{"zipCode":"3993704","prefectureKana":"ﾅｶﾞﾉｹﾝ","cityKana":"ｶﾐｲﾅｸﾞﾝｲｲｼﾞﾏﾏﾁ","streetKana":"ﾎﾝｺﾞｳ","prefecture":"長野県","city":"上伊那郡飯島町","street":"本郷"},{"zipCode":"3994511","prefectureKana":"ﾅｶﾞﾉｹﾝ","cityKana":"ｶﾐｲﾅｸﾞﾝﾐﾅﾐﾐﾉﾜﾑﾗ","streetKana":"ﾐﾅﾐﾐﾉﾜﾑﾗｲﾁｴﾝ","prefecture":"長野県","city":"上伊那郡南箕輪村","street":"南箕輪村一円"},{"zipCode":"3993800","prefectureKana":"ﾅｶﾞﾉｹﾝ","cityKana":"ｶﾐｲﾅｸﾞﾝﾅｶｶﾞﾜﾑﾗ","streetKana":"ｲｶﾆｹｲｻｲｶﾞﾅｲﾊﾞｱｲ","prefecture":"長野県","city":"上伊那郡中川村","street":"以下に掲載がない場合"},{"zipCode":"3993801","prefectureKana":"ﾅｶﾞﾉｹﾝ","cityKana":"ｶﾐｲﾅｸﾞﾝﾅｶｶﾞﾜﾑﾗ","streetKana":"ｵｵｸｻ","prefecture":"長野県","city":"上伊那郡中川村","street":"大草"},{"zipCode":"3993802","prefectureKana":"ﾅｶﾞﾉｹﾝ","cityKana":"ｶﾐｲﾅｸﾞﾝﾅｶｶﾞﾜﾑﾗ","streetKana":"ｶﾀｷﾞﾘ","prefecture":"長野県","city":"上伊那郡中川村","street":"片桐"},{"zipCode":"3993803","prefectureKana":"ﾅｶﾞﾉｹﾝ","cityKana":"ｶﾐｲﾅｸﾞﾝﾅｶｶﾞﾜﾑﾗ","streetKana":"ｶﾂﾗｼﾏ","prefecture":"長野県","city":"上伊那郡中川村","street":"葛島"},{"zipCode":"3993804","prefectureKana":"ﾅｶﾞﾉｹﾝ","cityKana":"ｶﾐｲﾅｸﾞﾝﾅｶｶﾞﾜﾑﾗ","streetKana":"ｼﾄｸ","prefecture":"長野県","city":"上伊那郡中川村","street":"四徳"},{"zipCode":"3994301","prefectureKana":"ﾅｶﾞﾉｹﾝ","cityKana":"ｶﾐｲﾅｸﾞﾝﾐﾔﾀﾞﾑﾗ","streetKana":"ﾐﾔﾀﾞﾑﾗｲﾁｴﾝ","prefecture":"長野県","city":"上伊那郡宮田村","street":"宮田村一円"},{"zipCode":"3993300","prefectureKana":"ﾅｶﾞﾉｹﾝ","cityKana":"ｼﾓｲﾅｸﾞﾝﾏﾂｶﾜﾏﾁ","streetKana":"ｲｶﾆｹｲｻｲｶﾞﾅｲﾊﾞｱｲ","prefecture":"長野県","city":"下伊那郡松川町","street":"以下に掲載がない場合"},{"zipCode":"3993302","prefectureKana":"ﾅｶﾞﾉｹﾝ","cityKana":"ｼﾓｲﾅｸﾞﾝﾏﾂｶﾜﾏﾁ","streetKana":"ｲｸﾀ","prefecture":"長野県","city":"下伊那郡松川町","street":"生田"},{"zipCode":"3993304","prefectureKana":"ﾅｶﾞﾉｹﾝ","cityKana":"ｼﾓｲﾅｸﾞﾝﾏﾂｶﾜﾏﾁ","streetKana":"ｵｵｼﾞﾏ","prefecture":"長野県","city":"下伊那郡松川町","street":"大島"},{"zipCode":"3993301","prefectureKana":"ﾅｶﾞﾉｹﾝ","cityKana":"ｼﾓｲﾅｸﾞﾝﾏﾂｶﾜﾏﾁ","streetKana":"ｶﾐｶﾀｷﾞﾘ","prefecture":"長野県","city":"下伊那郡松川町","street":"上片桐"},{"zipCode":"3993303","prefectureKana":"ﾅｶﾞﾉｹﾝ","cityKana":"ｼﾓｲﾅｸﾞﾝﾏﾂｶﾜﾏﾁ","streetKana":"ﾓﾄｵｵｼﾞﾏ","prefecture":"長野県","city":"下伊那郡松川町","street":"元大島"},{"zipCode":"3993100","prefectureKana":"ﾅｶﾞﾉｹﾝ","cityKana":"ｼﾓｲﾅｸﾞﾝﾀｶﾓﾘﾏﾁ","streetKana":"ｲｶﾆｹｲｻｲｶﾞﾅｲﾊﾞｱｲ","prefecture":"長野県","city":"下伊那郡高森町","street":"以下に掲載がない場合"},{"zipCode":"3993107","prefectureKana":"ﾅｶﾞﾉｹﾝ","cityKana":"ｼﾓｲﾅｸﾞﾝﾀｶﾓﾘﾏﾁ","streetKana":"ｲｽﾞﾊﾗ","prefecture":"長野県","city":"下伊那郡高森町","street":"出原"},{"zipCode":"3993105","prefectureKana":"ﾅｶﾞﾉｹﾝ","cityKana":"ｼﾓｲﾅｸﾞﾝﾀｶﾓﾘﾏﾁ","streetKana":"ｳｼﾏｷ","prefecture":"長野県","city":"下伊那郡高森町","street":"牛牧"},{"zipCode":"3993106","prefectureKana":"ﾅｶﾞﾉｹﾝ","cityKana":"ｼﾓｲﾅｸﾞﾝﾀｶﾓﾘﾏﾁ","streetKana":"ｵｵｼﾞﾏｻﾝ","prefecture":"長野県","city":"下伊那郡高森町","street":"大島山"},{"zipCode":"3993104","prefectureKana":"ﾅｶﾞﾉｹﾝ","cityKana":"ｼﾓｲﾅｸﾞﾝﾀｶﾓﾘﾏﾁ","streetKana":"ｶﾐｲﾁﾀﾞ","prefecture":"長野県","city":"下伊那郡高森町","street":"上市田"},{"zipCode":"3993103","prefectureKana":"ﾅｶﾞﾉｹﾝ","cityKana":"ｼﾓｲﾅｸﾞﾝﾀｶﾓﾘﾏﾁ","streetKana":"ｼﾓｲﾁﾀﾞ","prefecture":"長野県","city":"下伊那郡高森町","street":"下市田"},{"zipCode":"3993101","prefectureKana":"ﾅｶﾞﾉｹﾝ","cityKana":"ｼﾓｲﾅｸﾞﾝﾀｶﾓﾘﾏﾁ","streetKana":"ﾔﾏﾌﾞｷ","prefecture":"長野県","city":"下伊那郡高森町","street":"山吹"},{"zipCode":"3993102","prefectureKana":"ﾅｶﾞﾉｹﾝ","cityKana":"ｼﾓｲﾅｸﾞﾝﾀｶﾓﾘﾏﾁ","streetKana":"ﾖｼﾀﾞ","prefecture":"長野県","city":"下伊那郡高森町","street":"吉田"},{"zipCode":"3991500","prefectureKana":"ﾅｶﾞﾉｹﾝ","cityKana":"ｼﾓｲﾅｸﾞﾝｱﾅﾝﾁｮｳ","streetKana":"ｲｶﾆｹｲｻｲｶﾞﾅｲﾊﾞｱｲ","prefecture":"長野県","city":"下伊那郡阿南町","street":"以下に掲載がない場合"},{"zipCode":"3991501","prefectureKana":"ﾅｶﾞﾉｹﾝ","cityKana":"ｼﾓｲﾅｸﾞﾝｱﾅﾝﾁｮｳ","streetKana":"ｷﾀｼﾞｮｳ","prefecture":"長野県","city":"下伊那郡阿南町","street":"北條"},{"zipCode":"3991505","prefectureKana":"ﾅｶﾞﾉｹﾝ","cityKana":"ｼﾓｲﾅｸﾞﾝｱﾅﾝﾁｮｳ","streetKana":"ﾄﾐｸｻ","prefecture":"長野県","city":"下伊那郡阿南町","street":"富草"},{"zipCode":"3991612","prefectureKana":"ﾅｶﾞﾉｹﾝ","cityKana":"ｼﾓｲﾅｸﾞﾝｱﾅﾝﾁｮｳ","streetKana":"ﾆｲﾉ","prefecture":"長野県","city":"下伊那郡阿南町","street":"新野"},{"zipCode":"3991504","prefectureKana":"ﾅｶﾞﾉｹﾝ","cityKana":"ｼﾓｲﾅｸﾞﾝｱﾅﾝﾁｮｳ","streetKana":"ﾆｼｼﾞｮｳ","prefecture":"長野県","city":"下伊那郡阿南町","street":"西條"},{"zipCode":"3991502","prefectureKana":"ﾅｶﾞﾉｹﾝ","cityKana":"ｼﾓｲﾅｸﾞﾝｱﾅﾝﾁｮｳ","streetKana":"ﾋｶﾞｼｼﾞｮｳ","prefecture":"長野県","city":"下伊那郡阿南町","street":"東條"},{"zipCode":"3991503","prefectureKana":"ﾅｶﾞﾉｹﾝ","cityKana":"ｼﾓｲﾅｸﾞﾝｱﾅﾝﾁｮｳ","streetKana":"ﾐﾅﾐｼﾞｮｳ","prefecture":"長野県","city":"下伊那郡阿南町","street":"南條"},{"zipCode":"3991611","prefectureKana":"ﾅｶﾞﾉｹﾝ","cityKana":"ｼﾓｲﾅｸﾞﾝｱﾅﾝﾁｮｳ","streetKana":"ﾜｺﾞｳ","prefecture":"長野県","city":"下伊那郡阿南町","street":"和合"},{"zipCode":"3992100","prefectureKana":"ﾅｶﾞﾉｹﾝ","cityKana":"ｼﾓｲﾅｸﾞﾝｼﾓｼﾞｮｳﾑﾗ","streetKana":"ｲｶﾆｹｲｻｲｶﾞﾅｲﾊﾞｱｲ","prefecture":"長野県","city":"下伊那郡下條村","street":"以下に掲載がない場合"},{"zipCode":"3992102","prefectureKana":"ﾅｶﾞﾉｹﾝ","cityKana":"ｼﾓｲﾅｸﾞﾝｼﾓｼﾞｮｳﾑﾗ","streetKana":"ﾋｻﾜ","prefecture":"長野県","city":"下伊那郡下條村","street":"陽皐"},{"zipCode":"3992101","prefectureKana":"ﾅｶﾞﾉｹﾝ","cityKana":"ｼﾓｲﾅｸﾞﾝｼﾓｼﾞｮｳﾑﾗ","streetKana":"ﾑﾂｻﾞﾜ","prefecture":"長野県","city":"下伊那郡下條村","street":"睦沢"},{"zipCode":"3991601","prefectureKana":"ﾅｶﾞﾉｹﾝ","cityKana":"ｼﾓｲﾅｸﾞﾝｳﾙｷﾞﾑﾗ","streetKana":"ｳﾙｷﾞﾑﾗｲﾁｴﾝ","prefecture":"長野県","city":"下伊那郡売木村","street":"売木村一円"},{"zipCode":"3991200","prefectureKana":"ﾅｶﾞﾉｹﾝ","cityKana":"ｼﾓｲﾅｸﾞﾝﾃﾝﾘｭｳﾑﾗ","streetKana":"ｲｶﾆｹｲｻｲｶﾞﾅｲﾊﾞｱｲ","prefecture":"長野県","city":"下伊那郡天龍村","street":"以下に掲載がない場合"},{"zipCode":"3991202","prefectureKana":"ﾅｶﾞﾉｹﾝ","cityKana":"ｼﾓｲﾅｸﾞﾝﾃﾝﾘｭｳﾑﾗ","streetKana":"ｶﾐﾊﾗ","prefecture":"長野県","city":"下伊那郡天龍村","street":"神原"},{"zipCode":"3991203","prefectureKana":"ﾅｶﾞﾉｹﾝ","cityKana":"ｼﾓｲﾅｸﾞﾝﾃﾝﾘｭｳﾑﾗ","streetKana":"ﾅｶﾞｼﾏ","prefecture":"長野県","city":"下伊那郡天龍村","street":"長島"},{"zipCode":"3991201","prefectureKana":"ﾅｶﾞﾉｹﾝ","cityKana":"ｼﾓｲﾅｸﾞﾝﾃﾝﾘｭｳﾑﾗ","streetKana":"ﾋﾗｵｶ","prefecture":"長野県","city":"下伊那郡天龍村","street":"平岡"},{"zipCode":"3991801","prefectureKana":"ﾅｶﾞﾉｹﾝ","cityKana":"ｼﾓｲﾅｸﾞﾝﾔｽｵｶﾑﾗ","streetKana":"ﾔｽｵｶﾑﾗｲﾁｴﾝ","prefecture":"長野県","city":"下伊那郡泰阜村","street":"泰阜村一円"},{"zipCode":"3993200","prefectureKana":"ﾅｶﾞﾉｹﾝ","cityKana":"ｼﾓｲﾅｸﾞﾝﾄﾖｵｶﾑﾗ","streetKana":"ｲｶﾆｹｲｻｲｶﾞﾅｲﾊﾞｱｲ","prefecture":"長野県","city":"下伊那郡豊丘村","street":"以下に掲載がない場合"},{"zipCode":"3993311","prefectureKana":"ﾅｶﾞﾉｹﾝ","cityKana":"ｼﾓｲﾅｸﾞﾝﾄﾖｵｶﾑﾗ","streetKana":"ｶﾜﾉ(7530-7590ﾊﾞﾝﾁ)","prefecture":"長野県","city":"下伊那郡豊丘村","street":"河野（７５３０～７５９０番地）"},{"zipCode":"3993201","prefectureKana":"ﾅｶﾞﾉｹﾝ","cityKana":"ｼﾓｲﾅｸﾞﾝﾄﾖｵｶﾑﾗ","streetKana":"ｶﾜﾉ(ｿﾉﾀ)","prefecture":"長野県","city":"下伊那郡豊丘村","street":"河野（その他）"},{"zipCode":"3993202","prefectureKana":"ﾅｶﾞﾉｹﾝ","cityKana":"ｼﾓｲﾅｸﾞﾝﾄﾖｵｶﾑﾗ","streetKana":"ｸﾏｼﾛ","prefecture":"長野県","city":"下伊那郡豊丘村","street":"神稲"},{"zipCode":"3993500","prefectureKana":"ﾅｶﾞﾉｹﾝ","cityKana":"ｼﾓｲﾅｸﾞﾝｵｵｼｶﾑﾗ","streetKana":"ｲｶﾆｹｲｻｲｶﾞﾅｲﾊﾞｱｲ","prefecture":"長野県","city":"下伊那郡大鹿村","street":"以下に掲載がない場合"},{"zipCode":"3993502","prefectureKana":"ﾅｶﾞﾉｹﾝ","cityKana":"ｼﾓｲﾅｸﾞﾝｵｵｼｶﾑﾗ","streetKana":"ｵｵｶﾜﾗ","prefecture":"長野県","city":"下伊那郡大鹿村","street":"大河原"},{"zipCode":"3993501","prefectureKana":"ﾅｶﾞﾉｹﾝ","cityKana":"ｼﾓｲﾅｸﾞﾝｵｵｼｶﾑﾗ","streetKana":"ｶｼｵ","prefecture":"長野県","city":"下伊那郡大鹿村","street":"鹿塩"},{"zipCode":"3995600","prefectureKana":"ﾅｶﾞﾉｹﾝ","cityKana":"ｷｿｸﾞﾝｱｹﾞﾏﾂﾏﾁ","streetKana":"ｲｶﾆｹｲｻｲｶﾞﾅｲﾊﾞｱｲ","prefecture":"長野県","city":"木曽郡上松町","street":"以下に掲載がない場合"},{"zipCode":"3995601","prefectureKana":"ﾅｶﾞﾉｹﾝ","cityKana":"ｷｿｸﾞﾝｱｹﾞﾏﾂﾏﾁ","streetKana":"ｱｹﾞﾏﾂ","prefecture":"長野県","city":"木曽郡上松町","street":"上松"},{"zipCode":"3995609","prefectureKana":"ﾅｶﾞﾉｹﾝ","cityKana":"ｷｿｸﾞﾝｱｹﾞﾏﾂﾏﾁ","streetKana":"ｱｻﾋﾏﾁ","prefecture":"長野県","city":"木曽郡上松町","street":"旭町"},{"zipCode":"3995603","prefectureKana":"ﾅｶﾞﾉｹﾝ","cityKana":"ｷｿｸﾞﾝｱｹﾞﾏﾂﾏﾁ","streetKana":"ｴｷﾏｴﾄﾞｵﾘ","prefecture":"長野県","city":"木曽郡上松町","street":"駅前通り"},{"zipCode":"3995607","prefectureKana":"ﾅｶﾞﾉｹﾝ","cityKana":"ｷｿｸﾞﾝｱｹﾞﾏﾂﾏﾁ","streetKana":"ｵｶﾞﾜ","prefecture":"長野県","city":"木曽郡上松町","street":"小川"},{"zipCode":"3995608","prefectureKana":"ﾅｶﾞﾉｹﾝ","cityKana":"ｷｿｸﾞﾝｱｹﾞﾏﾂﾏﾁ","streetKana":"ｵｷﾞﾊﾗ","prefecture":"長野県","city":"木曽郡上松町","street":"荻原"},{"zipCode":"3995605","prefectureKana":"ﾅｶﾞﾉｹﾝ","cityKana":"ｷｿｸﾞﾝｱｹﾞﾏﾂﾏﾁ","streetKana":"ｻｶｴﾏﾁ","prefecture":"長野県","city":"木曽郡上松町","street":"栄町"},{"zipCode":"3995604","prefectureKana":"ﾅｶﾞﾉｹﾝ","cityKana":"ｷｿｸﾞﾝｱｹﾞﾏﾂﾏﾁ","streetKana":"ｼｮｳｼﾞﾏﾏﾁ","prefecture":"長野県","city":"木曽郡上松町","street":"正島町"},{"zipCode":"3995602","prefectureKana":"ﾅｶﾞﾉｹﾝ","cityKana":"ｷｿｸﾞﾝｱｹﾞﾏﾂﾏﾁ","streetKana":"ﾎﾝﾏﾁﾄﾞｵﾘ","prefecture":"長野県","city":"木曽郡上松町","street":"本町通り"},{"zipCode":"3995606","prefectureKana":"ﾅｶﾞﾉｹﾝ","cityKana":"ｷｿｸﾞﾝｱｹﾞﾏﾂﾏﾁ","streetKana":"ﾐﾄﾞﾘﾏﾁ","prefecture":"長野県","city":"木曽郡上松町","street":"緑町"},{"zipCode":"3995300","prefectureKana":"ﾅｶﾞﾉｹﾝ","cityKana":"ｷｿｸﾞﾝﾅｷﾞｿﾏﾁ","streetKana":"ｲｶﾆｹｲｻｲｶﾞﾅｲﾊﾞｱｲ","prefecture":"長野県","city":"木曽郡南木曽町","street":"以下に掲載がない場合"},{"zipCode":"3995302","prefectureKana":"ﾅｶﾞﾉｹﾝ","cityKana":"ｷｿｸﾞﾝﾅｷﾞｿﾏﾁ","streetKana":"ｱﾂﾞﾏ","prefecture":"長野県","city":"木曽郡南木曽町","street":"吾妻"},{"zipCode":"3995303","prefectureKana":"ﾅｶﾞﾉｹﾝ","cityKana":"ｷｿｸﾞﾝﾅｷﾞｿﾏﾁ","streetKana":"ﾀﾀﾞﾁ","prefecture":"長野県","city":"木曽郡南木曽町","street":"田立"},{"zipCode":"3995301","prefectureKana":"ﾅｶﾞﾉｹﾝ","cityKana":"ｷｿｸﾞﾝﾅｷﾞｿﾏﾁ","streetKana":"ﾖﾐｶｷ","prefecture":"長野県","city":"木曽郡南木曽町","street":"読書"},{"zipCode":"3996200","prefectureKana":"ﾅｶﾞﾉｹﾝ","cityKana":"ｷｿｸﾞﾝｷｿﾑﾗ","streetKana":"ｲｶﾆｹｲｻｲｶﾞﾅｲﾊﾞｱｲ","prefecture":"長野県","city":"木曽郡木祖村","street":"以下に掲載がない場合"},{"zipCode":"3996203","prefectureKana":"ﾅｶﾞﾉｹﾝ","cityKana":"ｷｿｸﾞﾝｷｿﾑﾗ","streetKana":"ｵｷﾞｿ","prefecture":"長野県","city":"木曽郡木祖村","street":"小木曽"},{"zipCode":"3996202","prefectureKana":"ﾅｶﾞﾉｹﾝ","cityKana":"ｷｿｸﾞﾝｷｿﾑﾗ","streetKana":"ｽｹﾞ","prefecture":"長野県","city":"木曽郡木祖村","street":"菅"},{"zipCode":"3996201","prefectureKana":"ﾅｶﾞﾉｹﾝ","cityKana":"ｷｿｸﾞﾝｷｿﾑﾗ","streetKana":"ﾔﾌﾞﾊﾗ","prefecture":"長野県","city":"木曽郡木祖村","street":"薮原"},{"zipCode":"3995500","prefectureKana":"ﾅｶﾞﾉｹﾝ","cityKana":"ｷｿｸﾞﾝｵｵｸﾜﾑﾗ","streetKana":"ｲｶﾆｹｲｻｲｶﾞﾅｲﾊﾞｱｲ","prefecture":"長野県","city":"木曽郡大桑村","street":"以下に掲載がない場合"},{"zipCode":"3995502","prefectureKana":"ﾅｶﾞﾉｹﾝ","cityKana":"ｷｿｸﾞﾝｵｵｸﾜﾑﾗ","streetKana":"ｽﾊﾗ","prefecture":"長野県","city":"木曽郡大桑村","street":"須原"},{"zipCode":"3995501","prefectureKana":"ﾅｶﾞﾉｹﾝ","cityKana":"ｷｿｸﾞﾝｵｵｸﾜﾑﾗ","streetKana":"ﾄﾉ","prefecture":"長野県","city":"木曽郡大桑村","street":"殿"},{"zipCode":"3995503","prefectureKana":"ﾅｶﾞﾉｹﾝ","cityKana":"ｷｿｸﾞﾝｵｵｸﾜﾑﾗ","streetKana":"ﾅｶﾞﾉ","prefecture":"長野県","city":"木曽郡大桑村","street":"長野"},{"zipCode":"3995504","prefectureKana":"ﾅｶﾞﾉｹﾝ","cityKana":"ｷｿｸﾞﾝｵｵｸﾜﾑﾗ","streetKana":"ﾉｼﾞﾘ","prefecture":"長野県","city":"木曽郡大桑村","street":"野尻"},{"zipCode":"3996101","prefectureKana":"ﾅｶﾞﾉｹﾝ","cityKana":"ｷｿｸﾞﾝｷｿﾏﾁ","streetKana":"ﾋﾖｼ","prefecture":"長野県","city":"木曽郡木曽町","street":"日義"},{"zipCode":"3997700","prefectureKana":"ﾅｶﾞﾉｹﾝ","cityKana":"ﾋｶﾞｼﾁｸﾏｸﾞﾝｵﾐﾑﾗ","streetKana":"ｲｶﾆｹｲｻｲｶﾞﾅｲﾊﾞｱｲ","prefecture":"長野県","city":"東筑摩郡麻績村","street":"以下に掲載がない場合"},{"zipCode":"3997701","prefectureKana":"ﾅｶﾞﾉｹﾝ","cityKana":"ﾋｶﾞｼﾁｸﾏｸﾞﾝｵﾐﾑﾗ","streetKana":"ｵ","prefecture":"長野県","city":"東筑摩郡麻績村","street":"麻"},{"zipCode":"3997702","prefectureKana":"ﾅｶﾞﾉｹﾝ","cityKana":"ﾋｶﾞｼﾁｸﾏｸﾞﾝｵﾐﾑﾗ","streetKana":"ﾋ","prefecture":"長野県","city":"東筑摩郡麻績村","street":"日"},{"zipCode":"3997200","prefectureKana":"ﾅｶﾞﾉｹﾝ","cityKana":"ﾋｶﾞｼﾁｸﾏｸﾞﾝｲｸｻｶﾑﾗ","streetKana":"ｲｶﾆｹｲｻｲｶﾞﾅｲﾊﾞｱｲ","prefecture":"長野県","city":"東筑摩郡生坂村","street":"以下に掲載がない場合"},{"zipCode":"3997201","prefectureKana":"ﾅｶﾞﾉｹﾝ","cityKana":"ﾋｶﾞｼﾁｸﾏｸﾞﾝｲｸｻｶﾑﾗ","streetKana":"ｲｸｻｶﾑﾗﾉﾂｷﾞﾆﾊﾞﾝﾁｶﾞｸﾙﾊﾞｱｲ","prefecture":"長野県","city":"東筑摩郡生坂村","street":"生坂村の次に番地がくる場合"},{"zipCode":"3997202","prefectureKana":"ﾅｶﾞﾉｹﾝ","cityKana":"ﾋｶﾞｼﾁｸﾏｸﾞﾝｲｸｻｶﾑﾗ","streetKana":"ｷﾀﾘｸｺﾞｳ","prefecture":"長野県","city":"東筑摩郡生坂村","street":"北陸郷"},{"zipCode":"3997311","prefectureKana":"ﾅｶﾞﾉｹﾝ","cityKana":"ﾋｶﾞｼﾁｸﾏｸﾞﾝｲｸｻｶﾑﾗ","streetKana":"ﾋｶﾞｼﾋﾛﾂ","prefecture":"長野県","city":"東筑摩郡生坂村","street":"東広津"},{"zipCode":"3997500","prefectureKana":"ﾅｶﾞﾉｹﾝ","cityKana":"ﾋｶﾞｼﾁｸﾏｸﾞﾝﾁｸﾎｸﾑﾗ","streetKana":"ｲｶﾆｹｲｻｲｶﾞﾅｲﾊﾞｱｲ","prefecture":"長野県","city":"東筑摩郡筑北村","street":"以下に掲載がない場合"},{"zipCode":"3997503","prefectureKana":"ﾅｶﾞﾉｹﾝ","cityKana":"ﾋｶﾞｼﾁｸﾏｸﾞﾝﾁｸﾎｸﾑﾗ","streetKana":"ｵｵｻﾜｼﾝﾃﾞﾝ","prefecture":"長野県","city":"東筑摩郡筑北村","street":"大沢新田"},{"zipCode":"3997711","prefectureKana":"ﾅｶﾞﾉｹﾝ","cityKana":"ﾋｶﾞｼﾁｸﾏｸﾞﾝﾁｸﾎｸﾑﾗ","streetKana":"ｻｶｲ","prefecture":"長野県","city":"東筑摩郡筑北村","street":"坂井"},{"zipCode":"3997601","prefectureKana":"ﾅｶﾞﾉｹﾝ","cityKana":"ﾋｶﾞｼﾁｸﾏｸﾞﾝﾁｸﾎｸﾑﾗ","streetKana":"ｻｶｷﾀ","prefecture":"長野県","city":"東筑摩郡筑北村","street":"坂北"},{"zipCode":"3997501","prefectureKana":"ﾅｶﾞﾉｹﾝ","cityKana":"ﾋｶﾞｼﾁｸﾏｸﾞﾝﾁｸﾎｸﾑﾗ","streetKana":"ﾆｼｼﾞｮｳ","prefecture":"長野県","city":"東筑摩郡筑北村","street":"西条"},{"zipCode":"3997502","prefectureKana":"ﾅｶﾞﾉｹﾝ","cityKana":"ﾋｶﾞｼﾁｸﾏｸﾞﾝﾁｸﾎｸﾑﾗ","streetKana":"ﾋｶﾞｼｼﾞｮｳ","prefecture":"長野県","city":"東筑摩郡筑北村","street":"東条"},{"zipCode":"3997504","prefectureKana":"ﾅｶﾞﾉｹﾝ","cityKana":"ﾋｶﾞｼﾁｸﾏｸﾞﾝﾁｸﾎｸﾑﾗ","streetKana":"ﾐﾀﾞﾚﾊｼ","prefecture":"長野県","city":"東筑摩郡筑北村","street":"乱橋"},{"zipCode":"3998600","prefectureKana":"ﾅｶﾞﾉｹﾝ","cityKana":"ｷﾀｱﾂﾞﾐｸﾞﾝｲｹﾀﾞﾏﾁ","streetKana":"ｲｶﾆｹｲｻｲｶﾞﾅｲﾊﾞｱｲ","prefecture":"長野県","city":"北安曇郡池田町","street":"以下に掲載がない場合"},{"zipCode":"3998602","prefectureKana":"ﾅｶﾞﾉｹﾝ","cityKana":"ｷﾀｱﾂﾞﾐｸﾞﾝｲｹﾀﾞﾏﾁ","streetKana":"ｱｲｿﾒ","prefecture":"長野県","city":"北安曇郡池田町","street":"会染"},{"zipCode":"3998601","prefectureKana":"ﾅｶﾞﾉｹﾝ","cityKana":"ｷﾀｱﾂﾞﾐｸﾞﾝｲｹﾀﾞﾏﾁ","streetKana":"ｲｹﾀﾞ","prefecture":"長野県","city":"北安曇郡池田町","street":"池田"},{"zipCode":"3998603","prefectureKana":"ﾅｶﾞﾉｹﾝ","cityKana":"ｷﾀｱﾂﾞﾐｸﾞﾝｲｹﾀﾞﾏﾁ","streetKana":"ﾅｶｳ","prefecture":"長野県","city":"北安曇郡池田町","street":"中鵜"},{"zipCode":"3998604","prefectureKana":"ﾅｶﾞﾉｹﾝ","cityKana":"ｷﾀｱﾂﾞﾐｸﾞﾝｲｹﾀﾞﾏﾁ","streetKana":"ﾋﾛﾂ","prefecture":"長野県","city":"北安曇郡池田町","street":"広津"},{"zipCode":"3998605","prefectureKana":"ﾅｶﾞﾉｹﾝ","cityKana":"ｷﾀｱﾂﾞﾐｸﾞﾝｲｹﾀﾞﾏﾁ","streetKana":"ﾘｸｺﾞｳ","prefecture":"長野県","city":"北安曇郡池田町","street":"陸郷"},{"zipCode":"3998501","prefectureKana":"ﾅｶﾞﾉｹﾝ","cityKana":"ｷﾀｱﾂﾞﾐｸﾞﾝﾏﾂｶﾜﾑﾗ","streetKana":"ﾏﾂｶﾜﾑﾗｲﾁｴﾝ","prefecture":"長野県","city":"北安曇郡松川村","street":"松川村一円"},{"zipCode":"3999300","prefectureKana":"ﾅｶﾞﾉｹﾝ","cityKana":"ｷﾀｱﾂﾞﾐｸﾞﾝﾊｸﾊﾞﾑﾗ","streetKana":"ｲｶﾆｹｲｻｲｶﾞﾅｲﾊﾞｱｲ","prefecture":"長野県","city":"北安曇郡白馬村","street":"以下に掲載がない場合"},{"zipCode":"3999211","prefectureKana":"ﾅｶﾞﾉｹﾝ","cityKana":"ｷﾀｱﾂﾞﾐｸﾞﾝﾊｸﾊﾞﾑﾗ","streetKana":"ｶﾐｼﾛ","prefecture":"長野県","city":"北安曇郡白馬村","street":"神城"},{"zipCode":"3999301","prefectureKana":"ﾅｶﾞﾉｹﾝ","cityKana":"ｷﾀｱﾂﾞﾐｸﾞﾝﾊｸﾊﾞﾑﾗ","streetKana":"ﾎｸｼﾞｮｳ","prefecture":"長野県","city":"北安曇郡白馬村","street":"北城"},{"zipCode":"3999400","prefectureKana":"ﾅｶﾞﾉｹﾝ","cityKana":"ｷﾀｱﾂﾞﾐｸﾞﾝｵﾀﾘﾑﾗ","streetKana":"ｲｶﾆｹｲｻｲｶﾞﾅｲﾊﾞｱｲ","prefecture":"長野県","city":"北安曇郡小谷村","street":"以下に掲載がない場合"},{"zipCode":"3999601","prefectureKana":"ﾅｶﾞﾉｹﾝ","cityKana":"ｷﾀｱﾂﾞﾐｸﾞﾝｵﾀﾘﾑﾗ","streetKana":"ｷﾀｵﾀﾘ","prefecture":"長野県","city":"北安曇郡小谷村","street":"北小谷"},{"zipCode":"3999422","prefectureKana":"ﾅｶﾞﾉｹﾝ","cityKana":"ｷﾀｱﾂﾞﾐｸﾞﾝｵﾀﾘﾑﾗ","streetKana":"ﾁｸﾆ","prefecture":"長野県","city":"北安曇郡小谷村","street":"千国"},{"zipCode":"3999421","prefectureKana":"ﾅｶﾞﾉｹﾝ","cityKana":"ｷﾀｱﾂﾞﾐｸﾞﾝｵﾀﾘﾑﾗ","streetKana":"ﾅｶｵﾀﾘ","prefecture":"長野県","city":"北安曇郡小谷村","street":"中小谷"},{"zipCode":"3999511","prefectureKana":"ﾅｶﾞﾉｹﾝ","cityKana":"ｷﾀｱﾂﾞﾐｸﾞﾝｵﾀﾘﾑﾗ","streetKana":"ﾅｶﾂﾁ","prefecture":"長野県","city":"北安曇郡小谷村","street":"中土"}]