[{"zipCode":"4040007","prefectureKana":"ﾔﾏﾅｼｹﾝ","cityKana":"ﾔﾏﾅｼｼ","streetKana":"ﾏｷｵｶﾁｮｳｷﾀﾊﾞﾗ","prefecture":"山梨県","city":"山梨市","street":"牧丘町北原"},{"zipCode":"4040013","prefectureKana":"ﾔﾏﾅｼｹﾝ","cityKana":"ﾔﾏﾅｼｼ","streetKana":"ﾏｷｵｶﾁｮｳｸﾎﾞﾀﾞｲﾗ","prefecture":"山梨県","city":"山梨市","street":"牧丘町窪平"},{"zipCode":"4040003","prefectureKana":"ﾔﾏﾅｼｹﾝ","cityKana":"ﾔﾏﾅｼｼ","streetKana":"ﾏｷｵｶﾁｮｳｸﾗｼﾅ","prefecture":"山梨県","city":"山梨市","street":"牧丘町倉科"},{"zipCode":"4040015","prefectureKana":"ﾔﾏﾅｼｹﾝ","cityKana":"ﾔﾏﾅｼｼ","streetKana":"ﾏｷｵｶﾁｮｳｼﾞｮｳｺｼﾞ","prefecture":"山梨県","city":"山梨市","street":"牧丘町城古寺"},{"zipCode":"4040002","prefectureKana":"ﾔﾏﾅｼｹﾝ","cityKana":"ﾔﾏﾅｼｼ","streetKana":"ﾏｷｵｶﾁｮｳｿﾏｸﾞﾁ","prefecture":"山梨県","city":"山梨市","street":"牧丘町杣口"},{"zipCode":"4040016","prefectureKana":"ﾔﾏﾅｼｹﾝ","cityKana":"ﾔﾏﾅｼｼ","streetKana":"ﾏｷｵｶﾁｮｳﾁﾉﾉﾐﾔ","prefecture":"山梨県","city":"山梨市","street":"牧丘町千野々宮"},{"zipCode":"4040011","prefectureKana":"ﾔﾏﾅｼｹﾝ","cityKana":"ﾔﾏﾅｼｼ","streetKana":"ﾏｷｵｶﾁｮｳﾅﾙｻﾜ","prefecture":"山梨県","city":"山梨市","street":"牧丘町成沢"},{"zipCode":"4040004","prefectureKana":"ﾔﾏﾅｼｹﾝ","cityKana":"ﾔﾏﾅｼｼ","streetKana":"ﾏｷｵｶﾁｮｳﾆｼﾎｼﾓ","prefecture":"山梨県","city":"山梨市","street":"牧丘町西保下"},{"zipCode":"4040005","prefectureKana":"ﾔﾏﾅｼｹﾝ","cityKana":"ﾔﾏﾅｼｼ","streetKana":"ﾏｷｵｶﾁｮｳﾆｼﾎﾅｶ","prefecture":"山梨県","city":"山梨市","street":"牧丘町西保中"},{"zipCode":"4040014","prefectureKana":"ﾔﾏﾅｼｹﾝ","cityKana":"ﾔﾏﾅｼｼ","streetKana":"ﾏｷｵｶﾁｮｳﾊﾔﾌﾞｻ","prefecture":"山梨県","city":"山梨市","street":"牧丘町隼"},{"zipCode":"4040006","prefectureKana":"ﾔﾏﾅｼｹﾝ","cityKana":"ﾔﾏﾅｼｼ","streetKana":"ﾏｷｵｶﾁｮｳﾏｷﾀﾞｲﾗ","prefecture":"山梨県","city":"山梨市","street":"牧丘町牧平"},{"zipCode":"4040012","prefectureKana":"ﾔﾏﾅｼｹﾝ","cityKana":"ﾔﾏﾅｼｼ","streetKana":"ﾏｷｵｶﾁｮｳﾑﾛﾌｼ","prefecture":"山梨県","city":"山梨市","street":"牧丘町室伏"},{"zipCode":"4040001","prefectureKana":"ﾔﾏﾅｼｹﾝ","cityKana":"ﾔﾏﾅｼｼ","streetKana":"ﾏｷｵｶﾁｮｳﾔﾅｷﾞﾀﾞｲﾗ","prefecture":"山梨県","city":"山梨市","street":"牧丘町柳平"},{"zipCode":"4040206","prefectureKana":"ﾔﾏﾅｼｹﾝ","cityKana":"ﾔﾏﾅｼｼ","streetKana":"ﾐﾄﾐｶﾐｶﾏｸﾁ","prefecture":"山梨県","city":"山梨市","street":"三富上釜口"},{"zipCode":"4040202","prefectureKana":"ﾔﾏﾅｼｹﾝ","cityKana":"ﾔﾏﾅｼｼ","streetKana":"ﾐﾄﾐｶﾐﾕﾉｷ","prefecture":"山梨県","city":"山梨市","street":"三富上柚木"},{"zipCode":"4040201","prefectureKana":"ﾔﾏﾅｼｹﾝ","cityKana":"ﾔﾏﾅｼｼ","streetKana":"ﾐﾄﾐｶﾜｳﾗ","prefecture":"山梨県","city":"山梨市","street":"三富川浦"},{"zipCode":"4040203","prefectureKana":"ﾔﾏﾅｼｹﾝ","cityKana":"ﾔﾏﾅｼｼ","streetKana":"ﾐﾄﾐｼﾓｵｷﾞﾊﾗ","prefecture":"山梨県","city":"山梨市","street":"三富下荻原"},{"zipCode":"4040204","prefectureKana":"ﾔﾏﾅｼｹﾝ","cityKana":"ﾔﾏﾅｼｼ","streetKana":"ﾐﾄﾐｼﾓｶﾏｸﾁ","prefecture":"山梨県","city":"山梨市","street":"三富下釜口"},{"zipCode":"4040205","prefectureKana":"ﾔﾏﾅｼｹﾝ","cityKana":"ﾔﾏﾅｼｼ","streetKana":"ﾐﾄﾐﾄｸﾜ","prefecture":"山梨県","city":"山梨市","street":"三富徳和"},{"zipCode":"4040000","prefectureKana":"ﾔﾏﾅｼｹﾝ","cityKana":"ｺｳｼｭｳｼ","streetKana":"ｲｶﾆｹｲｻｲｶﾞﾅｲﾊﾞｱｲ","prefecture":"山梨県","city":"甲州市","street":"以下に掲載がない場合"},{"zipCode":"4040033","prefectureKana":"ﾔﾏﾅｼｹﾝ","cityKana":"ｺｳｼｭｳｼ","streetKana":"ｴﾝｻﾞﾝｱｶｵ","prefecture":"山梨県","city":"甲州市","street":"塩山赤尾"},{"zipCode":"4040021","prefectureKana":"ﾔﾏﾅｼｹﾝ","cityKana":"ｺｳｼｭｳｼ","streetKana":"ｴﾝｻﾞﾝｲﾁﾉｾﾀｶﾊｼ","prefecture":"山梨県","city":"甲州市","street":"塩山一之瀬高橋"},{"zipCode":"4040034","prefectureKana":"ﾔﾏﾅｼｹﾝ","cityKana":"ｺｳｼｭｳｼ","streetKana":"ｴﾝｻﾞﾝｳｼｵｸ(ｿﾉﾀ)","prefecture":"山梨県","city":"甲州市","street":"塩山牛奥（その他）"},{"zipCode":"4040211","prefectureKana":"ﾔﾏﾅｼｹﾝ","cityKana":"ｺｳｼｭｳｼ","streetKana":"ｴﾝｻﾞﾝｵﾔｼｷ(ﾅﾒｻﾞﾜ)","prefecture":"山梨県","city":"甲州市","street":"塩山小屋敷（滑沢）"},{"zipCode":"4040053","prefectureKana":"ﾔﾏﾅｼｹﾝ","cityKana":"ｺｳｼｭｳｼ","streetKana":"ｴﾝｻﾞﾝｵﾔｼｷ(ｿﾉﾀ)","prefecture":"山梨県","city":"甲州市","street":"塩山小屋敷（その他）"},{"zipCode":"4040031","prefectureKana":"ﾔﾏﾅｼｹﾝ","cityKana":"ｺｳｼｭｳｼ","streetKana":"ｴﾝｻﾞﾝｶﾐｱｵﾉ","prefecture":"山梨県","city":"甲州市","street":"塩山上粟生野"},{"zipCode":"4040046","prefectureKana":"ﾔﾏﾅｼｹﾝ","cityKana":"ｺｳｼｭｳｼ","streetKana":"ｴﾝｻﾞﾝｶﾐｲｼﾞﾘ","prefecture":"山梨県","city":"甲州市","street":"塩山上井尻"},{"zipCode":"4040042","prefectureKana":"ﾔﾏﾅｼｹﾝ","cityKana":"ｺｳｼｭｳｼ","streetKana":"ｴﾝｻﾞﾝｶﾐｵｿﾞ","prefecture":"山梨県","city":"甲州市","street":"塩山上於曽"},{"zipCode":"4040026","prefectureKana":"ﾔﾏﾅｼｹﾝ","cityKana":"ｺｳｼｭｳｼ","streetKana":"ｴﾝｻﾞﾝｶﾐｵﾀﾞﾜﾗ","prefecture":"山梨県","city":"甲州市","street":"塩山上小田原"},{"zipCode":"4040045","prefectureKana":"ﾔﾏﾅｼｹﾝ","cityKana":"ｺｳｼｭｳｼ","streetKana":"ｴﾝｻﾞﾝｶﾐｼｵｺﾞ","prefecture":"山梨県","city":"甲州市","street":"塩山上塩後"},{"zipCode":"4040022","prefectureKana":"ﾔﾏﾅｼｹﾝ","cityKana":"ｺｳｼｭｳｼ","streetKana":"ｴﾝｻﾞﾝｶﾐﾊｷﾞﾊﾗ(ｿﾉﾀ)","prefecture":"山梨県","city":"甲州市","street":"塩山上萩原（その他）"},{"zipCode":"4040037","prefectureKana":"ﾔﾏﾅｼｹﾝ","cityKana":"ｺｳｼｭｳｼ","streetKana":"ｴﾝｻﾞﾝｶﾜﾀﾞ","prefecture":"山梨県","city":"甲州市","street":"塩山西広門田"},{"zipCode":"4040036","prefectureKana":"ﾔﾏﾅｼｹﾝ","cityKana":"ｺｳｼｭｳｼ","streetKana":"ｴﾝｻﾞﾝｸﾏﾉ","prefecture":"山梨県","city":"甲州市","street":"塩山熊野"},{"zipCode":"4040032","prefectureKana":"ﾔﾏﾅｼｹﾝ","cityKana":"ｺｳｼｭｳｼ","streetKana":"ｴﾝｻﾞﾝｼﾓｱｵﾉ","prefecture":"山梨県","city":"甲州市","street":"塩山下粟生野"},{"zipCode":"4040043","prefectureKana":"ﾔﾏﾅｼｹﾝ","cityKana":"ｺｳｼｭｳｼ","streetKana":"ｴﾝｻﾞﾝｼﾓｵｿﾞ","prefecture":"山梨県","city":"甲州市","street":"塩山下於曽"},{"zipCode":"4040025","prefectureKana":"ﾔﾏﾅｼｹﾝ","cityKana":"ｺｳｼｭｳｼ","streetKana":"ｴﾝｻﾞﾝｼﾓｵﾀﾞﾜﾗ","prefecture":"山梨県","city":"甲州市","street":"塩山下小田原"},{"zipCode":"4040044","prefectureKana":"ﾔﾏﾅｼｹﾝ","cityKana":"ｺｳｼｭｳｼ","streetKana":"ｴﾝｻﾞﾝｼﾓｼｵｺﾞ","prefecture":"山梨県","city":"甲州市","street":"塩山下塩後"},{"zipCode":"4040024","prefectureKana":"ﾔﾏﾅｼｹﾝ","cityKana":"ｺｳｼｭｳｼ","streetKana":"ｴﾝｻﾞﾝｼﾓﾊｷﾞﾊﾗ","prefecture":"山梨県","city":"甲州市","street":"塩山下萩原"},{"zipCode":"4040055","prefectureKana":"ﾔﾏﾅｼｹﾝ","cityKana":"ｺｳｼｭｳｼ","streetKana":"ｴﾝｻﾞﾝｼﾓﾕﾉｷ","prefecture":"山梨県","city":"甲州市","street":"塩山下柚木"},{"zipCode":"4040051","prefectureKana":"ﾔﾏﾅｼｹﾝ","cityKana":"ｺｳｼｭｳｼ","streetKana":"ｴﾝｻﾞﾝﾀｹﾓﾘ","prefecture":"山梨県","city":"甲州市","street":"塩山竹森"},{"zipCode":"4040041","prefectureKana":"ﾔﾏﾅｼｹﾝ","cityKana":"ｺｳｼｭｳｼ","streetKana":"ｴﾝｻﾞﾝﾁﾉ","prefecture":"山梨県","city":"甲州市","street":"塩山千野"},{"zipCode":"4040023","prefectureKana":"ﾔﾏﾅｼｹﾝ","cityKana":"ｺｳｼｭｳｼ","streetKana":"ｴﾝｻﾞﾝﾅｶﾊｷﾞﾊﾗ(ｿﾉﾀ)","prefecture":"山梨県","city":"甲州市","street":"塩山中萩原（その他）"},{"zipCode":"4040035","prefectureKana":"ﾔﾏﾅｼｹﾝ","cityKana":"ｺｳｼｭｳｼ","streetKana":"ｴﾝｻﾞﾝﾆｼﾉﾊﾗ","prefecture":"山梨県","city":"甲州市","street":"塩山西野原"},{"zipCode":"4040052","prefectureKana":"ﾔﾏﾅｼｹﾝ","cityKana":"ｺｳｼｭｳｼ","streetKana":"ｴﾝｻﾞﾝﾋﾗｻﾜ","prefecture":"山梨県","city":"甲州市","street":"塩山平沢"},{"zipCode":"4040056","prefectureKana":"ﾔﾏﾅｼｹﾝ","cityKana":"ｺｳｼｭｳｼ","streetKana":"ｴﾝｻﾞﾝﾌｸｵﾘ","prefecture":"山梨県","city":"甲州市","street":"塩山福生里"},{"zipCode":"4040054","prefectureKana":"ﾔﾏﾅｼｹﾝ","cityKana":"ｺｳｼｭｳｼ","streetKana":"ｴﾝｻﾞﾝﾌｼﾞｷ","prefecture":"山梨県","city":"甲州市","street":"塩山藤木"},{"zipCode":"4040047","prefectureKana":"ﾔﾏﾅｼｹﾝ","cityKana":"ｺｳｼｭｳｼ","streetKana":"ｴﾝｻﾞﾝﾐｯｶｲﾁﾊﾞ","prefecture":"山梨県","city":"甲州市","street":"塩山三日市場"}]