[{"zipCode":"4260000","prefectureKana":"ｼｽﾞｵｶｹﾝ","cityKana":"ﾌｼﾞｴﾀﾞｼ","streetKana":"ｲｶﾆｹｲｻｲｶﾞﾅｲﾊﾞｱｲ","prefecture":"静岡県","city":"藤枝市","street":"以下に掲載がない場合"},{"zipCode":"4260037","prefectureKana":"ｼｽﾞｵｶｹﾝ","cityKana":"ﾌｼﾞｴﾀﾞｼ","streetKana":"ｱｵｷ","prefecture":"静岡県","city":"藤枝市","street":"青木"},{"zipCode":"4260066","prefectureKana":"ｼｽﾞｵｶｹﾝ","cityKana":"ﾌｼﾞｴﾀﾞｼ","streetKana":"ｱｵﾊﾞﾁｮｳ","prefecture":"静岡県","city":"藤枝市","street":"青葉町"},{"zipCode":"4260081","prefectureKana":"ｼｽﾞｵｶｹﾝ","cityKana":"ﾌｼﾞｴﾀﾞｼ","streetKana":"ｱｻﾋｶﾞｵｶ","prefecture":"静岡県","city":"藤枝市","street":"旭が丘"},{"zipCode":"4260015","prefectureKana":"ｼｽﾞｵｶｹﾝ","cityKana":"ﾌｼﾞｴﾀﾞｼ","streetKana":"ｲｶﾙﾐ","prefecture":"静岡県","city":"藤枝市","street":"五十海"},{"zipCode":"4260045","prefectureKana":"ｼｽﾞｵｶｹﾝ","cityKana":"ﾌｼﾞｴﾀﾞｼ","streetKana":"ｲｽﾞﾐﾁｮｳ","prefecture":"静岡県","city":"藤枝市","street":"泉町"},{"zipCode":"4260022","prefectureKana":"ｼｽﾞｵｶｹﾝ","cityKana":"ﾌｼﾞｴﾀﾞｼ","streetKana":"ｲﾅｶﾞﾜ","prefecture":"静岡県","city":"藤枝市","street":"稲川"},{"zipCode":"4260007","prefectureKana":"ｼｽﾞｵｶｹﾝ","cityKana":"ﾌｼﾞｴﾀﾞｼ","streetKana":"ｳｼｵ","prefecture":"静岡県","city":"藤枝市","street":"潮"},{"zipCode":"4260076","prefectureKana":"ｼｽﾞｵｶｹﾝ","cityKana":"ﾌｼﾞｴﾀﾞｼ","streetKana":"ｳﾁｾﾄ","prefecture":"静岡県","city":"藤枝市","street":"内瀬戸"},{"zipCode":"4260034","prefectureKana":"ｼｽﾞｵｶｹﾝ","cityKana":"ﾌｼﾞｴﾀﾞｼ","streetKana":"ｴｷﾏｴ","prefecture":"静岡県","city":"藤枝市","street":"駅前"},{"zipCode":"4260051","prefectureKana":"ｼｽﾞｵｶｹﾝ","cityKana":"ﾌｼﾞｴﾀﾞｼ","streetKana":"ｵｵｽ","prefecture":"静岡県","city":"藤枝市","street":"大洲"},{"zipCode":"4260017","prefectureKana":"ｼｽﾞｵｶｹﾝ","cityKana":"ﾌｼﾞｴﾀﾞｼ","streetKana":"ｵｵﾃ","prefecture":"静岡県","city":"藤枝市","street":"大手"},{"zipCode":"4260026","prefectureKana":"ｼｽﾞｵｶｹﾝ","cityKana":"ﾌｼﾞｴﾀﾞｼ","streetKana":"ｵｶﾃﾞﾔﾏ","prefecture":"静岡県","city":"藤枝市","street":"岡出山"},{"zipCode":"4260087","prefectureKana":"ｼｽﾞｵｶｹﾝ","cityKana":"ﾌｼﾞｴﾀﾞｼ","streetKana":"ｵﾄﾜﾁｮｳ","prefecture":"静岡県","city":"藤枝市","street":"音羽町"},{"zipCode":"4260008","prefectureKana":"ｼｽﾞｵｶｹﾝ","cityKana":"ﾌｼﾞｴﾀﾞｼ","streetKana":"ｵﾆｼﾞﾏ","prefecture":"静岡県","city":"藤枝市","street":"鬼島"},{"zipCode":"4260036","prefectureKana":"ｼｽﾞｵｶｹﾝ","cityKana":"ﾌｼﾞｴﾀﾞｼ","streetKana":"ｶﾐｱｵｼﾞﾏ","prefecture":"静岡県","city":"藤枝市","street":"上青島"},{"zipCode":"4260004","prefectureKana":"ｼｽﾞｵｶｹﾝ","cityKana":"ﾌｼﾞｴﾀﾞｼ","streetKana":"ｶﾐﾄﾞｳﾏ","prefecture":"静岡県","city":"藤枝市","street":"上当間"},{"zipCode":"4260202","prefectureKana":"ｼｽﾞｵｶｹﾝ","cityKana":"ﾌｼﾞｴﾀﾞｼ","streetKana":"ｶﾐﾔﾌﾞﾀ","prefecture":"静岡県","city":"藤枝市","street":"上藪田"},{"zipCode":"4260001","prefectureKana":"ｼｽﾞｵｶｹﾝ","cityKana":"ﾌｼﾞｴﾀﾞｼ","streetKana":"ｶﾘﾔﾄﾞ","prefecture":"静岡県","city":"藤枝市","street":"仮宿"},{"zipCode":"4260024","prefectureKana":"ｼｽﾞｵｶｹﾝ","cityKana":"ﾌｼﾞｴﾀﾞｼ","streetKana":"ｷｶﾞﾝｼﾞ","prefecture":"静岡県","city":"藤枝市","street":"鬼岩寺"},{"zipCode":"4260212","prefectureKana":"ｼｽﾞｵｶｹﾝ","cityKana":"ﾌｼﾞｴﾀﾞｼ","streetKana":"ｷﾀｶﾞﾀ","prefecture":"静岡県","city":"藤枝市","street":"北方"},{"zipCode":"4260064","prefectureKana":"ｼｽﾞｵｶｹﾝ","cityKana":"ﾌｼﾞｴﾀﾞｼ","streetKana":"ｷｭｳﾍﾞｴｲﾁｳｴﾓﾝｳｹｼﾝﾃﾞﾝ","prefecture":"静岡県","city":"藤枝市","street":"久兵衛市右衛門請新田"},{"zipCode":"4260223","prefectureKana":"ｼｽﾞｵｶｹﾝ","cityKana":"ﾌｼﾞｴﾀﾞｼ","streetKana":"ｷﾖｻﾄ","prefecture":"静岡県","city":"藤枝市","street":"清里"},{"zipCode":"4260054","prefectureKana":"ｼｽﾞｵｶｹﾝ","cityKana":"ﾌｼﾞｴﾀﾞｼ","streetKana":"ｹﾞﾝｽｹ","prefecture":"静岡県","city":"藤枝市","street":"源助"},{"zipCode":"4260033","prefectureKana":"ｼｽﾞｵｶｹﾝ","cityKana":"ﾌｼﾞｴﾀﾞｼ","streetKana":"ｺｲｼｶﾞﾜﾁｮｳ","prefecture":"静岡県","city":"藤枝市","street":"小石川町"},{"zipCode":"4260079","prefectureKana":"ｼｽﾞｵｶｹﾝ","cityKana":"ﾌｼﾞｴﾀﾞｼ","streetKana":"ｺｳﾖｳﾀﾞｲ","prefecture":"静岡県","city":"藤枝市","street":"光洋台"},{"zipCode":"4260016","prefectureKana":"ｼｽﾞｵｶｹﾝ","cityKana":"ﾌｼﾞｴﾀﾞｼ","streetKana":"ｺｵﾘ","prefecture":"静岡県","city":"藤枝市","street":"郡"},{"zipCode":"4260056","prefectureKana":"ｼｽﾞｵｶｹﾝ","cityKana":"ﾌｼﾞｴﾀﾞｼ","streetKana":"ｺﾞﾍｲ","prefecture":"静岡県","city":"藤枝市","street":"五平"},{"zipCode":"4260071","prefectureKana":"ｼｽﾞｵｶｹﾝ","cityKana":"ﾌｼﾞｴﾀﾞｼ","streetKana":"ｼﾀﾞ","prefecture":"静岡県","city":"藤枝市","street":"志太"},{"zipCode":"4260035","prefectureKana":"ｼｽﾞｵｶｹﾝ","cityKana":"ﾌｼﾞｴﾀﾞｼ","streetKana":"ｼﾓｱｵｼﾞﾏ","prefecture":"静岡県","city":"藤枝市","street":"下青島"},{"zipCode":"4260003","prefectureKana":"ｼｽﾞｵｶｹﾝ","cityKana":"ﾌｼﾞｴﾀﾞｼ","streetKana":"ｼﾓﾄﾞｳﾏ","prefecture":"静岡県","city":"藤枝市","street":"下当間"},{"zipCode":"4260203","prefectureKana":"ｼｽﾞｵｶｹﾝ","cityKana":"ﾌｼﾞｴﾀﾞｼ","streetKana":"ｼﾓﾉｺﾞｳ","prefecture":"静岡県","city":"藤枝市","street":"下之郷"},{"zipCode":"4260201","prefectureKana":"ｼｽﾞｵｶｹﾝ","cityKana":"ﾌｼﾞｴﾀﾞｼ","streetKana":"ｼﾓﾔﾌﾞﾀ","prefecture":"静岡県","city":"藤枝市","street":"下藪田"},{"zipCode":"4260021","prefectureKana":"ｼｽﾞｵｶｹﾝ","cityKana":"ﾌｼﾞｴﾀﾞｼ","streetKana":"ｼﾞｮｳﾅﾝ","prefecture":"静岡県","city":"藤枝市","street":"城南"},{"zipCode":"4260073","prefectureKana":"ｼｽﾞｵｶｹﾝ","cityKana":"ﾌｼﾞｴﾀﾞｼ","streetKana":"ｼﾝﾐﾅﾐｱﾗﾔ","prefecture":"静岡県","city":"藤枝市","street":"新南新屋"},{"zipCode":"4260065","prefectureKana":"ｼｽﾞｵｶｹﾝ","cityKana":"ﾌｼﾞｴﾀﾞｼ","streetKana":"ｽｴﾋﾛ","prefecture":"静岡県","city":"藤枝市","street":"末広"},{"zipCode":"4260085","prefectureKana":"ｼｽﾞｵｶｹﾝ","cityKana":"ﾌｼﾞｴﾀﾞｼ","streetKana":"ｽｹﾑﾈ","prefecture":"静岡県","city":"藤枝市","street":"助宗"},{"zipCode":"4260077","prefectureKana":"ｼｽﾞｵｶｹﾝ","cityKana":"ﾌｼﾞｴﾀﾞｼ","streetKana":"ｽﾙｶﾞﾀﾞｲ","prefecture":"静岡県","city":"藤枝市","street":"駿河台"},{"zipCode":"4260063","prefectureKana":"ｼｽﾞｵｶｹﾝ","cityKana":"ﾌｼﾞｴﾀﾞｼ","streetKana":"ｾｲﾅﾝﾁｮｳ","prefecture":"静岡県","city":"藤枝市","street":"青南町"},{"zipCode":"4260082","prefectureKana":"ｼｽﾞｵｶｹﾝ","cityKana":"ﾌｼﾞｴﾀﾞｼ","streetKana":"ｾｺ","prefecture":"静岡県","city":"藤枝市","street":"瀬古"},{"zipCode":"4260075","prefectureKana":"ｼｽﾞｵｶｹﾝ","cityKana":"ﾌｼﾞｴﾀﾞｼ","streetKana":"ｾﾄｱﾗﾔ","prefecture":"静岡県","city":"藤枝市","street":"瀬戸新屋"},{"zipCode":"4260131","prefectureKana":"ｼｽﾞｵｶｹﾝ","cityKana":"ﾌｼﾞｴﾀﾞｼ","streetKana":"ｾﾄﾉﾔ","prefecture":"静岡県","city":"藤枝市","street":"瀬戸ノ谷"},{"zipCode":"4260053","prefectureKana":"ｼｽﾞｵｶｹﾝ","cityKana":"ﾌｼﾞｴﾀﾞｼ","streetKana":"ｾﾞﾝｻﾞｴﾓﾝ","prefecture":"静岡県","city":"藤枝市","street":"善左衛門"},{"zipCode":"4260043","prefectureKana":"ｼｽﾞｵｶｹﾝ","cityKana":"ﾌｼﾞｴﾀﾞｼ","streetKana":"ﾀｲｼﾝｼﾞﾏ","prefecture":"静岡県","city":"藤枝市","street":"大新島"},{"zipCode":"4260055","prefectureKana":"ｼｽﾞｵｶｹﾝ","cityKana":"ﾌｼﾞｴﾀﾞｼ","streetKana":"ﾀﾞｲｾｲﾁｮｳ","prefecture":"静岡県","city":"藤枝市","street":"大西町"},{"zipCode":"4260044","prefectureKana":"ｼｽﾞｵｶｹﾝ","cityKana":"ﾌｼﾞｴﾀﾞｼ","streetKana":"ﾀﾞｲﾄｳﾁｮｳ","prefecture":"静岡県","city":"藤枝市","street":"大東町"},{"zipCode":"4260062","prefectureKana":"ｼｽﾞｵｶｹﾝ","cityKana":"ﾌｼﾞｴﾀﾞｼ","streetKana":"ﾀｶｵｶ","prefecture":"静岡県","city":"藤枝市","street":"高岡"},{"zipCode":"4260046","prefectureKana":"ｼｽﾞｵｶｹﾝ","cityKana":"ﾌｼﾞｴﾀﾞｼ","streetKana":"ﾀｶｽ","prefecture":"静岡県","city":"藤枝市","street":"高洲"},{"zipCode":"4260221","prefectureKana":"ｼｽﾞｵｶｹﾝ","cityKana":"ﾌｼﾞｴﾀﾞｼ","streetKana":"ﾀｶﾀ","prefecture":"静岡県","city":"藤枝市","street":"高田"},{"zipCode":"4260041","prefectureKana":"ｼｽﾞｵｶｹﾝ","cityKana":"ﾌｼﾞｴﾀﾞｼ","streetKana":"ﾀｶﾔﾅｷﾞ","prefecture":"静岡県","city":"藤枝市","street":"高柳"},{"zipCode":"4260134","prefectureKana":"ｼｽﾞｵｶｹﾝ","cityKana":"ﾌｼﾞｴﾀﾞｼ","streetKana":"ﾀｷｻﾜ","prefecture":"静岡県","city":"藤枝市","street":"滝沢"},{"zipCode":"4260013","prefectureKana":"ｼｽﾞｵｶｹﾝ","cityKana":"ﾌｼﾞｴﾀﾞｼ","streetKana":"ﾀﾁﾊﾞﾅ","prefecture":"静岡県","city":"藤枝市","street":"立花"},{"zipCode":"4260012","prefectureKana":"ｼｽﾞｵｶｹﾝ","cityKana":"ﾌｼﾞｴﾀﾞｼ","streetKana":"ﾀﾅｶ","prefecture":"静岡県","city":"藤枝市","street":"田中"},{"zipCode":"4260061","prefectureKana":"ｼｽﾞｵｶｹﾝ","cityKana":"ﾌｼﾞｴﾀﾞｼ","streetKana":"ﾀﾇﾏ","prefecture":"静岡県","city":"藤枝市","street":"田沼"},{"zipCode":"4260023","prefectureKana":"ｼｽﾞｵｶｹﾝ","cityKana":"ﾌｼﾞｴﾀﾞｼ","streetKana":"ﾁｬﾏﾁ","prefecture":"静岡県","city":"藤枝市","street":"茶町"},{"zipCode":"4260057","prefectureKana":"ｼｽﾞｵｶｹﾝ","cityKana":"ﾌｼﾞｴﾀﾞｼ","streetKana":"ﾁｭｳﾍﾞｴ","prefecture":"静岡県","city":"藤枝市","street":"忠兵衛"},{"zipCode":"4260031","prefectureKana":"ｼｽﾞｵｶｹﾝ","cityKana":"ﾌｼﾞｴﾀﾞｼ","streetKana":"ﾂｲｼﾞ","prefecture":"静岡県","city":"藤枝市","street":"築地"},{"zipCode":"4260032","prefectureKana":"ｼｽﾞｵｶｹﾝ","cityKana":"ﾌｼﾞｴﾀﾞｼ","streetKana":"ﾂｲｼﾞｶﾐ","prefecture":"静岡県","city":"藤枝市","street":"築地上"},{"zipCode":"4260084","prefectureKana":"ｼｽﾞｵｶｹﾝ","cityKana":"ﾌｼﾞｴﾀﾞｼ","streetKana":"ﾃﾗｼﾞﾏ","prefecture":"静岡県","city":"藤枝市","street":"寺島"},{"zipCode":"4260019","prefectureKana":"ｼｽﾞｵｶｹﾝ","cityKana":"ﾌｼﾞｴﾀﾞｼ","streetKana":"ﾃﾝﾉｳﾁｮｳ","prefecture":"静岡県","city":"藤枝市","street":"天王町"},{"zipCode":"4260204","prefectureKana":"ｼｽﾞｵｶｹﾝ","cityKana":"ﾌｼﾞｴﾀﾞｼ","streetKana":"ﾄｷｶﾞﾔ","prefecture":"静岡県","city":"藤枝市","street":"時ケ谷"},{"zipCode":"4260213","prefectureKana":"ｼｽﾞｵｶｹﾝ","cityKana":"ﾌｼﾞｴﾀﾞｼ","streetKana":"ﾅｶﾉｺﾞｳ","prefecture":"静岡県","city":"藤枝市","street":"中ノ合"},{"zipCode":"4260222","prefectureKana":"ｼｽﾞｵｶｹﾝ","cityKana":"ﾌｼﾞｴﾀﾞｼ","streetKana":"ﾅｶﾔﾌﾞﾀ","prefecture":"静岡県","city":"藤枝市","street":"中藪田"},{"zipCode":"4260211","prefectureKana":"ｼｽﾞｵｶｹﾝ","cityKana":"ﾌｼﾞｴﾀﾞｼ","streetKana":"ﾆｼｶﾞﾀ","prefecture":"静岡県","city":"藤枝市","street":"西方"},{"zipCode":"4260014","prefectureKana":"ｼｽﾞｵｶｹﾝ","cityKana":"ﾌｼﾞｴﾀﾞｼ","streetKana":"ﾆｬｸｵｳｼﾞ","prefecture":"静岡県","city":"藤枝市","street":"若王子"},{"zipCode":"4260205","prefectureKana":"ｼｽﾞｵｶｹﾝ","cityKana":"ﾌｼﾞｴﾀﾞｼ","streetKana":"ﾊﾅｸﾞﾗ","prefecture":"静岡県","city":"藤枝市","street":"花倉"},{"zipCode":"4260086","prefectureKana":"ｼｽﾞｵｶｹﾝ","cityKana":"ﾌｼﾞｴﾀﾞｼ","streetKana":"ﾊﾗ","prefecture":"静岡県","city":"藤枝市","street":"原"},{"zipCode":"4260038","prefectureKana":"ｼｽﾞｵｶｹﾝ","cityKana":"ﾌｼﾞｴﾀﾞｼ","streetKana":"ﾋｶﾞｼﾁｮｳ","prefecture":"静岡県","city":"藤枝市","street":"東町"},{"zipCode":"4260042","prefectureKana":"ｼｽﾞｵｶｹﾝ","cityKana":"ﾌｼﾞｴﾀﾞｼ","streetKana":"ﾋｮｳﾀﾞﾕｳ","prefecture":"静岡県","city":"藤枝市","street":"兵太夫"},{"zipCode":"4260011","prefectureKana":"ｼｽﾞｵｶｹﾝ","cityKana":"ﾌｼﾞｴﾀﾞｼ","streetKana":"ﾋﾗｼﾏ","prefecture":"静岡県","city":"藤枝市","street":"平島"},{"zipCode":"4260025","prefectureKana":"ｼｽﾞｵｶｹﾝ","cityKana":"ﾌｼﾞｴﾀﾞｼ","streetKana":"ﾌｼﾞｴﾀﾞ","prefecture":"静岡県","city":"藤枝市","street":"藤枝"},{"zipCode":"4260006","prefectureKana":"ｼｽﾞｵｶｹﾝ","cityKana":"ﾌｼﾞｴﾀﾞｼ","streetKana":"ﾌｼﾞｵｶ","prefecture":"静岡県","city":"藤枝市","street":"藤岡"},{"zipCode":"4260088","prefectureKana":"ｼｽﾞｵｶｹﾝ","cityKana":"ﾌｼﾞｴﾀﾞｼ","streetKana":"ﾎﾘﾉｳﾁ","prefecture":"静岡県","city":"藤枝市","street":"堀之内"},{"zipCode":"4260132","prefectureKana":"ｼｽﾞｵｶｹﾝ","cityKana":"ﾌｼﾞｴﾀﾞｼ","streetKana":"ﾎﾝｺﾞｳ","prefecture":"静岡県","city":"藤枝市","street":"本郷"},{"zipCode":"4260018","prefectureKana":"ｼｽﾞｵｶｹﾝ","cityKana":"ﾌｼﾞｴﾀﾞｼ","streetKana":"ﾎﾝﾏﾁ","prefecture":"静岡県","city":"藤枝市","street":"本町"},{"zipCode":"4260067","prefectureKana":"ｼｽﾞｵｶｹﾝ","cityKana":"ﾌｼﾞｴﾀﾞｼ","streetKana":"ﾏｴｼﾞﾏ","prefecture":"静岡県","city":"藤枝市","street":"前島"},{"zipCode":"4260029","prefectureKana":"ｼｽﾞｵｶｹﾝ","cityKana":"ﾌｼﾞｴﾀﾞｼ","streetKana":"ﾏｼﾂﾞ","prefecture":"静岡県","city":"藤枝市","street":"益津"},{"zipCode":"4260028","prefectureKana":"ｼｽﾞｵｶｹﾝ","cityKana":"ﾌｼﾞｴﾀﾞｼ","streetKana":"ﾏｼﾂﾞｼﾓ","prefecture":"静岡県","city":"藤枝市","street":"益津下"},{"zipCode":"4260074","prefectureKana":"ｼｽﾞｵｶｹﾝ","cityKana":"ﾌｼﾞｴﾀﾞｼ","streetKana":"ﾐｽﾞｶﾐ","prefecture":"静岡県","city":"藤枝市","street":"水上"},{"zipCode":"4260005","prefectureKana":"ｼｽﾞｵｶｹﾝ","cityKana":"ﾌｼﾞｴﾀﾞｼ","streetKana":"ﾐｽﾞﾓﾘ","prefecture":"静岡県","city":"藤枝市","street":"水守"},{"zipCode":"4260027","prefectureKana":"ｼｽﾞｵｶｹﾝ","cityKana":"ﾌｼﾞｴﾀﾞｼ","streetKana":"ﾐﾄﾞﾘﾁｮｳ","prefecture":"静岡県","city":"藤枝市","street":"緑町"},{"zipCode":"4260070","prefectureKana":"ｼｽﾞｵｶｹﾝ","cityKana":"ﾌｼﾞｴﾀﾞｼ","streetKana":"ﾐﾄﾞﾘﾉｵｶ","prefecture":"静岡県","city":"藤枝市","street":"緑の丘"},{"zipCode":"4260072","prefectureKana":"ｼｽﾞｵｶｹﾝ","cityKana":"ﾌｼﾞｴﾀﾞｼ","streetKana":"ﾐﾅﾐｱﾗﾔ","prefecture":"静岡県","city":"藤枝市","street":"南新屋"},{"zipCode":"4260224","prefectureKana":"ｼｽﾞｵｶｹﾝ","cityKana":"ﾌｼﾞｴﾀﾞｼ","streetKana":"ﾐﾅﾐｷﾖｻﾄ","prefecture":"静岡県","city":"藤枝市","street":"南清里"},{"zipCode":"4260078","prefectureKana":"ｼｽﾞｵｶｹﾝ","cityKana":"ﾌｼﾞｴﾀﾞｼ","streetKana":"ﾐﾅﾐｽﾙｶﾞﾀﾞｲ","prefecture":"静岡県","city":"藤枝市","street":"南駿河台"},{"zipCode":"4260133","prefectureKana":"ｼｽﾞｵｶｹﾝ","cityKana":"ﾌｼﾞｴﾀﾞｼ","streetKana":"ﾐﾔﾊﾞﾗ","prefecture":"静岡県","city":"藤枝市","street":"宮原"},{"zipCode":"4260083","prefectureKana":"ｼｽﾞｵｶｹﾝ","cityKana":"ﾌｼﾞｴﾀﾞｼ","streetKana":"ﾔｲﾅﾊﾞ","prefecture":"静岡県","city":"藤枝市","street":"谷稲葉"},{"zipCode":"4260052","prefectureKana":"ｼｽﾞｵｶｹﾝ","cityKana":"ﾌｼﾞｴﾀﾞｼ","streetKana":"ﾔｻﾞｴﾓﾝ","prefecture":"静岡県","city":"藤枝市","street":"弥左衛門"},{"zipCode":"4260009","prefectureKana":"ｼｽﾞｵｶｹﾝ","cityKana":"ﾌｼﾞｴﾀﾞｼ","streetKana":"ﾔﾜﾀ","prefecture":"静岡県","city":"藤枝市","street":"八幡"},{"zipCode":"4260002","prefectureKana":"ｼｽﾞｵｶｹﾝ","cityKana":"ﾌｼﾞｴﾀﾞｼ","streetKana":"ﾖｺｳﾁ","prefecture":"静岡県","city":"藤枝市","street":"横内"},{"zipCode":"4260047","prefectureKana":"ｼｽﾞｵｶｹﾝ","cityKana":"ﾌｼﾞｴﾀﾞｼ","streetKana":"ﾖｻﾞｴﾓﾝ","prefecture":"静岡県","city":"藤枝市","street":"与左衛門"}]