[{"zipCode":"4280504","prefectureKana":"ｼｽﾞｵｶｹﾝ","cityKana":"ｼｽﾞｵｶｼｱｵｲｸ","streetKana":"ｲｶﾜ","prefecture":"静岡県","city":"静岡市葵区","street":"井川"},{"zipCode":"4280503","prefectureKana":"ｼｽﾞｵｶｹﾝ","cityKana":"ｼｽﾞｵｶｼｱｵｲｸ","streetKana":"ｲﾜｻｷ","prefecture":"静岡県","city":"静岡市葵区","street":"岩崎"},{"zipCode":"4280502","prefectureKana":"ｼｽﾞｵｶｹﾝ","cityKana":"ｼｽﾞｵｶｼｱｵｲｸ","streetKana":"ｶﾐｻｶﾓﾄ","prefecture":"静岡県","city":"静岡市葵区","street":"上坂本"},{"zipCode":"4280501","prefectureKana":"ｼｽﾞｵｶｹﾝ","cityKana":"ｼｽﾞｵｶｼｱｵｲｸ","streetKana":"ｺｺﾞｳﾁ","prefecture":"静岡県","city":"静岡市葵区","street":"小河内"},{"zipCode":"4280505","prefectureKana":"ｼｽﾞｵｶｹﾝ","cityKana":"ｼｽﾞｵｶｼｱｵｲｸ","streetKana":"ﾀｼﾛ","prefecture":"静岡県","city":"静岡市葵区","street":"田代"},{"zipCode":"4280006","prefectureKana":"ｼｽﾞｵｶｹﾝ","cityKana":"ｼﾏﾀﾞｼ","streetKana":"ｳｼｵ","prefecture":"静岡県","city":"島田市","street":"牛尾"},{"zipCode":"4280009","prefectureKana":"ｼｽﾞｵｶｹﾝ","cityKana":"ｼﾏﾀﾞｼ","streetKana":"ｵｵｼﾞﾛ","prefecture":"静岡県","city":"島田市","street":"大代"},{"zipCode":"4280013","prefectureKana":"ｼｽﾞｵｶｹﾝ","cityKana":"ｼﾏﾀﾞｼ","streetKana":"ｶﾅﾔｱｽﾞﾏ","prefecture":"静岡県","city":"島田市","street":"金谷東"},{"zipCode":"4280014","prefectureKana":"ｼｽﾞｵｶｹﾝ","cityKana":"ｼﾏﾀﾞｼ","streetKana":"ｶﾅﾔｲｽﾞﾐﾁｮｳ","prefecture":"静岡県","city":"島田市","street":"金谷泉町"},{"zipCode":"4280015","prefectureKana":"ｼｽﾞｵｶｹﾝ","cityKana":"ｼﾏﾀﾞｼ","streetKana":"ｶﾅﾔｵｳｷﾞﾁｮｳ","prefecture":"静岡県","city":"島田市","street":"金谷扇町"},{"zipCode":"4280027","prefectureKana":"ｼｽﾞｵｶｹﾝ","cityKana":"ｼﾏﾀﾞｼ","streetKana":"ｶﾅﾔｶﾐｼﾞｭｳｺﾞｹﾝ","prefecture":"静岡県","city":"島田市","street":"金谷上十五軒"},{"zipCode":"4280046","prefectureKana":"ｼｽﾞｵｶｹﾝ","cityKana":"ｼﾏﾀﾞｼ","streetKana":"ｶﾅﾔｷﾝｻﾞﾝﾁｮｳ","prefecture":"静岡県","city":"島田市","street":"金谷金山町"},{"zipCode":"4280017","prefectureKana":"ｼｽﾞｵｶｹﾝ","cityKana":"ｼﾏﾀﾞｼ","streetKana":"ｶﾅﾔｻｶｴﾁｮｳ","prefecture":"静岡県","city":"島田市","street":"金谷栄町"},{"zipCode":"4280023","prefectureKana":"ｼｽﾞｵｶｹﾝ","cityKana":"ｼﾏﾀﾞｼ","streetKana":"ｶﾅﾔｻｶﾏﾁ","prefecture":"静岡県","city":"島田市","street":"金谷坂町"},{"zipCode":"4280039","prefectureKana":"ｼｽﾞｵｶｹﾝ","cityKana":"ｼﾏﾀﾞｼ","streetKana":"ｶﾅﾔｼｼﾄﾞｲ","prefecture":"静岡県","city":"島田市","street":"金谷猪土居"},{"zipCode":"4280031","prefectureKana":"ｼｽﾞｵｶｹﾝ","cityKana":"ｼﾏﾀﾞｼ","streetKana":"ｶﾅﾔｼﾐｽﾞ","prefecture":"静岡県","city":"島田市","street":"金谷清水"},{"zipCode":"4280028","prefectureKana":"ｼｽﾞｵｶｹﾝ","cityKana":"ｼﾏﾀﾞｼ","streetKana":"ｶﾅﾔｼﾓｼﾞｭｳｺﾞｹﾝ","prefecture":"静岡県","city":"島田市","street":"金谷下十五軒"},{"zipCode":"4280048","prefectureKana":"ｼｽﾞｵｶｹﾝ","cityKana":"ｼﾏﾀﾞｼ","streetKana":"ｶﾅﾔｼﾛﾔﾏﾁｮｳ","prefecture":"静岡県","city":"島田市","street":"金谷城山町"},{"zipCode":"4280047","prefectureKana":"ｼｽﾞｵｶｹﾝ","cityKana":"ｼﾏﾀﾞｼ","streetKana":"ｶﾅﾔｼﾝﾏﾁ","prefecture":"静岡県","city":"島田市","street":"金谷新町"},{"zipCode":"4280012","prefectureKana":"ｼｽﾞｵｶｹﾝ","cityKana":"ｼﾏﾀﾞｼ","streetKana":"ｶﾅﾔﾀﾞｲｶﾝﾁｮｳ","prefecture":"静岡県","city":"島田市","street":"金谷代官町"},{"zipCode":"4280025","prefectureKana":"ｼｽﾞｵｶｹﾝ","cityKana":"ｼﾏﾀﾞｼ","streetKana":"ｶﾅﾔﾀﾏﾁ","prefecture":"静岡県","city":"島田市","street":"金谷田町"},{"zipCode":"4280032","prefectureKana":"ｼｽﾞｵｶｹﾝ","cityKana":"ｼﾏﾀﾞｼ","streetKana":"ｶﾅﾔﾃﾝﾉｳﾁｮｳ","prefecture":"静岡県","city":"島田市","street":"金谷天王町"},{"zipCode":"4280043","prefectureKana":"ｼｽﾞｵｶｹﾝ","cityKana":"ｼﾏﾀﾞｼ","streetKana":"ｶﾅﾔﾅｶﾏﾁ","prefecture":"静岡県","city":"島田市","street":"金谷中町"},{"zipCode":"4280033","prefectureKana":"ｼｽﾞｵｶｹﾝ","cityKana":"ｼﾏﾀﾞｼ","streetKana":"ｶﾅﾔﾆｹﾝﾔ","prefecture":"静岡県","city":"島田市","street":"金谷二軒家"},{"zipCode":"4280018","prefectureKana":"ｼｽﾞｵｶｹﾝ","cityKana":"ｼﾏﾀﾞｼ","streetKana":"ｶﾅﾔﾈｷﾞｼﾁｮｳ","prefecture":"静岡県","city":"島田市","street":"金谷根岸町"},{"zipCode":"4280034","prefectureKana":"ｼｽﾞｵｶｹﾝ","cityKana":"ｼﾏﾀﾞｼ","streetKana":"ｶﾅﾔﾌｼﾞﾐﾁｮｳ","prefecture":"静岡県","city":"島田市","street":"金谷富士見町"},{"zipCode":"4280042","prefectureKana":"ｼｽﾞｵｶｹﾝ","cityKana":"ｼﾏﾀﾞｼ","streetKana":"ｶﾅﾔﾌﾙﾖｺﾁｮｳ","prefecture":"静岡県","city":"島田市","street":"金谷古横町"},{"zipCode":"4280026","prefectureKana":"ｼｽﾞｵｶｹﾝ","cityKana":"ｼﾏﾀﾞｼ","streetKana":"ｶﾅﾔﾎﾝﾏﾁ","prefecture":"静岡県","city":"島田市","street":"金谷本町"},{"zipCode":"4280044","prefectureKana":"ｼｽﾞｵｶｹﾝ","cityKana":"ｼﾏﾀﾞｼ","streetKana":"ｶﾅﾔﾐﾄﾞﾘﾁｮｳ","prefecture":"静岡県","city":"島田市","street":"金谷緑町"},{"zipCode":"4280024","prefectureKana":"ｼｽﾞｵｶｹﾝ","cityKana":"ｼﾏﾀﾞｼ","streetKana":"ｶﾅﾔﾐﾅﾐﾁｮｳ","prefecture":"静岡県","city":"島田市","street":"金谷南町"},{"zipCode":"4280041","prefectureKana":"ｼｽﾞｵｶｹﾝ","cityKana":"ｼﾏﾀﾞｼ","streetKana":"ｶﾅﾔﾐﾔｺﾁｮｳ","prefecture":"静岡県","city":"島田市","street":"金谷都町"},{"zipCode":"4280016","prefectureKana":"ｼｽﾞｵｶｹﾝ","cityKana":"ｼﾏﾀﾞｼ","streetKana":"ｶﾅﾔﾐﾔｻﾞｷﾁｮｳ","prefecture":"静岡県","city":"島田市","street":"金谷宮崎町"},{"zipCode":"4280003","prefectureKana":"ｼｽﾞｵｶｹﾝ","cityKana":"ｼﾏﾀﾞｼ","streetKana":"ｶﾐｵ","prefecture":"静岡県","city":"島田市","street":"神尾"},{"zipCode":"4280036","prefectureKana":"ｼｽﾞｵｶｹﾝ","cityKana":"ｼﾏﾀﾞｼ","streetKana":"ｶﾐﾔｼﾛ","prefecture":"静岡県","city":"島田市","street":"神谷城"},{"zipCode":"4280104","prefectureKana":"ｼｽﾞｵｶｹﾝ","cityKana":"ｼﾏﾀﾞｼ","streetKana":"ｶﾜﾈﾁｮｳｲｴﾔﾏ","prefecture":"静岡県","city":"島田市","street":"川根町家山"},{"zipCode":"4280102","prefectureKana":"ｼｽﾞｵｶｹﾝ","cityKana":"ｼﾏﾀﾞｼ","streetKana":"ｶﾜﾈﾁｮｳｶﾐｺﾞｳﾁ","prefecture":"静岡県","city":"島田市","street":"川根町上河内"},{"zipCode":"4280211","prefectureKana":"ｼｽﾞｵｶｹﾝ","cityKana":"ｼﾏﾀﾞｼ","streetKana":"ｶﾜﾈﾁｮｳｻｻﾏｶﾐ","prefecture":"静岡県","city":"島田市","street":"川根町笹間上"},{"zipCode":"4280212","prefectureKana":"ｼｽﾞｵｶｹﾝ","cityKana":"ｼﾏﾀﾞｼ","streetKana":"ｶﾜﾈﾁｮｳｻｻﾏｼﾓ","prefecture":"静岡県","city":"島田市","street":"川根町笹間下"},{"zipCode":"4280101","prefectureKana":"ｼｽﾞｵｶｹﾝ","cityKana":"ｼﾏﾀﾞｼ","streetKana":"ｶﾜﾈﾁｮｳｻｻﾏﾄﾞ","prefecture":"静岡県","city":"島田市","street":"川根町笹間渡"},{"zipCode":"4280105","prefectureKana":"ｼｽﾞｵｶｹﾝ","cityKana":"ｼﾏﾀﾞｼ","streetKana":"ｶﾜﾈﾁｮｳﾂﾂﾞﾗ","prefecture":"静岡県","city":"島田市","street":"川根町葛籠"},{"zipCode":"4280106","prefectureKana":"ｼｽﾞｵｶｹﾝ","cityKana":"ｼﾏﾀﾞｼ","streetKana":"ｶﾜﾈﾁｮｳﾇｸﾘ","prefecture":"静岡県","city":"島田市","street":"川根町抜里"},{"zipCode":"4280103","prefectureKana":"ｼｽﾞｵｶｹﾝ","cityKana":"ｼﾏﾀﾞｼ","streetKana":"ｶﾜﾈﾁｮｳﾐﾅﾘ","prefecture":"静岡県","city":"島田市","street":"川根町身成"},{"zipCode":"4280037","prefectureKana":"ｼｽﾞｵｶｹﾝ","cityKana":"ｼﾏﾀﾞｼ","streetKana":"ｷｸｶﾞﾜ","prefecture":"静岡県","city":"島田市","street":"菊川"},{"zipCode":"4280035","prefectureKana":"ｼｽﾞｵｶｹﾝ","cityKana":"ｼﾏﾀﾞｼ","streetKana":"ｷﾘﾔﾏ","prefecture":"静岡県","city":"島田市","street":"切山"},{"zipCode":"4280038","prefectureKana":"ｼｽﾞｵｶｹﾝ","cityKana":"ｼﾏﾀﾞｼ","streetKana":"ｻﾖｼｶ","prefecture":"静岡県","city":"島田市","street":"佐夜鹿"},{"zipCode":"4280019","prefectureKana":"ｼｽﾞｵｶｹﾝ","cityKana":"ｼﾏﾀﾞｼ","streetKana":"ｼﾄﾛ","prefecture":"静岡県","city":"島田市","street":"志戸呂"},{"zipCode":"4280007","prefectureKana":"ｼｽﾞｵｶｹﾝ","cityKana":"ｼﾏﾀﾞｼ","streetKana":"ｼﾏ","prefecture":"静岡県","city":"島田市","street":"島"},{"zipCode":"4280001","prefectureKana":"ｼｽﾞｵｶｹﾝ","cityKana":"ｼﾏﾀﾞｼ","streetKana":"ﾀｶｸﾏ","prefecture":"静岡県","city":"島田市","street":"高熊"},{"zipCode":"4280008","prefectureKana":"ｼｽﾞｵｶｹﾝ","cityKana":"ｼﾏﾀﾞｼ","streetKana":"ﾀｹｼﾀ","prefecture":"静岡県","city":"島田市","street":"竹下"},{"zipCode":"4280011","prefectureKana":"ｼｽﾞｵｶｹﾝ","cityKana":"ｼﾏﾀﾞｼ","streetKana":"ﾊﾞﾝｼｮｳｼﾞ","prefecture":"静岡県","city":"島田市","street":"番生寺"},{"zipCode":"4280002","prefectureKana":"ｼｽﾞｵｶｹﾝ","cityKana":"ｼﾏﾀﾞｼ","streetKana":"ﾌｸﾖｳ","prefecture":"静岡県","city":"島田市","street":"福用"},{"zipCode":"4280049","prefectureKana":"ｼｽﾞｵｶｹﾝ","cityKana":"ｼﾏﾀﾞｼ","streetKana":"ﾏｷﾉﾊﾗ(250-343ﾊﾞﾝﾁ<255､256､258､259､262､","prefecture":"静岡県","city":"島田市","street":"牧之原（２５０～３４３番地「２５５、２５６、２５８、２５９、２６２、"},{"zipCode":"4280049","prefectureKana":"ｼｽﾞｵｶｹﾝ","cityKana":"ｼﾏﾀﾞｼ","streetKana":"276､294-300､302-304ﾊﾞﾝﾁｦﾉｿﾞｸ>)","prefecture":"静岡県","city":"島田市","street":"２７６、２９４～３００、３０２～３０４番地を除く」）"},{"zipCode":"4280004","prefectureKana":"ｼｽﾞｵｶｹﾝ","cityKana":"ｼﾏﾀﾞｼ","streetKana":"ﾖｺｵｶ","prefecture":"静岡県","city":"島田市","street":"横岡"},{"zipCode":"4280005","prefectureKana":"ｼｽﾞｵｶｹﾝ","cityKana":"ｼﾏﾀﾞｼ","streetKana":"ﾖｺｵｶｼﾝﾃﾞﾝ","prefecture":"静岡県","city":"島田市","street":"横岡新田"},{"zipCode":"4280300","prefectureKana":"ｼｽﾞｵｶｹﾝ","cityKana":"ﾊｲﾊﾞﾗｸﾞﾝｶﾜﾈﾎﾝﾁｮｳ","streetKana":"ｲｶﾆｹｲｻｲｶﾞﾅｲﾊﾞｱｲ","prefecture":"静岡県","city":"榛原郡川根本町","street":"以下に掲載がない場合"},{"zipCode":"4280417","prefectureKana":"ｼｽﾞｵｶｹﾝ","cityKana":"ﾊｲﾊﾞﾗｸﾞﾝｶﾜﾈﾎﾝﾁｮｳ","streetKana":"ｱｵﾍﾞ","prefecture":"静岡県","city":"榛原郡川根本町","street":"青部"},{"zipCode":"4280303","prefectureKana":"ｼｽﾞｵｶｹﾝ","cityKana":"ﾊｲﾊﾞﾗｸﾞﾝｶﾜﾈﾎﾝﾁｮｳ","streetKana":"ｲﾁｮｳｺﾞｳﾁ","prefecture":"静岡県","city":"榛原郡川根本町","street":"壱町河内"},{"zipCode":"4280402","prefectureKana":"ｼｽﾞｵｶｹﾝ","cityKana":"ﾊｲﾊﾞﾗｸﾞﾝｶﾜﾈﾎﾝﾁｮｳ","streetKana":"ｲﾇﾏ","prefecture":"静岡県","city":"榛原郡川根本町","street":"犬間"},{"zipCode":"4280401","prefectureKana":"ｼｽﾞｵｶｹﾝ","cityKana":"ﾊｲﾊﾞﾗｸﾞﾝｶﾜﾈﾎﾝﾁｮｳ","streetKana":"ｳﾒｼﾞ","prefecture":"静岡県","city":"榛原郡川根本町","street":"梅地"},{"zipCode":"4280412","prefectureKana":"ｼｽﾞｵｶｹﾝ","cityKana":"ﾊｲﾊﾞﾗｸﾞﾝｶﾜﾈﾎﾝﾁｮｳ","streetKana":"ｵｸｲｽﾞﾐ","prefecture":"静岡県","city":"榛原郡川根本町","street":"奥泉"},{"zipCode":"4280415","prefectureKana":"ｼｽﾞｵｶｹﾝ","cityKana":"ﾊｲﾊﾞﾗｸﾞﾝｶﾜﾈﾎﾝﾁｮｳ","streetKana":"ｶﾐｷｼ","prefecture":"静岡県","city":"榛原郡川根本町","street":"上岸"},{"zipCode":"4280313","prefectureKana":"ｼｽﾞｵｶｹﾝ","cityKana":"ﾊｲﾊﾞﾗｸﾞﾝｶﾜﾈﾎﾝﾁｮｳ","streetKana":"ｶﾐﾅｶﾞｵ","prefecture":"静岡県","city":"榛原郡川根本町","street":"上長尾"},{"zipCode":"4280315","prefectureKana":"ｼｽﾞｵｶｹﾝ","cityKana":"ﾊｲﾊﾞﾗｸﾞﾝｶﾜﾈﾎﾝﾁｮｳ","streetKana":"ｸﾉﾜｷ","prefecture":"静岡県","city":"榛原郡川根本町","street":"久野脇"},{"zipCode":"4280413","prefectureKana":"ｼｽﾞｵｶｹﾝ","cityKana":"ﾊｲﾊﾞﾗｸﾞﾝｶﾜﾈﾎﾝﾁｮｳ","streetKana":"ｸﾜﾉﾔﾏ","prefecture":"静岡県","city":"榛原郡川根本町","street":"桑野山"},{"zipCode":"4280418","prefectureKana":"ｼｽﾞｵｶｹﾝ","cityKana":"ﾊｲﾊﾞﾗｸﾞﾝｶﾜﾈﾎﾝﾁｮｳ","streetKana":"ｻｷﾀﾞｲﾗ","prefecture":"静岡県","city":"榛原郡川根本町","street":"崎平"},{"zipCode":"4280305","prefectureKana":"ｼｽﾞｵｶｹﾝ","cityKana":"ﾊｲﾊﾞﾗｸﾞﾝｶﾜﾈﾎﾝﾁｮｳ","streetKana":"ｼﾞﾅ","prefecture":"静岡県","city":"榛原郡川根本町","street":"地名"},{"zipCode":"4280304","prefectureKana":"ｼｽﾞｵｶｹﾝ","cityKana":"ﾊｲﾊﾞﾗｸﾞﾝｶﾜﾈﾎﾝﾁｮｳ","streetKana":"ｼﾓｲｽﾞﾐ","prefecture":"静岡県","city":"榛原郡川根本町","street":"下泉"},{"zipCode":"4280314","prefectureKana":"ｼｽﾞｵｶｹﾝ","cityKana":"ﾊｲﾊﾞﾗｸﾞﾝｶﾜﾈﾎﾝﾁｮｳ","streetKana":"ｼﾓﾅｶﾞｵ","prefecture":"静岡県","city":"榛原郡川根本町","street":"下長尾"},{"zipCode":"4280411","prefectureKana":"ｼｽﾞｵｶｹﾝ","cityKana":"ﾊｲﾊﾞﾗｸﾞﾝｶﾜﾈﾎﾝﾁｮｳ","streetKana":"ｾﾝｽﾞ","prefecture":"静岡県","city":"榛原郡川根本町","street":"千頭"},{"zipCode":"4280416","prefectureKana":"ｼｽﾞｵｶｹﾝ","cityKana":"ﾊｲﾊﾞﾗｸﾞﾝｶﾜﾈﾎﾝﾁｮｳ","streetKana":"ﾀｼﾛ","prefecture":"静岡県","city":"榛原郡川根本町","street":"田代"},{"zipCode":"4280306","prefectureKana":"ｼｽﾞｵｶｹﾝ","cityKana":"ﾊｲﾊﾞﾗｸﾞﾝｶﾜﾈﾎﾝﾁｮｳ","streetKana":"ﾀﾉｸﾁ","prefecture":"静岡県","city":"榛原郡川根本町","street":"田野口"},{"zipCode":"4280301","prefectureKana":"ｼｽﾞｵｶｹﾝ","cityKana":"ﾊｲﾊﾞﾗｸﾞﾝｶﾜﾈﾎﾝﾁｮｳ","streetKana":"ﾄｸﾔﾏ","prefecture":"静岡県","city":"榛原郡川根本町","street":"徳山"},{"zipCode":"4280414","prefectureKana":"ｼｽﾞｵｶｹﾝ","cityKana":"ﾊｲﾊﾞﾗｸﾞﾝｶﾜﾈﾎﾝﾁｮｳ","streetKana":"ﾋｶﾞｼﾌｼﾞｶﾜ","prefecture":"静岡県","city":"榛原郡川根本町","street":"東藤川"},{"zipCode":"4280302","prefectureKana":"ｼｽﾞｵｶｹﾝ","cityKana":"ﾊｲﾊﾞﾗｸﾞﾝｶﾜﾈﾎﾝﾁｮｳ","streetKana":"ﾌﾞﾝｻﾞﾜ","prefecture":"静岡県","city":"榛原郡川根本町","street":"文沢"},{"zipCode":"4280312","prefectureKana":"ｼｽﾞｵｶｹﾝ","cityKana":"ﾊｲﾊﾞﾗｸﾞﾝｶﾜﾈﾎﾝﾁｮｳ","streetKana":"ﾐｽﾞｶﾜ","prefecture":"静岡県","city":"榛原郡川根本町","street":"水川"},{"zipCode":"4280311","prefectureKana":"ｼｽﾞｵｶｹﾝ","cityKana":"ﾊｲﾊﾞﾗｸﾞﾝｶﾜﾈﾎﾝﾁｮｳ","streetKana":"ﾓﾄﾌｼﾞｶﾜ","prefecture":"静岡県","city":"榛原郡川根本町","street":"元藤川"}]