[{"zipCode":"4300805","prefectureKana":"ｼｽﾞｵｶｹﾝ","cityKana":"ﾊﾏﾏﾂｼﾅｶｸ","streetKana":"ｱｲｵｲﾁｮｳ","prefecture":"静岡県","city":"浜松市中区","street":"相生町"},{"zipCode":"4300927","prefectureKana":"ｼｽﾞｵｶｹﾝ","cityKana":"ﾊﾏﾏﾂｼﾅｶｸ","streetKana":"ｱｻﾋﾁｮｳ","prefecture":"静岡県","city":"浜松市中区","street":"旭町"},{"zipCode":"4300945","prefectureKana":"ｼｽﾞｵｶｹﾝ","cityKana":"ﾊﾏﾏﾂｼﾅｶｸ","streetKana":"ｲｹﾏﾁ","prefecture":"静岡県","city":"浜松市中区","street":"池町"},{"zipCode":"4300928","prefectureKana":"ｼｽﾞｵｶｹﾝ","cityKana":"ﾊﾏﾏﾂｼﾅｶｸ","streetKana":"ｲﾀﾔﾏﾁ(ﾂｷﾞﾉﾋﾞﾙｦﾉｿﾞｸ)","prefecture":"静岡県","city":"浜松市中区","street":"板屋町（次のビルを除く）"},{"zipCode":"4307790","prefectureKana":"ｼｽﾞｵｶｹﾝ","cityKana":"ﾊﾏﾏﾂｼﾅｶｸ","streetKana":"ｲﾀﾔﾏﾁﾊﾏﾏﾂｱｸﾄﾀﾜｰ(ﾁｶｲ･ｶｲｿｳﾌﾒｲ)","prefecture":"静岡県","city":"浜松市中区","street":"板屋町浜松アクトタワー（地階・階層不明）"},{"zipCode":"4307701","prefectureKana":"ｼｽﾞｵｶｹﾝ","cityKana":"ﾊﾏﾏﾂｼﾅｶｸ","streetKana":"ｲﾀﾔﾏﾁﾊﾏﾏﾂｱｸﾄﾀﾜｰ(1ｶｲ)","prefecture":"静岡県","city":"浜松市中区","street":"板屋町浜松アクトタワー（１階）"},{"zipCode":"4307702","prefectureKana":"ｼｽﾞｵｶｹﾝ","cityKana":"ﾊﾏﾏﾂｼﾅｶｸ","streetKana":"ｲﾀﾔﾏﾁﾊﾏﾏﾂｱｸﾄﾀﾜｰ(2ｶｲ)","prefecture":"静岡県","city":"浜松市中区","street":"板屋町浜松アクトタワー（２階）"},{"zipCode":"4307703","prefectureKana":"ｼｽﾞｵｶｹﾝ","cityKana":"ﾊﾏﾏﾂｼﾅｶｸ","streetKana":"ｲﾀﾔﾏﾁﾊﾏﾏﾂｱｸﾄﾀﾜｰ(3ｶｲ)","prefecture":"静岡県","city":"浜松市中区","street":"板屋町浜松アクトタワー（３階）"},{"zipCode":"4307704","prefectureKana":"ｼｽﾞｵｶｹﾝ","cityKana":"ﾊﾏﾏﾂｼﾅｶｸ","streetKana":"ｲﾀﾔﾏﾁﾊﾏﾏﾂｱｸﾄﾀﾜｰ(4ｶｲ)","prefecture":"静岡県","city":"浜松市中区","street":"板屋町浜松アクトタワー（４階）"},{"zipCode":"4307705","prefectureKana":"ｼｽﾞｵｶｹﾝ","cityKana":"ﾊﾏﾏﾂｼﾅｶｸ","streetKana":"ｲﾀﾔﾏﾁﾊﾏﾏﾂｱｸﾄﾀﾜｰ(5ｶｲ)","prefecture":"静岡県","city":"浜松市中区","street":"板屋町浜松アクトタワー（５階）"},{"zipCode":"4307706","prefectureKana":"ｼｽﾞｵｶｹﾝ","cityKana":"ﾊﾏﾏﾂｼﾅｶｸ","streetKana":"ｲﾀﾔﾏﾁﾊﾏﾏﾂｱｸﾄﾀﾜｰ(6ｶｲ)","prefecture":"静岡県","city":"浜松市中区","street":"板屋町浜松アクトタワー（６階）"},{"zipCode":"4307707","prefectureKana":"ｼｽﾞｵｶｹﾝ","cityKana":"ﾊﾏﾏﾂｼﾅｶｸ","streetKana":"ｲﾀﾔﾏﾁﾊﾏﾏﾂｱｸﾄﾀﾜｰ(7ｶｲ)","prefecture":"静岡県","city":"浜松市中区","street":"板屋町浜松アクトタワー（７階）"},{"zipCode":"4307708","prefectureKana":"ｼｽﾞｵｶｹﾝ","cityKana":"ﾊﾏﾏﾂｼﾅｶｸ","streetKana":"ｲﾀﾔﾏﾁﾊﾏﾏﾂｱｸﾄﾀﾜｰ(8ｶｲ)","prefecture":"静岡県","city":"浜松市中区","street":"板屋町浜松アクトタワー（８階）"},{"zipCode":"4307709","prefectureKana":"ｼｽﾞｵｶｹﾝ","cityKana":"ﾊﾏﾏﾂｼﾅｶｸ","streetKana":"ｲﾀﾔﾏﾁﾊﾏﾏﾂｱｸﾄﾀﾜｰ(9ｶｲ)","prefecture":"静岡県","city":"浜松市中区","street":"板屋町浜松アクトタワー（９階）"},{"zipCode":"4307710","prefectureKana":"ｼｽﾞｵｶｹﾝ","cityKana":"ﾊﾏﾏﾂｼﾅｶｸ","streetKana":"ｲﾀﾔﾏﾁﾊﾏﾏﾂｱｸﾄﾀﾜｰ(10ｶｲ)","prefecture":"静岡県","city":"浜松市中区","street":"板屋町浜松アクトタワー（１０階）"},{"zipCode":"4307711","prefectureKana":"ｼｽﾞｵｶｹﾝ","cityKana":"ﾊﾏﾏﾂｼﾅｶｸ","streetKana":"ｲﾀﾔﾏﾁﾊﾏﾏﾂｱｸﾄﾀﾜｰ(11ｶｲ)","prefecture":"静岡県","city":"浜松市中区","street":"板屋町浜松アクトタワー（１１階）"},{"zipCode":"4307712","prefectureKana":"ｼｽﾞｵｶｹﾝ","cityKana":"ﾊﾏﾏﾂｼﾅｶｸ","streetKana":"ｲﾀﾔﾏﾁﾊﾏﾏﾂｱｸﾄﾀﾜｰ(12ｶｲ)","prefecture":"静岡県","city":"浜松市中区","street":"板屋町浜松アクトタワー（１２階）"},{"zipCode":"4307713","prefectureKana":"ｼｽﾞｵｶｹﾝ","cityKana":"ﾊﾏﾏﾂｼﾅｶｸ","streetKana":"ｲﾀﾔﾏﾁﾊﾏﾏﾂｱｸﾄﾀﾜｰ(13ｶｲ)","prefecture":"静岡県","city":"浜松市中区","street":"板屋町浜松アクトタワー（１３階）"},{"zipCode":"4307714","prefectureKana":"ｼｽﾞｵｶｹﾝ","cityKana":"ﾊﾏﾏﾂｼﾅｶｸ","streetKana":"ｲﾀﾔﾏﾁﾊﾏﾏﾂｱｸﾄﾀﾜｰ(14ｶｲ)","prefecture":"静岡県","city":"浜松市中区","street":"板屋町浜松アクトタワー（１４階）"},{"zipCode":"4307715","prefectureKana":"ｼｽﾞｵｶｹﾝ","cityKana":"ﾊﾏﾏﾂｼﾅｶｸ","streetKana":"ｲﾀﾔﾏﾁﾊﾏﾏﾂｱｸﾄﾀﾜｰ(15ｶｲ)","prefecture":"静岡県","city":"浜松市中区","street":"板屋町浜松アクトタワー（１５階）"},{"zipCode":"4307716","prefectureKana":"ｼｽﾞｵｶｹﾝ","cityKana":"ﾊﾏﾏﾂｼﾅｶｸ","streetKana":"ｲﾀﾔﾏﾁﾊﾏﾏﾂｱｸﾄﾀﾜｰ(16ｶｲ)","prefecture":"静岡県","city":"浜松市中区","street":"板屋町浜松アクトタワー（１６階）"},{"zipCode":"4307717","prefectureKana":"ｼｽﾞｵｶｹﾝ","cityKana":"ﾊﾏﾏﾂｼﾅｶｸ","streetKana":"ｲﾀﾔﾏﾁﾊﾏﾏﾂｱｸﾄﾀﾜｰ(17ｶｲ)","prefecture":"静岡県","city":"浜松市中区","street":"板屋町浜松アクトタワー（１７階）"},{"zipCode":"4307718","prefectureKana":"ｼｽﾞｵｶｹﾝ","cityKana":"ﾊﾏﾏﾂｼﾅｶｸ","streetKana":"ｲﾀﾔﾏﾁﾊﾏﾏﾂｱｸﾄﾀﾜｰ(18ｶｲ)","prefecture":"静岡県","city":"浜松市中区","street":"板屋町浜松アクトタワー（１８階）"},{"zipCode":"4307719","prefectureKana":"ｼｽﾞｵｶｹﾝ","cityKana":"ﾊﾏﾏﾂｼﾅｶｸ","streetKana":"ｲﾀﾔﾏﾁﾊﾏﾏﾂｱｸﾄﾀﾜｰ(19ｶｲ)","prefecture":"静岡県","city":"浜松市中区","street":"板屋町浜松アクトタワー（１９階）"},{"zipCode":"4307720","prefectureKana":"ｼｽﾞｵｶｹﾝ","cityKana":"ﾊﾏﾏﾂｼﾅｶｸ","streetKana":"ｲﾀﾔﾏﾁﾊﾏﾏﾂｱｸﾄﾀﾜｰ(20ｶｲ)","prefecture":"静岡県","city":"浜松市中区","street":"板屋町浜松アクトタワー（２０階）"},{"zipCode":"4307721","prefectureKana":"ｼｽﾞｵｶｹﾝ","cityKana":"ﾊﾏﾏﾂｼﾅｶｸ","streetKana":"ｲﾀﾔﾏﾁﾊﾏﾏﾂｱｸﾄﾀﾜｰ(21ｶｲ)","prefecture":"静岡県","city":"浜松市中区","street":"板屋町浜松アクトタワー（２１階）"},{"zipCode":"4307722","prefectureKana":"ｼｽﾞｵｶｹﾝ","cityKana":"ﾊﾏﾏﾂｼﾅｶｸ","streetKana":"ｲﾀﾔﾏﾁﾊﾏﾏﾂｱｸﾄﾀﾜｰ(22ｶｲ)","prefecture":"静岡県","city":"浜松市中区","street":"板屋町浜松アクトタワー（２２階）"},{"zipCode":"4307723","prefectureKana":"ｼｽﾞｵｶｹﾝ","cityKana":"ﾊﾏﾏﾂｼﾅｶｸ","streetKana":"ｲﾀﾔﾏﾁﾊﾏﾏﾂｱｸﾄﾀﾜｰ(23ｶｲ)","prefecture":"静岡県","city":"浜松市中区","street":"板屋町浜松アクトタワー（２３階）"},{"zipCode":"4307724","prefectureKana":"ｼｽﾞｵｶｹﾝ","cityKana":"ﾊﾏﾏﾂｼﾅｶｸ","streetKana":"ｲﾀﾔﾏﾁﾊﾏﾏﾂｱｸﾄﾀﾜｰ(24ｶｲ)","prefecture":"静岡県","city":"浜松市中区","street":"板屋町浜松アクトタワー（２４階）"},{"zipCode":"4307725","prefectureKana":"ｼｽﾞｵｶｹﾝ","cityKana":"ﾊﾏﾏﾂｼﾅｶｸ","streetKana":"ｲﾀﾔﾏﾁﾊﾏﾏﾂｱｸﾄﾀﾜｰ(25ｶｲ)","prefecture":"静岡県","city":"浜松市中区","street":"板屋町浜松アクトタワー（２５階）"},{"zipCode":"4307726","prefectureKana":"ｼｽﾞｵｶｹﾝ","cityKana":"ﾊﾏﾏﾂｼﾅｶｸ","streetKana":"ｲﾀﾔﾏﾁﾊﾏﾏﾂｱｸﾄﾀﾜｰ(26ｶｲ)","prefecture":"静岡県","city":"浜松市中区","street":"板屋町浜松アクトタワー（２６階）"},{"zipCode":"4307727","prefectureKana":"ｼｽﾞｵｶｹﾝ","cityKana":"ﾊﾏﾏﾂｼﾅｶｸ","streetKana":"ｲﾀﾔﾏﾁﾊﾏﾏﾂｱｸﾄﾀﾜｰ(27ｶｲ)","prefecture":"静岡県","city":"浜松市中区","street":"板屋町浜松アクトタワー（２７階）"},{"zipCode":"4307728","prefectureKana":"ｼｽﾞｵｶｹﾝ","cityKana":"ﾊﾏﾏﾂｼﾅｶｸ","streetKana":"ｲﾀﾔﾏﾁﾊﾏﾏﾂｱｸﾄﾀﾜｰ(28ｶｲ)","prefecture":"静岡県","city":"浜松市中区","street":"板屋町浜松アクトタワー（２８階）"},{"zipCode":"4307729","prefectureKana":"ｼｽﾞｵｶｹﾝ","cityKana":"ﾊﾏﾏﾂｼﾅｶｸ","streetKana":"ｲﾀﾔﾏﾁﾊﾏﾏﾂｱｸﾄﾀﾜｰ(29ｶｲ)","prefecture":"静岡県","city":"浜松市中区","street":"板屋町浜松アクトタワー（２９階）"},{"zipCode":"4307730","prefectureKana":"ｼｽﾞｵｶｹﾝ","cityKana":"ﾊﾏﾏﾂｼﾅｶｸ","streetKana":"ｲﾀﾔﾏﾁﾊﾏﾏﾂｱｸﾄﾀﾜｰ(30ｶｲ)","prefecture":"静岡県","city":"浜松市中区","street":"板屋町浜松アクトタワー（３０階）"},{"zipCode":"4307731","prefectureKana":"ｼｽﾞｵｶｹﾝ","cityKana":"ﾊﾏﾏﾂｼﾅｶｸ","streetKana":"ｲﾀﾔﾏﾁﾊﾏﾏﾂｱｸﾄﾀﾜｰ(31ｶｲ)","prefecture":"静岡県","city":"浜松市中区","street":"板屋町浜松アクトタワー（３１階）"},{"zipCode":"4307732","prefectureKana":"ｼｽﾞｵｶｹﾝ","cityKana":"ﾊﾏﾏﾂｼﾅｶｸ","streetKana":"ｲﾀﾔﾏﾁﾊﾏﾏﾂｱｸﾄﾀﾜｰ(32ｶｲ)","prefecture":"静岡県","city":"浜松市中区","street":"板屋町浜松アクトタワー（３２階）"},{"zipCode":"4307733","prefectureKana":"ｼｽﾞｵｶｹﾝ","cityKana":"ﾊﾏﾏﾂｼﾅｶｸ","streetKana":"ｲﾀﾔﾏﾁﾊﾏﾏﾂｱｸﾄﾀﾜｰ(33ｶｲ)","prefecture":"静岡県","city":"浜松市中区","street":"板屋町浜松アクトタワー（３３階）"},{"zipCode":"4307734","prefectureKana":"ｼｽﾞｵｶｹﾝ","cityKana":"ﾊﾏﾏﾂｼﾅｶｸ","streetKana":"ｲﾀﾔﾏﾁﾊﾏﾏﾂｱｸﾄﾀﾜｰ(34ｶｲ)","prefecture":"静岡県","city":"浜松市中区","street":"板屋町浜松アクトタワー（３４階）"},{"zipCode":"4307735","prefectureKana":"ｼｽﾞｵｶｹﾝ","cityKana":"ﾊﾏﾏﾂｼﾅｶｸ","streetKana":"ｲﾀﾔﾏﾁﾊﾏﾏﾂｱｸﾄﾀﾜｰ(35ｶｲ)","prefecture":"静岡県","city":"浜松市中区","street":"板屋町浜松アクトタワー（３５階）"},{"zipCode":"4307736","prefectureKana":"ｼｽﾞｵｶｹﾝ","cityKana":"ﾊﾏﾏﾂｼﾅｶｸ","streetKana":"ｲﾀﾔﾏﾁﾊﾏﾏﾂｱｸﾄﾀﾜｰ(36ｶｲ)","prefecture":"静岡県","city":"浜松市中区","street":"板屋町浜松アクトタワー（３６階）"},{"zipCode":"4307737","prefectureKana":"ｼｽﾞｵｶｹﾝ","cityKana":"ﾊﾏﾏﾂｼﾅｶｸ","streetKana":"ｲﾀﾔﾏﾁﾊﾏﾏﾂｱｸﾄﾀﾜｰ(37ｶｲ)","prefecture":"静岡県","city":"浜松市中区","street":"板屋町浜松アクトタワー（３７階）"},{"zipCode":"4307738","prefectureKana":"ｼｽﾞｵｶｹﾝ","cityKana":"ﾊﾏﾏﾂｼﾅｶｸ","streetKana":"ｲﾀﾔﾏﾁﾊﾏﾏﾂｱｸﾄﾀﾜｰ(38ｶｲ)","prefecture":"静岡県","city":"浜松市中区","street":"板屋町浜松アクトタワー（３８階）"},{"zipCode":"4307739","prefectureKana":"ｼｽﾞｵｶｹﾝ","cityKana":"ﾊﾏﾏﾂｼﾅｶｸ","streetKana":"ｲﾀﾔﾏﾁﾊﾏﾏﾂｱｸﾄﾀﾜｰ(39ｶｲ)","prefecture":"静岡県","city":"浜松市中区","street":"板屋町浜松アクトタワー（３９階）"},{"zipCode":"4307740","prefectureKana":"ｼｽﾞｵｶｹﾝ","cityKana":"ﾊﾏﾏﾂｼﾅｶｸ","streetKana":"ｲﾀﾔﾏﾁﾊﾏﾏﾂｱｸﾄﾀﾜｰ(40ｶｲ)","prefecture":"静岡県","city":"浜松市中区","street":"板屋町浜松アクトタワー（４０階）"},{"zipCode":"4307741","prefectureKana":"ｼｽﾞｵｶｹﾝ","cityKana":"ﾊﾏﾏﾂｼﾅｶｸ","streetKana":"ｲﾀﾔﾏﾁﾊﾏﾏﾂｱｸﾄﾀﾜｰ(41ｶｲ)","prefecture":"静岡県","city":"浜松市中区","street":"板屋町浜松アクトタワー（４１階）"},{"zipCode":"4307742","prefectureKana":"ｼｽﾞｵｶｹﾝ","cityKana":"ﾊﾏﾏﾂｼﾅｶｸ","streetKana":"ｲﾀﾔﾏﾁﾊﾏﾏﾂｱｸﾄﾀﾜｰ(42ｶｲ)","prefecture":"静岡県","city":"浜松市中区","street":"板屋町浜松アクトタワー（４２階）"},{"zipCode":"4307743","prefectureKana":"ｼｽﾞｵｶｹﾝ","cityKana":"ﾊﾏﾏﾂｼﾅｶｸ","streetKana":"ｲﾀﾔﾏﾁﾊﾏﾏﾂｱｸﾄﾀﾜｰ(43ｶｲ)","prefecture":"静岡県","city":"浜松市中区","street":"板屋町浜松アクトタワー（４３階）"},{"zipCode":"4307744","prefectureKana":"ｼｽﾞｵｶｹﾝ","cityKana":"ﾊﾏﾏﾂｼﾅｶｸ","streetKana":"ｲﾀﾔﾏﾁﾊﾏﾏﾂｱｸﾄﾀﾜｰ(44ｶｲ)","prefecture":"静岡県","city":"浜松市中区","street":"板屋町浜松アクトタワー（４４階）"},{"zipCode":"4307745","prefectureKana":"ｼｽﾞｵｶｹﾝ","cityKana":"ﾊﾏﾏﾂｼﾅｶｸ","streetKana":"ｲﾀﾔﾏﾁﾊﾏﾏﾂｱｸﾄﾀﾜｰ(45ｶｲ)","prefecture":"静岡県","city":"浜松市中区","street":"板屋町浜松アクトタワー（４５階）"},{"zipCode":"4300854","prefectureKana":"ｼｽﾞｵｶｹﾝ","cityKana":"ﾊﾏﾏﾂｼﾅｶｸ","streetKana":"ｳﾘｳﾁﾁｮｳ","prefecture":"静岡県","city":"浜松市中区","street":"瓜内町"},{"zipCode":"4300949","prefectureKana":"ｼｽﾞｵｶｹﾝ","cityKana":"ﾊﾏﾏﾂｼﾅｶｸ","streetKana":"ｵﾜﾘﾁｮｳ","prefecture":"静岡県","city":"浜松市中区","street":"尾張町"},{"zipCode":"4300933","prefectureKana":"ｼｽﾞｵｶｹﾝ","cityKana":"ﾊﾏﾏﾂｼﾅｶｸ","streetKana":"ｶｼﾞﾏﾁ","prefecture":"静岡県","city":"浜松市中区","street":"鍛冶町"},{"zipCode":"4300943","prefectureKana":"ｼｽﾞｵｶｹﾝ","cityKana":"ﾊﾏﾏﾂｼﾅｶｸ","streetKana":"ｷﾀﾀﾏﾁ","prefecture":"静岡県","city":"浜松市中区","street":"北田町"},{"zipCode":"4300923","prefectureKana":"ｼｽﾞｵｶｹﾝ","cityKana":"ﾊﾏﾏﾂｼﾅｶｸ","streetKana":"ｷﾀﾃﾗｼﾞﾏﾁｮｳ","prefecture":"静岡県","city":"浜松市中区","street":"北寺島町"},{"zipCode":"4300806","prefectureKana":"ｼｽﾞｵｶｹﾝ","cityKana":"ﾊﾏﾏﾂｼﾅｶｸ","streetKana":"ｷﾄﾞﾁｮｳ","prefecture":"静岡県","city":"浜松市中区","street":"木戸町"},{"zipCode":"4300948","prefectureKana":"ｼｽﾞｵｶｹﾝ","cityKana":"ﾊﾏﾏﾂｼﾅｶｸ","streetKana":"ｹﾞﾝﾓｸﾁｮｳ","prefecture":"静岡県","city":"浜松市中区","street":"元目町"},{"zipCode":"4300938","prefectureKana":"ｼｽﾞｵｶｹﾝ","cityKana":"ﾊﾏﾏﾂｼﾅｶｸ","streetKana":"ｺｳﾔﾏﾁ","prefecture":"静岡県","city":"浜松市中区","street":"紺屋町"},{"zipCode":"4300932","prefectureKana":"ｼｽﾞｵｶｹﾝ","cityKana":"ﾊﾏﾏﾂｼﾅｶｸ","streetKana":"ｻｶﾅﾏﾁ","prefecture":"静岡県","city":"浜松市中区","street":"肴町"},{"zipCode":"4300807","prefectureKana":"ｼｽﾞｵｶｹﾝ","cityKana":"ﾊﾏﾏﾂｼﾅｶｸ","streetKana":"ｻﾄｳ","prefecture":"静岡県","city":"浜松市中区","street":"佐藤"},{"zipCode":"4300905","prefectureKana":"ｼｽﾞｵｶｹﾝ","cityKana":"ﾊﾏﾏﾂｼﾅｶｸ","streetKana":"ｼﾓｲｹｶﾞﾜﾁｮｳ","prefecture":"静岡県","city":"浜松市中区","street":"下池川町"},{"zipCode":"4300911","prefectureKana":"ｼｽﾞｵｶｹﾝ","cityKana":"ﾊﾏﾏﾂｼﾅｶｸ","streetKana":"ｼﾝﾂﾞﾁｮｳ","prefecture":"静岡県","city":"浜松市中区","street":"新津町"},{"zipCode":"4300931","prefectureKana":"ｼｽﾞｵｶｹﾝ","cityKana":"ﾊﾏﾏﾂｼﾅｶｸ","streetKana":"ｼﾝﾒｲﾁｮｳ","prefecture":"静岡県","city":"浜松市中区","street":"神明町"},{"zipCode":"4300903","prefectureKana":"ｼｽﾞｵｶｹﾝ","cityKana":"ﾊﾏﾏﾂｼﾅｶｸ","streetKana":"ｽｹﾉﾌﾞﾁｮｳ","prefecture":"静岡県","city":"浜松市中区","street":"助信町"},{"zipCode":"4300926","prefectureKana":"ｼｽﾞｵｶｹﾝ","cityKana":"ﾊﾏﾏﾂｼﾅｶｸ","streetKana":"ｽﾅﾔﾏﾁｮｳ","prefecture":"静岡県","city":"浜松市中区","street":"砂山町"},{"zipCode":"4300906","prefectureKana":"ｼｽﾞｵｶｹﾝ","cityKana":"ﾊﾏﾏﾂｼﾅｶｸ","streetKana":"ｽﾐﾖｼ","prefecture":"静岡県","city":"浜松市中区","street":"住吉"},{"zipCode":"4300936","prefectureKana":"ｼｽﾞｵｶｹﾝ","cityKana":"ﾊﾏﾏﾂｼﾅｶｸ","streetKana":"ﾀﾞｲｸﾏﾁ","prefecture":"静岡県","city":"浜松市中区","street":"大工町"},{"zipCode":"4300907","prefectureKana":"ｼｽﾞｵｶｹﾝ","cityKana":"ﾊﾏﾏﾂｼﾅｶｸ","streetKana":"ﾀｶﾊﾞﾔｼ","prefecture":"静岡県","city":"浜松市中区","street":"高林"},{"zipCode":"4300944","prefectureKana":"ｼｽﾞｵｶｹﾝ","cityKana":"ﾊﾏﾏﾂｼﾅｶｸ","streetKana":"ﾀﾏﾁ","prefecture":"静岡県","city":"浜松市中区","street":"田町"},{"zipCode":"4300934","prefectureKana":"ｼｽﾞｵｶｹﾝ","cityKana":"ﾊﾏﾏﾂｼﾅｶｸ","streetKana":"ﾁﾄｾﾁｮｳ","prefecture":"静岡県","city":"浜松市中区","street":"千歳町"},{"zipCode":"4300929","prefectureKana":"ｼｽﾞｵｶｹﾝ","cityKana":"ﾊﾏﾏﾂｼﾅｶｸ","streetKana":"ﾁｭｳｵｳ","prefecture":"静岡県","city":"浜松市中区","street":"中央"},{"zipCode":"4300925","prefectureKana":"ｼｽﾞｵｶｹﾝ","cityKana":"ﾊﾏﾏﾂｼﾅｶｸ","streetKana":"ﾃﾗｼﾞﾏﾁｮｳ","prefecture":"静岡県","city":"浜松市中区","street":"寺島町"},{"zipCode":"4300808","prefectureKana":"ｼｽﾞｵｶｹﾝ","cityKana":"ﾊﾏﾏﾂｼﾅｶｸ","streetKana":"ﾃﾝｼﾞﾝﾏﾁ","prefecture":"静岡県","city":"浜松市中区","street":"天神町"},{"zipCode":"4300935","prefectureKana":"ｼｽﾞｵｶｹﾝ","cityKana":"ﾊﾏﾏﾂｼﾅｶｸ","streetKana":"ﾃﾝﾏﾁｮｳ","prefecture":"静岡県","city":"浜松市中区","street":"伝馬町"},{"zipCode":"4300937","prefectureKana":"ｼｽﾞｵｶｹﾝ","cityKana":"ﾊﾏﾏﾂｼﾅｶｸ","streetKana":"ﾄｷﾞﾏﾁ","prefecture":"静岡県","city":"浜松市中区","street":"利町"},{"zipCode":"4300917","prefectureKana":"ｼｽﾞｵｶｹﾝ","cityKana":"ﾊﾏﾏﾂｼﾅｶｸ","streetKana":"ﾄｷﾜﾁｮｳ","prefecture":"静岡県","city":"浜松市中区","street":"常盤町"},{"zipCode":"4300804","prefectureKana":"ｼｽﾞｵｶｹﾝ","cityKana":"ﾊﾏﾏﾂｼﾅｶｸ","streetKana":"ﾄﾐﾖｼﾁｮｳ","prefecture":"静岡県","city":"浜松市中区","street":"富吉町"},{"zipCode":"4300904","prefectureKana":"ｼｽﾞｵｶｹﾝ","cityKana":"ﾊﾏﾏﾂｼﾅｶｸ","streetKana":"ﾅｶｻﾞﾜﾁｮｳ","prefecture":"静岡県","city":"浜松市中区","street":"中沢町"},{"zipCode":"4300856","prefectureKana":"ｼｽﾞｵｶｹﾝ","cityKana":"ﾊﾏﾏﾂｼﾅｶｸ","streetKana":"ﾅｶｼﾞﾏ","prefecture":"静岡県","city":"浜松市中区","street":"中島"},{"zipCode":"4300857","prefectureKana":"ｼｽﾞｵｶｹﾝ","cityKana":"ﾊﾏﾏﾂｼﾅｶｸ","streetKana":"ﾅｶｼﾞﾏﾁｮｳ","prefecture":"静岡県","city":"浜松市中区","street":"中島町"},{"zipCode":"4300912","prefectureKana":"ｼｽﾞｵｶｹﾝ","cityKana":"ﾊﾏﾏﾂｼﾅｶｸ","streetKana":"ﾅｽﾋﾞﾁｮｳ","prefecture":"静岡県","city":"浜松市中区","street":"茄子町"},{"zipCode":"4300811","prefectureKana":"ｼｽﾞｵｶｹﾝ","cityKana":"ﾊﾏﾏﾂｼﾅｶｸ","streetKana":"ﾅﾂﾞｶﾁｮｳ","prefecture":"静岡県","city":"浜松市中区","street":"名塚町"},{"zipCode":"4300919","prefectureKana":"ｼｽﾞｵｶｹﾝ","cityKana":"ﾊﾏﾏﾂｼﾅｶｸ","streetKana":"ﾉｸﾞﾁﾁｮｳ","prefecture":"静岡県","city":"浜松市中区","street":"野口町"},{"zipCode":"4300918","prefectureKana":"ｼｽﾞｵｶｹﾝ","cityKana":"ﾊﾏﾏﾂｼﾅｶｸ","streetKana":"ﾊﾁﾏﾝﾁｮｳ","prefecture":"静岡県","city":"浜松市中区","street":"八幡町"},{"zipCode":"4300916","prefectureKana":"ｼｽﾞｵｶｹﾝ","cityKana":"ﾊﾏﾏﾂｼﾅｶｸ","streetKana":"ﾊﾔｳﾏﾁｮｳ","prefecture":"静岡県","city":"浜松市中区","street":"早馬町"},{"zipCode":"4300915","prefectureKana":"ｼｽﾞｵｶｹﾝ","cityKana":"ﾊﾏﾏﾂｼﾅｶｸ","streetKana":"ﾋｶﾞｼﾀﾏﾁ","prefecture":"静岡県","city":"浜松市中区","street":"東田町"},{"zipCode":"4300901","prefectureKana":"ｼｽﾞｵｶｹﾝ","cityKana":"ﾊﾏﾏﾂｼﾅｶｸ","streetKana":"ﾋｸﾏ","prefecture":"静岡県","city":"浜松市中区","street":"曳馬"},{"zipCode":"4300902","prefectureKana":"ｼｽﾞｵｶｹﾝ","cityKana":"ﾊﾏﾏﾂｼﾅｶｸ","streetKana":"ﾋｸﾏﾁｮｳ","prefecture":"静岡県","city":"浜松市中区","street":"曳馬町"},{"zipCode":"4300913","prefectureKana":"ｼｽﾞｵｶｹﾝ","cityKana":"ﾊﾏﾏﾂｼﾅｶｸ","streetKana":"ﾌﾅｺｼﾁｮｳ","prefecture":"静岡県","city":"浜松市中区","street":"船越町"},{"zipCode":"4300947","prefectureKana":"ｼｽﾞｵｶｹﾝ","cityKana":"ﾊﾏﾏﾂｼﾅｶｸ","streetKana":"ﾏﾂｼﾛﾁｮｳ","prefecture":"静岡県","city":"浜松市中区","street":"松城町"},{"zipCode":"4300851","prefectureKana":"ｼｽﾞｵｶｹﾝ","cityKana":"ﾊﾏﾏﾂｼﾅｶｸ","streetKana":"ﾑｺｳｼﾞｭｸ","prefecture":"静岡県","city":"浜松市中区","street":"向宿"},{"zipCode":"4300946","prefectureKana":"ｼｽﾞｵｶｹﾝ","cityKana":"ﾊﾏﾏﾂｼﾅｶｸ","streetKana":"ﾓﾄｼﾛﾁｮｳ","prefecture":"静岡県","city":"浜松市中区","street":"元城町"},{"zipCode":"4300942","prefectureKana":"ｼｽﾞｵｶｹﾝ","cityKana":"ﾊﾏﾏﾂｼﾅｶｸ","streetKana":"ﾓﾄﾊﾏﾁｮｳ","prefecture":"静岡県","city":"浜松市中区","street":"元浜町"},{"zipCode":"4300941","prefectureKana":"ｼｽﾞｵｶｹﾝ","cityKana":"ﾊﾏﾏﾂｼﾅｶｸ","streetKana":"ﾔﾏｼﾀﾁｮｳ","prefecture":"静岡県","city":"浜松市中区","street":"山下町"},{"zipCode":"4300924","prefectureKana":"ｼｽﾞｵｶｹﾝ","cityKana":"ﾊﾏﾏﾂｼﾅｶｸ","streetKana":"ﾘｭｳｾﾞﾝｼﾞﾁｮｳ","prefecture":"静岡県","city":"浜松市中区","street":"龍禅寺町"},{"zipCode":"4300852","prefectureKana":"ｼｽﾞｵｶｹﾝ","cityKana":"ﾊﾏﾏﾂｼﾅｶｸ","streetKana":"ﾘｮｳｹ","prefecture":"静岡県","city":"浜松市中区","street":"領家"},{"zipCode":"4300939","prefectureKana":"ｼｽﾞｵｶｹﾝ","cityKana":"ﾊﾏﾏﾂｼﾅｶｸ","streetKana":"ﾚﾝｼﾞｬｸﾁｮｳ","prefecture":"静岡県","city":"浜松市中区","street":"連尺町"},{"zipCode":"4300803","prefectureKana":"ｼｽﾞｵｶｹﾝ","cityKana":"ﾊﾏﾏﾂｼﾋｶﾞｼｸ","streetKana":"ｳｴﾏﾂﾁｮｳ","prefecture":"静岡県","city":"浜松市東区","street":"植松町"},{"zipCode":"4300801","prefectureKana":"ｼｽﾞｵｶｹﾝ","cityKana":"ﾊﾏﾏﾂｼﾋｶﾞｼｸ","streetKana":"ｺｳﾀﾞﾁﾁｮｳ","prefecture":"静岡県","city":"浜松市東区","street":"神立町"},{"zipCode":"4300802","prefectureKana":"ｼｽﾞｵｶｹﾝ","cityKana":"ﾊﾏﾏﾂｼﾋｶﾞｼｸ","streetKana":"ｼｮｳｹﾞﾝﾁｮｳ","prefecture":"静岡県","city":"浜松市東区","street":"将監町"},{"zipCode":"4300854","prefectureKana":"ｼｽﾞｵｶｹﾝ","cityKana":"ﾊﾏﾏﾂｼﾐﾅﾐｸ","streetKana":"ｳﾘｳﾁﾁｮｳ","prefecture":"静岡県","city":"浜松市南区","street":"瓜内町"},{"zipCode":"4300844","prefectureKana":"ｼｽﾞｵｶｹﾝ","cityKana":"ﾊﾏﾏﾂｼﾐﾅﾐｸ","streetKana":"ｴﾉｼﾏﾁｮｳ","prefecture":"静岡県","city":"浜松市南区","street":"江之島町"},{"zipCode":"4300835","prefectureKana":"ｼｽﾞｵｶｹﾝ","cityKana":"ﾊﾏﾏﾂｼﾐﾅﾐｸ","streetKana":"ｴﾝｼｭｳﾊﾏ","prefecture":"静岡県","city":"浜松市南区","street":"遠州浜"},{"zipCode":"4300842","prefectureKana":"ｼｽﾞｵｶｹﾝ","cityKana":"ﾊﾏﾏﾂｼﾐﾅﾐｸ","streetKana":"ｵｵﾔｷﾞﾁｮｳ","prefecture":"静岡県","city":"浜松市南区","street":"大柳町"},{"zipCode":"4300814","prefectureKana":"ｼｽﾞｵｶｹﾝ","cityKana":"ﾊﾏﾏﾂｼﾐﾅﾐｸ","streetKana":"ｵﾝﾁﾞﾁｮｳ","prefecture":"静岡県","city":"浜松市南区","street":"恩地町"},{"zipCode":"4300823","prefectureKana":"ｼｽﾞｵｶｹﾝ","cityKana":"ﾊﾏﾏﾂｼﾐﾅﾐｸ","streetKana":"ｶﾜﾜﾁｮｳ","prefecture":"静岡県","city":"浜松市南区","street":"河輪町"},{"zipCode":"4300831","prefectureKana":"ｼｽﾞｵｶｹﾝ","cityKana":"ﾊﾏﾏﾂｼﾐﾅﾐｸ","streetKana":"ｺﾞｷｭｳﾁｮｳ","prefecture":"静岡県","city":"浜松市南区","street":"御給町"},{"zipCode":"4300816","prefectureKana":"ｼｽﾞｵｶｹﾝ","cityKana":"ﾊﾏﾏﾂｼﾐﾅﾐｸ","streetKana":"ｻﾝｼﾞﾉﾁｮｳ","prefecture":"静岡県","city":"浜松市南区","street":"参野町"},{"zipCode":"4300833","prefectureKana":"ｼｽﾞｵｶｹﾝ","cityKana":"ﾊﾏﾏﾂｼﾐﾅﾐｸ","streetKana":"ｻﾝｼﾝﾁｮｳ","prefecture":"静岡県","city":"浜松市南区","street":"三新町"},{"zipCode":"4300826","prefectureKana":"ｼｽﾞｵｶｹﾝ","cityKana":"ﾊﾏﾏﾂｼﾐﾅﾐｸ","streetKana":"ｼﾎﾝﾏﾂﾁｮｳ","prefecture":"静岡県","city":"浜松市南区","street":"四本松町"},{"zipCode":"4300825","prefectureKana":"ｼｽﾞｵｶｹﾝ","cityKana":"ﾊﾏﾏﾂｼﾐﾅﾐｸ","streetKana":"ｼﾓｴﾁｮｳ","prefecture":"静岡県","city":"浜松市南区","street":"下江町"},{"zipCode":"4300846","prefectureKana":"ｼｽﾞｵｶｹﾝ","cityKana":"ﾊﾏﾏﾂｼﾐﾅﾐｸ","streetKana":"ｼﾛﾜﾁｮｳ","prefecture":"静岡県","city":"浜松市南区","street":"白羽町"},{"zipCode":"4300817","prefectureKana":"ｼｽﾞｵｶｹﾝ","cityKana":"ﾊﾏﾏﾂｼﾐﾅﾐｸ","streetKana":"ｽﾞﾀﾞｼﾞﾁｮｳ","prefecture":"静岡県","city":"浜松市南区","street":"頭陀寺町"},{"zipCode":"4300827","prefectureKana":"ｼｽﾞｵｶｹﾝ","cityKana":"ﾊﾏﾏﾂｼﾐﾅﾐｸ","streetKana":"ﾀﾃﾉﾁｮｳ","prefecture":"静岡県","city":"浜松市南区","street":"立野町"},{"zipCode":"4300815","prefectureKana":"ｼｽﾞｵｶｹﾝ","cityKana":"ﾊﾏﾏﾂｼﾐﾅﾐｸ","streetKana":"ﾂﾓﾘﾁｮｳ","prefecture":"静岡県","city":"浜松市南区","street":"都盛町"},{"zipCode":"4300841","prefectureKana":"ｼｽﾞｵｶｹﾝ","cityKana":"ﾊﾏﾏﾂｼﾐﾅﾐｸ","streetKana":"ﾃﾗﾜｷﾁｮｳ","prefecture":"静岡県","city":"浜松市南区","street":"寺脇町"},{"zipCode":"4300824","prefectureKana":"ｼｽﾞｵｶｹﾝ","cityKana":"ﾊﾏﾏﾂｼﾐﾅﾐｸ","streetKana":"ﾄﾐﾔﾁｮｳ","prefecture":"静岡県","city":"浜松市南区","street":"富屋町"},{"zipCode":"4300845","prefectureKana":"ｼｽﾞｵｶｹﾝ","cityKana":"ﾊﾏﾏﾂｼﾐﾅﾐｸ","streetKana":"ﾅｶﾀｼﾞﾏﾁｮｳ","prefecture":"静岡県","city":"浜松市南区","street":"中田島町"},{"zipCode":"4300832","prefectureKana":"ｼｽﾞｵｶｹﾝ","cityKana":"ﾊﾏﾏﾂｼﾐﾅﾐｸ","streetKana":"ﾅｶﾞﾀﾁｮｳ","prefecture":"静岡県","city":"浜松市南区","street":"長田町"},{"zipCode":"4300837","prefectureKana":"ｼｽﾞｵｶｹﾝ","cityKana":"ﾊﾏﾏﾂｼﾐﾅﾐｸ","streetKana":"ﾆｼｼﾞﾏﾁｮｳ","prefecture":"静岡県","city":"浜松市南区","street":"西島町"},{"zipCode":"4300821","prefectureKana":"ｼｽﾞｵｶｹﾝ","cityKana":"ﾊﾏﾏﾂｼﾐﾅﾐｸ","streetKana":"ﾆｼﾏﾁ","prefecture":"静岡県","city":"浜松市南区","street":"西町"},{"zipCode":"4300838","prefectureKana":"ｼｽﾞｵｶｹﾝ","cityKana":"ﾊﾏﾏﾂｼﾐﾅﾐｸ","streetKana":"ﾈｽﾞﾐﾉﾁｮｳ","prefecture":"静岡県","city":"浜松市南区","street":"鼡野町"},{"zipCode":"4300822","prefectureKana":"ｼｽﾞｵｶｹﾝ","cityKana":"ﾊﾏﾏﾂｼﾐﾅﾐｸ","streetKana":"ﾋｶﾞｼﾏﾁ","prefecture":"静岡県","city":"浜松市南区","street":"東町"},{"zipCode":"4300836","prefectureKana":"ｼｽﾞｵｶｹﾝ","cityKana":"ﾊﾏﾏﾂｼﾐﾅﾐｸ","streetKana":"ﾌｸｼﾏﾁｮｳ","prefecture":"静岡県","city":"浜松市南区","street":"福島町"},{"zipCode":"4300843","prefectureKana":"ｼｽﾞｵｶｹﾝ","cityKana":"ﾊﾏﾏﾂｼﾐﾅﾐｸ","streetKana":"ﾌｸﾂﾞｶﾁｮｳ","prefecture":"静岡県","city":"浜松市南区","street":"福塚町"},{"zipCode":"4300813","prefectureKana":"ｼｽﾞｵｶｹﾝ","cityKana":"ﾊﾏﾏﾂｼﾐﾅﾐｸ","streetKana":"ﾎｳｶﾞﾜﾁｮｳ","prefecture":"静岡県","city":"浜松市南区","street":"芳川町"},{"zipCode":"4300812","prefectureKana":"ｼｽﾞｵｶｹﾝ","cityKana":"ﾊﾏﾏﾂｼﾐﾅﾐｸ","streetKana":"ﾎﾝｺﾞｳﾁｮｳ","prefecture":"静岡県","city":"浜松市南区","street":"本郷町"},{"zipCode":"4300834","prefectureKana":"ｼｽﾞｵｶｹﾝ","cityKana":"ﾊﾏﾏﾂｼﾐﾅﾐｸ","streetKana":"ﾏﾂｼﾏﾁｮｳ","prefecture":"静岡県","city":"浜松市南区","street":"松島町"},{"zipCode":"4300853","prefectureKana":"ｼｽﾞｵｶｹﾝ","cityKana":"ﾊﾏﾏﾂｼﾐﾅﾐｸ","streetKana":"ﾐｼﾏﾁｮｳ","prefecture":"静岡県","city":"浜松市南区","street":"三島町"},{"zipCode":"4300855","prefectureKana":"ｼｽﾞｵｶｹﾝ","cityKana":"ﾊﾏﾏﾂｼﾐﾅﾐｸ","streetKana":"ﾖｳｽﾞﾁｮｳ","prefecture":"静岡県","city":"浜松市南区","street":"楊子町"}]