[{"zipCode":"4338111","prefectureKana":"ｼｽﾞｵｶｹﾝ","cityKana":"ﾊﾏﾏﾂｼﾅｶｸ","streetKana":"ｱｵｲﾆｼ","prefecture":"静岡県","city":"浜松市中区","street":"葵西"},{"zipCode":"4338114","prefectureKana":"ｼｽﾞｵｶｹﾝ","cityKana":"ﾊﾏﾏﾂｼﾅｶｸ","streetKana":"ｱｵｲﾋｶﾞｼ","prefecture":"静岡県","city":"浜松市中区","street":"葵東"},{"zipCode":"4338113","prefectureKana":"ｼｽﾞｵｶｹﾝ","cityKana":"ﾊﾏﾏﾂｼﾅｶｸ","streetKana":"ｱｽﾞｷﾓﾁ","prefecture":"静岡県","city":"浜松市中区","street":"小豆餅"},{"zipCode":"4338124","prefectureKana":"ｼｽﾞｵｶｹﾝ","cityKana":"ﾊﾏﾏﾂｼﾅｶｸ","streetKana":"ｲｽﾞﾐ","prefecture":"静岡県","city":"浜松市中区","street":"泉"},{"zipCode":"4338126","prefectureKana":"ｼｽﾞｵｶｹﾝ","cityKana":"ﾊﾏﾏﾂｼﾅｶｸ","streetKana":"ｲｽﾞﾐﾁｮｳ","prefecture":"静岡県","city":"浜松市中区","street":"泉町"},{"zipCode":"4338122","prefectureKana":"ｼｽﾞｵｶｹﾝ","cityKana":"ﾊﾏﾏﾂｼﾅｶｸ","streetKana":"ｶﾐｼﾞﾏ","prefecture":"静岡県","city":"浜松市中区","street":"上島"},{"zipCode":"4338123","prefectureKana":"ｼｽﾞｵｶｹﾝ","cityKana":"ﾊﾏﾏﾂｼﾅｶｸ","streetKana":"ｻｲﾜｲ","prefecture":"静岡県","city":"浜松市中区","street":"幸"},{"zipCode":"4338119","prefectureKana":"ｼｽﾞｵｶｹﾝ","cityKana":"ﾊﾏﾏﾂｼﾅｶｸ","streetKana":"ﾀｶｵｶｷﾀ","prefecture":"静岡県","city":"浜松市中区","street":"高丘北"},{"zipCode":"4338118","prefectureKana":"ｼｽﾞｵｶｹﾝ","cityKana":"ﾊﾏﾏﾂｼﾅｶｸ","streetKana":"ﾀｶｵｶﾆｼ","prefecture":"静岡県","city":"浜松市中区","street":"高丘西"},{"zipCode":"4338117","prefectureKana":"ｼｽﾞｵｶｹﾝ","cityKana":"ﾊﾏﾏﾂｼﾅｶｸ","streetKana":"ﾀｶｵｶﾋｶﾞｼ","prefecture":"静岡県","city":"浜松市中区","street":"高丘東"},{"zipCode":"4338116","prefectureKana":"ｼｽﾞｵｶｹﾝ","cityKana":"ﾊﾏﾏﾂｼﾅｶｸ","streetKana":"ﾆｼｵｶﾁｮｳ","prefecture":"静岡県","city":"浜松市中区","street":"西丘町"},{"zipCode":"4338121","prefectureKana":"ｼｽﾞｵｶｹﾝ","cityKana":"ﾊﾏﾏﾂｼﾅｶｸ","streetKana":"ﾊｷﾞｵｶ","prefecture":"静岡県","city":"浜松市中区","street":"萩丘"},{"zipCode":"4338109","prefectureKana":"ｼｽﾞｵｶｹﾝ","cityKana":"ﾊﾏﾏﾂｼﾅｶｸ","streetKana":"ﾊﾅｶﾜﾁｮｳ","prefecture":"静岡県","city":"浜松市中区","street":"花川町"},{"zipCode":"4338127","prefectureKana":"ｼｽﾞｵｶｹﾝ","cityKana":"ﾊﾏﾏﾂｼﾅｶｸ","streetKana":"ﾜｺﾞｳｷﾀ","prefecture":"静岡県","city":"浜松市中区","street":"和合北"},{"zipCode":"4338125","prefectureKana":"ｼｽﾞｵｶｹﾝ","cityKana":"ﾊﾏﾏﾂｼﾅｶｸ","streetKana":"ﾜｺﾞｳﾁｮｳ","prefecture":"静岡県","city":"浜松市中区","street":"和合町"},{"zipCode":"4338102","prefectureKana":"ｼｽﾞｵｶｹﾝ","cityKana":"ﾊﾏﾏﾂｼｷﾀｸ","streetKana":"ｵｵﾊﾗﾁｮｳ","prefecture":"静岡県","city":"浜松市北区","street":"大原町"},{"zipCode":"4338103","prefectureKana":"ｼｽﾞｵｶｹﾝ","cityKana":"ﾊﾏﾏﾂｼｷﾀｸ","streetKana":"ﾄﾖｵｶﾁｮｳ","prefecture":"静岡県","city":"浜松市北区","street":"豊岡町"},{"zipCode":"4338108","prefectureKana":"ｼｽﾞｵｶｹﾝ","cityKana":"ﾊﾏﾏﾂｼｷﾀｸ","streetKana":"ﾈｱﾗｲﾁｮｳ","prefecture":"静岡県","city":"浜松市北区","street":"根洗町"},{"zipCode":"4338112","prefectureKana":"ｼｽﾞｵｶｹﾝ","cityKana":"ﾊﾏﾏﾂｼｷﾀｸ","streetKana":"ﾊﾂｵｲﾁｮｳ","prefecture":"静岡県","city":"浜松市北区","street":"初生町"},{"zipCode":"4338104","prefectureKana":"ｼｽﾞｵｶｹﾝ","cityKana":"ﾊﾏﾏﾂｼｷﾀｸ","streetKana":"ﾋｶﾞｼﾐｶﾀﾁｮｳ","prefecture":"静岡県","city":"浜松市北区","street":"東三方町"},{"zipCode":"4338105","prefectureKana":"ｼｽﾞｵｶｹﾝ","cityKana":"ﾊﾏﾏﾂｼｷﾀｸ","streetKana":"ﾐｶﾀﾊﾗﾁｮｳ","prefecture":"静岡県","city":"浜松市北区","street":"三方原町"},{"zipCode":"4338101","prefectureKana":"ｼｽﾞｵｶｹﾝ","cityKana":"ﾊﾏﾏﾂｼｷﾀｸ","streetKana":"ﾐﾕｷﾁｮｳ","prefecture":"静岡県","city":"浜松市北区","street":"三幸町"}]