[{"zipCode":"4340000","prefectureKana":"ｼｽﾞｵｶｹﾝ","cityKana":"ﾊﾏﾏﾂｼﾊﾏｷﾀｸ","streetKana":"ｲｶﾆｹｲｻｲｶﾞﾅｲﾊﾞｱｲ","prefecture":"静岡県","city":"浜松市浜北区","street":"以下に掲載がない場合"},{"zipCode":"4340027","prefectureKana":"ｼｽﾞｵｶｹﾝ","cityKana":"ﾊﾏﾏﾂｼﾊﾏｷﾀｸ","streetKana":"ｱﾌﾞﾗｲｼｷ","prefecture":"静岡県","city":"浜松市浜北区","street":"油一色"},{"zipCode":"4340044","prefectureKana":"ｼｽﾞｵｶｹﾝ","cityKana":"ﾊﾏﾏﾂｼﾊﾏｷﾀｸ","streetKana":"ｳﾁﾉ","prefecture":"静岡県","city":"浜松市浜北区","street":"内野"},{"zipCode":"4340045","prefectureKana":"ｼｽﾞｵｶｹﾝ","cityKana":"ﾊﾏﾏﾂｼﾊﾏｷﾀｸ","streetKana":"ｳﾁﾉﾀﾞｲ","prefecture":"静岡県","city":"浜松市浜北区","street":"内野台"},{"zipCode":"4340005","prefectureKana":"ｼｽﾞｵｶｹﾝ","cityKana":"ﾊﾏﾏﾂｼﾊﾏｷﾀｸ","streetKana":"ｵｲﾀﾞｲﾗ","prefecture":"静岡県","city":"浜松市浜北区","street":"大平"},{"zipCode":"4340002","prefectureKana":"ｼｽﾞｵｶｹﾝ","cityKana":"ﾊﾏﾏﾂｼﾊﾏｷﾀｸ","streetKana":"ｵﾉ","prefecture":"静岡県","city":"浜松市浜北区","street":"尾野"},{"zipCode":"4340015","prefectureKana":"ｼｽﾞｵｶｹﾝ","cityKana":"ﾊﾏﾏﾂｼﾊﾏｷﾀｸ","streetKana":"ｵﾛ","prefecture":"静岡県","city":"浜松市浜北区","street":"於呂"},{"zipCode":"4340011","prefectureKana":"ｼｽﾞｵｶｹﾝ","cityKana":"ﾊﾏﾏﾂｼﾊﾏｷﾀｸ","streetKana":"ｶﾐｼﾞﾏ","prefecture":"静岡県","city":"浜松市浜北区","street":"上島"},{"zipCode":"4340028","prefectureKana":"ｼｽﾞｵｶｹﾝ","cityKana":"ﾊﾏﾏﾂｼﾊﾏｷﾀｸ","streetKana":"ｶﾐｾﾞﾝｼﾞ","prefecture":"静岡県","city":"浜松市浜北区","street":"上善地"},{"zipCode":"4340038","prefectureKana":"ｼｽﾞｵｶｹﾝ","cityKana":"ﾊﾏﾏﾂｼﾊﾏｷﾀｸ","streetKana":"ｷﾌﾞﾈ","prefecture":"静岡県","city":"浜松市浜北区","street":"貴布祢"},{"zipCode":"4340031","prefectureKana":"ｼｽﾞｵｶｹﾝ","cityKana":"ﾊﾏﾏﾂｼﾊﾏｷﾀｸ","streetKana":"ｺﾊﾞﾔｼ","prefecture":"静岡県","city":"浜松市浜北区","street":"小林"},{"zipCode":"4340042","prefectureKana":"ｼｽﾞｵｶｹﾝ","cityKana":"ﾊﾏﾏﾂｼﾊﾏｷﾀｸ","streetKana":"ｺﾏﾂ","prefecture":"静岡県","city":"浜松市浜北区","street":"小松"},{"zipCode":"4340003","prefectureKana":"ｼｽﾞｵｶｹﾝ","cityKana":"ﾊﾏﾏﾂｼﾊﾏｷﾀｸ","streetKana":"ｼﾝﾊﾟﾗ","prefecture":"静岡県","city":"浜松市浜北区","street":"新原"},{"zipCode":"4340025","prefectureKana":"ｼｽﾞｵｶｹﾝ","cityKana":"ﾊﾏﾏﾂｼﾊﾏｷﾀｸ","streetKana":"ｾﾞﾝｼﾞ","prefecture":"静岡県","city":"浜松市浜北区","street":"善地"},{"zipCode":"4340046","prefectureKana":"ｼｽﾞｵｶｹﾝ","cityKana":"ﾊﾏﾏﾂｼﾊﾏｷﾀｸ","streetKana":"ｿﾒｼﾞﾀﾞｲ","prefecture":"静岡県","city":"浜松市浜北区","street":"染地台"},{"zipCode":"4340023","prefectureKana":"ｼｽﾞｵｶｹﾝ","cityKana":"ﾊﾏﾏﾂｼﾊﾏｷﾀｸ","streetKana":"ﾀｶｿﾉ","prefecture":"静岡県","city":"浜松市浜北区","street":"高薗"},{"zipCode":"4340034","prefectureKana":"ｼｽﾞｵｶｹﾝ","cityKana":"ﾊﾏﾏﾂｼﾊﾏｷﾀｸ","streetKana":"ﾀｶﾊﾞﾀｹ","prefecture":"静岡県","city":"浜松市浜北区","street":"高畑"},{"zipCode":"4340035","prefectureKana":"ｼｽﾞｵｶｹﾝ","cityKana":"ﾊﾏﾏﾂｼﾊﾏｷﾀｸ","streetKana":"ﾃﾗｼﾞﾏ","prefecture":"静岡県","city":"浜松市浜北区","street":"寺島"},{"zipCode":"4340032","prefectureKana":"ｼｽﾞｵｶｹﾝ","cityKana":"ﾊﾏﾏﾂｼﾊﾏｷﾀｸ","streetKana":"ﾄﾞｳﾎﾝ","prefecture":"静岡県","city":"浜松市浜北区","street":"道本"},{"zipCode":"4340017","prefectureKana":"ｼｽﾞｵｶｹﾝ","cityKana":"ﾊﾏﾏﾂｼﾊﾏｷﾀｸ","streetKana":"ﾄﾖﾔｽ","prefecture":"静岡県","city":"浜松市浜北区","street":"豊保"},{"zipCode":"4340013","prefectureKana":"ｼｽﾞｵｶｹﾝ","cityKana":"ﾊﾏﾏﾂｼﾊﾏｷﾀｸ","streetKana":"ﾅｶﾞｼﾏ","prefecture":"静岡県","city":"浜松市浜北区","street":"永島"},{"zipCode":"4340043","prefectureKana":"ｼｽﾞｵｶｹﾝ","cityKana":"ﾊﾏﾏﾂｼﾊﾏｷﾀｸ","streetKana":"ﾅｶｼﾞｮｳ","prefecture":"静岡県","city":"浜松市浜北区","street":"中条"},{"zipCode":"4340012","prefectureKana":"ｼｽﾞｵｶｹﾝ","cityKana":"ﾊﾏﾏﾂｼﾊﾏｷﾀｸ","streetKana":"ﾅｶｾﾞ","prefecture":"静岡県","city":"浜松市浜北区","street":"中瀬"},{"zipCode":"4340029","prefectureKana":"ｼｽﾞｵｶｹﾝ","cityKana":"ﾊﾏﾏﾂｼﾊﾏｷﾀｸ","streetKana":"ﾆｲﾉ","prefecture":"静岡県","city":"浜松市浜北区","street":"新野"},{"zipCode":"4340022","prefectureKana":"ｼｽﾞｵｶｹﾝ","cityKana":"ﾊﾏﾏﾂｼﾊﾏｷﾀｸ","streetKana":"ﾆｲﾎﾞﾘ","prefecture":"静岡県","city":"浜松市浜北区","street":"新堀"},{"zipCode":"4340018","prefectureKana":"ｼｽﾞｵｶｹﾝ","cityKana":"ﾊﾏﾏﾂｼﾊﾏｷﾀｸ","streetKana":"ﾆｼﾅｶｾﾞ","prefecture":"静岡県","city":"浜松市浜北区","street":"西中瀬"},{"zipCode":"4340033","prefectureKana":"ｼｽﾞｵｶｹﾝ","cityKana":"ﾊﾏﾏﾂｼﾊﾏｷﾀｸ","streetKana":"ﾆｼﾐｿﾉ","prefecture":"静岡県","city":"浜松市浜北区","street":"西美薗"},{"zipCode":"4340037","prefectureKana":"ｼｽﾞｵｶｹﾝ","cityKana":"ﾊﾏﾏﾂｼﾊﾏｷﾀｸ","streetKana":"ﾇﾏ","prefecture":"静岡県","city":"浜松市浜北区","street":"沼"},{"zipCode":"4340016","prefectureKana":"ｼｽﾞｵｶｹﾝ","cityKana":"ﾊﾏﾏﾂｼﾊﾏｷﾀｸ","streetKana":"ﾈｶﾞﾀ","prefecture":"静岡県","city":"浜松市浜北区","street":"根堅"},{"zipCode":"4340007","prefectureKana":"ｼｽﾞｵｶｹﾝ","cityKana":"ﾊﾏﾏﾂｼﾊﾏｷﾀｸ","streetKana":"ﾊｲﾉｷ","prefecture":"静岡県","city":"浜松市浜北区","street":"灰木"},{"zipCode":"4340026","prefectureKana":"ｼｽﾞｵｶｹﾝ","cityKana":"ﾊﾏﾏﾂｼﾊﾏｷﾀｸ","streetKana":"ﾋｶﾞｼﾐｿﾉ","prefecture":"静岡県","city":"浜松市浜北区","street":"東美薗"},{"zipCode":"4340041","prefectureKana":"ｼｽﾞｵｶｹﾝ","cityKana":"ﾊﾏﾏﾂｼﾊﾏｷﾀｸ","streetKana":"ﾋﾗｸﾁ","prefecture":"静岡県","city":"浜松市浜北区","street":"平口"},{"zipCode":"4340001","prefectureKana":"ｼｽﾞｵｶｹﾝ","cityKana":"ﾊﾏﾏﾂｼﾊﾏｷﾀｸ","streetKana":"ﾎﾘﾔ","prefecture":"静岡県","city":"浜松市浜北区","street":"堀谷"},{"zipCode":"4340014","prefectureKana":"ｼｽﾞｵｶｹﾝ","cityKana":"ﾊﾏﾏﾂｼﾊﾏｷﾀｸ","streetKana":"ﾎﾝｻﾞﾜｲ","prefecture":"静岡県","city":"浜松市浜北区","street":"本沢合"},{"zipCode":"4340004","prefectureKana":"ｼｽﾞｵｶｹﾝ","cityKana":"ﾊﾏﾏﾂｼﾊﾏｷﾀｸ","streetKana":"ﾐﾔｸﾞﾁ","prefecture":"静岡県","city":"浜松市浜北区","street":"宮口"},{"zipCode":"4340021","prefectureKana":"ｼｽﾞｵｶｹﾝ","cityKana":"ﾊﾏﾏﾂｼﾊﾏｷﾀｸ","streetKana":"ﾔﾜﾀ","prefecture":"静岡県","city":"浜松市浜北区","street":"八幡"},{"zipCode":"4340036","prefectureKana":"ｼｽﾞｵｶｹﾝ","cityKana":"ﾊﾏﾏﾂｼﾊﾏｷﾀｸ","streetKana":"ﾖｺｽｶ","prefecture":"静岡県","city":"浜松市浜北区","street":"横須賀"},{"zipCode":"4340006","prefectureKana":"ｼｽﾞｵｶｹﾝ","cityKana":"ﾊﾏﾏﾂｼﾊﾏｷﾀｸ","streetKana":"ﾖﾝﾀﾞｲﾁ","prefecture":"静岡県","city":"浜松市浜北区","street":"四大地"},{"zipCode":"4340024","prefectureKana":"ｼｽﾞｵｶｹﾝ","cityKana":"ﾊﾏﾏﾂｼﾊﾏｷﾀｸ","streetKana":"ﾘｭｳﾅﾝ","prefecture":"静岡県","city":"浜松市浜北区","street":"竜南"}]