[{"zipCode":"4380000","prefectureKana":"ｼｽﾞｵｶｹﾝ","cityKana":"ｲﾜﾀｼ","streetKana":"ｲｶﾆｹｲｻｲｶﾞﾅｲﾊﾞｱｲ","prefecture":"静岡県","city":"磐田市","street":"以下に掲載がない場合"},{"zipCode":"4380824","prefectureKana":"ｼｽﾞｵｶｹﾝ","cityKana":"ｲﾜﾀｼ","streetKana":"ｱｶｲｹ","prefecture":"静岡県","city":"磐田市","street":"赤池"},{"zipCode":"4380017","prefectureKana":"ｼｽﾞｵｶｹﾝ","cityKana":"ｲﾜﾀｼ","streetKana":"ｱｸﾛ","prefecture":"静岡県","city":"磐田市","street":"安久路"},{"zipCode":"4380078","prefectureKana":"ｼｽﾞｵｶｹﾝ","cityKana":"ｲﾜﾀｼ","streetKana":"ｱｻﾋｶﾞｵｶ","prefecture":"静岡県","city":"磐田市","street":"旭ケ丘"},{"zipCode":"4380062","prefectureKana":"ｼｽﾞｵｶｹﾝ","cityKana":"ｲﾜﾀｼ","streetKana":"ｱﾗｼﾏ","prefecture":"静岡県","city":"磐田市","street":"新島"},{"zipCode":"4380105","prefectureKana":"ｼｽﾞｵｶｹﾝ","cityKana":"ｲﾜﾀｼ","streetKana":"ｲｴﾀ","prefecture":"静岡県","city":"磐田市","street":"家田"},{"zipCode":"4380805","prefectureKana":"ｼｽﾞｵｶｹﾝ","cityKana":"ｲﾜﾀｼ","streetKana":"ｲｹﾀﾞ","prefecture":"静岡県","city":"磐田市","street":"池田"},{"zipCode":"4380078","prefectureKana":"ｼｽﾞｵｶｹﾝ","cityKana":"ｲﾜﾀｼ","streetKana":"ｲｼﾜﾗﾁｮｳ","prefecture":"静岡県","city":"磐田市","street":"石原町"},{"zipCode":"4380078","prefectureKana":"ｼｽﾞｵｶｹﾝ","cityKana":"ｲﾜﾀｼ","streetKana":"ｲｽﾞﾐﾁｮｳ","prefecture":"静岡県","city":"磐田市","street":"泉町"},{"zipCode":"4380086","prefectureKana":"ｼｽﾞｵｶｹﾝ","cityKana":"ｲﾜﾀｼ","streetKana":"ｲﾁﾊﾞﾝﾁｮｳ","prefecture":"静岡県","city":"磐田市","street":"一番町"},{"zipCode":"4380116","prefectureKana":"ｼｽﾞｵｶｹﾝ","cityKana":"ｲﾜﾀｼ","streetKana":"ｲｯｶﾝｼﾞ","prefecture":"静岡県","city":"磐田市","street":"壱貫地"},{"zipCode":"4380071","prefectureKana":"ｼｽﾞｵｶｹﾝ","cityKana":"ｲﾜﾀｼ","streetKana":"ｲﾏﾉｳﾗ","prefecture":"静岡県","city":"磐田市","street":"今之浦"},{"zipCode":"4380016","prefectureKana":"ｼｽﾞｵｶｹﾝ","cityKana":"ｲﾜﾀｼ","streetKana":"ｲﾜｲ","prefecture":"静岡県","city":"磐田市","street":"岩井"},{"zipCode":"4380104","prefectureKana":"ｼｽﾞｵｶｹﾝ","cityKana":"ｲﾜﾀｼ","streetKana":"ｲﾜﾑﾛ","prefecture":"静岡県","city":"磐田市","street":"岩室"},{"zipCode":"4380223","prefectureKana":"ｼｽﾞｵｶｹﾝ","cityKana":"ｲﾜﾀｼ","streetKana":"ｳｹｵｲｼﾝﾃﾞﾝ","prefecture":"静岡県","city":"磐田市","street":"請負新田"},{"zipCode":"4380086","prefectureKana":"ｼｽﾞｵｶｹﾝ","cityKana":"ｲﾜﾀｼ","streetKana":"ｳﾒﾔﾁｮｳ","prefecture":"静岡県","city":"磐田市","street":"梅屋町"},{"zipCode":"4380212","prefectureKana":"ｼｽﾞｵｶｹﾝ","cityKana":"ｲﾜﾀｼ","streetKana":"ｴﾋﾞｼﾞﾏ","prefecture":"静岡県","city":"磐田市","street":"海老島"},{"zipCode":"4380812","prefectureKana":"ｼｽﾞｵｶｹﾝ","cityKana":"ｲﾜﾀｼ","streetKana":"ｴﾋﾞﾂｶ","prefecture":"静岡県","city":"磐田市","street":"海老塚"},{"zipCode":"4380103","prefectureKana":"ｼｽﾞｵｶｹﾝ","cityKana":"ｲﾜﾀｼ","streetKana":"ｵｲﾀﾞｲﾗ","prefecture":"静岡県","city":"磐田市","street":"大平"},{"zipCode":"4380044","prefectureKana":"ｼｽﾞｵｶｹﾝ","cityKana":"ｲﾜﾀｼ","streetKana":"ｵｵｲｽﾞﾐﾁｮｳ","prefecture":"静岡県","city":"磐田市","street":"大泉町"},{"zipCode":"4380002","prefectureKana":"ｼｽﾞｵｶｹﾝ","cityKana":"ｲﾜﾀｼ","streetKana":"ｵｵｸﾎﾞ","prefecture":"静岡県","city":"磐田市","street":"大久保"},{"zipCode":"4380036","prefectureKana":"ｼｽﾞｵｶｹﾝ","cityKana":"ｲﾜﾀｼ","streetKana":"ｵｵﾀﾞﾃﾉ","prefecture":"静岡県","city":"磐田市","street":"大立野"},{"zipCode":"4380107","prefectureKana":"ｼｽﾞｵｶｹﾝ","cityKana":"ｲﾜﾀｼ","streetKana":"ｵｵﾄｳｼｮ","prefecture":"静岡県","city":"磐田市","street":"大当所"},{"zipCode":"4380214","prefectureKana":"ｼｽﾞｵｶｹﾝ","cityKana":"ｲﾜﾀｼ","streetKana":"ｵｵﾅｶｾﾞ","prefecture":"静岡県","city":"磐田市","street":"大中瀬"},{"zipCode":"4380043","prefectureKana":"ｼｽﾞｵｶｹﾝ","cityKana":"ｲﾜﾀｼ","streetKana":"ｵｵﾜﾗ(1ﾊﾞﾝﾁ-2061ﾊﾞﾝﾁ､2757ﾊﾞﾝﾁ-2768ﾊﾞﾝﾁ)","prefecture":"静岡県","city":"磐田市","street":"大原（１番地～２０６１番地、２７５７番地～２７６８番地）"},{"zipCode":"4380204","prefectureKana":"ｼｽﾞｵｶｹﾝ","cityKana":"ｲﾜﾀｼ","streetKana":"ｵｶ","prefecture":"静岡県","city":"磐田市","street":"岡"},{"zipCode":"4380124","prefectureKana":"ｼｽﾞｵｶｹﾝ","cityKana":"ｲﾜﾀｼ","streetKana":"ｶｹｼﾀ","prefecture":"静岡県","city":"磐田市","street":"掛下"},{"zipCode":"4380234","prefectureKana":"ｼｽﾞｵｶｹﾝ","cityKana":"ｲﾜﾀｼ","streetKana":"ｶｹﾂｶ","prefecture":"静岡県","city":"磐田市","street":"掛塚"},{"zipCode":"4380011","prefectureKana":"ｼｽﾞｵｶｹﾝ","cityKana":"ｲﾜﾀｼ","streetKana":"ｶｻｳﾒ","prefecture":"静岡県","city":"磐田市","street":"笠梅"},{"zipCode":"4380038","prefectureKana":"ｼｽﾞｵｶｹﾝ","cityKana":"ｲﾜﾀｼ","streetKana":"ｶﾏﾀﾞ","prefecture":"静岡県","city":"磐田市","street":"鎌田"},{"zipCode":"4380831","prefectureKana":"ｼｽﾞｵｶｹﾝ","cityKana":"ｲﾜﾀｼ","streetKana":"ｶﾐｱﾗﾔ","prefecture":"静岡県","city":"磐田市","street":"上新屋"},{"zipCode":"4380051","prefectureKana":"ｼｽﾞｵｶｹﾝ","cityKana":"ｲﾜﾀｼ","streetKana":"ｶﾐｵｵﾉｺﾞｳ","prefecture":"静岡県","city":"磐田市","street":"上大之郷"},{"zipCode":"4380045","prefectureKana":"ｼｽﾞｵｶｹﾝ","cityKana":"ｲﾜﾀｼ","streetKana":"ｶﾐｵｶﾀ","prefecture":"静岡県","city":"磐田市","street":"上岡田"},{"zipCode":"4380115","prefectureKana":"ｼｽﾞｵｶｹﾝ","cityKana":"ｲﾜﾀｼ","streetKana":"ｶﾐｶﾝｿﾞ","prefecture":"静岡県","city":"磐田市","street":"上神増"},{"zipCode":"4380111","prefectureKana":"ｼｽﾞｵｶｹﾝ","cityKana":"ｲﾜﾀｼ","streetKana":"ｶﾐﾉﾍﾞ","prefecture":"静岡県","city":"磐田市","street":"上野部"},{"zipCode":"4380822","prefectureKana":"ｼｽﾞｵｶｹﾝ","cityKana":"ｲﾜﾀｼ","streetKana":"ｶﾐﾎﾝｺﾞｳ","prefecture":"静岡県","city":"磐田市","street":"上本郷"},{"zipCode":"4380817","prefectureKana":"ｼｽﾞｵｶｹﾝ","cityKana":"ｲﾜﾀｼ","streetKana":"ｶﾐﾏﾝﾉｳ","prefecture":"静岡県","city":"磐田市","street":"上万能"},{"zipCode":"4380042","prefectureKana":"ｼｽﾞｵｶｹﾝ","cityKana":"ｲﾜﾀｼ","streetKana":"ｶﾐﾐﾅﾐﾀﾞ","prefecture":"静岡県","city":"磐田市","street":"上南田"},{"zipCode":"4380804","prefectureKana":"ｼｽﾞｵｶｹﾝ","cityKana":"ｲﾜﾀｼ","streetKana":"ｶﾓ","prefecture":"静岡県","city":"磐田市","street":"加茂"},{"zipCode":"4380086","prefectureKana":"ｼｽﾞｵｶｹﾝ","cityKana":"ｲﾜﾀｼ","streetKana":"ｶﾓｶﾞﾜﾄﾞｵﾘ","prefecture":"静岡県","city":"磐田市","street":"加茂川通"},{"zipCode":"4380232","prefectureKana":"ｼｽﾞｵｶｹﾝ","cityKana":"ｲﾜﾀｼ","streetKana":"ｶﾜﾌﾞｸﾛ","prefecture":"静岡県","city":"磐田市","street":"川袋"},{"zipCode":"4380086","prefectureKana":"ｼｽﾞｵｶｹﾝ","cityKana":"ｲﾜﾀｼ","streetKana":"ｶﾜﾗﾁｮｳ","prefecture":"静岡県","city":"磐田市","street":"河原町"},{"zipCode":"4380121","prefectureKana":"ｼｽﾞｵｶｹﾝ","cityKana":"ｲﾜﾀｼ","streetKana":"ｶﾝｿﾞ","prefecture":"静岡県","city":"磐田市","street":"神増"},{"zipCode":"4380064","prefectureKana":"ｼｽﾞｵｶｹﾝ","cityKana":"ｲﾜﾀｼ","streetKana":"ｷﾀｼﾞﾏ","prefecture":"静岡県","city":"磐田市","street":"北島"},{"zipCode":"4380086","prefectureKana":"ｼｽﾞｵｶｹﾝ","cityKana":"ｲﾜﾀｼ","streetKana":"ｷﾀﾐﾁｮｳ","prefecture":"静岡県","city":"磐田市","street":"北見町"},{"zipCode":"4380084","prefectureKana":"ｼｽﾞｵｶｹﾝ","cityKana":"ｲﾜﾀｼ","streetKana":"ｷﾉｻｷ","prefecture":"静岡県","city":"磐田市","street":"城之崎"},{"zipCode":"4380061","prefectureKana":"ｼｽﾞｵｶｹﾝ","cityKana":"ｲﾜﾀｼ","streetKana":"ｷﾞｮｳﾌﾞｼﾞﾏ","prefecture":"静岡県","city":"磐田市","street":"刑部島"},{"zipCode":"4380067","prefectureKana":"ｼｽﾞｵｶｹﾝ","cityKana":"ｲﾜﾀｼ","streetKana":"ｸｻｻｷ","prefecture":"静岡県","city":"磐田市","street":"草崎"},{"zipCode":"4380078","prefectureKana":"ｼｽﾞｵｶｹﾝ","cityKana":"ｲﾜﾀｼ","streetKana":"ｸﾎﾞﾁｮｳ","prefecture":"静岡県","city":"磐田市","street":"久保町"},{"zipCode":"4380814","prefectureKana":"ｼｽﾞｵｶｹﾝ","cityKana":"ｲﾜﾀｼ","streetKana":"ｹｺﾞｼﾞﾏ","prefecture":"静岡県","city":"磐田市","street":"気子島"},{"zipCode":"4380837","prefectureKana":"ｼｽﾞｵｶｹﾝ","cityKana":"ｲﾜﾀｼ","streetKana":"ｹﾞﾝﾍﾟｲｼﾝﾃﾞﾝ","prefecture":"静岡県","city":"磐田市","street":"源平新田"},{"zipCode":"4380114","prefectureKana":"ｼｽﾞｵｶｹﾝ","cityKana":"ｲﾜﾀｼ","streetKana":"ｺﾞｳﾀﾞｲｼﾞﾏ","prefecture":"静岡県","city":"磐田市","street":"合代島"},{"zipCode":"4380077","prefectureKana":"ｼｽﾞｵｶｹﾝ","cityKana":"ｲﾜﾀｼ","streetKana":"ｺｳﾉﾀﾞｲ","prefecture":"静岡県","city":"磐田市","street":"国府台"},{"zipCode":"4380056","prefectureKana":"ｼｽﾞｵｶｹﾝ","cityKana":"ｲﾜﾀｼ","streetKana":"ｺｼﾞﾏ","prefecture":"静岡県","city":"磐田市","street":"小島"},{"zipCode":"4380838","prefectureKana":"ｼｽﾞｵｶｹﾝ","cityKana":"ｲﾜﾀｼ","streetKana":"ｺﾀﾞﾃﾉ","prefecture":"静岡県","city":"磐田市","street":"小立野"},{"zipCode":"4380078","prefectureKana":"ｼｽﾞｵｶｹﾝ","cityKana":"ｲﾜﾀｼ","streetKana":"ｺﾞﾃﾝ","prefecture":"静岡県","city":"磐田市","street":"御殿"},{"zipCode":"4380215","prefectureKana":"ｼｽﾞｵｶｹﾝ","cityKana":"ｲﾜﾀｼ","streetKana":"ｺﾅｶｾﾞ","prefecture":"静岡県","city":"磐田市","street":"小中瀬"},{"zipCode":"4380233","prefectureKana":"ｼｽﾞｵｶｹﾝ","cityKana":"ｲﾜﾀｼ","streetKana":"ｺﾏﾊﾞ","prefecture":"静岡県","city":"磐田市","street":"駒場"},{"zipCode":"4380086","prefectureKana":"ｼｽﾞｵｶｹﾝ","cityKana":"ｲﾜﾀｼ","streetKana":"ｺﾞﾝｹﾞﾝﾁｮｳ","prefecture":"静岡県","city":"磐田市","street":"権現町"},{"zipCode":"4380086","prefectureKana":"ｼｽﾞｵｶｹﾝ","cityKana":"ｲﾜﾀｼ","streetKana":"ｻｲﾜｲﾁｮｳ","prefecture":"静岡県","city":"磐田市","street":"幸町"},{"zipCode":"4380078","prefectureKana":"ｼｽﾞｵｶｹﾝ","cityKana":"ｲﾜﾀｼ","streetKana":"ｻｶｳｴﾁｮｳ","prefecture":"静岡県","city":"磐田市","street":"坂上町"},{"zipCode":"4380078","prefectureKana":"ｼｽﾞｵｶｹﾝ","cityKana":"ｲﾜﾀｼ","streetKana":"ｻｶｴﾁｮｳ","prefecture":"静岡県","city":"磐田市","street":"栄町"},{"zipCode":"4380005","prefectureKana":"ｼｽﾞｵｶｹﾝ","cityKana":"ｲﾜﾀｼ","streetKana":"ｻｷﾞｻｶｶﾐ","prefecture":"静岡県","city":"磐田市","street":"匂坂上"},{"zipCode":"4380003","prefectureKana":"ｼｽﾞｵｶｹﾝ","cityKana":"ｲﾜﾀｼ","streetKana":"ｻｷﾞｻｶｼﾝ","prefecture":"静岡県","city":"磐田市","street":"匂坂新"},{"zipCode":"4380004","prefectureKana":"ｼｽﾞｵｶｹﾝ","cityKana":"ｲﾜﾀｼ","streetKana":"ｻｷﾞｻｶﾅｶ","prefecture":"静岡県","city":"磐田市","street":"匂坂中"},{"zipCode":"4380078","prefectureKana":"ｼｽﾞｵｶｹﾝ","cityKana":"ｲﾜﾀｼ","streetKana":"ｻｸﾗｶﾞｵｶ","prefecture":"静岡県","city":"磐田市","street":"桜ケ丘"},{"zipCode":"4380813","prefectureKana":"ｼｽﾞｵｶｹﾝ","cityKana":"ｲﾜﾀｼ","streetKana":"ｻｻﾊﾗｼﾞﾏ","prefecture":"静岡県","city":"磐田市","street":"笹原島"},{"zipCode":"4380055","prefectureKana":"ｼｽﾞｵｶｹﾝ","cityKana":"ｲﾜﾀｼ","streetKana":"ｻﾒｼﾞﾏ","prefecture":"静岡県","city":"磐田市","street":"鮫島"},{"zipCode":"4380106","prefectureKana":"ｼｽﾞｵｶｹﾝ","cityKana":"ｲﾜﾀｼ","streetKana":"ｼｷｼﾞ","prefecture":"静岡県","city":"磐田市","street":"敷地"},{"zipCode":"4380078","prefectureKana":"ｼｽﾞｵｶｹﾝ","cityKana":"ｲﾜﾀｼ","streetKana":"ｼﾁｹﾝﾁｮｳ","prefecture":"静岡県","city":"磐田市","street":"七軒町"},{"zipCode":"4380015","prefectureKana":"ｼｽﾞｵｶｹﾝ","cityKana":"ｲﾜﾀｼ","streetKana":"ｼﾉﾊﾗ","prefecture":"静岡県","city":"磐田市","street":"篠原"},{"zipCode":"4380086","prefectureKana":"ｼｽﾞｵｶｹﾝ","cityKana":"ｲﾜﾀｼ","streetKana":"ｼﾐｽﾞﾁｮｳ","prefecture":"静岡県","city":"磐田市","street":"清水町"},{"zipCode":"4380052","prefectureKana":"ｼｽﾞｵｶｹﾝ","cityKana":"ｲﾜﾀｼ","streetKana":"ｼﾓｵｵﾉｺﾞｳ","prefecture":"静岡県","city":"磐田市","street":"下大之郷"},{"zipCode":"4380046","prefectureKana":"ｼｽﾞｵｶｹﾝ","cityKana":"ｲﾜﾀｼ","streetKana":"ｼﾓｵｶﾀ","prefecture":"静岡県","city":"磐田市","street":"下岡田"},{"zipCode":"4380126","prefectureKana":"ｼｽﾞｵｶｹﾝ","cityKana":"ｲﾜﾀｼ","streetKana":"ｼﾓｶﾝｿﾞ","prefecture":"静岡県","city":"磐田市","street":"下神増"},{"zipCode":"4380112","prefectureKana":"ｼｽﾞｵｶｹﾝ","cityKana":"ｲﾜﾀｼ","streetKana":"ｼﾓﾉﾍﾞ","prefecture":"静岡県","city":"磐田市","street":"下野部"},{"zipCode":"4380823","prefectureKana":"ｼｽﾞｵｶｹﾝ","cityKana":"ｲﾜﾀｼ","streetKana":"ｼﾓﾎﾝｺﾞｳ","prefecture":"静岡県","city":"磐田市","street":"下本郷"},{"zipCode":"4380818","prefectureKana":"ｼｽﾞｵｶｹﾝ","cityKana":"ｲﾜﾀｼ","streetKana":"ｼﾓﾏﾝﾉｳ","prefecture":"静岡県","city":"磐田市","street":"下万能"},{"zipCode":"4380236","prefectureKana":"ｼｽﾞｵｶｹﾝ","cityKana":"ｲﾜﾀｼ","streetKana":"ｼﾞｭｳﾛｳｼﾞﾏ","prefecture":"静岡県","city":"磐田市","street":"十郎島"},{"zipCode":"4380086","prefectureKana":"ｼｽﾞｵｶｹﾝ","cityKana":"ｲﾜﾀｼ","streetKana":"ｼｭｸﾏﾁ","prefecture":"静岡県","city":"磐田市","street":"宿町"},{"zipCode":"4380066","prefectureKana":"ｼｽﾞｵｶｹﾝ","cityKana":"ｲﾜﾀｼ","streetKana":"ｼﾗﾋﾞｮｳｼ","prefecture":"静岡県","city":"磐田市","street":"白拍子"},{"zipCode":"4380235","prefectureKana":"ｼｽﾞｵｶｹﾝ","cityKana":"ｲﾜﾀｼ","streetKana":"ｼﾛﾜ","prefecture":"静岡県","city":"磐田市","street":"白羽"},{"zipCode":"4380086","prefectureKana":"ｼｽﾞｵｶｹﾝ","cityKana":"ｲﾜﾀｼ","streetKana":"ｼﾞﾜｷﾁｮｳ","prefecture":"静岡県","city":"磐田市","street":"地脇町"},{"zipCode":"4380113","prefectureKana":"ｼｽﾞｵｶｹﾝ","cityKana":"ｲﾜﾀｼ","streetKana":"ｼﾝｶｲ","prefecture":"静岡県","city":"磐田市","street":"新開"},{"zipCode":"4380025","prefectureKana":"ｼｽﾞｵｶｹﾝ","cityKana":"ｲﾜﾀｼ","streetKana":"ｼﾝｶﾞｲ","prefecture":"静岡県","city":"磐田市","street":"新貝"},{"zipCode":"4380063","prefectureKana":"ｼｽﾞｵｶｹﾝ","cityKana":"ｲﾜﾀｼ","streetKana":"ｼﾝｺｳｼﾞ","prefecture":"静岡県","city":"磐田市","street":"真光寺"},{"zipCode":"4380033","prefectureKana":"ｼｽﾞｵｶｹﾝ","cityKana":"ｲﾜﾀｼ","streetKana":"ｼﾝﾃﾞ","prefecture":"静岡県","city":"磐田市","street":"新出"},{"zipCode":"4380086","prefectureKana":"ｼｽﾞｵｶｹﾝ","cityKana":"ｲﾜﾀｼ","streetKana":"ｼﾝﾄﾞｵﾘﾁｮｳ","prefecture":"静岡県","city":"磐田市","street":"新通町"},{"zipCode":"4380222","prefectureKana":"ｼｽﾞｵｶｹﾝ","cityKana":"ｲﾜﾀｼ","streetKana":"ｽｴｼﾝﾃﾞﾝ","prefecture":"静岡県","city":"磐田市","street":"須恵新田"},{"zipCode":"4380086","prefectureKana":"ｼｽﾞｵｶｹﾝ","cityKana":"ｲﾜﾀｼ","streetKana":"ｽﾐﾖｼﾁｮｳ","prefecture":"静岡県","city":"磐田市","street":"住吉町"},{"zipCode":"4380057","prefectureKana":"ｼｽﾞｵｶｹﾝ","cityKana":"ｲﾜﾀｼ","streetKana":"ｾﾝｽﾞﾄﾞｳ","prefecture":"静岡県","city":"磐田市","street":"千手堂"},{"zipCode":"4380122","prefectureKana":"ｼｽﾞｵｶｹﾝ","cityKana":"ｲﾜﾀｼ","streetKana":"ｿｳﾍﾞｴｼﾓｼﾝﾃﾞﾝ","prefecture":"静岡県","city":"磐田市","street":"惣兵衛下新田"},{"zipCode":"4380202","prefectureKana":"ｼｽﾞｵｶｹﾝ","cityKana":"ｲﾜﾀｼ","streetKana":"ﾀｶｷﾞ","prefecture":"静岡県","city":"磐田市","street":"高木"},{"zipCode":"4380801","prefectureKana":"ｼｽﾞｵｶｹﾝ","cityKana":"ｲﾜﾀｼ","streetKana":"ﾀｶﾐｶﾞｵｶ","prefecture":"静岡県","city":"磐田市","street":"高見丘"},{"zipCode":"4380821","prefectureKana":"ｼｽﾞｵｶｹﾝ","cityKana":"ｲﾜﾀｼ","streetKana":"ﾀﾃﾉ","prefecture":"静岡県","city":"磐田市","street":"立野"},{"zipCode":"4380021","prefectureKana":"ｼｽﾞｵｶｹﾝ","cityKana":"ｲﾜﾀｼ","streetKana":"ﾀﾏｺｼ","prefecture":"静岡県","city":"磐田市","street":"玉越"},{"zipCode":"4380078","prefectureKana":"ｼｽﾞｵｶｹﾝ","cityKana":"ｲﾜﾀｼ","streetKana":"ﾀﾏﾁ","prefecture":"静岡県","city":"磐田市","street":"田町"},{"zipCode":"4380078","prefectureKana":"ｼｽﾞｵｶｹﾝ","cityKana":"ｲﾜﾀｼ","streetKana":"ﾁｭｳｵｳﾁｮｳ","prefecture":"静岡県","city":"磐田市","street":"中央町"},{"zipCode":"4380006","prefectureKana":"ｼｽﾞｵｶｹﾝ","cityKana":"ｲﾜﾀｼ","streetKana":"ﾃﾗﾀﾞﾆ","prefecture":"静岡県","city":"磐田市","street":"寺谷"},{"zipCode":"4380007","prefectureKana":"ｼｽﾞｵｶｹﾝ","cityKana":"ｲﾜﾀｼ","streetKana":"ﾃﾗﾀﾞﾆｼﾝﾃﾞﾝ","prefecture":"静岡県","city":"磐田市","street":"寺谷新田"},{"zipCode":"4380086","prefectureKana":"ｼｽﾞｵｶｹﾝ","cityKana":"ｲﾜﾀｼ","streetKana":"ﾃﾝﾉｳﾁｮｳ","prefecture":"静岡県","city":"磐田市","street":"天王町"},{"zipCode":"4380075","prefectureKana":"ｼｽﾞｵｶｹﾝ","cityKana":"ｲﾜﾀｼ","streetKana":"ﾃﾝﾘｭｳ","prefecture":"静岡県","city":"磐田市","street":"天龍"},{"zipCode":"4380039","prefectureKana":"ｼｽﾞｵｶｹﾝ","cityKana":"ｲﾜﾀｼ","streetKana":"ﾄｳｼﾝﾁｮｳ","prefecture":"静岡県","city":"磐田市","street":"東新町"},{"zipCode":"4380806","prefectureKana":"ｼｽﾞｵｶｹﾝ","cityKana":"ｲﾜﾀｼ","streetKana":"ﾄｳﾒｲ","prefecture":"静岡県","city":"磐田市","street":"東名"},{"zipCode":"4380216","prefectureKana":"ｼｽﾞｵｶｹﾝ","cityKana":"ｲﾜﾀｼ","streetKana":"ﾄﾋﾞﾋﾗﾏﾂ","prefecture":"静岡県","city":"磐田市","street":"飛平松"},{"zipCode":"4380803","prefectureKana":"ｼｽﾞｵｶｹﾝ","cityKana":"ｲﾜﾀｼ","streetKana":"ﾄﾐｶﾞｵｶ","prefecture":"静岡県","city":"磐田市","street":"富丘"},{"zipCode":"4380807","prefectureKana":"ｼｽﾞｵｶｹﾝ","cityKana":"ｲﾜﾀｼ","streetKana":"ﾄﾐｻﾄ","prefecture":"静岡県","city":"磐田市","street":"富里"},{"zipCode":"4380231","prefectureKana":"ｼｽﾞｵｶｹﾝ","cityKana":"ｲﾜﾀｼ","streetKana":"ﾄﾖｵｶ","prefecture":"静岡県","city":"磐田市","street":"豊岡"},{"zipCode":"4380047","prefectureKana":"ｼｽﾞｵｶｹﾝ","cityKana":"ｲﾜﾀｼ","streetKana":"ﾄﾖｼﾏ","prefecture":"静岡県","city":"磐田市","street":"豊島"},{"zipCode":"4380808","prefectureKana":"ｼｽﾞｵｶｹﾝ","cityKana":"ｲﾜﾀｼ","streetKana":"ﾄﾖﾀﾞ","prefecture":"静岡県","city":"磐田市","street":"豊田"},{"zipCode":"4380835","prefectureKana":"ｼｽﾞｵｶｹﾝ","cityKana":"ｲﾜﾀｼ","streetKana":"ﾄﾖﾀﾞﾆｼﾉｼﾏ","prefecture":"静岡県","city":"磐田市","street":"豊田西之島"},{"zipCode":"4380072","prefectureKana":"ｼｽﾞｵｶｹﾝ","cityKana":"ｲﾜﾀｼ","streetKana":"ﾄﾘﾉｾ","prefecture":"静岡県","city":"磐田市","street":"鳥之瀬"},{"zipCode":"4380078","prefectureKana":"ｼｽﾞｵｶｹﾝ","cityKana":"ｲﾜﾀｼ","streetKana":"ﾅｶｲｽﾞﾐ","prefecture":"静岡県","city":"磐田市","street":"中泉"},{"zipCode":"4380086","prefectureKana":"ｼｽﾞｵｶｹﾝ","cityKana":"ｲﾜﾀｼ","streetKana":"ﾅｶｶﾞﾜﾁｮｳ","prefecture":"静岡県","city":"磐田市","street":"中川町"},{"zipCode":"4380053","prefectureKana":"ｼｽﾞｵｶｹﾝ","cityKana":"ｲﾜﾀｼ","streetKana":"ﾅｶﾉ","prefecture":"静岡県","city":"磐田市","street":"中野"},{"zipCode":"4380218","prefectureKana":"ｼｽﾞｵｶｹﾝ","cityKana":"ｲﾜﾀｼ","streetKana":"ﾅｶﾋﾗﾏﾂ","prefecture":"静岡県","city":"磐田市","street":"中平松"},{"zipCode":"4380078","prefectureKana":"ｼｽﾞｵｶｹﾝ","cityKana":"ｲﾜﾀｼ","streetKana":"ﾅｶﾏﾁ","prefecture":"静岡県","city":"磐田市","street":"中町"},{"zipCode":"4380836","prefectureKana":"ｼｽﾞｵｶｹﾝ","cityKana":"ｲﾜﾀｼ","streetKana":"ﾅｶﾞﾓﾘ","prefecture":"静岡県","city":"磐田市","street":"長森"},{"zipCode":"4380069","prefectureKana":"ｼｽﾞｵｶｹﾝ","cityKana":"ｲﾜﾀｼ","streetKana":"ﾅｶﾞｽｶ","prefecture":"静岡県","city":"磐田市","street":"長須賀"},{"zipCode":"4380815","prefectureKana":"ｼｽﾞｵｶｹﾝ","cityKana":"ｲﾜﾀｼ","streetKana":"ﾅｶﾀﾞ","prefecture":"静岡県","city":"磐田市","street":"中田"},{"zipCode":"4380026","prefectureKana":"ｼｽﾞｵｶｹﾝ","cityKana":"ｲﾜﾀｼ","streetKana":"ﾆｼｶｲﾂﾞｶ","prefecture":"静岡県","city":"磐田市","street":"西貝塚"},{"zipCode":"4380086","prefectureKana":"ｼｽﾞｵｶｹﾝ","cityKana":"ｲﾜﾀｼ","streetKana":"ﾆｼｻﾞｶﾁｮｳ","prefecture":"静岡県","city":"磐田市","street":"西坂町"},{"zipCode":"4380022","prefectureKana":"ｼｽﾞｵｶｹﾝ","cityKana":"ｲﾜﾀｼ","streetKana":"ﾆｼｼﾞﾏ","prefecture":"静岡県","city":"磐田市","street":"西島"},{"zipCode":"4380078","prefectureKana":"ｼｽﾞｵｶｹﾝ","cityKana":"ｲﾜﾀｼ","streetKana":"ﾆｼｼﾝﾏﾁ","prefecture":"静岡県","city":"磐田市","street":"西新町"},{"zipCode":"4380041","prefectureKana":"ｼｽﾞｵｶｹﾝ","cityKana":"ｲﾜﾀｼ","streetKana":"ﾆｼﾉｼﾏ","prefecture":"静岡県","city":"磐田市","street":"西之島"},{"zipCode":"4380217","prefectureKana":"ｼｽﾞｵｶｹﾝ","cityKana":"ｲﾜﾀｼ","streetKana":"ﾆｼﾋﾗﾏﾂ","prefecture":"静岡県","city":"磐田市","street":"西平松"},{"zipCode":"4380078","prefectureKana":"ｼｽﾞｵｶｹﾝ","cityKana":"ｲﾜﾀｼ","streetKana":"ﾆｼﾏﾁ","prefecture":"静岡県","city":"磐田市","street":"西町"},{"zipCode":"4380074","prefectureKana":"ｼｽﾞｵｶｹﾝ","cityKana":"ｲﾜﾀｼ","streetKana":"ﾆﾉﾐﾔ","prefecture":"静岡県","city":"磐田市","street":"二之宮"},{"zipCode":"4380074","prefectureKana":"ｼｽﾞｵｶｹﾝ","cityKana":"ｲﾜﾀｼ","streetKana":"ﾆﾉﾐﾔｾﾝｹﾞﾝ","prefecture":"静岡県","city":"磐田市","street":"二之宮浅間"},{"zipCode":"4380073","prefectureKana":"ｼｽﾞｵｶｹﾝ","cityKana":"ｲﾜﾀｼ","streetKana":"ﾆﾉﾐﾔﾋｶﾞｼ","prefecture":"静岡県","city":"磐田市","street":"二之宮東"},{"zipCode":"4380086","prefectureKana":"ｼｽﾞｵｶｹﾝ","cityKana":"ｲﾜﾀｼ","streetKana":"ﾆﾊﾞﾝﾁｮｳ","prefecture":"静岡県","city":"磐田市","street":"二番町"},{"zipCode":"4380065","prefectureKana":"ｼｽﾞｵｶｹﾝ","cityKana":"ｲﾜﾀｼ","streetKana":"ﾉﾊﾞｺ","prefecture":"静岡県","city":"磐田市","street":"野箱"},{"zipCode":"4380086","prefectureKana":"ｼｽﾞｵｶｹﾝ","cityKana":"ｲﾜﾀｼ","streetKana":"ﾊﾞﾊﾞﾁｮｳ","prefecture":"静岡県","city":"磐田市","street":"馬場町"},{"zipCode":"4380224","prefectureKana":"ｼｽﾞｵｶｹﾝ","cityKana":"ｲﾜﾀｼ","streetKana":"ﾊﾏｼﾝﾃﾞﾝ","prefecture":"静岡県","city":"磐田市","street":"浜新田"},{"zipCode":"4380054","prefectureKana":"ｼｽﾞｵｶｹﾝ","cityKana":"ｲﾜﾀｼ","streetKana":"ﾊﾏﾍﾞ","prefecture":"静岡県","city":"磐田市","street":"浜部"},{"zipCode":"4380031","prefectureKana":"ｼｽﾞｵｶｹﾝ","cityKana":"ｲﾜﾀｼ","streetKana":"ﾋｴﾊﾞﾗ","prefecture":"静岡県","city":"磐田市","street":"稗原"},{"zipCode":"4380086","prefectureKana":"ｼｽﾞｵｶｹﾝ","cityKana":"ｲﾜﾀｼ","streetKana":"ﾋｶﾞｼｻﾞｶﾁｮｳ","prefecture":"静岡県","city":"磐田市","street":"東坂町"},{"zipCode":"4380035","prefectureKana":"ｼｽﾞｵｶｹﾝ","cityKana":"ｲﾜﾀｼ","streetKana":"ﾋｶﾞｼｱﾗﾔ","prefecture":"静岡県","city":"磐田市","street":"東新屋"},{"zipCode":"4380037","prefectureKana":"ｼｽﾞｵｶｹﾝ","cityKana":"ｲﾜﾀｼ","streetKana":"ﾋｶﾞｼｶｲﾂﾞｶ","prefecture":"静岡県","city":"磐田市","street":"東貝塚"},{"zipCode":"4380802","prefectureKana":"ｼｽﾞｵｶｹﾝ","cityKana":"ｲﾜﾀｼ","streetKana":"ﾋｶﾞｼﾊﾞﾗ","prefecture":"静岡県","city":"磐田市","street":"東原"},{"zipCode":"4380211","prefectureKana":"ｼｽﾞｵｶｹﾝ","cityKana":"ｲﾜﾀｼ","streetKana":"ﾋｶﾞｼﾋﾗﾏﾂ","prefecture":"静岡県","city":"磐田市","street":"東平松"},{"zipCode":"4380078","prefectureKana":"ｼｽﾞｵｶｹﾝ","cityKana":"ｲﾜﾀｼ","streetKana":"ﾋｶﾞｼﾏﾁ","prefecture":"静岡県","city":"磐田市","street":"東町"},{"zipCode":"4380028","prefectureKana":"ｼｽﾞｵｶｹﾝ","cityKana":"ｲﾜﾀｼ","streetKana":"ﾋｶﾞｼﾔﾏ","prefecture":"静岡県","city":"磐田市","street":"東山"},{"zipCode":"4380032","prefectureKana":"ｼｽﾞｵｶｹﾝ","cityKana":"ｲﾜﾀｼ","streetKana":"ﾋｶﾞｼﾜｷ","prefecture":"静岡県","city":"磐田市","street":"東脇"},{"zipCode":"4380023","prefectureKana":"ｼｽﾞｵｶｹﾝ","cityKana":"ｲﾜﾀｼ","streetKana":"ﾋｺｼﾞﾏ","prefecture":"静岡県","city":"磐田市","street":"彦島"},{"zipCode":"4380811","prefectureKana":"ｼｽﾞｵｶｹﾝ","cityKana":"ｲﾜﾀｼ","streetKana":"ﾋﾄｺﾄ","prefecture":"静岡県","city":"磐田市","street":"一言"},{"zipCode":"4380203","prefectureKana":"ｼｽﾞｵｶｹﾝ","cityKana":"ｲﾜﾀｼ","streetKana":"ﾋﾗﾏ","prefecture":"静岡県","city":"磐田市","street":"平間"},{"zipCode":"4380123","prefectureKana":"ｼｽﾞｵｶｹﾝ","cityKana":"ｲﾜﾀｼ","streetKana":"ﾋﾗﾏﾂ","prefecture":"静岡県","city":"磐田市","street":"平松"},{"zipCode":"4380008","prefectureKana":"ｼｽﾞｵｶｹﾝ","cityKana":"ｲﾜﾀｼ","streetKana":"ﾋﾗﾏﾂｶｹｼﾀｲﾘｻｸ","prefecture":"静岡県","city":"磐田市","street":"平松掛下入作"},{"zipCode":"4380001","prefectureKana":"ｼｽﾞｵｶｹﾝ","cityKana":"ｲﾜﾀｼ","streetKana":"ﾌｼﾞｶﾝﾊﾞﾗ","prefecture":"静岡県","city":"磐田市","street":"藤上原"},{"zipCode":"4380088","prefectureKana":"ｼｽﾞｵｶｹﾝ","cityKana":"ｲﾜﾀｼ","streetKana":"ﾌｼﾞﾐﾀﾞｲ","prefecture":"静岡県","city":"磐田市","street":"富士見台"},{"zipCode":"4380083","prefectureKana":"ｼｽﾞｵｶｹﾝ","cityKana":"ｲﾜﾀｼ","streetKana":"ﾌｼﾞﾐﾁｮｳ","prefecture":"静岡県","city":"磐田市","street":"富士見町"},{"zipCode":"4380205","prefectureKana":"ｼｽﾞｵｶｹﾝ","cityKana":"ｲﾜﾀｼ","streetKana":"ﾎﾘﾉｳﾁ","prefecture":"静岡県","city":"磐田市","street":"堀之内"},{"zipCode":"4380078","prefectureKana":"ｼｽﾞｵｶｹﾝ","cityKana":"ｲﾜﾀｼ","streetKana":"ﾎﾝﾏﾁ","prefecture":"静岡県","city":"磐田市","street":"本町"},{"zipCode":"4380068","prefectureKana":"ｼｽﾞｵｶｹﾝ","cityKana":"ｲﾜﾀｼ","streetKana":"ﾏｴﾉ","prefecture":"静岡県","city":"磐田市","street":"前野"},{"zipCode":"4380125","prefectureKana":"ｼｽﾞｵｶｹﾝ","cityKana":"ｲﾜﾀｼ","streetKana":"ﾏﾂﾉｷｼﾞﾏ","prefecture":"静岡県","city":"磐田市","street":"松之木島"},{"zipCode":"4380206","prefectureKana":"ｼｽﾞｵｶｹﾝ","cityKana":"ｲﾜﾀｼ","streetKana":"ﾏﾂﾓﾄ","prefecture":"静岡県","city":"磐田市","street":"松本"},{"zipCode":"4380058","prefectureKana":"ｼｽﾞｵｶｹﾝ","cityKana":"ｲﾜﾀｼ","streetKana":"ﾏﾝｼｮｳｼﾞ","prefecture":"静岡県","city":"磐田市","street":"万正寺"},{"zipCode":"4380101","prefectureKana":"ｼｽﾞｵｶｹﾝ","cityKana":"ｲﾜﾀｼ","streetKana":"ﾏﾝｾﾞ","prefecture":"静岡県","city":"磐田市","street":"万瀬"},{"zipCode":"4380027","prefectureKana":"ｼｽﾞｵｶｹﾝ","cityKana":"ｲﾜﾀｼ","streetKana":"ﾐｶﾉ","prefecture":"静岡県","city":"磐田市","street":"三ケ野"},{"zipCode":"4380018","prefectureKana":"ｼｽﾞｵｶｹﾝ","cityKana":"ｲﾜﾀｼ","streetKana":"ﾐｶﾉﾀﾞｲ","prefecture":"静岡県","city":"磐田市","street":"三ケ野台"},{"zipCode":"4380085","prefectureKana":"ｼｽﾞｵｶｹﾝ","cityKana":"ｲﾜﾀｼ","streetKana":"ﾐｽﾞﾎﾘ","prefecture":"静岡県","city":"磐田市","street":"水堀"},{"zipCode":"4380127","prefectureKana":"ｼｽﾞｵｶｹﾝ","cityKana":"ｲﾜﾀｼ","streetKana":"ﾐﾂｴ","prefecture":"静岡県","city":"磐田市","street":"三家"},{"zipCode":"4380086","prefectureKana":"ｼｽﾞｵｶｹﾝ","cityKana":"ｲﾜﾀｼ","streetKana":"ﾐﾂｹ","prefecture":"静岡県","city":"磐田市","street":"見付"},{"zipCode":"4380081","prefectureKana":"ｼｽﾞｵｶｹﾝ","cityKana":"ｲﾜﾀｼ","streetKana":"ﾐﾄﾞﾘｶﾞｵｶ","prefecture":"静岡県","city":"磐田市","street":"緑ケ丘"},{"zipCode":"4380086","prefectureKana":"ｼｽﾞｵｶｹﾝ","cityKana":"ｲﾜﾀｼ","streetKana":"ﾐﾄﾞﾘﾁｮｳ","prefecture":"静岡県","city":"磐田市","street":"美登里町"},{"zipCode":"4380221","prefectureKana":"ｼｽﾞｵｶｹﾝ","cityKana":"ｲﾜﾀｼ","streetKana":"ﾐﾅﾐﾋﾗﾏﾂ","prefecture":"静岡県","city":"磐田市","street":"南平松"},{"zipCode":"4380816","prefectureKana":"ｼｽﾞｵｶｹﾝ","cityKana":"ｲﾜﾀｼ","streetKana":"ﾐﾔﾉｲｼｷ","prefecture":"静岡県","city":"磐田市","street":"宮之一色"},{"zipCode":"4380207","prefectureKana":"ｼｽﾞｵｶｹﾝ","cityKana":"ｲﾜﾀｼ","streetKana":"ﾐﾔﾓﾄ","prefecture":"静岡県","city":"磐田市","street":"宮本"},{"zipCode":"4380024","prefectureKana":"ｼｽﾞｵｶｹﾝ","cityKana":"ｲﾜﾀｼ","streetKana":"ﾐｮｳｶﾞｼﾞﾏ","prefecture":"静岡県","city":"磐田市","street":"明ケ島"},{"zipCode":"4380019","prefectureKana":"ｼｽﾞｵｶｹﾝ","cityKana":"ｲﾜﾀｼ","streetKana":"ﾐｮｳｶﾞｼﾞﾏﾊﾗ","prefecture":"静岡県","city":"磐田市","street":"明ケ島原"},{"zipCode":"4380012","prefectureKana":"ｼｽﾞｵｶｹﾝ","cityKana":"ｲﾜﾀｼ","streetKana":"ﾑｶｻｱﾗﾔ","prefecture":"静岡県","city":"磐田市","street":"向笠新屋"},{"zipCode":"4380013","prefectureKana":"ｼｽﾞｵｶｹﾝ","cityKana":"ｲﾜﾀｼ","streetKana":"ﾑｶｻﾀｹﾉｳﾁ","prefecture":"静岡県","city":"磐田市","street":"向笠竹之内"},{"zipCode":"4380014","prefectureKana":"ｼｽﾞｵｶｹﾝ","cityKana":"ｲﾜﾀｼ","streetKana":"ﾑｶｻﾆｼ","prefecture":"静岡県","city":"磐田市","street":"向笠西"},{"zipCode":"4380102","prefectureKana":"ｼｽﾞｵｶｹﾝ","cityKana":"ｲﾜﾀｼ","streetKana":"ﾑｼｭｳ","prefecture":"静岡県","city":"磐田市","street":"虫生"},{"zipCode":"4380086","prefectureKana":"ｼｽﾞｵｶｹﾝ","cityKana":"ｲﾜﾀｼ","streetKana":"ﾓﾄｸﾗﾁｮｳ","prefecture":"静岡県","city":"磐田市","street":"元倉町"},{"zipCode":"4380082","prefectureKana":"ｼｽﾞｵｶｹﾝ","cityKana":"ｲﾜﾀｼ","streetKana":"ﾓﾄﾃﾝｼﾞﾝﾁｮｳ","prefecture":"静岡県","city":"磐田市","street":"元天神町"},{"zipCode":"4380086","prefectureKana":"ｼｽﾞｵｶｹﾝ","cityKana":"ｲﾜﾀｼ","streetKana":"ﾓﾄﾐﾔﾁｮｳ","prefecture":"静岡県","city":"磐田市","street":"元宮町"},{"zipCode":"4380832","prefectureKana":"ｼｽﾞｵｶｹﾝ","cityKana":"ｲﾜﾀｼ","streetKana":"ﾓﾘｵｶ","prefecture":"静岡県","city":"磐田市","street":"森岡"},{"zipCode":"4380834","prefectureKana":"ｼｽﾞｵｶｹﾝ","cityKana":"ｲﾜﾀｼ","streetKana":"ﾓﾘｼﾀ","prefecture":"静岡県","city":"磐田市","street":"森下"},{"zipCode":"4380825","prefectureKana":"ｼｽﾞｵｶｹﾝ","cityKana":"ｲﾜﾀｼ","streetKana":"ﾓﾘﾓﾄ","prefecture":"静岡県","city":"磐田市","street":"森本"},{"zipCode":"4380108","prefectureKana":"ｼｽﾞｵｶｹﾝ","cityKana":"ｲﾜﾀｼ","streetKana":"ﾔｼﾛﾔﾏ","prefecture":"静岡県","city":"磐田市","street":"社山"},{"zipCode":"4380833","prefectureKana":"ｼｽﾞｵｶｹﾝ","cityKana":"ｲﾜﾀｼ","streetKana":"ﾔﾄｳﾀｼﾞﾏ","prefecture":"静岡県","city":"磐田市","street":"弥藤太島"},{"zipCode":"4380201","prefectureKana":"ｼｽﾞｵｶｹﾝ","cityKana":"ｲﾜﾀｼ","streetKana":"ﾘｭｳﾖｳﾅｶｼﾞﾏ","prefecture":"静岡県","city":"磐田市","street":"竜洋中島"},{"zipCode":"4380213","prefectureKana":"ｼｽﾞｵｶｹﾝ","cityKana":"ｲﾜﾀｼ","streetKana":"ﾘｭｳﾖｳﾋｴﾊﾞﾗ","prefecture":"静岡県","city":"磐田市","street":"竜洋稗原"},{"zipCode":"4380034","prefectureKana":"ｼｽﾞｵｶｹﾝ","cityKana":"ｲﾜﾀｼ","streetKana":"ﾜｸﾞﾁ","prefecture":"静岡県","city":"磐田市","street":"和口"}]