[{"zipCode":"4450000","prefectureKana":"ｱｲﾁｹﾝ","cityKana":"ﾆｼｵｼ","streetKana":"ｲｶﾆｹｲｻｲｶﾞﾅｲﾊﾞｱｲ","prefecture":"愛知県","city":"西尾市","street":"以下に掲載がない場合"},{"zipCode":"4450863","prefectureKana":"ｱｲﾁｹﾝ","cityKana":"ﾆｼｵｼ","streetKana":"ｱｵｲﾁｮｳ","prefecture":"愛知県","city":"西尾市","street":"葵町"},{"zipCode":"4450861","prefectureKana":"ｱｲﾁｹﾝ","cityKana":"ﾆｼｵｼ","streetKana":"ｱﾂﾞﾏﾁｮｳ","prefecture":"愛知県","city":"西尾市","street":"吾妻町"},{"zipCode":"4450824","prefectureKana":"ｱｲﾁｹﾝ","cityKana":"ﾆｼｵｼ","streetKana":"ｲｽﾞﾐﾁｮｳ","prefecture":"愛知県","city":"西尾市","street":"和泉町"},{"zipCode":"4450055","prefectureKana":"ｱｲﾁｹﾝ","cityKana":"ﾆｼｵｼ","streetKana":"ｲﾁｺﾞﾁｮｳ","prefecture":"愛知県","city":"西尾市","street":"市子町"},{"zipCode":"4450807","prefectureKana":"ｱｲﾁｹﾝ","cityKana":"ﾆｼｵｼ","streetKana":"ｲﾄｳ","prefecture":"愛知県","city":"西尾市","street":"伊藤"},{"zipCode":"4450806","prefectureKana":"ｱｲﾁｹﾝ","cityKana":"ﾆｼｵｼ","streetKana":"ｲﾄｳﾁｮｳ","prefecture":"愛知県","city":"西尾市","street":"伊藤町"},{"zipCode":"4450822","prefectureKana":"ｱｲﾁｹﾝ","cityKana":"ﾆｼｵｼ","streetKana":"ｲﾌﾞﾝﾁｮｳ","prefecture":"愛知県","city":"西尾市","street":"伊文町"},{"zipCode":"4450063","prefectureKana":"ｱｲﾁｹﾝ","cityKana":"ﾆｼｵｼ","streetKana":"ｲﾏｶﾞﾜﾁｮｳ","prefecture":"愛知県","city":"西尾市","street":"今川町"},{"zipCode":"4450043","prefectureKana":"ｱｲﾁｹﾝ","cityKana":"ﾆｼｵｼ","streetKana":"ｳｶﾞｲｹﾁｮｳ","prefecture":"愛知県","city":"西尾市","street":"鵜ケ池町"},{"zipCode":"4450854","prefectureKana":"ｱｲﾁｹﾝ","cityKana":"ﾆｼｵｼ","streetKana":"ｴｲﾗｸﾁｮｳ","prefecture":"愛知県","city":"西尾市","street":"永楽町"},{"zipCode":"4450031","prefectureKana":"ｱｲﾁｹﾝ","cityKana":"ﾆｼｵｼ","streetKana":"ｴﾀｹﾁｮｳ","prefecture":"愛知県","city":"西尾市","street":"家武町"},{"zipCode":"4450026","prefectureKana":"ｱｲﾁｹﾝ","cityKana":"ﾆｼｵｼ","streetKana":"ｴﾜﾗﾁｮｳ","prefecture":"愛知県","city":"西尾市","street":"江原町"},{"zipCode":"4450024","prefectureKana":"ｱｲﾁｹﾝ","cityKana":"ﾆｼｵｼ","streetKana":"ｵｵﾜﾀﾞﾁｮｳ","prefecture":"愛知県","city":"西尾市","street":"大和田町"},{"zipCode":"4450022","prefectureKana":"ｱｲﾁｹﾝ","cityKana":"ﾆｼｵｼ","streetKana":"ｵｶｼﾞﾏﾁｮｳ","prefecture":"愛知県","city":"西尾市","street":"岡島町"},{"zipCode":"4450831","prefectureKana":"ｱｲﾁｹﾝ","cityKana":"ﾆｼｵｼ","streetKana":"ｵｷﾞｭｳﾁｮｳ","prefecture":"愛知県","city":"西尾市","street":"大給町"},{"zipCode":"4450006","prefectureKana":"ｱｲﾁｹﾝ","cityKana":"ﾆｼｵｼ","streetKana":"ｵｼﾞﾏﾁｮｳ","prefecture":"愛知県","city":"西尾市","street":"小島町"},{"zipCode":"4450027","prefectureKana":"ｱｲﾁｹﾝ","cityKana":"ﾆｼｵｼ","streetKana":"ｵﾊﾞﾅﾁｮｳ","prefecture":"愛知県","city":"西尾市","street":"尾花町"},{"zipCode":"4450893","prefectureKana":"ｱｲﾁｹﾝ","cityKana":"ﾆｼｵｼ","streetKana":"ｵﾏﾁｮｳ","prefecture":"愛知県","city":"西尾市","street":"小間町"},{"zipCode":"4450825","prefectureKana":"ｱｲﾁｹﾝ","cityKana":"ﾆｼｵｼ","streetKana":"ｶｲｾｲﾁｮｳ","prefecture":"愛知県","city":"西尾市","street":"会生町"},{"zipCode":"4450013","prefectureKana":"ｱｲﾁｹﾝ","cityKana":"ﾆｼｵｼ","streetKana":"ｶｲﾌｸﾁｮｳ","prefecture":"愛知県","city":"西尾市","street":"貝吹町"},{"zipCode":"4450044","prefectureKana":"ｱｲﾁｹﾝ","cityKana":"ﾆｼｵｼ","streetKana":"ｶﾏﾔﾁｮｳ","prefecture":"愛知県","city":"西尾市","street":"鎌谷町"},{"zipCode":"4450823","prefectureKana":"ｱｲﾁｹﾝ","cityKana":"ﾆｼｵｼ","streetKana":"ｶﾐｼﾀﾁｮｳ","prefecture":"愛知県","city":"西尾市","street":"神下町"},{"zipCode":"4450882","prefectureKana":"ｱｲﾁｹﾝ","cityKana":"ﾆｼｵｼ","streetKana":"ｶﾐﾄﾞｳﾒｷﾁｮｳ","prefecture":"愛知県","city":"西尾市","street":"上道目記町"},{"zipCode":"4450017","prefectureKana":"ｱｲﾁｹﾝ","cityKana":"ﾆｼｵｼ","streetKana":"ｶﾐﾅｶﾞﾗﾁｮｳ","prefecture":"愛知県","city":"西尾市","street":"上永良町"},{"zipCode":"4450011","prefectureKana":"ｱｲﾁｹﾝ","cityKana":"ﾆｼｵｼ","streetKana":"ｶﾐﾊｽﾐﾁｮｳ","prefecture":"愛知県","city":"西尾市","street":"上羽角町"},{"zipCode":"4450894","prefectureKana":"ｱｲﾁｹﾝ","cityKana":"ﾆｼｵｼ","streetKana":"ｶﾐﾏﾁ","prefecture":"愛知県","city":"西尾市","street":"上町"},{"zipCode":"4450847","prefectureKana":"ｱｲﾁｹﾝ","cityKana":"ﾆｼｵｼ","streetKana":"ｶﾒｻﾞﾜﾁｮｳ","prefecture":"愛知県","city":"西尾市","street":"亀沢町"},{"zipCode":"4450873","prefectureKana":"ｱｲﾁｹﾝ","cityKana":"ﾆｼｵｼ","streetKana":"ｶﾜｸﾞﾁﾁｮｳ","prefecture":"愛知県","city":"西尾市","street":"川口町"},{"zipCode":"4450832","prefectureKana":"ｱｲﾁｹﾝ","cityKana":"ﾆｼｵｼ","streetKana":"ｶﾜﾗﾏﾁ","prefecture":"愛知県","city":"西尾市","street":"瓦町"},{"zipCode":"4450857","prefectureKana":"ｱｲﾁｹﾝ","cityKana":"ﾆｼｵｼ","streetKana":"ｷﾀｱｻﾋﾏﾁ","prefecture":"愛知県","city":"西尾市","street":"北旭町"},{"zipCode":"4450885","prefectureKana":"ｱｲﾁｹﾝ","cityKana":"ﾆｼｵｼ","streetKana":"ｷﾞｮｳﾖｳﾁｮｳ","prefecture":"愛知県","city":"西尾市","street":"行用町"},{"zipCode":"4450864","prefectureKana":"ｱｲﾁｹﾝ","cityKana":"ﾆｼｵｼ","streetKana":"ｷﾝｼﾞｮｳﾁｮｳ","prefecture":"愛知県","city":"西尾市","street":"錦城町"},{"zipCode":"4450071","prefectureKana":"ｱｲﾁｹﾝ","cityKana":"ﾆｼｵｼ","streetKana":"ｸﾏﾐﾁｮｳ","prefecture":"愛知県","city":"西尾市","street":"熊味町"},{"zipCode":"4450035","prefectureKana":"ｱｲﾁｹﾝ","cityKana":"ﾆｼｵｼ","streetKana":"ｹｿﾞｳｼﾞﾁｮｳ","prefecture":"愛知県","city":"西尾市","street":"花蔵寺町"},{"zipCode":"4450021","prefectureKana":"ｱｲﾁｹﾝ","cityKana":"ﾆｼｵｼ","streetKana":"ｺﾏﾝﾊﾞﾁｮｳ","prefecture":"愛知県","city":"西尾市","street":"駒場町"},{"zipCode":"4450005","prefectureKana":"ｱｲﾁｹﾝ","cityKana":"ﾆｼｵｼ","streetKana":"ｺﾒﾉﾁｮｳ","prefecture":"愛知県","city":"西尾市","street":"米野町"},{"zipCode":"4450041","prefectureKana":"ｱｲﾁｹﾝ","cityKana":"ﾆｼｵｼ","streetKana":"ｺﾔｹﾉﾁｮｳ","prefecture":"愛知県","city":"西尾市","street":"小焼野町"},{"zipCode":"4450056","prefectureKana":"ｱｲﾁｹﾝ","cityKana":"ﾆｼｵｼ","streetKana":"ｻｲﾄｳﾁｮｳ","prefecture":"愛知県","city":"西尾市","street":"斉藤町"},{"zipCode":"4450827","prefectureKana":"ｱｲﾁｹﾝ","cityKana":"ﾆｼｵｼ","streetKana":"ｻｲﾜｲﾁｮｳ","prefecture":"愛知県","city":"西尾市","street":"幸町"},{"zipCode":"4450835","prefectureKana":"ｱｲﾁｹﾝ","cityKana":"ﾆｼｵｼ","streetKana":"ｻｶﾅﾏﾁ","prefecture":"愛知県","city":"西尾市","street":"肴町"},{"zipCode":"4450853","prefectureKana":"ｱｲﾁｹﾝ","cityKana":"ﾆｼｵｼ","streetKana":"ｻｸﾗｷﾞﾁｮｳ","prefecture":"愛知県","city":"西尾市","street":"桜木町"},{"zipCode":"4450803","prefectureKana":"ｱｲﾁｹﾝ","cityKana":"ﾆｼｵｼ","streetKana":"ｻｸﾗﾏﾁ","prefecture":"愛知県","city":"西尾市","street":"桜町"},{"zipCode":"4450053","prefectureKana":"ｱｲﾁｹﾝ","cityKana":"ﾆｼｵｼ","streetKana":"ｻｻｿﾞﾈﾁｮｳ","prefecture":"愛知県","city":"西尾市","street":"笹曽根町"},{"zipCode":"4450866","prefectureKana":"ｱｲﾁｹﾝ","cityKana":"ﾆｼｵｼ","streetKana":"ｼｵﾏﾁ","prefecture":"愛知県","city":"西尾市","street":"塩町"},{"zipCode":"4450084","prefectureKana":"ｱｲﾁｹﾝ","cityKana":"ﾆｼｵｼ","streetKana":"ｼｷﾉﾁｮｳ","prefecture":"愛知県","city":"西尾市","street":"志貴野町"},{"zipCode":"4450081","prefectureKana":"ｱｲﾁｹﾝ","cityKana":"ﾆｼｵｼ","streetKana":"ｼｺﾔﾁｮｳ","prefecture":"愛知県","city":"西尾市","street":"志籠谷町"},{"zipCode":"4450883","prefectureKana":"ｱｲﾁｹﾝ","cityKana":"ﾆｼｵｼ","streetKana":"ｼﾓﾄﾞｳﾒｷﾁｮｳ","prefecture":"愛知県","city":"西尾市","street":"下道目記町"},{"zipCode":"4450016","prefectureKana":"ｱｲﾁｹﾝ","cityKana":"ﾆｼｵｼ","streetKana":"ｼﾓﾅｶﾞﾗﾁｮｳ","prefecture":"愛知県","city":"西尾市","street":"下永良町"},{"zipCode":"4450012","prefectureKana":"ｱｲﾁｹﾝ","cityKana":"ﾆｼｵｼ","streetKana":"ｼﾓﾊｽﾐﾁｮｳ","prefecture":"愛知県","city":"西尾市","street":"下羽角町"},{"zipCode":"4450891","prefectureKana":"ｱｲﾁｹﾝ","cityKana":"ﾆｼｵｼ","streetKana":"ｼﾓﾏﾁ","prefecture":"愛知県","city":"西尾市","street":"下町"},{"zipCode":"4450045","prefectureKana":"ｱｲﾁｹﾝ","cityKana":"ﾆｼｵｼ","streetKana":"ｼﾞｭｳﾛｳｼﾏﾁｮｳ","prefecture":"愛知県","city":"西尾市","street":"十郎島町"},{"zipCode":"4450834","prefectureKana":"ｱｲﾁｹﾝ","cityKana":"ﾆｼｵｼ","streetKana":"ｼﾞｭﾝｶｲﾏﾁ","prefecture":"愛知県","city":"西尾市","street":"順海町"},{"zipCode":"4450065","prefectureKana":"ｱｲﾁｹﾝ","cityKana":"ﾆｼｵｼ","streetKana":"ｼﾛｻｷﾁｮｳ","prefecture":"愛知県","city":"西尾市","street":"城崎町"},{"zipCode":"4450878","prefectureKana":"ｱｲﾁｹﾝ","cityKana":"ﾆｼｵｼ","streetKana":"ｼﾝｻﾞｲｹ","prefecture":"愛知県","city":"西尾市","street":"新在家"},{"zipCode":"4450076","prefectureKana":"ｱｲﾁｹﾝ","cityKana":"ﾆｼｵｼ","streetKana":"ｼﾝﾄﾞﾊﾞ","prefecture":"愛知県","city":"西尾市","street":"新渡場"},{"zipCode":"4450077","prefectureKana":"ｱｲﾁｹﾝ","cityKana":"ﾆｼｵｼ","streetKana":"ｼﾝﾄﾞﾊﾞﾁｮｳ","prefecture":"愛知県","city":"西尾市","street":"新渡場町"},{"zipCode":"4450002","prefectureKana":"ｱｲﾁｹﾝ","cityKana":"ﾆｼｵｼ","streetKana":"ｼﾝﾑﾗﾁｮｳ","prefecture":"愛知県","city":"西尾市","street":"新村町"},{"zipCode":"4450814","prefectureKana":"ｱｲﾁｹﾝ","cityKana":"ﾆｼｵｼ","streetKana":"ｼﾝﾔｼｷﾁｮｳ","prefecture":"愛知県","city":"西尾市","street":"新屋敷町"},{"zipCode":"4450844","prefectureKana":"ｱｲﾁｹﾝ","cityKana":"ﾆｼｵｼ","streetKana":"ｽｴﾋﾛﾁｮｳ","prefecture":"愛知県","city":"西尾市","street":"末広町"},{"zipCode":"4450815","prefectureKana":"ｱｲﾁｹﾝ","cityKana":"ﾆｼｵｼ","streetKana":"ｽｶﾞﾜﾗﾁｮｳ","prefecture":"愛知県","city":"西尾市","street":"菅原町"},{"zipCode":"4450862","prefectureKana":"ｱｲﾁｹﾝ","cityKana":"ﾆｼｵｼ","streetKana":"ｽﾀﾞﾁｮｳ","prefecture":"愛知県","city":"西尾市","street":"須田町"},{"zipCode":"4450879","prefectureKana":"ｱｲﾁｹﾝ","cityKana":"ﾆｼｵｼ","streetKana":"ｽﾐｻｷ","prefecture":"愛知県","city":"西尾市","street":"住崎"},{"zipCode":"4450876","prefectureKana":"ｱｲﾁｹﾝ","cityKana":"ﾆｼｵｼ","streetKana":"ｽﾐｻｷﾁｮｳ","prefecture":"愛知県","city":"西尾市","street":"住崎町"},{"zipCode":"4450851","prefectureKana":"ｱｲﾁｹﾝ","cityKana":"ﾆｼｵｼ","streetKana":"ｽﾐﾖｼﾁｮｳ","prefecture":"愛知県","city":"西尾市","street":"住吉町"},{"zipCode":"4450046","prefectureKana":"ｱｲﾁｹﾝ","cityKana":"ﾆｼｵｼ","streetKana":"ｽﾜｷﾁｮｳ","prefecture":"愛知県","city":"西尾市","street":"須脇町"},{"zipCode":"4450034","prefectureKana":"ｱｲﾁｹﾝ","cityKana":"ﾆｼｵｼ","streetKana":"ｾﾞﾝﾐｮｳﾁｮｳ","prefecture":"愛知県","city":"西尾市","street":"善明町"},{"zipCode":"4450001","prefectureKana":"ｱｲﾁｹﾝ","cityKana":"ﾆｼｵｼ","streetKana":"ﾀｶｵﾁﾁｮｳ","prefecture":"愛知県","city":"西尾市","street":"高落町"},{"zipCode":"4450023","prefectureKana":"ｱｲﾁｹﾝ","cityKana":"ﾆｼｵｼ","streetKana":"ﾀｶｶﾞﾜﾗﾁｮｳ","prefecture":"愛知県","city":"西尾市","street":"高河原町"},{"zipCode":"4450856","prefectureKana":"ｱｲﾁｹﾝ","cityKana":"ﾆｼｵｼ","streetKana":"ﾀｶｻｺﾞﾁｮｳ","prefecture":"愛知県","city":"西尾市","street":"高砂町"},{"zipCode":"4450064","prefectureKana":"ｱｲﾁｹﾝ","cityKana":"ﾆｼｵｼ","streetKana":"ﾀｶﾊﾞﾀﾁｮｳ","prefecture":"愛知県","city":"西尾市","street":"高畠町"},{"zipCode":"4450042","prefectureKana":"ｱｲﾁｹﾝ","cityKana":"ﾆｼｵｼ","streetKana":"ﾀｸﾉｼﾏﾁｮｳ","prefecture":"愛知県","city":"西尾市","street":"宅野島町"},{"zipCode":"4450015","prefectureKana":"ｱｲﾁｹﾝ","cityKana":"ﾆｼｵｼ","streetKana":"ﾀｹﾔﾏﾁｮｳ","prefecture":"愛知県","city":"西尾市","street":"竹山町"},{"zipCode":"4450846","prefectureKana":"ｱｲﾁｹﾝ","cityKana":"ﾆｼｵｼ","streetKana":"ﾁﾄｾﾁｮｳ","prefecture":"愛知県","city":"西尾市","street":"千歳町"},{"zipCode":"4450062","prefectureKana":"ｱｲﾁｹﾝ","cityKana":"ﾆｼｵｼ","streetKana":"ﾁｮｳﾀﾞﾁｮｳ","prefecture":"愛知県","city":"西尾市","street":"丁田町"},{"zipCode":"4450014","prefectureKana":"ｱｲﾁｹﾝ","cityKana":"ﾆｼｵｼ","streetKana":"ﾂｸｼｶﾞｵｶ","prefecture":"愛知県","city":"西尾市","street":"つくしが丘"},{"zipCode":"4450837","prefectureKana":"ｱｲﾁｹﾝ","cityKana":"ﾆｼｵｼ","streetKana":"ﾂﾙｶﾞｻｷﾁｮｳ","prefecture":"愛知県","city":"西尾市","street":"鶴ケ崎町"},{"zipCode":"4450805","prefectureKana":"ｱｲﾁｹﾝ","cityKana":"ﾆｼｵｼ","streetKana":"ﾂﾙｼﾛﾁｮｳ","prefecture":"愛知県","city":"西尾市","street":"鶴城町"},{"zipCode":"4450845","prefectureKana":"ｱｲﾁｹﾝ","cityKana":"ﾆｼｵｼ","streetKana":"ﾂﾙﾏｲﾁｮｳ","prefecture":"愛知県","city":"西尾市","street":"鶴舞町"},{"zipCode":"4450051","prefectureKana":"ｱｲﾁｹﾝ","cityKana":"ﾆｼｵｼ","streetKana":"ﾃﾝｼﾞｸﾁｮｳ","prefecture":"愛知県","city":"西尾市","street":"天竹町"},{"zipCode":"4450843","prefectureKana":"ｱｲﾁｹﾝ","cityKana":"ﾆｼｵｼ","streetKana":"ﾃﾝｼﾞﾝﾁｮｳ","prefecture":"愛知県","city":"西尾市","street":"天神町"},{"zipCode":"4450833","prefectureKana":"ｱｲﾁｹﾝ","cityKana":"ﾆｼｵｼ","streetKana":"ﾃﾝﾉｳﾏﾁ","prefecture":"愛知県","city":"西尾市","street":"天王町"},{"zipCode":"4450812","prefectureKana":"ｱｲﾁｹﾝ","cityKana":"ﾆｼｵｼ","streetKana":"ﾄﾞｳｺｳｼﾞ","prefecture":"愛知県","city":"西尾市","street":"道光寺"},{"zipCode":"4450811","prefectureKana":"ｱｲﾁｹﾝ","cityKana":"ﾆｼｵｼ","streetKana":"ﾄﾞｳｺｳｼﾞﾁｮｳ","prefecture":"愛知県","city":"西尾市","street":"道光寺町"},{"zipCode":"4450075","prefectureKana":"ｱｲﾁｹﾝ","cityKana":"ﾆｼｵｼ","streetKana":"ﾄｶﾞｻｷ","prefecture":"愛知県","city":"西尾市","street":"戸ケ崎"},{"zipCode":"4450074","prefectureKana":"ｱｲﾁｹﾝ","cityKana":"ﾆｼｵｼ","streetKana":"ﾄｶﾞｻｷﾁｮｳ","prefecture":"愛知県","city":"西尾市","street":"戸ケ崎町"},{"zipCode":"4450072","prefectureKana":"ｱｲﾁｹﾝ","cityKana":"ﾆｼｵｼ","streetKana":"ﾄｸﾂｷﾞﾁｮｳ","prefecture":"愛知県","city":"西尾市","street":"徳次町"},{"zipCode":"4450887","prefectureKana":"ｱｲﾁｹﾝ","cityKana":"ﾆｼｵｼ","streetKana":"ﾅｶﾞﾅﾜﾁｮｳ","prefecture":"愛知県","city":"西尾市","street":"長縄町"},{"zipCode":"4450083","prefectureKana":"ｱｲﾁｹﾝ","cityKana":"ﾆｼｵｼ","streetKana":"ﾅｶﾊﾗﾁｮｳ","prefecture":"愛知県","city":"西尾市","street":"中原町"},{"zipCode":"4450836","prefectureKana":"ｱｲﾁｹﾝ","cityKana":"ﾆｼｵｼ","streetKana":"ﾅｶﾏﾁ","prefecture":"愛知県","city":"西尾市","street":"中町"},{"zipCode":"4450870","prefectureKana":"ｱｲﾁｹﾝ","cityKana":"ﾆｼｵｼ","streetKana":"ﾅｶﾞﾖｼ","prefecture":"愛知県","city":"西尾市","street":"永吉"},{"zipCode":"4450871","prefectureKana":"ｱｲﾁｹﾝ","cityKana":"ﾆｼｵｼ","streetKana":"ﾅｶﾞﾖｼﾁｮｳ","prefecture":"愛知県","city":"西尾市","street":"永吉町"},{"zipCode":"4450881","prefectureKana":"ｱｲﾁｹﾝ","cityKana":"ﾆｼｵｼ","streetKana":"ﾆｲｹﾁｮｳ","prefecture":"愛知県","city":"西尾市","street":"熱池町"},{"zipCode":"4450004","prefectureKana":"ｱｲﾁｹﾝ","cityKana":"ﾆｼｵｼ","streetKana":"ﾆｼｱｻﾞｲﾁｮｳ","prefecture":"愛知県","city":"西尾市","street":"西浅井町"},{"zipCode":"4450057","prefectureKana":"ｱｲﾁｹﾝ","cityKana":"ﾆｼｵｼ","streetKana":"ﾉﾉﾐﾔﾁｮｳ","prefecture":"愛知県","city":"西尾市","street":"野々宮町"},{"zipCode":"4450884","prefectureKana":"ｱｲﾁｹﾝ","cityKana":"ﾆｼｵｼ","streetKana":"ﾊﾁｶﾞｼﾘﾁｮｳ","prefecture":"愛知県","city":"西尾市","street":"八ケ尻町"},{"zipCode":"4450852","prefectureKana":"ｱｲﾁｹﾝ","cityKana":"ﾆｼｵｼ","streetKana":"ﾊﾅﾉｷﾁｮｳ","prefecture":"愛知県","city":"西尾市","street":"花ノ木町"},{"zipCode":"4450841","prefectureKana":"ｱｲﾁｹﾝ","cityKana":"ﾆｼｵｼ","streetKana":"ﾊﾞﾊﾞﾁｮｳ","prefecture":"愛知県","city":"西尾市","street":"馬場町"},{"zipCode":"4450886","prefectureKana":"ｱｲﾁｹﾝ","cityKana":"ﾆｼｵｼ","streetKana":"ﾊﾘｿﾞﾈﾁｮｳ","prefecture":"愛知県","city":"西尾市","street":"針曽根町"},{"zipCode":"4450003","prefectureKana":"ｱｲﾁｹﾝ","cityKana":"ﾆｼｵｼ","streetKana":"ﾋｶﾞｼｱｻﾞｲﾁｮｳ","prefecture":"愛知県","city":"西尾市","street":"東浅井町"},{"zipCode":"4450874","prefectureKana":"ｱｲﾁｹﾝ","cityKana":"ﾆｼｵｼ","streetKana":"ﾋｼｲｹﾁｮｳ","prefecture":"愛知県","city":"西尾市","street":"菱池町"},{"zipCode":"4450054","prefectureKana":"ｱｲﾁｹﾝ","cityKana":"ﾆｼｵｼ","streetKana":"ﾋﾗｸﾁﾁｮｳ","prefecture":"愛知県","city":"西尾市","street":"平口町"},{"zipCode":"4450032","prefectureKana":"ｱｲﾁｹﾝ","cityKana":"ﾆｼｵｼ","streetKana":"ﾋﾗﾊﾗﾁｮｳ","prefecture":"愛知県","city":"西尾市","street":"平原町"},{"zipCode":"4450875","prefectureKana":"ｱｲﾁｹﾝ","cityKana":"ﾆｼｵｼ","streetKana":"ﾌｶｲｹﾁｮｳ","prefecture":"愛知県","city":"西尾市","street":"深池町"},{"zipCode":"4450892","prefectureKana":"ｱｲﾁｹﾝ","cityKana":"ﾆｼｵｼ","streetKana":"ﾎｳｺｳｼﾞﾁｮｳ","prefecture":"愛知県","city":"西尾市","street":"法光寺町"},{"zipCode":"4450047","prefectureKana":"ｱｲﾁｹﾝ","cityKana":"ﾆｼｵｼ","streetKana":"ﾎｿｲｹﾁｮｳ","prefecture":"愛知県","city":"西尾市","street":"細池町"},{"zipCode":"4450865","prefectureKana":"ｱｲﾁｹﾝ","cityKana":"ﾆｼｵｼ","streetKana":"ﾎﾝﾏﾁ","prefecture":"愛知県","city":"西尾市","street":"本町"},{"zipCode":"4450826","prefectureKana":"ｱｲﾁｹﾝ","cityKana":"ﾆｼｵｼ","streetKana":"ﾏﾝｾﾞﾝﾁｮｳ","prefecture":"愛知県","city":"西尾市","street":"満全町"},{"zipCode":"4450804","prefectureKana":"ｱｲﾁｹﾝ","cityKana":"ﾆｼｵｼ","streetKana":"ﾐﾄﾞﾘﾏﾁ","prefecture":"愛知県","city":"西尾市","street":"緑町"},{"zipCode":"4450855","prefectureKana":"ｱｲﾁｹﾝ","cityKana":"ﾆｼｵｼ","streetKana":"ﾐﾅﾐｱｻﾋﾏﾁ","prefecture":"愛知県","city":"西尾市","street":"南旭町"},{"zipCode":"4450801","prefectureKana":"ｱｲﾁｹﾝ","cityKana":"ﾆｼｵｼ","streetKana":"ﾐﾅﾐﾅｶﾈﾁｮｳ","prefecture":"愛知県","city":"西尾市","street":"南中根町"},{"zipCode":"4450816","prefectureKana":"ｱｲﾁｹﾝ","cityKana":"ﾆｼｵｼ","streetKana":"ﾐﾔﾏﾁ","prefecture":"愛知県","city":"西尾市","street":"宮町"},{"zipCode":"4450033","prefectureKana":"ｱｲﾁｹﾝ","cityKana":"ﾆｼｵｼ","streetKana":"ﾑﾛﾁｮｳ","prefecture":"愛知県","city":"西尾市","street":"室町"},{"zipCode":"4450872","prefectureKana":"ｱｲﾁｹﾝ","cityKana":"ﾆｼｵｼ","streetKana":"ﾔｿﾞﾈﾁｮｳ","prefecture":"愛知県","city":"西尾市","street":"矢曽根町"},{"zipCode":"4450082","prefectureKana":"ｱｲﾁｹﾝ","cityKana":"ﾆｼｵｼ","streetKana":"ﾔﾂｵﾓﾃﾁｮｳ","prefecture":"愛知県","city":"西尾市","street":"八ツ面町"},{"zipCode":"4450821","prefectureKana":"ｱｲﾁｹﾝ","cityKana":"ﾆｼｵｼ","streetKana":"ﾔﾊﾞﾁｮｳ","prefecture":"愛知県","city":"西尾市","street":"矢場町"},{"zipCode":"4450877","prefectureKana":"ｱｲﾁｹﾝ","cityKana":"ﾆｼｵｼ","streetKana":"ﾔﾏｼﾀﾁｮｳ","prefecture":"愛知県","city":"西尾市","street":"山下町"},{"zipCode":"4450842","prefectureKana":"ｱｲﾁｹﾝ","cityKana":"ﾆｼｵｼ","streetKana":"ﾔﾖｲﾁｮｳ","prefecture":"愛知県","city":"西尾市","street":"弥生町"},{"zipCode":"4450052","prefectureKana":"ｱｲﾁｹﾝ","cityKana":"ﾆｼｵｼ","streetKana":"ﾖｺﾃﾁｮｳ","prefecture":"愛知県","city":"西尾市","street":"横手町"},{"zipCode":"4450802","prefectureKana":"ｱｲﾁｹﾝ","cityKana":"ﾆｼｵｼ","streetKana":"ﾖﾈﾂﾞﾁｮｳ","prefecture":"愛知県","city":"西尾市","street":"米津町"},{"zipCode":"4450073","prefectureKana":"ｱｲﾁｹﾝ","cityKana":"ﾆｼｵｼ","streetKana":"ﾖﾘｽﾞﾐﾁｮｳ","prefecture":"愛知県","city":"西尾市","street":"寄住町"},{"zipCode":"4450061","prefectureKana":"ｱｲﾁｹﾝ","cityKana":"ﾆｼｵｼ","streetKana":"ﾖﾘﾁｶﾁｮｳ","prefecture":"愛知県","city":"西尾市","street":"寄近町"},{"zipCode":"4450813","prefectureKana":"ｱｲﾁｹﾝ","cityKana":"ﾆｼｵｼ","streetKana":"ﾜｶﾏﾂﾁｮｳ","prefecture":"愛知県","city":"西尾市","street":"若松町"},{"zipCode":"4450025","prefectureKana":"ｱｲﾁｹﾝ","cityKana":"ﾆｼｵｼ","streetKana":"ﾜｷﾁｮｳ","prefecture":"愛知県","city":"西尾市","street":"和気町"}]