[{"zipCode":"4460000","prefectureKana":"ｱｲﾁｹﾝ","cityKana":"ｱﾝｼﾞｮｳｼ","streetKana":"ｲｶﾆｹｲｻｲｶﾞﾅｲﾊﾞｱｲ","prefecture":"愛知県","city":"安城市","street":"以下に掲載がない場合"},{"zipCode":"4460037","prefectureKana":"ｱｲﾁｹﾝ","cityKana":"ｱﾝｼﾞｮｳｼ","streetKana":"ｱｲｵｲﾁｮｳ","prefecture":"愛知県","city":"安城市","street":"相生町"},{"zipCode":"4460046","prefectureKana":"ｱｲﾁｹﾝ","cityKana":"ｱﾝｼﾞｮｳｼ","streetKana":"ｱｶﾏﾂﾁｮｳ","prefecture":"愛知県","city":"安城市","street":"赤松町"},{"zipCode":"4460031","prefectureKana":"ｱｲﾁｹﾝ","cityKana":"ｱﾝｼﾞｮｳｼ","streetKana":"ｱｻﾋﾏﾁ","prefecture":"愛知県","city":"安城市","street":"朝日町"},{"zipCode":"4460026","prefectureKana":"ｱｲﾁｹﾝ","cityKana":"ｱﾝｼﾞｮｳｼ","streetKana":"ｱﾝｼﾞｮｳﾁｮｳ","prefecture":"愛知県","city":"安城市","street":"安城町"},{"zipCode":"4460074","prefectureKana":"ｱｲﾁｹﾝ","cityKana":"ｱﾝｼﾞｮｳｼ","streetKana":"ｲｸﾞｲﾔﾏﾁｮｳ","prefecture":"愛知県","city":"安城市","street":"井杭山町"},{"zipCode":"4460066","prefectureKana":"ｱｲﾁｹﾝ","cityKana":"ｱﾝｼﾞｮｳｼ","streetKana":"ｲｹｳﾗﾁｮｳ","prefecture":"愛知県","city":"安城市","street":"池浦町"},{"zipCode":"4460071","prefectureKana":"ｱｲﾁｹﾝ","cityKana":"ｱﾝｼﾞｮｳｼ","streetKana":"ｲﾏｲｹﾁｮｳ","prefecture":"愛知県","city":"安城市","street":"今池町"},{"zipCode":"4460008","prefectureKana":"ｱｲﾁｹﾝ","cityKana":"ｱﾝｼﾞｮｳｼ","streetKana":"ｲﾏﾎﾝﾏﾁ","prefecture":"愛知県","city":"安城市","street":"今本町"},{"zipCode":"4460005","prefectureKana":"ｱｲﾁｹﾝ","cityKana":"ｱﾝｼﾞｮｳｼ","streetKana":"ｳﾄｳﾁｬﾔﾁｮｳ","prefecture":"愛知県","city":"安城市","street":"宇頭茶屋町"},{"zipCode":"4460017","prefectureKana":"ｱｲﾁｹﾝ","cityKana":"ｱﾝｼﾞｮｳｼ","streetKana":"ｵｵｵｶﾁｮｳ","prefecture":"愛知県","city":"安城市","street":"大岡町"},{"zipCode":"4460042","prefectureKana":"ｱｲﾁｹﾝ","cityKana":"ｱﾝｼﾞｮｳｼ","streetKana":"ｵｵﾔﾏﾁｮｳ","prefecture":"愛知県","city":"安城市","street":"大山町"},{"zipCode":"4460004","prefectureKana":"ｱｲﾁｹﾝ","cityKana":"ｱﾝｼﾞｮｳｼ","streetKana":"ｵｻﾞｷﾁｮｳ","prefecture":"愛知県","city":"安城市","street":"尾崎町"},{"zipCode":"4460003","prefectureKana":"ｱｲﾁｹﾝ","cityKana":"ｱﾝｼﾞｮｳｼ","streetKana":"ｶｷｻｷﾁｮｳ","prefecture":"愛知県","city":"安城市","street":"柿さき町"},{"zipCode":"4460024","prefectureKana":"ｱｲﾁｹﾝ","cityKana":"ｱﾝｼﾞｮｳｼ","streetKana":"ｶﾜﾉﾁｮｳ","prefecture":"愛知県","city":"安城市","street":"河野町"},{"zipCode":"4460011","prefectureKana":"ｱｲﾁｹﾝ","cityKana":"ｱﾝｼﾞｮｳｼ","streetKana":"ｷﾀﾔﾏｻﾞｷﾁｮｳ","prefecture":"愛知県","city":"安城市","street":"北山崎町"},{"zipCode":"4460036","prefectureKana":"ｱｲﾁｹﾝ","cityKana":"ｱﾝｼﾞｮｳｼ","streetKana":"ｺﾂﾞﾂﾐﾁｮｳ","prefecture":"愛知県","city":"安城市","street":"小堤町"},{"zipCode":"4460041","prefectureKana":"ｱｲﾁｹﾝ","cityKana":"ｱﾝｼﾞｮｳｼ","streetKana":"ｻｸﾗﾏﾁ","prefecture":"愛知県","city":"安城市","street":"桜町"},{"zipCode":"4460073","prefectureKana":"ｱｲﾁｹﾝ","cityKana":"ｱﾝｼﾞｮｳｼ","streetKana":"ｻｻﾒﾁｮｳ","prefecture":"愛知県","city":"安城市","street":"篠目町"},{"zipCode":"4460001","prefectureKana":"ｱｲﾁｹﾝ","cityKana":"ｱﾝｼﾞｮｳｼ","streetKana":"ｻﾄﾁｮｳ","prefecture":"愛知県","city":"安城市","street":"里町"},{"zipCode":"4460023","prefectureKana":"ｱｲﾁｹﾝ","cityKana":"ｱﾝｼﾞｮｳｼ","streetKana":"ｼﾞｮｳｼﾞｮｳﾁｮｳ","prefecture":"愛知県","city":"安城市","street":"上条町"},{"zipCode":"4460043","prefectureKana":"ｱｲﾁｹﾝ","cityKana":"ｱﾝｼﾞｮｳｼ","streetKana":"ｼﾞｮｳﾅﾝﾁｮｳ","prefecture":"愛知県","city":"安城市","street":"城南町"},{"zipCode":"4460063","prefectureKana":"ｱｲﾁｹﾝ","cityKana":"ｱﾝｼﾞｮｳｼ","streetKana":"ｼｮｳﾜﾁｮｳ","prefecture":"愛知県","city":"安城市","street":"昭和町"},{"zipCode":"4460061","prefectureKana":"ｱｲﾁｹﾝ","cityKana":"ｱﾝｼﾞｮｳｼ","streetKana":"ｼﾝﾃﾞﾝﾁｮｳ","prefecture":"愛知県","city":"安城市","street":"新田町"},{"zipCode":"4460019","prefectureKana":"ｱｲﾁｹﾝ","cityKana":"ｱﾝｼﾞｮｳｼ","streetKana":"ｼﾝﾒｲﾁｮｳ","prefecture":"愛知県","city":"安城市","street":"新明町"},{"zipCode":"4460038","prefectureKana":"ｱｲﾁｹﾝ","cityKana":"ｱﾝｼﾞｮｳｼ","streetKana":"ｽｴﾋﾛﾁｮｳ","prefecture":"愛知県","city":"安城市","street":"末広町"},{"zipCode":"4460072","prefectureKana":"ｱｲﾁｹﾝ","cityKana":"ｱﾝｼﾞｮｳｼ","streetKana":"ｽﾐﾖｼﾁｮｳ","prefecture":"愛知県","city":"安城市","street":"住吉町"},{"zipCode":"4460065","prefectureKana":"ｱｲﾁｹﾝ","cityKana":"ｱﾝｼﾞｮｳｼ","streetKana":"ﾀﾞｲﾄｳﾁｮｳ","prefecture":"愛知県","city":"安城市","street":"大東町"},{"zipCode":"4460015","prefectureKana":"ｱｲﾁｹﾝ","cityKana":"ｱﾝｼﾞｮｳｼ","streetKana":"ﾀｶｷﾞﾁｮｳ","prefecture":"愛知県","city":"安城市","street":"高木町"},{"zipCode":"4460053","prefectureKana":"ｱｲﾁｹﾝ","cityKana":"ｱﾝｼﾞｮｳｼ","streetKana":"ﾀｶﾀﾅﾁｮｳ","prefecture":"愛知県","city":"安城市","street":"高棚町"},{"zipCode":"4460007","prefectureKana":"ｱｲﾁｹﾝ","cityKana":"ｱﾝｼﾞｮｳｼ","streetKana":"ﾄｳｴｲﾁｮｳ","prefecture":"愛知県","city":"安城市","street":"東栄町"},{"zipCode":"4460018","prefectureKana":"ｱｲﾁｹﾝ","cityKana":"ｱﾝｼﾞｮｳｼ","streetKana":"ﾄｳｼﾝﾁｮｳ","prefecture":"愛知県","city":"安城市","street":"東新町"},{"zipCode":"4460027","prefectureKana":"ｱｲﾁｹﾝ","cityKana":"ｱﾝｼﾞｮｳｼ","streetKana":"ﾄｳﾒｲﾁｮｳ","prefecture":"愛知県","city":"安城市","street":"東明町"},{"zipCode":"4460035","prefectureKana":"ｱｲﾁｹﾝ","cityKana":"ｱﾝｼﾞｮｳｼ","streetKana":"ﾆｼｷﾏﾁ","prefecture":"愛知県","city":"安城市","street":"錦町"},{"zipCode":"4460012","prefectureKana":"ｱｲﾁｹﾝ","cityKana":"ｱﾝｼﾞｮｳｼ","streetKana":"ﾆｼﾍﾞｯｼｮﾁｮｳ","prefecture":"愛知県","city":"安城市","street":"西別所町"},{"zipCode":"4460075","prefectureKana":"ｱｲﾁｹﾝ","cityKana":"ｱﾝｼﾞｮｳｼ","streetKana":"ﾆﾎﾝｷﾞｼﾝﾏﾁ","prefecture":"愛知県","city":"安城市","street":"二本木新町"},{"zipCode":"4460054","prefectureKana":"ｱｲﾁｹﾝ","cityKana":"ｱﾝｼﾞｮｳｼ","streetKana":"ﾆﾎﾝｷﾞﾁｮｳ","prefecture":"愛知県","city":"安城市","street":"二本木町"},{"zipCode":"4460002","prefectureKana":"ｱｲﾁｹﾝ","cityKana":"ｱﾝｼﾞｮｳｼ","streetKana":"ﾊｼﾒﾁｮｳ","prefecture":"愛知県","city":"安城市","street":"橋目町"},{"zipCode":"4460039","prefectureKana":"ｱｲﾁｹﾝ","cityKana":"ｱﾝｼﾞｮｳｼ","streetKana":"ﾊﾅﾉｷﾁｮｳ","prefecture":"愛知県","city":"安城市","street":"花ノ木町"},{"zipCode":"4460022","prefectureKana":"ｱｲﾁｹﾝ","cityKana":"ｱﾝｼﾞｮｳｼ","streetKana":"ﾊﾏﾄﾐﾁｮｳ","prefecture":"愛知県","city":"安城市","street":"浜富町"},{"zipCode":"4460006","prefectureKana":"ｱｲﾁｹﾝ","cityKana":"ｱﾝｼﾞｮｳｼ","streetKana":"ﾊﾏﾔﾁｮｳ","prefecture":"愛知県","city":"安城市","street":"浜屋町"},{"zipCode":"4460013","prefectureKana":"ｱｲﾁｹﾝ","cityKana":"ｱﾝｼﾞｮｳｼ","streetKana":"ﾋｶﾞｼﾍﾞｯｼｮﾁｮｳ","prefecture":"愛知県","city":"安城市","street":"東別所町"},{"zipCode":"4460033","prefectureKana":"ｱｲﾁｹﾝ","cityKana":"ｱﾝｼﾞｮｳｼ","streetKana":"ﾋﾉﾃﾞﾁｮｳ","prefecture":"愛知県","city":"安城市","street":"日の出町"},{"zipCode":"4460044","prefectureKana":"ｱｲﾁｹﾝ","cityKana":"ｱﾝｼﾞｮｳｼ","streetKana":"ﾋｬｯｺｸﾁｮｳ","prefecture":"愛知県","city":"安城市","street":"百石町"},{"zipCode":"4460052","prefectureKana":"ｱｲﾁｹﾝ","cityKana":"ｱﾝｼﾞｮｳｼ","streetKana":"ﾌｶﾏﾁｮｳ","prefecture":"愛知県","city":"安城市","street":"福釜町"},{"zipCode":"4460025","prefectureKana":"ｱｲﾁｹﾝ","cityKana":"ｱﾝｼﾞｮｳｼ","streetKana":"ﾌﾙｲﾁｮｳ","prefecture":"愛知県","city":"安城市","street":"古井町"},{"zipCode":"4460014","prefectureKana":"ｱｲﾁｹﾝ","cityKana":"ｱﾝｼﾞｮｳｼ","streetKana":"ﾍﾞﾂｺﾞｳﾁｮｳ","prefecture":"愛知県","city":"安城市","street":"別郷町"},{"zipCode":"4460064","prefectureKana":"ｱｲﾁｹﾝ","cityKana":"ｱﾝｼﾞｮｳｼ","streetKana":"ﾍﾞﾝﾃﾝﾁｮｳ","prefecture":"愛知県","city":"安城市","street":"弁天町"},{"zipCode":"4460021","prefectureKana":"ｱｲﾁｹﾝ","cityKana":"ｱﾝｼﾞｮｳｼ","streetKana":"ﾎｳﾚﾝﾁｮｳ","prefecture":"愛知県","city":"安城市","street":"法連町"},{"zipCode":"4460056","prefectureKana":"ｱｲﾁｹﾝ","cityKana":"ｱﾝｼﾞｮｳｼ","streetKana":"ﾐｶﾜｱﾝｼﾞｮｳﾁｮｳ","prefecture":"愛知県","city":"安城市","street":"三河安城町"},{"zipCode":"4460057","prefectureKana":"ｱｲﾁｹﾝ","cityKana":"ｱﾝｼﾞｮｳｼ","streetKana":"ﾐｶﾜｱﾝｼﾞｮｳﾋｶﾞｼﾏﾁ","prefecture":"愛知県","city":"安城市","street":"三河安城東町"},{"zipCode":"4460059","prefectureKana":"ｱｲﾁｹﾝ","cityKana":"ｱﾝｼﾞｮｳｼ","streetKana":"ﾐｶﾜｱﾝｼﾞｮｳﾎﾝﾏﾁ","prefecture":"愛知県","city":"安城市","street":"三河安城本町"},{"zipCode":"4460058","prefectureKana":"ｱｲﾁｹﾝ","cityKana":"ｱﾝｼﾞｮｳｼ","streetKana":"ﾐｶﾜｱﾝｼﾞｮｳﾐﾅﾐﾏﾁ","prefecture":"愛知県","city":"安城市","street":"三河安城南町"},{"zipCode":"4460076","prefectureKana":"ｱｲﾁｹﾝ","cityKana":"ｱﾝｼﾞｮｳｼ","streetKana":"ﾐｿﾉﾁｮｳ","prefecture":"愛知県","city":"安城市","street":"美園町"},{"zipCode":"4460055","prefectureKana":"ｱｲﾁｹﾝ","cityKana":"ｱﾝｼﾞｮｳｼ","streetKana":"ﾐﾄﾞﾘﾁｮｳ","prefecture":"愛知県","city":"安城市","street":"緑町"},{"zipCode":"4460034","prefectureKana":"ｱｲﾁｹﾝ","cityKana":"ｱﾝｼﾞｮｳｼ","streetKana":"ﾐﾅﾐﾏﾁ","prefecture":"愛知県","city":"安城市","street":"南町"},{"zipCode":"4460051","prefectureKana":"ｱｲﾁｹﾝ","cityKana":"ｱﾝｼﾞｮｳｼ","streetKana":"ﾐﾉﾜﾁｮｳ","prefecture":"愛知県","city":"安城市","street":"箕輪町"},{"zipCode":"4460032","prefectureKana":"ｱｲﾁｹﾝ","cityKana":"ｱﾝｼﾞｮｳｼ","streetKana":"ﾐﾕｷﾎﾝﾏﾁ","prefecture":"愛知県","city":"安城市","street":"御幸本町"},{"zipCode":"4460062","prefectureKana":"ｱｲﾁｹﾝ","cityKana":"ｱﾝｼﾞｮｳｼ","streetKana":"ﾒｲｼﾞﾎﾝﾏﾁ","prefecture":"愛知県","city":"安城市","street":"明治本町"},{"zipCode":"4460016","prefectureKana":"ｱｲﾁｹﾝ","cityKana":"ｱﾝｼﾞｮｳｼ","streetKana":"ﾔﾏｻﾞｷﾁｮｳ","prefecture":"愛知県","city":"安城市","street":"山崎町"},{"zipCode":"4460045","prefectureKana":"ｱｲﾁｹﾝ","cityKana":"ｱﾝｼﾞｮｳｼ","streetKana":"ﾖｺﾔﾏﾁｮｳ","prefecture":"愛知県","city":"安城市","street":"横山町"}]