[{"zipCode":"4470000","prefectureKana":"ｱｲﾁｹﾝ","cityKana":"ﾍｷﾅﾝｼ","streetKana":"ｲｶﾆｹｲｻｲｶﾞﾅｲﾊﾞｱｲ","prefecture":"愛知県","city":"碧南市","street":"以下に掲載がない場合"},{"zipCode":"4470862","prefectureKana":"ｱｲﾁｹﾝ","cityKana":"ﾍｷﾅﾝｼ","streetKana":"ｱｲｵｲﾏﾁ","prefecture":"愛知県","city":"碧南市","street":"相生町"},{"zipCode":"4470866","prefectureKana":"ｱｲﾁｹﾝ","cityKana":"ﾍｷﾅﾝｼ","streetKana":"ｱｶｼﾏﾁ","prefecture":"愛知県","city":"碧南市","street":"明石町"},{"zipCode":"4470022","prefectureKana":"ｱｲﾁｹﾝ","cityKana":"ﾍｷﾅﾝｼ","streetKana":"ｱｻﾋﾏﾁ","prefecture":"愛知県","city":"碧南市","street":"旭町"},{"zipCode":"4470865","prefectureKana":"ｱｲﾁｹﾝ","cityKana":"ﾍｷﾅﾝｼ","streetKana":"ｱｻﾏﾏﾁ","prefecture":"愛知県","city":"碧南市","street":"浅間町"},{"zipCode":"4470083","prefectureKana":"ｱｲﾁｹﾝ","cityKana":"ﾍｷﾅﾝｼ","streetKana":"ｱﾌﾞﾗﾌﾁﾏﾁ","prefecture":"愛知県","city":"碧南市","street":"油渕町"},{"zipCode":"4470813","prefectureKana":"ｱｲﾁｹﾝ","cityKana":"ﾍｷﾅﾝｼ","streetKana":"ｱﾏｲｹﾏﾁ","prefecture":"愛知県","city":"碧南市","street":"雨池町"},{"zipCode":"4470068","prefectureKana":"ｱｲﾁｹﾝ","cityKana":"ﾍｷﾅﾝｼ","streetKana":"ｱﾗｲﾏﾁ","prefecture":"愛知県","city":"碧南市","street":"荒居町"},{"zipCode":"4470038","prefectureKana":"ｱｲﾁｹﾝ","cityKana":"ﾍｷﾅﾝｼ","streetKana":"ｱﾗｺﾏﾁ","prefecture":"愛知県","city":"碧南市","street":"荒子町"},{"zipCode":"4470002","prefectureKana":"ｱｲﾁｹﾝ","cityKana":"ﾍｷﾅﾝｼ","streetKana":"ｲｸﾞﾁﾏﾁ","prefecture":"愛知県","city":"碧南市","street":"井口町"},{"zipCode":"4470023","prefectureKana":"ｱｲﾁｹﾝ","cityKana":"ﾍｷﾅﾝｼ","streetKana":"ｲｹｼﾀﾏﾁ","prefecture":"愛知県","city":"碧南市","street":"池下町"},{"zipCode":"4470858","prefectureKana":"ｱｲﾁｹﾝ","cityKana":"ﾍｷﾅﾝｼ","streetKana":"ｲｼﾊﾞｼﾏﾁ","prefecture":"愛知県","city":"碧南市","street":"石橋町"},{"zipCode":"4470837","prefectureKana":"ｱｲﾁｹﾝ","cityKana":"ﾍｷﾅﾝｼ","streetKana":"ｲｾﾏﾁ","prefecture":"愛知県","city":"碧南市","street":"伊勢町"},{"zipCode":"4470821","prefectureKana":"ｱｲﾁｹﾝ","cityKana":"ﾍｷﾅﾝｼ","streetKana":"ｲﾅﾘﾏﾁ","prefecture":"愛知県","city":"碧南市","street":"稲荷町"},{"zipCode":"4470831","prefectureKana":"ｱｲﾁｹﾝ","cityKana":"ﾍｷﾅﾝｼ","streetKana":"ｲﾘﾌﾈﾏﾁ","prefecture":"愛知県","city":"碧南市","street":"入船町"},{"zipCode":"4470047","prefectureKana":"ｱｲﾁｹﾝ","cityKana":"ﾍｷﾅﾝｼ","streetKana":"ｳｴﾀﾞｼﾏﾁ","prefecture":"愛知県","city":"碧南市","street":"植出町"},{"zipCode":"4470825","prefectureKana":"ｱｲﾁｹﾝ","cityKana":"ﾍｷﾅﾝｼ","streetKana":"ｴｸﾞﾁﾏﾁ","prefecture":"愛知県","city":"碧南市","street":"江口町"},{"zipCode":"4470008","prefectureKana":"ｱｲﾁｹﾝ","cityKana":"ﾍｷﾅﾝｼ","streetKana":"ｵｵｸﾃﾏﾁ","prefecture":"愛知県","city":"碧南市","street":"大久手町"},{"zipCode":"4470012","prefectureKana":"ｱｲﾁｹﾝ","cityKana":"ﾍｷﾅﾝｼ","streetKana":"ｵｵﾂﾎﾞﾏﾁ","prefecture":"愛知県","city":"碧南市","street":"大坪町"},{"zipCode":"4470025","prefectureKana":"ｱｲﾁｹﾝ","cityKana":"ﾍｷﾅﾝｼ","streetKana":"ｵｵﾂﾞﾂﾐﾏﾁ","prefecture":"愛知県","city":"碧南市","street":"大堤町"},{"zipCode":"4470857","prefectureKana":"ｱｲﾁｹﾝ","cityKana":"ﾍｷﾅﾝｼ","streetKana":"ｵｵﾊﾏｶﾐﾏﾁ","prefecture":"愛知県","city":"碧南市","street":"大浜上町"},{"zipCode":"4470017","prefectureKana":"ｱｲﾁｹﾝ","cityKana":"ﾍｷﾅﾝｼ","streetKana":"ｵｸｻﾜﾏﾁ","prefecture":"愛知県","city":"碧南市","street":"奥沢町"},{"zipCode":"4470014","prefectureKana":"ｱｲﾁｹﾝ","cityKana":"ﾍｷﾅﾝｼ","streetKana":"ｵｻﾀﾞﾏﾁ","prefecture":"愛知県","city":"碧南市","street":"長田町"},{"zipCode":"4470036","prefectureKana":"ｱｲﾁｹﾝ","cityKana":"ﾍｷﾅﾝｼ","streetKana":"ｵｼﾞﾛﾏﾁ","prefecture":"愛知県","city":"碧南市","street":"尾城町"},{"zipCode":"4470847","prefectureKana":"ｱｲﾁｹﾝ","cityKana":"ﾍｷﾅﾝｼ","streetKana":"ｵﾄﾊﾏﾁ","prefecture":"愛知県","city":"碧南市","street":"音羽町"},{"zipCode":"4470045","prefectureKana":"ｱｲﾁｹﾝ","cityKana":"ﾍｷﾅﾝｼ","streetKana":"ｶｺﾞﾀﾏﾁ","prefecture":"愛知県","city":"碧南市","street":"篭田町"},{"zipCode":"4470888","prefectureKana":"ｱｲﾁｹﾝ","cityKana":"ﾍｷﾅﾝｼ","streetKana":"ｶｽｶﾞﾏﾁ","prefecture":"愛知県","city":"碧南市","street":"春日町"},{"zipCode":"4470881","prefectureKana":"ｱｲﾁｹﾝ","cityKana":"ﾍｷﾅﾝｼ","streetKana":"ｶｽﾐｳﾗﾏﾁ","prefecture":"愛知県","city":"碧南市","street":"霞浦町"},{"zipCode":"4470085","prefectureKana":"ｱｲﾁｹﾝ","cityKana":"ﾍｷﾅﾝｼ","streetKana":"ｶﾅﾔﾏﾏﾁ","prefecture":"愛知県","city":"碧南市","street":"金山町"},{"zipCode":"4470028","prefectureKana":"ｱｲﾁｹﾝ","cityKana":"ﾍｷﾅﾝｼ","streetKana":"ｶﾐｱﾘﾏﾁ","prefecture":"愛知県","city":"碧南市","street":"神有町"},{"zipCode":"4470074","prefectureKana":"ｱｲﾁｹﾝ","cityKana":"ﾍｷﾅﾝｼ","streetKana":"ｶﾐﾏﾁ","prefecture":"愛知県","city":"碧南市","street":"上町"},{"zipCode":"4470024","prefectureKana":"ｱｲﾁｹﾝ","cityKana":"ﾍｷﾅﾝｼ","streetKana":"ｶﾒｱﾅﾏﾁ","prefecture":"愛知県","city":"碧南市","street":"亀穴町"},{"zipCode":"4470822","prefectureKana":"ｱｲﾁｹﾝ","cityKana":"ﾍｷﾅﾝｼ","streetKana":"ｶﾜｶﾀﾏﾁ","prefecture":"愛知県","city":"碧南市","street":"河方町"},{"zipCode":"4470823","prefectureKana":"ｱｲﾁｹﾝ","cityKana":"ﾍｷﾅﾝｼ","streetKana":"ｶﾜｸﾞﾁﾁｮｳ","prefecture":"愛知県","city":"碧南市","street":"川口町"},{"zipCode":"4470817","prefectureKana":"ｱｲﾁｹﾝ","cityKana":"ﾍｷﾅﾝｼ","streetKana":"ｶﾜﾊﾞﾀﾏﾁ","prefecture":"愛知県","city":"碧南市","street":"川端町"},{"zipCode":"4470016","prefectureKana":"ｱｲﾁｹﾝ","cityKana":"ﾍｷﾅﾝｼ","streetKana":"ｶﾝﾀﾞﾏﾁ","prefecture":"愛知県","city":"碧南市","street":"神田町"},{"zipCode":"4470003","prefectureKana":"ｱｲﾁｹﾝ","cityKana":"ﾍｷﾅﾝｼ","streetKana":"ｶﾞﾝﾐﾁﾏﾁ","prefecture":"愛知県","city":"碧南市","street":"雁道町"},{"zipCode":"4470032","prefectureKana":"ｱｲﾁｹﾝ","cityKana":"ﾍｷﾅﾝｼ","streetKana":"ｷﾀｳﾗﾏﾁ","prefecture":"愛知県","city":"碧南市","street":"北浦町"},{"zipCode":"4470001","prefectureKana":"ｱｲﾁｹﾝ","cityKana":"ﾍｷﾅﾝｼ","streetKana":"ｷﾀﾏﾁ","prefecture":"愛知県","city":"碧南市","street":"北町"},{"zipCode":"4470065","prefectureKana":"ｱｲﾁｹﾝ","cityKana":"ﾍｷﾅﾝｼ","streetKana":"ｸｸﾞﾂﾏﾁ","prefecture":"愛知県","city":"碧南市","street":"久沓町"},{"zipCode":"4470873","prefectureKana":"ｱｲﾁｹﾝ","cityKana":"ﾍｷﾅﾝｼ","streetKana":"ｸﾘﾔﾏﾏﾁ","prefecture":"愛知県","city":"碧南市","street":"栗山町"},{"zipCode":"4470872","prefectureKana":"ｱｲﾁｹﾝ","cityKana":"ﾍｷﾅﾝｼ","streetKana":"ｹﾞﾝｼﾞｼﾝﾒｲﾏﾁ","prefecture":"愛知県","city":"碧南市","street":"源氏神明町"},{"zipCode":"4470886","prefectureKana":"ｱｲﾁｹﾝ","cityKana":"ﾍｷﾅﾝｼ","streetKana":"ｹﾞﾝｼﾞﾏﾁ","prefecture":"愛知県","city":"碧南市","street":"源氏町"},{"zipCode":"4470034","prefectureKana":"ｱｲﾁｹﾝ","cityKana":"ﾍｷﾅﾝｼ","streetKana":"ｺｳｼﾞﾏﾏﾁ","prefecture":"愛知県","city":"碧南市","street":"鴻島町"},{"zipCode":"4470824","prefectureKana":"ｱｲﾁｹﾝ","cityKana":"ﾍｷﾅﾝｼ","streetKana":"ｺｳﾅﾝﾏﾁ","prefecture":"愛知県","city":"碧南市","street":"港南町"},{"zipCode":"4470871","prefectureKana":"ｱｲﾁｹﾝ","cityKana":"ﾍｷﾅﾝｼ","streetKana":"ｺｳﾖｳﾏﾁ","prefecture":"愛知県","city":"碧南市","street":"向陽町"},{"zipCode":"4470082","prefectureKana":"ｱｲﾁｹﾝ","cityKana":"ﾍｷﾅﾝｼ","streetKana":"ｺｾｲﾏﾁ","prefecture":"愛知県","city":"碧南市","street":"湖西町"},{"zipCode":"4470809","prefectureKana":"ｱｲﾁｹﾝ","cityKana":"ﾍｷﾅﾝｼ","streetKana":"ｺﾔｼﾀﾏﾁ","prefecture":"愛知県","city":"碧南市","street":"小屋下町"},{"zipCode":"4470833","prefectureKana":"ｱｲﾁｹﾝ","cityKana":"ﾍｷﾅﾝｼ","streetKana":"ｺﾞﾝｹﾞﾝﾏﾁ","prefecture":"愛知県","city":"碧南市","street":"権現町"},{"zipCode":"4470838","prefectureKana":"ｱｲﾁｹﾝ","cityKana":"ﾍｷﾅﾝｼ","streetKana":"ｺﾞﾝﾀﾞﾏﾁ","prefecture":"愛知県","city":"碧南市","street":"権田町"},{"zipCode":"4470043","prefectureKana":"ｱｲﾁｹﾝ","cityKana":"ﾍｷﾅﾝｼ","streetKana":"ｻｲﾜｲﾏﾁ","prefecture":"愛知県","city":"碧南市","street":"幸町"},{"zipCode":"4470877","prefectureKana":"ｱｲﾁｹﾝ","cityKana":"ﾍｷﾅﾝｼ","streetKana":"ｻｶｴﾏﾁ","prefecture":"愛知県","city":"碧南市","street":"栄町"},{"zipCode":"4470087","prefectureKana":"ｱｲﾁｹﾝ","cityKana":"ﾍｷﾅﾝｼ","streetKana":"ｻｶｸﾞﾁﾏﾁ","prefecture":"愛知県","city":"碧南市","street":"坂口町"},{"zipCode":"4470874","prefectureKana":"ｱｲﾁｹﾝ","cityKana":"ﾍｷﾅﾝｼ","streetKana":"ｻｸﾂﾞｶﾏﾁ","prefecture":"愛知県","city":"碧南市","street":"作塚町"},{"zipCode":"4470053","prefectureKana":"ｱｲﾁｹﾝ","cityKana":"ﾍｷﾅﾝｼ","streetKana":"ｻｻﾔﾏﾏﾁ","prefecture":"愛知県","city":"碧南市","street":"笹山町"},{"zipCode":"4470879","prefectureKana":"ｱｲﾁｹﾝ","cityKana":"ﾍｷﾅﾝｼ","streetKana":"ｻﾜﾀﾘﾏﾁ","prefecture":"愛知県","city":"碧南市","street":"沢渡町"},{"zipCode":"4470803","prefectureKana":"ｱｲﾁｹﾝ","cityKana":"ﾍｷﾅﾝｼ","streetKana":"ｻﾝｶｸﾏﾁ","prefecture":"愛知県","city":"碧南市","street":"三角町"},{"zipCode":"4470806","prefectureKana":"ｱｲﾁｹﾝ","cityKana":"ﾍｷﾅﾝｼ","streetKana":"ｻﾝｹﾞﾝﾏﾁ","prefecture":"愛知県","city":"碧南市","street":"三間町"},{"zipCode":"4470061","prefectureKana":"ｱｲﾁｹﾝ","cityKana":"ﾍｷﾅﾝｼ","streetKana":"ｻﾝﾄﾞﾔﾏﾏﾁ","prefecture":"愛知県","city":"碧南市","street":"三度山町"},{"zipCode":"4470887","prefectureKana":"ｱｲﾁｹﾝ","cityKana":"ﾍｷﾅﾝｼ","streetKana":"ｼｵﾀﾏﾁ","prefecture":"愛知県","city":"碧南市","street":"汐田町"},{"zipCode":"4470841","prefectureKana":"ｱｲﾁｹﾝ","cityKana":"ﾍｷﾅﾝｼ","streetKana":"ｼｵﾊﾏﾏﾁ","prefecture":"愛知県","city":"碧南市","street":"塩浜町"},{"zipCode":"4470828","prefectureKana":"ｱｲﾁｹﾝ","cityKana":"ﾍｷﾅﾝｼ","streetKana":"ｼｵﾐﾏﾁ","prefecture":"愛知県","city":"碧南市","street":"潮見町"},{"zipCode":"4470816","prefectureKana":"ｱｲﾁｹﾝ","cityKana":"ﾍｷﾅﾝｼ","streetKana":"ｼｷｻｷﾏﾁ","prefecture":"愛知県","city":"碧南市","street":"志貴崎町"},{"zipCode":"4470885","prefectureKana":"ｱｲﾁｹﾝ","cityKana":"ﾍｷﾅﾝｼ","streetKana":"ｼｷﾏﾁ","prefecture":"愛知県","city":"碧南市","street":"志貴町"},{"zipCode":"4470078","prefectureKana":"ｱｲﾁｹﾝ","cityKana":"ﾍｷﾅﾝｼ","streetKana":"ｼﾏｲｹﾏﾁ","prefecture":"愛知県","city":"碧南市","street":"島池町"},{"zipCode":"4470072","prefectureKana":"ｱｲﾁｹﾝ","cityKana":"ﾍｷﾅﾝｼ","streetKana":"ｼﾐｽﾞﾏﾁ","prefecture":"愛知県","city":"碧南市","street":"清水町"},{"zipCode":"4470883","prefectureKana":"ｱｲﾁｹﾝ","cityKana":"ﾍｷﾅﾝｼ","streetKana":"ｼﾓｽﾏﾁ","prefecture":"愛知県","city":"碧南市","street":"下洲町"},{"zipCode":"4470027","prefectureKana":"ｱｲﾁｹﾝ","cityKana":"ﾍｷﾅﾝｼ","streetKana":"ｼｮｳｺｳﾏﾁ","prefecture":"愛知県","city":"碧南市","street":"照光町"},{"zipCode":"4470013","prefectureKana":"ｱｲﾁｹﾝ","cityKana":"ﾍｷﾅﾝｼ","streetKana":"ｼﾛｻﾜﾏﾁ","prefecture":"愛知県","city":"碧南市","street":"白沢町"},{"zipCode":"4470076","prefectureKana":"ｱｲﾁｹﾝ","cityKana":"ﾍｷﾅﾝｼ","streetKana":"ｼﾛｽﾅﾏﾁ","prefecture":"愛知県","city":"碧南市","street":"白砂町"},{"zipCode":"4470037","prefectureKana":"ｱｲﾁｹﾝ","cityKana":"ﾍｷﾅﾝｼ","streetKana":"ｼﾛﾔﾏﾏﾁ","prefecture":"愛知県","city":"碧南市","street":"城山町"},{"zipCode":"4470863","prefectureKana":"ｱｲﾁｹﾝ","cityKana":"ﾍｷﾅﾝｼ","streetKana":"ｼﾝｶﾜﾏﾁ","prefecture":"愛知県","city":"碧南市","street":"新川町"},{"zipCode":"4470052","prefectureKana":"ｱｲﾁｹﾝ","cityKana":"ﾍｷﾅﾝｼ","streetKana":"ｼﾝﾐﾁﾏﾁ","prefecture":"愛知県","city":"碧南市","street":"新道町"},{"zipCode":"4470044","prefectureKana":"ｱｲﾁｹﾝ","cityKana":"ﾍｷﾅﾝｼ","streetKana":"ｽｴﾋﾛﾏﾁ","prefecture":"愛知県","city":"碧南市","street":"末広町"},{"zipCode":"4470086","prefectureKana":"ｱｲﾁｹﾝ","cityKana":"ﾍｷﾅﾝｼ","streetKana":"ｽｻｷﾏﾁ","prefecture":"愛知県","city":"碧南市","street":"洲先町"},{"zipCode":"4470854","prefectureKana":"ｱｲﾁｹﾝ","cityKana":"ﾍｷﾅﾝｼ","streetKana":"ｽﾏﾏﾁ","prefecture":"愛知県","city":"碧南市","street":"須磨町"},{"zipCode":"4470058","prefectureKana":"ｱｲﾁｹﾝ","cityKana":"ﾍｷﾅﾝｼ","streetKana":"ｽﾐﾖｼﾏﾁ","prefecture":"愛知県","city":"碧南市","street":"住吉町"},{"zipCode":"4470056","prefectureKana":"ｱｲﾁｹﾝ","cityKana":"ﾍｷﾅﾝｼ","streetKana":"ｾﾝﾌﾞｸﾏﾁ","prefecture":"愛知県","city":"碧南市","street":"千福町"},{"zipCode":"4470875","prefectureKana":"ｱｲﾁｹﾝ","cityKana":"ﾍｷﾅﾝｼ","streetKana":"ｾﾞﾝﾒｲﾏﾁ","prefecture":"愛知県","city":"碧南市","street":"善明町"},{"zipCode":"4470006","prefectureKana":"ｱｲﾁｹﾝ","cityKana":"ﾍｷﾅﾝｼ","streetKana":"ﾀｶﾗﾏﾁ","prefecture":"愛知県","city":"碧南市","street":"宝町"},{"zipCode":"4470007","prefectureKana":"ｱｲﾁｹﾝ","cityKana":"ﾍｷﾅﾝｼ","streetKana":"ﾀｹﾊﾗﾏﾁ","prefecture":"愛知県","city":"碧南市","street":"竹原町"},{"zipCode":"4470867","prefectureKana":"ｱｲﾁｹﾝ","cityKana":"ﾍｷﾅﾝｼ","streetKana":"ﾀｼﾞﾘﾏﾁ","prefecture":"愛知県","city":"碧南市","street":"田尻町"},{"zipCode":"4470075","prefectureKana":"ｱｲﾁｹﾝ","cityKana":"ﾍｷﾅﾝｼ","streetKana":"ﾀﾃﾔﾏﾏﾁ","prefecture":"愛知県","city":"碧南市","street":"立山町"},{"zipCode":"4470815","prefectureKana":"ｱｲﾁｹﾝ","cityKana":"ﾍｷﾅﾝｼ","streetKana":"ﾀﾅｵﾎﾝﾏﾁ","prefecture":"愛知県","city":"碧南市","street":"棚尾本町"},{"zipCode":"4470834","prefectureKana":"ｱｲﾁｹﾝ","cityKana":"ﾍｷﾅﾝｼ","streetKana":"ﾀﾏﾂｳﾗﾏﾁ","prefecture":"愛知県","city":"碧南市","street":"玉津浦町"},{"zipCode":"4470849","prefectureKana":"ｱｲﾁｹﾝ","cityKana":"ﾍｷﾅﾝｼ","streetKana":"ﾂｷﾔﾏﾏﾁ","prefecture":"愛知県","city":"碧南市","street":"築山町"},{"zipCode":"4470057","prefectureKana":"ｱｲﾁｹﾝ","cityKana":"ﾍｷﾅﾝｼ","streetKana":"ﾂﾙﾐﾏﾁ","prefecture":"愛知県","city":"碧南市","street":"鶴見町"},{"zipCode":"4470033","prefectureKana":"ｱｲﾁｹﾝ","cityKana":"ﾍｷﾅﾝｼ","streetKana":"ﾃﾝｼﾞﾝﾏﾁ","prefecture":"愛知県","city":"碧南市","street":"天神町"},{"zipCode":"4470855","prefectureKana":"ｱｲﾁｹﾝ","cityKana":"ﾍｷﾅﾝｼ","streetKana":"ﾃﾝﾉｳﾏﾁ","prefecture":"愛知県","city":"碧南市","street":"天王町"},{"zipCode":"4470864","prefectureKana":"ｱｲﾁｹﾝ","cityKana":"ﾍｷﾅﾝｼ","streetKana":"ﾄﾞｳｼﾞｮｳﾔﾏﾏﾁ","prefecture":"愛知県","city":"碧南市","street":"道場山町"},{"zipCode":"4470073","prefectureKana":"ｱｲﾁｹﾝ","cityKana":"ﾍｷﾅﾝｼ","streetKana":"ﾄﾘｵｲﾏﾁ","prefecture":"愛知県","city":"碧南市","street":"鳥追町"},{"zipCode":"4470812","prefectureKana":"ｱｲﾁｹﾝ","cityKana":"ﾍｷﾅﾝｼ","streetKana":"ﾅｶｴﾏﾁ","prefecture":"愛知県","city":"碧南市","street":"中江町"},{"zipCode":"4470042","prefectureKana":"ｱｲﾁｹﾝ","cityKana":"ﾍｷﾅﾝｼ","streetKana":"ﾅｶｺﾞﾏﾁ","prefecture":"愛知県","city":"碧南市","street":"中後町"},{"zipCode":"4470829","prefectureKana":"ｱｲﾁｹﾝ","cityKana":"ﾍｷﾅﾝｼ","streetKana":"ﾅｶﾀﾏﾁ","prefecture":"愛知県","city":"碧南市","street":"中田町"},{"zipCode":"4470846","prefectureKana":"ｱｲﾁｹﾝ","cityKana":"ﾍｷﾅﾝｼ","streetKana":"ﾅｶﾏﾁ","prefecture":"愛知県","city":"碧南市","street":"中町"},{"zipCode":"4470859","prefectureKana":"ｱｲﾁｹﾝ","cityKana":"ﾍｷﾅﾝｼ","streetKana":"ﾅｶﾏﾂﾏﾁ","prefecture":"愛知県","city":"碧南市","street":"中松町"},{"zipCode":"4470035","prefectureKana":"ｱｲﾁｹﾝ","cityKana":"ﾍｷﾅﾝｼ","streetKana":"ﾅｶﾔﾏﾏﾁ","prefecture":"愛知県","city":"碧南市","street":"中山町"},{"zipCode":"4470021","prefectureKana":"ｱｲﾁｹﾝ","cityKana":"ﾍｷﾅﾝｼ","streetKana":"ﾅﾜﾃﾏﾁ","prefecture":"愛知県","city":"碧南市","street":"縄手町"},{"zipCode":"4470848","prefectureKana":"ｱｲﾁｹﾝ","cityKana":"ﾍｷﾅﾝｼ","streetKana":"ﾆｼｷﾏﾁ","prefecture":"愛知県","city":"碧南市","street":"錦町"},{"zipCode":"4470843","prefectureKana":"ｱｲﾁｹﾝ","cityKana":"ﾍｷﾅﾝｼ","streetKana":"ﾆｼﾊﾏﾏﾁ","prefecture":"愛知県","city":"碧南市","street":"西浜町"},{"zipCode":"4470064","prefectureKana":"ｱｲﾁｹﾝ","cityKana":"ﾍｷﾅﾝｼ","streetKana":"ﾆｼﾔﾏﾏﾁ","prefecture":"愛知県","city":"碧南市","street":"西山町"},{"zipCode":"4470882","prefectureKana":"ｱｲﾁｹﾝ","cityKana":"ﾍｷﾅﾝｼ","streetKana":"ﾆｯｼﾝﾏﾁ","prefecture":"愛知県","city":"碧南市","street":"日進町"},{"zipCode":"4470029","prefectureKana":"ｱｲﾁｹﾝ","cityKana":"ﾍｷﾅﾝｼ","streetKana":"ﾆﾎﾝｷﾞﾏﾁ","prefecture":"愛知県","city":"碧南市","street":"二本木町"},{"zipCode":"4470801","prefectureKana":"ｱｲﾁｹﾝ","cityKana":"ﾍｷﾅﾝｼ","streetKana":"ﾉｾﾝﾏﾁ","prefecture":"愛知県","city":"碧南市","street":"野銭町"},{"zipCode":"4470876","prefectureKana":"ｱｲﾁｹﾝ","cityKana":"ﾍｷﾅﾝｼ","streetKana":"ﾉﾀﾞﾏﾁ","prefecture":"愛知県","city":"碧南市","street":"野田町"},{"zipCode":"4470851","prefectureKana":"ｱｲﾁｹﾝ","cityKana":"ﾍｷﾅﾝｼ","streetKana":"ﾊﾈﾏﾁ","prefecture":"愛知県","city":"碧南市","street":"羽根町"},{"zipCode":"4470055","prefectureKana":"ｱｲﾁｹﾝ","cityKana":"ﾍｷﾅﾝｼ","streetKana":"ﾊﾏｵﾏﾁ","prefecture":"愛知県","city":"碧南市","street":"浜尾町"},{"zipCode":"4470842","prefectureKana":"ｱｲﾁｹﾝ","cityKana":"ﾍｷﾅﾝｼ","streetKana":"ﾊﾏﾀﾞﾏﾁ","prefecture":"愛知県","city":"碧南市","street":"浜田町"},{"zipCode":"4470845","prefectureKana":"ｱｲﾁｹﾝ","cityKana":"ﾍｷﾅﾝｼ","streetKana":"ﾊﾏﾃﾞﾗﾏﾁ","prefecture":"愛知県","city":"碧南市","street":"浜寺町"},{"zipCode":"4470853","prefectureKana":"ｱｲﾁｹﾝ","cityKana":"ﾍｷﾅﾝｼ","streetKana":"ﾊﾏﾏﾁ","prefecture":"愛知県","city":"碧南市","street":"浜町"},{"zipCode":"4470015","prefectureKana":"ｱｲﾁｹﾝ","cityKana":"ﾍｷﾅﾝｼ","streetKana":"ﾊﾝｻﾞｷﾏﾁ","prefecture":"愛知県","city":"碧南市","street":"半崎町"},{"zipCode":"4470889","prefectureKana":"ｱｲﾁｹﾝ","cityKana":"ﾍｷﾅﾝｼ","streetKana":"ﾋｶﾞｼｳﾗﾏﾁ","prefecture":"愛知県","city":"碧南市","street":"東浦町"},{"zipCode":"4470051","prefectureKana":"ｱｲﾁｹﾝ","cityKana":"ﾍｷﾅﾝｼ","streetKana":"ﾋｶﾞｼﾔﾏﾏﾁ","prefecture":"愛知県","city":"碧南市","street":"東山町"},{"zipCode":"4470011","prefectureKana":"ｱｲﾁｹﾝ","cityKana":"ﾍｷﾅﾝｼ","streetKana":"ﾋﾗﾔﾏﾏﾁ","prefecture":"愛知県","city":"碧南市","street":"平山町"},{"zipCode":"4470067","prefectureKana":"ｱｲﾁｹﾝ","cityKana":"ﾍｷﾅﾝｼ","streetKana":"ﾋﾛﾐﾏﾁ","prefecture":"愛知県","city":"碧南市","street":"広見町"},{"zipCode":"4470081","prefectureKana":"ｱｲﾁｹﾝ","cityKana":"ﾍｷﾅﾝｼ","streetKana":"ﾌｷｱｹﾞﾏﾁ","prefecture":"愛知県","city":"碧南市","street":"吹上町"},{"zipCode":"4470048","prefectureKana":"ｱｲﾁｹﾝ","cityKana":"ﾍｷﾅﾝｼ","streetKana":"ﾌｸｼﾐｽﾞﾏﾁ","prefecture":"愛知県","city":"碧南市","street":"福清水町"},{"zipCode":"4470807","prefectureKana":"ｱｲﾁｹﾝ","cityKana":"ﾍｷﾅﾝｼ","streetKana":"ﾌｼﾐﾏﾁ","prefecture":"愛知県","city":"碧南市","street":"伏見町"},{"zipCode":"4470088","prefectureKana":"ｱｲﾁｹﾝ","cityKana":"ﾍｷﾅﾝｼ","streetKana":"ﾌﾀﾞｷﾏﾁ","prefecture":"愛知県","city":"碧南市","street":"札木町"},{"zipCode":"4470811","prefectureKana":"ｱｲﾁｹﾝ","cityKana":"ﾍｷﾅﾝｼ","streetKana":"ﾌﾅｴﾏﾁ","prefecture":"愛知県","city":"碧南市","street":"舟江町"},{"zipCode":"4470054","prefectureKana":"ｱｲﾁｹﾝ","cityKana":"ﾍｷﾅﾝｼ","streetKana":"ﾌﾐﾜｹﾏﾁ","prefecture":"愛知県","city":"碧南市","street":"踏分町"},{"zipCode":"4470062","prefectureKana":"ｱｲﾁｹﾝ","cityKana":"ﾍｷﾅﾝｼ","streetKana":"ﾌﾙｶﾜﾏﾁ","prefecture":"愛知県","city":"碧南市","street":"古川町"},{"zipCode":"4470884","prefectureKana":"ｱｲﾁｹﾝ","cityKana":"ﾍｷﾅﾝｼ","streetKana":"ﾍｲｼﾁﾏﾁ","prefecture":"愛知県","city":"碧南市","street":"平七町"},{"zipCode":"4470084","prefectureKana":"ｱｲﾁｹﾝ","cityKana":"ﾍｷﾅﾝｼ","streetKana":"ﾍｲﾜﾏﾁ","prefecture":"愛知県","city":"碧南市","street":"平和町"},{"zipCode":"4470046","prefectureKana":"ｱｲﾁｹﾝ","cityKana":"ﾍｷﾅﾝｼ","streetKana":"ﾎﾘｶﾀﾏﾁ","prefecture":"愛知県","city":"碧南市","street":"堀方町"},{"zipCode":"4470852","prefectureKana":"ｱｲﾁｹﾝ","cityKana":"ﾍｷﾅﾝｼ","streetKana":"ﾎﾝｺﾞｳﾏﾁ","prefecture":"愛知県","city":"碧南市","street":"本郷町"},{"zipCode":"4470827","prefectureKana":"ｱｲﾁｹﾝ","cityKana":"ﾍｷﾅﾝｼ","streetKana":"ﾏｴﾊﾏﾏﾁ","prefecture":"愛知県","city":"碧南市","street":"前浜町"},{"zipCode":"4470868","prefectureKana":"ｱｲﾁｹﾝ","cityKana":"ﾍｷﾅﾝｼ","streetKana":"ﾏﾂｴﾏﾁ","prefecture":"愛知県","city":"碧南市","street":"松江町"},{"zipCode":"4470079","prefectureKana":"ｱｲﾁｹﾝ","cityKana":"ﾍｷﾅﾝｼ","streetKana":"ﾏﾂﾊﾞﾗﾏﾁ","prefecture":"愛知県","city":"碧南市","street":"松原町"},{"zipCode":"4470878","prefectureKana":"ｱｲﾁｹﾝ","cityKana":"ﾍｷﾅﾝｼ","streetKana":"ﾏﾂﾓﾄﾏﾁ","prefecture":"愛知県","city":"碧南市","street":"松本町"},{"zipCode":"4470066","prefectureKana":"ｱｲﾁｹﾝ","cityKana":"ﾍｷﾅﾝｼ","streetKana":"ﾏﾙﾔﾏﾏﾁ","prefecture":"愛知県","city":"碧南市","street":"丸山町"},{"zipCode":"4470031","prefectureKana":"ｱｲﾁｹﾝ","cityKana":"ﾍｷﾅﾝｼ","streetKana":"ﾐｱｲﾏﾁ","prefecture":"愛知県","city":"碧南市","street":"見合町"},{"zipCode":"4470832","prefectureKana":"ｱｲﾁｹﾝ","cityKana":"ﾍｷﾅﾝｼ","streetKana":"ﾐｻｷﾏﾁ","prefecture":"愛知県","city":"碧南市","street":"岬町"},{"zipCode":"4470041","prefectureKana":"ｱｲﾁｹﾝ","cityKana":"ﾍｷﾅﾝｼ","streetKana":"ﾐﾄﾞﾘﾏﾁ","prefecture":"愛知県","city":"碧南市","street":"緑町"},{"zipCode":"4470844","prefectureKana":"ｱｲﾁｹﾝ","cityKana":"ﾍｷﾅﾝｼ","streetKana":"ﾐﾅﾄﾎﾝﾏﾁ","prefecture":"愛知県","city":"碧南市","street":"港本町"},{"zipCode":"4470026","prefectureKana":"ｱｲﾁｹﾝ","cityKana":"ﾍｷﾅﾝｼ","streetKana":"ﾐﾔｹﾏﾁ","prefecture":"愛知県","city":"碧南市","street":"三宅町"},{"zipCode":"4470856","prefectureKana":"ｱｲﾁｹﾝ","cityKana":"ﾍｷﾅﾝｼ","streetKana":"ﾐﾔｺﾞﾏﾁ","prefecture":"愛知県","city":"碧南市","street":"宮後町"},{"zipCode":"4470835","prefectureKana":"ｱｲﾁｹﾝ","cityKana":"ﾍｷﾅﾝｼ","streetKana":"ﾐﾔﾏﾁ","prefecture":"愛知県","city":"碧南市","street":"宮町"},{"zipCode":"4470071","prefectureKana":"ｱｲﾁｹﾝ","cityKana":"ﾍｷﾅﾝｼ","streetKana":"ﾓﾓﾔﾏﾏﾁ","prefecture":"愛知県","city":"碧南市","street":"桃山町"},{"zipCode":"4470077","prefectureKana":"ｱｲﾁｹﾝ","cityKana":"ﾍｷﾅﾝｼ","streetKana":"ﾔｼｷﾏﾁ","prefecture":"愛知県","city":"碧南市","street":"屋敷町"},{"zipCode":"4470805","prefectureKana":"ｱｲﾁｹﾝ","cityKana":"ﾍｷﾅﾝｼ","streetKana":"ﾔﾅﾜﾏﾁ","prefecture":"愛知県","city":"碧南市","street":"矢縄町"},{"zipCode":"4470869","prefectureKana":"ｱｲﾁｹﾝ","cityKana":"ﾍｷﾅﾝｼ","streetKana":"ﾔﾏｶﾞﾐﾏﾁ","prefecture":"愛知県","city":"碧南市","street":"山神町"},{"zipCode":"4470063","prefectureKana":"ｱｲﾁｹﾝ","cityKana":"ﾍｷﾅﾝｼ","streetKana":"ﾔﾏｼﾀﾏﾁ","prefecture":"愛知県","city":"碧南市","street":"山下町"},{"zipCode":"4470814","prefectureKana":"ｱｲﾁｹﾝ","cityKana":"ﾍｷﾅﾝｼ","streetKana":"ﾔﾖｲﾏﾁ","prefecture":"愛知県","city":"碧南市","street":"弥生町"},{"zipCode":"4470004","prefectureKana":"ｱｲﾁｹﾝ","cityKana":"ﾍｷﾅﾝｼ","streetKana":"ﾖｳｷｭｳﾏﾁ","prefecture":"愛知県","city":"碧南市","street":"用久町"},{"zipCode":"4470826","prefectureKana":"ｱｲﾁｹﾝ","cityKana":"ﾍｷﾅﾝｼ","streetKana":"ﾖｼｵｲﾏﾁ","prefecture":"愛知県","city":"碧南市","street":"葭生町"},{"zipCode":"4470804","prefectureKana":"ｱｲﾁｹﾝ","cityKana":"ﾍｷﾅﾝｼ","streetKana":"ﾘｭｳｻｸﾏﾁ","prefecture":"愛知県","city":"碧南市","street":"流作町"},{"zipCode":"4470861","prefectureKana":"ｱｲﾁｹﾝ","cityKana":"ﾍｷﾅﾝｼ","streetKana":"ﾛｯｹﾝﾏﾁ","prefecture":"愛知県","city":"碧南市","street":"六軒町"},{"zipCode":"4470836","prefectureKana":"ｱｲﾁｹﾝ","cityKana":"ﾍｷﾅﾝｼ","streetKana":"ﾜｶﾏﾂﾏﾁ","prefecture":"愛知県","city":"碧南市","street":"若松町"},{"zipCode":"4470005","prefectureKana":"ｱｲﾁｹﾝ","cityKana":"ﾍｷﾅﾝｼ","streetKana":"ﾜｶﾐｽﾞﾏﾁ","prefecture":"愛知県","city":"碧南市","street":"若水町"},{"zipCode":"4470818","prefectureKana":"ｱｲﾁｹﾝ","cityKana":"ﾍｷﾅﾝｼ","streetKana":"ﾜｶﾐﾔﾏﾁ","prefecture":"愛知県","city":"碧南市","street":"若宮町"},{"zipCode":"4470808","prefectureKana":"ｱｲﾁｹﾝ","cityKana":"ﾍｷﾅﾝｼ","streetKana":"ﾜｼﾂﾞｶﾏﾁ","prefecture":"愛知県","city":"碧南市","street":"鷲塚町"},{"zipCode":"4470802","prefectureKana":"ｱｲﾁｹﾝ","cityKana":"ﾍｷﾅﾝｼ","streetKana":"ﾜｼﾊﾞﾔｼﾏﾁ","prefecture":"愛知県","city":"碧南市","street":"鷲林町"}]