[{"zipCode":"4500007","prefectureKana":"ｱｲﾁｹﾝ","cityKana":"ﾅｺﾞﾔｼﾅｶﾑﾗｸ","streetKana":"ｻｻｼﾏﾁｮｳ","prefecture":"愛知県","city":"名古屋市中村区","street":"笹島町"},{"zipCode":"4500006","prefectureKana":"ｱｲﾁｹﾝ","cityKana":"ﾅｺﾞﾔｼﾅｶﾑﾗｸ","streetKana":"ｼﾓﾋﾛｲﾁｮｳ","prefecture":"愛知県","city":"名古屋市中村区","street":"下広井町"},{"zipCode":"4500001","prefectureKana":"ｱｲﾁｹﾝ","cityKana":"ﾅｺﾞﾔｼﾅｶﾑﾗｸ","streetKana":"ﾅｺﾞﾉ","prefecture":"愛知県","city":"名古屋市中村区","street":"那古野"},{"zipCode":"4500005","prefectureKana":"ｱｲﾁｹﾝ","cityKana":"ﾅｺﾞﾔｼﾅｶﾑﾗｸ","streetKana":"ﾆｼﾋｵｷ","prefecture":"愛知県","city":"名古屋市中村区","street":"西日置"},{"zipCode":"4500004","prefectureKana":"ｱｲﾁｹﾝ","cityKana":"ﾅｺﾞﾔｼﾅｶﾑﾗｸ","streetKana":"ﾏﾂｼｹﾞﾁｮｳ","prefecture":"愛知県","city":"名古屋市中村区","street":"松重町"},{"zipCode":"4506690","prefectureKana":"ｱｲﾁｹﾝ","cityKana":"ﾅｺﾞﾔｼﾅｶﾑﾗｸ","streetKana":"ﾒｲｴｷｼﾞｪｲｱｰﾙｹﾞｰﾄﾀﾜｰ(ﾁｶｲ･ｶｲｿｳﾌﾒｲ)","prefecture":"愛知県","city":"名古屋市中村区","street":"名駅ＪＲゲートタワー（地階・階層不明）"},{"zipCode":"4506601","prefectureKana":"ｱｲﾁｹﾝ","cityKana":"ﾅｺﾞﾔｼﾅｶﾑﾗｸ","streetKana":"ﾒｲｴｷｼﾞｪｲｱｰﾙｹﾞｰﾄﾀﾜｰ(1ｶｲ)","prefecture":"愛知県","city":"名古屋市中村区","street":"名駅ＪＲゲートタワー（１階）"},{"zipCode":"4506602","prefectureKana":"ｱｲﾁｹﾝ","cityKana":"ﾅｺﾞﾔｼﾅｶﾑﾗｸ","streetKana":"ﾒｲｴｷｼﾞｪｲｱｰﾙｹﾞｰﾄﾀﾜｰ(2ｶｲ)","prefecture":"愛知県","city":"名古屋市中村区","street":"名駅ＪＲゲートタワー（２階）"},{"zipCode":"4506603","prefectureKana":"ｱｲﾁｹﾝ","cityKana":"ﾅｺﾞﾔｼﾅｶﾑﾗｸ","streetKana":"ﾒｲｴｷｼﾞｪｲｱｰﾙｹﾞｰﾄﾀﾜｰ(3ｶｲ)","prefecture":"愛知県","city":"名古屋市中村区","street":"名駅ＪＲゲートタワー（３階）"},{"zipCode":"4506604","prefectureKana":"ｱｲﾁｹﾝ","cityKana":"ﾅｺﾞﾔｼﾅｶﾑﾗｸ","streetKana":"ﾒｲｴｷｼﾞｪｲｱｰﾙｹﾞｰﾄﾀﾜｰ(4ｶｲ)","prefecture":"愛知県","city":"名古屋市中村区","street":"名駅ＪＲゲートタワー（４階）"},{"zipCode":"4506605","prefectureKana":"ｱｲﾁｹﾝ","cityKana":"ﾅｺﾞﾔｼﾅｶﾑﾗｸ","streetKana":"ﾒｲｴｷｼﾞｪｲｱｰﾙｹﾞｰﾄﾀﾜｰ(5ｶｲ)","prefecture":"愛知県","city":"名古屋市中村区","street":"名駅ＪＲゲートタワー（５階）"},{"zipCode":"4506606","prefectureKana":"ｱｲﾁｹﾝ","cityKana":"ﾅｺﾞﾔｼﾅｶﾑﾗｸ","streetKana":"ﾒｲｴｷｼﾞｪｲｱｰﾙｹﾞｰﾄﾀﾜｰ(6ｶｲ)","prefecture":"愛知県","city":"名古屋市中村区","street":"名駅ＪＲゲートタワー（６階）"},{"zipCode":"4506607","prefectureKana":"ｱｲﾁｹﾝ","cityKana":"ﾅｺﾞﾔｼﾅｶﾑﾗｸ","streetKana":"ﾒｲｴｷｼﾞｪｲｱｰﾙｹﾞｰﾄﾀﾜｰ(7ｶｲ)","prefecture":"愛知県","city":"名古屋市中村区","street":"名駅ＪＲゲートタワー（７階）"},{"zipCode":"4506608","prefectureKana":"ｱｲﾁｹﾝ","cityKana":"ﾅｺﾞﾔｼﾅｶﾑﾗｸ","streetKana":"ﾒｲｴｷｼﾞｪｲｱｰﾙｹﾞｰﾄﾀﾜｰ(8ｶｲ)","prefecture":"愛知県","city":"名古屋市中村区","street":"名駅ＪＲゲートタワー（８階）"},{"zipCode":"4506609","prefectureKana":"ｱｲﾁｹﾝ","cityKana":"ﾅｺﾞﾔｼﾅｶﾑﾗｸ","streetKana":"ﾒｲｴｷｼﾞｪｲｱｰﾙｹﾞｰﾄﾀﾜｰ(9ｶｲ)","prefecture":"愛知県","city":"名古屋市中村区","street":"名駅ＪＲゲートタワー（９階）"},{"zipCode":"4506610","prefectureKana":"ｱｲﾁｹﾝ","cityKana":"ﾅｺﾞﾔｼﾅｶﾑﾗｸ","streetKana":"ﾒｲｴｷｼﾞｪｲｱｰﾙｹﾞｰﾄﾀﾜｰ(10ｶｲ)","prefecture":"愛知県","city":"名古屋市中村区","street":"名駅ＪＲゲートタワー（１０階）"},{"zipCode":"4506611","prefectureKana":"ｱｲﾁｹﾝ","cityKana":"ﾅｺﾞﾔｼﾅｶﾑﾗｸ","streetKana":"ﾒｲｴｷｼﾞｪｲｱｰﾙｹﾞｰﾄﾀﾜｰ(11ｶｲ)","prefecture":"愛知県","city":"名古屋市中村区","street":"名駅ＪＲゲートタワー（１１階）"},{"zipCode":"4506612","prefectureKana":"ｱｲﾁｹﾝ","cityKana":"ﾅｺﾞﾔｼﾅｶﾑﾗｸ","streetKana":"ﾒｲｴｷｼﾞｪｲｱｰﾙｹﾞｰﾄﾀﾜｰ(12ｶｲ)","prefecture":"愛知県","city":"名古屋市中村区","street":"名駅ＪＲゲートタワー（１２階）"},{"zipCode":"4506613","prefectureKana":"ｱｲﾁｹﾝ","cityKana":"ﾅｺﾞﾔｼﾅｶﾑﾗｸ","streetKana":"ﾒｲｴｷｼﾞｪｲｱｰﾙｹﾞｰﾄﾀﾜｰ(13ｶｲ)","prefecture":"愛知県","city":"名古屋市中村区","street":"名駅ＪＲゲートタワー（１３階）"},{"zipCode":"4506614","prefectureKana":"ｱｲﾁｹﾝ","cityKana":"ﾅｺﾞﾔｼﾅｶﾑﾗｸ","streetKana":"ﾒｲｴｷｼﾞｪｲｱｰﾙｹﾞｰﾄﾀﾜｰ(14ｶｲ)","prefecture":"愛知県","city":"名古屋市中村区","street":"名駅ＪＲゲートタワー（１４階）"},{"zipCode":"4506615","prefectureKana":"ｱｲﾁｹﾝ","cityKana":"ﾅｺﾞﾔｼﾅｶﾑﾗｸ","streetKana":"ﾒｲｴｷｼﾞｪｲｱｰﾙｹﾞｰﾄﾀﾜｰ(15ｶｲ)","prefecture":"愛知県","city":"名古屋市中村区","street":"名駅ＪＲゲートタワー（１５階）"},{"zipCode":"4506616","prefectureKana":"ｱｲﾁｹﾝ","cityKana":"ﾅｺﾞﾔｼﾅｶﾑﾗｸ","streetKana":"ﾒｲｴｷｼﾞｪｲｱｰﾙｹﾞｰﾄﾀﾜｰ(16ｶｲ)","prefecture":"愛知県","city":"名古屋市中村区","street":"名駅ＪＲゲートタワー（１６階）"},{"zipCode":"4506617","prefectureKana":"ｱｲﾁｹﾝ","cityKana":"ﾅｺﾞﾔｼﾅｶﾑﾗｸ","streetKana":"ﾒｲｴｷｼﾞｪｲｱｰﾙｹﾞｰﾄﾀﾜｰ(17ｶｲ)","prefecture":"愛知県","city":"名古屋市中村区","street":"名駅ＪＲゲートタワー（１７階）"},{"zipCode":"4506618","prefectureKana":"ｱｲﾁｹﾝ","cityKana":"ﾅｺﾞﾔｼﾅｶﾑﾗｸ","streetKana":"ﾒｲｴｷｼﾞｪｲｱｰﾙｹﾞｰﾄﾀﾜｰ(18ｶｲ)","prefecture":"愛知県","city":"名古屋市中村区","street":"名駅ＪＲゲートタワー（１８階）"},{"zipCode":"4506619","prefectureKana":"ｱｲﾁｹﾝ","cityKana":"ﾅｺﾞﾔｼﾅｶﾑﾗｸ","streetKana":"ﾒｲｴｷｼﾞｪｲｱｰﾙｹﾞｰﾄﾀﾜｰ(19ｶｲ)","prefecture":"愛知県","city":"名古屋市中村区","street":"名駅ＪＲゲートタワー（１９階）"},{"zipCode":"4506620","prefectureKana":"ｱｲﾁｹﾝ","cityKana":"ﾅｺﾞﾔｼﾅｶﾑﾗｸ","streetKana":"ﾒｲｴｷｼﾞｪｲｱｰﾙｹﾞｰﾄﾀﾜｰ(20ｶｲ)","prefecture":"愛知県","city":"名古屋市中村区","street":"名駅ＪＲゲートタワー（２０階）"},{"zipCode":"4506621","prefectureKana":"ｱｲﾁｹﾝ","cityKana":"ﾅｺﾞﾔｼﾅｶﾑﾗｸ","streetKana":"ﾒｲｴｷｼﾞｪｲｱｰﾙｹﾞｰﾄﾀﾜｰ(21ｶｲ)","prefecture":"愛知県","city":"名古屋市中村区","street":"名駅ＪＲゲートタワー（２１階）"},{"zipCode":"4506622","prefectureKana":"ｱｲﾁｹﾝ","cityKana":"ﾅｺﾞﾔｼﾅｶﾑﾗｸ","streetKana":"ﾒｲｴｷｼﾞｪｲｱｰﾙｹﾞｰﾄﾀﾜｰ(22ｶｲ)","prefecture":"愛知県","city":"名古屋市中村区","street":"名駅ＪＲゲートタワー（２２階）"},{"zipCode":"4506623","prefectureKana":"ｱｲﾁｹﾝ","cityKana":"ﾅｺﾞﾔｼﾅｶﾑﾗｸ","streetKana":"ﾒｲｴｷｼﾞｪｲｱｰﾙｹﾞｰﾄﾀﾜｰ(23ｶｲ)","prefecture":"愛知県","city":"名古屋市中村区","street":"名駅ＪＲゲートタワー（２３階）"},{"zipCode":"4506624","prefectureKana":"ｱｲﾁｹﾝ","cityKana":"ﾅｺﾞﾔｼﾅｶﾑﾗｸ","streetKana":"ﾒｲｴｷｼﾞｪｲｱｰﾙｹﾞｰﾄﾀﾜｰ(24ｶｲ)","prefecture":"愛知県","city":"名古屋市中村区","street":"名駅ＪＲゲートタワー（２４階）"},{"zipCode":"4506625","prefectureKana":"ｱｲﾁｹﾝ","cityKana":"ﾅｺﾞﾔｼﾅｶﾑﾗｸ","streetKana":"ﾒｲｴｷｼﾞｪｲｱｰﾙｹﾞｰﾄﾀﾜｰ(25ｶｲ)","prefecture":"愛知県","city":"名古屋市中村区","street":"名駅ＪＲゲートタワー（２５階）"},{"zipCode":"4506626","prefectureKana":"ｱｲﾁｹﾝ","cityKana":"ﾅｺﾞﾔｼﾅｶﾑﾗｸ","streetKana":"ﾒｲｴｷｼﾞｪｲｱｰﾙｹﾞｰﾄﾀﾜｰ(26ｶｲ)","prefecture":"愛知県","city":"名古屋市中村区","street":"名駅ＪＲゲートタワー（２６階）"},{"zipCode":"4506627","prefectureKana":"ｱｲﾁｹﾝ","cityKana":"ﾅｺﾞﾔｼﾅｶﾑﾗｸ","streetKana":"ﾒｲｴｷｼﾞｪｲｱｰﾙｹﾞｰﾄﾀﾜｰ(27ｶｲ)","prefecture":"愛知県","city":"名古屋市中村区","street":"名駅ＪＲゲートタワー（２７階）"},{"zipCode":"4506628","prefectureKana":"ｱｲﾁｹﾝ","cityKana":"ﾅｺﾞﾔｼﾅｶﾑﾗｸ","streetKana":"ﾒｲｴｷｼﾞｪｲｱｰﾙｹﾞｰﾄﾀﾜｰ(28ｶｲ)","prefecture":"愛知県","city":"名古屋市中村区","street":"名駅ＪＲゲートタワー（２８階）"},{"zipCode":"4506629","prefectureKana":"ｱｲﾁｹﾝ","cityKana":"ﾅｺﾞﾔｼﾅｶﾑﾗｸ","streetKana":"ﾒｲｴｷｼﾞｪｲｱｰﾙｹﾞｰﾄﾀﾜｰ(29ｶｲ)","prefecture":"愛知県","city":"名古屋市中村区","street":"名駅ＪＲゲートタワー（２９階）"},{"zipCode":"4506630","prefectureKana":"ｱｲﾁｹﾝ","cityKana":"ﾅｺﾞﾔｼﾅｶﾑﾗｸ","streetKana":"ﾒｲｴｷｼﾞｪｲｱｰﾙｹﾞｰﾄﾀﾜｰ(30ｶｲ)","prefecture":"愛知県","city":"名古屋市中村区","street":"名駅ＪＲゲートタワー（３０階）"},{"zipCode":"4506631","prefectureKana":"ｱｲﾁｹﾝ","cityKana":"ﾅｺﾞﾔｼﾅｶﾑﾗｸ","streetKana":"ﾒｲｴｷｼﾞｪｲｱｰﾙｹﾞｰﾄﾀﾜｰ(31ｶｲ)","prefecture":"愛知県","city":"名古屋市中村区","street":"名駅ＪＲゲートタワー（３１階）"},{"zipCode":"4506632","prefectureKana":"ｱｲﾁｹﾝ","cityKana":"ﾅｺﾞﾔｼﾅｶﾑﾗｸ","streetKana":"ﾒｲｴｷｼﾞｪｲｱｰﾙｹﾞｰﾄﾀﾜｰ(32ｶｲ)","prefecture":"愛知県","city":"名古屋市中村区","street":"名駅ＪＲゲートタワー（３２階）"},{"zipCode":"4506633","prefectureKana":"ｱｲﾁｹﾝ","cityKana":"ﾅｺﾞﾔｼﾅｶﾑﾗｸ","streetKana":"ﾒｲｴｷｼﾞｪｲｱｰﾙｹﾞｰﾄﾀﾜｰ(33ｶｲ)","prefecture":"愛知県","city":"名古屋市中村区","street":"名駅ＪＲゲートタワー（３３階）"},{"zipCode":"4506634","prefectureKana":"ｱｲﾁｹﾝ","cityKana":"ﾅｺﾞﾔｼﾅｶﾑﾗｸ","streetKana":"ﾒｲｴｷｼﾞｪｲｱｰﾙｹﾞｰﾄﾀﾜｰ(34ｶｲ)","prefecture":"愛知県","city":"名古屋市中村区","street":"名駅ＪＲゲートタワー（３４階）"},{"zipCode":"4506635","prefectureKana":"ｱｲﾁｹﾝ","cityKana":"ﾅｺﾞﾔｼﾅｶﾑﾗｸ","streetKana":"ﾒｲｴｷｼﾞｪｲｱｰﾙｹﾞｰﾄﾀﾜｰ(35ｶｲ)","prefecture":"愛知県","city":"名古屋市中村区","street":"名駅ＪＲゲートタワー（３５階）"},{"zipCode":"4506636","prefectureKana":"ｱｲﾁｹﾝ","cityKana":"ﾅｺﾞﾔｼﾅｶﾑﾗｸ","streetKana":"ﾒｲｴｷｼﾞｪｲｱｰﾙｹﾞｰﾄﾀﾜｰ(36ｶｲ)","prefecture":"愛知県","city":"名古屋市中村区","street":"名駅ＪＲゲートタワー（３６階）"},{"zipCode":"4506637","prefectureKana":"ｱｲﾁｹﾝ","cityKana":"ﾅｺﾞﾔｼﾅｶﾑﾗｸ","streetKana":"ﾒｲｴｷｼﾞｪｲｱｰﾙｹﾞｰﾄﾀﾜｰ(37ｶｲ)","prefecture":"愛知県","city":"名古屋市中村区","street":"名駅ＪＲゲートタワー（３７階）"},{"zipCode":"4506638","prefectureKana":"ｱｲﾁｹﾝ","cityKana":"ﾅｺﾞﾔｼﾅｶﾑﾗｸ","streetKana":"ﾒｲｴｷｼﾞｪｲｱｰﾙｹﾞｰﾄﾀﾜｰ(38ｶｲ)","prefecture":"愛知県","city":"名古屋市中村区","street":"名駅ＪＲゲートタワー（３８階）"},{"zipCode":"4506639","prefectureKana":"ｱｲﾁｹﾝ","cityKana":"ﾅｺﾞﾔｼﾅｶﾑﾗｸ","streetKana":"ﾒｲｴｷｼﾞｪｲｱｰﾙｹﾞｰﾄﾀﾜｰ(39ｶｲ)","prefecture":"愛知県","city":"名古屋市中村区","street":"名駅ＪＲゲートタワー（３９階）"},{"zipCode":"4506640","prefectureKana":"ｱｲﾁｹﾝ","cityKana":"ﾅｺﾞﾔｼﾅｶﾑﾗｸ","streetKana":"ﾒｲｴｷｼﾞｪｲｱｰﾙｹﾞｰﾄﾀﾜｰ(40ｶｲ)","prefecture":"愛知県","city":"名古屋市中村区","street":"名駅ＪＲゲートタワー（４０階）"},{"zipCode":"4506641","prefectureKana":"ｱｲﾁｹﾝ","cityKana":"ﾅｺﾞﾔｼﾅｶﾑﾗｸ","streetKana":"ﾒｲｴｷｼﾞｪｲｱｰﾙｹﾞｰﾄﾀﾜｰ(41ｶｲ)","prefecture":"愛知県","city":"名古屋市中村区","street":"名駅ＪＲゲートタワー（４１階）"},{"zipCode":"4506642","prefectureKana":"ｱｲﾁｹﾝ","cityKana":"ﾅｺﾞﾔｼﾅｶﾑﾗｸ","streetKana":"ﾒｲｴｷｼﾞｪｲｱｰﾙｹﾞｰﾄﾀﾜｰ(42ｶｲ)","prefecture":"愛知県","city":"名古屋市中村区","street":"名駅ＪＲゲートタワー（４２階）"},{"zipCode":"4506643","prefectureKana":"ｱｲﾁｹﾝ","cityKana":"ﾅｺﾞﾔｼﾅｶﾑﾗｸ","streetKana":"ﾒｲｴｷｼﾞｪｲｱｰﾙｹﾞｰﾄﾀﾜｰ(43ｶｲ)","prefecture":"愛知県","city":"名古屋市中村区","street":"名駅ＪＲゲートタワー（４３階）"},{"zipCode":"4506644","prefectureKana":"ｱｲﾁｹﾝ","cityKana":"ﾅｺﾞﾔｼﾅｶﾑﾗｸ","streetKana":"ﾒｲｴｷｼﾞｪｲｱｰﾙｹﾞｰﾄﾀﾜｰ(44ｶｲ)","prefecture":"愛知県","city":"名古屋市中村区","street":"名駅ＪＲゲートタワー（４４階）"},{"zipCode":"4506645","prefectureKana":"ｱｲﾁｹﾝ","cityKana":"ﾅｺﾞﾔｼﾅｶﾑﾗｸ","streetKana":"ﾒｲｴｷｼﾞｪｲｱｰﾙｹﾞｰﾄﾀﾜｰ(45ｶｲ)","prefecture":"愛知県","city":"名古屋市中村区","street":"名駅ＪＲゲートタワー（４５階）"},{"zipCode":"4506646","prefectureKana":"ｱｲﾁｹﾝ","cityKana":"ﾅｺﾞﾔｼﾅｶﾑﾗｸ","streetKana":"ﾒｲｴｷｼﾞｪｲｱｰﾙｹﾞｰﾄﾀﾜｰ(46ｶｲ)","prefecture":"愛知県","city":"名古屋市中村区","street":"名駅ＪＲゲートタワー（４６階）"},{"zipCode":"4506090","prefectureKana":"ｱｲﾁｹﾝ","cityKana":"ﾅｺﾞﾔｼﾅｶﾑﾗｸ","streetKana":"ﾒｲｴｷｼﾞｪｲｱｰﾙｾﾝﾄﾗﾙﾀﾜｰｽﾞ(ﾁｶｲ･ｶｲｿｳﾌﾒｲ)","prefecture":"愛知県","city":"名古屋市中村区","street":"名駅ＪＲセントラルタワーズ（地階・階層不明）"},{"zipCode":"4506001","prefectureKana":"ｱｲﾁｹﾝ","cityKana":"ﾅｺﾞﾔｼﾅｶﾑﾗｸ","streetKana":"ﾒｲｴｷｼﾞｪｲｱｰﾙｾﾝﾄﾗﾙﾀﾜｰｽﾞ(1ｶｲ)","prefecture":"愛知県","city":"名古屋市中村区","street":"名駅ＪＲセントラルタワーズ（１階）"},{"zipCode":"4506002","prefectureKana":"ｱｲﾁｹﾝ","cityKana":"ﾅｺﾞﾔｼﾅｶﾑﾗｸ","streetKana":"ﾒｲｴｷｼﾞｪｲｱｰﾙｾﾝﾄﾗﾙﾀﾜｰｽﾞ(2ｶｲ)","prefecture":"愛知県","city":"名古屋市中村区","street":"名駅ＪＲセントラルタワーズ（２階）"},{"zipCode":"4506003","prefectureKana":"ｱｲﾁｹﾝ","cityKana":"ﾅｺﾞﾔｼﾅｶﾑﾗｸ","streetKana":"ﾒｲｴｷｼﾞｪｲｱｰﾙｾﾝﾄﾗﾙﾀﾜｰｽﾞ(3ｶｲ)","prefecture":"愛知県","city":"名古屋市中村区","street":"名駅ＪＲセントラルタワーズ（３階）"},{"zipCode":"4506004","prefectureKana":"ｱｲﾁｹﾝ","cityKana":"ﾅｺﾞﾔｼﾅｶﾑﾗｸ","streetKana":"ﾒｲｴｷｼﾞｪｲｱｰﾙｾﾝﾄﾗﾙﾀﾜｰｽﾞ(4ｶｲ)","prefecture":"愛知県","city":"名古屋市中村区","street":"名駅ＪＲセントラルタワーズ（４階）"},{"zipCode":"4506005","prefectureKana":"ｱｲﾁｹﾝ","cityKana":"ﾅｺﾞﾔｼﾅｶﾑﾗｸ","streetKana":"ﾒｲｴｷｼﾞｪｲｱｰﾙｾﾝﾄﾗﾙﾀﾜｰｽﾞ(5ｶｲ)","prefecture":"愛知県","city":"名古屋市中村区","street":"名駅ＪＲセントラルタワーズ（５階）"},{"zipCode":"4506006","prefectureKana":"ｱｲﾁｹﾝ","cityKana":"ﾅｺﾞﾔｼﾅｶﾑﾗｸ","streetKana":"ﾒｲｴｷｼﾞｪｲｱｰﾙｾﾝﾄﾗﾙﾀﾜｰｽﾞ(6ｶｲ)","prefecture":"愛知県","city":"名古屋市中村区","street":"名駅ＪＲセントラルタワーズ（６階）"},{"zipCode":"4506007","prefectureKana":"ｱｲﾁｹﾝ","cityKana":"ﾅｺﾞﾔｼﾅｶﾑﾗｸ","streetKana":"ﾒｲｴｷｼﾞｪｲｱｰﾙｾﾝﾄﾗﾙﾀﾜｰｽﾞ(7ｶｲ)","prefecture":"愛知県","city":"名古屋市中村区","street":"名駅ＪＲセントラルタワーズ（７階）"},{"zipCode":"4506008","prefectureKana":"ｱｲﾁｹﾝ","cityKana":"ﾅｺﾞﾔｼﾅｶﾑﾗｸ","streetKana":"ﾒｲｴｷｼﾞｪｲｱｰﾙｾﾝﾄﾗﾙﾀﾜｰｽﾞ(8ｶｲ)","prefecture":"愛知県","city":"名古屋市中村区","street":"名駅ＪＲセントラルタワーズ（８階）"},{"zipCode":"4506009","prefectureKana":"ｱｲﾁｹﾝ","cityKana":"ﾅｺﾞﾔｼﾅｶﾑﾗｸ","streetKana":"ﾒｲｴｷｼﾞｪｲｱｰﾙｾﾝﾄﾗﾙﾀﾜｰｽﾞ(9ｶｲ)","prefecture":"愛知県","city":"名古屋市中村区","street":"名駅ＪＲセントラルタワーズ（９階）"},{"zipCode":"4506010","prefectureKana":"ｱｲﾁｹﾝ","cityKana":"ﾅｺﾞﾔｼﾅｶﾑﾗｸ","streetKana":"ﾒｲｴｷｼﾞｪｲｱｰﾙｾﾝﾄﾗﾙﾀﾜｰｽﾞ(10ｶｲ)","prefecture":"愛知県","city":"名古屋市中村区","street":"名駅ＪＲセントラルタワーズ（１０階）"},{"zipCode":"4506011","prefectureKana":"ｱｲﾁｹﾝ","cityKana":"ﾅｺﾞﾔｼﾅｶﾑﾗｸ","streetKana":"ﾒｲｴｷｼﾞｪｲｱｰﾙｾﾝﾄﾗﾙﾀﾜｰｽﾞ(11ｶｲ)","prefecture":"愛知県","city":"名古屋市中村区","street":"名駅ＪＲセントラルタワーズ（１１階）"},{"zipCode":"4506012","prefectureKana":"ｱｲﾁｹﾝ","cityKana":"ﾅｺﾞﾔｼﾅｶﾑﾗｸ","streetKana":"ﾒｲｴｷｼﾞｪｲｱｰﾙｾﾝﾄﾗﾙﾀﾜｰｽﾞ(12ｶｲ)","prefecture":"愛知県","city":"名古屋市中村区","street":"名駅ＪＲセントラルタワーズ（１２階）"},{"zipCode":"4506013","prefectureKana":"ｱｲﾁｹﾝ","cityKana":"ﾅｺﾞﾔｼﾅｶﾑﾗｸ","streetKana":"ﾒｲｴｷｼﾞｪｲｱｰﾙｾﾝﾄﾗﾙﾀﾜｰｽﾞ(13ｶｲ)","prefecture":"愛知県","city":"名古屋市中村区","street":"名駅ＪＲセントラルタワーズ（１３階）"},{"zipCode":"4506014","prefectureKana":"ｱｲﾁｹﾝ","cityKana":"ﾅｺﾞﾔｼﾅｶﾑﾗｸ","streetKana":"ﾒｲｴｷｼﾞｪｲｱｰﾙｾﾝﾄﾗﾙﾀﾜｰｽﾞ(14ｶｲ)","prefecture":"愛知県","city":"名古屋市中村区","street":"名駅ＪＲセントラルタワーズ（１４階）"},{"zipCode":"4506015","prefectureKana":"ｱｲﾁｹﾝ","cityKana":"ﾅｺﾞﾔｼﾅｶﾑﾗｸ","streetKana":"ﾒｲｴｷｼﾞｪｲｱｰﾙｾﾝﾄﾗﾙﾀﾜｰｽﾞ(15ｶｲ)","prefecture":"愛知県","city":"名古屋市中村区","street":"名駅ＪＲセントラルタワーズ（１５階）"},{"zipCode":"4506016","prefectureKana":"ｱｲﾁｹﾝ","cityKana":"ﾅｺﾞﾔｼﾅｶﾑﾗｸ","streetKana":"ﾒｲｴｷｼﾞｪｲｱｰﾙｾﾝﾄﾗﾙﾀﾜｰｽﾞ(16ｶｲ)","prefecture":"愛知県","city":"名古屋市中村区","street":"名駅ＪＲセントラルタワーズ（１６階）"},{"zipCode":"4506017","prefectureKana":"ｱｲﾁｹﾝ","cityKana":"ﾅｺﾞﾔｼﾅｶﾑﾗｸ","streetKana":"ﾒｲｴｷｼﾞｪｲｱｰﾙｾﾝﾄﾗﾙﾀﾜｰｽﾞ(17ｶｲ)","prefecture":"愛知県","city":"名古屋市中村区","street":"名駅ＪＲセントラルタワーズ（１７階）"},{"zipCode":"4506018","prefectureKana":"ｱｲﾁｹﾝ","cityKana":"ﾅｺﾞﾔｼﾅｶﾑﾗｸ","streetKana":"ﾒｲｴｷｼﾞｪｲｱｰﾙｾﾝﾄﾗﾙﾀﾜｰｽﾞ(18ｶｲ)","prefecture":"愛知県","city":"名古屋市中村区","street":"名駅ＪＲセントラルタワーズ（１８階）"},{"zipCode":"4506019","prefectureKana":"ｱｲﾁｹﾝ","cityKana":"ﾅｺﾞﾔｼﾅｶﾑﾗｸ","streetKana":"ﾒｲｴｷｼﾞｪｲｱｰﾙｾﾝﾄﾗﾙﾀﾜｰｽﾞ(19ｶｲ)","prefecture":"愛知県","city":"名古屋市中村区","street":"名駅ＪＲセントラルタワーズ（１９階）"},{"zipCode":"4506020","prefectureKana":"ｱｲﾁｹﾝ","cityKana":"ﾅｺﾞﾔｼﾅｶﾑﾗｸ","streetKana":"ﾒｲｴｷｼﾞｪｲｱｰﾙｾﾝﾄﾗﾙﾀﾜｰｽﾞ(20ｶｲ)","prefecture":"愛知県","city":"名古屋市中村区","street":"名駅ＪＲセントラルタワーズ（２０階）"},{"zipCode":"4506021","prefectureKana":"ｱｲﾁｹﾝ","cityKana":"ﾅｺﾞﾔｼﾅｶﾑﾗｸ","streetKana":"ﾒｲｴｷｼﾞｪｲｱｰﾙｾﾝﾄﾗﾙﾀﾜｰｽﾞ(21ｶｲ)","prefecture":"愛知県","city":"名古屋市中村区","street":"名駅ＪＲセントラルタワーズ（２１階）"},{"zipCode":"4506022","prefectureKana":"ｱｲﾁｹﾝ","cityKana":"ﾅｺﾞﾔｼﾅｶﾑﾗｸ","streetKana":"ﾒｲｴｷｼﾞｪｲｱｰﾙｾﾝﾄﾗﾙﾀﾜｰｽﾞ(22ｶｲ)","prefecture":"愛知県","city":"名古屋市中村区","street":"名駅ＪＲセントラルタワーズ（２２階）"},{"zipCode":"4506023","prefectureKana":"ｱｲﾁｹﾝ","cityKana":"ﾅｺﾞﾔｼﾅｶﾑﾗｸ","streetKana":"ﾒｲｴｷｼﾞｪｲｱｰﾙｾﾝﾄﾗﾙﾀﾜｰｽﾞ(23ｶｲ)","prefecture":"愛知県","city":"名古屋市中村区","street":"名駅ＪＲセントラルタワーズ（２３階）"},{"zipCode":"4506024","prefectureKana":"ｱｲﾁｹﾝ","cityKana":"ﾅｺﾞﾔｼﾅｶﾑﾗｸ","streetKana":"ﾒｲｴｷｼﾞｪｲｱｰﾙｾﾝﾄﾗﾙﾀﾜｰｽﾞ(24ｶｲ)","prefecture":"愛知県","city":"名古屋市中村区","street":"名駅ＪＲセントラルタワーズ（２４階）"},{"zipCode":"4506025","prefectureKana":"ｱｲﾁｹﾝ","cityKana":"ﾅｺﾞﾔｼﾅｶﾑﾗｸ","streetKana":"ﾒｲｴｷｼﾞｪｲｱｰﾙｾﾝﾄﾗﾙﾀﾜｰｽﾞ(25ｶｲ)","prefecture":"愛知県","city":"名古屋市中村区","street":"名駅ＪＲセントラルタワーズ（２５階）"},{"zipCode":"4506026","prefectureKana":"ｱｲﾁｹﾝ","cityKana":"ﾅｺﾞﾔｼﾅｶﾑﾗｸ","streetKana":"ﾒｲｴｷｼﾞｪｲｱｰﾙｾﾝﾄﾗﾙﾀﾜｰｽﾞ(26ｶｲ)","prefecture":"愛知県","city":"名古屋市中村区","street":"名駅ＪＲセントラルタワーズ（２６階）"},{"zipCode":"4506027","prefectureKana":"ｱｲﾁｹﾝ","cityKana":"ﾅｺﾞﾔｼﾅｶﾑﾗｸ","streetKana":"ﾒｲｴｷｼﾞｪｲｱｰﾙｾﾝﾄﾗﾙﾀﾜｰｽﾞ(27ｶｲ)","prefecture":"愛知県","city":"名古屋市中村区","street":"名駅ＪＲセントラルタワーズ（２７階）"},{"zipCode":"4506028","prefectureKana":"ｱｲﾁｹﾝ","cityKana":"ﾅｺﾞﾔｼﾅｶﾑﾗｸ","streetKana":"ﾒｲｴｷｼﾞｪｲｱｰﾙｾﾝﾄﾗﾙﾀﾜｰｽﾞ(28ｶｲ)","prefecture":"愛知県","city":"名古屋市中村区","street":"名駅ＪＲセントラルタワーズ（２８階）"},{"zipCode":"4506029","prefectureKana":"ｱｲﾁｹﾝ","cityKana":"ﾅｺﾞﾔｼﾅｶﾑﾗｸ","streetKana":"ﾒｲｴｷｼﾞｪｲｱｰﾙｾﾝﾄﾗﾙﾀﾜｰｽﾞ(29ｶｲ)","prefecture":"愛知県","city":"名古屋市中村区","street":"名駅ＪＲセントラルタワーズ（２９階）"},{"zipCode":"4506030","prefectureKana":"ｱｲﾁｹﾝ","cityKana":"ﾅｺﾞﾔｼﾅｶﾑﾗｸ","streetKana":"ﾒｲｴｷｼﾞｪｲｱｰﾙｾﾝﾄﾗﾙﾀﾜｰｽﾞ(30ｶｲ)","prefecture":"愛知県","city":"名古屋市中村区","street":"名駅ＪＲセントラルタワーズ（３０階）"},{"zipCode":"4506031","prefectureKana":"ｱｲﾁｹﾝ","cityKana":"ﾅｺﾞﾔｼﾅｶﾑﾗｸ","streetKana":"ﾒｲｴｷｼﾞｪｲｱｰﾙｾﾝﾄﾗﾙﾀﾜｰｽﾞ(31ｶｲ)","prefecture":"愛知県","city":"名古屋市中村区","street":"名駅ＪＲセントラルタワーズ（３１階）"},{"zipCode":"4506032","prefectureKana":"ｱｲﾁｹﾝ","cityKana":"ﾅｺﾞﾔｼﾅｶﾑﾗｸ","streetKana":"ﾒｲｴｷｼﾞｪｲｱｰﾙｾﾝﾄﾗﾙﾀﾜｰｽﾞ(32ｶｲ)","prefecture":"愛知県","city":"名古屋市中村区","street":"名駅ＪＲセントラルタワーズ（３２階）"},{"zipCode":"4506033","prefectureKana":"ｱｲﾁｹﾝ","cityKana":"ﾅｺﾞﾔｼﾅｶﾑﾗｸ","streetKana":"ﾒｲｴｷｼﾞｪｲｱｰﾙｾﾝﾄﾗﾙﾀﾜｰｽﾞ(33ｶｲ)","prefecture":"愛知県","city":"名古屋市中村区","street":"名駅ＪＲセントラルタワーズ（３３階）"},{"zipCode":"4506034","prefectureKana":"ｱｲﾁｹﾝ","cityKana":"ﾅｺﾞﾔｼﾅｶﾑﾗｸ","streetKana":"ﾒｲｴｷｼﾞｪｲｱｰﾙｾﾝﾄﾗﾙﾀﾜｰｽﾞ(34ｶｲ)","prefecture":"愛知県","city":"名古屋市中村区","street":"名駅ＪＲセントラルタワーズ（３４階）"},{"zipCode":"4506035","prefectureKana":"ｱｲﾁｹﾝ","cityKana":"ﾅｺﾞﾔｼﾅｶﾑﾗｸ","streetKana":"ﾒｲｴｷｼﾞｪｲｱｰﾙｾﾝﾄﾗﾙﾀﾜｰｽﾞ(35ｶｲ)","prefecture":"愛知県","city":"名古屋市中村区","street":"名駅ＪＲセントラルタワーズ（３５階）"},{"zipCode":"4506036","prefectureKana":"ｱｲﾁｹﾝ","cityKana":"ﾅｺﾞﾔｼﾅｶﾑﾗｸ","streetKana":"ﾒｲｴｷｼﾞｪｲｱｰﾙｾﾝﾄﾗﾙﾀﾜｰｽﾞ(36ｶｲ)","prefecture":"愛知県","city":"名古屋市中村区","street":"名駅ＪＲセントラルタワーズ（３６階）"},{"zipCode":"4506037","prefectureKana":"ｱｲﾁｹﾝ","cityKana":"ﾅｺﾞﾔｼﾅｶﾑﾗｸ","streetKana":"ﾒｲｴｷｼﾞｪｲｱｰﾙｾﾝﾄﾗﾙﾀﾜｰｽﾞ(37ｶｲ)","prefecture":"愛知県","city":"名古屋市中村区","street":"名駅ＪＲセントラルタワーズ（３７階）"},{"zipCode":"4506038","prefectureKana":"ｱｲﾁｹﾝ","cityKana":"ﾅｺﾞﾔｼﾅｶﾑﾗｸ","streetKana":"ﾒｲｴｷｼﾞｪｲｱｰﾙｾﾝﾄﾗﾙﾀﾜｰｽﾞ(38ｶｲ)","prefecture":"愛知県","city":"名古屋市中村区","street":"名駅ＪＲセントラルタワーズ（３８階）"},{"zipCode":"4506039","prefectureKana":"ｱｲﾁｹﾝ","cityKana":"ﾅｺﾞﾔｼﾅｶﾑﾗｸ","streetKana":"ﾒｲｴｷｼﾞｪｲｱｰﾙｾﾝﾄﾗﾙﾀﾜｰｽﾞ(39ｶｲ)","prefecture":"愛知県","city":"名古屋市中村区","street":"名駅ＪＲセントラルタワーズ（３９階）"},{"zipCode":"4506040","prefectureKana":"ｱｲﾁｹﾝ","cityKana":"ﾅｺﾞﾔｼﾅｶﾑﾗｸ","streetKana":"ﾒｲｴｷｼﾞｪｲｱｰﾙｾﾝﾄﾗﾙﾀﾜｰｽﾞ(40ｶｲ)","prefecture":"愛知県","city":"名古屋市中村区","street":"名駅ＪＲセントラルタワーズ（４０階）"},{"zipCode":"4506041","prefectureKana":"ｱｲﾁｹﾝ","cityKana":"ﾅｺﾞﾔｼﾅｶﾑﾗｸ","streetKana":"ﾒｲｴｷｼﾞｪｲｱｰﾙｾﾝﾄﾗﾙﾀﾜｰｽﾞ(41ｶｲ)","prefecture":"愛知県","city":"名古屋市中村区","street":"名駅ＪＲセントラルタワーズ（４１階）"},{"zipCode":"4506042","prefectureKana":"ｱｲﾁｹﾝ","cityKana":"ﾅｺﾞﾔｼﾅｶﾑﾗｸ","streetKana":"ﾒｲｴｷｼﾞｪｲｱｰﾙｾﾝﾄﾗﾙﾀﾜｰｽﾞ(42ｶｲ)","prefecture":"愛知県","city":"名古屋市中村区","street":"名駅ＪＲセントラルタワーズ（４２階）"},{"zipCode":"4506043","prefectureKana":"ｱｲﾁｹﾝ","cityKana":"ﾅｺﾞﾔｼﾅｶﾑﾗｸ","streetKana":"ﾒｲｴｷｼﾞｪｲｱｰﾙｾﾝﾄﾗﾙﾀﾜｰｽﾞ(43ｶｲ)","prefecture":"愛知県","city":"名古屋市中村区","street":"名駅ＪＲセントラルタワーズ（４３階）"},{"zipCode":"4506044","prefectureKana":"ｱｲﾁｹﾝ","cityKana":"ﾅｺﾞﾔｼﾅｶﾑﾗｸ","streetKana":"ﾒｲｴｷｼﾞｪｲｱｰﾙｾﾝﾄﾗﾙﾀﾜｰｽﾞ(44ｶｲ)","prefecture":"愛知県","city":"名古屋市中村区","street":"名駅ＪＲセントラルタワーズ（４４階）"},{"zipCode":"4506045","prefectureKana":"ｱｲﾁｹﾝ","cityKana":"ﾅｺﾞﾔｼﾅｶﾑﾗｸ","streetKana":"ﾒｲｴｷｼﾞｪｲｱｰﾙｾﾝﾄﾗﾙﾀﾜｰｽﾞ(45ｶｲ)","prefecture":"愛知県","city":"名古屋市中村区","street":"名駅ＪＲセントラルタワーズ（４５階）"},{"zipCode":"4506046","prefectureKana":"ｱｲﾁｹﾝ","cityKana":"ﾅｺﾞﾔｼﾅｶﾑﾗｸ","streetKana":"ﾒｲｴｷｼﾞｪｲｱｰﾙｾﾝﾄﾗﾙﾀﾜｰｽﾞ(46ｶｲ)","prefecture":"愛知県","city":"名古屋市中村区","street":"名駅ＪＲセントラルタワーズ（４６階）"},{"zipCode":"4506047","prefectureKana":"ｱｲﾁｹﾝ","cityKana":"ﾅｺﾞﾔｼﾅｶﾑﾗｸ","streetKana":"ﾒｲｴｷｼﾞｪｲｱｰﾙｾﾝﾄﾗﾙﾀﾜｰｽﾞ(47ｶｲ)","prefecture":"愛知県","city":"名古屋市中村区","street":"名駅ＪＲセントラルタワーズ（４７階）"},{"zipCode":"4506048","prefectureKana":"ｱｲﾁｹﾝ","cityKana":"ﾅｺﾞﾔｼﾅｶﾑﾗｸ","streetKana":"ﾒｲｴｷｼﾞｪｲｱｰﾙｾﾝﾄﾗﾙﾀﾜｰｽﾞ(48ｶｲ)","prefecture":"愛知県","city":"名古屋市中村区","street":"名駅ＪＲセントラルタワーズ（４８階）"},{"zipCode":"4506049","prefectureKana":"ｱｲﾁｹﾝ","cityKana":"ﾅｺﾞﾔｼﾅｶﾑﾗｸ","streetKana":"ﾒｲｴｷｼﾞｪｲｱｰﾙｾﾝﾄﾗﾙﾀﾜｰｽﾞ(49ｶｲ)","prefecture":"愛知県","city":"名古屋市中村区","street":"名駅ＪＲセントラルタワーズ（４９階）"},{"zipCode":"4506050","prefectureKana":"ｱｲﾁｹﾝ","cityKana":"ﾅｺﾞﾔｼﾅｶﾑﾗｸ","streetKana":"ﾒｲｴｷｼﾞｪｲｱｰﾙｾﾝﾄﾗﾙﾀﾜｰｽﾞ(50ｶｲ)","prefecture":"愛知県","city":"名古屋市中村区","street":"名駅ＪＲセントラルタワーズ（５０階）"},{"zipCode":"4506051","prefectureKana":"ｱｲﾁｹﾝ","cityKana":"ﾅｺﾞﾔｼﾅｶﾑﾗｸ","streetKana":"ﾒｲｴｷｼﾞｪｲｱｰﾙｾﾝﾄﾗﾙﾀﾜｰｽﾞ(51ｶｲ)","prefecture":"愛知県","city":"名古屋市中村区","street":"名駅ＪＲセントラルタワーズ（５１階）"},{"zipCode":"4506390","prefectureKana":"ｱｲﾁｹﾝ","cityKana":"ﾅｺﾞﾔｼﾅｶﾑﾗｸ","streetKana":"ﾒｲｴｷｼﾞｪｲﾋﾟｰﾀﾜｰﾅｺﾞﾔ(ﾁｶｲ･ｶｲｿｳﾌﾒｲ)","prefecture":"愛知県","city":"名古屋市中村区","street":"名駅ＪＰタワー名古屋（地階・階層不明）"},{"zipCode":"4506301","prefectureKana":"ｱｲﾁｹﾝ","cityKana":"ﾅｺﾞﾔｼﾅｶﾑﾗｸ","streetKana":"ﾒｲｴｷｼﾞｪｲﾋﾟｰﾀﾜｰﾅｺﾞﾔ(1ｶｲ)","prefecture":"愛知県","city":"名古屋市中村区","street":"名駅ＪＰタワー名古屋（１階）"},{"zipCode":"4506302","prefectureKana":"ｱｲﾁｹﾝ","cityKana":"ﾅｺﾞﾔｼﾅｶﾑﾗｸ","streetKana":"ﾒｲｴｷｼﾞｪｲﾋﾟｰﾀﾜｰﾅｺﾞﾔ(2ｶｲ)","prefecture":"愛知県","city":"名古屋市中村区","street":"名駅ＪＰタワー名古屋（２階）"},{"zipCode":"4506303","prefectureKana":"ｱｲﾁｹﾝ","cityKana":"ﾅｺﾞﾔｼﾅｶﾑﾗｸ","streetKana":"ﾒｲｴｷｼﾞｪｲﾋﾟｰﾀﾜｰﾅｺﾞﾔ(3ｶｲ)","prefecture":"愛知県","city":"名古屋市中村区","street":"名駅ＪＰタワー名古屋（３階）"},{"zipCode":"4506304","prefectureKana":"ｱｲﾁｹﾝ","cityKana":"ﾅｺﾞﾔｼﾅｶﾑﾗｸ","streetKana":"ﾒｲｴｷｼﾞｪｲﾋﾟｰﾀﾜｰﾅｺﾞﾔ(4ｶｲ)","prefecture":"愛知県","city":"名古屋市中村区","street":"名駅ＪＰタワー名古屋（４階）"},{"zipCode":"4506305","prefectureKana":"ｱｲﾁｹﾝ","cityKana":"ﾅｺﾞﾔｼﾅｶﾑﾗｸ","streetKana":"ﾒｲｴｷｼﾞｪｲﾋﾟｰﾀﾜｰﾅｺﾞﾔ(5ｶｲ)","prefecture":"愛知県","city":"名古屋市中村区","street":"名駅ＪＰタワー名古屋（５階）"},{"zipCode":"4506306","prefectureKana":"ｱｲﾁｹﾝ","cityKana":"ﾅｺﾞﾔｼﾅｶﾑﾗｸ","streetKana":"ﾒｲｴｷｼﾞｪｲﾋﾟｰﾀﾜｰﾅｺﾞﾔ(6ｶｲ)","prefecture":"愛知県","city":"名古屋市中村区","street":"名駅ＪＰタワー名古屋（６階）"},{"zipCode":"4506307","prefectureKana":"ｱｲﾁｹﾝ","cityKana":"ﾅｺﾞﾔｼﾅｶﾑﾗｸ","streetKana":"ﾒｲｴｷｼﾞｪｲﾋﾟｰﾀﾜｰﾅｺﾞﾔ(7ｶｲ)","prefecture":"愛知県","city":"名古屋市中村区","street":"名駅ＪＰタワー名古屋（７階）"},{"zipCode":"4506308","prefectureKana":"ｱｲﾁｹﾝ","cityKana":"ﾅｺﾞﾔｼﾅｶﾑﾗｸ","streetKana":"ﾒｲｴｷｼﾞｪｲﾋﾟｰﾀﾜｰﾅｺﾞﾔ(8ｶｲ)","prefecture":"愛知県","city":"名古屋市中村区","street":"名駅ＪＰタワー名古屋（８階）"},{"zipCode":"4506309","prefectureKana":"ｱｲﾁｹﾝ","cityKana":"ﾅｺﾞﾔｼﾅｶﾑﾗｸ","streetKana":"ﾒｲｴｷｼﾞｪｲﾋﾟｰﾀﾜｰﾅｺﾞﾔ(9ｶｲ)","prefecture":"愛知県","city":"名古屋市中村区","street":"名駅ＪＰタワー名古屋（９階）"},{"zipCode":"4506310","prefectureKana":"ｱｲﾁｹﾝ","cityKana":"ﾅｺﾞﾔｼﾅｶﾑﾗｸ","streetKana":"ﾒｲｴｷｼﾞｪｲﾋﾟｰﾀﾜｰﾅｺﾞﾔ(10ｶｲ)","prefecture":"愛知県","city":"名古屋市中村区","street":"名駅ＪＰタワー名古屋（１０階）"},{"zipCode":"4506311","prefectureKana":"ｱｲﾁｹﾝ","cityKana":"ﾅｺﾞﾔｼﾅｶﾑﾗｸ","streetKana":"ﾒｲｴｷｼﾞｪｲﾋﾟｰﾀﾜｰﾅｺﾞﾔ(11ｶｲ)","prefecture":"愛知県","city":"名古屋市中村区","street":"名駅ＪＰタワー名古屋（１１階）"},{"zipCode":"4506312","prefectureKana":"ｱｲﾁｹﾝ","cityKana":"ﾅｺﾞﾔｼﾅｶﾑﾗｸ","streetKana":"ﾒｲｴｷｼﾞｪｲﾋﾟｰﾀﾜｰﾅｺﾞﾔ(12ｶｲ)","prefecture":"愛知県","city":"名古屋市中村区","street":"名駅ＪＰタワー名古屋（１２階）"},{"zipCode":"4506313","prefectureKana":"ｱｲﾁｹﾝ","cityKana":"ﾅｺﾞﾔｼﾅｶﾑﾗｸ","streetKana":"ﾒｲｴｷｼﾞｪｲﾋﾟｰﾀﾜｰﾅｺﾞﾔ(13ｶｲ)","prefecture":"愛知県","city":"名古屋市中村区","street":"名駅ＪＰタワー名古屋（１３階）"},{"zipCode":"4506314","prefectureKana":"ｱｲﾁｹﾝ","cityKana":"ﾅｺﾞﾔｼﾅｶﾑﾗｸ","streetKana":"ﾒｲｴｷｼﾞｪｲﾋﾟｰﾀﾜｰﾅｺﾞﾔ(14ｶｲ)","prefecture":"愛知県","city":"名古屋市中村区","street":"名駅ＪＰタワー名古屋（１４階）"},{"zipCode":"4506315","prefectureKana":"ｱｲﾁｹﾝ","cityKana":"ﾅｺﾞﾔｼﾅｶﾑﾗｸ","streetKana":"ﾒｲｴｷｼﾞｪｲﾋﾟｰﾀﾜｰﾅｺﾞﾔ(15ｶｲ)","prefecture":"愛知県","city":"名古屋市中村区","street":"名駅ＪＰタワー名古屋（１５階）"},{"zipCode":"4506316","prefectureKana":"ｱｲﾁｹﾝ","cityKana":"ﾅｺﾞﾔｼﾅｶﾑﾗｸ","streetKana":"ﾒｲｴｷｼﾞｪｲﾋﾟｰﾀﾜｰﾅｺﾞﾔ(16ｶｲ)","prefecture":"愛知県","city":"名古屋市中村区","street":"名駅ＪＰタワー名古屋（１６階）"},{"zipCode":"4506317","prefectureKana":"ｱｲﾁｹﾝ","cityKana":"ﾅｺﾞﾔｼﾅｶﾑﾗｸ","streetKana":"ﾒｲｴｷｼﾞｪｲﾋﾟｰﾀﾜｰﾅｺﾞﾔ(17ｶｲ)","prefecture":"愛知県","city":"名古屋市中村区","street":"名駅ＪＰタワー名古屋（１７階）"},{"zipCode":"4506318","prefectureKana":"ｱｲﾁｹﾝ","cityKana":"ﾅｺﾞﾔｼﾅｶﾑﾗｸ","streetKana":"ﾒｲｴｷｼﾞｪｲﾋﾟｰﾀﾜｰﾅｺﾞﾔ(18ｶｲ)","prefecture":"愛知県","city":"名古屋市中村区","street":"名駅ＪＰタワー名古屋（１８階）"},{"zipCode":"4506319","prefectureKana":"ｱｲﾁｹﾝ","cityKana":"ﾅｺﾞﾔｼﾅｶﾑﾗｸ","streetKana":"ﾒｲｴｷｼﾞｪｲﾋﾟｰﾀﾜｰﾅｺﾞﾔ(19ｶｲ)","prefecture":"愛知県","city":"名古屋市中村区","street":"名駅ＪＰタワー名古屋（１９階）"},{"zipCode":"4506320","prefectureKana":"ｱｲﾁｹﾝ","cityKana":"ﾅｺﾞﾔｼﾅｶﾑﾗｸ","streetKana":"ﾒｲｴｷｼﾞｪｲﾋﾟｰﾀﾜｰﾅｺﾞﾔ(20ｶｲ)","prefecture":"愛知県","city":"名古屋市中村区","street":"名駅ＪＰタワー名古屋（２０階）"},{"zipCode":"4506321","prefectureKana":"ｱｲﾁｹﾝ","cityKana":"ﾅｺﾞﾔｼﾅｶﾑﾗｸ","streetKana":"ﾒｲｴｷｼﾞｪｲﾋﾟｰﾀﾜｰﾅｺﾞﾔ(21ｶｲ)","prefecture":"愛知県","city":"名古屋市中村区","street":"名駅ＪＰタワー名古屋（２１階）"},{"zipCode":"4506322","prefectureKana":"ｱｲﾁｹﾝ","cityKana":"ﾅｺﾞﾔｼﾅｶﾑﾗｸ","streetKana":"ﾒｲｴｷｼﾞｪｲﾋﾟｰﾀﾜｰﾅｺﾞﾔ(22ｶｲ)","prefecture":"愛知県","city":"名古屋市中村区","street":"名駅ＪＰタワー名古屋（２２階）"},{"zipCode":"4506323","prefectureKana":"ｱｲﾁｹﾝ","cityKana":"ﾅｺﾞﾔｼﾅｶﾑﾗｸ","streetKana":"ﾒｲｴｷｼﾞｪｲﾋﾟｰﾀﾜｰﾅｺﾞﾔ(23ｶｲ)","prefecture":"愛知県","city":"名古屋市中村区","street":"名駅ＪＰタワー名古屋（２３階）"},{"zipCode":"4506324","prefectureKana":"ｱｲﾁｹﾝ","cityKana":"ﾅｺﾞﾔｼﾅｶﾑﾗｸ","streetKana":"ﾒｲｴｷｼﾞｪｲﾋﾟｰﾀﾜｰﾅｺﾞﾔ(24ｶｲ)","prefecture":"愛知県","city":"名古屋市中村区","street":"名駅ＪＰタワー名古屋（２４階）"},{"zipCode":"4506325","prefectureKana":"ｱｲﾁｹﾝ","cityKana":"ﾅｺﾞﾔｼﾅｶﾑﾗｸ","streetKana":"ﾒｲｴｷｼﾞｪｲﾋﾟｰﾀﾜｰﾅｺﾞﾔ(25ｶｲ)","prefecture":"愛知県","city":"名古屋市中村区","street":"名駅ＪＰタワー名古屋（２５階）"},{"zipCode":"4506326","prefectureKana":"ｱｲﾁｹﾝ","cityKana":"ﾅｺﾞﾔｼﾅｶﾑﾗｸ","streetKana":"ﾒｲｴｷｼﾞｪｲﾋﾟｰﾀﾜｰﾅｺﾞﾔ(26ｶｲ)","prefecture":"愛知県","city":"名古屋市中村区","street":"名駅ＪＰタワー名古屋（２６階）"},{"zipCode":"4506327","prefectureKana":"ｱｲﾁｹﾝ","cityKana":"ﾅｺﾞﾔｼﾅｶﾑﾗｸ","streetKana":"ﾒｲｴｷｼﾞｪｲﾋﾟｰﾀﾜｰﾅｺﾞﾔ(27ｶｲ)","prefecture":"愛知県","city":"名古屋市中村区","street":"名駅ＪＰタワー名古屋（２７階）"},{"zipCode":"4506328","prefectureKana":"ｱｲﾁｹﾝ","cityKana":"ﾅｺﾞﾔｼﾅｶﾑﾗｸ","streetKana":"ﾒｲｴｷｼﾞｪｲﾋﾟｰﾀﾜｰﾅｺﾞﾔ(28ｶｲ)","prefecture":"愛知県","city":"名古屋市中村区","street":"名駅ＪＰタワー名古屋（２８階）"},{"zipCode":"4506329","prefectureKana":"ｱｲﾁｹﾝ","cityKana":"ﾅｺﾞﾔｼﾅｶﾑﾗｸ","streetKana":"ﾒｲｴｷｼﾞｪｲﾋﾟｰﾀﾜｰﾅｺﾞﾔ(29ｶｲ)","prefecture":"愛知県","city":"名古屋市中村区","street":"名駅ＪＰタワー名古屋（２９階）"},{"zipCode":"4506330","prefectureKana":"ｱｲﾁｹﾝ","cityKana":"ﾅｺﾞﾔｼﾅｶﾑﾗｸ","streetKana":"ﾒｲｴｷｼﾞｪｲﾋﾟｰﾀﾜｰﾅｺﾞﾔ(30ｶｲ)","prefecture":"愛知県","city":"名古屋市中村区","street":"名駅ＪＰタワー名古屋（３０階）"},{"zipCode":"4506331","prefectureKana":"ｱｲﾁｹﾝ","cityKana":"ﾅｺﾞﾔｼﾅｶﾑﾗｸ","streetKana":"ﾒｲｴｷｼﾞｪｲﾋﾟｰﾀﾜｰﾅｺﾞﾔ(31ｶｲ)","prefecture":"愛知県","city":"名古屋市中村区","street":"名駅ＪＰタワー名古屋（３１階）"},{"zipCode":"4506332","prefectureKana":"ｱｲﾁｹﾝ","cityKana":"ﾅｺﾞﾔｼﾅｶﾑﾗｸ","streetKana":"ﾒｲｴｷｼﾞｪｲﾋﾟｰﾀﾜｰﾅｺﾞﾔ(32ｶｲ)","prefecture":"愛知県","city":"名古屋市中村区","street":"名駅ＪＰタワー名古屋（３２階）"},{"zipCode":"4506333","prefectureKana":"ｱｲﾁｹﾝ","cityKana":"ﾅｺﾞﾔｼﾅｶﾑﾗｸ","streetKana":"ﾒｲｴｷｼﾞｪｲﾋﾟｰﾀﾜｰﾅｺﾞﾔ(33ｶｲ)","prefecture":"愛知県","city":"名古屋市中村区","street":"名駅ＪＰタワー名古屋（３３階）"},{"zipCode":"4506334","prefectureKana":"ｱｲﾁｹﾝ","cityKana":"ﾅｺﾞﾔｼﾅｶﾑﾗｸ","streetKana":"ﾒｲｴｷｼﾞｪｲﾋﾟｰﾀﾜｰﾅｺﾞﾔ(34ｶｲ)","prefecture":"愛知県","city":"名古屋市中村区","street":"名駅ＪＰタワー名古屋（３４階）"},{"zipCode":"4506335","prefectureKana":"ｱｲﾁｹﾝ","cityKana":"ﾅｺﾞﾔｼﾅｶﾑﾗｸ","streetKana":"ﾒｲｴｷｼﾞｪｲﾋﾟｰﾀﾜｰﾅｺﾞﾔ(35ｶｲ)","prefecture":"愛知県","city":"名古屋市中村区","street":"名駅ＪＰタワー名古屋（３５階）"},{"zipCode":"4506336","prefectureKana":"ｱｲﾁｹﾝ","cityKana":"ﾅｺﾞﾔｼﾅｶﾑﾗｸ","streetKana":"ﾒｲｴｷｼﾞｪｲﾋﾟｰﾀﾜｰﾅｺﾞﾔ(36ｶｲ)","prefecture":"愛知県","city":"名古屋市中村区","street":"名駅ＪＰタワー名古屋（３６階）"},{"zipCode":"4506337","prefectureKana":"ｱｲﾁｹﾝ","cityKana":"ﾅｺﾞﾔｼﾅｶﾑﾗｸ","streetKana":"ﾒｲｴｷｼﾞｪｲﾋﾟｰﾀﾜｰﾅｺﾞﾔ(37ｶｲ)","prefecture":"愛知県","city":"名古屋市中村区","street":"名駅ＪＰタワー名古屋（３７階）"},{"zipCode":"4506338","prefectureKana":"ｱｲﾁｹﾝ","cityKana":"ﾅｺﾞﾔｼﾅｶﾑﾗｸ","streetKana":"ﾒｲｴｷｼﾞｪｲﾋﾟｰﾀﾜｰﾅｺﾞﾔ(38ｶｲ)","prefecture":"愛知県","city":"名古屋市中村区","street":"名駅ＪＰタワー名古屋（３８階）"},{"zipCode":"4506339","prefectureKana":"ｱｲﾁｹﾝ","cityKana":"ﾅｺﾞﾔｼﾅｶﾑﾗｸ","streetKana":"ﾒｲｴｷｼﾞｪｲﾋﾟｰﾀﾜｰﾅｺﾞﾔ(39ｶｲ)","prefecture":"愛知県","city":"名古屋市中村区","street":"名駅ＪＰタワー名古屋（３９階）"},{"zipCode":"4506340","prefectureKana":"ｱｲﾁｹﾝ","cityKana":"ﾅｺﾞﾔｼﾅｶﾑﾗｸ","streetKana":"ﾒｲｴｷｼﾞｪｲﾋﾟｰﾀﾜｰﾅｺﾞﾔ(40ｶｲ)","prefecture":"愛知県","city":"名古屋市中村区","street":"名駅ＪＰタワー名古屋（４０階）"},{"zipCode":"4506490","prefectureKana":"ｱｲﾁｹﾝ","cityKana":"ﾅｺﾞﾔｼﾅｶﾑﾗｸ","streetKana":"ﾒｲｴｷﾀﾞｲﾅｺﾞﾔﾋﾞﾙﾁﾞﾝｸﾞ(ﾁｶｲ･ｶｲｿｳﾌﾒｲ)","prefecture":"愛知県","city":"名古屋市中村区","street":"名駅大名古屋ビルヂング（地階・階層不明）"},{"zipCode":"4506401","prefectureKana":"ｱｲﾁｹﾝ","cityKana":"ﾅｺﾞﾔｼﾅｶﾑﾗｸ","streetKana":"ﾒｲｴｷﾀﾞｲﾅｺﾞﾔﾋﾞﾙﾁﾞﾝｸﾞ(1ｶｲ)","prefecture":"愛知県","city":"名古屋市中村区","street":"名駅大名古屋ビルヂング（１階）"},{"zipCode":"4506402","prefectureKana":"ｱｲﾁｹﾝ","cityKana":"ﾅｺﾞﾔｼﾅｶﾑﾗｸ","streetKana":"ﾒｲｴｷﾀﾞｲﾅｺﾞﾔﾋﾞﾙﾁﾞﾝｸﾞ(2ｶｲ)","prefecture":"愛知県","city":"名古屋市中村区","street":"名駅大名古屋ビルヂング（２階）"},{"zipCode":"4506403","prefectureKana":"ｱｲﾁｹﾝ","cityKana":"ﾅｺﾞﾔｼﾅｶﾑﾗｸ","streetKana":"ﾒｲｴｷﾀﾞｲﾅｺﾞﾔﾋﾞﾙﾁﾞﾝｸﾞ(3ｶｲ)","prefecture":"愛知県","city":"名古屋市中村区","street":"名駅大名古屋ビルヂング（３階）"},{"zipCode":"4506404","prefectureKana":"ｱｲﾁｹﾝ","cityKana":"ﾅｺﾞﾔｼﾅｶﾑﾗｸ","streetKana":"ﾒｲｴｷﾀﾞｲﾅｺﾞﾔﾋﾞﾙﾁﾞﾝｸﾞ(4ｶｲ)","prefecture":"愛知県","city":"名古屋市中村区","street":"名駅大名古屋ビルヂング（４階）"},{"zipCode":"4506405","prefectureKana":"ｱｲﾁｹﾝ","cityKana":"ﾅｺﾞﾔｼﾅｶﾑﾗｸ","streetKana":"ﾒｲｴｷﾀﾞｲﾅｺﾞﾔﾋﾞﾙﾁﾞﾝｸﾞ(5ｶｲ)","prefecture":"愛知県","city":"名古屋市中村区","street":"名駅大名古屋ビルヂング（５階）"},{"zipCode":"4506406","prefectureKana":"ｱｲﾁｹﾝ","cityKana":"ﾅｺﾞﾔｼﾅｶﾑﾗｸ","streetKana":"ﾒｲｴｷﾀﾞｲﾅｺﾞﾔﾋﾞﾙﾁﾞﾝｸﾞ(6ｶｲ)","prefecture":"愛知県","city":"名古屋市中村区","street":"名駅大名古屋ビルヂング（６階）"},{"zipCode":"4506407","prefectureKana":"ｱｲﾁｹﾝ","cityKana":"ﾅｺﾞﾔｼﾅｶﾑﾗｸ","streetKana":"ﾒｲｴｷﾀﾞｲﾅｺﾞﾔﾋﾞﾙﾁﾞﾝｸﾞ(7ｶｲ)","prefecture":"愛知県","city":"名古屋市中村区","street":"名駅大名古屋ビルヂング（７階）"},{"zipCode":"4506408","prefectureKana":"ｱｲﾁｹﾝ","cityKana":"ﾅｺﾞﾔｼﾅｶﾑﾗｸ","streetKana":"ﾒｲｴｷﾀﾞｲﾅｺﾞﾔﾋﾞﾙﾁﾞﾝｸﾞ(8ｶｲ)","prefecture":"愛知県","city":"名古屋市中村区","street":"名駅大名古屋ビルヂング（８階）"},{"zipCode":"4506409","prefectureKana":"ｱｲﾁｹﾝ","cityKana":"ﾅｺﾞﾔｼﾅｶﾑﾗｸ","streetKana":"ﾒｲｴｷﾀﾞｲﾅｺﾞﾔﾋﾞﾙﾁﾞﾝｸﾞ(9ｶｲ)","prefecture":"愛知県","city":"名古屋市中村区","street":"名駅大名古屋ビルヂング（９階）"},{"zipCode":"4506410","prefectureKana":"ｱｲﾁｹﾝ","cityKana":"ﾅｺﾞﾔｼﾅｶﾑﾗｸ","streetKana":"ﾒｲｴｷﾀﾞｲﾅｺﾞﾔﾋﾞﾙﾁﾞﾝｸﾞ(10ｶｲ)","prefecture":"愛知県","city":"名古屋市中村区","street":"名駅大名古屋ビルヂング（１０階）"},{"zipCode":"4506411","prefectureKana":"ｱｲﾁｹﾝ","cityKana":"ﾅｺﾞﾔｼﾅｶﾑﾗｸ","streetKana":"ﾒｲｴｷﾀﾞｲﾅｺﾞﾔﾋﾞﾙﾁﾞﾝｸﾞ(11ｶｲ)","prefecture":"愛知県","city":"名古屋市中村区","street":"名駅大名古屋ビルヂング（１１階）"},{"zipCode":"4506412","prefectureKana":"ｱｲﾁｹﾝ","cityKana":"ﾅｺﾞﾔｼﾅｶﾑﾗｸ","streetKana":"ﾒｲｴｷﾀﾞｲﾅｺﾞﾔﾋﾞﾙﾁﾞﾝｸﾞ(12ｶｲ)","prefecture":"愛知県","city":"名古屋市中村区","street":"名駅大名古屋ビルヂング（１２階）"},{"zipCode":"4506413","prefectureKana":"ｱｲﾁｹﾝ","cityKana":"ﾅｺﾞﾔｼﾅｶﾑﾗｸ","streetKana":"ﾒｲｴｷﾀﾞｲﾅｺﾞﾔﾋﾞﾙﾁﾞﾝｸﾞ(13ｶｲ)","prefecture":"愛知県","city":"名古屋市中村区","street":"名駅大名古屋ビルヂング（１３階）"},{"zipCode":"4506414","prefectureKana":"ｱｲﾁｹﾝ","cityKana":"ﾅｺﾞﾔｼﾅｶﾑﾗｸ","streetKana":"ﾒｲｴｷﾀﾞｲﾅｺﾞﾔﾋﾞﾙﾁﾞﾝｸﾞ(14ｶｲ)","prefecture":"愛知県","city":"名古屋市中村区","street":"名駅大名古屋ビルヂング（１４階）"},{"zipCode":"4506415","prefectureKana":"ｱｲﾁｹﾝ","cityKana":"ﾅｺﾞﾔｼﾅｶﾑﾗｸ","streetKana":"ﾒｲｴｷﾀﾞｲﾅｺﾞﾔﾋﾞﾙﾁﾞﾝｸﾞ(15ｶｲ)","prefecture":"愛知県","city":"名古屋市中村区","street":"名駅大名古屋ビルヂング（１５階）"},{"zipCode":"4506416","prefectureKana":"ｱｲﾁｹﾝ","cityKana":"ﾅｺﾞﾔｼﾅｶﾑﾗｸ","streetKana":"ﾒｲｴｷﾀﾞｲﾅｺﾞﾔﾋﾞﾙﾁﾞﾝｸﾞ(16ｶｲ)","prefecture":"愛知県","city":"名古屋市中村区","street":"名駅大名古屋ビルヂング（１６階）"},{"zipCode":"4506417","prefectureKana":"ｱｲﾁｹﾝ","cityKana":"ﾅｺﾞﾔｼﾅｶﾑﾗｸ","streetKana":"ﾒｲｴｷﾀﾞｲﾅｺﾞﾔﾋﾞﾙﾁﾞﾝｸﾞ(17ｶｲ)","prefecture":"愛知県","city":"名古屋市中村区","street":"名駅大名古屋ビルヂング（１７階）"},{"zipCode":"4506418","prefectureKana":"ｱｲﾁｹﾝ","cityKana":"ﾅｺﾞﾔｼﾅｶﾑﾗｸ","streetKana":"ﾒｲｴｷﾀﾞｲﾅｺﾞﾔﾋﾞﾙﾁﾞﾝｸﾞ(18ｶｲ)","prefecture":"愛知県","city":"名古屋市中村区","street":"名駅大名古屋ビルヂング（１８階）"},{"zipCode":"4506419","prefectureKana":"ｱｲﾁｹﾝ","cityKana":"ﾅｺﾞﾔｼﾅｶﾑﾗｸ","streetKana":"ﾒｲｴｷﾀﾞｲﾅｺﾞﾔﾋﾞﾙﾁﾞﾝｸﾞ(19ｶｲ)","prefecture":"愛知県","city":"名古屋市中村区","street":"名駅大名古屋ビルヂング（１９階）"},{"zipCode":"4506420","prefectureKana":"ｱｲﾁｹﾝ","cityKana":"ﾅｺﾞﾔｼﾅｶﾑﾗｸ","streetKana":"ﾒｲｴｷﾀﾞｲﾅｺﾞﾔﾋﾞﾙﾁﾞﾝｸﾞ(20ｶｲ)","prefecture":"愛知県","city":"名古屋市中村区","street":"名駅大名古屋ビルヂング（２０階）"},{"zipCode":"4506421","prefectureKana":"ｱｲﾁｹﾝ","cityKana":"ﾅｺﾞﾔｼﾅｶﾑﾗｸ","streetKana":"ﾒｲｴｷﾀﾞｲﾅｺﾞﾔﾋﾞﾙﾁﾞﾝｸﾞ(21ｶｲ)","prefecture":"愛知県","city":"名古屋市中村区","street":"名駅大名古屋ビルヂング（２１階）"},{"zipCode":"4506422","prefectureKana":"ｱｲﾁｹﾝ","cityKana":"ﾅｺﾞﾔｼﾅｶﾑﾗｸ","streetKana":"ﾒｲｴｷﾀﾞｲﾅｺﾞﾔﾋﾞﾙﾁﾞﾝｸﾞ(22ｶｲ)","prefecture":"愛知県","city":"名古屋市中村区","street":"名駅大名古屋ビルヂング（２２階）"},{"zipCode":"4506423","prefectureKana":"ｱｲﾁｹﾝ","cityKana":"ﾅｺﾞﾔｼﾅｶﾑﾗｸ","streetKana":"ﾒｲｴｷﾀﾞｲﾅｺﾞﾔﾋﾞﾙﾁﾞﾝｸﾞ(23ｶｲ)","prefecture":"愛知県","city":"名古屋市中村区","street":"名駅大名古屋ビルヂング（２３階）"},{"zipCode":"4506424","prefectureKana":"ｱｲﾁｹﾝ","cityKana":"ﾅｺﾞﾔｼﾅｶﾑﾗｸ","streetKana":"ﾒｲｴｷﾀﾞｲﾅｺﾞﾔﾋﾞﾙﾁﾞﾝｸﾞ(24ｶｲ)","prefecture":"愛知県","city":"名古屋市中村区","street":"名駅大名古屋ビルヂング（２４階）"},{"zipCode":"4506425","prefectureKana":"ｱｲﾁｹﾝ","cityKana":"ﾅｺﾞﾔｼﾅｶﾑﾗｸ","streetKana":"ﾒｲｴｷﾀﾞｲﾅｺﾞﾔﾋﾞﾙﾁﾞﾝｸﾞ(25ｶｲ)","prefecture":"愛知県","city":"名古屋市中村区","street":"名駅大名古屋ビルヂング（２５階）"},{"zipCode":"4506426","prefectureKana":"ｱｲﾁｹﾝ","cityKana":"ﾅｺﾞﾔｼﾅｶﾑﾗｸ","streetKana":"ﾒｲｴｷﾀﾞｲﾅｺﾞﾔﾋﾞﾙﾁﾞﾝｸﾞ(26ｶｲ)","prefecture":"愛知県","city":"名古屋市中村区","street":"名駅大名古屋ビルヂング（２６階）"},{"zipCode":"4506427","prefectureKana":"ｱｲﾁｹﾝ","cityKana":"ﾅｺﾞﾔｼﾅｶﾑﾗｸ","streetKana":"ﾒｲｴｷﾀﾞｲﾅｺﾞﾔﾋﾞﾙﾁﾞﾝｸﾞ(27ｶｲ)","prefecture":"愛知県","city":"名古屋市中村区","street":"名駅大名古屋ビルヂング（２７階）"},{"zipCode":"4506428","prefectureKana":"ｱｲﾁｹﾝ","cityKana":"ﾅｺﾞﾔｼﾅｶﾑﾗｸ","streetKana":"ﾒｲｴｷﾀﾞｲﾅｺﾞﾔﾋﾞﾙﾁﾞﾝｸﾞ(28ｶｲ)","prefecture":"愛知県","city":"名古屋市中村区","street":"名駅大名古屋ビルヂング（２８階）"},{"zipCode":"4506429","prefectureKana":"ｱｲﾁｹﾝ","cityKana":"ﾅｺﾞﾔｼﾅｶﾑﾗｸ","streetKana":"ﾒｲｴｷﾀﾞｲﾅｺﾞﾔﾋﾞﾙﾁﾞﾝｸﾞ(29ｶｲ)","prefecture":"愛知県","city":"名古屋市中村区","street":"名駅大名古屋ビルヂング（２９階）"},{"zipCode":"4506430","prefectureKana":"ｱｲﾁｹﾝ","cityKana":"ﾅｺﾞﾔｼﾅｶﾑﾗｸ","streetKana":"ﾒｲｴｷﾀﾞｲﾅｺﾞﾔﾋﾞﾙﾁﾞﾝｸﾞ(30ｶｲ)","prefecture":"愛知県","city":"名古屋市中村区","street":"名駅大名古屋ビルヂング（３０階）"},{"zipCode":"4506431","prefectureKana":"ｱｲﾁｹﾝ","cityKana":"ﾅｺﾞﾔｼﾅｶﾑﾗｸ","streetKana":"ﾒｲｴｷﾀﾞｲﾅｺﾞﾔﾋﾞﾙﾁﾞﾝｸﾞ(31ｶｲ)","prefecture":"愛知県","city":"名古屋市中村区","street":"名駅大名古屋ビルヂング（３１階）"},{"zipCode":"4506432","prefectureKana":"ｱｲﾁｹﾝ","cityKana":"ﾅｺﾞﾔｼﾅｶﾑﾗｸ","streetKana":"ﾒｲｴｷﾀﾞｲﾅｺﾞﾔﾋﾞﾙﾁﾞﾝｸﾞ(32ｶｲ)","prefecture":"愛知県","city":"名古屋市中村区","street":"名駅大名古屋ビルヂング（３２階）"},{"zipCode":"4506433","prefectureKana":"ｱｲﾁｹﾝ","cityKana":"ﾅｺﾞﾔｼﾅｶﾑﾗｸ","streetKana":"ﾒｲｴｷﾀﾞｲﾅｺﾞﾔﾋﾞﾙﾁﾞﾝｸﾞ(33ｶｲ)","prefecture":"愛知県","city":"名古屋市中村区","street":"名駅大名古屋ビルヂング（３３階）"},{"zipCode":"4506434","prefectureKana":"ｱｲﾁｹﾝ","cityKana":"ﾅｺﾞﾔｼﾅｶﾑﾗｸ","streetKana":"ﾒｲｴｷﾀﾞｲﾅｺﾞﾔﾋﾞﾙﾁﾞﾝｸﾞ(34ｶｲ)","prefecture":"愛知県","city":"名古屋市中村区","street":"名駅大名古屋ビルヂング（３４階）"},{"zipCode":"4506290","prefectureKana":"ｱｲﾁｹﾝ","cityKana":"ﾅｺﾞﾔｼﾅｶﾑﾗｸ","streetKana":"ﾒｲｴｷﾐｯﾄﾞﾗﾝﾄﾞｽｸｴｱ(ｺｳｿｳﾄｳ)(ﾁｶｲ･ｶｲｿｳﾌﾒｲ)","prefecture":"愛知県","city":"名古屋市中村区","street":"名駅ミッドランドスクエア（高層棟）（地階・階層不明）"},{"zipCode":"4506201","prefectureKana":"ｱｲﾁｹﾝ","cityKana":"ﾅｺﾞﾔｼﾅｶﾑﾗｸ","streetKana":"ﾒｲｴｷﾐｯﾄﾞﾗﾝﾄﾞｽｸｴｱ(ｺｳｿｳﾄｳ)(1ｶｲ)","prefecture":"愛知県","city":"名古屋市中村区","street":"名駅ミッドランドスクエア（高層棟）（１階）"},{"zipCode":"4506202","prefectureKana":"ｱｲﾁｹﾝ","cityKana":"ﾅｺﾞﾔｼﾅｶﾑﾗｸ","streetKana":"ﾒｲｴｷﾐｯﾄﾞﾗﾝﾄﾞｽｸｴｱ(ｺｳｿｳﾄｳ)(2ｶｲ)","prefecture":"愛知県","city":"名古屋市中村区","street":"名駅ミッドランドスクエア（高層棟）（２階）"},{"zipCode":"4506203","prefectureKana":"ｱｲﾁｹﾝ","cityKana":"ﾅｺﾞﾔｼﾅｶﾑﾗｸ","streetKana":"ﾒｲｴｷﾐｯﾄﾞﾗﾝﾄﾞｽｸｴｱ(ｺｳｿｳﾄｳ)(3ｶｲ)","prefecture":"愛知県","city":"名古屋市中村区","street":"名駅ミッドランドスクエア（高層棟）（３階）"},{"zipCode":"4506204","prefectureKana":"ｱｲﾁｹﾝ","cityKana":"ﾅｺﾞﾔｼﾅｶﾑﾗｸ","streetKana":"ﾒｲｴｷﾐｯﾄﾞﾗﾝﾄﾞｽｸｴｱ(ｺｳｿｳﾄｳ)(4ｶｲ)","prefecture":"愛知県","city":"名古屋市中村区","street":"名駅ミッドランドスクエア（高層棟）（４階）"},{"zipCode":"4506205","prefectureKana":"ｱｲﾁｹﾝ","cityKana":"ﾅｺﾞﾔｼﾅｶﾑﾗｸ","streetKana":"ﾒｲｴｷﾐｯﾄﾞﾗﾝﾄﾞｽｸｴｱ(ｺｳｿｳﾄｳ)(5ｶｲ)","prefecture":"愛知県","city":"名古屋市中村区","street":"名駅ミッドランドスクエア（高層棟）（５階）"},{"zipCode":"4506206","prefectureKana":"ｱｲﾁｹﾝ","cityKana":"ﾅｺﾞﾔｼﾅｶﾑﾗｸ","streetKana":"ﾒｲｴｷﾐｯﾄﾞﾗﾝﾄﾞｽｸｴｱ(ｺｳｿｳﾄｳ)(6ｶｲ)","prefecture":"愛知県","city":"名古屋市中村区","street":"名駅ミッドランドスクエア（高層棟）（６階）"},{"zipCode":"4506207","prefectureKana":"ｱｲﾁｹﾝ","cityKana":"ﾅｺﾞﾔｼﾅｶﾑﾗｸ","streetKana":"ﾒｲｴｷﾐｯﾄﾞﾗﾝﾄﾞｽｸｴｱ(ｺｳｿｳﾄｳ)(7ｶｲ)","prefecture":"愛知県","city":"名古屋市中村区","street":"名駅ミッドランドスクエア（高層棟）（７階）"},{"zipCode":"4506208","prefectureKana":"ｱｲﾁｹﾝ","cityKana":"ﾅｺﾞﾔｼﾅｶﾑﾗｸ","streetKana":"ﾒｲｴｷﾐｯﾄﾞﾗﾝﾄﾞｽｸｴｱ(ｺｳｿｳﾄｳ)(8ｶｲ)","prefecture":"愛知県","city":"名古屋市中村区","street":"名駅ミッドランドスクエア（高層棟）（８階）"},{"zipCode":"4506209","prefectureKana":"ｱｲﾁｹﾝ","cityKana":"ﾅｺﾞﾔｼﾅｶﾑﾗｸ","streetKana":"ﾒｲｴｷﾐｯﾄﾞﾗﾝﾄﾞｽｸｴｱ(ｺｳｿｳﾄｳ)(9ｶｲ)","prefecture":"愛知県","city":"名古屋市中村区","street":"名駅ミッドランドスクエア（高層棟）（９階）"},{"zipCode":"4506210","prefectureKana":"ｱｲﾁｹﾝ","cityKana":"ﾅｺﾞﾔｼﾅｶﾑﾗｸ","streetKana":"ﾒｲｴｷﾐｯﾄﾞﾗﾝﾄﾞｽｸｴｱ(ｺｳｿｳﾄｳ)(10ｶｲ)","prefecture":"愛知県","city":"名古屋市中村区","street":"名駅ミッドランドスクエア（高層棟）（１０階）"},{"zipCode":"4506211","prefectureKana":"ｱｲﾁｹﾝ","cityKana":"ﾅｺﾞﾔｼﾅｶﾑﾗｸ","streetKana":"ﾒｲｴｷﾐｯﾄﾞﾗﾝﾄﾞｽｸｴｱ(ｺｳｿｳﾄｳ)(11ｶｲ)","prefecture":"愛知県","city":"名古屋市中村区","street":"名駅ミッドランドスクエア（高層棟）（１１階）"},{"zipCode":"4506212","prefectureKana":"ｱｲﾁｹﾝ","cityKana":"ﾅｺﾞﾔｼﾅｶﾑﾗｸ","streetKana":"ﾒｲｴｷﾐｯﾄﾞﾗﾝﾄﾞｽｸｴｱ(ｺｳｿｳﾄｳ)(12ｶｲ)","prefecture":"愛知県","city":"名古屋市中村区","street":"名駅ミッドランドスクエア（高層棟）（１２階）"},{"zipCode":"4506213","prefectureKana":"ｱｲﾁｹﾝ","cityKana":"ﾅｺﾞﾔｼﾅｶﾑﾗｸ","streetKana":"ﾒｲｴｷﾐｯﾄﾞﾗﾝﾄﾞｽｸｴｱ(ｺｳｿｳﾄｳ)(13ｶｲ)","prefecture":"愛知県","city":"名古屋市中村区","street":"名駅ミッドランドスクエア（高層棟）（１３階）"},{"zipCode":"4506214","prefectureKana":"ｱｲﾁｹﾝ","cityKana":"ﾅｺﾞﾔｼﾅｶﾑﾗｸ","streetKana":"ﾒｲｴｷﾐｯﾄﾞﾗﾝﾄﾞｽｸｴｱ(ｺｳｿｳﾄｳ)(14ｶｲ)","prefecture":"愛知県","city":"名古屋市中村区","street":"名駅ミッドランドスクエア（高層棟）（１４階）"},{"zipCode":"4506215","prefectureKana":"ｱｲﾁｹﾝ","cityKana":"ﾅｺﾞﾔｼﾅｶﾑﾗｸ","streetKana":"ﾒｲｴｷﾐｯﾄﾞﾗﾝﾄﾞｽｸｴｱ(ｺｳｿｳﾄｳ)(15ｶｲ)","prefecture":"愛知県","city":"名古屋市中村区","street":"名駅ミッドランドスクエア（高層棟）（１５階）"},{"zipCode":"4506216","prefectureKana":"ｱｲﾁｹﾝ","cityKana":"ﾅｺﾞﾔｼﾅｶﾑﾗｸ","streetKana":"ﾒｲｴｷﾐｯﾄﾞﾗﾝﾄﾞｽｸｴｱ(ｺｳｿｳﾄｳ)(16ｶｲ)","prefecture":"愛知県","city":"名古屋市中村区","street":"名駅ミッドランドスクエア（高層棟）（１６階）"},{"zipCode":"4506217","prefectureKana":"ｱｲﾁｹﾝ","cityKana":"ﾅｺﾞﾔｼﾅｶﾑﾗｸ","streetKana":"ﾒｲｴｷﾐｯﾄﾞﾗﾝﾄﾞｽｸｴｱ(ｺｳｿｳﾄｳ)(17ｶｲ)","prefecture":"愛知県","city":"名古屋市中村区","street":"名駅ミッドランドスクエア（高層棟）（１７階）"},{"zipCode":"4506218","prefectureKana":"ｱｲﾁｹﾝ","cityKana":"ﾅｺﾞﾔｼﾅｶﾑﾗｸ","streetKana":"ﾒｲｴｷﾐｯﾄﾞﾗﾝﾄﾞｽｸｴｱ(ｺｳｿｳﾄｳ)(18ｶｲ)","prefecture":"愛知県","city":"名古屋市中村区","street":"名駅ミッドランドスクエア（高層棟）（１８階）"},{"zipCode":"4506219","prefectureKana":"ｱｲﾁｹﾝ","cityKana":"ﾅｺﾞﾔｼﾅｶﾑﾗｸ","streetKana":"ﾒｲｴｷﾐｯﾄﾞﾗﾝﾄﾞｽｸｴｱ(ｺｳｿｳﾄｳ)(19ｶｲ)","prefecture":"愛知県","city":"名古屋市中村区","street":"名駅ミッドランドスクエア（高層棟）（１９階）"},{"zipCode":"4506220","prefectureKana":"ｱｲﾁｹﾝ","cityKana":"ﾅｺﾞﾔｼﾅｶﾑﾗｸ","streetKana":"ﾒｲｴｷﾐｯﾄﾞﾗﾝﾄﾞｽｸｴｱ(ｺｳｿｳﾄｳ)(20ｶｲ)","prefecture":"愛知県","city":"名古屋市中村区","street":"名駅ミッドランドスクエア（高層棟）（２０階）"},{"zipCode":"4506221","prefectureKana":"ｱｲﾁｹﾝ","cityKana":"ﾅｺﾞﾔｼﾅｶﾑﾗｸ","streetKana":"ﾒｲｴｷﾐｯﾄﾞﾗﾝﾄﾞｽｸｴｱ(ｺｳｿｳﾄｳ)(21ｶｲ)","prefecture":"愛知県","city":"名古屋市中村区","street":"名駅ミッドランドスクエア（高層棟）（２１階）"},{"zipCode":"4506222","prefectureKana":"ｱｲﾁｹﾝ","cityKana":"ﾅｺﾞﾔｼﾅｶﾑﾗｸ","streetKana":"ﾒｲｴｷﾐｯﾄﾞﾗﾝﾄﾞｽｸｴｱ(ｺｳｿｳﾄｳ)(22ｶｲ)","prefecture":"愛知県","city":"名古屋市中村区","street":"名駅ミッドランドスクエア（高層棟）（２２階）"},{"zipCode":"4506223","prefectureKana":"ｱｲﾁｹﾝ","cityKana":"ﾅｺﾞﾔｼﾅｶﾑﾗｸ","streetKana":"ﾒｲｴｷﾐｯﾄﾞﾗﾝﾄﾞｽｸｴｱ(ｺｳｿｳﾄｳ)(23ｶｲ)","prefecture":"愛知県","city":"名古屋市中村区","street":"名駅ミッドランドスクエア（高層棟）（２３階）"},{"zipCode":"4506224","prefectureKana":"ｱｲﾁｹﾝ","cityKana":"ﾅｺﾞﾔｼﾅｶﾑﾗｸ","streetKana":"ﾒｲｴｷﾐｯﾄﾞﾗﾝﾄﾞｽｸｴｱ(ｺｳｿｳﾄｳ)(24ｶｲ)","prefecture":"愛知県","city":"名古屋市中村区","street":"名駅ミッドランドスクエア（高層棟）（２４階）"},{"zipCode":"4506225","prefectureKana":"ｱｲﾁｹﾝ","cityKana":"ﾅｺﾞﾔｼﾅｶﾑﾗｸ","streetKana":"ﾒｲｴｷﾐｯﾄﾞﾗﾝﾄﾞｽｸｴｱ(ｺｳｿｳﾄｳ)(25ｶｲ)","prefecture":"愛知県","city":"名古屋市中村区","street":"名駅ミッドランドスクエア（高層棟）（２５階）"},{"zipCode":"4506226","prefectureKana":"ｱｲﾁｹﾝ","cityKana":"ﾅｺﾞﾔｼﾅｶﾑﾗｸ","streetKana":"ﾒｲｴｷﾐｯﾄﾞﾗﾝﾄﾞｽｸｴｱ(ｺｳｿｳﾄｳ)(26ｶｲ)","prefecture":"愛知県","city":"名古屋市中村区","street":"名駅ミッドランドスクエア（高層棟）（２６階）"},{"zipCode":"4506227","prefectureKana":"ｱｲﾁｹﾝ","cityKana":"ﾅｺﾞﾔｼﾅｶﾑﾗｸ","streetKana":"ﾒｲｴｷﾐｯﾄﾞﾗﾝﾄﾞｽｸｴｱ(ｺｳｿｳﾄｳ)(27ｶｲ)","prefecture":"愛知県","city":"名古屋市中村区","street":"名駅ミッドランドスクエア（高層棟）（２７階）"},{"zipCode":"4506228","prefectureKana":"ｱｲﾁｹﾝ","cityKana":"ﾅｺﾞﾔｼﾅｶﾑﾗｸ","streetKana":"ﾒｲｴｷﾐｯﾄﾞﾗﾝﾄﾞｽｸｴｱ(ｺｳｿｳﾄｳ)(28ｶｲ)","prefecture":"愛知県","city":"名古屋市中村区","street":"名駅ミッドランドスクエア（高層棟）（２８階）"},{"zipCode":"4506229","prefectureKana":"ｱｲﾁｹﾝ","cityKana":"ﾅｺﾞﾔｼﾅｶﾑﾗｸ","streetKana":"ﾒｲｴｷﾐｯﾄﾞﾗﾝﾄﾞｽｸｴｱ(ｺｳｿｳﾄｳ)(29ｶｲ)","prefecture":"愛知県","city":"名古屋市中村区","street":"名駅ミッドランドスクエア（高層棟）（２９階）"},{"zipCode":"4506230","prefectureKana":"ｱｲﾁｹﾝ","cityKana":"ﾅｺﾞﾔｼﾅｶﾑﾗｸ","streetKana":"ﾒｲｴｷﾐｯﾄﾞﾗﾝﾄﾞｽｸｴｱ(ｺｳｿｳﾄｳ)(30ｶｲ)","prefecture":"愛知県","city":"名古屋市中村区","street":"名駅ミッドランドスクエア（高層棟）（３０階）"},{"zipCode":"4506231","prefectureKana":"ｱｲﾁｹﾝ","cityKana":"ﾅｺﾞﾔｼﾅｶﾑﾗｸ","streetKana":"ﾒｲｴｷﾐｯﾄﾞﾗﾝﾄﾞｽｸｴｱ(ｺｳｿｳﾄｳ)(31ｶｲ)","prefecture":"愛知県","city":"名古屋市中村区","street":"名駅ミッドランドスクエア（高層棟）（３１階）"},{"zipCode":"4506232","prefectureKana":"ｱｲﾁｹﾝ","cityKana":"ﾅｺﾞﾔｼﾅｶﾑﾗｸ","streetKana":"ﾒｲｴｷﾐｯﾄﾞﾗﾝﾄﾞｽｸｴｱ(ｺｳｿｳﾄｳ)(32ｶｲ)","prefecture":"愛知県","city":"名古屋市中村区","street":"名駅ミッドランドスクエア（高層棟）（３２階）"},{"zipCode":"4506233","prefectureKana":"ｱｲﾁｹﾝ","cityKana":"ﾅｺﾞﾔｼﾅｶﾑﾗｸ","streetKana":"ﾒｲｴｷﾐｯﾄﾞﾗﾝﾄﾞｽｸｴｱ(ｺｳｿｳﾄｳ)(33ｶｲ)","prefecture":"愛知県","city":"名古屋市中村区","street":"名駅ミッドランドスクエア（高層棟）（３３階）"},{"zipCode":"4506234","prefectureKana":"ｱｲﾁｹﾝ","cityKana":"ﾅｺﾞﾔｼﾅｶﾑﾗｸ","streetKana":"ﾒｲｴｷﾐｯﾄﾞﾗﾝﾄﾞｽｸｴｱ(ｺｳｿｳﾄｳ)(34ｶｲ)","prefecture":"愛知県","city":"名古屋市中村区","street":"名駅ミッドランドスクエア（高層棟）（３４階）"},{"zipCode":"4506235","prefectureKana":"ｱｲﾁｹﾝ","cityKana":"ﾅｺﾞﾔｼﾅｶﾑﾗｸ","streetKana":"ﾒｲｴｷﾐｯﾄﾞﾗﾝﾄﾞｽｸｴｱ(ｺｳｿｳﾄｳ)(35ｶｲ)","prefecture":"愛知県","city":"名古屋市中村区","street":"名駅ミッドランドスクエア（高層棟）（３５階）"},{"zipCode":"4506236","prefectureKana":"ｱｲﾁｹﾝ","cityKana":"ﾅｺﾞﾔｼﾅｶﾑﾗｸ","streetKana":"ﾒｲｴｷﾐｯﾄﾞﾗﾝﾄﾞｽｸｴｱ(ｺｳｿｳﾄｳ)(36ｶｲ)","prefecture":"愛知県","city":"名古屋市中村区","street":"名駅ミッドランドスクエア（高層棟）（３６階）"},{"zipCode":"4506237","prefectureKana":"ｱｲﾁｹﾝ","cityKana":"ﾅｺﾞﾔｼﾅｶﾑﾗｸ","streetKana":"ﾒｲｴｷﾐｯﾄﾞﾗﾝﾄﾞｽｸｴｱ(ｺｳｿｳﾄｳ)(37ｶｲ)","prefecture":"愛知県","city":"名古屋市中村区","street":"名駅ミッドランドスクエア（高層棟）（３７階）"},{"zipCode":"4506238","prefectureKana":"ｱｲﾁｹﾝ","cityKana":"ﾅｺﾞﾔｼﾅｶﾑﾗｸ","streetKana":"ﾒｲｴｷﾐｯﾄﾞﾗﾝﾄﾞｽｸｴｱ(ｺｳｿｳﾄｳ)(38ｶｲ)","prefecture":"愛知県","city":"名古屋市中村区","street":"名駅ミッドランドスクエア（高層棟）（３８階）"},{"zipCode":"4506239","prefectureKana":"ｱｲﾁｹﾝ","cityKana":"ﾅｺﾞﾔｼﾅｶﾑﾗｸ","streetKana":"ﾒｲｴｷﾐｯﾄﾞﾗﾝﾄﾞｽｸｴｱ(ｺｳｿｳﾄｳ)(39ｶｲ)","prefecture":"愛知県","city":"名古屋市中村区","street":"名駅ミッドランドスクエア（高層棟）（３９階）"},{"zipCode":"4506240","prefectureKana":"ｱｲﾁｹﾝ","cityKana":"ﾅｺﾞﾔｼﾅｶﾑﾗｸ","streetKana":"ﾒｲｴｷﾐｯﾄﾞﾗﾝﾄﾞｽｸｴｱ(ｺｳｿｳﾄｳ)(40ｶｲ)","prefecture":"愛知県","city":"名古屋市中村区","street":"名駅ミッドランドスクエア（高層棟）（４０階）"},{"zipCode":"4506241","prefectureKana":"ｱｲﾁｹﾝ","cityKana":"ﾅｺﾞﾔｼﾅｶﾑﾗｸ","streetKana":"ﾒｲｴｷﾐｯﾄﾞﾗﾝﾄﾞｽｸｴｱ(ｺｳｿｳﾄｳ)(41ｶｲ)","prefecture":"愛知県","city":"名古屋市中村区","street":"名駅ミッドランドスクエア（高層棟）（４１階）"},{"zipCode":"4506242","prefectureKana":"ｱｲﾁｹﾝ","cityKana":"ﾅｺﾞﾔｼﾅｶﾑﾗｸ","streetKana":"ﾒｲｴｷﾐｯﾄﾞﾗﾝﾄﾞｽｸｴｱ(ｺｳｿｳﾄｳ)(42ｶｲ)","prefecture":"愛知県","city":"名古屋市中村区","street":"名駅ミッドランドスクエア（高層棟）（４２階）"},{"zipCode":"4506243","prefectureKana":"ｱｲﾁｹﾝ","cityKana":"ﾅｺﾞﾔｼﾅｶﾑﾗｸ","streetKana":"ﾒｲｴｷﾐｯﾄﾞﾗﾝﾄﾞｽｸｴｱ(ｺｳｿｳﾄｳ)(43ｶｲ)","prefecture":"愛知県","city":"名古屋市中村区","street":"名駅ミッドランドスクエア（高層棟）（４３階）"},{"zipCode":"4506244","prefectureKana":"ｱｲﾁｹﾝ","cityKana":"ﾅｺﾞﾔｼﾅｶﾑﾗｸ","streetKana":"ﾒｲｴｷﾐｯﾄﾞﾗﾝﾄﾞｽｸｴｱ(ｺｳｿｳﾄｳ)(44ｶｲ)","prefecture":"愛知県","city":"名古屋市中村区","street":"名駅ミッドランドスクエア（高層棟）（４４階）"},{"zipCode":"4506245","prefectureKana":"ｱｲﾁｹﾝ","cityKana":"ﾅｺﾞﾔｼﾅｶﾑﾗｸ","streetKana":"ﾒｲｴｷﾐｯﾄﾞﾗﾝﾄﾞｽｸｴｱ(ｺｳｿｳﾄｳ)(45ｶｲ)","prefecture":"愛知県","city":"名古屋市中村区","street":"名駅ミッドランドスクエア（高層棟）（４５階）"},{"zipCode":"4506246","prefectureKana":"ｱｲﾁｹﾝ","cityKana":"ﾅｺﾞﾔｼﾅｶﾑﾗｸ","streetKana":"ﾒｲｴｷﾐｯﾄﾞﾗﾝﾄﾞｽｸｴｱ(ｺｳｿｳﾄｳ)(46ｶｲ)","prefecture":"愛知県","city":"名古屋市中村区","street":"名駅ミッドランドスクエア（高層棟）（４６階）"},{"zipCode":"4506247","prefectureKana":"ｱｲﾁｹﾝ","cityKana":"ﾅｺﾞﾔｼﾅｶﾑﾗｸ","streetKana":"ﾒｲｴｷﾐｯﾄﾞﾗﾝﾄﾞｽｸｴｱ(ｺｳｿｳﾄｳ)(47ｶｲ)","prefecture":"愛知県","city":"名古屋市中村区","street":"名駅ミッドランドスクエア（高層棟）（４７階）"},{"zipCode":"4500002","prefectureKana":"ｱｲﾁｹﾝ","cityKana":"ﾅｺﾞﾔｼﾅｶﾑﾗｸ","streetKana":"ﾒｲｴｷ(ｿﾉﾀ)","prefecture":"愛知県","city":"名古屋市中村区","street":"名駅（その他）"},{"zipCode":"4500003","prefectureKana":"ｱｲﾁｹﾝ","cityKana":"ﾅｺﾞﾔｼﾅｶﾑﾗｸ","streetKana":"ﾒｲｴｷﾐﾅﾐ","prefecture":"愛知県","city":"名古屋市中村区","street":"名駅南"}]