[{"zipCode":"4520813","prefectureKana":"ｱｲﾁｹﾝ","cityKana":"ﾅｺﾞﾔｼﾆｼｸ","streetKana":"ｱｶｼﾛﾁｮｳ","prefecture":"愛知県","city":"名古屋市西区","street":"赤城町"},{"zipCode":"4520823","prefectureKana":"ｱｲﾁｹﾝ","cityKana":"ﾅｺﾞﾔｼﾆｼｸ","streetKana":"ｱｼﾊﾗﾁｮｳ","prefecture":"愛知県","city":"名古屋市西区","street":"あし原町"},{"zipCode":"4520836","prefectureKana":"ｱｲﾁｹﾝ","cityKana":"ﾅｺﾞﾔｼﾆｼｸ","streetKana":"ｱﾗｷﾁｮｳ","prefecture":"愛知県","city":"名古屋市西区","street":"新木町"},{"zipCode":"4520805","prefectureKana":"ｱｲﾁｹﾝ","cityKana":"ﾅｺﾞﾔｼﾆｼｸ","streetKana":"ｲﾁﾊﾞｷﾞﾁｮｳ","prefecture":"愛知県","city":"名古屋市西区","street":"市場木町"},{"zipCode":"4520846","prefectureKana":"ｱｲﾁｹﾝ","cityKana":"ﾅｺﾞﾔｼﾆｼｸ","streetKana":"ｳｷﾉﾁｮｳ","prefecture":"愛知県","city":"名古屋市西区","street":"浮野町"},{"zipCode":"4520807","prefectureKana":"ｱｲﾁｹﾝ","cityKana":"ﾅｺﾞﾔｼﾆｼｸ","streetKana":"ｳﾀｻﾄﾁｮｳ","prefecture":"愛知県","city":"名古屋市西区","street":"歌里町"},{"zipCode":"4520831","prefectureKana":"ｱｲﾁｹﾝ","cityKana":"ﾅｺﾞﾔｼﾆｼｸ","streetKana":"ｴﾝﾒｲﾁｮｳ","prefecture":"愛知県","city":"名古屋市西区","street":"円明町"},{"zipCode":"4520803","prefectureKana":"ｱｲﾁｹﾝ","cityKana":"ﾅｺﾞﾔｼﾆｼｸ","streetKana":"ｵｵﾉｷﾞ","prefecture":"愛知県","city":"名古屋市西区","street":"大野木"},{"zipCode":"4520821","prefectureKana":"ｱｲﾁｹﾝ","cityKana":"ﾅｺﾞﾔｼﾆｼｸ","streetKana":"ｶﾐｵﾀｲ","prefecture":"愛知県","city":"名古屋市西区","street":"上小田井"},{"zipCode":"4520844","prefectureKana":"ｱｲﾁｹﾝ","cityKana":"ﾅｺﾞﾔｼﾆｼｸ","streetKana":"ｶﾐﾊﾞｼﾁｮｳ","prefecture":"愛知県","city":"名古屋市西区","street":"上橋町"},{"zipCode":"4520816","prefectureKana":"ｱｲﾁｹﾝ","cityKana":"ﾅｺﾞﾔｼﾆｼｸ","streetKana":"ｷｾｲﾁｮｳ","prefecture":"愛知県","city":"名古屋市西区","street":"貴生町"},{"zipCode":"4520834","prefectureKana":"ｱｲﾁｹﾝ","cityKana":"ﾅｺﾞﾔｼﾆｼｸ","streetKana":"ｷﾏｴﾁｮｳ","prefecture":"愛知県","city":"名古屋市西区","street":"木前町"},{"zipCode":"4520801","prefectureKana":"ｱｲﾁｹﾝ","cityKana":"ﾅｺﾞﾔｼﾆｼｸ","streetKana":"ｷﾖｻﾄﾁｮｳ","prefecture":"愛知県","city":"名古屋市西区","street":"清里町"},{"zipCode":"4520806","prefectureKana":"ｱｲﾁｹﾝ","cityKana":"ﾅｺﾞﾔｼﾆｼｸ","streetKana":"ｺﾞｻｲﾋﾞﾁｮｳ","prefecture":"愛知県","city":"名古屋市西区","street":"五才美町"},{"zipCode":"4520824","prefectureKana":"ｱｲﾁｹﾝ","cityKana":"ﾅｺﾞﾔｼﾆｼｸ","streetKana":"ｺﾓﾊﾗﾁｮｳ","prefecture":"愛知県","city":"名古屋市西区","street":"こも原町"},{"zipCode":"4520804","prefectureKana":"ｱｲﾁｹﾝ","cityKana":"ﾅｺﾞﾔｼﾆｼｸ","streetKana":"ｻｶｲﾄﾞﾁｮｳ","prefecture":"愛知県","city":"名古屋市西区","street":"坂井戸町"},{"zipCode":"4520841","prefectureKana":"ｱｲﾁｹﾝ","cityKana":"ﾅｺﾞﾔｼﾆｼｸ","streetKana":"ｼﾛﾆｼﾁｮｳ","prefecture":"愛知県","city":"名古屋市西区","street":"城西町"},{"zipCode":"4520842","prefectureKana":"ｱｲﾁｹﾝ","cityKana":"ﾅｺﾞﾔｼﾆｼｸ","streetKana":"ｼﾛﾏﾁ","prefecture":"愛知県","city":"名古屋市西区","street":"城町"},{"zipCode":"4520811","prefectureKana":"ｱｲﾁｹﾝ","cityKana":"ﾅｺﾞﾔｼﾆｼｸ","streetKana":"ｽﾅﾊﾗﾁｮｳ","prefecture":"愛知県","city":"名古屋市西区","street":"砂原町"},{"zipCode":"4520812","prefectureKana":"ｱｲﾁｹﾝ","cityKana":"ﾅｺﾞﾔｼﾆｼｸ","streetKana":"ﾀﾏｲｹﾁｮｳ","prefecture":"愛知県","city":"名古屋市西区","street":"玉池町"},{"zipCode":"4520837","prefectureKana":"ｱｲﾁｹﾝ","cityKana":"ﾅｺﾞﾔｼﾆｼｸ","streetKana":"ﾄｵﾎｳﾁｮｳ","prefecture":"愛知県","city":"名古屋市西区","street":"十方町"},{"zipCode":"4520822","prefectureKana":"ｱｲﾁｹﾝ","cityKana":"ﾅｺﾞﾔｼﾆｼｸ","streetKana":"ﾅｶｵﾀｲ","prefecture":"愛知県","city":"名古屋市西区","street":"中小田井"},{"zipCode":"4520845","prefectureKana":"ｱｲﾁｹﾝ","cityKana":"ﾅｺﾞﾔｼﾆｼｸ","streetKana":"ﾅｶﾇﾏﾁｮｳ","prefecture":"愛知県","city":"名古屋市西区","street":"中沼町"},{"zipCode":"4520838","prefectureKana":"ｱｲﾁｹﾝ","cityKana":"ﾅｺﾞﾔｼﾆｼｸ","streetKana":"ﾅｶﾞｻｷﾁｮｳ","prefecture":"愛知県","city":"名古屋市西区","street":"長先町"},{"zipCode":"4520848","prefectureKana":"ｱｲﾁｹﾝ","cityKana":"ﾅｺﾞﾔｼﾆｼｸ","streetKana":"ﾆｼﾊﾗﾁｮｳ","prefecture":"愛知県","city":"名古屋市西区","street":"西原町"},{"zipCode":"4520847","prefectureKana":"ｱｲﾁｹﾝ","cityKana":"ﾅｺﾞﾔｼﾆｼｸ","streetKana":"ﾉﾐﾅﾐﾁｮｳ","prefecture":"愛知県","city":"名古屋市西区","street":"野南町"},{"zipCode":"4520809","prefectureKana":"ｱｲﾁｹﾝ","cityKana":"ﾅｺﾞﾔｼﾆｼｸ","streetKana":"ﾊﾅﾊﾗﾁｮｳ","prefecture":"愛知県","city":"名古屋市西区","street":"花原町"},{"zipCode":"4520802","prefectureKana":"ｱｲﾁｹﾝ","cityKana":"ﾅｺﾞﾔｼﾆｼｸ","streetKana":"ﾋﾗ","prefecture":"愛知県","city":"名古屋市西区","street":"比良"},{"zipCode":"4520832","prefectureKana":"ｱｲﾁｹﾝ","cityKana":"ﾅｺﾞﾔｼﾆｼｸ","streetKana":"ﾋﾗﾃﾞﾁｮｳ","prefecture":"愛知県","city":"名古屋市西区","street":"平出町"},{"zipCode":"4520843","prefectureKana":"ｱｲﾁｹﾝ","cityKana":"ﾅｺﾞﾔｼﾆｼｸ","streetKana":"ﾋﾗﾅｶﾁｮｳ","prefecture":"愛知県","city":"名古屋市西区","street":"平中町"},{"zipCode":"4520817","prefectureKana":"ｱｲﾁｹﾝ","cityKana":"ﾅｺﾞﾔｼﾆｼｸ","streetKana":"ﾌﾀｶﾀﾁｮｳ","prefecture":"愛知県","city":"名古屋市西区","street":"二方町"},{"zipCode":"4520808","prefectureKana":"ｱｲﾁｹﾝ","cityKana":"ﾅｺﾞﾔｼﾆｼｸ","streetKana":"ﾎｳﾁﾁｮｳ","prefecture":"愛知県","city":"名古屋市西区","street":"宝地町"},{"zipCode":"4520835","prefectureKana":"ｱｲﾁｹﾝ","cityKana":"ﾅｺﾞﾔｼﾆｼｸ","streetKana":"ﾏﾙﾉ","prefecture":"愛知県","city":"名古屋市西区","street":"丸野"},{"zipCode":"4520814","prefectureKana":"ｱｲﾁｹﾝ","cityKana":"ﾅｺﾞﾔｼﾆｼｸ","streetKana":"ﾐﾅﾐｶﾜﾁｮｳ","prefecture":"愛知県","city":"名古屋市西区","street":"南川町"},{"zipCode":"4520839","prefectureKana":"ｱｲﾁｹﾝ","cityKana":"ﾅｺﾞﾔｼﾆｼｸ","streetKana":"ﾐﾖﾘﾁｮｳ","prefecture":"愛知県","city":"名古屋市西区","street":"見寄町"},{"zipCode":"4520815","prefectureKana":"ｱｲﾁｹﾝ","cityKana":"ﾅｺﾞﾔｼﾆｼｸ","streetKana":"ﾔｽｼﾞﾁｮｳ","prefecture":"愛知県","city":"名古屋市西区","street":"八筋町"},{"zipCode":"4520833","prefectureKana":"ｱｲﾁｹﾝ","cityKana":"ﾅｺﾞﾔｼﾆｼｸ","streetKana":"ﾔﾏｷ","prefecture":"愛知県","city":"名古屋市西区","street":"山木"},{"zipCode":"4520818","prefectureKana":"ｱｲﾁｹﾝ","cityKana":"ﾅｺﾞﾔｼﾆｼｸ","streetKana":"ﾔﾏﾀﾞﾁｮｳ","prefecture":"愛知県","city":"名古屋市西区","street":"山田町"},{"zipCode":"4520000","prefectureKana":"ｱｲﾁｹﾝ","cityKana":"ｷﾖｽｼ","streetKana":"ｲｶﾆｹｲｻｲｶﾞﾅｲﾊﾞｱｲ","prefecture":"愛知県","city":"清須市","street":"以下に掲載がない場合"},{"zipCode":"4520932","prefectureKana":"ｱｲﾁｹﾝ","cityKana":"ｷﾖｽｼ","streetKana":"ｱｻﾋ","prefecture":"愛知県","city":"清須市","street":"朝日"},{"zipCode":"4520901","prefectureKana":"ｱｲﾁｹﾝ","cityKana":"ｷﾖｽｼ","streetKana":"ｱﾜﾗ","prefecture":"愛知県","city":"清須市","street":"阿原"},{"zipCode":"4520931","prefectureKana":"ｱｲﾁｹﾝ","cityKana":"ｷﾖｽｼ","streetKana":"ｲﾁﾊﾞ","prefecture":"愛知県","city":"清須市","street":"一場"},{"zipCode":"4520934","prefectureKana":"ｱｲﾁｹﾝ","cityKana":"ｷﾖｽｼ","streetKana":"ｵｵｼﾏ","prefecture":"愛知県","city":"清須市","street":"大嶋"},{"zipCode":"4520963","prefectureKana":"ｱｲﾁｹﾝ","cityKana":"ｷﾖｽｼ","streetKana":"ｵﾘﾂﾞﾁｮｳ","prefecture":"愛知県","city":"清須市","street":"下津町"},{"zipCode":"4520913","prefectureKana":"ｱｲﾁｹﾝ","cityKana":"ｷﾖｽｼ","streetKana":"ｶﾐｶﾞﾜﾗ","prefecture":"愛知県","city":"清須市","street":"上河原"},{"zipCode":"4520935","prefectureKana":"ｱｲﾁｹﾝ","cityKana":"ｷﾖｽｼ","streetKana":"ｷﾀｲﾁﾊﾞﾎﾝﾏﾁ","prefecture":"愛知県","city":"清須市","street":"北市場本町"},{"zipCode":"4520942","prefectureKana":"ｱｲﾁｹﾝ","cityKana":"ｷﾖｽｼ","streetKana":"ｷﾖｽ","prefecture":"愛知県","city":"清須市","street":"清洲"},{"zipCode":"4520916","prefectureKana":"ｱｲﾁｹﾝ","cityKana":"ｷﾖｽｼ","streetKana":"ｼﾓｶﾞﾜﾗ","prefecture":"愛知県","city":"清須市","street":"下河原"},{"zipCode":"4520944","prefectureKana":"ｱｲﾁｹﾝ","cityKana":"ｷﾖｽｼ","streetKana":"ｼﾞｮｳｼﾞｮｳ","prefecture":"愛知県","city":"清須市","street":"上条"},{"zipCode":"4520943","prefectureKana":"ｱｲﾁｹﾝ","cityKana":"ｷﾖｽｼ","streetKana":"ｼﾝｷﾖｽ","prefecture":"愛知県","city":"清須市","street":"新清洲"},{"zipCode":"4520905","prefectureKana":"ｱｲﾁｹﾝ","cityKana":"ｷﾖｽｼ","streetKana":"ｽｶｸﾞﾁ","prefecture":"愛知県","city":"清須市","street":"須ケ口"},{"zipCode":"4520912","prefectureKana":"ｱｲﾁｹﾝ","cityKana":"ｷﾖｽｼ","streetKana":"ｽｶｸﾞﾁｴｷﾏｴ","prefecture":"愛知県","city":"清須市","street":"須ケ口駅前"},{"zipCode":"4520903","prefectureKana":"ｱｲﾁｹﾝ","cityKana":"ｷﾖｽｼ","streetKana":"ｽｹｼﾁ(1､2ﾁｮｳﾒ)","prefecture":"愛知県","city":"清須市","street":"助七（１、２丁目）"},{"zipCode":"4520902","prefectureKana":"ｱｲﾁｹﾝ","cityKana":"ｷﾖｽｼ","streetKana":"ｽｹｼﾁ(ｿﾉﾀ)","prefecture":"愛知県","city":"清須市","street":"助七（その他）"},{"zipCode":"4520945","prefectureKana":"ｱｲﾁｹﾝ","cityKana":"ｷﾖｽｼ","streetKana":"ﾂﾁﾀﾞ","prefecture":"愛知県","city":"清須市","street":"土田"},{"zipCode":"4520908","prefectureKana":"ｱｲﾁｹﾝ","cityKana":"ｷﾖｽｼ","streetKana":"ﾃﾗﾉ","prefecture":"愛知県","city":"清須市","street":"寺野"},{"zipCode":"4520918","prefectureKana":"ｱｲﾁｹﾝ","cityKana":"ｷﾖｽｼ","streetKana":"ﾄｳｴｲ","prefecture":"愛知県","city":"清須市","street":"桃栄"},{"zipCode":"4520914","prefectureKana":"ｱｲﾁｹﾝ","cityKana":"ｷﾖｽｼ","streetKana":"ﾄﾞｷﾉ","prefecture":"愛知県","city":"清須市","street":"土器野"},{"zipCode":"4520915","prefectureKana":"ｱｲﾁｹﾝ","cityKana":"ｷﾖｽｼ","streetKana":"ﾅｶｶﾞﾜﾗ","prefecture":"愛知県","city":"清須市","street":"中河原"},{"zipCode":"4520907","prefectureKana":"ｱｲﾁｹﾝ","cityKana":"ｷﾖｽｼ","streetKana":"ﾅﾍﾞｶﾀ","prefecture":"愛知県","city":"清須市","street":"鍋片"},{"zipCode":"4520941","prefectureKana":"ｱｲﾁｹﾝ","cityKana":"ｷﾖｽｼ","streetKana":"ﾆｼｲﾁﾊﾞ","prefecture":"愛知県","city":"清須市","street":"西市場"},{"zipCode":"4520911","prefectureKana":"ｱｲﾁｹﾝ","cityKana":"ｷﾖｽｼ","streetKana":"ﾆｼｽｶｸﾞﾁ","prefecture":"愛知県","city":"清須市","street":"西須ケ口"},{"zipCode":"4520933","prefectureKana":"ｱｲﾁｹﾝ","cityKana":"ｷﾖｽｼ","streetKana":"ﾆｼﾀﾅｶ","prefecture":"愛知県","city":"清須市","street":"西田中"},{"zipCode":"4520064","prefectureKana":"ｱｲﾁｹﾝ","cityKana":"ｷﾖｽｼ","streetKana":"ﾆｼﾋﾞﾜｼﾞﾏﾁｮｳｱｻﾋ","prefecture":"愛知県","city":"清須市","street":"西枇杷島町旭"},{"zipCode":"4520015","prefectureKana":"ｱｲﾁｹﾝ","cityKana":"ｷﾖｽｼ","streetKana":"ﾆｼﾋﾞﾜｼﾞﾏﾁｮｳｲｽﾞﾐ","prefecture":"愛知県","city":"清須市","street":"西枇杷島町泉"},{"zipCode":"4520007","prefectureKana":"ｱｲﾁｹﾝ","cityKana":"ｷﾖｽｼ","streetKana":"ﾆｼﾋﾞﾜｼﾞﾏﾁｮｳｲｯﾀﾝｺﾞｾﾜﾘ","prefecture":"愛知県","city":"清須市","street":"西枇杷島町一反五畝割"},{"zipCode":"4520010","prefectureKana":"ｱｲﾁｹﾝ","cityKana":"ｷﾖｽｼ","streetKana":"ﾆｼﾋﾞﾜｼﾞﾏﾁｮｳｲﾅｶﾌﾞ","prefecture":"愛知県","city":"清須市","street":"西枇杷島町稲株"},{"zipCode":"4520005","prefectureKana":"ｱｲﾁｹﾝ","cityKana":"ｷﾖｽｼ","streetKana":"ﾆｼﾋﾞﾜｼﾞﾏﾁｮｳｴﾋﾞｽ","prefecture":"愛知県","city":"清須市","street":"西枇杷島町恵比須"},{"zipCode":"4520051","prefectureKana":"ｱｲﾁｹﾝ","cityKana":"ｷﾖｽｼ","streetKana":"ﾆｼﾋﾞﾜｼﾞﾏﾁｮｳｵｵﾉ","prefecture":"愛知県","city":"清須市","street":"西枇杷島町大野"},{"zipCode":"4520014","prefectureKana":"ｱｲﾁｹﾝ","cityKana":"ｷﾖｽｼ","streetKana":"ﾆｼﾋﾞﾜｼﾞﾏﾁｮｳｵｼﾊﾞﾅ","prefecture":"愛知県","city":"清須市","street":"西枇杷島町押花"},{"zipCode":"4520021","prefectureKana":"ｱｲﾁｹﾝ","cityKana":"ｷﾖｽｼ","streetKana":"ﾆｼﾋﾞﾜｼﾞﾏﾁｮｳｵﾀｲ","prefecture":"愛知県","city":"清須市","street":"西枇杷島町小田井"},{"zipCode":"4520041","prefectureKana":"ｱｲﾁｹﾝ","cityKana":"ｷﾖｽｼ","streetKana":"ﾆｼﾋﾞﾜｼﾞﾏﾁｮｳｵﾉﾀﾞ","prefecture":"愛知県","city":"清須市","street":"西枇杷島町小野田"},{"zipCode":"4520067","prefectureKana":"ｱｲﾁｹﾝ","cityKana":"ｷﾖｽｼ","streetKana":"ﾆｼﾋﾞﾜｼﾞﾏﾁｮｳｶｴﾁ","prefecture":"愛知県","city":"清須市","street":"西枇杷島町替地"},{"zipCode":"4520024","prefectureKana":"ｱｲﾁｹﾝ","cityKana":"ｷﾖｽｼ","streetKana":"ﾆｼﾋﾞﾜｼﾞﾏﾁｮｳｶﾀﾏﾁ","prefecture":"愛知県","city":"清須市","street":"西枇杷島町片町"},{"zipCode":"4520022","prefectureKana":"ｱｲﾁｹﾝ","cityKana":"ｷﾖｽｼ","streetKana":"ﾆｼﾋﾞﾜｼﾞﾏﾁｮｳｶﾐｼﾝ","prefecture":"愛知県","city":"清須市","street":"西枇杷島町上新"},{"zipCode":"4520042","prefectureKana":"ｱｲﾁｹﾝ","cityKana":"ｷﾖｽｼ","streetKana":"ﾆｼﾋﾞﾜｼﾞﾏﾁｮｳｶﾜｸﾞﾁ","prefecture":"愛知県","city":"清須市","street":"西枇杷島町川口"},{"zipCode":"4520055","prefectureKana":"ｱｲﾁｹﾝ","cityKana":"ｷﾖｽｼ","streetKana":"ﾆｼﾋﾞﾜｼﾞﾏﾁｮｳｷﾀﾌﾀﾂｲﾘ","prefecture":"愛知県","city":"清須市","street":"西枇杷島町北二ツ杁"},{"zipCode":"4520012","prefectureKana":"ｱｲﾁｹﾝ","cityKana":"ｷﾖｽｼ","streetKana":"ﾆｼﾋﾞﾜｼﾞﾏﾁｮｳｷﾀﾔﾏﾄ","prefecture":"愛知県","city":"清須市","street":"西枇杷島町北大和"},{"zipCode":"4520001","prefectureKana":"ｱｲﾁｹﾝ","cityKana":"ｷﾖｽｼ","streetKana":"ﾆｼﾋﾞﾜｼﾞﾏﾁｮｳｺｼﾞｮｳ","prefecture":"愛知県","city":"清須市","street":"西枇杷島町古城"},{"zipCode":"4520062","prefectureKana":"ｱｲﾁｹﾝ","cityKana":"ｷﾖｽｼ","streetKana":"ﾆｼﾋﾞﾜｼﾞﾏﾁｮｳｺﾞｾﾜﾘ","prefecture":"愛知県","city":"清須市","street":"西枇杷島町五畝割"},{"zipCode":"4520061","prefectureKana":"ｱｲﾁｹﾝ","cityKana":"ｷﾖｽｼ","streetKana":"ﾆｼﾋﾞﾜｼﾞﾏﾁｮｳｺﾊﾞﾂﾞｶ","prefecture":"愛知県","city":"清須市","street":"西枇杷島町小場塚"},{"zipCode":"4520066","prefectureKana":"ｱｲﾁｹﾝ","cityKana":"ｷﾖｽｼ","streetKana":"ﾆｼﾋﾞﾜｼﾞﾏﾁｮｳｼﾊﾞﾉｼﾝﾃﾞﾝ","prefecture":"愛知県","city":"清須市","street":"西枇杷島町芝野新田"},{"zipCode":"4520023","prefectureKana":"ｱｲﾁｹﾝ","cityKana":"ｷﾖｽｼ","streetKana":"ﾆｼﾋﾞﾜｼﾞﾏﾁｮｳｼﾓｼﾝ","prefecture":"愛知県","city":"清須市","street":"西枇杷島町下新"},{"zipCode":"4520017","prefectureKana":"ｱｲﾁｹﾝ","cityKana":"ｷﾖｽｼ","streetKana":"ﾆｼﾋﾞﾜｼﾞﾏﾁｮｳｼﾓｽｲﾘ","prefecture":"愛知県","city":"清須市","street":"西枇杷島町下砂入"},{"zipCode":"4520025","prefectureKana":"ｱｲﾁｹﾝ","cityKana":"ｷﾖｽｼ","streetKana":"ﾆｼﾋﾞﾜｼﾞﾏﾁｮｳｼﾞｭﾂｹﾝｳﾗ","prefecture":"愛知県","city":"清須市","street":"西枇杷島町十軒裏"},{"zipCode":"4520011","prefectureKana":"ｱｲﾁｹﾝ","cityKana":"ｷﾖｽｼ","streetKana":"ﾆｼﾋﾞﾜｼﾞﾏﾁｮｳｼﾞｮｳﾅﾐ","prefecture":"愛知県","city":"清須市","street":"西枇杷島町城並"},{"zipCode":"4520016","prefectureKana":"ｱｲﾁｹﾝ","cityKana":"ｷﾖｽｼ","streetKana":"ﾆｼﾋﾞﾜｼﾞﾏﾁｮｳｽｲﾘ","prefecture":"愛知県","city":"清須市","street":"西枇杷島町砂入"},{"zipCode":"4520003","prefectureKana":"ｱｲﾁｹﾝ","cityKana":"ｷﾖｽｼ","streetKana":"ﾆｼﾋﾞﾜｼﾞﾏﾁｮｳｽｴﾋﾛ","prefecture":"愛知県","city":"清須市","street":"西枇杷島町末広"},{"zipCode":"4520018","prefectureKana":"ｱｲﾁｹﾝ","cityKana":"ｷﾖｽｼ","streetKana":"ﾆｼﾋﾞﾜｼﾞﾏﾁｮｳｽﾐﾖｼ","prefecture":"愛知県","city":"清須市","street":"西枇杷島町住吉"},{"zipCode":"4520004","prefectureKana":"ｱｲﾁｹﾝ","cityKana":"ｷﾖｽｼ","streetKana":"ﾆｼﾋﾞﾜｼﾞﾏﾁｮｳﾀﾞｲｺｸ","prefecture":"愛知県","city":"清須市","street":"西枇杷島町大黒"},{"zipCode":"4520052","prefectureKana":"ｱｲﾁｹﾝ","cityKana":"ｷﾖｽｼ","streetKana":"ﾆｼﾋﾞﾜｼﾞﾏﾁｮｳﾀﾂｼﾝﾃﾞﾝ","prefecture":"愛知県","city":"清須市","street":"西枇杷島町辰新田"},{"zipCode":"4520008","prefectureKana":"ｱｲﾁｹﾝ","cityKana":"ｷﾖｽｼ","streetKana":"ﾆｼﾋﾞﾜｼﾞﾏﾁｮｳﾁﾘｮｳ","prefecture":"愛知県","city":"清須市","street":"西枇杷島町地領"},{"zipCode":"4520035","prefectureKana":"ｱｲﾁｹﾝ","cityKana":"ｷﾖｽｼ","streetKana":"ﾆｼﾋﾞﾜｼﾞﾏﾁｮｳﾄﾝﾔ","prefecture":"愛知県","city":"清須市","street":"西枇杷島町問屋"},{"zipCode":"4520063","prefectureKana":"ｱｲﾁｹﾝ","cityKana":"ｷﾖｽｼ","streetKana":"ﾆｼﾋﾞﾜｼﾞﾏﾁｮｳﾅﾅｾﾜﾘ","prefecture":"愛知県","city":"清須市","street":"西枇杷島町七畝割"},{"zipCode":"4520046","prefectureKana":"ｱｲﾁｹﾝ","cityKana":"ｷﾖｽｼ","streetKana":"ﾆｼﾋﾞﾜｼﾞﾏﾁｮｳﾆｼｻｻｺﾊﾗ","prefecture":"愛知県","city":"清須市","street":"西枇杷島町西笹子原"},{"zipCode":"4520009","prefectureKana":"ｱｲﾁｹﾝ","cityKana":"ｷﾖｽｼ","streetKana":"ﾆｼﾋﾞﾜｼﾞﾏﾁｮｳﾆｼﾊｯﾁｮｳ","prefecture":"愛知県","city":"清須市","street":"西枇杷島町西八丁"},{"zipCode":"4520045","prefectureKana":"ｱｲﾁｹﾝ","cityKana":"ｷﾖｽｼ","streetKana":"ﾆｼﾋﾞﾜｼﾞﾏﾁｮｳﾆｼﾛｯｹﾝ","prefecture":"愛知県","city":"清須市","street":"西枇杷島町西六軒"},{"zipCode":"4520068","prefectureKana":"ｱｲﾁｹﾝ","cityKana":"ｷﾖｽｼ","streetKana":"ﾆｼﾋﾞﾜｼﾞﾏﾁｮｳﾈｼﾝﾃﾞﾝ","prefecture":"愛知県","city":"清須市","street":"西枇杷島町子新田"},{"zipCode":"4520026","prefectureKana":"ｱｲﾁｹﾝ","cityKana":"ｷﾖｽｼ","streetKana":"ﾆｼﾋﾞﾜｼﾞﾏﾁｮｳﾊｼﾂﾞﾒ","prefecture":"愛知県","city":"清須市","street":"西枇杷島町橋詰"},{"zipCode":"4520002","prefectureKana":"ｱｲﾁｹﾝ","cityKana":"ｷﾖｽｼ","streetKana":"ﾆｼﾋﾞﾜｼﾞﾏﾁｮｳﾊﾅｻｷ","prefecture":"愛知県","city":"清須市","street":"西枇杷島町花咲"},{"zipCode":"4520047","prefectureKana":"ｱｲﾁｹﾝ","cityKana":"ｷﾖｽｼ","streetKana":"ﾆｼﾋﾞﾜｼﾞﾏﾁｮｳﾋｶﾞｼｻｻｺﾊﾗ","prefecture":"愛知県","city":"清須市","street":"西枇杷島町東笹子原"},{"zipCode":"4520043","prefectureKana":"ｱｲﾁｹﾝ","cityKana":"ｷﾖｽｼ","streetKana":"ﾆｼﾋﾞﾜｼﾞﾏﾁｮｳﾋｶﾞｼﾛｯｹﾝ","prefecture":"愛知県","city":"清須市","street":"西枇杷島町東六軒"},{"zipCode":"4520034","prefectureKana":"ｱｲﾁｹﾝ","cityKana":"ｷﾖｽｼ","streetKana":"ﾆｼﾋﾞﾜｼﾞﾏﾁｮｳﾋﾉﾃﾞ","prefecture":"愛知県","city":"清須市","street":"西枇杷島町日之出"},{"zipCode":"4520034","prefectureKana":"ｱｲﾁｹﾝ","cityKana":"ｷﾖｽｼ","streetKana":"ﾆｼﾋﾞﾜｼﾞﾏﾁｮｳﾋﾉﾃﾞ","prefecture":"愛知県","city":"清須市","street":"西枇杷島町日の出"},{"zipCode":"4520033","prefectureKana":"ｱｲﾁｹﾝ","cityKana":"ｷﾖｽｼ","streetKana":"ﾆｼﾋﾞﾜｼﾞﾏﾁｮｳﾌﾀﾐ","prefecture":"愛知県","city":"清須市","street":"西枇杷島町二見"},{"zipCode":"4520006","prefectureKana":"ｱｲﾁｹﾝ","cityKana":"ｷﾖｽｼ","streetKana":"ﾆｼﾋﾞﾜｼﾞﾏﾁｮｳﾍﾞﾝﾃﾝ","prefecture":"愛知県","city":"清須市","street":"西枇杷島町弁天"},{"zipCode":"4520036","prefectureKana":"ｱｲﾁｹﾝ","cityKana":"ｷﾖｽｼ","streetKana":"ﾆｼﾋﾞﾜｼﾞﾏﾁｮｳﾐﾅﾐﾄﾝﾔ","prefecture":"愛知県","city":"清須市","street":"西枇杷島町南問屋"},{"zipCode":"4520054","prefectureKana":"ｱｲﾁｹﾝ","cityKana":"ｷﾖｽｼ","streetKana":"ﾆｼﾋﾞﾜｼﾞﾏﾁｮｳﾐﾅﾐﾌﾀﾂｲﾘ","prefecture":"愛知県","city":"清須市","street":"西枇杷島町南二ツ杁"},{"zipCode":"4520053","prefectureKana":"ｱｲﾁｹﾝ","cityKana":"ｷﾖｽｼ","streetKana":"ﾆｼﾋﾞﾜｼﾞﾏﾁｮｳﾐﾅﾐﾏﾂﾊﾞﾗ","prefecture":"愛知県","city":"清須市","street":"西枇杷島町南松原"},{"zipCode":"4520013","prefectureKana":"ｱｲﾁｹﾝ","cityKana":"ｷﾖｽｼ","streetKana":"ﾆｼﾋﾞﾜｼﾞﾏﾁｮｳﾐﾅﾐﾔﾏﾄ","prefecture":"愛知県","city":"清須市","street":"西枇杷島町南大和"},{"zipCode":"4520044","prefectureKana":"ｱｲﾁｹﾝ","cityKana":"ｷﾖｽｼ","streetKana":"ﾆｼﾋﾞﾜｼﾞﾏﾁｮｳﾐﾅﾐﾛｯｹﾝ","prefecture":"愛知県","city":"清須市","street":"西枇杷島町南六軒"},{"zipCode":"4520031","prefectureKana":"ｱｲﾁｹﾝ","cityKana":"ｷﾖｽｼ","streetKana":"ﾆｼﾋﾞﾜｼﾞﾏﾁｮｳﾐﾔﾏｴ","prefecture":"愛知県","city":"清須市","street":"西枇杷島町宮前"},{"zipCode":"4520032","prefectureKana":"ｱｲﾁｹﾝ","cityKana":"ｷﾖｽｼ","streetKana":"ﾆｼﾋﾞﾜｼﾞﾏﾁｮｳﾖｳﾜ","prefecture":"愛知県","city":"清須市","street":"西枇杷島町養和"},{"zipCode":"4520065","prefectureKana":"ｱｲﾁｹﾝ","cityKana":"ｷﾖｽｼ","streetKana":"ﾆｼﾋﾞﾜｼﾞﾏﾁｮｳﾖｼﾉ","prefecture":"愛知県","city":"清須市","street":"西枇杷島町芳野"},{"zipCode":"4520917","prefectureKana":"ｱｲﾁｹﾝ","cityKana":"ｷﾖｽｼ","streetKana":"ﾆｼﾎﾘｴ","prefecture":"愛知県","city":"清須市","street":"西堀江"},{"zipCode":"4520919","prefectureKana":"ｱｲﾁｹﾝ","cityKana":"ｷﾖｽｼ","streetKana":"ﾊｷﾞﾉ","prefecture":"愛知県","city":"清須市","street":"萩野"},{"zipCode":"4520946","prefectureKana":"ｱｲﾁｹﾝ","cityKana":"ｷﾖｽｼ","streetKana":"ﾊｻﾏ","prefecture":"愛知県","city":"清須市","street":"廻間"},{"zipCode":"4520947","prefectureKana":"ｱｲﾁｹﾝ","cityKana":"ｷﾖｽｼ","streetKana":"ﾊﾅﾐｽﾞｷ","prefecture":"愛知県","city":"清須市","street":"花水木"},{"zipCode":"4520962","prefectureKana":"ｱｲﾁｹﾝ","cityKana":"ｷﾖｽｼ","streetKana":"ﾊﾙﾋｱｶﾞﾀ","prefecture":"愛知県","city":"清須市","street":"春日県"},{"zipCode":"4520961","prefectureKana":"ｱｲﾁｹﾝ","cityKana":"ｷﾖｽｼ","streetKana":"ﾊﾙﾋｱｹｶﾞﾜﾗ","prefecture":"愛知県","city":"清須市","street":"春日明河原"},{"zipCode":"4520961","prefectureKana":"ｱｲﾁｹﾝ","cityKana":"ｷﾖｽｼ","streetKana":"ﾊﾙﾋｲﾁﾊﾞﾝﾜﾘ","prefecture":"愛知県","city":"清須市","street":"春日一番割"},{"zipCode":"4520961","prefectureKana":"ｱｲﾁｹﾝ","cityKana":"ｷﾖｽｼ","streetKana":"ﾊﾙﾋｲﾁﾔｼｷ","prefecture":"愛知県","city":"清須市","street":"春日壱屋敷"},{"zipCode":"4520961","prefectureKana":"ｱｲﾁｹﾝ","cityKana":"ｷﾖｽｼ","streetKana":"ﾊﾙﾋｲｯﾎﾟﾝﾏﾂ","prefecture":"愛知県","city":"清須市","street":"春日一本松"},{"zipCode":"4520961","prefectureKana":"ｱｲﾁｹﾝ","cityKana":"ｷﾖｽｼ","streetKana":"ﾊﾙﾋｲﾅﾘ","prefecture":"愛知県","city":"清須市","street":"春日稲荷"},{"zipCode":"4520961","prefectureKana":"ｱｲﾁｹﾝ","cityKana":"ｷﾖｽｼ","streetKana":"ﾊﾙﾋｲﾘﾏｴ","prefecture":"愛知県","city":"清須市","street":"春日杁前"},{"zipCode":"4520961","prefectureKana":"ｱｲﾁｹﾝ","cityKana":"ｷﾖｽｼ","streetKana":"ﾊﾙﾋｳﾏ","prefecture":"愛知県","city":"清須市","street":"春日午"},{"zipCode":"4520962","prefectureKana":"ｱｲﾁｹﾝ","cityKana":"ｷﾖｽｼ","streetKana":"ﾊﾙﾋｴｻｷ","prefecture":"愛知県","city":"清須市","street":"春日江先"},{"zipCode":"4520961","prefectureKana":"ｱｲﾁｹﾝ","cityKana":"ｷﾖｽｼ","streetKana":"ﾊﾙﾋｵﾁｱｲ","prefecture":"愛知県","city":"清須市","street":"春日落合"},{"zipCode":"4520961","prefectureKana":"ｱｲﾁｹﾝ","cityKana":"ｷﾖｽｼ","streetKana":"ﾊﾙﾋｶﾐｳｼ","prefecture":"愛知県","city":"清須市","street":"春日上丑"},{"zipCode":"4520961","prefectureKana":"ｱｲﾁｹﾝ","cityKana":"ｷﾖｽｼ","streetKana":"ﾊﾙﾋｶﾐｶﾜﾊﾞﾀ","prefecture":"愛知県","city":"清須市","street":"春日上川畑"},{"zipCode":"4520961","prefectureKana":"ｱｲﾁｹﾝ","cityKana":"ｷﾖｽｼ","streetKana":"ﾊﾙﾋｶﾐｶﾞﾜﾗ","prefecture":"愛知県","city":"清須市","street":"春日上河原"},{"zipCode":"4520961","prefectureKana":"ｱｲﾁｹﾝ","cityKana":"ｷﾖｽｼ","streetKana":"ﾊﾙﾋｶﾐｽｶﾀ","prefecture":"愛知県","city":"清須市","street":"春日上須ケ田"},{"zipCode":"4520961","prefectureKana":"ｱｲﾁｹﾝ","cityKana":"ｷﾖｽｼ","streetKana":"ﾊﾙﾋｶﾐﾀｶﾊﾞﾀ","prefecture":"愛知県","city":"清須市","street":"春日上高畑"},{"zipCode":"4520961","prefectureKana":"ｱｲﾁｹﾝ","cityKana":"ｷﾖｽｼ","streetKana":"ﾊﾙﾋｶﾐﾂﾂﾐｸﾛ","prefecture":"愛知県","city":"清須市","street":"春日上堤クロ"},{"zipCode":"4520961","prefectureKana":"ｱｲﾁｹﾝ","cityKana":"ｷﾖｽｼ","streetKana":"ﾊﾙﾋｶﾐﾅｶﾜﾘ","prefecture":"愛知県","city":"清須市","street":"春日上中割"},{"zipCode":"4520962","prefectureKana":"ｱｲﾁｹﾝ","cityKana":"ｷﾖｽｼ","streetKana":"ﾊﾙﾋｶﾜﾅｶ","prefecture":"愛知県","city":"清須市","street":"春日川中"},{"zipCode":"4520961","prefectureKana":"ｱｲﾁｹﾝ","cityKana":"ｷﾖｽｼ","streetKana":"ﾊﾙﾋｶﾜﾗ","prefecture":"愛知県","city":"清須市","street":"春日河原"},{"zipCode":"4520961","prefectureKana":"ｱｲﾁｹﾝ","cityKana":"ｷﾖｽｼ","streetKana":"ﾊﾙﾋｸﾜ","prefecture":"愛知県","city":"清須市","street":"春日桑"},{"zipCode":"4520961","prefectureKana":"ｱｲﾁｹﾝ","cityKana":"ｷﾖｽｼ","streetKana":"ﾊﾙﾋｺﾞｳｳﾗ","prefecture":"愛知県","city":"清須市","street":"春日郷裏"},{"zipCode":"4520962","prefectureKana":"ｱｲﾁｹﾝ","cityKana":"ｷﾖｽｼ","streetKana":"ﾊﾙﾋｺﾞｳｶﾞｼﾏ","prefecture":"愛知県","city":"清須市","street":"春日郷ケ島"},{"zipCode":"4520962","prefectureKana":"ｱｲﾁｹﾝ","cityKana":"ｷﾖｽｼ","streetKana":"ﾊﾙﾋｺｳｻﾂ","prefecture":"愛知県","city":"清須市","street":"春日高札"},{"zipCode":"4520961","prefectureKana":"ｱｲﾁｹﾝ","cityKana":"ｷﾖｽｼ","streetKana":"ﾊﾙﾋｺﾞｳﾏｴ","prefecture":"愛知県","city":"清須市","street":"春日郷前"},{"zipCode":"4520962","prefectureKana":"ｱｲﾁｹﾝ","cityKana":"ｷﾖｽｼ","streetKana":"ﾊﾙﾋｺﾞﾀﾝｼﾞ","prefecture":"愛知県","city":"清須市","street":"春日五反地"},{"zipCode":"4520961","prefectureKana":"ｱｲﾁｹﾝ","cityKana":"ｷﾖｽｼ","streetKana":"ﾊﾙﾋｺﾂﾞｶﾆｼ","prefecture":"愛知県","city":"清須市","street":"春日小塚西"},{"zipCode":"4520961","prefectureKana":"ｱｲﾁｹﾝ","cityKana":"ｷﾖｽｼ","streetKana":"ﾊﾙﾋｺﾂﾞｶﾐﾅﾐ","prefecture":"愛知県","city":"清須市","street":"春日小塚南"},{"zipCode":"4520961","prefectureKana":"ｱｲﾁｹﾝ","cityKana":"ｷﾖｽｼ","streetKana":"ﾊﾙﾋｺﾏﾂﾊﾞｴ","prefecture":"愛知県","city":"清須市","street":"春日小松生"},{"zipCode":"4520961","prefectureKana":"ｱｲﾁｹﾝ","cityKana":"ｷﾖｽｼ","streetKana":"ﾊﾙﾋｻﾝﾊﾞﾝﾜﾘ","prefecture":"愛知県","city":"清須市","street":"春日三番割"},{"zipCode":"4520961","prefectureKana":"ｱｲﾁｹﾝ","cityKana":"ｷﾖｽｼ","streetKana":"ﾊﾙﾋｼﾓｳｼ","prefecture":"愛知県","city":"清須市","street":"春日下丑"},{"zipCode":"4520961","prefectureKana":"ｱｲﾁｹﾝ","cityKana":"ｷﾖｽｼ","streetKana":"ﾊﾙﾋｼﾓｶﾞﾜﾗ","prefecture":"愛知県","city":"清須市","street":"春日下河原"},{"zipCode":"4520961","prefectureKana":"ｱｲﾁｹﾝ","cityKana":"ｷﾖｽｼ","streetKana":"ﾊﾙﾋｼﾓﾂﾂﾐｸﾛ","prefecture":"愛知県","city":"清須市","street":"春日下堤クロ"},{"zipCode":"4520961","prefectureKana":"ｱｲﾁｹﾝ","cityKana":"ｷﾖｽｼ","streetKana":"ﾊﾙﾋｼﾓﾅｶﾜﾘ","prefecture":"愛知県","city":"清須市","street":"春日下中割"},{"zipCode":"4520962","prefectureKana":"ｱｲﾁｹﾝ","cityKana":"ｷﾖｽｼ","streetKana":"ﾊﾙﾋｼｬｺﾞｼﾞ","prefecture":"愛知県","city":"清須市","street":"春日社子地"},{"zipCode":"4520961","prefectureKana":"ｱｲﾁｹﾝ","cityKana":"ｷﾖｽｼ","streetKana":"ﾊﾙﾋｼﾞｮｳﾉﾜﾘ","prefecture":"愛知県","city":"清須市","street":"春日定ノ割"},{"zipCode":"4520962","prefectureKana":"ｱｲﾁｹﾝ","cityKana":"ｷﾖｽｼ","streetKana":"ﾊﾙﾋｼﾗﾕﾐ","prefecture":"愛知県","city":"清須市","street":"春日白弓"},{"zipCode":"4520962","prefectureKana":"ｱｲﾁｹﾝ","cityKana":"ｷﾖｽｼ","streetKana":"ﾊﾙﾋｼﾝﾃﾞﾝ","prefecture":"愛知県","city":"清須市","street":"春日新田"},{"zipCode":"4520961","prefectureKana":"ｱｲﾁｹﾝ","cityKana":"ｷﾖｽｼ","streetKana":"ﾊﾙﾋｼﾝﾃﾞﾝﾊﾞﾀ","prefecture":"愛知県","city":"清須市","street":"春日新田畑"},{"zipCode":"4520961","prefectureKana":"ｱｲﾁｹﾝ","cityKana":"ｷﾖｽｼ","streetKana":"ﾊﾙﾋｼﾝﾎﾞﾘ","prefecture":"愛知県","city":"清須市","street":"春日新堀"},{"zipCode":"4520961","prefectureKana":"ｱｲﾁｹﾝ","cityKana":"ｷﾖｽｼ","streetKana":"ﾊﾙﾋｼﾝﾎﾞﾘｷﾀ","prefecture":"愛知県","city":"清須市","street":"春日新堀北"},{"zipCode":"4520962","prefectureKana":"ｱｲﾁｹﾝ","cityKana":"ｷﾖｽｼ","streetKana":"ﾊﾙﾋｼﾝﾏﾁ","prefecture":"愛知県","city":"清須市","street":"春日新町"},{"zipCode":"4520962","prefectureKana":"ｱｲﾁｹﾝ","cityKana":"ｷﾖｽｼ","streetKana":"ﾊﾙﾋｼﾝﾒｲ","prefecture":"愛知県","city":"清須市","street":"春日神明"},{"zipCode":"4520961","prefectureKana":"ｱｲﾁｹﾝ","cityKana":"ｷﾖｽｼ","streetKana":"ﾊﾙﾋｽｶﾀ","prefecture":"愛知県","city":"清須市","street":"春日須ケ田"},{"zipCode":"4520961","prefectureKana":"ｱｲﾁｹﾝ","cityKana":"ｷﾖｽｼ","streetKana":"ﾊﾙﾋｽｶﾊﾞﾀ","prefecture":"愛知県","city":"清須市","street":"春日須ケ畑"},{"zipCode":"4520962","prefectureKana":"ｱｲﾁｹﾝ","cityKana":"ｷﾖｽｼ","streetKana":"ﾊﾙﾋｽｶﾋｶﾞｼ","prefecture":"愛知県","city":"清須市","street":"春日砂賀東"},{"zipCode":"4520961","prefectureKana":"ｱｲﾁｹﾝ","cityKana":"ｷﾖｽｼ","streetKana":"ﾊﾙﾋﾀｲｺｳﾄﾞ","prefecture":"愛知県","city":"清須市","street":"春日大河戸"},{"zipCode":"4520961","prefectureKana":"ｱｲﾁｹﾝ","cityKana":"ｷﾖｽｼ","streetKana":"ﾊﾙﾋﾀｶﾊﾞﾀ","prefecture":"愛知県","city":"清須市","street":"春日高畑"},{"zipCode":"4520962","prefectureKana":"ｱｲﾁｹﾝ","cityKana":"ｷﾖｽｼ","streetKana":"ﾊﾙﾋﾀﾃﾂｸﾘ","prefecture":"愛知県","city":"清須市","street":"春日立作"},{"zipCode":"4520962","prefectureKana":"ｱｲﾁｹﾝ","cityKana":"ｷﾖｽｼ","streetKana":"ﾊﾙﾋﾁｮｳｷｭｳｼﾞ","prefecture":"愛知県","city":"清須市","street":"春日長久寺"},{"zipCode":"4520961","prefectureKana":"ｱｲﾁｹﾝ","cityKana":"ｷﾖｽｼ","streetKana":"ﾊﾙﾋﾂﾂﾐｸﾛ","prefecture":"愛知県","city":"清須市","street":"春日堤クロ"},{"zipCode":"4520961","prefectureKana":"ｱｲﾁｹﾝ","cityKana":"ｷﾖｽｼ","streetKana":"ﾊﾙﾋﾃﾗﾏﾜﾘ","prefecture":"愛知県","city":"清須市","street":"春日寺廻り"},{"zipCode":"4520962","prefectureKana":"ｱｲﾁｹﾝ","cityKana":"ｷﾖｽｼ","streetKana":"ﾊﾙﾋﾃﾝｼﾞﾝ","prefecture":"愛知県","city":"清須市","street":"春日天神"},{"zipCode":"4520961","prefectureKana":"ｱｲﾁｹﾝ","cityKana":"ｷﾖｽｼ","streetKana":"ﾊﾙﾋﾄｲ","prefecture":"愛知県","city":"清須市","street":"春日樋"},{"zipCode":"4520961","prefectureKana":"ｱｲﾁｹﾝ","cityKana":"ｷﾖｽｼ","streetKana":"ﾊﾙﾋﾄﾘ","prefecture":"愛知県","city":"清須市","street":"春日酉"},{"zipCode":"4520962","prefectureKana":"ｱｲﾁｹﾝ","cityKana":"ｷﾖｽｼ","streetKana":"ﾊﾙﾋﾄﾘﾃﾞ","prefecture":"愛知県","city":"清須市","street":"春日鳥出"},{"zipCode":"4520961","prefectureKana":"ｱｲﾁｹﾝ","cityKana":"ｷﾖｽｼ","streetKana":"ﾊﾙﾋﾅｶｶﾞﾜﾗ","prefecture":"愛知県","city":"清須市","street":"春日中河原"},{"zipCode":"4520962","prefectureKana":"ｱｲﾁｹﾝ","cityKana":"ｷﾖｽｼ","streetKana":"ﾊﾙﾋﾅｶﾇﾏ","prefecture":"愛知県","city":"清須市","street":"春日中沼"},{"zipCode":"4520961","prefectureKana":"ｱｲﾁｹﾝ","cityKana":"ｷﾖｽｼ","streetKana":"ﾊﾙﾋﾅｶﾞﾊﾀ","prefecture":"愛知県","city":"清須市","street":"春日長畑"},{"zipCode":"4520962","prefectureKana":"ｱｲﾁｹﾝ","cityKana":"ｷﾖｽｼ","streetKana":"ﾊﾙﾋﾅｶﾞﾚ","prefecture":"愛知県","city":"清須市","street":"春日流"},{"zipCode":"4520961","prefectureKana":"ｱｲﾁｹﾝ","cityKana":"ｷﾖｽｼ","streetKana":"ﾊﾙﾋﾆｼｽｶﾊﾞﾀ","prefecture":"愛知県","city":"清須市","street":"春日西須ケ畑"},{"zipCode":"4520961","prefectureKana":"ｱｲﾁｹﾝ","cityKana":"ｷﾖｽｼ","streetKana":"ﾊﾙﾋﾆｼﾏｷﾏｴ","prefecture":"愛知県","city":"清須市","street":"春日西牧前"},{"zipCode":"4520961","prefectureKana":"ｱｲﾁｹﾝ","cityKana":"ｷﾖｽｼ","streetKana":"ﾊﾙﾋﾆｼﾏｷﾐﾅﾐ","prefecture":"愛知県","city":"清須市","street":"春日西牧南"},{"zipCode":"4520961","prefectureKana":"ｱｲﾁｹﾝ","cityKana":"ｷﾖｽｼ","streetKana":"ﾊﾙﾋﾆｼﾖﾍﾞ","prefecture":"愛知県","city":"清須市","street":"春日西余部"},{"zipCode":"4520961","prefectureKana":"ｱｲﾁｹﾝ","cityKana":"ｷﾖｽｼ","streetKana":"ﾊﾙﾋﾆﾊﾞﾝﾜﾘ","prefecture":"愛知県","city":"清須市","street":"春日二番割"},{"zipCode":"4520961","prefectureKana":"ｱｲﾁｹﾝ","cityKana":"ｷﾖｽｼ","streetKana":"ﾊﾙﾋﾆﾔｼｷ","prefecture":"愛知県","city":"清須市","street":"春日弐屋敷"},{"zipCode":"4520961","prefectureKana":"ｱｲﾁｹﾝ","cityKana":"ｷﾖｽｼ","streetKana":"ﾊﾙﾋﾉｶﾀ","prefecture":"愛知県","city":"清須市","street":"春日野方"},{"zipCode":"4520962","prefectureKana":"ｱｲﾁｹﾝ","cityKana":"ｷﾖｽｼ","streetKana":"ﾊﾙﾋﾉﾀﾞﾏﾁ","prefecture":"愛知県","city":"清須市","street":"春日野田町"},{"zipCode":"4520961","prefectureKana":"ｱｲﾁｹﾝ","cityKana":"ｷﾖｽｼ","streetKana":"ﾊﾙﾋﾊﾁﾏﾝ","prefecture":"愛知県","city":"清須市","street":"春日八幡"},{"zipCode":"4520961","prefectureKana":"ｱｲﾁｹﾝ","cityKana":"ｷﾖｽｼ","streetKana":"ﾊﾙﾋﾊﾁﾏﾝｳﾗ","prefecture":"愛知県","city":"清須市","street":"春日八幡裏"},{"zipCode":"4520961","prefectureKana":"ｱｲﾁｹﾝ","cityKana":"ｷﾖｽｼ","streetKana":"ﾊﾙﾋﾊﾁﾏﾝﾏｴ","prefecture":"愛知県","city":"清須市","street":"春日八幡前"},{"zipCode":"4520961","prefectureKana":"ｱｲﾁｹﾝ","cityKana":"ｷﾖｽｼ","streetKana":"ﾊﾙﾋﾊﾁﾏﾝﾐﾅﾐ","prefecture":"愛知県","city":"清須市","street":"春日八幡南"},{"zipCode":"4520961","prefectureKana":"ｱｲﾁｹﾝ","cityKana":"ｷﾖｽｼ","streetKana":"ﾊﾙﾋﾋｶﾞｼｺﾂﾞｶ","prefecture":"愛知県","city":"清須市","street":"春日東小塚"},{"zipCode":"4520961","prefectureKana":"ｱｲﾁｹﾝ","cityKana":"ｷﾖｽｼ","streetKana":"ﾊﾙﾋﾋｶﾞｼｽｶﾊﾞﾀ","prefecture":"愛知県","city":"清須市","street":"春日東須ケ畑"},{"zipCode":"4520961","prefectureKana":"ｱｲﾁｹﾝ","cityKana":"ｷﾖｽｼ","streetKana":"ﾊﾙﾋﾋｶﾞｼﾃﾞ","prefecture":"愛知県","city":"清須市","street":"春日東出"},{"zipCode":"4520962","prefectureKana":"ｱｲﾁｹﾝ","cityKana":"ｷﾖｽｼ","streetKana":"ﾊﾙﾋﾌｼﾞﾂﾞｶ","prefecture":"愛知県","city":"清須市","street":"春日冨士塚"},{"zipCode":"4520961","prefectureKana":"ｱｲﾁｹﾝ","cityKana":"ｷﾖｽｼ","streetKana":"ﾊﾙﾋﾌﾀﾂｲｹ","prefecture":"愛知県","city":"清須市","street":"春日二ツ池"},{"zipCode":"4520962","prefectureKana":"ｱｲﾁｹﾝ","cityKana":"ｷﾖｽｼ","streetKana":"ﾊﾙﾋﾌﾅﾂｷ","prefecture":"愛知県","city":"清須市","street":"春日舟付"},{"zipCode":"4520961","prefectureKana":"ｱｲﾁｹﾝ","cityKana":"ｷﾖｽｼ","streetKana":"ﾊﾙﾋﾌﾘｶﾀ","prefecture":"愛知県","city":"清須市","street":"春日振形"},{"zipCode":"4520961","prefectureKana":"ｱｲﾁｹﾝ","cityKana":"ｷﾖｽｼ","streetKana":"ﾊﾙﾋﾎﾘﾀ","prefecture":"愛知県","city":"清須市","street":"春日堀田"},{"zipCode":"4520961","prefectureKana":"ｱｲﾁｹﾝ","cityKana":"ｷﾖｽｼ","streetKana":"ﾊﾙﾋﾐﾔｺｼ","prefecture":"愛知県","city":"清須市","street":"春日宮越"},{"zipCode":"4520961","prefectureKana":"ｱｲﾁｹﾝ","cityKana":"ｷﾖｽｼ","streetKana":"ﾊﾙﾋﾐﾔｼｹﾞ","prefecture":"愛知県","city":"清須市","street":"春日宮重"},{"zipCode":"4520961","prefectureKana":"ｱｲﾁｹﾝ","cityKana":"ｷﾖｽｼ","streetKana":"ﾊﾙﾋﾐﾔｼｹﾞﾏﾁ","prefecture":"愛知県","city":"清須市","street":"春日宮重町"},{"zipCode":"4520961","prefectureKana":"ｱｲﾁｹﾝ","cityKana":"ｷﾖｽｼ","streetKana":"ﾊﾙﾋﾑｺｳｶﾞﾜﾗ","prefecture":"愛知県","city":"清須市","street":"春日向河原"},{"zipCode":"4520962","prefectureKana":"ｱｲﾁｹﾝ","cityKana":"ｷﾖｽｼ","streetKana":"ﾊﾙﾋﾔｹﾀ","prefecture":"愛知県","city":"清須市","street":"春日焼田"},{"zipCode":"4520961","prefectureKana":"ｱｲﾁｹﾝ","cityKana":"ｷﾖｽｼ","streetKana":"ﾊﾙﾋﾔｼｷ","prefecture":"愛知県","city":"清須市","street":"春日屋敷"},{"zipCode":"4520961","prefectureKana":"ｱｲﾁｹﾝ","cityKana":"ｷﾖｽｼ","streetKana":"ﾊﾙﾋﾕﾒﾉﾓﾘ","prefecture":"愛知県","city":"清須市","street":"春日夢の森"},{"zipCode":"4520961","prefectureKana":"ｱｲﾁｹﾝ","cityKana":"ｷﾖｽｼ","streetKana":"ﾊﾙﾋﾖﾝﾊﾞﾝﾜﾘ","prefecture":"愛知県","city":"清須市","street":"春日四番割"},{"zipCode":"4520961","prefectureKana":"ｱｲﾁｹﾝ","cityKana":"ｷﾖｽｼ","streetKana":"ﾊﾙﾋﾚﾝｹﾞｼﾞﾏｴ","prefecture":"愛知県","city":"清須市","street":"春日蓮花寺前"},{"zipCode":"4520904","prefectureKana":"ｱｲﾁｹﾝ","cityKana":"ｷﾖｽｼ","streetKana":"ﾋｶﾞｼｽｶｸﾞﾁ","prefecture":"愛知県","city":"清須市","street":"東須ケ口"},{"zipCode":"4520906","prefectureKana":"ｱｲﾁｹﾝ","cityKana":"ｷﾖｽｼ","streetKana":"ﾋｶﾞｼｿﾄﾏﾁ","prefecture":"愛知県","city":"清須市","street":"東外町"},{"zipCode":"4520037","prefectureKana":"ｱｲﾁｹﾝ","cityKana":"ｷﾖｽｼ","streetKana":"ﾋﾞﾜｼﾞﾏｴｷﾏｴﾋｶﾞｼ","prefecture":"愛知県","city":"清須市","street":"枇杷島駅前東"}]