[{"zipCode":"4620000","prefectureKana":"ｱｲﾁｹﾝ","cityKana":"ﾅｺﾞﾔｼｷﾀｸ","streetKana":"ｲｶﾆｹｲｻｲｶﾞﾅｲﾊﾞｱｲ","prefecture":"愛知県","city":"名古屋市北区","street":"以下に掲載がない場合"},{"zipCode":"4620856","prefectureKana":"ｱｲﾁｹﾝ","cityKana":"ﾅｺﾞﾔｼｷﾀｸ","streetKana":"ｱｼﾍﾞﾁｮｳ","prefecture":"愛知県","city":"名古屋市北区","street":"芦辺町"},{"zipCode":"4620005","prefectureKana":"ｱｲﾁｹﾝ","cityKana":"ﾅｺﾞﾔｼｷﾀｸ","streetKana":"ｲｹﾊﾅﾁｮｳ","prefecture":"愛知県","city":"名古屋市北区","street":"池花町"},{"zipCode":"4620832","prefectureKana":"ｱｲﾁｹﾝ","cityKana":"ﾅｺﾞﾔｼｷﾀｸ","streetKana":"ｲｺﾏﾁｮｳ","prefecture":"愛知県","city":"名古屋市北区","street":"生駒町"},{"zipCode":"4620855","prefectureKana":"ｱｲﾁｹﾝ","cityKana":"ﾅｺﾞﾔｼｷﾀｸ","streetKana":"ｲｿﾉﾁｮｳ","prefecture":"愛知県","city":"名古屋市北区","street":"石園町"},{"zipCode":"4620064","prefectureKana":"ｱｲﾁｹﾝ","cityKana":"ﾅｺﾞﾔｼｷﾀｸ","streetKana":"ｵｵｶﾞﾏﾁｮｳ","prefecture":"愛知県","city":"名古屋市北区","street":"大我麻町"},{"zipCode":"4620858","prefectureKana":"ｱｲﾁｹﾝ","cityKana":"ﾅｺﾞﾔｼｷﾀｸ","streetKana":"ｵｵｸﾗﾁｮｳ","prefecture":"愛知県","city":"名古屋市北区","street":"大蔵町"},{"zipCode":"4620837","prefectureKana":"ｱｲﾁｹﾝ","cityKana":"ﾅｺﾞﾔｼｷﾀｸ","streetKana":"ｵｵｽｷﾞ","prefecture":"愛知県","city":"名古屋市北区","street":"大杉"},{"zipCode":"4620836","prefectureKana":"ｱｲﾁｹﾝ","cityKana":"ﾅｺﾞﾔｼｷﾀｸ","streetKana":"ｵｵｽｷﾞﾁｮｳ","prefecture":"愛知県","city":"名古屋市北区","street":"大杉町"},{"zipCode":"4620825","prefectureKana":"ｱｲﾁｹﾝ","cityKana":"ﾅｺﾞﾔｼｷﾀｸ","streetKana":"ｵｵｿﾞﾈ","prefecture":"愛知県","city":"名古屋市北区","street":"大曽根"},{"zipCode":"4620035","prefectureKana":"ｱｲﾁｹﾝ","cityKana":"ﾅｺﾞﾔｼｷﾀｸ","streetKana":"ｵｵﾉﾁｮｳ","prefecture":"愛知県","city":"名古屋市北区","street":"大野町"},{"zipCode":"4620017","prefectureKana":"ｱｲﾁｹﾝ","cityKana":"ﾅｺﾞﾔｼｷﾀｸ","streetKana":"ｵﾁｱｲﾁｮｳ","prefecture":"愛知県","city":"名古屋市北区","street":"落合町"},{"zipCode":"4620807","prefectureKana":"ｱｲﾁｹﾝ","cityKana":"ﾅｺﾞﾔｼｷﾀｸ","streetKana":"ｵﾅﾘﾄｵﾘ","prefecture":"愛知県","city":"名古屋市北区","street":"御成通"},{"zipCode":"4620863","prefectureKana":"ｱｲﾁｹﾝ","cityKana":"ﾅｺﾞﾔｼｷﾀｸ","streetKana":"ｵﾉｴﾁｮｳ","prefecture":"愛知県","city":"名古屋市北区","street":"尾上町"},{"zipCode":"4620864","prefectureKana":"ｱｲﾁｹﾝ","cityKana":"ﾅｺﾞﾔｼｷﾀｸ","streetKana":"ｵﾍﾞﾁｮｳ","prefecture":"愛知県","city":"名古屋市北区","street":"織部町"},{"zipCode":"4620061","prefectureKana":"ｱｲﾁｹﾝ","cityKana":"ﾅｺﾞﾔｼｷﾀｸ","streetKana":"ｶｲｼｮﾁｮｳ","prefecture":"愛知県","city":"名古屋市北区","street":"会所町"},{"zipCode":"4620867","prefectureKana":"ｱｲﾁｹﾝ","cityKana":"ﾅｺﾞﾔｼｷﾀｸ","streetKana":"ｶﾞｲﾄﾞﾁｮｳ","prefecture":"愛知県","city":"名古屋市北区","street":"垣戸町"},{"zipCode":"4620033","prefectureKana":"ｱｲﾁｹﾝ","cityKana":"ﾅｺﾞﾔｼｷﾀｸ","streetKana":"ｶﾈﾀﾞﾁｮｳ","prefecture":"愛知県","city":"名古屋市北区","street":"金田町"},{"zipCode":"4620808","prefectureKana":"ｱｲﾁｹﾝ","cityKana":"ﾅｺﾞﾔｼｷﾀｸ","streetKana":"ｶﾐｲｲﾀﾞﾄｵﾘ","prefecture":"愛知県","city":"名古屋市北区","street":"上飯田通"},{"zipCode":"4620803","prefectureKana":"ｱｲﾁｹﾝ","cityKana":"ﾅｺﾞﾔｼｷﾀｸ","streetKana":"ｶﾐｲｲﾀﾞﾋｶﾞｼﾏﾁ","prefecture":"愛知県","city":"名古屋市北区","street":"上飯田東町"},{"zipCode":"4620809","prefectureKana":"ｱｲﾁｹﾝ","cityKana":"ﾅｺﾞﾔｼｷﾀｸ","streetKana":"ｶﾐｲｲﾀﾞﾆｼﾏﾁ","prefecture":"愛知県","city":"名古屋市北区","street":"上飯田西町"},{"zipCode":"4620804","prefectureKana":"ｱｲﾁｹﾝ","cityKana":"ﾅｺﾞﾔｼｷﾀｸ","streetKana":"ｶﾐｲｲﾀﾞﾐﾅﾐﾏﾁ","prefecture":"愛知県","city":"名古屋市北区","street":"上飯田南町"},{"zipCode":"4620802","prefectureKana":"ｱｲﾁｹﾝ","cityKana":"ﾅｺﾞﾔｼｷﾀｸ","streetKana":"ｶﾐｲｲﾀﾞｷﾀﾏﾁ","prefecture":"愛知県","city":"名古屋市北区","street":"上飯田北町"},{"zipCode":"4620022","prefectureKana":"ｱｲﾁｹﾝ","cityKana":"ﾅｺﾞﾔｼｷﾀｸ","streetKana":"ｶﾜﾅｶﾁｮｳ","prefecture":"愛知県","city":"名古屋市北区","street":"川中町"},{"zipCode":"4620065","prefectureKana":"ｱｲﾁｹﾝ","cityKana":"ﾅｺﾞﾔｼｷﾀｸ","streetKana":"ｷｿｳｼﾞ","prefecture":"愛知県","city":"名古屋市北区","street":"喜惣治"},{"zipCode":"4620001","prefectureKana":"ｱｲﾁｹﾝ","cityKana":"ﾅｺﾞﾔｼｷﾀｸ","streetKana":"ｷﾀｸﾃﾁｮｳ","prefecture":"愛知県","city":"名古屋市北区","street":"北久手町"},{"zipCode":"4620851","prefectureKana":"ｱｲﾁｹﾝ","cityKana":"ﾅｺﾞﾔｼｷﾀｸ","streetKana":"ｷﾂﾞﾈﾁｮｳ","prefecture":"愛知県","city":"名古屋市北区","street":"木津根町"},{"zipCode":"4620003","prefectureKana":"ｱｲﾁｹﾝ","cityKana":"ﾅｺﾞﾔｼｷﾀｸ","streetKana":"ｷﾘﾊﾀﾁｮｳ","prefecture":"愛知県","city":"名古屋市北区","street":"桐畑町"},{"zipCode":"4620847","prefectureKana":"ｱｲﾁｹﾝ","cityKana":"ﾅｺﾞﾔｼｷﾀｸ","streetKana":"ｷﾝｼﾞｮｳ","prefecture":"愛知県","city":"名古屋市北区","street":"金城"},{"zipCode":"4620047","prefectureKana":"ｱｲﾁｹﾝ","cityKana":"ﾅｺﾞﾔｼｷﾀｸ","streetKana":"ｷﾝｼﾞｮｳﾁｮｳ","prefecture":"愛知県","city":"名古屋市北区","street":"金城町"},{"zipCode":"4620012","prefectureKana":"ｱｲﾁｹﾝ","cityKana":"ﾅｺﾞﾔｼｷﾀｸ","streetKana":"ｸｽﾉｷ","prefecture":"愛知県","city":"名古屋市北区","street":"楠"},{"zipCode":"4620014","prefectureKana":"ｱｲﾁｹﾝ","cityKana":"ﾅｺﾞﾔｼｷﾀｸ","streetKana":"ｸｽﾉｷｱｼﾞﾏ","prefecture":"愛知県","city":"名古屋市北区","street":"楠味鋺"},{"zipCode":"4620066","prefectureKana":"ｱｲﾁｹﾝ","cityKana":"ﾅｺﾞﾔｼｷﾀｸ","streetKana":"ｸｽﾉｷﾁｮｳｷｿｳｼﾞｼﾝﾃﾞﾝ","prefecture":"愛知県","city":"名古屋市北区","street":"楠町喜惣治新田"},{"zipCode":"4620841","prefectureKana":"ｱｲﾁｹﾝ","cityKana":"ﾅｺﾞﾔｼｷﾀｸ","streetKana":"ｸﾛｶﾜﾎﾝﾄｵﾘ","prefecture":"愛知県","city":"名古屋市北区","street":"黒川本通"},{"zipCode":"4620018","prefectureKana":"ｱｲﾁｹﾝ","cityKana":"ﾅｺﾞﾔｼｷﾀｸ","streetKana":"ｹﾞﾝﾊﾞﾁｮｳ","prefecture":"愛知県","city":"名古屋市北区","street":"玄馬町"},{"zipCode":"4620857","prefectureKana":"ｱｲﾁｹﾝ","cityKana":"ﾅｺﾞﾔｼｷﾀｸ","streetKana":"ｺｳｳﾝﾁｮｳ","prefecture":"愛知県","city":"名古屋市北区","street":"紅雲町"},{"zipCode":"4620053","prefectureKana":"ｱｲﾁｹﾝ","cityKana":"ﾅｺﾞﾔｼｷﾀｸ","streetKana":"ｺｳｵﾝｼﾞﾁｮｳ","prefecture":"愛知県","city":"名古屋市北区","street":"光音寺町"},{"zipCode":"4620011","prefectureKana":"ｱｲﾁｹﾝ","cityKana":"ﾅｺﾞﾔｼｷﾀｸ","streetKana":"ｺﾞﾀﾝﾀﾞﾁｮｳ","prefecture":"愛知県","city":"名古屋市北区","street":"五反田町"},{"zipCode":"4620059","prefectureKana":"ｱｲﾁｹﾝ","cityKana":"ﾅｺﾞﾔｼｷﾀｸ","streetKana":"ｺﾏﾄﾞﾒﾁｮｳ","prefecture":"愛知県","city":"名古屋市北区","street":"駒止町"},{"zipCode":"4620031","prefectureKana":"ｱｲﾁｹﾝ","cityKana":"ﾅｺﾞﾔｼｷﾀｸ","streetKana":"ｺﾒｶﾞｾﾁｮｳ","prefecture":"愛知県","city":"名古屋市北区","street":"米が瀬町"},{"zipCode":"4620818","prefectureKana":"ｱｲﾁｹﾝ","cityKana":"ﾅｺﾞﾔｼｷﾀｸ","streetKana":"ｻｲｺｳﾊﾞｼﾄｵﾘ","prefecture":"愛知県","city":"名古屋市北区","street":"彩紅橋通"},{"zipCode":"4620852","prefectureKana":"ｱｲﾁｹﾝ","cityKana":"ﾅｺﾞﾔｼｷﾀｸ","streetKana":"ｻﾅｹﾞﾁｮｳ","prefecture":"愛知県","city":"名古屋市北区","street":"猿投町"},{"zipCode":"4620004","prefectureKana":"ｱｲﾁｹﾝ","cityKana":"ﾅｺﾞﾔｼｷﾀｸ","streetKana":"ｻﾝｹﾞﾝﾁｮｳ","prefecture":"愛知県","city":"名古屋市北区","street":"三軒町"},{"zipCode":"4620037","prefectureKana":"ｱｲﾁｹﾝ","cityKana":"ﾅｺﾞﾔｼｷﾀｸ","streetKana":"ｼｶﾞﾁｮｳ","prefecture":"愛知県","city":"名古屋市北区","street":"志賀町"},{"zipCode":"4620853","prefectureKana":"ｱｲﾁｹﾝ","cityKana":"ﾅｺﾞﾔｼｷﾀｸ","streetKana":"ｼｶﾞﾎﾝﾄｵﾘ","prefecture":"愛知県","city":"名古屋市北区","street":"志賀本通"},{"zipCode":"4620842","prefectureKana":"ｱｲﾁｹﾝ","cityKana":"ﾅｺﾞﾔｼｷﾀｸ","streetKana":"ｼｶﾞﾐﾅﾐﾄｵﾘ","prefecture":"愛知県","city":"名古屋市北区","street":"志賀南通"},{"zipCode":"4620045","prefectureKana":"ｱｲﾁｹﾝ","cityKana":"ﾅｺﾞﾔｼｷﾀｸ","streetKana":"ｼｷｼﾏﾁｮｳ","prefecture":"愛知県","city":"名古屋市北区","street":"敷島町"},{"zipCode":"4620844","prefectureKana":"ｱｲﾁｹﾝ","cityKana":"ﾅｺﾞﾔｼｷﾀｸ","streetKana":"ｼﾐｽﾞ","prefecture":"愛知県","city":"名古屋市北区","street":"清水"},{"zipCode":"4620865","prefectureKana":"ｱｲﾁｹﾝ","cityKana":"ﾅｺﾞﾔｼｷﾀｸ","streetKana":"ｼﾓｲｲﾀﾞﾁｮｳ","prefecture":"愛知県","city":"名古屋市北区","street":"下飯田町"},{"zipCode":"4620021","prefectureKana":"ｱｲﾁｹﾝ","cityKana":"ﾅｺﾞﾔｼｷﾀｸ","streetKana":"ｼﾞｮｳｶﾞﾝｼﾞ","prefecture":"愛知県","city":"名古屋市北区","street":"成願寺"},{"zipCode":"4620831","prefectureKana":"ｱｲﾁｹﾝ","cityKana":"ﾅｺﾞﾔｼｷﾀｸ","streetKana":"ｼﾞｮｳﾄｳﾁｮｳ","prefecture":"愛知県","city":"名古屋市北区","street":"城東町"},{"zipCode":"4620046","prefectureKana":"ｱｲﾁｹﾝ","cityKana":"ﾅｺﾞﾔｼｷﾀｸ","streetKana":"ｼﾛﾐﾄｵﾘ","prefecture":"愛知県","city":"名古屋市北区","street":"城見通"},{"zipCode":"4620062","prefectureKana":"ｱｲﾁｹﾝ","cityKana":"ﾅｺﾞﾔｼｷﾀｸ","streetKana":"ｼﾝﾇﾏﾁｮｳ","prefecture":"愛知県","city":"名古屋市北区","street":"新沼町"},{"zipCode":"4620801","prefectureKana":"ｱｲﾁｹﾝ","cityKana":"ﾅｺﾞﾔｼｷﾀｸ","streetKana":"ｼﾝﾎﾞﾘﾁｮｳ","prefecture":"愛知県","city":"名古屋市北区","street":"新堀町"},{"zipCode":"4620859","prefectureKana":"ｱｲﾁｹﾝ","cityKana":"ﾅｺﾞﾔｼｷﾀｸ","streetKana":"ｼﾝﾒｲﾁｮｳ","prefecture":"愛知県","city":"名古屋市北区","street":"神明町"},{"zipCode":"4620829","prefectureKana":"ｱｲﾁｹﾝ","cityKana":"ﾅｺﾞﾔｼｷﾀｸ","streetKana":"ｽｷﾞｻｶｴﾁｮｳ","prefecture":"愛知県","city":"名古屋市北区","street":"杉栄町"},{"zipCode":"4620835","prefectureKana":"ｱｲﾁｹﾝ","cityKana":"ﾅｺﾞﾔｼｷﾀｸ","streetKana":"ｽｷﾞﾑﾗ","prefecture":"愛知県","city":"名古屋市北区","street":"杉村"},{"zipCode":"4620869","prefectureKana":"ｱｲﾁｹﾝ","cityKana":"ﾅｺﾞﾔｼｷﾀｸ","streetKana":"ﾀﾂﾉｸﾁﾁｮｳ","prefecture":"愛知県","city":"名古屋市北区","street":"龍ノ口町"},{"zipCode":"4620843","prefectureKana":"ｱｲﾁｹﾝ","cityKana":"ﾅｺﾞﾔｼｷﾀｸ","streetKana":"ﾀﾊﾞﾀ","prefecture":"愛知県","city":"名古屋市北区","street":"田幡"},{"zipCode":"4620038","prefectureKana":"ｱｲﾁｹﾝ","cityKana":"ﾅｺﾞﾔｼｷﾀｸ","streetKana":"ﾁｺﾞﾉﾐﾔﾄｵﾘ","prefecture":"愛知県","city":"名古屋市北区","street":"稚児宮通"},{"zipCode":"4620056","prefectureKana":"ｱｲﾁｹﾝ","cityKana":"ﾅｺﾞﾔｼｷﾀｸ","streetKana":"ﾁｭｳﾏﾙﾁｮｳ","prefecture":"愛知県","city":"名古屋市北区","street":"中丸町"},{"zipCode":"4620834","prefectureKana":"ｱｲﾁｹﾝ","cityKana":"ﾅｺﾞﾔｼｷﾀｸ","streetKana":"ﾁｮｳﾀﾞﾁｮｳ","prefecture":"愛知県","city":"名古屋市北区","street":"長田町"},{"zipCode":"4620032","prefectureKana":"ｱｲﾁｹﾝ","cityKana":"ﾅｺﾞﾔｼｷﾀｸ","streetKana":"ﾂｼﾞﾁｮｳ","prefecture":"愛知県","city":"名古屋市北区","street":"辻町"},{"zipCode":"4620861","prefectureKana":"ｱｲﾁｹﾝ","cityKana":"ﾅｺﾞﾔｼｷﾀｸ","streetKana":"ﾂｼﾞﾎﾝﾄﾞｵﾘ","prefecture":"愛知県","city":"名古屋市北区","street":"辻本通"},{"zipCode":"4620034","prefectureKana":"ｱｲﾁｹﾝ","cityKana":"ﾅｺﾞﾔｼｷﾀｸ","streetKana":"ﾃﾝﾄﾞｳﾁｮｳ","prefecture":"愛知県","city":"名古屋市北区","street":"天道町"},{"zipCode":"4620868","prefectureKana":"ｱｲﾁｹﾝ","cityKana":"ﾅｺﾞﾔｼｷﾀｸ","streetKana":"ﾄﾞｳﾊﾞﾝﾁｮｳ","prefecture":"愛知県","city":"名古屋市北区","street":"憧旛町"},{"zipCode":"4620009","prefectureKana":"ｱｲﾁｹﾝ","cityKana":"ﾅｺﾞﾔｼｷﾀｸ","streetKana":"ﾅｴﾀﾞﾁｮｳ","prefecture":"愛知県","city":"名古屋市北区","street":"苗田町"},{"zipCode":"4620015","prefectureKana":"ｱｲﾁｹﾝ","cityKana":"ﾅｺﾞﾔｼｷﾀｸ","streetKana":"ﾅｶｱｼﾞﾏ","prefecture":"愛知県","city":"名古屋市北区","street":"中味鋺"},{"zipCode":"4620051","prefectureKana":"ｱｲﾁｹﾝ","cityKana":"ﾅｺﾞﾔｼｷﾀｸ","streetKana":"ﾅｶｷﾞﾘﾁｮｳ","prefecture":"愛知県","city":"名古屋市北区","street":"中切町"},{"zipCode":"4620838","prefectureKana":"ｱｲﾁｹﾝ","cityKana":"ﾅｺﾞﾔｼｷﾀｸ","streetKana":"ﾅｶｽｷﾞﾁｮｳ","prefecture":"愛知県","city":"名古屋市北区","street":"中杉町"},{"zipCode":"4620036","prefectureKana":"ｱｲﾁｹﾝ","cityKana":"ﾅｺﾞﾔｼｷﾀｸ","streetKana":"ﾅｶﾞｷﾁｮｳ","prefecture":"愛知県","city":"名古屋市北区","street":"長喜町"},{"zipCode":"4620041","prefectureKana":"ｱｲﾁｹﾝ","cityKana":"ﾅｺﾞﾔｼｷﾀｸ","streetKana":"ﾅﾐｳﾁﾁｮｳ","prefecture":"愛知県","city":"名古屋市北区","street":"浪打町"},{"zipCode":"4620016","prefectureKana":"ｱｲﾁｹﾝ","cityKana":"ﾅｺﾞﾔｼｷﾀｸ","streetKana":"ﾆｼｱｼﾞﾏ","prefecture":"愛知県","city":"名古屋市北区","street":"西味鋺"},{"zipCode":"4620058","prefectureKana":"ｱｲﾁｹﾝ","cityKana":"ﾅｺﾞﾔｼｷﾀｸ","streetKana":"ﾆｼｼｶﾞﾁｮｳ","prefecture":"愛知県","city":"名古屋市北区","street":"西志賀町"},{"zipCode":"4620007","prefectureKana":"ｱｲﾁｹﾝ","cityKana":"ﾅｺﾞﾔｼｷﾀｸ","streetKana":"ﾆｮｲ","prefecture":"愛知県","city":"名古屋市北区","street":"如意"},{"zipCode":"4620008","prefectureKana":"ｱｲﾁｹﾝ","cityKana":"ﾅｺﾞﾔｼｷﾀｸ","streetKana":"ﾆｮﾗｲﾁｮｳ","prefecture":"愛知県","city":"名古屋市北区","street":"如来町"},{"zipCode":"4620054","prefectureKana":"ｱｲﾁｹﾝ","cityKana":"ﾅｺﾞﾔｼｷﾀｸ","streetKana":"ﾉｶﾀﾄｵﾘ","prefecture":"愛知県","city":"名古屋市北区","street":"野方通"},{"zipCode":"4620026","prefectureKana":"ｱｲﾁｹﾝ","cityKana":"ﾅｺﾞﾔｼｷﾀｸ","streetKana":"ﾊｷﾞﾉﾄｵﾘ","prefecture":"愛知県","city":"名古屋市北区","street":"萩野通"},{"zipCode":"4620805","prefectureKana":"ｱｲﾁｹﾝ","cityKana":"ﾅｺﾞﾔｼｷﾀｸ","streetKana":"ﾊﾁﾘｭｳﾁｮｳ","prefecture":"愛知県","city":"名古屋市北区","street":"八龍町"},{"zipCode":"4620024","prefectureKana":"ｱｲﾁｹﾝ","cityKana":"ﾅｺﾞﾔｼｷﾀｸ","streetKana":"ﾊﾄｵｶ","prefecture":"愛知県","city":"名古屋市北区","street":"鳩岡"},{"zipCode":"4620025","prefectureKana":"ｱｲﾁｹﾝ","cityKana":"ﾅｺﾞﾔｼｷﾀｸ","streetKana":"ﾊﾄｵｶﾁｮｳ","prefecture":"愛知県","city":"名古屋市北区","street":"鳩岡町"},{"zipCode":"4620013","prefectureKana":"ｱｲﾁｹﾝ","cityKana":"ﾅｺﾞﾔｼｷﾀｸ","streetKana":"ﾋｶﾞｼｱｼﾞﾏ","prefecture":"愛知県","city":"名古屋市北区","street":"東味鋺"},{"zipCode":"4620826","prefectureKana":"ｱｲﾁｹﾝ","cityKana":"ﾅｺﾞﾔｼｷﾀｸ","streetKana":"ﾋｶﾞｼｵｵｽｷﾞﾁｮｳ","prefecture":"愛知県","city":"名古屋市北区","street":"東大杉町"},{"zipCode":"4620823","prefectureKana":"ｱｲﾁｹﾝ","cityKana":"ﾅｺﾞﾔｼｷﾀｸ","streetKana":"ﾋｶﾞｼｵｵｿﾞﾈﾁｮｳｶﾐ","prefecture":"愛知県","city":"名古屋市北区","street":"東大曽根町上"},{"zipCode":"4620827","prefectureKana":"ｱｲﾁｹﾝ","cityKana":"ﾅｺﾞﾔｼｷﾀｸ","streetKana":"ﾋｶﾞｼﾁｮｳﾀﾞﾁｮｳ","prefecture":"愛知県","city":"名古屋市北区","street":"東長田町"},{"zipCode":"4620828","prefectureKana":"ｱｲﾁｹﾝ","cityKana":"ﾅｺﾞﾔｼｷﾀｸ","streetKana":"ﾋｶﾞｼﾐｽﾞｷﾘﾁｮｳ","prefecture":"愛知県","city":"名古屋市北区","street":"東水切町"},{"zipCode":"4620057","prefectureKana":"ｱｲﾁｹﾝ","cityKana":"ﾅｺﾞﾔｼｷﾀｸ","streetKana":"ﾋﾗﾃﾁｮｳ","prefecture":"愛知県","city":"名古屋市北区","street":"平手町"},{"zipCode":"4620052","prefectureKana":"ｱｲﾁｹﾝ","cityKana":"ﾅｺﾞﾔｼｷﾀｸ","streetKana":"ﾌｸﾄｸﾁｮｳ","prefecture":"愛知県","city":"名古屋市北区","street":"福徳町"},{"zipCode":"4620819","prefectureKana":"ｱｲﾁｹﾝ","cityKana":"ﾅｺﾞﾔｼｷﾀｸ","streetKana":"ﾍｲｱﾝ","prefecture":"愛知県","city":"名古屋市北区","street":"平安"},{"zipCode":"4620816","prefectureKana":"ｱｲﾁｹﾝ","cityKana":"ﾅｺﾞﾔｼｷﾀｸ","streetKana":"ﾍｲｱﾝﾄｵﾘ","prefecture":"愛知県","city":"名古屋市北区","street":"平安通"},{"zipCode":"4620862","prefectureKana":"ｱｲﾁｹﾝ","cityKana":"ﾅｺﾞﾔｼｷﾀｸ","streetKana":"ﾏｸﾞﾛﾁｮｳ","prefecture":"愛知県","city":"名古屋市北区","street":"真畔町"},{"zipCode":"4620055","prefectureKana":"ｱｲﾁｹﾝ","cityKana":"ﾅｺﾞﾔｼｷﾀｸ","streetKana":"ﾏｽｶﾞﾀﾁｮｳ","prefecture":"愛知県","city":"名古屋市北区","street":"桝形町"},{"zipCode":"4620063","prefectureKana":"ｱｲﾁｹﾝ","cityKana":"ﾅｺﾞﾔｼｷﾀｸ","streetKana":"ﾏﾙｼﾝﾁｮｳ","prefecture":"愛知県","city":"名古屋市北区","street":"丸新町"},{"zipCode":"4620833","prefectureKana":"ｱｲﾁｹﾝ","cityKana":"ﾅｺﾞﾔｼｷﾀｸ","streetKana":"ﾐｽﾞｷﾘﾁｮｳ","prefecture":"愛知県","city":"名古屋市北区","street":"水切町"},{"zipCode":"4620042","prefectureKana":"ｱｲﾁｹﾝ","cityKana":"ﾅｺﾞﾔｼｷﾀｸ","streetKana":"ﾐｽﾞｸｻﾁｮｳ","prefecture":"愛知県","city":"名古屋市北区","street":"水草町"},{"zipCode":"4620846","prefectureKana":"ｱｲﾁｹﾝ","cityKana":"ﾅｺﾞﾔｼｷﾀｸ","streetKana":"ﾒｲｼﾞｮｳ","prefecture":"愛知県","city":"名古屋市北区","street":"名城"},{"zipCode":"4620044","prefectureKana":"ｱｲﾁｹﾝ","cityKana":"ﾅｺﾞﾔｼｷﾀｸ","streetKana":"ﾓﾄｼｶﾞﾁｮｳ","prefecture":"愛知県","city":"名古屋市北区","street":"元志賀町"},{"zipCode":"4620043","prefectureKana":"ｱｲﾁｹﾝ","cityKana":"ﾅｺﾞﾔｼｷﾀｸ","streetKana":"ﾔｼﾛﾁｮｳ","prefecture":"愛知県","city":"名古屋市北区","street":"八代町"},{"zipCode":"4620023","prefectureKana":"ｱｲﾁｹﾝ","cityKana":"ﾅｺﾞﾔｼｷﾀｸ","streetKana":"ﾔｽｲ","prefecture":"愛知県","city":"名古屋市北区","street":"安井"},{"zipCode":"4620812","prefectureKana":"ｱｲﾁｹﾝ","cityKana":"ﾅｺﾞﾔｼｷﾀｸ","streetKana":"ﾔﾀﾞﾁｮｳ","prefecture":"愛知県","city":"名古屋市北区","street":"矢田町"},{"zipCode":"4620845","prefectureKana":"ｱｲﾁｹﾝ","cityKana":"ﾅｺﾞﾔｼｷﾀｸ","streetKana":"ﾔﾅｷﾞﾊﾗ","prefecture":"愛知県","city":"名古屋市北区","street":"柳原"},{"zipCode":"4620810","prefectureKana":"ｱｲﾁｹﾝ","cityKana":"ﾅｺﾞﾔｼｷﾀｸ","streetKana":"ﾔﾏﾀﾞ","prefecture":"愛知県","city":"名古屋市北区","street":"山田"},{"zipCode":"4620813","prefectureKana":"ｱｲﾁｹﾝ","cityKana":"ﾅｺﾞﾔｼｷﾀｸ","streetKana":"ﾔﾏﾀﾞﾁｮｳ","prefecture":"愛知県","city":"名古屋市北区","street":"山田町"},{"zipCode":"4620814","prefectureKana":"ｱｲﾁｹﾝ","cityKana":"ﾅｺﾞﾔｼｷﾀｸ","streetKana":"ﾔﾏﾀﾞﾆｼﾏﾁ","prefecture":"愛知県","city":"名古屋市北区","street":"山田西町"},{"zipCode":"4620811","prefectureKana":"ｱｲﾁｹﾝ","cityKana":"ﾅｺﾞﾔｼｷﾀｸ","streetKana":"ﾔﾏﾀﾞｷﾀﾏﾁ","prefecture":"愛知県","city":"名古屋市北区","street":"山田北町"},{"zipCode":"4620824","prefectureKana":"ｱｲﾁｹﾝ","cityKana":"ﾅｺﾞﾔｼｷﾀｸ","streetKana":"ﾖｼﾉ","prefecture":"愛知県","city":"名古屋市北区","street":"芳野"},{"zipCode":"4620866","prefectureKana":"ｱｲﾁｹﾝ","cityKana":"ﾅｺﾞﾔｼｷﾀｸ","streetKana":"ﾙﾘｺｳﾁｮｳ","prefecture":"愛知県","city":"名古屋市北区","street":"瑠璃光町"},{"zipCode":"4620002","prefectureKana":"ｱｲﾁｹﾝ","cityKana":"ﾅｺﾞﾔｼｷﾀｸ","streetKana":"ﾛｸｶﾞｲｹﾁｮｳ","prefecture":"愛知県","city":"名古屋市北区","street":"六が池町"},{"zipCode":"4620006","prefectureKana":"ｱｲﾁｹﾝ","cityKana":"ﾅｺﾞﾔｼｷﾀｸ","streetKana":"ﾜｶﾂﾞﾙﾁｮｳ","prefecture":"愛知県","city":"名古屋市北区","street":"若鶴町"},{"zipCode":"4620854","prefectureKana":"ｱｲﾁｹﾝ","cityKana":"ﾅｺﾞﾔｼｷﾀｸ","streetKana":"ﾜｶﾊﾞﾄｵﾘ","prefecture":"愛知県","city":"名古屋市北区","street":"若葉通"}]