[{"zipCode":"4670000","prefectureKana":"ｱｲﾁｹﾝ","cityKana":"ﾅｺﾞﾔｼﾐｽﾞﾎｸ","streetKana":"ｲｶﾆｹｲｻｲｶﾞﾅｲﾊﾞｱｲ","prefecture":"愛知県","city":"名古屋市瑞穂区","street":"以下に掲載がない場合"},{"zipCode":"4670846","prefectureKana":"ｱｲﾁｹﾝ","cityKana":"ﾅｺﾞﾔｼﾐｽﾞﾎｸ","streetKana":"ｱﾗｻｷﾁｮｳ","prefecture":"愛知県","city":"名古屋市瑞穂区","street":"荒崎町"},{"zipCode":"4670005","prefectureKana":"ｱｲﾁｹﾝ","cityKana":"ﾅｺﾞﾔｼﾐｽﾞﾎｸ","streetKana":"ｲｼｶﾜﾁｮｳ","prefecture":"愛知県","city":"名古屋市瑞穂区","street":"石川町"},{"zipCode":"4670067","prefectureKana":"ｱｲﾁｹﾝ","cityKana":"ﾅｺﾞﾔｼﾐｽﾞﾎｸ","streetKana":"ｲｼﾀﾞﾁｮｳ","prefecture":"愛知県","city":"名古屋市瑞穂区","street":"石田町"},{"zipCode":"4670063","prefectureKana":"ｱｲﾁｹﾝ","cityKana":"ﾅｺﾞﾔｼﾐｽﾞﾎｸ","streetKana":"ｲﾁｵｶﾁｮｳ","prefecture":"愛知県","city":"名古屋市瑞穂区","street":"市丘町"},{"zipCode":"4670835","prefectureKana":"ｱｲﾁｹﾝ","cityKana":"ﾅｺﾞﾔｼﾐｽﾞﾎｸ","streetKana":"ｲﾄﾞﾀﾁｮｳ","prefecture":"愛知県","city":"名古屋市瑞穂区","street":"井戸田町"},{"zipCode":"4670057","prefectureKana":"ｱｲﾁｹﾝ","cityKana":"ﾅｺﾞﾔｼﾐｽﾞﾎｸ","streetKana":"ｲﾉﾓﾄﾁｮｳ","prefecture":"愛知県","city":"名古屋市瑞穂区","street":"井の元町"},{"zipCode":"4670045","prefectureKana":"ｱｲﾁｹﾝ","cityKana":"ﾅｺﾞﾔｼﾐｽﾞﾎｸ","streetKana":"ｲﾊﾞﾗｷﾞﾁｮｳ","prefecture":"愛知県","city":"名古屋市瑞穂区","street":"茨木町"},{"zipCode":"4670854","prefectureKana":"ｱｲﾁｹﾝ","cityKana":"ﾅｺﾞﾔｼﾐｽﾞﾎｸ","streetKana":"ｳｷｼﾏﾁｮｳ","prefecture":"愛知県","city":"名古屋市瑞穂区","street":"浮島町"},{"zipCode":"4670863","prefectureKana":"ｱｲﾁｹﾝ","cityKana":"ﾅｺﾞﾔｼﾐｽﾞﾎｸ","streetKana":"ｳｼﾏｷﾁｮｳ","prefecture":"愛知県","city":"名古屋市瑞穂区","street":"牛巻町"},{"zipCode":"4670068","prefectureKana":"ｱｲﾁｹﾝ","cityKana":"ﾅｺﾞﾔｼﾐｽﾞﾎｸ","streetKana":"ｳﾁｶﾀﾁｮｳ","prefecture":"愛知県","city":"名古屋市瑞穂区","street":"内方町"},{"zipCode":"4670853","prefectureKana":"ｱｲﾁｹﾝ","cityKana":"ﾅｺﾞﾔｼﾐｽﾞﾎｸ","streetKana":"ｳﾁﾊﾏﾁｮｳ","prefecture":"愛知県","city":"名古屋市瑞穂区","street":"内浜町"},{"zipCode":"4670874","prefectureKana":"ｱｲﾁｹﾝ","cityKana":"ﾅｺﾞﾔｼﾐｽﾞﾎｸ","streetKana":"ｵｵﾀﾁｮｳ","prefecture":"愛知県","city":"名古屋市瑞穂区","street":"太田町"},{"zipCode":"4670006","prefectureKana":"ｱｲﾁｹﾝ","cityKana":"ﾅｺﾞﾔｼﾐｽﾞﾎｸ","streetKana":"ｵﾀﾊﾞｺﾁｮｳ","prefecture":"愛知県","city":"名古屋市瑞穂区","street":"御莨町"},{"zipCode":"4670007","prefectureKana":"ｱｲﾁｹﾝ","cityKana":"ﾅｺﾞﾔｼﾐｽﾞﾎｸ","streetKana":"ｵﾄﾄﾞﾏﾁ","prefecture":"愛知県","city":"名古屋市瑞穂区","street":"大殿町"},{"zipCode":"4670833","prefectureKana":"ｱｲﾁｹﾝ","cityKana":"ﾅｺﾞﾔｼﾐｽﾞﾎｸ","streetKana":"ｶｷﾞﾀﾁｮｳ","prefecture":"愛知県","city":"名古屋市瑞穂区","street":"鍵田町"},{"zipCode":"4670044","prefectureKana":"ｱｲﾁｹﾝ","cityKana":"ﾅｺﾞﾔｼﾐｽﾞﾎｸ","streetKana":"ｶｼﾜｷﾞﾁｮｳ","prefecture":"愛知県","city":"名古屋市瑞穂区","street":"柏木町"},{"zipCode":"4670052","prefectureKana":"ｱｲﾁｹﾝ","cityKana":"ﾅｺﾞﾔｼﾐｽﾞﾎｸ","streetKana":"ｶﾀｻｶﾁｮｳ","prefecture":"愛知県","city":"名古屋市瑞穂区","street":"片坂町"},{"zipCode":"4670824","prefectureKana":"ｱｲﾁｹﾝ","cityKana":"ﾅｺﾞﾔｼﾐｽﾞﾎｸ","streetKana":"ｶﾌﾞﾄﾔﾏﾁｮｳ","prefecture":"愛知県","city":"名古屋市瑞穂区","street":"甲山町"},{"zipCode":"4670051","prefectureKana":"ｱｲﾁｹﾝ","cityKana":"ﾅｺﾞﾔｼﾐｽﾞﾎｸ","streetKana":"ｶﾏﾂﾞｶﾁｮｳ","prefecture":"愛知県","city":"名古屋市瑞穂区","street":"釜塚町"},{"zipCode":"4670821","prefectureKana":"ｱｲﾁｹﾝ","cityKana":"ﾅｺﾞﾔｼﾐｽﾞﾎｸ","streetKana":"ｶﾐｻｶﾁｮｳ","prefecture":"愛知県","city":"名古屋市瑞穂区","street":"上坂町"},{"zipCode":"4670847","prefectureKana":"ｱｲﾁｹﾝ","cityKana":"ﾅｺﾞﾔｼﾐｽﾞﾎｸ","streetKana":"ｶﾐﾎﾁｮｳ","prefecture":"愛知県","city":"名古屋市瑞穂区","street":"神穂町"},{"zipCode":"4670832","prefectureKana":"ｱｲﾁｹﾝ","cityKana":"ﾅｺﾞﾔｼﾐｽﾞﾎｸ","streetKana":"ｶﾐﾏｴﾁｮｳ","prefecture":"愛知県","city":"名古屋市瑞穂区","street":"神前町"},{"zipCode":"4670022","prefectureKana":"ｱｲﾁｹﾝ","cityKana":"ﾅｺﾞﾔｼﾐｽﾞﾎｸ","streetKana":"ｶﾐﾔﾏﾁｮｳ","prefecture":"愛知県","city":"名古屋市瑞穂区","street":"上山町"},{"zipCode":"4670876","prefectureKana":"ｱｲﾁｹﾝ","cityKana":"ﾅｺﾞﾔｼﾐｽﾞﾎｸ","streetKana":"ｶﾒｼﾛﾁｮｳ","prefecture":"愛知県","city":"名古屋市瑞穂区","street":"亀城町"},{"zipCode":"4670845","prefectureKana":"ｱｲﾁｹﾝ","cityKana":"ﾅｺﾞﾔｼﾐｽﾞﾎｸ","streetKana":"ｶﾜｷﾞｼ","prefecture":"愛知県","city":"名古屋市瑞穂区","street":"河岸"},{"zipCode":"4670844","prefectureKana":"ｱｲﾁｹﾝ","cityKana":"ﾅｺﾞﾔｼﾐｽﾞﾎｸ","streetKana":"ｶﾜｷﾞｼﾁｮｳ","prefecture":"愛知県","city":"名古屋市瑞穂区","street":"河岸町"},{"zipCode":"4670002","prefectureKana":"ｱｲﾁｹﾝ","cityKana":"ﾅｺﾞﾔｼﾐｽﾞﾎｸ","streetKana":"ｶﾜｽﾐﾁｮｳ","prefecture":"愛知県","city":"名古屋市瑞穂区","street":"川澄町"},{"zipCode":"4670877","prefectureKana":"ｱｲﾁｹﾝ","cityKana":"ﾅｺﾞﾔｼﾐｽﾞﾎｸ","streetKana":"ｶﾞﾝﾐﾁﾁｮｳ","prefecture":"愛知県","city":"名古屋市瑞穂区","street":"雁道町"},{"zipCode":"4670811","prefectureKana":"ｱｲﾁｹﾝ","cityKana":"ﾅｺﾞﾔｼﾐｽﾞﾎｸ","streetKana":"ｷﾀﾊﾗﾁｮｳ","prefecture":"愛知県","city":"名古屋市瑞穂区","street":"北原町"},{"zipCode":"4670059","prefectureKana":"ｱｲﾁｹﾝ","cityKana":"ﾅｺﾞﾔｼﾐｽﾞﾎｸ","streetKana":"ｸﾞﾝｽｲﾁｮｳ","prefecture":"愛知県","city":"名古屋市瑞穂区","street":"軍水町"},{"zipCode":"4670807","prefectureKana":"ｱｲﾁｹﾝ","cityKana":"ﾅｺﾞﾔｼﾐｽﾞﾎｸ","streetKana":"ｺﾏﾊﾞﾁｮｳ","prefecture":"愛知県","city":"名古屋市瑞穂区","street":"駒場町"},{"zipCode":"4670805","prefectureKana":"ｱｲﾁｹﾝ","cityKana":"ﾅｺﾞﾔｼﾐｽﾞﾎｸ","streetKana":"ｻｸﾗﾐﾁｮｳ","prefecture":"愛知県","city":"名古屋市瑞穂区","street":"桜見町"},{"zipCode":"4670812","prefectureKana":"ｱｲﾁｹﾝ","cityKana":"ﾅｺﾞﾔｼﾐｽﾞﾎｸ","streetKana":"ｻﾂﾏﾁｮｳ","prefecture":"愛知県","city":"名古屋市瑞穂区","street":"薩摩町"},{"zipCode":"4670016","prefectureKana":"ｱｲﾁｹﾝ","cityKana":"ﾅｺﾞﾔｼﾐｽﾞﾎｸ","streetKana":"ｻﾜﾀﾘﾁｮｳ","prefecture":"愛知県","city":"名古屋市瑞穂区","street":"佐渡町"},{"zipCode":"4670851","prefectureKana":"ｱｲﾁｹﾝ","cityKana":"ﾅｺﾞﾔｼﾐｽﾞﾎｸ","streetKana":"ｼｵｲﾘﾁｮｳ","prefecture":"愛知県","city":"名古屋市瑞穂区","street":"塩入町"},{"zipCode":"4670003","prefectureKana":"ｱｲﾁｹﾝ","cityKana":"ﾅｺﾞﾔｼﾐｽﾞﾎｸ","streetKana":"ｼｵｼﾞﾁｮｳ","prefecture":"愛知県","city":"名古屋市瑞穂区","street":"汐路町"},{"zipCode":"4670827","prefectureKana":"ｱｲﾁｹﾝ","cityKana":"ﾅｺﾞﾔｼﾐｽﾞﾎｸ","streetKana":"ｼﾓｻｶﾁｮｳ","prefecture":"愛知県","city":"名古屋市瑞穂区","street":"下坂町"},{"zipCode":"4670049","prefectureKana":"ｱｲﾁｹﾝ","cityKana":"ﾅｺﾞﾔｼﾐｽﾞﾎｸ","streetKana":"ｼﾓﾔﾏﾁｮｳ","prefecture":"愛知県","city":"名古屋市瑞穂区","street":"下山町"},{"zipCode":"4670867","prefectureKana":"ｱｲﾁｹﾝ","cityKana":"ﾅｺﾞﾔｼﾐｽﾞﾎｸ","streetKana":"ｼｭﾝｺｳﾁｮｳ","prefecture":"愛知県","city":"名古屋市瑞穂区","street":"春敲町"},{"zipCode":"4670004","prefectureKana":"ｱｲﾁｹﾝ","cityKana":"ﾅｺﾞﾔｼﾐｽﾞﾎｸ","streetKana":"ｼｮｳｹﾞﾂﾁｮｳ","prefecture":"愛知県","city":"名古屋市瑞穂区","street":"松月町"},{"zipCode":"4670056","prefectureKana":"ｱｲﾁｹﾝ","cityKana":"ﾅｺﾞﾔｼﾐｽﾞﾎｸ","streetKana":"ｼﾗｽﾅﾁｮｳ","prefecture":"愛知県","city":"名古屋市瑞穂区","street":"白砂町"},{"zipCode":"4670014","prefectureKana":"ｱｲﾁｹﾝ","cityKana":"ﾅｺﾞﾔｼﾐｽﾞﾎｸ","streetKana":"ｼﾗﾊﾈﾁｮｳ","prefecture":"愛知県","city":"名古屋市瑞穂区","street":"白羽根町"},{"zipCode":"4670856","prefectureKana":"ｱｲﾁｹﾝ","cityKana":"ﾅｺﾞﾔｼﾐｽﾞﾎｸ","streetKana":"ｼﾝｶｲﾁｮｳ","prefecture":"愛知県","city":"名古屋市瑞穂区","street":"新開町"},{"zipCode":"4670804","prefectureKana":"ｱｲﾁｹﾝ","cityKana":"ﾅｺﾞﾔｼﾐｽﾞﾎｸ","streetKana":"ｽｸﾞﾓﾁｮｳ","prefecture":"愛知県","city":"名古屋市瑞穂区","street":"洲雲町"},{"zipCode":"4670871","prefectureKana":"ｱｲﾁｹﾝ","cityKana":"ﾅｺﾞﾔｼﾐｽﾞﾎｸ","streetKana":"ｽﾀﾞﾁｮｳ","prefecture":"愛知県","city":"名古屋市瑞穂区","street":"須田町"},{"zipCode":"4670066","prefectureKana":"ｱｲﾁｹﾝ","cityKana":"ﾅｺﾞﾔｼﾐｽﾞﾎｸ","streetKana":"ｽﾔﾏﾁｮｳ","prefecture":"愛知県","city":"名古屋市瑞穂区","street":"洲山町"},{"zipCode":"4670058","prefectureKana":"ｱｲﾁｹﾝ","cityKana":"ﾅｺﾞﾔｼﾐｽﾞﾎｸ","streetKana":"ｾｷﾄﾘﾁｮｳ","prefecture":"愛知県","city":"名古屋市瑞穂区","street":"関取町"},{"zipCode":"4670013","prefectureKana":"ｱｲﾁｹﾝ","cityKana":"ﾅｺﾞﾔｼﾐｽﾞﾎｸ","streetKana":"ｾﾞﾝﾀﾞﾅﾁｮｳ","prefecture":"愛知県","city":"名古屋市瑞穂区","street":"膳棚町"},{"zipCode":"4670831","prefectureKana":"ｱｲﾁｹﾝ","cityKana":"ﾅｺﾞﾔｼﾐｽﾞﾎｸ","streetKana":"ｿｳｻｸﾁｮｳ","prefecture":"愛知県","city":"名古屋市瑞穂区","street":"惣作町"},{"zipCode":"4670015","prefectureKana":"ｱｲﾁｹﾝ","cityKana":"ﾅｺﾞﾔｼﾐｽﾞﾎｸ","streetKana":"ｿﾛﾁｮｳ","prefecture":"愛知県","city":"名古屋市瑞穂区","street":"十六町"},{"zipCode":"4670868","prefectureKana":"ｱｲﾁｹﾝ","cityKana":"ﾅｺﾞﾔｼﾐｽﾞﾎｸ","streetKana":"ﾀﾞｲｷﾞｼﾝﾁｮｳ","prefecture":"愛知県","city":"名古屋市瑞穂区","street":"大喜新町"},{"zipCode":"4670822","prefectureKana":"ｱｲﾁｹﾝ","cityKana":"ﾅｺﾞﾔｼﾐｽﾞﾎｸ","streetKana":"ﾀﾞｲｷﾞﾁｮｳ","prefecture":"愛知県","city":"名古屋市瑞穂区","street":"大喜町"},{"zipCode":"4670808","prefectureKana":"ｱｲﾁｹﾝ","cityKana":"ﾅｺﾞﾔｼﾐｽﾞﾎｸ","streetKana":"ﾀｶﾀﾁｮｳ","prefecture":"愛知県","city":"名古屋市瑞穂区","street":"高田町"},{"zipCode":"4670872","prefectureKana":"ｱｲﾁｹﾝ","cityKana":"ﾅｺﾞﾔｼﾐｽﾞﾎｸ","streetKana":"ﾀｶﾂｼﾞﾁｮｳ","prefecture":"愛知県","city":"名古屋市瑞穂区","street":"高辻町"},{"zipCode":"4670873","prefectureKana":"ｱｲﾁｹﾝ","cityKana":"ﾅｺﾞﾔｼﾐｽﾞﾎｸ","streetKana":"ﾀｹﾀﾞﾁｮｳ","prefecture":"愛知県","city":"名古屋市瑞穂区","street":"竹田町"},{"zipCode":"4670043","prefectureKana":"ｱｲﾁｹﾝ","cityKana":"ﾅｺﾞﾔｼﾐｽﾞﾎｸ","streetKana":"ﾀｹﾐﾁｮｳ","prefecture":"愛知県","city":"名古屋市瑞穂区","street":"岳見町"},{"zipCode":"4670828","prefectureKana":"ｱｲﾁｹﾝ","cityKana":"ﾅｺﾞﾔｼﾐｽﾞﾎｸ","streetKana":"ﾀｺｳﾁｮｳ","prefecture":"愛知県","city":"名古屋市瑞穂区","street":"田光町"},{"zipCode":"4670027","prefectureKana":"ｱｲﾁｹﾝ","cityKana":"ﾅｺﾞﾔｼﾐｽﾞﾎｸ","streetKana":"ﾀﾅﾍﾞﾄｵﾘ","prefecture":"愛知県","city":"名古屋市瑞穂区","street":"田辺通"},{"zipCode":"4670046","prefectureKana":"ｱｲﾁｹﾝ","cityKana":"ﾅｺﾞﾔｼﾐｽﾞﾎｸ","streetKana":"ﾀﾏﾐｽﾞﾁｮｳ","prefecture":"愛知県","city":"名古屋市瑞穂区","street":"玉水町"},{"zipCode":"4670021","prefectureKana":"ｱｲﾁｹﾝ","cityKana":"ﾅｺﾞﾔｼﾐｽﾞﾎｸ","streetKana":"ﾀﾞﾝｹｲﾄｵﾘ","prefecture":"愛知県","city":"名古屋市瑞穂区","street":"檀渓通"},{"zipCode":"4670823","prefectureKana":"ｱｲﾁｹﾝ","cityKana":"ﾅｺﾞﾔｼﾐｽﾞﾎｸ","streetKana":"ﾂｶﾀﾁｮｳ","prefecture":"愛知県","city":"名古屋市瑞穂区","street":"津賀田町"},{"zipCode":"4670836","prefectureKana":"ｱｲﾁｹﾝ","cityKana":"ﾅｺﾞﾔｼﾐｽﾞﾎｸ","streetKana":"ﾂｸﾀﾞﾁｮｳ","prefecture":"愛知県","city":"名古屋市瑞穂区","street":"佃町"},{"zipCode":"4670843","prefectureKana":"ｱｲﾁｹﾝ","cityKana":"ﾅｺﾞﾔｼﾐｽﾞﾎｸ","streetKana":"ﾄﾞｲﾁﾁｮｳ","prefecture":"愛知県","city":"名古屋市瑞穂区","street":"土市町"},{"zipCode":"4670017","prefectureKana":"ｱｲﾁｹﾝ","cityKana":"ﾅｺﾞﾔｼﾐｽﾞﾎｸ","streetKana":"ﾄｳｴｲﾁｮｳ","prefecture":"愛知県","city":"名古屋市瑞穂区","street":"東栄町"},{"zipCode":"4670012","prefectureKana":"ｱｲﾁｹﾝ","cityKana":"ﾅｺﾞﾔｼﾐｽﾞﾎｸ","streetKana":"ﾄﾖｵｶﾄﾞｵﾘ","prefecture":"愛知県","city":"名古屋市瑞穂区","street":"豊岡通"},{"zipCode":"4670841","prefectureKana":"ｱｲﾁｹﾝ","cityKana":"ﾅｺﾞﾔｼﾐｽﾞﾎｸ","streetKana":"ﾅｴｼﾛﾁｮｳ","prefecture":"愛知県","city":"名古屋市瑞穂区","street":"苗代町"},{"zipCode":"4670865","prefectureKana":"ｱｲﾁｹﾝ","cityKana":"ﾅｺﾞﾔｼﾐｽﾞﾎｸ","streetKana":"ﾅｵﾗｲﾁｮｳ","prefecture":"愛知県","city":"名古屋市瑞穂区","street":"直来町"},{"zipCode":"4670055","prefectureKana":"ｱｲﾁｹﾝ","cityKana":"ﾅｺﾞﾔｼﾐｽﾞﾎｸ","streetKana":"ﾅｶﾈﾁｮｳ","prefecture":"愛知県","city":"名古屋市瑞穂区","street":"中根町"},{"zipCode":"4670803","prefectureKana":"ｱｲﾁｹﾝ","cityKana":"ﾅｺﾞﾔｼﾐｽﾞﾎｸ","streetKana":"ﾅｶﾔﾏﾁｮｳ","prefecture":"愛知県","city":"名古屋市瑞穂区","street":"中山町"},{"zipCode":"4670813","prefectureKana":"ｱｲﾁｹﾝ","cityKana":"ﾅｺﾞﾔｼﾐｽﾞﾎｸ","streetKana":"ﾆｼﾉﾜﾘﾁｮｳ","prefecture":"愛知県","city":"名古屋市瑞穂区","street":"西ノ割町"},{"zipCode":"4670053","prefectureKana":"ｱｲﾁｹﾝ","cityKana":"ﾅｺﾞﾔｼﾐｽﾞﾎｸ","streetKana":"ﾆｼｮﾁｮｳ","prefecture":"愛知県","city":"名古屋市瑞穂区","street":"仁所町"},{"zipCode":"4670011","prefectureKana":"ｱｲﾁｹﾝ","cityKana":"ﾅｺﾞﾔｼﾐｽﾞﾎｸ","streetKana":"ﾊｷﾞﾔﾏﾁｮｳ","prefecture":"愛知県","city":"名古屋市瑞穂区","street":"萩山町"},{"zipCode":"4670826","prefectureKana":"ｱｲﾁｹﾝ","cityKana":"ﾅｺﾞﾔｼﾐｽﾞﾎｸ","streetKana":"ﾊｸﾘｭｳﾁｮｳ","prefecture":"愛知県","city":"名古屋市瑞穂区","street":"白龍町"},{"zipCode":"4670042","prefectureKana":"ｱｲﾁｹﾝ","cityKana":"ﾅｺﾞﾔｼﾐｽﾞﾎｸ","streetKana":"ﾊｯｼｮｳﾄｵﾘ","prefecture":"愛知県","city":"名古屋市瑞穂区","street":"八勝通"},{"zipCode":"4670028","prefectureKana":"ｱｲﾁｹﾝ","cityKana":"ﾅｺﾞﾔｼﾐｽﾞﾎｸ","streetKana":"ﾊﾂﾋﾁｮｳ","prefecture":"愛知県","city":"名古屋市瑞穂区","street":"初日町"},{"zipCode":"4670837","prefectureKana":"ｱｲﾁｹﾝ","cityKana":"ﾅｺﾞﾔｼﾐｽﾞﾎｸ","streetKana":"ﾊﾅﾒﾁｮｳ","prefecture":"愛知県","city":"名古屋市瑞穂区","street":"花目町"},{"zipCode":"4670024","prefectureKana":"ｱｲﾁｹﾝ","cityKana":"ﾅｺﾞﾔｼﾐｽﾞﾎｸ","streetKana":"ﾊﾙﾔﾏﾁｮｳ","prefecture":"愛知県","city":"名古屋市瑞穂区","street":"春山町"},{"zipCode":"4670047","prefectureKana":"ｱｲﾁｹﾝ","cityKana":"ﾅｺﾞﾔｼﾐｽﾞﾎｸ","streetKana":"ﾋﾅﾀﾏﾁ","prefecture":"愛知県","city":"名古屋市瑞穂区","street":"日向町"},{"zipCode":"4670834","prefectureKana":"ｱｲﾁｹﾝ","cityKana":"ﾅｺﾞﾔｼﾐｽﾞﾎｸ","streetKana":"ﾋﾒﾐﾔﾁｮｳ","prefecture":"愛知県","city":"名古屋市瑞穂区","street":"姫宮町"},{"zipCode":"4670861","prefectureKana":"ｱｲﾁｹﾝ","cityKana":"ﾅｺﾞﾔｼﾐｽﾞﾎｸ","streetKana":"ﾌﾀﾉﾁｮｳ","prefecture":"愛知県","city":"名古屋市瑞穂区","street":"二野町"},{"zipCode":"4670878","prefectureKana":"ｱｲﾁｹﾝ","cityKana":"ﾅｺﾞﾔｼﾐｽﾞﾎｸ","streetKana":"ﾌﾅﾊﾞﾗﾁｮｳ","prefecture":"愛知県","city":"名古屋市瑞穂区","street":"船原町"},{"zipCode":"4670879","prefectureKana":"ｱｲﾁｹﾝ","cityKana":"ﾅｺﾞﾔｼﾐｽﾞﾎｸ","streetKana":"ﾍｲｺﾞｳﾁｮｳ","prefecture":"愛知県","city":"名古屋市瑞穂区","street":"平郷町"},{"zipCode":"4670866","prefectureKana":"ｱｲﾁｹﾝ","cityKana":"ﾅｺﾞﾔｼﾐｽﾞﾎｸ","streetKana":"ﾎｳﾃﾞﾝﾁｮｳ","prefecture":"愛知県","city":"名古屋市瑞穂区","street":"宝田町"},{"zipCode":"4670862","prefectureKana":"ｱｲﾁｹﾝ","cityKana":"ﾅｺﾞﾔｼﾐｽﾞﾎｸ","streetKana":"ﾎﾘﾀﾄｵﾘ","prefecture":"愛知県","city":"名古屋市瑞穂区","street":"堀田通"},{"zipCode":"4670814","prefectureKana":"ｱｲﾁｹﾝ","cityKana":"ﾅｺﾞﾔｼﾐｽﾞﾎｸ","streetKana":"ﾎﾝｶﾞﾝｼﾞﾁｮｳ","prefecture":"愛知県","city":"名古屋市瑞穂区","street":"本願寺町"},{"zipCode":"4670815","prefectureKana":"ｱｲﾁｹﾝ","cityKana":"ﾅｺﾞﾔｼﾐｽﾞﾎｸ","streetKana":"ﾏｴﾀﾞﾁｮｳ","prefecture":"愛知県","city":"名古屋市瑞穂区","street":"前田町"},{"zipCode":"4670816","prefectureKana":"ｱｲﾁｹﾝ","cityKana":"ﾅｺﾞﾔｼﾐｽﾞﾎｸ","streetKana":"ﾏｷﾁｮｳ","prefecture":"愛知県","city":"名古屋市瑞穂区","street":"牧町"},{"zipCode":"4670025","prefectureKana":"ｱｲﾁｹﾝ","cityKana":"ﾅｺﾞﾔｼﾐｽﾞﾎｸ","streetKana":"ﾏﾂｻｶｴﾁｮｳ","prefecture":"愛知県","city":"名古屋市瑞穂区","street":"松栄町"},{"zipCode":"4670065","prefectureKana":"ｱｲﾁｹﾝ","cityKana":"ﾅｺﾞﾔｼﾐｽﾞﾎｸ","streetKana":"ﾏﾂｿﾉﾁｮｳ","prefecture":"愛知県","city":"名古屋市瑞穂区","street":"松園町"},{"zipCode":"4670864","prefectureKana":"ｱｲﾁｹﾝ","cityKana":"ﾅｺﾞﾔｼﾐｽﾞﾎｸ","streetKana":"ﾏﾒﾀﾞﾁｮｳ","prefecture":"愛知県","city":"名古屋市瑞穂区","street":"豆田町"},{"zipCode":"4670054","prefectureKana":"ｱｲﾁｹﾝ","cityKana":"ﾅｺﾞﾔｼﾐｽﾞﾎｸ","streetKana":"ﾏﾙﾈﾁｮｳ","prefecture":"愛知県","city":"名古屋市瑞穂区","street":"丸根町"},{"zipCode":"4670041","prefectureKana":"ｱｲﾁｹﾝ","cityKana":"ﾅｺﾞﾔｼﾐｽﾞﾎｸ","streetKana":"ﾐｶﾝﾔﾏﾁｮｳ","prefecture":"愛知県","city":"名古屋市瑞穂区","street":"密柑山町"},{"zipCode":"4670001","prefectureKana":"ｱｲﾁｹﾝ","cityKana":"ﾅｺﾞﾔｼﾐｽﾞﾎｸ","streetKana":"ﾐｽﾞﾎﾁｮｳ(ｶﾜｽﾐ)","prefecture":"愛知県","city":"名古屋市瑞穂区","street":"瑞穂町（川澄）"},{"zipCode":"4670801","prefectureKana":"ｱｲﾁｹﾝ","cityKana":"ﾅｺﾞﾔｼﾐｽﾞﾎｸ","streetKana":"ﾐｽﾞﾎﾁｮｳ(ﾆｼﾌｼﾞﾂｶ)","prefecture":"愛知県","city":"名古屋市瑞穂区","street":"瑞穂町（西藤塚）"},{"zipCode":"4670802","prefectureKana":"ｱｲﾁｹﾝ","cityKana":"ﾅｺﾞﾔｼﾐｽﾞﾎｸ","streetKana":"ﾐｽﾞﾎﾁｮｳ(ﾔﾏﾉﾊﾞﾀ)","prefecture":"愛知県","city":"名古屋市瑞穂区","street":"瑞穂町（山の畑）"},{"zipCode":"4670806","prefectureKana":"ｱｲﾁｹﾝ","cityKana":"ﾅｺﾞﾔｼﾐｽﾞﾎｸ","streetKana":"ﾐｽﾞﾎﾄｵﾘ","prefecture":"愛知県","city":"名古屋市瑞穂区","street":"瑞穂通"},{"zipCode":"4670875","prefectureKana":"ｱｲﾁｹﾝ","cityKana":"ﾅｺﾞﾔｼﾐｽﾞﾎｸ","streetKana":"ﾐﾂﾙｷﾞﾁｮｳ","prefecture":"愛知県","city":"名古屋市瑞穂区","street":"御劔町"},{"zipCode":"4670023","prefectureKana":"ｱｲﾁｹﾝ","cityKana":"ﾅｺﾞﾔｼﾐｽﾞﾎｸ","streetKana":"ﾐﾅﾐﾔﾏﾁｮｳ","prefecture":"愛知県","city":"名古屋市瑞穂区","street":"南山町"},{"zipCode":"4670842","prefectureKana":"ｱｲﾁｹﾝ","cityKana":"ﾅｺﾞﾔｼﾐｽﾞﾎｸ","streetKana":"ﾐｮｳｵﾝﾄｵﾘ","prefecture":"愛知県","city":"名古屋市瑞穂区","street":"妙音通"},{"zipCode":"4670008","prefectureKana":"ｱｲﾁｹﾝ","cityKana":"ﾅｺﾞﾔｼﾐｽﾞﾎｸ","streetKana":"ﾑﾗｶﾐﾁｮｳ","prefecture":"愛知県","city":"名古屋市瑞穂区","street":"村上町"},{"zipCode":"4670852","prefectureKana":"ｱｲﾁｹﾝ","cityKana":"ﾅｺﾞﾔｼﾐｽﾞﾎｸ","streetKana":"ﾒｲｾﾞﾝﾁｮｳ","prefecture":"愛知県","city":"名古屋市瑞穂区","street":"明前町"},{"zipCode":"4670855","prefectureKana":"ｱｲﾁｹﾝ","cityKana":"ﾅｺﾞﾔｼﾐｽﾞﾎｸ","streetKana":"ﾓﾓｿﾞﾉﾁｮｳ","prefecture":"愛知県","city":"名古屋市瑞穂区","street":"桃園町"},{"zipCode":"4670061","prefectureKana":"ｱｲﾁｹﾝ","cityKana":"ﾅｺﾞﾔｼﾐｽﾞﾎｸ","streetKana":"ﾓﾛﾅｶﾞﾁｮｳ","prefecture":"愛知県","city":"名古屋市瑞穂区","street":"師長町"},{"zipCode":"4670048","prefectureKana":"ｱｲﾁｹﾝ","cityKana":"ﾅｺﾞﾔｼﾐｽﾞﾎｸ","streetKana":"ﾔﾄﾐｶﾞｵｶﾁｮｳ","prefecture":"愛知県","city":"名古屋市瑞穂区","street":"弥富ケ丘町"},{"zipCode":"4670036","prefectureKana":"ｱｲﾁｹﾝ","cityKana":"ﾅｺﾞﾔｼﾐｽﾞﾎｸ","streetKana":"ﾔﾄﾐﾁｮｳﾐｶﾝﾔﾏ","prefecture":"愛知県","city":"名古屋市瑞穂区","street":"弥富町密柑山"},{"zipCode":"4670039","prefectureKana":"ｱｲﾁｹﾝ","cityKana":"ﾅｺﾞﾔｼﾐｽﾞﾎｸ","streetKana":"ﾔﾄﾐﾁｮｳｲﾊﾞﾗﾔﾏ","prefecture":"愛知県","city":"名古屋市瑞穂区","street":"弥富町茨山"},{"zipCode":"4670037","prefectureKana":"ｱｲﾁｹﾝ","cityKana":"ﾅｺﾞﾔｼﾐｽﾞﾎｸ","streetKana":"ﾔﾄﾐﾁｮｳｶﾐﾔﾏ","prefecture":"愛知県","city":"名古屋市瑞穂区","street":"弥富町上山"},{"zipCode":"4670032","prefectureKana":"ｱｲﾁｹﾝ","cityKana":"ﾅｺﾞﾔｼﾐｽﾞﾎｸ","streetKana":"ﾔﾄﾐﾁｮｳｺｳﾖｳｴﾝ","prefecture":"愛知県","city":"名古屋市瑞穂区","street":"弥富町紅葉園"},{"zipCode":"4670034","prefectureKana":"ｱｲﾁｹﾝ","cityKana":"ﾅｺﾞﾔｼﾐｽﾞﾎｸ","streetKana":"ﾔﾄﾐﾁｮｳｻｸﾗｶﾞｵｶ","prefecture":"愛知県","city":"名古屋市瑞穂区","street":"弥富町桜ケ岡"},{"zipCode":"4670038","prefectureKana":"ｱｲﾁｹﾝ","cityKana":"ﾅｺﾞﾔｼﾐｽﾞﾎｸ","streetKana":"ﾔﾄﾐﾁｮｳｼﾐｽﾞｶﾞｵｶ","prefecture":"愛知県","city":"名古屋市瑞穂区","street":"弥富町清水ケ岡"},{"zipCode":"4670035","prefectureKana":"ｱｲﾁｹﾝ","cityKana":"ﾅｺﾞﾔｼﾐｽﾞﾎｸ","streetKana":"ﾔﾄﾐﾁｮｳﾂｷﾐｶﾞｵｶ","prefecture":"愛知県","city":"名古屋市瑞穂区","street":"弥富町月見ケ岡"},{"zipCode":"4670033","prefectureKana":"ｱｲﾁｹﾝ","cityKana":"ﾅｺﾞﾔｼﾐｽﾞﾎｸ","streetKana":"ﾔﾄﾐﾁｮｳﾏﾙﾔﾏ","prefecture":"愛知県","city":"名古屋市瑞穂区","street":"弥富町円山"},{"zipCode":"4670031","prefectureKana":"ｱｲﾁｹﾝ","cityKana":"ﾅｺﾞﾔｼﾐｽﾞﾎｸ","streetKana":"ﾔﾄﾐﾁｮｳﾐﾄﾞﾘｶﾞｵｶ","prefecture":"愛知県","city":"名古屋市瑞穂区","street":"弥富町緑ケ岡"},{"zipCode":"4670064","prefectureKana":"ｱｲﾁｹﾝ","cityKana":"ﾅｺﾞﾔｼﾐｽﾞﾎｸ","streetKana":"ﾔﾄﾐﾄﾞｵﾘ","prefecture":"愛知県","city":"名古屋市瑞穂区","street":"弥富通"},{"zipCode":"4670825","prefectureKana":"ｱｲﾁｹﾝ","cityKana":"ﾅｺﾞﾔｼﾐｽﾞﾎｸ","streetKana":"ﾔﾅｶﾞｴﾁｮｳ","prefecture":"愛知県","city":"名古屋市瑞穂区","street":"柳ケ枝町"},{"zipCode":"4670062","prefectureKana":"ｱｲﾁｹﾝ","cityKana":"ﾅｺﾞﾔｼﾐｽﾞﾎｸ","streetKana":"ﾔﾏｼﾀﾄﾞｵﾘ","prefecture":"愛知県","city":"名古屋市瑞穂区","street":"山下通"},{"zipCode":"4670026","prefectureKana":"ｱｲﾁｹﾝ","cityKana":"ﾅｺﾞﾔｼﾐｽﾞﾎｸ","streetKana":"ﾖｳﾒｲﾁｮｳ","prefecture":"愛知県","city":"名古屋市瑞穂区","street":"陽明町"}]