[{"zipCode":"4680000","prefectureKana":"ｱｲﾁｹﾝ","cityKana":"ﾅｺﾞﾔｼﾃﾝﾊﾟｸｸ","streetKana":"ｲｶﾆｹｲｻｲｶﾞﾅｲﾊﾞｱｲ","prefecture":"愛知県","city":"名古屋市天白区","street":"以下に掲載がない場合"},{"zipCode":"4680836","prefectureKana":"ｱｲﾁｹﾝ","cityKana":"ﾅｺﾞﾔｼﾃﾝﾊﾟｸｸ","streetKana":"ｱｲｶﾜ","prefecture":"愛知県","city":"名古屋市天白区","street":"相川"},{"zipCode":"4680013","prefectureKana":"ｱｲﾁｹﾝ","cityKana":"ﾅｺﾞﾔｼﾃﾝﾊﾟｸｸ","streetKana":"ｱﾗｲｹ","prefecture":"愛知県","city":"名古屋市天白区","street":"荒池"},{"zipCode":"4680052","prefectureKana":"ｱｲﾁｹﾝ","cityKana":"ﾅｺﾞﾔｼﾃﾝﾊﾟｸｸ","streetKana":"ｲｸﾞﾁ","prefecture":"愛知県","city":"名古屋市天白区","street":"井口"},{"zipCode":"4680055","prefectureKana":"ｱｲﾁｹﾝ","cityKana":"ﾅｺﾞﾔｼﾃﾝﾊﾟｸｸ","streetKana":"ｲｹﾊﾞ","prefecture":"愛知県","city":"名古屋市天白区","street":"池場"},{"zipCode":"4680067","prefectureKana":"ｱｲﾁｹﾝ","cityKana":"ﾅｺﾞﾔｼﾃﾝﾊﾟｸｸ","streetKana":"ｲｹﾐ","prefecture":"愛知県","city":"名古屋市天白区","street":"池見"},{"zipCode":"4680008","prefectureKana":"ｱｲﾁｹﾝ","cityKana":"ﾅｺﾞﾔｼﾃﾝﾊﾟｸｸ","streetKana":"ｲｯﾎﾟﾝﾏﾂ","prefecture":"愛知県","city":"名古屋市天白区","street":"一本松"},{"zipCode":"4680047","prefectureKana":"ｱｲﾁｹﾝ","cityKana":"ﾅｺﾞﾔｼﾃﾝﾊﾟｸｸ","streetKana":"ｲﾉﾓﾘﾁｮｳ","prefecture":"愛知県","city":"名古屋市天白区","street":"井の森町"},{"zipCode":"4680051","prefectureKana":"ｱｲﾁｹﾝ","cityKana":"ﾅｺﾞﾔｼﾃﾝﾊﾟｸｸ","streetKana":"ｳｴﾀﾞ","prefecture":"愛知県","city":"名古屋市天白区","street":"植田"},{"zipCode":"4680007","prefectureKana":"ｱｲﾁｹﾝ","cityKana":"ﾅｺﾞﾔｼﾃﾝﾊﾟｸｸ","streetKana":"ｳｴﾀﾞﾎﾝﾏﾁ","prefecture":"愛知県","city":"名古屋市天白区","street":"植田本町"},{"zipCode":"4680001","prefectureKana":"ｱｲﾁｹﾝ","cityKana":"ﾅｺﾞﾔｼﾃﾝﾊﾟｸｸ","streetKana":"ｳｴﾀﾞﾔﾏ","prefecture":"愛知県","city":"名古屋市天白区","street":"植田山"},{"zipCode":"4680006","prefectureKana":"ｱｲﾁｹﾝ","cityKana":"ﾅｺﾞﾔｼﾃﾝﾊﾟｸｸ","streetKana":"ｳｴﾀﾞﾋｶﾞｼ","prefecture":"愛知県","city":"名古屋市天白区","street":"植田東"},{"zipCode":"4680058","prefectureKana":"ｱｲﾁｹﾝ","cityKana":"ﾅｺﾞﾔｼﾃﾝﾊﾟｸｸ","streetKana":"ｳｴﾀﾞﾆｼ","prefecture":"愛知県","city":"名古屋市天白区","street":"植田西"},{"zipCode":"4680053","prefectureKana":"ｱｲﾁｹﾝ","cityKana":"ﾅｺﾞﾔｼﾃﾝﾊﾟｸｸ","streetKana":"ｳｴﾀﾞﾐﾅﾐ","prefecture":"愛知県","city":"名古屋市天白区","street":"植田南"},{"zipCode":"4680004","prefectureKana":"ｱｲﾁｹﾝ","cityKana":"ﾅｺﾞﾔｼﾃﾝﾊﾟｸｸ","streetKana":"ｳﾒｶﾞｵｶ","prefecture":"愛知県","city":"名古屋市天白区","street":"梅が丘"},{"zipCode":"4680042","prefectureKana":"ｱｲﾁｹﾝ","cityKana":"ﾅｺﾞﾔｼﾃﾝﾊﾟｸｸ","streetKana":"ｴﾋﾞﾔﾏﾁｮｳ","prefecture":"愛知県","city":"名古屋市天白区","street":"海老山町"},{"zipCode":"4680072","prefectureKana":"ｱｲﾁｹﾝ","cityKana":"ﾅｺﾞﾔｼﾃﾝﾊﾟｸｸ","streetKana":"ｵｵﾂﾎﾞ","prefecture":"愛知県","city":"名古屋市天白区","street":"大坪"},{"zipCode":"4680024","prefectureKana":"ｱｲﾁｹﾝ","cityKana":"ﾅｺﾞﾔｼﾃﾝﾊﾟｸｸ","streetKana":"ｵｵﾈﾁｮｳ","prefecture":"愛知県","city":"名古屋市天白区","street":"大根町"},{"zipCode":"4680063","prefectureKana":"ｱｲﾁｹﾝ","cityKana":"ﾅｺﾞﾔｼﾃﾝﾊﾟｸｸ","streetKana":"ｵﾄｷｷﾔﾏ","prefecture":"愛知県","city":"名古屋市天白区","street":"音聞山"},{"zipCode":"4680068","prefectureKana":"ｱｲﾁｹﾝ","cityKana":"ﾅｺﾞﾔｼﾃﾝﾊﾟｸｸ","streetKana":"ｵﾓﾃﾀﾞｲ","prefecture":"愛知県","city":"名古屋市天白区","street":"表台"},{"zipCode":"4680069","prefectureKana":"ｱｲﾁｹﾝ","cityKana":"ﾅｺﾞﾔｼﾃﾝﾊﾟｸｸ","streetKana":"ｵﾓﾃﾔﾏ","prefecture":"愛知県","city":"名古屋市天白区","street":"表山"},{"zipCode":"4680003","prefectureKana":"ｱｲﾁｹﾝ","cityKana":"ﾅｺﾞﾔｼﾃﾝﾊﾟｸｸ","streetKana":"ｺｳﾉｽ","prefecture":"愛知県","city":"名古屋市天白区","street":"鴻の巣"},{"zipCode":"4680023","prefectureKana":"ｱｲﾁｹﾝ","cityKana":"ﾅｺﾞﾔｼﾃﾝﾊﾟｸｸ","streetKana":"ｺﾞｾﾞﾝﾊﾞﾁｮｳ","prefecture":"愛知県","city":"名古屋市天白区","street":"御前場町"},{"zipCode":"4680035","prefectureKana":"ｱｲﾁｹﾝ","cityKana":"ﾅｺﾞﾔｼﾃﾝﾊﾟｸｸ","streetKana":"ｻｶｲﾈﾁｮｳ","prefecture":"愛知県","city":"名古屋市天白区","street":"境根町"},{"zipCode":"4680044","prefectureKana":"ｱｲﾁｹﾝ","cityKana":"ﾅｺﾞﾔｼﾃﾝﾊﾟｸｸ","streetKana":"ｻｻﾊﾗﾁｮｳ","prefecture":"愛知県","city":"名古屋市天白区","street":"笹原町"},{"zipCode":"4680032","prefectureKana":"ｱｲﾁｹﾝ","cityKana":"ﾅｺﾞﾔｼﾃﾝﾊﾟｸｸ","streetKana":"ｻﾝｺﾞｳﾁｮｳ","prefecture":"愛知県","city":"名古屋市天白区","street":"山郷町"},{"zipCode":"4680073","prefectureKana":"ｱｲﾁｹﾝ","cityKana":"ﾅｺﾞﾔｼﾃﾝﾊﾟｸｸ","streetKana":"ｼｵｶﾞﾏｸﾞﾁ","prefecture":"愛知県","city":"名古屋市天白区","street":"塩釜口"},{"zipCode":"4680056","prefectureKana":"ｱｲﾁｹﾝ","cityKana":"ﾅｺﾞﾔｼﾃﾝﾊﾟｸｸ","streetKana":"ｼﾏﾀﾞ","prefecture":"愛知県","city":"名古屋市天白区","street":"島田"},{"zipCode":"4680029","prefectureKana":"ｱｲﾁｹﾝ","cityKana":"ﾅｺﾞﾔｼﾃﾝﾊﾟｸｸ","streetKana":"ｼﾏﾀﾞｶﾞｵｶ","prefecture":"愛知県","city":"名古屋市天白区","street":"島田が丘"},{"zipCode":"4680028","prefectureKana":"ｱｲﾁｹﾝ","cityKana":"ﾅｺﾞﾔｼﾃﾝﾊﾟｸｸ","streetKana":"ｼﾏﾀﾞｸﾛｲｼ","prefecture":"愛知県","city":"名古屋市天白区","street":"島田黒石"},{"zipCode":"4680043","prefectureKana":"ｱｲﾁｹﾝ","cityKana":"ﾅｺﾞﾔｼﾃﾝﾊﾟｸｸ","streetKana":"ｽｹﾞﾀ","prefecture":"愛知県","city":"名古屋市天白区","street":"菅田"},{"zipCode":"4680025","prefectureKana":"ｱｲﾁｹﾝ","cityKana":"ﾅｺﾞﾔｼﾃﾝﾊﾟｸｸ","streetKana":"ﾀｶｻｶﾁｮｳ","prefecture":"愛知県","city":"名古屋市天白区","street":"高坂町"},{"zipCode":"4680022","prefectureKana":"ｱｲﾁｹﾝ","cityKana":"ﾅｺﾞﾔｼﾃﾝﾊﾟｸｸ","streetKana":"ﾀｶｼﾏ","prefecture":"愛知県","city":"名古屋市天白区","street":"高島"},{"zipCode":"4680031","prefectureKana":"ｱｲﾁｹﾝ","cityKana":"ﾅｺﾞﾔｼﾃﾝﾊﾟｸｸ","streetKana":"ﾀｶﾐﾔﾁｮｳ","prefecture":"愛知県","city":"名古屋市天白区","street":"高宮町"},{"zipCode":"4680026","prefectureKana":"ｱｲﾁｹﾝ","cityKana":"ﾅｺﾞﾔｼﾃﾝﾊﾟｸｸ","streetKana":"ﾂﾁﾊﾗ","prefecture":"愛知県","city":"名古屋市天白区","street":"土原"},{"zipCode":"4680005","prefectureKana":"ｱｲﾁｹﾝ","cityKana":"ﾅｺﾞﾔｼﾃﾝﾊﾟｸｸ","streetKana":"ﾃﾝﾊﾟｸﾁｮｳｳｴﾀﾞ","prefecture":"愛知県","city":"名古屋市天白区","street":"天白町植田"},{"zipCode":"4680027","prefectureKana":"ｱｲﾁｹﾝ","cityKana":"ﾅｺﾞﾔｼﾃﾝﾊﾟｸｸ","streetKana":"ﾃﾝﾊﾟｸﾁｮｳｼﾏﾀﾞ","prefecture":"愛知県","city":"名古屋市天白区","street":"天白町島田"},{"zipCode":"4680037","prefectureKana":"ｱｲﾁｹﾝ","cityKana":"ﾅｺﾞﾔｼﾃﾝﾊﾟｸｸ","streetKana":"ﾃﾝﾊﾟｸﾁｮｳﾉﾅﾐ","prefecture":"愛知県","city":"名古屋市天白区","street":"天白町野並"},{"zipCode":"4680021","prefectureKana":"ｱｲﾁｹﾝ","cityKana":"ﾅｺﾞﾔｼﾃﾝﾊﾟｸｸ","streetKana":"ﾃﾝﾊﾟｸﾁｮｳﾋﾗﾊﾞﾘ","prefecture":"愛知県","city":"名古屋市天白区","street":"天白町平針"},{"zipCode":"4680071","prefectureKana":"ｱｲﾁｹﾝ","cityKana":"ﾅｺﾞﾔｼﾃﾝﾊﾟｸｸ","streetKana":"ﾃﾝﾊﾟｸﾁｮｳﾔｺﾞﾄ","prefecture":"愛知県","city":"名古屋市天白区","street":"天白町八事"},{"zipCode":"4680064","prefectureKana":"ｱｲﾁｹﾝ","cityKana":"ﾅｺﾞﾔｼﾃﾝﾊﾟｸｸ","streetKana":"ﾄﾞｳﾐｮｳﾁｮｳ","prefecture":"愛知県","city":"名古屋市天白区","street":"道明町"},{"zipCode":"4680065","prefectureKana":"ｱｲﾁｹﾝ","cityKana":"ﾅｺﾞﾔｼﾃﾝﾊﾟｸｸ","streetKana":"ﾅｶｽﾅﾁｮｳ","prefecture":"愛知県","city":"名古屋市天白区","street":"中砂町"},{"zipCode":"4680048","prefectureKana":"ｱｲﾁｹﾝ","cityKana":"ﾅｺﾞﾔｼﾃﾝﾊﾟｸｸ","streetKana":"ﾅｶﾂﾎﾞﾁｮｳ","prefecture":"愛知県","city":"名古屋市天白区","street":"中坪町"},{"zipCode":"4680014","prefectureKana":"ｱｲﾁｹﾝ","cityKana":"ﾅｺﾞﾔｼﾃﾝﾊﾟｸｸ","streetKana":"ﾅｶﾋﾗ","prefecture":"愛知県","city":"名古屋市天白区","street":"中平"},{"zipCode":"4680039","prefectureKana":"ｱｲﾁｹﾝ","cityKana":"ﾅｺﾞﾔｼﾃﾝﾊﾟｸｸ","streetKana":"ﾆｼｲﾘﾁｮｳ","prefecture":"愛知県","city":"名古屋市天白区","street":"西入町"},{"zipCode":"4680045","prefectureKana":"ｱｲﾁｹﾝ","cityKana":"ﾅｺﾞﾔｼﾃﾝﾊﾟｸｸ","streetKana":"ﾉﾅﾐ","prefecture":"愛知県","city":"名古屋市天白区","street":"野並"},{"zipCode":"4680074","prefectureKana":"ｱｲﾁｹﾝ","cityKana":"ﾅｺﾞﾔｼﾃﾝﾊﾟｸｸ","streetKana":"ﾊﾁﾏﾝﾔﾏ","prefecture":"愛知県","city":"名古屋市天白区","street":"八幡山"},{"zipCode":"4680015","prefectureKana":"ｱｲﾁｹﾝ","cityKana":"ﾅｺﾞﾔｼﾃﾝﾊﾟｸｸ","streetKana":"ﾊﾗ","prefecture":"愛知県","city":"名古屋市天白区","street":"原"},{"zipCode":"4680034","prefectureKana":"ｱｲﾁｹﾝ","cityKana":"ﾅｺﾞﾔｼﾃﾝﾊﾟｸｸ","streetKana":"ﾋｻｶﾀ","prefecture":"愛知県","city":"名古屋市天白区","street":"久方"},{"zipCode":"4680033","prefectureKana":"ｱｲﾁｹﾝ","cityKana":"ﾅｺﾞﾔｼﾃﾝﾊﾟｸｸ","streetKana":"ﾋﾄﾂﾔﾏ","prefecture":"愛知県","city":"名古屋市天白区","street":"一つ山"},{"zipCode":"4680011","prefectureKana":"ｱｲﾁｹﾝ","cityKana":"ﾅｺﾞﾔｼﾃﾝﾊﾟｸｸ","streetKana":"ﾋﾗﾊﾞﾘ","prefecture":"愛知県","city":"名古屋市天白区","street":"平針"},{"zipCode":"4680030","prefectureKana":"ｱｲﾁｹﾝ","cityKana":"ﾅｺﾞﾔｼﾃﾝﾊﾟｸｸ","streetKana":"ﾋﾗﾊﾞﾘﾀﾞｲ","prefecture":"愛知県","city":"名古屋市天白区","street":"平針台"},{"zipCode":"4680020","prefectureKana":"ｱｲﾁｹﾝ","cityKana":"ﾅｺﾞﾔｼﾃﾝﾊﾟｸｸ","streetKana":"ﾋﾗﾊﾞﾘﾐﾅﾐ","prefecture":"愛知県","city":"名古屋市天白区","street":"平針南"},{"zipCode":"4680049","prefectureKana":"ｱｲﾁｹﾝ","cityKana":"ﾅｺﾞﾔｼﾃﾝﾊﾟｸｸ","streetKana":"ﾌｸｲｹ","prefecture":"愛知県","city":"名古屋市天白区","street":"福池"},{"zipCode":"4680046","prefectureKana":"ｱｲﾁｹﾝ","cityKana":"ﾅｺﾞﾔｼﾃﾝﾊﾟｸｸ","streetKana":"ﾌﾙｶﾜﾁｮｳ","prefecture":"愛知県","city":"名古屋市天白区","street":"古川町"},{"zipCode":"4680041","prefectureKana":"ｱｲﾁｹﾝ","cityKana":"ﾅｺﾞﾔｼﾃﾝﾊﾟｸｸ","streetKana":"ﾎﾛﾁｮｳ","prefecture":"愛知県","city":"名古屋市天白区","street":"保呂町"},{"zipCode":"4680075","prefectureKana":"ｱｲﾁｹﾝ","cityKana":"ﾅｺﾞﾔｼﾃﾝﾊﾟｸｸ","streetKana":"ﾐﾕｷﾔﾏ","prefecture":"愛知県","city":"名古屋市天白区","street":"御幸山"},{"zipCode":"4680012","prefectureKana":"ｱｲﾁｹﾝ","cityKana":"ﾅｺﾞﾔｼﾃﾝﾊﾟｸｸ","streetKana":"ﾑｶｲｶﾞｵｶ","prefecture":"愛知県","city":"名古屋市天白区","street":"向が丘"},{"zipCode":"4680009","prefectureKana":"ｱｲﾁｹﾝ","cityKana":"ﾅｺﾞﾔｼﾃﾝﾊﾟｸｸ","streetKana":"ﾓﾄｳｴﾀﾞ","prefecture":"愛知県","city":"名古屋市天白区","street":"元植田"},{"zipCode":"4680066","prefectureKana":"ｱｲﾁｹﾝ","cityKana":"ﾅｺﾞﾔｼﾃﾝﾊﾟｸｸ","streetKana":"ﾓﾄﾔｺﾞﾄ","prefecture":"愛知県","city":"名古屋市天白区","street":"元八事"},{"zipCode":"4680002","prefectureKana":"ｱｲﾁｹﾝ","cityKana":"ﾅｺﾞﾔｼﾃﾝﾊﾟｸｸ","streetKana":"ﾔｷﾔﾏ","prefecture":"愛知県","city":"名古屋市天白区","street":"焼山"},{"zipCode":"4680076","prefectureKana":"ｱｲﾁｹﾝ","cityKana":"ﾅｺﾞﾔｼﾃﾝﾊﾟｸｸ","streetKana":"ﾔｺﾞﾄｲｼｻﾞｶ","prefecture":"愛知県","city":"名古屋市天白区","street":"八事石坂"},{"zipCode":"4680061","prefectureKana":"ｱｲﾁｹﾝ","cityKana":"ﾅｺﾞﾔｼﾃﾝﾊﾟｸｸ","streetKana":"ﾔｺﾞﾄﾃﾝﾄﾞｳ","prefecture":"愛知県","city":"名古屋市天白区","street":"八事天道"},{"zipCode":"4680077","prefectureKana":"ｱｲﾁｹﾝ","cityKana":"ﾅｺﾞﾔｼﾃﾝﾊﾟｸｸ","streetKana":"ﾔｺﾞﾄﾔﾏ","prefecture":"愛知県","city":"名古屋市天白区","street":"八事山"},{"zipCode":"4680038","prefectureKana":"ｱｲﾁｹﾝ","cityKana":"ﾅｺﾞﾔｼﾃﾝﾊﾟｸｸ","streetKana":"ﾔﾏﾈﾁｮｳ","prefecture":"愛知県","city":"名古屋市天白区","street":"山根町"},{"zipCode":"4680062","prefectureKana":"ｱｲﾁｹﾝ","cityKana":"ﾅｺﾞﾔｼﾃﾝﾊﾟｸｸ","streetKana":"ﾔﾖｲｶﾞｵｶ","prefecture":"愛知県","city":"名古屋市天白区","street":"弥生が岡"},{"zipCode":"4680054","prefectureKana":"ｱｲﾁｹﾝ","cityKana":"ﾅｺﾞﾔｼﾃﾝﾊﾟｸｸ","streetKana":"ﾖｺﾏﾁ","prefecture":"愛知県","city":"名古屋市天白区","street":"横町"}]