[{"zipCode":"4730928","prefectureKana":"ｱｲﾁｹﾝ","cityKana":"ﾄﾖﾀｼ","streetKana":"ｲｺﾏﾁｮｳ","prefecture":"愛知県","city":"豊田市","street":"生駒町"},{"zipCode":"4730935","prefectureKana":"ｱｲﾁｹﾝ","cityKana":"ﾄﾖﾀｼ","streetKana":"ｵｵｼﾏﾁｮｳ","prefecture":"愛知県","city":"豊田市","street":"大島町"},{"zipCode":"4730902","prefectureKana":"ｱｲﾁｹﾝ","cityKana":"ﾄﾖﾀｼ","streetKana":"ｵｵﾊﾞﾔｼﾁｮｳ","prefecture":"愛知県","city":"豊田市","street":"大林町"},{"zipCode":"4730931","prefectureKana":"ｱｲﾁｹﾝ","cityKana":"ﾄﾖﾀｼ","streetKana":"ｶﾐｵｶﾁｮｳ","prefecture":"愛知県","city":"豊田市","street":"上丘町"},{"zipCode":"4730926","prefectureKana":"ｱｲﾁｹﾝ","cityKana":"ﾄﾖﾀｼ","streetKana":"ｺﾏｼﾝﾁｮｳ","prefecture":"愛知県","city":"豊田市","street":"駒新町"},{"zipCode":"4730925","prefectureKana":"ｱｲﾁｹﾝ","cityKana":"ﾄﾖﾀｼ","streetKana":"ｺﾏﾊﾞﾁｮｳ","prefecture":"愛知県","city":"豊田市","street":"駒場町"},{"zipCode":"4730905","prefectureKana":"ｱｲﾁｹﾝ","cityKana":"ﾄﾖﾀｼ","streetKana":"ｽﾐﾖｼﾁｮｳ","prefecture":"愛知県","city":"豊田市","street":"住吉町"},{"zipCode":"4730921","prefectureKana":"ｱｲﾁｹﾝ","cityKana":"ﾄﾖﾀｼ","streetKana":"ﾀｶｵｶｼﾝﾏﾁ","prefecture":"愛知県","city":"豊田市","street":"高丘新町"},{"zipCode":"4730933","prefectureKana":"ｱｲﾁｹﾝ","cityKana":"ﾄﾖﾀｼ","streetKana":"ﾀｶｵｶﾁｮｳ","prefecture":"愛知県","city":"豊田市","street":"高岡町"},{"zipCode":"4730922","prefectureKana":"ｱｲﾁｹﾝ","cityKana":"ﾄﾖﾀｼ","streetKana":"ﾀｶｵｶﾎﾝﾏﾁ","prefecture":"愛知県","city":"豊田市","street":"高岡本町"},{"zipCode":"4730918","prefectureKana":"ｱｲﾁｹﾝ","cityKana":"ﾄﾖﾀｼ","streetKana":"ﾀｶﾐﾁｮｳ","prefecture":"愛知県","city":"豊田市","street":"高美町"},{"zipCode":"4730908","prefectureKana":"ｱｲﾁｹﾝ","cityKana":"ﾄﾖﾀｼ","streetKana":"ﾀｶﾗﾏﾁ","prefecture":"愛知県","city":"豊田市","street":"宝町"},{"zipCode":"4730906","prefectureKana":"ｱｲﾁｹﾝ","cityKana":"ﾄﾖﾀｼ","streetKana":"ﾀｹﾁｮｳ","prefecture":"愛知県","city":"豊田市","street":"竹町"},{"zipCode":"4730913","prefectureKana":"ｱｲﾁｹﾝ","cityKana":"ﾄﾖﾀｼ","streetKana":"ﾀｹﾓﾄﾁｮｳ","prefecture":"愛知県","city":"豊田市","street":"竹元町"},{"zipCode":"4730932","prefectureKana":"ｱｲﾁｹﾝ","cityKana":"ﾄﾖﾀｼ","streetKana":"ﾂﾂﾐﾁｮｳ","prefecture":"愛知県","city":"豊田市","street":"堤町"},{"zipCode":"4730939","prefectureKana":"ｱｲﾁｹﾝ","cityKana":"ﾄﾖﾀｼ","streetKana":"ﾂﾂﾐﾎﾝﾏﾁ","prefecture":"愛知県","city":"豊田市","street":"堤本町"},{"zipCode":"4730927","prefectureKana":"ｱｲﾁｹﾝ","cityKana":"ﾄﾖﾀｼ","streetKana":"ﾅｶﾀﾞﾁｮｳ","prefecture":"愛知県","city":"豊田市","street":"中田町"},{"zipCode":"4730923","prefectureKana":"ｱｲﾁｹﾝ","cityKana":"ﾄﾖﾀｼ","streetKana":"ﾅｶﾈﾁｮｳ","prefecture":"愛知県","city":"豊田市","street":"中根町"},{"zipCode":"4730904","prefectureKana":"ｱｲﾁｹﾝ","cityKana":"ﾄﾖﾀｼ","streetKana":"ﾅｶﾏﾁ","prefecture":"愛知県","city":"豊田市","street":"中町"},{"zipCode":"4730936","prefectureKana":"ｱｲﾁｹﾝ","cityKana":"ﾄﾖﾀｼ","streetKana":"ﾆｼｵｶﾁｮｳ","prefecture":"愛知県","city":"豊田市","street":"西岡町"},{"zipCode":"4730937","prefectureKana":"ｱｲﾁｹﾝ","cityKana":"ﾄﾖﾀｼ","streetKana":"ﾆｼｵｶﾁｮｳﾎｼｶﾞｵｶ","prefecture":"愛知県","city":"豊田市","street":"西岡町星ケ丘"},{"zipCode":"4730903","prefectureKana":"ｱｲﾁｹﾝ","cityKana":"ﾄﾖﾀｼ","streetKana":"ﾆｼﾀﾞﾁｮｳ","prefecture":"愛知県","city":"豊田市","street":"西田町"},{"zipCode":"4730924","prefectureKana":"ｱｲﾁｹﾝ","cityKana":"ﾄﾖﾀｼ","streetKana":"ﾊﾅｿﾞﾉﾁｮｳ","prefecture":"愛知県","city":"豊田市","street":"花園町"},{"zipCode":"4730912","prefectureKana":"ｱｲﾁｹﾝ","cityKana":"ﾄﾖﾀｼ","streetKana":"ﾋﾛﾀﾁｮｳ","prefecture":"愛知県","city":"豊田市","street":"広田町"},{"zipCode":"4730938","prefectureKana":"ｱｲﾁｹﾝ","cityKana":"ﾄﾖﾀｼ","streetKana":"ﾎﾝﾀﾞﾁｮｳ","prefecture":"愛知県","city":"豊田市","street":"本田町"},{"zipCode":"4730911","prefectureKana":"ｱｲﾁｹﾝ","cityKana":"ﾄﾖﾀｼ","streetKana":"ﾎﾝﾏﾁ","prefecture":"愛知県","city":"豊田市","street":"本町"},{"zipCode":"4730934","prefectureKana":"ｱｲﾁｹﾝ","cityKana":"ﾄﾖﾀｼ","streetKana":"ﾏｴﾊﾞﾔｼﾁｮｳ","prefecture":"愛知県","city":"豊田市","street":"前林町"},{"zipCode":"4730901","prefectureKana":"ｱｲﾁｹﾝ","cityKana":"ﾄﾖﾀｼ","streetKana":"ﾐﾕｷﾎﾝﾏﾁ","prefecture":"愛知県","city":"豊田市","street":"御幸本町"},{"zipCode":"4730916","prefectureKana":"ｱｲﾁｹﾝ","cityKana":"ﾄﾖﾀｼ","streetKana":"ﾖｼﾜﾗﾁｮｳ","prefecture":"愛知県","city":"豊田市","street":"吉原町"},{"zipCode":"4730907","prefectureKana":"ｱｲﾁｹﾝ","cityKana":"ﾄﾖﾀｼ","streetKana":"ﾘｭｳｼﾞﾝﾁｮｳ","prefecture":"愛知県","city":"豊田市","street":"竜神町"},{"zipCode":"4730914","prefectureKana":"ｱｲﾁｹﾝ","cityKana":"ﾄﾖﾀｼ","streetKana":"ﾜｶﾊﾞﾔｼﾋｶﾞｼﾏﾁ","prefecture":"愛知県","city":"豊田市","street":"若林東町"},{"zipCode":"4730917","prefectureKana":"ｱｲﾁｹﾝ","cityKana":"ﾄﾖﾀｼ","streetKana":"ﾜｶﾊﾞﾔｼﾆｼﾏﾁ","prefecture":"愛知県","city":"豊田市","street":"若林西町"},{"zipCode":"4730915","prefectureKana":"ｱｲﾁｹﾝ","cityKana":"ﾄﾖﾀｼ","streetKana":"ﾜｶﾊﾞﾔｼﾋｶﾞｼﾏﾁﾅｶｿﾄﾈ","prefecture":"愛知県","city":"豊田市","street":"若林東町中外根"}]