[{"zipCode":"4750000","prefectureKana":"ｱｲﾁｹﾝ","cityKana":"ﾊﾝﾀﾞｼ","streetKana":"ｲｶﾆｹｲｻｲｶﾞﾅｲﾊﾞｱｲ","prefecture":"愛知県","city":"半田市","street":"以下に掲載がない場合"},{"zipCode":"4750836","prefectureKana":"ｱｲﾁｹﾝ","cityKana":"ﾊﾝﾀﾞｼ","streetKana":"ｱｵﾔﾏ","prefecture":"愛知県","city":"半田市","street":"青山"},{"zipCode":"4750838","prefectureKana":"ｱｲﾁｹﾝ","cityKana":"ﾊﾝﾀﾞｼ","streetKana":"ｱｻﾋﾏﾁ","prefecture":"愛知県","city":"半田市","street":"旭町"},{"zipCode":"4750039","prefectureKana":"ｱｲﾁｹﾝ","cityKana":"ﾊﾝﾀﾞｼ","streetKana":"ｱﾗｲﾁｮｳ","prefecture":"愛知県","city":"半田市","street":"新居町"},{"zipCode":"4750881","prefectureKana":"ｱｲﾁｹﾝ","cityKana":"ﾊﾝﾀﾞｼ","streetKana":"ｱﾗｺﾁｮｳ","prefecture":"愛知県","city":"半田市","street":"荒古町"},{"zipCode":"4750017","prefectureKana":"ｱｲﾁｹﾝ","cityKana":"ﾊﾝﾀﾞｼ","streetKana":"ｱﾘﾜｷﾁｮｳ","prefecture":"愛知県","city":"半田市","street":"有脇町"},{"zipCode":"4750031","prefectureKana":"ｱｲﾁｹﾝ","cityKana":"ﾊﾝﾀﾞｼ","streetKana":"ｱﾜﾗﾁｮｳ","prefecture":"愛知県","city":"半田市","street":"阿原町"},{"zipCode":"4750062","prefectureKana":"ｱｲﾁｹﾝ","cityKana":"ﾊﾝﾀﾞｼ","streetKana":"ｲｲﾓﾘﾁｮｳ","prefecture":"愛知県","city":"半田市","street":"飯森町"},{"zipCode":"4750945","prefectureKana":"ｱｲﾁｹﾝ","cityKana":"ﾊﾝﾀﾞｼ","streetKana":"ｲｹﾀﾞﾁｮｳ","prefecture":"愛知県","city":"半田市","street":"池田町"},{"zipCode":"4750001","prefectureKana":"ｱｲﾁｹﾝ","cityKana":"ﾊﾝﾀﾞｼ","streetKana":"ｲｼﾂﾞｶﾁｮｳ","prefecture":"愛知県","city":"半田市","street":"石塚町"},{"zipCode":"4750858","prefectureKana":"ｱｲﾁｹﾝ","cityKana":"ﾊﾝﾀﾞｼ","streetKana":"ｲｽﾞﾐﾏﾁ","prefecture":"愛知県","city":"半田市","street":"泉町"},{"zipCode":"4750936","prefectureKana":"ｱｲﾁｹﾝ","cityKana":"ﾊﾝﾀﾞｼ","streetKana":"ｲﾀﾔﾏﾁｮｳ","prefecture":"愛知県","city":"半田市","street":"板山町"},{"zipCode":"4750061","prefectureKana":"ｱｲﾁｹﾝ","cityKana":"ﾊﾝﾀﾞｼ","streetKana":"ｲﾁﾉｸｻﾁｮｳ","prefecture":"愛知県","city":"半田市","street":"一ノ草町"},{"zipCode":"4750014","prefectureKana":"ｱｲﾁｹﾝ","cityKana":"ﾊﾝﾀﾞｼ","streetKana":"ｲｯﾎﾟﾝｷﾞﾁｮｳ","prefecture":"愛知県","city":"半田市","street":"一本木町"},{"zipCode":"4750011","prefectureKana":"ｱｲﾁｹﾝ","cityKana":"ﾊﾝﾀﾞｼ","streetKana":"ｲﾅﾎﾁｮｳ","prefecture":"愛知県","city":"半田市","street":"稲穂町"},{"zipCode":"4750835","prefectureKana":"ｱｲﾁｹﾝ","cityKana":"ﾊﾝﾀﾞｼ","streetKana":"ｲﾅﾘﾁｮｳ","prefecture":"愛知県","city":"半田市","street":"稲荷町"},{"zipCode":"4750958","prefectureKana":"ｱｲﾁｹﾝ","cityKana":"ﾊﾝﾀﾞｼ","streetKana":"ｳﾉｲｹﾁｮｳ","prefecture":"愛知県","city":"半田市","street":"鵜ノ池町"},{"zipCode":"4750952","prefectureKana":"ｱｲﾁｹﾝ","cityKana":"ﾊﾝﾀﾞｼ","streetKana":"ｳﾏｽﾃﾁｮｳ","prefecture":"愛知県","city":"半田市","street":"馬捨町"},{"zipCode":"4750915","prefectureKana":"ｱｲﾁｹﾝ","cityKana":"ﾊﾝﾀﾞｼ","streetKana":"ｴﾀﾞﾔﾏﾁｮｳ","prefecture":"愛知県","city":"半田市","street":"枝山町"},{"zipCode":"4750867","prefectureKana":"ｱｲﾁｹﾝ","cityKana":"ﾊﾝﾀﾞｼ","streetKana":"ｴﾉｷｼﾀﾁｮｳ","prefecture":"愛知県","city":"半田市","street":"榎下町"},{"zipCode":"4750087","prefectureKana":"ｱｲﾁｹﾝ","cityKana":"ﾊﾝﾀﾞｼ","streetKana":"ｵｵｲｹﾁｮｳ","prefecture":"愛知県","city":"半田市","street":"大池町"},{"zipCode":"4750015","prefectureKana":"ｱｲﾁｹﾝ","cityKana":"ﾊﾝﾀﾞｼ","streetKana":"ｵｵﾀﾞｶﾁｮｳ","prefecture":"愛知県","city":"半田市","street":"大高町"},{"zipCode":"4750904","prefectureKana":"ｱｲﾁｹﾝ","cityKana":"ﾊﾝﾀﾞｼ","streetKana":"ｵｵﾂﾎﾞﾁｮｳ","prefecture":"愛知県","city":"半田市","street":"大坪町"},{"zipCode":"4750071","prefectureKana":"ｱｲﾁｹﾝ","cityKana":"ﾊﾝﾀﾞｼ","streetKana":"ｵｵﾃﾞﾝﾈﾁｮｳ","prefecture":"愛知県","city":"半田市","street":"大伝根町"},{"zipCode":"4750083","prefectureKana":"ｱｲﾁｹﾝ","cityKana":"ﾊﾝﾀﾞｼ","streetKana":"ｵｵﾏﾂﾁｮｳ","prefecture":"愛知県","city":"半田市","street":"大松町"},{"zipCode":"4750935","prefectureKana":"ｱｲﾁｹﾝ","cityKana":"ﾊﾝﾀﾞｼ","streetKana":"ｵｵﾕﾁｮｳ","prefecture":"愛知県","city":"半田市","street":"大湯町"},{"zipCode":"4750957","prefectureKana":"ｱｲﾁｹﾝ","cityKana":"ﾊﾝﾀﾞｼ","streetKana":"ｵｸﾏﾁ","prefecture":"愛知県","city":"半田市","street":"奥町"},{"zipCode":"4750056","prefectureKana":"ｱｲﾁｹﾝ","cityKana":"ﾊﾝﾀﾞｼ","streetKana":"ｵﾂｶﾜｲｼｷﾁｮｳ","prefecture":"愛知県","city":"半田市","street":"乙川一色町"},{"zipCode":"4750046","prefectureKana":"ｱｲﾁｹﾝ","cityKana":"ﾊﾝﾀﾞｼ","streetKana":"ｵﾂｶﾜｲﾁﾊﾞﾁｮｳ","prefecture":"愛知県","city":"半田市","street":"乙川市場町"},{"zipCode":"4750053","prefectureKana":"ｱｲﾁｹﾝ","cityKana":"ﾊﾝﾀﾞｼ","streetKana":"ｵﾂｶﾜｳﾁﾔﾏﾁｮｳ","prefecture":"愛知県","city":"半田市","street":"乙川内山町"},{"zipCode":"4750041","prefectureKana":"ｱｲﾁｹﾝ","cityKana":"ﾊﾝﾀﾞｼ","streetKana":"ｵﾂｶﾜｵｵﾀﾁｮｳ","prefecture":"愛知県","city":"半田市","street":"乙川太田町"},{"zipCode":"4750047","prefectureKana":"ｱｲﾁｹﾝ","cityKana":"ﾊﾝﾀﾞｼ","streetKana":"ｵﾂｶﾜｷﾀｶﾞﾜﾁｮｳ","prefecture":"愛知県","city":"半田市","street":"乙川北側町"},{"zipCode":"4750066","prefectureKana":"ｱｲﾁｹﾝ","cityKana":"ﾊﾝﾀﾞｼ","streetKana":"ｵﾂｶﾜｹﾞﾝﾅｲﾊﾞﾔｼﾁｮｳ","prefecture":"愛知県","city":"半田市","street":"乙川源内林町"},{"zipCode":"4750051","prefectureKana":"ｱｲﾁｹﾝ","cityKana":"ﾊﾝﾀﾞｼ","streetKana":"ｵﾂｶﾜｻｶｴﾏﾁ","prefecture":"愛知県","city":"半田市","street":"乙川栄町"},{"zipCode":"4750057","prefectureKana":"ｱｲﾁｹﾝ","cityKana":"ﾊﾝﾀﾞｼ","streetKana":"ｵﾂｶﾜｼﾝﾏﾁ","prefecture":"愛知県","city":"半田市","street":"乙川新町"},{"zipCode":"4750803","prefectureKana":"ｱｲﾁｹﾝ","cityKana":"ﾊﾝﾀﾞｼ","streetKana":"ｵﾂｶﾜｽｴﾋﾛﾁｮｳ","prefecture":"愛知県","city":"半田市","street":"乙川末広町"},{"zipCode":"4750052","prefectureKana":"ｱｲﾁｹﾝ","cityKana":"ﾊﾝﾀﾞｼ","streetKana":"ｵﾂｶﾜﾀｶﾗﾏﾁ","prefecture":"愛知県","city":"半田市","street":"乙川高良町"},{"zipCode":"4750045","prefectureKana":"ｱｲﾁｹﾝ","cityKana":"ﾊﾝﾀﾞｼ","streetKana":"ｵﾂｶﾜﾄﾉﾏﾁ","prefecture":"愛知県","city":"半田市","street":"乙川殿町"},{"zipCode":"4750068","prefectureKana":"ｱｲﾁｹﾝ","cityKana":"ﾊﾝﾀﾞｼ","streetKana":"ｵﾂｶﾜﾆｼﾉﾐﾔﾁｮｳ","prefecture":"愛知県","city":"半田市","street":"乙川西ノ宮町"},{"zipCode":"4750067","prefectureKana":"ｱｲﾁｹﾝ","cityKana":"ﾊﾝﾀﾞｼ","streetKana":"ｵﾂｶﾜﾊﾀﾀﾞﾁｮｳ","prefecture":"愛知県","city":"半田市","street":"乙川畑田町"},{"zipCode":"4750044","prefectureKana":"ｱｲﾁｹﾝ","cityKana":"ﾊﾝﾀﾞｼ","streetKana":"ｵﾂｶﾜﾊﾁﾏﾝﾁｮｳ","prefecture":"愛知県","city":"半田市","street":"乙川八幡町"},{"zipCode":"4750043","prefectureKana":"ｱｲﾁｹﾝ","cityKana":"ﾊﾝﾀﾞｼ","streetKana":"ｵﾂｶﾜﾊﾏｶﾞﾜﾁｮｳ","prefecture":"愛知県","city":"半田市","street":"乙川浜側町"},{"zipCode":"4750048","prefectureKana":"ｱｲﾁｹﾝ","cityKana":"ﾊﾝﾀﾞｼ","streetKana":"ｵﾂｶﾜﾋｴﾀﾞﾁｮｳ","prefecture":"愛知県","city":"半田市","street":"乙川稗田町"},{"zipCode":"4750065","prefectureKana":"ｱｲﾁｹﾝ","cityKana":"ﾊﾝﾀﾞｼ","streetKana":"ｵﾂｶﾜﾌｶﾀﾞﾁｮｳ","prefecture":"愛知県","city":"半田市","street":"乙川深田町"},{"zipCode":"4750042","prefectureKana":"ｱｲﾁｹﾝ","cityKana":"ﾊﾝﾀﾞｼ","streetKana":"ｵﾂｶﾜﾑｶｲﾀﾞﾁｮｳ","prefecture":"愛知県","city":"半田市","street":"乙川向田町"},{"zipCode":"4750064","prefectureKana":"ｱｲﾁｹﾝ","cityKana":"ﾊﾝﾀﾞｼ","streetKana":"ｵﾂｶﾜﾔｸｼﾁｮｳ","prefecture":"愛知県","city":"半田市","street":"乙川薬師町"},{"zipCode":"4750058","prefectureKana":"ｱｲﾁｹﾝ","cityKana":"ﾊﾝﾀﾞｼ","streetKana":"ｵﾂｶﾜﾖｼﾉﾁｮｳ","prefecture":"愛知県","city":"半田市","street":"乙川吉野町"},{"zipCode":"4750063","prefectureKana":"ｱｲﾁｹﾝ","cityKana":"ﾊﾝﾀﾞｼ","streetKana":"ｵﾂｶﾜﾜｶﾐﾔﾁｮｳ","prefecture":"愛知県","city":"半田市","street":"乙川若宮町"},{"zipCode":"4750054","prefectureKana":"ｱｲﾁｹﾝ","cityKana":"ﾊﾝﾀﾞｼ","streetKana":"ｵﾂｶﾜﾁｮｳ","prefecture":"愛知県","city":"半田市","street":"乙川町"},{"zipCode":"4750967","prefectureKana":"ｱｲﾁｹﾝ","cityKana":"ﾊﾝﾀﾞｼ","streetKana":"ｶｹｶﾞｼﾀﾁｮｳ","prefecture":"愛知県","city":"半田市","street":"欠ケ下町"},{"zipCode":"4750923","prefectureKana":"ｱｲﾁｹﾝ","cityKana":"ﾊﾝﾀﾞｼ","streetKana":"ｶｽｶﾞﾁｮｳ","prefecture":"愛知県","city":"半田市","street":"春日町"},{"zipCode":"4750953","prefectureKana":"ｱｲﾁｹﾝ","cityKana":"ﾊﾝﾀﾞｼ","streetKana":"ｶﾅﾔﾏﾁｮｳ","prefecture":"愛知県","city":"半田市","street":"金山町"},{"zipCode":"4750004","prefectureKana":"ｱｲﾁｹﾝ","cityKana":"ﾊﾝﾀﾞｼ","streetKana":"ｶﾐｲｹﾁｮｳ","prefecture":"愛知県","city":"半田市","street":"上池町"},{"zipCode":"4750944","prefectureKana":"ｱｲﾁｹﾝ","cityKana":"ﾊﾝﾀﾞｼ","streetKana":"ｶﾐｼﾛﾁｮｳ","prefecture":"愛知県","city":"半田市","street":"神代町"},{"zipCode":"4750009","prefectureKana":"ｱｲﾁｹﾝ","cityKana":"ﾊﾝﾀﾞｼ","streetKana":"ｶﾐｼﾞｮｳｺｳﾁｮｳ","prefecture":"愛知県","city":"半田市","street":"上定光町"},{"zipCode":"4750804","prefectureKana":"ｱｲﾁｹﾝ","cityKana":"ﾊﾝﾀﾞｼ","streetKana":"ｶﾐﾊﾏﾁｮｳ","prefecture":"愛知県","city":"半田市","street":"上浜町"},{"zipCode":"4750028","prefectureKana":"ｱｲﾁｹﾝ","cityKana":"ﾊﾝﾀﾞｼ","streetKana":"ｶﾒｻﾞｷｱｲｵｲﾁｮｳ","prefecture":"愛知県","city":"半田市","street":"亀崎相生町"},{"zipCode":"4750025","prefectureKana":"ｱｲﾁｹﾝ","cityKana":"ﾊﾝﾀﾞｼ","streetKana":"ｶﾒｻﾞｷｵｵﾎﾞﾗﾁｮｳ","prefecture":"愛知県","city":"半田市","street":"亀崎大洞町"},{"zipCode":"4750027","prefectureKana":"ｱｲﾁｹﾝ","cityKana":"ﾊﾝﾀﾞｼ","streetKana":"ｶﾒｻﾞｷｷﾀｳﾗﾁｮｳ","prefecture":"愛知県","city":"半田市","street":"亀崎北浦町"},{"zipCode":"4750026","prefectureKana":"ｱｲﾁｹﾝ","cityKana":"ﾊﾝﾀﾞｼ","streetKana":"ｶﾒｻﾞｷｼﾝﾃﾞﾝﾁｮｳ","prefecture":"愛知県","city":"半田市","street":"亀崎新田町"},{"zipCode":"4750024","prefectureKana":"ｱｲﾁｹﾝ","cityKana":"ﾊﾝﾀﾞｼ","streetKana":"ｶﾒｻﾞｷﾀｶﾈﾁｮｳ","prefecture":"愛知県","city":"半田市","street":"亀崎高根町"},{"zipCode":"4750022","prefectureKana":"ｱｲﾁｹﾝ","cityKana":"ﾊﾝﾀﾞｼ","streetKana":"ｶﾒｻﾞｷﾂｷﾐﾁｮｳ","prefecture":"愛知県","city":"半田市","street":"亀崎月見町"},{"zipCode":"4750029","prefectureKana":"ｱｲﾁｹﾝ","cityKana":"ﾊﾝﾀﾞｼ","streetKana":"ｶﾒｻﾞｷﾄｷﾜﾁｮｳ","prefecture":"愛知県","city":"半田市","street":"亀崎常盤町"},{"zipCode":"4750023","prefectureKana":"ｱｲﾁｹﾝ","cityKana":"ﾊﾝﾀﾞｼ","streetKana":"ｶﾒｻﾞｷﾁｮｳ","prefecture":"愛知県","city":"半田市","street":"亀崎町"},{"zipCode":"4750932","prefectureKana":"ｱｲﾁｹﾝ","cityKana":"ﾊﾝﾀﾞｼ","streetKana":"ｶﾗｽﾈﾁｮｳ","prefecture":"愛知県","city":"半田市","street":"鴉根町"},{"zipCode":"4750918","prefectureKana":"ｱｲﾁｹﾝ","cityKana":"ﾊﾝﾀﾞｼ","streetKana":"ｶﾘﾔﾄﾞﾁｮｳ","prefecture":"愛知県","city":"半田市","street":"雁宿町"},{"zipCode":"4750832","prefectureKana":"ｱｲﾁｹﾝ","cityKana":"ﾊﾝﾀﾞｼ","streetKana":"ｶﾜｻｷﾁｮｳ","prefecture":"愛知県","city":"半田市","street":"川崎町"},{"zipCode":"4750808","prefectureKana":"ｱｲﾁｹﾝ","cityKana":"ﾊﾝﾀﾞｼ","streetKana":"ｶﾜﾀﾞﾁｮｳ","prefecture":"愛知県","city":"半田市","street":"川田町"},{"zipCode":"4750937","prefectureKana":"ｱｲﾁｹﾝ","cityKana":"ﾊﾝﾀﾞｼ","streetKana":"ｶﾝﾀﾞﾁｮｳ","prefecture":"愛知県","city":"半田市","street":"神田町"},{"zipCode":"4750877","prefectureKana":"ｱｲﾁｹﾝ","cityKana":"ﾊﾝﾀﾞｼ","streetKana":"ｶﾝﾅｲﾁｮｳ","prefecture":"愛知県","city":"半田市","street":"勘内町"},{"zipCode":"4750008","prefectureKana":"ｱｲﾁｹﾝ","cityKana":"ﾊﾝﾀﾞｼ","streetKana":"ｷﾀｵｵﾔﾁﾁｮｳ","prefecture":"愛知県","city":"半田市","street":"北大矢知町"},{"zipCode":"4750852","prefectureKana":"ｱｲﾁｹﾝ","cityKana":"ﾊﾝﾀﾞｼ","streetKana":"ｷﾀｽｴﾋﾛﾁｮｳ","prefecture":"愛知県","city":"半田市","street":"北末広町"},{"zipCode":"4750972","prefectureKana":"ｱｲﾁｹﾝ","cityKana":"ﾊﾝﾀﾞｼ","streetKana":"ｷﾀﾅﾒｿｳﾁｮｳ","prefecture":"愛知県","city":"半田市","street":"北滑草町"},{"zipCode":"4750055","prefectureKana":"ｱｲﾁｹﾝ","cityKana":"ﾊﾝﾀﾞｼ","streetKana":"ｷﾀﾊﾏﾀﾞﾁｮｳ","prefecture":"愛知県","city":"半田市","street":"北浜田町"},{"zipCode":"4750927","prefectureKana":"ｱｲﾁｹﾝ","cityKana":"ﾊﾝﾀﾞｼ","streetKana":"ｷﾀﾌﾀﾂｻｶﾁｮｳ","prefecture":"愛知県","city":"半田市","street":"北二ツ坂町"},{"zipCode":"4750977","prefectureKana":"ｱｲﾁｹﾝ","cityKana":"ﾊﾝﾀﾞｼ","streetKana":"ｷｯﾀﾁｮｳ","prefecture":"愛知県","city":"半田市","street":"吉田町"},{"zipCode":"4750938","prefectureKana":"ｱｲﾁｹﾝ","cityKana":"ﾊﾝﾀﾞｼ","streetKana":"ｷﾐｶﾞﾊｼﾁｮｳ","prefecture":"愛知県","city":"半田市","street":"君ケ橋町"},{"zipCode":"4750955","prefectureKana":"ｱｲﾁｹﾝ","cityKana":"ﾊﾝﾀﾞｼ","streetKana":"ｷﾞｮｳﾆﾝﾁｮｳ","prefecture":"愛知県","city":"半田市","street":"行人町"},{"zipCode":"4750854","prefectureKana":"ｱｲﾁｹﾝ","cityKana":"ﾊﾝﾀﾞｼ","streetKana":"ｷｮｳﾜﾁｮｳ","prefecture":"愛知県","city":"半田市","street":"協和町"},{"zipCode":"4750928","prefectureKana":"ｱｲﾁｹﾝ","cityKana":"ﾊﾝﾀﾞｼ","streetKana":"ｷﾘｶﾞｵｶ","prefecture":"愛知県","city":"半田市","street":"桐ケ丘"},{"zipCode":"4750874","prefectureKana":"ｱｲﾁｹﾝ","cityKana":"ﾊﾝﾀﾞｼ","streetKana":"ｷﾞﾝｻﾞﾎﾝﾏﾁ","prefecture":"愛知県","city":"半田市","street":"銀座本町"},{"zipCode":"4750976","prefectureKana":"ｱｲﾁｹﾝ","cityKana":"ﾊﾝﾀﾞｼ","streetKana":"ｸﾛｲｼﾁｮｳ","prefecture":"愛知県","city":"半田市","street":"黒石町"},{"zipCode":"4750816","prefectureKana":"ｱｲﾁｹﾝ","cityKana":"ﾊﾝﾀﾞｼ","streetKana":"ｹﾞﾝﾍﾟｲﾁｮｳ","prefecture":"愛知県","city":"半田市","street":"源平町"},{"zipCode":"4750086","prefectureKana":"ｱｲﾁｹﾝ","cityKana":"ﾊﾝﾀﾞｼ","streetKana":"ｺｳｼﾝﾁｮｳ","prefecture":"愛知県","city":"半田市","street":"庚申町"},{"zipCode":"4750856","prefectureKana":"ｱｲﾁｹﾝ","cityKana":"ﾊﾝﾀﾞｼ","streetKana":"ｺｳｾｲﾁｮｳ","prefecture":"愛知県","city":"半田市","street":"更生町"},{"zipCode":"4750842","prefectureKana":"ｱｲﾁｹﾝ","cityKana":"ﾊﾝﾀﾞｼ","streetKana":"ｺﾞｳﾅｶﾁｮｳ","prefecture":"愛知県","city":"半田市","street":"郷中町"},{"zipCode":"4750085","prefectureKana":"ｱｲﾁｹﾝ","cityKana":"ﾊﾝﾀﾞｼ","streetKana":"ｺｼﾝﾁｮｳ","prefecture":"愛知県","city":"半田市","street":"小神町"},{"zipCode":"4750806","prefectureKana":"ｱｲﾁｹﾝ","cityKana":"ﾊﾝﾀﾞｼ","streetKana":"ｺﾊﾏﾁｮｳ","prefecture":"愛知県","city":"半田市","street":"古浜町"},{"zipCode":"4750814","prefectureKana":"ｱｲﾁｹﾝ","cityKana":"ﾊﾝﾀﾞｼ","streetKana":"ｻｲﾜｲﾁｮｳ","prefecture":"愛知県","city":"半田市","street":"幸町"},{"zipCode":"4750846","prefectureKana":"ｱｲﾁｹﾝ","cityKana":"ﾊﾝﾀﾞｼ","streetKana":"ｻｶｴﾏﾁ","prefecture":"愛知県","city":"半田市","street":"栄町"},{"zipCode":"4750934","prefectureKana":"ｱｲﾁｹﾝ","cityKana":"ﾊﾝﾀﾞｼ","streetKana":"ｼｲﾉｷﾁｮｳ","prefecture":"愛知県","city":"半田市","street":"椎ノ木町"},{"zipCode":"4750032","prefectureKana":"ｱｲﾁｹﾝ","cityKana":"ﾊﾝﾀﾞｼ","streetKana":"ｼｵﾋﾁｮｳ","prefecture":"愛知県","city":"半田市","street":"潮干町"},{"zipCode":"4750072","prefectureKana":"ｱｲﾁｹﾝ","cityKana":"ﾊﾝﾀﾞｼ","streetKana":"ｼﾁﾎﾝｷﾞﾁｮｳ","prefecture":"愛知県","city":"半田市","street":"七本木町"},{"zipCode":"4750872","prefectureKana":"ｱｲﾁｹﾝ","cityKana":"ﾊﾝﾀﾞｼ","streetKana":"ｼﾉﾉﾒﾁｮｳ","prefecture":"愛知県","city":"半田市","street":"東雲町"},{"zipCode":"4750869","prefectureKana":"ｱｲﾁｹﾝ","cityKana":"ﾊﾝﾀﾞｼ","streetKana":"ｼﾐｽﾞﾋｶﾞｼﾏﾁ","prefecture":"愛知県","city":"半田市","street":"清水東町"},{"zipCode":"4750865","prefectureKana":"ｱｲﾁｹﾝ","cityKana":"ﾊﾝﾀﾞｼ","streetKana":"ｼﾐｽﾞﾆｼﾏﾁ","prefecture":"愛知県","city":"半田市","street":"清水西町"},{"zipCode":"4750866","prefectureKana":"ｱｲﾁｹﾝ","cityKana":"ﾊﾝﾀﾞｼ","streetKana":"ｼﾐｽﾞｷﾀﾏﾁ","prefecture":"愛知県","city":"半田市","street":"清水北町"},{"zipCode":"4750922","prefectureKana":"ｱｲﾁｹﾝ","cityKana":"ﾊﾝﾀﾞｼ","streetKana":"ｼｮｳﾜﾁｮｳ","prefecture":"愛知県","city":"半田市","street":"昭和町"},{"zipCode":"4750078","prefectureKana":"ｱｲﾁｹﾝ","cityKana":"ﾊﾝﾀﾞｼ","streetKana":"ｼﾝｲｹﾁｮｳ","prefecture":"愛知県","city":"半田市","street":"新池町"},{"zipCode":"4750886","prefectureKana":"ｱｲﾁｹﾝ","cityKana":"ﾊﾝﾀﾞｼ","streetKana":"ｼﾝｶﾜﾁｮｳ","prefecture":"愛知県","city":"半田市","street":"新川町"},{"zipCode":"4750931","prefectureKana":"ｱｲﾁｹﾝ","cityKana":"ﾊﾝﾀﾞｼ","streetKana":"ｼﾝｸﾞｳﾁｮｳ","prefecture":"愛知県","city":"半田市","street":"新宮町"},{"zipCode":"4750815","prefectureKana":"ｱｲﾁｹﾝ","cityKana":"ﾊﾝﾀﾞｼ","streetKana":"ｼﾝｻｶｴﾏﾁ","prefecture":"愛知県","city":"半田市","street":"新栄町"},{"zipCode":"4750965","prefectureKana":"ｱｲﾁｹﾝ","cityKana":"ﾊﾝﾀﾞｼ","streetKana":"ｼﾝｾｲﾁｮｳ","prefecture":"愛知県","city":"半田市","street":"新生町"},{"zipCode":"4750824","prefectureKana":"ｱｲﾁｹﾝ","cityKana":"ﾊﾝﾀﾞｼ","streetKana":"ｼﾝﾊﾏﾁｮｳ","prefecture":"愛知県","city":"半田市","street":"新浜町"},{"zipCode":"4750826","prefectureKana":"ｱｲﾁｹﾝ","cityKana":"ﾊﾝﾀﾞｼ","streetKana":"ｼﾝﾒｲﾁｮｳ","prefecture":"愛知県","city":"半田市","street":"神明町"},{"zipCode":"4750831","prefectureKana":"ｱｲﾁｹﾝ","cityKana":"ﾊﾝﾀﾞｼ","streetKana":"ｼﾞｭｳｲﾁｺﾞｳﾁ","prefecture":"愛知県","city":"半田市","street":"十一号地"},{"zipCode":"4750954","prefectureKana":"ｱｲﾁｹﾝ","cityKana":"ﾊﾝﾀﾞｼ","streetKana":"ｼﾞｭｳｻﾝﾂﾞｶﾁｮｳ","prefecture":"愛知県","city":"半田市","street":"十三塚町"},{"zipCode":"4750947","prefectureKana":"ｱｲﾁｹﾝ","cityKana":"ﾊﾝﾀﾞｼ","streetKana":"ｽﾅﾀﾞﾆﾁｮｳ","prefecture":"愛知県","city":"半田市","street":"砂谷町"},{"zipCode":"4750021","prefectureKana":"ｱｲﾁｹﾝ","cityKana":"ﾊﾝﾀﾞｼ","streetKana":"ｽﾉｻｷﾁｮｳ","prefecture":"愛知県","city":"半田市","street":"州の崎町"},{"zipCode":"4750862","prefectureKana":"ｱｲﾁｹﾝ","cityKana":"ﾊﾝﾀﾞｼ","streetKana":"ｽﾐﾖｼﾁｮｳ","prefecture":"愛知県","city":"半田市","street":"住吉町"},{"zipCode":"4750917","prefectureKana":"ｱｲﾁｹﾝ","cityKana":"ﾊﾝﾀﾞｼ","streetKana":"ｾｲｼﾛﾁｮｳ","prefecture":"愛知県","city":"半田市","street":"清城町"},{"zipCode":"4750801","prefectureKana":"ｱｲﾁｹﾝ","cityKana":"ﾊﾝﾀﾞｼ","streetKana":"ｿｳｶﾞﾁｮｳ","prefecture":"愛知県","city":"半田市","street":"相賀町"},{"zipCode":"4750036","prefectureKana":"ｱｲﾁｹﾝ","cityKana":"ﾊﾝﾀﾞｼ","streetKana":"ﾀｶｻｺﾞﾁｮｳ","prefecture":"愛知県","city":"半田市","street":"高砂町"},{"zipCode":"4750943","prefectureKana":"ｱｲﾁｹﾝ","cityKana":"ﾊﾝﾀﾞｼ","streetKana":"ﾀｶﾐﾈﾁｮｳ","prefecture":"愛知県","city":"半田市","street":"高峯町"},{"zipCode":"4750948","prefectureKana":"ｱｲﾁｹﾝ","cityKana":"ﾊﾝﾀﾞｼ","streetKana":"ﾀｼﾛﾁｮｳ","prefecture":"愛知県","city":"半田市","street":"田代町"},{"zipCode":"4750968","prefectureKana":"ｱｲﾁｹﾝ","cityKana":"ﾊﾝﾀﾞｼ","streetKana":"ﾁｮｳﾀﾞﾁｮｳ","prefecture":"愛知県","city":"半田市","street":"丁田町"},{"zipCode":"4750903","prefectureKana":"ｱｲﾁｹﾝ","cityKana":"ﾊﾝﾀﾞｼ","streetKana":"ﾃﾞｸﾞﾁﾁｮｳ","prefecture":"愛知県","city":"半田市","street":"出口町"},{"zipCode":"4750844","prefectureKana":"ｱｲﾁｹﾝ","cityKana":"ﾊﾝﾀﾞｼ","streetKana":"ﾃﾗﾏﾁ","prefecture":"愛知県","city":"半田市","street":"寺町"},{"zipCode":"4750921","prefectureKana":"ｱｲﾁｹﾝ","cityKana":"ﾊﾝﾀﾞｼ","streetKana":"ﾃﾝｼﾞﾝﾁｮｳ","prefecture":"愛知県","city":"半田市","street":"天神町"},{"zipCode":"4750859","prefectureKana":"ｱｲﾁｹﾝ","cityKana":"ﾊﾝﾀﾞｼ","streetKana":"ﾃﾝﾉｳﾁｮｳ","prefecture":"愛知県","city":"半田市","street":"天王町"},{"zipCode":"4750914","prefectureKana":"ｱｲﾁｹﾝ","cityKana":"ﾊﾝﾀﾞｼ","streetKana":"ﾄﾞｲﾔﾏﾁｮｳ","prefecture":"愛知県","city":"半田市","street":"土井山町"},{"zipCode":"4750924","prefectureKana":"ｱｲﾁｹﾝ","cityKana":"ﾊﾝﾀﾞｼ","streetKana":"ﾄｳｺﾞｳﾁｮｳ","prefecture":"愛知県","city":"半田市","street":"東郷町"},{"zipCode":"4750817","prefectureKana":"ｱｲﾁｹﾝ","cityKana":"ﾊﾝﾀﾞｼ","streetKana":"ﾄｳﾖｳﾁｮｳ","prefecture":"愛知県","city":"半田市","street":"東洋町"},{"zipCode":"4750075","prefectureKana":"ｱｲﾁｹﾝ","cityKana":"ﾊﾝﾀﾞｼ","streetKana":"ﾅｴｼﾛﾁｮｳ","prefecture":"愛知県","city":"半田市","street":"苗代町"},{"zipCode":"4750037","prefectureKana":"ｱｲﾁｹﾝ","cityKana":"ﾊﾝﾀﾞｼ","streetKana":"ﾅｶｳﾏﾁｮｳ","prefecture":"愛知県","city":"半田市","street":"中午町"},{"zipCode":"4750035","prefectureKana":"ｱｲﾁｹﾝ","cityKana":"ﾊﾝﾀﾞｼ","streetKana":"ﾅｶｵｸﾀﾞﾁｮｳ","prefecture":"愛知県","city":"半田市","street":"中億田町"},{"zipCode":"4750843","prefectureKana":"ｱｲﾁｹﾝ","cityKana":"ﾊﾝﾀﾞｼ","streetKana":"ﾅｶｼﾏﾁｮｳ","prefecture":"愛知県","city":"半田市","street":"中島町"},{"zipCode":"4750929","prefectureKana":"ｱｲﾁｹﾝ","cityKana":"ﾊﾝﾀﾞｼ","streetKana":"ﾅｶﾀﾁｮｳ","prefecture":"愛知県","city":"半田市","street":"仲田町"},{"zipCode":"4750018","prefectureKana":"ｱｲﾁｹﾝ","cityKana":"ﾊﾝﾀﾞｼ","streetKana":"ﾅｶﾊｴﾐﾁｮｳ","prefecture":"愛知県","city":"半田市","street":"中生見町"},{"zipCode":"4750855","prefectureKana":"ｱｲﾁｹﾝ","cityKana":"ﾊﾝﾀﾞｼ","streetKana":"ﾅｶﾏﾁ","prefecture":"愛知県","city":"半田市","street":"中町"},{"zipCode":"4750873","prefectureKana":"ｱｲﾁｹﾝ","cityKana":"ﾊﾝﾀﾞｼ","streetKana":"ﾅｶﾑﾗﾁｮｳ","prefecture":"愛知県","city":"半田市","street":"中村町"},{"zipCode":"4750074","prefectureKana":"ｱｲﾁｹﾝ","cityKana":"ﾊﾝﾀﾞｼ","streetKana":"ﾅｶﾞﾈﾁｮｳ","prefecture":"愛知県","city":"半田市","street":"長根町"},{"zipCode":"4750941","prefectureKana":"ｱｲﾁｹﾝ","cityKana":"ﾊﾝﾀﾞｼ","streetKana":"ﾅﾒｿﾁｮｳ","prefecture":"愛知県","city":"半田市","street":"滑楚町"},{"zipCode":"4750845","prefectureKana":"ｱｲﾁｹﾝ","cityKana":"ﾊﾝﾀﾞｼ","streetKana":"ﾅﾗﾜﾋｶﾞｼﾏﾁ","prefecture":"愛知県","city":"半田市","street":"成岩東町"},{"zipCode":"4750848","prefectureKana":"ｱｲﾁｹﾝ","cityKana":"ﾊﾝﾀﾞｼ","streetKana":"ﾅﾗﾜﾎﾝﾏﾁ","prefecture":"愛知県","city":"半田市","street":"成岩本町"},{"zipCode":"4750933","prefectureKana":"ｱｲﾁｹﾝ","cityKana":"ﾊﾝﾀﾞｼ","streetKana":"ﾆｲﾉﾁｮｳ","prefecture":"愛知県","city":"半田市","street":"新野町"},{"zipCode":"4750007","prefectureKana":"ｱｲﾁｹﾝ","cityKana":"ﾊﾝﾀﾞｼ","streetKana":"ﾆｼｵｵﾔﾁﾁｮｳ","prefecture":"愛知県","city":"半田市","street":"西大矢知町"},{"zipCode":"4750802","prefectureKana":"ｱｲﾁｹﾝ","cityKana":"ﾊﾝﾀﾞｼ","streetKana":"ﾆｼｵｸﾀﾞﾁｮｳ","prefecture":"愛知県","city":"半田市","street":"西億田町"},{"zipCode":"4750868","prefectureKana":"ｱｲﾁｹﾝ","cityKana":"ﾊﾝﾀﾞｼ","streetKana":"ﾆｼｼﾝﾏﾁ","prefecture":"愛知県","city":"半田市","street":"西新町"},{"zipCode":"4750016","prefectureKana":"ｱｲﾁｹﾝ","cityKana":"ﾊﾝﾀﾞｼ","streetKana":"ﾆｼﾊｴﾐﾁｮｳ","prefecture":"愛知県","city":"半田市","street":"西生見町"},{"zipCode":"4750884","prefectureKana":"ｱｲﾁｹﾝ","cityKana":"ﾊﾝﾀﾞｼ","streetKana":"ﾆｼﾊﾞﾀﾁｮｳ","prefecture":"愛知県","city":"半田市","street":"西端町"},{"zipCode":"4750033","prefectureKana":"ｱｲﾁｹﾝ","cityKana":"ﾊﾝﾀﾞｼ","streetKana":"ﾆｯﾄｳﾁｮｳ","prefecture":"愛知県","city":"半田市","street":"日東町"},{"zipCode":"4750038","prefectureKana":"ｱｲﾁｹﾝ","cityKana":"ﾊﾝﾀﾞｼ","streetKana":"ﾈｷﾞﾁｮｳ","prefecture":"愛知県","city":"半田市","street":"祢宜町"},{"zipCode":"4750019","prefectureKana":"ｱｲﾁｹﾝ","cityKana":"ﾊﾝﾀﾞｼ","streetKana":"ﾉｿﾞﾐｶﾞｵｶ","prefecture":"愛知県","city":"半田市","street":"のぞみが丘"},{"zipCode":"4750912","prefectureKana":"ｱｲﾁｹﾝ","cityKana":"ﾊﾝﾀﾞｼ","streetKana":"ﾊｸｻﾝﾁｮｳ","prefecture":"愛知県","city":"半田市","street":"白山町"},{"zipCode":"4750077","prefectureKana":"ｱｲﾁｹﾝ","cityKana":"ﾊﾝﾀﾞｼ","streetKana":"ﾊｹﾞﾔﾏﾁｮｳ","prefecture":"愛知県","city":"半田市","street":"兀山町"},{"zipCode":"4750847","prefectureKana":"ｱｲﾁｹﾝ","cityKana":"ﾊﾝﾀﾞｼ","streetKana":"ﾊﾀｱｲﾁｮｳ","prefecture":"愛知県","city":"半田市","street":"畑合町"},{"zipCode":"4750807","prefectureKana":"ｱｲﾁｹﾝ","cityKana":"ﾊﾝﾀﾞｼ","streetKana":"ﾊﾁｹﾝﾁｮｳ","prefecture":"愛知県","city":"半田市","street":"八軒町"},{"zipCode":"4750833","prefectureKana":"ｱｲﾁｹﾝ","cityKana":"ﾊﾝﾀﾞｼ","streetKana":"ﾊﾅｿﾞﾉﾁｮｳ","prefecture":"愛知県","city":"半田市","street":"花園町"},{"zipCode":"4750088","prefectureKana":"ｱｲﾁｹﾝ","cityKana":"ﾊﾝﾀﾞｼ","streetKana":"ﾊﾅﾀﾞﾁｮｳ","prefecture":"愛知県","city":"半田市","street":"花田町"},{"zipCode":"4750805","prefectureKana":"ｱｲﾁｹﾝ","cityKana":"ﾊﾝﾀﾞｼ","streetKana":"ﾊﾏﾀﾞﾁｮｳ","prefecture":"愛知県","city":"半田市","street":"浜田町"},{"zipCode":"4750822","prefectureKana":"ｱｲﾁｹﾝ","cityKana":"ﾊﾝﾀﾞｼ","streetKana":"ﾊﾏﾏﾁ","prefecture":"愛知県","city":"半田市","street":"浜町"},{"zipCode":"4750916","prefectureKana":"ｱｲﾁｹﾝ","cityKana":"ﾊﾝﾀﾞｼ","streetKana":"ﾋｲﾗｷﾞﾁｮｳ","prefecture":"愛知県","city":"半田市","street":"柊町"},{"zipCode":"4750003","prefectureKana":"ｱｲﾁｹﾝ","cityKana":"ﾊﾝﾀﾞｼ","streetKana":"ﾋｶﾞｼｵｵﾔﾁﾁｮｳ","prefecture":"愛知県","city":"半田市","street":"東大矢知町"},{"zipCode":"4750034","prefectureKana":"ｱｲﾁｹﾝ","cityKana":"ﾊﾝﾀﾞｼ","streetKana":"ﾋｶﾞｼｵｸﾀﾞﾁｮｳ","prefecture":"愛知県","city":"半田市","street":"東億田町"},{"zipCode":"4750861","prefectureKana":"ｱｲﾁｹﾝ","cityKana":"ﾊﾝﾀﾞｼ","streetKana":"ﾋｶﾞｼｼﾝﾏﾁ","prefecture":"愛知県","city":"半田市","street":"東新町"},{"zipCode":"4750876","prefectureKana":"ｱｲﾁｹﾝ","cityKana":"ﾊﾝﾀﾞｼ","streetKana":"ﾋｶﾞｼﾃﾝﾉｳﾁｮｳ","prefecture":"愛知県","city":"半田市","street":"東天王町"},{"zipCode":"4750012","prefectureKana":"ｱｲﾁｹﾝ","cityKana":"ﾊﾝﾀﾞｼ","streetKana":"ﾋｶﾞｼﾊｴﾐﾁｮｳ","prefecture":"愛知県","city":"半田市","street":"東生見町"},{"zipCode":"4750813","prefectureKana":"ｱｲﾁｹﾝ","cityKana":"ﾊﾝﾀﾞｼ","streetKana":"ﾋｶﾞｼﾊﾏﾁｮｳ","prefecture":"愛知県","city":"半田市","street":"東浜町"},{"zipCode":"4750878","prefectureKana":"ｱｲﾁｹﾝ","cityKana":"ﾊﾝﾀﾞｼ","streetKana":"ﾋｶﾞｼﾎﾝﾏﾁ","prefecture":"愛知県","city":"半田市","street":"東本町"},{"zipCode":"4750975","prefectureKana":"ｱｲﾁｹﾝ","cityKana":"ﾊﾝﾀﾞｼ","streetKana":"ﾋｺｽﾞﾁｮｳ","prefecture":"愛知県","city":"半田市","street":"彦洲町"},{"zipCode":"4750819","prefectureKana":"ｱｲﾁｹﾝ","cityKana":"ﾊﾝﾀﾞｼ","streetKana":"ﾋﾉﾃﾞﾁｮｳ","prefecture":"愛知県","city":"半田市","street":"日ノ出町"},{"zipCode":"4750964","prefectureKana":"ｱｲﾁｹﾝ","cityKana":"ﾊﾝﾀﾞｼ","streetKana":"ﾋﾗｲﾁｮｳ","prefecture":"愛知県","city":"半田市","street":"平井町"},{"zipCode":"4750081","prefectureKana":"ｱｲﾁｹﾝ","cityKana":"ﾊﾝﾀﾞｼ","streetKana":"ﾋﾗﾁﾁｮｳ","prefecture":"愛知県","city":"半田市","street":"平地町"},{"zipCode":"4750013","prefectureKana":"ｱｲﾁｹﾝ","cityKana":"ﾊﾝﾀﾞｼ","streetKana":"ﾋﾗﾁﾊﾞﾝﾊﾞﾁｮｳ","prefecture":"愛知県","city":"半田市","street":"平地馬場町"},{"zipCode":"4750857","prefectureKana":"ｱｲﾁｹﾝ","cityKana":"ﾊﾝﾀﾞｼ","streetKana":"ﾋﾛｺｳｼﾞﾁｮｳ","prefecture":"愛知県","city":"半田市","street":"広小路町"},{"zipCode":"4750971","prefectureKana":"ｱｲﾁｹﾝ","cityKana":"ﾊﾝﾀﾞｼ","streetKana":"ﾌｶﾀﾞﾆﾁｮｳ","prefecture":"愛知県","city":"半田市","street":"深谷町"},{"zipCode":"4750978","prefectureKana":"ｱｲﾁｹﾝ","cityKana":"ﾊﾝﾀﾞｼ","streetKana":"ﾌｸﾁﾁｮｳ","prefecture":"愛知県","city":"半田市","street":"福地町"},{"zipCode":"4750834","prefectureKana":"ｱｲﾁｹﾝ","cityKana":"ﾊﾝﾀﾞｼ","streetKana":"ﾌｼﾞｶﾞｵｶ","prefecture":"愛知県","city":"半田市","street":"冨士ケ丘"},{"zipCode":"4750821","prefectureKana":"ｱｲﾁｹﾝ","cityKana":"ﾊﾝﾀﾞｼ","streetKana":"ﾌﾅｲﾘﾁｮｳ","prefecture":"愛知県","city":"半田市","street":"船入町"},{"zipCode":"4750963","prefectureKana":"ｱｲﾁｹﾝ","cityKana":"ﾊﾝﾀﾞｼ","streetKana":"ﾍｲﾜﾁｮｳ","prefecture":"愛知県","city":"半田市","street":"平和町"},{"zipCode":"4750951","prefectureKana":"ｱｲﾁｹﾝ","cityKana":"ﾊﾝﾀﾞｼ","streetKana":"ﾎｳﾗｲﾁｮｳ","prefecture":"愛知県","city":"半田市","street":"宝来町"},{"zipCode":"4750911","prefectureKana":"ｱｲﾁｹﾝ","cityKana":"ﾊﾝﾀﾞｼ","streetKana":"ﾎｼｻﾞｷﾁｮｳ","prefecture":"愛知県","city":"半田市","street":"星崎町"},{"zipCode":"4750851","prefectureKana":"ｱｲﾁｹﾝ","cityKana":"ﾊﾝﾀﾞｼ","streetKana":"ﾎﾘｻｷﾁｮｳ","prefecture":"愛知県","city":"半田市","street":"堀崎町"},{"zipCode":"4750871","prefectureKana":"ｱｲﾁｹﾝ","cityKana":"ﾊﾝﾀﾞｼ","streetKana":"ﾎﾝﾏﾁ","prefecture":"愛知県","city":"半田市","street":"本町"},{"zipCode":"4750825","prefectureKana":"ｱｲﾁｹﾝ","cityKana":"ﾊﾝﾀﾞｼ","streetKana":"ﾏｴｶﾞﾀﾁｮｳ","prefecture":"愛知県","city":"半田市","street":"前潟町"},{"zipCode":"4750863","prefectureKana":"ｱｲﾁｹﾝ","cityKana":"ﾊﾝﾀﾞｼ","streetKana":"ﾏｴｻﾞｷﾋｶﾞｼﾏﾁ","prefecture":"愛知県","city":"半田市","street":"前崎東町"},{"zipCode":"4750864","prefectureKana":"ｱｲﾁｹﾝ","cityKana":"ﾊﾝﾀﾞｼ","streetKana":"ﾏｴｻﾞｷﾆｼﾏﾁ","prefecture":"愛知県","city":"半田市","street":"前崎西町"},{"zipCode":"4750082","prefectureKana":"ｱｲﾁｹﾝ","cityKana":"ﾊﾝﾀﾞｼ","streetKana":"ﾏｴﾀﾞﾁｮｳ","prefecture":"愛知県","city":"半田市","street":"前田町"},{"zipCode":"4750942","prefectureKana":"ｱｲﾁｹﾝ","cityKana":"ﾊﾝﾀﾞｼ","streetKana":"ﾏﾂﾎﾞﾘﾁｮｳ","prefecture":"愛知県","city":"半田市","street":"松堀町"},{"zipCode":"4750828","prefectureKana":"ｱｲﾁｹﾝ","cityKana":"ﾊﾝﾀﾞｼ","streetKana":"ﾐｽﾞﾎﾁｮｳ","prefecture":"愛知県","city":"半田市","street":"瑞穂町"},{"zipCode":"4750956","prefectureKana":"ｱｲﾁｹﾝ","cityKana":"ﾊﾝﾀﾞｼ","streetKana":"ﾐﾂｲｹﾁｮｳ","prefecture":"愛知県","city":"半田市","street":"三ツ池町"},{"zipCode":"4750002","prefectureKana":"ｱｲﾁｹﾝ","cityKana":"ﾊﾝﾀﾞｼ","streetKana":"ﾐﾄﾞﾘｶﾞｵｶ","prefecture":"愛知県","city":"半田市","street":"緑ケ丘"},{"zipCode":"4750827","prefectureKana":"ｱｲﾁｹﾝ","cityKana":"ﾊﾝﾀﾞｼ","streetKana":"ﾐﾅﾄﾎﾝﾏﾁ","prefecture":"愛知県","city":"半田市","street":"港本町"},{"zipCode":"4750823","prefectureKana":"ｱｲﾁｹﾝ","cityKana":"ﾊﾝﾀﾞｼ","streetKana":"ﾐﾅﾄﾏﾁ","prefecture":"愛知県","city":"半田市","street":"港町"},{"zipCode":"4750006","prefectureKana":"ｱｲﾁｹﾝ","cityKana":"ﾊﾝﾀﾞｼ","streetKana":"ﾐﾅﾐｵｵﾔﾁﾁｮｳ","prefecture":"愛知県","city":"半田市","street":"南大矢知町"},{"zipCode":"4750853","prefectureKana":"ｱｲﾁｹﾝ","cityKana":"ﾊﾝﾀﾞｼ","streetKana":"ﾐﾅﾐｽｴﾋﾛﾁｮｳ","prefecture":"愛知県","city":"半田市","street":"南末広町"},{"zipCode":"4750926","prefectureKana":"ｱｲﾁｹﾝ","cityKana":"ﾊﾝﾀﾞｼ","streetKana":"ﾐﾅﾐﾌﾀﾂｻﾞｶﾁｮｳ","prefecture":"愛知県","city":"半田市","street":"南二ツ坂町"},{"zipCode":"4750882","prefectureKana":"ｱｲﾁｹﾝ","cityKana":"ﾊﾝﾀﾞｼ","streetKana":"ﾐﾅﾐﾎﾝﾏﾁ","prefecture":"愛知県","city":"半田市","street":"南本町"},{"zipCode":"4750073","prefectureKana":"ｱｲﾁｹﾝ","cityKana":"ﾊﾝﾀﾞｼ","streetKana":"ﾐﾊﾗﾁｮｳ","prefecture":"愛知県","city":"半田市","street":"美原町"},{"zipCode":"4750902","prefectureKana":"ｱｲﾁｹﾝ","cityKana":"ﾊﾝﾀﾞｼ","streetKana":"ﾐﾔｼﾞﾁｮｳ","prefecture":"愛知県","city":"半田市","street":"宮路町"},{"zipCode":"4750925","prefectureKana":"ｱｲﾁｹﾝ","cityKana":"ﾊﾝﾀﾞｼ","streetKana":"ﾐﾔﾓﾄﾁｮｳ","prefecture":"愛知県","city":"半田市","street":"宮本町"},{"zipCode":"4750887","prefectureKana":"ｱｲﾁｹﾝ","cityKana":"ﾊﾝﾀﾞｼ","streetKana":"ﾐﾕｷﾏﾁ","prefecture":"愛知県","city":"半田市","street":"御幸町"},{"zipCode":"4750883","prefectureKana":"ｱｲﾁｹﾝ","cityKana":"ﾊﾝﾀﾞｼ","streetKana":"ﾐｮｳｹﾝﾁｮｳ","prefecture":"愛知県","city":"半田市","street":"妙見町"},{"zipCode":"4750084","prefectureKana":"ｱｲﾁｹﾝ","cityKana":"ﾊﾝﾀﾞｼ","streetKana":"ﾑｶｲﾔﾏﾁｮｳ","prefecture":"愛知県","city":"半田市","street":"向山町"},{"zipCode":"4750959","prefectureKana":"ｱｲﾁｹﾝ","cityKana":"ﾊﾝﾀﾞｼ","streetKana":"ﾓﾓﾔﾏﾁｮｳ","prefecture":"愛知県","city":"半田市","street":"桃山町"},{"zipCode":"4750962","prefectureKana":"ｱｲﾁｹﾝ","cityKana":"ﾊﾝﾀﾞｼ","streetKana":"ﾔﾅﾍﾞﾀｶﾔﾏﾁｮｳ","prefecture":"愛知県","city":"半田市","street":"岩滑高山町"},{"zipCode":"4750961","prefectureKana":"ｱｲﾁｹﾝ","cityKana":"ﾊﾝﾀﾞｼ","streetKana":"ﾔﾅﾍﾞﾅｶﾏﾁ","prefecture":"愛知県","city":"半田市","street":"岩滑中町"},{"zipCode":"4750905","prefectureKana":"ｱｲﾁｹﾝ","cityKana":"ﾊﾝﾀﾞｼ","streetKana":"ﾔﾅﾍﾞﾋｶﾞｼﾏﾁ","prefecture":"愛知県","city":"半田市","street":"岩滑東町"},{"zipCode":"4750966","prefectureKana":"ｱｲﾁｹﾝ","cityKana":"ﾊﾝﾀﾞｼ","streetKana":"ﾔﾅﾍﾞﾆｼﾏﾁ","prefecture":"愛知県","city":"半田市","street":"岩滑西町"},{"zipCode":"4750901","prefectureKana":"ｱｲﾁｹﾝ","cityKana":"ﾊﾝﾀﾞｼ","streetKana":"ﾔﾅﾍﾞﾐﾅﾐﾊﾏﾁｮｳ","prefecture":"愛知県","city":"半田市","street":"岩滑南浜町"},{"zipCode":"4750906","prefectureKana":"ｱｲﾁｹﾝ","cityKana":"ﾊﾝﾀﾞｼ","streetKana":"ﾔﾅﾍﾞｷﾀﾊﾏﾁｮｳ","prefecture":"愛知県","city":"半田市","street":"岩滑北浜町"},{"zipCode":"4750875","prefectureKana":"ｱｲﾁｹﾝ","cityKana":"ﾊﾝﾀﾞｼ","streetKana":"ﾔﾏｻﾞｷﾁｮｳ","prefecture":"愛知県","city":"半田市","street":"山崎町"},{"zipCode":"4750974","prefectureKana":"ｱｲﾁｹﾝ","cityKana":"ﾊﾝﾀﾞｼ","streetKana":"ﾔﾏｼﾛﾁｮｳ","prefecture":"愛知県","city":"半田市","street":"山代町"},{"zipCode":"4750841","prefectureKana":"ｱｲﾁｹﾝ","cityKana":"ﾊﾝﾀﾞｼ","streetKana":"ﾔﾏﾄﾁｮｳ","prefecture":"愛知県","city":"半田市","street":"大和町"},{"zipCode":"4750885","prefectureKana":"ｱｲﾁｹﾝ","cityKana":"ﾊﾝﾀﾞｼ","streetKana":"ﾔﾏﾉｶﾐﾁｮｳ","prefecture":"愛知県","city":"半田市","street":"山ノ神町"},{"zipCode":"4750837","prefectureKana":"ｱｲﾁｹﾝ","cityKana":"ﾊﾝﾀﾞｼ","streetKana":"ﾕｳﾗｸﾁｮｳ","prefecture":"愛知県","city":"半田市","street":"有楽町"},{"zipCode":"4750005","prefectureKana":"ｱｲﾁｹﾝ","cityKana":"ﾊﾝﾀﾞｼ","streetKana":"ﾖｺｶﾞﾜﾁｮｳ","prefecture":"愛知県","city":"半田市","street":"横川町"},{"zipCode":"4750076","prefectureKana":"ｱｲﾁｹﾝ","cityKana":"ﾊﾝﾀﾞｼ","streetKana":"ﾖｺﾏﾂｶﾐﾁｮｳ","prefecture":"愛知県","city":"半田市","street":"横松上町"},{"zipCode":"4750946","prefectureKana":"ｱｲﾁｹﾝ","cityKana":"ﾊﾝﾀﾞｼ","streetKana":"ﾖｺﾔﾏﾁｮｳ","prefecture":"愛知県","city":"半田市","street":"横山町"},{"zipCode":"4750973","prefectureKana":"ｱｲﾁｹﾝ","cityKana":"ﾊﾝﾀﾞｼ","streetKana":"ﾖｼﾀﾞﾆﾁｮｳ","prefecture":"愛知県","city":"半田市","street":"葭谷町"},{"zipCode":"4750939","prefectureKana":"ｱｲﾁｹﾝ","cityKana":"ﾊﾝﾀﾞｼ","streetKana":"ﾖﾓｷﾞﾁｮｳ","prefecture":"愛知県","city":"半田市","street":"四方木町"}]