[{"zipCode":"4820000","prefectureKana":"ｱｲﾁｹﾝ","cityKana":"ｲﾜｸﾗｼ","streetKana":"ｲｶﾆｹｲｻｲｶﾞﾅｲﾊﾞｱｲ","prefecture":"愛知県","city":"岩倉市","street":"以下に掲載がない場合"},{"zipCode":"4820024","prefectureKana":"ｱｲﾁｹﾝ","cityKana":"ｲﾜｸﾗｼ","streetKana":"ｱｻﾋﾏﾁ","prefecture":"愛知県","city":"岩倉市","street":"旭町"},{"zipCode":"4820034","prefectureKana":"ｱｲﾁｹﾝ","cityKana":"ｲﾜｸﾗｼ","streetKana":"ｲｼﾎﾞﾄｹﾁｮｳ","prefecture":"愛知県","city":"岩倉市","street":"石仏町"},{"zipCode":"4820045","prefectureKana":"ｱｲﾁｹﾝ","cityKana":"ｲﾜｸﾗｼ","streetKana":"ｲｽﾞﾐﾁｮｳ","prefecture":"愛知県","city":"岩倉市","street":"泉町"},{"zipCode":"4820012","prefectureKana":"ｱｲﾁｹﾝ","cityKana":"ｲﾜｸﾗｼ","streetKana":"ｲﾅﾘﾁｮｳ","prefecture":"愛知県","city":"岩倉市","street":"稲荷町"},{"zipCode":"4820006","prefectureKana":"ｱｲﾁｹﾝ","cityKana":"ｲﾜｸﾗｼ","streetKana":"ｲﾅﾘﾁｮｳﾊﾈ","prefecture":"愛知県","city":"岩倉市","street":"稲荷町羽根"},{"zipCode":"4820032","prefectureKana":"ｱｲﾁｹﾝ","cityKana":"ｲﾜｸﾗｼ","streetKana":"ｲﾉｳｴﾁｮｳ","prefecture":"愛知県","city":"岩倉市","street":"井上町"},{"zipCode":"4820033","prefectureKana":"ｱｲﾁｹﾝ","cityKana":"ｲﾜｸﾗｼ","streetKana":"ｶﾐﾉﾁｮｳ","prefecture":"愛知県","city":"岩倉市","street":"神野町"},{"zipCode":"4820015","prefectureKana":"ｱｲﾁｹﾝ","cityKana":"ｲﾜｸﾗｼ","streetKana":"ｶﾜｲﾁｮｳ","prefecture":"愛知県","city":"岩倉市","street":"川井町"},{"zipCode":"4820017","prefectureKana":"ｱｲﾁｹﾝ","cityKana":"ｲﾜｸﾗｼ","streetKana":"ｷﾀｼﾞﾏﾁｮｳ","prefecture":"愛知県","city":"岩倉市","street":"北島町"},{"zipCode":"4820004","prefectureKana":"ｱｲﾁｹﾝ","cityKana":"ｲﾜｸﾗｼ","streetKana":"ｺﾞｼﾞｮｳﾁｮｳ","prefecture":"愛知県","city":"岩倉市","street":"五条町"},{"zipCode":"4820036","prefectureKana":"ｱｲﾁｹﾝ","cityKana":"ｲﾜｸﾗｼ","streetKana":"ｻｲﾁﾁｮｳ","prefecture":"愛知県","city":"岩倉市","street":"西市町"},{"zipCode":"4820022","prefectureKana":"ｱｲﾁｹﾝ","cityKana":"ｲﾜｸﾗｼ","streetKana":"ｻｶｴﾏﾁ","prefecture":"愛知県","city":"岩倉市","street":"栄町"},{"zipCode":"4820005","prefectureKana":"ｱｲﾁｹﾝ","cityKana":"ｲﾜｸﾗｼ","streetKana":"ｼﾓﾎﾝﾏﾁ","prefecture":"愛知県","city":"岩倉市","street":"下本町"},{"zipCode":"4820011","prefectureKana":"ｱｲﾁｹﾝ","cityKana":"ｲﾜｸﾗｼ","streetKana":"ｼｮｳﾜﾁｮｳ","prefecture":"愛知県","city":"岩倉市","street":"昭和町"},{"zipCode":"4820021","prefectureKana":"ｱｲﾁｹﾝ","cityKana":"ｲﾜｸﾗｼ","streetKana":"ｼﾝﾔﾅｷﾞﾁｮｳ","prefecture":"愛知県","city":"岩倉市","street":"新柳町"},{"zipCode":"4820035","prefectureKana":"ｱｲﾁｹﾝ","cityKana":"ｲﾜｸﾗｼ","streetKana":"ｽｽﾞｲﾁｮｳ","prefecture":"愛知県","city":"岩倉市","street":"鈴井町"},{"zipCode":"4820003","prefectureKana":"ｱｲﾁｹﾝ","cityKana":"ｲﾜｸﾗｼ","streetKana":"ｿﾉﾁｮｳ","prefecture":"愛知県","city":"岩倉市","street":"曽野町"},{"zipCode":"4820002","prefectureKana":"ｱｲﾁｹﾝ","cityKana":"ｲﾜｸﾗｼ","streetKana":"ﾀﾞｲｲﾁﾊﾞﾁｮｳ","prefecture":"愛知県","city":"岩倉市","street":"大市場町"},{"zipCode":"4820014","prefectureKana":"ｱｲﾁｹﾝ","cityKana":"ｲﾜｸﾗｼ","streetKana":"ﾀｲｻﾝｼﾞﾁｮｳ","prefecture":"愛知県","city":"岩倉市","street":"大山寺町"},{"zipCode":"4820018","prefectureKana":"ｱｲﾁｹﾝ","cityKana":"ｲﾜｸﾗｼ","streetKana":"ﾀｲｻﾝｼﾞﾎﾝﾏﾁ","prefecture":"愛知県","city":"岩倉市","street":"大山寺本町"},{"zipCode":"4820007","prefectureKana":"ｱｲﾁｹﾝ","cityKana":"ｲﾜｸﾗｼ","streetKana":"ﾀｲｻﾝｼﾞﾓﾄﾏﾁ","prefecture":"愛知県","city":"岩倉市","street":"大山寺元町"},{"zipCode":"4820025","prefectureKana":"ｱｲﾁｹﾝ","cityKana":"ｲﾜｸﾗｼ","streetKana":"ﾀﾞｲﾁｼﾝﾏﾁ","prefecture":"愛知県","city":"岩倉市","street":"大地新町"},{"zipCode":"4820026","prefectureKana":"ｱｲﾁｹﾝ","cityKana":"ｲﾜｸﾗｼ","streetKana":"ﾀﾞｲﾁﾁｮｳ","prefecture":"愛知県","city":"岩倉市","street":"大地町"},{"zipCode":"4820023","prefectureKana":"ｱｲﾁｹﾝ","cityKana":"ｲﾜｸﾗｼ","streetKana":"ﾁｭｳｵｳﾁｮｳ","prefecture":"愛知県","city":"岩倉市","street":"中央町"},{"zipCode":"4820046","prefectureKana":"ｱｲﾁｹﾝ","cityKana":"ｲﾜｸﾗｼ","streetKana":"ﾅｶﾉﾁｮｳ","prefecture":"愛知県","city":"岩倉市","street":"中野町"},{"zipCode":"4820042","prefectureKana":"ｱｲﾁｹﾝ","cityKana":"ｲﾜｸﾗｼ","streetKana":"ﾅｶﾎﾝﾏﾁ","prefecture":"愛知県","city":"岩倉市","street":"中本町"},{"zipCode":"4820016","prefectureKana":"ｱｲﾁｹﾝ","cityKana":"ｲﾜｸﾗｼ","streetKana":"ﾉﾖﾘﾁｮｳ","prefecture":"愛知県","city":"岩倉市","street":"野寄町"},{"zipCode":"4820001","prefectureKana":"ｱｲﾁｹﾝ","cityKana":"ｲﾜｸﾗｼ","streetKana":"ﾋｶﾞｼｼﾝﾏﾁ","prefecture":"愛知県","city":"岩倉市","street":"東新町"},{"zipCode":"4820041","prefectureKana":"ｱｲﾁｹﾝ","cityKana":"ｲﾜｸﾗｼ","streetKana":"ﾋｶﾞｼﾏﾁ","prefecture":"愛知県","city":"岩倉市","street":"東町"},{"zipCode":"4820043","prefectureKana":"ｱｲﾁｹﾝ","cityKana":"ｲﾜｸﾗｼ","streetKana":"ﾎﾝﾏﾁ","prefecture":"愛知県","city":"岩倉市","street":"本町"},{"zipCode":"4820013","prefectureKana":"ｱｲﾁｹﾝ","cityKana":"ｲﾜｸﾗｼ","streetKana":"ﾐﾅﾐｼﾝﾏﾁ","prefecture":"愛知県","city":"岩倉市","street":"南新町"},{"zipCode":"4820044","prefectureKana":"ｱｲﾁｹﾝ","cityKana":"ｲﾜｸﾗｼ","streetKana":"ﾐﾔﾏｴﾁｮｳ","prefecture":"愛知県","city":"岩倉市","street":"宮前町"},{"zipCode":"4820031","prefectureKana":"ｱｲﾁｹﾝ","cityKana":"ｲﾜｸﾗｼ","streetKana":"ﾔﾂﾙｷﾞﾁｮｳ","prefecture":"愛知県","city":"岩倉市","street":"八剱町"}]