[{"zipCode":"4830000","prefectureKana":"ｱｲﾁｹﾝ","cityKana":"ｺｳﾅﾝｼ","streetKana":"ｲｶﾆｹｲｻｲｶﾞﾅｲﾊﾞｱｲ","prefecture":"愛知県","city":"江南市","street":"以下に掲載がない場合"},{"zipCode":"4838221","prefectureKana":"ｱｲﾁｹﾝ","cityKana":"ｺｳﾅﾝｼ","streetKana":"ｱｶﾄﾞｳｼﾞﾁｮｳｵｵﾎﾞﾘ","prefecture":"愛知県","city":"江南市","street":"赤童子町大堀"},{"zipCode":"4838226","prefectureKana":"ｱｲﾁｹﾝ","cityKana":"ｺｳﾅﾝｼ","streetKana":"ｱｶﾄﾞｳｼﾞﾁｮｳｵｵﾏ","prefecture":"愛知県","city":"江南市","street":"赤童子町大間"},{"zipCode":"4838223","prefectureKana":"ｱｲﾁｹﾝ","cityKana":"ｺｳﾅﾝｼ","streetKana":"ｱｶﾄﾞｳｼﾞﾁｮｳｵﾔﾄﾞ","prefecture":"愛知県","city":"江南市","street":"赤童子町御宿"},{"zipCode":"4838225","prefectureKana":"ｱｲﾁｹﾝ","cityKana":"ｺｳﾅﾝｼ","streetKana":"ｱｶﾄﾞｳｼﾞﾁｮｳｻｶｴ","prefecture":"愛知県","city":"江南市","street":"赤童子町栄"},{"zipCode":"4838228","prefectureKana":"ｱｲﾁｹﾝ","cityKana":"ｺｳﾅﾝｼ","streetKana":"ｱｶﾄﾞｳｼﾞﾁｮｳｻｸﾗﾐﾁ","prefecture":"愛知県","city":"江南市","street":"赤童子町桜道"},{"zipCode":"4838224","prefectureKana":"ｱｲﾁｹﾝ","cityKana":"ｺｳﾅﾝｼ","streetKana":"ｱｶﾄﾞｳｼﾞﾁｮｳﾊｸｻﾝ","prefecture":"愛知県","city":"江南市","street":"赤童子町白山"},{"zipCode":"4838165","prefectureKana":"ｱｲﾁｹﾝ","cityKana":"ｺｳﾅﾝｼ","streetKana":"ｱｶﾄﾞｳｼﾞﾁｮｳﾌｸｽﾞﾐ","prefecture":"愛知県","city":"江南市","street":"赤童子町福住"},{"zipCode":"4838222","prefectureKana":"ｱｲﾁｹﾝ","cityKana":"ｺｳﾅﾝｼ","streetKana":"ｱｶﾄﾞｳｼﾞﾁｮｳﾌｼﾞﾐﾔ","prefecture":"愛知県","city":"江南市","street":"赤童子町藤宮"},{"zipCode":"4838167","prefectureKana":"ｱｲﾁｹﾝ","cityKana":"ｺｳﾅﾝｼ","streetKana":"ｱｶﾄﾞｳｼﾞﾁｮｳﾐﾅﾐﾉ","prefecture":"愛知県","city":"江南市","street":"赤童子町南野"},{"zipCode":"4838166","prefectureKana":"ｱｲﾁｹﾝ","cityKana":"ｺｳﾅﾝｼ","streetKana":"ｱｶﾄﾞｳｼﾞﾁｮｳﾐﾅﾐﾔﾏ","prefecture":"愛知県","city":"江南市","street":"赤童子町南山"},{"zipCode":"4838227","prefectureKana":"ｱｲﾁｹﾝ","cityKana":"ｺｳﾅﾝｼ","streetKana":"ｱｶﾄﾞｳｼﾞﾁｮｳﾖｼﾊﾗ","prefecture":"愛知県","city":"江南市","street":"赤童子町良原"},{"zipCode":"4838106","prefectureKana":"ｱｲﾁｹﾝ","cityKana":"ｺｳﾅﾝｼ","streetKana":"ｲｼﾏｸﾗﾁｮｳｼﾝﾒｲ","prefecture":"愛知県","city":"江南市","street":"石枕町神明"},{"zipCode":"4838107","prefectureKana":"ｱｲﾁｹﾝ","cityKana":"ｺｳﾅﾝｼ","streetKana":"ｲｼﾏｸﾗﾁｮｳﾊｸｻﾝ","prefecture":"愛知県","city":"江南市","street":"石枕町白山"},{"zipCode":"4838181","prefectureKana":"ｱｲﾁｹﾝ","cityKana":"ｺｳﾅﾝｼ","streetKana":"ｲﾏｲﾁﾊﾞﾁｮｳｱｷﾂ","prefecture":"愛知県","city":"江南市","street":"今市場町秋津"},{"zipCode":"4838183","prefectureKana":"ｱｲﾁｹﾝ","cityKana":"ｺｳﾅﾝｼ","streetKana":"ｲﾏｲﾁﾊﾞﾁｮｳﾀｶﾈ","prefecture":"愛知県","city":"江南市","street":"今市場町高根"},{"zipCode":"4838182","prefectureKana":"ｱｲﾁｹﾝ","cityKana":"ｺｳﾅﾝｼ","streetKana":"ｲﾏｲﾁﾊﾞﾁｮｳﾐﾔﾏｴ","prefecture":"愛知県","city":"江南市","street":"今市場町宮前"},{"zipCode":"4838188","prefectureKana":"ｱｲﾁｹﾝ","cityKana":"ｺｳﾅﾝｼ","streetKana":"ｲﾏｲﾁﾊﾞﾁｮｳﾐﾜ","prefecture":"愛知県","city":"江南市","street":"今市場町美和"},{"zipCode":"4838387","prefectureKana":"ｱｲﾁｹﾝ","cityKana":"ｺｳﾅﾝｼ","streetKana":"ｳｼﾛﾋﾎﾞﾁｮｳｼﾝｶｲ","prefecture":"愛知県","city":"江南市","street":"後飛保町新開"},{"zipCode":"4838347","prefectureKana":"ｱｲﾁｹﾝ","cityKana":"ｺｳﾅﾝｼ","streetKana":"ｳｼﾛﾋﾎﾞﾁｮｳｼﾝﾒｲﾉ","prefecture":"愛知県","city":"江南市","street":"後飛保町神明野"},{"zipCode":"4838345","prefectureKana":"ｱｲﾁｹﾝ","cityKana":"ｺｳﾅﾝｼ","streetKana":"ｳｼﾛﾋﾎﾞﾁｮｳﾀｶｾ","prefecture":"愛知県","city":"江南市","street":"後飛保町高瀬"},{"zipCode":"4838381","prefectureKana":"ｱｲﾁｹﾝ","cityKana":"ｺｳﾅﾝｼ","streetKana":"ｳｼﾛﾋﾎﾞﾁｮｳﾃﾞｼﾏ","prefecture":"愛知県","city":"江南市","street":"後飛保町出島"},{"zipCode":"4838385","prefectureKana":"ｱｲﾁｹﾝ","cityKana":"ｺｳﾅﾝｼ","streetKana":"ｳｼﾛﾋﾎﾞﾁｮｳﾅｶﾏﾁ","prefecture":"愛知県","city":"江南市","street":"後飛保町中町"},{"zipCode":"4838386","prefectureKana":"ｱｲﾁｹﾝ","cityKana":"ｺｳﾅﾝｼ","streetKana":"ｳｼﾛﾋﾎﾞﾁｮｳﾆｼﾏﾁ","prefecture":"愛知県","city":"江南市","street":"後飛保町西町"},{"zipCode":"4838344","prefectureKana":"ｱｲﾁｹﾝ","cityKana":"ｺｳﾅﾝｼ","streetKana":"ｳｼﾛﾋﾎﾞﾁｮｳﾋｶﾞｼﾀｶｾ","prefecture":"愛知県","city":"江南市","street":"後飛保町東高瀬"},{"zipCode":"4838346","prefectureKana":"ｱｲﾁｹﾝ","cityKana":"ｺｳﾅﾝｼ","streetKana":"ｳｼﾛﾋﾎﾞﾁｮｳﾋﾗﾉ","prefecture":"愛知県","city":"江南市","street":"後飛保町平野"},{"zipCode":"4838388","prefectureKana":"ｱｲﾁｹﾝ","cityKana":"ｺｳﾅﾝｼ","streetKana":"ｳｼﾛﾋﾎﾞﾁｮｳﾎﾝｺﾞｳ","prefecture":"愛知県","city":"江南市","street":"後飛保町本郷"},{"zipCode":"4838383","prefectureKana":"ｱｲﾁｹﾝ","cityKana":"ｺｳﾅﾝｼ","streetKana":"ｳｼﾛﾋﾎﾞﾁｮｳﾏｴｶﾜ","prefecture":"愛知県","city":"江南市","street":"後飛保町前川"},{"zipCode":"4838384","prefectureKana":"ｱｲﾁｹﾝ","cityKana":"ｺｳﾅﾝｼ","streetKana":"ｳｼﾛﾋﾎﾞﾁｮｳﾐﾔﾏｴ","prefecture":"愛知県","city":"江南市","street":"後飛保町宮前"},{"zipCode":"4838382","prefectureKana":"ｱｲﾁｹﾝ","cityKana":"ｺｳﾅﾝｼ","streetKana":"ｳｼﾛﾋﾎﾞﾁｮｳﾔｸｼ","prefecture":"愛知県","city":"江南市","street":"後飛保町薬師"},{"zipCode":"4838389","prefectureKana":"ｱｲﾁｹﾝ","cityKana":"ｺｳﾅﾝｼ","streetKana":"ｳｼﾛﾋﾎﾞﾁｮｳﾘｮｳｹ","prefecture":"愛知県","city":"江南市","street":"後飛保町両家"},{"zipCode":"4838041","prefectureKana":"ｱｲﾁｹﾝ","cityKana":"ｺｳﾅﾝｼ","streetKana":"ｴﾓﾘﾁｮｳｶﾐ","prefecture":"愛知県","city":"江南市","street":"江森町上"},{"zipCode":"4838048","prefectureKana":"ｱｲﾁｹﾝ","cityKana":"ｺｳﾅﾝｼ","streetKana":"ｴﾓﾘﾁｮｳﾅｶ","prefecture":"愛知県","city":"江南市","street":"江森町中"},{"zipCode":"4838042","prefectureKana":"ｱｲﾁｹﾝ","cityKana":"ｺｳﾅﾝｼ","streetKana":"ｴﾓﾘﾁｮｳﾋｶﾞｼ","prefecture":"愛知県","city":"江南市","street":"江森町東"},{"zipCode":"4838034","prefectureKana":"ｱｲﾁｹﾝ","cityKana":"ｺｳﾅﾝｼ","streetKana":"ｴﾓﾘﾁｮｳﾆｼ","prefecture":"愛知県","city":"江南市","street":"江森町西"},{"zipCode":"4838043","prefectureKana":"ｱｲﾁｹﾝ","cityKana":"ｺｳﾅﾝｼ","streetKana":"ｴﾓﾘﾁｮｳﾐﾅﾐ","prefecture":"愛知県","city":"江南市","street":"江森町南"},{"zipCode":"4838414","prefectureKana":"ｱｲﾁｹﾝ","cityKana":"ｺｳﾅﾝｼ","streetKana":"ｵｲﾘﾁｮｳｲｯｼｷ","prefecture":"愛知県","city":"江南市","street":"小杁町一色"},{"zipCode":"4838405","prefectureKana":"ｱｲﾁｹﾝ","cityKana":"ｺｳﾅﾝｼ","streetKana":"ｵｲﾘﾁｮｳｶﾓｶﾞｲｹ","prefecture":"愛知県","city":"江南市","street":"小杁町鴨ケ池"},{"zipCode":"4838409","prefectureKana":"ｱｲﾁｹﾝ","cityKana":"ｺｳﾅﾝｼ","streetKana":"ｵｲﾘﾁｮｳﾁｮｳｼﾞｬｹﾞﾆｼ","prefecture":"愛知県","city":"江南市","street":"小杁町長者毛西"},{"zipCode":"4838408","prefectureKana":"ｱｲﾁｹﾝ","cityKana":"ｺｳﾅﾝｼ","streetKana":"ｵｲﾘﾁｮｳﾁｮｳｼﾞｬｹﾞﾋｶﾞｼ","prefecture":"愛知県","city":"江南市","street":"小杁町長者毛東"},{"zipCode":"4838403","prefectureKana":"ｱｲﾁｹﾝ","cityKana":"ｺｳﾅﾝｼ","streetKana":"ｵｲﾘﾁｮｳﾁﾖﾐ","prefecture":"愛知県","city":"江南市","street":"小杁町千代見"},{"zipCode":"4838412","prefectureKana":"ｱｲﾁｹﾝ","cityKana":"ｺｳﾅﾝｼ","streetKana":"ｵｲﾘﾁｮｳﾃﾗﾉｳﾁ","prefecture":"愛知県","city":"江南市","street":"小杁町寺ノ内"},{"zipCode":"4838411","prefectureKana":"ｱｲﾁｹﾝ","cityKana":"ｺｳﾅﾝｼ","streetKana":"ｵｲﾘﾁｮｳﾊﾁﾏﾝ","prefecture":"愛知県","city":"江南市","street":"小杁町八幡"},{"zipCode":"4838404","prefectureKana":"ｱｲﾁｹﾝ","cityKana":"ｺｳﾅﾝｼ","streetKana":"ｵｲﾘﾁｮｳﾊﾔｼ","prefecture":"愛知県","city":"江南市","street":"小杁町林"},{"zipCode":"4838413","prefectureKana":"ｱｲﾁｹﾝ","cityKana":"ｺｳﾅﾝｼ","streetKana":"ｵｲﾘﾁｮｳﾎﾝｺﾞｳ","prefecture":"愛知県","city":"江南市","street":"小杁町本郷"},{"zipCode":"4838407","prefectureKana":"ｱｲﾁｹﾝ","cityKana":"ｺｳﾅﾝｼ","streetKana":"ｵｲﾘﾁｮｳﾐｮｳﾄﾞ","prefecture":"愛知県","city":"江南市","street":"小杁町明土"},{"zipCode":"4838187","prefectureKana":"ｱｲﾁｹﾝ","cityKana":"ｺｳﾅﾝｼ","streetKana":"ｵｵｶﾞｲﾄﾞｳﾁｮｳｱｵｷ","prefecture":"愛知県","city":"江南市","street":"大海道町青木"},{"zipCode":"4838185","prefectureKana":"ｱｲﾁｹﾝ","cityKana":"ｺｳﾅﾝｼ","streetKana":"ｵｵｶﾞｲﾄﾞｳﾁｮｳｼﾝﾒｲ","prefecture":"愛知県","city":"江南市","street":"大海道町神明"},{"zipCode":"4838186","prefectureKana":"ｱｲﾁｹﾝ","cityKana":"ｺｳﾅﾝｼ","streetKana":"ｵｵｶﾞｲﾄﾞｳﾁｮｳﾅｶｻﾄ","prefecture":"愛知県","city":"江南市","street":"大海道町中里"},{"zipCode":"4838251","prefectureKana":"ｱｲﾁｹﾝ","cityKana":"ｺｳﾅﾝｼ","streetKana":"ｵｵﾏﾁｮｳｼﾝﾏﾁ","prefecture":"愛知県","city":"江南市","street":"大間町新町"},{"zipCode":"4838252","prefectureKana":"ｱｲﾁｹﾝ","cityKana":"ｺｳﾅﾝｼ","streetKana":"ｵｵﾏﾁｮｳﾐﾅﾐｵｵﾏ","prefecture":"愛知県","city":"江南市","street":"大間町南大間"},{"zipCode":"4838135","prefectureKana":"ｱｲﾁｹﾝ","cityKana":"ｺｳﾅﾝｼ","streetKana":"ｵｺﾞｳﾁｮｳｱﾜﾀｷﾞ","prefecture":"愛知県","city":"江南市","street":"小郷町粟田木"},{"zipCode":"4838143","prefectureKana":"ｱｲﾁｹﾝ","cityKana":"ｺｳﾅﾝｼ","streetKana":"ｵｺﾞｳﾁｮｳｺﾞﾀﾞｲﾘｷ","prefecture":"愛知県","city":"江南市","street":"小郷町伍大力"},{"zipCode":"4838149","prefectureKana":"ｱｲﾁｹﾝ","cityKana":"ｺｳﾅﾝｼ","streetKana":"ｵｺﾞｳﾁｮｳﾃﾎﾉｷ","prefecture":"愛知県","city":"江南市","street":"小郷町手保ノ木"},{"zipCode":"4838145","prefectureKana":"ｱｲﾁｹﾝ","cityKana":"ｺｳﾅﾝｼ","streetKana":"ｵｺﾞｳﾁｮｳﾆｼﾉﾔﾏ","prefecture":"愛知県","city":"江南市","street":"小郷町西ノ山"},{"zipCode":"4838144","prefectureKana":"ｱｲﾁｹﾝ","cityKana":"ｺｳﾅﾝｼ","streetKana":"ｵｺﾞｳﾁｮｳﾗｸﾉﾔﾏ","prefecture":"愛知県","city":"江南市","street":"小郷町楽ノ山"},{"zipCode":"4838161","prefectureKana":"ｱｲﾁｹﾝ","cityKana":"ｺｳﾅﾝｼ","streetKana":"ｵｻｷﾁｮｳｳｴﾀﾞ","prefecture":"愛知県","city":"江南市","street":"尾崎町上田"},{"zipCode":"4838162","prefectureKana":"ｱｲﾁｹﾝ","cityKana":"ｺｳﾅﾝｼ","streetKana":"ｵｻｷﾁｮｳｶﾜﾊﾗ","prefecture":"愛知県","city":"江南市","street":"尾崎町河原"},{"zipCode":"4838173","prefectureKana":"ｱｲﾁｹﾝ","cityKana":"ｺｳﾅﾝｼ","streetKana":"ｵｻｷﾁｮｳｷﾘﾉ","prefecture":"愛知県","city":"江南市","street":"尾崎町桐野"},{"zipCode":"4838172","prefectureKana":"ｱｲﾁｹﾝ","cityKana":"ｺｳﾅﾝｼ","streetKana":"ｵｻｷﾁｮｳﾊｸｻﾝ","prefecture":"愛知県","city":"江南市","street":"尾崎町白山"},{"zipCode":"4838168","prefectureKana":"ｱｲﾁｹﾝ","cityKana":"ｺｳﾅﾝｼ","streetKana":"ｵｻｷﾁｮｳﾔｼｷ","prefecture":"愛知県","city":"江南市","street":"尾崎町屋敷"},{"zipCode":"4838171","prefectureKana":"ｱｲﾁｹﾝ","cityKana":"ｺｳﾅﾝｼ","streetKana":"ｵｻｷﾁｮｳﾜｶﾀｹ","prefecture":"愛知県","city":"江南市","street":"尾崎町若竹"},{"zipCode":"4838037","prefectureKana":"ｱｲﾁｹﾝ","cityKana":"ｺｳﾅﾝｼ","streetKana":"ｶﾂｻﾁｮｳ","prefecture":"愛知県","city":"江南市","street":"勝佐町"},{"zipCode":"4838008","prefectureKana":"ｱｲﾁｹﾝ","cityKana":"ｺｳﾅﾝｼ","streetKana":"ｶﾉｺｼﾞﾏﾁｮｳ","prefecture":"愛知県","city":"江南市","street":"鹿子島町"},{"zipCode":"4838259","prefectureKana":"ｱｲﾁｹﾝ","cityKana":"ｺｳﾅﾝｼ","streetKana":"ｶﾐﾅﾗﾁｮｳ(ｻｶｴ､ｱｻﾋ､ﾆｼｷ､ﾃﾝﾉｳ､ﾐﾄﾞﾘ)","prefecture":"愛知県","city":"江南市","street":"上奈良町（栄、旭、錦、天王、緑）"},{"zipCode":"4838257","prefectureKana":"ｱｲﾁｹﾝ","cityKana":"ｺｳﾅﾝｼ","streetKana":"ｶﾐﾅﾗﾁｮｳ(ｼﾝﾒｲ､ﾄﾖｻﾄ)","prefecture":"愛知県","city":"江南市","street":"上奈良町（神明、豊里）"},{"zipCode":"4838258","prefectureKana":"ｱｲﾁｹﾝ","cityKana":"ｺｳﾅﾝｼ","streetKana":"ｶﾐﾅﾗﾁｮｳ(ﾐｽﾞﾎ､ｶﾝﾉﾝｼﾞ､ｸﾎﾞ､ｺﾞｳ)","prefecture":"愛知県","city":"江南市","street":"上奈良町（瑞穂、観音寺、久保、郷）"},{"zipCode":"4838254","prefectureKana":"ｱｲﾁｹﾝ","cityKana":"ｺｳﾅﾝｼ","streetKana":"ｷｶﾞﾁｮｳｼﾝｶﾞｲ","prefecture":"愛知県","city":"江南市","street":"木賀町新開"},{"zipCode":"4838255","prefectureKana":"ｱｲﾁｹﾝ","cityKana":"ｺｳﾅﾝｼ","streetKana":"ｷｶﾞﾁｮｳｼﾞｮｳﾜ","prefecture":"愛知県","city":"江南市","street":"木賀町定和"},{"zipCode":"4838253","prefectureKana":"ｱｲﾁｹﾝ","cityKana":"ｺｳﾅﾝｼ","streetKana":"ｷｶﾞﾁｮｳｽｷﾞ","prefecture":"愛知県","city":"江南市","street":"木賀町杉"},{"zipCode":"4838233","prefectureKana":"ｱｲﾁｹﾝ","cityKana":"ｺｳﾅﾝｼ","streetKana":"ｷｶﾞﾁｮｳﾀﾞｲﾓﾝ","prefecture":"愛知県","city":"江南市","street":"木賀町大門"},{"zipCode":"4838163","prefectureKana":"ｱｲﾁｹﾝ","cityKana":"ｺｳﾅﾝｼ","streetKana":"ｷｶﾞﾋｶﾞｼﾁｮｳｼﾝｸﾞｳ","prefecture":"愛知県","city":"江南市","street":"木賀東町新宮"},{"zipCode":"4838164","prefectureKana":"ｱｲﾁｹﾝ","cityKana":"ｺｳﾅﾝｼ","streetKana":"ｷｶﾞﾋｶﾞｼﾁｮｳｼﾝﾂﾞｶ","prefecture":"愛知県","city":"江南市","street":"木賀東町新塚"},{"zipCode":"4838232","prefectureKana":"ｱｲﾁｹﾝ","cityKana":"ｺｳﾅﾝｼ","streetKana":"ｷｶﾞﾎﾝｺﾞｳﾁｮｳﾐﾄﾞﾘ","prefecture":"愛知県","city":"江南市","street":"木賀本郷町緑"},{"zipCode":"4838231","prefectureKana":"ｱｲﾁｹﾝ","cityKana":"ｺｳﾅﾝｼ","streetKana":"ｷｶﾞﾎﾝｺﾞｳﾁｮｳﾋｶﾞｼ","prefecture":"愛知県","city":"江南市","street":"木賀本郷町東"},{"zipCode":"4838239","prefectureKana":"ｱｲﾁｹﾝ","cityKana":"ｺｳﾅﾝｼ","streetKana":"ｷｶﾞﾎﾝｺﾞｳﾁｮｳﾆｼ","prefecture":"愛知県","city":"江南市","street":"木賀本郷町西"},{"zipCode":"4838238","prefectureKana":"ｱｲﾁｹﾝ","cityKana":"ｺｳﾅﾝｼ","streetKana":"ｷｶﾞﾎﾝｺﾞｳﾁｮｳﾐﾅﾐ","prefecture":"愛知県","city":"江南市","street":"木賀本郷町南"},{"zipCode":"4838176","prefectureKana":"ｱｲﾁｹﾝ","cityKana":"ｺｳﾅﾝｼ","streetKana":"ｷﾀﾉﾁｮｳ(ｱｻﾋ､ｺﾞｳｳﾗ)","prefecture":"愛知県","city":"江南市","street":"北野町（旭、郷浦）"},{"zipCode":"4838177","prefectureKana":"ｱｲﾁｹﾝ","cityKana":"ｺｳﾅﾝｼ","streetKana":"ｷﾀﾉﾁｮｳｶﾜｲｼ","prefecture":"愛知県","city":"江南市","street":"北野町川石"},{"zipCode":"4838174","prefectureKana":"ｱｲﾁｹﾝ","cityKana":"ｺｳﾅﾝｼ","streetKana":"ｷﾀﾉﾁｮｳｺﾏﾂ","prefecture":"愛知県","city":"江南市","street":"北野町小松"},{"zipCode":"4838175","prefectureKana":"ｱｲﾁｹﾝ","cityKana":"ｺｳﾅﾝｼ","streetKana":"ｷﾀﾉﾁｮｳﾃﾝｼﾞﾝ","prefecture":"愛知県","city":"江南市","street":"北野町天神"},{"zipCode":"4838153","prefectureKana":"ｱｲﾁｹﾝ","cityKana":"ｺｳﾅﾝｼ","streetKana":"ｷﾀﾔﾏﾁｮｳﾋｶﾞｼ","prefecture":"愛知県","city":"江南市","street":"北山町東"},{"zipCode":"4838157","prefectureKana":"ｱｲﾁｹﾝ","cityKana":"ｺｳﾅﾝｼ","streetKana":"ｷﾀﾔﾏﾁｮｳﾆｼ","prefecture":"愛知県","city":"江南市","street":"北山町西"},{"zipCode":"4838003","prefectureKana":"ｱｲﾁｹﾝ","cityKana":"ｺｳﾅﾝｼ","streetKana":"ｸｻｲﾁｮｳｵｵﾉ","prefecture":"愛知県","city":"江南市","street":"草井町大野"},{"zipCode":"4838006","prefectureKana":"ｱｲﾁｹﾝ","cityKana":"ｺｳﾅﾝｼ","streetKana":"ｸｻｲﾁｮｳﾅｶ","prefecture":"愛知県","city":"江南市","street":"草井町中"},{"zipCode":"4838071","prefectureKana":"ｱｲﾁｹﾝ","cityKana":"ｺｳﾅﾝｼ","streetKana":"ｸｻｲﾁｮｳﾅｶﾉ","prefecture":"愛知県","city":"江南市","street":"草井町中野"},{"zipCode":"4838004","prefectureKana":"ｱｲﾁｹﾝ","cityKana":"ｺｳﾅﾝｼ","streetKana":"ｸｻｲﾁｮｳﾐﾔﾋｶﾞｼ","prefecture":"愛知県","city":"江南市","street":"草井町宮東"},{"zipCode":"4838005","prefectureKana":"ｱｲﾁｹﾝ","cityKana":"ｺｳﾅﾝｼ","streetKana":"ｸｻｲﾁｮｳﾐﾔﾆｼ","prefecture":"愛知県","city":"江南市","street":"草井町宮西"},{"zipCode":"4838072","prefectureKana":"ｱｲﾁｹﾝ","cityKana":"ｺｳﾅﾝｼ","streetKana":"ｸｻｲﾁｮｳﾜｶｸｻ","prefecture":"愛知県","city":"江南市","street":"草井町若草"},{"zipCode":"4838007","prefectureKana":"ｱｲﾁｹﾝ","cityKana":"ｺｳﾅﾝｼ","streetKana":"ｸｻｲﾁｮｳﾆｼ","prefecture":"愛知県","city":"江南市","street":"草井町西"},{"zipCode":"4838077","prefectureKana":"ｱｲﾁｹﾝ","cityKana":"ｺｳﾅﾝｼ","streetKana":"ｸｻｲﾁｮｳ(ﾐﾅﾐ､ｻｶｷﾄﾞ､ﾁﾖﾐ)","prefecture":"愛知県","city":"江南市","street":"草井町（南、榊戸、千代見）"},{"zipCode":"4838365","prefectureKana":"ｱｲﾁｹﾝ","cityKana":"ｺｳﾅﾝｼ","streetKana":"ｺｳﾉﾁｮｳｲｯｼｷ","prefecture":"愛知県","city":"江南市","street":"河野町一色"},{"zipCode":"4838364","prefectureKana":"ｱｲﾁｹﾝ","cityKana":"ｺｳﾅﾝｼ","streetKana":"ｺｳﾉﾁｮｳｶﾜﾆｼ","prefecture":"愛知県","city":"江南市","street":"河野町川西"},{"zipCode":"4838366","prefectureKana":"ｱｲﾁｹﾝ","cityKana":"ｺｳﾅﾝｼ","streetKana":"ｺｳﾉﾁｮｳｶﾝﾁｸ","prefecture":"愛知県","city":"江南市","street":"河野町管竹"},{"zipCode":"4838369","prefectureKana":"ｱｲﾁｹﾝ","cityKana":"ｺｳﾅﾝｼ","streetKana":"ｺｳﾉﾁｮｳｺｳﾉ","prefecture":"愛知県","city":"江南市","street":"河野町河野"},{"zipCode":"4838363","prefectureKana":"ｱｲﾁｹﾝ","cityKana":"ｺｳﾅﾝｼ","streetKana":"ｺｳﾉﾁｮｳｺﾞｼﾞｯｹﾝ","prefecture":"愛知県","city":"江南市","street":"河野町五十間"},{"zipCode":"4838362","prefectureKana":"ｱｲﾁｹﾝ","cityKana":"ｺｳﾅﾝｼ","streetKana":"ｺｳﾉﾁｮｳｺﾜｷ","prefecture":"愛知県","city":"江南市","street":"河野町小脇"},{"zipCode":"4838136","prefectureKana":"ｱｲﾁｹﾝ","cityKana":"ｺｳﾅﾝｼ","streetKana":"ｺｵﾘﾁｮｳ(ｻｸﾓ)","prefecture":"愛知県","city":"江南市","street":"小折町（桜雲）"},{"zipCode":"4838137","prefectureKana":"ｱｲﾁｹﾝ","cityKana":"ｺｳﾅﾝｼ","streetKana":"ｺｵﾘﾁｮｳ(ﾊﾁﾘｭｳ)","prefecture":"愛知県","city":"江南市","street":"小折町（八竜）"},{"zipCode":"4838134","prefectureKana":"ｱｲﾁｹﾝ","cityKana":"ｺｳﾅﾝｼ","streetKana":"ｺｵﾘﾁｮｳ(ﾊﾁﾘｭｳﾆｼ)","prefecture":"愛知県","city":"江南市","street":"小折町（八竜西）"},{"zipCode":"4838131","prefectureKana":"ｱｲﾁｹﾝ","cityKana":"ｺｳﾅﾝｼ","streetKana":"ｺｵﾘﾁｮｳ(ﾊｯﾀﾝﾊﾞﾀ)","prefecture":"愛知県","city":"江南市","street":"小折町（八反畑）"},{"zipCode":"4838125","prefectureKana":"ｱｲﾁｹﾝ","cityKana":"ｺｳﾅﾝｼ","streetKana":"ｺｵﾘﾋｶﾞｼﾏﾁｱｻﾋ","prefecture":"愛知県","city":"江南市","street":"小折東町旭"},{"zipCode":"4838127","prefectureKana":"ｱｲﾁｹﾝ","cityKana":"ｺｳﾅﾝｼ","streetKana":"ｺｵﾘﾎﾝﾏﾁｺﾏﾂﾊﾞﾗ","prefecture":"愛知県","city":"江南市","street":"小折本町小松原"},{"zipCode":"4838126","prefectureKana":"ｱｲﾁｹﾝ","cityKana":"ｺｳﾅﾝｼ","streetKana":"ｺｵﾘﾎﾝﾏﾁｻｶｴ","prefecture":"愛知県","city":"江南市","street":"小折本町栄"},{"zipCode":"4838124","prefectureKana":"ｱｲﾁｹﾝ","cityKana":"ｺｳﾅﾝｼ","streetKana":"ｺｵﾘﾎﾝﾏﾁﾊｸｻﾝ","prefecture":"愛知県","city":"江南市","street":"小折本町白山"},{"zipCode":"4838128","prefectureKana":"ｱｲﾁｹﾝ","cityKana":"ｺｳﾅﾝｼ","streetKana":"ｺｵﾘﾎﾝﾏﾁﾔﾅｷﾞﾊﾞｼ","prefecture":"愛知県","city":"江南市","street":"小折本町柳橋"},{"zipCode":"4838213","prefectureKana":"ｱｲﾁｹﾝ","cityKana":"ｺｳﾅﾝｼ","streetKana":"ｺﾁﾉﾁｮｳｱｻﾋ","prefecture":"愛知県","city":"江南市","street":"古知野町朝日"},{"zipCode":"4838207","prefectureKana":"ｱｲﾁｹﾝ","cityKana":"ｺｳﾅﾝｼ","streetKana":"ｺﾁﾉﾁｮｳｱﾂﾀ","prefecture":"愛知県","city":"江南市","street":"古知野町熱田"},{"zipCode":"4838272","prefectureKana":"ｱｲﾁｹﾝ","cityKana":"ｺｳﾅﾝｼ","streetKana":"ｺﾁﾉﾁｮｳｷﾀﾔｼｷ","prefecture":"愛知県","city":"江南市","street":"古知野町北屋敷"},{"zipCode":"4838275","prefectureKana":"ｱｲﾁｹﾝ","cityKana":"ｺｳﾅﾝｼ","streetKana":"ｺﾁﾉﾁｮｳｸﾎﾞﾐ","prefecture":"愛知県","city":"江南市","street":"古知野町久保見"},{"zipCode":"4838205","prefectureKana":"ｱｲﾁｹﾝ","cityKana":"ｺｳﾅﾝｼ","streetKana":"ｺﾁﾉﾁｮｳｺｶﾞﾈ","prefecture":"愛知県","city":"江南市","street":"古知野町小金"},{"zipCode":"4838211","prefectureKana":"ｱｲﾁｹﾝ","cityKana":"ｺｳﾅﾝｼ","streetKana":"ｺﾁﾉﾁｮｳｽｷﾞﾔﾏ","prefecture":"愛知県","city":"江南市","street":"古知野町杉山"},{"zipCode":"4838206","prefectureKana":"ｱｲﾁｹﾝ","cityKana":"ｺｳﾅﾝｼ","streetKana":"ｺﾁﾉﾁｮｳｾﾝﾏﾙ","prefecture":"愛知県","city":"江南市","street":"古知野町千丸"},{"zipCode":"4838331","prefectureKana":"ｱｲﾁｹﾝ","cityKana":"ｺｳﾅﾝｼ","streetKana":"ｺﾁﾉﾁｮｳﾀｶｾ","prefecture":"愛知県","city":"江南市","street":"古知野町高瀬"},{"zipCode":"4838215","prefectureKana":"ｱｲﾁｹﾝ","cityKana":"ｺｳﾅﾝｼ","streetKana":"ｺﾁﾉﾁｮｳﾀﾞｲﾄｳ","prefecture":"愛知県","city":"江南市","street":"古知野町大塔"},{"zipCode":"4838271","prefectureKana":"ｱｲﾁｹﾝ","cityKana":"ｺｳﾅﾝｼ","streetKana":"ｺﾁﾉﾁｮｳﾄｳｹﾞﾝ","prefecture":"愛知県","city":"江南市","street":"古知野町桃源"},{"zipCode":"4838216","prefectureKana":"ｱｲﾁｹﾝ","cityKana":"ｺｳﾅﾝｼ","streetKana":"ｺﾁﾉﾁｮｳﾄｳﾂﾞｶ","prefecture":"愛知県","city":"江南市","street":"古知野町塔塚"},{"zipCode":"4838208","prefectureKana":"ｱｲﾁｹﾝ","cityKana":"ｺｳﾅﾝｼ","streetKana":"ｺﾁﾉﾁｮｳﾊﾅｶﾞｽﾐ","prefecture":"愛知県","city":"江南市","street":"古知野町花霞"},{"zipCode":"4838214","prefectureKana":"ｱｲﾁｹﾝ","cityKana":"ｺｳﾅﾝｼ","streetKana":"ｺﾁﾉﾁｮｳﾋﾉﾃﾞ","prefecture":"愛知県","city":"江南市","street":"古知野町日の出"},{"zipCode":"4838274","prefectureKana":"ｱｲﾁｹﾝ","cityKana":"ｺｳﾅﾝｼ","streetKana":"ｺﾁﾉﾁｮｳﾋﾛﾐ","prefecture":"愛知県","city":"江南市","street":"古知野町広見"},{"zipCode":"4838277","prefectureKana":"ｱｲﾁｹﾝ","cityKana":"ｺｳﾅﾝｼ","streetKana":"ｺﾁﾉﾁｮｳﾌｸｼﾞｭ","prefecture":"愛知県","city":"江南市","street":"古知野町福寿"},{"zipCode":"4838217","prefectureKana":"ｱｲﾁｹﾝ","cityKana":"ｺｳﾅﾝｼ","streetKana":"ｺﾁﾉﾁｮｳﾌﾙﾜﾀﾘ","prefecture":"愛知県","city":"江南市","street":"古知野町古渡"},{"zipCode":"4838273","prefectureKana":"ｱｲﾁｹﾝ","cityKana":"ｺｳﾅﾝｼ","streetKana":"ｺﾁﾉﾁｮｳﾎﾝｺﾞｳ","prefecture":"愛知県","city":"江南市","street":"古知野町本郷"},{"zipCode":"4838278","prefectureKana":"ｱｲﾁｹﾝ","cityKana":"ｺｳﾅﾝｼ","streetKana":"ｺﾁﾉﾁｮｳﾏｷﾓﾘ","prefecture":"愛知県","city":"江南市","street":"古知野町牧森"},{"zipCode":"4838212","prefectureKana":"ｱｲﾁｹﾝ","cityKana":"ｺｳﾅﾝｼ","streetKana":"ｺﾁﾉﾁｮｳﾐｽﾞﾎ","prefecture":"愛知県","city":"江南市","street":"古知野町瑞穂"},{"zipCode":"4838279","prefectureKana":"ｱｲﾁｹﾝ","cityKana":"ｺｳﾅﾝｼ","streetKana":"ｺﾁﾉﾁｮｳﾐﾔｳﾗ","prefecture":"愛知県","city":"江南市","street":"古知野町宮裏"},{"zipCode":"4838276","prefectureKana":"ｱｲﾁｹﾝ","cityKana":"ｺｳﾅﾝｼ","streetKana":"ｺﾁﾉﾁｮｳﾐﾔﾏｴ","prefecture":"愛知県","city":"江南市","street":"古知野町宮前"},{"zipCode":"4838241","prefectureKana":"ｱｲﾁｹﾝ","cityKana":"ｺｳﾅﾝｼ","streetKana":"ｺﾞﾐｮｳﾁｮｳｱｵｷ","prefecture":"愛知県","city":"江南市","street":"五明町青木"},{"zipCode":"4838243","prefectureKana":"ｱｲﾁｹﾝ","cityKana":"ｺｳﾅﾝｼ","streetKana":"ｺﾞﾐｮｳﾁｮｳｲｼﾊﾞｼ","prefecture":"愛知県","city":"江南市","street":"五明町石橋"},{"zipCode":"4838247","prefectureKana":"ｱｲﾁｹﾝ","cityKana":"ｺｳﾅﾝｼ","streetKana":"ｺﾞﾐｮｳﾁｮｳﾀｲｼﾄﾞｳ","prefecture":"愛知県","city":"江南市","street":"五明町太子堂"},{"zipCode":"4838244","prefectureKana":"ｱｲﾁｹﾝ","cityKana":"ｺｳﾅﾝｼ","streetKana":"ｺﾞﾐｮｳﾁｮｳﾀｶｽ","prefecture":"愛知県","city":"江南市","street":"五明町高砂"},{"zipCode":"4838245","prefectureKana":"ｱｲﾁｹﾝ","cityKana":"ｺｳﾅﾝｼ","streetKana":"ｺﾞﾐｮｳﾁｮｳﾀﾞｲｾﾞﾝ","prefecture":"愛知県","city":"江南市","street":"五明町大膳"},{"zipCode":"4838248","prefectureKana":"ｱｲﾁｹﾝ","cityKana":"ｺｳﾅﾝｼ","streetKana":"ｺﾞﾐｮｳﾁｮｳﾃﾝﾉｳ","prefecture":"愛知県","city":"江南市","street":"五明町天王"},{"zipCode":"4838249","prefectureKana":"ｱｲﾁｹﾝ","cityKana":"ｺｳﾅﾝｼ","streetKana":"ｺﾞﾐｮｳﾁｮｳﾄｳｺｳﾁ","prefecture":"愛知県","city":"江南市","street":"五明町当光地"},{"zipCode":"4838242","prefectureKana":"ｱｲﾁｹﾝ","cityKana":"ｺｳﾅﾝｼ","streetKana":"ｺﾞﾐｮｳﾁｮｳﾈﾊﾞ","prefecture":"愛知県","city":"江南市","street":"五明町根場"},{"zipCode":"4838246","prefectureKana":"ｱｲﾁｹﾝ","cityKana":"ｺｳﾅﾝｼ","streetKana":"ｺﾞﾐｮｳﾁｮｳﾌｸﾓﾘ","prefecture":"愛知県","city":"江南市","street":"五明町福森"},{"zipCode":"4838406","prefectureKana":"ｱｲﾁｹﾝ","cityKana":"ｺｳﾅﾝｼ","streetKana":"ｺﾜｷﾁｮｳｺﾜｷ","prefecture":"愛知県","city":"江南市","street":"小脇町小脇"},{"zipCode":"4838055","prefectureKana":"ｱｲﾁｹﾝ","cityKana":"ｺｳﾅﾝｼ","streetKana":"ｻﾝﾉｳﾁｮｳ","prefecture":"愛知県","city":"江南市","street":"山王町"},{"zipCode":"4838401","prefectureKana":"ｱｲﾁｹﾝ","cityKana":"ｺｳﾅﾝｼ","streetKana":"ｼﾞｺｳﾄﾞｳﾁｮｳｷﾀ","prefecture":"愛知県","city":"江南市","street":"慈光堂町北"},{"zipCode":"4838402","prefectureKana":"ｱｲﾁｹﾝ","cityKana":"ｺｳﾅﾝｼ","streetKana":"ｼﾞｺｳﾄﾞｳﾁｮｳﾐﾅﾐ","prefecture":"愛知県","city":"江南市","street":"慈光堂町南"},{"zipCode":"4838263","prefectureKana":"ｱｲﾁｹﾝ","cityKana":"ｺｳﾅﾝｼ","streetKana":"ｼﾏﾐﾔﾁｮｳｷﾘﾉ","prefecture":"愛知県","city":"江南市","street":"島宮町桐野"},{"zipCode":"4838267","prefectureKana":"ｱｲﾁｹﾝ","cityKana":"ｺｳﾅﾝｼ","streetKana":"ｼﾏﾐﾔﾁｮｳｺﾞｳﾅｲ","prefecture":"愛知県","city":"江南市","street":"島宮町郷内"},{"zipCode":"4838264","prefectureKana":"ｱｲﾁｹﾝ","cityKana":"ｺｳﾅﾝｼ","streetKana":"ｼﾏﾐﾔﾁｮｳｼﾛ","prefecture":"愛知県","city":"江南市","street":"島宮町城"},{"zipCode":"4838269","prefectureKana":"ｱｲﾁｹﾝ","cityKana":"ｺｳﾅﾝｼ","streetKana":"ｼﾏﾐﾔﾁｮｳｼﾞｭﾝｹﾝ","prefecture":"愛知県","city":"江南市","street":"島宮町巡見"},{"zipCode":"4838266","prefectureKana":"ｱｲﾁｹﾝ","cityKana":"ｺｳﾅﾝｼ","streetKana":"ｼﾏﾐﾔﾁｮｳﾆｼﾉﾐﾔ","prefecture":"愛知県","city":"江南市","street":"島宮町西之宮"},{"zipCode":"4838268","prefectureKana":"ｱｲﾁｹﾝ","cityKana":"ｺｳﾅﾝｼ","streetKana":"ｼﾏﾐﾔﾁｮｳﾐｽﾞﾎﾘ","prefecture":"愛知県","city":"江南市","street":"島宮町水堀"},{"zipCode":"4838262","prefectureKana":"ｱｲﾁｹﾝ","cityKana":"ｺｳﾅﾝｼ","streetKana":"ｼﾏﾐﾔﾁｮｳﾖｼﾊﾗ","prefecture":"愛知県","city":"江南市","street":"島宮町吉原"},{"zipCode":"4838265","prefectureKana":"ｱｲﾁｹﾝ","cityKana":"ｺｳﾅﾝｼ","streetKana":"ｼﾏﾐﾔﾁｮｳﾖｯｶｲﾁﾊﾞ","prefecture":"愛知県","city":"江南市","street":"島宮町四日市場"},{"zipCode":"4838123","prefectureKana":"ｱｲﾁｹﾝ","cityKana":"ｺｳﾅﾝｼ","streetKana":"ｿﾓﾄﾁｮｳｵｻﾅｶﾞﾜｿﾞｴ","prefecture":"愛知県","city":"江南市","street":"曽本町幼川添"},{"zipCode":"4838121","prefectureKana":"ｱｲﾁｹﾝ","cityKana":"ｺｳﾅﾝｼ","streetKana":"ｿﾓﾄﾁｮｳﾌﾀｺﾞ","prefecture":"愛知県","city":"江南市","street":"曽本町二子"},{"zipCode":"4838122","prefectureKana":"ｱｲﾁｹﾝ","cityKana":"ｺｳﾅﾝｼ","streetKana":"ｿﾓﾄﾁｮｳﾌﾀｺﾞﾏｴ","prefecture":"愛知県","city":"江南市","street":"曽本町二子前"},{"zipCode":"4838065","prefectureKana":"ｱｲﾁｹﾝ","cityKana":"ｺｳﾅﾝｼ","streetKana":"ﾀｶﾔﾁｮｳｱｻﾋ","prefecture":"愛知県","city":"江南市","street":"高屋町旭"},{"zipCode":"4838088","prefectureKana":"ｱｲﾁｹﾝ","cityKana":"ｺｳﾅﾝｼ","streetKana":"ﾀｶﾔﾁｮｳｳｼﾛﾔﾏ","prefecture":"愛知県","city":"江南市","street":"高屋町後山"},{"zipCode":"4838086","prefectureKana":"ｱｲﾁｹﾝ","cityKana":"ｺｳﾅﾝｼ","streetKana":"ﾀｶﾔﾁｮｳｵｵﾏﾂﾊﾞﾗ","prefecture":"愛知県","city":"江南市","street":"高屋町大松原"},{"zipCode":"4838084","prefectureKana":"ｱｲﾁｹﾝ","cityKana":"ｺｳﾅﾝｼ","streetKana":"ﾀｶﾔﾁｮｳｵﾋﾂﾞｶ","prefecture":"愛知県","city":"江南市","street":"高屋町御日塚"},{"zipCode":"4838081","prefectureKana":"ｱｲﾁｹﾝ","cityKana":"ｺｳﾅﾝｼ","streetKana":"ﾀｶﾔﾁｮｳｶﾐﾎﾝｺﾞｳ","prefecture":"愛知県","city":"江南市","street":"高屋町上本郷"},{"zipCode":"4838087","prefectureKana":"ｱｲﾁｹﾝ","cityKana":"ｺｳﾅﾝｼ","streetKana":"ﾀｶﾔﾁｮｳｷﾀｶﾞﾐ","prefecture":"愛知県","city":"江南市","street":"高屋町北上"},{"zipCode":"4838062","prefectureKana":"ｱｲﾁｹﾝ","cityKana":"ｺｳﾅﾝｼ","streetKana":"ﾀｶﾔﾁｮｳｺﾞｳﾄﾞ","prefecture":"愛知県","city":"江南市","street":"高屋町神戸"},{"zipCode":"4838061","prefectureKana":"ｱｲﾁｹﾝ","cityKana":"ｺｳﾅﾝｼ","streetKana":"ﾀｶﾔﾁｮｳｼﾐｽﾞ","prefecture":"愛知県","city":"江南市","street":"高屋町清水"},{"zipCode":"4838064","prefectureKana":"ｱｲﾁｹﾝ","cityKana":"ｺｳﾅﾝｼ","streetKana":"ﾀｶﾔﾁｮｳｼﾞｭｳﾛｸﾃﾞﾝ","prefecture":"愛知県","city":"江南市","street":"高屋町十六田"},{"zipCode":"4838047","prefectureKana":"ｱｲﾁｹﾝ","cityKana":"ｺｳﾅﾝｼ","streetKana":"ﾀｶﾔﾁｮｳﾀﾞｲｼ","prefecture":"愛知県","city":"江南市","street":"高屋町大師"},{"zipCode":"4838035","prefectureKana":"ｱｲﾁｹﾝ","cityKana":"ｺｳﾅﾝｼ","streetKana":"ﾀｶﾔﾁｮｳﾀﾞｲﾓﾝ","prefecture":"愛知県","city":"江南市","street":"高屋町大門"},{"zipCode":"4838045","prefectureKana":"ｱｲﾁｹﾝ","cityKana":"ｺｳﾅﾝｼ","streetKana":"ﾀｶﾔﾁｮｳﾄｳﾊﾞ","prefecture":"愛知県","city":"江南市","street":"高屋町遠場"},{"zipCode":"4838083","prefectureKana":"ｱｲﾁｹﾝ","cityKana":"ｺｳﾅﾝｼ","streetKana":"ﾀｶﾔﾁｮｳﾅｶﾔｼｷ","prefecture":"愛知県","city":"江南市","street":"高屋町中屋舗"},{"zipCode":"4838085","prefectureKana":"ｱｲﾁｹﾝ","cityKana":"ｺｳﾅﾝｼ","streetKana":"ﾀｶﾔﾁｮｳﾆｼｻﾄ","prefecture":"愛知県","city":"江南市","street":"高屋町西里"},{"zipCode":"4838066","prefectureKana":"ｱｲﾁｹﾝ","cityKana":"ｺｳﾅﾝｼ","streetKana":"ﾀｶﾔﾁｮｳﾆｼﾏﾁ","prefecture":"愛知県","city":"江南市","street":"高屋町西町"},{"zipCode":"4838063","prefectureKana":"ｱｲﾁｹﾝ","cityKana":"ｺｳﾅﾝｼ","streetKana":"ﾀｶﾔﾁｮｳﾊﾁﾏﾝ","prefecture":"愛知県","city":"江南市","street":"高屋町八幡"},{"zipCode":"4838046","prefectureKana":"ｱｲﾁｹﾝ","cityKana":"ｺｳﾅﾝｼ","streetKana":"ﾀｶﾔﾁｮｳﾊﾅﾄﾞ","prefecture":"愛知県","city":"江南市","street":"高屋町花戸"},{"zipCode":"4838082","prefectureKana":"ｱｲﾁｹﾝ","cityKana":"ｺｳﾅﾝｼ","streetKana":"ﾀｶﾔﾁｮｳﾎﾝｺﾞｳ","prefecture":"愛知県","city":"江南市","street":"高屋町本郷"},{"zipCode":"4838138","prefectureKana":"ｱｲﾁｹﾝ","cityKana":"ｺｳﾅﾝｼ","streetKana":"ﾀｼﾛﾁｮｳｺﾞｳﾅｶ","prefecture":"愛知県","city":"江南市","street":"田代町郷中"},{"zipCode":"4838133","prefectureKana":"ｱｲﾁｹﾝ","cityKana":"ｺｳﾅﾝｼ","streetKana":"ﾀｼﾛﾁｮｳﾆｼﾉﾏﾙ","prefecture":"愛知県","city":"江南市","street":"田代町西ノ丸"},{"zipCode":"4838132","prefectureKana":"ｱｲﾁｹﾝ","cityKana":"ｺｳﾅﾝｼ","streetKana":"ﾀｼﾛﾁｮｳﾐﾅﾐﾃﾞ","prefecture":"愛知県","city":"江南市","street":"田代町南出"},{"zipCode":"4838114","prefectureKana":"ｱｲﾁｹﾝ","cityKana":"ｺｳﾅﾝｼ","streetKana":"ﾃﾝﾉｳﾁｮｳｺﾏﾉ","prefecture":"愛知県","city":"江南市","street":"天王町駒野"},{"zipCode":"4838113","prefectureKana":"ｱｲﾁｹﾝ","cityKana":"ｺｳﾅﾝｼ","streetKana":"ﾃﾝﾉｳﾁｮｳｺﾞﾀﾝﾊﾞﾔｼ","prefecture":"愛知県","city":"江南市","street":"天王町五反林"},{"zipCode":"4838256","prefectureKana":"ｱｲﾁｹﾝ","cityKana":"ｺｳﾅﾝｼ","streetKana":"ﾅｶﾅﾗﾁｮｳ","prefecture":"愛知県","city":"江南市","street":"中奈良町"},{"zipCode":"4838001","prefectureKana":"ｱｲﾁｹﾝ","cityKana":"ｺｳﾅﾝｼ","streetKana":"ﾅｶﾊﾝﾆｬﾁｮｳﾋｶﾞｼ","prefecture":"愛知県","city":"江南市","street":"中般若町東"},{"zipCode":"4838002","prefectureKana":"ｱｲﾁｹﾝ","cityKana":"ｺｳﾅﾝｼ","streetKana":"ﾅｶﾊﾝﾆｬﾁｮｳﾆｼ","prefecture":"愛知県","city":"江南市","street":"中般若町西"},{"zipCode":"4838003","prefectureKana":"ｱｲﾁｹﾝ","cityKana":"ｺｳﾅﾝｼ","streetKana":"ﾅｶﾊﾝﾆｬﾁｮｳ(ｶﾜﾊﾞﾀ､ｷﾀｳﾗ)","prefecture":"愛知県","city":"江南市","street":"中般若町（川端、北浦）"},{"zipCode":"4838203","prefectureKana":"ｱｲﾁｹﾝ","cityKana":"ｺｳﾅﾝｼ","streetKana":"ﾉﾊﾞｸﾁｮｳﾆｼｾﾝﾏﾙ","prefecture":"愛知県","city":"江南市","street":"野白町西千丸"},{"zipCode":"4838202","prefectureKana":"ｱｲﾁｹﾝ","cityKana":"ｺｳﾅﾝｼ","streetKana":"ﾉﾊﾞｸﾁｮｳﾉﾊﾞｸ","prefecture":"愛知県","city":"江南市","street":"野白町野白"},{"zipCode":"4838204","prefectureKana":"ｱｲﾁｹﾝ","cityKana":"ｺｳﾅﾝｼ","streetKana":"ﾉﾊﾞｸﾁｮｳﾋｶﾞｼｾﾝﾏﾙ","prefecture":"愛知県","city":"江南市","street":"野白町東千丸"},{"zipCode":"4838201","prefectureKana":"ｱｲﾁｹﾝ","cityKana":"ｺｳﾅﾝｼ","streetKana":"ﾉﾊﾞｸﾁｮｳﾖｼﾊﾞ","prefecture":"愛知県","city":"江南市","street":"野白町葭場"},{"zipCode":"4838018","prefectureKana":"ｱｲﾁｹﾝ","cityKana":"ｺｳﾅﾝｼ","streetKana":"ﾊﾝﾆｬﾁｮｳﾅｶﾔﾏ","prefecture":"愛知県","city":"江南市","street":"般若町中山"},{"zipCode":"4838017","prefectureKana":"ｱｲﾁｹﾝ","cityKana":"ｺｳﾅﾝｼ","streetKana":"ﾊﾝﾆｬﾁｮｳﾏｴﾔﾏ","prefecture":"愛知県","city":"江南市","street":"般若町前山"},{"zipCode":"4838012","prefectureKana":"ｱｲﾁｹﾝ","cityKana":"ｺｳﾅﾝｼ","streetKana":"ﾊﾝﾆｬﾁｮｳﾋｶﾞｼﾔﾏ","prefecture":"愛知県","city":"江南市","street":"般若町東山"},{"zipCode":"4838013","prefectureKana":"ｱｲﾁｹﾝ","cityKana":"ｺｳﾅﾝｼ","streetKana":"ﾊﾝﾆｬﾁｮｳﾐﾅﾐﾔﾏ","prefecture":"愛知県","city":"江南市","street":"般若町南山"},{"zipCode":"4838011","prefectureKana":"ｱｲﾁｹﾝ","cityKana":"ｺｳﾅﾝｼ","streetKana":"ﾊﾝﾆｬﾁｮｳﾐﾔﾔﾏ","prefecture":"愛知県","city":"江南市","street":"般若町宮山"},{"zipCode":"4838433","prefectureKana":"ｱｲﾁｹﾝ","cityKana":"ｺｳﾅﾝｼ","streetKana":"ﾋｶﾞｼﾉﾁｮｳｲﾜﾐ","prefecture":"愛知県","city":"江南市","street":"東野町岩見"},{"zipCode":"4838415","prefectureKana":"ｱｲﾁｹﾝ","cityKana":"ｺｳﾅﾝｼ","streetKana":"ﾋｶﾞｼﾉﾁｮｳｶﾈｲﾘﾔﾏ","prefecture":"愛知県","city":"江南市","street":"東野町鐘鋳山"},{"zipCode":"4838422","prefectureKana":"ｱｲﾁｹﾝ","cityKana":"ｺｳﾅﾝｼ","streetKana":"ﾋｶﾞｼﾉﾁｮｳｶﾐｱｹﾞ","prefecture":"愛知県","city":"江南市","street":"東野町神上"},{"zipCode":"4838417","prefectureKana":"ｱｲﾁｹﾝ","cityKana":"ｺｳﾅﾝｼ","streetKana":"ﾋｶﾞｼﾉﾁｮｳｶﾗｽﾓﾘ","prefecture":"愛知県","city":"江南市","street":"東野町烏森"},{"zipCode":"4838426","prefectureKana":"ｱｲﾁｹﾝ","cityKana":"ｺｳﾅﾝｼ","streetKana":"ﾋｶﾞｼﾉﾁｮｳｶﾜﾗ","prefecture":"愛知県","city":"江南市","street":"東野町河原"},{"zipCode":"4838425","prefectureKana":"ｱｲﾁｹﾝ","cityKana":"ｺｳﾅﾝｼ","streetKana":"ﾋｶﾞｼﾉﾁｮｳｺｳﾄﾞ","prefecture":"愛知県","city":"江南市","street":"東野町河戸"},{"zipCode":"4838418","prefectureKana":"ｱｲﾁｹﾝ","cityKana":"ｺｳﾅﾝｼ","streetKana":"ﾋｶﾞｼﾉﾁｮｳｺﾒﾉ","prefecture":"愛知県","city":"江南市","street":"東野町米野"},{"zipCode":"4838421","prefectureKana":"ｱｲﾁｹﾝ","cityKana":"ｺｳﾅﾝｼ","streetKana":"ﾋｶﾞｼﾉﾁｮｳｺﾞｳﾏｴ","prefecture":"愛知県","city":"江南市","street":"東野町郷前"},{"zipCode":"4838423","prefectureKana":"ｱｲﾁｹﾝ","cityKana":"ｺｳﾅﾝｼ","streetKana":"ﾋｶﾞｼﾉﾁｮｳｺﾞｳﾏｴﾆｼ","prefecture":"愛知県","city":"江南市","street":"東野町郷前西"},{"zipCode":"4838427","prefectureKana":"ｱｲﾁｹﾝ","cityKana":"ｺｳﾅﾝｼ","streetKana":"ﾋｶﾞｼﾉﾁｮｳｼﾝﾃﾞﾝ","prefecture":"愛知県","city":"江南市","street":"東野町新田"},{"zipCode":"4838428","prefectureKana":"ｱｲﾁｹﾝ","cityKana":"ｺｳﾅﾝｼ","streetKana":"ﾋｶﾞｼﾉﾁｮｳｼﾝﾃﾞﾝﾋｶﾞｼ","prefecture":"愛知県","city":"江南市","street":"東野町新田東"},{"zipCode":"4838431","prefectureKana":"ｱｲﾁｹﾝ","cityKana":"ｺｳﾅﾝｼ","streetKana":"ﾋｶﾞｼﾉﾁｮｳｼﾞﾝﾃﾞﾝ","prefecture":"愛知県","city":"江南市","street":"東野町神田"},{"zipCode":"4838416","prefectureKana":"ｱｲﾁｹﾝ","cityKana":"ｺｳﾅﾝｼ","streetKana":"ﾋｶﾞｼﾉﾁｮｳﾁｮｳﾊﾞﾝｼﾞ","prefecture":"愛知県","city":"江南市","street":"東野町長幡寺"},{"zipCode":"4838419","prefectureKana":"ｱｲﾁｹﾝ","cityKana":"ｺｳﾅﾝｼ","streetKana":"ﾋｶﾞｼﾉﾁｮｳﾅﾅｼｬｸﾞｳ","prefecture":"愛知県","city":"江南市","street":"東野町七社宮"},{"zipCode":"4838429","prefectureKana":"ｱｲﾁｹﾝ","cityKana":"ｺｳﾅﾝｼ","streetKana":"ﾋｶﾞｼﾉﾁｮｳﾆｼｼﾞﾝﾃﾞﾝ","prefecture":"愛知県","city":"江南市","street":"東野町西神田"},{"zipCode":"4838424","prefectureKana":"ｱｲﾁｹﾝ","cityKana":"ｺｳﾅﾝｼ","streetKana":"ﾋｶﾞｼﾉﾁｮｳﾆｼﾃﾞ","prefecture":"愛知県","city":"江南市","street":"東野町西出"},{"zipCode":"4838432","prefectureKana":"ｱｲﾁｹﾝ","cityKana":"ｺｳﾅﾝｼ","streetKana":"ﾋｶﾞｼﾉﾁｮｳﾋｶﾞｼｼﾞﾝﾃﾞﾝ","prefecture":"愛知県","city":"江南市","street":"東野町東神田"},{"zipCode":"4838333","prefectureKana":"ｱｲﾁｹﾝ","cityKana":"ｺｳﾅﾝｼ","streetKana":"ﾋﾀﾞｶﾁｮｳｲｽﾞﾐ","prefecture":"愛知県","city":"江南市","street":"飛高町泉"},{"zipCode":"4838332","prefectureKana":"ｱｲﾁｹﾝ","cityKana":"ｺｳﾅﾝｼ","streetKana":"ﾋﾀﾞｶﾁｮｳｶﾄﾞﾉ","prefecture":"愛知県","city":"江南市","street":"飛高町門野"},{"zipCode":"4838067","prefectureKana":"ｱｲﾁｹﾝ","cityKana":"ｺｳﾅﾝｼ","streetKana":"ﾋﾀﾞｶﾁｮｳﾅｶﾏﾁ","prefecture":"愛知県","city":"江南市","street":"飛高町中町"},{"zipCode":"4838339","prefectureKana":"ｱｲﾁｹﾝ","cityKana":"ｺｳﾅﾝｼ","streetKana":"ﾋﾀﾞｶﾁｮｳ(ﾌﾐｿﾞｴ､ｻｶｴ)","prefecture":"愛知県","city":"江南市","street":"飛高町（夫見添、栄）"},{"zipCode":"4838068","prefectureKana":"ｱｲﾁｹﾝ","cityKana":"ｺｳﾅﾝｼ","streetKana":"ﾋﾀﾞｶﾁｮｳﾎﾝﾏﾁ","prefecture":"愛知県","city":"江南市","street":"飛高町本町"},{"zipCode":"4838069","prefectureKana":"ｱｲﾁｹﾝ","cityKana":"ｺｳﾅﾝｼ","streetKana":"ﾋﾀﾞｶﾁｮｳﾐﾔﾏﾁ","prefecture":"愛知県","city":"江南市","street":"飛高町宮町"},{"zipCode":"4838337","prefectureKana":"ｱｲﾁｹﾝ","cityKana":"ｺｳﾅﾝｼ","streetKana":"ﾌｼﾞｶﾞｵｶ","prefecture":"愛知県","city":"江南市","street":"藤ケ丘"},{"zipCode":"4838142","prefectureKana":"ｱｲﾁｹﾝ","cityKana":"ｺｳﾅﾝｼ","streetKana":"ﾎﾃｲｼﾓﾔﾏﾁｮｳﾋｶﾞｼ","prefecture":"愛知県","city":"江南市","street":"布袋下山町東"},{"zipCode":"4838146","prefectureKana":"ｱｲﾁｹﾝ","cityKana":"ｺｳﾅﾝｼ","streetKana":"ﾎﾃｲｼﾓﾔﾏﾁｮｳﾆｼ","prefecture":"愛知県","city":"江南市","street":"布袋下山町西"},{"zipCode":"4838148","prefectureKana":"ｱｲﾁｹﾝ","cityKana":"ｺｳﾅﾝｼ","streetKana":"ﾎﾃｲｼﾓﾔﾏﾁｮｳﾐﾅﾐ","prefecture":"愛知県","city":"江南市","street":"布袋下山町南"},{"zipCode":"4838147","prefectureKana":"ｱｲﾁｹﾝ","cityKana":"ｺｳﾅﾝｼ","streetKana":"ﾎﾃｲｼﾓﾔﾏﾁｮｳｷﾀ","prefecture":"愛知県","city":"江南市","street":"布袋下山町北"},{"zipCode":"4838235","prefectureKana":"ｱｲﾁｹﾝ","cityKana":"ｺｳﾅﾝｼ","streetKana":"ﾎﾃｲﾁｮｳﾅｶ","prefecture":"愛知県","city":"江南市","street":"布袋町中"},{"zipCode":"4838141","prefectureKana":"ｱｲﾁｹﾝ","cityKana":"ｺｳﾅﾝｼ","streetKana":"ﾎﾃｲﾁｮｳﾆｼﾎ","prefecture":"愛知県","city":"江南市","street":"布袋町西布"},{"zipCode":"4838158","prefectureKana":"ｱｲﾁｹﾝ","cityKana":"ｺｳﾅﾝｼ","streetKana":"ﾎﾃｲﾁｮｳﾋｶﾞｼ","prefecture":"愛知県","city":"江南市","street":"布袋町東"},{"zipCode":"4838237","prefectureKana":"ｱｲﾁｹﾝ","cityKana":"ｺｳﾅﾝｼ","streetKana":"ﾎﾃｲﾁｮｳﾆｼ","prefecture":"愛知県","city":"江南市","street":"布袋町西"},{"zipCode":"4838236","prefectureKana":"ｱｲﾁｹﾝ","cityKana":"ｺｳﾅﾝｼ","streetKana":"ﾎﾃｲﾁｮｳﾐﾅﾐ","prefecture":"愛知県","city":"江南市","street":"布袋町南"},{"zipCode":"4838234","prefectureKana":"ｱｲﾁｹﾝ","cityKana":"ｺｳﾅﾝｼ","streetKana":"ﾎﾃｲﾁｮｳｷﾀ","prefecture":"愛知県","city":"江南市","street":"布袋町北"},{"zipCode":"4838057","prefectureKana":"ｱｲﾁｹﾝ","cityKana":"ｺｳﾅﾝｼ","streetKana":"ﾏｴﾉﾁｮｳｼﾝﾃﾞﾝ","prefecture":"愛知県","city":"江南市","street":"前野町新田"},{"zipCode":"4838051","prefectureKana":"ｱｲﾁｹﾝ","cityKana":"ｺｳﾅﾝｼ","streetKana":"ﾏｴﾉﾁｮｳｼﾝﾃﾞﾝｷﾀ","prefecture":"愛知県","city":"江南市","street":"前野町新田北"},{"zipCode":"4838053","prefectureKana":"ｱｲﾁｹﾝ","cityKana":"ｺｳﾅﾝｼ","streetKana":"ﾏｴﾉﾁｮｳﾀｶｼﾏ","prefecture":"愛知県","city":"江南市","street":"前野町高島"},{"zipCode":"4838052","prefectureKana":"ｱｲﾁｹﾝ","cityKana":"ｺｳﾅﾝｼ","streetKana":"ﾏｴﾉﾁｮｳﾋｶﾞｼ","prefecture":"愛知県","city":"江南市","street":"前野町東"},{"zipCode":"4838058","prefectureKana":"ｱｲﾁｹﾝ","cityKana":"ｺｳﾅﾝｼ","streetKana":"ﾏｴﾉﾁｮｳﾆｼ","prefecture":"愛知県","city":"江南市","street":"前野町西"},{"zipCode":"4838054","prefectureKana":"ｱｲﾁｹﾝ","cityKana":"ｺｳﾅﾝｼ","streetKana":"ﾏｴﾉﾁｮｳﾐﾅﾐ","prefecture":"愛知県","city":"江南市","street":"前野町南"},{"zipCode":"4838348","prefectureKana":"ｱｲﾁｹﾝ","cityKana":"ｺｳﾅﾝｼ","streetKana":"ﾏｴﾋﾎﾞﾁｮｳｶﾜﾊﾗ","prefecture":"愛知県","city":"江南市","street":"前飛保町河原"},{"zipCode":"4838341","prefectureKana":"ｱｲﾁｹﾝ","cityKana":"ｺｳﾅﾝｼ","streetKana":"ﾏｴﾋﾎﾞﾁｮｳｻｶｴ","prefecture":"愛知県","city":"江南市","street":"前飛保町栄"},{"zipCode":"4838335","prefectureKana":"ｱｲﾁｹﾝ","cityKana":"ｺｳﾅﾝｼ","streetKana":"ﾏｴﾋﾎﾞﾁｮｳﾃﾗﾏｴ","prefecture":"愛知県","city":"江南市","street":"前飛保町寺前"},{"zipCode":"4838336","prefectureKana":"ｱｲﾁｹﾝ","cityKana":"ｺｳﾅﾝｼ","streetKana":"ﾏｴﾋﾎﾞﾁｮｳﾃﾗﾏﾁ","prefecture":"愛知県","city":"江南市","street":"前飛保町寺町"},{"zipCode":"4838349","prefectureKana":"ｱｲﾁｹﾝ","cityKana":"ｺｳﾅﾝｼ","streetKana":"ﾏｴﾋﾎﾞﾁｮｳﾆｼﾏﾁ","prefecture":"愛知県","city":"江南市","street":"前飛保町西町"},{"zipCode":"4838338","prefectureKana":"ｱｲﾁｹﾝ","cityKana":"ｺｳﾅﾝｼ","streetKana":"ﾏｴﾋﾎﾞﾁｮｳﾌｼﾞﾏﾁ","prefecture":"愛知県","city":"江南市","street":"前飛保町藤町"},{"zipCode":"4838334","prefectureKana":"ｱｲﾁｹﾝ","cityKana":"ｺｳﾅﾝｼ","streetKana":"ﾏｴﾋﾎﾞﾁｮｳﾐﾄﾞﾘｶﾞｵｶ","prefecture":"愛知県","city":"江南市","street":"前飛保町緑ケ丘"},{"zipCode":"4838342","prefectureKana":"ｱｲﾁｹﾝ","cityKana":"ｺｳﾅﾝｼ","streetKana":"ﾏﾂﾀｹﾁｮｳｶﾐﾉ","prefecture":"愛知県","city":"江南市","street":"松竹町上野"},{"zipCode":"4838351","prefectureKana":"ｱｲﾁｹﾝ","cityKana":"ｺｳﾅﾝｼ","streetKana":"ﾏﾂﾀｹﾁｮｳｷﾘﾉ","prefecture":"愛知県","city":"江南市","street":"松竹町切野"},{"zipCode":"4838343","prefectureKana":"ｱｲﾁｹﾝ","cityKana":"ｺｳﾅﾝｼ","streetKana":"ﾏﾂﾀｹﾁｮｳｺﾒﾉ","prefecture":"愛知県","city":"江南市","street":"松竹町米野"},{"zipCode":"4838358","prefectureKana":"ｱｲﾁｹﾝ","cityKana":"ｺｳﾅﾝｼ","streetKana":"ﾏﾂﾀｹﾁｮｳｺﾞｳｳﾗ","prefecture":"愛知県","city":"江南市","street":"松竹町郷浦"},{"zipCode":"4838352","prefectureKana":"ｱｲﾁｹﾝ","cityKana":"ｺｳﾅﾝｼ","streetKana":"ﾏﾂﾀｹﾁｮｳﾀｶﾔﾏ","prefecture":"愛知県","city":"江南市","street":"松竹町高山"},{"zipCode":"4838356","prefectureKana":"ｱｲﾁｹﾝ","cityKana":"ｺｳﾅﾝｼ","streetKana":"ﾏﾂﾀｹﾁｮｳﾆｼﾏﾂﾀｹ","prefecture":"愛知県","city":"江南市","street":"松竹町西松竹"},{"zipCode":"4838354","prefectureKana":"ｱｲﾁｹﾝ","cityKana":"ｺｳﾅﾝｼ","streetKana":"ﾏﾂﾀｹﾁｮｳﾊﾁﾏﾝ","prefecture":"愛知県","city":"江南市","street":"松竹町八幡"},{"zipCode":"4838359","prefectureKana":"ｱｲﾁｹﾝ","cityKana":"ｺｳﾅﾝｼ","streetKana":"ﾏﾂﾀｹﾁｮｳﾋｶﾞｼｾｺ","prefecture":"愛知県","city":"江南市","street":"松竹町東瀬古"},{"zipCode":"4838355","prefectureKana":"ｱｲﾁｹﾝ","cityKana":"ｺｳﾅﾝｼ","streetKana":"ﾏﾂﾀｹﾁｮｳﾆｼｾｺ","prefecture":"愛知県","city":"江南市","street":"松竹町西瀬古"},{"zipCode":"4838357","prefectureKana":"ｱｲﾁｹﾝ","cityKana":"ｺｳﾅﾝｼ","streetKana":"ﾏﾂﾀｹﾁｮｳﾑｶｲｼﾞﾏ","prefecture":"愛知県","city":"江南市","street":"松竹町向島"},{"zipCode":"4838353","prefectureKana":"ｱｲﾁｹﾝ","cityKana":"ｺｳﾅﾝｼ","streetKana":"ﾏﾂﾀｹﾁｮｳﾓﾄﾔｼｷ","prefecture":"愛知県","city":"江南市","street":"松竹町元屋敷"},{"zipCode":"4838155","prefectureKana":"ｱｲﾁｹﾝ","cityKana":"ｺｳﾅﾝｼ","streetKana":"ﾐﾅﾐﾔﾏﾁｮｳﾅｶ","prefecture":"愛知県","city":"江南市","street":"南山町中"},{"zipCode":"4838154","prefectureKana":"ｱｲﾁｹﾝ","cityKana":"ｺｳﾅﾝｼ","streetKana":"ﾐﾅﾐﾔﾏﾁｮｳﾋｶﾞｼ","prefecture":"愛知県","city":"江南市","street":"南山町東"},{"zipCode":"4838156","prefectureKana":"ｱｲﾁｹﾝ","cityKana":"ｺｳﾅﾝｼ","streetKana":"ﾐﾅﾐﾔﾏﾁｮｳﾆｼ","prefecture":"愛知県","city":"江南市","street":"南山町西"},{"zipCode":"4838044","prefectureKana":"ｱｲﾁｹﾝ","cityKana":"ｺｳﾅﾝｼ","streetKana":"ﾐﾔｳｼﾛﾁｮｳ","prefecture":"愛知県","city":"江南市","street":"宮後町"},{"zipCode":"4838056","prefectureKana":"ｱｲﾁｹﾝ","cityKana":"ｺｳﾅﾝｼ","streetKana":"ﾐﾔｳｼﾛﾁｮｳｼﾐｽﾞ","prefecture":"愛知県","city":"江南市","street":"宮後町清水"},{"zipCode":"4838303","prefectureKana":"ｱｲﾁｹﾝ","cityKana":"ｺｳﾅﾝｼ","streetKana":"ﾐﾔﾀｼﾝﾒｲﾁｮｳｱｻﾋ","prefecture":"愛知県","city":"江南市","street":"宮田神明町旭"},{"zipCode":"4838308","prefectureKana":"ｱｲﾁｹﾝ","cityKana":"ｺｳﾅﾝｼ","streetKana":"ﾐﾔﾀｼﾝﾒｲﾁｮｳｶｽｶﾞ","prefecture":"愛知県","city":"江南市","street":"宮田神明町春日"},{"zipCode":"4838304","prefectureKana":"ｱｲﾁｹﾝ","cityKana":"ｺｳﾅﾝｼ","streetKana":"ﾐﾔﾀｼﾝﾒｲﾁｮｳｻｶｴ","prefecture":"愛知県","city":"江南市","street":"宮田神明町栄"},{"zipCode":"4838302","prefectureKana":"ｱｲﾁｹﾝ","cityKana":"ｺｳﾅﾝｼ","streetKana":"ﾐﾔﾀｼﾝﾒｲﾁｮｳﾃﾝﾉｳ","prefecture":"愛知県","city":"江南市","street":"宮田神明町天王"},{"zipCode":"4838301","prefectureKana":"ｱｲﾁｹﾝ","cityKana":"ｺｳﾅﾝｼ","streetKana":"ﾐﾔﾀｼﾝﾒｲﾁｮｳﾐﾄﾞﾘ","prefecture":"愛知県","city":"江南市","street":"宮田神明町緑"},{"zipCode":"4838375","prefectureKana":"ｱｲﾁｹﾝ","cityKana":"ｺｳﾅﾝｼ","streetKana":"ﾐﾔﾀﾁｮｳｲｽﾞﾐ","prefecture":"愛知県","city":"江南市","street":"宮田町泉"},{"zipCode":"4838371","prefectureKana":"ｱｲﾁｹﾝ","cityKana":"ｺｳﾅﾝｼ","streetKana":"ﾐﾔﾀﾁｮｳｶﾜﾇﾏ","prefecture":"愛知県","city":"江南市","street":"宮田町河沼"},{"zipCode":"4838374","prefectureKana":"ｱｲﾁｹﾝ","cityKana":"ｺｳﾅﾝｼ","streetKana":"ﾐﾔﾀﾁｮｳｸﾎﾞﾐ","prefecture":"愛知県","city":"江南市","street":"宮田町久保見"},{"zipCode":"4838373","prefectureKana":"ｱｲﾁｹﾝ","cityKana":"ｺｳﾅﾝｼ","streetKana":"ﾐﾔﾀﾁｮｳｼｮｳﾌﾞｲｹ","prefecture":"愛知県","city":"江南市","street":"宮田町菖蒲池"},{"zipCode":"4838307","prefectureKana":"ｱｲﾁｹﾝ","cityKana":"ｺｳﾅﾝｼ","streetKana":"ﾐﾔﾀﾁｮｳｼﾝﾃﾞﾝ","prefecture":"愛知県","city":"江南市","street":"宮田町新田"},{"zipCode":"4838306","prefectureKana":"ｱｲﾁｹﾝ","cityKana":"ｺｳﾅﾝｼ","streetKana":"ﾐﾔﾀﾁｮｳﾅｶｼﾞﾏ","prefecture":"愛知県","city":"江南市","street":"宮田町中島"},{"zipCode":"4838305","prefectureKana":"ｱｲﾁｹﾝ","cityKana":"ｺｳﾅﾝｼ","streetKana":"ﾐﾔﾀﾁｮｳﾊｲﾊﾞﾗ","prefecture":"愛知県","city":"江南市","street":"宮田町生原"},{"zipCode":"4838376","prefectureKana":"ｱｲﾁｹﾝ","cityKana":"ｺｳﾅﾝｼ","streetKana":"ﾐﾔﾀﾁｮｳﾌｼﾞﾉﾓﾘ","prefecture":"愛知県","city":"江南市","street":"宮田町藤ノ森"},{"zipCode":"4838361","prefectureKana":"ｱｲﾁｹﾝ","cityKana":"ｺｳﾅﾝｼ","streetKana":"ﾐﾔﾀﾁｮｳﾍｲﾜ","prefecture":"愛知県","city":"江南市","street":"宮田町平和"},{"zipCode":"4838379","prefectureKana":"ｱｲﾁｹﾝ","cityKana":"ｺｳﾅﾝｼ","streetKana":"ﾐﾔﾀﾁｮｳﾎﾝｺﾞｳ","prefecture":"愛知県","city":"江南市","street":"宮田町本郷"},{"zipCode":"4838377","prefectureKana":"ｱｲﾁｹﾝ","cityKana":"ｺｳﾅﾝｼ","streetKana":"ﾐﾔﾀﾁｮｳﾎﾝﾀﾞｼﾞﾏ","prefecture":"愛知県","city":"江南市","street":"宮田町本田島"},{"zipCode":"4838367","prefectureKana":"ｱｲﾁｹﾝ","cityKana":"ｺｳﾅﾝｼ","streetKana":"ﾐﾔﾀﾁｮｳﾐﾅﾐﾉ","prefecture":"愛知県","city":"江南市","street":"宮田町南野"},{"zipCode":"4838368","prefectureKana":"ｱｲﾁｹﾝ","cityKana":"ｺｳﾅﾝｼ","streetKana":"ﾐﾔﾀﾁｮｳﾐﾅﾐﾉﾋｶﾞｼ","prefecture":"愛知県","city":"江南市","street":"宮田町南野東"},{"zipCode":"4838372","prefectureKana":"ｱｲﾁｹﾝ","cityKana":"ｺｳﾅﾝｼ","streetKana":"ﾐﾔﾀﾁｮｳﾐﾔﾋｶﾞｼ","prefecture":"愛知県","city":"江南市","street":"宮田町宮東"},{"zipCode":"4838378","prefectureKana":"ｱｲﾁｹﾝ","cityKana":"ｺｳﾅﾝｼ","streetKana":"ﾐﾔﾀﾁｮｳﾖﾂﾔ","prefecture":"愛知県","city":"江南市","street":"宮田町四ツ谷"},{"zipCode":"4838076","prefectureKana":"ｱｲﾁｹﾝ","cityKana":"ｺｳﾅﾝｼ","streetKana":"ﾑﾗｸﾉﾁｮｳｳｴﾊﾗ","prefecture":"愛知県","city":"江南市","street":"村久野町上原"},{"zipCode":"4838312","prefectureKana":"ｱｲﾁｹﾝ","cityKana":"ｺｳﾅﾝｼ","streetKana":"ﾑﾗｸﾉﾁｮｳｶﾅﾓﾘ","prefecture":"愛知県","city":"江南市","street":"村久野町金森"},{"zipCode":"4838316","prefectureKana":"ｱｲﾁｹﾝ","cityKana":"ｺｳﾅﾝｼ","streetKana":"ﾑﾗｸﾉﾁｮｳｶﾜﾄﾞ","prefecture":"愛知県","city":"江南市","street":"村久野町河戸"},{"zipCode":"4838311","prefectureKana":"ｱｲﾁｹﾝ","cityKana":"ｺｳﾅﾝｼ","streetKana":"ﾑﾗｸﾉﾁｮｳｸｺﾞｳ","prefecture":"愛知県","city":"江南市","street":"村久野町九郷"},{"zipCode":"4838328","prefectureKana":"ｱｲﾁｹﾝ","cityKana":"ｺｳﾅﾝｼ","streetKana":"ﾑﾗｸﾉﾁｮｳｽｽﾞﾐﾁ","prefecture":"愛知県","city":"江南市","street":"村久野町鈴道"},{"zipCode":"4838321","prefectureKana":"ｱｲﾁｹﾝ","cityKana":"ｺｳﾅﾝｼ","streetKana":"ﾑﾗｸﾉﾁｮｳｾｶﾞｼﾗ","prefecture":"愛知県","city":"江南市","street":"村久野町瀬頭"},{"zipCode":"4838315","prefectureKana":"ｱｲﾁｹﾝ","cityKana":"ｺｳﾅﾝｼ","streetKana":"ﾑﾗｸﾉﾁｮｳﾀﾞｲﾓﾝ","prefecture":"愛知県","city":"江南市","street":"村久野町大門"},{"zipCode":"4838314","prefectureKana":"ｱｲﾁｹﾝ","cityKana":"ｺｳﾅﾝｼ","streetKana":"ﾑﾗｸﾉﾁｮｳﾃﾗﾏﾁ","prefecture":"愛知県","city":"江南市","street":"村久野町寺町"},{"zipCode":"4838319","prefectureKana":"ｱｲﾁｹﾝ","cityKana":"ｺｳﾅﾝｼ","streetKana":"ﾑﾗｸﾉﾁｮｳﾃﾗﾋｶﾞｼ","prefecture":"愛知県","city":"江南市","street":"村久野町寺東"},{"zipCode":"4838322","prefectureKana":"ｱｲﾁｹﾝ","cityKana":"ｺｳﾅﾝｼ","streetKana":"ﾑﾗｸﾉﾁｮｳﾄﾘﾂｷ","prefecture":"愛知県","city":"江南市","street":"村久野町鳥附"},{"zipCode":"4838313","prefectureKana":"ｱｲﾁｹﾝ","cityKana":"ｺｳﾅﾝｼ","streetKana":"ﾑﾗｸﾉﾁｮｳﾅｶｺﾞｳ","prefecture":"愛知県","city":"江南市","street":"村久野町中郷"},{"zipCode":"4838326","prefectureKana":"ｱｲﾁｹﾝ","cityKana":"ｺｳﾅﾝｼ","streetKana":"ﾑﾗｸﾉﾁｮｳﾅｶﾊﾗ","prefecture":"愛知県","city":"江南市","street":"村久野町仲原"},{"zipCode":"4838075","prefectureKana":"ｱｲﾁｹﾝ","cityKana":"ｺｳﾅﾝｼ","streetKana":"ﾑﾗｸﾉﾁｮｳﾋﾗｶﾜ","prefecture":"愛知県","city":"江南市","street":"村久野町平河"},{"zipCode":"4838327","prefectureKana":"ｱｲﾁｹﾝ","cityKana":"ｺｳﾅﾝｼ","streetKana":"ﾑﾗｸﾉﾁｮｳﾋﾗﾉ","prefecture":"愛知県","city":"江南市","street":"村久野町平野"},{"zipCode":"4838074","prefectureKana":"ｱｲﾁｹﾝ","cityKana":"ｺｳﾅﾝｼ","streetKana":"ﾑﾗｸﾉﾁｮｳﾋﾗﾏﾂ","prefecture":"愛知県","city":"江南市","street":"村久野町平松"},{"zipCode":"4838317","prefectureKana":"ｱｲﾁｹﾝ","cityKana":"ｺｳﾅﾝｼ","streetKana":"ﾑﾗｸﾉﾁｮｳﾌｼﾞｻﾄ","prefecture":"愛知県","city":"江南市","street":"村久野町藤里"},{"zipCode":"4838325","prefectureKana":"ｱｲﾁｹﾝ","cityKana":"ｺｳﾅﾝｼ","streetKana":"ﾑﾗｸﾉﾁｮｳﾌｼﾞﾂﾞｶ","prefecture":"愛知県","city":"江南市","street":"村久野町冨士塚"},{"zipCode":"4838324","prefectureKana":"ｱｲﾁｹﾝ","cityKana":"ｺｳﾅﾝｼ","streetKana":"ﾑﾗｸﾉﾁｮｳﾐﾅﾐﾀﾞｲﾓﾝ","prefecture":"愛知県","city":"江南市","street":"村久野町南大門"},{"zipCode":"4838318","prefectureKana":"ｱｲﾁｹﾝ","cityKana":"ｺｳﾅﾝｼ","streetKana":"ﾑﾗｸﾉﾁｮｳﾐﾔﾃﾞ","prefecture":"愛知県","city":"江南市","street":"村久野町宮出"},{"zipCode":"4838323","prefectureKana":"ｱｲﾁｹﾝ","cityKana":"ｺｳﾅﾝｼ","streetKana":"ﾑﾗｸﾉﾁｮｳﾓﾝﾃｲﾔﾏ","prefecture":"愛知県","city":"江南市","street":"村久野町門弟山"},{"zipCode":"4838112","prefectureKana":"ｱｲﾁｹﾝ","cityKana":"ｺｳﾅﾝｼ","streetKana":"ﾔｽﾗﾁｮｳｲｹｼﾞﾘ","prefecture":"愛知県","city":"江南市","street":"安良町池尻"},{"zipCode":"4838117","prefectureKana":"ｱｲﾁｹﾝ","cityKana":"ｺｳﾅﾝｼ","streetKana":"ﾔｽﾗﾁｮｳｶﾐｺﾞｳ","prefecture":"愛知県","city":"江南市","street":"安良町上郷"},{"zipCode":"4838118","prefectureKana":"ｱｲﾁｹﾝ","cityKana":"ｺｳﾅﾝｼ","streetKana":"ﾔｽﾗﾁｮｳｺﾞｳﾅｶ","prefecture":"愛知県","city":"江南市","street":"安良町郷中"},{"zipCode":"4838111","prefectureKana":"ｱｲﾁｹﾝ","cityKana":"ｺｳﾅﾝｼ","streetKana":"ﾔｽﾗﾁｮｳｼﾞｿﾞｳ","prefecture":"愛知県","city":"江南市","street":"安良町地蔵"},{"zipCode":"4838116","prefectureKana":"ｱｲﾁｹﾝ","cityKana":"ｺｳﾅﾝｼ","streetKana":"ﾔｽﾗﾁｮｳﾊﾁｵｳｼﾞ","prefecture":"愛知県","city":"江南市","street":"安良町八王子"},{"zipCode":"4838115","prefectureKana":"ｱｲﾁｹﾝ","cityKana":"ｺｳﾅﾝｼ","streetKana":"ﾔｽﾗﾁｮｳﾐﾔﾏｴ","prefecture":"愛知県","city":"江南市","street":"安良町宮前"},{"zipCode":"4838031","prefectureKana":"ｱｲﾁｹﾝ","cityKana":"ｺｳﾅﾝｼ","streetKana":"ﾔﾏｼﾞﾘﾁｮｳｱｻﾋ","prefecture":"愛知県","city":"江南市","street":"山尻町朝日"},{"zipCode":"4838032","prefectureKana":"ｱｲﾁｹﾝ","cityKana":"ｺｳﾅﾝｼ","streetKana":"ﾔﾏｼﾞﾘﾁｮｳｵｵｸﾜ","prefecture":"愛知県","city":"江南市","street":"山尻町大桑"},{"zipCode":"4838033","prefectureKana":"ｱｲﾁｹﾝ","cityKana":"ｺｳﾅﾝｼ","streetKana":"ﾔﾏｼﾞﾘﾁｮｳｶﾜﾊﾞﾀ","prefecture":"愛知県","city":"江南市","street":"山尻町川端"},{"zipCode":"4838038","prefectureKana":"ｱｲﾁｹﾝ","cityKana":"ｺｳﾅﾝｼ","streetKana":"ﾔﾏｼﾞﾘﾁｮｳﾎﾝﾏﾙ","prefecture":"愛知県","city":"江南市","street":"山尻町本丸"},{"zipCode":"4838036","prefectureKana":"ｱｲﾁｹﾝ","cityKana":"ｺｳﾅﾝｼ","streetKana":"ﾔﾏｼﾞﾘﾁｮｳﾎﾝﾏﾙﾆｼ","prefecture":"愛知県","city":"江南市","street":"山尻町本丸西"},{"zipCode":"4838159","prefectureKana":"ｱｲﾁｹﾝ","cityKana":"ｺｳﾅﾝｼ","streetKana":"ﾖﾘｷﾁｮｳｱｷﾊﾞ","prefecture":"愛知県","city":"江南市","street":"寄木町秋葉"},{"zipCode":"4838152","prefectureKana":"ｱｲﾁｹﾝ","cityKana":"ｺｳﾅﾝｼ","streetKana":"ﾖﾘｷﾁｮｳｲﾅｷ","prefecture":"愛知県","city":"江南市","street":"寄木町稲木"},{"zipCode":"4838184","prefectureKana":"ｱｲﾁｹﾝ","cityKana":"ｺｳﾅﾝｼ","streetKana":"ﾖﾘｷﾁｮｳﾃﾝﾄﾞｳ","prefecture":"愛知県","city":"江南市","street":"寄木町天道"},{"zipCode":"4838151","prefectureKana":"ｱｲﾁｹﾝ","cityKana":"ｺｳﾅﾝｼ","streetKana":"ﾖﾘｷﾁｮｳﾊｸｻﾝ","prefecture":"愛知県","city":"江南市","street":"寄木町白山"},{"zipCode":"4838109","prefectureKana":"ｱｲﾁｹﾝ","cityKana":"ｺｳﾅﾝｼ","streetKana":"ﾘｷﾅｶﾞﾁｮｳｶﾐﾃﾞ","prefecture":"愛知県","city":"江南市","street":"力長町神出"},{"zipCode":"4838101","prefectureKana":"ｱｲﾁｹﾝ","cityKana":"ｺｳﾅﾝｼ","streetKana":"ﾘｷﾅｶﾞﾁｮｳｶﾝｵﾝｼﾞ","prefecture":"愛知県","city":"江南市","street":"力長町観音寺"},{"zipCode":"4838105","prefectureKana":"ｱｲﾁｹﾝ","cityKana":"ｺｳﾅﾝｼ","streetKana":"ﾘｷﾅｶﾞﾁｮｳｼｬｸﾞｳｼﾞ","prefecture":"愛知県","city":"江南市","street":"力長町社宮司"},{"zipCode":"4838108","prefectureKana":"ｱｲﾁｹﾝ","cityKana":"ｺｳﾅﾝｼ","streetKana":"ﾘｷﾅｶﾞﾁｮｳｼﾝﾒｲ","prefecture":"愛知県","city":"江南市","street":"力長町神明"},{"zipCode":"4838104","prefectureKana":"ｱｲﾁｹﾝ","cityKana":"ｺｳﾅﾝｼ","streetKana":"ﾘｷﾅｶﾞﾁｮｳﾀﾞｲﾄｳｼﾞ","prefecture":"愛知県","city":"江南市","street":"力長町大当寺"},{"zipCode":"4838103","prefectureKana":"ｱｲﾁｹﾝ","cityKana":"ｺｳﾅﾝｼ","streetKana":"ﾘｷﾅｶﾞﾁｮｳﾐﾔﾏｴ","prefecture":"愛知県","city":"江南市","street":"力長町宮前"},{"zipCode":"4838102","prefectureKana":"ｱｲﾁｹﾝ","cityKana":"ｺｳﾅﾝｼ","streetKana":"ﾘｷﾅｶﾞﾁｮｳﾜｶﾐﾔ","prefecture":"愛知県","city":"江南市","street":"力長町若宮"},{"zipCode":"4838022","prefectureKana":"ｱｲﾁｹﾝ","cityKana":"ｺｳﾅﾝｼ","streetKana":"ﾜﾀﾞﾁｮｳｱｻﾋ","prefecture":"愛知県","city":"江南市","street":"和田町旭"},{"zipCode":"4838014","prefectureKana":"ｱｲﾁｹﾝ","cityKana":"ｺｳﾅﾝｼ","streetKana":"ﾜﾀﾞﾁｮｳｶﾜﾋｶﾞｼ","prefecture":"愛知県","city":"江南市","street":"和田町川東"},{"zipCode":"4838021","prefectureKana":"ｱｲﾁｹﾝ","cityKana":"ｺｳﾅﾝｼ","streetKana":"ﾜﾀﾞﾁｮｳｺｼﾞﾏ","prefecture":"愛知県","city":"江南市","street":"和田町小島"},{"zipCode":"4838029","prefectureKana":"ｱｲﾁｹﾝ","cityKana":"ｺｳﾅﾝｼ","streetKana":"ﾜﾀﾞﾁｮｳｻｶｴ","prefecture":"愛知県","city":"江南市","street":"和田町栄"},{"zipCode":"4838024","prefectureKana":"ｱｲﾁｹﾝ","cityKana":"ｺｳﾅﾝｼ","streetKana":"ﾜﾀﾞﾁｮｳﾃﾝｼﾞﾝ","prefecture":"愛知県","city":"江南市","street":"和田町天神"},{"zipCode":"4838028","prefectureKana":"ｱｲﾁｹﾝ","cityKana":"ｺｳﾅﾝｼ","streetKana":"ﾜﾀﾞﾁｮｳﾅｶ","prefecture":"愛知県","city":"江南市","street":"和田町中"},{"zipCode":"4838015","prefectureKana":"ｱｲﾁｹﾝ","cityKana":"ｺｳﾅﾝｼ","streetKana":"ﾜﾀﾞﾁｮｳﾅｶｼﾞﾏ","prefecture":"愛知県","city":"江南市","street":"和田町中島"},{"zipCode":"4838026","prefectureKana":"ｱｲﾁｹﾝ","cityKana":"ｺｳﾅﾝｼ","streetKana":"ﾜﾀﾞﾁｮｳﾅｶﾊﾀ","prefecture":"愛知県","city":"江南市","street":"和田町中畑"},{"zipCode":"4838016","prefectureKana":"ｱｲﾁｹﾝ","cityKana":"ｺｳﾅﾝｼ","streetKana":"ﾜﾀﾞﾁｮｳﾆｼｼﾞﾏ","prefecture":"愛知県","city":"江南市","street":"和田町西島"},{"zipCode":"4838023","prefectureKana":"ｱｲﾁｹﾝ","cityKana":"ｺｳﾅﾝｼ","streetKana":"ﾜﾀﾞﾁｮｳﾌﾀｺﾞ","prefecture":"愛知県","city":"江南市","street":"和田町二タ子"},{"zipCode":"4838027","prefectureKana":"ｱｲﾁｹﾝ","cityKana":"ｺｳﾅﾝｼ","streetKana":"ﾜﾀﾞﾁｮｳﾎﾝｺﾞｳ","prefecture":"愛知県","city":"江南市","street":"和田町本郷"},{"zipCode":"4838025","prefectureKana":"ｱｲﾁｹﾝ","cityKana":"ｺｳﾅﾝｼ","streetKana":"ﾜﾀﾞﾁｮｳﾐﾔ","prefecture":"愛知県","city":"江南市","street":"和田町宮"}]