[{"zipCode":"4840000","prefectureKana":"ｱｲﾁｹﾝ","cityKana":"ｲﾇﾔﾏｼ","streetKana":"ｲｶﾆｹｲｻｲｶﾞﾅｲﾊﾞｱｲ","prefecture":"愛知県","city":"犬山市","street":"以下に掲載がない場合"},{"zipCode":"4840945","prefectureKana":"ｱｲﾁｹﾝ","cityKana":"ｲﾇﾔﾏｼ","streetKana":"ｱｵﾂｶ","prefecture":"愛知県","city":"犬山市","street":"青塚"},{"zipCode":"4840921","prefectureKana":"ｱｲﾁｹﾝ","cityKana":"ｲﾇﾔﾏｼ","streetKana":"ｱｼﾞｶﾀ","prefecture":"愛知県","city":"犬山市","street":"味加田"},{"zipCode":"4840837","prefectureKana":"ｱｲﾁｹﾝ","cityKana":"ｲﾇﾔﾏｼ","streetKana":"ｱﾗｲ","prefecture":"愛知県","city":"犬山市","street":"荒井"},{"zipCode":"4840887","prefectureKana":"ｱｲﾁｹﾝ","cityKana":"ｲﾇﾔﾏｼ","streetKana":"ｲｹﾀﾞ","prefecture":"愛知県","city":"犬山市","street":"池田"},{"zipCode":"4840032","prefectureKana":"ｱｲﾁｹﾝ","cityKana":"ｲﾇﾔﾏｼ","streetKana":"ｲｹﾉｱｽﾞｸｼ","prefecture":"愛知県","city":"犬山市","street":"池野安楽寺"},{"zipCode":"4840862","prefectureKana":"ｱｲﾁｹﾝ","cityKana":"ｲﾇﾔﾏｼ","streetKana":"ｲｼﾂﾞｶ","prefecture":"愛知県","city":"犬山市","street":"石塚"},{"zipCode":"4840053","prefectureKana":"ｱｲﾁｹﾝ","cityKana":"ｲﾇﾔﾏｼ","streetKana":"ｲｼﾊﾀ","prefecture":"愛知県","city":"犬山市","street":"石畑"},{"zipCode":"4840056","prefectureKana":"ｱｲﾁｹﾝ","cityKana":"ｲﾇﾔﾏｼ","streetKana":"ｲﾅﾎｼﾊﾞ","prefecture":"愛知県","city":"犬山市","street":"稲干場"},{"zipCode":"4840081","prefectureKana":"ｱｲﾁｹﾝ","cityKana":"ｲﾇﾔﾏｼ","streetKana":"ｲﾇﾔﾏ","prefecture":"愛知県","city":"犬山市","street":"犬山"},{"zipCode":"4840033","prefectureKana":"ｱｲﾁｹﾝ","cityKana":"ｲﾇﾔﾏｼ","streetKana":"ｲﾉﾓﾄ","prefecture":"愛知県","city":"犬山市","street":"井ノ元"},{"zipCode":"4840005","prefectureKana":"ｱｲﾁｹﾝ","cityKana":"ｲﾇﾔﾏｼ","streetKana":"ｲﾏｲ","prefecture":"愛知県","city":"犬山市","street":"今井"},{"zipCode":"4840021","prefectureKana":"ｱｲﾁｹﾝ","cityKana":"ｲﾇﾔﾏｼ","streetKana":"ｲﾘｼﾀ","prefecture":"愛知県","city":"犬山市","street":"杁下"},{"zipCode":"4840008","prefectureKana":"ｱｲﾁｹﾝ","cityKana":"ｲﾇﾔﾏｼ","streetKana":"ｲﾜｱﾅ","prefecture":"愛知県","city":"犬山市","street":"岩穴"},{"zipCode":"4840872","prefectureKana":"ｱｲﾁｹﾝ","cityKana":"ｲﾇﾔﾏｼ","streetKana":"ｲﾜﾀ","prefecture":"愛知県","city":"犬山市","street":"岩田"},{"zipCode":"4840055","prefectureKana":"ｱｲﾁｹﾝ","cityKana":"ｲﾇﾔﾏｼ","streetKana":"ｳｼｲﾜ","prefecture":"愛知県","city":"犬山市","street":"牛岩"},{"zipCode":"4840047","prefectureKana":"ｱｲﾁｹﾝ","cityKana":"ｲﾇﾔﾏｼ","streetKana":"ｳﾁｸﾎﾞ","prefecture":"愛知県","city":"犬山市","street":"内久保"},{"zipCode":"4840071","prefectureKana":"ｱｲﾁｹﾝ","cityKana":"ｲﾇﾔﾏｼ","streetKana":"ｳﾁﾀﾞﾋｶﾞｼﾏﾁ","prefecture":"愛知県","city":"犬山市","street":"内田東町"},{"zipCode":"4840026","prefectureKana":"ｱｲﾁｹﾝ","cityKana":"ｲﾇﾔﾏｼ","streetKana":"ｳﾁﾔｼｷ","prefecture":"愛知県","city":"犬山市","street":"内屋敷"},{"zipCode":"4840074","prefectureKana":"ｱｲﾁｹﾝ","cityKana":"ｲﾇﾔﾏｼ","streetKana":"ｳﾒﾂﾎﾞ","prefecture":"愛知県","city":"犬山市","street":"梅坪"},{"zipCode":"4840854","prefectureKana":"ｱｲﾁｹﾝ","cityKana":"ｲﾇﾔﾏｼ","streetKana":"ｳﾗﾉﾓﾝ","prefecture":"愛知県","city":"犬山市","street":"裏之門"},{"zipCode":"4840035","prefectureKana":"ｱｲﾁｹﾝ","cityKana":"ｲﾇﾔﾏｼ","streetKana":"ｳﾗﾔﾏ","prefecture":"愛知県","city":"犬山市","street":"裏山"},{"zipCode":"4840902","prefectureKana":"ｱｲﾁｹﾝ","cityKana":"ｲﾇﾔﾏｼ","streetKana":"ｵｲﾜｹ","prefecture":"愛知県","city":"犬山市","street":"追分"},{"zipCode":"4840903","prefectureKana":"ｱｲﾁｹﾝ","cityKana":"ｲﾇﾔﾏｼ","streetKana":"ｵｲﾜｹﾋｶﾞｼ","prefecture":"愛知県","city":"犬山市","street":"追分東"},{"zipCode":"4840034","prefectureKana":"ｱｲﾁｹﾝ","cityKana":"ｲﾇﾔﾏｼ","streetKana":"ｵｵﾎﾞﾗ","prefecture":"愛知県","city":"犬山市","street":"大洞"},{"zipCode":"4840962","prefectureKana":"ｱｲﾁｹﾝ","cityKana":"ｲﾇﾔﾏｼ","streetKana":"ｵﾁｿﾞｴ","prefecture":"愛知県","city":"犬山市","street":"落添"},{"zipCode":"4840001","prefectureKana":"ｱｲﾁｹﾝ","cityKana":"ｲﾇﾔﾏｼ","streetKana":"ｶｷﾉｳﾁ","prefecture":"愛知県","city":"犬山市","street":"垣ノ内"},{"zipCode":"4840901","prefectureKana":"ｱｲﾁｹﾝ","cityKana":"ｲﾇﾔﾏｼ","streetKana":"ｶｷﾊﾞﾀ","prefecture":"愛知県","city":"犬山市","street":"柿畑"},{"zipCode":"4840955","prefectureKana":"ｱｲﾁｹﾝ","cityKana":"ｲﾇﾔﾏｼ","streetKana":"ｶｸｲｹ","prefecture":"愛知県","city":"犬山市","street":"角池"},{"zipCode":"4840936","prefectureKana":"ｱｲﾁｹﾝ","cityKana":"ｲﾇﾔﾏｼ","streetKana":"ｶﾞｸﾃﾞﾝｱｵﾂｶ","prefecture":"愛知県","city":"犬山市","street":"楽田青塚"},{"zipCode":"4840944","prefectureKana":"ｱｲﾁｹﾝ","cityKana":"ｲﾇﾔﾏｼ","streetKana":"ｶﾞｸﾃﾞﾝｱﾝｼ","prefecture":"愛知県","city":"犬山市","street":"楽田安師"},{"zipCode":"4840926","prefectureKana":"ｱｲﾁｹﾝ","cityKana":"ｲﾇﾔﾏｼ","streetKana":"ｶﾞｸﾃﾞﾝｲｼｷｳﾗ","prefecture":"愛知県","city":"犬山市","street":"楽田一色浦"},{"zipCode":"4840874","prefectureKana":"ｱｲﾁｹﾝ","cityKana":"ｲﾇﾔﾏｼ","streetKana":"ｶﾞｸﾃﾞﾝｲﾏﾑﾗ","prefecture":"愛知県","city":"犬山市","street":"楽田今村"},{"zipCode":"4840048","prefectureKana":"ｱｲﾁｹﾝ","cityKana":"ｲﾇﾔﾏｼ","streetKana":"ｶﾞｸﾃﾞﾝｳﾁｸﾎﾞ","prefecture":"愛知県","city":"犬山市","street":"楽田内久保"},{"zipCode":"4840843","prefectureKana":"ｱｲﾁｹﾝ","cityKana":"ｲﾇﾔﾏｼ","streetKana":"ｶﾞｸﾃﾞﾝｳﾁｺｼ","prefecture":"愛知県","city":"犬山市","street":"楽田打越"},{"zipCode":"4840924","prefectureKana":"ｱｲﾁｹﾝ","cityKana":"ｲﾇﾔﾏｼ","streetKana":"ｶﾞｸﾃﾞﾝｵｵﾊｼ","prefecture":"愛知県","city":"犬山市","street":"楽田大橋"},{"zipCode":"4840904","prefectureKana":"ｱｲﾁｹﾝ","cityKana":"ｲﾇﾔﾏｼ","streetKana":"ｶﾞｸﾃﾞﾝｶﾁﾍﾞﾏｴ","prefecture":"愛知県","city":"犬山市","street":"楽田勝部前"},{"zipCode":"4840915","prefectureKana":"ｱｲﾁｹﾝ","cityKana":"ｲﾇﾔﾏｼ","streetKana":"ｶﾞｸﾃﾞﾝｶﾐﾇﾏ","prefecture":"愛知県","city":"犬山市","street":"楽田上沼"},{"zipCode":"4840841","prefectureKana":"ｱｲﾁｹﾝ","cityKana":"ｲﾇﾔﾏｼ","streetKana":"ｶﾞｸﾃﾞﾝｺﾊﾞﾘ","prefecture":"愛知県","city":"犬山市","street":"楽田小針"},{"zipCode":"4840907","prefectureKana":"ｱｲﾁｹﾝ","cityKana":"ｲﾇﾔﾏｼ","streetKana":"ｶﾞｸﾃﾞﾝｼﾞｿﾞｳｲｹ","prefecture":"愛知県","city":"犬山市","street":"楽田地蔵池"},{"zipCode":"4840947","prefectureKana":"ｱｲﾁｹﾝ","cityKana":"ｲﾇﾔﾏｼ","streetKana":"ｶﾞｸﾃﾞﾝﾀﾞｲｴﾝ","prefecture":"愛知県","city":"犬山市","street":"楽田大円"},{"zipCode":"4840963","prefectureKana":"ｱｲﾁｹﾝ","cityKana":"ｲﾇﾔﾏｼ","streetKana":"ｶﾞｸﾃﾞﾝﾂﾙｲｹ","prefecture":"愛知県","city":"犬山市","street":"楽田鶴池"},{"zipCode":"4840856","prefectureKana":"ｱｲﾁｹﾝ","cityKana":"ｲﾇﾔﾏｼ","streetKana":"ｶﾞｸﾃﾞﾝﾃﾝｼﾞﾝ","prefecture":"愛知県","city":"犬山市","street":"楽田天神"},{"zipCode":"4840811","prefectureKana":"ｱｲﾁｹﾝ","cityKana":"ｲﾇﾔﾏｼ","streetKana":"ｶﾞｸﾃﾞﾝﾅｶﾞﾂｶﾋｶﾞｼ","prefecture":"愛知県","city":"犬山市","street":"楽田長塚東"},{"zipCode":"4840819","prefectureKana":"ｱｲﾁｹﾝ","cityKana":"ｲﾇﾔﾏｼ","streetKana":"ｶﾞｸﾃﾞﾝﾅｶﾞﾂｶﾆｼ","prefecture":"愛知県","city":"犬山市","street":"楽田長塚西"},{"zipCode":"4840916","prefectureKana":"ｱｲﾁｹﾝ","cityKana":"ｲﾇﾔﾏｼ","streetKana":"ｶﾞｸﾃﾞﾝﾆｼｳﾗ","prefecture":"愛知県","city":"犬山市","street":"楽田西浦"},{"zipCode":"4840925","prefectureKana":"ｱｲﾁｹﾝ","cityKana":"ｲﾇﾔﾏｼ","streetKana":"ｶﾞｸﾃﾞﾝﾆｼﾉ","prefecture":"愛知県","city":"犬山市","street":"楽田西野"},{"zipCode":"4840942","prefectureKana":"ｱｲﾁｹﾝ","cityKana":"ｲﾇﾔﾏｼ","streetKana":"ｶﾞｸﾃﾞﾝﾊﾊﾞ","prefecture":"愛知県","city":"犬山市","street":"楽田巾"},{"zipCode":"4840816","prefectureKana":"ｱｲﾁｹﾝ","cityKana":"ｲﾇﾔﾏｼ","streetKana":"ｶﾞｸﾃﾞﾝﾊﾗﾋｶﾞｼ","prefecture":"愛知県","city":"犬山市","street":"楽田原東"},{"zipCode":"4840885","prefectureKana":"ｱｲﾁｹﾝ","cityKana":"ｲﾇﾔﾏｼ","streetKana":"ｶﾞｸﾃﾞﾝﾊﾗﾆｼ","prefecture":"愛知県","city":"犬山市","street":"楽田原西"},{"zipCode":"4840877","prefectureKana":"ｱｲﾁｹﾝ","cityKana":"ｲﾇﾔﾏｼ","streetKana":"ｶﾞｸﾃﾞﾝﾋｶﾞｼｵｲﾜｹ","prefecture":"愛知県","city":"犬山市","street":"楽田東追分"},{"zipCode":"4840879","prefectureKana":"ｱｲﾁｹﾝ","cityKana":"ｲﾇﾔﾏｼ","streetKana":"ｶﾞｸﾃﾞﾝﾐﾂﾂﾞｶ","prefecture":"愛知県","city":"犬山市","street":"楽田三ツ塚"},{"zipCode":"4840846","prefectureKana":"ｱｲﾁｹﾝ","cityKana":"ｲﾇﾔﾏｼ","streetKana":"ｶﾞｸﾃﾞﾝﾔﾏﾉﾀ","prefecture":"愛知県","city":"犬山市","street":"楽田山ノ田"},{"zipCode":"4840964","prefectureKana":"ｱｲﾁｹﾝ","cityKana":"ｲﾇﾔﾏｼ","streetKana":"ｶﾐｴﾉｷｼﾞﾏ","prefecture":"愛知県","city":"犬山市","street":"上榎島"},{"zipCode":"4840059","prefectureKana":"ｱｲﾁｹﾝ","cityKana":"ｲﾇﾔﾏｼ","streetKana":"ｶﾐｻｶﾁｮｳ","prefecture":"愛知県","city":"犬山市","street":"上坂町"},{"zipCode":"4840077","prefectureKana":"ｱｲﾁｹﾝ","cityKana":"ｲﾇﾔﾏｼ","streetKana":"ｶﾐﾉ","prefecture":"愛知県","city":"犬山市","street":"上野"},{"zipCode":"4840078","prefectureKana":"ｱｲﾁｹﾝ","cityKana":"ｲﾇﾔﾏｼ","streetKana":"ｶﾐﾉｼﾝﾏﾁ","prefecture":"愛知県","city":"犬山市","street":"上野新町"},{"zipCode":"4840043","prefectureKana":"ｱｲﾁｹﾝ","cityKana":"ｲﾇﾔﾏｼ","streetKana":"ｶﾐﾉﾀ","prefecture":"愛知県","city":"犬山市","street":"上ノ田"},{"zipCode":"4840952","prefectureKana":"ｱｲﾁｹﾝ","cityKana":"ｲﾇﾔﾏｼ","streetKana":"ｶﾐﾌﾞﾀｲ","prefecture":"愛知県","city":"犬山市","street":"上舞台"},{"zipCode":"4840851","prefectureKana":"ｱｲﾁｹﾝ","cityKana":"ｲﾇﾔﾏｼ","streetKana":"ｶﾗｽﾓﾘ","prefecture":"愛知県","city":"犬山市","street":"烏杜"},{"zipCode":"4840914","prefectureKana":"ｱｲﾁｹﾝ","cityKana":"ｲﾇﾔﾏｼ","streetKana":"ｶﾝﾉﾝｳﾗ","prefecture":"愛知県","city":"犬山市","street":"観音浦"},{"zipCode":"4840818","prefectureKana":"ｱｲﾁｹﾝ","cityKana":"ｲﾇﾔﾏｼ","streetKana":"ｷﾀｳﾗ","prefecture":"愛知県","city":"犬山市","street":"北浦"},{"zipCode":"4840922","prefectureKana":"ｱｲﾁｹﾝ","cityKana":"ｲﾇﾔﾏｼ","streetKana":"ｷﾀｵｵﾊｼ","prefecture":"愛知県","city":"犬山市","street":"北大橋"},{"zipCode":"4840082","prefectureKana":"ｱｲﾁｹﾝ","cityKana":"ｲﾇﾔﾏｼ","streetKana":"ｷﾀｺｹﾝ","prefecture":"愛知県","city":"犬山市","street":"北古券"},{"zipCode":"4840011","prefectureKana":"ｱｲﾁｹﾝ","cityKana":"ｲﾇﾔﾏｼ","streetKana":"ｷﾀﾀｶﾈ","prefecture":"愛知県","city":"犬山市","street":"北高根"},{"zipCode":"4840823","prefectureKana":"ｱｲﾁｹﾝ","cityKana":"ｲﾇﾔﾏｼ","streetKana":"ｷﾀﾀﾞｲﾓﾝ","prefecture":"愛知県","city":"犬山市","street":"北大門"},{"zipCode":"4840911","prefectureKana":"ｱｲﾁｹﾝ","cityKana":"ｲﾇﾔﾏｼ","streetKana":"ｷﾀﾉﾓﾝ","prefecture":"愛知県","city":"犬山市","street":"北之門"},{"zipCode":"4840959","prefectureKana":"ｱｲﾁｹﾝ","cityKana":"ｲﾇﾔﾏｼ","streetKana":"ｷﾀﾋﾗﾂｶ","prefecture":"愛知県","city":"犬山市","street":"北平塚"},{"zipCode":"4840824","prefectureKana":"ｱｲﾁｹﾝ","cityKana":"ｲﾇﾔﾏｼ","streetKana":"ｷﾀﾎﾞﾗ","prefecture":"愛知県","city":"犬山市","street":"北洞"},{"zipCode":"4840024","prefectureKana":"ｱｲﾁｹﾝ","cityKana":"ｲﾇﾔﾏｼ","streetKana":"ｷﾛｸﾔｼｷ","prefecture":"愛知県","city":"犬山市","street":"喜六屋敷"},{"zipCode":"4840867","prefectureKana":"ｱｲﾁｹﾝ","cityKana":"ｲﾇﾔﾏｼ","streetKana":"ｸｻﾞｴﾓﾝﾏﾜﾘ","prefecture":"愛知県","city":"犬山市","street":"九左エ門廻り"},{"zipCode":"4840027","prefectureKana":"ｱｲﾁｹﾝ","cityKana":"ｲﾇﾔﾏｼ","streetKana":"ｸﾗｿﾎﾞﾗ","prefecture":"愛知県","city":"犬山市","street":"倉曽洞"},{"zipCode":"4840002","prefectureKana":"ｱｲﾁｹﾝ","cityKana":"ｲﾇﾔﾏｼ","streetKana":"ｸﾘｽ","prefecture":"愛知県","city":"犬山市","street":"栗栖"},{"zipCode":"4840878","prefectureKana":"ｱｲﾁｹﾝ","cityKana":"ｲﾇﾔﾏｼ","streetKana":"ｸﾘﾊﾞﾔｼ","prefecture":"愛知県","city":"犬山市","street":"栗林"},{"zipCode":"4840014","prefectureKana":"ｱｲﾁｹﾝ","cityKana":"ｲﾇﾔﾏｼ","streetKana":"ｺﾞｳﾅｶ","prefecture":"愛知県","city":"犬山市","street":"郷中"},{"zipCode":"4840815","prefectureKana":"ｱｲﾁｹﾝ","cityKana":"ｲﾇﾔﾏｼ","streetKana":"ｺﾞｳﾋｶﾞｼ","prefecture":"愛知県","city":"犬山市","street":"郷東"},{"zipCode":"4840817","prefectureKana":"ｱｲﾁｹﾝ","cityKana":"ｲﾇﾔﾏｼ","streetKana":"ｺﾞｳﾆｼ","prefecture":"愛知県","city":"犬山市","street":"郷西"},{"zipCode":"4840838","prefectureKana":"ｱｲﾁｹﾝ","cityKana":"ｲﾇﾔﾏｼ","streetKana":"ｺｼﾞ","prefecture":"愛知県","city":"犬山市","street":"小路"},{"zipCode":"4840957","prefectureKana":"ｱｲﾁｹﾝ","cityKana":"ｲﾇﾔﾏｼ","streetKana":"ｺﾞﾀﾝﾀﾞ","prefecture":"愛知県","city":"犬山市","street":"五反田"},{"zipCode":"4840079","prefectureKana":"ｱｲﾁｹﾝ","cityKana":"ｲﾇﾔﾏｼ","streetKana":"ｺｯﾂ","prefecture":"愛知県","city":"犬山市","street":"木津"},{"zipCode":"4840015","prefectureKana":"ｱｲﾁｹﾝ","cityKana":"ｲﾇﾔﾏｼ","streetKana":"ｺﾞﾃﾝﾔｼｷ","prefecture":"愛知県","city":"犬山市","street":"御殿屋敷"},{"zipCode":"4840855","prefectureKana":"ｱｲﾁｹﾝ","cityKana":"ｲﾇﾔﾏｼ","streetKana":"ｺﾎﾞﾗ","prefecture":"愛知県","city":"犬山市","street":"小洞"},{"zipCode":"4840066","prefectureKana":"ｱｲﾁｹﾝ","cityKana":"ｲﾇﾔﾏｼ","streetKana":"ｺﾞﾛｳﾏﾙ","prefecture":"愛知県","city":"犬山市","street":"五郎丸"},{"zipCode":"4840966","prefectureKana":"ｱｲﾁｹﾝ","cityKana":"ｲﾇﾔﾏｼ","streetKana":"ｺﾞﾛｳﾏﾙﾌﾀﾏﾀ","prefecture":"愛知県","city":"犬山市","street":"五郎丸二タ俣"},{"zipCode":"4840065","prefectureKana":"ｱｲﾁｹﾝ","cityKana":"ｲﾇﾔﾏｼ","streetKana":"ｺﾞﾛｳﾏﾙﾋｶﾞｼ","prefecture":"愛知県","city":"犬山市","street":"五郎丸東"},{"zipCode":"4840018","prefectureKana":"ｱｲﾁｹﾝ","cityKana":"ｲﾇﾔﾏｼ","streetKana":"ｻｶﾞｾ","prefecture":"愛知県","city":"犬山市","street":"佐ケ瀬"},{"zipCode":"4840844","prefectureKana":"ｱｲﾁｹﾝ","cityKana":"ｲﾇﾔﾏｼ","streetKana":"ｻｷﾞﾔﾏ","prefecture":"愛知県","city":"犬山市","street":"鷺山"},{"zipCode":"4840019","prefectureKana":"ｱｲﾁｹﾝ","cityKana":"ｲﾇﾔﾏｼ","streetKana":"ｼｷﾉｵｶ","prefecture":"愛知県","city":"犬山市","street":"四季の丘"},{"zipCode":"4840017","prefectureKana":"ｱｲﾁｹﾝ","cityKana":"ｲﾇﾔﾏｼ","streetKana":"ｼﾉﾀﾞｲﾗ","prefecture":"愛知県","city":"犬山市","street":"篠平"},{"zipCode":"4840965","prefectureKana":"ｱｲﾁｹﾝ","cityKana":"ｲﾇﾔﾏｼ","streetKana":"ｼﾓｴﾉｷｼﾞﾏ","prefecture":"愛知県","city":"犬山市","street":"下榎島"},{"zipCode":"4840842","prefectureKana":"ｱｲﾁｹﾝ","cityKana":"ｲﾇﾔﾏｼ","streetKana":"ｼﾓｺﾊﾞﾘ","prefecture":"愛知県","city":"犬山市","street":"下小針"},{"zipCode":"4840923","prefectureKana":"ｱｲﾁｹﾝ","cityKana":"ｲﾇﾔﾏｼ","streetKana":"ｼﾓﾇﾏ","prefecture":"愛知県","city":"犬山市","street":"下沼"},{"zipCode":"4840953","prefectureKana":"ｱｲﾁｹﾝ","cityKana":"ｲﾇﾔﾏｼ","streetKana":"ｼﾓﾌﾞﾀｲ","prefecture":"愛知県","city":"犬山市","street":"下舞台"},{"zipCode":"4840044","prefectureKana":"ｱｲﾁｹﾝ","cityKana":"ｲﾇﾔﾏｼ","streetKana":"ｼﾓﾔｼｷ","prefecture":"愛知県","city":"犬山市","street":"下屋敷"},{"zipCode":"4840007","prefectureKana":"ｱｲﾁｹﾝ","cityKana":"ｲﾇﾔﾏｼ","streetKana":"ｼﾞｭｳｻﾝﾂﾞｶ","prefecture":"愛知県","city":"犬山市","street":"十三塚"},{"zipCode":"4840825","prefectureKana":"ｱｲﾁｹﾝ","cityKana":"ｲﾇﾔﾏｼ","streetKana":"ｼﾞｮｳﾌｸｼﾞﾎﾞﾗ","prefecture":"愛知県","city":"犬山市","street":"常福寺洞"},{"zipCode":"4840858","prefectureKana":"ｱｲﾁｹﾝ","cityKana":"ｲﾇﾔﾏｼ","streetKana":"ｼﾛﾔﾏ","prefecture":"愛知県","city":"犬山市","street":"城山"},{"zipCode":"4840956","prefectureKana":"ｱｲﾁｹﾝ","cityKana":"ｲﾇﾔﾏｼ","streetKana":"ｼﾝｶﾜ","prefecture":"愛知県","city":"犬山市","street":"新川"},{"zipCode":"4840003","prefectureKana":"ｱｲﾁｹﾝ","cityKana":"ｲﾇﾔﾏｼ","streetKana":"ｾﾞﾝｼﾞﾉ","prefecture":"愛知県","city":"犬山市","street":"善師野"},{"zipCode":"4840004","prefectureKana":"ｱｲﾁｹﾝ","cityKana":"ｲﾇﾔﾏｼ","streetKana":"ｾﾞﾝｼﾞﾉﾀﾞｲ","prefecture":"愛知県","city":"犬山市","street":"善師野台"},{"zipCode":"4840869","prefectureKana":"ｱｲﾁｹﾝ","cityKana":"ｲﾇﾔﾏｼ","streetKana":"ｿｳｻｸ","prefecture":"愛知県","city":"犬山市","street":"惣作"},{"zipCode":"4840908","prefectureKana":"ｱｲﾁｹﾝ","cityKana":"ｲﾇﾔﾏｼ","streetKana":"ﾀﾞｲｼﾞｮｳﾄﾞ","prefecture":"愛知県","city":"犬山市","street":"大上戸"},{"zipCode":"4840058","prefectureKana":"ｱｲﾁｹﾝ","cityKana":"ｲﾇﾔﾏｼ","streetKana":"ﾀﾞｲﾓﾝ","prefecture":"愛知県","city":"犬山市","street":"大門"},{"zipCode":"4840845","prefectureKana":"ｱｲﾁｹﾝ","cityKana":"ｲﾇﾔﾏｼ","streetKana":"ﾀｶﾂﾎﾞ","prefecture":"愛知県","city":"犬山市","street":"高坪"},{"zipCode":"4840814","prefectureKana":"ｱｲﾁｹﾝ","cityKana":"ｲﾇﾔﾏｼ","streetKana":"ﾀｶﾈ","prefecture":"愛知県","city":"犬山市","street":"高根"},{"zipCode":"4840961","prefectureKana":"ｱｲﾁｹﾝ","cityKana":"ｲﾇﾔﾏｼ","streetKana":"ﾀｷﾁﾔｼｷ","prefecture":"愛知県","city":"犬山市","street":"太吉屋敷"},{"zipCode":"4840009","prefectureKana":"ｱｲﾁｹﾝ","cityKana":"ｲﾇﾔﾏｼ","streetKana":"ﾀｸﾞﾁ","prefecture":"愛知県","city":"犬山市","street":"田口"},{"zipCode":"4840041","prefectureKana":"ｱｲﾁｹﾝ","cityKana":"ｲﾇﾔﾏｼ","streetKana":"ﾁｮｳｼﾞｬﾏﾁ","prefecture":"愛知県","city":"犬山市","street":"長者町"},{"zipCode":"4840091","prefectureKana":"ｱｲﾁｹﾝ","cityKana":"ｲﾇﾔﾏｼ","streetKana":"ﾂｶﾞｵ","prefecture":"愛知県","city":"犬山市","street":"継鹿尾"},{"zipCode":"4840917","prefectureKana":"ｱｲﾁｹﾝ","cityKana":"ｲﾇﾔﾏｼ","streetKana":"ﾂﾁﾄﾘ","prefecture":"愛知県","city":"犬山市","street":"土取"},{"zipCode":"4840023","prefectureKana":"ｱｲﾁｹﾝ","cityKana":"ｲﾇﾔﾏｼ","streetKana":"ﾂﾂﾐｼﾀ","prefecture":"愛知県","city":"犬山市","street":"堤下"},{"zipCode":"4840013","prefectureKana":"ｱｲﾁｹﾝ","cityKana":"ｲﾇﾔﾏｼ","streetKana":"ﾃﾗﾎﾞﾗ","prefecture":"愛知県","city":"犬山市","street":"寺洞"},{"zipCode":"4840866","prefectureKana":"ｱｲﾁｹﾝ","cityKana":"ｲﾇﾔﾏｼ","streetKana":"ﾃﾗﾆｼ","prefecture":"愛知県","city":"犬山市","street":"寺西"},{"zipCode":"4840873","prefectureKana":"ｱｲﾁｹﾝ","cityKana":"ｲﾇﾔﾏｼ","streetKana":"ﾃﾝｵｳﾏｴ","prefecture":"愛知県","city":"犬山市","street":"天王前"},{"zipCode":"4840073","prefectureKana":"ｱｲﾁｹﾝ","cityKana":"ｲﾇﾔﾏｼ","streetKana":"ﾃﾝｼﾞﾝﾁｮｳ","prefecture":"愛知県","city":"犬山市","street":"天神町"},{"zipCode":"4840094","prefectureKana":"ｱｲﾁｹﾝ","cityKana":"ｲﾇﾔﾏｼ","streetKana":"ﾄｳﾉｼﾞ","prefecture":"愛知県","city":"犬山市","street":"塔野地"},{"zipCode":"4840095","prefectureKana":"ｱｲﾁｹﾝ","cityKana":"ｲﾇﾔﾏｼ","streetKana":"ﾄｳﾉｼﾞｽｷﾞ","prefecture":"愛知県","city":"犬山市","street":"塔野地杉"},{"zipCode":"4840096","prefectureKana":"ｱｲﾁｹﾝ","cityKana":"ｲﾇﾔﾏｼ","streetKana":"ﾄｳﾉｼﾞﾆｼ","prefecture":"愛知県","city":"犬山市","street":"塔野地西"},{"zipCode":"4840097","prefectureKana":"ｱｲﾁｹﾝ","cityKana":"ｲﾇﾔﾏｼ","streetKana":"ﾄｳﾉｼﾞｷﾀ","prefecture":"愛知県","city":"犬山市","street":"塔野地北"},{"zipCode":"4840831","prefectureKana":"ｱｲﾁｹﾝ","cityKana":"ｲﾇﾔﾏｼ","streetKana":"ﾄﾞｳﾔｼｷ","prefecture":"愛知県","city":"犬山市","street":"堂屋敷"},{"zipCode":"4840092","prefectureKana":"ｱｲﾁｹﾝ","cityKana":"ｲﾇﾔﾏｼ","streetKana":"ﾄﾐｵｶ","prefecture":"愛知県","city":"犬山市","street":"富岡"},{"zipCode":"4840099","prefectureKana":"ｱｲﾁｹﾝ","cityKana":"ｲﾇﾔﾏｼ","streetKana":"ﾄﾐｵｶｼﾝﾏﾁ","prefecture":"愛知県","city":"犬山市","street":"富岡新町"},{"zipCode":"4840093","prefectureKana":"ｱｲﾁｹﾝ","cityKana":"ｲﾇﾔﾏｼ","streetKana":"ﾄﾐｵｶﾋｶﾞｼ","prefecture":"愛知県","city":"犬山市","street":"富岡東"},{"zipCode":"4840098","prefectureKana":"ｱｲﾁｹﾝ","cityKana":"ｲﾇﾔﾏｼ","streetKana":"ﾄﾐｵｶﾐﾅﾐ","prefecture":"愛知県","city":"犬山市","street":"富岡南"},{"zipCode":"4840857","prefectureKana":"ｱｲﾁｹﾝ","cityKana":"ｲﾇﾔﾏｼ","streetKana":"ﾄﾔｼｷ","prefecture":"愛知県","city":"犬山市","street":"外屋敷"},{"zipCode":"4840913","prefectureKana":"ｱｲﾁｹﾝ","cityKana":"ｲﾇﾔﾏｼ","streetKana":"ﾄﾘﾔｺｼ","prefecture":"愛知県","city":"犬山市","street":"鳥屋越"},{"zipCode":"4840934","prefectureKana":"ｱｲﾁｹﾝ","cityKana":"ｲﾇﾔﾏｼ","streetKana":"ﾅｶｶﾞﾗｿ","prefecture":"愛知県","city":"犬山市","street":"中唐曽"},{"zipCode":"4840822","prefectureKana":"ｱｲﾁｹﾝ","cityKana":"ｲﾇﾔﾏｼ","streetKana":"ﾅｶｷﾞﾘ","prefecture":"愛知県","city":"犬山市","street":"中切"},{"zipCode":"4840852","prefectureKana":"ｱｲﾁｹﾝ","cityKana":"ｲﾇﾔﾏｼ","streetKana":"ﾅｶｺﾊﾞﾘ","prefecture":"愛知県","city":"犬山市","street":"中小針"},{"zipCode":"4840045","prefectureKana":"ｱｲﾁｹﾝ","cityKana":"ｲﾇﾔﾏｼ","streetKana":"ﾅｶﾊﾀ","prefecture":"愛知県","city":"犬山市","street":"仲畑"},{"zipCode":"4840919","prefectureKana":"ｱｲﾁｹﾝ","cityKana":"ｲﾇﾔﾏｼ","streetKana":"ﾅｶﾐﾁ","prefecture":"愛知県","city":"犬山市","street":"中道"},{"zipCode":"4840054","prefectureKana":"ｱｲﾁｹﾝ","cityKana":"ｲﾇﾔﾏｼ","streetKana":"ﾅｶﾔｼｷ","prefecture":"愛知県","city":"犬山市","street":"仲屋敷"},{"zipCode":"4840087","prefectureKana":"ｱｲﾁｹﾝ","cityKana":"ｲﾇﾔﾏｼ","streetKana":"ﾅｶﾔﾏﾁｮｳ","prefecture":"愛知県","city":"犬山市","street":"中山町"},{"zipCode":"4840928","prefectureKana":"ｱｲﾁｹﾝ","cityKana":"ｲﾇﾔﾏｼ","streetKana":"ﾅﾅﾂﾔ","prefecture":"愛知県","city":"犬山市","street":"七ツ屋"},{"zipCode":"4840037","prefectureKana":"ｱｲﾁｹﾝ","cityKana":"ｲﾇﾔﾏｼ","streetKana":"ﾆｼｶﾀｸｻ","prefecture":"愛知県","city":"犬山市","street":"西片草"},{"zipCode":"4840935","prefectureKana":"ｱｲﾁｹﾝ","cityKana":"ｲﾇﾔﾏｼ","streetKana":"ﾆｼｶﾞﾗｿ","prefecture":"愛知県","city":"犬山市","street":"西唐曽"},{"zipCode":"4840905","prefectureKana":"ｱｲﾁｹﾝ","cityKana":"ｲﾇﾔﾏｼ","streetKana":"ﾆｼｷﾀﾉ","prefecture":"愛知県","city":"犬山市","street":"西北野"},{"zipCode":"4840036","prefectureKana":"ｱｲﾁｹﾝ","cityKana":"ｲﾇﾔﾏｼ","streetKana":"ﾆｼｸﾜﾊﾞﾗ","prefecture":"愛知県","city":"犬山市","street":"西桑原"},{"zipCode":"4840085","prefectureKana":"ｱｲﾁｹﾝ","cityKana":"ｲﾇﾔﾏｼ","streetKana":"ﾆｼｺｹﾝ","prefecture":"愛知県","city":"犬山市","street":"西古券"},{"zipCode":"4840948","prefectureKana":"ｱｲﾁｹﾝ","cityKana":"ｲﾇﾔﾏｼ","streetKana":"ﾆｼﾀﾞｲｴﾝ","prefecture":"愛知県","city":"犬山市","street":"西大円"},{"zipCode":"4840932","prefectureKana":"ｱｲﾁｹﾝ","cityKana":"ｲﾇﾔﾏｼ","streetKana":"ﾆｼﾉ","prefecture":"愛知県","city":"犬山市","street":"西野"},{"zipCode":"4840029","prefectureKana":"ｱｲﾁｹﾝ","cityKana":"ｲﾇﾔﾏｼ","streetKana":"ﾆｼﾎﾞﾗ","prefecture":"愛知県","city":"犬山市","street":"西洞"},{"zipCode":"4840918","prefectureKana":"ｱｲﾁｹﾝ","cityKana":"ｲﾇﾔﾏｼ","streetKana":"ﾆﾀﾝﾀﾞ","prefecture":"愛知県","city":"犬山市","street":"ニタ田"},{"zipCode":"4840042","prefectureKana":"ｱｲﾁｹﾝ","cityKana":"ｲﾇﾔﾏｼ","streetKana":"ﾆﾎﾝｷﾞ","prefecture":"愛知県","city":"犬山市","street":"二本木"},{"zipCode":"4840863","prefectureKana":"ｱｲﾁｹﾝ","cityKana":"ｲﾇﾔﾏｼ","streetKana":"ﾉﾀﾞ","prefecture":"愛知県","city":"犬山市","street":"野田"},{"zipCode":"4840025","prefectureKana":"ｱｲﾁｹﾝ","cityKana":"ｲﾇﾔﾏｼ","streetKana":"ﾉﾅｶ","prefecture":"愛知県","city":"犬山市","street":"野中"},{"zipCode":"4840022","prefectureKana":"ｱｲﾁｹﾝ","cityKana":"ｲﾇﾔﾏｼ","streetKana":"ﾊｸｻﾝﾎﾞﾗ","prefecture":"愛知県","city":"犬山市","street":"白山洞"},{"zipCode":"4840894","prefectureKana":"ｱｲﾁｹﾝ","cityKana":"ｲﾇﾔﾏｼ","streetKana":"ﾊｸﾞﾛ","prefecture":"愛知県","city":"犬山市","street":"羽黒"},{"zipCode":"4840806","prefectureKana":"ｱｲﾁｹﾝ","cityKana":"ｲﾇﾔﾏｼ","streetKana":"ﾊｸﾞﾛｱｻﾋ","prefecture":"愛知県","city":"犬山市","street":"羽黒朝日"},{"zipCode":"4840899","prefectureKana":"ｱｲﾁｹﾝ","cityKana":"ｲﾇﾔﾏｼ","streetKana":"ﾊｸﾞﾛｲﾅﾊﾞﾋｶﾞｼ","prefecture":"愛知県","city":"犬山市","street":"羽黒稲葉東"},{"zipCode":"4840898","prefectureKana":"ｱｲﾁｹﾝ","cityKana":"ｲﾇﾔﾏｼ","streetKana":"ﾊｸﾞﾛｲﾅﾊﾞﾆｼ","prefecture":"愛知県","city":"犬山市","street":"羽黒稲葉西"},{"zipCode":"4840884","prefectureKana":"ｱｲﾁｹﾝ","cityKana":"ｲﾇﾔﾏｼ","streetKana":"ﾊｸﾞﾛｵｺｼ","prefecture":"愛知県","city":"犬山市","street":"羽黒起"},{"zipCode":"4840891","prefectureKana":"ｱｲﾁｹﾝ","cityKana":"ｲﾇﾔﾏｼ","streetKana":"ﾊｸﾞﾛｵﾝﾀﾞｼﾏ","prefecture":"愛知県","city":"犬山市","street":"羽黒恩田島"},{"zipCode":"4840882","prefectureKana":"ｱｲﾁｹﾝ","cityKana":"ｲﾇﾔﾏｼ","streetKana":"ﾊｸﾞﾛｷｸｶﾜ","prefecture":"愛知県","city":"犬山市","street":"羽黒菊川"},{"zipCode":"4840893","prefectureKana":"ｱｲﾁｹﾝ","cityKana":"ｲﾇﾔﾏｼ","streetKana":"ﾊｸﾞﾛｻｶｴ","prefecture":"愛知県","city":"犬山市","street":"羽黒栄"},{"zipCode":"4840804","prefectureKana":"ｱｲﾁｹﾝ","cityKana":"ｲﾇﾔﾏｼ","streetKana":"ﾊｸﾞﾛｻｸﾗｶｲﾄﾞｳ","prefecture":"愛知県","city":"犬山市","street":"羽黒桜海道"},{"zipCode":"4840803","prefectureKana":"ｱｲﾁｹﾝ","cityKana":"ｲﾇﾔﾏｼ","streetKana":"ﾊｸﾞﾛｼﾝｱｶｻｶ","prefecture":"愛知県","city":"犬山市","street":"羽黒新赤坂"},{"zipCode":"4840888","prefectureKana":"ｱｲﾁｹﾝ","cityKana":"ｲﾇﾔﾏｼ","streetKana":"ﾊｸﾞﾛｼﾝﾃﾞﾝ","prefecture":"愛知県","city":"犬山市","street":"羽黒新田"},{"zipCode":"4840805","prefectureKana":"ｱｲﾁｹﾝ","cityKana":"ｲﾇﾔﾏｼ","streetKana":"ﾊｸﾞﾛｼﾝﾄﾔﾏ","prefecture":"愛知県","city":"犬山市","street":"羽黒新外山"},{"zipCode":"4840895","prefectureKana":"ｱｲﾁｹﾝ","cityKana":"ｲﾇﾔﾏｼ","streetKana":"ﾊｸﾞﾛｽﾙｽﾐ","prefecture":"愛知県","city":"犬山市","street":"羽黒摺墨"},{"zipCode":"4840892","prefectureKana":"ｱｲﾁｹﾝ","cityKana":"ｲﾇﾔﾏｼ","streetKana":"ﾊｸﾞﾛｿｳｻｶｲ","prefecture":"愛知県","city":"犬山市","street":"羽黒惣境"},{"zipCode":"4840889","prefectureKana":"ｱｲﾁｹﾝ","cityKana":"ｲﾇﾔﾏｼ","streetKana":"ﾊｸﾞﾛﾀｶﾊｼ","prefecture":"愛知県","city":"犬山市","street":"羽黒高橋"},{"zipCode":"4840897","prefectureKana":"ｱｲﾁｹﾝ","cityKana":"ｲﾇﾔﾏｼ","streetKana":"ﾊｸﾞﾛﾄﾞｳﾏｴ","prefecture":"愛知県","city":"犬山市","street":"羽黒堂前"},{"zipCode":"4840881","prefectureKana":"ｱｲﾁｹﾝ","cityKana":"ｲﾇﾔﾏｼ","streetKana":"ﾊｸﾞﾛﾅﾙﾐﾆｼ","prefecture":"愛知県","city":"犬山市","street":"羽黒成海西"},{"zipCode":"4840883","prefectureKana":"ｱｲﾁｹﾝ","cityKana":"ｲﾇﾔﾏｼ","streetKana":"ﾊｸﾞﾛﾅﾙﾐﾐﾅﾐ","prefecture":"愛知県","city":"犬山市","street":"羽黒成海南"},{"zipCode":"4840807","prefectureKana":"ｱｲﾁｹﾝ","cityKana":"ｲﾇﾔﾏｼ","streetKana":"ﾊｸﾞﾛﾎｺｿﾞｴ","prefecture":"愛知県","city":"犬山市","street":"羽黒鉾添"},{"zipCode":"4840802","prefectureKana":"ｱｲﾁｹﾝ","cityKana":"ｲﾇﾔﾏｼ","streetKana":"ﾊｸﾞﾛﾔｽﾄﾞﾆｼ","prefecture":"愛知県","city":"犬山市","street":"羽黒安戸西"},{"zipCode":"4840801","prefectureKana":"ｱｲﾁｹﾝ","cityKana":"ｲﾇﾔﾏｼ","streetKana":"ﾊｸﾞﾛﾔｽﾄﾞﾐﾅﾐ","prefecture":"愛知県","city":"犬山市","street":"羽黒安戸南"},{"zipCode":"4840896","prefectureKana":"ｱｲﾁｹﾝ","cityKana":"ｲﾇﾔﾏｼ","streetKana":"ﾊｸﾞﾛﾖﾏﾁ","prefecture":"愛知県","city":"犬山市","street":"羽黒余町"},{"zipCode":"4840076","prefectureKana":"ｱｲﾁｹﾝ","cityKana":"ｲﾇﾔﾏｼ","streetKana":"ﾊｼﾂﾞﾒ","prefecture":"愛知県","city":"犬山市","street":"橋爪"},{"zipCode":"4840075","prefectureKana":"ｱｲﾁｹﾝ","cityKana":"ｲﾇﾔﾏｼ","streetKana":"ﾊｼﾂﾞﾒﾋｶﾞｼ","prefecture":"愛知県","city":"犬山市","street":"橋爪東"},{"zipCode":"4840835","prefectureKana":"ｱｲﾁｹﾝ","cityKana":"ｲﾇﾔﾏｼ","streetKana":"ﾊｽｲｹ","prefecture":"愛知県","city":"犬山市","street":"蓮池"},{"zipCode":"4840006","prefectureKana":"ｱｲﾁｹﾝ","cityKana":"ｲﾇﾔﾏｼ","streetKana":"ﾊｯｿ","prefecture":"愛知県","city":"犬山市","street":"八曽"},{"zipCode":"4840951","prefectureKana":"ｱｲﾁｹﾝ","cityKana":"ｲﾇﾔﾏｼ","streetKana":"ﾊｯﾀﾝﾀﾞ","prefecture":"愛知県","city":"犬山市","street":"八反田"},{"zipCode":"4840943","prefectureKana":"ｱｲﾁｹﾝ","cityKana":"ｲﾇﾔﾏｼ","streetKana":"ﾊﾊﾞﾏｴ","prefecture":"愛知県","city":"犬山市","street":"巾前"},{"zipCode":"4840941","prefectureKana":"ｱｲﾁｹﾝ","cityKana":"ｲﾇﾔﾏｼ","streetKana":"ﾊﾊﾞﾏﾜﾘ","prefecture":"愛知県","city":"犬山市","street":"巾廻り"},{"zipCode":"4840864","prefectureKana":"ｱｲﾁｹﾝ","cityKana":"ｲﾇﾔﾏｼ","streetKana":"ﾊﾞﾝﾏｴ","prefecture":"愛知県","city":"犬山市","street":"番前"},{"zipCode":"4840038","prefectureKana":"ｱｲﾁｹﾝ","cityKana":"ｲﾇﾔﾏｼ","streetKana":"ﾋｶﾞｼｶﾀｸｻ","prefecture":"愛知県","city":"犬山市","street":"東片草"},{"zipCode":"4840933","prefectureKana":"ｱｲﾁｹﾝ","cityKana":"ｲﾇﾔﾏｼ","streetKana":"ﾋｶﾞｼｶﾞﾗｿ","prefecture":"愛知県","city":"犬山市","street":"東唐曽"},{"zipCode":"4840868","prefectureKana":"ｱｲﾁｹﾝ","cityKana":"ｲﾇﾔﾏｼ","streetKana":"ﾋｶﾞｼｷﾀﾉ","prefecture":"愛知県","city":"犬山市","street":"東北野"},{"zipCode":"4840031","prefectureKana":"ｱｲﾁｹﾝ","cityKana":"ｲﾇﾔﾏｼ","streetKana":"ﾋｶﾞｼｸﾜﾊﾞﾗ","prefecture":"愛知県","city":"犬山市","street":"東桑原"},{"zipCode":"4840083","prefectureKana":"ｱｲﾁｹﾝ","cityKana":"ｲﾇﾔﾏｼ","streetKana":"ﾋｶﾞｼｺｹﾝ","prefecture":"愛知県","city":"犬山市","street":"東古券"},{"zipCode":"4840946","prefectureKana":"ｱｲﾁｹﾝ","cityKana":"ｲﾇﾔﾏｼ","streetKana":"ﾋｶﾞｼﾀﾞｲｴﾝ","prefecture":"愛知県","city":"犬山市","street":"東大円"},{"zipCode":"4840958","prefectureKana":"ｱｲﾁｹﾝ","cityKana":"ｲﾇﾔﾏｼ","streetKana":"ﾋﾗﾂｶ","prefecture":"愛知県","city":"犬山市","street":"平塚"},{"zipCode":"4840836","prefectureKana":"ｱｲﾁｹﾝ","cityKana":"ｲﾇﾔﾏｼ","streetKana":"ﾌｴﾀﾞ","prefecture":"愛知県","city":"犬山市","street":"笛田"},{"zipCode":"4840057","prefectureKana":"ｱｲﾁｹﾝ","cityKana":"ｲﾇﾔﾏｼ","streetKana":"ﾌｼﾞﾔﾏ","prefecture":"愛知県","city":"犬山市","street":"富士山"},{"zipCode":"4840912","prefectureKana":"ｱｲﾁｹﾝ","cityKana":"ｲﾇﾔﾏｼ","streetKana":"ﾌﾅﾀﾞ","prefecture":"愛知県","city":"犬山市","street":"舟田"},{"zipCode":"4840049","prefectureKana":"ｱｲﾁｹﾝ","cityKana":"ｲﾇﾔﾏｼ","streetKana":"ﾏｴﾀﾞﾒﾝ","prefecture":"愛知県","city":"犬山市","street":"前田面"},{"zipCode":"4840871","prefectureKana":"ｱｲﾁｹﾝ","cityKana":"ｲﾇﾔﾏｼ","streetKana":"ﾏｴﾅﾐ","prefecture":"愛知県","city":"犬山市","street":"前並"},{"zipCode":"4840061","prefectureKana":"ｱｲﾁｹﾝ","cityKana":"ｲﾇﾔﾏｼ","streetKana":"ﾏｴﾊﾗ","prefecture":"愛知県","city":"犬山市","street":"前原"},{"zipCode":"4840062","prefectureKana":"ｱｲﾁｹﾝ","cityKana":"ｲﾇﾔﾏｼ","streetKana":"ﾏｴﾊﾗｱｼﾞｶ","prefecture":"愛知県","city":"犬山市","street":"前原味鹿"},{"zipCode":"4840064","prefectureKana":"ｱｲﾁｹﾝ","cityKana":"ｲﾇﾔﾏｼ","streetKana":"ﾏｴﾊﾗﾆｼ","prefecture":"愛知県","city":"犬山市","street":"前原西"},{"zipCode":"4840063","prefectureKana":"ｱｲﾁｹﾝ","cityKana":"ｲﾇﾔﾏｼ","streetKana":"ﾏｴﾊﾗﾐﾅﾐ","prefecture":"愛知県","city":"犬山市","street":"前原南"},{"zipCode":"4840086","prefectureKana":"ｱｲﾁｹﾝ","cityKana":"ｲﾇﾔﾏｼ","streetKana":"ﾏﾂﾓﾄﾁｮｳ","prefecture":"愛知県","city":"犬山市","street":"松本町"},{"zipCode":"4840927","prefectureKana":"ｱｲﾁｹﾝ","cityKana":"ｲﾇﾔﾏｼ","streetKana":"ﾏﾄﾊﾞ","prefecture":"愛知県","city":"犬山市","street":"的場"},{"zipCode":"4840072","prefectureKana":"ｱｲﾁｹﾝ","cityKana":"ｲﾇﾔﾏｼ","streetKana":"ﾏﾙﾔﾏﾃﾝﾊﾟｸﾁｮｳ","prefecture":"愛知県","city":"犬山市","street":"丸山天白町"},{"zipCode":"4840931","prefectureKana":"ｱｲﾁｹﾝ","cityKana":"ｲﾇﾔﾏｼ","streetKana":"ﾐﾅﾐｵｵﾊｼ","prefecture":"愛知県","city":"犬山市","street":"南大橋"},{"zipCode":"4840084","prefectureKana":"ｱｲﾁｹﾝ","cityKana":"ｲﾇﾔﾏｼ","streetKana":"ﾐﾅﾐｺｹﾝ","prefecture":"愛知県","city":"犬山市","street":"南古券"},{"zipCode":"4840012","prefectureKana":"ｱｲﾁｹﾝ","cityKana":"ｲﾇﾔﾏｼ","streetKana":"ﾐﾅﾐﾀｶﾈ","prefecture":"愛知県","city":"犬山市","street":"南高根"},{"zipCode":"4840051","prefectureKana":"ｱｲﾁｹﾝ","cityKana":"ｲﾇﾔﾏｼ","streetKana":"ﾐﾔｳﾗ","prefecture":"愛知県","city":"犬山市","street":"宮裏"},{"zipCode":"4840886","prefectureKana":"ｱｲﾁｹﾝ","cityKana":"ｲﾇﾔﾏｼ","streetKana":"ﾐﾔｳﾗ","prefecture":"愛知県","city":"犬山市","street":"宮浦"},{"zipCode":"4840834","prefectureKana":"ｱｲﾁｹﾝ","cityKana":"ｲﾇﾔﾏｼ","streetKana":"ﾐﾔﾔﾏ","prefecture":"愛知県","city":"犬山市","street":"宮山"},{"zipCode":"4840937","prefectureKana":"ｱｲﾁｹﾝ","cityKana":"ｲﾇﾔﾏｼ","streetKana":"ﾐﾔﾋｶﾞｼ","prefecture":"愛知県","city":"犬山市","street":"宮東"},{"zipCode":"4840833","prefectureKana":"ｱｲﾁｹﾝ","cityKana":"ｲﾇﾔﾏｼ","streetKana":"ﾐﾔﾆｼ","prefecture":"愛知県","city":"犬山市","street":"宮西"},{"zipCode":"4840028","prefectureKana":"ｱｲﾁｹﾝ","cityKana":"ｲﾇﾔﾏｼ","streetKana":"ﾑｺﾀﾞ","prefecture":"愛知県","city":"犬山市","street":"向田"},{"zipCode":"4840832","prefectureKana":"ｱｲﾁｹﾝ","cityKana":"ｲﾇﾔﾏｼ","streetKana":"ﾑｺﾔﾏ","prefecture":"愛知県","city":"犬山市","street":"向山"},{"zipCode":"4840020","prefectureKana":"ｱｲﾁｹﾝ","cityKana":"ｲﾇﾔﾏｼ","streetKana":"ﾓｴｷﾞｶﾞｵｶ","prefecture":"愛知県","city":"犬山市","street":"もえぎケ丘"},{"zipCode":"4840954","prefectureKana":"ｱｲﾁｹﾝ","cityKana":"ｲﾇﾔﾏｼ","streetKana":"ﾓﾄｻﾝﾏｴ","prefecture":"愛知県","city":"犬山市","street":"元散前"},{"zipCode":"4840839","prefectureKana":"ｱｲﾁｹﾝ","cityKana":"ｲﾇﾔﾏｼ","streetKana":"ﾓﾓﾔﾏﾀﾞｲ","prefecture":"愛知県","city":"犬山市","street":"桃山台"},{"zipCode":"4840828","prefectureKana":"ｱｲﾁｹﾝ","cityKana":"ｲﾇﾔﾏｼ","streetKana":"ﾔｸｼｳﾗ","prefecture":"愛知県","city":"犬山市","street":"薬師浦"},{"zipCode":"4840827","prefectureKana":"ｱｲﾁｹﾝ","cityKana":"ｲﾇﾔﾏｼ","streetKana":"ﾔｸｼﾏｴ","prefecture":"愛知県","city":"犬山市","street":"薬師前"},{"zipCode":"4840906","prefectureKana":"ｱｲﾁｹﾝ","cityKana":"ｲﾇﾔﾏｼ","streetKana":"ﾔｹﾉ","prefecture":"愛知県","city":"犬山市","street":"焼野"},{"zipCode":"4840046","prefectureKana":"ｱｲﾁｹﾝ","cityKana":"ｲﾇﾔﾏｼ","streetKana":"ﾔｼｷｳﾗ","prefecture":"愛知県","city":"犬山市","street":"屋敷裏"},{"zipCode":"4840016","prefectureKana":"ｱｲﾁｹﾝ","cityKana":"ｲﾇﾔﾏｼ","streetKana":"ﾔﾌﾞｶﾞﾎﾗ","prefecture":"愛知県","city":"犬山市","street":"藪ケ洞"},{"zipCode":"4840865","prefectureKana":"ｱｲﾁｹﾝ","cityKana":"ｲﾇﾔﾏｼ","streetKana":"ﾔﾌﾞｸﾞﾛ","prefecture":"愛知県","city":"犬山市","street":"藪畔"},{"zipCode":"4840876","prefectureKana":"ｱｲﾁｹﾝ","cityKana":"ｲﾇﾔﾏｼ","streetKana":"ﾔﾏｶﾞﾐ","prefecture":"愛知県","city":"犬山市","street":"山神"},{"zipCode":"4840821","prefectureKana":"ｱｲﾁｹﾝ","cityKana":"ｲﾇﾔﾏｼ","streetKana":"ﾔﾏｻﾞｷﾆｼ","prefecture":"愛知県","city":"犬山市","street":"山崎西"},{"zipCode":"4840812","prefectureKana":"ｱｲﾁｹﾝ","cityKana":"ｲﾇﾔﾏｼ","streetKana":"ﾔﾏﾉﾀ","prefecture":"愛知県","city":"犬山市","street":"山ノ田"},{"zipCode":"4840813","prefectureKana":"ｱｲﾁｹﾝ","cityKana":"ｲﾇﾔﾏｼ","streetKana":"ﾔﾏﾉﾀｺﾞｼ","prefecture":"愛知県","city":"犬山市","street":"山ノ田腰"},{"zipCode":"4840826","prefectureKana":"ｱｲﾁｹﾝ","cityKana":"ｲﾇﾔﾏｼ","streetKana":"ﾔﾏﾉﾊﾅ","prefecture":"愛知県","city":"犬山市","street":"山ノ鼻"},{"zipCode":"4840853","prefectureKana":"ｱｲﾁｹﾝ","cityKana":"ｲﾇﾔﾏｼ","streetKana":"ﾖｺﾏﾁ","prefecture":"愛知県","city":"犬山市","street":"横町"},{"zipCode":"4840875","prefectureKana":"ｱｲﾁｹﾝ","cityKana":"ｲﾇﾔﾏｼ","streetKana":"ﾘﾝｺﾞﾂﾞｶ","prefecture":"愛知県","city":"犬山市","street":"林吾塚"},{"zipCode":"4840861","prefectureKana":"ｱｲﾁｹﾝ","cityKana":"ｲﾇﾔﾏｼ","streetKana":"ﾜｶﾐﾔ","prefecture":"愛知県","city":"犬山市","street":"若宮"},{"zipCode":"4840052","prefectureKana":"ｱｲﾁｹﾝ","cityKana":"ｲﾇﾔﾏｼ","streetKana":"ﾜｾﾀﾞ","prefecture":"愛知県","city":"犬山市","street":"早稲田"}]