[{"zipCode":"4860000","prefectureKana":"ｱｲﾁｹﾝ","cityKana":"ｶｽｶﾞｲｼ","streetKana":"ｲｶﾆｹｲｻｲｶﾞﾅｲﾊﾞｱｲ","prefecture":"愛知県","city":"春日井市","street":"以下に掲載がない場合"},{"zipCode":"4860933","prefectureKana":"ｱｲﾁｹﾝ","cityKana":"ｶｽｶﾞｲｼ","streetKana":"ｱｲﾁﾁｮｳ","prefecture":"愛知県","city":"春日井市","street":"愛知町"},{"zipCode":"4860929","prefectureKana":"ｱｲﾁｹﾝ","cityKana":"ｶｽｶﾞｲｼ","streetKana":"ｱｻﾋﾏﾁ","prefecture":"愛知県","city":"春日井市","street":"旭町"},{"zipCode":"4860846","prefectureKana":"ｱｲﾁｹﾝ","cityKana":"ｶｽｶﾞｲｼ","streetKana":"ｱｻﾐﾔﾁｮｳ","prefecture":"愛知県","city":"春日井市","street":"朝宮町"},{"zipCode":"4860857","prefectureKana":"ｱｲﾁｹﾝ","cityKana":"ｶｽｶﾞｲｼ","streetKana":"ｱｻﾔﾏﾁｮｳ","prefecture":"愛知県","city":"春日井市","street":"浅山町"},{"zipCode":"4860965","prefectureKana":"ｱｲﾁｹﾝ","cityKana":"ｶｽｶﾞｲｼ","streetKana":"ｱｼﾞﾖｼｶﾐﾉﾁｮｳ","prefecture":"愛知県","city":"春日井市","street":"味美上ノ町"},{"zipCode":"4860967","prefectureKana":"ｱｲﾁｹﾝ","cityKana":"ｶｽｶﾞｲｼ","streetKana":"ｱｼﾞﾖｼﾆｼﾎﾝﾏﾁ","prefecture":"愛知県","city":"春日井市","street":"味美西本町"},{"zipCode":"4860969","prefectureKana":"ｱｲﾁｹﾝ","cityKana":"ｶｽｶﾞｲｼ","streetKana":"ｱｼﾞﾖｼﾊｸｻﾝﾁｮｳ","prefecture":"愛知県","city":"春日井市","street":"味美白山町"},{"zipCode":"4860968","prefectureKana":"ｱｲﾁｹﾝ","cityKana":"ｶｽｶﾞｲｼ","streetKana":"ｱｼﾞﾖｼﾁｮｳ","prefecture":"愛知県","city":"春日井市","street":"味美町"},{"zipCode":"4860853","prefectureKana":"ｱｲﾁｹﾝ","cityKana":"ｶｽｶﾞｲｼ","streetKana":"ｱﾅﾊｼﾁｮｳ","prefecture":"愛知県","city":"春日井市","street":"穴橋町"},{"zipCode":"4860905","prefectureKana":"ｱｲﾁｹﾝ","cityKana":"ｶｽｶﾞｲｼ","streetKana":"ｲﾅｸﾞﾁﾁｮｳ","prefecture":"愛知県","city":"春日井市","street":"稲口町"},{"zipCode":"4860921","prefectureKana":"ｱｲﾁｹﾝ","cityKana":"ｶｽｶﾞｲｼ","streetKana":"ｲﾘｶﾞｼﾏﾁｮｳ","prefecture":"愛知県","city":"春日井市","street":"杁ケ島町"},{"zipCode":"4860805","prefectureKana":"ｱｲﾁｹﾝ","cityKana":"ｶｽｶﾞｲｼ","streetKana":"ｲﾜﾉﾁｮｳ","prefecture":"愛知県","city":"春日井市","street":"岩野町"},{"zipCode":"4860901","prefectureKana":"ｱｲﾁｹﾝ","cityKana":"ｶｽｶﾞｲｼ","streetKana":"ｳｼﾔﾏﾁｮｳ","prefecture":"愛知県","city":"春日井市","street":"牛山町"},{"zipCode":"4860856","prefectureKana":"ｱｲﾁｹﾝ","cityKana":"ｶｽｶﾞｲｼ","streetKana":"ｳﾒｶﾞﾂﾎﾞﾁｮｳ","prefecture":"愛知県","city":"春日井市","street":"梅ケ坪町"},{"zipCode":"4860834","prefectureKana":"ｱｲﾁｹﾝ","cityKana":"ｶｽｶﾞｲｼ","streetKana":"ｵｳｼﾞﾁｮｳ","prefecture":"愛知県","city":"春日井市","street":"王子町"},{"zipCode":"4860806","prefectureKana":"ｱｲﾁｹﾝ","cityKana":"ｶｽｶﾞｲｼ","streetKana":"ｵｵﾃﾞﾀﾄﾘﾁｮｳ","prefecture":"愛知県","city":"春日井市","street":"大手田酉町"},{"zipCode":"4860807","prefectureKana":"ｱｲﾁｹﾝ","cityKana":"ｶｽｶﾞｲｼ","streetKana":"ｵｵﾃﾞﾁｮｳ","prefecture":"愛知県","city":"春日井市","street":"大手町"},{"zipCode":"4860827","prefectureKana":"ｱｲﾁｹﾝ","cityKana":"ｶｽｶﾞｲｼ","streetKana":"ｵｷﾞﾀﾁｮｳ","prefecture":"愛知県","city":"春日井市","street":"小木田町"},{"zipCode":"4860832","prefectureKana":"ｱｲﾁｹﾝ","cityKana":"ｶｽｶﾞｲｼ","streetKana":"ｵﾄﾜﾁｮｳ","prefecture":"愛知県","city":"春日井市","street":"乙輪町"},{"zipCode":"4860926","prefectureKana":"ｱｲﾁｹﾝ","cityKana":"ｶｽｶﾞｲｼ","streetKana":"ｵﾉﾁｮｳ","prefecture":"愛知県","city":"春日井市","street":"小野町"},{"zipCode":"4860927","prefectureKana":"ｱｲﾁｹﾝ","cityKana":"ｶｽｶﾞｲｼ","streetKana":"ｶｼﾜｲﾁｮｳ","prefecture":"愛知県","city":"春日井市","street":"柏井町"},{"zipCode":"4860913","prefectureKana":"ｱｲﾁｹﾝ","cityKana":"ｶｽｶﾞｲｼ","streetKana":"ｶｼﾊﾗﾁｮｳ","prefecture":"愛知県","city":"春日井市","street":"柏原町"},{"zipCode":"4860961","prefectureKana":"ｱｲﾁｹﾝ","cityKana":"ｶｽｶﾞｲｼ","streetKana":"ｶｽｶﾞｲｶﾐﾉﾁｮｳ","prefecture":"愛知県","city":"春日井市","street":"春日井上ノ町"},{"zipCode":"4860963","prefectureKana":"ｱｲﾁｹﾝ","cityKana":"ｶｽｶﾞｲｼ","streetKana":"ｶｽｶﾞｲﾁｮｳ","prefecture":"愛知県","city":"春日井市","street":"春日井町"},{"zipCode":"4860941","prefectureKana":"ｱｲﾁｹﾝ","cityKana":"ｶｽｶﾞｲｼ","streetKana":"ｶﾁｶﾞﾜｼﾝﾏﾁ","prefecture":"愛知県","city":"春日井市","street":"勝川新町"},{"zipCode":"4860945","prefectureKana":"ｱｲﾁｹﾝ","cityKana":"ｶｽｶﾞｲｼ","streetKana":"ｶﾁｶﾞﾜﾁｮｳ","prefecture":"愛知県","city":"春日井市","street":"勝川町"},{"zipCode":"4860946","prefectureKana":"ｱｲﾁｹﾝ","cityKana":"ｶｽｶﾞｲｼ","streetKana":"ｶﾁｶﾞﾜﾁｮｳﾆｼ","prefecture":"愛知県","city":"春日井市","street":"勝川町西"},{"zipCode":"4860813","prefectureKana":"ｱｲﾁｹﾝ","cityKana":"ｶｽｶﾞｲｼ","streetKana":"ｶﾅｶﾞｸﾞﾁﾁｮｳ","prefecture":"愛知県","city":"春日井市","street":"金ケ口町"},{"zipCode":"4860801","prefectureKana":"ｱｲﾁｹﾝ","cityKana":"ｶｽｶﾞｲｼ","streetKana":"ｶﾐﾀﾗｶﾞﾁｮｳ","prefecture":"愛知県","city":"春日井市","street":"上田楽町"},{"zipCode":"4860966","prefectureKana":"ｱｲﾁｹﾝ","cityKana":"ｶｽｶﾞｲｼ","streetKana":"ｶﾐﾉﾁｮｳ","prefecture":"愛知県","city":"春日井市","street":"上ノ町"},{"zipCode":"4860858","prefectureKana":"ｱｲﾁｹﾝ","cityKana":"ｶｽｶﾞｲｼ","streetKana":"ｶﾝﾀﾞｲｼﾞﾝﾁｮｳ","prefecture":"愛知県","city":"春日井市","street":"菅大臣町"},{"zipCode":"4860814","prefectureKana":"ｱｲﾁｹﾝ","cityKana":"ｶｽｶﾞｲｼ","streetKana":"ｷﾀｼﾛﾁｮｳ","prefecture":"愛知県","city":"春日井市","street":"北城町"},{"zipCode":"4860826","prefectureKana":"ｱｲﾁｹﾝ","cityKana":"ｶｽｶﾞｲｼ","streetKana":"ｷﾌﾞﾈﾁｮｳ","prefecture":"愛知県","city":"春日井市","street":"貴船町"},{"zipCode":"4860822","prefectureKana":"ｱｲﾁｹﾝ","cityKana":"ｶｽｶﾞｲｼ","streetKana":"ｸﾏﾉﾁｮｳ","prefecture":"愛知県","city":"春日井市","street":"熊野町"},{"zipCode":"4860820","prefectureKana":"ｱｲﾁｹﾝ","cityKana":"ｶｽｶﾞｲｼ","streetKana":"ｸﾏﾉﾁｮｳｷﾀ","prefecture":"愛知県","city":"春日井市","street":"熊野町北"},{"zipCode":"4860907","prefectureKana":"ｱｲﾁｹﾝ","cityKana":"ｶｽｶﾞｲｼ","streetKana":"ｸﾛﾎﾞｺﾁｮｳ","prefecture":"愛知県","city":"春日井市","street":"黒鉾町"},{"zipCode":"4860923","prefectureKana":"ｱｲﾁｹﾝ","cityKana":"ｶｽｶﾞｲｼ","streetKana":"ｹﾞｼﾞｮｳﾁｮｳ","prefecture":"愛知県","city":"春日井市","street":"下条町"},{"zipCode":"4860831","prefectureKana":"ｱｲﾁｹﾝ","cityKana":"ｶｽｶﾞｲｼ","streetKana":"ｺﾄﾌﾞｷﾁｮｳ","prefecture":"愛知県","city":"春日井市","street":"ことぶき町"},{"zipCode":"4860823","prefectureKana":"ｱｲﾁｹﾝ","cityKana":"ｶｽｶﾞｲｼ","streetKana":"ｻｸﾗｻﾁｮｳ","prefecture":"愛知県","city":"春日井市","street":"桜佐町"},{"zipCode":"4860851","prefectureKana":"ｱｲﾁｹﾝ","cityKana":"ｶｽｶﾞｲｼ","streetKana":"ｼﾉｷﾞﾁｮｳ","prefecture":"愛知県","city":"春日井市","street":"篠木町"},{"zipCode":"4860922","prefectureKana":"ｱｲﾁｹﾝ","cityKana":"ｶｽｶﾞｲｼ","streetKana":"ｼﾉﾀﾞﾁｮｳ","prefecture":"愛知県","city":"春日井市","street":"篠田町"},{"zipCode":"4860852","prefectureKana":"ｱｲﾁｹﾝ","cityKana":"ｶｽｶﾞｲｼ","streetKana":"ｼﾓｲﾁﾊﾞﾁｮｳ","prefecture":"愛知県","city":"春日井市","street":"下市場町"},{"zipCode":"4860924","prefectureKana":"ｱｲﾁｹﾝ","cityKana":"ｶｽｶﾞｲｼ","streetKana":"ｼﾓﾂﾁｮｳ","prefecture":"愛知県","city":"春日井市","street":"下津町"},{"zipCode":"4860819","prefectureKana":"ｱｲﾁｹﾝ","cityKana":"ｶｽｶﾞｲｼ","streetKana":"ｼﾓﾊﾗﾁｮｳ","prefecture":"愛知県","city":"春日井市","street":"下原町"},{"zipCode":"4860906","prefectureKana":"ｱｲﾁｹﾝ","cityKana":"ｶｽｶﾞｲｼ","streetKana":"ｼﾓﾔｼｷﾁｮｳ","prefecture":"愛知県","city":"春日井市","street":"下屋敷町"},{"zipCode":"4860815","prefectureKana":"ｱｲﾁｹﾝ","cityKana":"ｶｽｶﾞｲｼ","streetKana":"ｼﾞｭｳｻﾝﾂﾞｶﾁｮｳ","prefecture":"愛知県","city":"春日井市","street":"十三塚町"},{"zipCode":"4860833","prefectureKana":"ｱｲﾁｹﾝ","cityKana":"ｶｽｶﾞｲｼ","streetKana":"ｼﾞｮｳｼﾞｮｳﾁｮｳ","prefecture":"愛知県","city":"春日井市","street":"上条町"},{"zipCode":"4860902","prefectureKana":"ｱｲﾁｹﾝ","cityKana":"ｶｽｶﾞｲｼ","streetKana":"ｼﾝｶｲﾁｮｳ","prefecture":"愛知県","city":"春日井市","street":"新開町"},{"zipCode":"4860942","prefectureKana":"ｱｲﾁｹﾝ","cityKana":"ｶｽｶﾞｲｼ","streetKana":"ｼﾝﾒｲﾁｮｳ","prefecture":"愛知県","city":"春日井市","street":"神明町"},{"zipCode":"4860821","prefectureKana":"ｱｲﾁｹﾝ","cityKana":"ｶｽｶﾞｲｼ","streetKana":"ｼﾞﾝﾘｮｳﾁｮｳ","prefecture":"愛知県","city":"春日井市","street":"神領町"},{"zipCode":"4860830","prefectureKana":"ｱｲﾁｹﾝ","cityKana":"ｶｽｶﾞｲｼ","streetKana":"ｼﾞﾝﾘｮｳﾁｮｳｷﾀ","prefecture":"愛知県","city":"春日井市","street":"神領町北"},{"zipCode":"4860855","prefectureKana":"ｱｲﾁｹﾝ","cityKana":"ｶｽｶﾞｲｼ","streetKana":"ｾｷﾀﾞﾁｮｳ","prefecture":"愛知県","city":"春日井市","street":"関田町"},{"zipCode":"4860949","prefectureKana":"ｱｲﾁｹﾝ","cityKana":"ｶｽｶﾞｲｼ","streetKana":"ｿｳﾅｶﾁｮｳ","prefecture":"愛知県","city":"春日井市","street":"惣中町"},{"zipCode":"4860964","prefectureKana":"ｱｲﾁｹﾝ","cityKana":"ｶｽｶﾞｲｼ","streetKana":"ｿｳﾎｳﾁｮｳ","prefecture":"愛知県","city":"春日井市","street":"宗法町"},{"zipCode":"4860812","prefectureKana":"ｱｲﾁｹﾝ","cityKana":"ｶｽｶﾞｲｼ","streetKana":"ﾀﾞｲｾﾝｼﾞﾁｮｳ","prefecture":"愛知県","city":"春日井市","street":"大泉寺町"},{"zipCode":"4860804","prefectureKana":"ｱｲﾁｹﾝ","cityKana":"ｶｽｶﾞｲｼ","streetKana":"ﾀｶｷﾁｮｳ","prefecture":"愛知県","city":"春日井市","street":"鷹来町"},{"zipCode":"4860912","prefectureKana":"ｱｲﾁｹﾝ","cityKana":"ｶｽｶﾞｲｼ","streetKana":"ﾀｶﾔﾏﾁｮｳ","prefecture":"愛知県","city":"春日井市","street":"高山町"},{"zipCode":"4860808","prefectureKana":"ｱｲﾁｹﾝ","cityKana":"ｶｽｶﾞｲｼ","streetKana":"ﾀﾗｶﾞﾁｮｳ","prefecture":"愛知県","city":"春日井市","street":"田楽町"},{"zipCode":"4860947","prefectureKana":"ｱｲﾁｹﾝ","cityKana":"ｶｽｶﾞｲｼ","streetKana":"ﾁﾀﾁｮｳ","prefecture":"愛知県","city":"春日井市","street":"知多町"},{"zipCode":"4860825","prefectureKana":"ｱｲﾁｹﾝ","cityKana":"ｶｽｶﾞｲｼ","streetKana":"ﾁｭｳｵｳﾄﾞｵﾘ","prefecture":"愛知県","city":"春日井市","street":"中央通"},{"zipCode":"4860936","prefectureKana":"ｱｲﾁｹﾝ","cityKana":"ｶｽｶﾞｲｼ","streetKana":"ﾁｮｳﾀﾞﾁｮｳ","prefecture":"愛知県","city":"春日井市","street":"町田町"},{"zipCode":"4860952","prefectureKana":"ｱｲﾁｹﾝ","cityKana":"ｶｽｶﾞｲｼ","streetKana":"ﾂｲｼﾝﾁｮｳ","prefecture":"愛知県","city":"春日井市","street":"追進町"},{"zipCode":"4860835","prefectureKana":"ｱｲﾁｹﾝ","cityKana":"ｶｽｶﾞｲｼ","streetKana":"ﾂｷﾐﾁｮｳ","prefecture":"愛知県","city":"春日井市","street":"月見町"},{"zipCode":"4860943","prefectureKana":"ｱｲﾁｹﾝ","cityKana":"ｶｽｶﾞｲｼ","streetKana":"ﾂﾉｻｷﾁｮｳ","prefecture":"愛知県","city":"春日井市","street":"角崎町"},{"zipCode":"4860948","prefectureKana":"ｱｲﾁｹﾝ","cityKana":"ｶｽｶﾞｲｼ","streetKana":"ﾃﾝｼﾞﾝﾁｮｳ","prefecture":"愛知県","city":"春日井市","street":"天神町"},{"zipCode":"4860844","prefectureKana":"ｱｲﾁｹﾝ","cityKana":"ｶｽｶﾞｲｼ","streetKana":"ﾄﾘｲﾏﾂﾁｮｳ","prefecture":"愛知県","city":"春日井市","street":"鳥居松町"},{"zipCode":"4860925","prefectureKana":"ｱｲﾁｹﾝ","cityKana":"ｶｽｶﾞｲｼ","streetKana":"ﾅｶｷﾞﾘﾁｮｳ","prefecture":"愛知県","city":"春日井市","street":"中切町"},{"zipCode":"4860956","prefectureKana":"ｱｲﾁｹﾝ","cityKana":"ｶｽｶﾞｲｼ","streetKana":"ﾅｶｼﾝﾁｮｳ","prefecture":"愛知県","city":"春日井市","street":"中新町"},{"zipCode":"4860957","prefectureKana":"ｱｲﾁｹﾝ","cityKana":"ｶｽｶﾞｲｼ","streetKana":"ﾅｶﾉﾁｮｳ","prefecture":"愛知県","city":"春日井市","street":"中野町"},{"zipCode":"4860962","prefectureKana":"ｱｲﾁｹﾝ","cityKana":"ｶｽｶﾞｲｼ","streetKana":"ﾅｶﾏﾁ","prefecture":"愛知県","city":"春日井市","street":"中町"},{"zipCode":"4860934","prefectureKana":"ｱｲﾁｹﾝ","cityKana":"ｶｽｶﾞｲｼ","streetKana":"ﾅｶﾞﾂｶﾁｮｳ","prefecture":"愛知県","city":"春日井市","street":"長塚町"},{"zipCode":"4860911","prefectureKana":"ｱｲﾁｹﾝ","cityKana":"ｶｽｶﾞｲｼ","streetKana":"ﾆｼﾀｶﾔﾏﾁｮｳ","prefecture":"愛知県","city":"春日井市","street":"西高山町"},{"zipCode":"4860958","prefectureKana":"ｱｲﾁｹﾝ","cityKana":"ｶｽｶﾞｲｼ","streetKana":"ﾆｼﾎﾝﾏﾁ","prefecture":"愛知県","city":"春日井市","street":"西本町"},{"zipCode":"4860908","prefectureKana":"ｱｲﾁｹﾝ","cityKana":"ｶｽｶﾞｲｼ","streetKana":"ﾆｼﾔﾁｮｳ","prefecture":"愛知県","city":"春日井市","street":"西屋町"},{"zipCode":"4860803","prefectureKana":"ｱｲﾁｹﾝ","cityKana":"ｶｽｶﾞｲｼ","streetKana":"ﾆｼﾔﾏﾁｮｳ","prefecture":"愛知県","city":"春日井市","street":"西山町"},{"zipCode":"4860918","prefectureKana":"ｱｲﾁｹﾝ","cityKana":"ｶｽｶﾞｲｼ","streetKana":"ﾆｮｲｻﾙﾁｮｳ","prefecture":"愛知県","city":"春日井市","street":"如意申町"},{"zipCode":"4860915","prefectureKana":"ｱｲﾁｹﾝ","cityKana":"ｶｽｶﾞｲｼ","streetKana":"ﾊﾁﾏﾝﾁｮｳ","prefecture":"愛知県","city":"春日井市","street":"八幡町"},{"zipCode":"4860916","prefectureKana":"ｱｲﾁｹﾝ","cityKana":"ｶｽｶﾞｲｼ","streetKana":"ﾊｯｺｳﾁｮｳ","prefecture":"愛知県","city":"春日井市","street":"八光町"},{"zipCode":"4860849","prefectureKana":"ｱｲﾁｹﾝ","cityKana":"ｶｽｶﾞｲｼ","streetKana":"ﾊｯﾀﾁｮｳ","prefecture":"愛知県","city":"春日井市","street":"八田町"},{"zipCode":"4860951","prefectureKana":"ｱｲﾁｹﾝ","cityKana":"ｶｽｶﾞｲｼ","streetKana":"ﾊﾅｵｻﾁｮｳ","prefecture":"愛知県","city":"春日井市","street":"花長町"},{"zipCode":"4860854","prefectureKana":"ｱｲﾁｹﾝ","cityKana":"ｶｽｶﾞｲｼ","streetKana":"ﾊﾔｼｼﾞﾏﾁｮｳ","prefecture":"愛知県","city":"春日井市","street":"林島町"},{"zipCode":"4860837","prefectureKana":"ｱｲﾁｹﾝ","cityKana":"ｶｽｶﾞｲｼ","streetKana":"ﾊﾙﾐﾁｮｳ","prefecture":"愛知県","city":"春日井市","street":"春見町"},{"zipCode":"4860816","prefectureKana":"ｱｲﾁｹﾝ","cityKana":"ｶｽｶﾞｲｼ","streetKana":"ﾋｶﾞｼﾉｼﾝﾏﾁ","prefecture":"愛知県","city":"春日井市","street":"東野新町"},{"zipCode":"4860817","prefectureKana":"ｱｲﾁｹﾝ","cityKana":"ｶｽｶﾞｲｼ","streetKana":"ﾋｶﾞｼﾉﾁｮｳ","prefecture":"愛知県","city":"春日井市","street":"東野町"},{"zipCode":"4860818","prefectureKana":"ｱｲﾁｹﾝ","cityKana":"ｶｽｶﾞｲｼ","streetKana":"ﾋｶﾞｼﾉﾁｮｳﾆｼ","prefecture":"愛知県","city":"春日井市","street":"東野町西"},{"zipCode":"4860811","prefectureKana":"ｱｲﾁｹﾝ","cityKana":"ｶｽｶﾞｲｼ","streetKana":"ﾋｶﾞｼﾔﾏﾁｮｳ","prefecture":"愛知県","city":"春日井市","street":"東山町"},{"zipCode":"4860955","prefectureKana":"ｱｲﾁｹﾝ","cityKana":"ｶｽｶﾞｲｼ","streetKana":"ﾌﾀｺﾞﾁｮｳ","prefecture":"愛知県","city":"春日井市","street":"二子町"},{"zipCode":"4860937","prefectureKana":"ｱｲﾁｹﾝ","cityKana":"ｶｽｶﾞｲｼ","streetKana":"ﾎｿｷﾁｮｳ","prefecture":"愛知県","city":"春日井市","street":"細木町"},{"zipCode":"4860829","prefectureKana":"ｱｲﾁｹﾝ","cityKana":"ｶｽｶﾞｲｼ","streetKana":"ﾎﾘﾉｳﾁﾁｮｳ","prefecture":"愛知県","city":"春日井市","street":"堀ノ内町"},{"zipCode":"4860828","prefectureKana":"ｱｲﾁｹﾝ","cityKana":"ｶｽｶﾞｲｼ","streetKana":"ﾎﾘﾉｳﾁﾁｮｳｷﾀ","prefecture":"愛知県","city":"春日井市","street":"堀ノ内町北"},{"zipCode":"4860903","prefectureKana":"ｱｲﾁｹﾝ","cityKana":"ｶｽｶﾞｲｼ","streetKana":"ﾏｴﾅﾐﾁｮｳ","prefecture":"愛知県","city":"春日井市","street":"前並町"},{"zipCode":"4860809","prefectureKana":"ｱｲﾁｹﾝ","cityKana":"ｶｽｶﾞｲｼ","streetKana":"ﾏﾁﾔﾁｮｳ","prefecture":"愛知県","city":"春日井市","street":"町屋町"},{"zipCode":"4860932","prefectureKana":"ｱｲﾁｹﾝ","cityKana":"ｶｽｶﾞｲｼ","streetKana":"ﾏﾂｶﾜﾄﾞﾁｮｳ","prefecture":"愛知県","city":"春日井市","street":"松河戸町"},{"zipCode":"4860931","prefectureKana":"ｱｲﾁｹﾝ","cityKana":"ｶｽｶﾞｲｼ","streetKana":"ﾏﾂｼﾝﾁｮｳ","prefecture":"愛知県","city":"春日井市","street":"松新町"},{"zipCode":"4860845","prefectureKana":"ｱｲﾁｹﾝ","cityKana":"ｶｽｶﾞｲｼ","streetKana":"ﾐｽﾞﾎﾄﾞｵﾘ","prefecture":"愛知県","city":"春日井市","street":"瑞穂通"},{"zipCode":"4860841","prefectureKana":"ｱｲﾁｹﾝ","cityKana":"ｶｽｶﾞｲｼ","streetKana":"ﾐﾅﾐｼﾓﾊﾗﾁｮｳ","prefecture":"愛知県","city":"春日井市","street":"南下原町"},{"zipCode":"4860954","prefectureKana":"ｱｲﾁｹﾝ","cityKana":"ｶｽｶﾞｲｼ","streetKana":"ﾐﾅﾐﾊﾅｵｻﾁｮｳ","prefecture":"愛知県","city":"春日井市","street":"南花長町"},{"zipCode":"4860917","prefectureKana":"ｱｲﾁｹﾝ","cityKana":"ｶｽｶﾞｲｼ","streetKana":"ﾐﾉﾏﾁ","prefecture":"愛知県","city":"春日井市","street":"美濃町"},{"zipCode":"4860904","prefectureKana":"ｱｲﾁｹﾝ","cityKana":"ｶｽｶﾞｲｼ","streetKana":"ﾐﾔﾏﾁ","prefecture":"愛知県","city":"春日井市","street":"宮町"},{"zipCode":"4860953","prefectureKana":"ｱｲﾁｹﾝ","cityKana":"ｶｽｶﾞｲｼ","streetKana":"ﾐﾕｷﾁｮｳ","prefecture":"愛知県","city":"春日井市","street":"御幸町"},{"zipCode":"4860928","prefectureKana":"ｱｲﾁｹﾝ","cityKana":"ｶｽｶﾞｲｼ","streetKana":"ﾐｮｳｹｲﾁｮｳ","prefecture":"愛知県","city":"春日井市","street":"妙慶町"},{"zipCode":"4860802","prefectureKana":"ｱｲﾁｹﾝ","cityKana":"ｶｽｶﾞｲｼ","streetKana":"ﾓﾓﾔﾏﾁｮｳ","prefecture":"愛知県","city":"春日井市","street":"桃山町"},{"zipCode":"4860935","prefectureKana":"ｱｲﾁｹﾝ","cityKana":"ｶｽｶﾞｲｼ","streetKana":"ﾓﾘﾔﾏﾀﾞﾁｮｳ","prefecture":"愛知県","city":"春日井市","street":"森山田町"},{"zipCode":"4860836","prefectureKana":"ｱｲﾁｹﾝ","cityKana":"ｶｽｶﾞｲｼ","streetKana":"ﾔｺﾞﾄﾁｮｳ","prefecture":"愛知県","city":"春日井市","street":"八事町"},{"zipCode":"4860944","prefectureKana":"ｱｲﾁｹﾝ","cityKana":"ｶｽｶﾞｲｼ","streetKana":"ﾔﾏﾄﾄﾞｵﾘ","prefecture":"愛知県","city":"春日井市","street":"大和通"},{"zipCode":"4860838","prefectureKana":"ｱｲﾁｹﾝ","cityKana":"ｶｽｶﾞｲｼ","streetKana":"ﾔﾖｲﾁｮｳ","prefecture":"愛知県","city":"春日井市","street":"弥生町"},{"zipCode":"4860909","prefectureKana":"ｱｲﾁｹﾝ","cityKana":"ｶｽｶﾞｲｼ","streetKana":"ﾖﾂﾔﾁｮｳ","prefecture":"愛知県","city":"春日井市","street":"四ツ家町"},{"zipCode":"4860842","prefectureKana":"ｱｲﾁｹﾝ","cityKana":"ｶｽｶﾞｲｼ","streetKana":"ﾛｯｹﾝﾔﾁｮｳ","prefecture":"愛知県","city":"春日井市","street":"六軒屋町"},{"zipCode":"4860839","prefectureKana":"ｱｲﾁｹﾝ","cityKana":"ｶｽｶﾞｲｼ","streetKana":"ﾛｯｹﾝﾔﾁｮｳﾆｼ","prefecture":"愛知県","city":"春日井市","street":"六軒屋町西"},{"zipCode":"4860914","prefectureKana":"ｱｲﾁｹﾝ","cityKana":"ｶｽｶﾞｲｼ","streetKana":"ﾜｶｸｻﾄﾞｵﾘ","prefecture":"愛知県","city":"春日井市","street":"若草通"},{"zipCode":"4860824","prefectureKana":"ｱｲﾁｹﾝ","cityKana":"ｶｽｶﾞｲｼ","streetKana":"ﾜﾘﾂﾞｶﾁｮｳ","prefecture":"愛知県","city":"春日井市","street":"割塚町"}]