[{"zipCode":"4901303","prefectureKana":"ｱｲﾁｹﾝ","cityKana":"ｲﾅｻﾞﾜｼ","streetKana":"ﾍｲﾜﾁｮｳｶﾐﾐﾔｹ","prefecture":"愛知県","city":"稲沢市","street":"平和町上三宅"},{"zipCode":"4901302","prefectureKana":"ｱｲﾁｹﾝ","cityKana":"ｲﾅｻﾞﾜｼ","streetKana":"ﾍｲﾜﾁｮｳｶﾝﾉﾝﾄﾞｳ","prefecture":"愛知県","city":"稲沢市","street":"平和町観音堂"},{"zipCode":"4901314","prefectureKana":"ｱｲﾁｹﾝ","cityKana":"ｲﾅｻﾞﾜｼ","streetKana":"ﾍｲﾜﾁｮｳｻｲｺｳﾎﾞｳ","prefecture":"愛知県","city":"稲沢市","street":"平和町西光坊"},{"zipCode":"4901312","prefectureKana":"ｱｲﾁｹﾝ","cityKana":"ｲﾅｻﾞﾜｼ","streetKana":"ﾍｲﾜﾁｮｳｼﾓﾐﾔｹ","prefecture":"愛知県","city":"稲沢市","street":"平和町下三宅"},{"zipCode":"4901301","prefectureKana":"ｱｲﾁｹﾝ","cityKana":"ｲﾅｻﾞﾜｼ","streetKana":"ﾍｲﾜﾁｮｳｽｶﾀﾆ","prefecture":"愛知県","city":"稲沢市","street":"平和町須ケ谷"},{"zipCode":"4901321","prefectureKana":"ｱｲﾁｹﾝ","cityKana":"ｲﾅｻﾞﾜｼ","streetKana":"ﾍｲﾜﾁｮｳﾄｳｼﾞｮｳ","prefecture":"愛知県","city":"稲沢市","street":"平和町東城"},{"zipCode":"4901311","prefectureKana":"ｱｲﾁｹﾝ","cityKana":"ｲﾅｻﾞﾜｼ","streetKana":"ﾍｲﾜﾁｮｳﾅｶﾐﾔｹ","prefecture":"愛知県","city":"稲沢市","street":"平和町中三宅"},{"zipCode":"4901315","prefectureKana":"ｱｲﾁｹﾝ","cityKana":"ｲﾅｻﾞﾜｼ","streetKana":"ﾍｲﾜﾁｮｳﾋﾗｲｹ","prefecture":"愛知県","city":"稲沢市","street":"平和町平池"},{"zipCode":"4901304","prefectureKana":"ｱｲﾁｹﾝ","cityKana":"ｲﾅｻﾞﾜｼ","streetKana":"ﾍｲﾜﾁｮｳﾎｳﾘｭｳ","prefecture":"愛知県","city":"稲沢市","street":"平和町法立"},{"zipCode":"4901313","prefectureKana":"ｱｲﾁｹﾝ","cityKana":"ｲﾅｻﾞﾜｼ","streetKana":"ﾍｲﾜﾁｮｳﾖｺｲｹ","prefecture":"愛知県","city":"稲沢市","street":"平和町横池"},{"zipCode":"4901322","prefectureKana":"ｱｲﾁｹﾝ","cityKana":"ｲﾅｻﾞﾜｼ","streetKana":"ﾍｲﾜﾁｮｳ(ｶﾐﾏｴﾅﾐ､ｼﾓﾏｴﾅﾐ)","prefecture":"愛知県","city":"稲沢市","street":"平和町（上前浪、下前浪）"},{"zipCode":"4901323","prefectureKana":"ｱｲﾁｹﾝ","cityKana":"ｲﾅｻﾞﾜｼ","streetKana":"ﾍｲﾜﾁｮｳ(ｺｳﾜ､ｼｵｶﾜ､ｼﾓｺｼｷﾀ､ｼﾓｺｼﾅｶ､ｼﾓｺｼﾋｶﾞｼ､ｼﾓｺｼﾐﾅﾐ､ｼｮﾊﾞﾀｼﾝﾃﾞﾝ､ｼﾛﾆｼ､","prefecture":"愛知県","city":"稲沢市","street":"平和町（光和、塩川、下起北、下起中、下起東、下起南、勝幡新田、城西、"},{"zipCode":"4901323","prefectureKana":"ｱｲﾁｹﾝ","cityKana":"ｲﾅｻﾞﾜｼ","streetKana":"ｼﾛﾉｳﾁ､ｽｶﾜｷ､ﾅｺﾗ､ﾍｲﾛｸ､ﾏｴﾋﾗ､ﾒｲﾜ､ﾖﾒﾌﾘ､ﾖﾒﾌﾘｷﾀ､ﾖﾒﾌﾘﾋｶﾞｼ､ﾘｮｳﾅｲ)","prefecture":"愛知県","city":"稲沢市","street":"城之内、須ケ脇、那古良、平六、前平、明和、嫁振、嫁振北、嫁振東、領内）"},{"zipCode":"4901305","prefectureKana":"ｱｲﾁｹﾝ","cityKana":"ｲﾅｻﾞﾜｼ","streetKana":"ﾍｲﾜﾁｮｳ(ﾏﾙﾌﾞﾁｶﾐ､ﾏﾙﾌﾞﾁｼﾓ､ﾜｼｵ)","prefecture":"愛知県","city":"稲沢市","street":"平和町（丸渕上、丸渕下、鷲尾）"},{"zipCode":"4901404","prefectureKana":"ｱｲﾁｹﾝ","cityKana":"ﾔﾄﾐｼ","streetKana":"ｲｶﾀﾞﾊﾞ","prefecture":"愛知県","city":"弥富市","street":"桴場"},{"zipCode":"4901412","prefectureKana":"ｱｲﾁｹﾝ","cityKana":"ﾔﾄﾐｼ","streetKana":"ｳﾏｶﾞﾝｼﾞ","prefecture":"愛知県","city":"弥富市","street":"馬ケ地"},{"zipCode":"4901423","prefectureKana":"ｱｲﾁｹﾝ","cityKana":"ﾔﾄﾐｼ","streetKana":"ｶｲｵｸ","prefecture":"愛知県","city":"弥富市","street":"海屋"},{"zipCode":"4901423","prefectureKana":"ｱｲﾁｹﾝ","cityKana":"ﾔﾄﾐｼ","streetKana":"ｶｲｵｸﾁｮｳ","prefecture":"愛知県","city":"弥富市","street":"海屋町"},{"zipCode":"4901421","prefectureKana":"ｱｲﾁｹﾝ","cityKana":"ﾔﾄﾐｼ","streetKana":"ｶﾐｵｼﾊｷﾞ","prefecture":"愛知県","city":"弥富市","street":"上押萩"},{"zipCode":"4901421","prefectureKana":"ｱｲﾁｹﾝ","cityKana":"ﾔﾄﾐｼ","streetKana":"ｶﾐｵｼﾊｷﾞﾁｮｳ","prefecture":"愛知県","city":"弥富市","street":"上押萩町"},{"zipCode":"4901424","prefectureKana":"ｱｲﾁｹﾝ","cityKana":"ﾔﾄﾐｼ","streetKana":"ｶﾒｶﾞﾝｼﾞ","prefecture":"愛知県","city":"弥富市","street":"亀ケ地"},{"zipCode":"4901405","prefectureKana":"ｱｲﾁｹﾝ","cityKana":"ﾔﾄﾐｼ","streetKana":"ｶﾝﾄﾞ","prefecture":"愛知県","city":"弥富市","street":"神戸"},{"zipCode":"4901405","prefectureKana":"ｱｲﾁｹﾝ","cityKana":"ﾔﾄﾐｼ","streetKana":"ｶﾝﾄﾞﾁｮｳ","prefecture":"愛知県","city":"弥富市","street":"神戸町"},{"zipCode":"4901413","prefectureKana":"ｱｲﾁｹﾝ","cityKana":"ﾔﾄﾐｼ","streetKana":"ｺﾀﾞｶﾗ","prefecture":"愛知県","city":"弥富市","street":"子宝"},{"zipCode":"4901413","prefectureKana":"ｱｲﾁｹﾝ","cityKana":"ﾔﾄﾐｼ","streetKana":"ｺﾀﾞｶﾗﾁｮｳ","prefecture":"愛知県","city":"弥富市","street":"子宝町"},{"zipCode":"4901402","prefectureKana":"ｱｲﾁｹﾝ","cityKana":"ﾔﾄﾐｼ","streetKana":"ｺﾞﾄﾔﾏ","prefecture":"愛知県","city":"弥富市","street":"五斗山"},{"zipCode":"4901414","prefectureKana":"ｱｲﾁｹﾝ","cityKana":"ﾔﾄﾐｼ","streetKana":"ｻｶﾅｶｼﾞ","prefecture":"愛知県","city":"弥富市","street":"坂中地"},{"zipCode":"4901414","prefectureKana":"ｱｲﾁｹﾝ","cityKana":"ﾔﾄﾐｼ","streetKana":"ｻｶﾅｶｼﾞﾁｮｳ","prefecture":"愛知県","city":"弥富市","street":"坂中地町"},{"zipCode":"4901415","prefectureKana":"ｱｲﾁｹﾝ","cityKana":"ﾔﾄﾐｼ","streetKana":"ｻﾒｶﾞﾝｼﾞ","prefecture":"愛知県","city":"弥富市","street":"鮫ケ地"},{"zipCode":"4901415","prefectureKana":"ｱｲﾁｹﾝ","cityKana":"ﾔﾄﾐｼ","streetKana":"ｻﾒｶﾞﾝｼﾞﾁｮｳ","prefecture":"愛知県","city":"弥富市","street":"鮫ケ地町"},{"zipCode":"4901407","prefectureKana":"ｱｲﾁｹﾝ","cityKana":"ﾔﾄﾐｼ","streetKana":"ｻﾝﾋﾞｬｸｼﾞﾏ","prefecture":"愛知県","city":"弥富市","street":"三百島"},{"zipCode":"4901422","prefectureKana":"ｱｲﾁｹﾝ","cityKana":"ﾔﾄﾐｼ","streetKana":"ｼﾓｵｼﾊｷﾞ","prefecture":"愛知県","city":"弥富市","street":"下押萩"},{"zipCode":"4901422","prefectureKana":"ｱｲﾁｹﾝ","cityKana":"ﾔﾄﾐｼ","streetKana":"ｼﾓｵｼﾊｷﾞﾁｮｳ","prefecture":"愛知県","city":"弥富市","street":"下押萩町"},{"zipCode":"4901426","prefectureKana":"ｱｲﾁｹﾝ","cityKana":"ﾔﾄﾐｼ","streetKana":"ｼﾛﾍﾞｴ","prefecture":"愛知県","city":"弥富市","street":"四郎兵衛"},{"zipCode":"4901426","prefectureKana":"ｱｲﾁｹﾝ","cityKana":"ﾔﾄﾐｼ","streetKana":"ｼﾛﾍﾞｴﾁｮｳ","prefecture":"愛知県","city":"弥富市","street":"四郎兵衛町"},{"zipCode":"4901411","prefectureKana":"ｱｲﾁｹﾝ","cityKana":"ﾔﾄﾐｼ","streetKana":"ｾﾞﾝﾀﾁｮｳ","prefecture":"愛知県","city":"弥富市","street":"善太町"},{"zipCode":"4901428","prefectureKana":"ｱｲﾁｹﾝ","cityKana":"ﾔﾄﾐｼ","streetKana":"ﾀｹﾀ","prefecture":"愛知県","city":"弥富市","street":"竹田"},{"zipCode":"4901403","prefectureKana":"ｱｲﾁｹﾝ","cityKana":"ﾔﾄﾐｼ","streetKana":"ﾄﾘｶﾞﾝｼﾞ","prefecture":"愛知県","city":"弥富市","street":"鳥ケ地"},{"zipCode":"4901403","prefectureKana":"ｱｲﾁｹﾝ","cityKana":"ﾔﾄﾐｼ","streetKana":"ﾄﾘｶﾞﾝｼﾞﾁｮｳ","prefecture":"愛知県","city":"弥富市","street":"鳥ケ地町"},{"zipCode":"4901406","prefectureKana":"ｱｲﾁｹﾝ","cityKana":"ﾔﾄﾐｼ","streetKana":"ﾅﾍﾞﾋﾗ","prefecture":"愛知県","city":"弥富市","street":"鍋平"},{"zipCode":"4901427","prefectureKana":"ｱｲﾁｹﾝ","cityKana":"ﾔﾄﾐｼ","streetKana":"ﾆｼｼｼﾞﾐ","prefecture":"愛知県","city":"弥富市","street":"西蜆"},{"zipCode":"4901425","prefectureKana":"ｱｲﾁｹﾝ","cityKana":"ﾔﾄﾐｼ","streetKana":"ﾋｶﾞｼｼｼﾞﾐ","prefecture":"愛知県","city":"弥富市","street":"東蜆"},{"zipCode":"4901401","prefectureKana":"ｱｲﾁｹﾝ","cityKana":"ﾔﾄﾐｼ","streetKana":"ﾛｸｼﾞｮｳﾁｮｳ","prefecture":"愛知県","city":"弥富市","street":"六條町"},{"zipCode":"4901200","prefectureKana":"ｱｲﾁｹﾝ","cityKana":"ｱﾏｼ","streetKana":"ｲｶﾆｹｲｻｲｶﾞﾅｲﾊﾞｱｲ","prefecture":"愛知県","city":"あま市","street":"以下に掲載がない場合"},{"zipCode":"4901102","prefectureKana":"ｱｲﾁｹﾝ","cityKana":"ｱﾏｼ","streetKana":"ｲｼﾂｸﾘ","prefecture":"愛知県","city":"あま市","street":"石作"},{"zipCode":"4901213","prefectureKana":"ｱｲﾁｹﾝ","cityKana":"ｱﾏｼ","streetKana":"ｵﾄﾉｺ","prefecture":"愛知県","city":"あま市","street":"乙之子"},{"zipCode":"4901221","prefectureKana":"ｱｲﾁｹﾝ","cityKana":"ｱﾏｼ","streetKana":"ｶﾅｲﾜ","prefecture":"愛知県","city":"あま市","street":"金岩"},{"zipCode":"4901112","prefectureKana":"ｱｲﾁｹﾝ","cityKana":"ｱﾏｼ","streetKana":"ｶﾐｶﾔﾂﾞ","prefecture":"愛知県","city":"あま市","street":"上萱津"},{"zipCode":"4901203","prefectureKana":"ｱｲﾁｹﾝ","cityKana":"ｱﾏｼ","streetKana":"ｷｵﾘ","prefecture":"愛知県","city":"あま市","street":"木折"},{"zipCode":"4901222","prefectureKana":"ｱｲﾁｹﾝ","cityKana":"ｱﾏｼ","streetKana":"ｷﾀﾞ","prefecture":"愛知県","city":"あま市","street":"木田"},{"zipCode":"4901214","prefectureKana":"ｱｲﾁｹﾝ","cityKana":"ｱﾏｼ","streetKana":"ｷﾀｶﾞﾘ","prefecture":"愛知県","city":"あま市","street":"北苅"},{"zipCode":"4901212","prefectureKana":"ｱｲﾁｹﾝ","cityKana":"ｱﾏｼ","streetKana":"ｺﾊﾞｼｶﾞﾀ","prefecture":"愛知県","city":"あま市","street":"小橋方"},{"zipCode":"4901103","prefectureKana":"ｱｲﾁｹﾝ","cityKana":"ｱﾏｼ","streetKana":"ｻｶｴ","prefecture":"愛知県","city":"あま市","street":"栄"},{"zipCode":"4901115","prefectureKana":"ｱｲﾁｹﾝ","cityKana":"ｱﾏｼ","streetKana":"ｻｶﾏｷ","prefecture":"愛知県","city":"あま市","street":"坂牧"},{"zipCode":"4901211","prefectureKana":"ｱｲﾁｹﾝ","cityKana":"ｱﾏｼ","streetKana":"ｼﾉﾀﾞ","prefecture":"愛知県","city":"あま市","street":"篠田"},{"zipCode":"4901114","prefectureKana":"ｱｲﾁｹﾝ","cityKana":"ｱﾏｼ","streetKana":"ｼﾓｶﾔﾂﾞ","prefecture":"愛知県","city":"あま市","street":"下萱津"},{"zipCode":"4901111","prefectureKana":"ｱｲﾁｹﾝ","cityKana":"ｱﾏｼ","streetKana":"ｼﾞﾓｸｼﾞ","prefecture":"愛知県","city":"あま市","street":"甚目寺"},{"zipCode":"4901106","prefectureKana":"ｱｲﾁｹﾝ","cityKana":"ｱﾏｼ","streetKana":"ｼｮｳｼﾞ","prefecture":"愛知県","city":"あま市","street":"小路"},{"zipCode":"4901224","prefectureKana":"ｱｲﾁｹﾝ","cityKana":"ｱﾏｼ","streetKana":"ﾀﾝﾊﾞ","prefecture":"愛知県","city":"あま市","street":"丹波"},{"zipCode":"4901202","prefectureKana":"ｱｲﾁｹﾝ","cityKana":"ｱﾏｼ","streetKana":"ﾄﾐﾂｶ","prefecture":"愛知県","city":"あま市","street":"富塚"},{"zipCode":"4901113","prefectureKana":"ｱｲﾁｹﾝ","cityKana":"ｱﾏｼ","streetKana":"ﾅｶｶﾔﾂﾞ","prefecture":"愛知県","city":"あま市","street":"中萱津"},{"zipCode":"4901226","prefectureKana":"ｱｲﾁｹﾝ","cityKana":"ｱﾏｼ","streetKana":"ﾅｶﾊｼ","prefecture":"愛知県","city":"あま市","street":"中橋"},{"zipCode":"4901105","prefectureKana":"ｱｲﾁｹﾝ","cityKana":"ｱﾏｼ","streetKana":"ﾆｲﾔ","prefecture":"愛知県","city":"あま市","street":"新居屋"},{"zipCode":"4901104","prefectureKana":"ｱｲﾁｹﾝ","cityKana":"ｱﾏｼ","streetKana":"ﾆｼｲﾏｼﾞｭｸ","prefecture":"愛知県","city":"あま市","street":"西今宿"},{"zipCode":"4901225","prefectureKana":"ｱｲﾁｹﾝ","cityKana":"ｱﾏｼ","streetKana":"ﾊﾁｽｶ","prefecture":"愛知県","city":"あま市","street":"蜂須賀"},{"zipCode":"4901204","prefectureKana":"ｱｲﾁｹﾝ","cityKana":"ｱﾏｼ","streetKana":"ﾊﾅｵｻ","prefecture":"愛知県","city":"あま市","street":"花長"},{"zipCode":"4901205","prefectureKana":"ｱｲﾁｹﾝ","cityKana":"ｱﾏｼ","streetKana":"ﾊﾅﾏｻ","prefecture":"愛知県","city":"あま市","street":"花正"},{"zipCode":"4901206","prefectureKana":"ｱｲﾁｹﾝ","cityKana":"ｱﾏｼ","streetKana":"ﾋｶﾞｼﾐｿﾞｸﾞﾁ","prefecture":"愛知県","city":"あま市","street":"東溝口"},{"zipCode":"4901207","prefectureKana":"ｱｲﾁｹﾝ","cityKana":"ｱﾏｼ","streetKana":"ﾌﾀﾂﾃﾞﾗ","prefecture":"愛知県","city":"あま市","street":"二ツ寺"},{"zipCode":"4901201","prefectureKana":"ｱｲﾁｹﾝ","cityKana":"ｱﾏｼ","streetKana":"ﾌﾙﾐﾁ","prefecture":"愛知県","city":"あま市","street":"古道"},{"zipCode":"4901101","prefectureKana":"ｱｲﾁｹﾝ","cityKana":"ｱﾏｼ","streetKana":"ﾎｳﾘｮｳ","prefecture":"愛知県","city":"あま市","street":"方領"},{"zipCode":"4901116","prefectureKana":"ｱｲﾁｹﾝ","cityKana":"ｱﾏｼ","streetKana":"ﾎﾝｺﾞｳ","prefecture":"愛知県","city":"あま市","street":"本郷"},{"zipCode":"4901107","prefectureKana":"ｱｲﾁｹﾝ","cityKana":"ｱﾏｼ","streetKana":"ﾓﾘ","prefecture":"愛知県","city":"あま市","street":"森"},{"zipCode":"4901223","prefectureKana":"ｱｲﾁｹﾝ","cityKana":"ｱﾏｼ","streetKana":"ﾓﾘﾔﾏ","prefecture":"愛知県","city":"あま市","street":"森山"},{"zipCode":"4901100","prefectureKana":"ｱｲﾁｹﾝ","cityKana":"ｱﾏｸﾞﾝｵｵﾊﾙﾁｮｳ","streetKana":"ｲｶﾆｹｲｻｲｶﾞﾅｲﾊﾞｱｲ","prefecture":"愛知県","city":"海部郡大治町","street":"以下に掲載がない場合"},{"zipCode":"4901135","prefectureKana":"ｱｲﾁｹﾝ","cityKana":"ｱﾏｸﾞﾝｵｵﾊﾙﾁｮｳ","streetKana":"ｶﾏｽｶ","prefecture":"愛知県","city":"海部郡大治町","street":"鎌須賀"},{"zipCode":"4901132","prefectureKana":"ｱｲﾁｹﾝ","cityKana":"ｱﾏｸﾞﾝｵｵﾊﾙﾁｮｳ","streetKana":"ｷﾀﾏｼﾞﾏ","prefecture":"愛知県","city":"海部郡大治町","street":"北間島"},{"zipCode":"4901142","prefectureKana":"ｱｲﾁｹﾝ","cityKana":"ｱﾏｸﾞﾝｵｵﾊﾙﾁｮｳ","streetKana":"ｻﾝﾎﾞﾝｷﾞ","prefecture":"愛知県","city":"海部郡大治町","street":"三本木"},{"zipCode":"4901143","prefectureKana":"ｱｲﾁｹﾝ","cityKana":"ｱﾏｸﾞﾝｵｵﾊﾙﾁｮｳ","streetKana":"ｽﾅｺﾞ","prefecture":"愛知県","city":"海部郡大治町","street":"砂子"},{"zipCode":"4901145","prefectureKana":"ｱｲﾁｹﾝ","cityKana":"ｱﾏｸﾞﾝｵｵﾊﾙﾁｮｳ","streetKana":"ﾅｶｼﾞﾏ","prefecture":"愛知県","city":"海部郡大治町","street":"中島"},{"zipCode":"4901131","prefectureKana":"ｱｲﾁｹﾝ","cityKana":"ｱﾏｸﾞﾝｵｵﾊﾙﾁｮｳ","streetKana":"ﾅｶﾞﾏｷ","prefecture":"愛知県","city":"海部郡大治町","street":"長牧"},{"zipCode":"4901144","prefectureKana":"ｱｲﾁｹﾝ","cityKana":"ｱﾏｸﾞﾝｵｵﾊﾙﾁｮｳ","streetKana":"ﾆｼｼﾞｮｳ","prefecture":"愛知県","city":"海部郡大治町","street":"西條"},{"zipCode":"4901136","prefectureKana":"ｱｲﾁｹﾝ","cityKana":"ｱﾏｸﾞﾝｵｵﾊﾙﾁｮｳ","streetKana":"ﾊﾅﾂﾈ","prefecture":"愛知県","city":"海部郡大治町","street":"花常"},{"zipCode":"4901134","prefectureKana":"ｱｲﾁｹﾝ","cityKana":"ｱﾏｸﾞﾝｵｵﾊﾙﾁｮｳ","streetKana":"ﾋｶﾞｼｼﾞｮｳ","prefecture":"愛知県","city":"海部郡大治町","street":"東條"},{"zipCode":"4901137","prefectureKana":"ｱｲﾁｹﾝ","cityKana":"ｱﾏｸﾞﾝｵｵﾊﾙﾁｮｳ","streetKana":"ﾎﾘﾉｳﾁ","prefecture":"愛知県","city":"海部郡大治町","street":"堀之内"},{"zipCode":"4901141","prefectureKana":"ｱｲﾁｹﾝ","cityKana":"ｱﾏｸﾞﾝｵｵﾊﾙﾁｮｳ","streetKana":"ﾏｼﾞﾏ","prefecture":"愛知県","city":"海部郡大治町","street":"馬島"},{"zipCode":"4901133","prefectureKana":"ｱｲﾁｹﾝ","cityKana":"ｱﾏｸﾞﾝｵｵﾊﾙﾁｮｳ","streetKana":"ﾔﾂﾔ","prefecture":"愛知県","city":"海部郡大治町","street":"八ツ屋"},{"zipCode":"4901400","prefectureKana":"ｱｲﾁｹﾝ","cityKana":"ｱﾏｸﾞﾝﾄﾋﾞｼﾏﾑﾗ","streetKana":"ｲｶﾆｹｲｻｲｶﾞﾅｲﾊﾞｱｲ","prefecture":"愛知県","city":"海部郡飛島村","street":"以下に掲載がない場合"},{"zipCode":"4901435","prefectureKana":"ｱｲﾁｹﾝ","cityKana":"ｱﾏｸﾞﾝﾄﾋﾞｼﾏﾑﾗ","streetKana":"ｳﾒﾉｺﾞｳ","prefecture":"愛知県","city":"海部郡飛島村","street":"梅之郷"},{"zipCode":"4901438","prefectureKana":"ｱｲﾁｹﾝ","cityKana":"ｱﾏｸﾞﾝﾄﾋﾞｼﾏﾑﾗ","streetKana":"ｵｵﾀﾞｶﾗ","prefecture":"愛知県","city":"海部郡飛島村","street":"大宝"},{"zipCode":"4901445","prefectureKana":"ｱｲﾁｹﾝ","cityKana":"ｱﾏｸﾞﾝﾄﾋﾞｼﾏﾑﾗ","streetKana":"ｶﾅｵｶ","prefecture":"愛知県","city":"海部郡飛島村","street":"金岡"},{"zipCode":"4901444","prefectureKana":"ｱｲﾁｹﾝ","cityKana":"ｱﾏｸﾞﾝﾄﾋﾞｼﾏﾑﾗ","streetKana":"ｷﾊﾞ","prefecture":"愛知県","city":"海部郡飛島村","street":"木場"},{"zipCode":"4901442","prefectureKana":"ｱｲﾁｹﾝ","cityKana":"ｱﾏｸﾞﾝﾄﾋﾞｼﾏﾑﾗ","streetKana":"ｺﾏｻﾅﾘ","prefecture":"愛知県","city":"海部郡飛島村","street":"古政成"},{"zipCode":"4901443","prefectureKana":"ｱｲﾁｹﾝ","cityKana":"ｱﾏｸﾞﾝﾄﾋﾞｼﾏﾑﾗ","streetKana":"ｼﾝﾏｻﾅﾘ","prefecture":"愛知県","city":"海部郡飛島村","street":"新政成"},{"zipCode":"4901436","prefectureKana":"ｱｲﾁｹﾝ","cityKana":"ｱﾏｸﾞﾝﾄﾋﾞｼﾏﾑﾗ","streetKana":"ﾀｹﾉｺﾞｳ","prefecture":"愛知県","city":"海部郡飛島村","street":"竹之郷"},{"zipCode":"4901437","prefectureKana":"ｱｲﾁｹﾝ","cityKana":"ｱﾏｸﾞﾝﾄﾋﾞｼﾏﾑﾗ","streetKana":"ﾄﾋﾞｼﾏｼﾝﾃﾞﾝ(ﾓﾄｷﾉｺﾞｳ)","prefecture":"愛知県","city":"海部郡飛島村","street":"飛島新田（元起之郷）"},{"zipCode":"4901433","prefectureKana":"ｱｲﾁｹﾝ","cityKana":"ｱﾏｸﾞﾝﾄﾋﾞｼﾏﾑﾗ","streetKana":"ﾅｷﾞｻ","prefecture":"愛知県","city":"海部郡飛島村","street":"渚"},{"zipCode":"4901447","prefectureKana":"ｱｲﾁｹﾝ","cityKana":"ｱﾏｸﾞﾝﾄﾋﾞｼﾏﾑﾗ","streetKana":"ﾆｼﾊﾏ","prefecture":"愛知県","city":"海部郡飛島村","street":"西浜"},{"zipCode":"4901446","prefectureKana":"ｱｲﾁｹﾝ","cityKana":"ｱﾏｸﾞﾝﾄﾋﾞｼﾏﾑﾗ","streetKana":"ﾋｶﾞｼﾊﾏ","prefecture":"愛知県","city":"海部郡飛島村","street":"東浜"},{"zipCode":"4901431","prefectureKana":"ｱｲﾁｹﾝ","cityKana":"ｱﾏｸﾞﾝﾄﾋﾞｼﾏﾑﾗ","streetKana":"ﾌｸｵｶ","prefecture":"愛知県","city":"海部郡飛島村","street":"服岡"},{"zipCode":"4901441","prefectureKana":"ｱｲﾁｹﾝ","cityKana":"ｱﾏｸﾞﾝﾄﾋﾞｼﾏﾑﾗ","streetKana":"ﾏｻﾅﾘ","prefecture":"愛知県","city":"海部郡飛島村","street":"政成"},{"zipCode":"4901434","prefectureKana":"ｱｲﾁｹﾝ","cityKana":"ｱﾏｸﾞﾝﾄﾋﾞｼﾏﾑﾗ","streetKana":"ﾏﾂﾉｺﾞｳ","prefecture":"愛知県","city":"海部郡飛島村","street":"松之郷"},{"zipCode":"4901432","prefectureKana":"ｱｲﾁｹﾝ","cityKana":"ｱﾏｸﾞﾝﾄﾋﾞｼﾏﾑﾗ","streetKana":"ﾐﾌｸ","prefecture":"愛知県","city":"海部郡飛島村","street":"三福"},{"zipCode":"4901437","prefectureKana":"ｱｲﾁｹﾝ","cityKana":"ｱﾏｸﾞﾝﾄﾋﾞｼﾏﾑﾗ","streetKana":"ﾓﾄｷ","prefecture":"愛知県","city":"海部郡飛島村","street":"元起"}]