[{"zipCode":"4940006","prefectureKana":"ｱｲﾁｹﾝ","cityKana":"ｲﾁﾉﾐﾔｼ","streetKana":"ｵｺｼ","prefecture":"愛知県","city":"一宮市","street":"起"},{"zipCode":"4940001","prefectureKana":"ｱｲﾁｹﾝ","cityKana":"ｲﾁﾉﾐﾔｼ","streetKana":"ｶｲﾒｲ","prefecture":"愛知県","city":"一宮市","street":"開明"},{"zipCode":"4940002","prefectureKana":"ｱｲﾁｹﾝ","cityKana":"ｲﾁﾉﾐﾔｼ","streetKana":"ｶｺﾞﾔ","prefecture":"愛知県","city":"一宮市","street":"篭屋"},{"zipCode":"4940014","prefectureKana":"ｱｲﾁｹﾝ","cityKana":"ｲﾁﾉﾐﾔｼ","streetKana":"ｶﾐｿﾌﾞｴ","prefecture":"愛知県","city":"一宮市","street":"上祖父江"},{"zipCode":"4940004","prefectureKana":"ｱｲﾁｹﾝ","cityKana":"ｲﾁﾉﾐﾔｼ","streetKana":"ｷﾀｲﾏ","prefecture":"愛知県","city":"一宮市","street":"北今"},{"zipCode":"4940007","prefectureKana":"ｱｲﾁｹﾝ","cityKana":"ｲﾁﾉﾐﾔｼ","streetKana":"ｺﾉﾌﾞﾅｶｼﾏ","prefecture":"愛知県","city":"一宮市","street":"小信中島"},{"zipCode":"4940003","prefectureKana":"ｱｲﾁｹﾝ","cityKana":"ｲﾁﾉﾐﾔｼ","streetKana":"ｻﾝｼﾞｮｳ","prefecture":"愛知県","city":"一宮市","street":"三条"},{"zipCode":"4940013","prefectureKana":"ｱｲﾁｹﾝ","cityKana":"ｲﾁﾉﾐﾔｼ","streetKana":"ﾀﾏﾉ","prefecture":"愛知県","city":"一宮市","street":"玉野"},{"zipCode":"4940018","prefectureKana":"ｱｲﾁｹﾝ","cityKana":"ｲﾁﾉﾐﾔｼ","streetKana":"ﾄﾐﾀﾞ","prefecture":"愛知県","city":"一宮市","street":"冨田"},{"zipCode":"4940005","prefectureKana":"ｱｲﾁｹﾝ","cityKana":"ｲﾁﾉﾐﾔｼ","streetKana":"ﾆｼｲﾂｼﾛ","prefecture":"愛知県","city":"一宮市","street":"西五城"},{"zipCode":"4940015","prefectureKana":"ｱｲﾁｹﾝ","cityKana":"ｲﾁﾉﾐﾔｼ","streetKana":"ﾆｼﾅｶﾉ","prefecture":"愛知県","city":"一宮市","street":"西中野"},{"zipCode":"4940011","prefectureKana":"ｱｲﾁｹﾝ","cityKana":"ｲﾁﾉﾐﾔｼ","streetKana":"ﾆｼﾊｷﾞﾜﾗ","prefecture":"愛知県","city":"一宮市","street":"西萩原"},{"zipCode":"4940019","prefectureKana":"ｱｲﾁｹﾝ","cityKana":"ｲﾁﾉﾐﾔｼ","streetKana":"ﾊｽｲｹ","prefecture":"愛知県","city":"一宮市","street":"蓮池"},{"zipCode":"4940008","prefectureKana":"ｱｲﾁｹﾝ","cityKana":"ｲﾁﾉﾐﾔｼ","streetKana":"ﾋｶﾞｼｲﾂｼﾛ","prefecture":"愛知県","city":"一宮市","street":"東五城"},{"zipCode":"4940016","prefectureKana":"ｱｲﾁｹﾝ","cityKana":"ｲﾁﾉﾐﾔｼ","streetKana":"ﾋｶﾞｼｶｶﾞﾉｲ","prefecture":"愛知県","city":"一宮市","street":"東加賀野井"},{"zipCode":"4940012","prefectureKana":"ｱｲﾁｹﾝ","cityKana":"ｲﾁﾉﾐﾔｼ","streetKana":"ﾒｲﾁ","prefecture":"愛知県","city":"一宮市","street":"明地"},{"zipCode":"4940017","prefectureKana":"ｱｲﾁｹﾝ","cityKana":"ｲﾁﾉﾐﾔｼ","streetKana":"ﾕｳｸ","prefecture":"愛知県","city":"一宮市","street":"祐久"}]