[{"zipCode":"5011182","prefectureKana":"ｷﾞﾌｹﾝ","cityKana":"ｷﾞﾌｼ","streetKana":"ｱｷｻﾜ","prefecture":"岐阜県","city":"岐阜市","street":"秋沢"},{"zipCode":"5013134","prefectureKana":"ｷﾞﾌｹﾝ","cityKana":"ｷﾞﾌｼ","streetKana":"ｱｸﾀﾐ","prefecture":"岐阜県","city":"岐阜市","street":"芥見"},{"zipCode":"5013111","prefectureKana":"ｷﾞﾌｹﾝ","cityKana":"ｷﾞﾌｼ","streetKana":"ｱｸﾀﾐｵｵﾉｷﾞ","prefecture":"岐阜県","city":"岐阜市","street":"芥見大退"},{"zipCode":"5013114","prefectureKana":"ｷﾞﾌｹﾝ","cityKana":"ｷﾞﾌｼ","streetKana":"ｱｸﾀﾐｵｵﾌﾞﾈ","prefecture":"岐阜県","city":"岐阜市","street":"芥見大船"},{"zipCode":"5013136","prefectureKana":"ｷﾞﾌｹﾝ","cityKana":"ｷﾞﾌｼ","streetKana":"ｱｸﾀﾐｶｲﾄﾔﾏ","prefecture":"岐阜県","city":"岐阜市","street":"芥見海戸山"},{"zipCode":"5013143","prefectureKana":"ｷﾞﾌｹﾝ","cityKana":"ｷﾞﾌｼ","streetKana":"ｱｸﾀﾐｶｹﾞﾔﾏ","prefecture":"岐阜県","city":"岐阜市","street":"芥見影山"},{"zipCode":"5013135","prefectureKana":"ｷﾞﾌｹﾝ","cityKana":"ｷﾞﾌｼ","streetKana":"ｱｸﾀﾐｷﾖﾐｽﾞ","prefecture":"岐阜県","city":"岐阜市","street":"芥見清水"},{"zipCode":"5013146","prefectureKana":"ｷﾞﾌｹﾝ","cityKana":"ｷﾞﾌｼ","streetKana":"ｱｸﾀﾐｻｶﾞ","prefecture":"岐阜県","city":"岐阜市","street":"芥見嵯峨"},{"zipCode":"5013144","prefectureKana":"ｷﾞﾌｹﾝ","cityKana":"ｷﾞﾌｼ","streetKana":"ｱｸﾀﾐﾀﾞｲﾊﾝﾆｬ","prefecture":"岐阜県","city":"岐阜市","street":"芥見大般若"},{"zipCode":"5013141","prefectureKana":"ｷﾞﾌｹﾝ","cityKana":"ｷﾞﾌｼ","streetKana":"ｱｸﾀﾐﾅｶﾉﾊﾞﾀ","prefecture":"岐阜県","city":"岐阜市","street":"芥見中野畑"},{"zipCode":"5013132","prefectureKana":"ｷﾞﾌｹﾝ","cityKana":"ｷﾞﾌｼ","streetKana":"ｱｸﾀﾐﾅｶﾞﾔﾏ","prefecture":"岐阜県","city":"岐阜市","street":"芥見長山"},{"zipCode":"5013145","prefectureKana":"ｷﾞﾌｹﾝ","cityKana":"ｷﾞﾌｼ","streetKana":"ｱｸﾀﾐﾉﾊﾞﾀ","prefecture":"岐阜県","city":"岐阜市","street":"芥見野畑"},{"zipCode":"5013112","prefectureKana":"ｷﾞﾌｹﾝ","cityKana":"ｷﾞﾌｼ","streetKana":"ｱｸﾀﾐﾋｶﾞｼﾔﾏ","prefecture":"岐阜県","city":"岐阜市","street":"芥見東山"},{"zipCode":"5013147","prefectureKana":"ｷﾞﾌｹﾝ","cityKana":"ｷﾞﾌｼ","streetKana":"ｱｸﾀﾐﾎﾘﾀ","prefecture":"岐阜県","city":"岐阜市","street":"芥見堀田"},{"zipCode":"5013116","prefectureKana":"ｷﾞﾌｹﾝ","cityKana":"ｷﾞﾌｼ","streetKana":"ｱｸﾀﾐﾏﾁﾔ","prefecture":"岐阜県","city":"岐阜市","street":"芥見町屋"},{"zipCode":"5013133","prefectureKana":"ｷﾞﾌｹﾝ","cityKana":"ｷﾞﾌｼ","streetKana":"ｱｸﾀﾐﾐﾅﾐﾔﾏ","prefecture":"岐阜県","city":"岐阜市","street":"芥見南山"},{"zipCode":"5011109","prefectureKana":"ｷﾞﾌｹﾝ","cityKana":"ｷﾞﾌｼ","streetKana":"ｱｼﾞｷ","prefecture":"岐阜県","city":"岐阜市","street":"安食"},{"zipCode":"5011108","prefectureKana":"ｷﾞﾌｹﾝ","cityKana":"ｷﾞﾌｼ","streetKana":"ｱｼﾞｷｼﾗｺ","prefecture":"岐阜県","city":"岐阜市","street":"安食志良古"},{"zipCode":"5011106","prefectureKana":"ｷﾞﾌｹﾝ","cityKana":"ｷﾞﾌｼ","streetKana":"ｲｼｶﾞｲ","prefecture":"岐阜県","city":"岐阜市","street":"石谷"},{"zipCode":"5012535","prefectureKana":"ｷﾞﾌｹﾝ","cityKana":"ｷﾞﾌｼ","streetKana":"ｲｼﾊﾗ(1-3ﾁｮｳﾒ)","prefecture":"岐阜県","city":"岐阜市","street":"石原（１～３丁目）"},{"zipCode":"5013104","prefectureKana":"ｷﾞﾌｹﾝ","cityKana":"ｷﾞﾌｼ","streetKana":"ｲｼﾊﾗ(ｿﾉﾀ)","prefecture":"岐阜県","city":"岐阜市","street":"石原（その他）"},{"zipCode":"5011114","prefectureKana":"ｷﾞﾌｹﾝ","cityKana":"ｷﾞﾌｼ","streetKana":"ｲﾏｶﾞﾜ","prefecture":"岐阜県","city":"岐阜市","street":"今川"},{"zipCode":"5013101","prefectureKana":"ｷﾞﾌｹﾝ","cityKana":"ｷﾞﾌｼ","streetKana":"ｲﾜｲ","prefecture":"岐阜県","city":"岐阜市","street":"岩井"},{"zipCode":"5013102","prefectureKana":"ｷﾞﾌｹﾝ","cityKana":"ｷﾞﾌｼ","streetKana":"ｲﾜｲﾏﾝﾊﾞ","prefecture":"岐阜県","city":"岐阜市","street":"岩井万場"},{"zipCode":"5013154","prefectureKana":"ｷﾞﾌｹﾝ","cityKana":"ｷﾞﾌｼ","streetKana":"ｲﾜﾀﾋｶﾞｼ","prefecture":"岐阜県","city":"岐阜市","street":"岩田東"},{"zipCode":"5013156","prefectureKana":"ｷﾞﾌｹﾝ","cityKana":"ｷﾞﾌｼ","streetKana":"ｲﾜﾀﾆｼ","prefecture":"岐阜県","city":"岐阜市","street":"岩田西"},{"zipCode":"5013151","prefectureKana":"ｷﾞﾌｹﾝ","cityKana":"ｷﾞﾌｼ","streetKana":"ｲﾜﾀｷﾋｶﾞｼ","prefecture":"岐阜県","city":"岐阜市","street":"岩滝東"},{"zipCode":"5013152","prefectureKana":"ｷﾞﾌｹﾝ","cityKana":"ｷﾞﾌｼ","streetKana":"ｲﾜﾀｷﾆｼ","prefecture":"岐阜県","city":"岐阜市","street":"岩滝西"},{"zipCode":"5013155","prefectureKana":"ｷﾞﾌｹﾝ","cityKana":"ｷﾞﾌｼ","streetKana":"ｲﾜﾀｻﾞｶ","prefecture":"岐阜県","city":"岐阜市","street":"岩田坂"},{"zipCode":"5011102","prefectureKana":"ｷﾞﾌｹﾝ","cityKana":"ｷﾞﾌｼ","streetKana":"ｲﾜﾘ","prefecture":"岐阜県","city":"岐阜市","street":"岩利"},{"zipCode":"5010117","prefectureKana":"ｷﾞﾌｹﾝ","cityKana":"ｷﾞﾌｼ","streetKana":"ｴｻｷ","prefecture":"岐阜県","city":"岐阜市","street":"江崎"},{"zipCode":"5010121","prefectureKana":"ｷﾞﾌｹﾝ","cityKana":"ｷﾞﾌｼ","streetKana":"ｴｻｷｷﾀ","prefecture":"岐阜県","city":"岐阜市","street":"江崎北"},{"zipCode":"5010122","prefectureKana":"ｷﾞﾌｹﾝ","cityKana":"ｷﾞﾌｼ","streetKana":"ｴｻｷﾐﾅﾐ","prefecture":"岐阜県","city":"岐阜市","street":"江崎南"},{"zipCode":"5013108","prefectureKana":"ｷﾞﾌｹﾝ","cityKana":"ｷﾞﾌｼ","streetKana":"ｵｵｸﾗﾀﾞｲ","prefecture":"岐阜県","city":"岐阜市","street":"大蔵台"},{"zipCode":"5010118","prefectureKana":"ｷﾞﾌｹﾝ","cityKana":"ｷﾞﾌｼ","streetKana":"ｵｵｽｶﾞｷﾀ","prefecture":"岐阜県","city":"岐阜市","street":"大菅北"},{"zipCode":"5010119","prefectureKana":"ｷﾞﾌｹﾝ","cityKana":"ｷﾞﾌｼ","streetKana":"ｵｵｽｶﾞﾐﾅﾐ","prefecture":"岐阜県","city":"岐阜市","street":"大菅南"},{"zipCode":"5013124","prefectureKana":"ｷﾞﾌｹﾝ","cityKana":"ｷﾞﾌｼ","streetKana":"ｵｵﾎﾞﾗ","prefecture":"岐阜県","city":"岐阜市","street":"大洞"},{"zipCode":"5013123","prefectureKana":"ｷﾞﾌｹﾝ","cityKana":"ｷﾞﾌｼ","streetKana":"ｵｵﾎﾞﾗｶｼﾜﾀﾞｲ","prefecture":"岐阜県","city":"岐阜市","street":"大洞柏台"},{"zipCode":"5013121","prefectureKana":"ｷﾞﾌｹﾝ","cityKana":"ｷﾞﾌｼ","streetKana":"ｵｵﾎﾞﾗｷﾘｶﾞｵｶ","prefecture":"岐阜県","city":"岐阜市","street":"大洞桐が丘"},{"zipCode":"5013127","prefectureKana":"ｷﾞﾌｹﾝ","cityKana":"ｷﾞﾌｼ","streetKana":"ｵｵﾎﾞﾗｻｸﾗﾀﾞｲ","prefecture":"岐阜県","city":"岐阜市","street":"大洞桜台"},{"zipCode":"5013125","prefectureKana":"ｷﾞﾌｹﾝ","cityKana":"ｷﾞﾌｼ","streetKana":"ｵｵﾎﾞﾗﾐﾄﾞﾘﾔﾏ","prefecture":"岐阜県","city":"岐阜市","street":"大洞緑山"},{"zipCode":"5013122","prefectureKana":"ｷﾞﾌｹﾝ","cityKana":"ｷﾞﾌｼ","streetKana":"ｵｵﾎﾞﾗﾓﾐｼﾞｶﾞｵｶ","prefecture":"岐阜県","city":"岐阜市","street":"大洞紅葉が丘"},{"zipCode":"5013126","prefectureKana":"ｷﾞﾌｹﾝ","cityKana":"ｷﾞﾌｼ","streetKana":"ｵｵﾎﾞﾗﾆｼ","prefecture":"岐阜県","city":"岐阜市","street":"大洞西"},{"zipCode":"5016134","prefectureKana":"ｷﾞﾌｹﾝ","cityKana":"ｷﾞﾌｼ","streetKana":"ｵｵﾜｷ","prefecture":"岐阜県","city":"岐阜市","street":"大脇"},{"zipCode":"5011185","prefectureKana":"ｷﾞﾌｹﾝ","cityKana":"ｷﾞﾌｼ","streetKana":"ｵｸ","prefecture":"岐阜県","city":"岐阜市","street":"奥"},{"zipCode":"5011132","prefectureKana":"ｷﾞﾌｹﾝ","cityKana":"ｷﾞﾌｼ","streetKana":"ｵﾘﾀﾃ","prefecture":"岐阜県","city":"岐阜市","street":"折立"},{"zipCode":"5010111","prefectureKana":"ｷﾞﾌｹﾝ","cityKana":"ｷﾞﾌｼ","streetKana":"ｶｶﾞｼﾏ","prefecture":"岐阜県","city":"岐阜市","street":"鏡島"},{"zipCode":"5010113","prefectureKana":"ｷﾞﾌｹﾝ","cityKana":"ｷﾞﾌｼ","streetKana":"ｶｶﾞｼﾏｲﾁﾊﾞ","prefecture":"岐阜県","city":"岐阜市","street":"鏡島市場"},{"zipCode":"5010112","prefectureKana":"ｷﾞﾌｹﾝ","cityKana":"ｷﾞﾌｼ","streetKana":"ｶｶﾞｼﾏｾｲｶ","prefecture":"岐阜県","city":"岐阜市","street":"鏡島精華"},{"zipCode":"5010111","prefectureKana":"ｷﾞﾌｹﾝ","cityKana":"ｷﾞﾌｼ","streetKana":"ｶｶﾞｼﾏﾁｮｳ","prefecture":"岐阜県","city":"岐阜市","street":"鏡島町"},{"zipCode":"5010124","prefectureKana":"ｷﾞﾌｹﾝ","cityKana":"ｷﾞﾌｼ","streetKana":"ｶｶﾞｼﾏﾅｶ","prefecture":"岐阜県","city":"岐阜市","street":"鏡島中"},{"zipCode":"5010123","prefectureKana":"ｷﾞﾌｹﾝ","cityKana":"ｷﾞﾌｼ","streetKana":"ｶｶﾞｼﾏﾆｼ","prefecture":"岐阜県","city":"岐阜市","street":"鏡島西"},{"zipCode":"5010115","prefectureKana":"ｷﾞﾌｹﾝ","cityKana":"ｷﾞﾌｼ","streetKana":"ｶｶﾞｼﾏﾐﾅﾐ","prefecture":"岐阜県","city":"岐阜市","street":"鏡島南"},{"zipCode":"5012521","prefectureKana":"ｷﾞﾌｹﾝ","cityKana":"ｷﾞﾌｼ","streetKana":"ｶﾄﾞﾔ","prefecture":"岐阜県","city":"岐阜市","street":"門屋"},{"zipCode":"5012528","prefectureKana":"ｷﾞﾌｹﾝ","cityKana":"ｷﾞﾌｼ","streetKana":"ｶﾄﾞﾔｶﾄﾞ","prefecture":"岐阜県","city":"岐阜市","street":"門屋門"},{"zipCode":"5012527","prefectureKana":"ｷﾞﾌｹﾝ","cityKana":"ｷﾞﾌｼ","streetKana":"ｶﾄﾞﾔｾｲﾋｷ","prefecture":"岐阜県","city":"岐阜市","street":"門屋勢引"},{"zipCode":"5012526","prefectureKana":"ｷﾞﾌｹﾝ","cityKana":"ｷﾞﾌｼ","streetKana":"ｶﾄﾞﾔﾉｻﾞｷ","prefecture":"岐阜県","city":"岐阜市","street":"門屋野崎"},{"zipCode":"5012522","prefectureKana":"ｷﾞﾌｹﾝ","cityKana":"ｷﾞﾌｼ","streetKana":"ｶﾄﾞﾔﾐｿﾞｶﾞﾐ","prefecture":"岐阜県","city":"岐阜市","street":"門屋溝上"},{"zipCode":"5013107","prefectureKana":"ｷﾞﾌｹﾝ","cityKana":"ｷﾞﾌｼ","streetKana":"ｶﾉ","prefecture":"岐阜県","city":"岐阜市","street":"加野"},{"zipCode":"5013115","prefectureKana":"ｷﾞﾌｹﾝ","cityKana":"ｷﾞﾌｼ","streetKana":"ｶﾐｱｸﾀﾐ","prefecture":"岐阜県","city":"岐阜市","street":"上芥見"},{"zipCode":"5011178","prefectureKana":"ｷﾞﾌｹﾝ","cityKana":"ｷﾞﾌｼ","streetKana":"ｶﾐｻｲｺﾞｳ","prefecture":"岐阜県","city":"岐阜市","street":"上西郷"},{"zipCode":"5011150","prefectureKana":"ｷﾞﾌｹﾝ","cityKana":"ｷﾞﾌｼ","streetKana":"ｶﾐｼｯｹ","prefecture":"岐阜県","city":"岐阜市","street":"上尻毛"},{"zipCode":"5011149","prefectureKana":"ｷﾞﾌｹﾝ","cityKana":"ｷﾞﾌｼ","streetKana":"ｶﾐｼｯｹﾊﾁﾏﾝ","prefecture":"岐阜県","city":"岐阜市","street":"上尻毛八幡"},{"zipCode":"5011148","prefectureKana":"ｷﾞﾌｹﾝ","cityKana":"ｷﾞﾌｼ","streetKana":"ｶﾐｼｯｹﾋﾖｼ","prefecture":"岐阜県","city":"岐阜市","street":"上尻毛日吉"},{"zipCode":"5010111","prefectureKana":"ｷﾞﾌｹﾝ","cityKana":"ｷﾞﾌｼ","streetKana":"ｶﾜﾊﾗﾊﾞﾀ","prefecture":"岐阜県","city":"岐阜市","street":"川原畑"},{"zipCode":"5011151","prefectureKana":"ｷﾞﾌｹﾝ","cityKana":"ｷﾞﾌｼ","streetKana":"ｶﾜﾍﾞ","prefecture":"岐阜県","city":"岐阜市","street":"川部"},{"zipCode":"5013131","prefectureKana":"ｷﾞﾌｹﾝ","cityKana":"ｷﾞﾌｼ","streetKana":"ｷﾞｵﾝ","prefecture":"岐阜県","city":"岐阜市","street":"祇園"},{"zipCode":"5011133","prefectureKana":"ｷﾞﾌｹﾝ","cityKana":"ｷﾞﾌｼ","streetKana":"ｷﾀｶｷｶﾞｾ","prefecture":"岐阜県","city":"岐阜市","street":"北柿ケ瀬"},{"zipCode":"5012503","prefectureKana":"ｷﾞﾌｹﾝ","cityKana":"ｷﾞﾌｼ","streetKana":"ｷﾀﾉｱﾜﾗ","prefecture":"岐阜県","city":"岐阜市","street":"北野阿原"},{"zipCode":"5012519","prefectureKana":"ｷﾞﾌｹﾝ","cityKana":"ｷﾞﾌｼ","streetKana":"ｷﾀﾉﾆｼﾔﾏ","prefecture":"岐阜県","city":"岐阜市","street":"北野西山"},{"zipCode":"5012512","prefectureKana":"ｷﾞﾌｹﾝ","cityKana":"ｷﾞﾌｼ","streetKana":"ｷﾀﾉﾋｶﾞｼ","prefecture":"岐阜県","city":"岐阜市","street":"北野東"},{"zipCode":"5012518","prefectureKana":"ｷﾞﾌｹﾝ","cityKana":"ｷﾞﾌｼ","streetKana":"ｷﾀﾉﾆｼ","prefecture":"岐阜県","city":"岐阜市","street":"北野西"},{"zipCode":"5012516","prefectureKana":"ｷﾞﾌｹﾝ","cityKana":"ｷﾞﾌｼ","streetKana":"ｷﾀﾉﾐﾅﾐ","prefecture":"岐阜県","city":"岐阜市","street":"北野南"},{"zipCode":"5012511","prefectureKana":"ｷﾞﾌｹﾝ","cityKana":"ｷﾞﾌｼ","streetKana":"ｷﾀﾉｷﾀ","prefecture":"岐阜県","city":"岐阜市","street":"北野北"},{"zipCode":"5013113","prefectureKana":"ｷﾞﾌｹﾝ","cityKana":"ｷﾞﾌｼ","streetKana":"ｷﾀﾔﾏ","prefecture":"岐阜県","city":"岐阜市","street":"北山"},{"zipCode":"5011135","prefectureKana":"ｷﾞﾌｹﾝ","cityKana":"ｷﾞﾌｼ","streetKana":"ｷﾀﾞ","prefecture":"岐阜県","city":"岐阜市","street":"木田"},{"zipCode":"5011131","prefectureKana":"ｷﾞﾌｹﾝ","cityKana":"ｷﾞﾌｼ","streetKana":"ｸﾛﾉ","prefecture":"岐阜県","city":"岐阜市","street":"黒野"},{"zipCode":"5011136","prefectureKana":"ｷﾞﾌｹﾝ","cityKana":"ｷﾞﾌｼ","streetKana":"ｸﾛﾉﾐﾅﾐ","prefecture":"岐阜県","city":"岐阜市","street":"黒野南"},{"zipCode":"5010105","prefectureKana":"ｷﾞﾌｹﾝ","cityKana":"ｷﾞﾌｼ","streetKana":"ｺﾞｳﾄﾞ","prefecture":"岐阜県","city":"岐阜市","street":"河渡"},{"zipCode":"5011176","prefectureKana":"ｷﾞﾌｹﾝ","cityKana":"ｷﾞﾌｼ","streetKana":"ｺｻｲｺﾞｳ","prefecture":"岐阜県","city":"岐阜市","street":"小西郷"},{"zipCode":"5011174","prefectureKana":"ｷﾞﾌｹﾝ","cityKana":"ｷﾞﾌｼ","streetKana":"ｺﾉ","prefecture":"岐阜県","city":"岐阜市","street":"小野"},{"zipCode":"5011171","prefectureKana":"ｷﾞﾌｹﾝ","cityKana":"ｷﾞﾌｼ","streetKana":"ｺﾞﾓ","prefecture":"岐阜県","city":"岐阜市","street":"御望"},{"zipCode":"5013117","prefectureKana":"ｷﾞﾌｹﾝ","cityKana":"ｷﾞﾌｼ","streetKana":"ｺﾓﾝﾋﾙｽﾞｷﾀﾔﾏ","prefecture":"岐阜県","city":"岐阜市","street":"コモンヒルズ北山"},{"zipCode":"5011101","prefectureKana":"ｷﾞﾌｹﾝ","cityKana":"ｷﾞﾌｼ","streetKana":"ｻﾉ","prefecture":"岐阜県","city":"岐阜市","street":"佐野"},{"zipCode":"5013153","prefectureKana":"ｷﾞﾌｹﾝ","cityKana":"ｷﾞﾌｼ","streetKana":"ｼｽﾞｶﾞｵｶﾁｮｳ","prefecture":"岐阜県","city":"岐阜市","street":"静が丘町"},{"zipCode":"5011147","prefectureKana":"ｷﾞﾌｹﾝ","cityKana":"ｷﾞﾌｼ","streetKana":"ｼｯｹ","prefecture":"岐阜県","city":"岐阜市","street":"尻毛"},{"zipCode":"5011172","prefectureKana":"ｷﾞﾌｹﾝ","cityKana":"ｷﾞﾌｼ","streetKana":"ｼﾓｳｶｲ","prefecture":"岐阜県","city":"岐阜市","street":"下鵜飼"},{"zipCode":"5011175","prefectureKana":"ｷﾞﾌｹﾝ","cityKana":"ｷﾞﾌｼ","streetKana":"ｼﾓｻｲｺﾞｳ","prefecture":"岐阜県","city":"岐阜市","street":"下西郷"},{"zipCode":"5011146","prefectureKana":"ｷﾞﾌｹﾝ","cityKana":"ｷﾞﾌｼ","streetKana":"ｼﾓｼｯｹ","prefecture":"岐阜県","city":"岐阜市","street":"下尻毛"},{"zipCode":"5013142","prefectureKana":"ｷﾞﾌｹﾝ","cityKana":"ｷﾞﾌｼ","streetKana":"ｽﾜﾔﾏ","prefecture":"岐阜県","city":"岐阜市","street":"諏訪山"},{"zipCode":"5010101","prefectureKana":"ｷﾞﾌｹﾝ","cityKana":"ｷﾞﾌｼ","streetKana":"ｿｶﾞﾔ","prefecture":"岐阜県","city":"岐阜市","street":"曽我屋"},{"zipCode":"5011113","prefectureKana":"ｷﾞﾌｹﾝ","cityKana":"ｷﾞﾌｼ","streetKana":"ﾀﾞｲｶﾞｸﾆｼ","prefecture":"岐阜県","city":"岐阜市","street":"大学西"},{"zipCode":"5011111","prefectureKana":"ｷﾞﾌｹﾝ","cityKana":"ｷﾞﾌｼ","streetKana":"ﾀﾞｲｶﾞｸｷﾀ","prefecture":"岐阜県","city":"岐阜市","street":"大学北"},{"zipCode":"5016131","prefectureKana":"ｷﾞﾌｹﾝ","cityKana":"ｷﾞﾌｼ","streetKana":"ﾀｶｶﾞﾜﾗ","prefecture":"岐阜県","city":"岐阜市","street":"高河原"},{"zipCode":"5012577","prefectureKana":"ｷﾞﾌｹﾝ","cityKana":"ｷﾞﾌｼ","streetKana":"ﾀﾛｳﾏﾙ","prefecture":"岐阜県","city":"岐阜市","street":"太郎丸"},{"zipCode":"5012536","prefectureKana":"ｷﾞﾌｹﾝ","cityKana":"ｷﾞﾌｼ","streetKana":"ﾀﾛｳﾏﾙｶｼｷ","prefecture":"岐阜県","city":"岐阜市","street":"太郎丸樫木"},{"zipCode":"5012574","prefectureKana":"ｷﾞﾌｹﾝ","cityKana":"ｷﾞﾌｼ","streetKana":"ﾀﾛｳﾏﾙｷﾀｳﾗ","prefecture":"岐阜県","city":"岐阜市","street":"太郎丸北浦"},{"zipCode":"5012572","prefectureKana":"ｷﾞﾌｹﾝ","cityKana":"ｷﾞﾌｼ","streetKana":"ﾀﾛｳﾏﾙｷﾀｺﾞｳ","prefecture":"岐阜県","city":"岐阜市","street":"太郎丸北郷"},{"zipCode":"5012576","prefectureKana":"ｷﾞﾌｹﾝ","cityKana":"ｷﾞﾌｼ","streetKana":"ﾀﾛｳﾏﾙｼﾝﾔｼｷ","prefecture":"岐阜県","city":"岐阜市","street":"太郎丸新屋敷"},{"zipCode":"5012573","prefectureKana":"ｷﾞﾌｹﾝ","cityKana":"ｷﾞﾌｼ","streetKana":"ﾀﾛｳﾏﾙｽﾜ","prefecture":"岐阜県","city":"岐阜市","street":"太郎丸諏訪"},{"zipCode":"5012579","prefectureKana":"ｷﾞﾌｹﾝ","cityKana":"ｷﾞﾌｼ","streetKana":"ﾀﾛｳﾏﾙﾁﾉﾐﾁ","prefecture":"岐阜県","city":"岐阜市","street":"太郎丸知之道"},{"zipCode":"5012575","prefectureKana":"ｷﾞﾌｹﾝ","cityKana":"ｷﾞﾌｼ","streetKana":"ﾀﾛｳﾏﾙﾅｶｼﾞﾏ","prefecture":"岐阜県","city":"岐阜市","street":"太郎丸中島"},{"zipCode":"5012578","prefectureKana":"ｷﾞﾌｹﾝ","cityKana":"ｷﾞﾌｼ","streetKana":"ﾀﾛｳﾏﾙﾉﾀﾞ","prefecture":"岐阜県","city":"岐阜市","street":"太郎丸野田"},{"zipCode":"5012571","prefectureKana":"ｷﾞﾌｹﾝ","cityKana":"ｷﾞﾌｼ","streetKana":"ﾀﾛｳﾏﾙﾑｶﾞｲﾗ","prefecture":"岐阜県","city":"岐阜市","street":"太郎丸向良"},{"zipCode":"5016135","prefectureKana":"ｷﾞﾌｹﾝ","cityKana":"ｷﾞﾌｼ","streetKana":"ﾁｬﾔｼﾝﾃﾞﾝ","prefecture":"岐阜県","city":"岐阜市","street":"茶屋新田"},{"zipCode":"5012501","prefectureKana":"ｷﾞﾌｹﾝ","cityKana":"ｷﾞﾌｼ","streetKana":"ﾃﾞﾔｼｷ","prefecture":"岐阜県","city":"岐阜市","street":"出屋敷"},{"zipCode":"5010104","prefectureKana":"ｷﾞﾌｹﾝ","cityKana":"ｷﾞﾌｼ","streetKana":"ﾃﾗﾀﾞ","prefecture":"岐阜県","city":"岐阜市","street":"寺田"},{"zipCode":"5011186","prefectureKana":"ｷﾞﾌｹﾝ","cityKana":"ｷﾞﾌｼ","streetKana":"ﾄﾔﾏ","prefecture":"岐阜県","city":"岐阜市","street":"外山"},{"zipCode":"5011173","prefectureKana":"ｷﾞﾌｹﾝ","cityKana":"ｷﾞﾌｼ","streetKana":"ﾅｶ","prefecture":"岐阜県","city":"岐阜市","street":"中"},{"zipCode":"5011177","prefectureKana":"ｷﾞﾌｹﾝ","cityKana":"ｷﾞﾌｼ","streetKana":"ﾅｶｻｲｺﾞｳ","prefecture":"岐阜県","city":"岐阜市","street":"中西郷"},{"zipCode":"5012531","prefectureKana":"ｷﾞﾌｹﾝ","cityKana":"ｷﾞﾌｼ","streetKana":"ﾅｶﾔﾋｶﾞｼ","prefecture":"岐阜県","city":"岐阜市","street":"中屋東"},{"zipCode":"5012532","prefectureKana":"ｷﾞﾌｹﾝ","cityKana":"ｷﾞﾌｼ","streetKana":"ﾅｶﾔﾆｼ","prefecture":"岐阜県","city":"岐阜市","street":"中屋西"},{"zipCode":"5016132","prefectureKana":"ｷﾞﾌｹﾝ","cityKana":"ｷﾞﾌｼ","streetKana":"ﾅﾒｷ","prefecture":"岐阜県","city":"岐阜市","street":"次木"},{"zipCode":"5011184","prefectureKana":"ｷﾞﾌｹﾝ","cityKana":"ｷﾞﾌｼ","streetKana":"ﾆｼｱｷｻﾜ","prefecture":"岐阜県","city":"岐阜市","street":"西秋沢"},{"zipCode":"5011159","prefectureKana":"ｷﾞﾌｹﾝ","cityKana":"ｷﾞﾌｼ","streetKana":"ﾆｼｶｲﾃﾞﾝ","prefecture":"岐阜県","city":"岐阜市","street":"西改田"},{"zipCode":"5011168","prefectureKana":"ｷﾞﾌｹﾝ","cityKana":"ｷﾞﾌｼ","streetKana":"ﾆｼｶｲﾃﾞﾝｳｴﾉﾏﾁ","prefecture":"岐阜県","city":"岐阜市","street":"西改田上の町"},{"zipCode":"5011161","prefectureKana":"ｷﾞﾌｹﾝ","cityKana":"ｷﾞﾌｼ","streetKana":"ﾆｼｶｲﾃﾞﾝｶﾜﾑｶｲ","prefecture":"岐阜県","city":"岐阜市","street":"西改田川向"},{"zipCode":"5011163","prefectureKana":"ｷﾞﾌｹﾝ","cityKana":"ｷﾞﾌｼ","streetKana":"ﾆｼｶｲﾃﾞﾝｺﾒﾉ","prefecture":"岐阜県","city":"岐阜市","street":"西改田米野"},{"zipCode":"5011158","prefectureKana":"ｷﾞﾌｹﾝ","cityKana":"ｷﾞﾌｼ","streetKana":"ﾆｼｶｲﾃﾞﾝｾﾝﾄﾞｳ","prefecture":"岐阜県","city":"岐阜市","street":"西改田先道"},{"zipCode":"5011167","prefectureKana":"ｷﾞﾌｹﾝ","cityKana":"ｷﾞﾌｼ","streetKana":"ﾆｼｶｲﾃﾞﾝﾅﾂﾒ","prefecture":"岐阜県","city":"岐阜市","street":"西改田夏梅"},{"zipCode":"5011164","prefectureKana":"ｷﾞﾌｹﾝ","cityKana":"ｷﾞﾌｼ","streetKana":"ﾆｼｶｲﾃﾞﾝﾋｶﾞｼｶｲﾃﾞﾝｲﾘｱｲﾁ","prefecture":"岐阜県","city":"岐阜市","street":"西改田東改田入会地"},{"zipCode":"5011169","prefectureKana":"ｷﾞﾌｹﾝ","cityKana":"ｷﾞﾌｼ","streetKana":"ﾆｼｶｲﾃﾞﾝﾋﾁｺｸ","prefecture":"岐阜県","city":"岐阜市","street":"西改田七石"},{"zipCode":"5011159","prefectureKana":"ｷﾞﾌｹﾝ","cityKana":"ｷﾞﾌｼ","streetKana":"ﾆｼｶｲﾃﾞﾝﾏﾂﾉｷ","prefecture":"岐阜県","city":"岐阜市","street":"西改田松の木"},{"zipCode":"5011165","prefectureKana":"ｷﾞﾌｹﾝ","cityKana":"ｷﾞﾌｼ","streetKana":"ﾆｼｶｲﾃﾞﾝﾐﾔﾆｼ","prefecture":"岐阜県","city":"岐阜市","street":"西改田宮西"},{"zipCode":"5011166","prefectureKana":"ｷﾞﾌｹﾝ","cityKana":"ｷﾞﾌｼ","streetKana":"ﾆｼｶｲﾃﾞﾝﾑﾗﾏｴ","prefecture":"岐阜県","city":"岐阜市","street":"西改田村前"},{"zipCode":"5011162","prefectureKana":"ｷﾞﾌｹﾝ","cityKana":"ｷﾞﾌｼ","streetKana":"ﾆｼｶｲﾃﾞﾝﾜｶﾐﾔ","prefecture":"岐阜県","city":"岐阜市","street":"西改田若宮"},{"zipCode":"5010106","prefectureKana":"ｷﾞﾌｹﾝ","cityKana":"ｷﾞﾌｼ","streetKana":"ﾆｼｺﾞｳﾄﾞ","prefecture":"岐阜県","city":"岐阜市","street":"西河渡"},{"zipCode":"5011183","prefectureKana":"ｷﾞﾌｹﾝ","cityKana":"ｷﾞﾌｼ","streetKana":"ﾉﾘﾏﾂ","prefecture":"岐阜県","city":"岐阜市","street":"則松"},{"zipCode":"5012525","prefectureKana":"ｷﾞﾌｹﾝ","cityKana":"ｷﾞﾌｼ","streetKana":"ﾊﾙﾁｶﾌﾙｲﾁﾊﾞﾐﾅﾐ","prefecture":"岐阜県","city":"岐阜市","street":"春近古市場南"},{"zipCode":"5012524","prefectureKana":"ｷﾞﾌｹﾝ","cityKana":"ｷﾞﾌｼ","streetKana":"ﾊﾙﾁｶﾌﾙｲﾁﾊﾞｷﾀ","prefecture":"岐阜県","city":"岐阜市","street":"春近古市場北"},{"zipCode":"5011141","prefectureKana":"ｷﾞﾌｹﾝ","cityKana":"ｷﾞﾌｼ","streetKana":"ﾋｶﾞｼｲﾀﾔ","prefecture":"岐阜県","city":"岐阜市","street":"東板谷"},{"zipCode":"5011142","prefectureKana":"ｷﾞﾌｹﾝ","cityKana":"ｷﾞﾌｼ","streetKana":"ﾋｶﾞｼｶｲﾃﾞﾝ","prefecture":"岐阜県","city":"岐阜市","street":"東改田"},{"zipCode":"5011145","prefectureKana":"ｷﾞﾌｹﾝ","cityKana":"ｷﾞﾌｼ","streetKana":"ﾋｶﾞｼｶｲﾃﾞﾝｺｼﾏｴﾀﾞ","prefecture":"岐阜県","city":"岐阜市","street":"東改田腰前田"},{"zipCode":"5011144","prefectureKana":"ｷﾞﾌｹﾝ","cityKana":"ｷﾞﾌｼ","streetKana":"ﾋｶﾞｼｶｲﾃﾞﾝｻｲｶﾁ","prefecture":"岐阜県","city":"岐阜市","street":"東改田再勝"},{"zipCode":"5011143","prefectureKana":"ｷﾞﾌｹﾝ","cityKana":"ｷﾞﾌｼ","streetKana":"ﾋｶﾞｼｶｲﾃﾞﾝﾂﾙﾀ","prefecture":"岐阜県","city":"岐阜市","street":"東改田鶴田"},{"zipCode":"5016133","prefectureKana":"ｷﾞﾌｹﾝ","cityKana":"ｷﾞﾌｼ","streetKana":"ﾋｷｴ","prefecture":"岐阜県","city":"岐阜市","street":"日置江"},{"zipCode":"5011105","prefectureKana":"ｷﾞﾌｹﾝ","cityKana":"ｷﾞﾌｼ","streetKana":"ﾋｺｻｶ","prefecture":"岐阜県","city":"岐阜市","street":"彦坂"},{"zipCode":"5011104","prefectureKana":"ｷﾞﾌｹﾝ","cityKana":"ｷﾞﾌｼ","streetKana":"ﾋｺｻｶｶﾜｶﾐ","prefecture":"岐阜県","city":"岐阜市","street":"彦坂川上"},{"zipCode":"5011103","prefectureKana":"ｷﾞﾌｹﾝ","cityKana":"ｷﾞﾌｼ","streetKana":"ﾋｺｻｶｶﾜｷﾀ","prefecture":"岐阜県","city":"岐阜市","street":"彦坂川北"},{"zipCode":"5010103","prefectureKana":"ｷﾞﾌｹﾝ","cityKana":"ｷﾞﾌｼ","streetKana":"ﾋﾄｲﾁﾊﾞ","prefecture":"岐阜県","city":"岐阜市","street":"一日市場"},{"zipCode":"5010102","prefectureKana":"ｷﾞﾌｹﾝ","cityKana":"ｷﾞﾌｼ","streetKana":"ﾋﾄｲﾁﾊﾞｷﾀﾏﾁ","prefecture":"岐阜県","city":"岐阜市","street":"一日市場北町"},{"zipCode":"5011181","prefectureKana":"ｷﾞﾌｹﾝ","cityKana":"ｷﾞﾌｼ","streetKana":"ﾋﾅｸﾗ","prefecture":"岐阜県","city":"岐阜市","street":"雛倉"},{"zipCode":"5011116","prefectureKana":"ｷﾞﾌｹﾝ","cityKana":"ｷﾞﾌｼ","streetKana":"ﾌｶｻｶ","prefecture":"岐阜県","city":"岐阜市","street":"深坂"},{"zipCode":"5012565","prefectureKana":"ｷﾞﾌｹﾝ","cityKana":"ｷﾞﾌｼ","streetKana":"ﾌｸﾄﾐ","prefecture":"岐阜県","city":"岐阜市","street":"福富"},{"zipCode":"5012561","prefectureKana":"ｷﾞﾌｹﾝ","cityKana":"ｷﾞﾌｼ","streetKana":"ﾌｸﾄﾐｶｻｶｲﾄﾞｳ","prefecture":"岐阜県","city":"岐阜市","street":"福富笠海道"},{"zipCode":"5012567","prefectureKana":"ｷﾞﾌｹﾝ","cityKana":"ｷﾞﾌｼ","streetKana":"ﾌｸﾄﾐﾁｮｳﾀﾞ","prefecture":"岐阜県","city":"岐阜市","street":"福富町田"},{"zipCode":"5012566","prefectureKana":"ｷﾞﾌｹﾝ","cityKana":"ｷﾞﾌｼ","streetKana":"ﾌｸﾄﾐﾃﾝｼﾞﾝﾏｴ","prefecture":"岐阜県","city":"岐阜市","street":"福富天神前"},{"zipCode":"5012562","prefectureKana":"ｷﾞﾌｹﾝ","cityKana":"ｷﾞﾌｼ","streetKana":"ﾌｸﾄﾐﾃﾞｸﾞﾁ","prefecture":"岐阜県","city":"岐阜市","street":"福富出口"},{"zipCode":"5012564","prefectureKana":"ｷﾞﾌｹﾝ","cityKana":"ｷﾞﾌｼ","streetKana":"ﾌｸﾄﾐﾅｶﾞﾀ","prefecture":"岐阜県","city":"岐阜市","street":"福富永田"},{"zipCode":"5012563","prefectureKana":"ｷﾞﾌｹﾝ","cityKana":"ｷﾞﾌｼ","streetKana":"ﾌｸﾄﾐﾑｶｴﾀﾞ","prefecture":"岐阜県","city":"岐阜市","street":"福富迎田"},{"zipCode":"5011121","prefectureKana":"ｷﾞﾌｹﾝ","cityKana":"ｷﾞﾌｼ","streetKana":"ﾌﾙｲﾁﾊﾞ","prefecture":"岐阜県","city":"岐阜市","street":"古市場"},{"zipCode":"5011122","prefectureKana":"ｷﾞﾌｹﾝ","cityKana":"ｷﾞﾌｼ","streetKana":"ﾌﾙｲﾁﾊﾞｵｲﾉｶﾐ","prefecture":"岐阜県","city":"岐阜市","street":"古市場老ノ上"},{"zipCode":"5011127","prefectureKana":"ｷﾞﾌｹﾝ","cityKana":"ｷﾞﾌｼ","streetKana":"ﾌﾙｲﾁﾊﾞｼﾞﾝﾃﾞﾝ","prefecture":"岐阜県","city":"岐阜市","street":"古市場神田"},{"zipCode":"5011123","prefectureKana":"ｷﾞﾌｹﾝ","cityKana":"ｷﾞﾌｼ","streetKana":"ﾌﾙｲﾁﾊﾞﾀｶﾀﾞ","prefecture":"岐阜県","city":"岐阜市","street":"古市場高田"},{"zipCode":"5011126","prefectureKana":"ｷﾞﾌｹﾝ","cityKana":"ｷﾞﾌｼ","streetKana":"ﾌﾙｲﾁﾊﾞﾀｶﾐﾔ","prefecture":"岐阜県","city":"岐阜市","street":"古市場高宮"},{"zipCode":"5011124","prefectureKana":"ｷﾞﾌｹﾝ","cityKana":"ｷﾞﾌｼ","streetKana":"ﾌﾙｲﾁﾊﾞﾅｶﾊﾗ","prefecture":"岐阜県","city":"岐阜市","street":"古市場中原"},{"zipCode":"5011125","prefectureKana":"ｷﾞﾌｹﾝ","cityKana":"ｷﾞﾌｼ","streetKana":"ﾌﾙｲﾁﾊﾞﾋｶﾞｼﾏﾁﾀﾞ","prefecture":"岐阜県","city":"岐阜市","street":"古市場東町田"},{"zipCode":"5011128","prefectureKana":"ｷﾞﾌｹﾝ","cityKana":"ｷﾞﾌｼ","streetKana":"ﾎﾗ","prefecture":"岐阜県","city":"岐阜市","street":"洞"},{"zipCode":"5011115","prefectureKana":"ｷﾞﾌｹﾝ","cityKana":"ｷﾞﾌｼ","streetKana":"ﾏｼﾄ","prefecture":"岐阜県","city":"岐阜市","street":"交人"},{"zipCode":"5011152","prefectureKana":"ｷﾞﾌｹﾝ","cityKana":"ｷﾞﾌｼ","streetKana":"ﾏﾀﾏﾙ","prefecture":"岐阜県","city":"岐阜市","street":"又丸"},{"zipCode":"5011153","prefectureKana":"ｷﾞﾌｹﾝ","cityKana":"ｷﾞﾌｼ","streetKana":"ﾏﾀﾏﾙﾁｮｳﾊﾞﾀ","prefecture":"岐阜県","city":"岐阜市","street":"又丸町畑"},{"zipCode":"5011156","prefectureKana":"ｷﾞﾌｹﾝ","cityKana":"ｷﾞﾌｼ","streetKana":"ﾏﾀﾏﾙﾂｼﾏ","prefecture":"岐阜県","city":"岐阜市","street":"又丸津島"},{"zipCode":"5011155","prefectureKana":"ｷﾞﾌｹﾝ","cityKana":"ｷﾞﾌｼ","streetKana":"ﾏﾀﾏﾙﾐﾔﾋｶﾞｼ","prefecture":"岐阜県","city":"岐阜市","street":"又丸宮東"},{"zipCode":"5011157","prefectureKana":"ｷﾞﾌｹﾝ","cityKana":"ｷﾞﾌｼ","streetKana":"ﾏﾀﾏﾙﾑﾗﾅｶ","prefecture":"岐阜県","city":"岐阜市","street":"又丸村中"},{"zipCode":"5011154","prefectureKana":"ｷﾞﾌｹﾝ","cityKana":"ｷﾞﾌｼ","streetKana":"ﾏﾀﾏﾙﾔﾅｷﾞﾏﾁ","prefecture":"岐阜県","city":"岐阜市","street":"又丸柳町"},{"zipCode":"5012551","prefectureKana":"ｷﾞﾌｹﾝ","cityKana":"ｷﾞﾌｼ","streetKana":"ﾐｿﾞｸﾞﾁ","prefecture":"岐阜県","city":"岐阜市","street":"溝口"},{"zipCode":"5012557","prefectureKana":"ｷﾞﾌｹﾝ","cityKana":"ｷﾞﾌｼ","streetKana":"ﾐｿﾞｸﾞﾁｶﾐ","prefecture":"岐阜県","city":"岐阜市","street":"溝口上"},{"zipCode":"5012556","prefectureKana":"ｷﾞﾌｹﾝ","cityKana":"ｷﾞﾌｼ","streetKana":"ﾐｿﾞｸﾞﾁﾅｶ","prefecture":"岐阜県","city":"岐阜市","street":"溝口中"},{"zipCode":"5012555","prefectureKana":"ｷﾞﾌｹﾝ","cityKana":"ｷﾞﾌｼ","streetKana":"ﾐｿﾞｸﾞﾁｼﾓ","prefecture":"岐阜県","city":"岐阜市","street":"溝口下"},{"zipCode":"5012554","prefectureKana":"ｷﾞﾌｹﾝ","cityKana":"ｷﾞﾌｼ","streetKana":"ﾐｿﾞｸﾞﾁﾄﾞｳｼﾞ","prefecture":"岐阜県","city":"岐阜市","street":"溝口童子"},{"zipCode":"5012553","prefectureKana":"ｷﾞﾌｹﾝ","cityKana":"ｷﾞﾌｼ","streetKana":"ﾐｿﾞｸﾞﾁﾅｶﾉ","prefecture":"岐阜県","city":"岐阜市","street":"溝口中野"},{"zipCode":"5012552","prefectureKana":"ｷﾞﾌｹﾝ","cityKana":"ｷﾞﾌｼ","streetKana":"ﾐｿﾞｸﾞﾁﾋｶﾞｼ","prefecture":"岐阜県","city":"岐阜市","street":"溝口東"},{"zipCode":"5011134","prefectureKana":"ｷﾞﾌｹﾝ","cityKana":"ｷﾞﾌｼ","streetKana":"ﾐﾅﾐｶｷｶﾞｾ","prefecture":"岐阜県","city":"岐阜市","street":"南柿ケ瀬"},{"zipCode":"5012513","prefectureKana":"ｷﾞﾌｹﾝ","cityKana":"ｷﾞﾌｼ","streetKana":"ﾐﾜ","prefecture":"岐阜県","city":"岐阜市","street":"三輪"},{"zipCode":"5012514","prefectureKana":"ｷﾞﾌｹﾝ","cityKana":"ｷﾞﾌｼ","streetKana":"ﾐﾜﾐﾔﾏｴ","prefecture":"岐阜県","city":"岐阜市","street":"三輪宮前"},{"zipCode":"5012515","prefectureKana":"ｷﾞﾌｹﾝ","cityKana":"ｷﾞﾌｼ","streetKana":"ﾐﾜﾐﾔﾆｼ","prefecture":"岐阜県","city":"岐阜市","street":"三輪宮西"},{"zipCode":"5012517","prefectureKana":"ｷﾞﾌｹﾝ","cityKana":"ｷﾞﾌｼ","streetKana":"ﾐﾜﾌﾟﾘﾝﾄﾋﾟｱ","prefecture":"岐阜県","city":"岐阜市","street":"三輪ぷりんとぴあ"},{"zipCode":"5013109","prefectureKana":"ｷﾞﾌｹﾝ","cityKana":"ｷﾞﾌｼ","streetKana":"ﾑｶｲｶﾉ","prefecture":"岐阜県","city":"岐阜市","street":"向加野"},{"zipCode":"5011107","prefectureKana":"ｷﾞﾌｹﾝ","cityKana":"ｷﾞﾌｼ","streetKana":"ﾑﾗﾔﾏ","prefecture":"岐阜県","city":"岐阜市","street":"村山"},{"zipCode":"5012523","prefectureKana":"ｷﾞﾌｹﾝ","cityKana":"ｷﾞﾌｼ","streetKana":"ﾓﾁ","prefecture":"岐阜県","city":"岐阜市","street":"茂地"},{"zipCode":"5012533","prefectureKana":"ｷﾞﾌｹﾝ","cityKana":"ｷﾞﾌｼ","streetKana":"ﾓﾘﾋｶﾞｼ","prefecture":"岐阜県","city":"岐阜市","street":"森東"},{"zipCode":"5012534","prefectureKana":"ｷﾞﾌｹﾝ","cityKana":"ｷﾞﾌｼ","streetKana":"ﾓﾘﾆｼ","prefecture":"岐阜県","city":"岐阜市","street":"森西"},{"zipCode":"5016105","prefectureKana":"ｷﾞﾌｹﾝ","cityKana":"ｷﾞﾌｼ","streetKana":"ﾔﾅｲﾂﾞﾁｮｳｳﾒﾏﾂ","prefecture":"岐阜県","city":"岐阜市","street":"柳津町梅松"},{"zipCode":"5016121","prefectureKana":"ｷﾞﾌｹﾝ","cityKana":"ｷﾞﾌｼ","streetKana":"ﾔﾅｲﾂﾞﾁｮｳｶﾐｻﾊﾞ","prefecture":"岐阜県","city":"岐阜市","street":"柳津町上佐波"},{"zipCode":"5016121","prefectureKana":"ｷﾞﾌｹﾝ","cityKana":"ｷﾞﾌｼ","streetKana":"ﾔﾅｲﾂﾞﾁｮｳｶﾐｻﾊﾞﾆｼ","prefecture":"岐阜県","city":"岐阜市","street":"柳津町上佐波西"},{"zipCode":"5016121","prefectureKana":"ｷﾞﾌｹﾝ","cityKana":"ｷﾞﾌｼ","streetKana":"ﾔﾅｲﾂﾞﾁｮｳｶﾐｻﾊﾞﾋｶﾞｼ","prefecture":"岐阜県","city":"岐阜市","street":"柳津町上佐波東"},{"zipCode":"5016112","prefectureKana":"ｷﾞﾌｹﾝ","cityKana":"ｷﾞﾌｼ","streetKana":"ﾔﾅｲﾂﾞﾁｮｳｷﾀﾂﾞｶ","prefecture":"岐阜県","city":"岐阜市","street":"柳津町北塚"},{"zipCode":"5016101","prefectureKana":"ｷﾞﾌｹﾝ","cityKana":"ｷﾞﾌｼ","streetKana":"ﾔﾅｲﾂﾞﾁｮｳｻｶｴﾏﾁ","prefecture":"岐阜県","city":"岐阜市","street":"柳津町栄町"},{"zipCode":"5016121","prefectureKana":"ｷﾞﾌｹﾝ","cityKana":"ｷﾞﾌｼ","streetKana":"ﾔﾅｲﾂﾞﾁｮｳｻﾊﾞ","prefecture":"岐阜県","city":"岐阜市","street":"柳津町佐波"},{"zipCode":"5016121","prefectureKana":"ｷﾞﾌｹﾝ","cityKana":"ｷﾞﾌｼ","streetKana":"ﾔﾅｲﾂﾞﾁｮｳｼﾓｻﾊﾞ","prefecture":"岐阜県","city":"岐阜市","street":"柳津町下佐波"},{"zipCode":"5016121","prefectureKana":"ｷﾞﾌｹﾝ","cityKana":"ｷﾞﾌｼ","streetKana":"ﾔﾅｲﾂﾞﾁｮｳｼﾓｻﾊﾞﾆｼ","prefecture":"岐阜県","city":"岐阜市","street":"柳津町下佐波西"},{"zipCode":"5016122","prefectureKana":"ｷﾞﾌｹﾝ","cityKana":"ｷﾞﾌｼ","streetKana":"ﾔﾅｲﾂﾞﾁｮｳﾀｶｸﾜ","prefecture":"岐阜県","city":"岐阜市","street":"柳津町高桑"},{"zipCode":"5016122","prefectureKana":"ｷﾞﾌｹﾝ","cityKana":"ｷﾞﾌｼ","streetKana":"ﾔﾅｲﾂﾞﾁｮｳﾀｶｸﾜﾆｼ","prefecture":"岐阜県","city":"岐阜市","street":"柳津町高桑西"},{"zipCode":"5016122","prefectureKana":"ｷﾞﾌｹﾝ","cityKana":"ｷﾞﾌｼ","streetKana":"ﾔﾅｲﾂﾞﾁｮｳﾀｶｸﾜﾋｶﾞｼ","prefecture":"岐阜県","city":"岐阜市","street":"柳津町高桑東"},{"zipCode":"5016103","prefectureKana":"ｷﾞﾌｹﾝ","cityKana":"ｷﾞﾌｼ","streetKana":"ﾔﾅｲﾂﾞﾁｮｳﾊｽｲｹ","prefecture":"岐阜県","city":"岐阜市","street":"柳津町蓮池"},{"zipCode":"5016102","prefectureKana":"ｷﾞﾌｹﾝ","cityKana":"ｷﾞﾌｼ","streetKana":"ﾔﾅｲﾂﾞﾁｮｳﾋｶﾞｼﾂﾞｶ","prefecture":"岐阜県","city":"岐阜市","street":"柳津町東塚"},{"zipCode":"5016104","prefectureKana":"ｷﾞﾌｹﾝ","cityKana":"ｷﾞﾌｼ","streetKana":"ﾔﾅｲﾂﾞﾁｮｳﾎﾝｺﾞｳ","prefecture":"岐阜県","city":"岐阜市","street":"柳津町本郷"},{"zipCode":"5016115","prefectureKana":"ｷﾞﾌｹﾝ","cityKana":"ｷﾞﾌｼ","streetKana":"ﾔﾅｲﾂﾞﾁｮｳﾏﾙﾉ","prefecture":"岐阜県","city":"岐阜市","street":"柳津町丸野"},{"zipCode":"5016113","prefectureKana":"ｷﾞﾌｹﾝ","cityKana":"ｷﾞﾌｼ","streetKana":"ﾔﾅｲﾂﾞﾁｮｳﾐﾅﾐﾂﾞｶ","prefecture":"岐阜県","city":"岐阜市","street":"柳津町南塚"},{"zipCode":"5016111","prefectureKana":"ｷﾞﾌｹﾝ","cityKana":"ｷﾞﾌｼ","streetKana":"ﾔﾅｲﾂﾞﾁｮｳﾐﾔﾋｶﾞｼ","prefecture":"岐阜県","city":"岐阜市","street":"柳津町宮東"},{"zipCode":"5016123","prefectureKana":"ｷﾞﾌｹﾝ","cityKana":"ｷﾞﾌｼ","streetKana":"ﾔﾅｲﾂﾞﾁｮｳﾘｭｳﾂｳｾﾝﾀｰ","prefecture":"岐阜県","city":"岐阜市","street":"柳津町流通センター"},{"zipCode":"5011112","prefectureKana":"ｷﾞﾌｹﾝ","cityKana":"ｷﾞﾌｼ","streetKana":"ﾔﾅｷﾞﾄ","prefecture":"岐阜県","city":"岐阜市","street":"柳戸"},{"zipCode":"5012504","prefectureKana":"ｷﾞﾌｹﾝ","cityKana":"ｷﾞﾌｼ","streetKana":"ﾔﾏｶﾞﾀｲﾜ","prefecture":"岐阜県","city":"岐阜市","street":"山県岩"},{"zipCode":"5012507","prefectureKana":"ｷﾞﾌｹﾝ","cityKana":"ｷﾞﾌｼ","streetKana":"ﾔﾏｶﾞﾀｲﾜﾅｶ","prefecture":"岐阜県","city":"岐阜市","street":"山県岩中"},{"zipCode":"5012508","prefectureKana":"ｷﾞﾌｹﾝ","cityKana":"ｷﾞﾌｼ","streetKana":"ﾔﾏｶﾞﾀｲﾜﾐｮｳｺｳ","prefecture":"岐阜県","city":"岐阜市","street":"山県岩明光"},{"zipCode":"5012505","prefectureKana":"ｷﾞﾌｹﾝ","cityKana":"ｷﾞﾌｼ","streetKana":"ﾔﾏｶﾞﾀｲﾜﾋｶﾞｼ","prefecture":"岐阜県","city":"岐阜市","street":"山県岩東"},{"zipCode":"5012509","prefectureKana":"ｷﾞﾌｹﾝ","cityKana":"ｷﾞﾌｼ","streetKana":"ﾔﾏｶﾞﾀｲﾜﾆｼ","prefecture":"岐阜県","city":"岐阜市","street":"山県岩西"},{"zipCode":"5012506","prefectureKana":"ｷﾞﾌｹﾝ","cityKana":"ｷﾞﾌｼ","streetKana":"ﾔﾏｶﾞﾀｲﾜﾐﾅﾐ","prefecture":"岐阜県","city":"岐阜市","street":"山県岩南"},{"zipCode":"5012502","prefectureKana":"ｷﾞﾌｹﾝ","cityKana":"ｷﾞﾌｼ","streetKana":"ﾔﾏｶﾞﾀｷﾀﾉ","prefecture":"岐阜県","city":"岐阜市","street":"山県北野"},{"zipCode":"5012541","prefectureKana":"ｷﾞﾌｹﾝ","cityKana":"ｷﾞﾌｼ","streetKana":"ﾖﾔｽ","prefecture":"岐阜県","city":"岐阜市","street":"世保"},{"zipCode":"5012542","prefectureKana":"ｷﾞﾌｹﾝ","cityKana":"ｷﾞﾌｼ","streetKana":"ﾖﾔｽﾋｶﾞｼ","prefecture":"岐阜県","city":"岐阜市","street":"世保東"},{"zipCode":"5012544","prefectureKana":"ｷﾞﾌｹﾝ","cityKana":"ｷﾞﾌｼ","streetKana":"ﾖﾔｽﾆｼ","prefecture":"岐阜県","city":"岐阜市","street":"世保西"},{"zipCode":"5012543","prefectureKana":"ｷﾞﾌｹﾝ","cityKana":"ｷﾞﾌｼ","streetKana":"ﾖﾔｽﾐﾅﾐ","prefecture":"岐阜県","city":"岐阜市","street":"世保南"},{"zipCode":"5012545","prefectureKana":"ｷﾞﾌｹﾝ","cityKana":"ｷﾞﾌｼ","streetKana":"ﾖﾔｽｷﾀ","prefecture":"岐阜県","city":"岐阜市","street":"世保北"},{"zipCode":"5015421","prefectureKana":"ｷﾞﾌｹﾝ","cityKana":"ﾀｶﾔﾏｼ","streetKana":"ｼｮｳｶﾜﾁｮｳｱｶﾀﾞﾆ","prefecture":"岐阜県","city":"高山市","street":"荘川町赤谷"},{"zipCode":"5015413","prefectureKana":"ｷﾞﾌｹﾝ","cityKana":"ﾀｶﾔﾏｼ","streetKana":"ｼｮｳｶﾜﾁｮｳｱﾗﾌﾞﾁ","prefecture":"岐阜県","city":"高山市","street":"荘川町新渕"},{"zipCode":"5015415","prefectureKana":"ｷﾞﾌｹﾝ","cityKana":"ﾀｶﾔﾏｼ","streetKana":"ｼｮｳｶﾜﾁｮｳｲｯｼｷ","prefecture":"岐阜県","city":"高山市","street":"荘川町一色"},{"zipCode":"5015423","prefectureKana":"ｷﾞﾌｹﾝ","cityKana":"ﾀｶﾔﾏｼ","streetKana":"ｼｮｳｶﾜﾁｮｳｲﾜｾﾞ","prefecture":"岐阜県","city":"高山市","street":"荘川町岩瀬"},{"zipCode":"5015422","prefectureKana":"ｷﾞﾌｹﾝ","cityKana":"ﾀｶﾔﾏｼ","streetKana":"ｼｮｳｶﾜﾁｮｳｳｼﾏﾙ","prefecture":"岐阜県","city":"高山市","street":"荘川町牛丸"},{"zipCode":"5015426","prefectureKana":"ｷﾞﾌｹﾝ","cityKana":"ﾀｶﾔﾏｼ","streetKana":"ｼｮｳｶﾜﾁｮｳｵｶﾞﾐｺﾞｳ","prefecture":"岐阜県","city":"高山市","street":"荘川町尾上郷"},{"zipCode":"5015425","prefectureKana":"ｷﾞﾌｹﾝ","cityKana":"ﾀｶﾔﾏｼ","streetKana":"ｼｮｳｶﾜﾁｮｳｶｲｼﾞｮｳ","prefecture":"岐阜県","city":"高山市","street":"荘川町海上"},{"zipCode":"5015404","prefectureKana":"ｷﾞﾌｹﾝ","cityKana":"ﾀｶﾔﾏｼ","streetKana":"ｼｮｳｶﾜﾁｮｳｸﾛﾀﾞﾆ","prefecture":"岐阜県","city":"高山市","street":"荘川町黒谷"},{"zipCode":"5015414","prefectureKana":"ｷﾞﾌｹﾝ","cityKana":"ﾀｶﾔﾏｼ","streetKana":"ｼｮｳｶﾜﾁｮｳｻﾙﾏﾙ","prefecture":"岐阜県","city":"高山市","street":"荘川町猿丸"},{"zipCode":"5015402","prefectureKana":"ｷﾞﾌｹﾝ","cityKana":"ﾀｶﾔﾏｼ","streetKana":"ｼｮｳｶﾜﾁｮｳｻﾝﾀﾞﾆ","prefecture":"岐阜県","city":"高山市","street":"荘川町三谷"},{"zipCode":"5015406","prefectureKana":"ｷﾞﾌｹﾝ","cityKana":"ﾀｶﾔﾏｼ","streetKana":"ｼｮｳｶﾜﾁｮｳｿｳﾉﾘ","prefecture":"岐阜県","city":"高山市","street":"荘川町惣則"},{"zipCode":"5015405","prefectureKana":"ｷﾞﾌｹﾝ","cityKana":"ﾀｶﾔﾏｼ","streetKana":"ｼｮｳｶﾜﾁｮｳﾃﾗｶﾜﾄﾞ","prefecture":"岐阜県","city":"高山市","street":"荘川町寺河戸"},{"zipCode":"5015424","prefectureKana":"ｷﾞﾌｹﾝ","cityKana":"ﾀｶﾔﾏｼ","streetKana":"ｼｮｳｶﾜﾁｮｳﾅｶﾉ","prefecture":"岐阜県","city":"高山市","street":"荘川町中野"},{"zipCode":"5015412","prefectureKana":"ｷﾞﾌｹﾝ","cityKana":"ﾀｶﾔﾏｼ","streetKana":"ｼｮｳｶﾜﾁｮｳﾅｶﾊﾀ","prefecture":"岐阜県","city":"高山市","street":"荘川町中畑"},{"zipCode":"5015417","prefectureKana":"ｷﾞﾌｹﾝ","cityKana":"ﾀｶﾔﾏｼ","streetKana":"ｼｮｳｶﾜﾁｮｳﾉﾉﾏﾀ","prefecture":"岐阜県","city":"高山市","street":"荘川町野々俣"},{"zipCode":"5015411","prefectureKana":"ｷﾞﾌｹﾝ","cityKana":"ﾀｶﾔﾏｼ","streetKana":"ｼｮｳｶﾜﾁｮｳﾏｷﾄﾞ","prefecture":"岐阜県","city":"高山市","street":"荘川町牧戸"},{"zipCode":"5015416","prefectureKana":"ｷﾞﾌｹﾝ","cityKana":"ﾀｶﾔﾏｼ","streetKana":"ｼｮｳｶﾜﾁｮｳﾏﾁﾔ","prefecture":"岐阜県","city":"高山市","street":"荘川町町屋"},{"zipCode":"5015403","prefectureKana":"ｷﾞﾌｹﾝ","cityKana":"ﾀｶﾔﾏｼ","streetKana":"ｼｮｳｶﾜﾁｮｳﾐｵｺﾞ","prefecture":"岐阜県","city":"高山市","street":"荘川町三尾河"},{"zipCode":"5015401","prefectureKana":"ｷﾞﾌｹﾝ","cityKana":"ﾀｶﾔﾏｼ","streetKana":"ｼｮｳｶﾜﾁｮｳﾑﾏﾔ","prefecture":"岐阜県","city":"高山市","street":"荘川町六厩"},{"zipCode":"5013200","prefectureKana":"ｷﾞﾌｹﾝ","cityKana":"ｾｷｼ","streetKana":"ｲｶﾆｹｲｻｲｶﾞﾅｲﾊﾞｱｲ","prefecture":"岐阜県","city":"関市","street":"以下に掲載がない場合"},{"zipCode":"5013851","prefectureKana":"ｷﾞﾌｹﾝ","cityKana":"ｾｷｼ","streetKana":"ｱｲｵｲﾁｮｳ","prefecture":"岐阜県","city":"関市","street":"相生町"},{"zipCode":"5013978","prefectureKana":"ｷﾞﾌｹﾝ","cityKana":"ｾｷｼ","streetKana":"ｱｶﾌﾁ","prefecture":"岐阜県","city":"関市","street":"赤渕"},{"zipCode":"5013852","prefectureKana":"ｷﾞﾌｹﾝ","cityKana":"ｾｷｼ","streetKana":"ｱｶﾞﾘﾏﾁ","prefecture":"岐阜県","city":"関市","street":"上利町"},{"zipCode":"5013853","prefectureKana":"ｷﾞﾌｹﾝ","cityKana":"ｾｷｼ","streetKana":"ｱｻｸﾗﾁｮｳ","prefecture":"岐阜県","city":"関市","street":"朝倉町"},{"zipCode":"5013829","prefectureKana":"ｷﾞﾌｹﾝ","cityKana":"ｾｷｼ","streetKana":"ｱｻﾋｶﾞｵｶ","prefecture":"岐阜県","city":"関市","street":"旭ケ丘"},{"zipCode":"5013808","prefectureKana":"ｷﾞﾌｹﾝ","cityKana":"ｾｷｼ","streetKana":"ｱｻｸﾗﾀﾞｲ","prefecture":"岐阜県","city":"関市","street":"安桜台"},{"zipCode":"5013807","prefectureKana":"ｷﾞﾌｹﾝ","cityKana":"ｾｷｼ","streetKana":"ｱｻｸﾗﾔﾏ","prefecture":"岐阜県","city":"関市","street":"安桜山"},{"zipCode":"5013845","prefectureKana":"ｷﾞﾌｹﾝ","cityKana":"ｾｷｼ","streetKana":"ｱﾂﾞﾏﾁｮｳ","prefecture":"岐阜県","city":"関市","street":"吾妻町"},{"zipCode":"5013264","prefectureKana":"ｷﾞﾌｹﾝ","cityKana":"ｾｷｼ","streetKana":"ｲｹｼﾞﾘ","prefecture":"岐阜県","city":"関市","street":"池尻"},{"zipCode":"5013247","prefectureKana":"ｷﾞﾌｹﾝ","cityKana":"ｾｷｼ","streetKana":"ｲｹﾀﾞﾁｮｳ","prefecture":"岐阜県","city":"関市","street":"池田町"},{"zipCode":"5013966","prefectureKana":"ｷﾞﾌｹﾝ","cityKana":"ｾｷｼ","streetKana":"ｲｼｷﾁｮｳ","prefecture":"岐阜県","city":"関市","street":"居敷町"},{"zipCode":"5013841","prefectureKana":"ｷﾞﾌｹﾝ","cityKana":"ｾｷｼ","streetKana":"ｲｾﾏﾁ","prefecture":"岐阜県","city":"関市","street":"伊勢町"},{"zipCode":"5012901","prefectureKana":"ｷﾞﾌｹﾝ","cityKana":"ｾｷｼ","streetKana":"ｲﾀﾄﾞﾘ","prefecture":"岐阜県","city":"関市","street":"板取"},{"zipCode":"5013822","prefectureKana":"ｷﾞﾌｹﾝ","cityKana":"ｾｷｼ","streetKana":"ｲﾁﾋﾗｶﾞ","prefecture":"岐阜県","city":"関市","street":"市平賀"},{"zipCode":"5013979","prefectureKana":"ｷﾞﾌｹﾝ","cityKana":"ｾｷｼ","streetKana":"ｲｯﾎﾟﾝｷﾞﾁｮｳ","prefecture":"岐阜県","city":"関市","street":"一本木町"},{"zipCode":"5013932","prefectureKana":"ｷﾞﾌｹﾝ","cityKana":"ｾｷｼ","streetKana":"ｲﾅｸﾞﾁ","prefecture":"岐阜県","city":"関市","street":"稲口"},{"zipCode":"5013913","prefectureKana":"ｷﾞﾌｹﾝ","cityKana":"ｾｷｼ","streetKana":"ｲﾅｺﾞﾁｮｳ","prefecture":"岐阜県","city":"関市","street":"稲河町"},{"zipCode":"5013914","prefectureKana":"ｷﾞﾌｹﾝ","cityKana":"ｾｷｼ","streetKana":"ｲﾓｼﾞﾔ","prefecture":"岐阜県","city":"関市","street":"鋳物師屋"},{"zipCode":"5013855","prefectureKana":"ｷﾞﾌｹﾝ","cityKana":"ｾｷｼ","streetKana":"ｲﾛﾊﾁｮｳ","prefecture":"岐阜県","city":"関市","street":"いろは町"},{"zipCode":"5013951","prefectureKana":"ｷﾞﾌｹﾝ","cityKana":"ｾｷｼ","streetKana":"ｳｴﾉ","prefecture":"岐阜県","city":"関市","street":"植野"},{"zipCode":"5013974","prefectureKana":"ｷﾞﾌｹﾝ","cityKana":"ｾｷｼ","streetKana":"ｳﾒｶﾞｴﾁｮｳ","prefecture":"岐阜県","city":"関市","street":"梅ケ枝町"},{"zipCode":"5013804","prefectureKana":"ｷﾞﾌｹﾝ","cityKana":"ｾｷｼ","streetKana":"ｴﾝﾎﾞﾄﾞｵﾘ","prefecture":"岐阜県","city":"関市","street":"円保通"},{"zipCode":"5013922","prefectureKana":"ｷﾞﾌｹﾝ","cityKana":"ｾｷｼ","streetKana":"ｵｵｽｷﾞ","prefecture":"岐阜県","city":"関市","street":"大杉"},{"zipCode":"5013801","prefectureKana":"ｷﾞﾌｹﾝ","cityKana":"ｾｷｼ","streetKana":"ｵｵﾂﾎﾞ","prefecture":"岐阜県","city":"関市","street":"大坪"},{"zipCode":"5013265","prefectureKana":"ｷﾞﾌｹﾝ","cityKana":"ｾｷｼ","streetKana":"ｵｾﾞ","prefecture":"岐阜県","city":"関市","street":"小瀬"},{"zipCode":"5013268","prefectureKana":"ｷﾞﾌｹﾝ","cityKana":"ｾｷｼ","streetKana":"ｵｾﾞﾅｶﾞｲｹﾁｮｳ","prefecture":"岐阜県","city":"関市","street":"小瀬長池町"},{"zipCode":"5013266","prefectureKana":"ｷﾞﾌｹﾝ","cityKana":"ｾｷｼ","streetKana":"ｵｾﾞﾐﾅﾐ","prefecture":"岐阜県","city":"関市","street":"小瀬南"},{"zipCode":"5013201","prefectureKana":"ｷﾞﾌｹﾝ","cityKana":"ｾｷｼ","streetKana":"ｵﾉ","prefecture":"岐阜県","city":"関市","street":"小野"},{"zipCode":"5013210","prefectureKana":"ｷﾞﾌｹﾝ","cityKana":"ｾｷｼ","streetKana":"ｵﾌﾞﾄﾁｮｳ","prefecture":"岐阜県","city":"関市","street":"尾太町"},{"zipCode":"5013941","prefectureKana":"ｷﾞﾌｹﾝ","cityKana":"ｾｷｼ","streetKana":"ｵﾔﾅ","prefecture":"岐阜県","city":"関市","street":"小屋名"},{"zipCode":"5013910","prefectureKana":"ｷﾞﾌｹﾝ","cityKana":"ｾｷｼ","streetKana":"ｶｻﾔ","prefecture":"岐阜県","city":"関市","street":"笠屋"},{"zipCode":"5013214","prefectureKana":"ｷﾞﾌｹﾝ","cityKana":"ｾｷｼ","streetKana":"ｶｼｱｹﾞﾁｮｳ","prefecture":"岐阜県","city":"関市","street":"貸上町"},{"zipCode":"5013871","prefectureKana":"ｷﾞﾌｹﾝ","cityKana":"ｾｷｼ","streetKana":"ｶｼﾞﾁｮｳ","prefecture":"岐阜県","city":"関市","street":"鍛冶町"},{"zipCode":"5013865","prefectureKana":"ｷﾞﾌｹﾝ","cityKana":"ｾｷｼ","streetKana":"ｶｽｶﾞﾁｮｳ","prefecture":"岐阜県","city":"関市","street":"春日町"},{"zipCode":"5013963","prefectureKana":"ｷﾞﾌｹﾝ","cityKana":"ｾｷｼ","streetKana":"ｶﾀｸﾗﾁｮｳ","prefecture":"岐阜県","city":"関市","street":"片倉町"},{"zipCode":"5013872","prefectureKana":"ｷﾞﾌｹﾝ","cityKana":"ｾｷｼ","streetKana":"ｶﾅﾔﾁｮｳ","prefecture":"岐阜県","city":"関市","street":"金屋町"},{"zipCode":"5013862","prefectureKana":"ｷﾞﾌｹﾝ","cityKana":"ｾｷｼ","streetKana":"ｶﾈﾅｶﾞﾁｮｳ","prefecture":"岐阜県","city":"関市","street":"兼永町"},{"zipCode":"5013204","prefectureKana":"ｷﾞﾌｹﾝ","cityKana":"ｾｷｼ","streetKana":"ｶﾐｵｵﾉ","prefecture":"岐阜県","city":"関市","street":"上大野"},{"zipCode":"5013947","prefectureKana":"ｷﾞﾌｹﾝ","cityKana":"ｾｷｼ","streetKana":"ｶﾐｼﾛｶﾈ","prefecture":"岐阜県","city":"関市","street":"上白金"},{"zipCode":"5013203","prefectureKana":"ｷﾞﾌｹﾝ","cityKana":"ｾｷｼ","streetKana":"ｶﾐﾉ","prefecture":"岐阜県","city":"関市","street":"神野"},{"zipCode":"5013601","prefectureKana":"ｷﾞﾌｹﾝ","cityKana":"ｾｷｼ","streetKana":"ｶﾐﾉﾎ","prefecture":"岐阜県","city":"関市","street":"上之保"},{"zipCode":"5013877","prefectureKana":"ｷﾞﾌｹﾝ","cityKana":"ｾｷｼ","streetKana":"ｶﾜｲﾁｮｳ","prefecture":"岐阜県","city":"関市","street":"河合町"},{"zipCode":"5013235","prefectureKana":"ｷﾞﾌｹﾝ","cityKana":"ｾｷｼ","streetKana":"ｶﾜﾏﾁｮｳ","prefecture":"岐阜県","city":"関市","street":"川間町"},{"zipCode":"5013835","prefectureKana":"ｷﾞﾌｹﾝ","cityKana":"ｾｷｼ","streetKana":"ｶﾝﾉﾝﾏｴ","prefecture":"岐阜県","city":"関市","street":"観音前"},{"zipCode":"5013806","prefectureKana":"ｷﾞﾌｹﾝ","cityKana":"ｾｷｼ","streetKana":"ｶﾝﾉﾝﾔﾏ","prefecture":"岐阜県","city":"関市","street":"観音山"},{"zipCode":"5013917","prefectureKana":"ｷﾞﾌｹﾝ","cityKana":"ｾｷｼ","streetKana":"ｷﾀﾃﾝｼﾞﾝ","prefecture":"岐阜県","city":"関市","street":"北天神"},{"zipCode":"5013245","prefectureKana":"ｷﾞﾌｹﾝ","cityKana":"ｾｷｼ","streetKana":"ｷﾀﾌｸﾉﾁｮｳ","prefecture":"岐阜県","city":"関市","street":"北福野町"},{"zipCode":"5013843","prefectureKana":"ｷﾞﾌｹﾝ","cityKana":"ｾｷｼ","streetKana":"ｷｯﾀﾏﾁ","prefecture":"岐阜県","city":"関市","street":"吉田町"},{"zipCode":"5013876","prefectureKana":"ｷﾞﾌｹﾝ","cityKana":"ｾｷｼ","streetKana":"ｷﾌﾞﾈﾁｮｳ","prefecture":"岐阜県","city":"関市","street":"貴船町"},{"zipCode":"5013942","prefectureKana":"ｷﾞﾌｹﾝ","cityKana":"ｾｷｼ","streetKana":"ｷﾎﾞｳｶﾞｵｶ","prefecture":"岐阜県","city":"関市","street":"希望ケ丘"},{"zipCode":"5013938","prefectureKana":"ｷﾞﾌｹﾝ","cityKana":"ｾｷｼ","streetKana":"ｷﾘｶﾞｵｶ","prefecture":"岐阜県","city":"関市","street":"桐ヶ丘"},{"zipCode":"5013934","prefectureKana":"ｷﾞﾌｹﾝ","cityKana":"ｾｷｼ","streetKana":"ｷﾘﾔﾀﾞｲ","prefecture":"岐阜県","city":"関市","street":"桐谷台"},{"zipCode":"5013936","prefectureKana":"ｷﾞﾌｹﾝ","cityKana":"ｾｷｼ","streetKana":"ｸﾗﾁ","prefecture":"岐阜県","city":"関市","street":"倉知"},{"zipCode":"5013930","prefectureKana":"ｷﾞﾌｹﾝ","cityKana":"ｾｷｼ","streetKana":"ｸﾗﾁﾐﾅﾐ","prefecture":"岐阜県","city":"関市","street":"倉知南"},{"zipCode":"5013207","prefectureKana":"ｷﾞﾌｹﾝ","cityKana":"ｾｷｼ","streetKana":"ｸﾛﾔ","prefecture":"岐阜県","city":"関市","street":"黒屋"},{"zipCode":"5013927","prefectureKana":"ｷﾞﾌｹﾝ","cityKana":"ｾｷｼ","streetKana":"ｺｳﾖｳﾀﾞｲ","prefecture":"岐阜県","city":"関市","street":"向陽台"},{"zipCode":"5013908","prefectureKana":"ｷﾞﾌｹﾝ","cityKana":"ｾｷｼ","streetKana":"ｺﾄﾌﾞｷﾁｮｳ","prefecture":"岐阜県","city":"関市","street":"寿町"},{"zipCode":"5013926","prefectureKana":"ｷﾞﾌｹﾝ","cityKana":"ｾｷｼ","streetKana":"ｺﾊﾞｻﾏ","prefecture":"岐阜県","city":"関市","street":"小迫間"},{"zipCode":"5013861","prefectureKana":"ｷﾞﾌｹﾝ","cityKana":"ｾｷｼ","streetKana":"ｺﾔﾅｷﾞﾁｮｳ","prefecture":"岐阜県","city":"関市","street":"小柳町"},{"zipCode":"5013241","prefectureKana":"ｷﾞﾌｹﾝ","cityKana":"ｾｷｼ","streetKana":"ｻｲｾﾝﾎﾞｳ","prefecture":"岐阜県","city":"関市","street":"西仙房"},{"zipCode":"5013253","prefectureKana":"ｷﾞﾌｹﾝ","cityKana":"ｾｷｼ","streetKana":"ｻｶｴﾏﾁ","prefecture":"岐阜県","city":"関市","street":"栄町"},{"zipCode":"5013888","prefectureKana":"ｷﾞﾌｹﾝ","cityKana":"ｾｷｼ","streetKana":"ｻｶｼﾀﾁｮｳ","prefecture":"岐阜県","city":"関市","street":"坂下町"},{"zipCode":"5013903","prefectureKana":"ｷﾞﾌｹﾝ","cityKana":"ｾｷｼ","streetKana":"ｻｸﾗｶﾞｵｶ","prefecture":"岐阜県","city":"関市","street":"桜ケ丘"},{"zipCode":"5013856","prefectureKana":"ｷﾞﾌｹﾝ","cityKana":"ｾｷｼ","streetKana":"ｻｸﾗｷﾞﾁｮｳ","prefecture":"岐阜県","city":"関市","street":"桜木町"},{"zipCode":"5013931","prefectureKana":"ｷﾞﾌｹﾝ","cityKana":"ｾｷｼ","streetKana":"ｻｸﾗﾀﾞｲ","prefecture":"岐阜県","city":"関市","street":"桜台"},{"zipCode":"5013232","prefectureKana":"ｷﾞﾌｹﾝ","cityKana":"ｾｷｼ","streetKana":"ｻｸﾗﾎﾝﾏﾁ","prefecture":"岐阜県","city":"関市","street":"桜本町"},{"zipCode":"5013252","prefectureKana":"ｷﾞﾌｹﾝ","cityKana":"ｾｷｼ","streetKana":"ｻﾝﾉｳﾄﾞｵﾘ","prefecture":"岐阜県","city":"関市","street":"山王通"},{"zipCode":"5013251","prefectureKana":"ｷﾞﾌｹﾝ","cityKana":"ｾｷｼ","streetKana":"ｻﾝﾉｳﾄﾞｵﾘﾆｼ","prefecture":"岐阜県","city":"関市","street":"山王通西"},{"zipCode":"5013935","prefectureKana":"ｷﾞﾌｹﾝ","cityKana":"ｾｷｼ","streetKana":"ｼｷﾉﾀﾞｲ","prefecture":"岐阜県","city":"関市","street":"四季ノ台"},{"zipCode":"5013878","prefectureKana":"ｷﾞﾌｹﾝ","cityKana":"ｾｷｼ","streetKana":"ｼﾞｯｹﾝﾁｮｳ","prefecture":"岐阜県","city":"関市","street":"十軒町"},{"zipCode":"5013205","prefectureKana":"ｷﾞﾌｹﾝ","cityKana":"ｾｷｼ","streetKana":"ｼﾂﾉ","prefecture":"岐阜県","city":"関市","street":"志津野"},{"zipCode":"5013972","prefectureKana":"ｷﾞﾌｹﾝ","cityKana":"ｾｷｼ","streetKana":"ｼﾞﾅｲﾁｮｳ","prefecture":"岐阜県","city":"関市","street":"寺内町"},{"zipCode":"5013977","prefectureKana":"ｷﾞﾌｹﾝ","cityKana":"ｾｷｼ","streetKana":"ｼﾐｽﾞﾁｮｳ","prefecture":"岐阜県","city":"関市","street":"清水町"},{"zipCode":"5013217","prefectureKana":"ｷﾞﾌｹﾝ","cityKana":"ｾｷｼ","streetKana":"ｼﾓｳﾁ","prefecture":"岐阜県","city":"関市","street":"下有知"},{"zipCode":"5013955","prefectureKana":"ｷﾞﾌｹﾝ","cityKana":"ｾｷｼ","streetKana":"ｼﾓｼﾛｶﾈ","prefecture":"岐阜県","city":"関市","street":"下白金"},{"zipCode":"5013521","prefectureKana":"ｷﾞﾌｹﾝ","cityKana":"ｾｷｼ","streetKana":"ｼﾓﾉﾎ","prefecture":"岐阜県","city":"関市","street":"下之保"},{"zipCode":"5013259","prefectureKana":"ｷﾞﾌｹﾝ","cityKana":"ｾｷｼ","streetKana":"ｼﾞｭｳｻﾝﾂﾞｶｷﾀ","prefecture":"岐阜県","city":"関市","street":"十三塚北"},{"zipCode":"5013250","prefectureKana":"ｷﾞﾌｹﾝ","cityKana":"ｾｷｼ","streetKana":"ｼﾞｭｳｻﾝﾂﾞｶﾁｮｳ","prefecture":"岐阜県","city":"関市","street":"十三塚町"},{"zipCode":"5013258","prefectureKana":"ｷﾞﾌｹﾝ","cityKana":"ｾｷｼ","streetKana":"ｼﾞｭｳｻﾝﾂﾞｶﾐﾅﾐ","prefecture":"岐阜県","city":"関市","street":"十三塚南"},{"zipCode":"5013965","prefectureKana":"ｷﾞﾌｹﾝ","cityKana":"ｾｷｼ","streetKana":"ｼﾞｭｳﾛｸｾﾝ","prefecture":"岐阜県","city":"関市","street":"十六所"},{"zipCode":"5013868","prefectureKana":"ｷﾞﾌｹﾝ","cityKana":"ｾｷｼ","streetKana":"ｼﾗｶﾜﾁｮｳ","prefecture":"岐阜県","city":"関市","street":"白川町"},{"zipCode":"5013257","prefectureKana":"ｷﾞﾌｹﾝ","cityKana":"ｾｷｼ","streetKana":"ｼﾝﾃﾞﾝ","prefecture":"岐阜県","city":"関市","street":"新田"},{"zipCode":"5013923","prefectureKana":"ｷﾞﾌｹﾝ","cityKana":"ｾｷｼ","streetKana":"ｼﾝﾊｻﾏ","prefecture":"岐阜県","city":"関市","street":"新迫間"},{"zipCode":"5013909","prefectureKana":"ｷﾞﾌｹﾝ","cityKana":"ｾｷｼ","streetKana":"ｼﾝﾎﾞﾘﾁｮｳ","prefecture":"岐阜県","city":"関市","street":"新堀町"},{"zipCode":"5013847","prefectureKana":"ｷﾞﾌｹﾝ","cityKana":"ｾｷｼ","streetKana":"ｼﾝﾏﾁ","prefecture":"岐阜県","city":"関市","street":"新町"},{"zipCode":"5013905","prefectureKana":"ｷﾞﾌｹﾝ","cityKana":"ｾｷｼ","streetKana":"ｼﾝﾒｲﾁｮｳ","prefecture":"岐阜県","city":"関市","street":"神明町"},{"zipCode":"5013848","prefectureKana":"ｷﾞﾌｹﾝ","cityKana":"ｾｷｼ","streetKana":"ｽｴﾋﾛﾁｮｳ","prefecture":"岐阜県","city":"関市","street":"末広町"},{"zipCode":"5013846","prefectureKana":"ｷﾞﾌｹﾝ","cityKana":"ｾｷｼ","streetKana":"ｽﾐﾖｼﾁｮｳ","prefecture":"岐阜県","city":"関市","street":"住吉町"},{"zipCode":"5013961","prefectureKana":"ｷﾞﾌｹﾝ","cityKana":"ｾｷｼ","streetKana":"ｾｲｿﾞｳｼﾞ","prefecture":"岐阜県","city":"関市","street":"清蔵寺"},{"zipCode":"5013826","prefectureKana":"ｷﾞﾌｹﾝ","cityKana":"ｾｷｼ","streetKana":"ｾｷｸﾞﾁﾁｮｳ","prefecture":"岐阜県","city":"関市","street":"関口町"},{"zipCode":"5013211","prefectureKana":"ｷﾞﾌｹﾝ","cityKana":"ｾｷｼ","streetKana":"ｾｷﾉｳｴ","prefecture":"岐阜県","city":"関市","street":"関ノ上"},{"zipCode":"5013866","prefectureKana":"ｷﾞﾌｹﾝ","cityKana":"ｾｷｼ","streetKana":"ｾﾝﾈﾝﾁｮｳ","prefecture":"岐阜県","city":"関市","street":"千年町"},{"zipCode":"5013954","prefectureKana":"ｷﾞﾌｹﾝ","cityKana":"ｾｷｼ","streetKana":"ｾﾝﾋﾞｷ","prefecture":"岐阜県","city":"関市","street":"千疋"},{"zipCode":"5013953","prefectureKana":"ｷﾞﾌｹﾝ","cityKana":"ｾｷｼ","streetKana":"ｾﾝﾋﾞｷｷﾀ","prefecture":"岐阜県","city":"関市","street":"千疋北"},{"zipCode":"5013957","prefectureKana":"ｷﾞﾌｹﾝ","cityKana":"ｾｷｼ","streetKana":"ｿﾊﾞｼﾏ","prefecture":"岐阜県","city":"関市","street":"側島"},{"zipCode":"5013952","prefectureKana":"ｷﾞﾌｹﾝ","cityKana":"ｾｷｼ","streetKana":"ﾀｲﾍｲﾀﾞｲ","prefecture":"岐阜県","city":"関市","street":"大平台"},{"zipCode":"5013833","prefectureKana":"ｷﾞﾌｹﾝ","cityKana":"ｾｷｼ","streetKana":"ﾀｲﾍｲﾁｮｳ","prefecture":"岐阜県","city":"関市","street":"大平町"},{"zipCode":"5013834","prefectureKana":"ｷﾞﾌｹﾝ","cityKana":"ｾｷｼ","streetKana":"ﾀﾞｲﾓﾝﾁｮｳ","prefecture":"岐阜県","city":"関市","street":"大門町"},{"zipCode":"5013964","prefectureKana":"ｷﾞﾌｹﾝ","cityKana":"ｾｷｼ","streetKana":"ﾀｶﾗﾔﾏﾁｮｳ","prefecture":"岐阜県","city":"関市","street":"宝山町"},{"zipCode":"5013223","prefectureKana":"ｷﾞﾌｹﾝ","cityKana":"ｾｷｼ","streetKana":"ﾀﾃｷﾘﾐﾅﾐ","prefecture":"岐阜県","city":"関市","street":"竪切南"},{"zipCode":"5013228","prefectureKana":"ｷﾞﾌｹﾝ","cityKana":"ｾｷｼ","streetKana":"ﾀﾃｷﾘｷﾀ","prefecture":"岐阜県","city":"関市","street":"竪切北"},{"zipCode":"5013255","prefectureKana":"ｷﾞﾌｹﾝ","cityKana":"ｾｷｼ","streetKana":"ﾀﾞﾝｼﾀ","prefecture":"岐阜県","city":"関市","street":"段下"},{"zipCode":"5013968","prefectureKana":"ｷﾞﾌｹﾝ","cityKana":"ｾｷｼ","streetKana":"ﾁｶﾗﾔﾏ","prefecture":"岐阜県","city":"関市","street":"力山"},{"zipCode":"5013854","prefectureKana":"ｷﾞﾌｹﾝ","cityKana":"ｾｷｼ","streetKana":"ﾂｷﾐﾁｮｳ","prefecture":"岐阜県","city":"関市","street":"月見町"},{"zipCode":"5013236","prefectureKana":"ｷﾞﾌｹﾝ","cityKana":"ｾｷｼ","streetKana":"ﾂｼﾞｲﾄﾞﾁｮｳ","prefecture":"岐阜県","city":"関市","street":"辻井戸町"},{"zipCode":"5013946","prefectureKana":"ｷﾞﾌｹﾝ","cityKana":"ｾｷｼ","streetKana":"ﾂﾎﾞｶﾜﾀﾞｲ","prefecture":"岐阜県","city":"関市","street":"津保川台"},{"zipCode":"5013842","prefectureKana":"ｷﾞﾌｹﾝ","cityKana":"ｾｷｼ","streetKana":"ﾃﾞｷﾏﾁ","prefecture":"岐阜県","city":"関市","street":"出来町"},{"zipCode":"5013212","prefectureKana":"ｷﾞﾌｹﾝ","cityKana":"ｾｷｼ","streetKana":"ﾃﾗﾀﾞ","prefecture":"岐阜県","city":"関市","street":"寺田"},{"zipCode":"5013915","prefectureKana":"ｷﾞﾌｹﾝ","cityKana":"ｾｷｼ","streetKana":"ﾃﾝﾄｸﾁｮｳ","prefecture":"岐阜県","city":"関市","street":"天徳町"},{"zipCode":"5013939","prefectureKana":"ｷﾞﾌｹﾝ","cityKana":"ｾｷｼ","streetKana":"ﾄｳｺｳﾀﾞｲﾁ","prefecture":"岐阜県","city":"関市","street":"桃紅大地"},{"zipCode":"5013824","prefectureKana":"ｷﾞﾌｹﾝ","cityKana":"ｾｷｼ","streetKana":"ﾄｳｼﾝﾁｮｳ","prefecture":"岐阜県","city":"関市","street":"東新町"},{"zipCode":"5013206","prefectureKana":"ｷﾞﾌｹﾝ","cityKana":"ｾｷｼ","streetKana":"ﾄｳﾉﾎﾗ","prefecture":"岐阜県","city":"関市","street":"塔ノ洞"},{"zipCode":"5013867","prefectureKana":"ｷﾞﾌｹﾝ","cityKana":"ｾｷｼ","streetKana":"ﾄｷﾜﾁｮｳ","prefecture":"岐阜県","city":"関市","street":"常盤町"},{"zipCode":"5013887","prefectureKana":"ｷﾞﾌｹﾝ","cityKana":"ｾｷｼ","streetKana":"ﾄｹﾞﾂﾁｮｳ","prefecture":"岐阜県","city":"関市","street":"吐月町"},{"zipCode":"5013958","prefectureKana":"ｷﾞﾌｹﾝ","cityKana":"ｾｷｼ","streetKana":"ﾄﾀﾞ","prefecture":"岐阜県","city":"関市","street":"戸田"},{"zipCode":"5013501","prefectureKana":"ｷﾞﾌｹﾝ","cityKana":"ｾｷｼ","streetKana":"ﾄﾐﾉﾎ","prefecture":"岐阜県","city":"関市","street":"富之保"},{"zipCode":"5013863","prefectureKana":"ｷﾞﾌｹﾝ","cityKana":"ｾｷｼ","streetKana":"ﾄﾐﾓﾄﾁｮｳ","prefecture":"岐阜県","city":"関市","street":"富本町"},{"zipCode":"5013916","prefectureKana":"ｷﾞﾌｹﾝ","cityKana":"ｾｷｼ","streetKana":"ﾄﾖｵｶﾁｮｳ","prefecture":"岐阜県","city":"関市","street":"豊岡町"},{"zipCode":"5013975","prefectureKana":"ｷﾞﾌｹﾝ","cityKana":"ｾｷｼ","streetKana":"ﾄﾖｶﾜﾁｮｳ","prefecture":"岐阜県","city":"関市","street":"豊川町"},{"zipCode":"5013511","prefectureKana":"ｷﾞﾌｹﾝ","cityKana":"ｾｷｼ","streetKana":"ﾅｶﾉﾎ","prefecture":"岐阜県","city":"関市","street":"中之保"},{"zipCode":"5013243","prefectureKana":"ｷﾞﾌｹﾝ","cityKana":"ｾｷｼ","streetKana":"ﾅｶﾌｸﾉﾁｮｳ","prefecture":"岐阜県","city":"関市","street":"中福野町"},{"zipCode":"5013817","prefectureKana":"ｷﾞﾌｹﾝ","cityKana":"ｾｷｼ","streetKana":"ﾅｶﾏﾁ","prefecture":"岐阜県","city":"関市","street":"仲町"},{"zipCode":"5013839","prefectureKana":"ｷﾞﾌｹﾝ","cityKana":"ｾｷｼ","streetKana":"ﾅｶﾞｽﾞﾐﾁｮｳ","prefecture":"岐阜県","city":"関市","street":"長住町"},{"zipCode":"5013828","prefectureKana":"ｷﾞﾌｹﾝ","cityKana":"ｾｷｼ","streetKana":"ﾆｼｱｻﾋｶﾞｵｶ","prefecture":"岐阜県","city":"関市","street":"西旭ケ丘"},{"zipCode":"5013967","prefectureKana":"ｷﾞﾌｹﾝ","cityKana":"ｾｷｼ","streetKana":"ﾆｼｲｼｷ","prefecture":"岐阜県","city":"関市","street":"西居敷"},{"zipCode":"5013906","prefectureKana":"ｷﾞﾌｹﾝ","cityKana":"ｾｷｼ","streetKana":"ﾆｼｶｹﾉｼﾀ","prefecture":"岐阜県","city":"関市","street":"西欠ノ下"},{"zipCode":"5013221","prefectureKana":"ｷﾞﾌｹﾝ","cityKana":"ｾｷｼ","streetKana":"ﾆｼｶｼｱｹﾞ","prefecture":"岐阜県","city":"関市","street":"西貸上"},{"zipCode":"5013202","prefectureKana":"ｷﾞﾌｹﾝ","cityKana":"ｾｷｼ","streetKana":"ﾆｼｶﾐﾉ","prefecture":"岐阜県","city":"関市","street":"西神野"},{"zipCode":"5013233","prefectureKana":"ｷﾞﾌｹﾝ","cityKana":"ｾｷｼ","streetKana":"ﾆｼｷﾄﾞﾁｮｳ","prefecture":"岐阜県","city":"関市","street":"西木戸町"},{"zipCode":"5013215","prefectureKana":"ｷﾞﾌｹﾝ","cityKana":"ｾｷｼ","streetKana":"ﾆｼｻｶｲﾏﾂﾁｮｳ","prefecture":"岐阜県","city":"関市","street":"西境松町"},{"zipCode":"5013928","prefectureKana":"ｷﾞﾌｹﾝ","cityKana":"ｾｷｼ","streetKana":"ﾆｼﾀﾜﾗ","prefecture":"岐阜県","city":"関市","street":"西田原"},{"zipCode":"5013882","prefectureKana":"ｷﾞﾌｹﾝ","cityKana":"ｾｷｼ","streetKana":"ﾆｼﾋﾖｼﾁｮｳ","prefecture":"岐阜県","city":"関市","street":"西日吉町"},{"zipCode":"5013244","prefectureKana":"ｷﾞﾌｹﾝ","cityKana":"ｾｷｼ","streetKana":"ﾆｼﾌｸﾉﾁｮｳ","prefecture":"岐阜県","city":"関市","street":"西福野町"},{"zipCode":"5013803","prefectureKana":"ｷﾞﾌｹﾝ","cityKana":"ｾｷｼ","streetKana":"ﾆｼﾎﾝｺﾞｳﾄﾞｵﾘ","prefecture":"岐阜県","city":"関市","street":"西本郷通"},{"zipCode":"5013819","prefectureKana":"ｷﾞﾌｹﾝ","cityKana":"ｾｷｼ","streetKana":"ﾆｼﾏﾁ","prefecture":"岐阜県","city":"関市","street":"西町"},{"zipCode":"5013837","prefectureKana":"ｷﾞﾌｹﾝ","cityKana":"ｾｷｼ","streetKana":"ﾆｼﾓﾝｾﾞﾝﾁｮｳ","prefecture":"岐阜県","city":"関市","street":"西門前町"},{"zipCode":"5013943","prefectureKana":"ｷﾞﾌｹﾝ","cityKana":"ｾｷｼ","streetKana":"ﾆｼﾞｶﾞｵｶﾐﾅﾐ","prefecture":"岐阜県","city":"関市","street":"虹ケ丘南"},{"zipCode":"5013945","prefectureKana":"ｷﾞﾌｹﾝ","cityKana":"ｾｷｼ","streetKana":"ﾆｼﾞｶﾞｵｶｷﾀ","prefecture":"岐阜県","city":"関市","street":"虹ケ丘北"},{"zipCode":"5013219","prefectureKana":"ｷﾞﾌｹﾝ","cityKana":"ｾｷｼ","streetKana":"ﾉｿﾞﾐｶﾞｵｶ","prefecture":"岐阜県","city":"関市","street":"のぞみケ丘"},{"zipCode":"5013976","prefectureKana":"ｷﾞﾌｹﾝ","cityKana":"ｾｷｼ","streetKana":"ﾊﾞｲﾘｭｳｼﾞﾔﾏ","prefecture":"岐阜県","city":"関市","street":"梅竜寺山"},{"zipCode":"5013924","prefectureKana":"ｷﾞﾌｹﾝ","cityKana":"ｾｷｼ","streetKana":"ﾊｻﾏ","prefecture":"岐阜県","city":"関市","street":"迫間"},{"zipCode":"5013925","prefectureKana":"ｷﾞﾌｹﾝ","cityKana":"ｾｷｼ","streetKana":"ﾊｻﾏﾀﾞｲ","prefecture":"岐阜県","city":"関市","street":"迫間台"},{"zipCode":"5013831","prefectureKana":"ｷﾞﾌｹﾝ","cityKana":"ｾｷｼ","streetKana":"ﾊｾﾃﾞﾗﾁｮｳ","prefecture":"岐阜県","city":"関市","street":"長谷寺町"},{"zipCode":"5013832","prefectureKana":"ｷﾞﾌｹﾝ","cityKana":"ｾｷｼ","streetKana":"ﾊﾅｿﾞﾉﾁｮｳ","prefecture":"岐阜県","city":"関市","street":"花園町"},{"zipCode":"5013256","prefectureKana":"ｷﾞﾌｹﾝ","cityKana":"ｾｷｼ","streetKana":"ﾊﾊﾞ","prefecture":"岐阜県","city":"関市","street":"巾"},{"zipCode":"5013969","prefectureKana":"ｷﾞﾌｹﾝ","cityKana":"ｾｷｼ","streetKana":"ﾊﾞﾊﾞﾀﾞｼ","prefecture":"岐阜県","city":"関市","street":"馬場出"},{"zipCode":"5013901","prefectureKana":"ｷﾞﾌｹﾝ","cityKana":"ｾｷｼ","streetKana":"ﾊﾙｻﾄﾁｮｳ","prefecture":"岐阜県","city":"関市","street":"春里町"},{"zipCode":"5013213","prefectureKana":"ｷﾞﾌｹﾝ","cityKana":"ｾｷｼ","streetKana":"ﾋｶﾞｼｶｼｱｹﾞ","prefecture":"岐阜県","city":"関市","street":"東貸上"},{"zipCode":"5013231","prefectureKana":"ｷﾞﾌｹﾝ","cityKana":"ｾｷｼ","streetKana":"ﾋｶﾞｼｻｸﾗﾏﾁ","prefecture":"岐阜県","city":"関市","street":"東桜町"},{"zipCode":"5013218","prefectureKana":"ｷﾞﾌｹﾝ","cityKana":"ｾｷｼ","streetKana":"ﾋｶﾞｼｼﾏ","prefecture":"岐阜県","city":"関市","street":"東志摩"},{"zipCode":"5013224","prefectureKana":"ｷﾞﾌｹﾝ","cityKana":"ｾｷｼ","streetKana":"ﾋｶﾞｼｾﾝﾎﾞｳ","prefecture":"岐阜県","city":"関市","street":"東仙房"},{"zipCode":"5013921","prefectureKana":"ｷﾞﾌｹﾝ","cityKana":"ｾｷｼ","streetKana":"ﾋｶﾞｼﾀﾜﾗ","prefecture":"岐阜県","city":"関市","street":"東田原"},{"zipCode":"5013823","prefectureKana":"ｷﾞﾌｹﾝ","cityKana":"ｾｷｼ","streetKana":"ﾋｶﾞｼﾃﾞﾁｮｳ","prefecture":"岐阜県","city":"関市","street":"東出町"},{"zipCode":"5013813","prefectureKana":"ｷﾞﾌｹﾝ","cityKana":"ｾｷｼ","streetKana":"ﾋｶﾞｼﾉﾏﾁ","prefecture":"岐阜県","city":"関市","street":"東野町"},{"zipCode":"5013883","prefectureKana":"ｷﾞﾌｹﾝ","cityKana":"ｾｷｼ","streetKana":"ﾋｶﾞｼﾋﾖｼﾁｮｳ","prefecture":"岐阜県","city":"関市","street":"東日吉町"},{"zipCode":"5013242","prefectureKana":"ｷﾞﾌｹﾝ","cityKana":"ｾｷｼ","streetKana":"ﾋｶﾞｼﾌｸﾉﾁｮｳ","prefecture":"岐阜県","city":"関市","street":"東福野町"},{"zipCode":"5013812","prefectureKana":"ｷﾞﾌｹﾝ","cityKana":"ｾｷｼ","streetKana":"ﾋｶﾞｼﾎﾝｺﾞｳ","prefecture":"岐阜県","city":"関市","street":"東本郷"},{"zipCode":"5013811","prefectureKana":"ｷﾞﾌｹﾝ","cityKana":"ｾｷｼ","streetKana":"ﾋｶﾞｼﾎﾝｺﾞｳﾄﾞｵﾘ","prefecture":"岐阜県","city":"関市","street":"東本郷通"},{"zipCode":"5013815","prefectureKana":"ｷﾞﾌｹﾝ","cityKana":"ｾｷｼ","streetKana":"ﾋｶﾞｼﾏﾁ","prefecture":"岐阜県","city":"関市","street":"東町"},{"zipCode":"5013838","prefectureKana":"ｷﾞﾌｹﾝ","cityKana":"ｾｷｼ","streetKana":"ﾋｶﾞｼﾓﾝｾﾞﾝﾁｮｳ","prefecture":"岐阜県","city":"関市","street":"東門前町"},{"zipCode":"5013814","prefectureKana":"ｷﾞﾌｹﾝ","cityKana":"ｾｷｼ","streetKana":"ﾋｶﾞｼﾔﾏ","prefecture":"岐阜県","city":"関市","street":"東山"},{"zipCode":"5013911","prefectureKana":"ｷﾞﾌｹﾝ","cityKana":"ｾｷｼ","streetKana":"ﾋﾀﾞｾ","prefecture":"岐阜県","city":"関市","street":"肥田瀬"},{"zipCode":"5013973","prefectureKana":"ｷﾞﾌｹﾝ","cityKana":"ｾｷｼ","streetKana":"ﾋﾄﾂﾔﾏﾁｮｳ","prefecture":"岐阜県","city":"関市","street":"一ツ山町"},{"zipCode":"5013873","prefectureKana":"ｷﾞﾌｹﾝ","cityKana":"ｾｷｼ","streetKana":"ﾋﾉﾃﾞﾏﾁ","prefecture":"岐阜県","city":"関市","street":"日ノ出町"},{"zipCode":"5013821","prefectureKana":"ｷﾞﾌｹﾝ","cityKana":"ｾｷｼ","streetKana":"ﾋﾗｶﾞﾁｮｳ","prefecture":"岐阜県","city":"関市","street":"平賀町"},{"zipCode":"5013263","prefectureKana":"ｷﾞﾌｹﾝ","cityKana":"ｾｷｼ","streetKana":"ﾋﾛﾐ","prefecture":"岐阜県","city":"関市","street":"広見"},{"zipCode":"5013261","prefectureKana":"ｷﾞﾌｹﾝ","cityKana":"ｾｷｼ","streetKana":"ﾋﾛﾐｷﾀﾏﾁ","prefecture":"岐阜県","city":"関市","street":"広見北町"},{"zipCode":"5013262","prefectureKana":"ｷﾞﾌｹﾝ","cityKana":"ｾｷｼ","streetKana":"ﾋﾛﾐﾋｶﾞｼﾏﾁ","prefecture":"岐阜県","city":"関市","street":"広見東町"},{"zipCode":"5013971","prefectureKana":"ｷﾞﾌｹﾝ","cityKana":"ｾｷｼ","streetKana":"ﾌﾙﾔｼｷﾁｮｳ","prefecture":"岐阜県","city":"関市","street":"古屋敷町"},{"zipCode":"5013919","prefectureKana":"ｷﾞﾌｹﾝ","cityKana":"ｾｷｼ","streetKana":"ﾍｲｾｲﾄﾞｵﾘ","prefecture":"岐阜県","city":"関市","street":"平成通"},{"zipCode":"5013874","prefectureKana":"ｷﾞﾌｹﾝ","cityKana":"ｾｷｼ","streetKana":"ﾍｲﾜﾄﾞｵﾘ","prefecture":"岐阜県","city":"関市","street":"平和通"},{"zipCode":"5013956","prefectureKana":"ｷﾞﾌｹﾝ","cityKana":"ｾｷｼ","streetKana":"ﾎｳﾐｮｳ","prefecture":"岐阜県","city":"関市","street":"保明"},{"zipCode":"5013227","prefectureKana":"ｷﾞﾌｹﾝ","cityKana":"ｾｷｼ","streetKana":"ﾎｸｾﾝﾎﾞｳ","prefecture":"岐阜県","city":"関市","street":"北仙房"},{"zipCode":"5013267","prefectureKana":"ｷﾞﾌｹﾝ","cityKana":"ｾｷｼ","streetKana":"ﾎｼｶﾞｵｶ","prefecture":"岐阜県","city":"関市","street":"星ケ丘"},{"zipCode":"5012807","prefectureKana":"ｷﾞﾌｹﾝ","cityKana":"ｾｷｼ","streetKana":"ﾎﾗﾄﾞｱﾍﾞ","prefecture":"岐阜県","city":"関市","street":"洞戸阿部"},{"zipCode":"5012812","prefectureKana":"ｷﾞﾌｹﾝ","cityKana":"ｾｷｼ","streetKana":"ﾎﾗﾄﾞｲﾁﾊﾞ","prefecture":"岐阜県","city":"関市","street":"洞戸市場"},{"zipCode":"5012816","prefectureKana":"ｷﾞﾌｹﾝ","cityKana":"ｾｷｼ","streetKana":"ﾎﾗﾄﾞｵｵﾉ","prefecture":"岐阜県","city":"関市","street":"洞戸大野"},{"zipCode":"5012805","prefectureKana":"ｷﾞﾌｹﾝ","cityKana":"ｾｷｼ","streetKana":"ﾎﾗﾄﾞｵｸﾞﾗ","prefecture":"岐阜県","city":"関市","street":"洞戸尾倉"},{"zipCode":"5012809","prefectureKana":"ｷﾞﾌｹﾝ","cityKana":"ｾｷｼ","streetKana":"ﾎﾗﾄﾞｵｾﾞﾐ","prefecture":"岐阜県","city":"関市","street":"洞戸小瀬見"},{"zipCode":"5012811","prefectureKana":"ｷﾞﾌｹﾝ","cityKana":"ｾｷｼ","streetKana":"ﾎﾗﾄﾞｶﾀ","prefecture":"岐阜県","city":"関市","street":"洞戸片"},{"zipCode":"5012801","prefectureKana":"ｷﾞﾌｹﾝ","cityKana":"ｾｷｼ","streetKana":"ﾎﾗﾄﾞｸﾘﾊﾗ","prefecture":"岐阜県","city":"関市","street":"洞戸栗原"},{"zipCode":"5012815","prefectureKana":"ｷﾞﾌｹﾝ","cityKana":"ｾｷｼ","streetKana":"ﾎﾗﾄﾞｸﾛﾀﾞﾆ","prefecture":"岐阜県","city":"関市","street":"洞戸黒谷"},{"zipCode":"5012806","prefectureKana":"ｷﾞﾌｹﾝ","cityKana":"ｾｷｼ","streetKana":"ﾎﾗﾄﾞｺｳｶ","prefecture":"岐阜県","city":"関市","street":"洞戸高賀"},{"zipCode":"5012808","prefectureKana":"ｷﾞﾌｹﾝ","cityKana":"ｾｷｼ","streetKana":"ﾎﾗﾄﾞｺｳﾐ","prefecture":"岐阜県","city":"関市","street":"洞戸高見"},{"zipCode":"5012817","prefectureKana":"ｷﾞﾌｹﾝ","cityKana":"ｾｷｼ","streetKana":"ﾎﾗﾄﾞｺｻｶ","prefecture":"岐阜県","city":"関市","street":"洞戸小坂"},{"zipCode":"5012814","prefectureKana":"ｷﾞﾌｹﾝ","cityKana":"ｾｷｼ","streetKana":"ﾎﾗﾄﾞｽｶﾞﾀﾞﾆ","prefecture":"岐阜県","city":"関市","street":"洞戸菅谷"},{"zipCode":"5012802","prefectureKana":"ｷﾞﾌｹﾝ","cityKana":"ｾｷｼ","streetKana":"ﾎﾗﾄﾞﾂｳｹﾞﾝｼﾞ","prefecture":"岐阜県","city":"関市","street":"洞戸通元寺"},{"zipCode":"5012803","prefectureKana":"ｷﾞﾌｹﾝ","cityKana":"ｾｷｼ","streetKana":"ﾎﾗﾄﾞﾋｾ","prefecture":"岐阜県","city":"関市","street":"洞戸飛瀬"},{"zipCode":"5013805","prefectureKana":"ｷﾞﾌｹﾝ","cityKana":"ｾｷｼ","streetKana":"ﾎﾝｺﾞｳﾁｮｳ","prefecture":"岐阜県","city":"関市","street":"本郷町"},{"zipCode":"5013886","prefectureKana":"ｷﾞﾌｹﾝ","cityKana":"ｾｷｼ","streetKana":"ﾎﾝﾏﾁ","prefecture":"岐阜県","city":"関市","street":"本町"},{"zipCode":"5013864","prefectureKana":"ｷﾞﾌｹﾝ","cityKana":"ｾｷｼ","streetKana":"ﾏｴﾁｮｳ","prefecture":"岐阜県","city":"関市","street":"前町"},{"zipCode":"5013937","prefectureKana":"ｷﾞﾌｹﾝ","cityKana":"ｾｷｼ","streetKana":"ﾏｴﾔﾏﾁｮｳ","prefecture":"岐阜県","city":"関市","street":"前山町"},{"zipCode":"5013884","prefectureKana":"ｷﾞﾌｹﾝ","cityKana":"ｾｷｼ","streetKana":"ﾏｺﾞﾛｸﾁｮｳ","prefecture":"岐阜県","city":"関市","street":"孫六町"},{"zipCode":"5013216","prefectureKana":"ｷﾞﾌｹﾝ","cityKana":"ｾｷｼ","streetKana":"ﾐｽﾞﾉﾜﾁｮｳ","prefecture":"岐阜県","city":"関市","street":"水ノ輪町"},{"zipCode":"5013836","prefectureKana":"ｷﾞﾌｹﾝ","cityKana":"ｾｷｼ","streetKana":"ﾐｿﾉﾁｮｳ","prefecture":"岐阜県","city":"関市","street":"美園町"},{"zipCode":"5013246","prefectureKana":"ｷﾞﾌｹﾝ","cityKana":"ｾｷｼ","streetKana":"ﾐﾄﾞﾘｶﾞｵｶ","prefecture":"岐阜県","city":"関市","street":"緑ケ丘"},{"zipCode":"5013237","prefectureKana":"ｷﾞﾌｹﾝ","cityKana":"ｾｷｼ","streetKana":"ﾐﾄﾞﾘﾏﾁ","prefecture":"岐阜県","city":"関市","street":"緑町"},{"zipCode":"5013222","prefectureKana":"ｷﾞﾌｹﾝ","cityKana":"ｾｷｼ","streetKana":"ﾐﾅﾐｶｼｱｹﾞ","prefecture":"岐阜県","city":"関市","street":"南貸上"},{"zipCode":"5013857","prefectureKana":"ｷﾞﾌｹﾝ","cityKana":"ｾｷｼ","streetKana":"ﾐﾅﾐｶｽｶﾞﾁｮｳ","prefecture":"岐阜県","city":"関市","street":"南春日町"},{"zipCode":"5013225","prefectureKana":"ｷﾞﾌｹﾝ","cityKana":"ｾｷｼ","streetKana":"ﾐﾅﾐｾﾝﾎﾞｳ","prefecture":"岐阜県","city":"関市","street":"南仙房"},{"zipCode":"5013918","prefectureKana":"ｷﾞﾌｹﾝ","cityKana":"ｾｷｼ","streetKana":"ﾐﾅﾐﾃﾝｼﾞﾝ","prefecture":"岐阜県","city":"関市","street":"南天神"},{"zipCode":"5013825","prefectureKana":"ｷﾞﾌｹﾝ","cityKana":"ｾｷｼ","streetKana":"ﾐﾅﾐﾃﾞ","prefecture":"岐阜県","city":"関市","street":"南出"},{"zipCode":"5013907","prefectureKana":"ｷﾞﾌｹﾝ","cityKana":"ｾｷｼ","streetKana":"ﾐﾅﾐﾏﾁ","prefecture":"岐阜県","city":"関市","street":"南町"},{"zipCode":"5013912","prefectureKana":"ｷﾞﾌｹﾝ","cityKana":"ｾｷｼ","streetKana":"ﾐﾔｶﾞﾜﾁｮｳ","prefecture":"岐阜県","city":"関市","street":"宮河町"},{"zipCode":"5013827","prefectureKana":"ｷﾞﾌｹﾝ","cityKana":"ｾｷｼ","streetKana":"ﾐﾔｼﾞﾁｮｳ","prefecture":"岐阜県","city":"関市","street":"宮地町"},{"zipCode":"5013844","prefectureKana":"ｷﾞﾌｹﾝ","cityKana":"ｾｷｼ","streetKana":"ﾐﾜﾁｮｳ","prefecture":"岐阜県","city":"関市","street":"美和町"},{"zipCode":"5013226","prefectureKana":"ｷﾞﾌｹﾝ","cityKana":"ｾｷｼ","streetKana":"ﾑｶｲｻｲｾﾝﾎﾞｳ","prefecture":"岐阜県","city":"関市","street":"向西仙房"},{"zipCode":"5012605","prefectureKana":"ｷﾞﾌｹﾝ","cityKana":"ｾｷｼ","streetKana":"ﾑｹﾞｶﾞﾜﾁｮｳｱﾄﾍﾞ","prefecture":"岐阜県","city":"関市","street":"武芸川町跡部"},{"zipCode":"5012607","prefectureKana":"ｷﾞﾌｹﾝ","cityKana":"ｾｷｼ","streetKana":"ﾑｹﾞｶﾞﾜﾁｮｳｳﾀﾞｲﾝ","prefecture":"岐阜県","city":"関市","street":"武芸川町宇多院"},{"zipCode":"5012602","prefectureKana":"ｷﾞﾌｹﾝ","cityKana":"ｾｷｼ","streetKana":"ﾑｹﾞｶﾞﾜﾁｮｳｵｼﾞﾉ","prefecture":"岐阜県","city":"関市","street":"武芸川町小知野"},{"zipCode":"5012604","prefectureKana":"ｷﾞﾌｹﾝ","cityKana":"ｾｷｼ","streetKana":"ﾑｹﾞｶﾞﾜﾁｮｳﾀｶﾉ","prefecture":"岐阜県","city":"関市","street":"武芸川町高野"},{"zipCode":"5012601","prefectureKana":"ｷﾞﾌｹﾝ","cityKana":"ｾｷｼ","streetKana":"ﾑｹﾞｶﾞﾜﾁｮｳﾀﾆｸﾞﾁ","prefecture":"岐阜県","city":"関市","street":"武芸川町谷口"},{"zipCode":"5012603","prefectureKana":"ｷﾞﾌｹﾝ","cityKana":"ｾｷｼ","streetKana":"ﾑｹﾞｶﾞﾜﾁｮｳﾊﾁﾏﾝ","prefecture":"岐阜県","city":"関市","street":"武芸川町八幡"},{"zipCode":"5012606","prefectureKana":"ｷﾞﾌｹﾝ","cityKana":"ｾｷｼ","streetKana":"ﾑｹﾞｶﾞﾜﾁｮｳﾋﾗ","prefecture":"岐阜県","city":"関市","street":"武芸川町平"},{"zipCode":"5013933","prefectureKana":"ｷﾞﾌｹﾝ","cityKana":"ｾｷｼ","streetKana":"ﾑｺｳﾔﾏﾁｮｳ","prefecture":"岐阜県","city":"関市","street":"向山町"},{"zipCode":"5013904","prefectureKana":"ｷﾞﾌｹﾝ","cityKana":"ｾｷｼ","streetKana":"ﾒｲｾｲﾁｮｳ","prefecture":"岐阜県","city":"関市","street":"明生町"},{"zipCode":"5013881","prefectureKana":"ｷﾞﾌｹﾝ","cityKana":"ｾｷｼ","streetKana":"ﾓﾄｼｹﾞﾁｮｳ","prefecture":"岐阜県","city":"関市","street":"元重町"},{"zipCode":"5013875","prefectureKana":"ｷﾞﾌｹﾝ","cityKana":"ｾｷｼ","streetKana":"ﾓﾘﾆｼﾁｮｳ","prefecture":"岐阜県","city":"関市","street":"森西町"},{"zipCode":"5013962","prefectureKana":"ｷﾞﾌｹﾝ","cityKana":"ｾｷｼ","streetKana":"ﾔﾅｷﾞﾏﾁ","prefecture":"岐阜県","city":"関市","street":"柳町"},{"zipCode":"5013944","prefectureKana":"ｷﾞﾌｹﾝ","cityKana":"ｾｷｼ","streetKana":"ﾔﾏﾀﾞ","prefecture":"岐阜県","city":"関市","street":"山田"},{"zipCode":"5013885","prefectureKana":"ｷﾞﾌｹﾝ","cityKana":"ｾｷｼ","streetKana":"ﾔﾏﾉﾃ","prefecture":"岐阜県","city":"関市","street":"山ノ手"},{"zipCode":"5013902","prefectureKana":"ｷﾞﾌｹﾝ","cityKana":"ｾｷｼ","streetKana":"ﾔﾖｲﾁｮｳ","prefecture":"岐阜県","city":"関市","street":"弥生町"},{"zipCode":"5013254","prefectureKana":"ｷﾞﾌｹﾝ","cityKana":"ｾｷｼ","streetKana":"ﾕｳﾋｶﾞｵｶ","prefecture":"岐阜県","city":"関市","street":"雄飛ケ丘"},{"zipCode":"5013816","prefectureKana":"ｷﾞﾌｹﾝ","cityKana":"ｾｷｼ","streetKana":"ﾖｼﾉﾏﾁ","prefecture":"岐阜県","city":"関市","street":"吉野町"},{"zipCode":"5013818","prefectureKana":"ｷﾞﾌｹﾝ","cityKana":"ｾｷｼ","streetKana":"ﾖｼﾓﾄﾁｮｳ","prefecture":"岐阜県","city":"関市","street":"吉本町"},{"zipCode":"5013802","prefectureKana":"ｷﾞﾌｹﾝ","cityKana":"ｾｷｼ","streetKana":"ﾜｶｸｻﾄﾞｵﾘ","prefecture":"岐阜県","city":"関市","street":"若草通"},{"zipCode":"5013234","prefectureKana":"ｷﾞﾌｹﾝ","cityKana":"ｾｷｼ","streetKana":"ﾜｶﾐﾔﾁｮｳ","prefecture":"岐阜県","city":"関市","street":"若宮町"},{"zipCode":"5013700","prefectureKana":"ｷﾞﾌｹﾝ","cityKana":"ﾐﾉｼ","streetKana":"ｲｶﾆｹｲｻｲｶﾞﾅｲﾊﾞｱｲ","prefecture":"岐阜県","city":"美濃市","street":"以下に掲載がない場合"},{"zipCode":"5013701","prefectureKana":"ｷﾞﾌｹﾝ","cityKana":"ﾐﾉｼ","streetKana":"ﾐﾉｼﾉﾂｷﾞﾆﾊﾞﾝﾁｶﾞｸﾙﾊﾞｱｲ","prefecture":"岐阜県","city":"美濃市","street":"美濃市の次に番地がくる場合"},{"zipCode":"5013723","prefectureKana":"ｷﾞﾌｹﾝ","cityKana":"ﾐﾉｼ","streetKana":"ｱｲｵｲﾁｮｳ","prefecture":"岐阜県","city":"美濃市","street":"相生町"},{"zipCode":"5013762","prefectureKana":"ｷﾞﾌｹﾝ","cityKana":"ﾐﾉｼ","streetKana":"ｱｲｶﾜ","prefecture":"岐阜県","city":"美濃市","street":"藍川"},{"zipCode":"5013717","prefectureKana":"ｷﾞﾌｹﾝ","cityKana":"ﾐﾉｼ","streetKana":"ｱﾀｹﾞ","prefecture":"岐阜県","city":"美濃市","street":"安毛"},{"zipCode":"5013756","prefectureKana":"ｷﾞﾌｹﾝ","cityKana":"ﾐﾉｼ","streetKana":"ｲｸｼ","prefecture":"岐阜県","city":"美濃市","street":"生櫛"},{"zipCode":"5013729","prefectureKana":"ｷﾞﾌｹﾝ","cityKana":"ﾐﾉｼ","streetKana":"ｲｽﾞﾐﾁｮｳ","prefecture":"岐阜県","city":"美濃市","street":"泉町"},{"zipCode":"5013724","prefectureKana":"ｷﾞﾌｹﾝ","cityKana":"ﾐﾉｼ","streetKana":"ｳｵﾔﾁｮｳ","prefecture":"岐阜県","city":"美濃市","street":"魚屋町"},{"zipCode":"5013715","prefectureKana":"ｷﾞﾌｹﾝ","cityKana":"ﾐﾉｼ","streetKana":"ｳﾒﾔﾏﾁｮｳ","prefecture":"岐阜県","city":"美濃市","street":"梅山町"},{"zipCode":"5013786","prefectureKana":"ｷﾞﾌｹﾝ","cityKana":"ﾐﾉｼ","streetKana":"ｵﾄｶﾞﾘ","prefecture":"岐阜県","city":"美濃市","street":"乙狩"},{"zipCode":"5013771","prefectureKana":"ｷﾞﾌｹﾝ","cityKana":"ﾐﾉｼ","streetKana":"ｵﾔﾀﾞ","prefecture":"岐阜県","city":"美濃市","street":"大矢田"},{"zipCode":"5013772","prefectureKana":"ｷﾞﾌｹﾝ","cityKana":"ﾐﾉｼ","streetKana":"ｶｴﾃﾞﾀﾞｲ","prefecture":"岐阜県","city":"美濃市","street":"楓台"},{"zipCode":"5013764","prefectureKana":"ｷﾞﾌｹﾝ","cityKana":"ﾐﾉｼ","streetKana":"ｶｻｶﾞﾐ","prefecture":"岐阜県","city":"美濃市","street":"笠神"},{"zipCode":"5013726","prefectureKana":"ｷﾞﾌｹﾝ","cityKana":"ﾐﾉｼ","streetKana":"ｶｼﾞﾔﾁｮｳ","prefecture":"岐阜県","city":"美濃市","street":"加治屋町"},{"zipCode":"5013781","prefectureKana":"ｷﾞﾌｹﾝ","cityKana":"ﾐﾉｼ","streetKana":"ｶﾀｼﾞ","prefecture":"岐阜県","city":"美濃市","street":"片知"},{"zipCode":"5013702","prefectureKana":"ｷﾞﾌｹﾝ","cityKana":"ﾐﾉｼ","streetKana":"ｶﾐｺｳﾜ","prefecture":"岐阜県","city":"美濃市","street":"上河和"},{"zipCode":"5013743","prefectureKana":"ｷﾞﾌｹﾝ","cityKana":"ﾐﾉｼ","streetKana":"ｶﾐｼﾞｮｳ","prefecture":"岐阜県","city":"美濃市","street":"上条"},{"zipCode":"5013787","prefectureKana":"ｷﾞﾌｹﾝ","cityKana":"ﾐﾉｼ","streetKana":"ｶﾐﾉ","prefecture":"岐阜県","city":"美濃市","street":"上野"},{"zipCode":"5013733","prefectureKana":"ｷﾞﾌｹﾝ","cityKana":"ﾐﾉｼ","streetKana":"ｶﾒﾉﾁｮｳ","prefecture":"岐阜県","city":"美濃市","street":"亀野町"},{"zipCode":"5013783","prefectureKana":"ｷﾞﾌｹﾝ","cityKana":"ﾐﾉｼ","streetKana":"ｶﾝﾎﾞﾗ","prefecture":"岐阜県","city":"美濃市","street":"神洞"},{"zipCode":"5013712","prefectureKana":"ｷﾞﾌｹﾝ","cityKana":"ﾐﾉｼ","streetKana":"ｸﾁﾉﾉ","prefecture":"岐阜県","city":"美濃市","street":"口野々"},{"zipCode":"5013785","prefectureKana":"ｷﾞﾌｹﾝ","cityKana":"ﾐﾉｼ","streetKana":"ｺｸﾗ","prefecture":"岐阜県","city":"美濃市","street":"小倉"},{"zipCode":"5013763","prefectureKana":"ｷﾞﾌｹﾝ","cityKana":"ﾐﾉｼ","streetKana":"ｺﾞｸﾗｸｼﾞ","prefecture":"岐阜県","city":"美濃市","street":"極楽寺"},{"zipCode":"5013736","prefectureKana":"ｷﾞﾌｹﾝ","cityKana":"ﾐﾉｼ","streetKana":"ｺﾒﾔﾁｮｳ","prefecture":"岐阜県","city":"美濃市","street":"米屋町"},{"zipCode":"5013754","prefectureKana":"ｷﾞﾌｹﾝ","cityKana":"ﾐﾉｼ","streetKana":"ｻｸﾗｶﾞｵｶ","prefecture":"岐阜県","city":"美濃市","street":"さくらケ丘"},{"zipCode":"5013755","prefectureKana":"ｷﾞﾌｹﾝ","cityKana":"ﾐﾉｼ","streetKana":"ｼﾏ","prefecture":"岐阜県","city":"美濃市","street":"志摩"},{"zipCode":"5013703","prefectureKana":"ｷﾞﾌｹﾝ","cityKana":"ﾐﾉｼ","streetKana":"ｼﾓｺｳﾜ","prefecture":"岐阜県","city":"美濃市","street":"下河和"},{"zipCode":"5013745","prefectureKana":"ｷﾞﾌｹﾝ","cityKana":"ﾐﾉｼ","streetKana":"ｼﾓﾜﾀﾘ","prefecture":"岐阜県","city":"美濃市","street":"下渡"},{"zipCode":"5013752","prefectureKana":"ｷﾞﾌｹﾝ","cityKana":"ﾐﾉｼ","streetKana":"ｼｮｳｴｲﾁｮｳ","prefecture":"岐阜県","city":"美濃市","street":"松栄町"},{"zipCode":"5013737","prefectureKana":"ｷﾞﾌｹﾝ","cityKana":"ﾐﾉｼ","streetKana":"ｼﾝﾏﾁ","prefecture":"岐阜県","city":"美濃市","street":"新町"},{"zipCode":"5013706","prefectureKana":"ｷﾞﾌｹﾝ","cityKana":"ﾐﾉｼ","streetKana":"ｽﾊﾗ","prefecture":"岐阜県","city":"美濃市","street":"須原"},{"zipCode":"5013714","prefectureKana":"ｷﾞﾌｹﾝ","cityKana":"ﾐﾉｼ","streetKana":"ｿﾀﾞｲ","prefecture":"岐阜県","city":"美濃市","street":"曽代"},{"zipCode":"5013705","prefectureKana":"ｷﾞﾌｹﾝ","cityKana":"ﾐﾉｼ","streetKana":"ﾀﾁﾊﾞﾅ","prefecture":"岐阜県","city":"美濃市","street":"立花"},{"zipCode":"5013725","prefectureKana":"ｷﾞﾌｹﾝ","cityKana":"ﾐﾉｼ","streetKana":"ﾀﾜﾗﾏﾁ","prefecture":"岐阜県","city":"美濃市","street":"俵町"},{"zipCode":"5013744","prefectureKana":"ｷﾞﾌｹﾝ","cityKana":"ﾐﾉｼ","streetKana":"ﾀﾞﾝﾁｮｳ","prefecture":"岐阜県","city":"美濃市","street":"段町"},{"zipCode":"5013734","prefectureKana":"ｷﾞﾌｹﾝ","cityKana":"ﾐﾉｼ","streetKana":"ﾁｳﾈﾁｮｳ","prefecture":"岐阜県","city":"美濃市","street":"千畝町"},{"zipCode":"5013746","prefectureKana":"ｷﾞﾌｹﾝ","cityKana":"ﾐﾉｼ","streetKana":"ﾁｭｳｵｳ","prefecture":"岐阜県","city":"美濃市","street":"中央"},{"zipCode":"5013722","prefectureKana":"ｷﾞﾌｹﾝ","cityKana":"ﾐﾉｼ","streetKana":"ﾄｷﾜﾁｮｳ","prefecture":"岐阜県","city":"美濃市","street":"常盤町"},{"zipCode":"5013742","prefectureKana":"ｷﾞﾌｹﾝ","cityKana":"ﾐﾉｼ","streetKana":"ﾄﾉﾏﾁ","prefecture":"岐阜県","city":"美濃市","street":"殿町"},{"zipCode":"5013713","prefectureKana":"ｷﾞﾌｹﾝ","cityKana":"ﾐﾉｼ","streetKana":"ﾄﾐﾉ","prefecture":"岐阜県","city":"美濃市","street":"富野"},{"zipCode":"5013727","prefectureKana":"ｷﾞﾌｹﾝ","cityKana":"ﾐﾉｼ","streetKana":"ﾅｶﾞｼｹﾞﾁｮｳ","prefecture":"岐阜県","city":"美濃市","street":"永重町"},{"zipCode":"5013782","prefectureKana":"ｷﾞﾌｹﾝ","cityKana":"ﾐﾉｼ","streetKana":"ﾅｶﾞｾ","prefecture":"岐阜県","city":"美濃市","street":"長瀬"},{"zipCode":"5013735","prefectureKana":"ｷﾞﾌｹﾝ","cityKana":"ﾐﾉｼ","streetKana":"ﾆｼｲﾁﾊﾞﾁｮｳ","prefecture":"岐阜県","city":"美濃市","street":"西市場町"},{"zipCode":"5013731","prefectureKana":"ｷﾞﾌｹﾝ","cityKana":"ﾐﾉｼ","streetKana":"ﾋｶﾞｼｲﾁﾊﾞﾁｮｳ","prefecture":"岐阜県","city":"美濃市","street":"東市場町"},{"zipCode":"5013711","prefectureKana":"ｷﾞﾌｹﾝ","cityKana":"ﾐﾉｼ","streetKana":"ﾋｶﾞﾎﾗ","prefecture":"岐阜県","city":"美濃市","street":"樋ケ洞"},{"zipCode":"5013732","prefectureKana":"ｷﾞﾌｹﾝ","cityKana":"ﾐﾉｼ","streetKana":"ﾋﾛｵｶﾁｮｳ","prefecture":"岐阜県","city":"美濃市","street":"広岡町"},{"zipCode":"5013704","prefectureKana":"ｷﾞﾌｹﾝ","cityKana":"ﾐﾉｼ","streetKana":"ﾎｷﾜｷ","prefecture":"岐阜県","city":"美濃市","street":"保木脇"},{"zipCode":"5013716","prefectureKana":"ｷﾞﾌｹﾝ","cityKana":"ﾐﾉｼ","streetKana":"ﾏｴﾉ","prefecture":"岐阜県","city":"美濃市","street":"前野"},{"zipCode":"5013751","prefectureKana":"ｷﾞﾌｹﾝ","cityKana":"ﾐﾉｼ","streetKana":"ﾏﾂｸﾗﾀﾞｲ","prefecture":"岐阜県","city":"美濃市","street":"松倉台"},{"zipCode":"5013753","prefectureKana":"ｷﾞﾌｹﾝ","cityKana":"ﾐﾉｼ","streetKana":"ﾏﾂﾓﾘ","prefecture":"岐阜県","city":"美濃市","street":"松森"},{"zipCode":"5013784","prefectureKana":"ｷﾞﾌｹﾝ","cityKana":"ﾐﾉｼ","streetKana":"ﾐﾀﾗｲ","prefecture":"岐阜県","city":"美濃市","street":"御手洗"},{"zipCode":"5013741","prefectureKana":"ｷﾞﾌｹﾝ","cityKana":"ﾐﾉｼ","streetKana":"ﾐﾅﾄﾏﾁ","prefecture":"岐阜県","city":"美濃市","street":"港町"},{"zipCode":"5013728","prefectureKana":"ｷﾞﾌｹﾝ","cityKana":"ﾐﾉｼ","streetKana":"ﾓﾄｽﾞﾐﾁｮｳ","prefecture":"岐阜県","city":"美濃市","street":"本住町"},{"zipCode":"5013773","prefectureKana":"ｷﾞﾌｹﾝ","cityKana":"ﾐﾉｼ","streetKana":"ﾓﾐｼﾞｶﾞｵｶ","prefecture":"岐阜県","city":"美濃市","street":"もみじが丘"},{"zipCode":"5013761","prefectureKana":"ｷﾞﾌｹﾝ","cityKana":"ﾐﾉｼ","streetKana":"ﾖｺｺﾞｼ","prefecture":"岐阜県","city":"美濃市","street":"横越"},{"zipCode":"5013721","prefectureKana":"ｷﾞﾌｹﾝ","cityKana":"ﾐﾉｼ","streetKana":"ﾖｼｶﾜﾁｮｳ","prefecture":"岐阜県","city":"美濃市","street":"吉川町"},{"zipCode":"5013788","prefectureKana":"ｷﾞﾌｹﾝ","cityKana":"ﾐﾉｼ","streetKana":"ﾜﾗﾋﾞ","prefecture":"岐阜県","city":"美濃市","street":"蕨生"},{"zipCode":"5016200","prefectureKana":"ｷﾞﾌｹﾝ","cityKana":"ﾊｼﾏｼ","streetKana":"ｲｶﾆｹｲｻｲｶﾞﾅｲﾊﾞｱｲ","prefecture":"岐阜県","city":"羽島市","street":"以下に掲載がない場合"},{"zipCode":"5016207","prefectureKana":"ｷﾞﾌｹﾝ","cityKana":"ﾊｼﾏｼ","streetKana":"ｱｼﾞｶﾁｮｳ","prefecture":"岐阜県","city":"羽島市","street":"足近町"},{"zipCode":"5016202","prefectureKana":"ｷﾞﾌｹﾝ","cityKana":"ﾊｼﾏｼ","streetKana":"ｱｼﾞｶﾁｮｳｲﾁﾊﾞ","prefecture":"岐阜県","city":"羽島市","street":"足近町市場"},{"zipCode":"5016201","prefectureKana":"ｷﾞﾌｹﾝ","cityKana":"ﾊｼﾏｼ","streetKana":"ｱｼﾞｶﾁｮｳｷﾀｼﾞｭｸ","prefecture":"岐阜県","city":"羽島市","street":"足近町北宿"},{"zipCode":"5016204","prefectureKana":"ｷﾞﾌｹﾝ","cityKana":"ﾊｼﾏｼ","streetKana":"ｱｼﾞｶﾁｮｳｺｱﾗｲ","prefecture":"岐阜県","city":"羽島市","street":"足近町小荒井"},{"zipCode":"5016208","prefectureKana":"ｷﾞﾌｹﾝ","cityKana":"ﾊｼﾏｼ","streetKana":"ｱｼﾞｶﾁｮｳｻｶｲ","prefecture":"岐阜県","city":"羽島市","street":"足近町坂井"},{"zipCode":"5016209","prefectureKana":"ｷﾞﾌｹﾝ","cityKana":"ﾊｼﾏｼ","streetKana":"ｱｼﾞｶﾁｮｳｽｸﾞﾐﾁ","prefecture":"岐阜県","city":"羽島市","street":"足近町直道"},{"zipCode":"5016203","prefectureKana":"ｷﾞﾌｹﾝ","cityKana":"ﾊｼﾏｼ","streetKana":"ｱｼﾞｶﾁｮｳﾐﾅﾐｼﾞｭｸ","prefecture":"岐阜県","city":"羽島市","street":"足近町南宿"},{"zipCode":"5016205","prefectureKana":"ｷﾞﾌｹﾝ","cityKana":"ﾊｼﾏｼ","streetKana":"ｱｼﾞｶﾁｮｳﾐﾅﾐﾉｶﾜ","prefecture":"岐阜県","city":"羽島市","street":"足近町南之川"},{"zipCode":"5016236","prefectureKana":"ｷﾞﾌｹﾝ","cityKana":"ﾊｼﾏｼ","streetKana":"ｴｷﾞﾗﾁｮｳ","prefecture":"岐阜県","city":"羽島市","street":"江吉良町"},{"zipCode":"5016238","prefectureKana":"ｷﾞﾌｹﾝ","cityKana":"ﾊｼﾏｼ","streetKana":"ｴｷﾞﾗﾁｮｳｴﾅｶ","prefecture":"岐阜県","city":"羽島市","street":"江吉良町江中"},{"zipCode":"5016237","prefectureKana":"ｷﾞﾌｹﾝ","cityKana":"ﾊｼﾏｼ","streetKana":"ｴｷﾞﾗﾁｮｳｴﾆｼ","prefecture":"岐阜県","city":"羽島市","street":"江吉良町江西"},{"zipCode":"5016239","prefectureKana":"ｷﾞﾌｹﾝ","cityKana":"ﾊｼﾏｼ","streetKana":"ｴｷﾞﾗﾁｮｳｴﾐﾅﾐ","prefecture":"岐阜県","city":"羽島市","street":"江吉良町江南"},{"zipCode":"5016273","prefectureKana":"ｷﾞﾌｹﾝ","cityKana":"ﾊｼﾏｼ","streetKana":"ｵｸﾞﾏﾁｮｳ","prefecture":"岐阜県","city":"羽島市","street":"小熊町"},{"zipCode":"5016272","prefectureKana":"ｷﾞﾌｹﾝ","cityKana":"ﾊｼﾏｼ","streetKana":"ｵｸﾞﾏﾁｮｳｱｲﾀﾞ","prefecture":"岐阜県","city":"羽島市","street":"小熊町相田"},{"zipCode":"5016262","prefectureKana":"ｷﾞﾌｹﾝ","cityKana":"ﾊｼﾏｼ","streetKana":"ｵｸﾞﾏﾁｮｳｳﾁｱﾜﾉ","prefecture":"岐阜県","city":"羽島市","street":"小熊町内粟野"},{"zipCode":"5016263","prefectureKana":"ｷﾞﾌｹﾝ","cityKana":"ﾊｼﾏｼ","streetKana":"ｵｸﾞﾏﾁｮｳｴｶﾞｼﾗ","prefecture":"岐阜県","city":"羽島市","street":"小熊町江頭"},{"zipCode":"5016266","prefectureKana":"ｷﾞﾌｹﾝ","cityKana":"ﾊｼﾏｼ","streetKana":"ｵｸﾞﾏﾁｮｳｶﾜｸﾁ","prefecture":"岐阜県","city":"羽島市","street":"小熊町川口"},{"zipCode":"5016265","prefectureKana":"ｷﾞﾌｹﾝ","cityKana":"ﾊｼﾏｼ","streetKana":"ｵｸﾞﾏﾁｮｳｶﾜｸﾁﾏｴ","prefecture":"岐阜県","city":"羽島市","street":"小熊町川口前"},{"zipCode":"5016264","prefectureKana":"ｷﾞﾌｹﾝ","cityKana":"ﾊｼﾏｼ","streetKana":"ｵｸﾞﾏﾁｮｳｼﾏ","prefecture":"岐阜県","city":"羽島市","street":"小熊町島"},{"zipCode":"5016253","prefectureKana":"ｷﾞﾌｹﾝ","cityKana":"ﾊｼﾏｼ","streetKana":"ｵｸﾞﾏﾁｮｳｼﾏｼﾝﾄﾞｳ","prefecture":"岐阜県","city":"羽島市","street":"小熊町島新道"},{"zipCode":"5016252","prefectureKana":"ｷﾞﾌｹﾝ","cityKana":"ﾊｼﾏｼ","streetKana":"ｵｸﾞﾏﾁｮｳｼﾏﾏｴ","prefecture":"岐阜県","city":"羽島市","street":"小熊町島前"},{"zipCode":"5016261","prefectureKana":"ｷﾞﾌｹﾝ","cityKana":"ﾊｼﾏｼ","streetKana":"ｵｸﾞﾏﾁｮｳｿﾄｱﾜﾉ","prefecture":"岐阜県","city":"羽島市","street":"小熊町外粟野"},{"zipCode":"5016267","prefectureKana":"ｷﾞﾌｹﾝ","cityKana":"ﾊｼﾏｼ","streetKana":"ｵｸﾞﾏﾁｮｳﾃﾝﾉｳ","prefecture":"岐阜県","city":"羽島市","street":"小熊町天王"},{"zipCode":"5016271","prefectureKana":"ｷﾞﾌｹﾝ","cityKana":"ﾊｼﾏｼ","streetKana":"ｵｸﾞﾏﾁｮｳﾋｶﾞｼｵｸﾞﾏ","prefecture":"岐阜県","city":"羽島市","street":"小熊町東小熊"},{"zipCode":"5016274","prefectureKana":"ｷﾞﾌｹﾝ","cityKana":"ﾊｼﾏｼ","streetKana":"ｵｸﾞﾏﾁｮｳﾆｼｵｸﾞﾏ","prefecture":"岐阜県","city":"羽島市","street":"小熊町西小熊"},{"zipCode":"5016312","prefectureKana":"ｷﾞﾌｹﾝ","cityKana":"ﾊｼﾏｼ","streetKana":"ｶﾐﾅｶﾁｮｳｲｼｷ","prefecture":"岐阜県","city":"羽島市","street":"上中町一色"},{"zipCode":"5016317","prefectureKana":"ｷﾞﾌｹﾝ","cityKana":"ﾊｼﾏｼ","streetKana":"ｶﾐﾅｶﾁｮｳｳﾏｷﾀ","prefecture":"岐阜県","city":"羽島市","street":"上中町午北"},{"zipCode":"5016318","prefectureKana":"ｷﾞﾌｹﾝ","cityKana":"ﾊｼﾏｼ","streetKana":"ｶﾐﾅｶﾁｮｳｵｷ","prefecture":"岐阜県","city":"羽島市","street":"上中町沖"},{"zipCode":"5016319","prefectureKana":"ｷﾞﾌｹﾝ","cityKana":"ﾊｼﾏｼ","streetKana":"ｶﾐﾅｶﾁｮｳﾅｶ","prefecture":"岐阜県","city":"羽島市","street":"上中町中"},{"zipCode":"5016311","prefectureKana":"ｷﾞﾌｹﾝ","cityKana":"ﾊｼﾏｼ","streetKana":"ｶﾐﾅｶﾁｮｳﾅｶﾞﾏ","prefecture":"岐阜県","city":"羽島市","street":"上中町長間"},{"zipCode":"5016323","prefectureKana":"ｷﾞﾌｹﾝ","cityKana":"ﾊｼﾏｼ","streetKana":"ｸﾜﾊﾞﾗﾁｮｳｳﾏﾐﾅﾐ","prefecture":"岐阜県","city":"羽島市","street":"桑原町午南"},{"zipCode":"5016325","prefectureKana":"ｷﾞﾌｹﾝ","cityKana":"ﾊｼﾏｼ","streetKana":"ｸﾜﾊﾞﾗﾁｮｳｵｵｽ","prefecture":"岐阜県","city":"羽島市","street":"桑原町大須"},{"zipCode":"5016324","prefectureKana":"ｷﾞﾌｹﾝ","cityKana":"ﾊｼﾏｼ","streetKana":"ｸﾜﾊﾞﾗﾁｮｳｺﾔﾌﾞ","prefecture":"岐阜県","city":"羽島市","street":"桑原町小薮"},{"zipCode":"5016327","prefectureKana":"ｷﾞﾌｹﾝ","cityKana":"ﾊｼﾏｼ","streetKana":"ｸﾜﾊﾞﾗﾁｮｳﾆｼｺﾔﾌﾞ","prefecture":"岐阜県","city":"羽島市","street":"桑原町西小薮"},{"zipCode":"5016326","prefectureKana":"ｷﾞﾌｹﾝ","cityKana":"ﾊｼﾏｼ","streetKana":"ｸﾜﾊﾞﾗﾁｮｳﾋｶﾞｼｶﾞﾀ","prefecture":"岐阜県","city":"羽島市","street":"桑原町東方"},{"zipCode":"5016328","prefectureKana":"ｷﾞﾌｹﾝ","cityKana":"ﾊｼﾏｼ","streetKana":"ｸﾜﾊﾞﾗﾁｮｳﾍｲﾀ","prefecture":"岐阜県","city":"羽島市","street":"桑原町平太"},{"zipCode":"5016322","prefectureKana":"ｷﾞﾌｹﾝ","cityKana":"ﾊｼﾏｼ","streetKana":"ｸﾜﾊﾞﾗﾁｮｳﾏｴﾉ","prefecture":"岐阜県","city":"羽島市","street":"桑原町前野"},{"zipCode":"5016321","prefectureKana":"ｷﾞﾌｹﾝ","cityKana":"ﾊｼﾏｼ","streetKana":"ｸﾜﾊﾞﾗﾁｮｳﾔｶﾞﾐ","prefecture":"岐阜県","city":"羽島市","street":"桑原町八神"},{"zipCode":"5016315","prefectureKana":"ｷﾞﾌｹﾝ","cityKana":"ﾊｼﾏｼ","streetKana":"ｼﾓﾅｶﾁｮｳｲｼﾀﾞ","prefecture":"岐阜県","city":"羽島市","street":"下中町石田"},{"zipCode":"5016316","prefectureKana":"ｷﾞﾌｹﾝ","cityKana":"ﾊｼﾏｼ","streetKana":"ｼﾓﾅｶﾁｮｳｲﾁﾉｴﾀﾞ","prefecture":"岐阜県","city":"羽島市","street":"下中町市之枝"},{"zipCode":"5016313","prefectureKana":"ｷﾞﾌｹﾝ","cityKana":"ﾊｼﾏｼ","streetKana":"ｼﾓﾅｶﾁｮｳｶｶﾞﾉｲ","prefecture":"岐阜県","city":"羽島市","street":"下中町加賀野井"},{"zipCode":"5016314","prefectureKana":"ｷﾞﾌｹﾝ","cityKana":"ﾊｼﾏｼ","streetKana":"ｼﾓﾅｶﾁｮｳｼﾛﾔｼｷ","prefecture":"岐阜県","city":"羽島市","street":"下中町城屋敷"},{"zipCode":"5016206","prefectureKana":"ｷﾞﾌｹﾝ","cityKana":"ﾊｼﾏｼ","streetKana":"ｼﾝｾｲﾁｮｳ","prefecture":"岐阜県","city":"羽島市","street":"新生町"},{"zipCode":"5016241","prefectureKana":"ｷﾞﾌｹﾝ","cityKana":"ﾊｼﾏｼ","streetKana":"ﾀｹﾊﾅﾁｮｳ","prefecture":"岐阜県","city":"羽島市","street":"竹鼻町"},{"zipCode":"5016233","prefectureKana":"ｷﾞﾌｹﾝ","cityKana":"ﾊｼﾏｼ","streetKana":"ﾀｹﾊﾅﾁｮｳｲｲｶﾞﾗ","prefecture":"岐阜県","city":"羽島市","street":"竹鼻町飯柄"},{"zipCode":"5016231","prefectureKana":"ｷﾞﾌｹﾝ","cityKana":"ﾊｼﾏｼ","streetKana":"ﾀｹﾊﾅﾁｮｳｶｸﾞﾗ","prefecture":"岐阜県","city":"羽島市","street":"竹鼻町神楽"},{"zipCode":"5016232","prefectureKana":"ｷﾞﾌｹﾝ","cityKana":"ﾊｼﾏｼ","streetKana":"ﾀｹﾊﾅﾁｮｳｷﾂﾈｱﾅ","prefecture":"岐阜県","city":"羽島市","street":"竹鼻町狐穴"},{"zipCode":"5016234","prefectureKana":"ｷﾞﾌｹﾝ","cityKana":"ﾊｼﾏｼ","streetKana":"ﾀｹﾊﾅﾁｮｳｺﾏﾂﾞｶ","prefecture":"岐阜県","city":"羽島市","street":"竹鼻町駒塚"},{"zipCode":"5016242","prefectureKana":"ｷﾞﾌｹﾝ","cityKana":"ﾊｼﾏｼ","streetKana":"ﾀｹﾊﾅﾁｮｳﾆｼｷﾏﾁ","prefecture":"岐阜県","city":"羽島市","street":"竹鼻町錦町"},{"zipCode":"5016243","prefectureKana":"ｷﾞﾌｹﾝ","cityKana":"ﾊｼﾏｼ","streetKana":"ﾀｹﾊﾅﾁｮｳﾆｼﾉﾏﾁ","prefecture":"岐阜県","city":"羽島市","street":"竹鼻町西野町"},{"zipCode":"5016235","prefectureKana":"ｷﾞﾌｹﾝ","cityKana":"ﾊｼﾏｼ","streetKana":"ﾀｹﾊﾅﾁｮｳﾊﾁｼﾞﾘ","prefecture":"岐阜県","city":"羽島市","street":"竹鼻町蜂尻"},{"zipCode":"5016244","prefectureKana":"ｷﾞﾌｹﾝ","cityKana":"ﾊｼﾏｼ","streetKana":"ﾀｹﾊﾅﾁｮｳﾏﾙﾉｳﾁ","prefecture":"岐阜県","city":"羽島市","street":"竹鼻町丸の内"},{"zipCode":"5016255","prefectureKana":"ｷﾞﾌｹﾝ","cityKana":"ﾊｼﾏｼ","streetKana":"ﾌｸｼﾞｭﾁｮｳｱｻﾋﾗ","prefecture":"岐阜県","city":"羽島市","street":"福寿町浅平"},{"zipCode":"5016256","prefectureKana":"ｷﾞﾌｹﾝ","cityKana":"ﾊｼﾏｼ","streetKana":"ﾌｸｼﾞｭﾁｮｳﾁﾖﾀﾞ","prefecture":"岐阜県","city":"羽島市","street":"福寿町千代田"},{"zipCode":"5016257","prefectureKana":"ｷﾞﾌｹﾝ","cityKana":"ﾊｼﾏｼ","streetKana":"ﾌｸｼﾞｭﾁｮｳﾋﾗｶﾀ","prefecture":"岐阜県","city":"羽島市","street":"福寿町平方"},{"zipCode":"5016254","prefectureKana":"ｷﾞﾌｹﾝ","cityKana":"ﾊｼﾏｼ","streetKana":"ﾌｸｼﾞｭﾁｮｳﾎﾝｺﾞｳ","prefecture":"岐阜県","city":"羽島市","street":"福寿町本郷"},{"zipCode":"5016251","prefectureKana":"ｷﾞﾌｹﾝ","cityKana":"ﾊｼﾏｼ","streetKana":"ﾌｸｼﾞｭﾁｮｳﾏｼﾞﾏ","prefecture":"岐阜県","city":"羽島市","street":"福寿町間島"},{"zipCode":"5016302","prefectureKana":"ｷﾞﾌｹﾝ","cityKana":"ﾊｼﾏｼ","streetKana":"ﾌﾅﾊﾞｼﾁｮｳ","prefecture":"岐阜県","city":"羽島市","street":"舟橋町"},{"zipCode":"5016304","prefectureKana":"ｷﾞﾌｹﾝ","cityKana":"ﾊｼﾏｼ","streetKana":"ﾌﾅﾊﾞｼﾁｮｳﾃﾞｽｶ","prefecture":"岐阜県","city":"羽島市","street":"舟橋町出須賀"},{"zipCode":"5016303","prefectureKana":"ｷﾞﾌｹﾝ","cityKana":"ﾊｼﾏｼ","streetKana":"ﾌﾅﾊﾞｼﾁｮｳﾎﾝﾏﾁ","prefecture":"岐阜県","city":"羽島市","street":"舟橋町本町"},{"zipCode":"5016301","prefectureKana":"ｷﾞﾌｹﾝ","cityKana":"ﾊｼﾏｼ","streetKana":"ﾌﾅﾊﾞｼﾁｮｳﾐﾔｷﾀ","prefecture":"岐阜県","city":"羽島市","street":"舟橋町宮北"},{"zipCode":"5016338","prefectureKana":"ｷﾞﾌｹﾝ","cityKana":"ﾊｼﾏｼ","streetKana":"ﾎｯﾂﾁｮｳｽｶﾅｶ","prefecture":"岐阜県","city":"羽島市","street":"堀津町須賀中"},{"zipCode":"5016336","prefectureKana":"ｷﾞﾌｹﾝ","cityKana":"ﾊｼﾏｼ","streetKana":"ﾎｯﾂﾁｮｳｽｶﾆｼ","prefecture":"岐阜県","city":"羽島市","street":"堀津町須賀西"},{"zipCode":"5016335","prefectureKana":"ｷﾞﾌｹﾝ","cityKana":"ﾊｼﾏｼ","streetKana":"ﾎｯﾂﾁｮｳｽｶﾐﾅﾐ","prefecture":"岐阜県","city":"羽島市","street":"堀津町須賀南"},{"zipCode":"5016332","prefectureKana":"ｷﾞﾌｹﾝ","cityKana":"ﾊｼﾏｼ","streetKana":"ﾎｯﾂﾁｮｳｽｶｷﾀ","prefecture":"岐阜県","city":"羽島市","street":"堀津町須賀北"},{"zipCode":"5016337","prefectureKana":"ｷﾞﾌｹﾝ","cityKana":"ﾊｼﾏｼ","streetKana":"ﾎｯﾂﾁｮｳﾅｶﾔｼｷ","prefecture":"岐阜県","city":"羽島市","street":"堀津町中屋敷"},{"zipCode":"5016333","prefectureKana":"ｷﾞﾌｹﾝ","cityKana":"ﾊｼﾏｼ","streetKana":"ﾎｯﾂﾁｮｳﾋｶﾞｼﾔﾏ","prefecture":"岐阜県","city":"羽島市","street":"堀津町東山"},{"zipCode":"5016334","prefectureKana":"ｷﾞﾌｹﾝ","cityKana":"ﾊｼﾏｼ","streetKana":"ﾎｯﾂﾁｮｳﾏｴﾀﾞﾆ","prefecture":"岐阜県","city":"羽島市","street":"堀津町前谷"},{"zipCode":"5016331","prefectureKana":"ｷﾞﾌｹﾝ","cityKana":"ﾊｼﾏｼ","streetKana":"ﾎｯﾂﾁｮｳﾖｺﾃ","prefecture":"岐阜県","city":"羽島市","street":"堀津町横手"},{"zipCode":"5016330","prefectureKana":"ｷﾞﾌｹﾝ","cityKana":"ﾊｼﾏｼ","streetKana":"ﾎｯﾂﾁｮｳ(ｿﾉﾀ)","prefecture":"岐阜県","city":"羽島市","street":"堀津町（その他）"},{"zipCode":"5016225","prefectureKana":"ｷﾞﾌｹﾝ","cityKana":"ﾊｼﾏｼ","streetKana":"ﾏｻｷﾁｮｳｱﾗｲ","prefecture":"岐阜県","city":"羽島市","street":"正木町新井"},{"zipCode":"5016224","prefectureKana":"ｷﾞﾌｹﾝ","cityKana":"ﾊｼﾏｼ","streetKana":"ﾏｻｷﾁｮｳｵｵｳﾗ","prefecture":"岐阜県","city":"羽島市","street":"正木町大浦"},{"zipCode":"5016223","prefectureKana":"ｷﾞﾌｹﾝ","cityKana":"ﾊｼﾏｼ","streetKana":"ﾏｻｷﾁｮｳｵｵｳﾗｼﾝﾃﾞﾝ","prefecture":"岐阜県","city":"羽島市","street":"正木町大浦新田"},{"zipCode":"5016212","prefectureKana":"ｷﾞﾌｹﾝ","cityKana":"ﾊｼﾏｼ","streetKana":"ﾏｻｷﾁｮｳｶﾐｵｵｳﾗ","prefecture":"岐阜県","city":"羽島市","street":"正木町上大浦"},{"zipCode":"5016229","prefectureKana":"ｷﾞﾌｹﾝ","cityKana":"ﾊｼﾏｼ","streetKana":"ﾏｻｷﾁｮｳｻｶﾏﾙ","prefecture":"岐阜県","city":"羽島市","street":"正木町坂丸"},{"zipCode":"5016216","prefectureKana":"ｷﾞﾌｹﾝ","cityKana":"ﾊｼﾏｼ","streetKana":"ﾏｻｷﾁｮｳｽｶ","prefecture":"岐阜県","city":"羽島市","street":"正木町須賀"},{"zipCode":"5016215","prefectureKana":"ｷﾞﾌｹﾝ","cityKana":"ﾊｼﾏｼ","streetKana":"ﾏｻｷﾁｮｳｽｶｱｶﾏﾂ","prefecture":"岐阜県","city":"羽島市","street":"正木町須賀赤松"},{"zipCode":"5016214","prefectureKana":"ｷﾞﾌｹﾝ","cityKana":"ﾊｼﾏｼ","streetKana":"ﾏｻｷﾁｮｳｽｶｲｹﾊﾀ","prefecture":"岐阜県","city":"羽島市","street":"正木町須賀池端"},{"zipCode":"5016217","prefectureKana":"ｷﾞﾌｹﾝ","cityKana":"ﾊｼﾏｼ","streetKana":"ﾏｻｷﾁｮｳｽｶｺﾏﾂ","prefecture":"岐阜県","city":"羽島市","street":"正木町須賀小松"},{"zipCode":"5016218","prefectureKana":"ｷﾞﾌｹﾝ","cityKana":"ﾊｼﾏｼ","streetKana":"ﾏｻｷﾁｮｳｽｶﾎﾝﾑﾗ","prefecture":"岐阜県","city":"羽島市","street":"正木町須賀本村"},{"zipCode":"5016228","prefectureKana":"ｷﾞﾌｹﾝ","cityKana":"ﾊｼﾏｼ","streetKana":"ﾏｻｷﾁｮｳﾌﾜｲｼｷ","prefecture":"岐阜県","city":"羽島市","street":"正木町不破一色"},{"zipCode":"5016227","prefectureKana":"ｷﾞﾌｹﾝ","cityKana":"ﾊｼﾏｼ","streetKana":"ﾏｻｷﾁｮｳﾏｶﾞﾘ","prefecture":"岐阜県","city":"羽島市","street":"正木町曲利"},{"zipCode":"5016213","prefectureKana":"ｷﾞﾌｹﾝ","cityKana":"ﾊｼﾏｼ","streetKana":"ﾏｻｷﾁｮｳﾐﾂﾎｳｼﾞ","prefecture":"岐阜県","city":"羽島市","street":"正木町光法寺"},{"zipCode":"5016226","prefectureKana":"ｷﾞﾌｹﾝ","cityKana":"ﾊｼﾏｼ","streetKana":"ﾏｻｷﾁｮｳﾐﾂﾔﾅｷﾞ","prefecture":"岐阜県","city":"羽島市","street":"正木町三ツ柳"},{"zipCode":"5016211","prefectureKana":"ｷﾞﾌｹﾝ","cityKana":"ﾊｼﾏｼ","streetKana":"ﾏｻｷﾁｮｳﾐﾅﾐｵﾖﾋﾞ","prefecture":"岐阜県","city":"羽島市","street":"正木町南及"},{"zipCode":"5016221","prefectureKana":"ｷﾞﾌｹﾝ","cityKana":"ﾊｼﾏｼ","streetKana":"ﾏｻｷﾁｮｳﾓﾘ","prefecture":"岐阜県","city":"羽島市","street":"正木町森"},{"zipCode":"5016222","prefectureKana":"ｷﾞﾌｹﾝ","cityKana":"ﾊｼﾏｼ","streetKana":"ﾏｻｷﾁｮｳﾓﾘｼﾝﾃﾞﾝ","prefecture":"岐阜県","city":"羽島市","street":"正木町森新田"},{"zipCode":"5016021","prefectureKana":"ｷﾞﾌｹﾝ","cityKana":"ｶｶﾐｶﾞﾊﾗｼ","streetKana":"ｶﾜｼﾏｶｻﾀﾞﾏﾁ","prefecture":"岐阜県","city":"各務原市","street":"川島笠田町"},{"zipCode":"5016029","prefectureKana":"ｷﾞﾌｹﾝ","cityKana":"ｶｶﾐｶﾞﾊﾗｼ","streetKana":"ｶﾜｼﾏｷﾀﾔﾏﾏﾁ","prefecture":"岐阜県","city":"各務原市","street":"川島北山町"},{"zipCode":"5016023","prefectureKana":"ｷﾞﾌｹﾝ","cityKana":"ｶｶﾐｶﾞﾊﾗｼ","streetKana":"ｶﾜｼﾏｺｱﾐﾏﾁ","prefecture":"岐阜県","city":"各務原市","street":"川島小網町"},{"zipCode":"5016025","prefectureKana":"ｷﾞﾌｹﾝ","cityKana":"ｶｶﾐｶﾞﾊﾗｼ","streetKana":"ｶﾜｼﾏｺｳﾀﾞﾏﾁ","prefecture":"岐阜県","city":"各務原市","street":"川島河田町"},{"zipCode":"5016024","prefectureKana":"ｷﾞﾌｹﾝ","cityKana":"ｶｶﾐｶﾞﾊﾗｼ","streetKana":"ｶﾜｼﾏﾀｹﾊﾔﾏﾁ","prefecture":"岐阜県","city":"各務原市","street":"川島竹早町"},{"zipCode":"5016022","prefectureKana":"ｷﾞﾌｹﾝ","cityKana":"ｶｶﾐｶﾞﾊﾗｼ","streetKana":"ｶﾜｼﾏﾏﾂｸﾗﾏﾁ","prefecture":"岐阜県","city":"各務原市","street":"川島松倉町"},{"zipCode":"5016026","prefectureKana":"ｷﾞﾌｹﾝ","cityKana":"ｶｶﾐｶﾞﾊﾗｼ","streetKana":"ｶﾜｼﾏﾏﾂﾊﾞﾗﾏﾁ","prefecture":"岐阜県","city":"各務原市","street":"川島松原町"},{"zipCode":"5016027","prefectureKana":"ｷﾞﾌｹﾝ","cityKana":"ｶｶﾐｶﾞﾊﾗｼ","streetKana":"ｶﾜｼﾏﾐﾄﾞﾘﾏﾁ","prefecture":"岐阜県","city":"各務原市","street":"川島緑町"},{"zipCode":"5016028","prefectureKana":"ｷﾞﾌｹﾝ","cityKana":"ｶｶﾐｶﾞﾊﾗｼ","streetKana":"ｶﾜｼﾏﾜﾀﾘﾏﾁ","prefecture":"岐阜県","city":"各務原市","street":"川島渡町"},{"zipCode":"5012100","prefectureKana":"ｷﾞﾌｹﾝ","cityKana":"ﾔﾏｶﾞﾀｼ","streetKana":"ｲｶﾆｹｲｻｲｶﾞﾅｲﾊﾞｱｲ","prefecture":"岐阜県","city":"山県市","street":"以下に掲載がない場合"},{"zipCode":"5012252","prefectureKana":"ｷﾞﾌｹﾝ","cityKana":"ﾔﾏｶﾞﾀｼ","streetKana":"ｱｲﾄﾞ","prefecture":"岐阜県","city":"山県市","street":"相戸"},{"zipCode":"5012256","prefectureKana":"ｷﾞﾌｹﾝ","cityKana":"ﾔﾏｶﾞﾀｼ","streetKana":"ｱｵﾅﾐ","prefecture":"岐阜県","city":"山県市","street":"青波"},{"zipCode":"5012111","prefectureKana":"ｷﾞﾌｹﾝ","cityKana":"ﾔﾏｶﾞﾀｼ","streetKana":"ｱｶｵ","prefecture":"岐阜県","city":"山県市","street":"赤尾"},{"zipCode":"5012102","prefectureKana":"ｷﾞﾌｹﾝ","cityKana":"ﾔﾏｶﾞﾀｼ","streetKana":"ｲｻﾐ","prefecture":"岐阜県","city":"山県市","street":"伊佐美"},{"zipCode":"5012259","prefectureKana":"ｷﾞﾌｹﾝ","cityKana":"ﾔﾏｶﾞﾀｼ","streetKana":"ｲﾜｻ","prefecture":"岐阜県","city":"山県市","street":"岩佐"},{"zipCode":"5012115","prefectureKana":"ｷﾞﾌｹﾝ","cityKana":"ﾔﾏｶﾞﾀｼ","streetKana":"ｳﾒﾊﾗ","prefecture":"岐阜県","city":"山県市","street":"梅原"},{"zipCode":"5012302","prefectureKana":"ｷﾞﾌｹﾝ","cityKana":"ﾔﾏｶﾞﾀｼ","streetKana":"ｴﾝﾊﾞﾗ","prefecture":"岐阜県","city":"山県市","street":"円原"},{"zipCode":"5012101","prefectureKana":"ｷﾞﾌｹﾝ","cityKana":"ﾔﾏｶﾞﾀｼ","streetKana":"ｵｵｶﾞ","prefecture":"岐阜県","city":"山県市","street":"大桑"},{"zipCode":"5012123","prefectureKana":"ｷﾞﾌｹﾝ","cityKana":"ﾔﾏｶﾞﾀｼ","streetKana":"ｵｵﾓﾘ","prefecture":"岐阜県","city":"山県市","street":"大森"},{"zipCode":"5012251","prefectureKana":"ｷﾞﾌｹﾝ","cityKana":"ﾔﾏｶﾞﾀｼ","streetKana":"ｶｷﾉ","prefecture":"岐阜県","city":"山県市","street":"柿野"},{"zipCode":"5012132","prefectureKana":"ｷﾞﾌｹﾝ","cityKana":"ﾔﾏｶﾞﾀｼ","streetKana":"ｶｹ","prefecture":"岐阜県","city":"山県市","street":"掛"},{"zipCode":"5012303","prefectureKana":"ｷﾞﾌｹﾝ","cityKana":"ﾔﾏｶﾞﾀｼ","streetKana":"ｶﾀﾊﾗ","prefecture":"岐阜県","city":"山県市","street":"片原"},{"zipCode":"5012301","prefectureKana":"ｷﾞﾌｹﾝ","cityKana":"ﾔﾏｶﾞﾀｼ","streetKana":"ｶﾝｻﾞｷ","prefecture":"岐阜県","city":"山県市","street":"神崎"},{"zipCode":"5012331","prefectureKana":"ｷﾞﾌｹﾝ","cityKana":"ﾔﾏｶﾞﾀｼ","streetKana":"ｸｽﾞﾊﾗ","prefecture":"岐阜県","city":"山県市","street":"葛原"},{"zipCode":"5012124","prefectureKana":"ｷﾞﾌｹﾝ","cityKana":"ﾔﾏｶﾞﾀｼ","streetKana":"ｺｸﾞﾗ","prefecture":"岐阜県","city":"山県市","street":"小倉"},{"zipCode":"5012114","prefectureKana":"ｷﾞﾌｹﾝ","cityKana":"ﾔﾏｶﾞﾀｼ","streetKana":"ｻｶﾞ","prefecture":"岐阜県","city":"山県市","street":"佐賀"},{"zipCode":"5012314","prefectureKana":"ｷﾞﾌｹﾝ","cityKana":"ﾔﾏｶﾞﾀｼ","streetKana":"ｻｻｶﾞ","prefecture":"岐阜県","city":"山県市","street":"笹賀"},{"zipCode":"5012312","prefectureKana":"ｷﾞﾌｹﾝ","cityKana":"ﾔﾏｶﾞﾀｼ","streetKana":"ｻﾉ","prefecture":"岐阜県","city":"山県市","street":"佐野"},{"zipCode":"5012103","prefectureKana":"ｷﾞﾌｹﾝ","cityKana":"ﾔﾏｶﾞﾀｼ","streetKana":"ｼｸﾞﾗ","prefecture":"岐阜県","city":"山県市","street":"椎倉"},{"zipCode":"5012133","prefectureKana":"ｷﾞﾌｹﾝ","cityKana":"ﾔﾏｶﾞﾀｼ","streetKana":"ｼﾞｮｳｶﾞﾝ","prefecture":"岐阜県","city":"山県市","street":"上願"},{"zipCode":"5012121","prefectureKana":"ｷﾞﾌｹﾝ","cityKana":"ﾔﾏｶﾞﾀｼ","streetKana":"ﾀﾞｲﾓﾝ","prefecture":"岐阜県","city":"山県市","street":"大門"},{"zipCode":"5012113","prefectureKana":"ｷﾞﾌｹﾝ","cityKana":"ﾔﾏｶﾞﾀｼ","streetKana":"ﾀｶｷ","prefecture":"岐阜県","city":"山県市","street":"高木"},{"zipCode":"5012105","prefectureKana":"ｷﾞﾌｹﾝ","cityKana":"ﾔﾏｶﾞﾀｼ","streetKana":"ﾀｶﾄﾐ","prefecture":"岐阜県","city":"山県市","street":"高富"},{"zipCode":"5012315","prefectureKana":"ｷﾞﾌｹﾝ","cityKana":"ﾔﾏｶﾞﾀｼ","streetKana":"ﾀｸﾞﾘ","prefecture":"岐阜県","city":"山県市","street":"田栗"},{"zipCode":"5012321","prefectureKana":"ｷﾞﾌｹﾝ","cityKana":"ﾔﾏｶﾞﾀｼ","streetKana":"ﾀﾆｱｲ","prefecture":"岐阜県","city":"山県市","street":"谷合"},{"zipCode":"5012311","prefectureKana":"ｷﾞﾌｹﾝ","cityKana":"ﾔﾏｶﾞﾀｼ","streetKana":"ﾂﾊﾞｷ","prefecture":"岐阜県","city":"山県市","street":"椿"},{"zipCode":"5012254","prefectureKana":"ｷﾞﾌｹﾝ","cityKana":"ﾔﾏｶﾞﾀｼ","streetKana":"ﾃﾞﾄ","prefecture":"岐阜県","city":"山県市","street":"出戸"},{"zipCode":"5012313","prefectureKana":"ｷﾞﾌｹﾝ","cityKana":"ﾔﾏｶﾞﾀｼ","streetKana":"ﾄｸﾅｶﾞ","prefecture":"岐阜県","city":"山県市","street":"徳永"},{"zipCode":"5012257","prefectureKana":"ｷﾞﾌｹﾝ","cityKana":"ﾔﾏｶﾞﾀｼ","streetKana":"ﾄﾐﾅｶﾞ","prefecture":"岐阜県","city":"山県市","street":"富永"},{"zipCode":"5012135","prefectureKana":"ｷﾞﾌｹﾝ","cityKana":"ﾔﾏｶﾞﾀｼ","streetKana":"ﾅｶﾞﾀｷ","prefecture":"岐阜県","city":"山県市","street":"長滝"},{"zipCode":"5012258","prefectureKana":"ｷﾞﾌｹﾝ","cityKana":"ﾔﾏｶﾞﾀｼ","streetKana":"ﾅｶﾎﾗ","prefecture":"岐阜県","city":"山県市","street":"中洞"},{"zipCode":"5012112","prefectureKana":"ｷﾞﾌｹﾝ","cityKana":"ﾔﾏｶﾞﾀｼ","streetKana":"ﾆｼﾌｶｾ","prefecture":"岐阜県","city":"山県市","street":"西深瀬"},{"zipCode":"5012104","prefectureKana":"ｷﾞﾌｹﾝ","cityKana":"ﾔﾏｶﾞﾀｼ","streetKana":"ﾋｶﾞｼﾌｶｾ","prefecture":"岐阜県","city":"山県市","street":"東深瀬"},{"zipCode":"5012253","prefectureKana":"ｷﾞﾌｹﾝ","cityKana":"ﾔﾏｶﾞﾀｼ","streetKana":"ﾋﾅｶﾞ","prefecture":"岐阜県","city":"山県市","street":"日永"},{"zipCode":"5012131","prefectureKana":"ｷﾞﾌｹﾝ","cityKana":"ﾔﾏｶﾞﾀｼ","streetKana":"ﾋﾗｲ","prefecture":"岐阜県","city":"山県市","street":"平井"},{"zipCode":"5012122","prefectureKana":"ｷﾞﾌｹﾝ","cityKana":"ﾔﾏｶﾞﾀｼ","streetKana":"ﾌｼﾞｸﾗ","prefecture":"岐阜県","city":"山県市","street":"藤倉"},{"zipCode":"5012255","prefectureKana":"ｷﾞﾌｹﾝ","cityKana":"ﾔﾏｶﾞﾀｼ","streetKana":"ﾌﾅｺｼ","prefecture":"岐阜県","city":"山県市","street":"船越"},{"zipCode":"5012125","prefectureKana":"ｷﾞﾌｹﾝ","cityKana":"ﾔﾏｶﾞﾀｼ","streetKana":"ﾎﾗﾀﾞ","prefecture":"岐阜県","city":"山県市","street":"洞田"},{"zipCode":"5012134","prefectureKana":"ｷﾞﾌｹﾝ","cityKana":"ﾔﾏｶﾞﾀｼ","streetKana":"ﾏﾂｵ","prefecture":"岐阜県","city":"山県市","street":"松尾"},{"zipCode":"5010200","prefectureKana":"ｷﾞﾌｹﾝ","cityKana":"ﾐｽﾞﾎｼ","streetKana":"ｲｶﾆｹｲｻｲｶﾞﾅｲﾊﾞｱｲ","prefecture":"岐阜県","city":"瑞穂市","street":"以下に掲載がない場合"},{"zipCode":"5010302","prefectureKana":"ｷﾞﾌｹﾝ","cityKana":"ﾐｽﾞﾎｼ","streetKana":"ｲｸﾗ","prefecture":"岐阜県","city":"瑞穂市","street":"居倉"},{"zipCode":"5010224","prefectureKana":"ｷﾞﾌｹﾝ","cityKana":"ﾐｽﾞﾎｼ","streetKana":"ｲﾅｻﾄ","prefecture":"岐阜県","city":"瑞穂市","street":"稲里"},{"zipCode":"5010234","prefectureKana":"ｷﾞﾌｹﾝ","cityKana":"ﾐｽﾞﾎｼ","streetKana":"ｳｼｷ","prefecture":"岐阜県","city":"瑞穂市","street":"牛牧"},{"zipCode":"5010306","prefectureKana":"ｷﾞﾌｹﾝ","cityKana":"ﾐｽﾞﾎｼ","streetKana":"ｵｵﾂｷ","prefecture":"岐阜県","city":"瑞穂市","street":"大月"},{"zipCode":"5010307","prefectureKana":"ｷﾞﾌｹﾝ","cityKana":"ﾐｽﾞﾎｼ","streetKana":"ｶﾗｸﾘ","prefecture":"岐阜県","city":"瑞穂市","street":"唐栗"},{"zipCode":"5010237","prefectureKana":"ｷﾞﾌｹﾝ","cityKana":"ﾐｽﾞﾎｼ","streetKana":"ｻｲｶﾜ","prefecture":"岐阜県","city":"瑞穂市","street":"犀川"},{"zipCode":"5010311","prefectureKana":"ｷﾞﾌｹﾝ","cityKana":"ﾐｽﾞﾎｼ","streetKana":"ｼｹﾞｻﾄ","prefecture":"岐阜県","city":"瑞穂市","street":"重里"},{"zipCode":"5010313","prefectureKana":"ｷﾞﾌｹﾝ","cityKana":"ﾐｽﾞﾎｼ","streetKana":"ｼﾞｭｳｼﾁｼﾞｮｳ","prefecture":"岐阜県","city":"瑞穂市","street":"十七条"},{"zipCode":"5010314","prefectureKana":"ｷﾞﾌｹﾝ","cityKana":"ﾐｽﾞﾎｼ","streetKana":"ｼﾞｭｳﾊﾁｼﾞｮｳ","prefecture":"岐阜県","city":"瑞穂市","street":"十八条"},{"zipCode":"5010235","prefectureKana":"ｷﾞﾌｹﾝ","cityKana":"ﾐｽﾞﾎｼ","streetKana":"ｼﾞｭｳｸｼﾞｮｳ","prefecture":"岐阜県","city":"瑞穂市","street":"十九条"},{"zipCode":"5010225","prefectureKana":"ｷﾞﾌｹﾝ","cityKana":"ﾐｽﾞﾎｼ","streetKana":"ｿﾌﾞｴ","prefecture":"岐阜県","city":"瑞穂市","street":"祖父江"},{"zipCode":"5010221","prefectureKana":"ｷﾞﾌｹﾝ","cityKana":"ﾐｽﾞﾎｼ","streetKana":"ﾀﾀﾞｺｼ","prefecture":"岐阜県","city":"瑞穂市","street":"只越"},{"zipCode":"5010304","prefectureKana":"ｷﾞﾌｹﾝ","cityKana":"ﾐｽﾞﾎｼ","streetKana":"ﾀﾉｶﾐ","prefecture":"岐阜県","city":"瑞穂市","street":"田之上"},{"zipCode":"5010323","prefectureKana":"ｷﾞﾌｹﾝ","cityKana":"ﾐｽﾞﾎｼ","streetKana":"ﾅｶﾐﾔ","prefecture":"岐阜県","city":"瑞穂市","street":"中宮"},{"zipCode":"5010301","prefectureKana":"ｷﾞﾌｹﾝ","cityKana":"ﾐｽﾞﾎｼ","streetKana":"ﾅﾅｻｷ","prefecture":"岐阜県","city":"瑞穂市","street":"七崎"},{"zipCode":"5010211","prefectureKana":"ｷﾞﾌｹﾝ","cityKana":"ﾐｽﾞﾎｼ","streetKana":"ﾅﾏﾂﾞ","prefecture":"岐阜県","city":"瑞穂市","street":"生津"},{"zipCode":"5010214","prefectureKana":"ｷﾞﾌｹﾝ","cityKana":"ﾐｽﾞﾎｼ","streetKana":"ﾅﾏﾂﾞｹﾞｸﾞｳﾋｶﾞｼﾏﾁ","prefecture":"岐阜県","city":"瑞穂市","street":"生津外宮東町"},{"zipCode":"5010217","prefectureKana":"ｷﾞﾌｹﾝ","cityKana":"ﾐｽﾞﾎｼ","streetKana":"ﾅﾏﾂﾞｹﾞｸﾞｳﾏｴﾏﾁ","prefecture":"岐阜県","city":"瑞穂市","street":"生津外宮前町"},{"zipCode":"5010212","prefectureKana":"ｷﾞﾌｹﾝ","cityKana":"ﾐｽﾞﾎｼ","streetKana":"ﾅﾏﾂﾞﾀｷﾂﾎﾞﾏﾁ","prefecture":"岐阜県","city":"瑞穂市","street":"生津滝坪町"},{"zipCode":"5010215","prefectureKana":"ｷﾞﾌｹﾝ","cityKana":"ﾐｽﾞﾎｼ","streetKana":"ﾅﾏﾂﾞﾃﾝﾉｳﾋｶﾞｼﾏﾁ","prefecture":"岐阜県","city":"瑞穂市","street":"生津天王東町"},{"zipCode":"5010216","prefectureKana":"ｷﾞﾌｹﾝ","cityKana":"ﾐｽﾞﾎｼ","streetKana":"ﾅﾏﾂﾞﾃﾝﾉｳﾏﾁ","prefecture":"岐阜県","city":"瑞穂市","street":"生津天王町"},{"zipCode":"5010213","prefectureKana":"ｷﾞﾌｹﾝ","cityKana":"ﾐｽﾞﾎｼ","streetKana":"ﾅﾏﾂﾞﾅｲｸﾞｳﾏﾁ","prefecture":"岐阜県","city":"瑞穂市","street":"生津内宮町"},{"zipCode":"5010232","prefectureKana":"ｷﾞﾌｹﾝ","cityKana":"ﾐｽﾞﾎｼ","streetKana":"ﾉﾀﾞｼﾝﾃﾞﾝ","prefecture":"岐阜県","city":"瑞穂市","street":"野田新田"},{"zipCode":"5010231","prefectureKana":"ｷﾞﾌｹﾝ","cityKana":"ﾐｽﾞﾎｼ","streetKana":"ﾉﾊﾞｸｼﾝﾃﾞﾝ","prefecture":"岐阜県","city":"瑞穂市","street":"野白新田"},{"zipCode":"5010201","prefectureKana":"ｷﾞﾌｹﾝ","cityKana":"ﾐｽﾞﾎｼ","streetKana":"ﾊﾞﾊﾞ","prefecture":"岐阜県","city":"瑞穂市","street":"馬場"},{"zipCode":"5010206","prefectureKana":"ｷﾞﾌｹﾝ","cityKana":"ﾐｽﾞﾎｼ","streetKana":"ﾊﾞﾊﾞｷﾀﾏﾁ","prefecture":"岐阜県","city":"瑞穂市","street":"馬場北町"},{"zipCode":"5010205","prefectureKana":"ｷﾞﾌｹﾝ","cityKana":"ﾐｽﾞﾎｼ","streetKana":"ﾊﾞﾊﾞｺｼﾛﾏﾁ","prefecture":"岐阜県","city":"瑞穂市","street":"馬場小城町"},{"zipCode":"5010203","prefectureKana":"ｷﾞﾌｹﾝ","cityKana":"ﾐｽﾞﾎｼ","streetKana":"ﾊﾞﾊﾞｼﾞｮｳｺｳﾏﾁ","prefecture":"岐阜県","city":"瑞穂市","street":"馬場上光町"},{"zipCode":"5010204","prefectureKana":"ｷﾞﾌｹﾝ","cityKana":"ﾐｽﾞﾎｼ","streetKana":"ﾊﾞﾊﾞﾊﾙｻﾒﾏﾁ","prefecture":"岐阜県","city":"瑞穂市","street":"馬場春雨町"},{"zipCode":"5010202","prefectureKana":"ｷﾞﾌｹﾝ","cityKana":"ﾐｽﾞﾎｼ","streetKana":"ﾊﾞﾊﾞﾏｴﾊﾀﾏﾁ","prefecture":"岐阜県","city":"瑞穂市","street":"馬場前畑町"},{"zipCode":"5010322","prefectureKana":"ｷﾞﾌｹﾝ","cityKana":"ﾐｽﾞﾎｼ","streetKana":"ﾌﾙﾊｼ","prefecture":"岐阜県","city":"瑞穂市","street":"古橋"},{"zipCode":"5010222","prefectureKana":"ｷﾞﾌｹﾝ","cityKana":"ﾐｽﾞﾎｼ","streetKana":"ﾍﾞｯﾌﾟ","prefecture":"岐阜県","city":"瑞穂市","street":"別府"},{"zipCode":"5010233","prefectureKana":"ｷﾞﾌｹﾝ","cityKana":"ﾐｽﾞﾎｼ","streetKana":"ﾎｳｴ","prefecture":"岐阜県","city":"瑞穂市","street":"宝江"},{"zipCode":"5010223","prefectureKana":"ｷﾞﾌｹﾝ","cityKana":"ﾐｽﾞﾎｼ","streetKana":"ﾎﾂﾞﾐ","prefecture":"岐阜県","city":"瑞穂市","street":"穂積"},{"zipCode":"5010236","prefectureKana":"ｷﾞﾌｹﾝ","cityKana":"ﾐｽﾞﾎｼ","streetKana":"ﾎﾝﾃﾞﾝ","prefecture":"岐阜県","city":"瑞穂市","street":"本田"},{"zipCode":"5010312","prefectureKana":"ｷﾞﾌｹﾝ","cityKana":"ﾐｽﾞﾎｼ","streetKana":"ﾐｴｼﾞ","prefecture":"岐阜県","city":"瑞穂市","street":"美江寺"},{"zipCode":"5010305","prefectureKana":"ｷﾞﾌｹﾝ","cityKana":"ﾐｽﾞﾎｼ","streetKana":"ﾐﾔﾃﾞﾝ","prefecture":"岐阜県","city":"瑞穂市","street":"宮田"},{"zipCode":"5010303","prefectureKana":"ｷﾞﾌｹﾝ","cityKana":"ﾐｽﾞﾎｼ","streetKana":"ﾓﾘ","prefecture":"岐阜県","city":"瑞穂市","street":"森"},{"zipCode":"5010321","prefectureKana":"ｷﾞﾌｹﾝ","cityKana":"ﾐｽﾞﾎｼ","streetKana":"ﾖｺﾔ","prefecture":"岐阜県","city":"瑞穂市","street":"横屋"},{"zipCode":"5010324","prefectureKana":"ｷﾞﾌｹﾝ","cityKana":"ﾐｽﾞﾎｼ","streetKana":"ﾛｸ","prefecture":"岐阜県","city":"瑞穂市","street":"呂久"},{"zipCode":"5010400","prefectureKana":"ｷﾞﾌｹﾝ","cityKana":"ﾓﾄｽｼ","streetKana":"ｲｶﾆｹｲｻｲｶﾞﾅｲﾊﾞｱｲ","prefecture":"岐阜県","city":"本巣市","street":"以下に掲載がない場合"},{"zipCode":"5010475","prefectureKana":"ｷﾞﾌｹﾝ","cityKana":"ﾓﾄｽｼ","streetKana":"ｱｻｷﾞ","prefecture":"岐阜県","city":"本巣市","street":"浅木"},{"zipCode":"5010415","prefectureKana":"ｷﾞﾌｹﾝ","cityKana":"ﾓﾄｽｼ","streetKana":"ｱﾘｻﾄ","prefecture":"岐阜県","city":"本巣市","street":"有里"},{"zipCode":"5010410","prefectureKana":"ｷﾞﾌｹﾝ","cityKana":"ﾓﾄｽｼ","streetKana":"ｲｼｶﾞﾐ","prefecture":"岐阜県","city":"本巣市","street":"石神"},{"zipCode":"5010405","prefectureKana":"ｷﾞﾌｹﾝ","cityKana":"ﾓﾄｽｼ","streetKana":"ｲｼﾊﾗ","prefecture":"岐阜県","city":"本巣市","street":"石原"},{"zipCode":"5010476","prefectureKana":"ｷﾞﾌｹﾝ","cityKana":"ﾓﾄｽｼ","streetKana":"ｶｲﾛｳ","prefecture":"岐阜県","city":"本巣市","street":"海老"},{"zipCode":"5010414","prefectureKana":"ｷﾞﾌｹﾝ","cityKana":"ﾓﾄｽｼ","streetKana":"ｶｽﾞﾔ","prefecture":"岐阜県","city":"本巣市","street":"数屋"},{"zipCode":"5010411","prefectureKana":"ｷﾞﾌｹﾝ","cityKana":"ﾓﾄｽｼ","streetKana":"ｶﾐﾀｶﾔ","prefecture":"岐阜県","city":"本巣市","street":"上高屋"},{"zipCode":"5010401","prefectureKana":"ｷﾞﾌｹﾝ","cityKana":"ﾓﾄｽｼ","streetKana":"ｶﾐﾉﾎ","prefecture":"岐阜県","city":"本巣市","street":"上保"},{"zipCode":"5010461","prefectureKana":"ｷﾞﾌｹﾝ","cityKana":"ﾓﾄｽｼ","streetKana":"ｶﾐﾏｸﾜ","prefecture":"岐阜県","city":"本巣市","street":"上真桑"},{"zipCode":"5010465","prefectureKana":"ｷﾞﾌｹﾝ","cityKana":"ﾓﾄｽｼ","streetKana":"ｶﾙﾐ","prefecture":"岐阜県","city":"本巣市","street":"軽海"},{"zipCode":"5010403","prefectureKana":"ｷﾞﾌｹﾝ","cityKana":"ﾓﾄｽｼ","streetKana":"ｷﾀﾉ","prefecture":"岐阜県","city":"本巣市","street":"北野"},{"zipCode":"5011232","prefectureKana":"ｷﾞﾌｹﾝ","cityKana":"ﾓﾄｽｼ","streetKana":"ｷﾝﾊﾞﾗ","prefecture":"岐阜県","city":"本巣市","street":"金原"},{"zipCode":"5010402","prefectureKana":"ｷﾞﾌｹﾝ","cityKana":"ﾓﾄｽｼ","streetKana":"ｸﾞﾝﾌﾞ","prefecture":"岐阜県","city":"本巣市","street":"郡府"},{"zipCode":"5011235","prefectureKana":"ｷﾞﾌｹﾝ","cityKana":"ﾓﾄｽｼ","streetKana":"ｺｳﾐ","prefecture":"岐阜県","city":"本巣市","street":"神海"},{"zipCode":"5010463","prefectureKana":"ｷﾞﾌｹﾝ","cityKana":"ﾓﾄｽｼ","streetKana":"ｺｶﾞｷ","prefecture":"岐阜県","city":"本巣市","street":"小柿"},{"zipCode":"5010474","prefectureKana":"ｷﾞﾌｹﾝ","cityKana":"ﾓﾄｽｼ","streetKana":"ｺｸﾘｮｳ","prefecture":"岐阜県","city":"本巣市","street":"国領"},{"zipCode":"5011234","prefectureKana":"ｷﾞﾌｹﾝ","cityKana":"ﾓﾄｽｼ","streetKana":"ｺﾁﾎﾞﾗ","prefecture":"岐阜県","city":"本巣市","street":"木知原"},{"zipCode":"5011236","prefectureKana":"ｷﾞﾌｹﾝ","cityKana":"ﾓﾄｽｼ","streetKana":"ｻﾜﾗ","prefecture":"岐阜県","city":"本巣市","street":"佐原"},{"zipCode":"5010418","prefectureKana":"ｷﾞﾌｹﾝ","cityKana":"ﾓﾄｽｼ","streetKana":"ｼﾒ","prefecture":"岐阜県","city":"本巣市","street":"七五三"},{"zipCode":"5010472","prefectureKana":"ｷﾞﾌｹﾝ","cityKana":"ﾓﾄｽｼ","streetKana":"ｼﾓﾌｸｼﾞﾏ","prefecture":"岐阜県","city":"本巣市","street":"下福島"},{"zipCode":"5010466","prefectureKana":"ｷﾞﾌｹﾝ","cityKana":"ﾓﾄｽｼ","streetKana":"ｼﾓﾏｸﾜ","prefecture":"岐阜県","city":"本巣市","street":"下真桑"},{"zipCode":"5010464","prefectureKana":"ｷﾞﾌｹﾝ","cityKana":"ﾓﾄｽｼ","streetKana":"ｼﾞｭｳｼｼﾞｮｳ","prefecture":"岐阜県","city":"本巣市","street":"十四条"},{"zipCode":"5010416","prefectureKana":"ｷﾞﾌｹﾝ","cityKana":"ﾓﾄｽｼ","streetKana":"ｽﾞｲﾊﾗ","prefecture":"岐阜県","city":"本巣市","street":"随原"},{"zipCode":"5011205","prefectureKana":"ｷﾞﾌｹﾝ","cityKana":"ﾓﾄｽｼ","streetKana":"ｿｲﾅｶｼﾞﾏ","prefecture":"岐阜県","city":"本巣市","street":"曽井中島"},{"zipCode":"5010462","prefectureKana":"ｷﾞﾌｹﾝ","cityKana":"ﾓﾄｽｼ","streetKana":"ｿｳｹｲ","prefecture":"岐阜県","city":"本巣市","street":"宗慶"},{"zipCode":"5011233","prefectureKana":"ｷﾞﾌｹﾝ","cityKana":"ﾓﾄｽｼ","streetKana":"ﾄﾔﾏ","prefecture":"岐阜県","city":"本巣市","street":"外山"},{"zipCode":"5010412","prefectureKana":"ｷﾞﾌｹﾝ","cityKana":"ﾓﾄｽｼ","streetKana":"ﾅｶﾞﾔ","prefecture":"岐阜県","city":"本巣市","street":"長屋"},{"zipCode":"5011236","prefectureKana":"ｷﾞﾌｹﾝ","cityKana":"ﾓﾄｽｼ","streetKana":"ﾅﾍﾞﾗ","prefecture":"岐阜県","city":"本巣市","street":"鍋原"},{"zipCode":"5010473","prefectureKana":"ｷﾞﾌｹﾝ","cityKana":"ﾓﾄｽｼ","streetKana":"ﾇｸｲ","prefecture":"岐阜県","city":"本巣市","street":"温井"},{"zipCode":"5011524","prefectureKana":"ｷﾞﾌｹﾝ","cityKana":"ﾓﾄｽｼ","streetKana":"ﾈｵｲﾀｼｮ","prefecture":"岐阜県","city":"本巣市","street":"根尾板所"},{"zipCode":"5011521","prefectureKana":"ｷﾞﾌｹﾝ","cityKana":"ﾓﾄｽｼ","streetKana":"ﾈｵｲﾁﾊﾞ","prefecture":"岐阜県","city":"本巣市","street":"根尾市場"},{"zipCode":"5011525","prefectureKana":"ｷﾞﾌｹﾝ","cityKana":"ﾓﾄｽｼ","streetKana":"ﾈｵｲﾏﾑﾗ","prefecture":"岐阜県","city":"本巣市","street":"根尾今村"},{"zipCode":"5011527","prefectureKana":"ｷﾞﾌｹﾝ","cityKana":"ﾓﾄｽｼ","streetKana":"ﾈｵｳﾂｼ","prefecture":"岐阜県","city":"本巣市","street":"根尾宇津志"},{"zipCode":"5011535","prefectureKana":"ｷﾞﾌｹﾝ","cityKana":"ﾓﾄｽｼ","streetKana":"ﾈｵｵｵｲ","prefecture":"岐阜県","city":"本巣市","street":"根尾大井"},{"zipCode":"5011507","prefectureKana":"ｷﾞﾌｹﾝ","cityKana":"ﾓﾄｽｼ","streetKana":"ﾈｵｵｵｶﾜﾗ","prefecture":"岐阜県","city":"本巣市","street":"根尾大河原"},{"zipCode":"5011514","prefectureKana":"ｷﾞﾌｹﾝ","cityKana":"ﾓﾄｽｼ","streetKana":"ﾈｵｵｸﾀﾞﾆ","prefecture":"岐阜県","city":"本巣市","street":"根尾奥谷"},{"zipCode":"5011518","prefectureKana":"ｷﾞﾌｹﾝ","cityKana":"ﾓﾄｽｼ","streetKana":"ﾈｵｵｼﾞｶ","prefecture":"岐阜県","city":"本巣市","street":"根尾小鹿"},{"zipCode":"5011532","prefectureKana":"ｷﾞﾌｹﾝ","cityKana":"ﾓﾄｽｼ","streetKana":"ﾈｵｵｯｿ","prefecture":"岐阜県","city":"本巣市","street":"根尾越卒"},{"zipCode":"5011501","prefectureKana":"ｷﾞﾌｹﾝ","cityKana":"ﾓﾄｽｼ","streetKana":"ﾈｵｵｯﾊﾟ","prefecture":"岐阜県","city":"本巣市","street":"根尾越波"},{"zipCode":"5011531","prefectureKana":"ｷﾞﾌｹﾝ","cityKana":"ﾓﾄｽｼ","streetKana":"ﾈｵｶﾄﾞﾜｷ","prefecture":"岐阜県","city":"本巣市","street":"根尾門脇"},{"zipCode":"5011511","prefectureKana":"ｷﾞﾌｹﾝ","cityKana":"ﾓﾄｽｼ","streetKana":"ﾈｵｶﾐｵｵｽ","prefecture":"岐阜県","city":"本巣市","street":"根尾上大須"},{"zipCode":"5011523","prefectureKana":"ｷﾞﾌｹﾝ","cityKana":"ﾓﾄｽｼ","streetKana":"ﾈｵｶﾜﾗ","prefecture":"岐阜県","city":"本巣市","street":"根尾川原"},{"zipCode":"5011515","prefectureKana":"ｷﾞﾌｹﾝ","cityKana":"ﾓﾄｽｼ","streetKana":"ﾈｵｸﾁﾀﾞﾆ","prefecture":"岐阜県","city":"本巣市","street":"根尾口谷"},{"zipCode":"5011502","prefectureKana":"ｷﾞﾌｹﾝ","cityKana":"ﾓﾄｽｼ","streetKana":"ﾈｵｸﾛﾂﾞ","prefecture":"岐阜県","city":"本巣市","street":"根尾黒津"},{"zipCode":"5011534","prefectureKana":"ｷﾞﾌｹﾝ","cityKana":"ﾓﾄｽｼ","streetKana":"ﾈｵｺｳﾄﾞｺﾛ","prefecture":"岐阜県","city":"本巣市","street":"根尾神所"},{"zipCode":"5011512","prefectureKana":"ｷﾞﾌｹﾝ","cityKana":"ﾓﾄｽｼ","streetKana":"ﾈｵｼﾓｵｵｽ","prefecture":"岐阜県","city":"本巣市","street":"根尾下大須"},{"zipCode":"5011528","prefectureKana":"ｷﾞﾌｹﾝ","cityKana":"ﾓﾄｽｼ","streetKana":"ﾈｵﾀｶｵ","prefecture":"岐阜県","city":"本巣市","street":"根尾高尾"},{"zipCode":"5011522","prefectureKana":"ｷﾞﾌｹﾝ","cityKana":"ﾓﾄｽｼ","streetKana":"ﾈｵﾀﾙﾐ","prefecture":"岐阜県","city":"本巣市","street":"根尾樽見"},{"zipCode":"5011504","prefectureKana":"ｷﾞﾌｹﾝ","cityKana":"ﾓﾄｽｼ","streetKana":"ﾈｵﾃﾝｼﾞﾝﾄﾞｳ","prefecture":"岐阜県","city":"本巣市","street":"根尾天神堂"},{"zipCode":"5011533","prefectureKana":"ｷﾞﾌｹﾝ","cityKana":"ﾓﾄｽｼ","streetKana":"ﾈｵﾅｶ","prefecture":"岐阜県","city":"本巣市","street":"根尾中"},{"zipCode":"5011505","prefectureKana":"ｷﾞﾌｹﾝ","cityKana":"ﾓﾄｽｼ","streetKana":"ﾈｵﾅｶﾞｼﾏ","prefecture":"岐阜県","city":"本巣市","street":"根尾長島"},{"zipCode":"5011503","prefectureKana":"ｷﾞﾌｹﾝ","cityKana":"ﾓﾄｽｼ","streetKana":"ﾈｵﾅｶﾞﾐﾈ","prefecture":"岐阜県","city":"本巣市","street":"根尾長嶺"},{"zipCode":"5011517","prefectureKana":"ｷﾞﾌｹﾝ","cityKana":"ﾓﾄｽｼ","streetKana":"ﾈｵﾆｼｲﾀﾔ","prefecture":"岐阜県","city":"本巣市","street":"根尾西板屋"},{"zipCode":"5011506","prefectureKana":"ｷﾞﾌｹﾝ","cityKana":"ﾓﾄｽｼ","streetKana":"ﾈｵﾉｳｺﾞｳ","prefecture":"岐阜県","city":"本巣市","street":"根尾能郷"},{"zipCode":"5011516","prefectureKana":"ｷﾞﾌｹﾝ","cityKana":"ﾓﾄｽｼ","streetKana":"ﾈｵﾋｶﾞｼｲﾀﾔ","prefecture":"岐阜県","city":"本巣市","street":"根尾東板屋"},{"zipCode":"5011526","prefectureKana":"ｷﾞﾌｹﾝ","cityKana":"ﾓﾄｽｼ","streetKana":"ﾈｵﾋﾗﾉ","prefecture":"岐阜県","city":"本巣市","street":"根尾平野"},{"zipCode":"5011513","prefectureKana":"ｷﾞﾌｹﾝ","cityKana":"ﾓﾄｽｼ","streetKana":"ﾈｵﾏﾂﾀﾞ","prefecture":"岐阜県","city":"本巣市","street":"根尾松田"},{"zipCode":"5011529","prefectureKana":"ｷﾞﾌｹﾝ","cityKana":"ﾓﾄｽｼ","streetKana":"ﾈｵﾐﾄﾞﾘ","prefecture":"岐阜県","city":"本巣市","street":"根尾水鳥"},{"zipCode":"5011536","prefectureKana":"ｷﾞﾌｹﾝ","cityKana":"ﾓﾄｽｼ","streetKana":"ﾈｵﾔﾀﾆ","prefecture":"岐阜県","city":"本巣市","street":"根尾八谷"},{"zipCode":"5010419","prefectureKana":"ｷﾞﾌｹﾝ","cityKana":"ﾓﾄｽｼ","streetKana":"ﾊﾔﾉ","prefecture":"岐阜県","city":"本巣市","street":"早野"},{"zipCode":"5010404","prefectureKana":"ｷﾞﾌｹﾝ","cityKana":"ﾓﾄｽｼ","streetKana":"ﾊﾙﾁｶ","prefecture":"岐阜県","city":"本巣市","street":"春近"},{"zipCode":"5011231","prefectureKana":"ｷﾞﾌｹﾝ","cityKana":"ﾓﾄｽｼ","streetKana":"ﾋﾅﾀ","prefecture":"岐阜県","city":"本巣市","street":"日当"},{"zipCode":"5010407","prefectureKana":"ｷﾞﾌｹﾝ","cityKana":"ﾓﾄｽｼ","streetKana":"ﾌﾞｯｼｮｳｼﾞ","prefecture":"岐阜県","city":"本巣市","street":"仏生寺"},{"zipCode":"5011203","prefectureKana":"ｷﾞﾌｹﾝ","cityKana":"ﾓﾄｽｼ","streetKana":"ﾎｳｼﾞｭﾊｲﾂ","prefecture":"岐阜県","city":"本巣市","street":"宝珠ハイツ"},{"zipCode":"5011202","prefectureKana":"ｷﾞﾌｹﾝ","cityKana":"ﾓﾄｽｼ","streetKana":"ﾎｳﾘﾝｼﾞ","prefecture":"岐阜県","city":"本巣市","street":"法林寺"},{"zipCode":"5010471","prefectureKana":"ｷﾞﾌｹﾝ","cityKana":"ﾓﾄｽｼ","streetKana":"ﾏｻﾀﾞ","prefecture":"岐阜県","city":"本巣市","street":"政田"},{"zipCode":"5010406","prefectureKana":"ｷﾞﾌｹﾝ","cityKana":"ﾓﾄｽｼ","streetKana":"ﾐﾂﾊｼ","prefecture":"岐阜県","city":"本巣市","street":"三橋"},{"zipCode":"5010413","prefectureKana":"ｷﾞﾌｹﾝ","cityKana":"ﾓﾄｽｼ","streetKana":"ﾐﾉﾍﾞ","prefecture":"岐阜県","city":"本巣市","street":"見延"},{"zipCode":"5011203","prefectureKana":"ｷﾞﾌｹﾝ","cityKana":"ﾓﾄｽｼ","streetKana":"ﾓﾝｼﾞｭ","prefecture":"岐阜県","city":"本巣市","street":"文殊"},{"zipCode":"5010417","prefectureKana":"ｷﾞﾌｹﾝ","cityKana":"ﾓﾄｽｼ","streetKana":"ﾔｲ","prefecture":"岐阜県","city":"本巣市","street":"屋井"},{"zipCode":"5011201","prefectureKana":"ｷﾞﾌｹﾝ","cityKana":"ﾓﾄｽｼ","streetKana":"ﾔﾏｸﾞﾁ","prefecture":"岐阜県","city":"本巣市","street":"山口"},{"zipCode":"5014200","prefectureKana":"ｷﾞﾌｹﾝ","cityKana":"ｸﾞｼﾞｮｳｼ","streetKana":"ｲｶﾆｹｲｻｲｶﾞﾅｲﾊﾞｱｲ","prefecture":"岐阜県","city":"郡上市","street":"以下に掲載がない場合"},{"zipCode":"5015111","prefectureKana":"ｷﾞﾌｹﾝ","cityKana":"ｸﾞｼﾞｮｳｼ","streetKana":"ｼﾛﾄﾘﾁｮｳｱﾀｷﾞ","prefecture":"岐阜県","city":"郡上市","street":"白鳥町阿多岐"},{"zipCode":"5015231","prefectureKana":"ｷﾞﾌｹﾝ","cityKana":"ｸﾞｼﾞｮｳｼ","streetKana":"ｼﾛﾄﾘﾁｮｳｲﾄｼﾛ","prefecture":"岐阜県","city":"郡上市","street":"白鳥町石徹白"},{"zipCode":"5015124","prefectureKana":"ｷﾞﾌｹﾝ","cityKana":"ｸﾞｼﾞｮｳｼ","streetKana":"ｼﾛﾄﾘﾁｮｳｵｵｼﾏ","prefecture":"岐阜県","city":"郡上市","street":"白鳥町大島"},{"zipCode":"5015115","prefectureKana":"ｷﾞﾌｹﾝ","cityKana":"ｸﾞｼﾞｮｳｼ","streetKana":"ｼﾛﾄﾘﾁｮｳｵﾝｼﾞ","prefecture":"岐阜県","city":"郡上市","street":"白鳥町恩地"},{"zipCode":"5015125","prefectureKana":"ｷﾞﾌｹﾝ","cityKana":"ｸﾞｼﾞｮｳｼ","streetKana":"ｼﾛﾄﾘﾁｮｳｺｯｻ","prefecture":"岐阜県","city":"郡上市","street":"白鳥町越佐"},{"zipCode":"5015121","prefectureKana":"ｷﾞﾌｹﾝ","cityKana":"ｸﾞｼﾞｮｳｼ","streetKana":"ｼﾛﾄﾘﾁｮｳｼﾛﾄﾘ","prefecture":"岐阜県","city":"郡上市","street":"白鳥町白鳥"},{"zipCode":"5015122","prefectureKana":"ｷﾞﾌｹﾝ","cityKana":"ｸﾞｼﾞｮｳｼ","streetKana":"ｼﾛﾄﾘﾁｮｳﾀﾒｻﾞﾆ","prefecture":"岐阜県","city":"郡上市","street":"白鳥町為真"},{"zipCode":"5015104","prefectureKana":"ｷﾞﾌｹﾝ","cityKana":"ｸﾞｼﾞｮｳｼ","streetKana":"ｼﾛﾄﾘﾁｮｳﾅｶﾞﾀｷ","prefecture":"岐阜県","city":"郡上市","street":"白鳥町長滝"},{"zipCode":"5015123","prefectureKana":"ｷﾞﾌｹﾝ","cityKana":"ｸﾞｼﾞｮｳｼ","streetKana":"ｼﾛﾄﾘﾁｮｳﾅｶﾂﾔ","prefecture":"岐阜県","city":"郡上市","street":"白鳥町中津屋"},{"zipCode":"5015116","prefectureKana":"ｷﾞﾌｹﾝ","cityKana":"ｸﾞｼﾞｮｳｼ","streetKana":"ｼﾛﾄﾘﾁｮｳﾅｶﾆｼ","prefecture":"岐阜県","city":"郡上市","street":"白鳥町中西"},{"zipCode":"5015114","prefectureKana":"ｷﾞﾌｹﾝ","cityKana":"ｸﾞｼﾞｮｳｼ","streetKana":"ｼﾛﾄﾘﾁｮｳﾅﾙ","prefecture":"岐阜県","city":"郡上市","street":"白鳥町那留"},{"zipCode":"5015113","prefectureKana":"ｷﾞﾌｹﾝ","cityKana":"ｸﾞｼﾞｮｳｼ","streetKana":"ｼﾛﾄﾘﾁｮｳﾉｿﾞｴ","prefecture":"岐阜県","city":"郡上市","street":"白鳥町野添"},{"zipCode":"5015105","prefectureKana":"ｷﾞﾌｹﾝ","cityKana":"ｸﾞｼﾞｮｳｼ","streetKana":"ｼﾛﾄﾘﾁｮｳﾋﾀﾉ","prefecture":"岐阜県","city":"郡上市","street":"白鳥町干田野"},{"zipCode":"5015103","prefectureKana":"ｷﾞﾌｹﾝ","cityKana":"ｸﾞｼﾞｮｳｼ","streetKana":"ｼﾛﾄﾘﾁｮｳﾌﾂｶﾏﾁ","prefecture":"岐阜県","city":"郡上市","street":"白鳥町二日町"},{"zipCode":"5015102","prefectureKana":"ｷﾞﾌｹﾝ","cityKana":"ｸﾞｼﾞｮｳｼ","streetKana":"ｼﾛﾄﾘﾁｮｳﾎｷｼﾞﾏ","prefecture":"岐阜県","city":"郡上市","street":"白鳥町歩岐島"},{"zipCode":"5015101","prefectureKana":"ｷﾞﾌｹﾝ","cityKana":"ｸﾞｼﾞｮｳｼ","streetKana":"ｼﾛﾄﾘﾁｮｳﾏｴﾀﾞﾆ","prefecture":"岐阜県","city":"郡上市","street":"白鳥町前谷"},{"zipCode":"5015126","prefectureKana":"ｷﾞﾌｹﾝ","cityKana":"ｸﾞｼﾞｮｳｼ","streetKana":"ｼﾛﾄﾘﾁｮｳﾑｶｲｺﾀﾞﾗ","prefecture":"岐阜県","city":"郡上市","street":"白鳥町向小駄良"},{"zipCode":"5015112","prefectureKana":"ｷﾞﾌｹﾝ","cityKana":"ｸﾞｼﾞｮｳｼ","streetKana":"ｼﾛﾄﾘﾁｮｳﾛｸﾉﾘ","prefecture":"岐阜県","city":"郡上市","street":"白鳥町六ノ里"},{"zipCode":"5015304","prefectureKana":"ｷﾞﾌｹﾝ","cityKana":"ｸﾞｼﾞｮｳｼ","streetKana":"ﾀｶｽﾁｮｳｱﾕﾀﾃ","prefecture":"岐阜県","city":"郡上市","street":"高鷲町鮎立"},{"zipCode":"5015303","prefectureKana":"ｷﾞﾌｹﾝ","cityKana":"ｸﾞｼﾞｮｳｼ","streetKana":"ﾀｶｽﾁｮｳｵｵﾜｼ","prefecture":"岐阜県","city":"郡上市","street":"高鷲町大鷲"},{"zipCode":"5015304","prefectureKana":"ｷﾞﾌｹﾝ","cityKana":"ｸﾞｼﾞｮｳｼ","streetKana":"ﾀｶｽﾁｮｳｷｯﾀﾃ","prefecture":"岐阜県","city":"郡上市","street":"高鷲町切立"},{"zipCode":"5015305","prefectureKana":"ｷﾞﾌｹﾝ","cityKana":"ｸﾞｼﾞｮｳｼ","streetKana":"ﾀｶｽﾁｮｳﾆｼﾎﾞﾗ","prefecture":"岐阜県","city":"郡上市","street":"高鷲町西洞"},{"zipCode":"5015301","prefectureKana":"ｷﾞﾌｹﾝ","cityKana":"ｸﾞｼﾞｮｳｼ","streetKana":"ﾀｶｽﾁｮｳﾋﾙｶﾞﾉ","prefecture":"岐阜県","city":"郡上市","street":"高鷲町ひるがの"},{"zipCode":"5015302","prefectureKana":"ｷﾞﾌｹﾝ","cityKana":"ｸﾞｼﾞｮｳｼ","streetKana":"ﾀｶｽﾁｮｳﾜｼﾐ","prefecture":"岐阜県","city":"郡上市","street":"高鷲町鷲見"},{"zipCode":"5015302","prefectureKana":"ｷﾞﾌｹﾝ","cityKana":"ｸﾞｼﾞｮｳｼ","streetKana":"ﾀｶｽﾁｮｳﾜｼﾐ(ｳｴﾉ)","prefecture":"岐阜県","city":"郡上市","street":"高鷲町鷲見（上野）"},{"zipCode":"5014236","prefectureKana":"ｷﾞﾌｹﾝ","cityKana":"ｸﾞｼﾞｮｳｼ","streetKana":"ﾊﾁﾏﾝﾁｮｳｱｲｵｲ","prefecture":"岐阜県","city":"郡上市","street":"八幡町相生"},{"zipCode":"5014205","prefectureKana":"ｷﾞﾌｹﾝ","cityKana":"ｸﾞｼﾞｮｳｼ","streetKana":"ﾊﾁﾏﾝﾁｮｳｱｸﾀﾞ","prefecture":"岐阜県","city":"郡上市","street":"八幡町安久田"},{"zipCode":"5014204","prefectureKana":"ｷﾞﾌｹﾝ","cityKana":"ｸﾞｼﾞｮｳｼ","streetKana":"ﾊﾁﾏﾝﾁｮｳｱｻﾋ","prefecture":"岐阜県","city":"郡上市","street":"八幡町旭"},{"zipCode":"5014235","prefectureKana":"ｷﾞﾌｹﾝ","cityKana":"ｸﾞｼﾞｮｳｼ","streetKana":"ﾊﾁﾏﾝﾁｮｳｱﾘｻｶ","prefecture":"岐阜県","city":"郡上市","street":"八幡町有坂"},{"zipCode":"5014201","prefectureKana":"ｷﾞﾌｹﾝ","cityKana":"ｸﾞｼﾞｮｳｼ","streetKana":"ﾊﾁﾏﾝﾁｮｳｱﾘﾎ","prefecture":"岐阜県","city":"郡上市","street":"八幡町有穂"},{"zipCode":"5014202","prefectureKana":"ｷﾞﾌｹﾝ","cityKana":"ｸﾞｼﾞｮｳｼ","streetKana":"ﾊﾁﾏﾝﾁｮｳｲﾁｼﾏ","prefecture":"岐阜県","city":"郡上市","street":"八幡町市島"},{"zipCode":"5014223","prefectureKana":"ｷﾞﾌｹﾝ","cityKana":"ｸﾞｼﾞｮｳｼ","streetKana":"ﾊﾁﾏﾝﾁｮｳｲﾅﾘ","prefecture":"岐阜県","city":"郡上市","street":"八幡町稲成"},{"zipCode":"5014451","prefectureKana":"ｷﾞﾌｹﾝ","cityKana":"ｸﾞｼﾞｮｳｼ","streetKana":"ﾊﾁﾏﾝﾁｮｳｲﾘﾏ","prefecture":"岐阜県","city":"郡上市","street":"八幡町入間"},{"zipCode":"5014219","prefectureKana":"ｷﾞﾌｹﾝ","cityKana":"ｸﾞｼﾞｮｳｼ","streetKana":"ﾊﾁﾏﾝﾁｮｳｵｵﾃﾏﾁ","prefecture":"岐阜県","city":"郡上市","street":"八幡町大手町"},{"zipCode":"5014217","prefectureKana":"ｷﾞﾌｹﾝ","cityKana":"ｸﾞｼﾞｮｳｼ","streetKana":"ﾊﾁﾏﾝﾁｮｳｵｻｷﾁｮｳ","prefecture":"岐阜県","city":"郡上市","street":"八幡町尾崎町"},{"zipCode":"5014455","prefectureKana":"ｷﾞﾌｹﾝ","cityKana":"ｸﾞｼﾞｮｳｼ","streetKana":"ﾊﾁﾏﾝﾁｮｳｵﾅﾋﾞ","prefecture":"岐阜県","city":"郡上市","street":"八幡町小那比"},{"zipCode":"5014221","prefectureKana":"ｷﾞﾌｹﾝ","cityKana":"ｸﾞｼﾞｮｳｼ","streetKana":"ﾊﾁﾏﾝﾁｮｳｵﾉ","prefecture":"岐阜県","city":"郡上市","street":"八幡町小野"},{"zipCode":"5014231","prefectureKana":"ｷﾞﾌｹﾝ","cityKana":"ｸﾞｼﾞｮｳｼ","streetKana":"ﾊﾁﾏﾝﾁｮｳｶｼﾞｶ","prefecture":"岐阜県","city":"郡上市","street":"八幡町河鹿"},{"zipCode":"5014218","prefectureKana":"ｷﾞﾌｹﾝ","cityKana":"ｸﾞｼﾞｮｳｼ","streetKana":"ﾊﾁﾏﾝﾁｮｳｶｼﾞﾔﾏﾁ","prefecture":"岐阜県","city":"郡上市","street":"八幡町鍛冶屋町"},{"zipCode":"5014234","prefectureKana":"ｷﾞﾌｹﾝ","cityKana":"ｸﾞｼﾞｮｳｼ","streetKana":"ﾊﾁﾏﾝﾁｮｳｺﾞﾁｮｳ","prefecture":"岐阜県","city":"郡上市","street":"八幡町五町"},{"zipCode":"5014215","prefectureKana":"ｷﾞﾌｹﾝ","cityKana":"ｸﾞｼﾞｮｳｼ","streetKana":"ﾊﾁﾏﾝﾁｮｳｻｶﾅﾏﾁ","prefecture":"岐阜県","city":"郡上市","street":"八幡町肴町"},{"zipCode":"5014228","prefectureKana":"ｷﾞﾌｹﾝ","cityKana":"ｸﾞｼﾞｮｳｼ","streetKana":"ﾊﾁﾏﾝﾁｮｳｻｸﾗﾏﾁ","prefecture":"岐阜県","city":"郡上市","street":"八幡町桜町"},{"zipCode":"5014238","prefectureKana":"ｷﾞﾌｹﾝ","cityKana":"ｸﾞｼﾞｮｳｼ","streetKana":"ﾊﾁﾏﾝﾁｮｳｼﾏ","prefecture":"岐阜県","city":"郡上市","street":"八幡町島"},{"zipCode":"5014222","prefectureKana":"ｷﾞﾌｹﾝ","cityKana":"ｸﾞｼﾞｮｳｼ","streetKana":"ﾊﾁﾏﾝﾁｮｳｼﾏﾀﾞﾆ","prefecture":"岐阜県","city":"郡上市","street":"八幡町島谷"},{"zipCode":"5014224","prefectureKana":"ｷﾞﾌｹﾝ","cityKana":"ｸﾞｼﾞｮｳｼ","streetKana":"ﾊﾁﾏﾝﾁｮｳｼﾞｮｳﾅﾝﾁｮｳ","prefecture":"岐阜県","city":"郡上市","street":"八幡町城南町"},{"zipCode":"5014212","prefectureKana":"ｷﾞﾌｹﾝ","cityKana":"ｸﾞｼﾞｮｳｼ","streetKana":"ﾊﾁﾏﾝﾁｮｳｼｮｸﾆﾝﾏﾁ","prefecture":"岐阜県","city":"郡上市","street":"八幡町職人町"},{"zipCode":"5014203","prefectureKana":"ｷﾞﾌｹﾝ","cityKana":"ｸﾞｼﾞｮｳｼ","streetKana":"ﾊﾁﾏﾝﾁｮｳｼｮﾉｳ","prefecture":"岐阜県","city":"郡上市","street":"八幡町初納"},{"zipCode":"5014226","prefectureKana":"ｷﾞﾌｹﾝ","cityKana":"ｸﾞｼﾞｮｳｼ","streetKana":"ﾊﾁﾏﾝﾁｮｳｼﾝﾏﾁ","prefecture":"岐阜県","city":"郡上市","street":"八幡町新町"},{"zipCode":"5014453","prefectureKana":"ｷﾞﾌｹﾝ","cityKana":"ｸﾞｼﾞｮｳｼ","streetKana":"ﾊﾁﾏﾝﾁｮｳｽｺﾞｳ","prefecture":"岐阜県","city":"郡上市","street":"八幡町洲河"},{"zipCode":"5014233","prefectureKana":"ｷﾞﾌｹﾝ","cityKana":"ｸﾞｼﾞｮｳｼ","streetKana":"ﾊﾁﾏﾝﾁｮｳｾﾄﾘ","prefecture":"岐阜県","city":"郡上市","street":"八幡町瀬取"},{"zipCode":"5014225","prefectureKana":"ｷﾞﾌｹﾝ","cityKana":"ｸﾞｼﾞｮｳｼ","streetKana":"ﾊﾁﾏﾝﾁｮｳﾀｲｼｮｳﾏﾁ","prefecture":"岐阜県","city":"郡上市","street":"八幡町大正町"},{"zipCode":"5014213","prefectureKana":"ｷﾞﾌｹﾝ","cityKana":"ｸﾞｼﾞｮｳｼ","streetKana":"ﾊﾁﾏﾝﾁｮｳﾄﾉﾏﾁ","prefecture":"岐阜県","city":"郡上市","street":"八幡町殿町"},{"zipCode":"5014211","prefectureKana":"ｷﾞﾌｹﾝ","cityKana":"ｸﾞｼﾞｮｳｼ","streetKana":"ﾊﾁﾏﾝﾁｮｳﾅｶﾂﾎﾞ","prefecture":"岐阜県","city":"郡上市","street":"八幡町中坪"},{"zipCode":"5014237","prefectureKana":"ｷﾞﾌｹﾝ","cityKana":"ｸﾞｼﾞｮｳｼ","streetKana":"ﾊﾁﾏﾝﾁｮｳﾅﾋﾞ","prefecture":"岐阜県","city":"郡上市","street":"八幡町那比"},{"zipCode":"5014207","prefectureKana":"ｷﾞﾌｹﾝ","cityKana":"ｸﾞｼﾞｮｳｼ","streetKana":"ﾊﾁﾏﾝﾁｮｳﾆｼｵｯﾊﾟﾗ","prefecture":"岐阜県","city":"郡上市","street":"八幡町西乙原"},{"zipCode":"5014454","prefectureKana":"ｷﾞﾌｹﾝ","cityKana":"ｸﾞｼﾞｮｳｼ","streetKana":"ﾊﾁﾏﾝﾁｮｳﾉﾉｸﾗ","prefecture":"岐阜県","city":"郡上市","street":"八幡町野々倉"},{"zipCode":"5014227","prefectureKana":"ｷﾞﾌｹﾝ","cityKana":"ｸﾞｼﾞｮｳｼ","streetKana":"ﾊﾁﾏﾝﾁｮｳﾊｼﾓﾄﾁｮｳ","prefecture":"岐阜県","city":"郡上市","street":"八幡町橋本町"},{"zipCode":"5014232","prefectureKana":"ｷﾞﾌｹﾝ","cityKana":"ｸﾞｼﾞｮｳｼ","streetKana":"ﾊﾁﾏﾝﾁｮｳﾊﾂﾈ","prefecture":"岐阜県","city":"郡上市","street":"八幡町初音"},{"zipCode":"5014216","prefectureKana":"ｷﾞﾌｹﾝ","cityKana":"ｸﾞｼﾞｮｳｼ","streetKana":"ﾊﾁﾏﾝﾁｮｳﾎﾝﾏﾁ","prefecture":"岐阜県","city":"郡上市","street":"八幡町本町"},{"zipCode":"5014452","prefectureKana":"ｷﾞﾌｹﾝ","cityKana":"ｸﾞｼﾞｮｳｼ","streetKana":"ﾊﾁﾏﾝﾁｮｳﾐﾔﾏ","prefecture":"岐阜県","city":"郡上市","street":"八幡町美山"},{"zipCode":"5014241","prefectureKana":"ｷﾞﾌｹﾝ","cityKana":"ｸﾞｼﾞｮｳｼ","streetKana":"ﾊﾁﾏﾝﾁｮｳﾑｶｲﾔﾏ","prefecture":"岐阜県","city":"郡上市","street":"八幡町向山"},{"zipCode":"5014214","prefectureKana":"ｷﾞﾌｹﾝ","cityKana":"ｸﾞｼﾞｮｳｼ","streetKana":"ﾊﾁﾏﾝﾁｮｳﾔﾅｷﾞﾏﾁ","prefecture":"岐阜県","city":"郡上市","street":"八幡町柳町"},{"zipCode":"5014206","prefectureKana":"ｷﾞﾌｹﾝ","cityKana":"ｸﾞｼﾞｮｳｼ","streetKana":"ﾊﾁﾏﾝﾁｮｳﾖｼﾉ","prefecture":"岐阜県","city":"郡上市","street":"八幡町吉野"},{"zipCode":"5014104","prefectureKana":"ｷﾞﾌｹﾝ","cityKana":"ｸﾞｼﾞｮｳｼ","streetKana":"ﾐﾅﾐﾁｮｳｳﾒﾊﾗ","prefecture":"岐阜県","city":"郡上市","street":"美並町梅原"},{"zipCode":"5014107","prefectureKana":"ｷﾞﾌｹﾝ","cityKana":"ｸﾞｼﾞｮｳｼ","streetKana":"ﾐﾅﾐﾁｮｳｵｵﾊﾗ","prefecture":"岐阜県","city":"郡上市","street":"美並町大原"},{"zipCode":"5014101","prefectureKana":"ｷﾞﾌｹﾝ","cityKana":"ｸﾞｼﾞｮｳｼ","streetKana":"ﾐﾅﾐﾁｮｳｶﾐﾀ","prefecture":"岐阜県","city":"郡上市","street":"美並町上田"},{"zipCode":"5014102","prefectureKana":"ｷﾞﾌｹﾝ","cityKana":"ｸﾞｼﾞｮｳｼ","streetKana":"ﾐﾅﾐﾁｮｳﾀｶｻｺﾞ","prefecture":"岐阜県","city":"郡上市","street":"美並町高砂"},{"zipCode":"5014106","prefectureKana":"ｷﾞﾌｹﾝ","cityKana":"ｸﾞｼﾞｮｳｼ","streetKana":"ﾐﾅﾐﾁｮｳﾊｸｻﾝ","prefecture":"岐阜県","city":"郡上市","street":"美並町白山"},{"zipCode":"5014105","prefectureKana":"ｷﾞﾌｹﾝ","cityKana":"ｸﾞｼﾞｮｳｼ","streetKana":"ﾐﾅﾐﾁｮｳﾐﾄ","prefecture":"岐阜県","city":"郡上市","street":"美並町三戸"},{"zipCode":"5014103","prefectureKana":"ｷﾞﾌｹﾝ","cityKana":"ｸﾞｼﾞｮｳｼ","streetKana":"ﾐﾅﾐﾁｮｳﾔﾏﾀﾞ","prefecture":"岐阜県","city":"郡上市","street":"美並町山田"},{"zipCode":"5014301","prefectureKana":"ｷﾞﾌｹﾝ","cityKana":"ｸﾞｼﾞｮｳｼ","streetKana":"ﾒｲﾎｳｵｵﾀﾆ","prefecture":"岐阜県","city":"郡上市","street":"明宝大谷"},{"zipCode":"5014305","prefectureKana":"ｷﾞﾌｹﾝ","cityKana":"ｸﾞｼﾞｮｳｼ","streetKana":"ﾒｲﾎｳｵｶﾞﾜ","prefecture":"岐阜県","city":"郡上市","street":"明宝小川"},{"zipCode":"5014304","prefectureKana":"ｷﾞﾌｹﾝ","cityKana":"ｸﾞｼﾞｮｳｼ","streetKana":"ﾒｲﾎｳｵｸｽﾞﾐ","prefecture":"岐阜県","city":"郡上市","street":"明宝奥住"},{"zipCode":"5014302","prefectureKana":"ｷﾞﾌｹﾝ","cityKana":"ｸﾞｼﾞｮｳｼ","streetKana":"ﾒｲﾎｳｶﾉﾐｽﾞ","prefecture":"岐阜県","city":"郡上市","street":"明宝寒水"},{"zipCode":"5014303","prefectureKana":"ｷﾞﾌｹﾝ","cityKana":"ｸﾞｼﾞｮｳｼ","streetKana":"ﾒｲﾎｳｹﾗ","prefecture":"岐阜県","city":"郡上市","street":"明宝気良"},{"zipCode":"5014306","prefectureKana":"ｷﾞﾌｹﾝ","cityKana":"ｸﾞｼﾞｮｳｼ","streetKana":"ﾒｲﾎｳﾊﾀｻ","prefecture":"岐阜県","city":"郡上市","street":"明宝畑佐"},{"zipCode":"5014307","prefectureKana":"ｷﾞﾌｹﾝ","cityKana":"ｸﾞｼﾞｮｳｼ","streetKana":"ﾒｲﾎｳﾌﾀﾏﾃ","prefecture":"岐阜県","city":"郡上市","street":"明宝二間手"},{"zipCode":"5014618","prefectureKana":"ｷﾞﾌｹﾝ","cityKana":"ｸﾞｼﾞｮｳｼ","streetKana":"ﾔﾏﾄﾁｮｳｳﾁｶﾞﾀﾆ","prefecture":"岐阜県","city":"郡上市","street":"大和町内ケ谷"},{"zipCode":"5014601","prefectureKana":"ｷﾞﾌｹﾝ","cityKana":"ｸﾞｼﾞｮｳｼ","streetKana":"ﾔﾏﾄﾁｮｳｵｵﾏﾐ","prefecture":"岐阜県","city":"郡上市","street":"大和町大間見"},{"zipCode":"5014619","prefectureKana":"ｷﾞﾌｹﾝ","cityKana":"ｸﾞｼﾞｮｳｼ","streetKana":"ﾔﾏﾄﾁｮｳｵﾁﾍﾞ","prefecture":"岐阜県","city":"郡上市","street":"大和町落部"},{"zipCode":"5014606","prefectureKana":"ｷﾞﾌｹﾝ","cityKana":"ｸﾞｼﾞｮｳｼ","streetKana":"ﾔﾏﾄﾁｮｳｶﾍﾞ","prefecture":"岐阜県","city":"郡上市","street":"大和町河辺"},{"zipCode":"5014605","prefectureKana":"ｷﾞﾌｹﾝ","cityKana":"ｸﾞｼﾞｮｳｼ","streetKana":"ﾔﾏﾄﾁｮｳｶﾝｼﾞ","prefecture":"岐阜県","city":"郡上市","street":"大和町神路"},{"zipCode":"5014603","prefectureKana":"ｷﾞﾌｹﾝ","cityKana":"ｸﾞｼﾞｮｳｼ","streetKana":"ﾔﾏﾄﾁｮｳｸﾘｽ","prefecture":"岐阜県","city":"郡上市","street":"大和町栗巣"},{"zipCode":"5014602","prefectureKana":"ｷﾞﾌｹﾝ","cityKana":"ｸﾞｼﾞｮｳｼ","streetKana":"ﾔﾏﾄﾁｮｳｺﾏﾐ","prefecture":"岐阜県","city":"郡上市","street":"大和町小間見"},{"zipCode":"5014610","prefectureKana":"ｷﾞﾌｹﾝ","cityKana":"ｸﾞｼﾞｮｳｼ","streetKana":"ﾔﾏﾄﾁｮｳｼﾏ","prefecture":"岐阜県","city":"郡上市","street":"大和町島"},{"zipCode":"5014612","prefectureKana":"ｷﾞﾌｹﾝ","cityKana":"ｸﾞｼﾞｮｳｼ","streetKana":"ﾔﾏﾄﾁｮｳﾂﾙｷﾞ","prefecture":"岐阜県","city":"郡上市","street":"大和町剣"},{"zipCode":"5014607","prefectureKana":"ｷﾞﾌｹﾝ","cityKana":"ｸﾞｼﾞｮｳｼ","streetKana":"ﾔﾏﾄﾁｮｳﾄｸﾅｶﾞ","prefecture":"岐阜県","city":"郡上市","street":"大和町徳永"},{"zipCode":"5014613","prefectureKana":"ｷﾞﾌｹﾝ","cityKana":"ｸﾞｼﾞｮｳｼ","streetKana":"ﾔﾏﾄﾁｮｳﾅｻﾗﾍﾞ","prefecture":"岐阜県","city":"郡上市","street":"大和町名皿部"},{"zipCode":"5014614","prefectureKana":"ｷﾞﾌｹﾝ","cityKana":"ｸﾞｼﾞｮｳｼ","streetKana":"ﾔﾏﾄﾁｮｳﾉｸﾞﾁ","prefecture":"岐阜県","city":"郡上市","street":"大和町野口"},{"zipCode":"5014615","prefectureKana":"ｷﾞﾌｹﾝ","cityKana":"ｸﾞｼﾞｮｳｼ","streetKana":"ﾔﾏﾄﾁｮｳﾊﾞﾂｻﾗ","prefecture":"岐阜県","city":"郡上市","street":"大和町場皿"},{"zipCode":"5014616","prefectureKana":"ｷﾞﾌｹﾝ","cityKana":"ｸﾞｼﾞｮｳｼ","streetKana":"ﾔﾏﾄﾁｮｳﾌｸﾀﾞ","prefecture":"岐阜県","city":"郡上市","street":"大和町福田"},{"zipCode":"5014604","prefectureKana":"ｷﾞﾌｹﾝ","cityKana":"ｸﾞｼﾞｮｳｼ","streetKana":"ﾔﾏﾄﾁｮｳﾌﾙﾐﾁ","prefecture":"岐阜県","city":"郡上市","street":"大和町古道"},{"zipCode":"5014617","prefectureKana":"ｷﾞﾌｹﾝ","cityKana":"ｸﾞｼﾞｮｳｼ","streetKana":"ﾔﾏﾄﾁｮｳﾎﾗｸﾞﾁ","prefecture":"岐阜県","city":"郡上市","street":"大和町洞口"},{"zipCode":"5014608","prefectureKana":"ｷﾞﾌｹﾝ","cityKana":"ｸﾞｼﾞｮｳｼ","streetKana":"ﾔﾏﾄﾁｮｳﾏｷ","prefecture":"岐阜県","city":"郡上市","street":"大和町牧"},{"zipCode":"5014611","prefectureKana":"ｷﾞﾌｹﾝ","cityKana":"ｸﾞｼﾞｮｳｼ","streetKana":"ﾔﾏﾄﾁｮｳﾏﾝﾊﾞ","prefecture":"岐阜県","city":"郡上市","street":"大和町万場"},{"zipCode":"5014514","prefectureKana":"ｷﾞﾌｹﾝ","cityKana":"ｸﾞｼﾞｮｳｼ","streetKana":"ﾜﾗﾁｮｳｱｺﾞﾉ","prefecture":"岐阜県","city":"郡上市","street":"和良町安郷野"},{"zipCode":"5014501","prefectureKana":"ｷﾞﾌｹﾝ","cityKana":"ｸﾞｼﾞｮｳｼ","streetKana":"ﾜﾗﾁｮｳｶｸﾗ","prefecture":"岐阜県","city":"郡上市","street":"和良町鹿倉"},{"zipCode":"5014508","prefectureKana":"ｷﾞﾌｹﾝ","cityKana":"ｸﾞｼﾞｮｳｼ","streetKana":"ﾜﾗﾁｮｳｶﾐｻﾞﾜ","prefecture":"岐阜県","city":"郡上市","street":"和良町上沢"},{"zipCode":"5014512","prefectureKana":"ｷﾞﾌｹﾝ","cityKana":"ｸﾞｼﾞｮｳｼ","streetKana":"ﾜﾗﾁｮｳｶﾐﾄﾞｷｮｳ","prefecture":"岐阜県","city":"郡上市","street":"和良町上土京"},{"zipCode":"5014517","prefectureKana":"ｷﾞﾌｹﾝ","cityKana":"ｸﾞｼﾞｮｳｼ","streetKana":"ﾜﾗﾁｮｳｻﾜ","prefecture":"岐阜県","city":"郡上市","street":"和良町沢"},{"zipCode":"5014509","prefectureKana":"ｷﾞﾌｹﾝ","cityKana":"ｸﾞｼﾞｮｳｼ","streetKana":"ﾜﾗﾁｮｳｼﾓｻﾞﾜ","prefecture":"岐阜県","city":"郡上市","street":"和良町下沢"},{"zipCode":"5014513","prefectureKana":"ｷﾞﾌｹﾝ","cityKana":"ｸﾞｼﾞｮｳｼ","streetKana":"ﾜﾗﾁｮｳｼﾓﾄﾞｷｮｳ","prefecture":"岐阜県","city":"郡上市","street":"和良町下土京"},{"zipCode":"5014511","prefectureKana":"ｷﾞﾌｹﾝ","cityKana":"ｸﾞｼﾞｮｳｼ","streetKana":"ﾜﾗﾁｮｳｼﾓﾎﾞﾗ","prefecture":"岐阜県","city":"郡上市","street":"和良町下洞"},{"zipCode":"5014504","prefectureKana":"ｷﾞﾌｹﾝ","cityKana":"ｸﾞｼﾞｮｳｼ","streetKana":"ﾜﾗﾁｮｳﾀﾋﾞﾗ","prefecture":"岐阜県","city":"郡上市","street":"和良町田平"},{"zipCode":"5014518","prefectureKana":"ｷﾞﾌｹﾝ","cityKana":"ｸﾞｼﾞｮｳｼ","streetKana":"ﾜﾗﾁｮｳﾄﾞｷｮｳ","prefecture":"岐阜県","city":"郡上市","street":"和良町土京"},{"zipCode":"5014503","prefectureKana":"ｷﾞﾌｹﾝ","cityKana":"ｸﾞｼﾞｮｳｼ","streetKana":"ﾜﾗﾁｮｳﾉｼﾞﾘ","prefecture":"岐阜県","city":"郡上市","street":"和良町野尻"},{"zipCode":"5014505","prefectureKana":"ｷﾞﾌｹﾝ","cityKana":"ｸﾞｼﾞｮｳｼ","streetKana":"ﾜﾗﾁｮｳﾋｶﾞｼﾉ","prefecture":"岐阜県","city":"郡上市","street":"和良町東野"},{"zipCode":"5014515","prefectureKana":"ｷﾞﾌｹﾝ","cityKana":"ｸﾞｼﾞｮｳｼ","streetKana":"ﾜﾗﾁｮｳﾎｳｽ","prefecture":"岐阜県","city":"郡上市","street":"和良町方須"},{"zipCode":"5014510","prefectureKana":"ｷﾞﾌｹﾝ","cityKana":"ｸﾞｼﾞｮｳｼ","streetKana":"ﾜﾗﾁｮｳﾎｼﾏﾙ","prefecture":"岐阜県","city":"郡上市","street":"和良町法師丸"},{"zipCode":"5014516","prefectureKana":"ｷﾞﾌｹﾝ","cityKana":"ｸﾞｼﾞｮｳｼ","streetKana":"ﾜﾗﾁｮｳﾐｸﾗ","prefecture":"岐阜県","city":"郡上市","street":"和良町三庫"},{"zipCode":"5014507","prefectureKana":"ｷﾞﾌｹﾝ","cityKana":"ｸﾞｼﾞｮｳｼ","streetKana":"ﾜﾗﾁｮｳﾐﾔｼﾞ","prefecture":"岐阜県","city":"郡上市","street":"和良町宮地"},{"zipCode":"5014502","prefectureKana":"ｷﾞﾌｹﾝ","cityKana":"ｸﾞｼﾞｮｳｼ","streetKana":"ﾜﾗﾁｮｳﾐﾔｼﾛ","prefecture":"岐阜県","city":"郡上市","street":"和良町宮代"},{"zipCode":"5014506","prefectureKana":"ｷﾞﾌｹﾝ","cityKana":"ｸﾞｼﾞｮｳｼ","streetKana":"ﾜﾗﾁｮｳﾖｺﾉ","prefecture":"岐阜県","city":"郡上市","street":"和良町横野"},{"zipCode":"5016100","prefectureKana":"ｷﾞﾌｹﾝ","cityKana":"ﾊｼﾏｸﾞﾝｷﾞﾅﾝﾁｮｳ","streetKana":"ｲｶﾆｹｲｻｲｶﾞﾅｲﾊﾞｱｲ","prefecture":"岐阜県","city":"羽島郡岐南町","street":"以下に掲載がない場合"},{"zipCode":"5016015","prefectureKana":"ｷﾞﾌｹﾝ","cityKana":"ﾊｼﾏｸﾞﾝｷﾞﾅﾝﾁｮｳ","streetKana":"ｲｼﾊﾗｾ","prefecture":"岐阜県","city":"羽島郡岐南町","street":"石原瀬"},{"zipCode":"5016001","prefectureKana":"ｷﾞﾌｹﾝ","cityKana":"ﾊｼﾏｸﾞﾝｷﾞﾅﾝﾁｮｳ","streetKana":"ｶﾐｲﾝｼﾞｷ","prefecture":"岐阜県","city":"羽島郡岐南町","street":"上印食"},{"zipCode":"5016018","prefectureKana":"ｷﾞﾌｹﾝ","cityKana":"ﾊｼﾏｸﾞﾝｷﾞﾅﾝﾁｮｳ","streetKana":"ｼﾓｲﾝｼﾞｷ","prefecture":"岐阜県","city":"羽島郡岐南町","street":"下印食"},{"zipCode":"5016016","prefectureKana":"ｷﾞﾌｹﾝ","cityKana":"ﾊｼﾏｸﾞﾝｷﾞﾅﾝﾁｮｳ","streetKana":"ﾄｸﾀﾞ","prefecture":"岐阜県","city":"羽島郡岐南町","street":"徳田"},{"zipCode":"5016017","prefectureKana":"ｷﾞﾌｹﾝ","cityKana":"ﾊｼﾏｸﾞﾝｷﾞﾅﾝﾁｮｳ","streetKana":"ﾄｸﾀﾞﾆｼ","prefecture":"岐阜県","city":"羽島郡岐南町","street":"徳田西"},{"zipCode":"5016004","prefectureKana":"ｷﾞﾌｹﾝ","cityKana":"ﾊｼﾏｸﾞﾝｷﾞﾅﾝﾁｮｳ","streetKana":"ﾉﾅｶ","prefecture":"岐阜県","city":"羽島郡岐南町","street":"野中"},{"zipCode":"5016006","prefectureKana":"ｷﾞﾌｹﾝ","cityKana":"ﾊｼﾏｸﾞﾝｷﾞﾅﾝﾁｮｳ","streetKana":"ﾌｾﾔ","prefecture":"岐阜県","city":"羽島郡岐南町","street":"伏屋"},{"zipCode":"5016003","prefectureKana":"ｷﾞﾌｹﾝ","cityKana":"ﾊｼﾏｸﾞﾝｷﾞﾅﾝﾁｮｳ","streetKana":"ﾍｲｼﾞﾏ","prefecture":"岐阜県","city":"羽島郡岐南町","street":"平島"},{"zipCode":"5016013","prefectureKana":"ｷﾞﾌｹﾝ","cityKana":"ﾊｼﾏｸﾞﾝｷﾞﾅﾝﾁｮｳ","streetKana":"ﾍｲｾｲ","prefecture":"岐阜県","city":"羽島郡岐南町","street":"平成"},{"zipCode":"5016002","prefectureKana":"ｷﾞﾌｹﾝ","cityKana":"ﾊｼﾏｸﾞﾝｷﾞﾅﾝﾁｮｳ","streetKana":"ﾐﾔｹ","prefecture":"岐阜県","city":"羽島郡岐南町","street":"三宅"},{"zipCode":"5016019","prefectureKana":"ｷﾞﾌｹﾝ","cityKana":"ﾊｼﾏｸﾞﾝｷﾞﾅﾝﾁｮｳ","streetKana":"ﾐﾔﾏﾁ","prefecture":"岐阜県","city":"羽島郡岐南町","street":"みやまち"},{"zipCode":"5016014","prefectureKana":"ｷﾞﾌｹﾝ","cityKana":"ﾊｼﾏｸﾞﾝｷﾞﾅﾝﾁｮｳ","streetKana":"ﾔｸｼｼﾞ","prefecture":"岐阜県","city":"羽島郡岐南町","street":"薬師寺"},{"zipCode":"5016012","prefectureKana":"ｷﾞﾌｹﾝ","cityKana":"ﾊｼﾏｸﾞﾝｷﾞﾅﾝﾁｮｳ","streetKana":"ﾔﾂﾙｷﾞ","prefecture":"岐阜県","city":"羽島郡岐南町","street":"八剣"},{"zipCode":"5016011","prefectureKana":"ｷﾞﾌｹﾝ","cityKana":"ﾊｼﾏｸﾞﾝｷﾞﾅﾝﾁｮｳ","streetKana":"ﾔﾂﾙｷﾞｷﾀ","prefecture":"岐阜県","city":"羽島郡岐南町","street":"八剣北"},{"zipCode":"5016005","prefectureKana":"ｷﾞﾌｹﾝ","cityKana":"ﾊｼﾏｸﾞﾝｷﾞﾅﾝﾁｮｳ","streetKana":"ﾜｶﾐﾔｼﾞ","prefecture":"岐阜県","city":"羽島郡岐南町","street":"若宮地"},{"zipCode":"5016100","prefectureKana":"ｷﾞﾌｹﾝ","cityKana":"ﾊｼﾏｸﾞﾝｶｻﾏﾂﾁｮｳ","streetKana":"ｲｶﾆｹｲｻｲｶﾞﾅｲﾊﾞｱｲ","prefecture":"岐阜県","city":"羽島郡笠松町","street":"以下に掲載がない場合"},{"zipCode":"5016044","prefectureKana":"ｷﾞﾌｹﾝ","cityKana":"ﾊｼﾏｸﾞﾝｶｻﾏﾂﾁｮｳ","streetKana":"ｱｲｵｲﾁｮｳ","prefecture":"岐阜県","city":"羽島郡笠松町","street":"相生町"},{"zipCode":"5016056","prefectureKana":"ｷﾞﾌｹﾝ","cityKana":"ﾊｼﾏｸﾞﾝｶｻﾏﾂﾁｮｳ","streetKana":"ｱｻﾋﾏﾁ","prefecture":"岐阜県","city":"羽島郡笠松町","street":"朝日町"},{"zipCode":"5016061","prefectureKana":"ｷﾞﾌｹﾝ","cityKana":"ﾊｼﾏｸﾞﾝｶｻﾏﾂﾁｮｳ","streetKana":"ｲｽﾞﾐﾏﾁ","prefecture":"岐阜県","city":"羽島郡笠松町","street":"泉町"},{"zipCode":"5016032","prefectureKana":"ｷﾞﾌｹﾝ","cityKana":"ﾊｼﾏｸﾞﾝｶｻﾏﾂﾁｮｳ","streetKana":"ｴｶﾞﾜ","prefecture":"岐阜県","city":"羽島郡笠松町","street":"江川"},{"zipCode":"5016035","prefectureKana":"ｷﾞﾌｹﾝ","cityKana":"ﾊｼﾏｸﾞﾝｶｻﾏﾂﾁｮｳ","streetKana":"ｴﾝｼﾞｮｳｼﾞ","prefecture":"岐阜県","city":"羽島郡笠松町","street":"円城寺"},{"zipCode":"5016087","prefectureKana":"ｷﾞﾌｹﾝ","cityKana":"ﾊｼﾏｸﾞﾝｶｻﾏﾂﾁｮｳ","streetKana":"ｵｵｲｹﾁｮｳ","prefecture":"岐阜県","city":"羽島郡笠松町","street":"大池町"},{"zipCode":"5016082","prefectureKana":"ｷﾞﾌｹﾝ","cityKana":"ﾊｼﾏｸﾞﾝｶｻﾏﾂﾁｮｳ","streetKana":"ｶｽｶﾞﾁｮｳ","prefecture":"岐阜県","city":"羽島郡笠松町","street":"春日町"},{"zipCode":"5016065","prefectureKana":"ｷﾞﾌｹﾝ","cityKana":"ﾊｼﾏｸﾞﾝｶｻﾏﾂﾁｮｳ","streetKana":"ｶﾄﾞﾏ","prefecture":"岐阜県","city":"羽島郡笠松町","street":"門間"},{"zipCode":"5016071","prefectureKana":"ｷﾞﾌｹﾝ","cityKana":"ﾊｼﾏｸﾞﾝｶｻﾏﾂﾁｮｳ","streetKana":"ｶﾐｼﾝﾏﾁ","prefecture":"岐阜県","city":"羽島郡笠松町","street":"上新町"},{"zipCode":"5016051","prefectureKana":"ｷﾞﾌｹﾝ","cityKana":"ﾊｼﾏｸﾞﾝｶｻﾏﾂﾁｮｳ","streetKana":"ｶﾐﾎﾝﾏﾁ","prefecture":"岐阜県","city":"羽島郡笠松町","street":"上本町"},{"zipCode":"5016058","prefectureKana":"ｷﾞﾌｹﾝ","cityKana":"ﾊｼﾏｸﾞﾝｶｻﾏﾂﾁｮｳ","streetKana":"ｶﾐﾔﾅｶﾞﾜﾁｮｳ","prefecture":"岐阜県","city":"羽島郡笠松町","street":"上柳川町"},{"zipCode":"5016084","prefectureKana":"ｷﾞﾌｹﾝ","cityKana":"ﾊｼﾏｸﾞﾝｶｻﾏﾂﾁｮｳ","streetKana":"ｷｻﾗｷﾞﾁｮｳ","prefecture":"岐阜県","city":"羽島郡笠松町","street":"如月町"},{"zipCode":"5016064","prefectureKana":"ｷﾞﾌｹﾝ","cityKana":"ﾊｼﾏｸﾞﾝｶｻﾏﾂﾁｮｳ","streetKana":"ｷﾀｵﾖﾋﾞ","prefecture":"岐阜県","city":"羽島郡笠松町","street":"北及"},{"zipCode":"5016086","prefectureKana":"ｷﾞﾌｹﾝ","cityKana":"ﾊｼﾏｸﾞﾝｶｻﾏﾂﾁｮｳ","streetKana":"ｷﾖｽﾞﾐﾁｮｳ","prefecture":"岐阜県","city":"羽島郡笠松町","street":"清住町"},{"zipCode":"5016043","prefectureKana":"ｷﾞﾌｹﾝ","cityKana":"ﾊｼﾏｸﾞﾝｶｻﾏﾂﾁｮｳ","streetKana":"ｹﾝﾏﾁ","prefecture":"岐阜県","city":"羽島郡笠松町","street":"県町"},{"zipCode":"5016031","prefectureKana":"ｷﾞﾌｹﾝ","cityKana":"ﾊｼﾏｸﾞﾝｶｻﾏﾂﾁｮｳ","streetKana":"ｺﾒﾉ","prefecture":"岐阜県","city":"羽島郡笠松町","street":"米野"},{"zipCode":"5016098","prefectureKana":"ｷﾞﾌｹﾝ","cityKana":"ﾊｼﾏｸﾞﾝｶｻﾏﾂﾁｮｳ","streetKana":"ｻｸﾗﾏﾁ","prefecture":"岐阜県","city":"羽島郡笠松町","street":"桜町"},{"zipCode":"5016073","prefectureKana":"ｷﾞﾌｹﾝ","cityKana":"ﾊｼﾏｸﾞﾝｶｻﾏﾂﾁｮｳ","streetKana":"ｼﾓｼﾝﾏﾁ","prefecture":"岐阜県","city":"羽島郡笠松町","street":"下新町"},{"zipCode":"5016052","prefectureKana":"ｷﾞﾌｹﾝ","cityKana":"ﾊｼﾏｸﾞﾝｶｻﾏﾂﾁｮｳ","streetKana":"ｼﾓﾎﾝﾏﾁ","prefecture":"岐阜県","city":"羽島郡笠松町","street":"下本町"},{"zipCode":"5016057","prefectureKana":"ｷﾞﾌｹﾝ","cityKana":"ﾊｼﾏｸﾞﾝｶｻﾏﾂﾁｮｳ","streetKana":"ｼﾓﾔﾅｶﾞﾜﾁｮｳ","prefecture":"岐阜県","city":"羽島郡笠松町","street":"下柳川町"},{"zipCode":"5016091","prefectureKana":"ｷﾞﾌｹﾝ","cityKana":"ﾊｼﾏｸﾞﾝｶｻﾏﾂﾁｮｳ","streetKana":"ｼｮｳｴｲﾁｮｳ","prefecture":"岐阜県","city":"羽島郡笠松町","street":"松栄町"},{"zipCode":"5016074","prefectureKana":"ｷﾞﾌｹﾝ","cityKana":"ﾊｼﾏｸﾞﾝｶｻﾏﾂﾁｮｳ","streetKana":"ｼﾝﾏﾁ","prefecture":"岐阜県","city":"羽島郡笠松町","street":"新町"},{"zipCode":"5016045","prefectureKana":"ｷﾞﾌｹﾝ","cityKana":"ﾊｼﾏｸﾞﾝｶｻﾏﾂﾁｮｳ","streetKana":"ﾂｶｻﾏﾁ","prefecture":"岐阜県","city":"羽島郡笠松町","street":"司町"},{"zipCode":"5016092","prefectureKana":"ｷﾞﾌｹﾝ","cityKana":"ﾊｼﾏｸﾞﾝｶｻﾏﾂﾁｮｳ","streetKana":"ﾂｷﾐﾁｮｳ","prefecture":"岐阜県","city":"羽島郡笠松町","street":"月美町"},{"zipCode":"5016062","prefectureKana":"ｷﾞﾌｹﾝ","cityKana":"ﾊｼﾏｸﾞﾝｶｻﾏﾂﾁｮｳ","streetKana":"ﾃﾞﾝﾀﾞｲ","prefecture":"岐阜県","city":"羽島郡笠松町","street":"田代"},{"zipCode":"5016077","prefectureKana":"ｷﾞﾌｹﾝ","cityKana":"ﾊｼﾏｸﾞﾝｶｻﾏﾂﾁｮｳ","streetKana":"ﾃﾝﾉｳﾁｮｳ","prefecture":"岐阜県","city":"羽島郡笠松町","street":"天王町"},{"zipCode":"5016081","prefectureKana":"ｷﾞﾌｹﾝ","cityKana":"ﾊｼﾏｸﾞﾝｶｻﾏﾂﾁｮｳ","streetKana":"ﾄｳﾖｳﾁｮｳ","prefecture":"岐阜県","city":"羽島郡笠松町","street":"東陽町"},{"zipCode":"5016083","prefectureKana":"ｷﾞﾌｹﾝ","cityKana":"ﾊｼﾏｸﾞﾝｶｻﾏﾂﾁｮｳ","streetKana":"ﾄｷﾜﾁｮｳ","prefecture":"岐阜県","city":"羽島郡笠松町","street":"常盤町"},{"zipCode":"5016095","prefectureKana":"ｷﾞﾌｹﾝ","cityKana":"ﾊｼﾏｸﾞﾝｶｻﾏﾂﾁｮｳ","streetKana":"ﾅｶｶﾞﾜﾁｮｳ","prefecture":"岐阜県","city":"羽島郡笠松町","street":"中川町"},{"zipCode":"5016072","prefectureKana":"ｷﾞﾌｹﾝ","cityKana":"ﾊｼﾏｸﾞﾝｶｻﾏﾂﾁｮｳ","streetKana":"ﾅｶｼﾝﾏﾁ","prefecture":"岐阜県","city":"羽島郡笠松町","street":"中新町"},{"zipCode":"5016034","prefectureKana":"ｷﾞﾌｹﾝ","cityKana":"ﾊｼﾏｸﾞﾝｶｻﾏﾂﾁｮｳ","streetKana":"ﾅｶﾉ","prefecture":"岐阜県","city":"羽島郡笠松町","street":"中野"},{"zipCode":"5016063","prefectureKana":"ｷﾞﾌｹﾝ","cityKana":"ﾊｼﾏｸﾞﾝｶｻﾏﾂﾁｮｳ","streetKana":"ﾅｶﾞｲｹ","prefecture":"岐阜県","city":"羽島郡笠松町","street":"長池"},{"zipCode":"5016041","prefectureKana":"ｷﾞﾌｹﾝ","cityKana":"ﾊｼﾏｸﾞﾝｶｻﾏﾂﾁｮｳ","streetKana":"ﾅﾗﾏﾁ","prefecture":"岐阜県","city":"羽島郡笠松町","street":"奈良町"},{"zipCode":"5016037","prefectureKana":"ｷﾞﾌｹﾝ","cityKana":"ﾊｼﾏｸﾞﾝｶｻﾏﾂﾁｮｳ","streetKana":"ﾆｼｶﾅｲｹﾁｮｳ","prefecture":"岐阜県","city":"羽島郡笠松町","street":"西金池町"},{"zipCode":"5016055","prefectureKana":"ｷﾞﾌｹﾝ","cityKana":"ﾊｼﾏｸﾞﾝｶｻﾏﾂﾁｮｳ","streetKana":"ﾆｼﾏﾁ","prefecture":"岐阜県","city":"羽島郡笠松町","street":"西町"},{"zipCode":"5016075","prefectureKana":"ｷﾞﾌｹﾝ","cityKana":"ﾊｼﾏｸﾞﾝｶｻﾏﾂﾁｮｳ","streetKana":"ﾆｼﾐﾔﾁｮｳ","prefecture":"岐阜県","city":"羽島郡笠松町","street":"西宮町"},{"zipCode":"5016094","prefectureKana":"ｷﾞﾌｹﾝ","cityKana":"ﾊｼﾏｸﾞﾝｶｻﾏﾂﾁｮｳ","streetKana":"ﾊｺﾞﾛﾓﾁｮｳ","prefecture":"岐阜県","city":"羽島郡笠松町","street":"羽衣町"},{"zipCode":"5016042","prefectureKana":"ｷﾞﾌｹﾝ","cityKana":"ﾊｼﾏｸﾞﾝｶｻﾏﾂﾁｮｳ","streetKana":"ﾊﾁﾏﾝﾁｮｳ","prefecture":"岐阜県","city":"羽島郡笠松町","street":"八幡町"},{"zipCode":"5016038","prefectureKana":"ｷﾞﾌｹﾝ","cityKana":"ﾊｼﾏｸﾞﾝｶｻﾏﾂﾁｮｳ","streetKana":"ﾋｶﾞｼｶﾅｲｹﾁｮｳ","prefecture":"岐阜県","city":"羽島郡笠松町","street":"東金池町"},{"zipCode":"5016059","prefectureKana":"ｷﾞﾌｹﾝ","cityKana":"ﾊｼﾏｸﾞﾝｶｻﾏﾂﾁｮｳ","streetKana":"ﾋｶﾞｼﾐﾔﾁｮｳ","prefecture":"岐阜県","city":"羽島郡笠松町","street":"東宮町"},{"zipCode":"5016097","prefectureKana":"ｷﾞﾌｹﾝ","cityKana":"ﾊｼﾏｸﾞﾝｶｻﾏﾂﾁｮｳ","streetKana":"ﾋｻｺﾞﾁｮｳ","prefecture":"岐阜県","city":"羽島郡笠松町","street":"瓢町"},{"zipCode":"5016047","prefectureKana":"ｷﾞﾌｹﾝ","cityKana":"ﾊｼﾏｸﾞﾝｶｻﾏﾂﾁｮｳ","streetKana":"ﾌﾀﾐﾁｮｳ","prefecture":"岐阜県","city":"羽島郡笠松町","street":"二見町"},{"zipCode":"5016088","prefectureKana":"ｷﾞﾌｹﾝ","cityKana":"ﾊｼﾏｸﾞﾝｶｻﾏﾂﾁｮｳ","streetKana":"ﾐｶｻﾄﾞｵﾘ","prefecture":"岐阜県","city":"羽島郡笠松町","street":"美笠通"},{"zipCode":"5016093","prefectureKana":"ｷﾞﾌｹﾝ","cityKana":"ﾊｼﾏｸﾞﾝｶｻﾏﾂﾁｮｳ","streetKana":"ﾐﾄﾞﾘﾏﾁ","prefecture":"岐阜県","city":"羽島郡笠松町","street":"緑町"},{"zipCode":"5016053","prefectureKana":"ｷﾞﾌｹﾝ","cityKana":"ﾊｼﾏｸﾞﾝｶｻﾏﾂﾁｮｳ","streetKana":"ﾐﾅﾄﾏﾁ","prefecture":"岐阜県","city":"羽島郡笠松町","street":"港町"},{"zipCode":"5016046","prefectureKana":"ｷﾞﾌｹﾝ","cityKana":"ﾊｼﾏｸﾞﾝｶｻﾏﾂﾁｮｳ","streetKana":"ﾐﾔｶﾞﾜﾁｮｳ","prefecture":"岐阜県","city":"羽島郡笠松町","street":"宮川町"},{"zipCode":"5016033","prefectureKana":"ｷﾞﾌｹﾝ","cityKana":"ﾊｼﾏｸﾞﾝｶｻﾏﾂﾁｮｳ","streetKana":"ﾑﾄﾞｳｼﾞ","prefecture":"岐阜県","city":"羽島郡笠松町","street":"無動寺"},{"zipCode":"5016076","prefectureKana":"ｷﾞﾌｹﾝ","cityKana":"ﾊｼﾏｸﾞﾝｶｻﾏﾂﾁｮｳ","streetKana":"ﾓﾝｾﾞﾝﾁｮｳ","prefecture":"岐阜県","city":"羽島郡笠松町","street":"門前町"},{"zipCode":"5016054","prefectureKana":"ｷﾞﾌｹﾝ","cityKana":"ﾊｼﾏｸﾞﾝｶｻﾏﾂﾁｮｳ","streetKana":"ﾔﾅｷﾞﾊﾗﾁｮｳ","prefecture":"岐阜県","city":"羽島郡笠松町","street":"柳原町"},{"zipCode":"5016085","prefectureKana":"ｷﾞﾌｹﾝ","cityKana":"ﾊｼﾏｸﾞﾝｶｻﾏﾂﾁｮｳ","streetKana":"ﾔﾖｲﾁｮｳ","prefecture":"岐阜県","city":"羽島郡笠松町","street":"弥生町"},{"zipCode":"5016096","prefectureKana":"ｷﾞﾌｹﾝ","cityKana":"ﾊｼﾏｸﾞﾝｶｻﾏﾂﾁｮｳ","streetKana":"ﾕｳﾗｸﾁｮｳ","prefecture":"岐阜県","city":"羽島郡笠松町","street":"友楽町"},{"zipCode":"5016036","prefectureKana":"ｷﾞﾌｹﾝ","cityKana":"ﾊｼﾏｸﾞﾝｶｻﾏﾂﾁｮｳ","streetKana":"ﾜｶﾊﾞﾁｮｳ","prefecture":"岐阜県","city":"羽島郡笠松町","street":"若葉町"},{"zipCode":"5010600","prefectureKana":"ｷﾞﾌｹﾝ","cityKana":"ｲﾋﾞｸﾞﾝｲﾋﾞｶﾞﾜﾁｮｳ","streetKana":"ｲｶﾆｹｲｻｲｶﾞﾅｲﾊﾞｱｲ","prefecture":"岐阜県","city":"揖斐郡揖斐川町","street":"以下に掲載がない場合"},{"zipCode":"5010627","prefectureKana":"ｷﾞﾌｹﾝ","cityKana":"ｲﾋﾞｸﾞﾝｲﾋﾞｶﾞﾜﾁｮｳ","streetKana":"ｲﾁﾊﾞ","prefecture":"岐阜県","city":"揖斐郡揖斐川町","street":"市場"},{"zipCode":"5010634","prefectureKana":"ｷﾞﾌｹﾝ","cityKana":"ｲﾋﾞｸﾞﾝｲﾋﾞｶﾞﾜﾁｮｳ","streetKana":"ｳｴﾉ","prefecture":"岐阜県","city":"揖斐郡揖斐川町","street":"上野"},{"zipCode":"5010624","prefectureKana":"ｷﾞﾌｹﾝ","cityKana":"ｲﾋﾞｸﾞﾝｲﾋﾞｶﾞﾜﾁｮｳ","streetKana":"ｵｶ","prefecture":"岐阜県","city":"揖斐郡揖斐川町","street":"岡"},{"zipCode":"5010701","prefectureKana":"ｷﾞﾌｹﾝ","cityKana":"ｲﾋﾞｸﾞﾝｲﾋﾞｶﾞﾜﾁｮｳ","streetKana":"ｵﾂﾞ","prefecture":"岐阜県","city":"揖斐郡揖斐川町","street":"小津"},{"zipCode":"5010703","prefectureKana":"ｷﾞﾌｹﾝ","cityKana":"ｲﾋﾞｸﾞﾝｲﾋﾞｶﾞﾜﾁｮｳ","streetKana":"ｵﾄﾊﾗ","prefecture":"岐阜県","city":"揖斐郡揖斐川町","street":"乙原"},{"zipCode":"5010612","prefectureKana":"ｷﾞﾌｹﾝ","cityKana":"ｲﾋﾞｸﾞﾝｲﾋﾞｶﾞﾜﾁｮｳ","streetKana":"ｵﾉ","prefecture":"岐阜県","city":"揖斐郡揖斐川町","street":"小野"},{"zipCode":"5010815","prefectureKana":"ｷﾞﾌｹﾝ","cityKana":"ｲﾋﾞｸﾞﾝｲﾋﾞｶﾞﾜﾁｮｳ","streetKana":"ｶｲﾃﾞﾝ","prefecture":"岐阜県","city":"揖斐郡揖斐川町","street":"開田"},{"zipCode":"5010708","prefectureKana":"ｷﾞﾌｹﾝ","cityKana":"ｲﾋﾞｸﾞﾝｲﾋﾞｶﾞﾜﾁｮｳ","streetKana":"ｶｼﾊﾞﾗ","prefecture":"岐阜県","city":"揖斐郡揖斐川町","street":"樫原"},{"zipCode":"5010607","prefectureKana":"ｷﾞﾌｹﾝ","cityKana":"ｲﾋﾞｸﾞﾝｲﾋﾞｶﾞﾜﾁｮｳ","streetKana":"ｶﾂﾗ","prefecture":"岐阜県","city":"揖斐郡揖斐川町","street":"桂"},{"zipCode":"5010817","prefectureKana":"ｷﾞﾌｹﾝ","cityKana":"ｲﾋﾞｸﾞﾝｲﾋﾞｶﾞﾜﾁｮｳ","streetKana":"ｶﾄﾞﾆｭｳ","prefecture":"岐阜県","city":"揖斐郡揖斐川町","street":"門入"},{"zipCode":"5010631","prefectureKana":"ｷﾞﾌｹﾝ","cityKana":"ｲﾋﾞｸﾞﾝｲﾋﾞｶﾞﾜﾁｮｳ","streetKana":"ｶﾐｵｶｼﾞﾏ","prefecture":"岐阜県","city":"揖斐郡揖斐川町","street":"上岡島"},{"zipCode":"5010618","prefectureKana":"ｷﾞﾌｹﾝ","cityKana":"ｲﾋﾞｸﾞﾝｲﾋﾞｶﾞﾜﾁｮｳ","streetKana":"ｶﾐﾉ","prefecture":"岐阜県","city":"揖斐郡揖斐川町","street":"上ミ野"},{"zipCode":"5010632","prefectureKana":"ｷﾞﾌｹﾝ","cityKana":"ｲﾋﾞｸﾞﾝｲﾋﾞｶﾞﾜﾁｮｳ","streetKana":"ｶﾐﾋｶﾞｼﾉ","prefecture":"岐阜県","city":"揖斐郡揖斐川町","street":"上東野"},{"zipCode":"5010603","prefectureKana":"ｷﾞﾌｹﾝ","cityKana":"ｲﾋﾞｸﾞﾝｲﾋﾞｶﾞﾜﾁｮｳ","streetKana":"ｶﾐﾐﾅﾐｶﾞﾀ","prefecture":"岐阜県","city":"揖斐郡揖斐川町","street":"上南方"},{"zipCode":"5010601","prefectureKana":"ｷﾞﾌｹﾝ","cityKana":"ｲﾋﾞｸﾞﾝｲﾋﾞｶﾞﾜﾁｮｳ","streetKana":"ｷﾀｶﾞﾀ","prefecture":"岐阜県","city":"揖斐郡揖斐川町","street":"北方"},{"zipCode":"5010615","prefectureKana":"ｷﾞﾌｹﾝ","cityKana":"ｲﾋﾞｸﾞﾝｲﾋﾞｶﾞﾜﾁｮｳ","streetKana":"ｷﾖﾐｽﾞ","prefecture":"岐阜県","city":"揖斐郡揖斐川町","street":"清水"},{"zipCode":"5010625","prefectureKana":"ｷﾞﾌｹﾝ","cityKana":"ｲﾋﾞｸﾞﾝｲﾋﾞｶﾞﾜﾁｮｳ","streetKana":"ｸﾛﾀﾞ","prefecture":"岐阜県","city":"揖斐郡揖斐川町","street":"黒田"},{"zipCode":"5010605","prefectureKana":"ｷﾞﾌｹﾝ","cityKana":"ｲﾋﾞｸﾞﾝｲﾋﾞｶﾞﾜﾁｮｳ","streetKana":"ｺﾞｸﾗｸｼﾞ","prefecture":"岐阜県","city":"揖斐郡揖斐川町","street":"極楽寺"},{"zipCode":"5010633","prefectureKana":"ｷﾞﾌｹﾝ","cityKana":"ｲﾋﾞｸﾞﾝｲﾋﾞｶﾞﾜﾁｮｳ","streetKana":"ｺｼﾞﾏ","prefecture":"岐阜県","city":"揖斐郡揖斐川町","street":"小島"},{"zipCode":"5010611","prefectureKana":"ｷﾞﾌｹﾝ","cityKana":"ｲﾋﾞｸﾞﾝｲﾋﾞｶﾞﾜﾁｮｳ","streetKana":"ｺﾀﾃ","prefecture":"岐阜県","city":"揖斐郡揖斐川町","street":"小谷"},{"zipCode":"5010901","prefectureKana":"ｷﾞﾌｹﾝ","cityKana":"ｲﾋﾞｸﾞﾝｲﾋﾞｶﾞﾜﾁｮｳ","streetKana":"ｻｶｳﾁｶﾜｶﾐ","prefecture":"岐阜県","city":"揖斐郡揖斐川町","street":"坂内川上"},{"zipCode":"5010903","prefectureKana":"ｷﾞﾌｹﾝ","cityKana":"ｲﾋﾞｸﾞﾝｲﾋﾞｶﾞﾜﾁｮｳ","streetKana":"ｻｶｳﾁｻｶﾓﾄ","prefecture":"岐阜県","city":"揖斐郡揖斐川町","street":"坂内坂本"},{"zipCode":"5010902","prefectureKana":"ｷﾞﾌｹﾝ","cityKana":"ｲﾋﾞｸﾞﾝｲﾋﾞｶﾞﾜﾁｮｳ","streetKana":"ｻｶｳﾁﾋﾛｾ","prefecture":"岐阜県","city":"揖斐郡揖斐川町","street":"坂内広瀬"},{"zipCode":"5010613","prefectureKana":"ｷﾞﾌｹﾝ","cityKana":"ｲﾋﾞｸﾞﾝｲﾋﾞｶﾞﾜﾁｮｳ","streetKana":"ｼﾂﾞﾔﾏ","prefecture":"岐阜県","city":"揖斐郡揖斐川町","street":"志津山"},{"zipCode":"5010617","prefectureKana":"ｷﾞﾌｹﾝ","cityKana":"ｲﾋﾞｸﾞﾝｲﾋﾞｶﾞﾜﾁｮｳ","streetKana":"ｼﾏ","prefecture":"岐阜県","city":"揖斐郡揖斐川町","street":"島"},{"zipCode":"5010621","prefectureKana":"ｷﾞﾌｹﾝ","cityKana":"ｲﾋﾞｸﾞﾝｲﾋﾞｶﾞﾜﾁｮｳ","streetKana":"ｼﾓｵｶｼﾞﾏ","prefecture":"岐阜県","city":"揖斐郡揖斐川町","street":"下岡島"},{"zipCode":"5010635","prefectureKana":"ｷﾞﾌｹﾝ","cityKana":"ｲﾋﾞｸﾞﾝｲﾋﾞｶﾞﾜﾁｮｳ","streetKana":"ｼﾗｶｼ","prefecture":"岐阜県","city":"揖斐郡揖斐川町","street":"白樫"},{"zipCode":"5010628","prefectureKana":"ｷﾞﾌｹﾝ","cityKana":"ｲﾋﾞｸﾞﾝｲﾋﾞｶﾞﾜﾁｮｳ","streetKana":"ｼﾝｸﾞｳ","prefecture":"岐阜県","city":"揖斐郡揖斐川町","street":"新宮"},{"zipCode":"5010626","prefectureKana":"ｷﾞﾌｹﾝ","cityKana":"ｲﾋﾞｸﾞﾝｲﾋﾞｶﾞﾜﾁｮｳ","streetKana":"ｽﾞｲｶﾞﾝｼﾞ","prefecture":"岐阜県","city":"揖斐郡揖斐川町","street":"瑞岩寺"},{"zipCode":"5010604","prefectureKana":"ｷﾞﾌｹﾝ","cityKana":"ｲﾋﾞｸﾞﾝｲﾋﾞｶﾞﾜﾁｮｳ","streetKana":"ﾀﾞｲｺｳｼﾞ","prefecture":"岐阜県","city":"揖斐郡揖斐川町","street":"大光寺"},{"zipCode":"5011315","prefectureKana":"ｷﾞﾌｹﾝ","cityKana":"ｲﾋﾞｸﾞﾝｲﾋﾞｶﾞﾜﾁｮｳ","streetKana":"ﾀﾆｸﾞﾐｱｯﾄﾘ","prefecture":"岐阜県","city":"揖斐郡揖斐川町","street":"谷汲有鳥"},{"zipCode":"5011312","prefectureKana":"ｷﾞﾌｹﾝ","cityKana":"ｲﾋﾞｸﾞﾝｲﾋﾞｶﾞﾜﾁｮｳ","streetKana":"ﾀﾆｸﾞﾐｵｵﾎﾞﾗ","prefecture":"岐阜県","city":"揖斐郡揖斐川町","street":"谷汲大洞"},{"zipCode":"5011317","prefectureKana":"ｷﾞﾌｹﾝ","cityKana":"ｲﾋﾞｸﾞﾝｲﾋﾞｶﾞﾜﾁｮｳ","streetKana":"ﾀﾆｸﾞﾐｶﾝﾊﾞﾗ","prefecture":"岐阜県","city":"揖斐郡揖斐川町","street":"谷汲神原"},{"zipCode":"5011316","prefectureKana":"ｷﾞﾌｹﾝ","cityKana":"ｲﾋﾞｸﾞﾝｲﾋﾞｶﾞﾜﾁｮｳ","streetKana":"ﾀﾆｸﾞﾐｷｿﾔ","prefecture":"岐阜県","city":"揖斐郡揖斐川町","street":"谷汲木曽屋"},{"zipCode":"5011302","prefectureKana":"ｷﾞﾌｹﾝ","cityKana":"ｲﾋﾞｸﾞﾝｲﾋﾞｶﾞﾜﾁｮｳ","streetKana":"ﾀﾆｸﾞﾐｷﾚ","prefecture":"岐阜県","city":"揖斐郡揖斐川町","street":"谷汲岐礼"},{"zipCode":"5011301","prefectureKana":"ｷﾞﾌｹﾝ","cityKana":"ｲﾋﾞｸﾞﾝｲﾋﾞｶﾞﾜﾁｮｳ","streetKana":"ﾀﾆｸﾞﾐﾀｶｼﾅ","prefecture":"岐阜県","city":"揖斐郡揖斐川町","street":"谷汲高科"},{"zipCode":"5011311","prefectureKana":"ｷﾞﾌｹﾝ","cityKana":"ｲﾋﾞｸﾞﾝｲﾋﾞｶﾞﾜﾁｮｳ","streetKana":"ﾀﾆｸﾞﾐﾄｸﾂﾞﾐ","prefecture":"岐阜県","city":"揖斐郡揖斐川町","street":"谷汲徳積"},{"zipCode":"5011303","prefectureKana":"ｷﾞﾌｹﾝ","cityKana":"ｲﾋﾞｸﾞﾝｲﾋﾞｶﾞﾜﾁｮｳ","streetKana":"ﾀﾆｸﾞﾐﾅｶﾞｾ","prefecture":"岐阜県","city":"揖斐郡揖斐川町","street":"谷汲長瀬"},{"zipCode":"5011314","prefectureKana":"ｷﾞﾌｹﾝ","cityKana":"ｲﾋﾞｸﾞﾝｲﾋﾞｶﾞﾜﾁｮｳ","streetKana":"ﾀﾆｸﾞﾐﾅﾚ","prefecture":"岐阜県","city":"揖斐郡揖斐川町","street":"谷汲名礼"},{"zipCode":"5011313","prefectureKana":"ｷﾞﾌｹﾝ","cityKana":"ｲﾋﾞｸﾞﾝｲﾋﾞｶﾞﾜﾁｮｳ","streetKana":"ﾀﾆｸﾞﾐﾌｶｻｶ","prefecture":"岐阜県","city":"揖斐郡揖斐川町","street":"谷汲深坂"},{"zipCode":"5010811","prefectureKana":"ｷﾞﾌｹﾝ","cityKana":"ｲﾋﾞｸﾞﾝｲﾋﾞｶﾞﾜﾁｮｳ","streetKana":"ﾂｶ","prefecture":"岐阜県","city":"揖斐郡揖斐川町","street":"塚"},{"zipCode":"5010802","prefectureKana":"ｷﾞﾌｹﾝ","cityKana":"ｲﾋﾞｸﾞﾝｲﾋﾞｶﾞﾜﾁｮｳ","streetKana":"ﾂﾙﾐ","prefecture":"岐阜県","city":"揖斐郡揖斐川町","street":"鶴見"},{"zipCode":"5010814","prefectureKana":"ｷﾞﾌｹﾝ","cityKana":"ｲﾋﾞｸﾞﾝｲﾋﾞｶﾞﾜﾁｮｳ","streetKana":"ﾄｸﾔﾏ","prefecture":"岐阜県","city":"揖斐郡揖斐川町","street":"徳山"},{"zipCode":"5010705","prefectureKana":"ｷﾞﾌｹﾝ","cityKana":"ｲﾋﾞｸﾞﾝｲﾋﾞｶﾞﾜﾁｮｳ","streetKana":"ﾄﾂｸﾐ","prefecture":"岐阜県","city":"揖斐郡揖斐川町","street":"外津汲"},{"zipCode":"5010816","prefectureKana":"ｷﾞﾌｹﾝ","cityKana":"ｲﾋﾞｸﾞﾝｲﾋﾞｶﾞﾜﾁｮｳ","streetKana":"ﾄﾆｭｳ","prefecture":"岐阜県","city":"揖斐郡揖斐川町","street":"戸入"},{"zipCode":"5010614","prefectureKana":"ｷﾞﾌｹﾝ","cityKana":"ｲﾋﾞｸﾞﾝｲﾋﾞｶﾞﾜﾁｮｳ","streetKana":"ﾅｶﾞﾗ","prefecture":"岐阜県","city":"揖斐郡揖斐川町","street":"長良"},{"zipCode":"5010706","prefectureKana":"ｷﾞﾌｹﾝ","cityKana":"ｲﾋﾞｸﾞﾝｲﾋﾞｶﾞﾜﾁｮｳ","streetKana":"ﾆｼﾂｸﾐ","prefecture":"岐阜県","city":"揖斐郡揖斐川町","street":"西津汲"},{"zipCode":"5010805","prefectureKana":"ｷﾞﾌｹﾝ","cityKana":"ｲﾋﾞｸﾞﾝｲﾋﾞｶﾞﾜﾁｮｳ","streetKana":"ﾆｼﾖｺﾔﾏ","prefecture":"岐阜県","city":"揖斐郡揖斐川町","street":"西横山"},{"zipCode":"5010622","prefectureKana":"ｷﾞﾌｹﾝ","cityKana":"ｲﾋﾞｸﾞﾝｲﾋﾞｶﾞﾜﾁｮｳ","streetKana":"ﾊｷﾞﾅｶﾞ","prefecture":"岐阜県","city":"揖斐郡揖斐川町","street":"脛永"},{"zipCode":"5010812","prefectureKana":"ｷﾞﾌｹﾝ","cityKana":"ｲﾋﾞｸﾞﾝｲﾋﾞｶﾞﾜﾁｮｳ","streetKana":"ﾊｾﾞﾊﾗ","prefecture":"岐阜県","city":"揖斐郡揖斐川町","street":"櫨原"},{"zipCode":"5010803","prefectureKana":"ｷﾞﾌｹﾝ","cityKana":"ｲﾋﾞｸﾞﾝｲﾋﾞｶﾞﾜﾁｮｳ","streetKana":"ﾋｶﾞｼｽｷﾞﾊﾗ","prefecture":"岐阜県","city":"揖斐郡揖斐川町","street":"東杉原"},{"zipCode":"5010702","prefectureKana":"ｷﾞﾌｹﾝ","cityKana":"ｲﾋﾞｸﾞﾝｲﾋﾞｶﾞﾜﾁｮｳ","streetKana":"ﾋｶﾞｼﾂｸﾐ","prefecture":"岐阜県","city":"揖斐郡揖斐川町","street":"東津汲"},{"zipCode":"5010804","prefectureKana":"ｷﾞﾌｹﾝ","cityKana":"ｲﾋﾞｸﾞﾝｲﾋﾞｶﾞﾜﾁｮｳ","streetKana":"ﾋｶﾞｼﾖｺﾔﾏ","prefecture":"岐阜県","city":"揖斐郡揖斐川町","street":"東横山"},{"zipCode":"5010707","prefectureKana":"ｷﾞﾌｹﾝ","cityKana":"ｲﾋﾞｸﾞﾝｲﾋﾞｶﾞﾜﾁｮｳ","streetKana":"ﾋｻｶ","prefecture":"岐阜県","city":"揖斐郡揖斐川町","street":"日坂"},{"zipCode":"5010616","prefectureKana":"ｷﾞﾌｹﾝ","cityKana":"ｲﾋﾞｸﾞﾝｲﾋﾞｶﾞﾜﾁｮｳ","streetKana":"ﾌｸｼﾞﾏ","prefecture":"岐阜県","city":"揖斐郡揖斐川町","street":"福島"},{"zipCode":"5010606","prefectureKana":"ｷﾞﾌｹﾝ","cityKana":"ｲﾋﾞｸﾞﾝｲﾋﾞｶﾞﾜﾁｮｳ","streetKana":"ﾎﾞｳｼﾞﾏ","prefecture":"岐阜県","city":"揖斐郡揖斐川町","street":"房島"},{"zipCode":"5010704","prefectureKana":"ｷﾞﾌｹﾝ","cityKana":"ｲﾋﾞｸﾞﾝｲﾋﾞｶﾞﾜﾁｮｳ","streetKana":"ﾐｸﾗ","prefecture":"岐阜県","city":"揖斐郡揖斐川町","street":"三倉"},{"zipCode":"5010619","prefectureKana":"ｷﾞﾌｹﾝ","cityKana":"ｲﾋﾞｸﾞﾝｲﾋﾞｶﾞﾜﾁｮｳ","streetKana":"ﾐﾜ","prefecture":"岐阜県","city":"揖斐郡揖斐川町","street":"三輪"},{"zipCode":"5010813","prefectureKana":"ｷﾞﾌｹﾝ","cityKana":"ｲﾋﾞｸﾞﾝｲﾋﾞｶﾞﾜﾁｮｳ","streetKana":"ﾔﾏﾃ","prefecture":"岐阜県","city":"揖斐郡揖斐川町","street":"山手"},{"zipCode":"5010602","prefectureKana":"ｷﾞﾌｹﾝ","cityKana":"ｲﾋﾞｸﾞﾝｲﾋﾞｶﾞﾜﾁｮｳ","streetKana":"ﾜｶﾏﾂ","prefecture":"岐阜県","city":"揖斐郡揖斐川町","street":"若松"},{"zipCode":"5010623","prefectureKana":"ｷﾞﾌｹﾝ","cityKana":"ｲﾋﾞｸﾞﾝｲﾋﾞｶﾞﾜﾁｮｳ","streetKana":"ﾜﾀﾞ","prefecture":"岐阜県","city":"揖斐郡揖斐川町","street":"和田"},{"zipCode":"5010500","prefectureKana":"ｷﾞﾌｹﾝ","cityKana":"ｲﾋﾞｸﾞﾝｵｵﾉﾁｮｳ","streetKana":"ｲｶﾆｹｲｻｲｶﾞﾅｲﾊﾞｱｲ","prefecture":"岐阜県","city":"揖斐郡大野町","street":"以下に掲載がない場合"},{"zipCode":"5010522","prefectureKana":"ｷﾞﾌｹﾝ","cityKana":"ｲﾋﾞｸﾞﾝｵｵﾉﾁｮｳ","streetKana":"ｱｲﾊﾞ","prefecture":"岐阜県","city":"揖斐郡大野町","street":"相羽"},{"zipCode":"5010564","prefectureKana":"ｷﾞﾌｹﾝ","cityKana":"ｲﾋﾞｸﾞﾝｵｵﾉﾁｮｳ","streetKana":"ｱｿｳ","prefecture":"岐阜県","city":"揖斐郡大野町","street":"麻生"},{"zipCode":"5010501","prefectureKana":"ｷﾞﾌｹﾝ","cityKana":"ｲﾋﾞｸﾞﾝｵｵﾉﾁｮｳ","streetKana":"ｲﾅﾄﾞﾐ","prefecture":"岐阜県","city":"揖斐郡大野町","street":"稲富"},{"zipCode":"5010511","prefectureKana":"ｷﾞﾌｹﾝ","cityKana":"ｲﾋﾞｸﾞﾝｵｵﾉﾁｮｳ","streetKana":"ｲﾅﾊﾞﾀ","prefecture":"岐阜県","city":"揖斐郡大野町","street":"稲畑"},{"zipCode":"5010561","prefectureKana":"ｷﾞﾌｹﾝ","cityKana":"ｲﾋﾞｸﾞﾝｵｵﾉﾁｮｳ","streetKana":"ｳｼﾎﾞﾗ","prefecture":"岐阜県","city":"揖斐郡大野町","street":"牛洞"},{"zipCode":"5010552","prefectureKana":"ｷﾞﾌｹﾝ","cityKana":"ｲﾋﾞｸﾞﾝｵｵﾉﾁｮｳ","streetKana":"ｵｵｴﾋﾞ","prefecture":"岐阜県","city":"揖斐郡大野町","street":"大衣斐"},{"zipCode":"5010513","prefectureKana":"ｷﾞﾌｹﾝ","cityKana":"ｲﾋﾞｸﾞﾝｵｵﾉﾁｮｳ","streetKana":"ｵｵﾉ","prefecture":"岐阜県","city":"揖斐郡大野町","street":"大野"},{"zipCode":"5010535","prefectureKana":"ｷﾞﾌｹﾝ","cityKana":"ｲﾋﾞｸﾞﾝｵｵﾉﾁｮｳ","streetKana":"ｶﾉｳ","prefecture":"岐阜県","city":"揖斐郡大野町","street":"加納"},{"zipCode":"5010531","prefectureKana":"ｷﾞﾌｹﾝ","cityKana":"ｲﾋﾞｸﾞﾝｵｵﾉﾁｮｳ","streetKana":"ｶﾐｲｿ","prefecture":"岐阜県","city":"揖斐郡大野町","street":"上磯"},{"zipCode":"5010512","prefectureKana":"ｷﾞﾌｹﾝ","cityKana":"ｲﾋﾞｸﾞﾝｵｵﾉﾁｮｳ","streetKana":"ｶﾝﾀﾞｹ","prefecture":"岐阜県","city":"揖斐郡大野町","street":"上秋"},{"zipCode":"5010524","prefectureKana":"ｷﾞﾌｹﾝ","cityKana":"ｲﾋﾞｸﾞﾝｵｵﾉﾁｮｳ","streetKana":"ｸﾞｹﾞ","prefecture":"岐阜県","city":"揖斐郡大野町","street":"郡家"},{"zipCode":"5010555","prefectureKana":"ｷﾞﾌｹﾝ","cityKana":"ｲﾋﾞｸﾞﾝｵｵﾉﾁｮｳ","streetKana":"ｸｺﾞｳ","prefecture":"岐阜県","city":"揖斐郡大野町","street":"公郷"},{"zipCode":"5010521","prefectureKana":"ｷﾞﾌｹﾝ","cityKana":"ｲﾋﾞｸﾞﾝｵｵﾉﾁｮｳ","streetKana":"ｸﾛﾉ","prefecture":"岐阜県","city":"揖斐郡大野町","street":"黒野"},{"zipCode":"5010551","prefectureKana":"ｷﾞﾌｹﾝ","cityKana":"ｲﾋﾞｸﾞﾝｵｵﾉﾁｮｳ","streetKana":"ｺｴﾋﾞ","prefecture":"岐阜県","city":"揖斐郡大野町","street":"小衣斐"},{"zipCode":"5010554","prefectureKana":"ｷﾞﾌｹﾝ","cityKana":"ｲﾋﾞｸﾞﾝｵｵﾉﾁｮｳ","streetKana":"ｺﾞﾉﾘ","prefecture":"岐阜県","city":"揖斐郡大野町","street":"五之里"},{"zipCode":"5010515","prefectureKana":"ｷﾞﾌｹﾝ","cityKana":"ｲﾋﾞｸﾞﾝｵｵﾉﾁｮｳ","streetKana":"ｻｸﾗﾀﾞｲﾓﾝ","prefecture":"岐阜県","city":"揖斐郡大野町","street":"桜大門"},{"zipCode":"5010503","prefectureKana":"ｷﾞﾌｹﾝ","cityKana":"ｲﾋﾞｸﾞﾝｵｵﾉﾁｮｳ","streetKana":"ｼﾞﾅｲ","prefecture":"岐阜県","city":"揖斐郡大野町","street":"寺内"},{"zipCode":"5010532","prefectureKana":"ｷﾞﾌｹﾝ","cityKana":"ｲﾋﾞｸﾞﾝｵｵﾉﾁｮｳ","streetKana":"ｼﾓｲｿ","prefecture":"岐阜県","city":"揖斐郡大野町","street":"下磯"},{"zipCode":"5010523","prefectureKana":"ｷﾞﾌｹﾝ","cityKana":"ｲﾋﾞｸﾞﾝｵｵﾉﾁｮｳ","streetKana":"ｼﾓｶﾞﾀ","prefecture":"岐阜県","city":"揖斐郡大野町","street":"下方"},{"zipCode":"5010534","prefectureKana":"ｷﾞﾌｹﾝ","cityKana":"ｲﾋﾞｸﾞﾝｵｵﾉﾁｮｳ","streetKana":"ｼﾓｻﾞｸﾞﾗ","prefecture":"岐阜県","city":"揖斐郡大野町","street":"下座倉"},{"zipCode":"5010563","prefectureKana":"ｷﾞﾌｹﾝ","cityKana":"ｲﾋﾞｸﾞﾝｵｵﾉﾁｮｳ","streetKana":"ｾｺ","prefecture":"岐阜県","city":"揖斐郡大野町","street":"瀬古"},{"zipCode":"5010565","prefectureKana":"ｷﾞﾌｹﾝ","cityKana":"ｲﾋﾞｸﾞﾝｵｵﾉﾁｮｳ","streetKana":"ﾅｶﾉﾓﾄ","prefecture":"岐阜県","city":"揖斐郡大野町","street":"中之元"},{"zipCode":"5010514","prefectureKana":"ｷﾞﾌｹﾝ","cityKana":"ｲﾋﾞｸﾞﾝｵｵﾉﾁｮｳ","streetKana":"ﾆｼｶﾞﾀ","prefecture":"岐阜県","city":"揖斐郡大野町","street":"西方"},{"zipCode":"5010504","prefectureKana":"ｷﾞﾌｹﾝ","cityKana":"ｲﾋﾞｸﾞﾝｵｵﾉﾁｮｳ","streetKana":"ﾉ","prefecture":"岐阜県","city":"揖斐郡大野町","street":"野"},{"zipCode":"5010502","prefectureKana":"ｷﾞﾌｹﾝ","cityKana":"ｲﾋﾞｸﾞﾝｵｵﾉﾁｮｳ","streetKana":"ﾌﾙｶﾜ","prefecture":"岐阜県","city":"揖斐郡大野町","street":"古川"},{"zipCode":"5010533","prefectureKana":"ｷﾞﾌｹﾝ","cityKana":"ｲﾋﾞｸﾞﾝｵｵﾉﾁｮｳ","streetKana":"ﾎﾝｼﾞｮｳ","prefecture":"岐阜県","city":"揖斐郡大野町","street":"本庄"},{"zipCode":"5010562","prefectureKana":"ｷﾞﾌｹﾝ","cityKana":"ｲﾋﾞｸﾞﾝｵｵﾉﾁｮｳ","streetKana":"ﾏﾂﾔﾏ","prefecture":"岐阜県","city":"揖斐郡大野町","street":"松山"},{"zipCode":"5010553","prefectureKana":"ｷﾞﾌｹﾝ","cityKana":"ｲﾋﾞｸﾞﾝｵｵﾉﾁｮｳ","streetKana":"ﾐﾅﾐｶﾞﾀ","prefecture":"岐阜県","city":"揖斐郡大野町","street":"南方"},{"zipCode":"5010556","prefectureKana":"ｷﾞﾌｹﾝ","cityKana":"ｲﾋﾞｸﾞﾝｵｵﾉﾁｮｳ","streetKana":"ﾘｮｳｹ","prefecture":"岐阜県","city":"揖斐郡大野町","street":"領家"},{"zipCode":"5010525","prefectureKana":"ｷﾞﾌｹﾝ","cityKana":"ｲﾋﾞｸﾞﾝｵｵﾉﾁｮｳ","streetKana":"ﾛｸﾘ","prefecture":"岐阜県","city":"揖斐郡大野町","street":"六里"},{"zipCode":"5010400","prefectureKana":"ｷﾞﾌｹﾝ","cityKana":"ﾓﾄｽｸﾞﾝｷﾀｶﾞﾀﾁｮｳ","streetKana":"ｲｶﾆｹｲｻｲｶﾞﾅｲﾊﾞｱｲ","prefecture":"岐阜県","city":"本巣郡北方町","street":"以下に掲載がない場合"},{"zipCode":"5010424","prefectureKana":"ｷﾞﾌｹﾝ","cityKana":"ﾓﾄｽｸﾞﾝｷﾀｶﾞﾀﾁｮｳ","streetKana":"ｱｻﾋﾏﾁ","prefecture":"岐阜県","city":"本巣郡北方町","street":"朝日町"},{"zipCode":"5010432","prefectureKana":"ｷﾞﾌｹﾝ","cityKana":"ﾓﾄｽｸﾞﾝｷﾀｶﾞﾀﾁｮｳ","streetKana":"ｲｯﾎﾟﾝﾏﾂ","prefecture":"岐阜県","city":"本巣郡北方町","street":"一本松"},{"zipCode":"5010425","prefectureKana":"ｷﾞﾌｹﾝ","cityKana":"ﾓﾄｽｸﾞﾝｷﾀｶﾞﾀﾁｮｳ","streetKana":"ｶﾓ","prefecture":"岐阜県","city":"本巣郡北方町","street":"加茂"},{"zipCode":"5010431","prefectureKana":"ｷﾞﾌｹﾝ","cityKana":"ﾓﾄｽｸﾞﾝｷﾀｶﾞﾀﾁｮｳ","streetKana":"ｷﾀｶﾞﾀ","prefecture":"岐阜県","city":"本巣郡北方町","street":"北方"},{"zipCode":"5010434","prefectureKana":"ｷﾞﾌｹﾝ","cityKana":"ﾓﾄｽｸﾞﾝｷﾀｶﾞﾀﾁｮｳ","streetKana":"ｺﾔﾅｷﾞ","prefecture":"岐阜県","city":"本巣郡北方町","street":"小柳"},{"zipCode":"5010427","prefectureKana":"ｷﾞﾌｹﾝ","cityKana":"ﾓﾄｽｸﾞﾝｷﾀｶﾞﾀﾁｮｳ","streetKana":"ｻｶｴﾏﾁ","prefecture":"岐阜県","city":"本巣郡北方町","street":"栄町"},{"zipCode":"5010422","prefectureKana":"ｷﾞﾌｹﾝ","cityKana":"ﾓﾄｽｸﾞﾝｷﾀｶﾞﾀﾁｮｳ","streetKana":"ｼﾊﾞﾊﾗﾅｶﾏﾁ","prefecture":"岐阜県","city":"本巣郡北方町","street":"芝原中町"},{"zipCode":"5010423","prefectureKana":"ｷﾞﾌｹﾝ","cityKana":"ﾓﾄｽｸﾞﾝｷﾀｶﾞﾀﾁｮｳ","streetKana":"ｼﾊﾞﾊﾗﾋｶﾞｼﾏﾁ","prefecture":"岐阜県","city":"本巣郡北方町","street":"芝原東町"},{"zipCode":"5010421","prefectureKana":"ｷﾞﾌｹﾝ","cityKana":"ﾓﾄｽｸﾞﾝｷﾀｶﾞﾀﾁｮｳ","streetKana":"ｼﾊﾞﾊﾗﾆｼﾏﾁ","prefecture":"岐阜県","city":"本巣郡北方町","street":"芝原西町"},{"zipCode":"5010437","prefectureKana":"ｷﾞﾌｹﾝ","cityKana":"ﾓﾄｽｸﾞﾝｷﾀｶﾞﾀﾁｮｳ","streetKana":"ｼﾐｽﾞ","prefecture":"岐阜県","city":"本巣郡北方町","street":"清水"},{"zipCode":"5010441","prefectureKana":"ｷﾞﾌｹﾝ","cityKana":"ﾓﾄｽｸﾞﾝｷﾀｶﾞﾀﾁｮｳ","streetKana":"ｽｼﾞｶｲ","prefecture":"岐阜県","city":"本巣郡北方町","street":"曲路"},{"zipCode":"5010442","prefectureKana":"ｷﾞﾌｹﾝ","cityKana":"ﾓﾄｽｸﾞﾝｷﾀｶﾞﾀﾁｮｳ","streetKana":"ｽｼﾞｶｲﾋｶﾞｼ","prefecture":"岐阜県","city":"本巣郡北方町","street":"曲路東"},{"zipCode":"5010458","prefectureKana":"ｷﾞﾌｹﾝ","cityKana":"ﾓﾄｽｸﾞﾝｷﾀｶﾞﾀﾁｮｳ","streetKana":"ﾀｶﾔ","prefecture":"岐阜県","city":"本巣郡北方町","street":"高屋"},{"zipCode":"5010452","prefectureKana":"ｷﾞﾌｹﾝ","cityKana":"ﾓﾄｽｸﾞﾝｷﾀｶﾞﾀﾁｮｳ","streetKana":"ﾀｶﾔｲｼｽﾞｴ","prefecture":"岐阜県","city":"本巣郡北方町","street":"高屋石末"},{"zipCode":"5010455","prefectureKana":"ｷﾞﾌｹﾝ","cityKana":"ﾓﾄｽｸﾞﾝｷﾀｶﾞﾀﾁｮｳ","streetKana":"ﾀｶﾔｲｾﾃﾞﾝ","prefecture":"岐阜県","city":"本巣郡北方町","street":"高屋伊勢田"},{"zipCode":"5010454","prefectureKana":"ｷﾞﾌｹﾝ","cityKana":"ﾓﾄｽｸﾞﾝｷﾀｶﾞﾀﾁｮｳ","streetKana":"ﾀｶﾔｼﾗｷ","prefecture":"岐阜県","city":"本巣郡北方町","street":"高屋白木"},{"zipCode":"5010456","prefectureKana":"ｷﾞﾌｹﾝ","cityKana":"ﾓﾄｽｸﾞﾝｷﾀｶﾞﾀﾁｮｳ","streetKana":"ﾀｶﾔｼﾞｮｳﾘ","prefecture":"岐阜県","city":"本巣郡北方町","street":"高屋条里"},{"zipCode":"5010457","prefectureKana":"ｷﾞﾌｹﾝ","cityKana":"ﾓﾄｽｸﾞﾝｷﾀｶﾞﾀﾁｮｳ","streetKana":"ﾀｶﾔﾀｲｼ","prefecture":"岐阜県","city":"本巣郡北方町","street":"高屋太子"},{"zipCode":"5010451","prefectureKana":"ｷﾞﾌｹﾝ","cityKana":"ﾓﾄｽｸﾞﾝｷﾀｶﾞﾀﾁｮｳ","streetKana":"ﾀｶﾔﾁｮｸｼ","prefecture":"岐阜県","city":"本巣郡北方町","street":"高屋勅使"},{"zipCode":"5010453","prefectureKana":"ｷﾞﾌｹﾝ","cityKana":"ﾓﾄｽｸﾞﾝｷﾀｶﾞﾀﾁｮｳ","streetKana":"ﾀｶﾔﾌﾞﾝｷﾞ","prefecture":"岐阜県","city":"本巣郡北方町","street":"高屋分木"},{"zipCode":"5010433","prefectureKana":"ｷﾞﾌｹﾝ","cityKana":"ﾓﾄｽｸﾞﾝｷﾀｶﾞﾀﾁｮｳ","streetKana":"ﾃﾝｸﾞﾄﾞｳ","prefecture":"岐阜県","city":"本巣郡北方町","street":"天狗堂"},{"zipCode":"5010446","prefectureKana":"ｷﾞﾌｹﾝ","cityKana":"ﾓﾄｽｸﾞﾝｷﾀｶﾞﾀﾁｮｳ","streetKana":"ﾊｼﾗﾓﾄ","prefecture":"岐阜県","city":"本巣郡北方町","street":"柱本"},{"zipCode":"5010443","prefectureKana":"ｷﾞﾌｹﾝ","cityKana":"ﾓﾄｽｸﾞﾝｷﾀｶﾞﾀﾁｮｳ","streetKana":"ﾊｼﾗﾓﾄｲｹﾉｶﾞｼﾗ","prefecture":"岐阜県","city":"本巣郡北方町","street":"柱本池之頭"},{"zipCode":"5010444","prefectureKana":"ｷﾞﾌｹﾝ","cityKana":"ﾓﾄｽｸﾞﾝｷﾀｶﾞﾀﾁｮｳ","streetKana":"ﾊｼﾗﾓﾄｼﾗﾂﾎﾞ","prefecture":"岐阜県","city":"本巣郡北方町","street":"柱本白坪"},{"zipCode":"5010445","prefectureKana":"ｷﾞﾌｹﾝ","cityKana":"ﾓﾄｽｸﾞﾝｷﾀｶﾞﾀﾁｮｳ","streetKana":"ﾊｼﾗﾓﾄﾐﾅﾐ","prefecture":"岐阜県","city":"本巣郡北方町","street":"柱本南"},{"zipCode":"5010439","prefectureKana":"ｷﾞﾌｹﾝ","cityKana":"ﾓﾄｽｸﾞﾝｷﾀｶﾞﾀﾁｮｳ","streetKana":"ﾊｾｶﾞﾜ","prefecture":"岐阜県","city":"本巣郡北方町","street":"長谷川"},{"zipCode":"5010436","prefectureKana":"ｷﾞﾌｹﾝ","cityKana":"ﾓﾄｽｸﾞﾝｷﾀｶﾞﾀﾁｮｳ","streetKana":"ﾊｾｶﾞﾜﾆｼ","prefecture":"岐阜県","city":"本巣郡北方町","street":"長谷川西"},{"zipCode":"5010435","prefectureKana":"ｷﾞﾌｹﾝ","cityKana":"ﾓﾄｽｸﾞﾝｷﾀｶﾞﾀﾁｮｳ","streetKana":"ﾊﾙｷﾏﾁ","prefecture":"岐阜県","city":"本巣郡北方町","street":"春来町"},{"zipCode":"5010426","prefectureKana":"ｷﾞﾌｹﾝ","cityKana":"ﾓﾄｽｸﾞﾝｷﾀｶﾞﾀﾁｮｳ","streetKana":"ﾋｶﾞｼｶﾓ","prefecture":"岐阜県","city":"本巣郡北方町","street":"東加茂"},{"zipCode":"5010438","prefectureKana":"ｷﾞﾌｹﾝ","cityKana":"ﾓﾄｽｸﾞﾝｷﾀｶﾞﾀﾁｮｳ","streetKana":"ﾍｲｾｲ","prefecture":"岐阜県","city":"本巣郡北方町","street":"平成"},{"zipCode":"5010428","prefectureKana":"ｷﾞﾌｹﾝ","cityKana":"ﾓﾄｽｸﾞﾝｷﾀｶﾞﾀﾁｮｳ","streetKana":"ﾜｶﾐﾔ","prefecture":"岐阜県","city":"本巣郡北方町","street":"若宮"},{"zipCode":"5013300","prefectureKana":"ｷﾞﾌｹﾝ","cityKana":"ｶﾓｸﾞﾝﾄﾐｶﾁｮｳ","streetKana":"ｲｶﾆｹｲｻｲｶﾞﾅｲﾊﾞｱｲ","prefecture":"岐阜県","city":"加茂郡富加町","street":"以下に掲載がない場合"},{"zipCode":"5013307","prefectureKana":"ｷﾞﾌｹﾝ","cityKana":"ｶﾓｸﾞﾝﾄﾐｶﾁｮｳ","streetKana":"ｵｵﾋﾗｶﾞ","prefecture":"岐阜県","city":"加茂郡富加町","street":"大平賀"},{"zipCode":"5013306","prefectureKana":"ｷﾞﾌｹﾝ","cityKana":"ｶﾓｸﾞﾝﾄﾐｶﾁｮｳ","streetKana":"ｵｵﾔﾏ","prefecture":"岐阜県","city":"加茂郡富加町","street":"大山"},{"zipCode":"5013301","prefectureKana":"ｷﾞﾌｹﾝ","cityKana":"ｶﾓｸﾞﾝﾄﾐｶﾁｮｳ","streetKana":"ｶｼﾞﾀ","prefecture":"岐阜県","city":"加茂郡富加町","street":"加治田"},{"zipCode":"5013304","prefectureKana":"ｷﾞﾌｹﾝ","cityKana":"ｶﾓｸﾞﾝﾄﾐｶﾁｮｳ","streetKana":"ﾀｶﾊﾀ","prefecture":"岐阜県","city":"加茂郡富加町","street":"高畑"},{"zipCode":"5013305","prefectureKana":"ｷﾞﾌｹﾝ","cityKana":"ｶﾓｸﾞﾝﾄﾐｶﾁｮｳ","streetKana":"ﾀｷﾀﾞ","prefecture":"岐阜県","city":"加茂郡富加町","street":"滝田"},{"zipCode":"5013303","prefectureKana":"ｷﾞﾌｹﾝ","cityKana":"ｶﾓｸﾞﾝﾄﾐｶﾁｮｳ","streetKana":"ﾊﾆｭｳ","prefecture":"岐阜県","city":"加茂郡富加町","street":"羽生"},{"zipCode":"5013302","prefectureKana":"ｷﾞﾌｹﾝ","cityKana":"ｶﾓｸﾞﾝﾄﾐｶﾁｮｳ","streetKana":"ﾕｳﾀﾞ","prefecture":"岐阜県","city":"加茂郡富加町","street":"夕田"},{"zipCode":"5015600","prefectureKana":"ｷﾞﾌｹﾝ","cityKana":"ｵｵﾉｸﾞﾝｼﾗｶﾜﾑﾗ","streetKana":"ｲｶﾆｹｲｻｲｶﾞﾅｲﾊﾞｱｲ","prefecture":"岐阜県","city":"大野郡白川村","street":"以下に掲載がない場合"},{"zipCode":"5015622","prefectureKana":"ｷﾞﾌｹﾝ","cityKana":"ｵｵﾉｸﾞﾝｼﾗｶﾜﾑﾗ","streetKana":"ｱｼｸﾗ","prefecture":"岐阜県","city":"大野郡白川村","street":"芦倉"},{"zipCode":"5015625","prefectureKana":"ｷﾞﾌｹﾝ","cityKana":"ｵｵﾉｸﾞﾝｼﾗｶﾜﾑﾗ","streetKana":"ｲｲｼﾏ","prefecture":"岐阜県","city":"大野郡白川村","street":"飯島"},{"zipCode":"5015624","prefectureKana":"ｷﾞﾌｹﾝ","cityKana":"ｵｵﾉｸﾞﾝｼﾗｶﾜﾑﾗ","streetKana":"ｳｹｶﾞﾊﾗ","prefecture":"岐阜県","city":"大野郡白川村","street":"有家ケ原"},{"zipCode":"5015628","prefectureKana":"ｷﾞﾌｹﾝ","cityKana":"ｵｵﾉｸﾞﾝｼﾗｶﾜﾑﾗ","streetKana":"ｵｵﾏｷ","prefecture":"岐阜県","city":"大野郡白川村","street":"大牧"},{"zipCode":"5015627","prefectureKana":"ｷﾞﾌｹﾝ","cityKana":"ｵｵﾉｸﾞﾝｼﾗｶﾜﾑﾗ","streetKana":"ｵｷﾞﾏﾁ","prefecture":"岐阜県","city":"大野郡白川村","street":"荻町"},{"zipCode":"5015502","prefectureKana":"ｷﾞﾌｹﾝ","cityKana":"ｵｵﾉｸﾞﾝｼﾗｶﾜﾑﾗ","streetKana":"ｷﾀﾞﾆ","prefecture":"岐阜県","city":"大野郡白川村","street":"木谷"},{"zipCode":"5015621","prefectureKana":"ｷﾞﾌｹﾝ","cityKana":"ｵｵﾉｸﾞﾝｼﾗｶﾜﾑﾗ","streetKana":"ｺｼﾞﾗｶﾜ","prefecture":"岐阜県","city":"大野郡白川村","street":"小白川"},{"zipCode":"5015626","prefectureKana":"ｷﾞﾌｹﾝ","cityKana":"ｵｵﾉｸﾞﾝｼﾗｶﾜﾑﾗ","streetKana":"ｼﾏ","prefecture":"岐阜県","city":"大野郡白川村","street":"島"},{"zipCode":"5015623","prefectureKana":"ｷﾞﾌｹﾝ","cityKana":"ｵｵﾉｸﾞﾝｼﾗｶﾜﾑﾗ","streetKana":"ﾂﾊﾞｷﾊﾗ","prefecture":"岐阜県","city":"大野郡白川村","street":"椿原"},{"zipCode":"5015503","prefectureKana":"ｷﾞﾌｹﾝ","cityKana":"ｵｵﾉｸﾞﾝｼﾗｶﾜﾑﾗ","streetKana":"ﾅｶﾞｾ","prefecture":"岐阜県","city":"大野郡白川村","street":"長瀬"},{"zipCode":"5015629","prefectureKana":"ｷﾞﾌｹﾝ","cityKana":"ｵｵﾉｸﾞﾝｼﾗｶﾜﾑﾗ","streetKana":"ﾊﾄｶﾞﾔ","prefecture":"岐阜県","city":"大野郡白川村","street":"鳩谷"},{"zipCode":"5015507","prefectureKana":"ｷﾞﾌｹﾝ","cityKana":"ｵｵﾉｸﾞﾝｼﾗｶﾜﾑﾗ","streetKana":"ﾋﾗｾ","prefecture":"岐阜県","city":"大野郡白川村","street":"平瀬"},{"zipCode":"5015504","prefectureKana":"ｷﾞﾌｹﾝ","cityKana":"ｵｵﾉｸﾞﾝｼﾗｶﾜﾑﾗ","streetKana":"ﾌｸｼﾏ","prefecture":"岐阜県","city":"大野郡白川村","street":"福島"},{"zipCode":"5015501","prefectureKana":"ｷﾞﾌｹﾝ","cityKana":"ｵｵﾉｸﾞﾝｼﾗｶﾜﾑﾗ","streetKana":"ﾎｷﾜｷ","prefecture":"岐阜県","city":"大野郡白川村","street":"保木脇"},{"zipCode":"5015620","prefectureKana":"ｷﾞﾌｹﾝ","cityKana":"ｵｵﾉｸﾞﾝｼﾗｶﾜﾑﾗ","streetKana":"ﾏｶﾞﾘ","prefecture":"岐阜県","city":"大野郡白川村","street":"馬狩"},{"zipCode":"5015505","prefectureKana":"ｷﾞﾌｹﾝ","cityKana":"ｵｵﾉｸﾞﾝｼﾗｶﾜﾑﾗ","streetKana":"ﾏｷ","prefecture":"岐阜県","city":"大野郡白川村","street":"牧"},{"zipCode":"5015506","prefectureKana":"ｷﾞﾌｹﾝ","cityKana":"ｵｵﾉｸﾞﾝｼﾗｶﾜﾑﾗ","streetKana":"ﾐﾎﾞﾛ","prefecture":"岐阜県","city":"大野郡白川村","street":"御母衣"}]