[{"zipCode":"5110000","prefectureKana":"ﾐｴｹﾝ","cityKana":"ｸﾜﾅｼ","streetKana":"ｲｶﾆｹｲｻｲｶﾞﾅｲﾊﾞｱｲ","prefecture":"三重県","city":"桑名市","street":"以下に掲載がない場合"},{"zipCode":"5110016","prefectureKana":"ﾐｴｹﾝ","cityKana":"ｸﾜﾅｼ","streetKana":"ｱｲｵｲﾁｮｳ","prefecture":"三重県","city":"桑名市","street":"相生町"},{"zipCode":"5110052","prefectureKana":"ﾐｴｹﾝ","cityKana":"ｸﾜﾅｼ","streetKana":"ｱｲｶﾜﾁｮｳ","prefecture":"三重県","city":"桑名市","street":"相川町"},{"zipCode":"5110817","prefectureKana":"ﾐｴｹﾝ","cityKana":"ｸﾜﾅｼ","streetKana":"ｱｵﾊﾞﾁｮｳ","prefecture":"三重県","city":"桑名市","street":"青葉町"},{"zipCode":"5110033","prefectureKana":"ﾐｴｹﾝ","cityKana":"ｸﾜﾅｼ","streetKana":"ｱｶｽｶ","prefecture":"三重県","city":"桑名市","street":"赤須賀"},{"zipCode":"5110934","prefectureKana":"ﾐｴｹﾝ","cityKana":"ｸﾜﾅｼ","streetKana":"ｱｺｵ","prefecture":"三重県","city":"桑名市","street":"赤尾"},{"zipCode":"5110935","prefectureKana":"ﾐｴｹﾝ","cityKana":"ｸﾜﾅｼ","streetKana":"ｱｺｵﾀﾞｲ","prefecture":"三重県","city":"桑名市","street":"赤尾台"},{"zipCode":"5110084","prefectureKana":"ﾐｴｹﾝ","cityKana":"ｸﾜﾅｼ","streetKana":"ｱﾌﾞﾗﾏﾁ","prefecture":"三重県","city":"桑名市","street":"油町"},{"zipCode":"5110036","prefectureKana":"ﾐｴｹﾝ","cityKana":"ｸﾜﾅｼ","streetKana":"ｲｶﾞﾏﾁ","prefecture":"三重県","city":"桑名市","street":"伊賀町"},{"zipCode":"5110838","prefectureKana":"ﾐｴｹﾝ","cityKana":"ｸﾜﾅｼ","streetKana":"ｲｽﾞﾐ","prefecture":"三重県","city":"桑名市","street":"和泉"},{"zipCode":"5110046","prefectureKana":"ﾐｴｹﾝ","cityKana":"ｸﾜﾅｼ","streetKana":"ｲｯｼｷﾏﾁ","prefecture":"三重県","city":"桑名市","street":"一色町"},{"zipCode":"5110017","prefectureKana":"ﾐｴｹﾝ","cityKana":"ｸﾜﾅｼ","streetKana":"ｲﾏｶﾀﾏﾁ","prefecture":"三重県","city":"桑名市","street":"今片町"},{"zipCode":"5110006","prefectureKana":"ﾐｴｹﾝ","cityKana":"ｸﾜﾅｼ","streetKana":"ｲﾏｷﾀﾏﾁ","prefecture":"三重県","city":"桑名市","street":"今北町"},{"zipCode":"5110801","prefectureKana":"ﾐｴｹﾝ","cityKana":"ｸﾜﾅｼ","streetKana":"ｲﾏｼﾞﾏ","prefecture":"三重県","city":"桑名市","street":"今島"},{"zipCode":"5110018","prefectureKana":"ﾐｴｹﾝ","cityKana":"ｸﾜﾅｼ","streetKana":"ｲﾏﾅｶﾏﾁ","prefecture":"三重県","city":"桑名市","street":"今中町"},{"zipCode":"5110086","prefectureKana":"ﾐｴｹﾝ","cityKana":"ｸﾜﾅｼ","streetKana":"ｲﾘｴﾖｼﾏﾁ","prefecture":"三重県","city":"桑名市","street":"入江葭町"},{"zipCode":"5110825","prefectureKana":"ﾐｴｹﾝ","cityKana":"ｸﾜﾅｼ","streetKana":"ｳｴﾉ","prefecture":"三重県","city":"桑名市","street":"上野"},{"zipCode":"5110038","prefectureKana":"ﾐｴｹﾝ","cityKana":"ｸﾜﾅｼ","streetKana":"ｳﾁﾎﾞﾘ","prefecture":"三重県","city":"桑名市","street":"内堀"},{"zipCode":"5110822","prefectureKana":"ﾐｴｹﾝ","cityKana":"ｸﾜﾅｼ","streetKana":"ｳﾏﾐﾁ","prefecture":"三重県","city":"桑名市","street":"馬道"},{"zipCode":"5110815","prefectureKana":"ﾐｴｹﾝ","cityKana":"ｸﾜﾅｼ","streetKana":"ｳﾒｿﾞﾉﾄﾞｵﾘ","prefecture":"三重県","city":"桑名市","street":"梅園通"},{"zipCode":"5110071","prefectureKana":"ﾐｴｹﾝ","cityKana":"ｸﾜﾅｼ","streetKana":"ｴｷﾓﾄﾁｮｳ","prefecture":"三重県","city":"桑名市","street":"駅元町"},{"zipCode":"5110022","prefectureKana":"ﾐｴｹﾝ","cityKana":"ｸﾜﾅｼ","streetKana":"ｴﾄﾞﾏﾁ","prefecture":"三重県","city":"桑名市","street":"江戸町"},{"zipCode":"5110836","prefectureKana":"ﾐｴｹﾝ","cityKana":"ｸﾜﾅｼ","streetKana":"ｴﾊﾞ","prefecture":"三重県","city":"桑名市","street":"江場"},{"zipCode":"5110848","prefectureKana":"ﾐｴｹﾝ","cityKana":"ｸﾜﾅｼ","streetKana":"ｵｵｶﾞｲｽ","prefecture":"三重県","city":"桑名市","street":"大貝須"},{"zipCode":"5110947","prefectureKana":"ﾐｴｹﾝ","cityKana":"ｸﾜﾅｼ","streetKana":"ｵｵﾅｶｼﾝﾃﾞﾝ","prefecture":"三重県","city":"桑名市","street":"大仲新田"},{"zipCode":"5110903","prefectureKana":"ﾐｴｹﾝ","cityKana":"ｸﾜﾅｼ","streetKana":"ｵｵﾔﾏﾀﾞ","prefecture":"三重県","city":"桑名市","street":"大山田"},{"zipCode":"5110812","prefectureKana":"ﾐｴｹﾝ","cityKana":"ｸﾜﾅｼ","streetKana":"ｵﾉﾔﾏ","prefecture":"三重県","city":"桑名市","street":"尾野山"},{"zipCode":"5110861","prefectureKana":"ﾐｴｹﾝ","cityKana":"ｸﾜﾅｼ","streetKana":"ｶｷﾂﾞｶｼﾝﾃﾞﾝ","prefecture":"三重県","city":"桑名市","street":"蠣塚新田"},{"zipCode":"5110829","prefectureKana":"ﾐｴｹﾝ","cityKana":"ｸﾜﾅｼ","streetKana":"ｶｸﾞﾗﾁｮｳ","prefecture":"三重県","city":"桑名市","street":"神楽町"},{"zipCode":"5110067","prefectureKana":"ﾐｴｹﾝ","cityKana":"ｸﾜﾅｼ","streetKana":"ｶｹﾋ","prefecture":"三重県","city":"桑名市","street":"掛樋"},{"zipCode":"5110047","prefectureKana":"ﾐｴｹﾝ","cityKana":"ｸﾜﾅｼ","streetKana":"ｶｼﾞﾏﾁ","prefecture":"三重県","city":"桑名市","street":"鍜冶町"},{"zipCode":"5110012","prefectureKana":"ﾐｴｹﾝ","cityKana":"ｸﾜﾅｼ","streetKana":"ｶｽｶﾞﾁｮｳ","prefecture":"三重県","city":"桑名市","street":"春日町"},{"zipCode":"5110827","prefectureKana":"ﾐｴｹﾝ","cityKana":"ｸﾜﾅｼ","streetKana":"ｶｽﾐﾁｮｳ","prefecture":"三重県","city":"桑名市","street":"霞町"},{"zipCode":"5110081","prefectureKana":"ﾐｴｹﾝ","cityKana":"ｸﾜﾅｼ","streetKana":"ｶﾀﾏﾁ","prefecture":"三重県","city":"桑名市","street":"片町"},{"zipCode":"5110001","prefectureKana":"ﾐｴｹﾝ","cityKana":"ｸﾜﾅｼ","streetKana":"ｶﾐﾉﾜｼﾝﾃﾞﾝ","prefecture":"三重県","city":"桑名市","street":"上之輪新田"},{"zipCode":"5110809","prefectureKana":"ﾐｴｹﾝ","cityKana":"ｸﾜﾅｼ","streetKana":"ｶﾐﾌｶﾔﾍﾞ","prefecture":"三重県","city":"桑名市","street":"上深谷部"},{"zipCode":"5110044","prefectureKana":"ﾐｴｹﾝ","cityKana":"ｸﾜﾅｼ","streetKana":"ｶﾔﾏﾁ","prefecture":"三重県","city":"桑名市","street":"萱町"},{"zipCode":"5110941","prefectureKana":"ﾐｴｹﾝ","cityKana":"ｸﾜﾅｼ","streetKana":"ｶﾚｶﾞﾜ","prefecture":"三重県","city":"桑名市","street":"嘉例川"},{"zipCode":"5110021","prefectureKana":"ﾐｴｹﾝ","cityKana":"ｸﾜﾅｼ","streetKana":"ｶﾜｸﾞﾁﾁｮｳ","prefecture":"三重県","city":"桑名市","street":"川口町"},{"zipCode":"5110802","prefectureKana":"ﾐｴｹﾝ","cityKana":"ｸﾜﾅｼ","streetKana":"ｶﾜｻｷﾁｮｳ","prefecture":"三重県","city":"桑名市","street":"川崎町"},{"zipCode":"5110024","prefectureKana":"ﾐｴｹﾝ","cityKana":"ｸﾜﾅｼ","streetKana":"ｷﾀｳｵﾏﾁ","prefecture":"三重県","city":"桑名市","street":"北魚町"},{"zipCode":"5110804","prefectureKana":"ﾐｴｹﾝ","cityKana":"ｸﾜﾅｼ","streetKana":"ｷﾀｶﾞﾜﾗﾀﾞｲ","prefecture":"三重県","city":"桑名市","street":"北川原台"},{"zipCode":"5110073","prefectureKana":"ﾐｴｹﾝ","cityKana":"ｸﾜﾅｼ","streetKana":"ｷﾀﾃﾗﾏﾁ","prefecture":"三重県","city":"桑名市","street":"北寺町"},{"zipCode":"5110066","prefectureKana":"ﾐｴｹﾝ","cityKana":"ｸﾜﾅｼ","streetKana":"ｷﾀﾅﾍﾞﾔﾏﾁ","prefecture":"三重県","city":"桑名市","street":"北鍋屋町"},{"zipCode":"5110819","prefectureKana":"ﾐｴｹﾝ","cityKana":"ｸﾜﾅｼ","streetKana":"ｷﾀﾍﾞｯｼﾖ","prefecture":"三重県","city":"桑名市","street":"北別所"},{"zipCode":"5110851","prefectureKana":"ﾐｴｹﾝ","cityKana":"ｸﾜﾅｼ","streetKana":"ｷﾎﾞｳｶﾞｵｶ","prefecture":"三重県","city":"桑名市","street":"希望ケ丘"},{"zipCode":"5110063","prefectureKana":"ﾐｴｹﾝ","cityKana":"ｸﾜﾅｼ","streetKana":"ｷｮｳﾊﾞｼﾁｮｳ","prefecture":"三重県","city":"桑名市","street":"京橋町"},{"zipCode":"5110039","prefectureKana":"ﾐｴｹﾝ","cityKana":"ｸﾜﾅｼ","streetKana":"ｷｮｳﾏﾁ","prefecture":"三重県","city":"桑名市","street":"京町"},{"zipCode":"5110810","prefectureKana":"ﾐｴｹﾝ","cityKana":"ｸﾜﾅｼ","streetKana":"ｷﾖﾀｹﾉｵｶ","prefecture":"三重県","city":"桑名市","street":"清竹の丘"},{"zipCode":"5110009","prefectureKana":"ﾐｴｹﾝ","cityKana":"ｸﾜﾅｼ","streetKana":"ｸﾜﾅ","prefecture":"三重県","city":"桑名市","street":"桑名"},{"zipCode":"5110923","prefectureKana":"ﾐｴｹﾝ","cityKana":"ｸﾜﾅｼ","streetKana":"ｸﾜﾍﾞ","prefecture":"三重県","city":"桑名市","street":"桑部"},{"zipCode":"5110837","prefectureKana":"ﾐｴｹﾝ","cityKana":"ｸﾜﾅｼ","streetKana":"ｺｲｽﾞﾐ","prefecture":"三重県","city":"桑名市","street":"小泉"},{"zipCode":"5110841","prefectureKana":"ﾐｴｹﾝ","cityKana":"ｸﾜﾅｼ","streetKana":"ｺｶﾞｲｽ","prefecture":"三重県","city":"桑名市","street":"小貝須"},{"zipCode":"5110946","prefectureKana":"ﾐｴｹﾝ","cityKana":"ｸﾜﾅｼ","streetKana":"ｺﾞﾀﾝﾀﾞ","prefecture":"三重県","city":"桑名市","street":"五反田"},{"zipCode":"5110061","prefectureKana":"ﾐｴｹﾝ","cityKana":"ｸﾜﾅｼ","streetKana":"ｺﾄﾌﾞｷﾁｮｳ","prefecture":"三重県","city":"桑名市","street":"寿町"},{"zipCode":"5110085","prefectureKana":"ﾐｴｹﾝ","cityKana":"ｸﾜﾅｼ","streetKana":"ｺﾝﾔﾏﾁ","prefecture":"三重県","city":"桑名市","street":"紺屋町"},{"zipCode":"5110939","prefectureKana":"ﾐｴｹﾝ","cityKana":"ｸﾜﾅｼ","streetKana":"ｻｶｲ","prefecture":"三重県","city":"桑名市","street":"坂井"},{"zipCode":"5110813","prefectureKana":"ﾐｴｹﾝ","cityKana":"ｸﾜﾅｼ","streetKana":"ｻｸﾗﾄﾞｵﾘ","prefecture":"三重県","city":"桑名市","street":"桜通"},{"zipCode":"5110868","prefectureKana":"ﾐｴｹﾝ","cityKana":"ｸﾜﾅｼ","streetKana":"ｻｸﾗﾉｵｶ","prefecture":"三重県","city":"桑名市","street":"さくらの丘"},{"zipCode":"5110913","prefectureKana":"ﾐｴｹﾝ","cityKana":"ｸﾜﾅｼ","streetKana":"ｻﾄﾏﾁ","prefecture":"三重県","city":"桑名市","street":"里町"},{"zipCode":"5110075","prefectureKana":"ﾐｴｹﾝ","cityKana":"ｸﾜﾅｼ","streetKana":"ｻﾝｴｲﾁｮｳ","prefecture":"三重県","city":"桑名市","street":"三栄町"},{"zipCode":"5110007","prefectureKana":"ﾐｴｹﾝ","cityKana":"ｸﾜﾅｼ","streetKana":"ｻﾝｸﾞｳﾄﾞｵﾘ","prefecture":"三重県","city":"桑名市","street":"参宮通"},{"zipCode":"5110031","prefectureKana":"ﾐｴｹﾝ","cityKana":"ｸﾜﾅｼ","streetKana":"ｻﾝﾉﾏﾙ","prefecture":"三重県","city":"桑名市","street":"三之丸"},{"zipCode":"5110816","prefectureKana":"ﾐｴｹﾝ","cityKana":"ｸﾜﾅｼ","streetKana":"ｼｵﾐﾁｮｳ","prefecture":"三重県","city":"桑名市","street":"汐見町"},{"zipCode":"5110824","prefectureKana":"ﾐｴｹﾝ","cityKana":"ｸﾜﾅｼ","streetKana":"ｼｹﾞﾏﾂｼﾝﾃﾞﾝ","prefecture":"三重県","city":"桑名市","street":"繁松新田"},{"zipCode":"5110034","prefectureKana":"ﾐｴｹﾝ","cityKana":"ｸﾜﾅｼ","streetKana":"ｼﾞｿﾞｳ","prefecture":"三重県","city":"桑名市","street":"地蔵"},{"zipCode":"5110937","prefectureKana":"ﾐｴｹﾝ","cityKana":"ｸﾜﾅｼ","streetKana":"ｼﾁ","prefecture":"三重県","city":"桑名市","street":"志知"},{"zipCode":"5110936","prefectureKana":"ﾐｴｹﾝ","cityKana":"ｸﾜﾅｼ","streetKana":"ｼﾏﾀﾞ","prefecture":"三重県","city":"桑名市","street":"島田"},{"zipCode":"5110019","prefectureKana":"ﾐｴｹﾝ","cityKana":"ｸﾜﾅｼ","streetKana":"ｼﾐｽﾞﾁｮｳ","prefecture":"三重県","city":"桑名市","street":"清水町"},{"zipCode":"5110808","prefectureKana":"ﾐｴｹﾝ","cityKana":"ｸﾜﾅｼ","streetKana":"ｼﾓﾌｶﾔﾍﾞ","prefecture":"三重県","city":"桑名市","street":"下深谷部"},{"zipCode":"5110846","prefectureKana":"ﾐｴｹﾝ","cityKana":"ｸﾜﾅｼ","streetKana":"ｼﾞｮｳﾅﾝｶﾔﾏﾁ","prefecture":"三重県","city":"桑名市","street":"城南萱町"},{"zipCode":"5110083","prefectureKana":"ﾐｴｹﾝ","cityKana":"ｸﾜﾅｼ","streetKana":"ｼｮｸﾆﾝﾏﾁ","prefecture":"三重県","city":"桑名市","street":"職人町"},{"zipCode":"5110924","prefectureKana":"ﾐｴｹﾝ","cityKana":"ｸﾜﾅｼ","streetKana":"ｼﾛﾔﾏﾀﾞｲ","prefecture":"三重県","city":"桑名市","street":"城山台"},{"zipCode":"5110855","prefectureKana":"ﾐｴｹﾝ","cityKana":"ｸﾜﾅｼ","streetKana":"ｼﾝｸﾗﾓﾁ","prefecture":"三重県","city":"桑名市","street":"新倉持"},{"zipCode":"5110866","prefectureKana":"ﾐｴｹﾝ","cityKana":"ｸﾜﾅｼ","streetKana":"ｼﾝｾｲﾁｮｳ","prefecture":"三重県","city":"桑名市","street":"神成町"},{"zipCode":"5110832","prefectureKana":"ﾐｴｹﾝ","cityKana":"ｸﾜﾅｼ","streetKana":"ｼﾝﾁ","prefecture":"三重県","city":"桑名市","street":"新地"},{"zipCode":"5110064","prefectureKana":"ﾐｴｹﾝ","cityKana":"ｸﾜﾅｼ","streetKana":"ｼﾝﾁｸﾁｮｳ","prefecture":"三重県","city":"桑名市","street":"新築町"},{"zipCode":"5110863","prefectureKana":"ﾐｴｹﾝ","cityKana":"ｸﾜﾅｼ","streetKana":"ｼﾝﾆｼｶﾀ","prefecture":"三重県","city":"桑名市","street":"新西方"},{"zipCode":"5110048","prefectureKana":"ﾐｴｹﾝ","cityKana":"ｸﾜﾅｼ","streetKana":"ｼﾝﾏﾁ","prefecture":"三重県","city":"桑名市","street":"新町"},{"zipCode":"5110043","prefectureKana":"ﾐｴｹﾝ","cityKana":"ｸﾜﾅｼ","streetKana":"ｼﾝﾔｼｷ","prefecture":"三重県","city":"桑名市","street":"新屋敷"},{"zipCode":"5110069","prefectureKana":"ﾐｴｹﾝ","cityKana":"ｸﾜﾅｼ","streetKana":"ｼﾝﾔﾀﾞ","prefecture":"三重県","city":"桑名市","street":"新矢田"},{"zipCode":"5110077","prefectureKana":"ﾐｴｹﾝ","cityKana":"ｸﾜﾅｼ","streetKana":"ｽｴﾋﾛﾁｮｳ","prefecture":"三重県","city":"桑名市","street":"末広町"},{"zipCode":"5110004","prefectureKana":"ﾐｴｹﾝ","cityKana":"ｸﾜﾅｼ","streetKana":"ｽﾐﾖｼﾁｮｳ","prefecture":"三重県","city":"桑名市","street":"住吉町"},{"zipCode":"5110011","prefectureKana":"ﾐｴｹﾝ","cityKana":"ｸﾜﾅｼ","streetKana":"ｾﾝﾊﾞﾁｮｳ","prefecture":"三重県","city":"桑名市","street":"船馬町"},{"zipCode":"5110078","prefectureKana":"ﾐｴｹﾝ","cityKana":"ｸﾜﾅｼ","streetKana":"ｿｳｴｲﾁｮｳ","prefecture":"三重県","city":"桑名市","street":"桑栄町"},{"zipCode":"5110041","prefectureKana":"ﾐｴｹﾝ","cityKana":"ｸﾜﾅｼ","streetKana":"ｿﾄﾎﾞﾘ","prefecture":"三重県","city":"桑名市","street":"外堀"},{"zipCode":"5110065","prefectureKana":"ﾐｴｹﾝ","cityKana":"ｸﾜﾅｼ","streetKana":"ﾀﾞｲｵｳﾁｮｳ","prefecture":"三重県","city":"桑名市","street":"大央町"},{"zipCode":"5110005","prefectureKana":"ﾐｴｹﾝ","cityKana":"ｸﾜﾅｼ","streetKana":"ﾀｲﾁﾏﾙ","prefecture":"三重県","city":"桑名市","street":"太一丸"},{"zipCode":"5110834","prefectureKana":"ﾐｴｹﾝ","cityKana":"ｸﾜﾅｼ","streetKana":"ﾀﾞｲﾌｸ","prefecture":"三重県","city":"桑名市","street":"大福"},{"zipCode":"5110843","prefectureKana":"ﾐｴｹﾝ","cityKana":"ｸﾜﾅｼ","streetKana":"ﾀｲﾍｲﾁｮｳ","prefecture":"三重県","city":"桑名市","street":"太平町"},{"zipCode":"5110818","prefectureKana":"ﾐｴｹﾝ","cityKana":"ｸﾜﾅｼ","streetKana":"ﾀｶﾂｶﾁｮｳ","prefecture":"三重県","city":"桑名市","street":"高塚町"},{"zipCode":"5110828","prefectureKana":"ﾐｴｹﾝ","cityKana":"ｸﾜﾅｼ","streetKana":"ﾀﾁﾊﾞﾅﾁｮｳ","prefecture":"三重県","city":"桑名市","street":"立花町"},{"zipCode":"5110842","prefectureKana":"ﾐｴｹﾝ","cityKana":"ｸﾜﾅｼ","streetKana":"ﾀﾂﾀﾁｮｳ","prefecture":"三重県","city":"桑名市","street":"立田町"},{"zipCode":"5110124","prefectureKana":"ﾐｴｹﾝ","cityKana":"ｸﾜﾅｼ","streetKana":"ﾀﾄﾞﾁｮｳｲｶｲ","prefecture":"三重県","city":"桑名市","street":"多度町猪飼"},{"zipCode":"5110116","prefectureKana":"ﾐｴｹﾝ","cityKana":"ｸﾜﾅｼ","streetKana":"ﾀﾄﾞﾁｮｳｵｵﾄﾞﾘｲ","prefecture":"三重県","city":"桑名市","street":"多度町大鳥居"},{"zipCode":"5110105","prefectureKana":"ﾐｴｹﾝ","cityKana":"ｸﾜﾅｼ","streetKana":"ﾀﾄﾞﾁｮｳｵﾔﾏ","prefecture":"三重県","city":"桑名市","street":"多度町小山"},{"zipCode":"5110102","prefectureKana":"ﾐｴｹﾝ","cityKana":"ｸﾜﾅｼ","streetKana":"ﾀﾄﾞﾁｮｳｶﾄﾘ","prefecture":"三重県","city":"桑名市","street":"多度町香取"},{"zipCode":"5110113","prefectureKana":"ﾐｴｹﾝ","cityKana":"ｸﾜﾅｼ","streetKana":"ﾀﾄﾞﾁｮｳｶﾐﾉｺﾞｳ","prefecture":"三重県","city":"桑名市","street":"多度町上之郷"},{"zipCode":"5110123","prefectureKana":"ﾐｴｹﾝ","cityKana":"ｸﾜﾅｼ","streetKana":"ﾀﾄﾞﾁｮｳｷﾀｲｶｲ","prefecture":"三重県","city":"桑名市","street":"多度町北猪飼"},{"zipCode":"5110122","prefectureKana":"ﾐｴｹﾝ","cityKana":"ｸﾜﾅｼ","streetKana":"ﾀﾄﾞﾁｮｳｺﾉ","prefecture":"三重県","city":"桑名市","street":"多度町古野"},{"zipCode":"5110117","prefectureKana":"ﾐｴｹﾝ","cityKana":"ｸﾜﾅｼ","streetKana":"ﾀﾄﾞﾁｮｳｼﾓﾉｼﾛ","prefecture":"三重県","city":"桑名市","street":"多度町下野代"},{"zipCode":"5110106","prefectureKana":"ﾐｴｹﾝ","cityKana":"ｸﾜﾅｼ","streetKana":"ﾀﾄﾞﾁｮｳﾀﾄﾞ","prefecture":"三重県","city":"桑名市","street":"多度町多度"},{"zipCode":"5110125","prefectureKana":"ﾐｴｹﾝ","cityKana":"ｸﾜﾅｼ","streetKana":"ﾀﾄﾞﾁｮｳﾁｶﾗｵ","prefecture":"三重県","city":"桑名市","street":"多度町力尾"},{"zipCode":"5110103","prefectureKana":"ﾐｴｹﾝ","cityKana":"ｸﾜﾅｼ","streetKana":"ﾀﾄﾞﾁｮｳﾄﾂﾞ","prefecture":"三重県","city":"桑名市","street":"多度町戸津"},{"zipCode":"5110114","prefectureKana":"ﾐｴｹﾝ","cityKana":"ｸﾜﾅｼ","streetKana":"ﾀﾄﾞﾁｮｳﾅｶｽﾞ","prefecture":"三重県","city":"桑名市","street":"多度町中須"},{"zipCode":"5110104","prefectureKana":"ﾐｴｹﾝ","cityKana":"ｸﾜﾅｼ","streetKana":"ﾀﾄﾞﾁｮｳﾋｼﾞｴ","prefecture":"三重県","city":"桑名市","street":"多度町肱江"},{"zipCode":"5110111","prefectureKana":"ﾐｴｹﾝ","cityKana":"ｸﾜﾅｼ","streetKana":"ﾀﾄﾞﾁｮｳﾋﾗｺ","prefecture":"三重県","city":"桑名市","street":"多度町平古"},{"zipCode":"5110121","prefectureKana":"ﾐｴｹﾝ","cityKana":"ｸﾜﾅｼ","streetKana":"ﾀﾄﾞﾁｮｳﾋﾞﾛｸ","prefecture":"三重県","city":"桑名市","street":"多度町美鹿"},{"zipCode":"5110112","prefectureKana":"ﾐｴｹﾝ","cityKana":"ｸﾜﾅｼ","streetKana":"ﾀﾄﾞﾁｮｳﾌｸﾅｶﾞ","prefecture":"三重県","city":"桑名市","street":"多度町福永"},{"zipCode":"5110118","prefectureKana":"ﾐｴｹﾝ","cityKana":"ｸﾜﾅｼ","streetKana":"ﾀﾄﾞﾁｮｳﾐｿﾞﾉ","prefecture":"三重県","city":"桑名市","street":"多度町御衣野"},{"zipCode":"5110115","prefectureKana":"ﾐｴｹﾝ","cityKana":"ｸﾜﾅｼ","streetKana":"ﾀﾄﾞﾁｮｳﾐﾅﾐﾉｺﾞｳ","prefecture":"三重県","city":"桑名市","street":"多度町南之郷"},{"zipCode":"5110101","prefectureKana":"ﾐｴｹﾝ","cityKana":"ｸﾜﾅｼ","streetKana":"ﾀﾄﾞﾁｮｳﾕｲ","prefecture":"三重県","city":"桑名市","street":"多度町柚井"},{"zipCode":"5110089","prefectureKana":"ﾐｴｹﾝ","cityKana":"ｸﾜﾅｼ","streetKana":"ﾀﾏﾁ","prefecture":"三重県","city":"桑名市","street":"田町"},{"zipCode":"5110826","prefectureKana":"ﾐｴｹﾝ","cityKana":"ｸﾜﾅｼ","streetKana":"ﾀﾕｳ","prefecture":"三重県","city":"桑名市","street":"太夫"},{"zipCode":"5110068","prefectureKana":"ﾐｴｹﾝ","cityKana":"ｸﾜﾅｼ","streetKana":"ﾁｭｳｵｳﾁｮｳ","prefecture":"三重県","city":"桑名市","street":"中央町"},{"zipCode":"5110058","prefectureKana":"ﾐｴｹﾝ","cityKana":"ｸﾜﾅｼ","streetKana":"ﾁﾖﾀﾞﾁｮｳ","prefecture":"三重県","city":"桑名市","street":"千代田町"},{"zipCode":"5110945","prefectureKana":"ﾐｴｹﾝ","cityKana":"ｸﾜﾅｼ","streetKana":"ﾂｸｼ","prefecture":"三重県","city":"桑名市","street":"筑紫"},{"zipCode":"5110901","prefectureKana":"ﾐｴｹﾝ","cityKana":"ｸﾜﾅｼ","streetKana":"ﾂﾂｵ","prefecture":"三重県","city":"桑名市","street":"筒尾"},{"zipCode":"5110072","prefectureKana":"ﾐｴｹﾝ","cityKana":"ｸﾜﾅｼ","streetKana":"ﾂﾂﾐﾊﾗ","prefecture":"三重県","city":"桑名市","street":"堤原"},{"zipCode":"5110045","prefectureKana":"ﾐｴｹﾝ","cityKana":"ｸﾜﾅｼ","streetKana":"ﾃﾝﾏﾁｮｳ","prefecture":"三重県","city":"桑名市","street":"伝馬町"},{"zipCode":"5110062","prefectureKana":"ﾐｴｹﾝ","cityKana":"ｸﾜﾅｼ","streetKana":"ﾄｷﾜﾁｮｳ","prefecture":"三重県","city":"桑名市","street":"常盤町"},{"zipCode":"5110015","prefectureKana":"ﾐｴｹﾝ","cityKana":"ｸﾜﾅｼ","streetKana":"ﾄﾉﾏﾁ","prefecture":"三重県","city":"桑名市","street":"殿町"},{"zipCode":"5110938","prefectureKana":"ﾐｴｹﾝ","cityKana":"ｸﾜﾅｼ","streetKana":"ﾄﾓﾑﾗ","prefecture":"三重県","city":"桑名市","street":"友村"},{"zipCode":"5111131","prefectureKana":"ﾐｴｹﾝ","cityKana":"ｸﾜﾅｼ","streetKana":"ﾅｶﾞｼﾏﾁｮｳｱｶｼﾞ","prefecture":"三重県","city":"桑名市","street":"長島町赤地"},{"zipCode":"5111135","prefectureKana":"ﾐｴｹﾝ","cityKana":"ｸﾜﾅｼ","streetKana":"ﾅｶﾞｼﾏﾁｮｳｳﾗﾔｽ","prefecture":"三重県","city":"桑名市","street":"長島町浦安"},{"zipCode":"5111112","prefectureKana":"ﾐｴｹﾝ","cityKana":"ｸﾜﾅｼ","streetKana":"ﾅｶﾞｼﾏﾁｮｳｵｵｸﾗ","prefecture":"三重県","city":"桑名市","street":"長島町大倉"},{"zipCode":"5111145","prefectureKana":"ﾐｴｹﾝ","cityKana":"ｸﾜﾅｼ","streetKana":"ﾅｶﾞｼﾏﾁｮｳｵｵｼﾞﾏ","prefecture":"三重県","city":"桑名市","street":"長島町大島"},{"zipCode":"5111113","prefectureKana":"ﾐｴｹﾝ","cityKana":"ｸﾜﾅｼ","streetKana":"ﾅｶﾞｼﾏﾁｮｳｵｼﾂｹ","prefecture":"三重県","city":"桑名市","street":"長島町押付"},{"zipCode":"5111123","prefectureKana":"ﾐｴｹﾝ","cityKana":"ｸﾜﾅｼ","streetKana":"ﾅｶﾞｼﾏﾁｮｳｶﾏｶﾞﾝｼﾞ","prefecture":"三重県","city":"桑名市","street":"長島町鎌ケ地"},{"zipCode":"5111107","prefectureKana":"ﾐｴｹﾝ","cityKana":"ｸﾜﾅｼ","streetKana":"ﾅｶﾞｼﾏﾁｮｳｶﾐｻｶﾃ","prefecture":"三重県","city":"桑名市","street":"長島町上坂手"},{"zipCode":"5111148","prefectureKana":"ﾐｴｹﾝ","cityKana":"ｸﾜﾅｼ","streetKana":"ﾅｶﾞｼﾏﾁｮｳｷﾀﾄﾉﾒ","prefecture":"三重県","city":"桑名市","street":"長島町北殿名"},{"zipCode":"5111125","prefectureKana":"ﾐｴｹﾝ","cityKana":"ｸﾜﾅｼ","streetKana":"ﾅｶﾞｼﾏﾁｮｳｹﾞﾝﾍﾞﾄﾞﾓ","prefecture":"三重県","city":"桑名市","street":"長島町源部外面"},{"zipCode":"5111104","prefectureKana":"ﾐｴｹﾝ","cityKana":"ｸﾜﾅｼ","streetKana":"ﾅｶﾞｼﾏﾁｮｳｺｳｻﾞ","prefecture":"三重県","city":"桑名市","street":"長島町高座"},{"zipCode":"5111111","prefectureKana":"ﾐｴｹﾝ","cityKana":"ｸﾜﾅｼ","streetKana":"ﾅｶﾞｼﾏﾁｮｳｺｼﾞﾏ","prefecture":"三重県","city":"桑名市","street":"長島町小島"},{"zipCode":"5111144","prefectureKana":"ﾐｴｹﾝ","cityKana":"ｸﾜﾅｼ","streetKana":"ﾅｶﾞｼﾏﾁｮｳｺﾏｴ","prefecture":"三重県","city":"桑名市","street":"長島町駒江"},{"zipCode":"5111106","prefectureKana":"ﾐｴｹﾝ","cityKana":"ｸﾜﾅｼ","streetKana":"ﾅｶﾞｼﾏﾁｮｳｼﾓｻｶﾃ","prefecture":"三重県","city":"桑名市","street":"長島町下坂手"},{"zipCode":"5111101","prefectureKana":"ﾐｴｹﾝ","cityKana":"ｸﾜﾅｼ","streetKana":"ﾅｶﾞｼﾏﾁｮｳｼﾝｼｮ","prefecture":"三重県","city":"桑名市","street":"長島町新所"},{"zipCode":"5111108","prefectureKana":"ﾐｴｹﾝ","cityKana":"ｸﾜﾅｼ","streetKana":"ﾅｶﾞｼﾏﾁｮｳｽｷﾞｴ","prefecture":"三重県","city":"桑名市","street":"長島町杉江"},{"zipCode":"5111105","prefectureKana":"ﾐｴｹﾝ","cityKana":"ｸﾜﾅｼ","streetKana":"ﾅｶﾞｼﾏﾁｮｳﾁｸﾗ","prefecture":"三重県","city":"桑名市","street":"長島町千倉"},{"zipCode":"5111142","prefectureKana":"ﾐｴｹﾝ","cityKana":"ｸﾜﾅｼ","streetKana":"ﾅｶﾞｼﾏﾁｮｳﾃﾞｸﾞﾁ","prefecture":"三重県","city":"桑名市","street":"長島町出口"},{"zipCode":"5111146","prefectureKana":"ﾐｴｹﾝ","cityKana":"ｸﾜﾅｼ","streetKana":"ﾅｶﾞｼﾏﾁｮｳﾄｵｶﾄﾞﾓ","prefecture":"三重県","city":"桑名市","street":"長島町十日外面"},{"zipCode":"5111127","prefectureKana":"ﾐｴｹﾝ","cityKana":"ｸﾜﾅｼ","streetKana":"ﾅｶﾞｼﾏﾁｮｳﾄﾉﾒ","prefecture":"三重県","city":"桑名市","street":"長島町殿名"},{"zipCode":"5111103","prefectureKana":"ﾐｴｹﾝ","cityKana":"ｸﾜﾅｼ","streetKana":"ﾅｶﾞｼﾏﾁｮｳﾅｶｶﾞﾜ","prefecture":"三重県","city":"桑名市","street":"長島町中川"},{"zipCode":"5111116","prefectureKana":"ﾐｴｹﾝ","cityKana":"ｸﾜﾅｼ","streetKana":"ﾅｶﾞｼﾏﾁｮｳﾅｶﾞｼﾏｶﾔﾏﾁ","prefecture":"三重県","city":"桑名市","street":"長島町長島萱町"},{"zipCode":"5111114","prefectureKana":"ﾐｴｹﾝ","cityKana":"ｸﾜﾅｼ","streetKana":"ﾅｶﾞｼﾏﾁｮｳﾅｶﾞｼﾏｼﾓﾏﾁ","prefecture":"三重県","city":"桑名市","street":"長島町長島下町"},{"zipCode":"5111115","prefectureKana":"ﾐｴｹﾝ","cityKana":"ｸﾜﾅｼ","streetKana":"ﾅｶﾞｼﾏﾁｮｳﾅｶﾞｼﾏﾅｶﾏﾁ","prefecture":"三重県","city":"桑名市","street":"長島町長島中町"},{"zipCode":"5111102","prefectureKana":"ﾐｴｹﾝ","cityKana":"ｸﾜﾅｼ","streetKana":"ﾅｶﾞｼﾏﾁｮｳﾆｼｶﾜ","prefecture":"三重県","city":"桑名市","street":"長島町西川"},{"zipCode":"5111143","prefectureKana":"ﾐｴｹﾝ","cityKana":"ｸﾜﾅｼ","streetKana":"ﾅｶﾞｼﾏﾁｮｳﾆｼﾄﾞﾓ","prefecture":"三重県","city":"桑名市","street":"長島町西外面"},{"zipCode":"5111149","prefectureKana":"ﾐｴｹﾝ","cityKana":"ｸﾜﾅｼ","streetKana":"ﾅｶﾞｼﾏﾁｮｳﾆｼﾄﾞﾓｼｶﾞｲ","prefecture":"三重県","city":"桑名市","street":"長島町西外面市街"},{"zipCode":"5111136","prefectureKana":"ﾐｴｹﾝ","cityKana":"ｸﾜﾅｼ","streetKana":"ﾅｶﾞｼﾏﾁｮｳﾊｯｹ","prefecture":"三重県","city":"桑名市","street":"長島町白鶏"},{"zipCode":"5111121","prefectureKana":"ﾐｴｹﾝ","cityKana":"ｸﾜﾅｼ","streetKana":"ﾅｶﾞｼﾏﾁｮｳﾋｶﾞｼﾄﾉﾒ","prefecture":"三重県","city":"桑名市","street":"長島町東殿名"},{"zipCode":"5111147","prefectureKana":"ﾐｴｹﾝ","cityKana":"ｸﾜﾅｼ","streetKana":"ﾅｶﾞｼﾏﾁｮｳﾋﾗｶﾀ","prefecture":"三重県","city":"桑名市","street":"長島町平方"},{"zipCode":"5111132","prefectureKana":"ﾐｴｹﾝ","cityKana":"ｸﾜﾅｼ","streetKana":"ﾅｶﾞｼﾏﾁｮｳﾌｸﾄﾖ","prefecture":"三重県","city":"桑名市","street":"長島町福豊"},{"zipCode":"5111137","prefectureKana":"ﾐｴｹﾝ","cityKana":"ｸﾜﾅｼ","streetKana":"ﾅｶﾞｼﾏﾁｮｳﾌｸﾖｼ","prefecture":"三重県","city":"桑名市","street":"長島町福吉"},{"zipCode":"5111126","prefectureKana":"ﾐｴｹﾝ","cityKana":"ｸﾜﾅｼ","streetKana":"ﾅｶﾞｼﾏﾁｮｳﾏﾀｷﾞ","prefecture":"三重県","city":"桑名市","street":"長島町又木"},{"zipCode":"5111128","prefectureKana":"ﾐｴｹﾝ","cityKana":"ｸﾜﾅｼ","streetKana":"ﾅｶﾞｼﾏﾁｮｳﾏﾀｷﾞｼｶﾞｲ","prefecture":"三重県","city":"桑名市","street":"長島町又木市街"},{"zipCode":"5111134","prefectureKana":"ﾐｴｹﾝ","cityKana":"ｸﾜﾅｼ","streetKana":"ﾅｶﾞｼﾏﾁｮｳﾏﾂｶｹﾞ","prefecture":"三重県","city":"桑名市","street":"長島町松蔭"},{"zipCode":"5111122","prefectureKana":"ﾐｴｹﾝ","cityKana":"ｸﾜﾅｼ","streetKana":"ﾅｶﾞｼﾏﾁｮｳﾏﾂｶﾞｼﾏ","prefecture":"三重県","city":"桑名市","street":"長島町松ケ島"},{"zipCode":"5111109","prefectureKana":"ﾐｴｹﾝ","cityKana":"ｸﾜﾅｼ","streetKana":"ﾅｶﾞｼﾏﾁｮｳﾏﾂﾉｷ","prefecture":"三重県","city":"桑名市","street":"長島町松之木"},{"zipCode":"5111141","prefectureKana":"ﾐｴｹﾝ","cityKana":"ｸﾜﾅｼ","streetKana":"ﾅｶﾞｼﾏﾁｮｳﾏﾏ","prefecture":"三重県","city":"桑名市","street":"長島町間々"},{"zipCode":"5111133","prefectureKana":"ﾐｴｹﾝ","cityKana":"ｸﾜﾅｼ","streetKana":"ﾅｶﾞｼﾏﾁｮｳﾖｺﾏｸﾗ","prefecture":"三重県","city":"桑名市","street":"長島町横満蔵"},{"zipCode":"5111124","prefectureKana":"ﾐｴｹﾝ","cityKana":"ｸﾜﾅｼ","streetKana":"ﾅｶﾞｼﾏﾁｮｳﾖｼｶﾞｽ","prefecture":"三重県","city":"桑名市","street":"長島町葭ケ須"},{"zipCode":"5110914","prefectureKana":"ﾐｴｹﾝ","cityKana":"ｸﾜﾅｼ","streetKana":"ﾅｶﾔﾏﾁｮｳ","prefecture":"三重県","city":"桑名市","street":"中山町"},{"zipCode":"5110864","prefectureKana":"ﾐｴｹﾝ","cityKana":"ｸﾜﾅｼ","streetKana":"ﾆｼｶﾀ","prefecture":"三重県","city":"桑名市","street":"西方"},{"zipCode":"5110922","prefectureKana":"ﾐｴｹﾝ","cityKana":"ｸﾜﾅｼ","streetKana":"ﾆｼｶﾅｲ","prefecture":"三重県","city":"桑名市","street":"西金井"},{"zipCode":"5110933","prefectureKana":"ﾐｴｹﾝ","cityKana":"ｸﾜﾅｼ","streetKana":"ﾆｼｾｲﾜﾀﾞｲ","prefecture":"三重県","city":"桑名市","street":"西正和台"},{"zipCode":"5110054","prefectureKana":"ﾐｴｹﾝ","cityKana":"ｸﾜﾅｼ","streetKana":"ﾆｼﾅﾍﾞﾔﾏﾁ","prefecture":"三重県","city":"桑名市","street":"西鍋屋町"},{"zipCode":"5110851","prefectureKana":"ﾐｴｹﾝ","cityKana":"ｸﾜﾅｼ","streetKana":"ﾆｼﾍﾞｯｼﾖ","prefecture":"三重県","city":"桑名市","street":"西別所"},{"zipCode":"5110056","prefectureKana":"ﾐｴｹﾝ","cityKana":"ｸﾜﾅｼ","streetKana":"ﾆｼﾔﾀﾞﾏﾁ","prefecture":"三重県","city":"桑名市","street":"西矢田町"},{"zipCode":"5110807","prefectureKana":"ﾐｴｹﾝ","cityKana":"ｸﾜﾅｼ","streetKana":"ﾆｼﾕﾘｱｹﾞ","prefecture":"三重県","city":"桑名市","street":"西汰上"},{"zipCode":"5110911","prefectureKana":"ﾐｴｹﾝ","cityKana":"ｸﾜﾅｼ","streetKana":"ﾇｶﾀ","prefecture":"三重県","city":"桑名市","street":"額田"},{"zipCode":"5110904","prefectureKana":"ﾐｴｹﾝ","cityKana":"ｸﾜﾅｼ","streetKana":"ﾉﾀﾞ","prefecture":"三重県","city":"桑名市","street":"野田"},{"zipCode":"5110931","prefectureKana":"ﾐｴｹﾝ","cityKana":"ｸﾜﾅｼ","streetKana":"ﾉﾝﾍﾞ","prefecture":"三重県","city":"桑名市","street":"能部"},{"zipCode":"5110944","prefectureKana":"ﾐｴｹﾝ","cityKana":"ｸﾜﾅｼ","streetKana":"ﾊｶﾞｻｷ","prefecture":"三重県","city":"桑名市","street":"芳ケ崎"},{"zipCode":"5110008","prefectureKana":"ﾐｴｹﾝ","cityKana":"ｸﾜﾅｼ","streetKana":"ﾊｽﾐﾁｮｳ","prefecture":"三重県","city":"桑名市","street":"蓮見町"},{"zipCode":"5110076","prefectureKana":"ﾐｴｹﾝ","cityKana":"ｸﾜﾅｼ","streetKana":"ﾊﾁｹﾝﾄﾞｵﾘ","prefecture":"三重県","city":"桑名市","street":"八間通"},{"zipCode":"5110049","prefectureKana":"ﾐｴｹﾝ","cityKana":"ｸﾜﾅｼ","streetKana":"ﾊﾁﾏﾝﾁｮｳ","prefecture":"三重県","city":"桑名市","street":"八幡町"},{"zipCode":"5110862","prefectureKana":"ﾐｴｹﾝ","cityKana":"ｸﾜﾅｼ","streetKana":"ﾊﾘﾏ","prefecture":"三重県","city":"桑名市","street":"播磨"},{"zipCode":"5110852","prefectureKana":"ﾐｴｹﾝ","cityKana":"ｸﾜﾅｼ","streetKana":"ﾋｴﾀﾞ","prefecture":"三重県","city":"桑名市","street":"稗田"},{"zipCode":"5110811","prefectureKana":"ﾐｴｹﾝ","cityKana":"ｸﾜﾅｼ","streetKana":"ﾋｶﾞｼｶﾀ","prefecture":"三重県","city":"桑名市","street":"東方"},{"zipCode":"5110921","prefectureKana":"ﾐｴｹﾝ","cityKana":"ｸﾜﾅｼ","streetKana":"ﾋｶﾞｼｶﾅｲ","prefecture":"三重県","city":"桑名市","street":"東金井"},{"zipCode":"5110932","prefectureKana":"ﾐｴｹﾝ","cityKana":"ｸﾜﾅｼ","streetKana":"ﾋｶﾞｼｾｲﾜﾀﾞｲ","prefecture":"三重県","city":"桑名市","street":"東正和台"},{"zipCode":"5110003","prefectureKana":"ﾐｴｹﾝ","cityKana":"ｸﾜﾅｼ","streetKana":"ﾋｶﾞｼﾀｲﾁﾏﾙ","prefecture":"三重県","city":"桑名市","street":"東太一丸"},{"zipCode":"5110053","prefectureKana":"ﾐｴｹﾝ","cityKana":"ｸﾜﾅｼ","streetKana":"ﾋｶﾞｼﾅﾍﾞﾔﾏﾁ","prefecture":"三重県","city":"桑名市","street":"東鍋屋町"},{"zipCode":"5110035","prefectureKana":"ﾐｴｹﾝ","cityKana":"ｸﾜﾅｼ","streetKana":"ﾋｶﾞｼﾉ","prefecture":"三重県","city":"桑名市","street":"東野"},{"zipCode":"5110055","prefectureKana":"ﾐｴｹﾝ","cityKana":"ｸﾜﾅｼ","streetKana":"ﾋｶﾞｼﾔﾀﾞﾏﾁ","prefecture":"三重県","city":"桑名市","street":"東矢田町"},{"zipCode":"5110806","prefectureKana":"ﾐｴｹﾝ","cityKana":"ｸﾜﾅｼ","streetKana":"ﾋｶﾞｼﾕﾘｱｹﾞ","prefecture":"三重県","city":"桑名市","street":"東汰上"},{"zipCode":"5110867","prefectureKana":"ﾐｴｹﾝ","cityKana":"ｸﾜﾅｼ","streetKana":"ﾋﾀﾞﾏﾘﾉｵｶ","prefecture":"三重県","city":"桑名市","street":"陽だまりの丘"},{"zipCode":"5110942","prefectureKana":"ﾐｴｹﾝ","cityKana":"ｸﾜﾅｼ","streetKana":"ﾋﾛﾐｶﾞｵｶ","prefecture":"三重県","city":"桑名市","street":"広見ケ丘"},{"zipCode":"5110803","prefectureKana":"ﾐｴｹﾝ","cityKana":"ｸﾜﾅｼ","streetKana":"ﾋﾞﾜｼﾞﾏﾀﾞｲ","prefecture":"三重県","city":"桑名市","street":"枇杷島台"},{"zipCode":"5110805","prefectureKana":"ﾐｴｹﾝ","cityKana":"ｸﾜﾅｼ","streetKana":"ﾌｶﾔﾁｮｳ","prefecture":"三重県","city":"桑名市","street":"深谷町"},{"zipCode":"5110847","prefectureKana":"ﾐｴｹﾝ","cityKana":"ｸﾜﾅｼ","streetKana":"ﾌｸｴ","prefecture":"三重県","city":"桑名市","street":"福江"},{"zipCode":"5110833","prefectureKana":"ﾐｴｹﾝ","cityKana":"ｸﾜﾅｼ","streetKana":"ﾌｸｴﾏﾁ","prefecture":"三重県","city":"桑名市","street":"福江町"},{"zipCode":"5110844","prefectureKana":"ﾐｴｹﾝ","cityKana":"ｸﾜﾅｼ","streetKana":"ﾌｸｵｶﾁｮｳ","prefecture":"三重県","city":"桑名市","street":"福岡町"},{"zipCode":"5110002","prefectureKana":"ﾐｴｹﾝ","cityKana":"ｸﾜﾅｼ","streetKana":"ﾌｸｼﾞﾏ","prefecture":"三重県","city":"桑名市","street":"福島"},{"zipCode":"5110027","prefectureKana":"ﾐｴｹﾝ","cityKana":"ｸﾜﾅｼ","streetKana":"ﾌｸｼﾞﾏｼﾝﾏﾁ","prefecture":"三重県","city":"桑名市","street":"福島新町"},{"zipCode":"5110845","prefectureKana":"ﾐｴｹﾝ","cityKana":"ｸﾜﾅｼ","streetKana":"ﾌｸﾁ","prefecture":"三重県","city":"桑名市","street":"福地"},{"zipCode":"5110865","prefectureKana":"ﾐｴｹﾝ","cityKana":"ｸﾜﾅｼ","streetKana":"ﾌｼﾞｶﾞｵｶ","prefecture":"三重県","city":"桑名市","street":"藤が丘"},{"zipCode":"5110025","prefectureKana":"ﾐｴｹﾝ","cityKana":"ｸﾜﾅｼ","streetKana":"ﾌﾛﾏﾁ","prefecture":"三重県","city":"桑名市","street":"風呂町"},{"zipCode":"5110013","prefectureKana":"ﾐｴｹﾝ","cityKana":"ｸﾜﾅｼ","streetKana":"ﾎｳﾃﾞﾝﾏﾁ","prefecture":"三重県","city":"桑名市","street":"宝殿町"},{"zipCode":"5110912","prefectureKana":"ﾐｴｹﾝ","cityKana":"ｸﾜﾅｼ","streetKana":"ﾎｼｶﾜ","prefecture":"三重県","city":"桑名市","street":"星川"},{"zipCode":"5110912","prefectureKana":"ﾐｴｹﾝ","cityKana":"ｸﾜﾅｼ","streetKana":"ﾎｼﾐｶﾞｵｶ","prefecture":"三重県","city":"桑名市","street":"星見ケ丘"},{"zipCode":"5110835","prefectureKana":"ﾐｴｹﾝ","cityKana":"ｸﾜﾅｼ","streetKana":"ﾎﾝｶﾞﾝｼﾞ","prefecture":"三重県","city":"桑名市","street":"本願寺"},{"zipCode":"5110023","prefectureKana":"ﾐｴｹﾝ","cityKana":"ｸﾜﾅｼ","streetKana":"ﾎﾝﾏﾁ","prefecture":"三重県","city":"桑名市","street":"本町"},{"zipCode":"5110831","prefectureKana":"ﾐｴｹﾝ","cityKana":"ｸﾜﾅｼ","streetKana":"ﾏｽｵﾁｮｳ","prefecture":"三重県","city":"桑名市","street":"益生町"},{"zipCode":"5110853","prefectureKana":"ﾐｴｹﾝ","cityKana":"ｸﾜﾅｼ","streetKana":"ﾏｽﾀﾞ","prefecture":"三重県","city":"桑名市","street":"増田"},{"zipCode":"5110814","prefectureKana":"ﾐｴｹﾝ","cityKana":"ｸﾜﾅｼ","streetKana":"ﾏﾂﾅﾐﾁｮｳ","prefecture":"三重県","city":"桑名市","street":"松並町"},{"zipCode":"5110902","prefectureKana":"ﾐｴｹﾝ","cityKana":"ｸﾜﾅｼ","streetKana":"ﾏﾂﾉｷ","prefecture":"三重県","city":"桑名市","street":"松ノ木"},{"zipCode":"5110014","prefectureKana":"ﾐｴｹﾝ","cityKana":"ｸﾜﾅｼ","streetKana":"ﾐｻｷﾄﾞｵﾘ","prefecture":"三重県","city":"桑名市","street":"三崎通"},{"zipCode":"5110057","prefectureKana":"ﾐｴｹﾝ","cityKana":"ｸﾜﾅｼ","streetKana":"ﾐﾂﾔﾊﾞｼ","prefecture":"三重県","city":"桑名市","street":"三ツ矢橋"},{"zipCode":"5110088","prefectureKana":"ﾐｴｹﾝ","cityKana":"ｸﾜﾅｼ","streetKana":"ﾐﾅﾐｳｵﾏﾁ","prefecture":"三重県","city":"桑名市","street":"南魚町"},{"zipCode":"5110074","prefectureKana":"ﾐｴｹﾝ","cityKana":"ｸﾜﾅｼ","streetKana":"ﾐﾅﾐﾃﾗﾏﾁ","prefecture":"三重県","city":"桑名市","street":"南寺町"},{"zipCode":"5110082","prefectureKana":"ﾐｴｹﾝ","cityKana":"ｸﾜﾅｼ","streetKana":"ﾐﾔﾄﾞｵﾘ","prefecture":"三重県","city":"桑名市","street":"宮通"},{"zipCode":"5110026","prefectureKana":"ﾐｴｹﾝ","cityKana":"ｸﾜﾅｼ","streetKana":"ﾐﾔﾏﾁ","prefecture":"三重県","city":"桑名市","street":"宮町"},{"zipCode":"5110823","prefectureKana":"ﾐｴｹﾝ","cityKana":"ｸﾜﾅｼ","streetKana":"ﾒｲｾｲﾁｮｳ","prefecture":"三重県","city":"桑名市","street":"明正町"},{"zipCode":"5110037","prefectureKana":"ﾐｴｹﾝ","cityKana":"ｸﾜﾅｼ","streetKana":"ﾓﾄｱｶｽｶ","prefecture":"三重県","city":"桑名市","street":"元赤須賀"},{"zipCode":"5110943","prefectureKana":"ﾐｴｹﾝ","cityKana":"ｸﾜﾅｼ","streetKana":"ﾓﾘﾀﾀﾞ","prefecture":"三重県","city":"桑名市","street":"森忠"},{"zipCode":"5110839","prefectureKana":"ﾐｴｹﾝ","cityKana":"ｸﾜﾅｼ","streetKana":"ﾔｽﾅｶﾞ","prefecture":"三重県","city":"桑名市","street":"安永"},{"zipCode":"5110821","prefectureKana":"ﾐｴｹﾝ","cityKana":"ｸﾜﾅｼ","streetKana":"ﾔﾀﾞ","prefecture":"三重県","city":"桑名市","street":"矢田"},{"zipCode":"5110051","prefectureKana":"ﾐｴｹﾝ","cityKana":"ｸﾜﾅｼ","streetKana":"ﾔﾀﾞｶﾜﾗ","prefecture":"三重県","city":"桑名市","street":"矢田磧"},{"zipCode":"5110042","prefectureKana":"ﾐｴｹﾝ","cityKana":"ｸﾜﾅｼ","streetKana":"ﾔﾅｷﾞﾊﾗ","prefecture":"三重県","city":"桑名市","street":"柳原"},{"zipCode":"5110079","prefectureKana":"ﾐｴｹﾝ","cityKana":"ｸﾜﾅｼ","streetKana":"ﾕｳﾗｸﾁｮｳ","prefecture":"三重県","city":"桑名市","street":"有楽町"},{"zipCode":"5110032","prefectureKana":"ﾐｴｹﾝ","cityKana":"ｸﾜﾅｼ","streetKana":"ﾖｼﾉﾏﾙ","prefecture":"三重県","city":"桑名市","street":"吉之丸"},{"zipCode":"5110087","prefectureKana":"ﾐｴｹﾝ","cityKana":"ｸﾜﾅｼ","streetKana":"ﾖﾂﾔﾁｮｳ","prefecture":"三重県","city":"桑名市","street":"吉津屋町"},{"zipCode":"5110854","prefectureKana":"ﾐｴｹﾝ","cityKana":"ｸﾜﾅｼ","streetKana":"ﾚﾝｹﾞｼﾞ","prefecture":"三重県","city":"桑名市","street":"蓮花寺"},{"zipCode":"5110200","prefectureKana":"ﾐｴｹﾝ","cityKana":"ｲﾅﾍﾞｼ","streetKana":"ｲｶﾆｹｲｻｲｶﾞﾅｲﾊﾞｱｲ","prefecture":"三重県","city":"いなべ市","street":"以下に掲載がない場合"},{"zipCode":"5110204","prefectureKana":"ﾐｴｹﾝ","cityKana":"ｲﾅﾍﾞｼ","streetKana":"ｲﾅﾍﾞﾁｮｳｲｼﾎﾞﾄｹ","prefecture":"三重県","city":"いなべ市","street":"員弁町石仏"},{"zipCode":"5110201","prefectureKana":"ﾐｴｹﾝ","cityKana":"ｲﾅﾍﾞｼ","streetKana":"ｲﾅﾍﾞﾁｮｳｲﾁﾉﾊﾗ","prefecture":"三重県","city":"いなべ市","street":"員弁町市之原"},{"zipCode":"5110206","prefectureKana":"ﾐｴｹﾝ","cityKana":"ｲﾅﾍﾞｼ","streetKana":"ｲﾅﾍﾞﾁｮｳｳﾉ","prefecture":"三重県","city":"いなべ市","street":"員弁町宇野"},{"zipCode":"5110224","prefectureKana":"ﾐｴｹﾝ","cityKana":"ｲﾅﾍﾞｼ","streetKana":"ｲﾅﾍﾞﾁｮｳｵｵｲｽﾞﾐ","prefecture":"三重県","city":"いなべ市","street":"員弁町大泉"},{"zipCode":"5110217","prefectureKana":"ﾐｴｹﾝ","cityKana":"ｲﾅﾍﾞｼ","streetKana":"ｲﾅﾍﾞﾁｮｳｵｵｲｽﾞﾐｼﾝﾃﾞﾝ","prefecture":"三重県","city":"いなべ市","street":"員弁町大泉新田"},{"zipCode":"5110214","prefectureKana":"ﾐｴｹﾝ","cityKana":"ｲﾅﾍﾞｼ","streetKana":"ｲﾅﾍﾞﾁｮｳｵｶﾁｮｳﾀﾞ","prefecture":"三重県","city":"いなべ市","street":"員弁町岡丁田"},{"zipCode":"5110205","prefectureKana":"ﾐｴｹﾝ","cityKana":"ｲﾅﾍﾞｼ","streetKana":"ｲﾅﾍﾞﾁｮｳｶｻﾀﾞｼﾝﾃﾞﾝ","prefecture":"三重県","city":"いなべ市","street":"員弁町笠田新田"},{"zipCode":"5110207","prefectureKana":"ﾐｴｹﾝ","cityKana":"ｲﾅﾍﾞｼ","streetKana":"ｲﾅﾍﾞﾁｮｳｶﾐｶｻﾀﾞ","prefecture":"三重県","city":"いなべ市","street":"員弁町上笠田"},{"zipCode":"5110223","prefectureKana":"ﾐｴｹﾝ","cityKana":"ｲﾅﾍﾞｼ","streetKana":"ｲﾅﾍﾞﾁｮｳｷﾀｶﾅｲ","prefecture":"三重県","city":"いなべ市","street":"員弁町北金井"},{"zipCode":"5110213","prefectureKana":"ﾐｴｹﾝ","cityKana":"ｲﾅﾍﾞｼ","streetKana":"ｲﾅﾍﾞﾁｮｳｸﾗｶﾞﾘ","prefecture":"三重県","city":"いなべ市","street":"員弁町暮明"},{"zipCode":"5110221","prefectureKana":"ﾐｴｹﾝ","cityKana":"ｲﾅﾍﾞｼ","streetKana":"ｲﾅﾍﾞﾁｮｳｼﾓｶｻﾀﾞ","prefecture":"三重県","city":"いなべ市","street":"員弁町下笠田"},{"zipCode":"5110202","prefectureKana":"ﾐｴｹﾝ","cityKana":"ｲﾅﾍﾞｼ","streetKana":"ｲﾅﾍﾞﾁｮｳｿﾊﾗ","prefecture":"三重県","city":"いなべ市","street":"員弁町楚原"},{"zipCode":"5110225","prefectureKana":"ﾐｴｹﾝ","cityKana":"ｲﾅﾍﾞｼ","streetKana":"ｲﾅﾍﾞﾁｮｳﾆｼｶﾞﾀ","prefecture":"三重県","city":"いなべ市","street":"員弁町西方"},{"zipCode":"5110203","prefectureKana":"ﾐｴｹﾝ","cityKana":"ｲﾅﾍﾞｼ","streetKana":"ｲﾅﾍﾞﾁｮｳﾊﾀｼﾝﾃﾞﾝ","prefecture":"三重県","city":"いなべ市","street":"員弁町畑新田"},{"zipCode":"5110208","prefectureKana":"ﾐｴｹﾝ","cityKana":"ｲﾅﾍﾞｼ","streetKana":"ｲﾅﾍﾞﾁｮｳﾊﾞﾝﾄﾞｳｼﾝﾃﾞﾝ","prefecture":"三重県","city":"いなべ市","street":"員弁町坂東新田"},{"zipCode":"5110215","prefectureKana":"ﾐｴｹﾝ","cityKana":"ｲﾅﾍﾞｼ","streetKana":"ｲﾅﾍﾞﾁｮｳﾋｶﾞｼｲｯｼｷ","prefecture":"三重県","city":"いなべ市","street":"員弁町東一色"},{"zipCode":"5110212","prefectureKana":"ﾐｴｹﾝ","cityKana":"ｲﾅﾍﾞｼ","streetKana":"ｲﾅﾍﾞﾁｮｳﾋﾗｺ","prefecture":"三重県","city":"いなべ市","street":"員弁町平古"},{"zipCode":"5110211","prefectureKana":"ﾐｴｹﾝ","cityKana":"ｲﾅﾍﾞｼ","streetKana":"ｲﾅﾍﾞﾁｮｳﾏﾂﾅｼﾝﾃﾞﾝ","prefecture":"三重県","city":"いなべ市","street":"員弁町松名新田"},{"zipCode":"5110216","prefectureKana":"ﾐｴｹﾝ","cityKana":"ｲﾅﾍﾞｼ","streetKana":"ｲﾅﾍﾞﾁｮｳﾏﾂﾉｷ","prefecture":"三重県","city":"いなべ市","street":"員弁町松之木"},{"zipCode":"5110222","prefectureKana":"ﾐｴｹﾝ","cityKana":"ｲﾅﾍﾞｼ","streetKana":"ｲﾅﾍﾞﾁｮｳﾐｿﾉ","prefecture":"三重県","city":"いなべ市","street":"員弁町御薗"},{"zipCode":"5110267","prefectureKana":"ﾐｴｹﾝ","cityKana":"ｲﾅﾍﾞｼ","streetKana":"ﾀﾞｲｱﾝﾁｮｳｲｼｸﾞﾚｷﾀﾔﾏ","prefecture":"三重県","city":"いなべ市","street":"大安町石榑北山"},{"zipCode":"5110276","prefectureKana":"ﾐｴｹﾝ","cityKana":"ｲﾅﾍﾞｼ","streetKana":"ﾀﾞｲｱﾝﾁｮｳｲｼｸﾞﾚｼﾓ","prefecture":"三重県","city":"いなべ市","street":"大安町石榑下"},{"zipCode":"5110264","prefectureKana":"ﾐｴｹﾝ","cityKana":"ｲﾅﾍﾞｼ","streetKana":"ﾀﾞｲｱﾝﾁｮｳｲｼｸﾞﾚﾋｶﾞｼ","prefecture":"三重県","city":"いなべ市","street":"大安町石榑東"},{"zipCode":"5110266","prefectureKana":"ﾐｴｹﾝ","cityKana":"ｲﾅﾍﾞｼ","streetKana":"ﾀﾞｲｱﾝﾁｮｳｲｼｸﾞﾚﾐﾅﾐ","prefecture":"三重県","city":"いなべ市","street":"大安町石榑南"},{"zipCode":"5110265","prefectureKana":"ﾐｴｹﾝ","cityKana":"ｲﾅﾍﾞｼ","streetKana":"ﾀﾞｲｱﾝﾁｮｳｲｼｸﾞﾚｷﾀ","prefecture":"三重県","city":"いなべ市","street":"大安町石榑北"},{"zipCode":"5110286","prefectureKana":"ﾐｴｹﾝ","cityKana":"ｲﾅﾍﾞｼ","streetKana":"ﾀﾞｲｱﾝﾁｮｳｳｶﾞ","prefecture":"三重県","city":"いなべ市","street":"大安町宇賀"},{"zipCode":"5110285","prefectureKana":"ﾐｴｹﾝ","cityKana":"ｲﾅﾍﾞｼ","streetKana":"ﾀﾞｲｱﾝﾁｮｳｳｶﾞｼﾝﾃﾞﾝ","prefecture":"三重県","city":"いなべ市","street":"大安町宇賀新田"},{"zipCode":"5110284","prefectureKana":"ﾐｴｹﾝ","cityKana":"ｲﾅﾍﾞｼ","streetKana":"ﾀﾞｲｱﾝﾁｮｳｳﾒﾄﾞ","prefecture":"三重県","city":"いなべ市","street":"大安町梅戸"},{"zipCode":"5110282","prefectureKana":"ﾐｴｹﾝ","cityKana":"ｲﾅﾍﾞｼ","streetKana":"ﾀﾞｲｱﾝﾁｮｳｵｵｲｽﾞﾐ","prefecture":"三重県","city":"いなべ市","street":"大安町大泉"},{"zipCode":"5110274","prefectureKana":"ﾐｴｹﾝ","cityKana":"ｲﾅﾍﾞｼ","streetKana":"ﾀﾞｲｱﾝﾁｮｳｵｵｲﾀﾞ","prefecture":"三重県","city":"いなべ市","street":"大安町大井田"},{"zipCode":"5110271","prefectureKana":"ﾐｴｹﾝ","cityKana":"ｲﾅﾍﾞｼ","streetKana":"ﾀﾞｲｱﾝﾁｮｳｶﾀﾋ","prefecture":"三重県","city":"いなべ市","street":"大安町片樋"},{"zipCode":"5110272","prefectureKana":"ﾐｴｹﾝ","cityKana":"ｲﾅﾍﾞｼ","streetKana":"ﾀﾞｲｱﾝﾁｮｳﾀｶﾔﾅｷﾞ","prefecture":"三重県","city":"いなべ市","street":"大安町高柳"},{"zipCode":"5110287","prefectureKana":"ﾐｴｹﾝ","cityKana":"ｲﾅﾍﾞｼ","streetKana":"ﾀﾞｲｱﾝﾁｮｳﾁｭｳｵｳｶﾞｵｶ","prefecture":"三重県","city":"いなべ市","street":"大安町中央ケ丘"},{"zipCode":"5110275","prefectureKana":"ﾐｴｹﾝ","cityKana":"ｲﾅﾍﾞｼ","streetKana":"ﾀﾞｲｱﾝﾁｮｳﾅﾍﾞｻｶ","prefecture":"三重県","city":"いなべ市","street":"大安町鍋坂"},{"zipCode":"5110261","prefectureKana":"ﾐｴｹﾝ","cityKana":"ｲﾅﾍﾞｼ","streetKana":"ﾀﾞｲｱﾝﾁｮｳﾆｭｳｶﾞﾜｶﾐ","prefecture":"三重県","city":"いなべ市","street":"大安町丹生川上"},{"zipCode":"5110262","prefectureKana":"ﾐｴｹﾝ","cityKana":"ｲﾅﾍﾞｼ","streetKana":"ﾀﾞｲｱﾝﾁｮｳﾆｭｳｶﾞﾜﾅｶ","prefecture":"三重県","city":"いなべ市","street":"大安町丹生川中"},{"zipCode":"5110263","prefectureKana":"ﾐｴｹﾝ","cityKana":"ｲﾅﾍﾞｼ","streetKana":"ﾀﾞｲｱﾝﾁｮｳﾆｭｳｶﾞﾜﾋｻｶ","prefecture":"三重県","city":"いなべ市","street":"大安町丹生川久下"},{"zipCode":"5110273","prefectureKana":"ﾐｴｹﾝ","cityKana":"ｲﾅﾍﾞｼ","streetKana":"ﾀﾞｲｱﾝﾁｮｳﾋﾗﾂｶ","prefecture":"三重県","city":"いなべ市","street":"大安町平塚"},{"zipCode":"5110283","prefectureKana":"ﾐｴｹﾝ","cityKana":"ｲﾅﾍﾞｼ","streetKana":"ﾀﾞｲｱﾝﾁｮｳﾐﾅﾐｶﾅｲ","prefecture":"三重県","city":"いなべ市","street":"大安町南金井"},{"zipCode":"5110281","prefectureKana":"ﾐｴｹﾝ","cityKana":"ｲﾅﾍﾞｼ","streetKana":"ﾀﾞｲｱﾝﾁｮｳﾓﾝｾﾞﾝ","prefecture":"三重県","city":"いなべ市","street":"大安町門前"},{"zipCode":"5110514","prefectureKana":"ﾐｴｹﾝ","cityKana":"ｲﾅﾍﾞｼ","streetKana":"ﾌｼﾞﾜﾗﾁｮｳｲｼｶﾜ","prefecture":"三重県","city":"いなべ市","street":"藤原町石川"},{"zipCode":"5110511","prefectureKana":"ﾐｴｹﾝ","cityKana":"ｲﾅﾍﾞｼ","streetKana":"ﾌｼﾞﾜﾗﾁｮｳｲﾁﾊﾞ","prefecture":"三重県","city":"いなべ市","street":"藤原町市場"},{"zipCode":"5110507","prefectureKana":"ﾐｴｹﾝ","cityKana":"ｲﾅﾍﾞｼ","streetKana":"ﾌｼﾞﾜﾗﾁｮｳｳｴﾉﾔﾏﾀﾞ","prefecture":"三重県","city":"いなべ市","street":"藤原町上之山田"},{"zipCode":"5110517","prefectureKana":"ﾐｴｹﾝ","cityKana":"ｲﾅﾍﾞｼ","streetKana":"ﾌｼﾞﾜﾗﾁｮｳｵｵｶﾞｲﾄ","prefecture":"三重県","city":"いなべ市","street":"藤原町大貝戸"},{"zipCode":"5110501","prefectureKana":"ﾐｴｹﾝ","cityKana":"ｲﾅﾍﾞｼ","streetKana":"ﾌｼﾞﾜﾗﾁｮｳｶﾅｴ","prefecture":"三重県","city":"いなべ市","street":"藤原町鼎"},{"zipCode":"5110502","prefectureKana":"ﾐｴｹﾝ","cityKana":"ｲﾅﾍﾞｼ","streetKana":"ﾌｼﾞﾜﾗﾁｮｳｶﾐｱｲﾊﾞ","prefecture":"三重県","city":"いなべ市","street":"藤原町上相場"},{"zipCode":"5110504","prefectureKana":"ﾐｴｹﾝ","cityKana":"ｲﾅﾍﾞｼ","streetKana":"ﾌｼﾞﾜﾗﾁｮｳｶﾜｲ","prefecture":"三重県","city":"いなべ市","street":"藤原町川合"},{"zipCode":"5110518","prefectureKana":"ﾐｴｹﾝ","cityKana":"ｲﾅﾍﾞｼ","streetKana":"ﾌｼﾞﾜﾗﾁｮｳｻｶﾓﾄ","prefecture":"三重県","city":"いなべ市","street":"藤原町坂本"},{"zipCode":"5110522","prefectureKana":"ﾐｴｹﾝ","cityKana":"ｲﾅﾍﾞｼ","streetKana":"ﾌｼﾞﾜﾗﾁｮｳｼﾉﾀﾞﾁ","prefecture":"三重県","city":"いなべ市","street":"藤原町篠立"},{"zipCode":"5110503","prefectureKana":"ﾐｴｹﾝ","cityKana":"ｲﾅﾍﾞｼ","streetKana":"ﾌｼﾞﾜﾗﾁｮｳｼﾓｱｲﾊﾞ","prefecture":"三重県","city":"いなべ市","street":"藤原町下相場"},{"zipCode":"5110513","prefectureKana":"ﾐｴｹﾝ","cityKana":"ｲﾅﾍﾞｼ","streetKana":"ﾌｼﾞﾜﾗﾁｮｳｼﾓﾉｼﾞﾘ","prefecture":"三重県","city":"いなべ市","street":"藤原町下野尻"},{"zipCode":"5110512","prefectureKana":"ﾐｴｹﾝ","cityKana":"ｲﾅﾍﾞｼ","streetKana":"ﾌｼﾞﾜﾗﾁｮｳｼﾚｲｼｼﾝﾃﾞﾝ","prefecture":"三重県","city":"いなべ市","street":"藤原町志礼石新田"},{"zipCode":"5110515","prefectureKana":"ﾐｴｹﾝ","cityKana":"ｲﾅﾍﾞｼ","streetKana":"ﾌｼﾞﾜﾗﾁｮｳﾄｳｾﾞﾝｼﾞ","prefecture":"三重県","city":"いなべ市","street":"藤原町東禅寺"},{"zipCode":"5110506","prefectureKana":"ﾐｴｹﾝ","cityKana":"ｲﾅﾍﾞｼ","streetKana":"ﾌｼﾞﾜﾗﾁｮｳﾅｶﾞｵ","prefecture":"三重県","city":"いなべ市","street":"藤原町長尾"},{"zipCode":"5110516","prefectureKana":"ﾐｴｹﾝ","cityKana":"ｲﾅﾍﾞｼ","streetKana":"ﾌｼﾞﾜﾗﾁｮｳﾆｼﾉｼﾞﾘ","prefecture":"三重県","city":"いなべ市","street":"藤原町西野尻"},{"zipCode":"5110505","prefectureKana":"ﾐｴｹﾝ","cityKana":"ｲﾅﾍﾞｼ","streetKana":"ﾌｼﾞﾜﾗﾁｮｳﾋﾅｲ","prefecture":"三重県","city":"いなべ市","street":"藤原町日内"},{"zipCode":"5110508","prefectureKana":"ﾐｴｹﾝ","cityKana":"ｲﾅﾍﾞｼ","streetKana":"ﾌｼﾞﾜﾗﾁｮｳﾌｼﾞｶﾞｵｶ","prefecture":"三重県","city":"いなべ市","street":"藤原町藤ケ丘"},{"zipCode":"5110521","prefectureKana":"ﾐｴｹﾝ","cityKana":"ｲﾅﾍﾞｼ","streetKana":"ﾌｼﾞﾜﾗﾁｮｳﾌﾙﾀ","prefecture":"三重県","city":"いなべ市","street":"藤原町古田"},{"zipCode":"5110519","prefectureKana":"ﾐｴｹﾝ","cityKana":"ｲﾅﾍﾞｼ","streetKana":"ﾌｼﾞﾜﾗﾁｮｳﾍﾞﾂﾐｮｳ","prefecture":"三重県","city":"いなべ市","street":"藤原町別名"},{"zipCode":"5110523","prefectureKana":"ﾐｴｹﾝ","cityKana":"ｲﾅﾍﾞｼ","streetKana":"ﾌｼﾞﾜﾗﾁｮｳﾎﾝｺﾞｳ","prefecture":"三重県","city":"いなべ市","street":"藤原町本郷"},{"zipCode":"5110524","prefectureKana":"ﾐｴｹﾝ","cityKana":"ｲﾅﾍﾞｼ","streetKana":"ﾌｼﾞﾜﾗﾁｮｳﾔﾏｸﾞﾁ","prefecture":"三重県","city":"いなべ市","street":"藤原町山口"},{"zipCode":"5110428","prefectureKana":"ﾐｴｹﾝ","cityKana":"ｲﾅﾍﾞｼ","streetKana":"ﾎｸｾｲﾁｮｳｱｹﾞｷ","prefecture":"三重県","city":"いなべ市","street":"北勢町阿下喜"},{"zipCode":"5110416","prefectureKana":"ﾐｴｹﾝ","cityKana":"ｲﾅﾍﾞｼ","streetKana":"ﾎｸｾｲﾁｮｳｲｸﾞﾗ","prefecture":"三重県","city":"いなべ市","street":"北勢町飯倉"},{"zipCode":"5110427","prefectureKana":"ﾐｴｹﾝ","cityKana":"ｲﾅﾍﾞｼ","streetKana":"ﾎｸｾｲﾁｮｳｵｳﾀﾞ","prefecture":"三重県","city":"いなべ市","street":"北勢町麻生田"},{"zipCode":"5110425","prefectureKana":"ﾐｴｹﾝ","cityKana":"ｲﾅﾍﾞｼ","streetKana":"ﾎｸｾｲﾁｮｳｵｵﾂｼﾞｼﾝﾃﾞﾝ","prefecture":"三重県","city":"いなべ市","street":"北勢町大辻新田"},{"zipCode":"5110435","prefectureKana":"ﾐｴｹﾝ","cityKana":"ｲﾅﾍﾞｼ","streetKana":"ﾎｸｾｲﾁｮｳｵｸﾑﾗ","prefecture":"三重県","city":"いなべ市","street":"北勢町奥村"},{"zipCode":"5110437","prefectureKana":"ﾐｴｹﾝ","cityKana":"ｲﾅﾍﾞｼ","streetKana":"ﾎｸｾｲﾁｮｳｶｲﾄ","prefecture":"三重県","city":"いなべ市","street":"北勢町垣内"},{"zipCode":"5110401","prefectureKana":"ﾐｴｹﾝ","cityKana":"ｲﾅﾍﾞｼ","streetKana":"ﾎｸｾｲﾁｮｳｶﾜﾊﾗ","prefecture":"三重県","city":"いなべ市","street":"北勢町川原"},{"zipCode":"5110422","prefectureKana":"ﾐｴｹﾝ","cityKana":"ｲﾅﾍﾞｼ","streetKana":"ﾎｸｾｲﾁｮｳｷﾀﾅｶﾂﾊﾗ","prefecture":"三重県","city":"いなべ市","street":"北勢町北中津原"},{"zipCode":"5110411","prefectureKana":"ﾐｴｹﾝ","cityKana":"ｲﾅﾍﾞｼ","streetKana":"ﾎｸｾｲﾁｮｳｷｮｳｶﾞﾉｼﾝﾃﾞﾝ","prefecture":"三重県","city":"いなべ市","street":"北勢町京ケ野新田"},{"zipCode":"5110404","prefectureKana":"ﾐｴｹﾝ","cityKana":"ｲﾅﾍﾞｼ","streetKana":"ﾎｸｾｲﾁｮｳｺﾊﾗｲｯｼｷ","prefecture":"三重県","city":"いなべ市","street":"北勢町小原一色"},{"zipCode":"5110406","prefectureKana":"ﾐｴｹﾝ","cityKana":"ｲﾅﾍﾞｼ","streetKana":"ﾎｸｾｲﾁｮｳｼｵｻｷ","prefecture":"三重県","city":"いなべ市","street":"北勢町塩崎"},{"zipCode":"5110418","prefectureKana":"ﾐｴｹﾝ","cityKana":"ｲﾅﾍﾞｼ","streetKana":"ﾎｸｾｲﾁｮｳｼﾓﾋﾗ","prefecture":"三重県","city":"いなべ市","street":"北勢町下平"},{"zipCode":"5110436","prefectureKana":"ﾐｴｹﾝ","cityKana":"ｲﾅﾍﾞｼ","streetKana":"ﾎｸｾｲﾁｮｳｼﾝﾏﾁ","prefecture":"三重県","city":"いなべ市","street":"北勢町新町"},{"zipCode":"5110417","prefectureKana":"ﾐｴｹﾝ","cityKana":"ｲﾅﾍﾞｼ","streetKana":"ﾎｸｾｲﾁｮｳｾｷﾞ","prefecture":"三重県","city":"いなべ市","street":"北勢町瀬木"},{"zipCode":"5110402","prefectureKana":"ﾐｴｹﾝ","cityKana":"ｲﾅﾍﾞｼ","streetKana":"ﾎｸｾｲﾁｮｳｾﾝｼﾞｸﾞﾚｼﾝﾃﾞﾝ","prefecture":"三重県","city":"いなべ市","street":"北勢町千司久連新田"},{"zipCode":"5110426","prefectureKana":"ﾐｴｹﾝ","cityKana":"ｲﾅﾍﾞｼ","streetKana":"ﾎｸｾｲﾁｮｳｿﾉﾊﾗ","prefecture":"三重県","city":"いなべ市","street":"北勢町其原"},{"zipCode":"5110405","prefectureKana":"ﾐｴｹﾝ","cityKana":"ｲﾅﾍﾞｼ","streetKana":"ﾎｸｾｲﾁｮｳﾀﾅﾍﾞ","prefecture":"三重県","city":"いなべ市","street":"北勢町田辺"},{"zipCode":"5110421","prefectureKana":"ﾐｴｹﾝ","cityKana":"ｲﾅﾍﾞｼ","streetKana":"ﾎｸｾｲﾁｮｳﾂﾂﾞﾐ","prefecture":"三重県","city":"いなべ市","street":"北勢町皷"},{"zipCode":"5110433","prefectureKana":"ﾐｴｹﾝ","cityKana":"ｲﾅﾍﾞｼ","streetKana":"ﾎｸｾｲﾁｮｳﾅｶﾔﾏ","prefecture":"三重県","city":"いなべ市","street":"北勢町中山"},{"zipCode":"5110414","prefectureKana":"ﾐｴｹﾝ","cityKana":"ｲﾅﾍﾞｼ","streetKana":"ﾎｸｾｲﾁｮｳﾆｼｶｲﾉ","prefecture":"三重県","city":"いなべ市","street":"北勢町西貝野"},{"zipCode":"5110403","prefectureKana":"ﾐｴｹﾝ","cityKana":"ｲﾅﾍﾞｼ","streetKana":"ﾎｸｾｲﾁｮｳﾆﾉｾ","prefecture":"三重県","city":"いなべ市","street":"北勢町二之瀬"},{"zipCode":"5110413","prefectureKana":"ﾐｴｹﾝ","cityKana":"ｲﾅﾍﾞｼ","streetKana":"ﾎｸｾｲﾁｮｳﾊﾀｹ","prefecture":"三重県","city":"いなべ市","street":"北勢町畑毛"},{"zipCode":"5110438","prefectureKana":"ﾐｴｹﾝ","cityKana":"ｲﾅﾍﾞｼ","streetKana":"ﾎｸｾｲﾁｮｳﾊｯﾀﾄﾞﾓ","prefecture":"三重県","city":"いなべ市","street":"北勢町治田外面"},{"zipCode":"5110415","prefectureKana":"ﾐｴｹﾝ","cityKana":"ｲﾅﾍﾞｼ","streetKana":"ﾎｸｾｲﾁｮｳﾋｶﾞｼｶｲﾉ","prefecture":"三重県","city":"いなべ市","street":"北勢町東貝野"},{"zipCode":"5110432","prefectureKana":"ﾐｴｹﾝ","cityKana":"ｲﾅﾍﾞｼ","streetKana":"ﾎｸｾｲﾁｮｳﾋｶﾞｼﾑﾗ","prefecture":"三重県","city":"いなべ市","street":"北勢町東村"},{"zipCode":"5110423","prefectureKana":"ﾐｴｹﾝ","cityKana":"ｲﾅﾍﾞｼ","streetKana":"ﾎｸｾｲﾁｮｳﾋﾗﾉｼﾝﾃﾞﾝ","prefecture":"三重県","city":"いなべ市","street":"北勢町平野新田"},{"zipCode":"5110434","prefectureKana":"ﾐｴｹﾝ","cityKana":"ｲﾅﾍﾞｼ","streetKana":"ﾎｸｾｲﾁｮｳﾌﾓﾄﾑﾗ","prefecture":"三重県","city":"いなべ市","street":"北勢町麓村"},{"zipCode":"5110431","prefectureKana":"ﾐｴｹﾝ","cityKana":"ｲﾅﾍﾞｼ","streetKana":"ﾎｸｾｲﾁｮｳﾍﾞﾂﾐｮｳ","prefecture":"三重県","city":"いなべ市","street":"北勢町別名"},{"zipCode":"5110424","prefectureKana":"ﾐｴｹﾝ","cityKana":"ｲﾅﾍﾞｼ","streetKana":"ﾎｸｾｲﾁｮｳﾐﾅﾐﾅｶﾂﾊﾗ","prefecture":"三重県","city":"いなべ市","street":"北勢町南中津原"},{"zipCode":"5110412","prefectureKana":"ﾐｴｹﾝ","cityKana":"ｲﾅﾍﾞｼ","streetKana":"ﾎｸｾｲﾁｮｳﾑｺﾋﾗ","prefecture":"三重県","city":"いなべ市","street":"北勢町向平"},{"zipCode":"5110200","prefectureKana":"ﾐｴｹﾝ","cityKana":"ｲﾅﾍﾞｸﾞﾝﾄｳｲﾝﾁｮｳ","streetKana":"ｲｶﾆｹｲｻｲｶﾞﾅｲﾊﾞｱｲ","prefecture":"三重県","city":"員弁郡東員町","street":"以下に掲載がない場合"},{"zipCode":"5110243","prefectureKana":"ﾐｴｹﾝ","cityKana":"ｲﾅﾍﾞｸﾞﾝﾄｳｲﾝﾁｮｳ","streetKana":"ｱﾉｳ","prefecture":"三重県","city":"員弁郡東員町","street":"穴太"},{"zipCode":"5110244","prefectureKana":"ﾐｴｹﾝ","cityKana":"ｲﾅﾍﾞｸﾞﾝﾄｳｲﾝﾁｮｳ","streetKana":"ｵｵｷ","prefecture":"三重県","city":"員弁郡東員町","street":"大木"},{"zipCode":"5110257","prefectureKana":"ﾐｴｹﾝ","cityKana":"ｲﾅﾍﾞｸﾞﾝﾄｳｲﾝﾁｮｳ","streetKana":"ｷﾀｵｵﾔｼﾛ","prefecture":"三重県","city":"員弁郡東員町","street":"北大社"},{"zipCode":"5110251","prefectureKana":"ﾐｴｹﾝ","cityKana":"ｲﾅﾍﾞｸﾞﾝﾄｳｲﾝﾁｮｳ","streetKana":"ｷﾀﾔﾏﾀﾞ","prefecture":"三重県","city":"員弁郡東員町","street":"北山田"},{"zipCode":"5110232","prefectureKana":"ﾐｴｹﾝ","cityKana":"ｲﾅﾍﾞｸﾞﾝﾄｳｲﾝﾁｮｳ","streetKana":"ｻｻｵﾋｶﾞｼ","prefecture":"三重県","city":"員弁郡東員町","street":"笹尾東"},{"zipCode":"5110231","prefectureKana":"ﾐｴｹﾝ","cityKana":"ｲﾅﾍﾞｸﾞﾝﾄｳｲﾝﾁｮｳ","streetKana":"ｻｻｵﾆｼ","prefecture":"三重県","city":"員弁郡東員町","street":"笹尾西"},{"zipCode":"5110233","prefectureKana":"ﾐｴｹﾝ","cityKana":"ｲﾅﾍﾞｸﾞﾝﾄｳｲﾝﾁｮｳ","streetKana":"ｼﾛﾔﾏ","prefecture":"三重県","city":"員弁郡東員町","street":"城山"},{"zipCode":"5110252","prefectureKana":"ﾐｴｹﾝ","cityKana":"ｲﾅﾍﾞｸﾞﾝﾄｳｲﾝﾁｮｳ","streetKana":"ｾｺｲｽﾞﾐ","prefecture":"三重県","city":"員弁郡東員町","street":"瀬古泉"},{"zipCode":"5110253","prefectureKana":"ﾐｴｹﾝ","cityKana":"ｲﾅﾍﾞｸﾞﾝﾄｳｲﾝﾁｮｳ","streetKana":"ﾂｸｼ","prefecture":"三重県","city":"員弁郡東員町","street":"筑紫"},{"zipCode":"5110241","prefectureKana":"ﾐｴｹﾝ","cityKana":"ｲﾅﾍﾞｸﾞﾝﾄｳｲﾝﾁｮｳ","streetKana":"ﾄｯﾄﾘ","prefecture":"三重県","city":"員弁郡東員町","street":"鳥取"},{"zipCode":"5110254","prefectureKana":"ﾐｴｹﾝ","cityKana":"ｲﾅﾍﾞｸﾞﾝﾄｳｲﾝﾁｮｳ","streetKana":"ﾅｶｶﾞﾐ","prefecture":"三重県","city":"員弁郡東員町","street":"中上"},{"zipCode":"5110255","prefectureKana":"ﾐｴｹﾝ","cityKana":"ｲﾅﾍﾞｸﾞﾝﾄｳｲﾝﾁｮｳ","streetKana":"ﾅｶﾞﾌｹ","prefecture":"三重県","city":"員弁郡東員町","street":"長深"},{"zipCode":"5110245","prefectureKana":"ﾐｴｹﾝ","cityKana":"ｲﾅﾍﾞｸﾞﾝﾄｳｲﾝﾁｮｳ","streetKana":"ﾊﾁﾏﾝｼﾝﾃﾞﾝ","prefecture":"三重県","city":"員弁郡東員町","street":"八幡新田"},{"zipCode":"5110256","prefectureKana":"ﾐｴｹﾝ","cityKana":"ｲﾅﾍﾞｸﾞﾝﾄｳｲﾝﾁｮｳ","streetKana":"ﾐﾅﾐｵｵﾔｼﾛ","prefecture":"三重県","city":"員弁郡東員町","street":"南大社"},{"zipCode":"5110251","prefectureKana":"ﾐｴｹﾝ","cityKana":"ｲﾅﾍﾞｸﾞﾝﾄｳｲﾝﾁｮｳ","streetKana":"ﾔﾏﾀﾞ","prefecture":"三重県","city":"員弁郡東員町","street":"山田"},{"zipCode":"5110242","prefectureKana":"ﾐｴｹﾝ","cityKana":"ｲﾅﾍﾞｸﾞﾝﾄｳｲﾝﾁｮｳ","streetKana":"ﾛｯﾊﾟﾉｼﾝﾃﾞﾝ","prefecture":"三重県","city":"員弁郡東員町","street":"六把野新田"}]