[{"zipCode":"5128046","prefectureKana":"ﾐｴｹﾝ","cityKana":"ﾖｯｶｲﾁｼ","streetKana":"ｱｶﾂｷﾀﾞｲ","prefecture":"三重県","city":"四日市市","street":"あかつき台"},{"zipCode":"5121202","prefectureKana":"ﾐｴｹﾝ","cityKana":"ﾖｯｶｲﾁｼ","streetKana":"ｱｶﾞﾀｶﾞｵｶ","prefecture":"三重県","city":"四日市市","street":"あがたが丘"},{"zipCode":"5121204","prefectureKana":"ﾐｴｹﾝ","cityKana":"ﾖｯｶｲﾁｼ","streetKana":"ｱｺｽﾞﾁｮｳ","prefecture":"三重県","city":"四日市市","street":"赤水町"},{"zipCode":"5128055","prefectureKana":"ﾐｴｹﾝ","cityKana":"ﾖｯｶｲﾁｼ","streetKana":"ｱｻｹｶﾞｵｶ","prefecture":"三重県","city":"四日市市","street":"あさけが丘"},{"zipCode":"5128054","prefectureKana":"ﾐｴｹﾝ","cityKana":"ﾖｯｶｲﾁｼ","streetKana":"ｱｻｹﾁｮｳ","prefecture":"三重県","city":"四日市市","street":"朝明町"},{"zipCode":"5120911","prefectureKana":"ﾐｴｹﾝ","cityKana":"ﾖｯｶｲﾁｼ","streetKana":"ｲｸﾜﾁｮｳ","prefecture":"三重県","city":"四日市市","street":"生桑町"},{"zipCode":"5128066","prefectureKana":"ﾐｴｹﾝ","cityKana":"ﾖｯｶｲﾁｼ","streetKana":"ｲｻｶﾀﾞｲ","prefecture":"三重県","city":"四日市市","street":"伊坂台"},{"zipCode":"5128064","prefectureKana":"ﾐｴｹﾝ","cityKana":"ﾖｯｶｲﾁｼ","streetKana":"ｲｻｶﾁｮｳ","prefecture":"三重県","city":"四日市市","street":"伊坂町"},{"zipCode":"5121302","prefectureKana":"ﾐｴｹﾝ","cityKana":"ﾖｯｶｲﾁｼ","streetKana":"ｲﾁﾊﾞﾁｮｳ","prefecture":"三重県","city":"四日市市","street":"市場町"},{"zipCode":"5120931","prefectureKana":"ﾐｴｹﾝ","cityKana":"ﾖｯｶｲﾁｼ","streetKana":"ｳｷﾊｼ","prefecture":"三重県","city":"四日市市","street":"浮橋"},{"zipCode":"5121101","prefectureKana":"ﾐｴｹﾝ","cityKana":"ﾖｯｶｲﾁｼ","streetKana":"ｳﾁﾔﾏﾁｮｳ","prefecture":"三重県","city":"四日市市","street":"内山町"},{"zipCode":"5121206","prefectureKana":"ﾐｴｹﾝ","cityKana":"ﾖｯｶｲﾁｼ","streetKana":"ｴﾑﾗﾁｮｳ","prefecture":"三重県","city":"四日市市","street":"江村町"},{"zipCode":"5121216","prefectureKana":"ﾐｴｹﾝ","cityKana":"ﾖｯｶｲﾁｼ","streetKana":"ｵｳｶﾀﾞｲ","prefecture":"三重県","city":"四日市市","street":"桜花台"},{"zipCode":"5128053","prefectureKana":"ﾐｴｹﾝ","cityKana":"ﾖｯｶｲﾁｼ","streetKana":"ｵｵｶﾞﾈﾁｮｳ","prefecture":"三重県","city":"四日市市","street":"大鐘町"},{"zipCode":"5120901","prefectureKana":"ﾐｴｹﾝ","cityKana":"ﾖｯｶｲﾁｼ","streetKana":"ｵｵﾀﾆﾀﾞｲ","prefecture":"三重県","city":"四日市市","street":"大谷台"},{"zipCode":"5120921","prefectureKana":"ﾐｴｹﾝ","cityKana":"ﾖｯｶｲﾁｼ","streetKana":"ｵﾋﾞﾗﾁｮｳ","prefecture":"三重県","city":"四日市市","street":"尾平町"},{"zipCode":"5121102","prefectureKana":"ﾐｴｹﾝ","cityKana":"ﾖｯｶｲﾁｼ","streetKana":"ｵﾔﾏﾁｮｳ","prefecture":"三重県","city":"四日市市","street":"小山町"},{"zipCode":"5121201","prefectureKana":"ﾐｴｹﾝ","cityKana":"ﾖｯｶｲﾁｼ","streetKana":"ｶﾐｴﾋﾞﾁｮｳ","prefecture":"三重県","city":"四日市市","street":"上海老町"},{"zipCode":"5128045","prefectureKana":"ﾐｴｹﾝ","cityKana":"ﾖｯｶｲﾁｼ","streetKana":"ｶﾖｳﾁｮｳ","prefecture":"三重県","city":"四日市市","street":"萱生町"},{"zipCode":"5120935","prefectureKana":"ﾐｴｹﾝ","cityKana":"ﾖｯｶｲﾁｼ","streetKana":"ｶﾜｼﾏｼﾝﾏﾁ","prefecture":"三重県","city":"四日市市","street":"川島新町"},{"zipCode":"5120934","prefectureKana":"ﾐｴｹﾝ","cityKana":"ﾖｯｶｲﾁｼ","streetKana":"ｶﾜｼﾏﾁｮｳ","prefecture":"三重県","city":"四日市市","street":"川島町"},{"zipCode":"5121208","prefectureKana":"ﾐｴｹﾝ","cityKana":"ﾖｯｶｲﾁｼ","streetKana":"ｷﾀﾉﾁｮｳ","prefecture":"三重県","city":"四日市市","street":"北野町"},{"zipCode":"5128051","prefectureKana":"ﾐｴｹﾝ","cityKana":"ﾖｯｶｲﾁｼ","streetKana":"ｷﾀﾔﾏﾁｮｳ","prefecture":"三重県","city":"四日市市","street":"北山町"},{"zipCode":"5121207","prefectureKana":"ﾐｴｹﾝ","cityKana":"ﾖｯｶｲﾁｼ","streetKana":"ｸﾛﾀﾞﾁｮｳ","prefecture":"三重県","city":"四日市市","street":"黒田町"},{"zipCode":"5128062","prefectureKana":"ﾐｴｹﾝ","cityKana":"ﾖｯｶｲﾁｼ","streetKana":"ｺｶﾞﾈﾁｮｳ","prefecture":"三重県","city":"四日市市","street":"黄金町"},{"zipCode":"5120903","prefectureKana":"ﾐｴｹﾝ","cityKana":"ﾖｯｶｲﾁｼ","streetKana":"ｺｽｷﾞｼﾝﾏﾁ","prefecture":"三重県","city":"四日市市","street":"小杉新町"},{"zipCode":"5120902","prefectureKana":"ﾐｴｹﾝ","cityKana":"ﾖｯｶｲﾁｼ","streetKana":"ｺｽｷﾞﾁｮｳ","prefecture":"三重県","city":"四日市市","street":"小杉町"},{"zipCode":"5121303","prefectureKana":"ﾐｴｹﾝ","cityKana":"ﾖｯｶｲﾁｼ","streetKana":"ｺﾏｷﾁｮｳ","prefecture":"三重県","city":"四日市市","street":"小牧町"},{"zipCode":"5120932","prefectureKana":"ﾐｴｹﾝ","cityKana":"ﾖｯｶｲﾁｼ","streetKana":"ｺﾓﾁｮｳ","prefecture":"三重県","city":"四日市市","street":"小生町"},{"zipCode":"5120905","prefectureKana":"ﾐｴｹﾝ","cityKana":"ﾖｯｶｲﾁｼ","streetKana":"ｻｶﾍﾞｶﾞｵｶ","prefecture":"三重県","city":"四日市市","street":"坂部が丘"},{"zipCode":"5120908","prefectureKana":"ﾐｴｹﾝ","cityKana":"ﾖｯｶｲﾁｼ","streetKana":"ｻｶﾍﾞﾀﾞｲ","prefecture":"三重県","city":"四日市市","street":"坂部台"},{"zipCode":"5121215","prefectureKana":"ﾐｴｹﾝ","cityKana":"ﾖｯｶｲﾁｼ","streetKana":"ｻｸﾗｼﾝﾏﾁ","prefecture":"三重県","city":"四日市市","street":"桜新町"},{"zipCode":"5121214","prefectureKana":"ﾐｴｹﾝ","cityKana":"ﾖｯｶｲﾁｼ","streetKana":"ｻｸﾗﾀﾞｲ","prefecture":"三重県","city":"四日市市","street":"桜台"},{"zipCode":"5121213","prefectureKana":"ﾐｴｹﾝ","cityKana":"ﾖｯｶｲﾁｼ","streetKana":"ｻｸﾗﾀﾞｲﾎﾝﾏﾁ","prefecture":"三重県","city":"四日市市","street":"桜台本町"},{"zipCode":"5121211","prefectureKana":"ﾐｴｹﾝ","cityKana":"ﾖｯｶｲﾁｼ","streetKana":"ｻｸﾗﾁｮｳ","prefecture":"三重県","city":"四日市市","street":"桜町"},{"zipCode":"5128056","prefectureKana":"ﾐｴｹﾝ","cityKana":"ﾖｯｶｲﾁｼ","streetKana":"ｻﾂﾊﾞﾁｮｳ","prefecture":"三重県","city":"四日市市","street":"札場町"},{"zipCode":"5121113","prefectureKana":"ﾐｴｹﾝ","cityKana":"ﾖｯｶｲﾁｼ","streetKana":"ｼｶﾏﾁｮｳ","prefecture":"三重県","city":"四日市市","street":"鹿間町"},{"zipCode":"5121203","prefectureKana":"ﾐｴｹﾝ","cityKana":"ﾖｯｶｲﾁｼ","streetKana":"ｼﾓｴﾋﾞﾁｮｳ","prefecture":"三重県","city":"四日市市","street":"下海老町"},{"zipCode":"5121105","prefectureKana":"ﾐｴｹﾝ","cityKana":"ﾖｯｶｲﾁｼ","streetKana":"ｽｲｻﾞﾜﾁｮｳ","prefecture":"三重県","city":"四日市市","street":"水沢町"},{"zipCode":"5120301","prefectureKana":"ﾐｴｹﾝ","cityKana":"ﾖｯｶｲﾁｼ","streetKana":"ｽｲｻﾞﾜﾉﾀﾞﾁｮｳ","prefecture":"三重県","city":"四日市市","street":"水沢野田町"},{"zipCode":"5120925","prefectureKana":"ﾐｴｹﾝ","cityKana":"ﾖｯｶｲﾁｼ","streetKana":"ｽｶﾞﾊﾗﾁｮｳ","prefecture":"三重県","city":"四日市市","street":"菅原町"},{"zipCode":"5120922","prefectureKana":"ﾐｴｹﾝ","cityKana":"ﾖｯｶｲﾁｼ","streetKana":"ｿｲﾁｮｳ","prefecture":"三重県","city":"四日市市","street":"曽井町"},{"zipCode":"5120923","prefectureKana":"ﾐｴｹﾝ","cityKana":"ﾖｯｶｲﾁｼ","streetKana":"ﾀｶﾂﾉﾁｮｳ","prefecture":"三重県","city":"四日市市","street":"高角町"},{"zipCode":"5121301","prefectureKana":"ﾐｴｹﾝ","cityKana":"ﾖｯｶｲﾁｼ","streetKana":"ﾀｶﾐﾀﾞｲ","prefecture":"三重県","city":"四日市市","street":"高見台"},{"zipCode":"5121212","prefectureKana":"ﾐｴｹﾝ","cityKana":"ﾖｯｶｲﾁｼ","streetKana":"ﾁｼｬｸﾁｮｳ","prefecture":"三重県","city":"四日市市","street":"智積町"},{"zipCode":"5128065","prefectureKana":"ﾐｴｹﾝ","cityKana":"ﾖｯｶｲﾁｼ","streetKana":"ﾁﾖﾀﾞﾁｮｳ","prefecture":"三重県","city":"四日市市","street":"千代田町"},{"zipCode":"5120924","prefectureKana":"ﾐｴｹﾝ","cityKana":"ﾖｯｶｲﾁｼ","streetKana":"ﾃﾗｶﾞﾀﾁｮｳ","prefecture":"三重県","city":"四日市市","street":"寺方町"},{"zipCode":"5121115","prefectureKana":"ﾐｴｹﾝ","cityKana":"ﾖｯｶｲﾁｼ","streetKana":"ﾄﾞｳｶﾞﾔﾏﾁｮｳ","prefecture":"三重県","city":"四日市市","street":"堂ケ山町"},{"zipCode":"5121304","prefectureKana":"ﾐｴｹﾝ","cityKana":"ﾖｯｶｲﾁｼ","streetKana":"ﾅｶﾉﾁｮｳ","prefecture":"三重県","city":"四日市市","street":"中野町"},{"zipCode":"5128044","prefectureKana":"ﾐｴｹﾝ","cityKana":"ﾖｯｶｲﾁｼ","streetKana":"ﾅｶﾑﾗﾁｮｳ","prefecture":"三重県","city":"四日市市","street":"中村町"},{"zipCode":"5128052","prefectureKana":"ﾐｴｹﾝ","cityKana":"ﾖｯｶｲﾁｼ","streetKana":"ﾆｼｵｵｶﾞﾈﾁｮｳ","prefecture":"三重県","city":"四日市市","street":"西大鐘町"},{"zipCode":"5120913","prefectureKana":"ﾐｴｹﾝ","cityKana":"ﾖｯｶｲﾁｼ","streetKana":"ﾆｼｻｶﾍﾞﾁｮｳ","prefecture":"三重県","city":"四日市市","street":"西坂部町"},{"zipCode":"5121305","prefectureKana":"ﾐｴｹﾝ","cityKana":"ﾖｯｶｲﾁｼ","streetKana":"ﾆｼﾑﾗﾁｮｳ","prefecture":"三重県","city":"四日市市","street":"西村町"},{"zipCode":"5121103","prefectureKana":"ﾐｴｹﾝ","cityKana":"ﾖｯｶｲﾁｼ","streetKana":"ﾆｼﾔﾏﾁｮｳ","prefecture":"三重県","city":"四日市市","street":"西山町"},{"zipCode":"5120907","prefectureKana":"ﾐｴｹﾝ","cityKana":"ﾖｯｶｲﾁｼ","streetKana":"ﾋｶﾞｼｶﾞﾀﾆ","prefecture":"三重県","city":"四日市市","street":"東ケ谷"},{"zipCode":"5120904","prefectureKana":"ﾐｴｹﾝ","cityKana":"ﾖｯｶｲﾁｼ","streetKana":"ﾋｶﾞｼｻｶﾍﾞﾁｮｳ","prefecture":"三重県","city":"四日市市","street":"東坂部町"},{"zipCode":"5121205","prefectureKana":"ﾐｴｹﾝ","cityKana":"ﾖｯｶｲﾁｼ","streetKana":"ﾋﾗｵﾁｮｳ","prefecture":"三重県","city":"四日市市","street":"平尾町"},{"zipCode":"5128061","prefectureKana":"ﾐｴｹﾝ","cityKana":"ﾖｯｶｲﾁｼ","streetKana":"ﾋﾛﾅｶﾞﾁｮｳ","prefecture":"三重県","city":"四日市市","street":"広永町"},{"zipCode":"5128043","prefectureKana":"ﾐｴｹﾝ","cityKana":"ﾖｯｶｲﾁｼ","streetKana":"ﾍｲﾂﾞｼﾝﾏﾁ","prefecture":"三重県","city":"四日市市","street":"平津新町"},{"zipCode":"5128042","prefectureKana":"ﾐｴｹﾝ","cityKana":"ﾖｯｶｲﾁｼ","streetKana":"ﾍｲﾂﾞﾁｮｳ","prefecture":"三重県","city":"四日市市","street":"平津町"},{"zipCode":"5120936","prefectureKana":"ﾐｴｹﾝ","cityKana":"ﾖｯｶｲﾁｼ","streetKana":"ﾍﾞﾂﾔﾏ","prefecture":"三重県","city":"四日市市","street":"別山"},{"zipCode":"5121306","prefectureKana":"ﾐｴｹﾝ","cityKana":"ﾖｯｶｲﾁｼ","streetKana":"ﾏｷﾉｷﾀﾞｲ","prefecture":"三重県","city":"四日市市","street":"まきの木台"},{"zipCode":"5120912","prefectureKana":"ﾐｴｹﾝ","cityKana":"ﾖｯｶｲﾁｼ","streetKana":"ﾐｴ","prefecture":"三重県","city":"四日市市","street":"三重"},{"zipCode":"5121104","prefectureKana":"ﾐｴｹﾝ","cityKana":"ﾖｯｶｲﾁｼ","streetKana":"ﾐｻﾄﾁｮｳ","prefecture":"三重県","city":"四日市市","street":"美里町"},{"zipCode":"5120933","prefectureKana":"ﾐｴｹﾝ","cityKana":"ﾖｯｶｲﾁｼ","streetKana":"ﾐﾀｷﾀﾞｲ","prefecture":"三重県","city":"四日市市","street":"三滝台"},{"zipCode":"5120914","prefectureKana":"ﾐｴｹﾝ","cityKana":"ﾖｯｶｲﾁｼ","streetKana":"ﾐﾅﾐｻｶﾍﾞﾁｮｳ","prefecture":"三重県","city":"四日市市","street":"南坂部町"},{"zipCode":"5128047","prefectureKana":"ﾐｴｹﾝ","cityKana":"ﾖｯｶｲﾁｼ","streetKana":"ﾔﾁﾖﾀﾞｲ","prefecture":"三重県","city":"四日市市","street":"八千代台"},{"zipCode":"5128041","prefectureKana":"ﾐｴｹﾝ","cityKana":"ﾖｯｶｲﾁｼ","streetKana":"ﾔﾏｹﾁｮｳ","prefecture":"三重県","city":"四日市市","street":"山分町"},{"zipCode":"5128048","prefectureKana":"ﾐｴｹﾝ","cityKana":"ﾖｯｶｲﾁｼ","streetKana":"ﾔﾏｼﾞｮｳﾁｮｳ","prefecture":"三重県","city":"四日市市","street":"山城町"},{"zipCode":"5121111","prefectureKana":"ﾐｴｹﾝ","cityKana":"ﾖｯｶｲﾁｼ","streetKana":"ﾔﾏﾀﾞﾁｮｳ","prefecture":"三重県","city":"四日市市","street":"山田町"},{"zipCode":"5120906","prefectureKana":"ﾐｴｹﾝ","cityKana":"ﾖｯｶｲﾁｼ","streetKana":"ﾔﾏﾉｲｯｼｷﾁｮｳ","prefecture":"三重県","city":"四日市市","street":"山之一色町"},{"zipCode":"5128063","prefectureKana":"ﾐｴｹﾝ","cityKana":"ﾖｯｶｲﾁｼ","streetKana":"ﾔﾏﾑﾗﾁｮｳ","prefecture":"三重県","city":"四日市市","street":"山村町"},{"zipCode":"5121116","prefectureKana":"ﾐｴｹﾝ","cityKana":"ﾖｯｶｲﾁｼ","streetKana":"ﾛｸﾐｮｳﾁｮｳ","prefecture":"三重県","city":"四日市市","street":"六名町"},{"zipCode":"5121114","prefectureKana":"ﾐｴｹﾝ","cityKana":"ﾖｯｶｲﾁｼ","streetKana":"ﾜﾝﾀﾞﾁｮｳ","prefecture":"三重県","city":"四日市市","street":"和無田町"}]