[{"zipCode":"5140000","prefectureKana":"ﾐｴｹﾝ","cityKana":"ﾂｼ","streetKana":"ｲｶﾆｹｲｻｲｶﾞﾅｲﾊﾞｱｲ","prefecture":"三重県","city":"津市","street":"以下に掲載がない場合"},{"zipCode":"5140017","prefectureKana":"ﾐｴｹﾝ","cityKana":"ﾂｼ","streetKana":"ｱｲｵｲﾁｮｳ","prefecture":"三重県","city":"津市","street":"相生町"},{"zipCode":"5141139","prefectureKana":"ﾐｴｹﾝ","cityKana":"ﾂｼ","streetKana":"ｱｵﾊﾞﾀﾞｲ","prefecture":"三重県","city":"津市","street":"青葉台"},{"zipCode":"5140811","prefectureKana":"ﾐｴｹﾝ","cityKana":"ﾂｼ","streetKana":"ｱｺｷﾞﾏﾁ","prefecture":"三重県","city":"津市","street":"阿漕町"},{"zipCode":"5140022","prefectureKana":"ﾐｴｹﾝ","cityKana":"ﾂｼ","streetKana":"ｱﾀｺﾞﾁｮｳ","prefecture":"三重県","city":"津市","street":"愛宕町"},{"zipCode":"5142302","prefectureKana":"ﾐｴｹﾝ","cityKana":"ﾂｼ","streetKana":"ｱﾉｳﾁｮｳｱﾉｳ","prefecture":"三重県","city":"津市","street":"安濃町安濃"},{"zipCode":"5142327","prefectureKana":"ﾐｴｹﾝ","cityKana":"ﾂｼ","streetKana":"ｱﾉｳﾁｮｳｱﾍﾞ","prefecture":"三重県","city":"津市","street":"安濃町安部"},{"zipCode":"5142301","prefectureKana":"ﾐｴｹﾝ","cityKana":"ﾂｼ","streetKana":"ｱﾉｳﾁｮｳｱﾗｷ","prefecture":"三重県","city":"津市","street":"安濃町荒木"},{"zipCode":"5142303","prefectureKana":"ﾐｴｹﾝ","cityKana":"ﾂｼ","streetKana":"ｱﾉｳﾁｮｳｳﾁﾀﾞ","prefecture":"三重県","city":"津市","street":"安濃町内多"},{"zipCode":"5142324","prefectureKana":"ﾐｴｹﾝ","cityKana":"ﾂｼ","streetKana":"ｱﾉｳﾁｮｳｵｳｶ","prefecture":"三重県","city":"津市","street":"安濃町粟加"},{"zipCode":"5142304","prefectureKana":"ﾐｴｹﾝ","cityKana":"ﾂｼ","streetKana":"ｱﾉｳﾁｮｳｵｵﾀ","prefecture":"三重県","city":"津市","street":"安濃町太田"},{"zipCode":"5142323","prefectureKana":"ﾐｴｹﾝ","cityKana":"ﾂｼ","streetKana":"ｱﾉｳﾁｮｳｵｵﾂｶ","prefecture":"三重県","city":"津市","street":"安濃町大塚"},{"zipCode":"5142308","prefectureKana":"ﾐｴｹﾝ","cityKana":"ﾂｼ","streetKana":"ｱﾉｳﾁｮｳｶﾜﾆｼ","prefecture":"三重県","city":"津市","street":"安濃町川西"},{"zipCode":"5142328","prefectureKana":"ﾐｴｹﾝ","cityKana":"ﾂｼ","streetKana":"ｱﾉｳﾁｮｳｸｻﾜ","prefecture":"三重県","city":"津市","street":"安濃町草生"},{"zipCode":"5142311","prefectureKana":"ﾐｴｹﾝ","cityKana":"ﾂｼ","streetKana":"ｱﾉｳﾁｮｳｺｳﾀﾞ","prefecture":"三重県","city":"津市","street":"安濃町神田"},{"zipCode":"5142315","prefectureKana":"ﾐｴｹﾝ","cityKana":"ﾂｼ","streetKana":"ｱﾉｳﾁｮｳｺｳﾐｮｳｼﾞ","prefecture":"三重県","city":"津市","street":"安濃町光明寺"},{"zipCode":"5142313","prefectureKana":"ﾐｴｹﾝ","cityKana":"ﾂｼ","streetKana":"ｱﾉｳﾁｮｳｺﾝﾄﾞｸ","prefecture":"三重県","city":"津市","street":"安濃町今徳"},{"zipCode":"5142305","prefectureKana":"ﾐｴｹﾝ","cityKana":"ﾂｼ","streetKana":"ｱﾉｳﾁｮｳｼﾐｽﾞ","prefecture":"三重県","city":"津市","street":"安濃町清水"},{"zipCode":"5142307","prefectureKana":"ﾐｴｹﾝ","cityKana":"ﾂｼ","streetKana":"ｱﾉｳﾁｮｳｼﾞｮｳﾄﾞｳｼﾞ","prefecture":"三重県","city":"津市","street":"安濃町浄土寺"},{"zipCode":"5142306","prefectureKana":"ﾐｴｹﾝ","cityKana":"ﾂｼ","streetKana":"ｱﾉｳﾁｮｳｿﾈ","prefecture":"三重県","city":"津市","street":"安濃町曽根"},{"zipCode":"5142325","prefectureKana":"ﾐｴｹﾝ","cityKana":"ﾂｼ","streetKana":"ｱﾉｳﾁｮｳﾀﾊﾞﾀｳｴﾉ","prefecture":"三重県","city":"津市","street":"安濃町田端上野"},{"zipCode":"5142312","prefectureKana":"ﾐｴｹﾝ","cityKana":"ﾂｼ","streetKana":"ｱﾉｳﾁｮｳﾂﾗﾍﾞ","prefecture":"三重県","city":"津市","street":"安濃町連部"},{"zipCode":"5142326","prefectureKana":"ﾐｴｹﾝ","cityKana":"ﾂｼ","streetKana":"ｱﾉｳﾁｮｳﾄｳｶﾝｵﾝｼﾞ","prefecture":"三重県","city":"津市","street":"安濃町東観音寺"},{"zipCode":"5142322","prefectureKana":"ﾐｴｹﾝ","cityKana":"ﾂｼ","streetKana":"ｱﾉｳﾁｮｳﾄｼﾏ","prefecture":"三重県","city":"津市","street":"安濃町戸島"},{"zipCode":"5142318","prefectureKana":"ﾐｴｹﾝ","cityKana":"ﾂｼ","streetKana":"ｱﾉｳﾁｮｳﾅｶｶﾞﾜ","prefecture":"三重県","city":"津市","street":"安濃町中川"},{"zipCode":"5142321","prefectureKana":"ﾐｴｹﾝ","cityKana":"ﾂｼ","streetKana":"ｱﾉｳﾁｮｳﾉｸﾞﾁ","prefecture":"三重県","city":"津市","street":"安濃町野口"},{"zipCode":"5142317","prefectureKana":"ﾐｴｹﾝ","cityKana":"ﾂｼ","streetKana":"ｱﾉｳﾁｮｳﾏｴﾉ","prefecture":"三重県","city":"津市","street":"安濃町前野"},{"zipCode":"5142316","prefectureKana":"ﾐｴｹﾝ","cityKana":"ﾂｼ","streetKana":"ｱﾉｳﾁｮｳﾐﾅﾐｺﾔﾏ","prefecture":"三重県","city":"津市","street":"安濃町南神山"},{"zipCode":"5142314","prefectureKana":"ﾐｴｹﾝ","cityKana":"ﾂｼ","streetKana":"ｱﾉｳﾁｮｳﾐｮｳﾎｳｼﾞ","prefecture":"三重県","city":"津市","street":"安濃町妙法寺"},{"zipCode":"5140131","prefectureKana":"ﾐｴｹﾝ","cityKana":"ﾂｼ","streetKana":"ｱﾉﾂﾀﾞｲ","prefecture":"三重県","city":"津市","street":"あのつ台"},{"zipCode":"5140058","prefectureKana":"ﾐｴｹﾝ","cityKana":"ﾂｼ","streetKana":"ｱﾝﾄｳﾁｮｳ","prefecture":"三重県","city":"津市","street":"安東町"},{"zipCode":"5140113","prefectureKana":"ﾐｴｹﾝ","cityKana":"ﾂｼ","streetKana":"ｲｯｼﾝﾃﾞﾝｵｵｺﾞｿ","prefecture":"三重県","city":"津市","street":"一身田大古曽"},{"zipCode":"5140061","prefectureKana":"ﾐｴｹﾝ","cityKana":"ﾂｼ","streetKana":"ｲｯｼﾝﾃﾞﾝｺｳﾂﾞﾍﾞﾀ","prefecture":"三重県","city":"津市","street":"一身田上津部田"},{"zipCode":"5140115","prefectureKana":"ﾐｴｹﾝ","cityKana":"ﾂｼ","streetKana":"ｲｯｼﾝﾃﾞﾝﾄﾖﾉ","prefecture":"三重県","city":"津市","street":"一身田豊野"},{"zipCode":"5140112","prefectureKana":"ﾐｴｹﾝ","cityKana":"ﾂｼ","streetKana":"ｲｯｼﾝﾃﾞﾝﾅｶﾉ","prefecture":"三重県","city":"津市","street":"一身田中野"},{"zipCode":"5140111","prefectureKana":"ﾐｴｹﾝ","cityKana":"ﾂｼ","streetKana":"ｲｯｼﾝﾃﾞﾝﾋﾗﾉ","prefecture":"三重県","city":"津市","street":"一身田平野"},{"zipCode":"5140114","prefectureKana":"ﾐｴｹﾝ","cityKana":"ﾂｼ","streetKana":"ｲｯｼﾝﾃﾞﾝﾁｮｳ","prefecture":"三重県","city":"津市","street":"一身田町"},{"zipCode":"5140057","prefectureKana":"ﾐｴｹﾝ","cityKana":"ﾂｼ","streetKana":"ｲｯｼｷﾁｮｳ","prefecture":"三重県","city":"津市","street":"一色町"},{"zipCode":"5141252","prefectureKana":"ﾐｴｹﾝ","cityKana":"ﾂｼ","streetKana":"ｲﾅﾊﾞﾁｮｳ","prefecture":"三重県","city":"津市","street":"稲葉町"},{"zipCode":"5140838","prefectureKana":"ﾐｴｹﾝ","cityKana":"ﾂｼ","streetKana":"ｲﾜﾀ","prefecture":"三重県","city":"津市","street":"岩田"},{"zipCode":"5140076","prefectureKana":"ﾐｴｹﾝ","cityKana":"ﾂｼ","streetKana":"ｳﾌﾞｼﾅ","prefecture":"三重県","city":"津市","street":"産品"},{"zipCode":"5140001","prefectureKana":"ﾐｴｹﾝ","cityKana":"ﾂｼ","streetKana":"ｴﾄﾞﾊﾞｼ","prefecture":"三重県","city":"津市","street":"江戸橋"},{"zipCode":"5140834","prefectureKana":"ﾐｴｹﾝ","cityKana":"ﾂｼ","streetKana":"ｵｵｸﾗ","prefecture":"三重県","city":"津市","street":"大倉"},{"zipCode":"5140124","prefectureKana":"ﾐｴｹﾝ","cityKana":"ﾂｼ","streetKana":"ｵｵｻﾞﾄｶﾜｷﾀﾁｮｳ","prefecture":"三重県","city":"津市","street":"大里川北町"},{"zipCode":"5140125","prefectureKana":"ﾐｴｹﾝ","cityKana":"ﾂｼ","streetKana":"ｵｵｻﾞﾄｸﾎﾞﾀﾁｮｳ","prefecture":"三重県","city":"津市","street":"大里窪田町"},{"zipCode":"5140123","prefectureKana":"ﾐｴｹﾝ","cityKana":"ﾂｼ","streetKana":"ｵｵｻﾞﾄｺﾉﾀﾞﾁｮｳ","prefecture":"三重県","city":"津市","street":"大里小野田町"},{"zipCode":"5140122","prefectureKana":"ﾐｴｹﾝ","cityKana":"ﾂｼ","streetKana":"ｵｵｻﾞﾄﾉﾀﾞﾁｮｳ","prefecture":"三重県","city":"津市","street":"大里野田町"},{"zipCode":"5140126","prefectureKana":"ﾐｴｹﾝ","cityKana":"ﾂｼ","streetKana":"ｵｵｻﾞﾄﾑﾂｱｲﾁｮｳ","prefecture":"三重県","city":"津市","street":"大里睦合町"},{"zipCode":"5140121","prefectureKana":"ﾐｴｹﾝ","cityKana":"ﾂｼ","streetKana":"ｵｵｻﾞﾄﾔﾏﾑﾛﾁｮｳ","prefecture":"三重県","city":"津市","street":"大里山室町"},{"zipCode":"5140046","prefectureKana":"ﾐｴｹﾝ","cityKana":"ﾂｼ","streetKana":"ｵｵｿﾞﾉﾁｮｳ","prefecture":"三重県","city":"津市","street":"大園町"},{"zipCode":"5140007","prefectureKana":"ﾐｴｹﾝ","cityKana":"ﾂｼ","streetKana":"ｵｵﾀﾆﾁｮｳ","prefecture":"三重県","city":"津市","street":"大谷町"},{"zipCode":"5141257","prefectureKana":"ﾐｴｹﾝ","cityKana":"ﾂｼ","streetKana":"ｵｵﾄﾞﾘﾁｮｳ","prefecture":"三重県","city":"津市","street":"大鳥町"},{"zipCode":"5140039","prefectureKana":"ﾐｴｹﾝ","cityKana":"ﾂｼ","streetKana":"ｵｼｶﾍﾞﾁｮｳ","prefecture":"三重県","city":"津市","street":"押加部町"},{"zipCode":"5140016","prefectureKana":"ﾐｴｹﾝ","cityKana":"ﾂｼ","streetKana":"ｵﾄﾍﾞ","prefecture":"三重県","city":"津市","street":"乙部"},{"zipCode":"5140072","prefectureKana":"ﾐｴｹﾝ","cityKana":"ﾂｼ","streetKana":"ｵﾌﾞﾈ","prefecture":"三重県","city":"津市","street":"小舟"},{"zipCode":"5140013","prefectureKana":"ﾐｴｹﾝ","cityKana":"ﾂｼ","streetKana":"ｶｲｶﾞﾝﾁｮｳ","prefecture":"三重県","city":"津市","street":"海岸町"},{"zipCode":"5140082","prefectureKana":"ﾐｴｹﾝ","cityKana":"ﾂｼ","streetKana":"ｶﾀﾀﾞｲﾄﾞﾁｮｳ","prefecture":"三重県","city":"津市","street":"片田井戸町"},{"zipCode":"5140085","prefectureKana":"ﾐｴｹﾝ","cityKana":"ﾂｼ","streetKana":"ｶﾀﾀﾞｸﾎﾞﾁｮｳ","prefecture":"三重県","city":"津市","street":"片田久保町"},{"zipCode":"5140075","prefectureKana":"ﾐｴｹﾝ","cityKana":"ﾂｼ","streetKana":"ｶﾀﾀﾞｼﾌﾞｸﾛﾁｮｳ","prefecture":"三重県","city":"津市","street":"片田志袋町"},{"zipCode":"5140083","prefectureKana":"ﾐｴｹﾝ","cityKana":"ﾂｼ","streetKana":"ｶﾀﾀﾞｼﾝﾏﾁ","prefecture":"三重県","city":"津市","street":"片田新町"},{"zipCode":"5140081","prefectureKana":"ﾐｴｹﾝ","cityKana":"ﾂｼ","streetKana":"ｶﾀﾀﾞﾀﾅｶﾁｮｳ","prefecture":"三重県","city":"津市","street":"片田田中町"},{"zipCode":"5140077","prefectureKana":"ﾐｴｹﾝ","cityKana":"ﾂｼ","streetKana":"ｶﾀﾀﾞﾊｾﾁｮｳ","prefecture":"三重県","city":"津市","street":"片田長谷町"},{"zipCode":"5140074","prefectureKana":"ﾐｴｹﾝ","cityKana":"ﾂｼ","streetKana":"ｶﾀﾀﾞﾊｾﾊﾞﾁｮｳ","prefecture":"三重県","city":"津市","street":"片田長谷場町"},{"zipCode":"5140086","prefectureKana":"ﾐｴｹﾝ","cityKana":"ﾂｼ","streetKana":"ｶﾀﾀﾞﾔｸｵｳｼﾞﾁｮｳ","prefecture":"三重県","city":"津市","street":"片田薬王寺町"},{"zipCode":"5140084","prefectureKana":"ﾐｴｹﾝ","cityKana":"ﾂｼ","streetKana":"ｶﾀﾀﾞﾁｮｳ","prefecture":"三重県","city":"津市","street":"片田町"},{"zipCode":"5140054","prefectureKana":"ﾐｴｹﾝ","cityKana":"ﾂｼ","streetKana":"ｶﾉｳ","prefecture":"三重県","city":"津市","street":"神納"},{"zipCode":"5140052","prefectureKana":"ﾐｴｹﾝ","cityKana":"ﾂｼ","streetKana":"ｶﾉｳﾁｮｳ","prefecture":"三重県","city":"津市","street":"神納町"},{"zipCode":"5140008","prefectureKana":"ﾐｴｹﾝ","cityKana":"ﾂｼ","streetKana":"ｶﾐﾊﾏﾁｮｳ","prefecture":"三重県","city":"津市","street":"上浜町"},{"zipCode":"5140806","prefectureKana":"ﾐｴｹﾝ","cityKana":"ﾂｼ","streetKana":"ｶﾐﾍﾞｻﾞｲﾁｮｳ","prefecture":"三重県","city":"津市","street":"上弁財町"},{"zipCode":"5140804","prefectureKana":"ﾐｴｹﾝ","cityKana":"ﾂｼ","streetKana":"ｶﾐﾍﾞｻﾞｲﾏﾁﾂｵｷ","prefecture":"三重県","city":"津市","street":"上弁財町津興"},{"zipCode":"5140311","prefectureKana":"ﾐｴｹﾝ","cityKana":"ﾂｼ","streetKana":"ｶﾗｽﾁｮｳ(ｲﾅﾊﾞ)","prefecture":"三重県","city":"津市","street":"香良洲町（稲葉）"},{"zipCode":"5140326","prefectureKana":"ﾐｴｹﾝ","cityKana":"ﾂｼ","streetKana":"ｶﾗｽﾁｮｳ(ｶﾜﾊﾗ)","prefecture":"三重県","city":"津市","street":"香良洲町（川原）"},{"zipCode":"5140312","prefectureKana":"ﾐｴｹﾝ","cityKana":"ﾂｼ","streetKana":"ｶﾗｽﾁｮｳ(ｺﾏﾂ)","prefecture":"三重県","city":"津市","street":"香良洲町（小松）"},{"zipCode":"5140325","prefectureKana":"ﾐｴｹﾝ","cityKana":"ﾂｼ","streetKana":"ｶﾗｽﾁｮｳ(ｻｸﾗﾏﾁ)","prefecture":"三重県","city":"津市","street":"香良洲町（桜町）"},{"zipCode":"5140324","prefectureKana":"ﾐｴｹﾝ","cityKana":"ﾂｼ","streetKana":"ｶﾗｽﾁｮｳ(ｼﾞｹ)","prefecture":"三重県","city":"津市","street":"香良洲町（地家）"},{"zipCode":"5140321","prefectureKana":"ﾐｴｹﾝ","cityKana":"ﾂｼ","streetKana":"ｶﾗｽﾁｮｳ(ｽﾅﾊﾗ)","prefecture":"三重県","city":"津市","street":"香良洲町（砂原）"},{"zipCode":"5140314","prefectureKana":"ﾐｴｹﾝ","cityKana":"ﾂｼ","streetKana":"ｶﾗｽﾁｮｳ(ﾀｶｻｺﾞ)","prefecture":"三重県","city":"津市","street":"香良洲町（高砂）"},{"zipCode":"5140323","prefectureKana":"ﾐｴｹﾝ","cityKana":"ﾂｼ","streetKana":"ｶﾗｽﾁｮｳ(ﾊﾞﾊﾞ)","prefecture":"三重県","city":"津市","street":"香良洲町（馬場）"},{"zipCode":"5140313","prefectureKana":"ﾐｴｹﾝ","cityKana":"ﾂｼ","streetKana":"ｶﾗｽﾁｮｳ(ﾊﾏｳﾗ)","prefecture":"三重県","city":"津市","street":"香良洲町（浜浦）"},{"zipCode":"5140315","prefectureKana":"ﾐｴｹﾝ","cityKana":"ﾂｼ","streetKana":"ｶﾗｽﾁｮｳ(ｿﾉﾀ)","prefecture":"三重県","city":"津市","street":"香良洲町（その他）"},{"zipCode":"5141122","prefectureKana":"ﾐｴｹﾝ","cityKana":"ﾂｼ","streetKana":"ｶﾜｶﾀﾁｮｳ","prefecture":"三重県","city":"津市","street":"川方町"},{"zipCode":"5140044","prefectureKana":"ﾐｴｹﾝ","cityKana":"ﾂｼ","streetKana":"ｶﾜｿﾞｴﾁｮｳ","prefecture":"三重県","city":"津市","street":"川添町"},{"zipCode":"5140062","prefectureKana":"ﾐｴｹﾝ","cityKana":"ﾂｼ","streetKana":"ｶﾝﾉﾝｼﾞﾁｮｳ","prefecture":"三重県","city":"津市","street":"観音寺町"},{"zipCode":"5140824","prefectureKana":"ﾐｴｹﾝ","cityKana":"ﾂｼ","streetKana":"ｶﾝﾍﾞ","prefecture":"三重県","city":"津市","street":"神戸"},{"zipCode":"5140056","prefectureKana":"ﾐｴｹﾝ","cityKana":"ﾂｼ","streetKana":"ｷﾀｺｳｼﾞﾁｮｳ","prefecture":"三重県","city":"津市","street":"北河路町"},{"zipCode":"5140023","prefectureKana":"ﾐｴｹﾝ","cityKana":"ﾂｼ","streetKana":"ｷﾀﾏﾁﾂ","prefecture":"三重県","city":"津市","street":"北町津"},{"zipCode":"5140031","prefectureKana":"ﾐｴｹﾝ","cityKana":"ﾂｼ","streetKana":"ｷﾀﾏﾙﾉｳﾁ","prefecture":"三重県","city":"津市","street":"北丸之内"},{"zipCode":"5140302","prefectureKana":"ﾐｴｹﾝ","cityKana":"ﾂｼ","streetKana":"ｸﾓｽﾞｲｸﾞﾗﾂﾞﾁｮｳ","prefecture":"三重県","city":"津市","street":"雲出伊倉津町"},{"zipCode":"5140301","prefectureKana":"ﾐｴｹﾝ","cityKana":"ﾂｼ","streetKana":"ｸﾓｽﾞｺｳｶﾝﾁｮｳ","prefecture":"三重県","city":"津市","street":"雲出鋼管町"},{"zipCode":"5140305","prefectureKana":"ﾐｴｹﾝ","cityKana":"ﾂｼ","streetKana":"ｸﾓｽﾞｼﾏﾇｷﾁｮｳ","prefecture":"三重県","city":"津市","street":"雲出島貫町"},{"zipCode":"5140303","prefectureKana":"ﾐｴｹﾝ","cityKana":"ﾂｼ","streetKana":"ｸﾓｽﾞﾅｶﾞﾂﾈﾁｮｳ","prefecture":"三重県","city":"津市","street":"雲出長常町"},{"zipCode":"5140304","prefectureKana":"ﾐｴｹﾝ","cityKana":"ﾂｼ","streetKana":"ｸﾓｽﾞﾎﾝｺﾞｳﾁｮｳ","prefecture":"三重県","city":"津市","street":"雲出本郷町"},{"zipCode":"5140104","prefectureKana":"ﾐｴｹﾝ","cityKana":"ﾂｼ","streetKana":"ｸﾘﾏｺｶﾞﾜﾁｮｳ","prefecture":"三重県","city":"津市","street":"栗真小川町"},{"zipCode":"5140103","prefectureKana":"ﾐｴｹﾝ","cityKana":"ﾂｼ","streetKana":"ｸﾘﾏﾅｶﾔﾏﾁｮｳ","prefecture":"三重県","city":"津市","street":"栗真中山町"},{"zipCode":"5140102","prefectureKana":"ﾐｴｹﾝ","cityKana":"ﾂｼ","streetKana":"ｸﾘﾏﾏﾁﾔﾁｮｳ","prefecture":"三重県","city":"津市","street":"栗真町屋町"},{"zipCode":"5142204","prefectureKana":"ﾐｴｹﾝ","cityKana":"ﾂｼ","streetKana":"ｹﾞｲﾉｳﾁｮｳｳｼﾞｲ","prefecture":"三重県","city":"津市","street":"芸濃町雲林院"},{"zipCode":"5142212","prefectureKana":"ﾐｴｹﾝ","cityKana":"ﾂｼ","streetKana":"ｹﾞｲﾉｳﾁｮｳｵｶﾓﾄ","prefecture":"三重県","city":"津市","street":"芸濃町岡本"},{"zipCode":"5142208","prefectureKana":"ﾐｴｹﾝ","cityKana":"ﾂｼ","streetKana":"ｹﾞｲﾉｳﾁｮｳｵｼﾀﾞ","prefecture":"三重県","city":"津市","street":"芸濃町忍田"},{"zipCode":"5142206","prefectureKana":"ﾐｴｹﾝ","cityKana":"ﾂｼ","streetKana":"ｹﾞｲﾉｳﾁｮｳｵﾉﾋﾗ","prefecture":"三重県","city":"津市","street":"芸濃町小野平"},{"zipCode":"5142213","prefectureKana":"ﾐｴｹﾝ","cityKana":"ﾂｼ","streetKana":"ｹﾞｲﾉｳﾁｮｳｷﾀｺﾔﾏ","prefecture":"三重県","city":"津市","street":"芸濃町北神山"},{"zipCode":"5142201","prefectureKana":"ﾐｴｹﾝ","cityKana":"ﾂｼ","streetKana":"ｹﾞｲﾉｳﾁｮｳｸｽﾜﾗ","prefecture":"三重県","city":"津市","street":"芸濃町楠原"},{"zipCode":"5142207","prefectureKana":"ﾐｴｹﾝ","cityKana":"ﾂｼ","streetKana":"ｹﾞｲﾉｳﾁｮｳｺｳﾁ","prefecture":"三重県","city":"津市","street":"芸濃町河内"},{"zipCode":"5142205","prefectureKana":"ﾐｴｹﾝ","cityKana":"ﾂｼ","streetKana":"ｹﾞｲﾉｳﾁｮｳﾀﾓﾝ","prefecture":"三重県","city":"津市","street":"芸濃町多門"},{"zipCode":"5142203","prefectureKana":"ﾐｴｹﾝ","cityKana":"ﾂｼ","streetKana":"ｹﾞｲﾉｳﾁｮｳﾅｶﾅﾜ","prefecture":"三重県","city":"津市","street":"芸濃町中縄"},{"zipCode":"5142214","prefectureKana":"ﾐｴｹﾝ","cityKana":"ﾂｼ","streetKana":"ｹﾞｲﾉｳﾁｮｳﾊｷﾞﾉ","prefecture":"三重県","city":"津市","street":"芸濃町萩野"},{"zipCode":"5142202","prefectureKana":"ﾐｴｹﾝ","cityKana":"ﾂｼ","streetKana":"ｹﾞｲﾉｳﾁｮｳﾊﾔｼ","prefecture":"三重県","city":"津市","street":"芸濃町林"},{"zipCode":"5142211","prefectureKana":"ﾐｴｹﾝ","cityKana":"ﾂｼ","streetKana":"ｹﾞｲﾉｳﾁｮｳﾑｸﾓﾄ","prefecture":"三重県","city":"津市","street":"芸濃町椋本"},{"zipCode":"5140065","prefectureKana":"ﾐｴｹﾝ","cityKana":"ﾂｼ","streetKana":"ｺｳﾍﾞﾁｮｳ","prefecture":"三重県","city":"津市","street":"河辺町"},{"zipCode":"5140006","prefectureKana":"ﾐｴｹﾝ","cityKana":"ﾂｼ","streetKana":"ｺｳﾒｲﾁｮｳ","prefecture":"三重県","city":"津市","street":"広明町"},{"zipCode":"5141115","prefectureKana":"ﾐｴｹﾝ","cityKana":"ﾂｼ","streetKana":"ｺﾂｸﾘﾁｮｳ","prefecture":"三重県","city":"津市","street":"木造町"},{"zipCode":"5140015","prefectureKana":"ﾐｴｹﾝ","cityKana":"ﾂｼ","streetKana":"ｺﾄﾌﾞｷﾁｮｳ","prefecture":"三重県","city":"津市","street":"寿町"},{"zipCode":"5140835","prefectureKana":"ﾐｴｹﾝ","cityKana":"ﾂｼ","streetKana":"ｻｲﾜｲﾁｮｳ","prefecture":"三重県","city":"津市","street":"幸町"},{"zipCode":"5140004","prefectureKana":"ﾐｴｹﾝ","cityKana":"ﾂｼ","streetKana":"ｻｶｴﾏﾁ","prefecture":"三重県","city":"津市","street":"栄町"},{"zipCode":"5141251","prefectureKana":"ﾐｴｹﾝ","cityKana":"ﾂｼ","streetKana":"ｻｶｷﾊﾞﾗﾁｮｳ","prefecture":"三重県","city":"津市","street":"榊原町"},{"zipCode":"5140047","prefectureKana":"ﾐｴｹﾝ","cityKana":"ﾂｼ","streetKana":"ｻｸﾗﾀﾞﾁｮｳ","prefecture":"三重県","city":"津市","street":"桜田町"},{"zipCode":"5140003","prefectureKana":"ﾐｴｹﾝ","cityKana":"ﾂｼ","streetKana":"ｻｸﾗﾊﾞｼ","prefecture":"三重県","city":"津市","street":"桜橋"},{"zipCode":"5140063","prefectureKana":"ﾐｴｹﾝ","cityKana":"ﾂｼ","streetKana":"ｼﾌﾞﾐﾁｮｳ","prefecture":"三重県","city":"津市","street":"渋見町"},{"zipCode":"5140002","prefectureKana":"ﾐｴｹﾝ","cityKana":"ﾂｼ","streetKana":"ｼﾏｻﾞｷﾁｮｳ","prefecture":"三重県","city":"津市","street":"島崎町"},{"zipCode":"5140805","prefectureKana":"ﾐｴｹﾝ","cityKana":"ﾂｼ","streetKana":"ｼﾓﾍﾞｻﾞｲﾏﾁﾂｵｷ","prefecture":"三重県","city":"津市","street":"下弁財町津興"},{"zipCode":"5140837","prefectureKana":"ﾐｴｹﾝ","cityKana":"ﾂｼ","streetKana":"ｼｭｳｾｲﾁｮｳ","prefecture":"三重県","city":"津市","street":"修成町"},{"zipCode":"5141255","prefectureKana":"ﾐｴｹﾝ","cityKana":"ﾂｼ","streetKana":"ｼｮｳﾀﾞﾁｮｳ","prefecture":"三重県","city":"津市","street":"庄田町"},{"zipCode":"5140101","prefectureKana":"ﾐｴｹﾝ","cityKana":"ﾂｼ","streetKana":"ｼﾗﾂｶﾁｮｳ","prefecture":"三重県","city":"津市","street":"白塚町"},{"zipCode":"5140818","prefectureKana":"ﾐｴｹﾝ","cityKana":"ﾂｼ","streetKana":"ｼﾛﾔﾏ","prefecture":"三重県","city":"津市","street":"城山"},{"zipCode":"5140024","prefectureKana":"ﾐｴｹﾝ","cityKana":"ﾂｼ","streetKana":"ｼﾝﾀﾃﾏﾁﾂ","prefecture":"三重県","city":"津市","street":"新立町津"},{"zipCode":"5140026","prefectureKana":"ﾐｴｹﾝ","cityKana":"ﾂｼ","streetKana":"ｼﾝﾋｶﾞｼﾏﾁﾄｳｾ","prefecture":"三重県","city":"津市","street":"新東町塔世"},{"zipCode":"5140042","prefectureKana":"ﾐｴｹﾝ","cityKana":"ﾂｼ","streetKana":"ｼﾝﾏﾁ","prefecture":"三重県","city":"津市","street":"新町"},{"zipCode":"5140012","prefectureKana":"ﾐｴｹﾝ","cityKana":"ﾂｼ","streetKana":"ｽｴﾋﾛﾁｮｳ","prefecture":"三重県","city":"津市","street":"末広町"},{"zipCode":"5141124","prefectureKana":"ﾐｴｹﾝ","cityKana":"ﾂｼ","streetKana":"ｽｶﾞｾﾞﾁｮｳ","prefecture":"三重県","city":"津市","street":"須ケ瀬町"},{"zipCode":"5140019","prefectureKana":"ﾐｴｹﾝ","cityKana":"ﾂｼ","streetKana":"ｽﾐﾖｼﾁｮｳ","prefecture":"三重県","city":"津市","street":"住吉町"},{"zipCode":"5140801","prefectureKana":"ﾐｴｹﾝ","cityKana":"ﾂｼ","streetKana":"ｾﾝﾄﾞｳﾏﾁﾂｵｷ","prefecture":"三重県","city":"津市","street":"船頭町津興"},{"zipCode":"5140027","prefectureKana":"ﾐｴｹﾝ","cityKana":"ﾂｼ","streetKana":"ﾀﾞｲﾓﾝ","prefecture":"三重県","city":"津市","street":"大門"},{"zipCode":"5140011","prefectureKana":"ﾐｴｹﾝ","cityKana":"ﾂｼ","streetKana":"ﾀｶｽﾁｮｳ","prefecture":"三重県","city":"津市","street":"高洲町"},{"zipCode":"5140819","prefectureKana":"ﾐｴｹﾝ","cityKana":"ﾂｼ","streetKana":"ﾀｶﾁﾞｬﾔ","prefecture":"三重県","city":"津市","street":"高茶屋"},{"zipCode":"5140816","prefectureKana":"ﾐｴｹﾝ","cityKana":"ﾂｼ","streetKana":"ﾀｶﾁﾞｬﾔｺﾓﾘｳｴﾉﾁｮｳ","prefecture":"三重県","city":"津市","street":"高茶屋小森上野町"},{"zipCode":"5140817","prefectureKana":"ﾐｴｹﾝ","cityKana":"ﾂｼ","streetKana":"ﾀｶﾁﾞｬﾔｺﾓﾘﾁｮｳ","prefecture":"三重県","city":"津市","street":"高茶屋小森町"},{"zipCode":"5142221","prefectureKana":"ﾐｴｹﾝ","cityKana":"ﾂｼ","streetKana":"ﾀｶﾉｵﾁｮｳ","prefecture":"三重県","city":"津市","street":"高野尾町"},{"zipCode":"5140821","prefectureKana":"ﾐｴｹﾝ","cityKana":"ﾂｼ","streetKana":"ﾀﾙﾐ","prefecture":"三重県","city":"津市","street":"垂水"},{"zipCode":"5140032","prefectureKana":"ﾐｴｹﾝ","cityKana":"ﾂｼ","streetKana":"ﾁｭｳｵｳ","prefecture":"三重県","city":"津市","street":"中央"},{"zipCode":"5140812","prefectureKana":"ﾐｴｹﾝ","cityKana":"ﾂｼ","streetKana":"ﾂｵｷ","prefecture":"三重県","city":"津市","street":"津興"},{"zipCode":"5140073","prefectureKana":"ﾐｴｹﾝ","cityKana":"ﾂｼ","streetKana":"ﾄﾉﾑﾗ","prefecture":"三重県","city":"津市","street":"殿村"},{"zipCode":"5142222","prefectureKana":"ﾐｴｹﾝ","cityKana":"ﾂｼ","streetKana":"ﾄﾖｶﾞｵｶ","prefecture":"三重県","city":"津市","street":"豊が丘"},{"zipCode":"5140005","prefectureKana":"ﾐｴｹﾝ","cityKana":"ﾂｼ","streetKana":"ﾄﾘｲﾁｮｳ","prefecture":"三重県","city":"津市","street":"鳥居町"},{"zipCode":"5140018","prefectureKana":"ﾐｴｹﾝ","cityKana":"ﾂｼ","streetKana":"ﾅｶｶﾞﾜﾗ","prefecture":"三重県","city":"津市","street":"中河原"},{"zipCode":"5141256","prefectureKana":"ﾐｴｹﾝ","cityKana":"ﾂｼ","streetKana":"ﾅｶﾑﾗﾁｮｳ","prefecture":"三重県","city":"津市","street":"中村町"},{"zipCode":"5140064","prefectureKana":"ﾐｴｹﾝ","cityKana":"ﾂｼ","streetKana":"ﾅｶﾞｵｶﾁｮｳ","prefecture":"三重県","city":"津市","street":"長岡町"},{"zipCode":"5140010","prefectureKana":"ﾐｴｹﾝ","cityKana":"ﾂｼ","streetKana":"ﾅｷﾞｻﾏﾁ","prefecture":"三重県","city":"津市","street":"なぎさまち"},{"zipCode":"5140833","prefectureKana":"ﾐｴｹﾝ","cityKana":"ﾂｼ","streetKana":"ﾆｼｱｺｷﾞﾁｮｳｲﾜﾀ","prefecture":"三重県","city":"津市","street":"西阿漕町岩田"},{"zipCode":"5140038","prefectureKana":"ﾐｴｹﾝ","cityKana":"ﾂｼ","streetKana":"ﾆｼﾌﾙｶﾜﾁｮｳ","prefecture":"三重県","city":"津市","street":"西古河町"},{"zipCode":"5140035","prefectureKana":"ﾐｴｹﾝ","cityKana":"ﾂｼ","streetKana":"ﾆｼﾏﾙﾉｳﾁ","prefecture":"三重県","city":"津市","street":"西丸之内"},{"zipCode":"5141116","prefectureKana":"ﾐｴｹﾝ","cityKana":"ﾂｼ","streetKana":"ﾆﾉﾐﾁｮｳ","prefecture":"三重県","city":"津市","street":"新家町"},{"zipCode":"5140051","prefectureKana":"ﾐｴｹﾝ","cityKana":"ﾂｼ","streetKana":"ﾉｳｿﾁｮｳ","prefecture":"三重県","city":"津市","street":"納所町"},{"zipCode":"5140836","prefectureKana":"ﾐｴｹﾝ","cityKana":"ﾂｼ","streetKana":"ﾉｻﾞｷｶﾞｲﾄｲﾜﾀ","prefecture":"三重県","city":"津市","street":"野崎垣内岩田"},{"zipCode":"5140826","prefectureKana":"ﾐｴｹﾝ","cityKana":"ﾂｼ","streetKana":"ﾉﾀﾞ","prefecture":"三重県","city":"津市","street":"野田"},{"zipCode":"5140053","prefectureKana":"ﾐｴｹﾝ","cityKana":"ﾂｼ","streetKana":"ﾊｶﾀﾁｮｳ","prefecture":"三重県","city":"津市","street":"博多町"},{"zipCode":"5140041","prefectureKana":"ﾐｴｹﾝ","cityKana":"ﾂｼ","streetKana":"ﾊｯﾁｮｳ","prefecture":"三重県","city":"津市","street":"八町"},{"zipCode":"5140009","prefectureKana":"ﾐｴｹﾝ","cityKana":"ﾂｼ","streetKana":"ﾊﾄﾞｺﾛﾁｮｳ","prefecture":"三重県","city":"津市","street":"羽所町"},{"zipCode":"5140823","prefectureKana":"ﾐｴｹﾝ","cityKana":"ﾂｼ","streetKana":"ﾊﾝﾀﾞ","prefecture":"三重県","city":"津市","street":"半田"},{"zipCode":"5140037","prefectureKana":"ﾐｴｹﾝ","cityKana":"ﾂｼ","streetKana":"ﾋｶﾞｼﾌﾙｶﾜﾁｮｳ","prefecture":"三重県","city":"津市","street":"東古河町"},{"zipCode":"5140025","prefectureKana":"ﾐｴｹﾝ","cityKana":"ﾂｼ","streetKana":"ﾋｶﾞｼﾏﾁﾂ","prefecture":"三重県","city":"津市","street":"東町津"},{"zipCode":"5140028","prefectureKana":"ﾐｴｹﾝ","cityKana":"ﾂｼ","streetKana":"ﾋｶﾞｼﾏﾙﾉｳﾁ","prefecture":"三重県","city":"津市","street":"東丸之内"},{"zipCode":"5141103","prefectureKana":"ﾐｴｹﾝ","cityKana":"ﾂｼ","streetKana":"ﾋｻｲｱｲｶﾜﾁｮｳ","prefecture":"三重県","city":"津市","street":"久居相川町"},{"zipCode":"5141253","prefectureKana":"ﾐｴｹﾝ","cityKana":"ﾂｼ","streetKana":"ﾋｻｲｲｯｼｷﾁｮｳ","prefecture":"三重県","city":"津市","street":"久居一色町"},{"zipCode":"5141114","prefectureKana":"ﾐｴｹﾝ","cityKana":"ﾂｼ","streetKana":"ﾋｻｲｲﾄﾞﾔﾏﾁｮｳ","prefecture":"三重県","city":"津市","street":"久居井戸山町"},{"zipCode":"5141108","prefectureKana":"ﾐｴｹﾝ","cityKana":"ﾂｼ","streetKana":"ﾋｻｲｲﾊﾞﾁｮｳ","prefecture":"三重県","city":"津市","street":"久居射場町"},{"zipCode":"5141109","prefectureKana":"ﾐｴｹﾝ","cityKana":"ﾂｼ","streetKana":"ﾋｻｲｶﾗｽｷﾞﾁｮｳ","prefecture":"三重県","city":"津市","street":"久居烏木町"},{"zipCode":"5141105","prefectureKana":"ﾐｴｹﾝ","cityKana":"ﾂｼ","streetKana":"ﾋｻｲｷﾀｸﾞﾁﾁｮｳ","prefecture":"三重県","city":"津市","street":"久居北口町"},{"zipCode":"5141112","prefectureKana":"ﾐｴｹﾝ","cityKana":"ﾂｼ","streetKana":"ﾋｻｲｺﾉﾝﾍﾞﾁｮｳ","prefecture":"三重県","city":"津市","street":"久居小野辺町"},{"zipCode":"5141137","prefectureKana":"ﾐｴｹﾝ","cityKana":"ﾂｼ","streetKana":"ﾋｻｲｺﾍﾞｷﾁｮｳ","prefecture":"三重県","city":"津市","street":"久居小戸木町"},{"zipCode":"5141111","prefectureKana":"ﾐｴｹﾝ","cityKana":"ﾂｼ","streetKana":"ﾋｻｲｻｸﾗｶﾞｵｶﾁｮｳ","prefecture":"三重県","city":"津市","street":"久居桜が丘町"},{"zipCode":"5141132","prefectureKana":"ﾐｴｹﾝ","cityKana":"ﾂｼ","streetKana":"ﾋｻｲｻﾔﾏﾁ","prefecture":"三重県","city":"津市","street":"久居幸町"},{"zipCode":"5141118","prefectureKana":"ﾐｴｹﾝ","cityKana":"ﾂｼ","streetKana":"ﾋｻｲｼﾝﾏﾁ","prefecture":"三重県","city":"津市","street":"久居新町"},{"zipCode":"5141106","prefectureKana":"ﾐｴｹﾝ","cityKana":"ﾂｼ","streetKana":"ﾋｻｲﾃﾗﾏﾁ","prefecture":"三重県","city":"津市","street":"久居寺町"},{"zipCode":"5141107","prefectureKana":"ﾐｴｹﾝ","cityKana":"ﾂｼ","streetKana":"ﾋｻｲﾅｶﾏﾁ","prefecture":"三重県","city":"津市","street":"久居中町"},{"zipCode":"5141131","prefectureKana":"ﾐｴｹﾝ","cityKana":"ﾂｼ","streetKana":"ﾋｻｲﾆｼﾀｶﾄﾏﾁ","prefecture":"三重県","city":"津市","street":"久居西鷹跡町"},{"zipCode":"5141121","prefectureKana":"ﾐｴｹﾝ","cityKana":"ﾂｼ","streetKana":"ﾋｻｲﾆﾉﾏﾁ","prefecture":"三重県","city":"津市","street":"久居二ノ町"},{"zipCode":"5141117","prefectureKana":"ﾐｴｹﾝ","cityKana":"ﾂｼ","streetKana":"ﾋｻｲﾉｸﾞﾁﾁｮｳ","prefecture":"三重県","city":"津市","street":"久居野口町"},{"zipCode":"5141113","prefectureKana":"ﾐｴｹﾝ","cityKana":"ﾂｼ","streetKana":"ﾋｻｲﾉﾑﾗﾁｮｳ","prefecture":"三重県","city":"津市","street":"久居野村町"},{"zipCode":"5141134","prefectureKana":"ﾐｴｹﾝ","cityKana":"ﾂｼ","streetKana":"ﾋｻｲﾊﾀｺﾞﾏﾁ","prefecture":"三重県","city":"津市","street":"久居旅籠町"},{"zipCode":"5141136","prefectureKana":"ﾐｴｹﾝ","cityKana":"ﾂｼ","streetKana":"ﾋｻｲﾋｶﾞｼﾀｶﾄﾏﾁ","prefecture":"三重県","city":"津市","street":"久居東鷹跡町"},{"zipCode":"5141102","prefectureKana":"ﾐｴｹﾝ","cityKana":"ﾂｼ","streetKana":"ﾋｻｲﾌｼﾞｶﾞｵｶﾁｮｳ","prefecture":"三重県","city":"津市","street":"久居藤ケ丘町"},{"zipCode":"5141135","prefectureKana":"ﾐｴｹﾝ","cityKana":"ﾂｼ","streetKana":"ﾋｻｲﾎﾝﾏﾁ","prefecture":"三重県","city":"津市","street":"久居本町"},{"zipCode":"5141258","prefectureKana":"ﾐｴｹﾝ","cityKana":"ﾂｼ","streetKana":"ﾋｻｲﾐﾄﾞﾘｶﾞｵｶﾁｮｳ","prefecture":"三重県","city":"津市","street":"久居緑が丘町"},{"zipCode":"5141101","prefectureKana":"ﾐｴｹﾝ","cityKana":"ﾂｼ","streetKana":"ﾋｻｲﾐｮｳｼﾞﾝﾁｮｳ","prefecture":"三重県","city":"津市","street":"久居明神町"},{"zipCode":"5141104","prefectureKana":"ﾐｴｹﾝ","cityKana":"ﾂｼ","streetKana":"ﾋｻｲﾓﾁｶﾜﾁｮｳ","prefecture":"三重県","city":"津市","street":"久居持川町"},{"zipCode":"5141125","prefectureKana":"ﾐｴｹﾝ","cityKana":"ﾂｼ","streetKana":"ﾋｻｲﾓﾄﾏﾁ","prefecture":"三重県","city":"津市","street":"久居元町"},{"zipCode":"5141133","prefectureKana":"ﾐｴｹﾝ","cityKana":"ﾂｼ","streetKana":"ﾋｻｲﾖﾛｽﾞﾏﾁ","prefecture":"三重県","city":"津市","street":"久居万町"},{"zipCode":"5140814","prefectureKana":"ﾐｴｹﾝ","cityKana":"ﾂｼ","streetKana":"ﾌｼﾞｴﾀﾞﾁｮｳ","prefecture":"三重県","city":"津市","street":"藤枝町"},{"zipCode":"5140815","prefectureKana":"ﾐｴｹﾝ","cityKana":"ﾂｼ","streetKana":"ﾌｼﾞｶﾀ","prefecture":"三重県","city":"津市","street":"藤方"},{"zipCode":"5141138","prefectureKana":"ﾐｴｹﾝ","cityKana":"ﾂｼ","streetKana":"ﾍｷﾁｮｳ","prefecture":"三重県","city":"津市","street":"戸木町"},{"zipCode":"5140831","prefectureKana":"ﾐｴｹﾝ","cityKana":"ﾂｼ","streetKana":"ﾎﾝﾏﾁ","prefecture":"三重県","city":"津市","street":"本町"},{"zipCode":"5141123","prefectureKana":"ﾐｴｹﾝ","cityKana":"ﾂｼ","streetKana":"ﾏｷﾁｮｳ","prefecture":"三重県","city":"津市","street":"牧町"},{"zipCode":"5140033","prefectureKana":"ﾐｴｹﾝ","cityKana":"ﾂｼ","streetKana":"ﾏﾙﾉｳﾁ","prefecture":"三重県","city":"津市","street":"丸之内"},{"zipCode":"5140036","prefectureKana":"ﾐｴｹﾝ","cityKana":"ﾂｼ","streetKana":"ﾏﾙﾉｳﾁﾖｳｾｲﾁｮｳ","prefecture":"三重県","city":"津市","street":"丸之内養正町"},{"zipCode":"5140802","prefectureKana":"ﾐｴｹﾝ","cityKana":"ﾂｼ","streetKana":"ﾐｴﾁｮｳﾂｵｷ","prefecture":"三重県","city":"津市","street":"三重町津興"},{"zipCode":"5140045","prefectureKana":"ﾐｴｹﾝ","cityKana":"ﾂｼ","streetKana":"ﾐｶﾜﾁｮｳ","prefecture":"三重県","city":"津市","street":"美川町"},{"zipCode":"5142106","prefectureKana":"ﾐｴｹﾝ","cityKana":"ﾂｼ","streetKana":"ﾐｻﾄﾁｮｳｱｼｻﾞｶ","prefecture":"三重県","city":"津市","street":"美里町足坂"},{"zipCode":"5142107","prefectureKana":"ﾐｴｹﾝ","cityKana":"ﾂｼ","streetKana":"ﾐｻﾄﾁｮｳｱﾅｸﾗ","prefecture":"三重県","city":"津市","street":"美里町穴倉"},{"zipCode":"5142104","prefectureKana":"ﾐｴｹﾝ","cityKana":"ﾂｼ","streetKana":"ﾐｻﾄﾁｮｳｲｴﾄﾞｺﾛ","prefecture":"三重県","city":"津市","street":"美里町家所"},{"zipCode":"5142105","prefectureKana":"ﾐｴｹﾝ","cityKana":"ﾂｼ","streetKana":"ﾐｻﾄﾁｮｳｲｵﾉ","prefecture":"三重県","city":"津市","street":"美里町五百野"},{"zipCode":"5142115","prefectureKana":"ﾐｴｹﾝ","cityKana":"ﾂｼ","streetKana":"ﾐｻﾄﾁｮｳｶﾂﾗﾊﾀ","prefecture":"三重県","city":"津市","street":"美里町桂畑"},{"zipCode":"5142112","prefectureKana":"ﾐｴｹﾝ","cityKana":"ﾂｼ","streetKana":"ﾐｻﾄﾁｮｳｷﾀﾅｶﾞﾉ","prefecture":"三重県","city":"津市","street":"美里町北長野"},{"zipCode":"5142101","prefectureKana":"ﾐｴｹﾝ","cityKana":"ﾂｼ","streetKana":"ﾐｻﾄﾁｮｳｺｳｻﾞﾜﾗ","prefecture":"三重県","city":"津市","street":"美里町高座原"},{"zipCode":"5142103","prefectureKana":"ﾐｴｹﾝ","cityKana":"ﾂｼ","streetKana":"ﾐｻﾄﾁｮｳﾋﾅﾀ","prefecture":"三重県","city":"津市","street":"美里町日南田"},{"zipCode":"5142111","prefectureKana":"ﾐｴｹﾝ","cityKana":"ﾂｼ","streetKana":"ﾐｻﾄﾁｮｳﾋﾗｷﾞ","prefecture":"三重県","city":"津市","street":"美里町平木"},{"zipCode":"5142102","prefectureKana":"ﾐｴｹﾝ","cityKana":"ﾂｼ","streetKana":"ﾐｻﾄﾁｮｳﾌﾅﾔﾏ","prefecture":"三重県","city":"津市","street":"美里町船山"},{"zipCode":"5142113","prefectureKana":"ﾐｴｹﾝ","cityKana":"ﾂｼ","streetKana":"ﾐｻﾄﾁｮｳﾐｻﾄ","prefecture":"三重県","city":"津市","street":"美里町三郷"},{"zipCode":"5142114","prefectureKana":"ﾐｴｹﾝ","cityKana":"ﾂｼ","streetKana":"ﾐｻﾄﾁｮｳﾐﾅﾐﾅｶﾞﾉ","prefecture":"三重県","city":"津市","street":"美里町南長野"},{"zipCode":"5140825","prefectureKana":"ﾐｴｹﾝ","cityKana":"ﾂｼ","streetKana":"ﾐﾄﾞﾘｶﾞｵｶ","prefecture":"三重県","city":"津市","street":"緑が丘"},{"zipCode":"5140014","prefectureKana":"ﾐｴｹﾝ","cityKana":"ﾂｼ","streetKana":"ﾐﾅﾄﾏﾁ","prefecture":"三重県","city":"津市","street":"港町"},{"zipCode":"5140822","prefectureKana":"ﾐｴｹﾝ","cityKana":"ﾂｼ","streetKana":"ﾐﾅﾐｶﾞｵｶ","prefecture":"三重県","city":"津市","street":"南が丘"},{"zipCode":"5140055","prefectureKana":"ﾐｴｹﾝ","cityKana":"ﾂｼ","streetKana":"ﾐﾅﾐｺｳｼﾞ","prefecture":"三重県","city":"津市","street":"南河路"},{"zipCode":"5140043","prefectureKana":"ﾐｴｹﾝ","cityKana":"ﾂｼ","streetKana":"ﾐﾅﾐｼﾝﾏﾁ","prefecture":"三重県","city":"津市","street":"南新町"},{"zipCode":"5140832","prefectureKana":"ﾐｴｹﾝ","cityKana":"ﾂｼ","streetKana":"ﾐﾅﾐﾁｭｳｵｳ","prefecture":"三重県","city":"津市","street":"南中央"},{"zipCode":"5140034","prefectureKana":"ﾐｴｹﾝ","cityKana":"ﾂｼ","streetKana":"ﾐﾅﾐﾏﾙﾉｳﾁ","prefecture":"三重県","city":"津市","street":"南丸之内"},{"zipCode":"5141254","prefectureKana":"ﾐｴｹﾝ","cityKana":"ﾂｼ","streetKana":"ﾓﾘﾁｮｳ","prefecture":"三重県","city":"津市","street":"森町"},{"zipCode":"5140803","prefectureKana":"ﾐｴｹﾝ","cityKana":"ﾂｼ","streetKana":"ﾔﾅｷﾞﾔﾏﾂｵｷ","prefecture":"三重県","city":"津市","street":"柳山津興"},{"zipCode":"5140813","prefectureKana":"ﾐｴｹﾝ","cityKana":"ﾂｼ","streetKana":"ﾔﾊﾀﾁｮｳ","prefecture":"三重県","city":"津市","street":"八幡町"},{"zipCode":"5140116","prefectureKana":"ﾐｴｹﾝ","cityKana":"ﾂｼ","streetKana":"ﾕﾒｶﾞｵｶ","prefecture":"三重県","city":"津市","street":"夢が丘"},{"zipCode":"5140021","prefectureKana":"ﾐｴｹﾝ","cityKana":"ﾂｼ","streetKana":"ﾖﾛｽﾞﾏﾁﾂ","prefecture":"三重県","city":"津市","street":"万町津"},{"zipCode":"5140071","prefectureKana":"ﾐｴｹﾝ","cityKana":"ﾂｼ","streetKana":"ﾜｹﾍﾞ","prefecture":"三重県","city":"津市","street":"分部"}]