[{"zipCode":"5152523","prefectureKana":"ﾐｴｹﾝ","cityKana":"ﾂｼ","streetKana":"ｲﾁｼﾁｮｳｲｳ","prefecture":"三重県","city":"津市","street":"一志町井生"},{"zipCode":"5152525","prefectureKana":"ﾐｴｹﾝ","cityKana":"ﾂｼ","streetKana":"ｲﾁｼﾁｮｳｲｼﾊﾞｼ","prefecture":"三重県","city":"津市","street":"一志町石橋"},{"zipCode":"5152521","prefectureKana":"ﾐｴｹﾝ","cityKana":"ﾂｼ","streetKana":"ｲﾁｼﾁｮｳｲｾｷﾞ","prefecture":"三重県","city":"津市","street":"一志町井関"},{"zipCode":"5152524","prefectureKana":"ﾐｴｹﾝ","cityKana":"ﾂｼ","streetKana":"ｲﾁｼﾁｮｳｵｵﾉｷ","prefecture":"三重県","city":"津市","street":"一志町大仰"},{"zipCode":"5152514","prefectureKana":"ﾐｴｹﾝ","cityKana":"ﾂｼ","streetKana":"ｲﾁｼﾁｮｳｵﾔﾏ(ｵﾔﾏﾀﾞｲﾁ)","prefecture":"三重県","city":"津市","street":"一志町小山（小山台地）"},{"zipCode":"5152514","prefectureKana":"ﾐｴｹﾝ","cityKana":"ﾂｼ","streetKana":"ｲﾁｼﾁｮｳｵﾔﾏ(ｿﾉﾀ)","prefecture":"三重県","city":"津市","street":"一志町小山（その他）"},{"zipCode":"5152511","prefectureKana":"ﾐｴｹﾝ","cityKana":"ﾂｼ","streetKana":"ｲﾁｼﾁｮｳｶﾀﾉ","prefecture":"三重県","city":"津市","street":"一志町片野"},{"zipCode":"5152505","prefectureKana":"ﾐｴｹﾝ","cityKana":"ﾂｼ","streetKana":"ｲﾁｼﾁｮｳｺﾍﾞｷ","prefecture":"三重県","city":"津市","street":"一志町小戸木"},{"zipCode":"5152501","prefectureKana":"ﾐｴｹﾝ","cityKana":"ﾂｼ","streetKana":"ｲﾁｼﾁｮｳｼｮｳﾑﾗ","prefecture":"三重県","city":"津市","street":"一志町庄村"},{"zipCode":"5152512","prefectureKana":"ﾐｴｹﾝ","cityKana":"ﾂｼ","streetKana":"ｲﾁｼﾁｮｳｼﾝｻﾜﾀﾞ","prefecture":"三重県","city":"津市","street":"一志町新沢田"},{"zipCode":"5152526","prefectureKana":"ﾐｴｹﾝ","cityKana":"ﾂｼ","streetKana":"ｲﾁｼﾁｮｳｿﾉｸﾗ","prefecture":"三重県","city":"津市","street":"一志町其倉"},{"zipCode":"5152502","prefectureKana":"ﾐｴｹﾝ","cityKana":"ﾂｼ","streetKana":"ｲﾁｼﾁｮｳｿﾉﾑﾗ","prefecture":"三重県","city":"津市","street":"一志町其村"},{"zipCode":"5152504","prefectureKana":"ﾐｴｹﾝ","cityKana":"ﾂｼ","streetKana":"ｲﾁｼﾁｮｳﾀｶﾉ(ﾀｶﾉﾀﾞﾝﾁ)","prefecture":"三重県","city":"津市","street":"一志町高野（高野団地）"},{"zipCode":"5152504","prefectureKana":"ﾐｴｹﾝ","cityKana":"ﾂｼ","streetKana":"ｲﾁｼﾁｮｳﾀｶﾉ(ﾉﾀﾞ)","prefecture":"三重県","city":"津市","street":"一志町高野（野田）"},{"zipCode":"5152504","prefectureKana":"ﾐｴｹﾝ","cityKana":"ﾂｼ","streetKana":"ｲﾁｼﾁｮｳﾀｶﾉ(ｿﾉﾀ)","prefecture":"三重県","city":"津市","street":"一志町高野（その他）"},{"zipCode":"5152516","prefectureKana":"ﾐｴｹﾝ","cityKana":"ﾂｼ","streetKana":"ｲﾁｼﾁｮｳﾀｼﾞﾘ","prefecture":"三重県","city":"津市","street":"一志町田尻"},{"zipCode":"5152513","prefectureKana":"ﾐｴｹﾝ","cityKana":"ﾂｼ","streetKana":"ｲﾁｼﾁｮｳﾆｼﾞｶﾞｵｶ","prefecture":"三重県","city":"津市","street":"一志町虹が丘"},{"zipCode":"5152522","prefectureKana":"ﾐｴｹﾝ","cityKana":"ﾂｼ","streetKana":"ｲﾁｼﾁｮｳﾊｾﾞ","prefecture":"三重県","city":"津市","street":"一志町波瀬"},{"zipCode":"5152515","prefectureKana":"ﾐｴｹﾝ","cityKana":"ﾂｼ","streetKana":"ｲﾁｼﾁｮｳﾊﾀ(ｲﾁｼﾀﾞﾝﾁ)","prefecture":"三重県","city":"津市","street":"一志町八太（一志団地）"},{"zipCode":"5152515","prefectureKana":"ﾐｴｹﾝ","cityKana":"ﾂｼ","streetKana":"ｲﾁｼﾁｮｳﾊﾀ(ｿﾉﾀ)","prefecture":"三重県","city":"津市","street":"一志町八太（その他）"},{"zipCode":"5152503","prefectureKana":"ﾐｴｹﾝ","cityKana":"ﾂｼ","streetKana":"ｲﾁｼﾁｮｳﾋｵｷ","prefecture":"三重県","city":"津市","street":"一志町日置"},{"zipCode":"5152517","prefectureKana":"ﾐｴｹﾝ","cityKana":"ﾂｼ","streetKana":"ｲﾁｼﾁｮｳﾐﾉﾘｶﾞｵｶ","prefecture":"三重県","city":"津市","street":"一志町みのりケ丘"},{"zipCode":"5152617","prefectureKana":"ﾐｴｹﾝ","cityKana":"ﾂｼ","streetKana":"ｸﾞﾘﾝﾀｳﾝｻｶｷﾊﾞﾗ","prefecture":"三重県","city":"津市","street":"グリンタウン榊原"},{"zipCode":"5152605","prefectureKana":"ﾐｴｹﾝ","cityKana":"ﾂｼ","streetKana":"ﾊｸｻﾝﾀﾞｲ","prefecture":"三重県","city":"津市","street":"白山台"},{"zipCode":"5152614","prefectureKana":"ﾐｴｹﾝ","cityKana":"ﾂｼ","streetKana":"ﾊｸｻﾝﾁｮｳｲｾﾐ","prefecture":"三重県","city":"津市","street":"白山町伊勢見"},{"zipCode":"5152616","prefectureKana":"ﾐｴｹﾝ","cityKana":"ﾂｼ","streetKana":"ﾊｸｻﾝﾁｮｳｲﾅｶｹ","prefecture":"三重県","city":"津市","street":"白山町稲垣"},{"zipCode":"5153137","prefectureKana":"ﾐｴｹﾝ","cityKana":"ﾂｼ","streetKana":"ﾊｸｻﾝﾁｮｳｵｵﾊﾞﾗ","prefecture":"三重県","city":"津市","street":"白山町大原"},{"zipCode":"5152604","prefectureKana":"ﾐｴｹﾝ","cityKana":"ﾂｼ","streetKana":"ﾊｸｻﾝﾁｮｳｵｶ","prefecture":"三重県","city":"津市","street":"白山町岡"},{"zipCode":"5152624","prefectureKana":"ﾐｴｹﾝ","cityKana":"ﾂｼ","streetKana":"ﾊｸｻﾝﾁｮｳｶｲﾄ","prefecture":"三重県","city":"津市","street":"白山町垣内"},{"zipCode":"5152623","prefectureKana":"ﾐｴｹﾝ","cityKana":"ﾂｼ","streetKana":"ﾊｸｻﾝﾁｮｳｶﾐﾉﾑﾗ","prefecture":"三重県","city":"津市","street":"白山町上ノ村"},{"zipCode":"5152603","prefectureKana":"ﾐｴｹﾝ","cityKana":"ﾂｼ","streetKana":"ﾊｸｻﾝﾁｮｳｶﾜｸﾞﾁ","prefecture":"三重県","city":"津市","street":"白山町川口"},{"zipCode":"5153132","prefectureKana":"ﾐｴｹﾝ","cityKana":"ﾂｼ","streetKana":"ﾊｸｻﾝﾁｮｳｷﾀｲｴｷ","prefecture":"三重県","city":"津市","street":"白山町北家城"},{"zipCode":"5153138","prefectureKana":"ﾐｴｹﾝ","cityKana":"ﾂｼ","streetKana":"ﾊｸｻﾝﾁｮｳｺｽｷﾞ","prefecture":"三重県","city":"津市","street":"白山町小杉"},{"zipCode":"5152621","prefectureKana":"ﾐｴｹﾝ","cityKana":"ﾂｼ","streetKana":"ﾊｸｻﾝﾁｮｳｻﾀﾞ","prefecture":"三重県","city":"津市","street":"白山町佐田"},{"zipCode":"5153139","prefectureKana":"ﾐｴｹﾝ","cityKana":"ﾂｼ","streetKana":"ﾊｸｻﾝﾁｮｳｼﾞｮｳﾘｭｳ","prefecture":"三重県","city":"津市","street":"白山町城立"},{"zipCode":"5152622","prefectureKana":"ﾐｴｹﾝ","cityKana":"ﾂｼ","streetKana":"ﾊｸｻﾝﾁｮｳﾅｶﾉﾑﾗ","prefecture":"三重県","city":"津市","street":"白山町中ノ村"},{"zipCode":"5152602","prefectureKana":"ﾐｴｹﾝ","cityKana":"ﾂｼ","streetKana":"ﾊｸｻﾝﾁｮｳﾆﾎﾝｷﾞ","prefecture":"三重県","city":"津市","street":"白山町二本木"},{"zipCode":"5152615","prefectureKana":"ﾐｴｹﾝ","cityKana":"ﾂｼ","streetKana":"ﾊｸｻﾝﾁｮｳﾊｯﾀｲﾉ","prefecture":"三重県","city":"津市","street":"白山町八対野"},{"zipCode":"5153136","prefectureKana":"ﾐｴｹﾝ","cityKana":"ﾂｼ","streetKana":"ﾊｸｻﾝﾁｮｳﾌｸﾀﾔﾏ","prefecture":"三重県","city":"津市","street":"白山町福田山"},{"zipCode":"5153131","prefectureKana":"ﾐｴｹﾝ","cityKana":"ﾂｼ","streetKana":"ﾊｸｻﾝﾁｮｳﾌｼﾞ","prefecture":"三重県","city":"津市","street":"白山町藤"},{"zipCode":"5153135","prefectureKana":"ﾐｴｹﾝ","cityKana":"ﾂｼ","streetKana":"ﾊｸｻﾝﾁｮｳﾌﾀﾏﾀ","prefecture":"三重県","city":"津市","street":"白山町二俣"},{"zipCode":"5152612","prefectureKana":"ﾐｴｹﾝ","cityKana":"ﾂｼ","streetKana":"ﾊｸｻﾝﾁｮｳﾌﾙｲﾁ","prefecture":"三重県","city":"津市","street":"白山町古市"},{"zipCode":"5153134","prefectureKana":"ﾐｴｹﾝ","cityKana":"ﾂｼ","streetKana":"ﾊｸｻﾝﾁｮｳﾏﾐ","prefecture":"三重県","city":"津市","street":"白山町真見"},{"zipCode":"5152601","prefectureKana":"ﾐｴｹﾝ","cityKana":"ﾂｼ","streetKana":"ﾊｸｻﾝﾁｮｳﾐﾂｶﾞﾉ","prefecture":"三重県","city":"津市","street":"白山町三ケ野"},{"zipCode":"5153133","prefectureKana":"ﾐｴｹﾝ","cityKana":"ﾂｼ","streetKana":"ﾊｸｻﾝﾁｮｳﾐﾅﾐｲｴｷ","prefecture":"三重県","city":"津市","street":"白山町南家城"},{"zipCode":"5152611","prefectureKana":"ﾐｴｹﾝ","cityKana":"ﾂｼ","streetKana":"ﾊｸｻﾝﾁｮｳﾐﾅﾐﾃﾞ","prefecture":"三重県","city":"津市","street":"白山町南出"},{"zipCode":"5152613","prefectureKana":"ﾐｴｹﾝ","cityKana":"ﾂｼ","streetKana":"ﾊｸｻﾝﾁｮｳﾔﾏﾀﾞﾉ","prefecture":"三重県","city":"津市","street":"白山町山田野"},{"zipCode":"5153533","prefectureKana":"ﾐｴｹﾝ","cityKana":"ﾂｼ","streetKana":"ﾐｽｷﾞﾁｮｳｲｼﾅﾊﾗ","prefecture":"三重県","city":"津市","street":"美杉町石名原"},{"zipCode":"5153531","prefectureKana":"ﾐｴｹﾝ","cityKana":"ﾂｼ","streetKana":"ﾐｽｷﾞﾁｮｳｵｷﾂ","prefecture":"三重県","city":"津市","street":"美杉町奥津"},{"zipCode":"5153312","prefectureKana":"ﾐｴｹﾝ","cityKana":"ﾂｼ","streetKana":"ﾐｽｷﾞﾁｮｳｶﾐﾀｹﾞ","prefecture":"三重県","city":"津市","street":"美杉町上多気"},{"zipCode":"5153532","prefectureKana":"ﾐｴｹﾝ","cityKana":"ﾂｼ","streetKana":"ﾐｽｷﾞﾁｮｳｶﾜｶﾐ","prefecture":"三重県","city":"津市","street":"美杉町川上"},{"zipCode":"5153311","prefectureKana":"ﾐｴｹﾝ","cityKana":"ﾂｼ","streetKana":"ﾐｽｷﾞﾁｮｳｼﾓﾀｹﾞ","prefecture":"三重県","city":"津市","street":"美杉町下多気"},{"zipCode":"5153203","prefectureKana":"ﾐｴｹﾝ","cityKana":"ﾂｼ","streetKana":"ﾐｽｷﾞﾁｮｳｼﾓﾉｶﾞﾜ","prefecture":"三重県","city":"津市","street":"美杉町下之川"},{"zipCode":"5153534","prefectureKana":"ﾐｴｹﾝ","cityKana":"ﾂｼ","streetKana":"ﾐｽｷﾞﾁｮｳｽｷﾞﾋﾗ","prefecture":"三重県","city":"津市","street":"美杉町杉平"},{"zipCode":"5153201","prefectureKana":"ﾐｴｹﾝ","cityKana":"ﾂｼ","streetKana":"ﾐｽｷﾞﾁｮｳﾀｹﾊﾗ","prefecture":"三重県","city":"津市","street":"美杉町竹原"},{"zipCode":"5153536","prefectureKana":"ﾐｴｹﾝ","cityKana":"ﾂｼ","streetKana":"ﾐｽｷﾞﾁｮｳﾀﾛｵ","prefecture":"三重県","city":"津市","street":"美杉町太郎生"},{"zipCode":"5153313","prefectureKana":"ﾐｴｹﾝ","cityKana":"ﾂｼ","streetKana":"ﾐｽｷﾞﾁｮｳﾆｭｳﾉﾏﾀ","prefecture":"三重県","city":"津市","street":"美杉町丹生俣"},{"zipCode":"5153202","prefectureKana":"ﾐｴｹﾝ","cityKana":"ﾂｼ","streetKana":"ﾐｽｷﾞﾁｮｳﾊﾃﾏﾀ","prefecture":"三重県","city":"津市","street":"美杉町八手俣"},{"zipCode":"5153535","prefectureKana":"ﾐｴｹﾝ","cityKana":"ﾂｼ","streetKana":"ﾐｽｷﾞﾁｮｳﾐﾀｹ","prefecture":"三重県","city":"津市","street":"美杉町三多気"},{"zipCode":"5153421","prefectureKana":"ﾐｴｹﾝ","cityKana":"ﾂｼ","streetKana":"ﾐｽｷﾞﾁｮｳﾔﾁ","prefecture":"三重県","city":"津市","street":"美杉町八知"},{"zipCode":"5150501","prefectureKana":"ﾐｴｹﾝ","cityKana":"ｲｾｼ","streetKana":"ｱﾘﾀｷﾁｮｳ","prefecture":"三重県","city":"伊勢市","street":"有滝町"},{"zipCode":"5150504","prefectureKana":"ﾐｴｹﾝ","cityKana":"ｲｾｼ","streetKana":"ｲｿﾁｮｳ","prefecture":"三重県","city":"伊勢市","street":"磯町"},{"zipCode":"5150506","prefectureKana":"ﾐｴｹﾝ","cityKana":"ｲｾｼ","streetKana":"ｳｴﾔﾏﾁｮｳ","prefecture":"三重県","city":"伊勢市","street":"植山町"},{"zipCode":"5150508","prefectureKana":"ﾐｴｹﾝ","cityKana":"ｲｾｼ","streetKana":"ｶｼﾜﾁｮｳ","prefecture":"三重県","city":"伊勢市","street":"柏町"},{"zipCode":"5150503","prefectureKana":"ﾐｴｹﾝ","cityKana":"ｲｾｼ","streetKana":"ｶｼﾜﾗﾁｮｳ","prefecture":"三重県","city":"伊勢市","street":"樫原町"},{"zipCode":"5150505","prefectureKana":"ﾐｴｹﾝ","cityKana":"ｲｾｼ","streetKana":"ﾆｼﾄﾖﾊﾏﾁｮｳ","prefecture":"三重県","city":"伊勢市","street":"西豊浜町"},{"zipCode":"5150511","prefectureKana":"ﾐｴｹﾝ","cityKana":"ｲｾｼ","streetKana":"ﾉﾑﾗﾁｮｳ","prefecture":"三重県","city":"伊勢市","street":"野村町"},{"zipCode":"5150509","prefectureKana":"ﾐｴｹﾝ","cityKana":"ｲｾｼ","streetKana":"ﾋｶﾞｼｵｲｽﾞﾁｮｳ","prefecture":"三重県","city":"伊勢市","street":"東大淀町"},{"zipCode":"5150502","prefectureKana":"ﾐｴｹﾝ","cityKana":"ｲｾｼ","streetKana":"ﾋｶﾞｼﾄﾖﾊﾏﾁｮｳ","prefecture":"三重県","city":"伊勢市","street":"東豊浜町"},{"zipCode":"5150521","prefectureKana":"ﾐｴｹﾝ","cityKana":"ｲｾｼ","streetKana":"ﾐｿﾉﾁｮｳｶﾐｼﾞｮｳ(ｻﾝｹﾞﾝﾔ)","prefecture":"三重県","city":"伊勢市","street":"御薗町上條（三軒屋）"},{"zipCode":"5150507","prefectureKana":"ﾐｴｹﾝ","cityKana":"ｲｾｼ","streetKana":"ﾑﾗﾏﾂﾁｮｳ","prefecture":"三重県","city":"伊勢市","street":"村松町"},{"zipCode":"5150000","prefectureKana":"ﾐｴｹﾝ","cityKana":"ﾏﾂｻｶｼ","streetKana":"ｲｶﾆｹｲｻｲｶﾞﾅｲﾊﾞｱｲ","prefecture":"三重県","city":"松阪市","street":"以下に掲載がない場合"},{"zipCode":"5150823","prefectureKana":"ﾐｴｹﾝ","cityKana":"ﾏﾂｻｶｼ","streetKana":"ｱｶﾞﾀﾁｮｳ","prefecture":"三重県","city":"松阪市","street":"阿形町"},{"zipCode":"5150027","prefectureKana":"ﾐｴｹﾝ","cityKana":"ﾏﾂｻｶｼ","streetKana":"ｱｻﾀﾞﾁｮｳ","prefecture":"三重県","city":"松阪市","street":"朝田町"},{"zipCode":"5150004","prefectureKana":"ﾐｴｹﾝ","cityKana":"ﾏﾂｻｶｼ","streetKana":"ｱｻﾋﾏﾁ","prefecture":"三重県","city":"松阪市","street":"朝日町"},{"zipCode":"5150003","prefectureKana":"ﾐｴｹﾝ","cityKana":"ﾏﾂｻｶｼ","streetKana":"ｱｻﾋﾏﾁ1ｸ","prefecture":"三重県","city":"松阪市","street":"朝日町一区"},{"zipCode":"5150037","prefectureKana":"ﾐｴｹﾝ","cityKana":"ﾏﾂｻｶｼ","streetKana":"ｱﾀｺﾞﾏﾁ","prefecture":"三重県","city":"松阪市","street":"愛宕町"},{"zipCode":"5150007","prefectureKana":"ﾐｴｹﾝ","cityKana":"ﾏﾂｻｶｼ","streetKana":"ｱﾗｷﾁｮｳ","prefecture":"三重県","city":"松阪市","street":"荒木町"},{"zipCode":"5150207","prefectureKana":"ﾐｴｹﾝ","cityKana":"ﾏﾂｻｶｼ","streetKana":"ｱﾝﾗｸﾁｮｳ","prefecture":"三重県","city":"松阪市","street":"安楽町"},{"zipCode":"5151505","prefectureKana":"ﾐｴｹﾝ","cityKana":"ﾏﾂｻｶｼ","streetKana":"ｲｲﾀｶﾁｮｳｱｺｳ","prefecture":"三重県","city":"松阪市","street":"飯高町赤桶"},{"zipCode":"5151613","prefectureKana":"ﾐｴｹﾝ","cityKana":"ﾏﾂｻｶｼ","streetKana":"ｲｲﾀｶﾁｮｳｱﾜﾉ","prefecture":"三重県","city":"松阪市","street":"飯高町粟野"},{"zipCode":"5151617","prefectureKana":"ﾐｴｹﾝ","cityKana":"ﾏﾂｻｶｼ","streetKana":"ｲｲﾀｶﾁｮｳｴﾃﾔﾏ","prefecture":"三重県","city":"松阪市","street":"飯高町猿山"},{"zipCode":"5151616","prefectureKana":"ﾐｴｹﾝ","cityKana":"ﾏﾂｻｶｼ","streetKana":"ｲｲﾀｶﾁｮｳｵｵﾀﾞ","prefecture":"三重県","city":"松阪市","street":"飯高町青田"},{"zipCode":"5151732","prefectureKana":"ﾐｴｹﾝ","cityKana":"ﾏﾂｻｶｼ","streetKana":"ｲｲﾀｶﾁｮｳｵﾁｶﾀ","prefecture":"三重県","city":"松阪市","street":"飯高町落方"},{"zipCode":"5151723","prefectureKana":"ﾐｴｹﾝ","cityKana":"ﾏﾂｻｶｼ","streetKana":"ｲｲﾀｶﾁｮｳｵﾄｸﾞﾙｽ","prefecture":"三重県","city":"松阪市","street":"飯高町乙栗子"},{"zipCode":"5151722","prefectureKana":"ﾐｴｹﾝ","cityKana":"ﾏﾂｻｶｼ","streetKana":"ｲｲﾀｶﾁｮｳｶﾊﾞ","prefecture":"三重県","city":"松阪市","street":"飯高町加波"},{"zipCode":"5151734","prefectureKana":"ﾐｴｹﾝ","cityKana":"ﾏﾂｻｶｼ","streetKana":"ｲｲﾀｶﾁｮｳｷｶｼﾞ","prefecture":"三重県","city":"松阪市","street":"飯高町木梶"},{"zipCode":"5151724","prefectureKana":"ﾐｴｹﾝ","cityKana":"ﾏﾂｻｶｼ","streetKana":"ｲｲﾀｶﾁｮｳｸﾜﾊﾞﾗ","prefecture":"三重県","city":"松阪市","street":"飯高町桑原"},{"zipCode":"5151504","prefectureKana":"ﾐｴｹﾝ","cityKana":"ﾏﾂｻｶｼ","streetKana":"ｲｲﾀｶﾁｮｳｻｸﾀｷ","prefecture":"三重県","city":"松阪市","street":"飯高町作滝"},{"zipCode":"5151501","prefectureKana":"ﾐｴｹﾝ","cityKana":"ﾏﾂｻｶｼ","streetKana":"ｲｲﾀｶﾁｮｳｼﾓﾀｷﾉ","prefecture":"三重県","city":"松阪市","street":"飯高町下滝野"},{"zipCode":"5151727","prefectureKana":"ﾐｴｹﾝ","cityKana":"ﾏﾂｻｶｼ","streetKana":"ｲｲﾀｶﾁｮｳｿｳｶﾞﾉ","prefecture":"三重県","city":"松阪市","street":"飯高町草鹿野"},{"zipCode":"5151506","prefectureKana":"ﾐｴｹﾝ","cityKana":"ﾏﾂｻｶｼ","streetKana":"ｲｲﾀｶﾁｮｳﾀﾋﾞｷ","prefecture":"三重県","city":"松阪市","street":"飯高町田引"},{"zipCode":"5151726","prefectureKana":"ﾐｴｹﾝ","cityKana":"ﾏﾂｻｶｼ","streetKana":"ｲｲﾀｶﾁｮｳﾀﾗｷ","prefecture":"三重県","city":"松阪市","street":"飯高町太良木"},{"zipCode":"5151721","prefectureKana":"ﾐｴｹﾝ","cityKana":"ﾏﾂｻｶｼ","streetKana":"ｲｲﾀｶﾁｮｳﾂｷﾃﾞ","prefecture":"三重県","city":"松阪市","street":"飯高町月出"},{"zipCode":"5151733","prefectureKana":"ﾐｴｹﾝ","cityKana":"ﾏﾂｻｶｼ","streetKana":"ｲｲﾀｶﾁｮｳﾄﾁﾀﾞﾆ","prefecture":"三重県","city":"松阪市","street":"飯高町栃谷"},{"zipCode":"5151612","prefectureKana":"ﾐｴｹﾝ","cityKana":"ﾏﾂｻｶｼ","streetKana":"ｲｲﾀｶﾁｮｳﾄﾐﾅｶﾞ","prefecture":"三重県","city":"松阪市","street":"飯高町富永"},{"zipCode":"5151611","prefectureKana":"ﾐｴｹﾝ","cityKana":"ﾏﾂｻｶｼ","streetKana":"ｲｲﾀｶﾁｮｳﾅﾉｶｲﾁ","prefecture":"三重県","city":"松阪市","street":"飯高町七日市"},{"zipCode":"5151503","prefectureKana":"ﾐｴｹﾝ","cityKana":"ﾏﾂｻｶｼ","streetKana":"ｲｲﾀｶﾁｮｳﾉﾉｸﾞﾁ","prefecture":"三重県","city":"松阪市","street":"飯高町野々口"},{"zipCode":"5151725","prefectureKana":"ﾐｴｹﾝ","cityKana":"ﾏﾂｻｶｼ","streetKana":"ｲｲﾀｶﾁｮｳﾊｾﾞ","prefecture":"三重県","city":"松阪市","street":"飯高町波瀬"},{"zipCode":"5151618","prefectureKana":"ﾐｴｹﾝ","cityKana":"ﾏﾂｻｶｼ","streetKana":"ｲｲﾀｶﾁｮｳﾊﾁｽ","prefecture":"三重県","city":"松阪市","street":"飯高町蓮"},{"zipCode":"5151731","prefectureKana":"ﾐｴｹﾝ","cityKana":"ﾏﾂｻｶｼ","streetKana":"ｲｲﾀｶﾁｮｳﾌﾅﾄ","prefecture":"三重県","city":"松阪市","street":"飯高町舟戸"},{"zipCode":"5151502","prefectureKana":"ﾐｴｹﾝ","cityKana":"ﾏﾂｻｶｼ","streetKana":"ｲｲﾀｶﾁｮｳﾐﾔﾏｴ","prefecture":"三重県","city":"松阪市","street":"飯高町宮前"},{"zipCode":"5151614","prefectureKana":"ﾐｴｹﾝ","cityKana":"ﾏﾂｻｶｼ","streetKana":"ｲｲﾀｶﾁｮｳﾐﾔﾓﾄ","prefecture":"三重県","city":"松阪市","street":"飯高町宮本"},{"zipCode":"5151615","prefectureKana":"ﾐｴｹﾝ","cityKana":"ﾏﾂｻｶｼ","streetKana":"ｲｲﾀｶﾁｮｳﾓﾘ","prefecture":"三重県","city":"松阪市","street":"飯高町森"},{"zipCode":"5151413","prefectureKana":"ﾐｴｹﾝ","cityKana":"ﾏﾂｻｶｼ","streetKana":"ｲｲﾅﾝﾁｮｳｱﾘﾏﾉ","prefecture":"三重県","city":"松阪市","street":"飯南町有間野"},{"zipCode":"5151304","prefectureKana":"ﾐｴｹﾝ","cityKana":"ﾏﾂｻｶｼ","streetKana":"ｲｲﾅﾝﾁｮｳｶﾐﾆｶﾞｷ","prefecture":"三重県","city":"松阪市","street":"飯南町上仁柿"},{"zipCode":"5151411","prefectureKana":"ﾐｴｹﾝ","cityKana":"ﾏﾂｻｶｼ","streetKana":"ｲｲﾅﾝﾁｮｳｶﾕﾐ","prefecture":"三重県","city":"松阪市","street":"飯南町粥見"},{"zipCode":"5151303","prefectureKana":"ﾐｴｹﾝ","cityKana":"ﾏﾂｻｶｼ","streetKana":"ｲｲﾅﾝﾁｮｳｼﾓﾆｶﾞｷ","prefecture":"三重県","city":"松阪市","street":"飯南町下仁柿"},{"zipCode":"5151301","prefectureKana":"ﾐｴｹﾝ","cityKana":"ﾏﾂｻｶｼ","streetKana":"ｲｲﾅﾝﾁｮｳﾌｶﾉ","prefecture":"三重県","city":"松阪市","street":"飯南町深野"},{"zipCode":"5151412","prefectureKana":"ﾐｴｹﾝ","cityKana":"ﾏﾂｻｶｼ","streetKana":"ｲｲﾅﾝﾁｮｳﾑｺｳｶﾕﾐ","prefecture":"三重県","city":"松阪市","street":"飯南町向粥見"},{"zipCode":"5151302","prefectureKana":"ﾐｴｹﾝ","cityKana":"ﾏﾂｻｶｼ","streetKana":"ｲｲﾅﾝﾁｮｳﾖｺﾉ","prefecture":"三重県","city":"松阪市","street":"飯南町横野"},{"zipCode":"5150126","prefectureKana":"ﾐｴｹﾝ","cityKana":"ﾏﾂｻｶｼ","streetKana":"ｲｸﾞﾁﾅｶﾁｮｳ","prefecture":"三重県","city":"松阪市","street":"井口中町"},{"zipCode":"5150006","prefectureKana":"ﾐｴｹﾝ","cityKana":"ﾏﾂｻｶｼ","streetKana":"ｲｼﾂﾞﾁｮｳ","prefecture":"三重県","city":"松阪市","street":"石津町"},{"zipCode":"5150086","prefectureKana":"ﾐｴｹﾝ","cityKana":"ﾏﾂｻｶｼ","streetKana":"ｲｽｽﾞﾁｮｳ","prefecture":"三重県","city":"松阪市","street":"五十鈴町"},{"zipCode":"5150113","prefectureKana":"ﾐｴｹﾝ","cityKana":"ﾏﾂｻｶｼ","streetKana":"ｲｽﾞﾏﾁｮｳ","prefecture":"三重県","city":"松阪市","street":"出間町"},{"zipCode":"5150066","prefectureKana":"ﾐｴｹﾝ","cityKana":"ﾏﾂｻｶｼ","streetKana":"ｲｽﾞﾐﾁｮｳ","prefecture":"三重県","city":"松阪市","street":"泉町"},{"zipCode":"5150845","prefectureKana":"ﾐｴｹﾝ","cityKana":"ﾏﾂｻｶｼ","streetKana":"ｲｾﾃﾞﾗﾁｮｳ","prefecture":"三重県","city":"松阪市","street":"伊勢寺町"},{"zipCode":"5150213","prefectureKana":"ﾐｴｹﾝ","cityKana":"ﾏﾂｻｶｼ","streetKana":"ｲｾﾊﾞﾁｮｳ","prefecture":"三重県","city":"松阪市","street":"伊勢場町"},{"zipCode":"5152121","prefectureKana":"ﾐｴｹﾝ","cityKana":"ﾏﾂｻｶｼ","streetKana":"ｲﾁﾊﾞｼｮｳﾁｮｳ","prefecture":"三重県","city":"松阪市","street":"市場庄町"},{"zipCode":"5150212","prefectureKana":"ﾐｴｹﾝ","cityKana":"ﾏﾂｻｶｼ","streetKana":"ｲﾅｷﾞﾁｮｳ","prefecture":"三重県","city":"松阪市","street":"稲木町"},{"zipCode":"5152412","prefectureKana":"ﾐｴｹﾝ","cityKana":"ﾏﾂｻｶｼ","streetKana":"ｲﾌﾀﾁｮｳ","prefecture":"三重県","city":"松阪市","street":"飯福田町"},{"zipCode":"5150817","prefectureKana":"ﾐｴｹﾝ","cityKana":"ﾏﾂｻｶｼ","streetKana":"ｲﾑﾗﾁｮｳ","prefecture":"三重県","city":"松阪市","street":"井村町"},{"zipCode":"5150041","prefectureKana":"ﾐｴｹﾝ","cityKana":"ﾏﾂｻｶｼ","streetKana":"ｳｴｶﾞﾜﾁｮｳ","prefecture":"三重県","city":"松阪市","street":"上川町"},{"zipCode":"5150082","prefectureKana":"ﾐｴｹﾝ","cityKana":"ﾏﾂｻｶｼ","streetKana":"ｳｵﾏﾁ","prefecture":"三重県","city":"松阪市","street":"魚町"},{"zipCode":"5150128","prefectureKana":"ﾐｴｹﾝ","cityKana":"ﾏﾂｻｶｼ","streetKana":"ｳｵﾐﾁｮｳ","prefecture":"三重県","city":"松阪市","street":"魚見町"},{"zipCode":"5150116","prefectureKana":"ﾐｴｹﾝ","cityKana":"ﾏﾂｻｶｼ","streetKana":"ｳｼｸｻﾁｮｳ","prefecture":"三重県","city":"松阪市","street":"牛草町"},{"zipCode":"5152413","prefectureKana":"ﾐｴｹﾝ","cityKana":"ﾏﾂｻｶｼ","streetKana":"ｳｼﾛﾔﾏﾁｮｳ","prefecture":"三重県","city":"松阪市","street":"後山町"},{"zipCode":"5150072","prefectureKana":"ﾐｴｹﾝ","cityKana":"ﾏﾂｻｶｼ","streetKana":"ｳﾁｺﾞﾏｶﾞﾘﾁｮｳ","prefecture":"三重県","city":"松阪市","street":"内五曲町"},{"zipCode":"5152305","prefectureKana":"ﾐｴｹﾝ","cityKana":"ﾏﾂｻｶｼ","streetKana":"ｳﾚｼﾉｲﾁｼﾁｮｳ","prefecture":"三重県","city":"松阪市","street":"嬉野一志町"},{"zipCode":"5152351","prefectureKana":"ﾐｴｹﾝ","cityKana":"ﾏﾂｻｶｼ","streetKana":"ｳﾚｼﾉｲﾉｳｴﾁｮｳ","prefecture":"三重県","city":"松阪市","street":"嬉野井之上町"},{"zipCode":"5152403","prefectureKana":"ﾐｴｹﾝ","cityKana":"ﾏﾂｻｶｼ","streetKana":"ｳﾚｼﾉｲﾜｸﾗﾁｮｳ","prefecture":"三重県","city":"松阪市","street":"嬉野岩倉町"},{"zipCode":"5152356","prefectureKana":"ﾐｴｹﾝ","cityKana":"ﾏﾂｻｶｼ","streetKana":"ｳﾚｼﾉｳｴﾉﾁｮｳ","prefecture":"三重県","city":"松阪市","street":"嬉野上野町"},{"zipCode":"5152405","prefectureKana":"ﾐｴｹﾝ","cityKana":"ﾏﾂｻｶｼ","streetKana":"ｳﾚｼﾉｵﾊﾗﾁｮｳ","prefecture":"三重県","city":"松阪市","street":"嬉野小原町"},{"zipCode":"5152404","prefectureKana":"ﾐｴｹﾝ","cityKana":"ﾏﾂｻｶｼ","streetKana":"ｳﾚｼﾉｶﾐｵｶﾞﾜﾁｮｳ","prefecture":"三重県","city":"松阪市","street":"嬉野上小川町"},{"zipCode":"5152357","prefectureKana":"ﾐｴｹﾝ","cityKana":"ﾏﾂｻｶｼ","streetKana":"ｳﾚｼﾉｶﾐﾉｷﾁｮｳ","prefecture":"三重県","city":"松阪市","street":"嬉野神ノ木町"},{"zipCode":"5152401","prefectureKana":"ﾐｴｹﾝ","cityKana":"ﾏﾂｻｶｼ","streetKana":"ｳﾚｼﾉｶﾓﾀﾞﾁｮｳ","prefecture":"三重県","city":"松阪市","street":"嬉野釜生田町"},{"zipCode":"5152316","prefectureKana":"ﾐｴｹﾝ","cityKana":"ﾏﾂｻｶｼ","streetKana":"ｳﾚｼﾉｶﾜｷﾞﾀﾁｮｳ","prefecture":"三重県","city":"松阪市","street":"嬉野川北町"},{"zipCode":"5152313","prefectureKana":"ﾐｴｹﾝ","cityKana":"ﾏﾂｻｶｼ","streetKana":"ｳﾚｼﾉｶﾜﾗｺﾂｸﾘﾁｮｳ","prefecture":"三重県","city":"松阪市","street":"嬉野川原木造町"},{"zipCode":"5152311","prefectureKana":"ﾐｴｹﾝ","cityKana":"ﾏﾂｻｶｼ","streetKana":"ｳﾚｼﾉｸﾛﾀﾞﾁｮｳ","prefecture":"三重県","city":"松阪市","street":"嬉野黒田町"},{"zipCode":"5152334","prefectureKana":"ﾐｴｹﾝ","cityKana":"ﾏﾂｻｶｼ","streetKana":"ｳﾚｼﾉｸﾛﾉﾁｮｳ","prefecture":"三重県","city":"松阪市","street":"嬉野黒野町"},{"zipCode":"5152406","prefectureKana":"ﾐｴｹﾝ","cityKana":"ﾏﾂｻｶｼ","streetKana":"ｳﾚｼﾉｺﾞｶﾞﾉﾁｮｳ","prefecture":"三重県","city":"松阪市","street":"嬉野合ケ野町"},{"zipCode":"5152315","prefectureKana":"ﾐｴｹﾝ","cityKana":"ﾏﾂｻｶｼ","streetKana":"ｳﾚｼﾉｺﾑﾗﾁｮｳ","prefecture":"三重県","city":"松阪市","street":"嬉野小村町"},{"zipCode":"5152323","prefectureKana":"ﾐｴｹﾝ","cityKana":"ﾏﾂｻｶｼ","streetKana":"ｳﾚｼﾉｺﾞﾝｹﾞﾝﾏｴﾁｮｳ","prefecture":"三重県","city":"松阪市","street":"嬉野権現前町"},{"zipCode":"5152335","prefectureKana":"ﾐｴｹﾝ","cityKana":"ﾏﾂｻｶｼ","streetKana":"ｳﾚｼﾉｻﾝｼﾞｮﾁｮｳ","prefecture":"三重県","city":"松阪市","street":"嬉野算所町"},{"zipCode":"5152301","prefectureKana":"ﾐｴｹﾝ","cityKana":"ﾏﾂｻｶｼ","streetKana":"ｳﾚｼﾉｼﾏﾀﾞﾁｮｳ","prefecture":"三重県","city":"松阪市","street":"嬉野島田町"},{"zipCode":"5152354","prefectureKana":"ﾐｴｹﾝ","cityKana":"ﾏﾂｻｶｼ","streetKana":"ｳﾚｼﾉｼﾓﾉｼｮｳﾁｮｳ","prefecture":"三重県","city":"松阪市","street":"嬉野下之庄町"},{"zipCode":"5152322","prefectureKana":"ﾐｴｹﾝ","cityKana":"ﾏﾂｻｶｼ","streetKana":"ｳﾚｼﾉｽｶﾁｮｳ","prefecture":"三重県","city":"松阪市","street":"嬉野須賀町"},{"zipCode":"5152331","prefectureKana":"ﾐｴｹﾝ","cityKana":"ﾏﾂｻｶｼ","streetKana":"ｳﾚｼﾉｽｶﾘｮｳﾁｮｳ","prefecture":"三重県","city":"松阪市","street":"嬉野須賀領町"},{"zipCode":"5152409","prefectureKana":"ﾐｴｹﾝ","cityKana":"ﾏﾂｻｶｼ","streetKana":"ｳﾚｼﾉﾀｷﾉｶﾞﾜﾁｮｳ","prefecture":"三重県","city":"松阪市","street":"嬉野滝之川町"},{"zipCode":"5152333","prefectureKana":"ﾐｴｹﾝ","cityKana":"ﾏﾂｻｶｼ","streetKana":"ｳﾚｼﾉﾀﾑﾗﾁｮｳ","prefecture":"三重県","city":"松阪市","street":"嬉野田村町"},{"zipCode":"5152332","prefectureKana":"ﾐｴｹﾝ","cityKana":"ﾏﾂｻｶｼ","streetKana":"ｳﾚｼﾉﾂﾔｼﾞｮｳﾁｮｳ","prefecture":"三重県","city":"松阪市","street":"嬉野津屋城町"},{"zipCode":"5152302","prefectureKana":"ﾐｴｹﾝ","cityKana":"ﾏﾂｻｶｼ","streetKana":"ｳﾚｼﾉﾃﾝｹﾞｴｼﾞﾁｮｳ","prefecture":"三重県","city":"松阪市","street":"嬉野天花寺町"},{"zipCode":"5152325","prefectureKana":"ﾐｴｹﾝ","cityKana":"ﾏﾂｻｶｼ","streetKana":"ｳﾚｼﾉﾅｶｶﾞﾜｼﾝﾏﾁ","prefecture":"三重県","city":"松阪市","street":"嬉野中川新町"},{"zipCode":"5152321","prefectureKana":"ﾐｴｹﾝ","cityKana":"ﾏﾂｻｶｼ","streetKana":"ｳﾚｼﾉﾅｶｶﾞﾜﾁｮｳ","prefecture":"三重県","city":"松阪市","street":"嬉野中川町"},{"zipCode":"5152314","prefectureKana":"ﾐｴｹﾝ","cityKana":"ﾏﾂｻｶｼ","streetKana":"ｳﾚｼﾉﾆﾜﾉｼｮｳﾁｮｳ","prefecture":"三重県","city":"松阪市","street":"嬉野新屋庄町"},{"zipCode":"5152317","prefectureKana":"ﾐｴｹﾝ","cityKana":"ﾏﾂｻｶｼ","streetKana":"ｳﾚｼﾉﾉﾀﾞﾁｮｳ","prefecture":"三重県","city":"松阪市","street":"嬉野野田町"},{"zipCode":"5152352","prefectureKana":"ﾐｴｹﾝ","cityKana":"ﾏﾂｻｶｼ","streetKana":"ｳﾚｼﾉﾊｯﾀﾁｮｳ","prefecture":"三重県","city":"松阪市","street":"嬉野八田町"},{"zipCode":"5152304","prefectureKana":"ﾐｴｹﾝ","cityKana":"ﾏﾂｻｶｼ","streetKana":"ｳﾚｼﾉﾋﾛﾁｮｳ","prefecture":"三重県","city":"松阪市","street":"嬉野平生町"},{"zipCode":"5152353","prefectureKana":"ﾐｴｹﾝ","cityKana":"ﾏﾂｻｶｼ","streetKana":"ｳﾚｼﾉﾎﾘﾉｳﾁﾁｮｳ","prefecture":"三重県","city":"松阪市","street":"嬉野堀之内町"},{"zipCode":"5152312","prefectureKana":"ﾐｴｹﾝ","cityKana":"ﾏﾂｻｶｼ","streetKana":"ｳﾚｼﾉﾐﾅｶﾞﾁｮｳ","prefecture":"三重県","city":"松阪市","street":"嬉野見永町"},{"zipCode":"5152303","prefectureKana":"ﾐｴｹﾝ","cityKana":"ﾏﾂｻｶｼ","streetKana":"ｳﾚｼﾉﾐﾔｺﾁｮｳ","prefecture":"三重県","city":"松阪市","street":"嬉野宮古町"},{"zipCode":"5152408","prefectureKana":"ﾐｴｹﾝ","cityKana":"ﾏﾂｻｶｼ","streetKana":"ｳﾚｼﾉﾐﾔﾉﾁｮｳ","prefecture":"三重県","city":"松阪市","street":"嬉野宮野町"},{"zipCode":"5152402","prefectureKana":"ﾐｴｹﾝ","cityKana":"ﾏﾂｻｶｼ","streetKana":"ｳﾚｼﾉﾓﾘﾓﾄﾁｮｳ","prefecture":"三重県","city":"松阪市","street":"嬉野森本町"},{"zipCode":"5152407","prefectureKana":"ﾐｴｹﾝ","cityKana":"ﾏﾂｻｶｼ","streetKana":"ｳﾚｼﾉﾔｵﾛｼﾁｮｳ","prefecture":"三重県","city":"松阪市","street":"嬉野矢下町"},{"zipCode":"5152355","prefectureKana":"ﾐｴｹﾝ","cityKana":"ﾏﾂｻｶｼ","streetKana":"ｳﾚｼﾉﾔｸｵｳｼﾞﾁｮｳ","prefecture":"三重県","city":"松阪市","street":"嬉野薬王寺町"},{"zipCode":"5152324","prefectureKana":"ﾐｴｹﾝ","cityKana":"ﾏﾂｻｶｼ","streetKana":"ｳﾚｼﾉﾁｮｳ","prefecture":"三重県","city":"松阪市","street":"嬉野町"},{"zipCode":"5151205","prefectureKana":"ﾐｴｹﾝ","cityKana":"ﾏﾂｻｶｼ","streetKana":"ｵｲｼﾁｮｳ","prefecture":"三重県","city":"松阪市","street":"大石町"},{"zipCode":"5152342","prefectureKana":"ﾐｴｹﾝ","cityKana":"ﾏﾂｻｶｼ","streetKana":"ｵｵｱｻﾞｶﾁｮｳ","prefecture":"三重県","city":"松阪市","street":"大阿坂町"},{"zipCode":"5150114","prefectureKana":"ﾐｴｹﾝ","cityKana":"ﾏﾂｻｶｼ","streetKana":"ｵｵｶﾞｲﾄﾁｮｳ","prefecture":"三重県","city":"松阪市","street":"大垣内町"},{"zipCode":"5150001","prefectureKana":"ﾐｴｹﾝ","cityKana":"ﾏﾂｻｶｼ","streetKana":"ｵｵｸﾁﾁｮｳ","prefecture":"三重県","city":"松阪市","street":"大口町"},{"zipCode":"5150063","prefectureKana":"ﾐｴｹﾝ","cityKana":"ﾏﾂｻｶｼ","streetKana":"ｵｵｸﾛﾀﾞﾁｮｳ","prefecture":"三重県","city":"松阪市","street":"大黒田町"},{"zipCode":"5150813","prefectureKana":"ﾐｴｹﾝ","cityKana":"ﾏﾂｻｶｼ","streetKana":"ｵｵﾂｶﾁｮｳ","prefecture":"三重県","city":"松阪市","street":"大塚町"},{"zipCode":"5150031","prefectureKana":"ﾐｴｹﾝ","cityKana":"ﾏﾂｻｶｼ","streetKana":"ｵｵﾂﾁｮｳ","prefecture":"三重県","city":"松阪市","street":"大津町"},{"zipCode":"5152341","prefectureKana":"ﾐｴｹﾝ","cityKana":"ﾏﾂｻｶｼ","streetKana":"ｵｵﾉﾁｮｳ","prefecture":"三重県","city":"松阪市","street":"小野町"},{"zipCode":"5150804","prefectureKana":"ﾐｴｹﾝ","cityKana":"ﾏﾂｻｶｼ","streetKana":"ｵｵﾋﾞﾗｵﾁｮｳ","prefecture":"三重県","city":"松阪市","street":"大平尾町"},{"zipCode":"5150024","prefectureKana":"ﾐｴｹﾝ","cityKana":"ﾏﾂｻｶｼ","streetKana":"ｵｵﾐﾔﾀﾞﾁｮｳ","prefecture":"三重県","city":"松阪市","street":"大宮田町"},{"zipCode":"5151204","prefectureKana":"ﾐｴｹﾝ","cityKana":"ﾏﾂｻｶｼ","streetKana":"ｵｶﾀﾉﾁｮｳ","prefecture":"三重県","city":"松阪市","street":"小片野町"},{"zipCode":"5150831","prefectureKana":"ﾐｴｹﾝ","cityKana":"ﾏﾂｻｶｼ","streetKana":"ｵｶﾓﾄﾁｮｳ","prefecture":"三重県","city":"松阪市","street":"岡本町"},{"zipCode":"5150834","prefectureKana":"ﾐｴｹﾝ","cityKana":"ﾏﾂｻｶｼ","streetKana":"ｵｶﾔﾏﾁｮｳ","prefecture":"三重県","city":"松阪市","street":"岡山町"},{"zipCode":"5151105","prefectureKana":"ﾐｴｹﾝ","cityKana":"ﾏﾂｻｶｼ","streetKana":"ｵｶﾜﾁﾁｮｳ","prefecture":"三重県","city":"松阪市","street":"大河内町"},{"zipCode":"5150076","prefectureKana":"ﾐｴｹﾝ","cityKana":"ﾏﾂｻｶｼ","streetKana":"ｵｼﾛｲﾏﾁ","prefecture":"三重県","city":"松阪市","street":"白粉町"},{"zipCode":"5152114","prefectureKana":"ﾐｴｹﾝ","cityKana":"ﾏﾂｻｶｼ","streetKana":"ｵﾂﾞﾁｮｳ","prefecture":"三重県","city":"松阪市","street":"小津町"},{"zipCode":"5150117","prefectureKana":"ﾐｴｹﾝ","cityKana":"ﾏﾂｻｶｼ","streetKana":"ｵﾄﾍﾞﾁｮｳ","prefecture":"三重県","city":"松阪市","street":"乙部町"},{"zipCode":"5152109","prefectureKana":"ﾐｴｹﾝ","cityKana":"ﾏﾂｻｶｼ","streetKana":"ｵﾉｴﾁｮｳ","prefecture":"三重県","city":"松阪市","street":"小野江町"},{"zipCode":"5150822","prefectureKana":"ﾐｴｹﾝ","cityKana":"ﾏﾂｻｶｼ","streetKana":"ｵﾜｾﾁｮｳ","prefecture":"三重県","city":"松阪市","street":"大足町"},{"zipCode":"5150118","prefectureKana":"ﾐｴｹﾝ","cityKana":"ﾏﾂｻｶｼ","streetKana":"ｶｲﾄﾀﾞﾁｮｳ","prefecture":"三重県","city":"松阪市","street":"垣内田町"},{"zipCode":"5150033","prefectureKana":"ﾐｴｹﾝ","cityKana":"ﾏﾂｻｶｼ","streetKana":"ｶｲﾊﾞﾅﾁｮｳ","prefecture":"三重県","city":"松阪市","street":"垣鼻町"},{"zipCode":"5150111","prefectureKana":"ﾐｴｹﾝ","cityKana":"ﾏﾂｻｶｼ","streetKana":"ｶｷﾉｷﾊﾗﾁｮｳ","prefecture":"三重県","city":"松阪市","street":"柿木原町"},{"zipCode":"5152103","prefectureKana":"ﾐｴｹﾝ","cityKana":"ﾏﾂｻｶｼ","streetKana":"ｶｻﾏﾂﾁｮｳ","prefecture":"三重県","city":"松阪市","street":"笠松町"},{"zipCode":"5150078","prefectureKana":"ﾐｴｹﾝ","cityKana":"ﾏﾂｻｶｼ","streetKana":"ｶｽｶﾞﾁｮｳ","prefecture":"三重県","city":"松阪市","street":"春日町"},{"zipCode":"5151104","prefectureKana":"ﾐｴｹﾝ","cityKana":"ﾏﾂｻｶｼ","streetKana":"ｶﾂﾗｾﾁｮｳ","prefecture":"三重県","city":"松阪市","street":"桂瀬町"},{"zipCode":"5150005","prefectureKana":"ﾐｴｹﾝ","cityKana":"ﾏﾂｻｶｼ","streetKana":"ｶﾏﾀﾞﾁｮｳ","prefecture":"三重県","city":"松阪市","street":"鎌田町"},{"zipCode":"5150201","prefectureKana":"ﾐｴｹﾝ","cityKana":"ﾏﾂｻｶｼ","streetKana":"ｶﾐﾅﾅﾐﾁｮｳ","prefecture":"三重県","city":"松阪市","street":"上七見町"},{"zipCode":"5152123","prefectureKana":"ﾐｴｹﾝ","cityKana":"ﾏﾂｻｶｼ","streetKana":"ｶﾐﾉｼｮｳﾁｮｳ","prefecture":"三重県","city":"松阪市","street":"上ノ庄町"},{"zipCode":"5150818","prefectureKana":"ﾐｴｹﾝ","cityKana":"ﾏﾂｻｶｼ","streetKana":"ｶﾜｲﾏﾁ","prefecture":"三重県","city":"松阪市","street":"川井町"},{"zipCode":"5150122","prefectureKana":"ﾐｴｹﾝ","cityKana":"ﾏﾂｻｶｼ","streetKana":"ｶﾜｼﾏﾁｮｳ","prefecture":"三重県","city":"松阪市","street":"川島町"},{"zipCode":"5150119","prefectureKana":"ﾐｴｹﾝ","cityKana":"ﾏﾂｻｶｼ","streetKana":"ｶﾝﾓﾘﾁｮｳ","prefecture":"三重県","city":"松阪市","street":"神守町"},{"zipCode":"5152113","prefectureKana":"ﾐｴｹﾝ","cityKana":"ﾏﾂｻｶｼ","streetKana":"ｷﾀﾑﾗｼﾝﾃﾞﾝﾁｮｳ","prefecture":"三重県","city":"松阪市","street":"喜多村新田町"},{"zipCode":"5150088","prefectureKana":"ﾐｴｹﾝ","cityKana":"ﾏﾂｻｶｼ","streetKana":"ｷﾉｻﾄﾁｮｳ","prefecture":"三重県","city":"松阪市","street":"木の郷町"},{"zipCode":"5150017","prefectureKana":"ﾐｴｹﾝ","cityKana":"ﾏﾂｻｶｼ","streetKana":"ｷｮｳﾏﾁ","prefecture":"三重県","city":"松阪市","street":"京町"},{"zipCode":"5150018","prefectureKana":"ﾐｴｹﾝ","cityKana":"ﾏﾂｻｶｼ","streetKana":"ｷｮｳﾏﾁ1ｸ","prefecture":"三重県","city":"松阪市","street":"京町一区"},{"zipCode":"5150204","prefectureKana":"ﾐｴｹﾝ","cityKana":"ﾏﾂｻｶｼ","streetKana":"ｸｼﾀﾞﾁｮｳ","prefecture":"三重県","city":"松阪市","street":"櫛田町"},{"zipCode":"5150814","prefectureKana":"ﾐｴｹﾝ","cityKana":"ﾏﾂｻｶｼ","streetKana":"ｸﾎﾞﾀﾁｮｳ","prefecture":"三重県","city":"松阪市","street":"久保田町"},{"zipCode":"5150044","prefectureKana":"ﾐｴｹﾝ","cityKana":"ﾏﾂｻｶｼ","streetKana":"ｸﾎﾞﾁｮｳ","prefecture":"三重県","city":"松阪市","street":"久保町"},{"zipCode":"5152122","prefectureKana":"ﾐｴｹﾝ","cityKana":"ﾏﾂｻｶｼ","streetKana":"ｸﾒﾁｮｳ","prefecture":"三重県","city":"松阪市","street":"久米町"},{"zipCode":"5150061","prefectureKana":"ﾐｴｹﾝ","cityKana":"ﾏﾂｻｶｼ","streetKana":"ｸﾛﾀﾞﾏﾁ","prefecture":"三重県","city":"松阪市","street":"黒田町"},{"zipCode":"5152343","prefectureKana":"ﾐｴｹﾝ","cityKana":"ﾏﾂｻｶｼ","streetKana":"ｺｱｻﾞｶﾁｮｳ","prefecture":"三重県","city":"松阪市","street":"小阿坂町"},{"zipCode":"5150021","prefectureKana":"ﾐｴｹﾝ","cityKana":"ﾏﾂｻｶｼ","streetKana":"ｺｲﾁｮｳ","prefecture":"三重県","city":"松阪市","street":"古井町"},{"zipCode":"5150013","prefectureKana":"ﾐｴｹﾝ","cityKana":"ﾏﾂｻｶｼ","streetKana":"ｺｳｾｲﾁｮｳ","prefecture":"三重県","city":"松阪市","street":"幸生町"},{"zipCode":"5150053","prefectureKana":"ﾐｴｹﾝ","cityKana":"ﾏﾂｻｶｼ","streetKana":"ｺｳﾖｳﾁｮｳ","prefecture":"三重県","city":"松阪市","street":"広陽町"},{"zipCode":"5150062","prefectureKana":"ﾐｴｹﾝ","cityKana":"ﾏﾂｻｶｼ","streetKana":"ｺｸﾛﾀﾞﾁｮｳ","prefecture":"三重県","city":"松阪市","street":"小黒田町"},{"zipCode":"5150002","prefectureKana":"ﾐｴｹﾝ","cityKana":"ﾏﾂｻｶｼ","streetKana":"ｺﾞｳﾂﾞﾁｮｳ","prefecture":"三重県","city":"松阪市","street":"郷津町"},{"zipCode":"5150064","prefectureKana":"ﾐｴｹﾝ","cityKana":"ﾏﾂｻｶｼ","streetKana":"ｺﾞﾀﾝﾀﾞﾁｮｳ","prefecture":"三重県","city":"松阪市","street":"五反田町"},{"zipCode":"5150057","prefectureKana":"ﾐｴｹﾝ","cityKana":"ﾏﾂｻｶｼ","streetKana":"ｺﾞﾃﾝﾔﾏﾁｮｳ","prefecture":"三重県","city":"松阪市","street":"御殿山町"},{"zipCode":"5152102","prefectureKana":"ﾐｴｹﾝ","cityKana":"ﾏﾂｻｶｼ","streetKana":"ｺﾞﾇｼﾁｮｳ","prefecture":"三重県","city":"松阪市","street":"五主町"},{"zipCode":"5152104","prefectureKana":"ﾐｴｹﾝ","cityKana":"ﾏﾂｻｶｼ","streetKana":"ｺﾌﾞﾅｴﾁｮｳ","prefecture":"三重県","city":"松阪市","street":"小舟江町"},{"zipCode":"5151107","prefectureKana":"ﾐｴｹﾝ","cityKana":"ﾏﾂｻｶｼ","streetKana":"ｻｶﾅｲﾁｮｳ","prefecture":"三重県","city":"松阪市","street":"阪内町"},{"zipCode":"5150028","prefectureKana":"ﾐｴｹﾝ","cityKana":"ﾏﾂｻｶｼ","streetKana":"ｻｸﾒﾁｮｳ","prefecture":"三重県","city":"松阪市","street":"佐久米町"},{"zipCode":"5150071","prefectureKana":"ﾐｴｹﾝ","cityKana":"ﾏﾂｻｶｼ","streetKana":"ｻｸﾗﾁｮｳ","prefecture":"三重県","city":"松阪市","street":"桜町"},{"zipCode":"5151103","prefectureKana":"ﾐｴｹﾝ","cityKana":"ﾏﾂｻｶｼ","streetKana":"ｻｻｶﾞﾜﾁｮｳ","prefecture":"三重県","city":"松阪市","street":"笹川町"},{"zipCode":"5150065","prefectureKana":"ﾐｴｹﾝ","cityKana":"ﾏﾂｻｶｼ","streetKana":"ｻﾂｷﾁｮｳ","prefecture":"三重県","city":"松阪市","street":"五月町"},{"zipCode":"5150203","prefectureKana":"ﾐｴｹﾝ","cityKana":"ﾏﾂｻｶｼ","streetKana":"ｼﾐｽﾞﾁｮｳ","prefecture":"三重県","city":"松阪市","street":"清水町"},{"zipCode":"5150023","prefectureKana":"ﾐｴｹﾝ","cityKana":"ﾏﾂｻｶｼ","streetKana":"ｼﾓﾅﾅﾐﾁｮｳ","prefecture":"三重県","city":"松阪市","street":"下七見町"},{"zipCode":"5150043","prefectureKana":"ﾐｴｹﾝ","cityKana":"ﾏﾂｻｶｼ","streetKana":"ｼﾓﾑﾗﾁｮｳ","prefecture":"三重県","city":"松阪市","street":"下村町"},{"zipCode":"5150123","prefectureKana":"ﾐｴｹﾝ","cityKana":"ﾏﾂｻｶｼ","streetKana":"ｼﾝｶﾞｲﾁｮｳ","prefecture":"三重県","city":"松阪市","street":"新開町"},{"zipCode":"5150074","prefectureKana":"ﾐｴｹﾝ","cityKana":"ﾏﾂｻｶｼ","streetKana":"ｼﾝｻﾞﾏﾁ","prefecture":"三重県","city":"松阪市","street":"新座町"},{"zipCode":"5150075","prefectureKana":"ﾐｴｹﾝ","cityKana":"ﾏﾂｻｶｼ","streetKana":"ｼﾝﾏﾁ","prefecture":"三重県","city":"松阪市","street":"新町"},{"zipCode":"5150801","prefectureKana":"ﾐｴｹﾝ","cityKana":"ﾏﾂｻｶｼ","streetKana":"ｼﾝﾏﾂｶﾞｼﾏﾁｮｳ","prefecture":"三重県","city":"松阪市","street":"新松ケ島町"},{"zipCode":"5150022","prefectureKana":"ﾐｴｹﾝ","cityKana":"ﾏﾂｻｶｼ","streetKana":"ｼﾝﾔｼｷﾁｮｳ","prefecture":"三重県","city":"松阪市","street":"新屋敷町"},{"zipCode":"5150016","prefectureKana":"ﾐｴｹﾝ","cityKana":"ﾏﾂｻｶｼ","streetKana":"ｽｴﾋﾛﾁｮｳ","prefecture":"三重県","city":"松阪市","street":"末広町"},{"zipCode":"5150202","prefectureKana":"ﾐｴｹﾝ","cityKana":"ﾏﾂｻｶｼ","streetKana":"ｽｷﾞｭｳﾁｮｳ","prefecture":"三重県","city":"松阪市","street":"菅生町"},{"zipCode":"5150039","prefectureKana":"ﾐｴｹﾝ","cityKana":"ﾏﾂｻｶｼ","streetKana":"ｾｲｾｲﾁｮｳ","prefecture":"三重県","city":"松阪市","street":"清生町"},{"zipCode":"5151101","prefectureKana":"ﾐｴｹﾝ","cityKana":"ﾏﾂｻｶｼ","streetKana":"ｾｲﾂﾞﾁｮｳ","prefecture":"三重県","city":"松阪市","street":"勢津町"},{"zipCode":"5150821","prefectureKana":"ﾐｴｹﾝ","cityKana":"ﾏﾂｻｶｼ","streetKana":"ｿﾄｺﾞﾏｶﾞﾘﾁｮｳ","prefecture":"三重県","city":"松阪市","street":"外五曲町"},{"zipCode":"5152112","prefectureKana":"ﾐｴｹﾝ","cityKana":"ﾏﾂｻｶｼ","streetKana":"ｿﾊﾗﾁｮｳ","prefecture":"三重県","city":"松阪市","street":"曽原町"},{"zipCode":"5150842","prefectureKana":"ﾐｴｹﾝ","cityKana":"ﾏﾂｻｶｼ","streetKana":"ﾀｲﾗﾁｮｳ","prefecture":"三重県","city":"松阪市","street":"田牧町"},{"zipCode":"5150211","prefectureKana":"ﾐｴｹﾝ","cityKana":"ﾏﾂｻｶｼ","streetKana":"ﾀｶｷﾁｮｳ","prefecture":"三重県","city":"松阪市","street":"高木町"},{"zipCode":"5150104","prefectureKana":"ﾐｴｹﾝ","cityKana":"ﾏﾂｻｶｼ","streetKana":"ﾀｶｽﾁｮｳ","prefecture":"三重県","city":"松阪市","street":"高須町"},{"zipCode":"5150011","prefectureKana":"ﾐｴｹﾝ","cityKana":"ﾏﾂｻｶｼ","streetKana":"ﾀｶﾏﾁ","prefecture":"三重県","city":"松阪市","street":"高町"},{"zipCode":"5150056","prefectureKana":"ﾐｴｹﾝ","cityKana":"ﾏﾂｻｶｼ","streetKana":"ﾀｶﾗﾂﾞｶﾁｮｳ","prefecture":"三重県","city":"松阪市","street":"宝塚町"},{"zipCode":"5150054","prefectureKana":"ﾐｴｹﾝ","cityKana":"ﾏﾂｻｶｼ","streetKana":"ﾀﾁﾉﾁｮｳ","prefecture":"三重県","city":"松阪市","street":"立野町"},{"zipCode":"5150026","prefectureKana":"ﾐｴｹﾝ","cityKana":"ﾏﾂｻｶｼ","streetKana":"ﾀﾂﾀﾁｮｳ","prefecture":"三重県","city":"松阪市","street":"立田町"},{"zipCode":"5150055","prefectureKana":"ﾐｴｹﾝ","cityKana":"ﾏﾂｻｶｼ","streetKana":"ﾀﾑﾗﾁｮｳ","prefecture":"三重県","city":"松阪市","street":"田村町"},{"zipCode":"5150032","prefectureKana":"ﾐｴｹﾝ","cityKana":"ﾏﾂｻｶｼ","streetKana":"ﾀﾜﾗﾁｮｳ","prefecture":"三重県","city":"松阪市","street":"田原町"},{"zipCode":"5151202","prefectureKana":"ﾐｴｹﾝ","cityKana":"ﾏﾂｻｶｼ","streetKana":"ﾁﾊﾗﾁｮｳ","prefecture":"三重県","city":"松阪市","street":"茅原町"},{"zipCode":"5150077","prefectureKana":"ﾐｴｹﾝ","cityKana":"ﾏﾂｻｶｼ","streetKana":"ﾁｬﾖﾏﾁ","prefecture":"三重県","city":"松阪市","street":"茶与町"},{"zipCode":"5150019","prefectureKana":"ﾐｴｹﾝ","cityKana":"ﾏﾂｻｶｼ","streetKana":"ﾁｭｳｵｳﾁｮｳ","prefecture":"三重県","city":"松阪市","street":"中央町"},{"zipCode":"5150035","prefectureKana":"ﾐｴｹﾝ","cityKana":"ﾏﾂｻｶｼ","streetKana":"ﾁｮｳｹﾞﾂﾁｮｳ","prefecture":"三重県","city":"松阪市","street":"長月町"},{"zipCode":"5150811","prefectureKana":"ﾐｴｹﾝ","cityKana":"ﾏﾂｻｶｼ","streetKana":"ﾂｶﾓﾄﾁｮｳ","prefecture":"三重県","city":"松阪市","street":"塚本町"},{"zipCode":"5151106","prefectureKana":"ﾐｴｹﾝ","cityKana":"ﾏﾂｻｶｼ","streetKana":"ﾂｼﾞﾜﾗﾁｮｳ","prefecture":"三重県","city":"松阪市","street":"辻原町"},{"zipCode":"5150112","prefectureKana":"ﾐｴｹﾝ","cityKana":"ﾏﾂｻｶｼ","streetKana":"ﾄｺﾛﾁｮｳ","prefecture":"三重県","city":"松阪市","street":"土古路町"},{"zipCode":"5150073","prefectureKana":"ﾐｴｹﾝ","cityKana":"ﾏﾂｻｶｼ","streetKana":"ﾄﾉﾏﾁ","prefecture":"三重県","city":"松阪市","street":"殿町"},{"zipCode":"5150843","prefectureKana":"ﾐｴｹﾝ","cityKana":"ﾏﾂｻｶｼ","streetKana":"ﾄﾉﾑﾗﾁｮｳ","prefecture":"三重県","city":"松阪市","street":"殿村町"},{"zipCode":"5150205","prefectureKana":"ﾐｴｹﾝ","cityKana":"ﾏﾂｻｶｼ","streetKana":"ﾄﾖﾊﾗﾁｮｳ","prefecture":"三重県","city":"松阪市","street":"豊原町"},{"zipCode":"5152124","prefectureKana":"ﾐｴｹﾝ","cityKana":"ﾏﾂｻｶｼ","streetKana":"ﾅｶﾉｼｮｳﾁｮｳ","prefecture":"三重県","city":"松阪市","street":"中ノ庄町"},{"zipCode":"5152111","prefectureKana":"ﾐｴｹﾝ","cityKana":"ﾏﾂｻｶｼ","streetKana":"ﾅｶﾊﾞﾔｼﾁｮｳ","prefecture":"三重県","city":"松阪市","street":"中林町"},{"zipCode":"5150083","prefectureKana":"ﾐｴｹﾝ","cityKana":"ﾏﾂｻｶｼ","streetKana":"ﾅｶﾏﾁ","prefecture":"三重県","city":"松阪市","street":"中町"},{"zipCode":"5152115","prefectureKana":"ﾐｴｹﾝ","cityKana":"ﾏﾂｻｶｼ","streetKana":"ﾅｶﾐﾁﾁｮｳ","prefecture":"三重県","city":"松阪市","street":"中道町"},{"zipCode":"5150103","prefectureKana":"ﾐｴｹﾝ","cityKana":"ﾏﾂｻｶｼ","streetKana":"ﾆｼｸﾛﾍﾞﾁｮｳ","prefecture":"三重県","city":"松阪市","street":"西黒部町"},{"zipCode":"5150816","prefectureKana":"ﾐｴｹﾝ","cityKana":"ﾏﾂｻｶｼ","streetKana":"ﾆｼﾉｼｮｳﾁｮｳ","prefecture":"三重県","city":"松阪市","street":"西之庄町"},{"zipCode":"5150833","prefectureKana":"ﾐｴｹﾝ","cityKana":"ﾏﾂｻｶｼ","streetKana":"ﾆｼﾉﾁｮｳ","prefecture":"三重県","city":"松阪市","street":"西野町"},{"zipCode":"5150029","prefectureKana":"ﾐｴｹﾝ","cityKana":"ﾏﾂｻｶｼ","streetKana":"ﾆｼﾉﾉﾁｮｳ","prefecture":"三重県","city":"松阪市","street":"西野々町"},{"zipCode":"5152106","prefectureKana":"ﾐｴｹﾝ","cityKana":"ﾏﾂｻｶｼ","streetKana":"ﾆｼﾋﾙﾁｮｳ","prefecture":"三重県","city":"松阪市","street":"西肥留町"},{"zipCode":"5150815","prefectureKana":"ﾐｴｹﾝ","cityKana":"ﾏﾂｻｶｼ","streetKana":"ﾆｼﾏﾁ","prefecture":"三重県","city":"松阪市","street":"西町"},{"zipCode":"5150042","prefectureKana":"ﾐｴｹﾝ","cityKana":"ﾏﾂｻｶｼ","streetKana":"ﾆｼﾞｶﾞｵｶﾁｮｳ","prefecture":"三重県","city":"松阪市","street":"虹が丘町"},{"zipCode":"5150832","prefectureKana":"ﾐｴｹﾝ","cityKana":"ﾏﾂｻｶｼ","streetKana":"ﾆｭｳﾃﾞﾗﾁｮｳ","prefecture":"三重県","city":"松阪市","street":"丹生寺町"},{"zipCode":"5150848","prefectureKana":"ﾐｴｹﾝ","cityKana":"ﾏﾂｻｶｼ","streetKana":"ﾉﾑﾗﾁｮｳ","prefecture":"三重県","city":"松阪市","street":"野村町"},{"zipCode":"5152108","prefectureKana":"ﾐｴｹﾝ","cityKana":"ﾏﾂｻｶｼ","streetKana":"ﾊﾀﾞﾒﾁｮｳ","prefecture":"三重県","city":"松阪市","street":"甚目町"},{"zipCode":"5150217","prefectureKana":"ﾐｴｹﾝ","cityKana":"ﾏﾂｻｶｼ","streetKana":"ﾊﾔﾏｾﾞﾁｮｳ","prefecture":"三重県","city":"松阪市","street":"早馬瀬町"},{"zipCode":"5150125","prefectureKana":"ﾐｴｹﾝ","cityKana":"ﾏﾂｻｶｼ","streetKana":"ﾊﾗﾌﾄﾁｮｳ","prefecture":"三重県","city":"松阪市","street":"腹太町"},{"zipCode":"5150835","prefectureKana":"ﾐｴｹﾝ","cityKana":"ﾏﾂｻｶｼ","streetKana":"ﾋｵｶﾁｮｳ","prefecture":"三重県","city":"松阪市","street":"日丘町"},{"zipCode":"5150051","prefectureKana":"ﾐｴｹﾝ","cityKana":"ﾏﾂｻｶｼ","streetKana":"ﾋｶﾘﾁｮｳ","prefecture":"三重県","city":"松阪市","street":"光町"},{"zipCode":"5150121","prefectureKana":"ﾐｴｹﾝ","cityKana":"ﾏﾂｻｶｼ","streetKana":"ﾋｶﾞｼｸﾎﾞﾁｮｳ","prefecture":"三重県","city":"松阪市","street":"東久保町"},{"zipCode":"5150101","prefectureKana":"ﾐｴｹﾝ","cityKana":"ﾏﾂｻｶｼ","streetKana":"ﾋｶﾞｼｸﾛﾍﾞﾁｮｳ","prefecture":"三重県","city":"松阪市","street":"東黒部町"},{"zipCode":"5150012","prefectureKana":"ﾐｴｹﾝ","cityKana":"ﾏﾂｻｶｼ","streetKana":"ﾋｶﾞｼﾏﾁ","prefecture":"三重県","city":"松阪市","street":"東町"},{"zipCode":"5150038","prefectureKana":"ﾐｴｹﾝ","cityKana":"ﾏﾂｻｶｼ","streetKana":"ﾋｷｷﾞﾏﾁ","prefecture":"三重県","city":"松阪市","street":"挽木町"},{"zipCode":"5150084","prefectureKana":"ﾐｴｹﾝ","cityKana":"ﾏﾂｻｶｼ","streetKana":"ﾋﾉﾏﾁ","prefecture":"三重県","city":"松阪市","street":"日野町"},{"zipCode":"5150036","prefectureKana":"ﾐｴｹﾝ","cityKana":"ﾏﾂｻｶｼ","streetKana":"ﾋﾗｵﾏﾁ","prefecture":"三重県","city":"松阪市","street":"平生町"},{"zipCode":"5152105","prefectureKana":"ﾐｴｹﾝ","cityKana":"ﾏﾂｻｶｼ","streetKana":"ﾋﾙﾁｮｳ","prefecture":"三重県","city":"松阪市","street":"肥留町"},{"zipCode":"5151201","prefectureKana":"ﾐｴｹﾝ","cityKana":"ﾏﾂｻｶｼ","streetKana":"ﾋﾛｾﾁｮｳ","prefecture":"三重県","city":"松阪市","street":"広瀬町"},{"zipCode":"5150846","prefectureKana":"ﾐｴｹﾝ","cityKana":"ﾏﾂｻｶｼ","streetKana":"ﾌｺｻﾁｮｳ","prefecture":"三重県","city":"松阪市","street":"深長町"},{"zipCode":"5150825","prefectureKana":"ﾐｴｹﾝ","cityKana":"ﾏﾂｻｶｼ","streetKana":"ﾌｼﾞﾉｷﾁｮｳ","prefecture":"三重県","city":"松阪市","street":"藤之木町"},{"zipCode":"5150812","prefectureKana":"ﾐｴｹﾝ","cityKana":"ﾏﾂｻｶｼ","streetKana":"ﾌﾅｴﾁｮｳ","prefecture":"三重県","city":"松阪市","street":"船江町"},{"zipCode":"5150824","prefectureKana":"ﾐｴｹﾝ","cityKana":"ﾏﾂｻｶｼ","streetKana":"ﾍｲｾｲﾁｮｳ","prefecture":"三重県","city":"松阪市","street":"平成町"},{"zipCode":"5150214","prefectureKana":"ﾐｴｹﾝ","cityKana":"ﾏﾂｻｶｼ","streetKana":"ﾎｳﾀﾞﾁｮｳ","prefecture":"三重県","city":"松阪市","street":"法田町"},{"zipCode":"5150124","prefectureKana":"ﾐｴｹﾝ","cityKana":"ﾏﾂｻｶｼ","streetKana":"ﾎｳﾂﾞﾁｮｳ","prefecture":"三重県","city":"松阪市","street":"保津町"},{"zipCode":"5152101","prefectureKana":"ﾐｴｹﾝ","cityKana":"ﾏﾂｻｶｼ","streetKana":"ﾎｼｱｲﾁｮｳ","prefecture":"三重県","city":"松阪市","street":"星合町"},{"zipCode":"5150081","prefectureKana":"ﾐｴｹﾝ","cityKana":"ﾏﾂｻｶｼ","streetKana":"ﾎﾝﾏﾁ","prefecture":"三重県","city":"松阪市","street":"本町"},{"zipCode":"5152107","prefectureKana":"ﾐｴｹﾝ","cityKana":"ﾏﾂｻｶｼ","streetKana":"ﾏｲﾃﾞﾁｮｳ","prefecture":"三重県","city":"松阪市","street":"舞出町"},{"zipCode":"5150045","prefectureKana":"ﾐｴｹﾝ","cityKana":"ﾏﾂｻｶｼ","streetKana":"ﾏｴﾉﾍﾀﾁｮｳ","prefecture":"三重県","city":"松阪市","street":"駅部田町"},{"zipCode":"5150841","prefectureKana":"ﾐｴｹﾝ","cityKana":"ﾏﾂｻｶｼ","streetKana":"ﾏｶﾞﾘﾁｮｳ","prefecture":"三重県","city":"松阪市","street":"曲町"},{"zipCode":"5150803","prefectureKana":"ﾐｴｹﾝ","cityKana":"ﾏﾂｻｶｼ","streetKana":"ﾏﾁﾋﾞﾗｵﾁｮｳ","prefecture":"三重県","city":"松阪市","street":"町平尾町"},{"zipCode":"5152133","prefectureKana":"ﾐｴｹﾝ","cityKana":"ﾏﾂｻｶｼ","streetKana":"ﾏﾂｶﾞｼﾏﾁｮｳ","prefecture":"三重県","city":"松阪市","street":"松ケ島町"},{"zipCode":"5152132","prefectureKana":"ﾐｴｹﾝ","cityKana":"ﾏﾂｻｶｼ","streetKana":"ﾏﾂｻｷｳﾗﾁｮｳ","prefecture":"三重県","city":"松阪市","street":"松崎浦町"},{"zipCode":"5150102","prefectureKana":"ﾐｴｹﾝ","cityKana":"ﾏﾂｻｶｼ","streetKana":"ﾏﾂﾅｾﾁｮｳ","prefecture":"三重県","city":"松阪市","street":"松名瀬町"},{"zipCode":"5150085","prefectureKana":"ﾐｴｹﾝ","cityKana":"ﾏﾂｻｶｼ","streetKana":"ﾐﾅﾄﾏﾁ","prefecture":"三重県","city":"松阪市","street":"湊町"},{"zipCode":"5150046","prefectureKana":"ﾐｴｹﾝ","cityKana":"ﾏﾂｻｶｼ","streetKana":"ﾐﾅﾐﾆｼﾞｶﾞｵｶﾁｮｳ","prefecture":"三重県","city":"松阪市","street":"南虹が丘町"},{"zipCode":"5150034","prefectureKana":"ﾐｴｹﾝ","cityKana":"ﾏﾂｻｶｼ","streetKana":"ﾐﾅﾐﾏﾁ","prefecture":"三重県","city":"松阪市","street":"南町"},{"zipCode":"5152344","prefectureKana":"ﾐｴｹﾝ","cityKana":"ﾏﾂｻｶｼ","streetKana":"ﾐﾉﾀﾞﾁｮｳ","prefecture":"三重県","city":"松阪市","street":"美濃田町"},{"zipCode":"5150015","prefectureKana":"ﾐｴｹﾝ","cityKana":"ﾏﾂｻｶｼ","streetKana":"ﾐﾔﾏﾁ","prefecture":"三重県","city":"松阪市","street":"宮町"},{"zipCode":"5150216","prefectureKana":"ﾐｴｹﾝ","cityKana":"ﾏﾂｻｶｼ","streetKana":"ﾒﾀﾞﾁｮｳ","prefecture":"三重県","city":"松阪市","street":"目田町"},{"zipCode":"5150087","prefectureKana":"ﾐｴｹﾝ","cityKana":"ﾏﾂｻｶｼ","streetKana":"ﾓｴｷﾞﾁｮｳ","prefecture":"三重県","city":"松阪市","street":"萌木町"},{"zipCode":"5150844","prefectureKana":"ﾐｴｹﾝ","cityKana":"ﾏﾂｻｶｼ","streetKana":"ﾔｴﾀﾞﾁｮｳ","prefecture":"三重県","city":"松阪市","street":"八重田町"},{"zipCode":"5151102","prefectureKana":"ﾐｴｹﾝ","cityKana":"ﾏﾂｻｶｼ","streetKana":"ﾔﾂﾞﾁｮｳ","prefecture":"三重県","city":"松阪市","street":"矢津町"},{"zipCode":"5150206","prefectureKana":"ﾐｴｹﾝ","cityKana":"ﾏﾂｻｶｼ","streetKana":"ﾔﾏｼﾀﾁｮｳ","prefecture":"三重県","city":"松阪市","street":"山下町"},{"zipCode":"5150208","prefectureKana":"ﾐｴｹﾝ","cityKana":"ﾏﾂｻｶｼ","streetKana":"ﾔﾏｿﾞｴﾁｮｳ","prefecture":"三重県","city":"松阪市","street":"山添町"},{"zipCode":"5150052","prefectureKana":"ﾐｴｹﾝ","cityKana":"ﾏﾂｻｶｼ","streetKana":"ﾔﾏﾑﾛﾁｮｳ","prefecture":"三重県","city":"松阪市","street":"山室町"},{"zipCode":"5152414","prefectureKana":"ﾐｴｹﾝ","cityKana":"ﾏﾂｻｶｼ","streetKana":"ﾕﾉﾊﾗﾁｮｳ","prefecture":"三重県","city":"松阪市","street":"柚原町"},{"zipCode":"5150847","prefectureKana":"ﾐｴｹﾝ","cityKana":"ﾏﾂｻｶｼ","streetKana":"ﾖｳﾁﾁｮｳ","prefecture":"三重県","city":"松阪市","street":"岩内町"},{"zipCode":"5150215","prefectureKana":"ﾐｴｹﾝ","cityKana":"ﾏﾂｻｶｼ","streetKana":"ﾖｺﾁﾁｮｳ","prefecture":"三重県","city":"松阪市","street":"横地町"},{"zipCode":"5152411","prefectureKana":"ﾐｴｹﾝ","cityKana":"ﾏﾂｻｶｼ","streetKana":"ﾖﾊﾗﾁｮｳ","prefecture":"三重県","city":"松阪市","street":"与原町"},{"zipCode":"5150802","prefectureKana":"ﾐｴｹﾝ","cityKana":"ﾏﾂｻｶｼ","streetKana":"ﾘｮｳｼﾁｮｳ","prefecture":"三重県","city":"松阪市","street":"猟師町"},{"zipCode":"5150115","prefectureKana":"ﾐｴｹﾝ","cityKana":"ﾏﾂｻｶｼ","streetKana":"ﾚﾝｹﾞｼﾞﾁｮｳ","prefecture":"三重県","city":"松阪市","street":"蓮花寺町"},{"zipCode":"5151203","prefectureKana":"ﾐｴｹﾝ","cityKana":"ﾏﾂｻｶｼ","streetKana":"ﾛｸﾛｷﾞﾁｮｳ","prefecture":"三重県","city":"松阪市","street":"六呂木町"},{"zipCode":"5152131","prefectureKana":"ﾐｴｹﾝ","cityKana":"ﾏﾂｻｶｼ","streetKana":"ﾛｯｹﾝﾁｮｳ","prefecture":"三重県","city":"松阪市","street":"六軒町"},{"zipCode":"5150127","prefectureKana":"ﾐｴｹﾝ","cityKana":"ﾏﾂｻｶｼ","streetKana":"ﾛｯｺﾝﾁｮｳ","prefecture":"三重県","city":"松阪市","street":"六根町"},{"zipCode":"5150014","prefectureKana":"ﾐｴｹﾝ","cityKana":"ﾏﾂｻｶｼ","streetKana":"ﾜｶﾊﾞﾁｮｳ","prefecture":"三重県","city":"松阪市","street":"若葉町"},{"zipCode":"5150025","prefectureKana":"ﾐｴｹﾝ","cityKana":"ﾏﾂｻｶｼ","streetKana":"ﾜﾔﾁｮｳ","prefecture":"三重県","city":"松阪市","street":"和屋町"},{"zipCode":"5150300","prefectureKana":"ﾐｴｹﾝ","cityKana":"ﾀｷｸﾞﾝﾒｲﾜﾁｮｳ","streetKana":"ｲｶﾆｹｲｻｲｶﾞﾅｲﾊﾞｱｲ","prefecture":"三重県","city":"多気郡明和町","street":"以下に掲載がない場合"},{"zipCode":"5150317","prefectureKana":"ﾐｴｹﾝ","cityKana":"ﾀｷｸﾞﾝﾒｲﾜﾁｮｳ","streetKana":"ｲｹﾑﾗ","prefecture":"三重県","city":"多気郡明和町","street":"池村"},{"zipCode":"5150312","prefectureKana":"ﾐｴｹﾝ","cityKana":"ﾀｷｸﾞﾝﾒｲﾜﾁｮｳ","streetKana":"ｳｴﾉ","prefecture":"三重県","city":"多気郡明和町","street":"上野"},{"zipCode":"5150322","prefectureKana":"ﾐｴｹﾝ","cityKana":"ﾀｷｸﾞﾝﾒｲﾜﾁｮｳ","streetKana":"ｳｴﾑﾗ","prefecture":"三重県","city":"多気郡明和町","street":"上村"},{"zipCode":"5150316","prefectureKana":"ﾐｴｹﾝ","cityKana":"ﾀｷｸﾞﾝﾒｲﾜﾁｮｳ","streetKana":"ｳﾆﾅｶ","prefecture":"三重県","city":"多気郡明和町","street":"有爾中"},{"zipCode":"5150332","prefectureKana":"ﾐｴｹﾝ","cityKana":"ﾀｷｸﾞﾝﾒｲﾜﾁｮｳ","streetKana":"ｳﾏﾉｳｴ","prefecture":"三重県","city":"多気郡明和町","street":"馬之上"},{"zipCode":"5150301","prefectureKana":"ﾐｴｹﾝ","cityKana":"ﾀｷｸﾞﾝﾒｲﾜﾁｮｳ","streetKana":"ｵｵﾎﾘｶﾜｼﾝﾃﾞﾝ","prefecture":"三重県","city":"多気郡明和町","street":"大堀川新田"},{"zipCode":"5150302","prefectureKana":"ﾐｴｹﾝ","cityKana":"ﾀｷｸﾞﾝﾒｲﾜﾁｮｳ","streetKana":"ｵｵﾖﾄﾞ","prefecture":"三重県","city":"多気郡明和町","street":"大淀"},{"zipCode":"5150349","prefectureKana":"ﾐｴｹﾝ","cityKana":"ﾀｷｸﾞﾝﾒｲﾜﾁｮｳ","streetKana":"ｶﾜｼﾘ","prefecture":"三重県","city":"多気郡明和町","street":"川尻"},{"zipCode":"5150341","prefectureKana":"ﾐｴｹﾝ","cityKana":"ﾀｷｸﾞﾝﾒｲﾜﾁｮｳ","streetKana":"ｷﾀﾌｼﾞﾜﾗ","prefecture":"三重県","city":"多気郡明和町","street":"北藤原"},{"zipCode":"5150324","prefectureKana":"ﾐｴｹﾝ","cityKana":"ﾀｷｸﾞﾝﾒｲﾜﾁｮｳ","streetKana":"ｺﾝｺﾞｳｻﾞｶ","prefecture":"三重県","city":"多気郡明和町","street":"金剛坂"},{"zipCode":"5150321","prefectureKana":"ﾐｴｹﾝ","cityKana":"ﾀｷｸﾞﾝﾒｲﾜﾁｮｳ","streetKana":"ｻｲｸｳ","prefecture":"三重県","city":"多気郡明和町","street":"斎宮"},{"zipCode":"5150333","prefectureKana":"ﾐｴｹﾝ","cityKana":"ﾀｷｸﾞﾝﾒｲﾜﾁｮｳ","streetKana":"ｻｶﾓﾄ","prefecture":"三重県","city":"多気郡明和町","street":"坂本"},{"zipCode":"5150331","prefectureKana":"ﾐｴｹﾝ","cityKana":"ﾀｷｸﾞﾝﾒｲﾜﾁｮｳ","streetKana":"ｻﾀ","prefecture":"三重県","city":"多気郡明和町","street":"佐田"},{"zipCode":"5150347","prefectureKana":"ﾐｴｹﾝ","cityKana":"ﾀｷｸﾞﾝﾒｲﾜﾁｮｳ","streetKana":"ｼｷ","prefecture":"三重県","city":"多気郡明和町","street":"志貴"},{"zipCode":"5150314","prefectureKana":"ﾐｴｹﾝ","cityKana":"ﾀｷｸﾞﾝﾒｲﾜﾁｮｳ","streetKana":"ｼﾝﾁｬﾔ","prefecture":"三重県","city":"多気郡明和町","street":"新茶屋"},{"zipCode":"5150325","prefectureKana":"ﾐｴｹﾝ","cityKana":"ﾀｷｸﾞﾝﾒｲﾜﾁｮｳ","streetKana":"ﾀｹｶﾞﾜ","prefecture":"三重県","city":"多気郡明和町","street":"竹川"},{"zipCode":"5150345","prefectureKana":"ﾐｴｹﾝ","cityKana":"ﾀｷｸﾞﾝﾒｲﾜﾁｮｳ","streetKana":"ﾀﾔ","prefecture":"三重県","city":"多気郡明和町","street":"田屋"},{"zipCode":"5150343","prefectureKana":"ﾐｴｹﾝ","cityKana":"ﾀｷｸﾞﾝﾒｲﾜﾁｮｳ","streetKana":"ﾅｲｻﾞ","prefecture":"三重県","city":"多気郡明和町","street":"内座"},{"zipCode":"5150348","prefectureKana":"ﾐｴｹﾝ","cityKana":"ﾀｷｸﾞﾝﾒｲﾜﾁｮｳ","streetKana":"ﾅｶﾑﾗ","prefecture":"三重県","city":"多気郡明和町","street":"中村"},{"zipCode":"5150334","prefectureKana":"ﾐｴｹﾝ","cityKana":"ﾀｷｸﾞﾝﾒｲﾜﾁｮｳ","streetKana":"ﾅｺﾐ","prefecture":"三重県","city":"多気郡明和町","street":"中海"},{"zipCode":"5150353","prefectureKana":"ﾐｴｹﾝ","cityKana":"ﾀｷｸﾞﾝﾒｲﾜﾁｮｳ","streetKana":"ﾈｸﾞﾗ","prefecture":"三重県","city":"多気郡明和町","street":"根倉"},{"zipCode":"5150351","prefectureKana":"ﾐｴｹﾝ","cityKana":"ﾀｷｸﾞﾝﾒｲﾜﾁｮｳ","streetKana":"ﾊﾏﾀﾞ","prefecture":"三重県","city":"多気郡明和町","street":"浜田"},{"zipCode":"5150311","prefectureKana":"ﾐｴｹﾝ","cityKana":"ﾀｷｸﾞﾝﾒｲﾜﾁｮｳ","streetKana":"ﾋﾗｵ","prefecture":"三重県","city":"多気郡明和町","street":"平尾"},{"zipCode":"5150346","prefectureKana":"ﾐｴｹﾝ","cityKana":"ﾀｷｸﾞﾝﾒｲﾜﾁｮｳ","streetKana":"ﾏｴﾉ","prefecture":"三重県","city":"多気郡明和町","street":"前野"},{"zipCode":"5150342","prefectureKana":"ﾐｴｹﾝ","cityKana":"ﾀｷｸﾞﾝﾒｲﾜﾁｮｳ","streetKana":"ﾐﾅﾐﾌｼﾞﾜﾗ","prefecture":"三重県","city":"多気郡明和町","street":"南藤原"},{"zipCode":"5150315","prefectureKana":"ﾐｴｹﾝ","cityKana":"ﾀｷｸﾞﾝﾒｲﾜﾁｮｳ","streetKana":"ﾐﾉﾑﾗ","prefecture":"三重県","city":"多気郡明和町","street":"蓑村"},{"zipCode":"5150313","prefectureKana":"ﾐｴｹﾝ","cityKana":"ﾀｷｸﾞﾝﾒｲﾜﾁｮｳ","streetKana":"ﾐｮｳｼﾞｮｳ","prefecture":"三重県","city":"多気郡明和町","street":"明星"},{"zipCode":"5150352","prefectureKana":"ﾐｴｹﾝ","cityKana":"ﾀｷｸﾞﾝﾒｲﾜﾁｮｳ","streetKana":"ﾔｷﾄﾞ","prefecture":"三重県","city":"多気郡明和町","street":"八木戸"},{"zipCode":"5150303","prefectureKana":"ﾐｴｹﾝ","cityKana":"ﾀｷｸﾞﾝﾒｲﾜﾁｮｳ","streetKana":"ﾔﾏｵｵﾖﾄﾞ","prefecture":"三重県","city":"多気郡明和町","street":"山大淀"},{"zipCode":"5150354","prefectureKana":"ﾐｴｹﾝ","cityKana":"ﾀｷｸﾞﾝﾒｲﾜﾁｮｳ","streetKana":"ﾕｸﾍﾞ","prefecture":"三重県","city":"多気郡明和町","street":"行部"},{"zipCode":"5150344","prefectureKana":"ﾐｴｹﾝ","cityKana":"ﾀｷｸﾞﾝﾒｲﾜﾁｮｳ","streetKana":"ﾖｳｶﾜ","prefecture":"三重県","city":"多気郡明和町","street":"養川"},{"zipCode":"5150323","prefectureKana":"ﾐｴｹﾝ","cityKana":"ﾀｷｸﾞﾝﾒｲﾜﾁｮｳ","streetKana":"ﾖｳﾁ","prefecture":"三重県","city":"多気郡明和町","street":"岩内"}]