[{"zipCode":"5190501","prefectureKana":"ﾐｴｹﾝ","cityKana":"ｲｾｼ","streetKana":"ｵﾊﾞﾀﾁｮｳｱｹﾉ","prefecture":"三重県","city":"伊勢市","street":"小俣町明野"},{"zipCode":"5190507","prefectureKana":"ﾐｴｹﾝ","cityKana":"ｲｾｼ","streetKana":"ｵﾊﾞﾀﾁｮｳｼﾑﾗ","prefecture":"三重県","city":"伊勢市","street":"小俣町新村"},{"zipCode":"5190502","prefectureKana":"ﾐｴｹﾝ","cityKana":"ｲｾｼ","streetKana":"ｵﾊﾞﾀﾁｮｳｿｳｺﾞｳ","prefecture":"三重県","city":"伊勢市","street":"小俣町相合"},{"zipCode":"5190505","prefectureKana":"ﾐｴｹﾝ","cityKana":"ｲｾｼ","streetKana":"ｵﾊﾞﾀﾁｮｳﾎﾝﾏﾁ","prefecture":"三重県","city":"伊勢市","street":"小俣町本町"},{"zipCode":"5190504","prefectureKana":"ﾐｴｹﾝ","cityKana":"ｲｾｼ","streetKana":"ｵﾊﾞﾀﾁｮｳﾐﾔﾏｴ","prefecture":"三重県","city":"伊勢市","street":"小俣町宮前"},{"zipCode":"5190503","prefectureKana":"ﾐｴｹﾝ","cityKana":"ｲｾｼ","streetKana":"ｵﾊﾞﾀﾁｮｳﾓﾄﾏﾁ","prefecture":"三重県","city":"伊勢市","street":"小俣町元町"},{"zipCode":"5190506","prefectureKana":"ﾐｴｹﾝ","cityKana":"ｲｾｼ","streetKana":"ｵﾊﾞﾀﾁｮｳﾕﾀ","prefecture":"三重県","city":"伊勢市","street":"小俣町湯田"},{"zipCode":"5190608","prefectureKana":"ﾐｴｹﾝ","cityKana":"ｲｾｼ","streetKana":"ﾌﾀﾐﾁｮｳｲﾏｲｼｷ","prefecture":"三重県","city":"伊勢市","street":"二見町今一色"},{"zipCode":"5190602","prefectureKana":"ﾐｴｹﾝ","cityKana":"ｲｾｼ","streetKana":"ﾌﾀﾐﾁｮｳｴ","prefecture":"三重県","city":"伊勢市","street":"二見町江"},{"zipCode":"5190606","prefectureKana":"ﾐｴｹﾝ","cityKana":"ｲｾｼ","streetKana":"ﾌﾀﾐﾁｮｳｼｮｳ","prefecture":"三重県","city":"伊勢市","street":"二見町荘"},{"zipCode":"5190609","prefectureKana":"ﾐｴｹﾝ","cityKana":"ｲｾｼ","streetKana":"ﾌﾀﾐﾁｮｳﾁｬﾔ","prefecture":"三重県","city":"伊勢市","street":"二見町茶屋"},{"zipCode":"5190607","prefectureKana":"ﾐｴｹﾝ","cityKana":"ｲｾｼ","streetKana":"ﾌﾀﾐﾁｮｳﾆｼ","prefecture":"三重県","city":"伊勢市","street":"二見町西"},{"zipCode":"5190611","prefectureKana":"ﾐｴｹﾝ","cityKana":"ｲｾｼ","streetKana":"ﾌﾀﾐﾁｮｳﾋｶﾘﾉﾏﾁ","prefecture":"三重県","city":"伊勢市","street":"二見町光の街"},{"zipCode":"5190601","prefectureKana":"ﾐｴｹﾝ","cityKana":"ｲｾｼ","streetKana":"ﾌﾀﾐﾁｮｳﾏﾂｼﾀ","prefecture":"三重県","city":"伊勢市","street":"二見町松下"},{"zipCode":"5190605","prefectureKana":"ﾐｴｹﾝ","cityKana":"ｲｾｼ","streetKana":"ﾌﾀﾐﾁｮｳﾐｿﾞｸﾞﾁ","prefecture":"三重県","city":"伊勢市","street":"二見町溝口"},{"zipCode":"5190603","prefectureKana":"ﾐｴｹﾝ","cityKana":"ｲｾｼ","streetKana":"ﾌﾀﾐﾁｮｳﾐﾂ","prefecture":"三重県","city":"伊勢市","street":"二見町三津"},{"zipCode":"5190604","prefectureKana":"ﾐｴｹﾝ","cityKana":"ｲｾｼ","streetKana":"ﾌﾀﾐﾁｮｳﾔﾏﾀﾞﾊﾗ","prefecture":"三重県","city":"伊勢市","street":"二見町山田原"},{"zipCode":"5192146","prefectureKana":"ﾐｴｹﾝ","cityKana":"ﾏﾂｻｶｼ","streetKana":"ｱﾜｿﾁｮｳ","prefecture":"三重県","city":"松阪市","street":"阿波曽町"},{"zipCode":"5192145","prefectureKana":"ﾐｴｹﾝ","cityKana":"ﾏﾂｻｶｼ","streetKana":"ｲｻﾞﾜﾁｮｳ","prefecture":"三重県","city":"松阪市","street":"射和町"},{"zipCode":"5192141","prefectureKana":"ﾐｴｹﾝ","cityKana":"ﾏﾂｻｶｼ","streetKana":"ｶﾐﾀｺｼﾞﾁｮｳ","prefecture":"三重県","city":"松阪市","street":"上蛸路町"},{"zipCode":"5192142","prefectureKana":"ﾐｴｹﾝ","cityKana":"ﾏﾂｻｶｼ","streetKana":"ｼﾓﾀｺｼﾞﾁｮｳ","prefecture":"三重県","city":"松阪市","street":"下蛸路町"},{"zipCode":"5192147","prefectureKana":"ﾐｴｹﾝ","cityKana":"ﾏﾂｻｶｼ","streetKana":"ｼｮｳﾁｮｳ","prefecture":"三重県","city":"松阪市","street":"庄町"},{"zipCode":"5192143","prefectureKana":"ﾐｴｹﾝ","cityKana":"ﾏﾂｻｶｼ","streetKana":"ﾁｭｳﾏﾁｮｳ","prefecture":"三重県","city":"松阪市","street":"中万町"},{"zipCode":"5192144","prefectureKana":"ﾐｴｹﾝ","cityKana":"ﾏﾂｻｶｼ","streetKana":"ﾊｯﾀﾁｮｳ","prefecture":"三重県","city":"松阪市","street":"八太町"},{"zipCode":"5192148","prefectureKana":"ﾐｴｹﾝ","cityKana":"ﾏﾂｻｶｼ","streetKana":"ﾐｵｿﾞﾉﾁｮｳ","prefecture":"三重県","city":"松阪市","street":"御麻生薗町"},{"zipCode":"5190323","prefectureKana":"ﾐｴｹﾝ","cityKana":"ｽｽﾞｶｼ","streetKana":"ｲﾌﾅﾁｮｳ","prefecture":"三重県","city":"鈴鹿市","street":"伊船町"},{"zipCode":"5190313","prefectureKana":"ﾐｴｹﾝ","cityKana":"ｽｽﾞｶｼ","streetKana":"ｵｲﾜｹﾁｮｳ","prefecture":"三重県","city":"鈴鹿市","street":"追分町"},{"zipCode":"5190311","prefectureKana":"ﾐｴｹﾝ","cityKana":"ｽｽﾞｶｼ","streetKana":"ｵｵｸﾎﾞﾁｮｳ","prefecture":"三重県","city":"鈴鹿市","street":"大久保町"},{"zipCode":"5190316","prefectureKana":"ﾐｴｹﾝ","cityKana":"ｽｽﾞｶｼ","streetKana":"ｵｷﾞｽﾁｮｳ","prefecture":"三重県","city":"鈴鹿市","street":"小岐須町"},{"zipCode":"5190324","prefectureKana":"ﾐｴｹﾝ","cityKana":"ｽｽﾞｶｼ","streetKana":"ｺﾔｼﾛﾁｮｳ","prefecture":"三重県","city":"鈴鹿市","street":"小社町"},{"zipCode":"5190312","prefectureKana":"ﾐｴｹﾝ","cityKana":"ｽｽﾞｶｼ","streetKana":"ﾂﾊﾞｷｲﾁﾐﾔﾁｮｳ","prefecture":"三重県","city":"鈴鹿市","street":"椿一宮町"},{"zipCode":"5190314","prefectureKana":"ﾐｴｹﾝ","cityKana":"ｽｽﾞｶｼ","streetKana":"ﾅｶﾞｻﾜﾁｮｳ","prefecture":"三重県","city":"鈴鹿市","street":"長澤町"},{"zipCode":"5190271","prefectureKana":"ﾐｴｹﾝ","cityKana":"ｽｽﾞｶｼ","streetKana":"ﾆｼｼｮｳﾅｲﾁｮｳ","prefecture":"三重県","city":"鈴鹿市","street":"西庄内町"},{"zipCode":"5190272","prefectureKana":"ﾐｴｹﾝ","cityKana":"ｽｽﾞｶｼ","streetKana":"ﾋｶﾞｼｼｮｳﾅｲﾁｮｳ","prefecture":"三重県","city":"鈴鹿市","street":"東庄内町"},{"zipCode":"5190321","prefectureKana":"ﾐｴｹﾝ","cityKana":"ｽｽﾞｶｼ","streetKana":"ﾌｶﾐｿﾞﾁｮｳ","prefecture":"三重県","city":"鈴鹿市","street":"深溝町"},{"zipCode":"5190322","prefectureKana":"ﾐｴｹﾝ","cityKana":"ｽｽﾞｶｼ","streetKana":"ﾐﾊﾀﾁｮｳ","prefecture":"三重県","city":"鈴鹿市","street":"三畑町"},{"zipCode":"5190315","prefectureKana":"ﾐｴｹﾝ","cityKana":"ｽｽﾞｶｼ","streetKana":"ﾔﾏﾓﾄﾁｮｳ","prefecture":"三重県","city":"鈴鹿市","street":"山本町"},{"zipCode":"5193600","prefectureKana":"ﾐｴｹﾝ","cityKana":"ｵﾜｾｼ","streetKana":"ｲｶﾆｹｲｻｲｶﾞﾅｲﾊﾞｱｲ","prefecture":"三重県","city":"尾鷲市","street":"以下に掲載がない場合"},{"zipCode":"5193611","prefectureKana":"ﾐｴｹﾝ","cityKana":"ｵﾜｾｼ","streetKana":"ｱｻﾋﾏﾁ","prefecture":"三重県","city":"尾鷲市","street":"朝日町"},{"zipCode":"5193646","prefectureKana":"ﾐｴｹﾝ","cityKana":"ｵﾜｾｼ","streetKana":"ｲｽﾞﾐﾁｮｳ","prefecture":"三重県","city":"尾鷲市","street":"泉町"},{"zipCode":"5193653","prefectureKana":"ﾐｴｹﾝ","cityKana":"ｵﾜｾｼ","streetKana":"ｳｴﾉﾁｮｳ","prefecture":"三重県","city":"尾鷲市","street":"上野町"},{"zipCode":"5193623","prefectureKana":"ﾐｴｹﾝ","cityKana":"ｵﾜｾｼ","streetKana":"ｵｵｿﾈｳﾗ","prefecture":"三重県","city":"尾鷲市","street":"大曽根浦"},{"zipCode":"5193642","prefectureKana":"ﾐｴｹﾝ","cityKana":"ｵﾜｾｼ","streetKana":"ｵｵﾀｷﾁｮｳ","prefecture":"三重県","city":"尾鷲市","street":"大滝町"},{"zipCode":"5193923","prefectureKana":"ﾐｴｹﾝ","cityKana":"ｵﾜｾｼ","streetKana":"ｶｼﾞｶﾁｮｳ","prefecture":"三重県","city":"尾鷲市","street":"梶賀町"},{"zipCode":"5193921","prefectureKana":"ﾐｴｹﾝ","cityKana":"ｵﾜｾｼ","streetKana":"ｶﾀﾁｮｳ","prefecture":"三重県","city":"尾鷲市","street":"賀田町"},{"zipCode":"5193640","prefectureKana":"ﾐｴｹﾝ","cityKana":"ｵﾜｾｼ","streetKana":"ｶﾂﾗｶﾞｵｶ","prefecture":"三重県","city":"尾鷲市","street":"桂ケ丘"},{"zipCode":"5193606","prefectureKana":"ﾐｴｹﾝ","cityKana":"ｵﾜｾｼ","streetKana":"ｷﾀｳﾗﾁｮｳ","prefecture":"三重県","city":"尾鷲市","street":"北浦町"},{"zipCode":"5193610","prefectureKana":"ﾐｴｹﾝ","cityKana":"ｵﾜｾｼ","streetKana":"ｷﾀｳﾗﾆｼﾏﾁ","prefecture":"三重県","city":"尾鷲市","street":"北浦西町"},{"zipCode":"5193609","prefectureKana":"ﾐｴｹﾝ","cityKana":"ｵﾜｾｼ","streetKana":"ｷﾀｳﾗﾋｶﾞｼﾏﾁ","prefecture":"三重県","city":"尾鷲市","street":"北浦東町"},{"zipCode":"5193701","prefectureKana":"ﾐｴｹﾝ","cityKana":"ｵﾜｾｼ","streetKana":"ｸｷﾁｮｳ","prefecture":"三重県","city":"尾鷲市","street":"九鬼町"},{"zipCode":"5193626","prefectureKana":"ﾐｴｹﾝ","cityKana":"ｵﾜｾｼ","streetKana":"ｸﾆｼｼｮｳｾﾝﾁｮｳ","prefecture":"三重県","city":"尾鷲市","street":"国市松泉町"},{"zipCode":"5193658","prefectureKana":"ﾐｴｹﾝ","cityKana":"ｵﾜｾｼ","streetKana":"ｸﾗﾉﾀﾆﾁｮｳ","prefecture":"三重県","city":"尾鷲市","street":"倉ノ谷町"},{"zipCode":"5193647","prefectureKana":"ﾐｴｹﾝ","cityKana":"ｵﾜｾｼ","streetKana":"ｺｶﾞﾜﾆｼﾏﾁ","prefecture":"三重県","city":"尾鷲市","street":"小川西町"},{"zipCode":"5193648","prefectureKana":"ﾐｴｹﾝ","cityKana":"ｵﾜｾｼ","streetKana":"ｺｶﾞﾜﾋｶﾞｼﾏﾁ","prefecture":"三重県","city":"尾鷲市","street":"小川東町"},{"zipCode":"5193652","prefectureKana":"ﾐｴｹﾝ","cityKana":"ｵﾜｾｼ","streetKana":"ｺﾄﾞﾁｮｳ","prefecture":"三重県","city":"尾鷲市","street":"古戸町"},{"zipCode":"5193659","prefectureKana":"ﾐｴｹﾝ","cityKana":"ｵﾜｾｼ","streetKana":"ｺﾄﾞﾉﾁｮｳ","prefecture":"三重県","city":"尾鷲市","street":"古戸野町"},{"zipCode":"5193813","prefectureKana":"ﾐｴｹﾝ","cityKana":"ｵﾜｾｼ","streetKana":"ｺﾜｷﾁｮｳ","prefecture":"三重県","city":"尾鷲市","street":"小脇町"},{"zipCode":"5193618","prefectureKana":"ﾐｴｹﾝ","cityKana":"ｵﾜｾｼ","streetKana":"ｻｶｴﾏﾁ","prefecture":"三重県","city":"尾鷲市","street":"栄町"},{"zipCode":"5193666","prefectureKana":"ﾐｴｹﾝ","cityKana":"ｵﾜｾｼ","streetKana":"ｻｶﾊﾞﾆｼﾏﾁ","prefecture":"三重県","city":"尾鷲市","street":"坂場西町"},{"zipCode":"5193664","prefectureKana":"ﾐｴｹﾝ","cityKana":"ｵﾜｾｼ","streetKana":"ｻｶﾊﾞﾁｮｳ","prefecture":"三重県","city":"尾鷲市","street":"坂場町"},{"zipCode":"5193620","prefectureKana":"ﾐｴｹﾝ","cityKana":"ｵﾜｾｼ","streetKana":"ｻﾞﾉｼﾀﾁｮｳ","prefecture":"三重県","city":"尾鷲市","street":"座ノ下町"},{"zipCode":"5193638","prefectureKana":"ﾐｴｹﾝ","cityKana":"ｵﾜｾｼ","streetKana":"ｼﾝﾃﾞﾝﾁｮｳ","prefecture":"三重県","city":"尾鷲市","street":"新田町"},{"zipCode":"5193651","prefectureKana":"ﾐｴｹﾝ","cityKana":"ｵﾜｾｼ","streetKana":"ｽｴﾋﾛﾁｮｳ","prefecture":"三重県","city":"尾鷲市","street":"末広町"},{"zipCode":"5193421","prefectureKana":"ﾐｴｹﾝ","cityKana":"ｵﾜｾｼ","streetKana":"ｽｶﾞﾘﾁｮｳ","prefecture":"三重県","city":"尾鷲市","street":"須賀利町"},{"zipCode":"5193613","prefectureKana":"ﾐｴｹﾝ","cityKana":"ｵﾜｾｼ","streetKana":"ｾｷﾞﾔﾏﾁｮｳ","prefecture":"三重県","city":"尾鷲市","street":"瀬木山町"},{"zipCode":"5193924","prefectureKana":"ﾐｴｹﾝ","cityKana":"ｵﾜｾｼ","streetKana":"ｿﾈﾁｮｳ","prefecture":"三重県","city":"尾鷲市","street":"曽根町"},{"zipCode":"5193615","prefectureKana":"ﾐｴｹﾝ","cityKana":"ｵﾜｾｼ","streetKana":"ﾁｭｳｵｳﾁｮｳ","prefecture":"三重県","city":"尾鷲市","street":"中央町"},{"zipCode":"5193602","prefectureKana":"ﾐｴｹﾝ","cityKana":"ｵﾜｾｼ","streetKana":"ﾃﾝﾏｳﾗ","prefecture":"三重県","city":"尾鷲市","street":"天満浦"},{"zipCode":"5193666","prefectureKana":"ﾐｴｹﾝ","cityKana":"ｵﾜｾｼ","streetKana":"ﾅｶｲｳﾗ(ｻｶﾊﾞ)","prefecture":"三重県","city":"尾鷲市","street":"中井浦（坂場）"},{"zipCode":"5193605","prefectureKana":"ﾐｴｹﾝ","cityKana":"ｵﾜｾｼ","streetKana":"ﾅｶｲﾏﾁ","prefecture":"三重県","city":"尾鷲市","street":"中井町"},{"zipCode":"5193639","prefectureKana":"ﾐｴｹﾝ","cityKana":"ｵﾜｾｼ","streetKana":"ﾅｶｶﾞﾜ","prefecture":"三重県","city":"尾鷲市","street":"中川"},{"zipCode":"5193616","prefectureKana":"ﾐｴｹﾝ","cityKana":"ｵﾜｾｼ","streetKana":"ﾅｶﾑﾗﾁｮｳ","prefecture":"三重県","city":"尾鷲市","street":"中村町"},{"zipCode":"5193812","prefectureKana":"ﾐｴｹﾝ","cityKana":"ｵﾜｾｼ","streetKana":"ﾅｶﾞﾗﾁｮｳ","prefecture":"三重県","city":"尾鷲市","street":"名柄町"},{"zipCode":"5193614","prefectureKana":"ﾐｴｹﾝ","cityKana":"ｵﾜｾｼ","streetKana":"ﾅﾝﾖｳﾁｮｳ","prefecture":"三重県","city":"尾鷲市","street":"南陽町"},{"zipCode":"5193617","prefectureKana":"ﾐｴｹﾝ","cityKana":"ｵﾜｾｼ","streetKana":"ﾉｼﾞﾏﾁ","prefecture":"三重県","city":"尾鷲市","street":"野地町"},{"zipCode":"5193702","prefectureKana":"ﾐｴｹﾝ","cityKana":"ｵﾜｾｼ","streetKana":"ﾊｲﾀﾞﾁｮｳ","prefecture":"三重県","city":"尾鷲市","street":"早田町"},{"zipCode":"5193612","prefectureKana":"ﾐｴｹﾝ","cityKana":"ｵﾜｾｼ","streetKana":"ﾊﾔｼﾏﾁ","prefecture":"三重県","city":"尾鷲市","street":"林町"},{"zipCode":"5193637","prefectureKana":"ﾐｴｹﾝ","cityKana":"ｵﾜｾｼ","streetKana":"ﾋｶﾘｶﾞｵｶ","prefecture":"三重県","city":"尾鷲市","street":"光ケ丘"},{"zipCode":"5193922","prefectureKana":"ﾐｴｹﾝ","cityKana":"ｵﾜｾｼ","streetKana":"ﾌﾙｴﾁｮｳ","prefecture":"三重県","city":"尾鷲市","street":"古江町"},{"zipCode":"5193619","prefectureKana":"ﾐｴｹﾝ","cityKana":"ｵﾜｾｼ","streetKana":"ﾏｺﾞｾﾁｮｳ","prefecture":"三重県","city":"尾鷲市","street":"馬越町"},{"zipCode":"5193814","prefectureKana":"ﾐｴｹﾝ","cityKana":"ｵﾜｾｼ","streetKana":"ﾐｷｳﾗﾁｮｳ","prefecture":"三重県","city":"尾鷲市","street":"三木浦町"},{"zipCode":"5193811","prefectureKana":"ﾐｴｹﾝ","cityKana":"ｵﾜｾｼ","streetKana":"ﾐｷｻﾄﾁｮｳ","prefecture":"三重県","city":"尾鷲市","street":"三木里町"},{"zipCode":"5193604","prefectureKana":"ﾐｴｹﾝ","cityKana":"ｵﾜｾｼ","streetKana":"ﾐﾅﾄﾏﾁ","prefecture":"三重県","city":"尾鷲市","street":"港町"},{"zipCode":"5193643","prefectureKana":"ﾐｴｹﾝ","cityKana":"ｵﾜｾｼ","streetKana":"ﾐﾅﾐｳﾗ(ｵﾊﾞﾗﾉ)","prefecture":"三重県","city":"尾鷲市","street":"南浦（小原野）"},{"zipCode":"5193667","prefectureKana":"ﾐｴｹﾝ","cityKana":"ｵﾜｾｼ","streetKana":"ﾐﾅﾐｳﾗ(ｸﾁｽﾎﾞ)","prefecture":"三重県","city":"尾鷲市","street":"南浦（クチスボ）"},{"zipCode":"5193656","prefectureKana":"ﾐｴｹﾝ","cityKana":"ｵﾜｾｼ","streetKana":"ﾐﾅﾐｳﾗ(ｸﾗﾉﾀﾆ)","prefecture":"三重県","city":"尾鷲市","street":"南浦（倉ノ谷）"},{"zipCode":"5193601","prefectureKana":"ﾐｴｹﾝ","cityKana":"ｵﾜｾｼ","streetKana":"ﾐﾅﾐｳﾗ(ﾃﾝﾏ)","prefecture":"三重県","city":"尾鷲市","street":"南浦（天満）"},{"zipCode":"5193613","prefectureKana":"ﾐｴｹﾝ","cityKana":"ｵﾜｾｼ","streetKana":"ﾐﾅﾐｳﾗ(ﾊﾔｼ)","prefecture":"三重県","city":"尾鷲市","street":"南浦（林）"},{"zipCode":"5193634","prefectureKana":"ﾐｴｹﾝ","cityKana":"ｵﾜｾｼ","streetKana":"ﾐﾅﾐｳﾗ(ﾔﾉﾊﾏ)","prefecture":"三重県","city":"尾鷲市","street":"南浦（矢浜）"},{"zipCode":"5193663","prefectureKana":"ﾐｴｹﾝ","cityKana":"ｵﾜｾｼ","streetKana":"ﾐﾔﾉｳｴﾁｮｳ","prefecture":"三重県","city":"尾鷲市","street":"宮ノ上町"},{"zipCode":"5193625","prefectureKana":"ﾐｴｹﾝ","cityKana":"ｵﾜｾｼ","streetKana":"ﾑｶｲ","prefecture":"三重県","city":"尾鷲市","street":"向井"},{"zipCode":"5193671","prefectureKana":"ﾐｴｹﾝ","cityKana":"ｵﾜｾｼ","streetKana":"ﾔﾉﾊﾏ(ﾁｮｳﾒ)","prefecture":"三重県","city":"尾鷲市","street":"矢浜（丁目）"},{"zipCode":"5193673","prefectureKana":"ﾐｴｹﾝ","cityKana":"ｵﾜｾｼ","streetKana":"ﾔﾉﾊﾏｵｵﾐﾁ","prefecture":"三重県","city":"尾鷲市","street":"矢浜大道"},{"zipCode":"5193672","prefectureKana":"ﾐｴｹﾝ","cityKana":"ｵﾜｾｼ","streetKana":"ﾔﾉﾊﾏｵｶｻﾞｷﾁｮｳ","prefecture":"三重県","city":"尾鷲市","street":"矢浜岡崎町"},{"zipCode":"5193674","prefectureKana":"ﾐｴｹﾝ","cityKana":"ｵﾜｾｼ","streetKana":"ﾔﾉﾊﾏﾏｻｺﾞ","prefecture":"三重県","city":"尾鷲市","street":"矢浜真砂"},{"zipCode":"5193621","prefectureKana":"ﾐｴｹﾝ","cityKana":"ｵﾜｾｼ","streetKana":"ﾕｸﾉｳﾗ","prefecture":"三重県","city":"尾鷲市","street":"行野浦"},{"zipCode":"5190100","prefectureKana":"ﾐｴｹﾝ","cityKana":"ｶﾒﾔﾏｼ","streetKana":"ｲｶﾆｹｲｻｲｶﾞﾅｲﾊﾞｱｲ","prefecture":"三重県","city":"亀山市","street":"以下に掲載がない場合"},{"zipCode":"5190171","prefectureKana":"ﾐｴｹﾝ","cityKana":"ｶﾒﾔﾏｼ","streetKana":"ｱｲﾘｽﾁｮｳ","prefecture":"三重県","city":"亀山市","street":"アイリス町"},{"zipCode":"5190223","prefectureKana":"ﾐｴｹﾝ","cityKana":"ｶﾒﾔﾏｼ","streetKana":"ｱｻｶﾔﾏﾁｮｳ","prefecture":"三重県","city":"亀山市","street":"安坂山町"},{"zipCode":"5190143","prefectureKana":"ﾐｴｹﾝ","cityKana":"ｶﾒﾔﾏｼ","streetKana":"ｱﾁﾓﾄﾁｮｳ","prefecture":"三重県","city":"亀山市","street":"安知本町"},{"zipCode":"5190137","prefectureKana":"ﾐｴｹﾝ","cityKana":"ｶﾒﾔﾏｼ","streetKana":"ｱﾉﾀﾞﾁｮｳ","prefecture":"三重県","city":"亀山市","street":"阿野田町"},{"zipCode":"5190131","prefectureKana":"ﾐｴｹﾝ","cityKana":"ｶﾒﾔﾏｼ","streetKana":"ｲｼﾞﾘﾁｮｳ","prefecture":"三重県","city":"亀山市","street":"井尻町"},{"zipCode":"5190101","prefectureKana":"ﾐｴｹﾝ","cityKana":"ｶﾒﾔﾏｼ","streetKana":"ｲﾀﾞｶﾞﾜﾁｮｳ","prefecture":"三重県","city":"亀山市","street":"井田川町"},{"zipCode":"5190158","prefectureKana":"ﾐｴｹﾝ","cityKana":"ｶﾒﾔﾏｼ","streetKana":"ｲﾁｶﾞｻｶﾁｮｳ","prefecture":"三重県","city":"亀山市","street":"市ケ坂町"},{"zipCode":"5190112","prefectureKana":"ﾐｴｹﾝ","cityKana":"ｶﾒﾔﾏｼ","streetKana":"ｳｴﾉﾁｮｳ","prefecture":"三重県","city":"亀山市","street":"上野町"},{"zipCode":"5190121","prefectureKana":"ﾐｴｹﾝ","cityKana":"ｶﾒﾔﾏｼ","streetKana":"ｴｶﾞﾑﾛ","prefecture":"三重県","city":"亀山市","street":"江ケ室"},{"zipCode":"5190161","prefectureKana":"ﾐｴｹﾝ","cityKana":"ｶﾒﾔﾏｼ","streetKana":"ｵｶﾞﾜﾁｮｳ","prefecture":"三重県","city":"亀山市","street":"小川町"},{"zipCode":"5190167","prefectureKana":"ﾐｴｹﾝ","cityKana":"ｶﾒﾔﾏｼ","streetKana":"ｵﾉﾁｮｳ","prefecture":"三重県","city":"亀山市","street":"小野町"},{"zipCode":"5190141","prefectureKana":"ﾐｴｹﾝ","cityKana":"ｶﾒﾔﾏｼ","streetKana":"ｶｲﾓﾄﾁｮｳ","prefecture":"三重県","city":"亀山市","street":"海本町"},{"zipCode":"5191129","prefectureKana":"ﾐｴｹﾝ","cityKana":"ｶﾒﾔﾏｼ","streetKana":"ｶﾌﾞﾄｲﾀﾔ","prefecture":"三重県","city":"亀山市","street":"加太板屋"},{"zipCode":"5191122","prefectureKana":"ﾐｴｹﾝ","cityKana":"ｶﾒﾔﾏｼ","streetKana":"ｶﾌﾞﾄｲﾁﾊﾞ","prefecture":"三重県","city":"亀山市","street":"加太市場"},{"zipCode":"5191121","prefectureKana":"ﾐｴｹﾝ","cityKana":"ｶﾒﾔﾏｼ","streetKana":"ｶﾌﾞﾄｶｼﾞｶﾞｻｶ","prefecture":"三重県","city":"亀山市","street":"加太梶ケ坂"},{"zipCode":"5191128","prefectureKana":"ﾐｴｹﾝ","cityKana":"ｶﾒﾔﾏｼ","streetKana":"ｶﾌﾞﾄｷﾀｻﾞｲｹ","prefecture":"三重県","city":"亀山市","street":"加太北在家"},{"zipCode":"5191126","prefectureKana":"ﾐｴｹﾝ","cityKana":"ｶﾒﾔﾏｼ","streetKana":"ｶﾌﾞﾄｼﾞﾝﾑ","prefecture":"三重県","city":"亀山市","street":"加太神武"},{"zipCode":"5191127","prefectureKana":"ﾐｴｹﾝ","cityKana":"ｶﾒﾔﾏｼ","streetKana":"ｶﾌﾞﾄﾅｶｻﾞｲｹ","prefecture":"三重県","city":"亀山市","street":"加太中在家"},{"zipCode":"5191125","prefectureKana":"ﾐｴｹﾝ","cityKana":"ｶﾒﾔﾏｼ","streetKana":"ｶﾌﾞﾄﾑｶｲ","prefecture":"三重県","city":"亀山市","street":"加太向井"},{"zipCode":"5190163","prefectureKana":"ﾐｴｹﾝ","cityKana":"ｶﾒﾔﾏｼ","streetKana":"ｶﾒﾀﾞﾁｮｳ","prefecture":"三重県","city":"亀山市","street":"亀田町"},{"zipCode":"5190103","prefectureKana":"ﾐｴｹﾝ","cityKana":"ｶﾒﾔﾏｼ","streetKana":"ｶﾜｲﾁｮｳ","prefecture":"三重県","city":"亀山市","street":"川合町"},{"zipCode":"5190211","prefectureKana":"ﾐｴｹﾝ","cityKana":"ｶﾒﾔﾏｼ","streetKana":"ｶﾜｻｷﾁｮｳ","prefecture":"三重県","city":"亀山市","street":"川崎町"},{"zipCode":"5190115","prefectureKana":"ﾐｴｹﾝ","cityKana":"ｶﾒﾔﾏｼ","streetKana":"ｷﾀｶｼﾏﾁｮｳ","prefecture":"三重県","city":"亀山市","street":"北鹿島町"},{"zipCode":"5190157","prefectureKana":"ﾐｴｹﾝ","cityKana":"ｶﾒﾔﾏｼ","streetKana":"ｷﾀﾉﾁｮｳ","prefecture":"三重県","city":"亀山市","street":"北野町"},{"zipCode":"5190118","prefectureKana":"ﾐｴｹﾝ","cityKana":"ｶﾒﾔﾏｼ","streetKana":"ｷﾀﾏﾁ","prefecture":"三重県","city":"亀山市","street":"北町"},{"zipCode":"5190117","prefectureKana":"ﾐｴｹﾝ","cityKana":"ｶﾒﾔﾏｼ","streetKana":"ｷﾀﾔﾏﾁｮｳ","prefecture":"三重県","city":"亀山市","street":"北山町"},{"zipCode":"5190144","prefectureKana":"ﾐｴｹﾝ","cityKana":"ｶﾒﾔﾏｼ","streetKana":"ｸｽﾋﾞﾗｵﾁｮｳ","prefecture":"三重県","city":"亀山市","street":"楠平尾町"},{"zipCode":"5190148","prefectureKana":"ﾐｴｹﾝ","cityKana":"ｶﾒﾔﾏｼ","streetKana":"ｺﾉｼﾀﾁｮｳ","prefecture":"三重県","city":"亀山市","street":"木下町"},{"zipCode":"5190113","prefectureKana":"ﾐｴｹﾝ","cityKana":"ｶﾒﾔﾏｼ","streetKana":"ｺﾐｻﾞﾁｮｳ","prefecture":"三重県","city":"亀山市","street":"小下町"},{"zipCode":"5190111","prefectureKana":"ﾐｴｹﾝ","cityKana":"ｶﾒﾔﾏｼ","streetKana":"ｻｶｴﾏﾁ","prefecture":"三重県","city":"亀山市","street":"栄町"},{"zipCode":"5190123","prefectureKana":"ﾐｴｹﾝ","cityKana":"ｶﾒﾔﾏｼ","streetKana":"ｼﾌﾞｸﾗﾁｮｳ","prefecture":"三重県","city":"亀山市","street":"渋倉町"},{"zipCode":"5190133","prefectureKana":"ﾐｴｹﾝ","cityKana":"ｶﾒﾔﾏｼ","streetKana":"ｼﾓﾉｼｮｳﾁｮｳ","prefecture":"三重県","city":"亀山市","street":"下庄町"},{"zipCode":"5190169","prefectureKana":"ﾐｴｹﾝ","cityKana":"ｶﾒﾔﾏｼ","streetKana":"ｼﾗｷﾁｮｳ","prefecture":"三重県","city":"亀山市","street":"白木町"},{"zipCode":"5190132","prefectureKana":"ﾐｴｹﾝ","cityKana":"ｶﾒﾔﾏｼ","streetKana":"ｽｶﾞｳﾁﾁｮｳ","prefecture":"三重県","city":"亀山市","street":"菅内町"},{"zipCode":"5190162","prefectureKana":"ﾐｴｹﾝ","cityKana":"ｶﾒﾔﾏｼ","streetKana":"ｽﾐﾔﾏﾁｮｳ","prefecture":"三重県","city":"亀山市","street":"住山町"},{"zipCode":"5191119","prefectureKana":"ﾐｴｹﾝ","cityKana":"ｶﾒﾔﾏｼ","streetKana":"ｾｷｶﾞｵｶ","prefecture":"三重県","city":"亀山市","street":"関ケ丘"},{"zipCode":"5191117","prefectureKana":"ﾐｴｹﾝ","cityKana":"ｶﾒﾔﾏｼ","streetKana":"ｾｷﾁｮｳｲｽﾞﾐｶﾞｵｶ","prefecture":"三重県","city":"亀山市","street":"関町泉ケ丘"},{"zipCode":"5191103","prefectureKana":"ﾐｴｹﾝ","cityKana":"ｶﾒﾔﾏｼ","streetKana":"ｾｷﾁｮｳｲﾁﾉｾ","prefecture":"三重県","city":"亀山市","street":"関町市瀬"},{"zipCode":"5191106","prefectureKana":"ﾐｴｹﾝ","cityKana":"ｶﾒﾔﾏｼ","streetKana":"ｾｷﾁｮｳｴｹﾞ","prefecture":"三重県","city":"亀山市","street":"関町会下"},{"zipCode":"5191124","prefectureKana":"ﾐｴｹﾝ","cityKana":"ｶﾒﾔﾏｼ","streetKana":"ｾｷﾁｮｳｴﾁｶﾞﾜ","prefecture":"三重県","city":"亀山市","street":"関町越川"},{"zipCode":"5191108","prefectureKana":"ﾐｴｹﾝ","cityKana":"ｶﾒﾔﾏｼ","streetKana":"ｾｷﾁｮｳｵﾉ","prefecture":"三重県","city":"亀山市","street":"関町小野"},{"zipCode":"5191123","prefectureKana":"ﾐｴｹﾝ","cityKana":"ｶﾒﾔﾏｼ","streetKana":"ｾｷﾁｮｳｶﾈﾊﾞ","prefecture":"三重県","city":"亀山市","street":"関町金場"},{"zipCode":"5191116","prefectureKana":"ﾐｴｹﾝ","cityKana":"ｶﾒﾔﾏｼ","streetKana":"ｾｷﾁｮｳｸｶﾞ","prefecture":"三重県","city":"亀山市","street":"関町久我"},{"zipCode":"5191102","prefectureKana":"ﾐｴｹﾝ","cityKana":"ｶﾒﾔﾏｼ","streetKana":"ｾｷﾁｮｳｸﾂｶｹ","prefecture":"三重県","city":"亀山市","street":"関町沓掛"},{"zipCode":"5191107","prefectureKana":"ﾐｴｹﾝ","cityKana":"ｶﾒﾔﾏｼ","streetKana":"ｾｷﾁｮｳｺｻﾞｷ","prefecture":"三重県","city":"亀山市","street":"関町木崎"},{"zipCode":"5191101","prefectureKana":"ﾐｴｹﾝ","cityKana":"ｶﾒﾔﾏｼ","streetKana":"ｾｷﾁｮｳｻｶｼﾀ","prefecture":"三重県","city":"亀山市","street":"関町坂下"},{"zipCode":"5191104","prefectureKana":"ﾐｴｹﾝ","cityKana":"ｶﾒﾔﾏｼ","streetKana":"ｾｷﾁｮｳｼﾗｷｲｯｼｷ","prefecture":"三重県","city":"亀山市","street":"関町白木一色"},{"zipCode":"5191111","prefectureKana":"ﾐｴｹﾝ","cityKana":"ｶﾒﾔﾏｼ","streetKana":"ｾｷﾁｮｳｼﾝｼﾞｮ","prefecture":"三重県","city":"亀山市","street":"関町新所"},{"zipCode":"5191112","prefectureKana":"ﾐｴｹﾝ","cityKana":"ｶﾒﾔﾏｼ","streetKana":"ｾｷﾁｮｳﾅｶﾏﾁ","prefecture":"三重県","city":"亀山市","street":"関町中町"},{"zipCode":"5191114","prefectureKana":"ﾐｴｹﾝ","cityKana":"ｶﾒﾔﾏｼ","streetKana":"ｾｷﾁｮｳﾊｷﾞﾜﾗ","prefecture":"三重県","city":"亀山市","street":"関町萩原"},{"zipCode":"5191115","prefectureKana":"ﾐｴｹﾝ","cityKana":"ｶﾒﾔﾏｼ","streetKana":"ｾｷﾁｮｳﾌｸﾄｸ","prefecture":"三重県","city":"亀山市","street":"関町福徳"},{"zipCode":"5191118","prefectureKana":"ﾐｴｹﾝ","cityKana":"ｶﾒﾔﾏｼ","streetKana":"ｾｷﾁｮｳﾌｼﾞﾊｲﾂ","prefecture":"三重県","city":"亀山市","street":"関町富士ハイツ"},{"zipCode":"5191113","prefectureKana":"ﾐｴｹﾝ","cityKana":"ｶﾒﾔﾏｼ","streetKana":"ｾｷﾁｮｳﾌﾙﾏﾔ","prefecture":"三重県","city":"亀山市","street":"関町古厩"},{"zipCode":"5191105","prefectureKana":"ﾐｴｹﾝ","cityKana":"ｶﾒﾔﾏｼ","streetKana":"ｾｷﾁｮｳﾜｼﾔﾏ","prefecture":"三重県","city":"亀山市","street":"関町鷲山"},{"zipCode":"5190168","prefectureKana":"ﾐｴｹﾝ","cityKana":"ｶﾒﾔﾏｼ","streetKana":"ﾀｲｺｳｼﾞﾁｮｳ","prefecture":"三重県","city":"亀山市","street":"太岡寺町"},{"zipCode":"5190119","prefectureKana":"ﾐｴｹﾝ","cityKana":"ｶﾒﾔﾏｼ","streetKana":"ﾀｶﾂｶﾁｮｳ","prefecture":"三重県","city":"亀山市","street":"高塚町"},{"zipCode":"5190213","prefectureKana":"ﾐｴｹﾝ","cityKana":"ｶﾒﾔﾏｼ","streetKana":"ﾀﾑﾗﾁｮｳ","prefecture":"三重県","city":"亀山市","street":"田村町"},{"zipCode":"5190136","prefectureKana":"ﾐｴｹﾝ","cityKana":"ｶﾒﾔﾏｼ","streetKana":"ﾀﾓﾁｮｳ","prefecture":"三重県","city":"亀山市","street":"田茂町"},{"zipCode":"5190214","prefectureKana":"ﾐｴｹﾝ","cityKana":"ｶﾒﾔﾏｼ","streetKana":"ﾁｮｳﾐｮｳｼﾞﾁｮｳ","prefecture":"三重県","city":"亀山市","street":"長明寺町"},{"zipCode":"5190104","prefectureKana":"ﾐｴｹﾝ","cityKana":"ｶﾒﾔﾏｼ","streetKana":"ﾂﾊﾞｲｿﾁｮｳ","prefecture":"三重県","city":"亀山市","street":"椿世町"},{"zipCode":"5190142","prefectureKana":"ﾐｴｹﾝ","cityKana":"ｶﾒﾔﾏｼ","streetKana":"ﾃﾝｼﾞﾝ","prefecture":"三重県","city":"亀山市","street":"天神"},{"zipCode":"5190134","prefectureKana":"ﾐｴｹﾝ","cityKana":"ｶﾒﾔﾏｼ","streetKana":"ﾅｶﾉｼｮｳﾁｮｳ","prefecture":"三重県","city":"亀山市","street":"中庄町"},{"zipCode":"5190127","prefectureKana":"ﾐｴｹﾝ","cityKana":"ｶﾒﾔﾏｼ","streetKana":"ﾅｶﾔｼｷﾁｮｳ","prefecture":"三重県","city":"亀山市","street":"中屋敷町"},{"zipCode":"5190153","prefectureKana":"ﾐｴｹﾝ","cityKana":"ｶﾒﾔﾏｼ","streetKana":"ﾆｼﾏﾁ","prefecture":"三重県","city":"亀山市","street":"西町"},{"zipCode":"5190159","prefectureKana":"ﾐｴｹﾝ","cityKana":"ｶﾒﾔﾏｼ","streetKana":"ﾆｼﾏﾙﾁｮｳ","prefecture":"三重県","city":"亀山市","street":"西丸町"},{"zipCode":"5190212","prefectureKana":"ﾐｴｹﾝ","cityKana":"ｶﾒﾔﾏｼ","streetKana":"ﾉﾎﾞﾉﾁｮｳ","prefecture":"三重県","city":"亀山市","street":"能褒野町"},{"zipCode":"5190165","prefectureKana":"ﾐｴｹﾝ","cityKana":"ｶﾒﾔﾏｼ","streetKana":"ﾉﾑﾗ","prefecture":"三重県","city":"亀山市","street":"野村"},{"zipCode":"5190146","prefectureKana":"ﾐｴｹﾝ","cityKana":"ｶﾒﾔﾏｼ","streetKana":"ﾉﾑﾗﾁｮｳ","prefecture":"三重県","city":"亀山市","street":"野村町"},{"zipCode":"5190164","prefectureKana":"ﾐｴｹﾝ","cityKana":"ｶﾒﾔﾏｼ","streetKana":"ﾊﾜｶﾁｮｳ","prefecture":"三重県","city":"亀山市","street":"羽若町"},{"zipCode":"5190122","prefectureKana":"ﾐｴｹﾝ","cityKana":"ｶﾒﾔﾏｼ","streetKana":"ﾋｶﾞｼﾀﾞｲﾁｮｳ","prefecture":"三重県","city":"亀山市","street":"東台町"},{"zipCode":"5190125","prefectureKana":"ﾐｴｹﾝ","cityKana":"ｶﾒﾔﾏｼ","streetKana":"ﾋｶﾞｼﾏﾁ","prefecture":"三重県","city":"亀山市","street":"東町"},{"zipCode":"5190126","prefectureKana":"ﾐｴｹﾝ","cityKana":"ｶﾒﾔﾏｼ","streetKana":"ﾋｶﾞｼﾏﾙﾁｮｳ","prefecture":"三重県","city":"亀山市","street":"東丸町"},{"zipCode":"5190124","prefectureKana":"ﾐｴｹﾝ","cityKana":"ｶﾒﾔﾏｼ","streetKana":"ﾋｶﾞｼﾐﾕｷﾁｮｳ","prefecture":"三重県","city":"亀山市","street":"東御幸町"},{"zipCode":"5190166","prefectureKana":"ﾐｴｹﾝ","cityKana":"ｶﾒﾔﾏｼ","streetKana":"ﾌｹﾁｮｳ","prefecture":"三重県","city":"亀山市","street":"布気町"},{"zipCode":"5190222","prefectureKana":"ﾐｴｹﾝ","cityKana":"ｶﾒﾔﾏｼ","streetKana":"ﾌﾀｵﾁｮｳ","prefecture":"三重県","city":"亀山市","street":"両尾町"},{"zipCode":"5190215","prefectureKana":"ﾐｴｹﾝ","cityKana":"ｶﾒﾔﾏｼ","streetKana":"ﾌﾄﾓﾘﾁｮｳ","prefecture":"三重県","city":"亀山市","street":"太森町"},{"zipCode":"5190221","prefectureKana":"ﾐｴｹﾝ","cityKana":"ｶﾒﾔﾏｼ","streetKana":"ﾍﾝﾎﾞｳｼﾞﾁｮｳ","prefecture":"三重県","city":"亀山市","street":"辺法寺町"},{"zipCode":"5190116","prefectureKana":"ﾐｴｹﾝ","cityKana":"ｶﾒﾔﾏｼ","streetKana":"ﾎﾝﾏﾁ","prefecture":"三重県","city":"亀山市","street":"本町"},{"zipCode":"5190152","prefectureKana":"ﾐｴｹﾝ","cityKana":"ｶﾒﾔﾏｼ","streetKana":"ﾎﾝﾏﾙﾁｮｳ","prefecture":"三重県","city":"亀山市","street":"本丸町"},{"zipCode":"5190181","prefectureKana":"ﾐｴｹﾝ","cityKana":"ｶﾒﾔﾏｼ","streetKana":"ﾐｽﾞｷｶﾞｵｶ","prefecture":"三重県","city":"亀山市","street":"みずきが丘"},{"zipCode":"5190105","prefectureKana":"ﾐｴｹﾝ","cityKana":"ｶﾒﾔﾏｼ","streetKana":"ﾐｽﾞﾎﾀﾞｲ","prefecture":"三重県","city":"亀山市","street":"みずほ台"},{"zipCode":"5190135","prefectureKana":"ﾐｴｹﾝ","cityKana":"ｶﾒﾔﾏｼ","streetKana":"ﾐﾂﾃﾞﾗﾁｮｳ","prefecture":"三重県","city":"亀山市","street":"三寺町"},{"zipCode":"5190106","prefectureKana":"ﾐｴｹﾝ","cityKana":"ｶﾒﾔﾏｼ","streetKana":"ﾐﾄﾞﾘﾁｮｳ","prefecture":"三重県","city":"亀山市","street":"みどり町"},{"zipCode":"5190114","prefectureKana":"ﾐｴｹﾝ","cityKana":"ｶﾒﾔﾏｼ","streetKana":"ﾐﾅﾐｶｼﾏﾁｮｳ","prefecture":"三重県","city":"亀山市","street":"南鹿島町"},{"zipCode":"5190154","prefectureKana":"ﾐｴｹﾝ","cityKana":"ｶﾒﾔﾏｼ","streetKana":"ﾐﾅﾐｻﾞｷﾁｮｳ","prefecture":"三重県","city":"亀山市","street":"南崎町"},{"zipCode":"5190156","prefectureKana":"ﾐｴｹﾝ","cityKana":"ｶﾒﾔﾏｼ","streetKana":"ﾐﾅﾐﾉﾁｮｳ","prefecture":"三重県","city":"亀山市","street":"南野町"},{"zipCode":"5190155","prefectureKana":"ﾐｴｹﾝ","cityKana":"ｶﾒﾔﾏｼ","streetKana":"ﾐﾕｷﾁｮｳ","prefecture":"三重県","city":"亀山市","street":"御幸町"},{"zipCode":"5190147","prefectureKana":"ﾐｴｹﾝ","cityKana":"ｶﾒﾔﾏｼ","streetKana":"ﾔﾏｼﾀﾁｮｳ","prefecture":"三重県","city":"亀山市","street":"山下町"},{"zipCode":"5190151","prefectureKana":"ﾐｴｹﾝ","cityKana":"ｶﾒﾔﾏｼ","streetKana":"ﾜｶﾔﾏﾁｮｳ","prefecture":"三重県","city":"亀山市","street":"若山町"},{"zipCode":"5190145","prefectureKana":"ﾐｴｹﾝ","cityKana":"ｶﾒﾔﾏｼ","streetKana":"ﾜｶﾞﾁｮｳ","prefecture":"三重県","city":"亀山市","street":"和賀町"},{"zipCode":"5190102","prefectureKana":"ﾐｴｹﾝ","cityKana":"ｶﾒﾔﾏｼ","streetKana":"ﾜﾀﾞﾁｮｳ","prefecture":"三重県","city":"亀山市","street":"和田町"},{"zipCode":"5194300","prefectureKana":"ﾐｴｹﾝ","cityKana":"ｸﾏﾉｼ","streetKana":"ｲｶﾆｹｲｻｲｶﾞﾅｲﾊﾞｱｲ","prefecture":"三重県","city":"熊野市","street":"以下に掲載がない場合"},{"zipCode":"5194561","prefectureKana":"ﾐｴｹﾝ","cityKana":"ｸﾏﾉｼ","streetKana":"ｱｽｶﾁｮｳｵｵﾏﾀ","prefecture":"三重県","city":"熊野市","street":"飛鳥町大又"},{"zipCode":"5194566","prefectureKana":"ﾐｴｹﾝ","cityKana":"ｸﾏﾉｼ","streetKana":"ｱｽｶﾁｮｳｺｳﾉﾔﾏ","prefecture":"三重県","city":"熊野市","street":"飛鳥町神山"},{"zipCode":"5194563","prefectureKana":"ﾐｴｹﾝ","cityKana":"ｸﾏﾉｼ","streetKana":"ｱｽｶﾁｮｳｺｻﾞｶ","prefecture":"三重県","city":"熊野市","street":"飛鳥町小阪"},{"zipCode":"5194562","prefectureKana":"ﾐｴｹﾝ","cityKana":"ｸﾏﾉｼ","streetKana":"ｱｽｶﾁｮｳｺﾏﾀ","prefecture":"三重県","city":"熊野市","street":"飛鳥町小又"},{"zipCode":"5194564","prefectureKana":"ﾐｴｹﾝ","cityKana":"ｸﾏﾉｼ","streetKana":"ｱｽｶﾁｮｳｻﾜﾀﾘ","prefecture":"三重県","city":"熊野市","street":"飛鳥町佐渡"},{"zipCode":"5194565","prefectureKana":"ﾐｴｹﾝ","cityKana":"ｸﾏﾉｼ","streetKana":"ｱｽｶﾁｮｳﾉｸﾞﾁ","prefecture":"三重県","city":"熊野市","street":"飛鳥町野口"},{"zipCode":"5194206","prefectureKana":"ﾐｴｹﾝ","cityKana":"ｸﾏﾉｼ","streetKana":"ｱﾀｼｶﾁｮｳ","prefecture":"三重県","city":"熊野市","street":"新鹿町"},{"zipCode":"5194325","prefectureKana":"ﾐｴｹﾝ","cityKana":"ｸﾏﾉｼ","streetKana":"ｱﾘﾏﾁｮｳ","prefecture":"三重県","city":"熊野市","street":"有馬町"},{"zipCode":"5194446","prefectureKana":"ﾐｴｹﾝ","cityKana":"ｸﾏﾉｼ","streetKana":"ｲｸｾｲﾁｮｳｱｶｸﾞﾗ","prefecture":"三重県","city":"熊野市","street":"育生町赤倉"},{"zipCode":"5194448","prefectureKana":"ﾐｴｹﾝ","cityKana":"ｸﾏﾉｼ","streetKana":"ｲｸｾｲﾁｮｳｵｵｲ","prefecture":"三重県","city":"熊野市","street":"育生町大井"},{"zipCode":"5194447","prefectureKana":"ﾐｴｹﾝ","cityKana":"ｸﾏﾉｼ","streetKana":"ｲｸｾｲﾁｮｳｵｶﾞﾜ","prefecture":"三重県","city":"熊野市","street":"育生町尾川"},{"zipCode":"5194445","prefectureKana":"ﾐｴｹﾝ","cityKana":"ｸﾏﾉｼ","streetKana":"ｲｸｾｲﾁｮｳｺﾄﾞｺﾛ","prefecture":"三重県","city":"熊野市","street":"育生町粉所"},{"zipCode":"5194449","prefectureKana":"ﾐｴｹﾝ","cityKana":"ｸﾏﾉｼ","streetKana":"ｲｸｾｲﾁｮｳﾅｶﾞｲ","prefecture":"三重県","city":"熊野市","street":"育生町長井"},{"zipCode":"5194675","prefectureKana":"ﾐｴｹﾝ","cityKana":"ｸﾏﾉｼ","streetKana":"ｲｻﾄﾁｮｳｵｵｲﾀﾞﾆ","prefecture":"三重県","city":"熊野市","street":"五郷町大井谷"},{"zipCode":"5194673","prefectureKana":"ﾐｴｹﾝ","cityKana":"ｸﾏﾉｼ","streetKana":"ｲｻﾄﾁｮｳﾃﾗﾀﾞﾆ","prefecture":"三重県","city":"熊野市","street":"五郷町寺谷"},{"zipCode":"5194671","prefectureKana":"ﾐｴｹﾝ","cityKana":"ｸﾏﾉｼ","streetKana":"ｲｻﾄﾁｮｳﾓﾓｻﾞｷ","prefecture":"三重県","city":"熊野市","street":"五郷町桃崎"},{"zipCode":"5194672","prefectureKana":"ﾐｴｹﾝ","cityKana":"ｸﾏﾉｼ","streetKana":"ｲｻﾄﾁｮｳﾕﾉﾀﾆ","prefecture":"三重県","city":"熊野市","street":"五郷町湯谷"},{"zipCode":"5194674","prefectureKana":"ﾐｴｹﾝ","cityKana":"ｸﾏﾉｼ","streetKana":"ｲｻﾄﾁｮｳﾜﾀﾞ","prefecture":"三重県","city":"熊野市","street":"五郷町和田"},{"zipCode":"5194321","prefectureKana":"ﾐｴｹﾝ","cityKana":"ｸﾏﾉｼ","streetKana":"ｲｿｻﾞｷﾁｮｳ","prefecture":"三重県","city":"熊野市","street":"磯崎町"},{"zipCode":"5194324","prefectureKana":"ﾐｴｹﾝ","cityKana":"ｸﾏﾉｼ","streetKana":"ｲﾄﾞﾁｮｳ","prefecture":"三重県","city":"熊野市","street":"井戸町"},{"zipCode":"5194322","prefectureKana":"ﾐｴｹﾝ","cityKana":"ｸﾏﾉｼ","streetKana":"ｵｵﾄﾞﾏﾘﾁｮｳ","prefecture":"三重県","city":"熊野市","street":"大泊町"},{"zipCode":"5194327","prefectureKana":"ﾐｴｹﾝ","cityKana":"ｸﾏﾉｼ","streetKana":"ｶﾅﾔﾏﾁｮｳ","prefecture":"三重県","city":"熊野市","street":"金山町"},{"zipCode":"5194442","prefectureKana":"ﾐｴｹﾝ","cityKana":"ｸﾏﾉｼ","streetKana":"ｶﾐｶﾜﾁｮｳｺｳﾉｳｴ","prefecture":"三重県","city":"熊野市","street":"神川町神上"},{"zipCode":"5194444","prefectureKana":"ﾐｴｹﾝ","cityKana":"ｸﾏﾉｼ","streetKana":"ｶﾐｶﾜﾁｮｳﾅｶﾞﾊﾗ","prefecture":"三重県","city":"熊野市","street":"神川町長原"},{"zipCode":"5194441","prefectureKana":"ﾐｴｹﾝ","cityKana":"ｸﾏﾉｼ","streetKana":"ｶﾐｶﾜﾁｮｳﾊﾅｼﾞﾘ","prefecture":"三重県","city":"熊野市","street":"神川町花知"},{"zipCode":"5194443","prefectureKana":"ﾐｴｹﾝ","cityKana":"ｸﾏﾉｼ","streetKana":"ｶﾐｶﾜﾁｮｳﾔﾅｷﾞﾀﾞﾆ","prefecture":"三重県","city":"熊野市","street":"神川町柳谷"},{"zipCode":"5194323","prefectureKana":"ﾐｴｹﾝ","cityKana":"ｸﾏﾉｼ","streetKana":"ｷﾉﾓﾄﾁｮｳ","prefecture":"三重県","city":"熊野市","street":"木本町"},{"zipCode":"5195404","prefectureKana":"ﾐｴｹﾝ","cityKana":"ｸﾏﾉｼ","streetKana":"ｷﾜﾁｮｳｱｶｷﾞ","prefecture":"三重県","city":"熊野市","street":"紀和町赤木"},{"zipCode":"5195413","prefectureKana":"ﾐｴｹﾝ","cityKana":"ｸﾏﾉｼ","streetKana":"ｷﾜﾁｮｳｲﾀﾔ","prefecture":"三重県","city":"熊野市","street":"紀和町板屋"},{"zipCode":"5195412","prefectureKana":"ﾐｴｹﾝ","cityKana":"ｸﾏﾉｼ","streetKana":"ｷﾜﾁｮｳｵｵｸﾞﾙｽ","prefecture":"三重県","city":"熊野市","street":"紀和町大栗須"},{"zipCode":"5195415","prefectureKana":"ﾐｴｹﾝ","cityKana":"ｸﾏﾉｼ","streetKana":"ｷﾜﾁｮｳｵｺﾁ","prefecture":"三重県","city":"熊野市","street":"紀和町大河内"},{"zipCode":"5195411","prefectureKana":"ﾐｴｹﾝ","cityKana":"ｸﾏﾉｼ","streetKana":"ｷﾜﾁｮｳｷﾂﾞﾛ","prefecture":"三重県","city":"熊野市","street":"紀和町木津呂"},{"zipCode":"5195417","prefectureKana":"ﾐｴｹﾝ","cityKana":"ｸﾏﾉｼ","streetKana":"ｷﾜﾁｮｳｺｶﾞﾜｸﾞﾁ","prefecture":"三重県","city":"熊野市","street":"紀和町小川口"},{"zipCode":"5195414","prefectureKana":"ﾐｴｹﾝ","cityKana":"ｸﾏﾉｼ","streetKana":"ｷﾜﾁｮｳｺｸﾞﾙｽ","prefecture":"三重県","city":"熊野市","street":"紀和町小栗須"},{"zipCode":"5195401","prefectureKana":"ﾐｴｹﾝ","cityKana":"ｸﾏﾉｼ","streetKana":"ｷﾜﾁｮｳｺﾓﾘ","prefecture":"三重県","city":"熊野市","street":"紀和町小森"},{"zipCode":"5195403","prefectureKana":"ﾐｴｹﾝ","cityKana":"ｸﾏﾉｼ","streetKana":"ｷﾜﾁｮｳﾅｶﾞｵ","prefecture":"三重県","city":"熊野市","street":"紀和町長尾"},{"zipCode":"5195402","prefectureKana":"ﾐｴｹﾝ","cityKana":"ｸﾏﾉｼ","streetKana":"ｷﾜﾁｮｳﾋﾗﾀﾆ","prefecture":"三重県","city":"熊野市","street":"紀和町平谷"},{"zipCode":"5195405","prefectureKana":"ﾐｴｹﾝ","cityKana":"ｸﾏﾉｼ","streetKana":"ｷﾜﾁｮｳﾏﾙﾔﾏ","prefecture":"三重県","city":"熊野市","street":"紀和町丸山"},{"zipCode":"5195406","prefectureKana":"ﾐｴｹﾝ","cityKana":"ｸﾏﾉｼ","streetKana":"ｷﾜﾁｮｳﾔﾉｶﾜ","prefecture":"三重県","city":"熊野市","street":"紀和町矢ノ川"},{"zipCode":"5195416","prefectureKana":"ﾐｴｹﾝ","cityKana":"ｸﾏﾉｼ","streetKana":"ｷﾜﾁｮｳﾕﾉｸﾁ","prefecture":"三重県","city":"熊野市","street":"紀和町湯ノ口"},{"zipCode":"5194326","prefectureKana":"ﾐｴｹﾝ","cityKana":"ｸﾏﾉｼ","streetKana":"ｸｼﾔﾁｮｳ","prefecture":"三重県","city":"熊野市","street":"久生屋町"},{"zipCode":"5194201","prefectureKana":"ﾐｴｹﾝ","cityKana":"ｸﾏﾉｼ","streetKana":"ｽﾉﾁｮｳ","prefecture":"三重県","city":"熊野市","street":"須野町"},{"zipCode":"5194203","prefectureKana":"ﾐｴｹﾝ","cityKana":"ｸﾏﾉｼ","streetKana":"ﾆｷﾞｼﾏｻﾄﾁｮｳ","prefecture":"三重県","city":"熊野市","street":"二木島里町"},{"zipCode":"5194204","prefectureKana":"ﾐｴｹﾝ","cityKana":"ｸﾏﾉｼ","streetKana":"ﾆｷﾞｼﾏﾁｮｳ","prefecture":"三重県","city":"熊野市","street":"二木島町"},{"zipCode":"5194207","prefectureKana":"ﾐｴｹﾝ","cityKana":"ｸﾏﾉｼ","streetKana":"ﾊﾀﾞｽﾁｮｳ","prefecture":"三重県","city":"熊野市","street":"波田須町"},{"zipCode":"5194202","prefectureKana":"ﾐｴｹﾝ","cityKana":"ｸﾏﾉｼ","streetKana":"ﾎﾎﾞﾁｮｳ","prefecture":"三重県","city":"熊野市","street":"甫母町"},{"zipCode":"5194205","prefectureKana":"ﾐｴｹﾝ","cityKana":"ｸﾏﾉｼ","streetKana":"ﾕｷﾁｮｳ","prefecture":"三重県","city":"熊野市","street":"遊木町"},{"zipCode":"5191413","prefectureKana":"ﾐｴｹﾝ","cityKana":"ｲｶﾞｼ","streetKana":"ｱｲﾀ","prefecture":"三重県","city":"伊賀市","street":"愛田"},{"zipCode":"5191403","prefectureKana":"ﾐｴｹﾝ","cityKana":"ｲｶﾞｼ","streetKana":"ｳｴﾑﾗ","prefecture":"三重県","city":"伊賀市","street":"上村"},{"zipCode":"5191415","prefectureKana":"ﾐｴｹﾝ","cityKana":"ｲｶﾞｼ","streetKana":"ｶｼﾜﾉ","prefecture":"三重県","city":"伊賀市","street":"柏野"},{"zipCode":"5191425","prefectureKana":"ﾐｴｹﾝ","cityKana":"ｲｶﾞｼ","streetKana":"ｶﾜﾆｼ","prefecture":"三重県","city":"伊賀市","street":"川西"},{"zipCode":"5191424","prefectureKana":"ﾐｴｹﾝ","cityKana":"ｲｶﾞｼ","streetKana":"ｶﾜﾋｶﾞｼ","prefecture":"三重県","city":"伊賀市","street":"川東"},{"zipCode":"5191423","prefectureKana":"ﾐｴｹﾝ","cityKana":"ｲｶﾞｼ","streetKana":"ｷﾎﾞｳｶﾞｵｶﾆｼ","prefecture":"三重県","city":"伊賀市","street":"希望ケ丘西"},{"zipCode":"5191422","prefectureKana":"ﾐｴｹﾝ","cityKana":"ｲｶﾞｼ","streetKana":"ｷﾎﾞｳｶﾞｵｶﾋｶﾞｼ","prefecture":"三重県","city":"伊賀市","street":"希望ケ丘東"},{"zipCode":"5191406","prefectureKana":"ﾐｴｹﾝ","cityKana":"ｲｶﾞｼ","streetKana":"ｺｽｷﾞ","prefecture":"三重県","city":"伊賀市","street":"小杉"},{"zipCode":"5191711","prefectureKana":"ﾐｴｹﾝ","cityKana":"ｲｶﾞｼ","streetKana":"ｼﾏｶﾞﾊﾗ","prefecture":"三重県","city":"伊賀市","street":"島ケ原"},{"zipCode":"5191707","prefectureKana":"ﾐｴｹﾝ","cityKana":"ｲｶﾞｼ","streetKana":"ｼﾏｶﾞﾊﾗ(ｵｵﾄﾞｳ)","prefecture":"三重県","city":"伊賀市","street":"島ケ原（大道）"},{"zipCode":"5191706","prefectureKana":"ﾐｴｹﾝ","cityKana":"ｲｶﾞｼ","streetKana":"ｼﾏｶﾞﾊﾗ(ｵｸﾑﾗ)","prefecture":"三重県","city":"伊賀市","street":"島ケ原（奥村）"},{"zipCode":"5191701","prefectureKana":"ﾐｴｹﾝ","cityKana":"ｲｶﾞｼ","streetKana":"ｼﾏｶﾞﾊﾗ(ｶﾜﾐﾅﾐ)","prefecture":"三重県","city":"伊賀市","street":"島ケ原（川南）"},{"zipCode":"5191705","prefectureKana":"ﾐｴｹﾝ","cityKana":"ｲｶﾞｼ","streetKana":"ｼﾏｶﾞﾊﾗ(ﾅｶﾑﾗ)","prefecture":"三重県","city":"伊賀市","street":"島ケ原（中村）"},{"zipCode":"5191708","prefectureKana":"ﾐｴｹﾝ","cityKana":"ｲｶﾞｼ","streetKana":"ｼﾏｶﾞﾊﾗ(ﾅｶﾔ)","prefecture":"三重県","city":"伊賀市","street":"島ケ原（中矢）"},{"zipCode":"5191702","prefectureKana":"ﾐｴｹﾝ","cityKana":"ｲｶﾞｼ","streetKana":"ｼﾏｶﾞﾊﾗ(ﾌｹﾝｼﾞｮｳ)","prefecture":"三重県","city":"伊賀市","street":"島ケ原（不見上）"},{"zipCode":"5191704","prefectureKana":"ﾐｴｹﾝ","cityKana":"ｲｶﾞｼ","streetKana":"ｼﾏｶﾞﾊﾗ(ﾏﾁ)","prefecture":"三重県","city":"伊賀市","street":"島ケ原（町）"},{"zipCode":"5191703","prefectureKana":"ﾐｴｹﾝ","cityKana":"ｲｶﾞｼ","streetKana":"ｼﾏｶﾞﾊﾗ(ﾔﾏｽｹﾞ)","prefecture":"三重県","city":"伊賀市","street":"島ケ原（山菅）"},{"zipCode":"5191412","prefectureKana":"ﾐｴｹﾝ","cityKana":"ｲｶﾞｼ","streetKana":"ｼﾓﾂｹﾞ","prefecture":"三重県","city":"伊賀市","street":"下柘植"},{"zipCode":"5191416","prefectureKana":"ﾐｴｹﾝ","cityKana":"ｲｶﾞｼ","streetKana":"ｼﾝﾄﾞｳ","prefecture":"三重県","city":"伊賀市","street":"新堂"},{"zipCode":"5191411","prefectureKana":"ﾐｴｹﾝ","cityKana":"ｲｶﾞｼ","streetKana":"ﾀﾃｵｶ","prefecture":"三重県","city":"伊賀市","street":"楯岡"},{"zipCode":"5191402","prefectureKana":"ﾐｴｹﾝ","cityKana":"ｲｶﾞｼ","streetKana":"ﾂｹﾞﾏﾁ","prefecture":"三重県","city":"伊賀市","street":"柘植町"},{"zipCode":"5191404","prefectureKana":"ﾐｴｹﾝ","cityKana":"ｲｶﾞｼ","streetKana":"ﾅｶﾂｹﾞ","prefecture":"三重県","city":"伊賀市","street":"中柘植"},{"zipCode":"5191426","prefectureKana":"ﾐｴｹﾝ","cityKana":"ｲｶﾞｼ","streetKana":"ﾆｼﾉｻﾜ","prefecture":"三重県","city":"伊賀市","street":"西之澤"},{"zipCode":"5191405","prefectureKana":"ﾐｴｹﾝ","cityKana":"ｲｶﾞｼ","streetKana":"ﾉﾑﾗ","prefecture":"三重県","city":"伊賀市","street":"野村"},{"zipCode":"5191401","prefectureKana":"ﾐｴｹﾝ","cityKana":"ｲｶﾞｼ","streetKana":"ﾋﾄﾂﾔ","prefecture":"三重県","city":"伊賀市","street":"一ツ家"},{"zipCode":"5191414","prefectureKana":"ﾐｴｹﾝ","cityKana":"ｲｶﾞｼ","streetKana":"ﾐﾀﾞｲ","prefecture":"三重県","city":"伊賀市","street":"御代"},{"zipCode":"5191421","prefectureKana":"ﾐｴｹﾝ","cityKana":"ｲｶﾞｼ","streetKana":"ﾔﾊﾞﾀ","prefecture":"三重県","city":"伊賀市","street":"山畑"},{"zipCode":"5192100","prefectureKana":"ﾐｴｹﾝ","cityKana":"ﾀｷｸﾞﾝﾀｷﾁｮｳ","streetKana":"ｲｶﾆｹｲｻｲｶﾞﾅｲﾊﾞｱｲ","prefecture":"三重県","city":"多気郡多気町","street":"以下に掲載がない場合"},{"zipCode":"5192151","prefectureKana":"ﾐｴｹﾝ","cityKana":"ﾀｷｸﾞﾝﾀｷﾁｮｳ","streetKana":"ｱｻｵｻ","prefecture":"三重県","city":"多気郡多気町","street":"朝長"},{"zipCode":"5192215","prefectureKana":"ﾐｴｹﾝ","cityKana":"ﾀｷｸﾞﾝﾀｷﾁｮｳ","streetKana":"ｱｻｶﾞﾗ","prefecture":"三重県","city":"多気郡多気町","street":"朝柄"},{"zipCode":"5192158","prefectureKana":"ﾐｴｹﾝ","cityKana":"ﾀｷｸﾞﾝﾀｷﾁｮｳ","streetKana":"ｱﾗﾏｷ","prefecture":"三重県","city":"多気郡多気町","street":"荒蒔"},{"zipCode":"5192186","prefectureKana":"ﾐｴｹﾝ","cityKana":"ﾀｷｸﾞﾝﾀｷﾁｮｳ","streetKana":"ｲﾉｳﾁﾊﾞﾔｼ","prefecture":"三重県","city":"多気郡多気町","street":"井内林"},{"zipCode":"5192159","prefectureKana":"ﾐｴｹﾝ","cityKana":"ﾀｷｸﾞﾝﾀｷﾁｮｳ","streetKana":"ｴｸﾆ","prefecture":"三重県","city":"多気郡多気町","street":"兄国"},{"zipCode":"5192181","prefectureKana":"ﾐｴｹﾝ","cityKana":"ﾀｷｸﾞﾝﾀｷﾁｮｳ","streetKana":"ｵｳｶ","prefecture":"三重県","city":"多気郡多気町","street":"相可"},{"zipCode":"5192167","prefectureKana":"ﾐｴｹﾝ","cityKana":"ﾀｷｸﾞﾝﾀｷﾁｮｳ","streetKana":"ｵｳｶｾ","prefecture":"三重県","city":"多気郡多気町","street":"相鹿瀬"},{"zipCode":"5192182","prefectureKana":"ﾐｴｹﾝ","cityKana":"ﾀｷｸﾞﾝﾀｷﾁｮｳ","streetKana":"ｵｳｶﾀﾞｲ","prefecture":"三重県","city":"多気郡多気町","street":"相可台"},{"zipCode":"5192152","prefectureKana":"ﾐｴｹﾝ","cityKana":"ﾀｷｸﾞﾝﾀｷﾁｮｳ","streetKana":"ｵｳｸﾞﾆ","prefecture":"三重県","city":"多気郡多気町","street":"弟国"},{"zipCode":"5192162","prefectureKana":"ﾐｴｹﾝ","cityKana":"ﾀｷｸﾞﾝﾀｷﾁｮｳ","streetKana":"ｶｻｷﾞ","prefecture":"三重県","city":"多気郡多気町","street":"笠木"},{"zipCode":"5192203","prefectureKana":"ﾐｴｹﾝ","cityKana":"ﾀｷｸﾞﾝﾀｷﾁｮｳ","streetKana":"ｶﾀﾉ","prefecture":"三重県","city":"多気郡多気町","street":"片野"},{"zipCode":"5192201","prefectureKana":"ﾐｴｹﾝ","cityKana":"ﾀｷｸﾞﾝﾀｷﾁｮｳ","streetKana":"ｶﾐｲｽﾞｴ","prefecture":"三重県","city":"多気郡多気町","street":"上出江"},{"zipCode":"5192214","prefectureKana":"ﾐｴｹﾝ","cityKana":"ﾀｷｸﾞﾝﾀｷﾁｮｳ","streetKana":"ｸﾙﾏｶﾞﾜ","prefecture":"三重県","city":"多気郡多気町","street":"車川"},{"zipCode":"5192187","prefectureKana":"ﾐｴｹﾝ","cityKana":"ﾀｷｸﾞﾝﾀｷﾁｮｳ","streetKana":"ｸﾜｶﾞﾀ","prefecture":"三重県","city":"多気郡多気町","street":"鍬形"},{"zipCode":"5192177","prefectureKana":"ﾐｴｹﾝ","cityKana":"ﾀｷｸﾞﾝﾀｷﾁｮｳ","streetKana":"ｺｳｻﾞｶ","prefecture":"三重県","city":"多気郡多気町","street":"神坂"},{"zipCode":"5192153","prefectureKana":"ﾐｴｹﾝ","cityKana":"ﾀｷｸﾞﾝﾀｷﾁｮｳ","streetKana":"ｺｳﾀﾞ","prefecture":"三重県","city":"多気郡多気町","street":"河田"},{"zipCode":"5192174","prefectureKana":"ﾐｴｹﾝ","cityKana":"ﾀｷｸﾞﾝﾀｷﾁｮｳ","streetKana":"ｺﾞｶﾂﾗ","prefecture":"三重県","city":"多気郡多気町","street":"五桂"},{"zipCode":"5192157","prefectureKana":"ﾐｴｹﾝ","cityKana":"ﾀｷｸﾞﾝﾀｷﾁｮｳ","streetKana":"ｺﾞｻﾅ","prefecture":"三重県","city":"多気郡多気町","street":"五佐奈"},{"zipCode":"5192185","prefectureKana":"ﾐｴｹﾝ","cityKana":"ﾀｷｸﾞﾝﾀｷﾁｮｳ","streetKana":"ｻｴｷﾅｶ","prefecture":"三重県","city":"多気郡多気町","street":"佐伯中"},{"zipCode":"5192184","prefectureKana":"ﾐｴｹﾝ","cityKana":"ﾀｷｸﾞﾝﾀｷﾁｮｳ","streetKana":"ｻﾝﾋﾞｷﾀﾞ","prefecture":"三重県","city":"多気郡多気町","street":"三疋田"},{"zipCode":"5192212","prefectureKana":"ﾐｴｹﾝ","cityKana":"ﾀｷｸﾞﾝﾀｷﾁｮｳ","streetKana":"ｼｷﾌﾄ","prefecture":"三重県","city":"多気郡多気町","street":"色太"},{"zipCode":"5192172","prefectureKana":"ﾐｴｹﾝ","cityKana":"ﾀｷｸﾞﾝﾀｷﾁｮｳ","streetKana":"ｼｺｳﾀﾞ","prefecture":"三重県","city":"多気郡多気町","street":"四神田"},{"zipCode":"5192183","prefectureKana":"ﾐｴｹﾝ","cityKana":"ﾀｷｸﾞﾝﾀｷﾁｮｳ","streetKana":"ｼﾋｷﾀﾞ","prefecture":"三重県","city":"多気郡多気町","street":"四疋田"},{"zipCode":"5192202","prefectureKana":"ﾐｴｹﾝ","cityKana":"ﾀｷｸﾞﾝﾀｷﾁｮｳ","streetKana":"ｼﾓｲｽﾞｴ","prefecture":"三重県","city":"多気郡多気町","street":"下出江"},{"zipCode":"5192154","prefectureKana":"ﾐｴｹﾝ","cityKana":"ﾀｷｸﾞﾝﾀｷﾁｮｳ","streetKana":"ﾀｷ","prefecture":"三重県","city":"多気郡多気町","street":"多気"},{"zipCode":"5192165","prefectureKana":"ﾐｴｹﾝ","cityKana":"ﾀｷｸﾞﾝﾀｷﾁｮｳ","streetKana":"ﾀﾅｶ","prefecture":"三重県","city":"多気郡多気町","street":"田中"},{"zipCode":"5192213","prefectureKana":"ﾐｴｹﾝ","cityKana":"ﾀｷｸﾞﾝﾀｷﾁｮｳ","streetKana":"ﾂﾁﾔ","prefecture":"三重県","city":"多気郡多気町","street":"土屋"},{"zipCode":"5192189","prefectureKana":"ﾐｴｹﾝ","cityKana":"ﾀｷｸﾞﾝﾀｷﾁｮｳ","streetKana":"ﾂﾙ","prefecture":"三重県","city":"多気郡多気町","street":"津留"},{"zipCode":"5192161","prefectureKana":"ﾐｴｹﾝ","cityKana":"ﾀｷｸﾞﾝﾀｷﾁｮｳ","streetKana":"ﾄﾊﾞ","prefecture":"三重県","city":"多気郡多気町","street":"土羽"},{"zipCode":"5192211","prefectureKana":"ﾐｴｹﾝ","cityKana":"ﾀｷｸﾞﾝﾀｷﾁｮｳ","streetKana":"ﾆｳ","prefecture":"三重県","city":"多気郡多気町","street":"丹生"},{"zipCode":"5192156","prefectureKana":"ﾐｴｹﾝ","cityKana":"ﾀｷｸﾞﾝﾀｷﾁｮｳ","streetKana":"ﾆｼｲｹﾍﾞ","prefecture":"三重県","city":"多気郡多気町","street":"西池上"},{"zipCode":"5192171","prefectureKana":"ﾐｴｹﾝ","cityKana":"ﾀｷｸﾞﾝﾀｷﾁｮｳ","streetKana":"ﾆｼﾔﾏ","prefecture":"三重県","city":"多気郡多気町","street":"西山"},{"zipCode":"5192179","prefectureKana":"ﾐｴｹﾝ","cityKana":"ﾀｷｸﾞﾝﾀｷﾁｮｳ","streetKana":"ﾆﾀ","prefecture":"三重県","city":"多気郡多気町","street":"仁田"},{"zipCode":"5192166","prefectureKana":"ﾐｴｹﾝ","cityKana":"ﾀｷｸﾞﾝﾀｷﾁｮｳ","streetKana":"ﾉﾅｶ","prefecture":"三重県","city":"多気郡多気町","street":"野中"},{"zipCode":"5192176","prefectureKana":"ﾐｴｹﾝ","cityKana":"ﾀｷｸﾞﾝﾀｷﾁｮｳ","streetKana":"ﾊｾ","prefecture":"三重県","city":"多気郡多気町","street":"長谷"},{"zipCode":"5192204","prefectureKana":"ﾐｴｹﾝ","cityKana":"ﾀｷｸﾞﾝﾀｷﾁｮｳ","streetKana":"ﾊﾀｾ","prefecture":"三重県","city":"多気郡多気町","street":"波多瀬"},{"zipCode":"5192155","prefectureKana":"ﾐｴｹﾝ","cityKana":"ﾀｷｸﾞﾝﾀｷﾁｮｳ","streetKana":"ﾋｶﾞｼｲｹﾍﾞ","prefecture":"三重県","city":"多気郡多気町","street":"東池上"},{"zipCode":"5192170","prefectureKana":"ﾐｴｹﾝ","cityKana":"ﾀｷｸﾞﾝﾀｷﾁｮｳ","streetKana":"ｳﾞｨｿﾝ","prefecture":"三重県","city":"多気郡多気町","street":"ヴィソン"},{"zipCode":"5192178","prefectureKana":"ﾐｴｹﾝ","cityKana":"ﾀｷｸﾞﾝﾀｷﾁｮｳ","streetKana":"ﾋﾗﾀﾞﾆ","prefecture":"三重県","city":"多気郡多気町","street":"平谷"},{"zipCode":"5192216","prefectureKana":"ﾐｴｹﾝ","cityKana":"ﾀｷｸﾞﾝﾀｷﾁｮｳ","streetKana":"ﾌﾙｴ","prefecture":"三重県","city":"多気郡多気町","street":"古江"},{"zipCode":"5192175","prefectureKana":"ﾐｴｹﾝ","cityKana":"ﾀｷｸﾞﾝﾀｷﾁｮｳ","streetKana":"ﾏｴﾑﾗ","prefecture":"三重県","city":"多気郡多気町","street":"前村"},{"zipCode":"5192188","prefectureKana":"ﾐｴｹﾝ","cityKana":"ﾀｷｸﾞﾝﾀｷﾁｮｳ","streetKana":"ﾏｷ","prefecture":"三重県","city":"多気郡多気町","street":"牧"},{"zipCode":"5192164","prefectureKana":"ﾐｴｹﾝ","cityKana":"ﾀｷｸﾞﾝﾀｷﾁｮｳ","streetKana":"ﾓﾘｼｮｳ","prefecture":"三重県","city":"多気郡多気町","street":"森荘"},{"zipCode":"5192163","prefectureKana":"ﾐｴｹﾝ","cityKana":"ﾀｷｸﾞﾝﾀｷﾁｮｳ","streetKana":"ﾔﾀ","prefecture":"三重県","city":"多気郡多気町","street":"矢田"},{"zipCode":"5192173","prefectureKana":"ﾐｴｹﾝ","cityKana":"ﾀｷｸﾞﾝﾀｷﾁｮｳ","streetKana":"ﾕﾌﾞ","prefecture":"三重県","city":"多気郡多気町","street":"油夫"},{"zipCode":"5192400","prefectureKana":"ﾐｴｹﾝ","cityKana":"ﾀｷｸﾞﾝｵｵﾀﾞｲﾁｮｳ","streetKana":"ｲｶﾆｹｲｻｲｶﾞﾅｲﾊﾞｱｲ","prefecture":"三重県","city":"多気郡大台町","street":"以下に掲載がない場合"},{"zipCode":"5192428","prefectureKana":"ﾐｴｹﾝ","cityKana":"ﾀｷｸﾞﾝｵｵﾀﾞｲﾁｮｳ","streetKana":"ｱｵ","prefecture":"三重県","city":"多気郡大台町","street":"粟生"},{"zipCode":"5192506","prefectureKana":"ﾐｴｹﾝ","cityKana":"ﾀｷｸﾞﾝｵｵﾀﾞｲﾁｮｳ","streetKana":"ｱﾏｶﾞｾ","prefecture":"三重県","city":"多気郡大台町","street":"天ケ瀬"},{"zipCode":"5192631","prefectureKana":"ﾐｴｹﾝ","cityKana":"ﾀｷｸﾞﾝｵｵﾀﾞｲﾁｮｳ","streetKana":"ｲﾜｲ","prefecture":"三重県","city":"多気郡大台町","street":"岩井"},{"zipCode":"5192505","prefectureKana":"ﾐｴｹﾝ","cityKana":"ﾀｷｸﾞﾝｵｵﾀﾞｲﾁｮｳ","streetKana":"ｴﾏ","prefecture":"三重県","city":"多気郡大台町","street":"江馬"},{"zipCode":"5192518","prefectureKana":"ﾐｴｹﾝ","cityKana":"ﾀｷｸﾞﾝｵｵﾀﾞｲﾁｮｳ","streetKana":"ｵｵｲ","prefecture":"三重県","city":"多気郡大台町","street":"大井"},{"zipCode":"5192413","prefectureKana":"ﾐｴｹﾝ","cityKana":"ﾀｷｸﾞﾝｵｵﾀﾞｲﾁｮｳ","streetKana":"ｵｵｶﾞｼｮ","prefecture":"三重県","city":"多気郡大台町","street":"大ケ所"},{"zipCode":"5192634","prefectureKana":"ﾐｴｹﾝ","cityKana":"ﾀｷｸﾞﾝｵｵﾀﾞｲﾁｮｳ","streetKana":"ｵｵｽｷﾞ","prefecture":"三重県","city":"多気郡大台町","street":"大杉"},{"zipCode":"5192522","prefectureKana":"ﾐｴｹﾝ","cityKana":"ﾀｷｸﾞﾝｵｵﾀﾞｲﾁｮｳ","streetKana":"ｵﾑﾅｷﾞ","prefecture":"三重県","city":"多気郡大台町","street":"御棟"},{"zipCode":"5192427","prefectureKana":"ﾐｴｹﾝ","cityKana":"ﾀｷｸﾞﾝｵｵﾀﾞｲﾁｮｳ","streetKana":"ｶﾐｸｽ","prefecture":"三重県","city":"多気郡大台町","street":"上楠"},{"zipCode":"5192411","prefectureKana":"ﾐｴｹﾝ","cityKana":"ﾀｷｸﾞﾝｵｵﾀﾞｲﾁｮｳ","streetKana":"ｶﾐｽｶﾞ","prefecture":"三重県","city":"多気郡大台町","street":"上菅"},{"zipCode":"5192425","prefectureKana":"ﾐｴｹﾝ","cityKana":"ﾀｷｸﾞﾝｵｵﾀﾞｲﾁｮｳ","streetKana":"ｶﾐｾﾞ","prefecture":"三重県","city":"多気郡大台町","street":"神瀬"},{"zipCode":"5192502","prefectureKana":"ﾐｴｹﾝ","cityKana":"ﾀｷｸﾞﾝｵｵﾀﾞｲﾁｮｳ","streetKana":"ｶﾐﾏﾃ","prefecture":"三重県","city":"多気郡大台町","street":"上真手"},{"zipCode":"5192403","prefectureKana":"ﾐｴｹﾝ","cityKana":"ﾀｷｸﾞﾝｵｵﾀﾞｲﾁｮｳ","streetKana":"ｶﾐﾐｾ","prefecture":"三重県","city":"多気郡大台町","street":"上三瀬"},{"zipCode":"5192516","prefectureKana":"ﾐｴｹﾝ","cityKana":"ﾀｷｸﾞﾝｵｵﾀﾞｲﾁｮｳ","streetKana":"ｶﾗﾄ","prefecture":"三重県","city":"多気郡大台町","street":"唐櫃"},{"zipCode":"5192412","prefectureKana":"ﾐｴｹﾝ","cityKana":"ﾀｷｸﾞﾝｵｵﾀﾞｲﾁｮｳ","streetKana":"ｶﾜｲ","prefecture":"三重県","city":"多気郡大台町","street":"川合"},{"zipCode":"5192632","prefectureKana":"ﾐｴｹﾝ","cityKana":"ﾀｷｸﾞﾝｵｵﾀﾞｲﾁｮｳ","streetKana":"ｷｿﾊﾗ","prefecture":"三重県","city":"多気郡大台町","street":"桧原"},{"zipCode":"5192512","prefectureKana":"ﾐｴｹﾝ","cityKana":"ﾀｷｸﾞﾝｵｵﾀﾞｲﾁｮｳ","streetKana":"ｷﾖﾀｷ","prefecture":"三重県","city":"多気郡大台町","street":"清滝"},{"zipCode":"5192633","prefectureKana":"ﾐｴｹﾝ","cityKana":"ﾀｷｸﾞﾝｵｵﾀﾞｲﾁｮｳ","streetKana":"ｸｽﾞ","prefecture":"三重県","city":"多気郡大台町","street":"久豆"},{"zipCode":"5192515","prefectureKana":"ﾐｴｹﾝ","cityKana":"ﾀｷｸﾞﾝｵｵﾀﾞｲﾁｮｳ","streetKana":"ｸﾓﾁ","prefecture":"三重県","city":"多気郡大台町","street":"熊内"},{"zipCode":"5192507","prefectureKana":"ﾐｴｹﾝ","cityKana":"ﾀｷｸﾞﾝｵｵﾀﾞｲﾁｮｳ","streetKana":"ｸﾘﾀﾞﾆ","prefecture":"三重県","city":"多気郡大台町","street":"栗谷"},{"zipCode":"5192524","prefectureKana":"ﾐｴｹﾝ","cityKana":"ﾀｷｸﾞﾝｵｵﾀﾞｲﾁｮｳ","streetKana":"ｺｳﾀｷ","prefecture":"三重県","city":"多気郡大台町","street":"神滝"},{"zipCode":"5192504","prefectureKana":"ﾐｴｹﾝ","cityKana":"ﾀｷｸﾞﾝｵｵﾀﾞｲﾁｮｳ","streetKana":"ｺｷﾞﾘﾊﾀ","prefecture":"三重県","city":"多気郡大台町","street":"小切畑"},{"zipCode":"5192523","prefectureKana":"ﾐｴｹﾝ","cityKana":"ﾀｷｸﾞﾝｵｵﾀﾞｲﾁｮｳ","streetKana":"ｺﾀｷ","prefecture":"三重県","city":"多気郡大台町","street":"小滝"},{"zipCode":"5192404","prefectureKana":"ﾐｴｹﾝ","cityKana":"ﾀｷｸﾞﾝｵｵﾀﾞｲﾁｮｳ","streetKana":"ｻﾜﾗ","prefecture":"三重県","city":"多気郡大台町","street":"佐原"},{"zipCode":"5192426","prefectureKana":"ﾐｴｹﾝ","cityKana":"ﾀｷｸﾞﾝｵｵﾀﾞｲﾁｮｳ","streetKana":"ｼﾓｸｽ","prefecture":"三重県","city":"多気郡大台町","street":"下楠"},{"zipCode":"5192412","prefectureKana":"ﾐｴｹﾝ","cityKana":"ﾀｷｸﾞﾝｵｵﾀﾞｲﾁｮｳ","streetKana":"ｼﾓｽｶﾞ","prefecture":"三重県","city":"多気郡大台町","street":"下菅"},{"zipCode":"5192501","prefectureKana":"ﾐｴｹﾝ","cityKana":"ﾀｷｸﾞﾝｵｵﾀﾞｲﾁｮｳ","streetKana":"ｼﾓﾏﾃ","prefecture":"三重県","city":"多気郡大台町","street":"下真手"},{"zipCode":"5192402","prefectureKana":"ﾐｴｹﾝ","cityKana":"ﾀｷｸﾞﾝｵｵﾀﾞｲﾁｮｳ","streetKana":"ｼﾓﾐｾ","prefecture":"三重県","city":"多気郡大台町","street":"下三瀬"},{"zipCode":"5192423","prefectureKana":"ﾐｴｹﾝ","cityKana":"ﾀｷｸﾞﾝｵｵﾀﾞｲﾁｮｳ","streetKana":"ｼﾝﾃﾞﾝ","prefecture":"三重県","city":"多気郡大台町","street":"新田"},{"zipCode":"5192412","prefectureKana":"ﾐｴｹﾝ","cityKana":"ﾀｷｸﾞﾝｵｵﾀﾞｲﾁｮｳ","streetKana":"ｽｶﾞｱｲ","prefecture":"三重県","city":"多気郡大台町","street":"菅合"},{"zipCode":"5192511","prefectureKana":"ﾐｴｹﾝ","cityKana":"ﾀｷｸﾞﾝｵｵﾀﾞｲﾁｮｳ","streetKana":"ｽｶﾞｺﾞﾔ","prefecture":"三重県","city":"多気郡大台町","street":"菅木屋"},{"zipCode":"5192421","prefectureKana":"ﾐｴｹﾝ","cityKana":"ﾀｷｸﾞﾝｵｵﾀﾞｲﾁｮｳ","streetKana":"ｾﾝﾀﾞｲ","prefecture":"三重県","city":"多気郡大台町","street":"千代"},{"zipCode":"5192513","prefectureKana":"ﾐｴｹﾝ","cityKana":"ﾀｷｸﾞﾝｵｵﾀﾞｲﾁｮｳ","streetKana":"ｿﾉ","prefecture":"三重県","city":"多気郡大台町","street":"薗"},{"zipCode":"5192429","prefectureKana":"ﾐｴｹﾝ","cityKana":"ﾀｷｸﾞﾝｵｵﾀﾞｲﾁｮｳ","streetKana":"ﾀｶﾅ","prefecture":"三重県","city":"多気郡大台町","street":"高奈"},{"zipCode":"5192412","prefectureKana":"ﾐｴｹﾝ","cityKana":"ﾀｷｸﾞﾝｵｵﾀﾞｲﾁｮｳ","streetKana":"ﾀｷﾋﾛ","prefecture":"三重県","city":"多気郡大台町","street":"滝広"},{"zipCode":"5192525","prefectureKana":"ﾐｴｹﾝ","cityKana":"ﾀｷｸﾞﾝｵｵﾀﾞｲﾁｮｳ","streetKana":"ﾀｷﾔ","prefecture":"三重県","city":"多気郡大台町","street":"滝谷"},{"zipCode":"5192424","prefectureKana":"ﾐｴｹﾝ","cityKana":"ﾀｷｸﾞﾝｵｵﾀﾞｲﾁｮｳ","streetKana":"ﾄﾁﾊﾗ","prefecture":"三重県","city":"多気郡大台町","street":"栃原"},{"zipCode":"5192401","prefectureKana":"ﾐｴｹﾝ","cityKana":"ﾀｷｸﾞﾝｵｵﾀﾞｲﾁｮｳ","streetKana":"ﾅｶﾞ","prefecture":"三重県","city":"多気郡大台町","street":"長ケ"},{"zipCode":"5192503","prefectureKana":"ﾐｴｹﾝ","cityKana":"ﾀｷｸﾞﾝｵｵﾀﾞｲﾁｮｳ","streetKana":"ﾎﾝﾀﾞｺﾞﾔ","prefecture":"三重県","city":"多気郡大台町","street":"本田木屋"},{"zipCode":"5192517","prefectureKana":"ﾐｴｹﾝ","cityKana":"ﾀｷｸﾞﾝｵｵﾀﾞｲﾁｮｳ","streetKana":"ﾐﾅﾐ","prefecture":"三重県","city":"多気郡大台町","street":"南"},{"zipCode":"5192521","prefectureKana":"ﾐｴｹﾝ","cityKana":"ﾀｷｸﾞﾝｵｵﾀﾞｲﾁｮｳ","streetKana":"ﾐｮｳｽﾞ","prefecture":"三重県","city":"多気郡大台町","street":"明豆"},{"zipCode":"5192514","prefectureKana":"ﾐｴｹﾝ","cityKana":"ﾀｷｸﾞﾝｵｵﾀﾞｲﾁｮｳ","streetKana":"ﾓﾊﾞﾗ","prefecture":"三重県","city":"多気郡大台町","street":"茂原"},{"zipCode":"5192405","prefectureKana":"ﾐｴｹﾝ","cityKana":"ﾀｷｸﾞﾝｵｵﾀﾞｲﾁｮｳ","streetKana":"ﾔｷｲ","prefecture":"三重県","city":"多気郡大台町","street":"弥起井"},{"zipCode":"5192422","prefectureKana":"ﾐｴｹﾝ","cityKana":"ﾀｷｸﾞﾝｵｵﾀﾞｲﾁｮｳ","streetKana":"ﾔﾅｷﾞﾊﾗ","prefecture":"三重県","city":"多気郡大台町","street":"柳原"},{"zipCode":"5190400","prefectureKana":"ﾐｴｹﾝ","cityKana":"ﾜﾀﾗｲｸﾞﾝﾀﾏｷﾁｮｳ","streetKana":"ｲｶﾆｹｲｻｲｶﾞﾅｲﾊﾞｱｲ","prefecture":"三重県","city":"度会郡玉城町","street":"以下に掲載がない場合"},{"zipCode":"5190403","prefectureKana":"ﾐｴｹﾝ","cityKana":"ﾜﾀﾗｲｸﾞﾝﾀﾏｷﾁｮｳ","streetKana":"ｲｸﾞﾗ","prefecture":"三重県","city":"度会郡玉城町","street":"井倉"},{"zipCode":"5190425","prefectureKana":"ﾐｴｹﾝ","cityKana":"ﾜﾀﾗｲｸﾞﾝﾀﾏｷﾁｮｳ","streetKana":"ｲﾜﾃﾞ","prefecture":"三重県","city":"度会郡玉城町","street":"岩出"},{"zipCode":"5190428","prefectureKana":"ﾐｴｹﾝ","cityKana":"ﾜﾀﾗｲｸﾞﾝﾀﾏｷﾁｮｳ","streetKana":"ｵｶﾃﾞ","prefecture":"三重県","city":"度会郡玉城町","street":"岡出"},{"zipCode":"5190406","prefectureKana":"ﾐｴｹﾝ","cityKana":"ﾜﾀﾗｲｸﾞﾝﾀﾏｷﾁｮｳ","streetKana":"ｵｶﾑﾗ","prefecture":"三重県","city":"度会郡玉城町","street":"岡村"},{"zipCode":"5190422","prefectureKana":"ﾐｴｹﾝ","cityKana":"ﾜﾀﾗｲｸﾞﾝﾀﾏｷﾁｮｳ","streetKana":"ｵｺﾞｿｿﾈ","prefecture":"三重県","city":"度会郡玉城町","street":"小社曽根"},{"zipCode":"5190433","prefectureKana":"ﾐｴｹﾝ","cityKana":"ﾜﾀﾗｲｸﾞﾝﾀﾏｷﾁｮｳ","streetKana":"ｶﾂﾀ","prefecture":"三重県","city":"度会郡玉城町","street":"勝田"},{"zipCode":"5190431","prefectureKana":"ﾐｴｹﾝ","cityKana":"ﾜﾀﾗｲｸﾞﾝﾀﾏｷﾁｮｳ","streetKana":"ｶﾉ","prefecture":"三重県","city":"度会郡玉城町","street":"蚊野"},{"zipCode":"5190417","prefectureKana":"ﾐｴｹﾝ","cityKana":"ﾜﾀﾗｲｸﾞﾝﾀﾏｷﾁｮｳ","streetKana":"ｶﾐﾀﾇｲ","prefecture":"三重県","city":"度会郡玉城町","street":"上田辺"},{"zipCode":"5190411","prefectureKana":"ﾐｴｹﾝ","cityKana":"ﾜﾀﾗｲｸﾞﾝﾀﾏｷﾁｮｳ","streetKana":"ｸﾎﾞ","prefecture":"三重県","city":"度会郡玉城町","street":"久保"},{"zipCode":"5190408","prefectureKana":"ﾐｴｹﾝ","cityKana":"ﾜﾀﾗｲｸﾞﾝﾀﾏｷﾁｮｳ","streetKana":"ｻｶﾓﾄ","prefecture":"三重県","city":"度会郡玉城町","street":"坂本"},{"zipCode":"5190414","prefectureKana":"ﾐｴｹﾝ","cityKana":"ﾜﾀﾗｲｸﾞﾝﾀﾏｷﾁｮｳ","streetKana":"ｻﾀ","prefecture":"三重県","city":"度会郡玉城町","street":"佐田"},{"zipCode":"5190416","prefectureKana":"ﾐｴｹﾝ","cityKana":"ﾜﾀﾗｲｸﾞﾝﾀﾏｷﾁｮｳ","streetKana":"ｼﾓﾀﾇｲ","prefecture":"三重県","city":"度会郡玉城町","street":"下田辺"},{"zipCode":"5190401","prefectureKana":"ﾐｴｹﾝ","cityKana":"ﾜﾀﾗｲｸﾞﾝﾀﾏｷﾁｮｳ","streetKana":"ｾｺ","prefecture":"三重県","city":"度会郡玉城町","street":"世古"},{"zipCode":"5190407","prefectureKana":"ﾐｴｹﾝ","cityKana":"ﾜﾀﾗｲｸﾞﾝﾀﾏｷﾁｮｳ","streetKana":"ﾀﾏｶﾞﾜ","prefecture":"三重県","city":"度会郡玉城町","street":"玉川"},{"zipCode":"5190415","prefectureKana":"ﾐｴｹﾝ","cityKana":"ﾜﾀﾗｲｸﾞﾝﾀﾏｷﾁｮｳ","streetKana":"ﾀﾏﾙ","prefecture":"三重県","city":"度会郡玉城町","street":"田丸"},{"zipCode":"5190434","prefectureKana":"ﾐｴｹﾝ","cityKana":"ﾜﾀﾗｲｸﾞﾝﾀﾏｷﾁｮｳ","streetKana":"ﾀﾐﾔｼﾞ","prefecture":"三重県","city":"度会郡玉城町","street":"田宮寺"},{"zipCode":"5190412","prefectureKana":"ﾐｴｹﾝ","cityKana":"ﾜﾀﾗｲｸﾞﾝﾀﾏｷﾁｮｳ","streetKana":"ﾁｭｳﾗｸ","prefecture":"三重県","city":"度会郡玉城町","street":"中楽"},{"zipCode":"5190437","prefectureKana":"ﾐｴｹﾝ","cityKana":"ﾜﾀﾗｲｸﾞﾝﾀﾏｷﾁｮｳ","streetKana":"ﾂﾑﾛ","prefecture":"三重県","city":"度会郡玉城町","street":"積良"},{"zipCode":"5190421","prefectureKana":"ﾐｴｹﾝ","cityKana":"ﾜﾀﾗｲｸﾞﾝﾀﾏｷﾁｮｳ","streetKana":"ﾄﾐｵｶ","prefecture":"三重県","city":"度会郡玉城町","street":"冨岡"},{"zipCode":"5190426","prefectureKana":"ﾐｴｹﾝ","cityKana":"ﾜﾀﾗｲｸﾞﾝﾀﾏｷﾁｮｳ","streetKana":"ﾅｶﾂﾉ","prefecture":"三重県","city":"度会郡玉城町","street":"中角"},{"zipCode":"5190404","prefectureKana":"ﾐｴｹﾝ","cityKana":"ﾜﾀﾗｲｸﾞﾝﾀﾏｷﾁｮｳ","streetKana":"ﾅｶﾞﾌｹ","prefecture":"三重県","city":"度会郡玉城町","street":"長更"},{"zipCode":"5190432","prefectureKana":"ﾐｴｹﾝ","cityKana":"ﾜﾀﾗｲｸﾞﾝﾀﾏｷﾁｮｳ","streetKana":"ﾉｼﾞﾉ","prefecture":"三重県","city":"度会郡玉城町","street":"野篠"},{"zipCode":"5190438","prefectureKana":"ﾐｴｹﾝ","cityKana":"ﾜﾀﾗｲｸﾞﾝﾀﾏｷﾁｮｳ","streetKana":"ﾊﾗ","prefecture":"三重県","city":"度会郡玉城町","street":"原"},{"zipCode":"5190405","prefectureKana":"ﾐｴｹﾝ","cityKana":"ﾜﾀﾗｲｸﾞﾝﾀﾏｷﾁｮｳ","streetKana":"ﾋｭｳｶﾞ","prefecture":"三重県","city":"度会郡玉城町","street":"日向"},{"zipCode":"5190423","prefectureKana":"ﾐｴｹﾝ","cityKana":"ﾜﾀﾗｲｸﾞﾝﾀﾏｷﾁｮｳ","streetKana":"ﾋﾙﾀﾞ","prefecture":"三重県","city":"度会郡玉城町","street":"昼田"},{"zipCode":"5190427","prefectureKana":"ﾐｴｹﾝ","cityKana":"ﾜﾀﾗｲｸﾞﾝﾀﾏｷﾁｮｳ","streetKana":"ﾐﾔｺ","prefecture":"三重県","city":"度会郡玉城町","street":"宮古"},{"zipCode":"5190413","prefectureKana":"ﾐｴｹﾝ","cityKana":"ﾜﾀﾗｲｸﾞﾝﾀﾏｷﾁｮｳ","streetKana":"ﾐｮｳﾎｳｼﾞ","prefecture":"三重県","city":"度会郡玉城町","street":"妙法寺"},{"zipCode":"5190402","prefectureKana":"ﾐｴｹﾝ","cityKana":"ﾜﾀﾗｲｸﾞﾝﾀﾏｷﾁｮｳ","streetKana":"ﾓﾝｾﾞﾝ","prefecture":"三重県","city":"度会郡玉城町","street":"門前"},{"zipCode":"5190435","prefectureKana":"ﾐｴｹﾝ","cityKana":"ﾜﾀﾗｲｸﾞﾝﾀﾏｷﾁｮｳ","streetKana":"ﾔﾉ","prefecture":"三重県","city":"度会郡玉城町","street":"矢野"},{"zipCode":"5190424","prefectureKana":"ﾐｴｹﾝ","cityKana":"ﾜﾀﾗｲｸﾞﾝﾀﾏｷﾁｮｳ","streetKana":"ﾔﾏｵｶ","prefecture":"三重県","city":"度会郡玉城町","street":"山岡"},{"zipCode":"5190436","prefectureKana":"ﾐｴｹﾝ","cityKana":"ﾜﾀﾗｲｸﾞﾝﾀﾏｷﾁｮｳ","streetKana":"ﾔﾏｶﾐ","prefecture":"三重県","city":"度会郡玉城町","street":"山神"},{"zipCode":"5192700","prefectureKana":"ﾐｴｹﾝ","cityKana":"ﾜﾀﾗｲｸﾞﾝﾀｲｷﾁｮｳ","streetKana":"ｲｶﾆｹｲｻｲｶﾞﾅｲﾊﾞｱｲ","prefecture":"三重県","city":"度会郡大紀町","street":"以下に掲載がない場合"},{"zipCode":"5192704","prefectureKana":"ﾐｴｹﾝ","cityKana":"ﾜﾀﾗｲｸﾞﾝﾀｲｷﾁｮｳ","streetKana":"ｱｿ","prefecture":"三重県","city":"度会郡大紀町","street":"阿曽"},{"zipCode":"5192736","prefectureKana":"ﾐｴｹﾝ","cityKana":"ﾜﾀﾗｲｸﾞﾝﾀｲｷﾁｮｳ","streetKana":"ｳﾁﾐ","prefecture":"三重県","city":"度会郡大紀町","street":"打見"},{"zipCode":"5192734","prefectureKana":"ﾐｴｹﾝ","cityKana":"ﾜﾀﾗｲｸﾞﾝﾀｲｷﾁｮｳ","streetKana":"ｴｲｶｲ","prefecture":"三重県","city":"度会郡大紀町","street":"永会"},{"zipCode":"5193111","prefectureKana":"ﾐｴｹﾝ","cityKana":"ﾜﾀﾗｲｸﾞﾝﾀｲｷﾁｮｳ","streetKana":"ｵｵｳﾁﾔﾏ","prefecture":"三重県","city":"度会郡大紀町","street":"大内山"},{"zipCode":"5192801","prefectureKana":"ﾐｴｹﾝ","cityKana":"ﾜﾀﾗｲｸﾞﾝﾀｲｷﾁｮｳ","streetKana":"ｶｼﾜﾉ","prefecture":"三重県","city":"度会郡大紀町","street":"柏野"},{"zipCode":"5192733","prefectureKana":"ﾐｴｹﾝ","cityKana":"ﾜﾀﾗｲｸﾞﾝﾀｲｷﾁｮｳ","streetKana":"ｶﾅﾜ","prefecture":"三重県","city":"度会郡大紀町","street":"金輪"},{"zipCode":"5192735","prefectureKana":"ﾐｴｹﾝ","cityKana":"ﾜﾀﾗｲｸﾞﾝﾀｲｷﾁｮｳ","streetKana":"ｺﾉﾊﾗ","prefecture":"三重県","city":"度会郡大紀町","street":"神原"},{"zipCode":"5192802","prefectureKana":"ﾐｴｹﾝ","cityKana":"ﾜﾀﾗｲｸﾞﾝﾀｲｷﾁｮｳ","streetKana":"ｻｷ","prefecture":"三重県","city":"度会郡大紀町","street":"崎"},{"zipCode":"5192703","prefectureKana":"ﾐｴｹﾝ","cityKana":"ﾜﾀﾗｲｸﾞﾝﾀｲｷﾁｮｳ","streetKana":"ﾀｷﾊﾗ","prefecture":"三重県","city":"度会郡大紀町","street":"滝原"},{"zipCode":"5192911","prefectureKana":"ﾐｴｹﾝ","cityKana":"ﾜﾀﾗｲｸﾞﾝﾀｲｷﾁｮｳ","streetKana":"ﾆｼｷ","prefecture":"三重県","city":"度会郡大紀町","street":"錦"},{"zipCode":"5192732","prefectureKana":"ﾐｴｹﾝ","cityKana":"ﾜﾀﾗｲｸﾞﾝﾀｲｷﾁｮｳ","streetKana":"ﾉｿﾞｴ","prefecture":"三重県","city":"度会郡大紀町","street":"野添"},{"zipCode":"5192731","prefectureKana":"ﾐｴｹﾝ","cityKana":"ﾜﾀﾗｲｸﾞﾝﾀｲｷﾁｮｳ","streetKana":"ﾉﾜﾗ","prefecture":"三重県","city":"度会郡大紀町","street":"野原"},{"zipCode":"5192701","prefectureKana":"ﾐｴｹﾝ","cityKana":"ﾜﾀﾗｲｸﾞﾝﾀｲｷﾁｮｳ","streetKana":"ﾌﾅｷ","prefecture":"三重県","city":"度会郡大紀町","street":"船木"},{"zipCode":"5192702","prefectureKana":"ﾐｴｹﾝ","cityKana":"ﾜﾀﾗｲｸﾞﾝﾀｲｷﾁｮｳ","streetKana":"ﾐｾｶﾞﾜ","prefecture":"三重県","city":"度会郡大紀町","street":"三瀬川"},{"zipCode":"5193400","prefectureKana":"ﾐｴｹﾝ","cityKana":"ｷﾀﾑﾛｸﾞﾝｷﾎｸﾁｮｳ","streetKana":"ｲｶﾆｹｲｻｲｶﾞﾅｲﾊﾞｱｲ","prefecture":"三重県","city":"北牟婁郡紀北町","street":"以下に掲載がない場合"},{"zipCode":"5193406","prefectureKana":"ﾐｴｹﾝ","cityKana":"ｷﾀﾑﾛｸﾞﾝｷﾎｸﾁｮｳ","streetKana":"ｱｲｶﾞ","prefecture":"三重県","city":"北牟婁郡紀北町","street":"相賀"},{"zipCode":"5193401","prefectureKana":"ﾐｴｹﾝ","cityKana":"ｷﾀﾑﾛｸﾞﾝｷﾎｸﾁｮｳ","streetKana":"ｳﾏｾﾞ","prefecture":"三重県","city":"北牟婁郡紀北町","street":"馬瀬"},{"zipCode":"5193414","prefectureKana":"ﾐｴｹﾝ","cityKana":"ｷﾀﾑﾛｸﾞﾝｷﾎｸﾁｮｳ","streetKana":"ｵｳﾗ","prefecture":"三重県","city":"北牟婁郡紀北町","street":"小浦"},{"zipCode":"5193202","prefectureKana":"ﾐｴｹﾝ","cityKana":"ｷﾀﾑﾛｸﾞﾝｷﾎｸﾁｮｳ","streetKana":"ｵｵﾊﾗ","prefecture":"三重県","city":"北牟婁郡紀北町","street":"大原"},{"zipCode":"5193407","prefectureKana":"ﾐｴｹﾝ","cityKana":"ｷﾀﾑﾛｸﾞﾝｷﾎｸﾁｮｳ","streetKana":"ｵﾔﾏｳﾗ","prefecture":"三重県","city":"北牟婁郡紀北町","street":"小山浦"},{"zipCode":"5193206","prefectureKana":"ﾐｴｹﾝ","cityKana":"ｷﾀﾑﾛｸﾞﾝｷﾎｸﾁｮｳ","streetKana":"ｶｲﾉ","prefecture":"三重県","city":"北牟婁郡紀北町","street":"海野"},{"zipCode":"5193403","prefectureKana":"ﾐｴｹﾝ","cityKana":"ｷﾀﾑﾛｸﾞﾝｷﾎｸﾁｮｳ","streetKana":"ｶﾐｻﾞﾄ","prefecture":"三重県","city":"北牟婁郡紀北町","street":"上里"},{"zipCode":"5193402","prefectureKana":"ﾐｴｹﾝ","cityKana":"ｷﾀﾑﾛｸﾞﾝｷﾎｸﾁｮｳ","streetKana":"ｺｳﾁ","prefecture":"三重県","city":"北牟婁郡紀北町","street":"河内"},{"zipCode":"5193412","prefectureKana":"ﾐｴｹﾝ","cityKana":"ｷﾀﾑﾛｸﾞﾝｷﾎｸﾁｮｳ","streetKana":"ｼﾏｶﾂｳﾗ","prefecture":"三重県","city":"北牟婁郡紀北町","street":"島勝浦"},{"zipCode":"5193203","prefectureKana":"ﾐｴｹﾝ","cityKana":"ｷﾀﾑﾛｸﾞﾝｷﾎｸﾁｮｳ","streetKana":"ｼﾏﾊﾞﾗ","prefecture":"三重県","city":"北牟婁郡紀北町","street":"島原"},{"zipCode":"5193201","prefectureKana":"ﾐｴｹﾝ","cityKana":"ｷﾀﾑﾛｸﾞﾝｷﾎｸﾁｮｳ","streetKana":"ｼﾞｭｳｽ","prefecture":"三重県","city":"北牟婁郡紀北町","street":"十須"},{"zipCode":"5193411","prefectureKana":"ﾐｴｹﾝ","cityKana":"ｷﾀﾑﾛｸﾞﾝｷﾎｸﾁｮｳ","streetKana":"ｼﾛｳﾗ","prefecture":"三重県","city":"北牟婁郡紀北町","street":"白浦"},{"zipCode":"5193207","prefectureKana":"ﾐｴｹﾝ","cityKana":"ｷﾀﾑﾛｸﾞﾝｷﾎｸﾁｮｳ","streetKana":"ﾄﾞｳｾﾞ","prefecture":"三重県","city":"北牟婁郡紀北町","street":"道瀬"},{"zipCode":"5193404","prefectureKana":"ﾐｴｹﾝ","cityKana":"ｷﾀﾑﾛｸﾞﾝｷﾎｸﾁｮｳ","streetKana":"ﾅｶｻﾞﾄ","prefecture":"三重県","city":"北牟婁郡紀北町","street":"中里"},{"zipCode":"5193205","prefectureKana":"ﾐｴｹﾝ","cityKana":"ｷﾀﾑﾛｸﾞﾝｷﾎｸﾁｮｳ","streetKana":"ﾅｶﾞｼﾏ","prefecture":"三重県","city":"北牟婁郡紀北町","street":"長島"},{"zipCode":"5193204","prefectureKana":"ﾐｴｹﾝ","cityKana":"ｷﾀﾑﾛｸﾞﾝｷﾎｸﾁｮｳ","streetKana":"ﾋｶﾞｼﾅｶﾞｼﾏ","prefecture":"三重県","city":"北牟婁郡紀北町","street":"東長島"},{"zipCode":"5193413","prefectureKana":"ﾐｴｹﾝ","cityKana":"ｷﾀﾑﾛｸﾞﾝｷﾎｸﾁｮｳ","streetKana":"ﾋｷﾓﾄｳﾗ","prefecture":"三重県","city":"北牟婁郡紀北町","street":"引本浦"},{"zipCode":"5193408","prefectureKana":"ﾐｴｹﾝ","cityKana":"ｷﾀﾑﾛｸﾞﾝｷﾎｸﾁｮｳ","streetKana":"ﾋﾞﾝﾉﾔﾏ","prefecture":"三重県","city":"北牟婁郡紀北町","street":"便ノ山"},{"zipCode":"5193405","prefectureKana":"ﾐｴｹﾝ","cityKana":"ｷﾀﾑﾛｸﾞﾝｷﾎｸﾁｮｳ","streetKana":"ﾌﾅﾂ","prefecture":"三重県","city":"北牟婁郡紀北町","street":"船津"},{"zipCode":"5193209","prefectureKana":"ﾐｴｹﾝ","cityKana":"ｷﾀﾑﾛｸﾞﾝｷﾎｸﾁｮｳ","streetKana":"ﾌﾙｻﾄ","prefecture":"三重県","city":"北牟婁郡紀北町","street":"古里"},{"zipCode":"5193208","prefectureKana":"ﾐｴｹﾝ","cityKana":"ｷﾀﾑﾛｸﾞﾝｷﾎｸﾁｮｳ","streetKana":"ﾐｳﾗ","prefecture":"三重県","city":"北牟婁郡紀北町","street":"三浦"},{"zipCode":"5193415","prefectureKana":"ﾐｴｹﾝ","cityKana":"ｷﾀﾑﾛｸﾞﾝｷﾎｸﾁｮｳ","streetKana":"ﾔｸﾞﾁｳﾗ","prefecture":"三重県","city":"北牟婁郡紀北町","street":"矢口浦"},{"zipCode":"5195200","prefectureKana":"ﾐｴｹﾝ","cityKana":"ﾐﾅﾐﾑﾛｸﾞﾝﾐﾊﾏﾁｮｳ","streetKana":"ｲｶﾆｹｲｻｲｶﾞﾅｲﾊﾞｱｲ","prefecture":"三重県","city":"南牟婁郡御浜町","street":"以下に掲載がない場合"},{"zipCode":"5195204","prefectureKana":"ﾐｴｹﾝ","cityKana":"ﾐﾅﾐﾑﾛｸﾞﾝﾐﾊﾏﾁｮｳ","streetKana":"ｱﾀﾜ","prefecture":"三重県","city":"南牟婁郡御浜町","street":"阿田和"},{"zipCode":"5195204","prefectureKana":"ﾐｴｹﾝ","cityKana":"ﾐﾅﾐﾑﾛｸﾞﾝﾐﾊﾏﾁｮｳ","streetKana":"ｱﾀﾜ(ﾋﾗﾐ)","prefecture":"三重県","city":"南牟婁郡御浜町","street":"阿田和（平見）"},{"zipCode":"5195322","prefectureKana":"ﾐｴｹﾝ","cityKana":"ﾐﾅﾐﾑﾛｸﾞﾝﾐﾊﾏﾁｮｳ","streetKana":"ｳﾜﾉ","prefecture":"三重県","city":"南牟婁郡御浜町","street":"上野"},{"zipCode":"5195206","prefectureKana":"ﾐｴｹﾝ","cityKana":"ﾐﾅﾐﾑﾛｸﾞﾝﾐﾊﾏﾁｮｳ","streetKana":"ｶｷﾊﾗ","prefecture":"三重県","city":"南牟婁郡御浜町","street":"柿原"},{"zipCode":"5195325","prefectureKana":"ﾐｴｹﾝ","cityKana":"ﾐﾅﾐﾑﾛｸﾞﾝﾐﾊﾏﾁｮｳ","streetKana":"ｶﾀｶﾜ","prefecture":"三重県","city":"南牟婁郡御浜町","street":"片川"},{"zipCode":"5195211","prefectureKana":"ﾐｴｹﾝ","cityKana":"ﾐﾅﾐﾑﾛｸﾞﾝﾐﾊﾏﾁｮｳ","streetKana":"ｶﾐｲﾁｷﾞ","prefecture":"三重県","city":"南牟婁郡御浜町","street":"上市木"},{"zipCode":"5195327","prefectureKana":"ﾐｴｹﾝ","cityKana":"ﾐﾅﾐﾑﾛｸﾞﾝﾐﾊﾏﾁｮｳ","streetKana":"ｶﾜｾ","prefecture":"三重県","city":"南牟婁郡御浜町","street":"川瀬"},{"zipCode":"5195326","prefectureKana":"ﾐｴｹﾝ","cityKana":"ﾐﾅﾐﾑﾛｸﾞﾝﾐﾊﾏﾁｮｳ","streetKana":"ｸﾙｽ","prefecture":"三重県","city":"南牟婁郡御浜町","street":"栗須"},{"zipCode":"5195201","prefectureKana":"ﾐｴｹﾝ","cityKana":"ﾐﾅﾐﾑﾛｸﾞﾝﾐﾊﾏﾁｮｳ","streetKana":"ｺｳﾉｷﾞ","prefecture":"三重県","city":"南牟婁郡御浜町","street":"神木"},{"zipCode":"5195321","prefectureKana":"ﾐｴｹﾝ","cityKana":"ﾐﾅﾐﾑﾛｸﾞﾝﾐﾊﾏﾁｮｳ","streetKana":"ｻｶﾓﾄ","prefecture":"三重県","city":"南牟婁郡御浜町","street":"阪本"},{"zipCode":"5195203","prefectureKana":"ﾐｴｹﾝ","cityKana":"ﾐﾅﾐﾑﾛｸﾞﾝﾐﾊﾏﾁｮｳ","streetKana":"ｼﾓｲﾁｷﾞ","prefecture":"三重県","city":"南牟婁郡御浜町","street":"下市木"},{"zipCode":"5195202","prefectureKana":"ﾐｴｹﾝ","cityKana":"ﾐﾅﾐﾑﾛｸﾞﾝﾐﾊﾏﾁｮｳ","streetKana":"ｼﾜﾗ","prefecture":"三重県","city":"南牟婁郡御浜町","street":"志原"},{"zipCode":"5195324","prefectureKana":"ﾐｴｹﾝ","cityKana":"ﾐﾅﾐﾑﾛｸﾞﾝﾐﾊﾏﾁｮｳ","streetKana":"ﾅｶﾀﾞﾁ","prefecture":"三重県","city":"南牟婁郡御浜町","street":"中立"},{"zipCode":"5195323","prefectureKana":"ﾐｴｹﾝ","cityKana":"ﾐﾅﾐﾑﾛｸﾞﾝﾐﾊﾏﾁｮｳ","streetKana":"ﾆｼﾉﾊﾗ","prefecture":"三重県","city":"南牟婁郡御浜町","street":"西原"},{"zipCode":"5195203","prefectureKana":"ﾐｴｹﾝ","cityKana":"ﾐﾅﾐﾑﾛｸﾞﾝﾐﾊﾏﾁｮｳ","streetKana":"ﾊｷﾞｳﾁ","prefecture":"三重県","city":"南牟婁郡御浜町","street":"萩内"},{"zipCode":"5195205","prefectureKana":"ﾐｴｹﾝ","cityKana":"ﾐﾅﾐﾑﾛｸﾞﾝﾐﾊﾏﾁｮｳ","streetKana":"ﾋｷﾂｸﾘ","prefecture":"三重県","city":"南牟婁郡御浜町","street":"引作"},{"zipCode":"5195204","prefectureKana":"ﾐｴｹﾝ","cityKana":"ﾐﾅﾐﾑﾛｸﾞﾝﾐﾊﾏﾁｮｳ","streetKana":"ﾔﾏﾁﾞ","prefecture":"三重県","city":"南牟婁郡御浜町","street":"山地"},{"zipCode":"5195700","prefectureKana":"ﾐｴｹﾝ","cityKana":"ﾐﾅﾐﾑﾛｸﾞﾝｷﾎｳﾁｮｳ","streetKana":"ｲｶﾆｹｲｻｲｶﾞﾅｲﾊﾞｱｲ","prefecture":"三重県","city":"南牟婁郡紀宝町","street":"以下に掲載がない場合"},{"zipCode":"5195718","prefectureKana":"ﾐｴｹﾝ","cityKana":"ﾐﾅﾐﾑﾛｸﾞﾝｷﾎｳﾁｮｳ","streetKana":"ｱｻﾘ","prefecture":"三重県","city":"南牟婁郡紀宝町","street":"浅里"},{"zipCode":"5195711","prefectureKana":"ﾐｴｹﾝ","cityKana":"ﾐﾅﾐﾑﾛｸﾞﾝｷﾎｳﾁｮｳ","streetKana":"ｲﾀﾞ","prefecture":"三重県","city":"南牟婁郡紀宝町","street":"井田"},{"zipCode":"5195834","prefectureKana":"ﾐｴｹﾝ","cityKana":"ﾐﾅﾐﾑﾛｸﾞﾝｷﾎｳﾁｮｳ","streetKana":"ｲﾅｲ","prefecture":"三重県","city":"南牟婁郡紀宝町","street":"井内"},{"zipCode":"5195701","prefectureKana":"ﾐｴｹﾝ","cityKana":"ﾐﾅﾐﾑﾛｸﾞﾝｷﾎｳﾁｮｳ","streetKana":"ｳﾄﾞﾉ","prefecture":"三重県","city":"南牟婁郡紀宝町","street":"鵜殿"},{"zipCode":"5195835","prefectureKana":"ﾐｴｹﾝ","cityKana":"ﾐﾅﾐﾑﾛｸﾞﾝｷﾎｳﾁｮｳ","streetKana":"ｵｵｻﾞﾄ","prefecture":"三重県","city":"南牟婁郡紀宝町","street":"大里"},{"zipCode":"5195716","prefectureKana":"ﾐｴｹﾝ","cityKana":"ﾐﾅﾐﾑﾛｸﾞﾝｷﾎｳﾁｮｳ","streetKana":"ｷﾀﾋﾂﾞｴ","prefecture":"三重県","city":"南牟婁郡紀宝町","street":"北桧杖"},{"zipCode":"5195831","prefectureKana":"ﾐｴｹﾝ","cityKana":"ﾐﾅﾐﾑﾛｸﾞﾝｷﾎｳﾁｮｳ","streetKana":"ｷﾘﾊﾗ","prefecture":"三重県","city":"南牟婁郡紀宝町","street":"桐原"},{"zipCode":"5195712","prefectureKana":"ﾐｴｹﾝ","cityKana":"ﾐﾅﾐﾑﾛｸﾞﾝｷﾎｳﾁｮｳ","streetKana":"ｺｳﾉｳﾁ","prefecture":"三重県","city":"南牟婁郡紀宝町","street":"神内"},{"zipCode":"5195832","prefectureKana":"ﾐｴｹﾝ","cityKana":"ﾐﾅﾐﾑﾛｸﾞﾝｷﾎｳﾁｮｳ","streetKana":"ｻｶﾏﾂﾊﾞﾗ","prefecture":"三重県","city":"南牟婁郡紀宝町","street":"阪松原"},{"zipCode":"5195717","prefectureKana":"ﾐｴｹﾝ","cityKana":"ﾐﾅﾐﾑﾛｸﾞﾝｷﾎｳﾁｮｳ","streetKana":"ｾﾊﾞﾗ","prefecture":"三重県","city":"南牟婁郡紀宝町","street":"瀬原"},{"zipCode":"5195715","prefectureKana":"ﾐｴｹﾝ","cityKana":"ﾐﾅﾐﾑﾛｸﾞﾝｷﾎｳﾁｮｳ","streetKana":"ﾀｶｵｶ","prefecture":"三重県","city":"南牟婁郡紀宝町","street":"高岡"},{"zipCode":"5195713","prefectureKana":"ﾐｴｹﾝ","cityKana":"ﾐﾅﾐﾑﾛｸﾞﾝｷﾎｳﾁｮｳ","streetKana":"ﾅﾙｶﾜ","prefecture":"三重県","city":"南牟婁郡紀宝町","street":"成川"},{"zipCode":"5195833","prefectureKana":"ﾐｴｹﾝ","cityKana":"ﾐﾅﾐﾑﾛｸﾞﾝｷﾎｳﾁｮｳ","streetKana":"ﾋﾗｵｲ","prefecture":"三重県","city":"南牟婁郡紀宝町","street":"平尾井"},{"zipCode":"5195714","prefectureKana":"ﾐｴｹﾝ","cityKana":"ﾐﾅﾐﾑﾛｸﾞﾝｷﾎｳﾁｮｳ","streetKana":"ﾌﾅﾀﾞ","prefecture":"三重県","city":"南牟婁郡紀宝町","street":"鮒田"}]