[{"zipCode":"5220000","prefectureKana":"ｼｶﾞｹﾝ","cityKana":"ﾋｺﾈｼ","streetKana":"ｲｶﾆｹｲｻｲｶﾞﾅｲﾊﾞｱｲ","prefecture":"滋賀県","city":"彦根市","street":"以下に掲載がない場合"},{"zipCode":"5220073","prefectureKana":"ｼｶﾞｹﾝ","cityKana":"ﾋｺﾈｼ","streetKana":"ｱｻﾋﾏﾁ","prefecture":"滋賀県","city":"彦根市","street":"旭町"},{"zipCode":"5220065","prefectureKana":"ｼｶﾞｹﾝ","cityKana":"ﾋｺﾈｼ","streetKana":"ｲｹｽﾁｮｳ","prefecture":"滋賀県","city":"彦根市","street":"池州町"},{"zipCode":"5220236","prefectureKana":"ｼｶﾞｹﾝ","cityKana":"ﾋｺﾈｼ","streetKana":"ｲﾇｶﾀﾁｮｳ","prefecture":"滋賀県","city":"彦根市","street":"犬方町"},{"zipCode":"5220239","prefectureKana":"ｼｶﾞｹﾝ","cityKana":"ﾋｺﾈｼ","streetKana":"ｳｵﾁｮｳ(897ﾊﾞﾝﾁｵﾖﾋﾞﾅｶｼﾞﾏ505-518ﾊﾞﾝﾁ)","prefecture":"滋賀県","city":"彦根市","street":"宇尾町（８９７番地及び中島５０５～５１８番地）"},{"zipCode":"5220045","prefectureKana":"ｼｶﾞｹﾝ","cityKana":"ﾋｺﾈｼ","streetKana":"ｳｵﾁｮｳ(ｿﾉﾀ)","prefecture":"滋賀県","city":"彦根市","street":"宇尾町（その他）"},{"zipCode":"5220010","prefectureKana":"ｼｶﾞｹﾝ","cityKana":"ﾋｺﾈｼ","streetKana":"ｴｷﾋｶﾞｼﾁｮｳ","prefecture":"滋賀県","city":"彦根市","street":"駅東町"},{"zipCode":"5220034","prefectureKana":"ｼｶﾞｹﾝ","cityKana":"ﾋｺﾈｼ","streetKana":"ｵｵﾊｼﾏﾁ","prefecture":"滋賀県","city":"彦根市","street":"大橋町"},{"zipCode":"5220026","prefectureKana":"ｼｶﾞｹﾝ","cityKana":"ﾋｺﾈｼ","streetKana":"ｵｵﾎﾞﾘﾁｮｳ","prefecture":"滋賀県","city":"彦根市","street":"大堀町"},{"zipCode":"5220053","prefectureKana":"ｼｶﾞｹﾝ","cityKana":"ﾋｺﾈｼ","streetKana":"ｵｵﾔﾌﾞﾁｮｳ","prefecture":"滋賀県","city":"彦根市","street":"大藪町"},{"zipCode":"5220017","prefectureKana":"ｼｶﾞｹﾝ","cityKana":"ﾋｺﾈｼ","streetKana":"ｵｵﾘﾁｮｳ","prefecture":"滋賀県","city":"彦根市","street":"男鬼町"},{"zipCode":"5220037","prefectureKana":"ｼｶﾞｹﾝ","cityKana":"ﾋｺﾈｼ","streetKana":"ｵｶﾏﾁ","prefecture":"滋賀県","city":"彦根市","street":"岡町"},{"zipCode":"5220001","prefectureKana":"ｼｶﾞｹﾝ","cityKana":"ﾋｺﾈｼ","streetKana":"ｵｽｴﾁｮｳ","prefecture":"滋賀県","city":"彦根市","street":"尾末町"},{"zipCode":"5220005","prefectureKana":"ｼｶﾞｹﾝ","cityKana":"ﾋｺﾈｼ","streetKana":"ｵﾉﾁｮｳ","prefecture":"滋賀県","city":"彦根市","street":"小野町"},{"zipCode":"5220056","prefectureKana":"ｼｶﾞｹﾝ","cityKana":"ﾋｺﾈｼ","streetKana":"ｶｲﾃﾞｲﾏﾁｮｳ","prefecture":"滋賀県","city":"彦根市","street":"開出今町"},{"zipCode":"5220223","prefectureKana":"ｼｶﾞｹﾝ","cityKana":"ﾋｺﾈｼ","streetKana":"ｶﾜｾﾊﾞﾊﾞﾁｮｳ","prefecture":"滋賀県","city":"彦根市","street":"川瀬馬場町"},{"zipCode":"5220083","prefectureKana":"ｼｶﾞｹﾝ","cityKana":"ﾋｺﾈｼ","streetKana":"ｶﾜﾗ","prefecture":"滋賀県","city":"彦根市","street":"河原"},{"zipCode":"5220046","prefectureKana":"ｼｶﾞｹﾝ","cityKana":"ﾋｺﾈｼ","streetKana":"ｶﾝﾛﾁｮｳ","prefecture":"滋賀県","city":"彦根市","street":"甘呂町"},{"zipCode":"5220081","prefectureKana":"ｼｶﾞｹﾝ","cityKana":"ﾋｺﾈｼ","streetKana":"ｷｮｳﾏﾁ","prefecture":"滋賀県","city":"彦根市","street":"京町"},{"zipCode":"5220088","prefectureKana":"ｼｶﾞｹﾝ","cityKana":"ﾋｺﾈｼ","streetKana":"ｷﾞﾝｻﾞﾁｮｳ","prefecture":"滋賀県","city":"彦根市","street":"銀座町"},{"zipCode":"5220043","prefectureKana":"ｼｶﾞｹﾝ","cityKana":"ﾋｺﾈｼ","streetKana":"ｺｲｽﾞﾐﾁｮｳ","prefecture":"滋賀県","city":"彦根市","street":"小泉町"},{"zipCode":"5220012","prefectureKana":"ｼｶﾞｹﾝ","cityKana":"ﾋｺﾈｼ","streetKana":"ｺｳﾀﾁｮｳ","prefecture":"滋賀県","city":"彦根市","street":"甲田町"},{"zipCode":"5220238","prefectureKana":"ｼｶﾞｹﾝ","cityKana":"ﾋｺﾈｼ","streetKana":"ｺｳﾉﾁｮｳ","prefecture":"滋賀県","city":"彦根市","street":"広野町"},{"zipCode":"5220231","prefectureKana":"ｼｶﾞｹﾝ","cityKana":"ﾋｺﾈｼ","streetKana":"ｺﾞｸﾗｸｼﾞﾁｮｳ","prefecture":"滋賀県","city":"彦根市","street":"極楽寺町"},{"zipCode":"5220086","prefectureKana":"ｼｶﾞｹﾝ","cityKana":"ﾋｺﾈｼ","streetKana":"ｺﾞｻﾝｼﾞｮｳﾁｮｳ","prefecture":"滋賀県","city":"彦根市","street":"後三条町"},{"zipCode":"5220061","prefectureKana":"ｼｶﾞｹﾝ","cityKana":"ﾋｺﾈｼ","streetKana":"ｺﾝｷﾁｮｳ","prefecture":"滋賀県","city":"彦根市","street":"金亀町"},{"zipCode":"5220235","prefectureKana":"ｼｶﾞｹﾝ","cityKana":"ﾋｺﾈｼ","streetKana":"ｺﾝｺﾞｳｼﾞﾁｮｳ","prefecture":"滋賀県","city":"彦根市","street":"金剛寺町"},{"zipCode":"5220021","prefectureKana":"ｼｶﾞｹﾝ","cityKana":"ﾋｺﾈｼ","streetKana":"ｻｲﾜｲﾁｮｳ","prefecture":"滋賀県","city":"彦根市","street":"幸町"},{"zipCode":"5220066","prefectureKana":"ｼｶﾞｹﾝ","cityKana":"ﾋｺﾈｼ","streetKana":"ｻｶｴﾏﾁ","prefecture":"滋賀県","city":"彦根市","street":"栄町"},{"zipCode":"5220019","prefectureKana":"ｼｶﾞｹﾝ","cityKana":"ﾋｺﾈｼ","streetKana":"ｻｻｵﾁｮｳ","prefecture":"滋賀県","city":"彦根市","street":"笹尾町"},{"zipCode":"5220022","prefectureKana":"ｼｶﾞｹﾝ","cityKana":"ﾋｺﾈｼ","streetKana":"ｻﾄﾈﾁｮｳ","prefecture":"滋賀県","city":"彦根市","street":"里根町"},{"zipCode":"5220075","prefectureKana":"ｼｶﾞｹﾝ","cityKana":"ﾋｺﾈｼ","streetKana":"ｻﾜﾁｮｳ","prefecture":"滋賀県","city":"彦根市","street":"佐和町"},{"zipCode":"5220006","prefectureKana":"ｼｶﾞｹﾝ","cityKana":"ﾋｺﾈｼ","streetKana":"ｻﾜﾔﾏﾁｮｳ","prefecture":"滋賀県","city":"彦根市","street":"佐和山町"},{"zipCode":"5220029","prefectureKana":"ｼｶﾞｹﾝ","cityKana":"ﾋｺﾈｼ","streetKana":"ｼﾞｿﾞｳﾁｮｳ","prefecture":"滋賀県","city":"彦根市","street":"地蔵町"},{"zipCode":"5220011","prefectureKana":"ｼｶﾞｹﾝ","cityKana":"ﾋｺﾈｼ","streetKana":"ｼﾓﾔｸﾞﾗﾁｮｳ","prefecture":"滋賀県","city":"彦根市","street":"下矢倉町"},{"zipCode":"5220015","prefectureKana":"ｼｶﾞｹﾝ","cityKana":"ﾋｺﾈｼ","streetKana":"ｼｮｳｺﾞﾝｼﾞﾁｮｳ","prefecture":"滋賀県","city":"彦根市","street":"荘厳寺町"},{"zipCode":"5220024","prefectureKana":"ｼｶﾞｹﾝ","cityKana":"ﾋｺﾈｼ","streetKana":"ｼｮｳﾎﾞｳｼﾞﾁｮｳ","prefecture":"滋賀県","city":"彦根市","street":"正法寺町"},{"zipCode":"5220068","prefectureKana":"ｼｶﾞｹﾝ","cityKana":"ﾋｺﾈｼ","streetKana":"ｼﾛﾏﾁ","prefecture":"滋賀県","city":"彦根市","street":"城町"},{"zipCode":"5220085","prefectureKana":"ｼｶﾞｹﾝ","cityKana":"ﾋｺﾈｼ","streetKana":"ｼﾝﾏﾁ","prefecture":"滋賀県","city":"彦根市","street":"新町"},{"zipCode":"5220058","prefectureKana":"ｼｶﾞｹﾝ","cityKana":"ﾋｺﾈｼ","streetKana":"ｽｺﾞｼﾁｮｳ","prefecture":"滋賀県","city":"彦根市","street":"須越町"},{"zipCode":"5220033","prefectureKana":"ｼｶﾞｹﾝ","cityKana":"ﾋｺﾈｼ","streetKana":"ｾﾘｶﾜﾁｮｳ","prefecture":"滋賀県","city":"彦根市","street":"芹川町"},{"zipCode":"5220031","prefectureKana":"ｼｶﾞｹﾝ","cityKana":"ﾋｺﾈｼ","streetKana":"ｾﾘﾅｶﾏﾁ","prefecture":"滋賀県","city":"彦根市","street":"芹中町"},{"zipCode":"5220087","prefectureKana":"ｼｶﾞｹﾝ","cityKana":"ﾋｺﾈｼ","streetKana":"ｾﾘﾊﾞｼ","prefecture":"滋賀県","city":"彦根市","street":"芹橋"},{"zipCode":"5220032","prefectureKana":"ｼｶﾞｹﾝ","cityKana":"ﾋｺﾈｼ","streetKana":"ｾﾘﾏﾁ","prefecture":"滋賀県","city":"彦根市","street":"芹町"},{"zipCode":"5220014","prefectureKana":"ｼｶﾞｹﾝ","cityKana":"ﾋｺﾈｼ","streetKana":"ｾﾞﾝﾀﾞﾆﾁｮｳ","prefecture":"滋賀県","city":"彦根市","street":"善谷町"},{"zipCode":"5220074","prefectureKana":"ｼｶﾞｹﾝ","cityKana":"ﾋｺﾈｼ","streetKana":"ﾀﾞｲﾄｳﾁｮｳ","prefecture":"滋賀県","city":"彦根市","street":"大東町"},{"zipCode":"5220201","prefectureKana":"ｼｶﾞｹﾝ","cityKana":"ﾋｺﾈｼ","streetKana":"ﾀｶﾐﾔﾁｮｳ","prefecture":"滋賀県","city":"彦根市","street":"高宮町"},{"zipCode":"5220044","prefectureKana":"ｼｶﾞｹﾝ","cityKana":"ﾋｺﾈｼ","streetKana":"ﾀｹｶﾞﾊﾅﾁｮｳ","prefecture":"滋賀県","city":"彦根市","street":"竹ケ鼻町"},{"zipCode":"5220062","prefectureKana":"ｼｶﾞｹﾝ","cityKana":"ﾋｺﾈｼ","streetKana":"ﾀﾁﾊﾞﾅﾁｮｳ","prefecture":"滋賀県","city":"彦根市","street":"立花町"},{"zipCode":"5220063","prefectureKana":"ｼｶﾞｹﾝ","cityKana":"ﾋｺﾈｼ","streetKana":"ﾁｭｳｵｳﾁｮｳ","prefecture":"滋賀県","city":"彦根市","street":"中央町"},{"zipCode":"5220233","prefectureKana":"ｼｶﾞｹﾝ","cityKana":"ﾋｺﾈｼ","streetKana":"ﾂｼﾞﾄﾞｳﾁｮｳ","prefecture":"滋賀県","city":"彦根市","street":"辻堂町"},{"zipCode":"5220212","prefectureKana":"ｼｶﾞｹﾝ","cityKana":"ﾋｺﾈｼ","streetKana":"ﾂｽﾞﾗﾏﾁ","prefecture":"滋賀県","city":"彦根市","street":"葛籠町"},{"zipCode":"5220214","prefectureKana":"ｼｶﾞｹﾝ","cityKana":"ﾋｺﾈｼ","streetKana":"ﾃﾞﾏﾁ","prefecture":"滋賀県","city":"彦根市","street":"出町"},{"zipCode":"5220042","prefectureKana":"ｼｶﾞｹﾝ","cityKana":"ﾋｺﾈｼ","streetKana":"ﾄｶﾞﾁｮｳ","prefecture":"滋賀県","city":"彦根市","street":"戸賀町"},{"zipCode":"5220009","prefectureKana":"ｼｶﾞｹﾝ","cityKana":"ﾋｺﾈｼ","streetKana":"ﾄﾏﾁ","prefecture":"滋賀県","city":"彦根市","street":"外町"},{"zipCode":"5220004","prefectureKana":"ｼｶﾞｹﾝ","cityKana":"ﾋｺﾈｼ","streetKana":"ﾄﾘｲﾓﾄﾁｮｳ","prefecture":"滋賀県","city":"彦根市","street":"鳥居本町"},{"zipCode":"5220051","prefectureKana":"ｼｶﾞｹﾝ","cityKana":"ﾋｺﾈｼ","streetKana":"ﾅｶﾔﾌﾞ","prefecture":"滋賀県","city":"彦根市","street":"中藪"},{"zipCode":"5220051","prefectureKana":"ｼｶﾞｹﾝ","cityKana":"ﾋｺﾈｼ","streetKana":"ﾅｶﾔﾌﾞﾁｮｳ","prefecture":"滋賀県","city":"彦根市","street":"中藪町"},{"zipCode":"5220013","prefectureKana":"ｼｶﾞｹﾝ","cityKana":"ﾋｺﾈｼ","streetKana":"ﾅｶﾔﾏﾁｮｳ","prefecture":"滋賀県","city":"彦根市","street":"中山町"},{"zipCode":"5220067","prefectureKana":"ｼｶﾞｹﾝ","cityKana":"ﾋｺﾈｼ","streetKana":"ﾅｶﾞｿﾈﾁｮｳ","prefecture":"滋賀県","city":"彦根市","street":"長曽根町"},{"zipCode":"5220052","prefectureKana":"ｼｶﾞｹﾝ","cityKana":"ﾋｺﾈｼ","streetKana":"ﾅｶﾞｿﾈﾐﾅﾐﾁｮｳ","prefecture":"滋賀県","city":"彦根市","street":"長曽根南町"},{"zipCode":"5220054","prefectureKana":"ｼｶﾞｹﾝ","cityKana":"ﾋｺﾈｼ","streetKana":"ﾆｼｲﾏﾁｮｳ","prefecture":"滋賀県","city":"彦根市","street":"西今町"},{"zipCode":"5220089","prefectureKana":"ｼｶﾞｹﾝ","cityKana":"ﾋｺﾈｼ","streetKana":"ﾆｼｷﾏﾁ","prefecture":"滋賀県","city":"彦根市","street":"錦町"},{"zipCode":"5220213","prefectureKana":"ｼｶﾞｹﾝ","cityKana":"ﾋｺﾈｼ","streetKana":"ﾆｼﾂｽﾞﾗﾏﾁ","prefecture":"滋賀県","city":"彦根市","street":"西葛籠町"},{"zipCode":"5220038","prefectureKana":"ｼｶﾞｹﾝ","cityKana":"ﾋｺﾈｼ","streetKana":"ﾆｼﾉﾅﾐﾁｮｳ","prefecture":"滋賀県","city":"彦根市","street":"西沼波町"},{"zipCode":"5220221","prefectureKana":"ｼｶﾞｹﾝ","cityKana":"ﾋｺﾈｼ","streetKana":"ﾉｸﾞﾁﾁｮｳ","prefecture":"滋賀県","city":"彦根市","street":"野口町"},{"zipCode":"5220055","prefectureKana":"ｼｶﾞｹﾝ","cityKana":"ﾋｺﾈｼ","streetKana":"ﾉｾﾁｮｳ","prefecture":"滋賀県","city":"彦根市","street":"野瀬町"},{"zipCode":"5220025","prefectureKana":"ｼｶﾞｹﾝ","cityKana":"ﾋｺﾈｼ","streetKana":"ﾉﾀﾞﾔﾏﾁｮｳ","prefecture":"滋賀県","city":"彦根市","street":"野田山町"},{"zipCode":"5220036","prefectureKana":"ｼｶﾞｹﾝ","cityKana":"ﾋｺﾈｼ","streetKana":"ﾉﾅﾐﾏﾁ","prefecture":"滋賀県","city":"彦根市","street":"沼波町"},{"zipCode":"5220084","prefectureKana":"ｼｶﾞｹﾝ","cityKana":"ﾋｺﾈｼ","streetKana":"ﾊｼﾑｶｲﾁｮｳ","prefecture":"滋賀県","city":"彦根市","street":"橋向町"},{"zipCode":"5220057","prefectureKana":"ｼｶﾞｹﾝ","cityKana":"ﾋｺﾈｼ","streetKana":"ﾊｯｻｶﾁｮｳ","prefecture":"滋賀県","city":"彦根市","street":"八坂町"},{"zipCode":"5220023","prefectureKana":"ｼｶﾞｹﾝ","cityKana":"ﾋｺﾈｼ","streetKana":"ﾊﾗﾁｮｳ","prefecture":"滋賀県","city":"彦根市","street":"原町"},{"zipCode":"5220069","prefectureKana":"ｼｶﾞｹﾝ","cityKana":"ﾋｺﾈｼ","streetKana":"ﾊﾞﾝﾊﾞ","prefecture":"滋賀県","city":"彦根市","street":"馬場"},{"zipCode":"5220027","prefectureKana":"ｼｶﾞｹﾝ","cityKana":"ﾋｺﾈｼ","streetKana":"ﾋｶﾞｼﾉﾅﾐﾁｮｳ","prefecture":"滋賀県","city":"彦根市","street":"東沼波町"},{"zipCode":"5220047","prefectureKana":"ｼｶﾞｹﾝ","cityKana":"ﾋｺﾈｼ","streetKana":"ﾋﾅﾂﾁｮｳ","prefecture":"滋賀県","city":"彦根市","street":"日夏町"},{"zipCode":"5220041","prefectureKana":"ｼｶﾞｹﾝ","cityKana":"ﾋｺﾈｼ","streetKana":"ﾋﾗﾀﾁｮｳ","prefecture":"滋賀県","city":"彦根市","street":"平田町"},{"zipCode":"5220018","prefectureKana":"ｼｶﾞｹﾝ","cityKana":"ﾋｺﾈｼ","streetKana":"ﾌﾞﾂｼｮｳｼﾞﾁｮｳ","prefecture":"滋賀県","city":"彦根市","street":"仏生寺町"},{"zipCode":"5220016","prefectureKana":"ｼｶﾞｹﾝ","cityKana":"ﾋｺﾈｼ","streetKana":"ﾌﾞﾅﾁｮｳ","prefecture":"滋賀県","city":"彦根市","street":"武奈町"},{"zipCode":"5220072","prefectureKana":"ｼｶﾞｹﾝ","cityKana":"ﾋｺﾈｼ","streetKana":"ﾌﾅﾏﾁ","prefecture":"滋賀県","city":"彦根市","street":"船町"},{"zipCode":"5220007","prefectureKana":"ｼｶﾞｹﾝ","cityKana":"ﾋｺﾈｼ","streetKana":"ﾌﾙｻﾜﾁｮｳ","prefecture":"滋賀県","city":"彦根市","street":"古沢町"},{"zipCode":"5220211","prefectureKana":"ｼｶﾞｹﾝ","cityKana":"ﾋｺﾈｼ","streetKana":"ﾎｳｾﾞﾁｮｳ","prefecture":"滋賀県","city":"彦根市","street":"法士町"},{"zipCode":"5220237","prefectureKana":"ｼｶﾞｹﾝ","cityKana":"ﾋｺﾈｼ","streetKana":"ﾎﾘﾁｮｳ","prefecture":"滋賀県","city":"彦根市","street":"堀町"},{"zipCode":"5220064","prefectureKana":"ｼｶﾞｹﾝ","cityKana":"ﾋｺﾈｼ","streetKana":"ﾎﾝﾏﾁ","prefecture":"滋賀県","city":"彦根市","street":"本町"},{"zipCode":"5220002","prefectureKana":"ｼｶﾞｹﾝ","cityKana":"ﾋｺﾈｼ","streetKana":"ﾏﾂﾊﾞﾗ","prefecture":"滋賀県","city":"彦根市","street":"松原"},{"zipCode":"5220002","prefectureKana":"ｼｶﾞｹﾝ","cityKana":"ﾋｺﾈｼ","streetKana":"ﾏﾂﾊﾞﾗﾁｮｳ","prefecture":"滋賀県","city":"彦根市","street":"松原町"},{"zipCode":"5220059","prefectureKana":"ｼｶﾞｹﾝ","cityKana":"ﾋｺﾈｼ","streetKana":"ﾐﾂﾔﾁｮｳ","prefecture":"滋賀県","city":"彦根市","street":"三津屋町"},{"zipCode":"5220222","prefectureKana":"ｼｶﾞｹﾝ","cityKana":"ﾋｺﾈｼ","streetKana":"ﾐﾅﾐｶﾜｾﾁｮｳ","prefecture":"滋賀県","city":"彦根市","street":"南川瀬町"},{"zipCode":"5220003","prefectureKana":"ｼｶﾞｹﾝ","cityKana":"ﾋｺﾈｼ","streetKana":"ﾐﾔﾀﾁｮｳ","prefecture":"滋賀県","city":"彦根市","street":"宮田町"},{"zipCode":"5220035","prefectureKana":"ｼｶﾞｹﾝ","cityKana":"ﾋｺﾈｼ","streetKana":"ﾓﾄｵｶﾏﾁ","prefecture":"滋賀県","city":"彦根市","street":"元岡町"},{"zipCode":"5220071","prefectureKana":"ｼｶﾞｹﾝ","cityKana":"ﾋｺﾈｼ","streetKana":"ﾓﾄﾏﾁ","prefecture":"滋賀県","city":"彦根市","street":"元町"},{"zipCode":"5220234","prefectureKana":"ｼｶﾞｹﾝ","cityKana":"ﾋｺﾈｼ","streetKana":"ﾓﾘﾄﾞｳﾁｮｳ","prefecture":"滋賀県","city":"彦根市","street":"森堂町"},{"zipCode":"5220082","prefectureKana":"ｼｶﾞｹﾝ","cityKana":"ﾋｺﾈｼ","streetKana":"ﾔｽｷﾖﾁｮｳ","prefecture":"滋賀県","city":"彦根市","street":"安清町"},{"zipCode":"5220008","prefectureKana":"ｼｶﾞｹﾝ","cityKana":"ﾋｺﾈｼ","streetKana":"ﾔｽｷﾖﾋｶﾞｼﾏﾁ","prefecture":"滋賀県","city":"彦根市","street":"安清東町"},{"zipCode":"5220038","prefectureKana":"ｼｶﾞｹﾝ","cityKana":"ﾋｺﾈｼ","streetKana":"ﾔﾏﾉﾜｷﾁｮｳ","prefecture":"滋賀県","city":"彦根市","street":"山之脇町"},{"zipCode":"5220232","prefectureKana":"ｼｶﾞｹﾝ","cityKana":"ﾋｺﾈｼ","streetKana":"ﾚﾝﾀﾞｲｼﾞﾁｮｳ","prefecture":"滋賀県","city":"彦根市","street":"蓮台寺町"},{"zipCode":"5220039","prefectureKana":"ｼｶﾞｹﾝ","cityKana":"ﾋｺﾈｼ","streetKana":"ﾜﾀﾞﾁｮｳ","prefecture":"滋賀県","city":"彦根市","street":"和田町"},{"zipCode":"5220200","prefectureKana":"ｼｶﾞｹﾝ","cityKana":"ｲﾇｶﾐｸﾞﾝｺｳﾗﾁｮｳ","streetKana":"ｲｶﾆｹｲｻｲｶﾞﾅｲﾊﾞｱｲ","prefecture":"滋賀県","city":"犬上郡甲良町","street":"以下に掲載がない場合"},{"zipCode":"5220242","prefectureKana":"ｼｶﾞｹﾝ","cityKana":"ｲﾇｶﾐｸﾞﾝｺｳﾗﾁｮｳ","streetKana":"ｱﾏｺﾞ","prefecture":"滋賀県","city":"犬上郡甲良町","street":"尼子"},{"zipCode":"5220254","prefectureKana":"ｼｶﾞｹﾝ","cityKana":"ｲﾇｶﾐｸﾞﾝｺｳﾗﾁｮｳ","streetKana":"ｲｹﾃﾞﾗ","prefecture":"滋賀県","city":"犬上郡甲良町","street":"池寺"},{"zipCode":"5220261","prefectureKana":"ｼｶﾞｹﾝ","cityKana":"ｲﾇｶﾐｸﾞﾝｺｳﾗﾁｮｳ","streetKana":"ｵｻﾃﾞﾗ","prefecture":"滋賀県","city":"犬上郡甲良町","street":"長寺"},{"zipCode":"5220252","prefectureKana":"ｼｶﾞｹﾝ","cityKana":"ｲﾇｶﾐｸﾞﾝｺｳﾗﾁｮｳ","streetKana":"ｶﾅﾔ","prefecture":"滋賀県","city":"犬上郡甲良町","street":"金屋"},{"zipCode":"5220251","prefectureKana":"ｼｶﾞｹﾝ","cityKana":"ｲﾇｶﾐｸﾞﾝｺｳﾗﾁｮｳ","streetKana":"ｷﾀｵﾁ","prefecture":"滋賀県","city":"犬上郡甲良町","street":"北落"},{"zipCode":"5220241","prefectureKana":"ｼｶﾞｹﾝ","cityKana":"ｲﾇｶﾐｸﾞﾝｺｳﾗﾁｮｳ","streetKana":"ｸﾚﾀｹ","prefecture":"滋賀県","city":"犬上郡甲良町","street":"呉竹"},{"zipCode":"5220243","prefectureKana":"ｼｶﾞｹﾝ","cityKana":"ｲﾇｶﾐｸﾞﾝｺｳﾗﾁｮｳ","streetKana":"ｺｶﾞﾜﾊﾗ","prefecture":"滋賀県","city":"犬上郡甲良町","street":"小川原"},{"zipCode":"5220244","prefectureKana":"ｼｶﾞｹﾝ","cityKana":"ｲﾇｶﾐｸﾞﾝｺｳﾗﾁｮｳ","streetKana":"ｻﾞｲｼﾞ","prefecture":"滋賀県","city":"犬上郡甲良町","street":"在士"},{"zipCode":"5220271","prefectureKana":"ｼｶﾞｹﾝ","cityKana":"ｲﾇｶﾐｸﾞﾝｺｳﾗﾁｮｳ","streetKana":"ｼﾓﾉｺﾞｳ","prefecture":"滋賀県","city":"犬上郡甲良町","street":"下之郷"},{"zipCode":"5220253","prefectureKana":"ｼｶﾞｹﾝ","cityKana":"ｲﾇｶﾐｸﾞﾝｺｳﾗﾁｮｳ","streetKana":"ｼｮｳﾗｸｼﾞ","prefecture":"滋賀県","city":"犬上郡甲良町","street":"正楽寺"},{"zipCode":"5220263","prefectureKana":"ｼｶﾞｹﾝ","cityKana":"ｲﾇｶﾐｸﾞﾝｺｳﾗﾁｮｳ","streetKana":"ﾎｳﾖｳｼﾞ","prefecture":"滋賀県","city":"犬上郡甲良町","street":"法養寺"},{"zipCode":"5220262","prefectureKana":"ｼｶﾞｹﾝ","cityKana":"ｲﾇｶﾐｸﾞﾝｺｳﾗﾁｮｳ","streetKana":"ﾖｺｾﾞｷ","prefecture":"滋賀県","city":"犬上郡甲良町","street":"横関"},{"zipCode":"5220300","prefectureKana":"ｼｶﾞｹﾝ","cityKana":"ｲﾇｶﾐｸﾞﾝﾀｶﾞﾁｮｳ","streetKana":"ｲｶﾆｹｲｻｲｶﾞﾅｲﾊﾞｱｲ","prefecture":"滋賀県","city":"犬上郡多賀町","street":"以下に掲載がない場合"},{"zipCode":"5220317","prefectureKana":"ｼｶﾞｹﾝ","cityKana":"ｲﾇｶﾐｸﾞﾝﾀｶﾞﾁｮｳ","streetKana":"ｲﾁｴﾝ","prefecture":"滋賀県","city":"犬上郡多賀町","street":"一円"},{"zipCode":"5220323","prefectureKana":"ｼｶﾞｹﾝ","cityKana":"ｲﾇｶﾐｸﾞﾝﾀｶﾞﾁｮｳ","streetKana":"ｲﾁﾉｾ","prefecture":"滋賀県","city":"犬上郡多賀町","street":"一ノ瀬"},{"zipCode":"5220304","prefectureKana":"ｼｶﾞｹﾝ","cityKana":"ｲﾇｶﾐｸﾞﾝﾀｶﾞﾁｮｳ","streetKana":"ｳｼﾛﾀﾞﾆ","prefecture":"滋賀県","city":"犬上郡多賀町","street":"後谷"},{"zipCode":"5220315","prefectureKana":"ｼｶﾞｹﾝ","cityKana":"ｲﾇｶﾐｸﾞﾝﾀｶﾞﾁｮｳ","streetKana":"ｵｵｵｶ","prefecture":"滋賀県","city":"犬上郡多賀町","street":"大岡"},{"zipCode":"5220331","prefectureKana":"ｼｶﾞｹﾝ","cityKana":"ｲﾇｶﾐｸﾞﾝﾀｶﾞﾁｮｳ","streetKana":"ｵｵｽｷﾞ","prefecture":"滋賀県","city":"犬上郡多賀町","street":"大杉"},{"zipCode":"5220321","prefectureKana":"ｼｶﾞｹﾝ","cityKana":"ｲﾇｶﾐｸﾞﾝﾀｶﾞﾁｮｳ","streetKana":"ｵｼﾞｶﾞﾊﾀ","prefecture":"滋賀県","city":"犬上郡多賀町","street":"大君ケ畑"},{"zipCode":"5220333","prefectureKana":"ｼｶﾞｹﾝ","cityKana":"ｲﾇｶﾐｸﾞﾝﾀｶﾞﾁｮｳ","streetKana":"ｶｲﾊﾗ","prefecture":"滋賀県","city":"犬上郡多賀町","street":"萱原"},{"zipCode":"5220301","prefectureKana":"ｼｶﾞｹﾝ","cityKana":"ｲﾇｶﾐｸﾞﾝﾀｶﾞﾁｮｳ","streetKana":"ｶﾜﾁ","prefecture":"滋賀県","city":"犬上郡多賀町","street":"河内"},{"zipCode":"5220324","prefectureKana":"ｼｶﾞｹﾝ","cityKana":"ｲﾇｶﾐｸﾞﾝﾀｶﾞﾁｮｳ","streetKana":"ｶﾜﾅｲ","prefecture":"滋賀県","city":"犬上郡多賀町","street":"川相"},{"zipCode":"5220356","prefectureKana":"ｼｶﾞｹﾝ","cityKana":"ｲﾇｶﾐｸﾞﾝﾀｶﾞﾁｮｳ","streetKana":"ｷｿ","prefecture":"滋賀県","city":"犬上郡多賀町","street":"木曽"},{"zipCode":"5220352","prefectureKana":"ｼｶﾞｹﾝ","cityKana":"ｲﾇｶﾐｸﾞﾝﾀｶﾞﾁｮｳ","streetKana":"ｷｭｳﾄｸ","prefecture":"滋賀県","city":"犬上郡多賀町","street":"久徳"},{"zipCode":"5220316","prefectureKana":"ｼｶﾞｹﾝ","cityKana":"ｲﾇｶﾐｸﾞﾝﾀｶﾞﾁｮｳ","streetKana":"ｸﾙｽ","prefecture":"滋賀県","city":"犬上郡多賀町","street":"栗栖"},{"zipCode":"5220305","prefectureKana":"ｼｶﾞｹﾝ","cityKana":"ｲﾇｶﾐｸﾞﾝﾀｶﾞﾁｮｳ","streetKana":"ｺｳｽﾞｸﾗ","prefecture":"滋賀県","city":"犬上郡多賀町","street":"甲頭倉"},{"zipCode":"5220311","prefectureKana":"ｼｶﾞｹﾝ","cityKana":"ｲﾇｶﾐｸﾞﾝﾀｶﾞﾁｮｳ","streetKana":"ｺﾞｿｳ","prefecture":"滋賀県","city":"犬上郡多賀町","street":"五僧"},{"zipCode":"5220325","prefectureKana":"ｼｶﾞｹﾝ","cityKana":"ｲﾇｶﾐｸﾞﾝﾀｶﾞﾁｮｳ","streetKana":"ｺﾊﾗ","prefecture":"滋賀県","city":"犬上郡多賀町","street":"小原"},{"zipCode":"5220322","prefectureKana":"ｼｶﾞｹﾝ","cityKana":"ｲﾇｶﾐｸﾞﾝﾀｶﾞﾁｮｳ","streetKana":"ｻﾒ","prefecture":"滋賀県","city":"犬上郡多賀町","street":"佐目"},{"zipCode":"5220343","prefectureKana":"ｼｶﾞｹﾝ","cityKana":"ｲﾇｶﾐｸﾞﾝﾀｶﾞﾁｮｳ","streetKana":"ｻﾙｷﾞ","prefecture":"滋賀県","city":"犬上郡多賀町","street":"猿木"},{"zipCode":"5220314","prefectureKana":"ｼｶﾞｹﾝ","cityKana":"ｲﾇｶﾐｸﾞﾝﾀｶﾞﾁｮｳ","streetKana":"ｼﾃﾞ","prefecture":"滋賀県","city":"犬上郡多賀町","street":"四手"},{"zipCode":"5220326","prefectureKana":"ｼｶﾞｹﾝ","cityKana":"ｲﾇｶﾐｸﾞﾝﾀｶﾞﾁｮｳ","streetKana":"ｼﾓｶﾞﾊﾗ","prefecture":"滋賀県","city":"犬上郡多賀町","street":"霜ケ原"},{"zipCode":"5220318","prefectureKana":"ｼｶﾞｹﾝ","cityKana":"ｲﾇｶﾐｸﾞﾝﾀｶﾞﾁｮｳ","streetKana":"ｽｲﾀﾞﾆ","prefecture":"滋賀県","city":"犬上郡多賀町","street":"水谷"},{"zipCode":"5220313","prefectureKana":"ｼｶﾞｹﾝ","cityKana":"ｲﾇｶﾐｸﾞﾝﾀｶﾞﾁｮｳ","streetKana":"ｽｷﾞ","prefecture":"滋賀県","city":"犬上郡多賀町","street":"杉"},{"zipCode":"5220341","prefectureKana":"ｼｶﾞｹﾝ","cityKana":"ｲﾇｶﾐｸﾞﾝﾀｶﾞﾁｮｳ","streetKana":"ﾀｶﾞ","prefecture":"滋賀県","city":"犬上郡多賀町","street":"多賀"},{"zipCode":"5220353","prefectureKana":"ｼｶﾞｹﾝ","cityKana":"ｲﾇｶﾐｸﾞﾝﾀｶﾞﾁｮｳ","streetKana":"ﾂｷﾉｷ","prefecture":"滋賀県","city":"犬上郡多賀町","street":"月之木"},{"zipCode":"5220354","prefectureKana":"ｼｶﾞｹﾝ","cityKana":"ｲﾇｶﾐｸﾞﾝﾀｶﾞﾁｮｳ","streetKana":"ﾂﾁﾀﾞ","prefecture":"滋賀県","city":"犬上郡多賀町","street":"土田"},{"zipCode":"5220338","prefectureKana":"ｼｶﾞｹﾝ","cityKana":"ｲﾇｶﾐｸﾞﾝﾀｶﾞﾁｮｳ","streetKana":"ﾂﾎﾞ","prefecture":"滋賀県","city":"犬上郡多賀町","street":"壺"},{"zipCode":"5220337","prefectureKana":"ｼｶﾞｹﾝ","cityKana":"ｲﾇｶﾐｸﾞﾝﾀｶﾞﾁｮｳ","streetKana":"ﾄﾐﾉｵ","prefecture":"滋賀県","city":"犬上郡多賀町","street":"富之尾"},{"zipCode":"5220355","prefectureKana":"ｼｶﾞｹﾝ","cityKana":"ｲﾇｶﾐｸﾞﾝﾀｶﾞﾁｮｳ","streetKana":"ﾅｶｶﾞﾜﾗ","prefecture":"滋賀県","city":"犬上郡多賀町","street":"中川原"},{"zipCode":"5220336","prefectureKana":"ｼｶﾞｹﾝ","cityKana":"ｲﾇｶﾐｸﾞﾝﾀｶﾞﾁｮｳ","streetKana":"ﾅﾗｻｷ","prefecture":"滋賀県","city":"犬上郡多賀町","street":"楢崎"},{"zipCode":"5220332","prefectureKana":"ｼｶﾞｹﾝ","cityKana":"ｲﾇｶﾐｸﾞﾝﾀｶﾞﾁｮｳ","streetKana":"ﾋﾀﾞ","prefecture":"滋賀県","city":"犬上郡多賀町","street":"樋田"},{"zipCode":"5220303","prefectureKana":"ｼｶﾞｹﾝ","cityKana":"ｲﾇｶﾐｸﾞﾝﾀｶﾞﾁｮｳ","streetKana":"ﾋﾞｮｳﾌﾞ","prefecture":"滋賀県","city":"犬上郡多賀町","street":"屏風"},{"zipCode":"5220342","prefectureKana":"ｼｶﾞｹﾝ","cityKana":"ｲﾇｶﾐｸﾞﾝﾀｶﾞﾁｮｳ","streetKana":"ﾋﾞﾝﾏﾝｼﾞ","prefecture":"滋賀県","city":"犬上郡多賀町","street":"敏満寺"},{"zipCode":"5220335","prefectureKana":"ｼｶﾞｹﾝ","cityKana":"ｲﾇｶﾐｸﾞﾝﾀｶﾞﾁｮｳ","streetKana":"ﾌｼﾞｾ","prefecture":"滋賀県","city":"犬上郡多賀町","street":"藤瀬"},{"zipCode":"5220312","prefectureKana":"ｼｶﾞｹﾝ","cityKana":"ｲﾇｶﾐｸﾞﾝﾀｶﾞﾁｮｳ","streetKana":"ﾎｳﾂﾞｷ","prefecture":"滋賀県","city":"犬上郡多賀町","street":"保月"},{"zipCode":"5220334","prefectureKana":"ｼｶﾞｹﾝ","cityKana":"ｲﾇｶﾐｸﾞﾝﾀｶﾞﾁｮｳ","streetKana":"ﾎﾄｹﾗ","prefecture":"滋賀県","city":"犬上郡多賀町","street":"仏ケ後"},{"zipCode":"5220327","prefectureKana":"ｼｶﾞｹﾝ","cityKana":"ｲﾇｶﾐｸﾞﾝﾀｶﾞﾁｮｳ","streetKana":"ﾐﾅﾐｳｼﾛﾀﾞﾆ","prefecture":"滋賀県","city":"犬上郡多賀町","street":"南後谷"},{"zipCode":"5220302","prefectureKana":"ｼｶﾞｹﾝ","cityKana":"ｲﾇｶﾐｸﾞﾝﾀｶﾞﾁｮｳ","streetKana":"ﾑｶｲﾉｸﾗ","prefecture":"滋賀県","city":"犬上郡多賀町","street":"向之倉"},{"zipCode":"5220319","prefectureKana":"ｼｶﾞｹﾝ","cityKana":"ｲﾇｶﾐｸﾞﾝﾀｶﾞﾁｮｳ","streetKana":"ﾓﾊﾞﾗ","prefecture":"滋賀県","city":"犬上郡多賀町","street":"桃原"},{"zipCode":"5220351","prefectureKana":"ｼｶﾞｹﾝ","cityKana":"ｲﾇｶﾐｸﾞﾝﾀｶﾞﾁｮｳ","streetKana":"ﾔｴﾈﾘ","prefecture":"滋賀県","city":"犬上郡多賀町","street":"八重練"},{"zipCode":"5220306","prefectureKana":"ｼｶﾞｹﾝ","cityKana":"ｲﾇｶﾐｸﾞﾝﾀｶﾞﾁｮｳ","streetKana":"ﾘｮｳｾﾞﾝ","prefecture":"滋賀県","city":"犬上郡多賀町","street":"霊仙"}]