[{"zipCode":"5230000","prefectureKana":"ｼｶﾞｹﾝ","cityKana":"ｵｳﾐﾊﾁﾏﾝｼ","streetKana":"ｲｶﾆｹｲｻｲｶﾞﾅｲﾊﾞｱｲ","prefecture":"滋賀県","city":"近江八幡市","street":"以下に掲載がない場合"},{"zipCode":"5230836","prefectureKana":"ｼｶﾞｹﾝ","cityKana":"ｵｳﾐﾊﾁﾏﾝｼ","streetKana":"ｱｲﾉﾏﾁ","prefecture":"滋賀県","city":"近江八幡市","street":"間之町"},{"zipCode":"5230052","prefectureKana":"ｼｶﾞｹﾝ","cityKana":"ｵｳﾐﾊﾁﾏﾝｼ","streetKana":"ｱｺｳﾁｮｳ","prefecture":"滋賀県","city":"近江八幡市","street":"赤尾町"},{"zipCode":"5230817","prefectureKana":"ｼｶﾞｹﾝ","cityKana":"ｵｳﾐﾊﾁﾏﾝｼ","streetKana":"ｱｻｺﾞｲﾁｮｳ","prefecture":"滋賀県","city":"近江八幡市","street":"浅小井町"},{"zipCode":"5230045","prefectureKana":"ｼｶﾞｹﾝ","cityKana":"ｵｳﾐﾊﾁﾏﾝｼ","streetKana":"ｱﾝﾖｳｼﾞﾁｮｳ","prefecture":"滋賀県","city":"近江八幡市","street":"安養寺町"},{"zipCode":"5230823","prefectureKana":"ｼｶﾞｹﾝ","cityKana":"ｵｳﾐﾊﾁﾏﾝｼ","streetKana":"ｲｹｽﾁｮｳ","prefecture":"滋賀県","city":"近江八幡市","street":"生須町"},{"zipCode":"5230043","prefectureKana":"ｼｶﾞｹﾝ","cityKana":"ｵｳﾐﾊﾁﾏﾝｼ","streetKana":"ｲｹﾀﾞﾎﾝﾏﾁ","prefecture":"滋賀県","city":"近江八幡市","street":"池田本町"},{"zipCode":"5230877","prefectureKana":"ｼｶﾞｹﾝ","cityKana":"ｵｳﾐﾊﾁﾏﾝｼ","streetKana":"ｲｹﾀﾞﾏﾁ","prefecture":"滋賀県","city":"近江八幡市","street":"池田町"},{"zipCode":"5230866","prefectureKana":"ｼｶﾞｹﾝ","cityKana":"ｵｳﾐﾊﾁﾏﾝｼ","streetKana":"ｲｼﾝﾁｮｳｶﾐ","prefecture":"滋賀県","city":"近江八幡市","street":"為心町上"},{"zipCode":"5230865","prefectureKana":"ｼｶﾞｹﾝ","cityKana":"ｵｳﾐﾊﾁﾏﾝｼ","streetKana":"ｲｼﾝﾁｮｳﾅｶ","prefecture":"滋賀県","city":"近江八幡市","street":"為心町中"},{"zipCode":"5230864","prefectureKana":"ｼｶﾞｹﾝ","cityKana":"ｵｳﾐﾊﾁﾏﾝｼ","streetKana":"ｲｼﾝﾁｮｳﾓﾄ","prefecture":"滋賀県","city":"近江八幡市","street":"為心町元"},{"zipCode":"5230885","prefectureKana":"ｼｶﾞｹﾝ","cityKana":"ｵｳﾐﾊﾁﾏﾝｼ","streetKana":"ｲﾀﾔﾁｮｳ","prefecture":"滋賀県","city":"近江八幡市","street":"板屋町"},{"zipCode":"5230851","prefectureKana":"ｼｶﾞｹﾝ","cityKana":"ｵｳﾐﾊﾁﾏﾝｼ","streetKana":"ｲﾁｲﾁｮｳ","prefecture":"滋賀県","city":"近江八幡市","street":"市井町"},{"zipCode":"5230015","prefectureKana":"ｼｶﾞｹﾝ","cityKana":"ｵｳﾐﾊﾁﾏﾝｼ","streetKana":"ｳｴﾀﾞﾁｮｳ","prefecture":"滋賀県","city":"近江八幡市","street":"上田町"},{"zipCode":"5230046","prefectureKana":"ｼｶﾞｹﾝ","cityKana":"ｵｳﾐﾊﾁﾏﾝｼ","streetKana":"ｳｴﾉﾁｮｳ","prefecture":"滋賀県","city":"近江八幡市","street":"上野町"},{"zipCode":"5230026","prefectureKana":"ｼｶﾞｹﾝ","cityKana":"ｵｳﾐﾊﾁﾏﾝｼ","streetKana":"ｳｴﾊﾀﾁｮｳ","prefecture":"滋賀県","city":"近江八幡市","street":"上畑町"},{"zipCode":"5230895","prefectureKana":"ｼｶﾞｹﾝ","cityKana":"ｵｳﾐﾊﾁﾏﾝｼ","streetKana":"ｳﾂﾛﾁｮｳ","prefecture":"滋賀県","city":"近江八幡市","street":"宇津呂町"},{"zipCode":"5230869","prefectureKana":"ｼｶﾞｹﾝ","cityKana":"ｵｳﾐﾊﾁﾏﾝｼ","streetKana":"ｳﾜｲﾁｮｳｶﾐ","prefecture":"滋賀県","city":"近江八幡市","street":"魚屋町上"},{"zipCode":"5230868","prefectureKana":"ｼｶﾞｹﾝ","cityKana":"ｵｳﾐﾊﾁﾏﾝｼ","streetKana":"ｳﾜｲﾁｮｳﾅｶ","prefecture":"滋賀県","city":"近江八幡市","street":"魚屋町中"},{"zipCode":"5230867","prefectureKana":"ｼｶﾞｹﾝ","cityKana":"ｵｳﾐﾊﾁﾏﾝｼ","streetKana":"ｳﾜｲﾁｮｳﾓﾄ","prefecture":"滋賀県","city":"近江八幡市","street":"魚屋町元"},{"zipCode":"5230061","prefectureKana":"ｼｶﾞｹﾝ","cityKana":"ｵｳﾐﾊﾁﾏﾝｼ","streetKana":"ｴｶﾞｼﾗﾁｮｳ","prefecture":"滋賀県","city":"近江八幡市","street":"江頭町"},{"zipCode":"5230832","prefectureKana":"ｼｶﾞｹﾝ","cityKana":"ｵｳﾐﾊﾁﾏﾝｼ","streetKana":"ｴﾅﾐﾁｮｳ","prefecture":"滋賀県","city":"近江八幡市","street":"江南町"},{"zipCode":"5230837","prefectureKana":"ｼｶﾞｹﾝ","cityKana":"ｵｳﾐﾊﾁﾏﾝｼ","streetKana":"ｵｵｽｷﾞﾁｮｳ","prefecture":"滋賀県","city":"近江八幡市","street":"大杉町"},{"zipCode":"5230071","prefectureKana":"ｼｶﾞｹﾝ","cityKana":"ｵｳﾐﾊﾁﾏﾝｼ","streetKana":"ｵｵﾌﾞｻﾁｮｳ","prefecture":"滋賀県","city":"近江八幡市","street":"大房町"},{"zipCode":"5230042","prefectureKana":"ｼｶﾞｹﾝ","cityKana":"ｵｳﾐﾊﾁﾏﾝｼ","streetKana":"ｵｵﾓﾘﾁｮｳ","prefecture":"滋賀県","city":"近江八幡市","street":"大森町"},{"zipCode":"5230801","prefectureKana":"ｼｶﾞｹﾝ","cityKana":"ｵｳﾐﾊﾁﾏﾝｼ","streetKana":"ｵｷｼﾏﾁｮｳ","prefecture":"滋賀県","city":"近江八幡市","street":"沖島町"},{"zipCode":"5230811","prefectureKana":"ｼｶﾞｹﾝ","cityKana":"ｵｳﾐﾊﾁﾏﾝｼ","streetKana":"ｵｻﾀﾞﾁｮｳ","prefecture":"滋賀県","city":"近江八幡市","street":"長田町"},{"zipCode":"5230064","prefectureKana":"ｼｶﾞｹﾝ","cityKana":"ｵｳﾐﾊﾁﾏﾝｼ","streetKana":"ｵﾀﾞﾁｮｳ","prefecture":"滋賀県","city":"近江八幡市","street":"小田町"},{"zipCode":"5230856","prefectureKana":"ｼｶﾞｹﾝ","cityKana":"ｵｳﾐﾊﾁﾏﾝｼ","streetKana":"ｵﾄﾜﾁｮｳ","prefecture":"滋賀県","city":"近江八幡市","street":"音羽町"},{"zipCode":"5230875","prefectureKana":"ｼｶﾞｹﾝ","cityKana":"ｵｳﾐﾊﾁﾏﾝｼ","streetKana":"ｵﾊﾞﾀﾁｮｳｶﾐ","prefecture":"滋賀県","city":"近江八幡市","street":"小幡町上"},{"zipCode":"5230874","prefectureKana":"ｼｶﾞｹﾝ","cityKana":"ｵｳﾐﾊﾁﾏﾝｼ","streetKana":"ｵﾊﾞﾀﾁｮｳﾅｶ","prefecture":"滋賀県","city":"近江八幡市","street":"小幡町中"},{"zipCode":"5230852","prefectureKana":"ｼｶﾞｹﾝ","cityKana":"ｵｳﾐﾊﾁﾏﾝｼ","streetKana":"ｶｷﾞﾉﾃﾁｮｳ","prefecture":"滋賀県","city":"近江八幡市","street":"鍵之手町"},{"zipCode":"5230833","prefectureKana":"ｼｶﾞｹﾝ","cityKana":"ｵｳﾐﾊﾁﾏﾝｼ","streetKana":"ｶｼﾞﾔﾁｮｳ","prefecture":"滋賀県","city":"近江八幡市","street":"鍛治屋町"},{"zipCode":"5230058","prefectureKana":"ｼｶﾞｹﾝ","cityKana":"ｵｳﾐﾊﾁﾏﾝｼ","streetKana":"ｶﾓﾁｮｳ","prefecture":"滋賀県","city":"近江八幡市","street":"加茂町"},{"zipCode":"5230047","prefectureKana":"ｼｶﾞｹﾝ","cityKana":"ｵｳﾐﾊﾁﾏﾝｼ","streetKana":"ｶﾜﾗﾏﾁ","prefecture":"滋賀県","city":"近江八幡市","street":"川原町"},{"zipCode":"5230884","prefectureKana":"ｼｶﾞｹﾝ","cityKana":"ｵｳﾐﾊﾁﾏﾝｼ","streetKana":"ｷﾀｽｴﾁｮｳ","prefecture":"滋賀県","city":"近江八幡市","street":"北末町"},{"zipCode":"5230087","prefectureKana":"ｼｶﾞｹﾝ","cityKana":"ｵｳﾐﾊﾁﾏﾝｼ","streetKana":"ｷﾀﾂﾀﾞﾁｮｳ","prefecture":"滋賀県","city":"近江八幡市","street":"北津田町"},{"zipCode":"5230806","prefectureKana":"ｼｶﾞｹﾝ","cityKana":"ｵｳﾐﾊﾁﾏﾝｼ","streetKana":"ｷﾀﾉｼｮｳﾁｮｳ","prefecture":"滋賀県","city":"近江八幡市","street":"北之庄町"},{"zipCode":"5230883","prefectureKana":"ｼｶﾞｹﾝ","cityKana":"ｵｳﾐﾊﾁﾏﾝｼ","streetKana":"ｷﾀﾓﾄﾁｮｳ","prefecture":"滋賀県","city":"近江八幡市","street":"北元町"},{"zipCode":"5230023","prefectureKana":"ｼｶﾞｹﾝ","cityKana":"ｵｳﾐﾊﾁﾏﾝｼ","streetKana":"ｸﾗﾊｼﾍﾞﾁｮｳ","prefecture":"滋賀県","city":"近江八幡市","street":"倉橋部町"},{"zipCode":"5230003","prefectureKana":"ｼｶﾞｹﾝ","cityKana":"ｵｳﾐﾊﾁﾏﾝｼ","streetKana":"ｺﾞｼｮｳﾁﾁｮｳ","prefecture":"滋賀県","city":"近江八幡市","street":"御所内町"},{"zipCode":"5230083","prefectureKana":"ｼｶﾞｹﾝ","cityKana":"ｵｳﾐﾊﾁﾏﾝｼ","streetKana":"ｺﾌﾞﾅｷﾁｮｳ","prefecture":"滋賀県","city":"近江八幡市","street":"小船木町"},{"zipCode":"5230001","prefectureKana":"ｼｶﾞｹﾝ","cityKana":"ｵｳﾐﾊﾁﾏﾝｼ","streetKana":"ｺﾝｺﾞｳｼﾞﾁｮｳ","prefecture":"滋賀県","city":"近江八幡市","street":"金剛寺町"},{"zipCode":"5230881","prefectureKana":"ｼｶﾞｹﾝ","cityKana":"ｵｳﾐﾊﾁﾏﾝｼ","streetKana":"ｻｸﾏﾁｮｳ","prefecture":"滋賀県","city":"近江八幡市","street":"佐久間町"},{"zipCode":"5230893","prefectureKana":"ｼｶﾞｹﾝ","cityKana":"ｵｳﾐﾊﾁﾏﾝｼ","streetKana":"ｻｸﾗﾐﾔﾁｮｳ","prefecture":"滋賀県","city":"近江八幡市","street":"桜宮町"},{"zipCode":"5230076","prefectureKana":"ｼｶﾞｹﾝ","cityKana":"ｵｳﾐﾊﾁﾏﾝｼ","streetKana":"ｻﾊﾞｴﾁｮｳ","prefecture":"滋賀県","city":"近江八幡市","street":"佐波江町"},{"zipCode":"5230843","prefectureKana":"ｼｶﾞｹﾝ","cityKana":"ｵｳﾐﾊﾁﾏﾝｼ","streetKana":"ｼﾞｵﾝｼﾞﾁｮｳｶﾐ","prefecture":"滋賀県","city":"近江八幡市","street":"慈恩寺町上"},{"zipCode":"5230842","prefectureKana":"ｼｶﾞｹﾝ","cityKana":"ｵｳﾐﾊﾁﾏﾝｼ","streetKana":"ｼﾞｵﾝｼﾞﾁｮｳﾅｶ","prefecture":"滋賀県","city":"近江八幡市","street":"慈恩寺町中"},{"zipCode":"5230841","prefectureKana":"ｼｶﾞｹﾝ","cityKana":"ｵｳﾐﾊﾁﾏﾝｼ","streetKana":"ｼﾞｵﾝｼﾞﾁｮｳﾓﾄ","prefecture":"滋賀県","city":"近江八幡市","street":"慈恩寺町元"},{"zipCode":"5230044","prefectureKana":"ｼｶﾞｹﾝ","cityKana":"ｵｳﾐﾊﾁﾏﾝｼ","streetKana":"ｼﾉﾊﾗﾁｮｳ","prefecture":"滋賀県","city":"近江八幡市","street":"篠原町"},{"zipCode":"5230804","prefectureKana":"ｼｶﾞｹﾝ","cityKana":"ｵｳﾐﾊﾁﾏﾝｼ","streetKana":"ｼﾏﾁｮｳ","prefecture":"滋賀県","city":"近江八幡市","street":"島町"},{"zipCode":"5230063","prefectureKana":"ｼｶﾞｹﾝ","cityKana":"ｵｳﾐﾊﾁﾏﾝｼ","streetKana":"ｼﾞｭｳｵｳﾁｮｳ","prefecture":"滋賀県","city":"近江八幡市","street":"十王町"},{"zipCode":"5230873","prefectureKana":"ｼｶﾞｹﾝ","cityKana":"ｵｳﾐﾊﾁﾏﾝｼ","streetKana":"ｼｮｳｶﾞﾐﾁｮｳ","prefecture":"滋賀県","city":"近江八幡市","street":"正神町"},{"zipCode":"5230024","prefectureKana":"ｼｶﾞｹﾝ","cityKana":"ｵｳﾐﾊﾁﾏﾝｼ","streetKana":"ｼﾞｮｳﾄﾞｼﾞﾁｮｳ","prefecture":"滋賀県","city":"近江八幡市","street":"浄土寺町"},{"zipCode":"5230803","prefectureKana":"ｼｶﾞｹﾝ","cityKana":"ｵｳﾐﾊﾁﾏﾝｼ","streetKana":"ｼﾗｵｳﾁｮｳ","prefecture":"滋賀県","city":"近江八幡市","street":"白王町"},{"zipCode":"5230032","prefectureKana":"ｼｶﾞｹﾝ","cityKana":"ｵｳﾐﾊﾁﾏﾝｼ","streetKana":"ｼﾗﾄﾘﾁｮｳ","prefecture":"滋賀県","city":"近江八幡市","street":"白鳥町"},{"zipCode":"5230825","prefectureKana":"ｼｶﾞｹﾝ","cityKana":"ｵｳﾐﾊﾁﾏﾝｼ","streetKana":"ｼﾝｻﾞｴﾓﾝﾁｮｳ","prefecture":"滋賀県","city":"近江八幡市","street":"新左衛門町"},{"zipCode":"5230081","prefectureKana":"ｼｶﾞｹﾝ","cityKana":"ｵｳﾐﾊﾁﾏﾝｼ","streetKana":"ｼﾝｻｶｴﾏﾁ","prefecture":"滋賀県","city":"近江八幡市","street":"新栄町"},{"zipCode":"5230025","prefectureKana":"ｼｶﾞｹﾝ","cityKana":"ｵｳﾐﾊﾁﾏﾝｼ","streetKana":"ｼﾝﾏｷﾁｮｳ","prefecture":"滋賀県","city":"近江八幡市","street":"新巻町"},{"zipCode":"5230871","prefectureKana":"ｼｶﾞｹﾝ","cityKana":"ｵｳﾐﾊﾁﾏﾝｼ","streetKana":"ｼﾝﾏﾁ","prefecture":"滋賀県","city":"近江八幡市","street":"新町"},{"zipCode":"5230074","prefectureKana":"ｼｶﾞｹﾝ","cityKana":"ｵｳﾐﾊﾁﾏﾝｼ","streetKana":"ｽｲｹｲﾁｮｳ","prefecture":"滋賀県","city":"近江八幡市","street":"水茎町"},{"zipCode":"5230005","prefectureKana":"ｼｶﾞｹﾝ","cityKana":"ｵｳﾐﾊﾁﾏﾝｼ","streetKana":"ｽｴﾋﾛﾁｮｳ","prefecture":"滋賀県","city":"近江八幡市","street":"末広町"},{"zipCode":"5230812","prefectureKana":"ｼｶﾞｹﾝ","cityKana":"ｵｳﾐﾊﾁﾏﾝｼ","streetKana":"ｽｷﾞﾉﾓﾘﾁｮｳ","prefecture":"滋賀県","city":"近江八幡市","street":"杉森町"},{"zipCode":"5230863","prefectureKana":"ｼｶﾞｹﾝ","cityKana":"ｵｳﾐﾊﾁﾏﾝｼ","streetKana":"ｽﾜｲﾁｮｳｶﾐ","prefecture":"滋賀県","city":"近江八幡市","street":"仲屋町上"},{"zipCode":"5230862","prefectureKana":"ｼｶﾞｹﾝ","cityKana":"ｵｳﾐﾊﾁﾏﾝｼ","streetKana":"ｽﾜｲﾁｮｳﾅｶ","prefecture":"滋賀県","city":"近江八幡市","street":"仲屋町中"},{"zipCode":"5230861","prefectureKana":"ｼｶﾞｹﾝ","cityKana":"ｵｳﾐﾊﾁﾏﾝｼ","streetKana":"ｽﾜｲﾁｮｳﾓﾄ","prefecture":"滋賀県","city":"近江八幡市","street":"仲屋町元"},{"zipCode":"5230016","prefectureKana":"ｼｶﾞｹﾝ","cityKana":"ｵｳﾐﾊﾁﾏﾝｼ","streetKana":"ｾﾝｿﾞｸﾁｮｳ","prefecture":"滋賀県","city":"近江八幡市","street":"千僧供町"},{"zipCode":"5230824","prefectureKana":"ｼｶﾞｹﾝ","cityKana":"ｵｳﾐﾊﾁﾏﾝｼ","streetKana":"ﾀﾞｲｸﾁｮｳ","prefecture":"滋賀県","city":"近江八幡市","street":"大工町"},{"zipCode":"5230802","prefectureKana":"ｼｶﾞｹﾝ","cityKana":"ｵｳﾐﾊﾁﾏﾝｼ","streetKana":"ﾀﾞｲﾅｶﾁｮｳ","prefecture":"滋賀県","city":"近江八幡市","street":"大中町"},{"zipCode":"5230891","prefectureKana":"ｼｶﾞｹﾝ","cityKana":"ｵｳﾐﾊﾁﾏﾝｼ","streetKana":"ﾀｶｶｲﾁｮｳ","prefecture":"滋賀県","city":"近江八幡市","street":"鷹飼町"},{"zipCode":"5230896","prefectureKana":"ｼｶﾞｹﾝ","cityKana":"ｵｳﾐﾊﾁﾏﾝｼ","streetKana":"ﾀｶｶｲﾁｮｳｷﾀ","prefecture":"滋賀県","city":"近江八幡市","street":"鷹飼町北"},{"zipCode":"5230897","prefectureKana":"ｼｶﾞｹﾝ","cityKana":"ｵｳﾐﾊﾁﾏﾝｼ","streetKana":"ﾀｶｶｲﾁｮｳﾋｶﾞｼ","prefecture":"滋賀県","city":"近江八幡市","street":"鷹飼町東"},{"zipCode":"5230898","prefectureKana":"ｼｶﾞｹﾝ","cityKana":"ｵｳﾐﾊﾁﾏﾝｼ","streetKana":"ﾀｶｶｲﾁｮｳﾐﾅﾐ","prefecture":"滋賀県","city":"近江八幡市","street":"鷹飼町南"},{"zipCode":"5230821","prefectureKana":"ｼｶﾞｹﾝ","cityKana":"ｵｳﾐﾊﾁﾏﾝｼ","streetKana":"ﾀｶﾞﾁｮｳ","prefecture":"滋賀県","city":"近江八幡市","street":"多賀町"},{"zipCode":"5230036","prefectureKana":"ｼｶﾞｹﾝ","cityKana":"ｵｳﾐﾊﾁﾏﾝｼ","streetKana":"ﾀｹﾁｮｳ","prefecture":"滋賀県","city":"近江八幡市","street":"竹町"},{"zipCode":"5230057","prefectureKana":"ｼｶﾞｹﾝ","cityKana":"ｵｳﾐﾊﾁﾏﾝｼ","streetKana":"ﾀﾅｶｴﾁｮｳ","prefecture":"滋賀県","city":"近江八幡市","street":"田中江町"},{"zipCode":"5230872","prefectureKana":"ｼｶﾞｹﾝ","cityKana":"ｵｳﾐﾊﾁﾏﾝｼ","streetKana":"ﾀﾏｷﾁｮｳ","prefecture":"滋賀県","city":"近江八幡市","street":"玉木町"},{"zipCode":"5230831","prefectureKana":"ｼｶﾞｹﾝ","cityKana":"ｵｳﾐﾊﾁﾏﾝｼ","streetKana":"ﾀﾏﾔﾁｮｳ","prefecture":"滋賀県","city":"近江八幡市","street":"玉屋町"},{"zipCode":"5230013","prefectureKana":"ｼｶﾞｹﾝ","cityKana":"ｵｳﾐﾊﾁﾏﾝｼ","streetKana":"ﾁｮｳｺｳｼﾞﾁｮｳ","prefecture":"滋賀県","city":"近江八幡市","street":"長光寺町"},{"zipCode":"5230021","prefectureKana":"ｼｶﾞｹﾝ","cityKana":"ｵｳﾐﾊﾁﾏﾝｼ","streetKana":"ﾁｮｳﾌｸｼﾞﾁｮｳ","prefecture":"滋賀県","city":"近江八幡市","street":"長福寺町"},{"zipCode":"5230808","prefectureKana":"ｼｶﾞｹﾝ","cityKana":"ｵｳﾐﾊﾁﾏﾝｼ","streetKana":"ﾁｮｳﾒｲｼﾞﾁｮｳ","prefecture":"滋賀県","city":"近江八幡市","street":"長命寺町"},{"zipCode":"5230086","prefectureKana":"ｼｶﾞｹﾝ","cityKana":"ｵｳﾐﾊﾁﾏﾝｼ","streetKana":"ﾂﾀﾞﾁｮｳ","prefecture":"滋賀県","city":"近江八幡市","street":"津田町"},{"zipCode":"5230082","prefectureKana":"ｼｶﾞｹﾝ","cityKana":"ｵｳﾐﾊﾁﾏﾝｼ","streetKana":"ﾂﾁﾀﾞﾁｮｳ","prefecture":"滋賀県","city":"近江八幡市","street":"土田町"},{"zipCode":"5230827","prefectureKana":"ｼｶﾞｹﾝ","cityKana":"ｵｳﾐﾊﾁﾏﾝｼ","streetKana":"ﾃｯﾎﾟｳﾁｮｳ","prefecture":"滋賀県","city":"近江八幡市","street":"鉄炮町"},{"zipCode":"5230892","prefectureKana":"ｼｶﾞｹﾝ","cityKana":"ｵｳﾐﾊﾁﾏﾝｼ","streetKana":"ﾃﾞﾏﾁ","prefecture":"滋賀県","city":"近江八幡市","street":"出町"},{"zipCode":"5230011","prefectureKana":"ｼｶﾞｹﾝ","cityKana":"ｵｳﾐﾊﾁﾏﾝｼ","streetKana":"ﾄﾓｻﾀﾞﾁｮｳ","prefecture":"滋賀県","city":"近江八幡市","street":"友定町"},{"zipCode":"5230041","prefectureKana":"ｼｶﾞｹﾝ","cityKana":"ｵｳﾐﾊﾁﾏﾝｼ","streetKana":"ﾅｶｺﾓﾘﾁｮｳ","prefecture":"滋賀県","city":"近江八幡市","street":"中小森町"},{"zipCode":"5230807","prefectureKana":"ｼｶﾞｹﾝ","cityKana":"ｵｳﾐﾊﾁﾏﾝｼ","streetKana":"ﾅｶﾉｼｮｳﾁｮｳ","prefecture":"滋賀県","city":"近江八幡市","street":"中之庄町"},{"zipCode":"5230849","prefectureKana":"ｼｶﾞｹﾝ","cityKana":"ｵｳﾐﾊﾁﾏﾝｼ","streetKana":"ﾅｶﾞﾊﾗﾁｮｳｶﾐ","prefecture":"滋賀県","city":"近江八幡市","street":"永原町上"},{"zipCode":"5230848","prefectureKana":"ｼｶﾞｹﾝ","cityKana":"ｵｳﾐﾊﾁﾏﾝｼ","streetKana":"ﾅｶﾞﾊﾗﾁｮｳﾅｶ","prefecture":"滋賀県","city":"近江八幡市","street":"永原町中"},{"zipCode":"5230847","prefectureKana":"ｼｶﾞｹﾝ","cityKana":"ｵｳﾐﾊﾁﾏﾝｼ","streetKana":"ﾅｶﾞﾊﾗﾁｮｳﾓﾄ","prefecture":"滋賀県","city":"近江八幡市","street":"永原町元"},{"zipCode":"5230894","prefectureKana":"ｼｶﾞｹﾝ","cityKana":"ｵｳﾐﾊﾁﾏﾝｼ","streetKana":"ﾅｶﾑﾗﾁｮｳ","prefecture":"滋賀県","city":"近江八幡市","street":"中村町"},{"zipCode":"5230855","prefectureKana":"ｼｶﾞｹﾝ","cityKana":"ｵｳﾐﾊﾁﾏﾝｼ","streetKana":"ﾅﾜﾃﾁｮｳｽｴ","prefecture":"滋賀県","city":"近江八幡市","street":"縄手町末"},{"zipCode":"5230854","prefectureKana":"ｼｶﾞｹﾝ","cityKana":"ｵｳﾐﾊﾁﾏﾝｼ","streetKana":"ﾅﾜﾃﾁｮｳﾅｶ","prefecture":"滋賀県","city":"近江八幡市","street":"縄手町中"},{"zipCode":"5230853","prefectureKana":"ｼｶﾞｹﾝ","cityKana":"ｵｳﾐﾊﾁﾏﾝｼ","streetKana":"ﾅﾜﾃﾁｮｳﾓﾄ","prefecture":"滋賀県","city":"近江八幡市","street":"縄手町元"},{"zipCode":"5230014","prefectureKana":"ｼｶﾞｹﾝ","cityKana":"ｵｳﾐﾊﾁﾏﾝｼ","streetKana":"ﾆｼｼﾞｭｸﾁｮｳ","prefecture":"滋賀県","city":"近江八幡市","street":"西宿町"},{"zipCode":"5230886","prefectureKana":"ｼｶﾞｹﾝ","cityKana":"ｵｳﾐﾊﾁﾏﾝｼ","streetKana":"ﾆｼｽｴﾁｮｳ","prefecture":"滋賀県","city":"近江八幡市","street":"西末町"},{"zipCode":"5230835","prefectureKana":"ｼｶﾞｹﾝ","cityKana":"ｵｳﾐﾊﾁﾏﾝｼ","streetKana":"ﾆｼﾀﾀﾐﾔﾁｮｳ","prefecture":"滋賀県","city":"近江八幡市","street":"西畳屋町"},{"zipCode":"5230816","prefectureKana":"ｼｶﾞｹﾝ","cityKana":"ｵｳﾐﾊﾁﾏﾝｼ","streetKana":"ﾆｼﾉｼｮｳﾁｮｳ","prefecture":"滋賀県","city":"近江八幡市","street":"西庄町"},{"zipCode":"5230813","prefectureKana":"ｼｶﾞｹﾝ","cityKana":"ｵｳﾐﾊﾁﾏﾝｼ","streetKana":"ﾆｼﾎﾝｺﾞｳﾁｮｳ","prefecture":"滋賀県","city":"近江八幡市","street":"西本郷町"},{"zipCode":"5230819","prefectureKana":"ｼｶﾞｹﾝ","cityKana":"ｵｳﾐﾊﾁﾏﾝｼ","streetKana":"ﾆｼﾎﾝｺﾞｳﾁｮｳﾆｼ","prefecture":"滋賀県","city":"近江八幡市","street":"西本郷町西"},{"zipCode":"5230818","prefectureKana":"ｼｶﾞｹﾝ","cityKana":"ｵｳﾐﾊﾁﾏﾝｼ","streetKana":"ﾆｼﾎﾝｺﾞｳﾁｮｳﾋｶﾞｼ","prefecture":"滋賀県","city":"近江八幡市","street":"西本郷町東"},{"zipCode":"5230887","prefectureKana":"ｼｶﾞｹﾝ","cityKana":"ｵｳﾐﾊﾁﾏﾝｼ","streetKana":"ﾆｼﾓﾄﾁｮｳ","prefecture":"滋賀県","city":"近江八幡市","street":"西元町"},{"zipCode":"5230004","prefectureKana":"ｼｶﾞｹﾝ","cityKana":"ｵｳﾐﾊﾁﾏﾝｼ","streetKana":"ﾆｼｮｳﾗｲﾁｮｳ","prefecture":"滋賀県","city":"近江八幡市","street":"西生来町"},{"zipCode":"5230002","prefectureKana":"ｼｶﾞｹﾝ","cityKana":"ｵｳﾐﾊﾁﾏﾝｼ","streetKana":"ﾉﾀﾞﾁｮｳ","prefecture":"滋賀県","city":"近江八幡市","street":"野田町"},{"zipCode":"5230075","prefectureKana":"ｼｶﾞｹﾝ","cityKana":"ｵｳﾐﾊﾁﾏﾝｼ","streetKana":"ﾉﾑﾗﾁｮｳ","prefecture":"滋賀県","city":"近江八幡市","street":"野村町"},{"zipCode":"5230846","prefectureKana":"ｼｶﾞｹﾝ","cityKana":"ｵｳﾐﾊﾁﾏﾝｼ","streetKana":"ﾊﾞｸﾛﾁｮｳｶﾐ","prefecture":"滋賀県","city":"近江八幡市","street":"博労町上"},{"zipCode":"5230845","prefectureKana":"ｼｶﾞｹﾝ","cityKana":"ｵｳﾐﾊﾁﾏﾝｼ","streetKana":"ﾊﾞｸﾛﾁｮｳﾅｶ","prefecture":"滋賀県","city":"近江八幡市","street":"博労町中"},{"zipCode":"5230844","prefectureKana":"ｼｶﾞｹﾝ","cityKana":"ｵｳﾐﾊﾁﾏﾝｼ","streetKana":"ﾊﾞｸﾛﾁｮｳﾓﾄ","prefecture":"滋賀県","city":"近江八幡市","street":"博労町元"},{"zipCode":"5230857","prefectureKana":"ｼｶﾞｹﾝ","cityKana":"ｵｳﾐﾊﾁﾏﾝｼ","streetKana":"ﾊﾁﾏﾝﾁｮｳ","prefecture":"滋賀県","city":"近江八幡市","street":"八幡町"},{"zipCode":"5230027","prefectureKana":"ｼｶﾞｹﾝ","cityKana":"ｵｳﾐﾊﾁﾏﾝｼ","streetKana":"ﾋｶﾞｼｶﾞﾜﾁｮｳ","prefecture":"滋賀県","city":"近江八幡市","street":"東川町"},{"zipCode":"5230834","prefectureKana":"ｼｶﾞｹﾝ","cityKana":"ｵｳﾐﾊﾁﾏﾝｼ","streetKana":"ﾋｶﾞｼﾀﾀﾐﾔﾁｮｳ","prefecture":"滋賀県","city":"近江八幡市","street":"東畳屋町"},{"zipCode":"5230037","prefectureKana":"ｼｶﾞｹﾝ","cityKana":"ｵｳﾐﾊﾁﾏﾝｼ","streetKana":"ﾋｶﾞｼﾁｮｳ","prefecture":"滋賀県","city":"近江八幡市","street":"東町"},{"zipCode":"5230035","prefectureKana":"ｼｶﾞｹﾝ","cityKana":"ｵｳﾐﾊﾁﾏﾝｼ","streetKana":"ﾋｶﾞｼﾖｺｾﾞｷﾁｮｳ","prefecture":"滋賀県","city":"近江八幡市","street":"東横関町"},{"zipCode":"5230889","prefectureKana":"ｼｶﾞｹﾝ","cityKana":"ｵｳﾐﾊﾁﾏﾝｼ","streetKana":"ﾋｽｷﾞﾁｮｳ","prefecture":"滋賀県","city":"近江八幡市","street":"日杉町"},{"zipCode":"5230033","prefectureKana":"ｼｶﾞｹﾝ","cityKana":"ｵｳﾐﾊﾁﾏﾝｼ","streetKana":"ﾋﾖﾉﾁｮｳ","prefecture":"滋賀県","city":"近江八幡市","street":"日吉野町"},{"zipCode":"5230084","prefectureKana":"ｼｶﾞｹﾝ","cityKana":"ｵｳﾐﾊﾁﾏﾝｼ","streetKana":"ﾌﾅｷﾁｮｳ","prefecture":"滋賀県","city":"近江八幡市","street":"船木町"},{"zipCode":"5230822","prefectureKana":"ｼｶﾞｹﾝ","cityKana":"ｵｳﾐﾊﾁﾏﾝｼ","streetKana":"ﾌﾅﾏﾁ","prefecture":"滋賀県","city":"近江八幡市","street":"船町"},{"zipCode":"5230056","prefectureKana":"ｼｶﾞｹﾝ","cityKana":"ｵｳﾐﾊﾁﾏﾝｼ","streetKana":"ﾌﾙｶﾜﾁｮｳ","prefecture":"滋賀県","city":"近江八幡市","street":"古川町"},{"zipCode":"5230031","prefectureKana":"ｼｶﾞｹﾝ","cityKana":"ｵｳﾐﾊﾁﾏﾝｼ","streetKana":"ﾎﾘｶﾐﾁｮｳ","prefecture":"滋賀県","city":"近江八幡市","street":"堀上町"},{"zipCode":"5230876","prefectureKana":"ｼｶﾞｹﾝ","cityKana":"ｵｳﾐﾊﾁﾏﾝｼ","streetKana":"ﾎﾝﾏﾁ","prefecture":"滋賀県","city":"近江八幡市","street":"本町"},{"zipCode":"5230072","prefectureKana":"ｼｶﾞｹﾝ","cityKana":"ｵｳﾐﾊﾁﾏﾝｼ","streetKana":"ﾏｷﾁｮｳ","prefecture":"滋賀県","city":"近江八幡市","street":"牧町"},{"zipCode":"5230888","prefectureKana":"ｼｶﾞｹﾝ","cityKana":"ｵｳﾐﾊﾁﾏﾝｼ","streetKana":"ﾏｺﾞﾍｲｼﾞﾁｮｳ","prefecture":"滋賀県","city":"近江八幡市","street":"孫平治町"},{"zipCode":"5230053","prefectureKana":"ｼｶﾞｹﾝ","cityKana":"ｵｳﾐﾊﾁﾏﾝｼ","streetKana":"ﾏｽﾀﾞﾁｮｳ","prefecture":"滋賀県","city":"近江八幡市","street":"益田町"},{"zipCode":"5230022","prefectureKana":"ｼｶﾞｹﾝ","cityKana":"ｵｳﾐﾊﾁﾏﾝｼ","streetKana":"ﾏﾌﾞﾁﾁｮｳ","prefecture":"滋賀県","city":"近江八幡市","street":"馬淵町"},{"zipCode":"5230062","prefectureKana":"ｼｶﾞｹﾝ","cityKana":"ｵｳﾐﾊﾁﾏﾝｼ","streetKana":"ﾏﾙﾉｳﾁﾁｮｳ","prefecture":"滋賀県","city":"近江八幡市","street":"丸の内町"},{"zipCode":"5230805","prefectureKana":"ｼｶﾞｹﾝ","cityKana":"ｵｳﾐﾊﾁﾏﾝｼ","streetKana":"ﾏﾙﾔﾏﾁｮｳ","prefecture":"滋賀県","city":"近江八幡市","street":"円山町"},{"zipCode":"5230048","prefectureKana":"ｼｶﾞｹﾝ","cityKana":"ｵｳﾐﾊﾁﾏﾝｼ","streetKana":"ﾐﾄﾞﾘﾏﾁ","prefecture":"滋賀県","city":"近江八幡市","street":"緑町"},{"zipCode":"5230085","prefectureKana":"ｼｶﾞｹﾝ","cityKana":"ｵｳﾐﾊﾁﾏﾝｼ","streetKana":"ﾐﾅﾐﾂﾀﾞﾁｮｳ","prefecture":"滋賀県","city":"近江八幡市","street":"南津田町"},{"zipCode":"5230814","prefectureKana":"ｼｶﾞｹﾝ","cityKana":"ｵｳﾐﾊﾁﾏﾝｼ","streetKana":"ﾐﾅﾐﾎﾝｺﾞｳﾁｮｳ","prefecture":"滋賀県","city":"近江八幡市","street":"南本郷町"},{"zipCode":"5230828","prefectureKana":"ｼｶﾞｹﾝ","cityKana":"ｵｳﾐﾊﾁﾏﾝｼ","streetKana":"ﾐﾔｳﾁﾁｮｳ","prefecture":"滋賀県","city":"近江八幡市","street":"宮内町"},{"zipCode":"5230012","prefectureKana":"ｼｶﾞｹﾝ","cityKana":"ｵｳﾐﾊﾁﾏﾝｼ","streetKana":"ﾑｻﾁｮｳ","prefecture":"滋賀県","city":"近江八幡市","street":"武佐町"},{"zipCode":"5230073","prefectureKana":"ｼｶﾞｹﾝ","cityKana":"ｵｳﾐﾊﾁﾏﾝｼ","streetKana":"ﾓﾄｽｲｹｲﾁｮｳ","prefecture":"滋賀県","city":"近江八幡市","street":"元水茎町"},{"zipCode":"5230882","prefectureKana":"ｼｶﾞｹﾝ","cityKana":"ｵｳﾐﾊﾁﾏﾝｼ","streetKana":"ﾓﾄﾀﾏﾔﾁｮｳ","prefecture":"滋賀県","city":"近江八幡市","street":"元玉屋町"},{"zipCode":"5230054","prefectureKana":"ｼｶﾞｹﾝ","cityKana":"ｵｳﾐﾊﾁﾏﾝｼ","streetKana":"ﾓﾘｼﾞﾘﾁｮｳ","prefecture":"滋賀県","city":"近江八幡市","street":"森尻町"},{"zipCode":"5230051","prefectureKana":"ｼｶﾞｹﾝ","cityKana":"ｵｳﾐﾊﾁﾏﾝｼ","streetKana":"ﾔｷﾞﾁｮｳ","prefecture":"滋賀県","city":"近江八幡市","street":"八木町"},{"zipCode":"5230826","prefectureKana":"ｼｶﾞｹﾝ","cityKana":"ｵｳﾐﾊﾁﾏﾝｼ","streetKana":"ﾔｸｼﾁｮｳ","prefecture":"滋賀県","city":"近江八幡市","street":"薬師町"},{"zipCode":"5230055","prefectureKana":"ｼｶﾞｹﾝ","cityKana":"ｵｳﾐﾊﾁﾏﾝｼ","streetKana":"ﾔﾅｷﾞﾏﾁ","prefecture":"滋賀県","city":"近江八幡市","street":"柳町"},{"zipCode":"5230815","prefectureKana":"ｼｶﾞｹﾝ","cityKana":"ｵｳﾐﾊﾁﾏﾝｼ","streetKana":"ﾜｶﾊﾞﾁｮｳ","prefecture":"滋賀県","city":"近江八幡市","street":"若葉町"},{"zipCode":"5230034","prefectureKana":"ｼｶﾞｹﾝ","cityKana":"ｵｳﾐﾊﾁﾏﾝｼ","streetKana":"ﾜｶﾐﾔﾁｮｳ","prefecture":"滋賀県","city":"近江八幡市","street":"若宮町"}]