[{"zipCode":"5310076","prefectureKana":"ｵｵｻｶﾌ","cityKana":"ｵｵｻｶｼｷﾀｸ","streetKana":"ｵｵﾖﾄﾞﾅｶ(ﾂｷﾞﾉﾋﾞﾙｦﾉｿﾞｸ)","prefecture":"大阪府","city":"大阪市北区","street":"大淀中（次のビルを除く）"},{"zipCode":"5316090","prefectureKana":"ｵｵｻｶﾌ","cityKana":"ｵｵｻｶｼｷﾀｸ","streetKana":"ｵｵﾖﾄﾞﾅｶｳﾒﾀﾞｽｶｲﾋﾞﾙﾀﾜｰｲｰｽﾄ(ﾁｶｲ･ｶｲｿｳﾌﾒｲ)","prefecture":"大阪府","city":"大阪市北区","street":"大淀中梅田スカイビルタワーイースト（地階・階層不明）"},{"zipCode":"5316001","prefectureKana":"ｵｵｻｶﾌ","cityKana":"ｵｵｻｶｼｷﾀｸ","streetKana":"ｵｵﾖﾄﾞﾅｶｳﾒﾀﾞｽｶｲﾋﾞﾙﾀﾜｰｲｰｽﾄ(1ｶｲ)","prefecture":"大阪府","city":"大阪市北区","street":"大淀中梅田スカイビルタワーイースト（１階）"},{"zipCode":"5316002","prefectureKana":"ｵｵｻｶﾌ","cityKana":"ｵｵｻｶｼｷﾀｸ","streetKana":"ｵｵﾖﾄﾞﾅｶｳﾒﾀﾞｽｶｲﾋﾞﾙﾀﾜｰｲｰｽﾄ(2ｶｲ)","prefecture":"大阪府","city":"大阪市北区","street":"大淀中梅田スカイビルタワーイースト（２階）"},{"zipCode":"5316003","prefectureKana":"ｵｵｻｶﾌ","cityKana":"ｵｵｻｶｼｷﾀｸ","streetKana":"ｵｵﾖﾄﾞﾅｶｳﾒﾀﾞｽｶｲﾋﾞﾙﾀﾜｰｲｰｽﾄ(3ｶｲ)","prefecture":"大阪府","city":"大阪市北区","street":"大淀中梅田スカイビルタワーイースト（３階）"},{"zipCode":"5316004","prefectureKana":"ｵｵｻｶﾌ","cityKana":"ｵｵｻｶｼｷﾀｸ","streetKana":"ｵｵﾖﾄﾞﾅｶｳﾒﾀﾞｽｶｲﾋﾞﾙﾀﾜｰｲｰｽﾄ(4ｶｲ)","prefecture":"大阪府","city":"大阪市北区","street":"大淀中梅田スカイビルタワーイースト（４階）"},{"zipCode":"5316005","prefectureKana":"ｵｵｻｶﾌ","cityKana":"ｵｵｻｶｼｷﾀｸ","streetKana":"ｵｵﾖﾄﾞﾅｶｳﾒﾀﾞｽｶｲﾋﾞﾙﾀﾜｰｲｰｽﾄ(5ｶｲ)","prefecture":"大阪府","city":"大阪市北区","street":"大淀中梅田スカイビルタワーイースト（５階）"},{"zipCode":"5316006","prefectureKana":"ｵｵｻｶﾌ","cityKana":"ｵｵｻｶｼｷﾀｸ","streetKana":"ｵｵﾖﾄﾞﾅｶｳﾒﾀﾞｽｶｲﾋﾞﾙﾀﾜｰｲｰｽﾄ(6ｶｲ)","prefecture":"大阪府","city":"大阪市北区","street":"大淀中梅田スカイビルタワーイースト（６階）"},{"zipCode":"5316007","prefectureKana":"ｵｵｻｶﾌ","cityKana":"ｵｵｻｶｼｷﾀｸ","streetKana":"ｵｵﾖﾄﾞﾅｶｳﾒﾀﾞｽｶｲﾋﾞﾙﾀﾜｰｲｰｽﾄ(7ｶｲ)","prefecture":"大阪府","city":"大阪市北区","street":"大淀中梅田スカイビルタワーイースト（７階）"},{"zipCode":"5316008","prefectureKana":"ｵｵｻｶﾌ","cityKana":"ｵｵｻｶｼｷﾀｸ","streetKana":"ｵｵﾖﾄﾞﾅｶｳﾒﾀﾞｽｶｲﾋﾞﾙﾀﾜｰｲｰｽﾄ(8ｶｲ)","prefecture":"大阪府","city":"大阪市北区","street":"大淀中梅田スカイビルタワーイースト（８階）"},{"zipCode":"5316009","prefectureKana":"ｵｵｻｶﾌ","cityKana":"ｵｵｻｶｼｷﾀｸ","streetKana":"ｵｵﾖﾄﾞﾅｶｳﾒﾀﾞｽｶｲﾋﾞﾙﾀﾜｰｲｰｽﾄ(9ｶｲ)","prefecture":"大阪府","city":"大阪市北区","street":"大淀中梅田スカイビルタワーイースト（９階）"},{"zipCode":"5316010","prefectureKana":"ｵｵｻｶﾌ","cityKana":"ｵｵｻｶｼｷﾀｸ","streetKana":"ｵｵﾖﾄﾞﾅｶｳﾒﾀﾞｽｶｲﾋﾞﾙﾀﾜｰｲｰｽﾄ(10ｶｲ)","prefecture":"大阪府","city":"大阪市北区","street":"大淀中梅田スカイビルタワーイースト（１０階）"},{"zipCode":"5316011","prefectureKana":"ｵｵｻｶﾌ","cityKana":"ｵｵｻｶｼｷﾀｸ","streetKana":"ｵｵﾖﾄﾞﾅｶｳﾒﾀﾞｽｶｲﾋﾞﾙﾀﾜｰｲｰｽﾄ(11ｶｲ)","prefecture":"大阪府","city":"大阪市北区","street":"大淀中梅田スカイビルタワーイースト（１１階）"},{"zipCode":"5316012","prefectureKana":"ｵｵｻｶﾌ","cityKana":"ｵｵｻｶｼｷﾀｸ","streetKana":"ｵｵﾖﾄﾞﾅｶｳﾒﾀﾞｽｶｲﾋﾞﾙﾀﾜｰｲｰｽﾄ(12ｶｲ)","prefecture":"大阪府","city":"大阪市北区","street":"大淀中梅田スカイビルタワーイースト（１２階）"},{"zipCode":"5316013","prefectureKana":"ｵｵｻｶﾌ","cityKana":"ｵｵｻｶｼｷﾀｸ","streetKana":"ｵｵﾖﾄﾞﾅｶｳﾒﾀﾞｽｶｲﾋﾞﾙﾀﾜｰｲｰｽﾄ(13ｶｲ)","prefecture":"大阪府","city":"大阪市北区","street":"大淀中梅田スカイビルタワーイースト（１３階）"},{"zipCode":"5316014","prefectureKana":"ｵｵｻｶﾌ","cityKana":"ｵｵｻｶｼｷﾀｸ","streetKana":"ｵｵﾖﾄﾞﾅｶｳﾒﾀﾞｽｶｲﾋﾞﾙﾀﾜｰｲｰｽﾄ(14ｶｲ)","prefecture":"大阪府","city":"大阪市北区","street":"大淀中梅田スカイビルタワーイースト（１４階）"},{"zipCode":"5316015","prefectureKana":"ｵｵｻｶﾌ","cityKana":"ｵｵｻｶｼｷﾀｸ","streetKana":"ｵｵﾖﾄﾞﾅｶｳﾒﾀﾞｽｶｲﾋﾞﾙﾀﾜｰｲｰｽﾄ(15ｶｲ)","prefecture":"大阪府","city":"大阪市北区","street":"大淀中梅田スカイビルタワーイースト（１５階）"},{"zipCode":"5316016","prefectureKana":"ｵｵｻｶﾌ","cityKana":"ｵｵｻｶｼｷﾀｸ","streetKana":"ｵｵﾖﾄﾞﾅｶｳﾒﾀﾞｽｶｲﾋﾞﾙﾀﾜｰｲｰｽﾄ(16ｶｲ)","prefecture":"大阪府","city":"大阪市北区","street":"大淀中梅田スカイビルタワーイースト（１６階）"},{"zipCode":"5316017","prefectureKana":"ｵｵｻｶﾌ","cityKana":"ｵｵｻｶｼｷﾀｸ","streetKana":"ｵｵﾖﾄﾞﾅｶｳﾒﾀﾞｽｶｲﾋﾞﾙﾀﾜｰｲｰｽﾄ(17ｶｲ)","prefecture":"大阪府","city":"大阪市北区","street":"大淀中梅田スカイビルタワーイースト（１７階）"},{"zipCode":"5316018","prefectureKana":"ｵｵｻｶﾌ","cityKana":"ｵｵｻｶｼｷﾀｸ","streetKana":"ｵｵﾖﾄﾞﾅｶｳﾒﾀﾞｽｶｲﾋﾞﾙﾀﾜｰｲｰｽﾄ(18ｶｲ)","prefecture":"大阪府","city":"大阪市北区","street":"大淀中梅田スカイビルタワーイースト（１８階）"},{"zipCode":"5316019","prefectureKana":"ｵｵｻｶﾌ","cityKana":"ｵｵｻｶｼｷﾀｸ","streetKana":"ｵｵﾖﾄﾞﾅｶｳﾒﾀﾞｽｶｲﾋﾞﾙﾀﾜｰｲｰｽﾄ(19ｶｲ)","prefecture":"大阪府","city":"大阪市北区","street":"大淀中梅田スカイビルタワーイースト（１９階）"},{"zipCode":"5316020","prefectureKana":"ｵｵｻｶﾌ","cityKana":"ｵｵｻｶｼｷﾀｸ","streetKana":"ｵｵﾖﾄﾞﾅｶｳﾒﾀﾞｽｶｲﾋﾞﾙﾀﾜｰｲｰｽﾄ(20ｶｲ)","prefecture":"大阪府","city":"大阪市北区","street":"大淀中梅田スカイビルタワーイースト（２０階）"},{"zipCode":"5316021","prefectureKana":"ｵｵｻｶﾌ","cityKana":"ｵｵｻｶｼｷﾀｸ","streetKana":"ｵｵﾖﾄﾞﾅｶｳﾒﾀﾞｽｶｲﾋﾞﾙﾀﾜｰｲｰｽﾄ(21ｶｲ)","prefecture":"大阪府","city":"大阪市北区","street":"大淀中梅田スカイビルタワーイースト（２１階）"},{"zipCode":"5316022","prefectureKana":"ｵｵｻｶﾌ","cityKana":"ｵｵｻｶｼｷﾀｸ","streetKana":"ｵｵﾖﾄﾞﾅｶｳﾒﾀﾞｽｶｲﾋﾞﾙﾀﾜｰｲｰｽﾄ(22ｶｲ)","prefecture":"大阪府","city":"大阪市北区","street":"大淀中梅田スカイビルタワーイースト（２２階）"},{"zipCode":"5316023","prefectureKana":"ｵｵｻｶﾌ","cityKana":"ｵｵｻｶｼｷﾀｸ","streetKana":"ｵｵﾖﾄﾞﾅｶｳﾒﾀﾞｽｶｲﾋﾞﾙﾀﾜｰｲｰｽﾄ(23ｶｲ)","prefecture":"大阪府","city":"大阪市北区","street":"大淀中梅田スカイビルタワーイースト（２３階）"},{"zipCode":"5316024","prefectureKana":"ｵｵｻｶﾌ","cityKana":"ｵｵｻｶｼｷﾀｸ","streetKana":"ｵｵﾖﾄﾞﾅｶｳﾒﾀﾞｽｶｲﾋﾞﾙﾀﾜｰｲｰｽﾄ(24ｶｲ)","prefecture":"大阪府","city":"大阪市北区","street":"大淀中梅田スカイビルタワーイースト（２４階）"},{"zipCode":"5316025","prefectureKana":"ｵｵｻｶﾌ","cityKana":"ｵｵｻｶｼｷﾀｸ","streetKana":"ｵｵﾖﾄﾞﾅｶｳﾒﾀﾞｽｶｲﾋﾞﾙﾀﾜｰｲｰｽﾄ(25ｶｲ)","prefecture":"大阪府","city":"大阪市北区","street":"大淀中梅田スカイビルタワーイースト（２５階）"},{"zipCode":"5316026","prefectureKana":"ｵｵｻｶﾌ","cityKana":"ｵｵｻｶｼｷﾀｸ","streetKana":"ｵｵﾖﾄﾞﾅｶｳﾒﾀﾞｽｶｲﾋﾞﾙﾀﾜｰｲｰｽﾄ(26ｶｲ)","prefecture":"大阪府","city":"大阪市北区","street":"大淀中梅田スカイビルタワーイースト（２６階）"},{"zipCode":"5316027","prefectureKana":"ｵｵｻｶﾌ","cityKana":"ｵｵｻｶｼｷﾀｸ","streetKana":"ｵｵﾖﾄﾞﾅｶｳﾒﾀﾞｽｶｲﾋﾞﾙﾀﾜｰｲｰｽﾄ(27ｶｲ)","prefecture":"大阪府","city":"大阪市北区","street":"大淀中梅田スカイビルタワーイースト（２７階）"},{"zipCode":"5316028","prefectureKana":"ｵｵｻｶﾌ","cityKana":"ｵｵｻｶｼｷﾀｸ","streetKana":"ｵｵﾖﾄﾞﾅｶｳﾒﾀﾞｽｶｲﾋﾞﾙﾀﾜｰｲｰｽﾄ(28ｶｲ)","prefecture":"大阪府","city":"大阪市北区","street":"大淀中梅田スカイビルタワーイースト（２８階）"},{"zipCode":"5316029","prefectureKana":"ｵｵｻｶﾌ","cityKana":"ｵｵｻｶｼｷﾀｸ","streetKana":"ｵｵﾖﾄﾞﾅｶｳﾒﾀﾞｽｶｲﾋﾞﾙﾀﾜｰｲｰｽﾄ(29ｶｲ)","prefecture":"大阪府","city":"大阪市北区","street":"大淀中梅田スカイビルタワーイースト（２９階）"},{"zipCode":"5316030","prefectureKana":"ｵｵｻｶﾌ","cityKana":"ｵｵｻｶｼｷﾀｸ","streetKana":"ｵｵﾖﾄﾞﾅｶｳﾒﾀﾞｽｶｲﾋﾞﾙﾀﾜｰｲｰｽﾄ(30ｶｲ)","prefecture":"大阪府","city":"大阪市北区","street":"大淀中梅田スカイビルタワーイースト（３０階）"},{"zipCode":"5316031","prefectureKana":"ｵｵｻｶﾌ","cityKana":"ｵｵｻｶｼｷﾀｸ","streetKana":"ｵｵﾖﾄﾞﾅｶｳﾒﾀﾞｽｶｲﾋﾞﾙﾀﾜｰｲｰｽﾄ(31ｶｲ)","prefecture":"大阪府","city":"大阪市北区","street":"大淀中梅田スカイビルタワーイースト（３１階）"},{"zipCode":"5316032","prefectureKana":"ｵｵｻｶﾌ","cityKana":"ｵｵｻｶｼｷﾀｸ","streetKana":"ｵｵﾖﾄﾞﾅｶｳﾒﾀﾞｽｶｲﾋﾞﾙﾀﾜｰｲｰｽﾄ(32ｶｲ)","prefecture":"大阪府","city":"大阪市北区","street":"大淀中梅田スカイビルタワーイースト（３２階）"},{"zipCode":"5316033","prefectureKana":"ｵｵｻｶﾌ","cityKana":"ｵｵｻｶｼｷﾀｸ","streetKana":"ｵｵﾖﾄﾞﾅｶｳﾒﾀﾞｽｶｲﾋﾞﾙﾀﾜｰｲｰｽﾄ(33ｶｲ)","prefecture":"大阪府","city":"大阪市北区","street":"大淀中梅田スカイビルタワーイースト（３３階）"},{"zipCode":"5316034","prefectureKana":"ｵｵｻｶﾌ","cityKana":"ｵｵｻｶｼｷﾀｸ","streetKana":"ｵｵﾖﾄﾞﾅｶｳﾒﾀﾞｽｶｲﾋﾞﾙﾀﾜｰｲｰｽﾄ(34ｶｲ)","prefecture":"大阪府","city":"大阪市北区","street":"大淀中梅田スカイビルタワーイースト（３４階）"},{"zipCode":"5316035","prefectureKana":"ｵｵｻｶﾌ","cityKana":"ｵｵｻｶｼｷﾀｸ","streetKana":"ｵｵﾖﾄﾞﾅｶｳﾒﾀﾞｽｶｲﾋﾞﾙﾀﾜｰｲｰｽﾄ(35ｶｲ)","prefecture":"大阪府","city":"大阪市北区","street":"大淀中梅田スカイビルタワーイースト（３５階）"},{"zipCode":"5316036","prefectureKana":"ｵｵｻｶﾌ","cityKana":"ｵｵｻｶｼｷﾀｸ","streetKana":"ｵｵﾖﾄﾞﾅｶｳﾒﾀﾞｽｶｲﾋﾞﾙﾀﾜｰｲｰｽﾄ(36ｶｲ)","prefecture":"大阪府","city":"大阪市北区","street":"大淀中梅田スカイビルタワーイースト（３６階）"},{"zipCode":"5316037","prefectureKana":"ｵｵｻｶﾌ","cityKana":"ｵｵｻｶｼｷﾀｸ","streetKana":"ｵｵﾖﾄﾞﾅｶｳﾒﾀﾞｽｶｲﾋﾞﾙﾀﾜｰｲｰｽﾄ(37ｶｲ)","prefecture":"大阪府","city":"大阪市北区","street":"大淀中梅田スカイビルタワーイースト（３７階）"},{"zipCode":"5316038","prefectureKana":"ｵｵｻｶﾌ","cityKana":"ｵｵｻｶｼｷﾀｸ","streetKana":"ｵｵﾖﾄﾞﾅｶｳﾒﾀﾞｽｶｲﾋﾞﾙﾀﾜｰｲｰｽﾄ(38ｶｲ)","prefecture":"大阪府","city":"大阪市北区","street":"大淀中梅田スカイビルタワーイースト（３８階）"},{"zipCode":"5316039","prefectureKana":"ｵｵｻｶﾌ","cityKana":"ｵｵｻｶｼｷﾀｸ","streetKana":"ｵｵﾖﾄﾞﾅｶｳﾒﾀﾞｽｶｲﾋﾞﾙﾀﾜｰｲｰｽﾄ(39ｶｲ)","prefecture":"大阪府","city":"大阪市北区","street":"大淀中梅田スカイビルタワーイースト（３９階）"},{"zipCode":"5316190","prefectureKana":"ｵｵｻｶﾌ","cityKana":"ｵｵｻｶｼｷﾀｸ","streetKana":"ｵｵﾖﾄﾞﾅｶｳﾒﾀﾞｽｶｲﾋﾞﾙﾀﾜｰｳｴｽﾄ(ﾁｶｲ･ｶｲｿｳﾌﾒｲ)","prefecture":"大阪府","city":"大阪市北区","street":"大淀中梅田スカイビルタワーウエスト（地階・階層不明）"},{"zipCode":"5316101","prefectureKana":"ｵｵｻｶﾌ","cityKana":"ｵｵｻｶｼｷﾀｸ","streetKana":"ｵｵﾖﾄﾞﾅｶｳﾒﾀﾞｽｶｲﾋﾞﾙﾀﾜｰｳｴｽﾄ(1ｶｲ)","prefecture":"大阪府","city":"大阪市北区","street":"大淀中梅田スカイビルタワーウエスト（１階）"},{"zipCode":"5316102","prefectureKana":"ｵｵｻｶﾌ","cityKana":"ｵｵｻｶｼｷﾀｸ","streetKana":"ｵｵﾖﾄﾞﾅｶｳﾒﾀﾞｽｶｲﾋﾞﾙﾀﾜｰｳｴｽﾄ(2ｶｲ)","prefecture":"大阪府","city":"大阪市北区","street":"大淀中梅田スカイビルタワーウエスト（２階）"},{"zipCode":"5316103","prefectureKana":"ｵｵｻｶﾌ","cityKana":"ｵｵｻｶｼｷﾀｸ","streetKana":"ｵｵﾖﾄﾞﾅｶｳﾒﾀﾞｽｶｲﾋﾞﾙﾀﾜｰｳｴｽﾄ(3ｶｲ)","prefecture":"大阪府","city":"大阪市北区","street":"大淀中梅田スカイビルタワーウエスト（３階）"},{"zipCode":"5316104","prefectureKana":"ｵｵｻｶﾌ","cityKana":"ｵｵｻｶｼｷﾀｸ","streetKana":"ｵｵﾖﾄﾞﾅｶｳﾒﾀﾞｽｶｲﾋﾞﾙﾀﾜｰｳｴｽﾄ(4ｶｲ)","prefecture":"大阪府","city":"大阪市北区","street":"大淀中梅田スカイビルタワーウエスト（４階）"},{"zipCode":"5316105","prefectureKana":"ｵｵｻｶﾌ","cityKana":"ｵｵｻｶｼｷﾀｸ","streetKana":"ｵｵﾖﾄﾞﾅｶｳﾒﾀﾞｽｶｲﾋﾞﾙﾀﾜｰｳｴｽﾄ(5ｶｲ)","prefecture":"大阪府","city":"大阪市北区","street":"大淀中梅田スカイビルタワーウエスト（５階）"},{"zipCode":"5316106","prefectureKana":"ｵｵｻｶﾌ","cityKana":"ｵｵｻｶｼｷﾀｸ","streetKana":"ｵｵﾖﾄﾞﾅｶｳﾒﾀﾞｽｶｲﾋﾞﾙﾀﾜｰｳｴｽﾄ(6ｶｲ)","prefecture":"大阪府","city":"大阪市北区","street":"大淀中梅田スカイビルタワーウエスト（６階）"},{"zipCode":"5316107","prefectureKana":"ｵｵｻｶﾌ","cityKana":"ｵｵｻｶｼｷﾀｸ","streetKana":"ｵｵﾖﾄﾞﾅｶｳﾒﾀﾞｽｶｲﾋﾞﾙﾀﾜｰｳｴｽﾄ(7ｶｲ)","prefecture":"大阪府","city":"大阪市北区","street":"大淀中梅田スカイビルタワーウエスト（７階）"},{"zipCode":"5316108","prefectureKana":"ｵｵｻｶﾌ","cityKana":"ｵｵｻｶｼｷﾀｸ","streetKana":"ｵｵﾖﾄﾞﾅｶｳﾒﾀﾞｽｶｲﾋﾞﾙﾀﾜｰｳｴｽﾄ(8ｶｲ)","prefecture":"大阪府","city":"大阪市北区","street":"大淀中梅田スカイビルタワーウエスト（８階）"},{"zipCode":"5316109","prefectureKana":"ｵｵｻｶﾌ","cityKana":"ｵｵｻｶｼｷﾀｸ","streetKana":"ｵｵﾖﾄﾞﾅｶｳﾒﾀﾞｽｶｲﾋﾞﾙﾀﾜｰｳｴｽﾄ(9ｶｲ)","prefecture":"大阪府","city":"大阪市北区","street":"大淀中梅田スカイビルタワーウエスト（９階）"},{"zipCode":"5316110","prefectureKana":"ｵｵｻｶﾌ","cityKana":"ｵｵｻｶｼｷﾀｸ","streetKana":"ｵｵﾖﾄﾞﾅｶｳﾒﾀﾞｽｶｲﾋﾞﾙﾀﾜｰｳｴｽﾄ(10ｶｲ)","prefecture":"大阪府","city":"大阪市北区","street":"大淀中梅田スカイビルタワーウエスト（１０階）"},{"zipCode":"5316111","prefectureKana":"ｵｵｻｶﾌ","cityKana":"ｵｵｻｶｼｷﾀｸ","streetKana":"ｵｵﾖﾄﾞﾅｶｳﾒﾀﾞｽｶｲﾋﾞﾙﾀﾜｰｳｴｽﾄ(11ｶｲ)","prefecture":"大阪府","city":"大阪市北区","street":"大淀中梅田スカイビルタワーウエスト（１１階）"},{"zipCode":"5316112","prefectureKana":"ｵｵｻｶﾌ","cityKana":"ｵｵｻｶｼｷﾀｸ","streetKana":"ｵｵﾖﾄﾞﾅｶｳﾒﾀﾞｽｶｲﾋﾞﾙﾀﾜｰｳｴｽﾄ(12ｶｲ)","prefecture":"大阪府","city":"大阪市北区","street":"大淀中梅田スカイビルタワーウエスト（１２階）"},{"zipCode":"5316113","prefectureKana":"ｵｵｻｶﾌ","cityKana":"ｵｵｻｶｼｷﾀｸ","streetKana":"ｵｵﾖﾄﾞﾅｶｳﾒﾀﾞｽｶｲﾋﾞﾙﾀﾜｰｳｴｽﾄ(13ｶｲ)","prefecture":"大阪府","city":"大阪市北区","street":"大淀中梅田スカイビルタワーウエスト（１３階）"},{"zipCode":"5316114","prefectureKana":"ｵｵｻｶﾌ","cityKana":"ｵｵｻｶｼｷﾀｸ","streetKana":"ｵｵﾖﾄﾞﾅｶｳﾒﾀﾞｽｶｲﾋﾞﾙﾀﾜｰｳｴｽﾄ(14ｶｲ)","prefecture":"大阪府","city":"大阪市北区","street":"大淀中梅田スカイビルタワーウエスト（１４階）"},{"zipCode":"5316115","prefectureKana":"ｵｵｻｶﾌ","cityKana":"ｵｵｻｶｼｷﾀｸ","streetKana":"ｵｵﾖﾄﾞﾅｶｳﾒﾀﾞｽｶｲﾋﾞﾙﾀﾜｰｳｴｽﾄ(15ｶｲ)","prefecture":"大阪府","city":"大阪市北区","street":"大淀中梅田スカイビルタワーウエスト（１５階）"},{"zipCode":"5316116","prefectureKana":"ｵｵｻｶﾌ","cityKana":"ｵｵｻｶｼｷﾀｸ","streetKana":"ｵｵﾖﾄﾞﾅｶｳﾒﾀﾞｽｶｲﾋﾞﾙﾀﾜｰｳｴｽﾄ(16ｶｲ)","prefecture":"大阪府","city":"大阪市北区","street":"大淀中梅田スカイビルタワーウエスト（１６階）"},{"zipCode":"5316117","prefectureKana":"ｵｵｻｶﾌ","cityKana":"ｵｵｻｶｼｷﾀｸ","streetKana":"ｵｵﾖﾄﾞﾅｶｳﾒﾀﾞｽｶｲﾋﾞﾙﾀﾜｰｳｴｽﾄ(17ｶｲ)","prefecture":"大阪府","city":"大阪市北区","street":"大淀中梅田スカイビルタワーウエスト（１７階）"},{"zipCode":"5316118","prefectureKana":"ｵｵｻｶﾌ","cityKana":"ｵｵｻｶｼｷﾀｸ","streetKana":"ｵｵﾖﾄﾞﾅｶｳﾒﾀﾞｽｶｲﾋﾞﾙﾀﾜｰｳｴｽﾄ(18ｶｲ)","prefecture":"大阪府","city":"大阪市北区","street":"大淀中梅田スカイビルタワーウエスト（１８階）"},{"zipCode":"5316119","prefectureKana":"ｵｵｻｶﾌ","cityKana":"ｵｵｻｶｼｷﾀｸ","streetKana":"ｵｵﾖﾄﾞﾅｶｳﾒﾀﾞｽｶｲﾋﾞﾙﾀﾜｰｳｴｽﾄ(19ｶｲ)","prefecture":"大阪府","city":"大阪市北区","street":"大淀中梅田スカイビルタワーウエスト（１９階）"},{"zipCode":"5316120","prefectureKana":"ｵｵｻｶﾌ","cityKana":"ｵｵｻｶｼｷﾀｸ","streetKana":"ｵｵﾖﾄﾞﾅｶｳﾒﾀﾞｽｶｲﾋﾞﾙﾀﾜｰｳｴｽﾄ(20ｶｲ)","prefecture":"大阪府","city":"大阪市北区","street":"大淀中梅田スカイビルタワーウエスト（２０階）"},{"zipCode":"5316121","prefectureKana":"ｵｵｻｶﾌ","cityKana":"ｵｵｻｶｼｷﾀｸ","streetKana":"ｵｵﾖﾄﾞﾅｶｳﾒﾀﾞｽｶｲﾋﾞﾙﾀﾜｰｳｴｽﾄ(21ｶｲ)","prefecture":"大阪府","city":"大阪市北区","street":"大淀中梅田スカイビルタワーウエスト（２１階）"},{"zipCode":"5316122","prefectureKana":"ｵｵｻｶﾌ","cityKana":"ｵｵｻｶｼｷﾀｸ","streetKana":"ｵｵﾖﾄﾞﾅｶｳﾒﾀﾞｽｶｲﾋﾞﾙﾀﾜｰｳｴｽﾄ(22ｶｲ)","prefecture":"大阪府","city":"大阪市北区","street":"大淀中梅田スカイビルタワーウエスト（２２階）"},{"zipCode":"5316123","prefectureKana":"ｵｵｻｶﾌ","cityKana":"ｵｵｻｶｼｷﾀｸ","streetKana":"ｵｵﾖﾄﾞﾅｶｳﾒﾀﾞｽｶｲﾋﾞﾙﾀﾜｰｳｴｽﾄ(23ｶｲ)","prefecture":"大阪府","city":"大阪市北区","street":"大淀中梅田スカイビルタワーウエスト（２３階）"},{"zipCode":"5316124","prefectureKana":"ｵｵｻｶﾌ","cityKana":"ｵｵｻｶｼｷﾀｸ","streetKana":"ｵｵﾖﾄﾞﾅｶｳﾒﾀﾞｽｶｲﾋﾞﾙﾀﾜｰｳｴｽﾄ(24ｶｲ)","prefecture":"大阪府","city":"大阪市北区","street":"大淀中梅田スカイビルタワーウエスト（２４階）"},{"zipCode":"5316125","prefectureKana":"ｵｵｻｶﾌ","cityKana":"ｵｵｻｶｼｷﾀｸ","streetKana":"ｵｵﾖﾄﾞﾅｶｳﾒﾀﾞｽｶｲﾋﾞﾙﾀﾜｰｳｴｽﾄ(25ｶｲ)","prefecture":"大阪府","city":"大阪市北区","street":"大淀中梅田スカイビルタワーウエスト（２５階）"},{"zipCode":"5316126","prefectureKana":"ｵｵｻｶﾌ","cityKana":"ｵｵｻｶｼｷﾀｸ","streetKana":"ｵｵﾖﾄﾞﾅｶｳﾒﾀﾞｽｶｲﾋﾞﾙﾀﾜｰｳｴｽﾄ(26ｶｲ)","prefecture":"大阪府","city":"大阪市北区","street":"大淀中梅田スカイビルタワーウエスト（２６階）"},{"zipCode":"5316127","prefectureKana":"ｵｵｻｶﾌ","cityKana":"ｵｵｻｶｼｷﾀｸ","streetKana":"ｵｵﾖﾄﾞﾅｶｳﾒﾀﾞｽｶｲﾋﾞﾙﾀﾜｰｳｴｽﾄ(27ｶｲ)","prefecture":"大阪府","city":"大阪市北区","street":"大淀中梅田スカイビルタワーウエスト（２７階）"},{"zipCode":"5316128","prefectureKana":"ｵｵｻｶﾌ","cityKana":"ｵｵｻｶｼｷﾀｸ","streetKana":"ｵｵﾖﾄﾞﾅｶｳﾒﾀﾞｽｶｲﾋﾞﾙﾀﾜｰｳｴｽﾄ(28ｶｲ)","prefecture":"大阪府","city":"大阪市北区","street":"大淀中梅田スカイビルタワーウエスト（２８階）"},{"zipCode":"5316129","prefectureKana":"ｵｵｻｶﾌ","cityKana":"ｵｵｻｶｼｷﾀｸ","streetKana":"ｵｵﾖﾄﾞﾅｶｳﾒﾀﾞｽｶｲﾋﾞﾙﾀﾜｰｳｴｽﾄ(29ｶｲ)","prefecture":"大阪府","city":"大阪市北区","street":"大淀中梅田スカイビルタワーウエスト（２９階）"},{"zipCode":"5316130","prefectureKana":"ｵｵｻｶﾌ","cityKana":"ｵｵｻｶｼｷﾀｸ","streetKana":"ｵｵﾖﾄﾞﾅｶｳﾒﾀﾞｽｶｲﾋﾞﾙﾀﾜｰｳｴｽﾄ(30ｶｲ)","prefecture":"大阪府","city":"大阪市北区","street":"大淀中梅田スカイビルタワーウエスト（３０階）"},{"zipCode":"5316131","prefectureKana":"ｵｵｻｶﾌ","cityKana":"ｵｵｻｶｼｷﾀｸ","streetKana":"ｵｵﾖﾄﾞﾅｶｳﾒﾀﾞｽｶｲﾋﾞﾙﾀﾜｰｳｴｽﾄ(31ｶｲ)","prefecture":"大阪府","city":"大阪市北区","street":"大淀中梅田スカイビルタワーウエスト（３１階）"},{"zipCode":"5316132","prefectureKana":"ｵｵｻｶﾌ","cityKana":"ｵｵｻｶｼｷﾀｸ","streetKana":"ｵｵﾖﾄﾞﾅｶｳﾒﾀﾞｽｶｲﾋﾞﾙﾀﾜｰｳｴｽﾄ(32ｶｲ)","prefecture":"大阪府","city":"大阪市北区","street":"大淀中梅田スカイビルタワーウエスト（３２階）"},{"zipCode":"5316133","prefectureKana":"ｵｵｻｶﾌ","cityKana":"ｵｵｻｶｼｷﾀｸ","streetKana":"ｵｵﾖﾄﾞﾅｶｳﾒﾀﾞｽｶｲﾋﾞﾙﾀﾜｰｳｴｽﾄ(33ｶｲ)","prefecture":"大阪府","city":"大阪市北区","street":"大淀中梅田スカイビルタワーウエスト（３３階）"},{"zipCode":"5316134","prefectureKana":"ｵｵｻｶﾌ","cityKana":"ｵｵｻｶｼｷﾀｸ","streetKana":"ｵｵﾖﾄﾞﾅｶｳﾒﾀﾞｽｶｲﾋﾞﾙﾀﾜｰｳｴｽﾄ(34ｶｲ)","prefecture":"大阪府","city":"大阪市北区","street":"大淀中梅田スカイビルタワーウエスト（３４階）"},{"zipCode":"5316135","prefectureKana":"ｵｵｻｶﾌ","cityKana":"ｵｵｻｶｼｷﾀｸ","streetKana":"ｵｵﾖﾄﾞﾅｶｳﾒﾀﾞｽｶｲﾋﾞﾙﾀﾜｰｳｴｽﾄ(35ｶｲ)","prefecture":"大阪府","city":"大阪市北区","street":"大淀中梅田スカイビルタワーウエスト（３５階）"},{"zipCode":"5316136","prefectureKana":"ｵｵｻｶﾌ","cityKana":"ｵｵｻｶｼｷﾀｸ","streetKana":"ｵｵﾖﾄﾞﾅｶｳﾒﾀﾞｽｶｲﾋﾞﾙﾀﾜｰｳｴｽﾄ(36ｶｲ)","prefecture":"大阪府","city":"大阪市北区","street":"大淀中梅田スカイビルタワーウエスト（３６階）"},{"zipCode":"5316137","prefectureKana":"ｵｵｻｶﾌ","cityKana":"ｵｵｻｶｼｷﾀｸ","streetKana":"ｵｵﾖﾄﾞﾅｶｳﾒﾀﾞｽｶｲﾋﾞﾙﾀﾜｰｳｴｽﾄ(37ｶｲ)","prefecture":"大阪府","city":"大阪市北区","street":"大淀中梅田スカイビルタワーウエスト（３７階）"},{"zipCode":"5316138","prefectureKana":"ｵｵｻｶﾌ","cityKana":"ｵｵｻｶｼｷﾀｸ","streetKana":"ｵｵﾖﾄﾞﾅｶｳﾒﾀﾞｽｶｲﾋﾞﾙﾀﾜｰｳｴｽﾄ(38ｶｲ)","prefecture":"大阪府","city":"大阪市北区","street":"大淀中梅田スカイビルタワーウエスト（３８階）"},{"zipCode":"5316139","prefectureKana":"ｵｵｻｶﾌ","cityKana":"ｵｵｻｶｼｷﾀｸ","streetKana":"ｵｵﾖﾄﾞﾅｶｳﾒﾀﾞｽｶｲﾋﾞﾙﾀﾜｰｳｴｽﾄ(39ｶｲ)","prefecture":"大阪府","city":"大阪市北区","street":"大淀中梅田スカイビルタワーウエスト（３９階）"},{"zipCode":"5310075","prefectureKana":"ｵｵｻｶﾌ","cityKana":"ｵｵｻｶｼｷﾀｸ","streetKana":"ｵｵﾖﾄﾞﾐﾅﾐ","prefecture":"大阪府","city":"大阪市北区","street":"大淀南"},{"zipCode":"5310077","prefectureKana":"ｵｵｻｶﾌ","cityKana":"ｵｵｻｶｼｷﾀｸ","streetKana":"ｵｵﾖﾄﾞｷﾀ","prefecture":"大阪府","city":"大阪市北区","street":"大淀北"},{"zipCode":"5310064","prefectureKana":"ｵｵｻｶﾌ","cityKana":"ｵｵｻｶｼｷﾀｸ","streetKana":"ｺｸﾌﾞﾝｼﾞ","prefecture":"大阪府","city":"大阪市北区","street":"国分寺"},{"zipCode":"5310041","prefectureKana":"ｵｵｻｶﾌ","cityKana":"ｵｵｻｶｼｷﾀｸ","streetKana":"ﾃﾝｼﾞﾝﾊﾞｼ(7､8ﾁｮｳﾒ)","prefecture":"大阪府","city":"大阪市北区","street":"天神橋（７、８丁目）"},{"zipCode":"5310072","prefectureKana":"ｵｵｻｶﾌ","cityKana":"ｵｵｻｶｼｷﾀｸ","streetKana":"ﾄﾖｻｷ","prefecture":"大阪府","city":"大阪市北区","street":"豊崎"},{"zipCode":"5310071","prefectureKana":"ｵｵｻｶﾌ","cityKana":"ｵｵｻｶｼｷﾀｸ","streetKana":"ﾅｶﾂ","prefecture":"大阪府","city":"大阪市北区","street":"中津"},{"zipCode":"5310062","prefectureKana":"ｵｵｻｶﾌ","cityKana":"ｵｵｻｶｼｷﾀｸ","streetKana":"ﾅｶﾞﾗﾅｶ","prefecture":"大阪府","city":"大阪市北区","street":"長柄中"},{"zipCode":"5310063","prefectureKana":"ｵｵｻｶﾌ","cityKana":"ｵｵｻｶｼｷﾀｸ","streetKana":"ﾅｶﾞﾗﾋｶﾞｼ","prefecture":"大阪府","city":"大阪市北区","street":"長柄東"},{"zipCode":"5310061","prefectureKana":"ｵｵｻｶﾌ","cityKana":"ｵｵｻｶｼｷﾀｸ","streetKana":"ﾅｶﾞﾗﾆｼ","prefecture":"大阪府","city":"大阪市北区","street":"長柄西"},{"zipCode":"5310074","prefectureKana":"ｵｵｻｶﾌ","cityKana":"ｵｵｻｶｼｷﾀｸ","streetKana":"ﾎﾝｼﾞｮｳﾋｶﾞｼ","prefecture":"大阪府","city":"大阪市北区","street":"本庄東"},{"zipCode":"5310073","prefectureKana":"ｵｵｻｶﾌ","cityKana":"ｵｵｻｶｼｷﾀｸ","streetKana":"ﾎﾝｼﾞｮｳﾆｼ","prefecture":"大阪府","city":"大阪市北区","street":"本庄西"}]