[{"zipCode":"5330000","prefectureKana":"ｵｵｻｶﾌ","cityKana":"ｵｵｻｶｼﾋｶﾞｼﾖﾄﾞｶﾞﾜｸ","streetKana":"ｲｶﾆｹｲｻｲｶﾞﾅｲﾊﾞｱｲ","prefecture":"大阪府","city":"大阪市東淀川区","street":"以下に掲載がない場合"},{"zipCode":"5330007","prefectureKana":"ｵｵｻｶﾌ","cityKana":"ｵｵｻｶｼﾋｶﾞｼﾖﾄﾞｶﾞﾜｸ","streetKana":"ｱｲｶﾜ","prefecture":"大阪府","city":"大阪市東淀川区","street":"相川"},{"zipCode":"5330032","prefectureKana":"ｵｵｻｶﾌ","cityKana":"ｵｵｻｶｼﾋｶﾞｼﾖﾄﾞｶﾞﾜｸ","streetKana":"ｱﾜｼﾞ","prefecture":"大阪府","city":"大阪市東淀川区","street":"淡路"},{"zipCode":"5330001","prefectureKana":"ｵｵｻｶﾌ","cityKana":"ｵｵｻｶｼﾋｶﾞｼﾖﾄﾞｶﾞﾜｸ","streetKana":"ｲﾀｶﾉ","prefecture":"大阪府","city":"大阪市東淀川区","street":"井高野"},{"zipCode":"5330015","prefectureKana":"ｵｵｻｶﾌ","cityKana":"ｵｵｻｶｼﾋｶﾞｼﾖﾄﾞｶﾞﾜｸ","streetKana":"ｵｵｽﾐ","prefecture":"大阪府","city":"大阪市東淀川区","street":"大隅"},{"zipCode":"5330006","prefectureKana":"ｵｵｻｶﾌ","cityKana":"ｵｵｻｶｼﾋｶﾞｼﾖﾄﾞｶﾞﾜｸ","streetKana":"ｶﾐｼﾝｼﾞｮｳ","prefecture":"大阪府","city":"大阪市東淀川区","street":"上新庄"},{"zipCode":"5330002","prefectureKana":"ｵｵｻｶﾌ","cityKana":"ｵｵｻｶｼﾋｶﾞｼﾖﾄﾞｶﾞﾜｸ","streetKana":"ｷﾀｴｸﾞﾁ","prefecture":"大阪府","city":"大阪市東淀川区","street":"北江口"},{"zipCode":"5330024","prefectureKana":"ｵｵｻｶﾌ","cityKana":"ｵｵｻｶｼﾋｶﾞｼﾖﾄﾞｶﾞﾜｸ","streetKana":"ｸﾆｼﾞﾏ","prefecture":"大阪府","city":"大阪市東淀川区","street":"柴島"},{"zipCode":"5330004","prefectureKana":"ｵｵｻｶﾌ","cityKana":"ｵｵｻｶｼﾋｶﾞｼﾖﾄﾞｶﾞﾜｸ","streetKana":"ｺﾏﾂ","prefecture":"大阪府","city":"大阪市東淀川区","street":"小松"},{"zipCode":"5330021","prefectureKana":"ｵｵｻｶﾌ","cityKana":"ｵｵｻｶｼﾋｶﾞｼﾖﾄﾞｶﾞﾜｸ","streetKana":"ｼﾓｼﾝｼﾞｮｳ","prefecture":"大阪府","city":"大阪市東淀川区","street":"下新庄"},{"zipCode":"5330005","prefectureKana":"ｵｵｻｶﾌ","cityKana":"ｵｵｻｶｼﾋｶﾞｼﾖﾄﾞｶﾞﾜｸ","streetKana":"ｽﾞｲｺｳ","prefecture":"大阪府","city":"大阪市東淀川区","street":"瑞光"},{"zipCode":"5330022","prefectureKana":"ｵｵｻｶﾌ","cityKana":"ｵｵｻｶｼﾋｶﾞｼﾖﾄﾞｶﾞﾜｸ","streetKana":"ｽｶﾞﾊﾗ","prefecture":"大阪府","city":"大阪市東淀川区","street":"菅原"},{"zipCode":"5330011","prefectureKana":"ｵｵｻｶﾌ","cityKana":"ｵｵｻｶｼﾋｶﾞｼﾖﾄﾞｶﾞﾜｸ","streetKana":"ﾀﾞｲﾄﾞｳ","prefecture":"大阪府","city":"大阪市東淀川区","street":"大桐"},{"zipCode":"5330012","prefectureKana":"ｵｵｻｶﾌ","cityKana":"ｵｵｻｶｼﾋｶﾞｼﾖﾄﾞｶﾞﾜｸ","streetKana":"ﾀﾞｲﾄﾞｳﾐﾅﾐ","prefecture":"大阪府","city":"大阪市東淀川区","street":"大道南"},{"zipCode":"5330013","prefectureKana":"ｵｵｻｶﾌ","cityKana":"ｵｵｻｶｼﾋｶﾞｼﾖﾄﾞｶﾞﾜｸ","streetKana":"ﾄﾖｻﾄ","prefecture":"大阪府","city":"大阪市東淀川区","street":"豊里"},{"zipCode":"5330031","prefectureKana":"ｵｵｻｶﾌ","cityKana":"ｵｵｻｶｼﾋｶﾞｼﾖﾄﾞｶﾞﾜｸ","streetKana":"ﾆｼｱﾜｼﾞ","prefecture":"大阪府","city":"大阪市東淀川区","street":"西淡路"},{"zipCode":"5330023","prefectureKana":"ｵｵｻｶﾌ","cityKana":"ｵｵｻｶｼﾋｶﾞｼﾖﾄﾞｶﾞﾜｸ","streetKana":"ﾋｶﾞｼｱﾜｼﾞ","prefecture":"大阪府","city":"大阪市東淀川区","street":"東淡路"},{"zipCode":"5330033","prefectureKana":"ｵｵｻｶﾌ","cityKana":"ｵｵｻｶｼﾋｶﾞｼﾖﾄﾞｶﾞﾜｸ","streetKana":"ﾋｶﾞｼﾅｶｼﾞﾏ","prefecture":"大阪府","city":"大阪市東淀川区","street":"東中島"},{"zipCode":"5330014","prefectureKana":"ｵｵｻｶﾌ","cityKana":"ｵｵｻｶｼﾋｶﾞｼﾖﾄﾞｶﾞﾜｸ","streetKana":"ﾎｳｼﾝ","prefecture":"大阪府","city":"大阪市東淀川区","street":"豊新"},{"zipCode":"5330003","prefectureKana":"ｵｵｻｶﾌ","cityKana":"ｵｵｻｶｼﾋｶﾞｼﾖﾄﾞｶﾞﾜｸ","streetKana":"ﾐﾅﾐｴｸﾞﾁ","prefecture":"大阪府","city":"大阪市東淀川区","street":"南江口"}]