[{"zipCode":"5350000","prefectureKana":"ｵｵｻｶﾌ","cityKana":"ｵｵｻｶｼｱｻﾋｸ","streetKana":"ｲｶﾆｹｲｻｲｶﾞﾅｲﾊﾞｱｲ","prefecture":"大阪府","city":"大阪市旭区","street":"以下に掲載がない場合"},{"zipCode":"5350005","prefectureKana":"ｵｵｻｶﾌ","cityKana":"ｵｵｻｶｼｱｻﾋｸ","streetKana":"ｱｶｶﾞﾜ","prefecture":"大阪府","city":"大阪市旭区","street":"赤川"},{"zipCode":"5350004","prefectureKana":"ｵｵｻｶﾌ","cityKana":"ｵｵｻｶｼｱｻﾋｸ","streetKana":"ｲｸｴ","prefecture":"大阪府","city":"大阪市旭区","street":"生江"},{"zipCode":"5350011","prefectureKana":"ｵｵｻｶﾌ","cityKana":"ｵｵｻｶｼｱｻﾋｸ","streetKana":"ｲﾏｲﾁ","prefecture":"大阪府","city":"大阪市旭区","street":"今市"},{"zipCode":"5350002","prefectureKana":"ｵｵｻｶﾌ","cityKana":"ｵｵｻｶｼｱｻﾋｸ","streetKana":"ｵｵﾐﾔ","prefecture":"大阪府","city":"大阪市旭区","street":"大宮"},{"zipCode":"5350021","prefectureKana":"ｵｵｻｶﾌ","cityKana":"ｵｵｻｶｼｱｻﾋｸ","streetKana":"ｼﾐｽﾞ","prefecture":"大阪府","city":"大阪市旭区","street":"清水"},{"zipCode":"5350022","prefectureKana":"ｵｵｻｶﾌ","cityKana":"ｵｵｻｶｼｱｻﾋｸ","streetKana":"ｼﾝﾓﾘ","prefecture":"大阪府","city":"大阪市旭区","street":"新森"},{"zipCode":"5350012","prefectureKana":"ｵｵｻｶﾌ","cityKana":"ｵｵｻｶｼｱｻﾋｸ","streetKana":"ｾﾝﾊﾞﾔｼ","prefecture":"大阪府","city":"大阪市旭区","street":"千林"},{"zipCode":"5350001","prefectureKana":"ｵｵｻｶﾌ","cityKana":"ｵｵｻｶｼｱｻﾋｸ","streetKana":"ﾀｲｼﾊﾞｼ","prefecture":"大阪府","city":"大阪市旭区","street":"太子橋"},{"zipCode":"5350031","prefectureKana":"ｵｵｻｶﾌ","cityKana":"ｵｵｻｶｼｱｻﾋｸ","streetKana":"ﾀｶﾄﾞﾉ","prefecture":"大阪府","city":"大阪市旭区","street":"高殿"},{"zipCode":"5350003","prefectureKana":"ｵｵｻｶﾌ","cityKana":"ｵｵｻｶｼｱｻﾋｸ","streetKana":"ﾅｶﾐﾔ","prefecture":"大阪府","city":"大阪市旭区","street":"中宮"},{"zipCode":"5350013","prefectureKana":"ｵｵｻｶﾌ","cityKana":"ｵｵｻｶｼｱｻﾋｸ","streetKana":"ﾓﾘｼｮｳｼﾞ","prefecture":"大阪府","city":"大阪市旭区","street":"森小路"}]