[{"zipCode":"5370000","prefectureKana":"ｵｵｻｶﾌ","cityKana":"ｵｵｻｶｼﾋｶﾞｼﾅﾘｸ","streetKana":"ｲｶﾆｹｲｻｲｶﾞﾅｲﾊﾞｱｲ","prefecture":"大阪府","city":"大阪市東成区","street":"以下に掲載がない場合"},{"zipCode":"5370012","prefectureKana":"ｵｵｻｶﾌ","cityKana":"ｵｵｻｶｼﾋｶﾞｼﾅﾘｸ","streetKana":"ｵｵｲﾏｻﾞﾄ","prefecture":"大阪府","city":"大阪市東成区","street":"大今里"},{"zipCode":"5370014","prefectureKana":"ｵｵｻｶﾌ","cityKana":"ｵｵｻｶｼﾋｶﾞｼﾅﾘｸ","streetKana":"ｵｵｲﾏｻﾞﾄﾆｼ","prefecture":"大阪府","city":"大阪市東成区","street":"大今里西"},{"zipCode":"5370013","prefectureKana":"ｵｵｻｶﾌ","cityKana":"ｵｵｻｶｼﾋｶﾞｼﾅﾘｸ","streetKana":"ｵｵｲﾏｻﾞﾄﾐﾅﾐ","prefecture":"大阪府","city":"大阪市東成区","street":"大今里南"},{"zipCode":"5370003","prefectureKana":"ｵｵｻｶﾌ","cityKana":"ｵｵｻｶｼﾋｶﾞｼﾅﾘｸ","streetKana":"ｶﾐｼﾞ","prefecture":"大阪府","city":"大阪市東成区","street":"神路"},{"zipCode":"5370023","prefectureKana":"ｵｵｻｶﾌ","cityKana":"ｵｵｻｶｼﾋｶﾞｼﾅﾘｸ","streetKana":"ﾀﾏﾂ","prefecture":"大阪府","city":"大阪市東成区","street":"玉津"},{"zipCode":"5370025","prefectureKana":"ｵｵｻｶﾌ","cityKana":"ｵｵｻｶｼﾋｶﾞｼﾅﾘｸ","streetKana":"ﾅｶﾐﾁ","prefecture":"大阪府","city":"大阪市東成区","street":"中道"},{"zipCode":"5370022","prefectureKana":"ｵｵｻｶﾌ","cityKana":"ｵｵｻｶｼﾋｶﾞｼﾅﾘｸ","streetKana":"ﾅｶﾓﾄ","prefecture":"大阪府","city":"大阪市東成区","street":"中本"},{"zipCode":"5370011","prefectureKana":"ｵｵｻｶﾌ","cityKana":"ｵｵｻｶｼﾋｶﾞｼﾅﾘｸ","streetKana":"ﾋｶﾞｼｲﾏｻﾞﾄ","prefecture":"大阪府","city":"大阪市東成区","street":"東今里"},{"zipCode":"5370024","prefectureKana":"ｵｵｻｶﾌ","cityKana":"ｵｵｻｶｼﾋｶﾞｼﾅﾘｸ","streetKana":"ﾋｶﾞｼｵﾊﾞｾ","prefecture":"大阪府","city":"大阪市東成区","street":"東小橋"},{"zipCode":"5370021","prefectureKana":"ｵｵｻｶﾌ","cityKana":"ｵｵｻｶｼﾋｶﾞｼﾅﾘｸ","streetKana":"ﾋｶﾞｼﾅｶﾓﾄ","prefecture":"大阪府","city":"大阪市東成区","street":"東中本"},{"zipCode":"5370002","prefectureKana":"ｵｵｻｶﾌ","cityKana":"ｵｵｻｶｼﾋｶﾞｼﾅﾘｸ","streetKana":"ﾌｶｴﾐﾅﾐ","prefecture":"大阪府","city":"大阪市東成区","street":"深江南"},{"zipCode":"5370001","prefectureKana":"ｵｵｻｶﾌ","cityKana":"ｵｵｻｶｼﾋｶﾞｼﾅﾘｸ","streetKana":"ﾌｶｴｷﾀ","prefecture":"大阪府","city":"大阪市東成区","street":"深江北"}]