[{"zipCode":"5430000","prefectureKana":"ｵｵｻｶﾌ","cityKana":"ｵｵｻｶｼﾃﾝﾉｳｼﾞｸ","streetKana":"ｲｶﾆｹｲｻｲｶﾞﾅｲﾊﾞｱｲ","prefecture":"大阪府","city":"大阪市天王寺区","street":"以下に掲載がない場合"},{"zipCode":"5430023","prefectureKana":"ｵｵｻｶﾌ","cityKana":"ｵｵｻｶｼﾃﾝﾉｳｼﾞｸ","streetKana":"ｱｼﾞﾊﾗﾁｮｳ","prefecture":"大阪府","city":"大阪市天王寺区","street":"味原町"},{"zipCode":"5430022","prefectureKana":"ｵｵｻｶﾌ","cityKana":"ｵｵｻｶｼﾃﾝﾉｳｼﾞｸ","streetKana":"ｱｼﾞﾊﾗﾎﾝﾏﾁ","prefecture":"大阪府","city":"大阪市天王寺区","street":"味原本町"},{"zipCode":"5430073","prefectureKana":"ｵｵｻｶﾌ","cityKana":"ｵｵｻｶｼﾃﾝﾉｳｼﾞｸ","streetKana":"ｲｸﾀﾏﾃﾗﾏﾁ","prefecture":"大阪府","city":"大阪市天王寺区","street":"生玉寺町"},{"zipCode":"5430072","prefectureKana":"ｵｵｻｶﾌ","cityKana":"ｵｵｻｶｼﾃﾝﾉｳｼﾞｸ","streetKana":"ｲｸﾀﾏﾏｴﾏﾁ","prefecture":"大阪府","city":"大阪市天王寺区","street":"生玉前町"},{"zipCode":"5430071","prefectureKana":"ｵｵｻｶﾌ","cityKana":"ｵｵｻｶｼﾃﾝﾉｳｼﾞｸ","streetKana":"ｲｸﾀﾏﾁｮｳ","prefecture":"大阪府","city":"大阪市天王寺区","street":"生玉町"},{"zipCode":"5430031","prefectureKana":"ｵｵｻｶﾌ","cityKana":"ｵｵｻｶｼﾃﾝﾉｳｼﾞｸ","streetKana":"ｲｼｶﾞﾂｼﾞﾁｮｳ","prefecture":"大阪府","city":"大阪市天王寺区","street":"石ケ辻町"},{"zipCode":"5430002","prefectureKana":"ｵｵｻｶﾌ","cityKana":"ｵｵｻｶｼﾃﾝﾉｳｼﾞｸ","streetKana":"ｳｴｼｵ","prefecture":"大阪府","city":"大阪市天王寺区","street":"上汐"},{"zipCode":"5430037","prefectureKana":"ｵｵｻｶﾌ","cityKana":"ｵｵｻｶｼﾃﾝﾉｳｼﾞｸ","streetKana":"ｳｴﾉﾐﾔﾁｮｳ","prefecture":"大阪府","city":"大阪市天王寺区","street":"上之宮町"},{"zipCode":"5430001","prefectureKana":"ｵｵｻｶﾌ","cityKana":"ｵｵｻｶｼﾃﾝﾉｳｼﾞｸ","streetKana":"ｳｴﾎﾝﾏﾁ","prefecture":"大阪府","city":"大阪市天王寺区","street":"上本町"},{"zipCode":"5430016","prefectureKana":"ｵｵｻｶﾌ","cityKana":"ｵｵｻｶｼﾃﾝﾉｳｼﾞｸ","streetKana":"ｴｻｼﾏﾁ","prefecture":"大阪府","city":"大阪市天王寺区","street":"餌差町"},{"zipCode":"5430062","prefectureKana":"ｵｵｻｶﾌ","cityKana":"ｵｵｻｶｼﾃﾝﾉｳｼﾞｸ","streetKana":"ｵｳｻｶ","prefecture":"大阪府","city":"大阪市天王寺区","street":"逢阪"},{"zipCode":"5430028","prefectureKana":"ｵｵｻｶﾌ","cityKana":"ｵｵｻｶｼﾃﾝﾉｳｼﾞｸ","streetKana":"ｵﾊﾞｾﾁｮｳ","prefecture":"大阪府","city":"大阪市天王寺区","street":"小橋町"},{"zipCode":"5430043","prefectureKana":"ｵｵｻｶﾌ","cityKana":"ｵｵｻｶｼﾃﾝﾉｳｼﾞｸ","streetKana":"ｶﾂﾔﾏ","prefecture":"大阪府","city":"大阪市天王寺区","street":"勝山"},{"zipCode":"5430018","prefectureKana":"ｵｵｻｶﾌ","cityKana":"ｵｵｻｶｼﾃﾝﾉｳｼﾞｸ","streetKana":"ｶﾗｷﾖﾁｮｳ","prefecture":"大阪府","city":"大阪市天王寺区","street":"空清町"},{"zipCode":"5430042","prefectureKana":"ｵｵｻｶﾌ","cityKana":"ｵｵｻｶｼﾃﾝﾉｳｼﾞｸ","streetKana":"ｶﾗｽｶﾞﾂｼﾞ","prefecture":"大阪府","city":"大阪市天王寺区","street":"烏ケ辻"},{"zipCode":"5430012","prefectureKana":"ｵｵｻｶﾌ","cityKana":"ｵｵｻｶｼﾃﾝﾉｳｼﾞｸ","streetKana":"ｶﾗﾎﾘﾁｮｳ","prefecture":"大阪府","city":"大阪市天王寺区","street":"空堀町"},{"zipCode":"5430053","prefectureKana":"ｵｵｻｶﾌ","cityKana":"ｵｵｻｶｼﾃﾝﾉｳｼﾞｸ","streetKana":"ｷﾀｶﾜﾎﾘﾁｮｳ","prefecture":"大阪府","city":"大阪市天王寺区","street":"北河堀町"},{"zipCode":"5430035","prefectureKana":"ｵｵｻｶﾌ","cityKana":"ｵｵｻｶｼﾃﾝﾉｳｼﾞｸ","streetKana":"ｷﾀﾔﾏﾁｮｳ","prefecture":"大阪府","city":"大阪市天王寺区","street":"北山町"},{"zipCode":"5430044","prefectureKana":"ｵｵｻｶﾌ","cityKana":"ｵｵｻｶｼﾃﾝﾉｳｼﾞｸ","streetKana":"ｺｸﾌﾞﾁｮｳ","prefecture":"大阪府","city":"大阪市天王寺区","street":"国分町"},{"zipCode":"5430036","prefectureKana":"ｵｵｻｶﾌ","cityKana":"ｵｵｻｶｼﾃﾝﾉｳｼﾞｸ","streetKana":"ｺﾐﾔﾁｮｳ","prefecture":"大阪府","city":"大阪市天王寺区","street":"小宮町"},{"zipCode":"5430032","prefectureKana":"ｵｵｻｶﾌ","cityKana":"ｵｵｻｶｼﾃﾝﾉｳｼﾞｸ","streetKana":"ｻｲｸﾀﾞﾆ","prefecture":"大阪府","city":"大阪市天王寺区","street":"細工谷"},{"zipCode":"5430015","prefectureKana":"ｵｵｻｶﾌ","cityKana":"ｵｵｻｶｼﾃﾝﾉｳｼﾞｸ","streetKana":"ｻﾅﾀﾞﾔﾏﾁｮｳ","prefecture":"大阪府","city":"大阪市天王寺区","street":"真田山町"},{"zipCode":"5430076","prefectureKana":"ｵｵｻｶﾌ","cityKana":"ｵｵｻｶｼﾃﾝﾉｳｼﾞｸ","streetKana":"ｼﾀﾃﾞﾗﾏﾁ","prefecture":"大阪府","city":"大阪市天王寺区","street":"下寺町"},{"zipCode":"5430051","prefectureKana":"ｵｵｻｶﾌ","cityKana":"ｵｵｻｶｼﾃﾝﾉｳｼﾞｸ","streetKana":"ｼﾃﾝﾉｳｼﾞ","prefecture":"大阪府","city":"大阪市天王寺区","street":"四天王寺"},{"zipCode":"5430011","prefectureKana":"ｵｵｻｶﾌ","cityKana":"ｵｵｻｶｼﾃﾝﾉｳｼﾞｸ","streetKana":"ｼﾐｽﾞﾀﾞﾆﾁｮｳ","prefecture":"大阪府","city":"大阪市天王寺区","street":"清水谷町"},{"zipCode":"5430025","prefectureKana":"ｵｵｻｶﾌ","cityKana":"ｵｵｻｶｼﾃﾝﾉｳｼﾞｸ","streetKana":"ｼﾓｱｼﾞﾊﾗﾁｮｳ","prefecture":"大阪府","city":"大阪市天王寺区","street":"下味原町"},{"zipCode":"5430017","prefectureKana":"ｵｵｻｶﾌ","cityKana":"ｵｵｻｶｼﾃﾝﾉｳｼﾞｸ","streetKana":"ｼﾞｮｳﾅﾝﾃﾗﾏﾁ","prefecture":"大阪府","city":"大阪市天王寺区","street":"城南寺町"},{"zipCode":"5430041","prefectureKana":"ｵｵｻｶﾌ","cityKana":"ｵｵｻｶｼﾃﾝﾉｳｼﾞｸ","streetKana":"ｼﾝﾎﾟｳｲﾝﾁｮｳ","prefecture":"大阪府","city":"大阪市天王寺区","street":"真法院町"},{"zipCode":"5430052","prefectureKana":"ｵｵｻｶﾌ","cityKana":"ｵｵｻｶｼﾃﾝﾉｳｼﾞｸ","streetKana":"ﾀﾞｲﾄﾞｳ","prefecture":"大阪府","city":"大阪市天王寺区","street":"大道"},{"zipCode":"5430013","prefectureKana":"ｵｵｻｶﾌ","cityKana":"ｵｵｻｶｼﾃﾝﾉｳｼﾞｸ","streetKana":"ﾀﾏﾂｸﾘﾎﾝﾏﾁ","prefecture":"大阪府","city":"大阪市天王寺区","street":"玉造本町"},{"zipCode":"5430014","prefectureKana":"ｵｵｻｶﾌ","cityKana":"ｵｵｻｶｼﾃﾝﾉｳｼﾞｸ","streetKana":"ﾀﾏﾂｸﾘﾓﾄﾏﾁ","prefecture":"大阪府","city":"大阪市天王寺区","street":"玉造元町"},{"zipCode":"5430063","prefectureKana":"ｵｵｻｶﾌ","cityKana":"ｵｵｻｶｼﾃﾝﾉｳｼﾞｸ","streetKana":"ﾁｬｳｽﾔﾏﾁｮｳ","prefecture":"大阪府","city":"大阪市天王寺区","street":"茶臼山町"},{"zipCode":"5430045","prefectureKana":"ｵｵｻｶﾌ","cityKana":"ｵｵｻｶｼﾃﾝﾉｳｼﾞｸ","streetKana":"ﾃﾗﾀﾞﾁｮｳ","prefecture":"大阪府","city":"大阪市天王寺区","street":"寺田町"},{"zipCode":"5430033","prefectureKana":"ｵｵｻｶﾌ","cityKana":"ｵｵｻｶｼﾃﾝﾉｳｼﾞｸ","streetKana":"ﾄﾞｳｶﾞｼﾊﾞ","prefecture":"大阪府","city":"大阪市天王寺区","street":"堂ケ芝"},{"zipCode":"5430026","prefectureKana":"ｵｵｻｶﾌ","cityKana":"ｵｵｻｶｼﾃﾝﾉｳｼﾞｸ","streetKana":"ﾄｳｼﾞｮｳﾁｮｳ","prefecture":"大阪府","city":"大阪市天王寺区","street":"東上町"},{"zipCode":"5430021","prefectureKana":"ｵｵｻｶﾌ","cityKana":"ｵｵｻｶｼﾃﾝﾉｳｼﾞｸ","streetKana":"ﾋｶﾞｼｺｳﾂﾞﾁｮｳ","prefecture":"大阪府","city":"大阪市天王寺区","street":"東高津町"},{"zipCode":"5430055","prefectureKana":"ｵｵｻｶﾌ","cityKana":"ｵｵｻｶｼﾃﾝﾉｳｼﾞｸ","streetKana":"ﾋﾃﾞﾝｲﾝﾁｮｳ","prefecture":"大阪府","city":"大阪市天王寺区","street":"悲田院町"},{"zipCode":"5430027","prefectureKana":"ｵｵｻｶﾌ","cityKana":"ｵｵｻｶｼﾃﾝﾉｳｼﾞｸ","streetKana":"ﾌﾃﾞｶﾞｻｷﾁｮｳ","prefecture":"大阪府","city":"大阪市天王寺区","street":"筆ケ崎町"},{"zipCode":"5430024","prefectureKana":"ｵｵｻｶﾌ","cityKana":"ｵｵｻｶｼﾃﾝﾉｳｼﾞｸ","streetKana":"ﾌﾅﾊｼﾁｮｳ","prefecture":"大阪府","city":"大阪市天王寺区","street":"舟橋町"},{"zipCode":"5430056","prefectureKana":"ｵｵｻｶﾌ","cityKana":"ｵｵｻｶｼﾃﾝﾉｳｼﾞｸ","streetKana":"ﾎﾘｺｼﾁｮｳ","prefecture":"大阪府","city":"大阪市天王寺区","street":"堀越町"},{"zipCode":"5430034","prefectureKana":"ｵｵｻｶﾌ","cityKana":"ｵｵｻｶｼﾃﾝﾉｳｼﾞｸ","streetKana":"ﾏﾂｶﾞﾊﾅﾁｮｳ","prefecture":"大阪府","city":"大阪市天王寺区","street":"松ケ鼻町"},{"zipCode":"5430054","prefectureKana":"ｵｵｻｶﾌ","cityKana":"ｵｵｻｶｼﾃﾝﾉｳｼﾞｸ","streetKana":"ﾐﾅﾐｶﾜﾎﾘﾁｮｳ","prefecture":"大阪府","city":"大阪市天王寺区","street":"南河堀町"},{"zipCode":"5430075","prefectureKana":"ｵｵｻｶﾌ","cityKana":"ｵｵｻｶｼﾃﾝﾉｳｼﾞｸ","streetKana":"ﾕｳﾋｶﾞｵｶﾁｮｳ","prefecture":"大阪府","city":"大阪市天王寺区","street":"夕陽丘町"},{"zipCode":"5430061","prefectureKana":"ｵｵｻｶﾌ","cityKana":"ｵｵｻｶｼﾃﾝﾉｳｼﾞｸ","streetKana":"ﾚｲﾆﾝﾁｮｳ","prefecture":"大阪府","city":"大阪市天王寺区","street":"伶人町"},{"zipCode":"5430074","prefectureKana":"ｵｵｻｶﾌ","cityKana":"ｵｵｻｶｼﾃﾝﾉｳｼﾞｸ","streetKana":"ﾛｸﾏﾝﾀｲﾁｮｳ","prefecture":"大阪府","city":"大阪市天王寺区","street":"六万体町"}]