[{"zipCode":"5450000","prefectureKana":"ｵｵｻｶﾌ","cityKana":"ｵｵｻｶｼｱﾍﾞﾉｸ","streetKana":"ｲｶﾆｹｲｻｲｶﾞﾅｲﾊﾞｱｲ","prefecture":"大阪府","city":"大阪市阿倍野区","street":"以下に掲載がない場合"},{"zipCode":"5450033","prefectureKana":"ｵｵｻｶﾌ","cityKana":"ｵｵｻｶｼｱﾍﾞﾉｸ","streetKana":"ｱｲｵｲﾄﾞｵﾘ","prefecture":"大阪府","city":"大阪市阿倍野区","street":"相生通"},{"zipCode":"5450051","prefectureKana":"ｵｵｻｶﾌ","cityKana":"ｵｵｻｶｼｱﾍﾞﾉｸ","streetKana":"ｱｻﾋﾏﾁ","prefecture":"大阪府","city":"大阪市阿倍野区","street":"旭町"},{"zipCode":"5450052","prefectureKana":"ｵｵｻｶﾌ","cityKana":"ｵｵｻｶｼｱﾍﾞﾉｸ","streetKana":"ｱﾍﾞﾉｽｼﾞ(ﾂｷﾞﾉﾋﾞﾙｦﾉｿﾞｸ)","prefecture":"大阪府","city":"大阪市阿倍野区","street":"阿倍野筋（次のビルを除く）"},{"zipCode":"5456090","prefectureKana":"ｵｵｻｶﾌ","cityKana":"ｵｵｻｶｼｱﾍﾞﾉｸ","streetKana":"ｱﾍﾞﾉｽｼﾞｱﾍﾞﾉﾊﾙｶｽ(ﾁｶｲ･ｶｲｿｳﾌﾒｲ)","prefecture":"大阪府","city":"大阪市阿倍野区","street":"阿倍野筋あべのハルカス（地階・階層不明）"},{"zipCode":"5456001","prefectureKana":"ｵｵｻｶﾌ","cityKana":"ｵｵｻｶｼｱﾍﾞﾉｸ","streetKana":"ｱﾍﾞﾉｽｼﾞｱﾍﾞﾉﾊﾙｶｽ(1ｶｲ)","prefecture":"大阪府","city":"大阪市阿倍野区","street":"阿倍野筋あべのハルカス（１階）"},{"zipCode":"5456002","prefectureKana":"ｵｵｻｶﾌ","cityKana":"ｵｵｻｶｼｱﾍﾞﾉｸ","streetKana":"ｱﾍﾞﾉｽｼﾞｱﾍﾞﾉﾊﾙｶｽ(2ｶｲ)","prefecture":"大阪府","city":"大阪市阿倍野区","street":"阿倍野筋あべのハルカス（２階）"},{"zipCode":"5456003","prefectureKana":"ｵｵｻｶﾌ","cityKana":"ｵｵｻｶｼｱﾍﾞﾉｸ","streetKana":"ｱﾍﾞﾉｽｼﾞｱﾍﾞﾉﾊﾙｶｽ(3ｶｲ)","prefecture":"大阪府","city":"大阪市阿倍野区","street":"阿倍野筋あべのハルカス（３階）"},{"zipCode":"5456004","prefectureKana":"ｵｵｻｶﾌ","cityKana":"ｵｵｻｶｼｱﾍﾞﾉｸ","streetKana":"ｱﾍﾞﾉｽｼﾞｱﾍﾞﾉﾊﾙｶｽ(4ｶｲ)","prefecture":"大阪府","city":"大阪市阿倍野区","street":"阿倍野筋あべのハルカス（４階）"},{"zipCode":"5456005","prefectureKana":"ｵｵｻｶﾌ","cityKana":"ｵｵｻｶｼｱﾍﾞﾉｸ","streetKana":"ｱﾍﾞﾉｽｼﾞｱﾍﾞﾉﾊﾙｶｽ(5ｶｲ)","prefecture":"大阪府","city":"大阪市阿倍野区","street":"阿倍野筋あべのハルカス（５階）"},{"zipCode":"5456006","prefectureKana":"ｵｵｻｶﾌ","cityKana":"ｵｵｻｶｼｱﾍﾞﾉｸ","streetKana":"ｱﾍﾞﾉｽｼﾞｱﾍﾞﾉﾊﾙｶｽ(6ｶｲ)","prefecture":"大阪府","city":"大阪市阿倍野区","street":"阿倍野筋あべのハルカス（６階）"},{"zipCode":"5456007","prefectureKana":"ｵｵｻｶﾌ","cityKana":"ｵｵｻｶｼｱﾍﾞﾉｸ","streetKana":"ｱﾍﾞﾉｽｼﾞｱﾍﾞﾉﾊﾙｶｽ(7ｶｲ)","prefecture":"大阪府","city":"大阪市阿倍野区","street":"阿倍野筋あべのハルカス（７階）"},{"zipCode":"5456008","prefectureKana":"ｵｵｻｶﾌ","cityKana":"ｵｵｻｶｼｱﾍﾞﾉｸ","streetKana":"ｱﾍﾞﾉｽｼﾞｱﾍﾞﾉﾊﾙｶｽ(8ｶｲ)","prefecture":"大阪府","city":"大阪市阿倍野区","street":"阿倍野筋あべのハルカス（８階）"},{"zipCode":"5456009","prefectureKana":"ｵｵｻｶﾌ","cityKana":"ｵｵｻｶｼｱﾍﾞﾉｸ","streetKana":"ｱﾍﾞﾉｽｼﾞｱﾍﾞﾉﾊﾙｶｽ(9ｶｲ)","prefecture":"大阪府","city":"大阪市阿倍野区","street":"阿倍野筋あべのハルカス（９階）"},{"zipCode":"5456010","prefectureKana":"ｵｵｻｶﾌ","cityKana":"ｵｵｻｶｼｱﾍﾞﾉｸ","streetKana":"ｱﾍﾞﾉｽｼﾞｱﾍﾞﾉﾊﾙｶｽ(10ｶｲ)","prefecture":"大阪府","city":"大阪市阿倍野区","street":"阿倍野筋あべのハルカス（１０階）"},{"zipCode":"5456011","prefectureKana":"ｵｵｻｶﾌ","cityKana":"ｵｵｻｶｼｱﾍﾞﾉｸ","streetKana":"ｱﾍﾞﾉｽｼﾞｱﾍﾞﾉﾊﾙｶｽ(11ｶｲ)","prefecture":"大阪府","city":"大阪市阿倍野区","street":"阿倍野筋あべのハルカス（１１階）"},{"zipCode":"5456012","prefectureKana":"ｵｵｻｶﾌ","cityKana":"ｵｵｻｶｼｱﾍﾞﾉｸ","streetKana":"ｱﾍﾞﾉｽｼﾞｱﾍﾞﾉﾊﾙｶｽ(12ｶｲ)","prefecture":"大阪府","city":"大阪市阿倍野区","street":"阿倍野筋あべのハルカス（１２階）"},{"zipCode":"5456013","prefectureKana":"ｵｵｻｶﾌ","cityKana":"ｵｵｻｶｼｱﾍﾞﾉｸ","streetKana":"ｱﾍﾞﾉｽｼﾞｱﾍﾞﾉﾊﾙｶｽ(13ｶｲ)","prefecture":"大阪府","city":"大阪市阿倍野区","street":"阿倍野筋あべのハルカス（１３階）"},{"zipCode":"5456014","prefectureKana":"ｵｵｻｶﾌ","cityKana":"ｵｵｻｶｼｱﾍﾞﾉｸ","streetKana":"ｱﾍﾞﾉｽｼﾞｱﾍﾞﾉﾊﾙｶｽ(14ｶｲ)","prefecture":"大阪府","city":"大阪市阿倍野区","street":"阿倍野筋あべのハルカス（１４階）"},{"zipCode":"5456015","prefectureKana":"ｵｵｻｶﾌ","cityKana":"ｵｵｻｶｼｱﾍﾞﾉｸ","streetKana":"ｱﾍﾞﾉｽｼﾞｱﾍﾞﾉﾊﾙｶｽ(15ｶｲ)","prefecture":"大阪府","city":"大阪市阿倍野区","street":"阿倍野筋あべのハルカス（１５階）"},{"zipCode":"5456016","prefectureKana":"ｵｵｻｶﾌ","cityKana":"ｵｵｻｶｼｱﾍﾞﾉｸ","streetKana":"ｱﾍﾞﾉｽｼﾞｱﾍﾞﾉﾊﾙｶｽ(16ｶｲ)","prefecture":"大阪府","city":"大阪市阿倍野区","street":"阿倍野筋あべのハルカス（１６階）"},{"zipCode":"5456017","prefectureKana":"ｵｵｻｶﾌ","cityKana":"ｵｵｻｶｼｱﾍﾞﾉｸ","streetKana":"ｱﾍﾞﾉｽｼﾞｱﾍﾞﾉﾊﾙｶｽ(17ｶｲ)","prefecture":"大阪府","city":"大阪市阿倍野区","street":"阿倍野筋あべのハルカス（１７階）"},{"zipCode":"5456018","prefectureKana":"ｵｵｻｶﾌ","cityKana":"ｵｵｻｶｼｱﾍﾞﾉｸ","streetKana":"ｱﾍﾞﾉｽｼﾞｱﾍﾞﾉﾊﾙｶｽ(18ｶｲ)","prefecture":"大阪府","city":"大阪市阿倍野区","street":"阿倍野筋あべのハルカス（１８階）"},{"zipCode":"5456019","prefectureKana":"ｵｵｻｶﾌ","cityKana":"ｵｵｻｶｼｱﾍﾞﾉｸ","streetKana":"ｱﾍﾞﾉｽｼﾞｱﾍﾞﾉﾊﾙｶｽ(19ｶｲ)","prefecture":"大阪府","city":"大阪市阿倍野区","street":"阿倍野筋あべのハルカス（１９階）"},{"zipCode":"5456020","prefectureKana":"ｵｵｻｶﾌ","cityKana":"ｵｵｻｶｼｱﾍﾞﾉｸ","streetKana":"ｱﾍﾞﾉｽｼﾞｱﾍﾞﾉﾊﾙｶｽ(20ｶｲ)","prefecture":"大阪府","city":"大阪市阿倍野区","street":"阿倍野筋あべのハルカス（２０階）"},{"zipCode":"5456021","prefectureKana":"ｵｵｻｶﾌ","cityKana":"ｵｵｻｶｼｱﾍﾞﾉｸ","streetKana":"ｱﾍﾞﾉｽｼﾞｱﾍﾞﾉﾊﾙｶｽ(21ｶｲ)","prefecture":"大阪府","city":"大阪市阿倍野区","street":"阿倍野筋あべのハルカス（２１階）"},{"zipCode":"5456022","prefectureKana":"ｵｵｻｶﾌ","cityKana":"ｵｵｻｶｼｱﾍﾞﾉｸ","streetKana":"ｱﾍﾞﾉｽｼﾞｱﾍﾞﾉﾊﾙｶｽ(22ｶｲ)","prefecture":"大阪府","city":"大阪市阿倍野区","street":"阿倍野筋あべのハルカス（２２階）"},{"zipCode":"5456023","prefectureKana":"ｵｵｻｶﾌ","cityKana":"ｵｵｻｶｼｱﾍﾞﾉｸ","streetKana":"ｱﾍﾞﾉｽｼﾞｱﾍﾞﾉﾊﾙｶｽ(23ｶｲ)","prefecture":"大阪府","city":"大阪市阿倍野区","street":"阿倍野筋あべのハルカス（２３階）"},{"zipCode":"5456024","prefectureKana":"ｵｵｻｶﾌ","cityKana":"ｵｵｻｶｼｱﾍﾞﾉｸ","streetKana":"ｱﾍﾞﾉｽｼﾞｱﾍﾞﾉﾊﾙｶｽ(24ｶｲ)","prefecture":"大阪府","city":"大阪市阿倍野区","street":"阿倍野筋あべのハルカス（２４階）"},{"zipCode":"5456025","prefectureKana":"ｵｵｻｶﾌ","cityKana":"ｵｵｻｶｼｱﾍﾞﾉｸ","streetKana":"ｱﾍﾞﾉｽｼﾞｱﾍﾞﾉﾊﾙｶｽ(25ｶｲ)","prefecture":"大阪府","city":"大阪市阿倍野区","street":"阿倍野筋あべのハルカス（２５階）"},{"zipCode":"5456026","prefectureKana":"ｵｵｻｶﾌ","cityKana":"ｵｵｻｶｼｱﾍﾞﾉｸ","streetKana":"ｱﾍﾞﾉｽｼﾞｱﾍﾞﾉﾊﾙｶｽ(26ｶｲ)","prefecture":"大阪府","city":"大阪市阿倍野区","street":"阿倍野筋あべのハルカス（２６階）"},{"zipCode":"5456027","prefectureKana":"ｵｵｻｶﾌ","cityKana":"ｵｵｻｶｼｱﾍﾞﾉｸ","streetKana":"ｱﾍﾞﾉｽｼﾞｱﾍﾞﾉﾊﾙｶｽ(27ｶｲ)","prefecture":"大阪府","city":"大阪市阿倍野区","street":"阿倍野筋あべのハルカス（２７階）"},{"zipCode":"5456028","prefectureKana":"ｵｵｻｶﾌ","cityKana":"ｵｵｻｶｼｱﾍﾞﾉｸ","streetKana":"ｱﾍﾞﾉｽｼﾞｱﾍﾞﾉﾊﾙｶｽ(28ｶｲ)","prefecture":"大阪府","city":"大阪市阿倍野区","street":"阿倍野筋あべのハルカス（２８階）"},{"zipCode":"5456029","prefectureKana":"ｵｵｻｶﾌ","cityKana":"ｵｵｻｶｼｱﾍﾞﾉｸ","streetKana":"ｱﾍﾞﾉｽｼﾞｱﾍﾞﾉﾊﾙｶｽ(29ｶｲ)","prefecture":"大阪府","city":"大阪市阿倍野区","street":"阿倍野筋あべのハルカス（２９階）"},{"zipCode":"5456030","prefectureKana":"ｵｵｻｶﾌ","cityKana":"ｵｵｻｶｼｱﾍﾞﾉｸ","streetKana":"ｱﾍﾞﾉｽｼﾞｱﾍﾞﾉﾊﾙｶｽ(30ｶｲ)","prefecture":"大阪府","city":"大阪市阿倍野区","street":"阿倍野筋あべのハルカス（３０階）"},{"zipCode":"5456031","prefectureKana":"ｵｵｻｶﾌ","cityKana":"ｵｵｻｶｼｱﾍﾞﾉｸ","streetKana":"ｱﾍﾞﾉｽｼﾞｱﾍﾞﾉﾊﾙｶｽ(31ｶｲ)","prefecture":"大阪府","city":"大阪市阿倍野区","street":"阿倍野筋あべのハルカス（３１階）"},{"zipCode":"5456032","prefectureKana":"ｵｵｻｶﾌ","cityKana":"ｵｵｻｶｼｱﾍﾞﾉｸ","streetKana":"ｱﾍﾞﾉｽｼﾞｱﾍﾞﾉﾊﾙｶｽ(32ｶｲ)","prefecture":"大阪府","city":"大阪市阿倍野区","street":"阿倍野筋あべのハルカス（３２階）"},{"zipCode":"5456033","prefectureKana":"ｵｵｻｶﾌ","cityKana":"ｵｵｻｶｼｱﾍﾞﾉｸ","streetKana":"ｱﾍﾞﾉｽｼﾞｱﾍﾞﾉﾊﾙｶｽ(33ｶｲ)","prefecture":"大阪府","city":"大阪市阿倍野区","street":"阿倍野筋あべのハルカス（３３階）"},{"zipCode":"5456034","prefectureKana":"ｵｵｻｶﾌ","cityKana":"ｵｵｻｶｼｱﾍﾞﾉｸ","streetKana":"ｱﾍﾞﾉｽｼﾞｱﾍﾞﾉﾊﾙｶｽ(34ｶｲ)","prefecture":"大阪府","city":"大阪市阿倍野区","street":"阿倍野筋あべのハルカス（３４階）"},{"zipCode":"5456035","prefectureKana":"ｵｵｻｶﾌ","cityKana":"ｵｵｻｶｼｱﾍﾞﾉｸ","streetKana":"ｱﾍﾞﾉｽｼﾞｱﾍﾞﾉﾊﾙｶｽ(35ｶｲ)","prefecture":"大阪府","city":"大阪市阿倍野区","street":"阿倍野筋あべのハルカス（３５階）"},{"zipCode":"5456036","prefectureKana":"ｵｵｻｶﾌ","cityKana":"ｵｵｻｶｼｱﾍﾞﾉｸ","streetKana":"ｱﾍﾞﾉｽｼﾞｱﾍﾞﾉﾊﾙｶｽ(36ｶｲ)","prefecture":"大阪府","city":"大阪市阿倍野区","street":"阿倍野筋あべのハルカス（３６階）"},{"zipCode":"5456037","prefectureKana":"ｵｵｻｶﾌ","cityKana":"ｵｵｻｶｼｱﾍﾞﾉｸ","streetKana":"ｱﾍﾞﾉｽｼﾞｱﾍﾞﾉﾊﾙｶｽ(37ｶｲ)","prefecture":"大阪府","city":"大阪市阿倍野区","street":"阿倍野筋あべのハルカス（３７階）"},{"zipCode":"5456038","prefectureKana":"ｵｵｻｶﾌ","cityKana":"ｵｵｻｶｼｱﾍﾞﾉｸ","streetKana":"ｱﾍﾞﾉｽｼﾞｱﾍﾞﾉﾊﾙｶｽ(38ｶｲ)","prefecture":"大阪府","city":"大阪市阿倍野区","street":"阿倍野筋あべのハルカス（３８階）"},{"zipCode":"5456039","prefectureKana":"ｵｵｻｶﾌ","cityKana":"ｵｵｻｶｼｱﾍﾞﾉｸ","streetKana":"ｱﾍﾞﾉｽｼﾞｱﾍﾞﾉﾊﾙｶｽ(39ｶｲ)","prefecture":"大阪府","city":"大阪市阿倍野区","street":"阿倍野筋あべのハルカス（３９階）"},{"zipCode":"5456040","prefectureKana":"ｵｵｻｶﾌ","cityKana":"ｵｵｻｶｼｱﾍﾞﾉｸ","streetKana":"ｱﾍﾞﾉｽｼﾞｱﾍﾞﾉﾊﾙｶｽ(40ｶｲ)","prefecture":"大阪府","city":"大阪市阿倍野区","street":"阿倍野筋あべのハルカス（４０階）"},{"zipCode":"5456041","prefectureKana":"ｵｵｻｶﾌ","cityKana":"ｵｵｻｶｼｱﾍﾞﾉｸ","streetKana":"ｱﾍﾞﾉｽｼﾞｱﾍﾞﾉﾊﾙｶｽ(41ｶｲ)","prefecture":"大阪府","city":"大阪市阿倍野区","street":"阿倍野筋あべのハルカス（４１階）"},{"zipCode":"5456042","prefectureKana":"ｵｵｻｶﾌ","cityKana":"ｵｵｻｶｼｱﾍﾞﾉｸ","streetKana":"ｱﾍﾞﾉｽｼﾞｱﾍﾞﾉﾊﾙｶｽ(42ｶｲ)","prefecture":"大阪府","city":"大阪市阿倍野区","street":"阿倍野筋あべのハルカス（４２階）"},{"zipCode":"5456043","prefectureKana":"ｵｵｻｶﾌ","cityKana":"ｵｵｻｶｼｱﾍﾞﾉｸ","streetKana":"ｱﾍﾞﾉｽｼﾞｱﾍﾞﾉﾊﾙｶｽ(43ｶｲ)","prefecture":"大阪府","city":"大阪市阿倍野区","street":"阿倍野筋あべのハルカス（４３階）"},{"zipCode":"5456044","prefectureKana":"ｵｵｻｶﾌ","cityKana":"ｵｵｻｶｼｱﾍﾞﾉｸ","streetKana":"ｱﾍﾞﾉｽｼﾞｱﾍﾞﾉﾊﾙｶｽ(44ｶｲ)","prefecture":"大阪府","city":"大阪市阿倍野区","street":"阿倍野筋あべのハルカス（４４階）"},{"zipCode":"5456045","prefectureKana":"ｵｵｻｶﾌ","cityKana":"ｵｵｻｶｼｱﾍﾞﾉｸ","streetKana":"ｱﾍﾞﾉｽｼﾞｱﾍﾞﾉﾊﾙｶｽ(45ｶｲ)","prefecture":"大阪府","city":"大阪市阿倍野区","street":"阿倍野筋あべのハルカス（４５階）"},{"zipCode":"5456046","prefectureKana":"ｵｵｻｶﾌ","cityKana":"ｵｵｻｶｼｱﾍﾞﾉｸ","streetKana":"ｱﾍﾞﾉｽｼﾞｱﾍﾞﾉﾊﾙｶｽ(46ｶｲ)","prefecture":"大阪府","city":"大阪市阿倍野区","street":"阿倍野筋あべのハルカス（４６階）"},{"zipCode":"5456047","prefectureKana":"ｵｵｻｶﾌ","cityKana":"ｵｵｻｶｼｱﾍﾞﾉｸ","streetKana":"ｱﾍﾞﾉｽｼﾞｱﾍﾞﾉﾊﾙｶｽ(47ｶｲ)","prefecture":"大阪府","city":"大阪市阿倍野区","street":"阿倍野筋あべのハルカス（４７階）"},{"zipCode":"5456048","prefectureKana":"ｵｵｻｶﾌ","cityKana":"ｵｵｻｶｼｱﾍﾞﾉｸ","streetKana":"ｱﾍﾞﾉｽｼﾞｱﾍﾞﾉﾊﾙｶｽ(48ｶｲ)","prefecture":"大阪府","city":"大阪市阿倍野区","street":"阿倍野筋あべのハルカス（４８階）"},{"zipCode":"5456049","prefectureKana":"ｵｵｻｶﾌ","cityKana":"ｵｵｻｶｼｱﾍﾞﾉｸ","streetKana":"ｱﾍﾞﾉｽｼﾞｱﾍﾞﾉﾊﾙｶｽ(49ｶｲ)","prefecture":"大阪府","city":"大阪市阿倍野区","street":"阿倍野筋あべのハルカス（４９階）"},{"zipCode":"5456050","prefectureKana":"ｵｵｻｶﾌ","cityKana":"ｵｵｻｶｼｱﾍﾞﾉｸ","streetKana":"ｱﾍﾞﾉｽｼﾞｱﾍﾞﾉﾊﾙｶｽ(50ｶｲ)","prefecture":"大阪府","city":"大阪市阿倍野区","street":"阿倍野筋あべのハルカス（５０階）"},{"zipCode":"5456051","prefectureKana":"ｵｵｻｶﾌ","cityKana":"ｵｵｻｶｼｱﾍﾞﾉｸ","streetKana":"ｱﾍﾞﾉｽｼﾞｱﾍﾞﾉﾊﾙｶｽ(51ｶｲ)","prefecture":"大阪府","city":"大阪市阿倍野区","street":"阿倍野筋あべのハルカス（５１階）"},{"zipCode":"5456052","prefectureKana":"ｵｵｻｶﾌ","cityKana":"ｵｵｻｶｼｱﾍﾞﾉｸ","streetKana":"ｱﾍﾞﾉｽｼﾞｱﾍﾞﾉﾊﾙｶｽ(52ｶｲ)","prefecture":"大阪府","city":"大阪市阿倍野区","street":"阿倍野筋あべのハルカス（５２階）"},{"zipCode":"5456053","prefectureKana":"ｵｵｻｶﾌ","cityKana":"ｵｵｻｶｼｱﾍﾞﾉｸ","streetKana":"ｱﾍﾞﾉｽｼﾞｱﾍﾞﾉﾊﾙｶｽ(53ｶｲ)","prefecture":"大阪府","city":"大阪市阿倍野区","street":"阿倍野筋あべのハルカス（５３階）"},{"zipCode":"5456054","prefectureKana":"ｵｵｻｶﾌ","cityKana":"ｵｵｻｶｼｱﾍﾞﾉｸ","streetKana":"ｱﾍﾞﾉｽｼﾞｱﾍﾞﾉﾊﾙｶｽ(54ｶｲ)","prefecture":"大阪府","city":"大阪市阿倍野区","street":"阿倍野筋あべのハルカス（５４階）"},{"zipCode":"5456055","prefectureKana":"ｵｵｻｶﾌ","cityKana":"ｵｵｻｶｼｱﾍﾞﾉｸ","streetKana":"ｱﾍﾞﾉｽｼﾞｱﾍﾞﾉﾊﾙｶｽ(55ｶｲ)","prefecture":"大阪府","city":"大阪市阿倍野区","street":"阿倍野筋あべのハルカス（５５階）"},{"zipCode":"5456056","prefectureKana":"ｵｵｻｶﾌ","cityKana":"ｵｵｻｶｼｱﾍﾞﾉｸ","streetKana":"ｱﾍﾞﾉｽｼﾞｱﾍﾞﾉﾊﾙｶｽ(56ｶｲ)","prefecture":"大阪府","city":"大阪市阿倍野区","street":"阿倍野筋あべのハルカス（５６階）"},{"zipCode":"5456057","prefectureKana":"ｵｵｻｶﾌ","cityKana":"ｵｵｻｶｼｱﾍﾞﾉｸ","streetKana":"ｱﾍﾞﾉｽｼﾞｱﾍﾞﾉﾊﾙｶｽ(57ｶｲ)","prefecture":"大阪府","city":"大阪市阿倍野区","street":"阿倍野筋あべのハルカス（５７階）"},{"zipCode":"5456058","prefectureKana":"ｵｵｻｶﾌ","cityKana":"ｵｵｻｶｼｱﾍﾞﾉｸ","streetKana":"ｱﾍﾞﾉｽｼﾞｱﾍﾞﾉﾊﾙｶｽ(58ｶｲ)","prefecture":"大阪府","city":"大阪市阿倍野区","street":"阿倍野筋あべのハルカス（５８階）"},{"zipCode":"5456059","prefectureKana":"ｵｵｻｶﾌ","cityKana":"ｵｵｻｶｼｱﾍﾞﾉｸ","streetKana":"ｱﾍﾞﾉｽｼﾞｱﾍﾞﾉﾊﾙｶｽ(59ｶｲ)","prefecture":"大阪府","city":"大阪市阿倍野区","street":"阿倍野筋あべのハルカス（５９階）"},{"zipCode":"5456060","prefectureKana":"ｵｵｻｶﾌ","cityKana":"ｵｵｻｶｼｱﾍﾞﾉｸ","streetKana":"ｱﾍﾞﾉｽｼﾞｱﾍﾞﾉﾊﾙｶｽ(60ｶｲ)","prefecture":"大阪府","city":"大阪市阿倍野区","street":"阿倍野筋あべのハルカス（６０階）"},{"zipCode":"5450034","prefectureKana":"ｵｵｻｶﾌ","cityKana":"ｵｵｻｶｼｱﾍﾞﾉｸ","streetKana":"ｱﾍﾞﾉﾓﾄﾏﾁ","prefecture":"大阪府","city":"大阪市阿倍野区","street":"阿倍野元町"},{"zipCode":"5450023","prefectureKana":"ｵｵｻｶﾌ","cityKana":"ｵｵｻｶｼｱﾍﾞﾉｸ","streetKana":"ｵｳｼﾞﾁｮｳ","prefecture":"大阪府","city":"大阪市阿倍野区","street":"王子町"},{"zipCode":"5450035","prefectureKana":"ｵｵｻｶﾌ","cityKana":"ｵｵｻｶｼｱﾍﾞﾉｸ","streetKana":"ｷﾀﾊﾞﾀｹ","prefecture":"大阪府","city":"大阪市阿倍野区","street":"北畠"},{"zipCode":"5450041","prefectureKana":"ｵｵｻｶﾌ","cityKana":"ｵｵｻｶｼｱﾍﾞﾉｸ","streetKana":"ｷｮｳﾘﾂﾄﾞｵﾘ","prefecture":"大阪府","city":"大阪市阿倍野区","street":"共立通"},{"zipCode":"5450005","prefectureKana":"ｵｵｻｶﾌ","cityKana":"ｵｵｻｶｼｱﾍﾞﾉｸ","streetKana":"ｻﾝﾒｲﾁｮｳ","prefecture":"大阪府","city":"大阪市阿倍野区","street":"三明町"},{"zipCode":"5450011","prefectureKana":"ｵｵｻｶﾌ","cityKana":"ｵｵｻｶｼｱﾍﾞﾉｸ","streetKana":"ｼｮｳﾜﾁｮｳ","prefecture":"大阪府","city":"大阪市阿倍野区","street":"昭和町"},{"zipCode":"5450032","prefectureKana":"ｵｵｻｶﾌ","cityKana":"ｵｵｻｶｼｱﾍﾞﾉｸ","streetKana":"ｾｲﾒｲﾄﾞｵﾘ","prefecture":"大阪府","city":"大阪市阿倍野区","street":"晴明通"},{"zipCode":"5450037","prefectureKana":"ｵｵｻｶﾌ","cityKana":"ｵｵｻｶｼｱﾍﾞﾉｸ","streetKana":"ﾃﾂﾞｶﾔﾏ","prefecture":"大阪府","city":"大阪市阿倍野区","street":"帝塚山"},{"zipCode":"5450002","prefectureKana":"ｵｵｻｶﾌ","cityKana":"ｵｵｻｶｼｱﾍﾞﾉｸ","streetKana":"ﾃﾝﾉｳｼﾞﾁｮｳﾐﾅﾐ","prefecture":"大阪府","city":"大阪市阿倍野区","street":"天王寺町南"},{"zipCode":"5450001","prefectureKana":"ｵｵｻｶﾌ","cityKana":"ｵｵｻｶｼｱﾍﾞﾉｸ","streetKana":"ﾃﾝﾉｳｼﾞﾁｮｳｷﾀ","prefecture":"大阪府","city":"大阪市阿倍野区","street":"天王寺町北"},{"zipCode":"5450013","prefectureKana":"ｵｵｻｶﾌ","cityKana":"ｵｵｻｶｼｱﾍﾞﾉｸ","streetKana":"ﾅｶﾞｲｹﾁｮｳ","prefecture":"大阪府","city":"大阪市阿倍野区","street":"長池町"},{"zipCode":"5450014","prefectureKana":"ｵｵｻｶﾌ","cityKana":"ｵｵｻｶｼｱﾍﾞﾉｸ","streetKana":"ﾆｼﾀﾅﾍﾞﾁｮｳ","prefecture":"大阪府","city":"大阪市阿倍野区","street":"西田辺町"},{"zipCode":"5450031","prefectureKana":"ｵｵｻｶﾌ","cityKana":"ｵｵｻｶｼｱﾍﾞﾉｸ","streetKana":"ﾊｼﾓﾄﾁｮｳ","prefecture":"大阪府","city":"大阪市阿倍野区","street":"橋本町"},{"zipCode":"5450022","prefectureKana":"ｵｵｻｶﾌ","cityKana":"ｵｵｻｶｼｱﾍﾞﾉｸ","streetKana":"ﾊﾘﾏﾁｮｳ","prefecture":"大阪府","city":"大阪市阿倍野区","street":"播磨町"},{"zipCode":"5450021","prefectureKana":"ｵｵｻｶﾌ","cityKana":"ｵｵｻｶｼｱﾍﾞﾉｸ","streetKana":"ﾊﾝﾅﾝﾁｮｳ","prefecture":"大阪府","city":"大阪市阿倍野区","street":"阪南町"},{"zipCode":"5450036","prefectureKana":"ｵｵｻｶﾌ","cityKana":"ｵｵｻｶｼｱﾍﾞﾉｸ","streetKana":"ﾊﾞﾝﾀﾞｲ","prefecture":"大阪府","city":"大阪市阿倍野区","street":"万代"},{"zipCode":"5450003","prefectureKana":"ｵｵｻｶﾌ","cityKana":"ｵｵｻｶｼｱﾍﾞﾉｸ","streetKana":"ﾋﾞｼｮｳｴﾝ","prefecture":"大阪府","city":"大阪市阿倍野区","street":"美章園"},{"zipCode":"5450004","prefectureKana":"ｵｵｻｶﾌ","cityKana":"ｵｵｻｶｼｱﾍﾞﾉｸ","streetKana":"ﾌﾐﾉｻﾄ","prefecture":"大阪府","city":"大阪市阿倍野区","street":"文の里"},{"zipCode":"5450053","prefectureKana":"ｵｵｻｶﾌ","cityKana":"ｵｵｻｶｼｱﾍﾞﾉｸ","streetKana":"ﾏﾂｻﾞｷﾁｮｳ","prefecture":"大阪府","city":"大阪市阿倍野区","street":"松崎町"},{"zipCode":"5450043","prefectureKana":"ｵｵｻｶﾌ","cityKana":"ｵｵｻｶｼｱﾍﾞﾉｸ","streetKana":"ﾏﾂﾑｼﾄﾞｵﾘ","prefecture":"大阪府","city":"大阪市阿倍野区","street":"松虫通"},{"zipCode":"5450042","prefectureKana":"ｵｵｻｶﾌ","cityKana":"ｵｵｻｶｼｱﾍﾞﾉｸ","streetKana":"ﾏﾙﾔﾏﾄﾞｵﾘ","prefecture":"大阪府","city":"大阪市阿倍野区","street":"丸山通"},{"zipCode":"5450012","prefectureKana":"ｵｵｻｶﾌ","cityKana":"ｵｵｻｶｼｱﾍﾞﾉｸ","streetKana":"ﾓﾓｶﾞｲｹﾁｮｳ","prefecture":"大阪府","city":"大阪市阿倍野区","street":"桃ケ池町"}]