[{"zipCode":"5500000","prefectureKana":"ｵｵｻｶﾌ","cityKana":"ｵｵｻｶｼﾆｼｸ","streetKana":"ｲｶﾆｹｲｻｲｶﾞﾅｲﾊﾞｱｲ","prefecture":"大阪府","city":"大阪市西区","street":"以下に掲載がない場合"},{"zipCode":"5500026","prefectureKana":"ｵｵｻｶﾌ","cityKana":"ｵｵｻｶｼﾆｼｸ","streetKana":"ｱｼﾞｶﾞﾜ","prefecture":"大阪府","city":"大阪市西区","street":"安治川"},{"zipCode":"5500011","prefectureKana":"ｵｵｻｶﾌ","cityKana":"ｵｵｻｶｼﾆｼｸ","streetKana":"ｱﾜｻﾞ","prefecture":"大阪府","city":"大阪市西区","street":"阿波座"},{"zipCode":"5500012","prefectureKana":"ｵｵｻｶﾌ","cityKana":"ｵｵｻｶｼﾆｼｸ","streetKana":"ｲﾀﾁﾎﾞﾘ","prefecture":"大阪府","city":"大阪市西区","street":"立売堀"},{"zipCode":"5500004","prefectureKana":"ｵｵｻｶﾌ","cityKana":"ｵｵｻｶｼﾆｼｸ","streetKana":"ｳﾂﾎﾞﾎﾝﾏﾁ","prefecture":"大阪府","city":"大阪市西区","street":"靱本町"},{"zipCode":"5500002","prefectureKana":"ｵｵｻｶﾌ","cityKana":"ｵｵｻｶｼﾆｼｸ","streetKana":"ｴﾄﾞﾎﾞﾘ","prefecture":"大阪府","city":"大阪市西区","street":"江戸堀"},{"zipCode":"5500006","prefectureKana":"ｵｵｻｶﾌ","cityKana":"ｵｵｻｶｼﾆｼｸ","streetKana":"ｴﾉｺｼﾞﾏ","prefecture":"大阪府","city":"大阪市西区","street":"江之子島"},{"zipCode":"5500021","prefectureKana":"ｵｵｻｶﾌ","cityKana":"ｵｵｻｶｼﾆｼｸ","streetKana":"ｶﾜｸﾞﾁ","prefecture":"大阪府","city":"大阪市西区","street":"川口"},{"zipCode":"5500014","prefectureKana":"ｵｵｻｶﾌ","cityKana":"ｵｵｻｶｼﾆｼｸ","streetKana":"ｷﾀﾎﾘｴ","prefecture":"大阪府","city":"大阪市西区","street":"北堀江"},{"zipCode":"5500003","prefectureKana":"ｵｵｻｶﾌ","cityKana":"ｵｵｻｶｼﾆｼｸ","streetKana":"ｷｮｳﾏﾁﾎﾞﾘ","prefecture":"大阪府","city":"大阪市西区","street":"京町堀"},{"zipCode":"5500027","prefectureKana":"ｵｵｻｶﾌ","cityKana":"ｵｵｻｶｼﾆｼｸ","streetKana":"ｸｼﾞｮｳ","prefecture":"大阪府","city":"大阪市西区","street":"九条"},{"zipCode":"5500025","prefectureKana":"ｵｵｻｶﾌ","cityKana":"ｵｵｻｶｼﾆｼｸ","streetKana":"ｸｼﾞｮｳﾐﾅﾐ","prefecture":"大阪府","city":"大阪市西区","street":"九条南"},{"zipCode":"5500024","prefectureKana":"ｵｵｻｶﾌ","cityKana":"ｵｵｻｶｼﾆｼｸ","streetKana":"ｻｶｲｶﾞﾜ","prefecture":"大阪府","city":"大阪市西区","street":"境川"},{"zipCode":"5500013","prefectureKana":"ｵｵｻｶﾌ","cityKana":"ｵｵｻｶｼﾆｼｸ","streetKana":"ｼﾝﾏﾁ","prefecture":"大阪府","city":"大阪市西区","street":"新町"},{"zipCode":"5500023","prefectureKana":"ｵｵｻｶﾌ","cityKana":"ｵｵｻｶｼﾆｼｸ","streetKana":"ﾁﾖｻﾞｷ","prefecture":"大阪府","city":"大阪市西区","street":"千代崎"},{"zipCode":"5500001","prefectureKana":"ｵｵｻｶﾌ","cityKana":"ｵｵｻｶｼﾆｼｸ","streetKana":"ﾄｻﾎﾞﾘ","prefecture":"大阪府","city":"大阪市西区","street":"土佐堀"},{"zipCode":"5500005","prefectureKana":"ｵｵｻｶﾌ","cityKana":"ｵｵｻｶｼﾆｼｸ","streetKana":"ﾆｼﾎﾝﾏﾁ","prefecture":"大阪府","city":"大阪市西区","street":"西本町"},{"zipCode":"5500022","prefectureKana":"ｵｵｻｶﾌ","cityKana":"ｵｵｻｶｼﾆｼｸ","streetKana":"ﾎﾝﾃﾞﾝ","prefecture":"大阪府","city":"大阪市西区","street":"本田"},{"zipCode":"5500015","prefectureKana":"ｵｵｻｶﾌ","cityKana":"ｵｵｻｶｼﾆｼｸ","streetKana":"ﾐﾅﾐﾎﾘｴ","prefecture":"大阪府","city":"大阪市西区","street":"南堀江"}]