[{"zipCode":"5510000","prefectureKana":"ｵｵｻｶﾌ","cityKana":"ｵｵｻｶｼﾀｲｼｮｳｸ","streetKana":"ｲｶﾆｹｲｻｲｶﾞﾅｲﾊﾞｱｲ","prefecture":"大阪府","city":"大阪市大正区","street":"以下に掲載がない場合"},{"zipCode":"5510031","prefectureKana":"ｵｵｻｶﾌ","cityKana":"ｵｵｻｶｼﾀｲｼｮｳｸ","streetKana":"ｲｽﾞｵ","prefecture":"大阪府","city":"大阪市大正区","street":"泉尾"},{"zipCode":"5510033","prefectureKana":"ｵｵｻｶﾌ","cityKana":"ｵｵｻｶｼﾀｲｼｮｳｸ","streetKana":"ｷﾀｵｶｼﾞﾏ","prefecture":"大阪府","city":"大阪市大正区","street":"北恩加島"},{"zipCode":"5510032","prefectureKana":"ｵｵｻｶﾌ","cityKana":"ｵｵｻｶｼﾀｲｼｮｳｸ","streetKana":"ｷﾀﾑﾗ","prefecture":"大阪府","city":"大阪市大正区","street":"北村"},{"zipCode":"5510011","prefectureKana":"ｵｵｻｶﾌ","cityKana":"ｵｵｻｶｼﾀｲｼｮｳｸ","streetKana":"ｺﾊﾞﾔｼﾋｶﾞｼ","prefecture":"大阪府","city":"大阪市大正区","street":"小林東"},{"zipCode":"5510013","prefectureKana":"ｵｵｻｶﾌ","cityKana":"ｵｵｻｶｼﾀｲｼｮｳｸ","streetKana":"ｺﾊﾞﾔｼﾆｼ","prefecture":"大阪府","city":"大阪市大正区","street":"小林西"},{"zipCode":"5510002","prefectureKana":"ｵｵｻｶﾌ","cityKana":"ｵｵｻｶｼﾀｲｼｮｳｸ","streetKana":"ｻﾝｹﾞﾝﾔﾋｶﾞｼ","prefecture":"大阪府","city":"大阪市大正区","street":"三軒家東"},{"zipCode":"5510001","prefectureKana":"ｵｵｻｶﾌ","cityKana":"ｵｵｻｶｼﾀｲｼｮｳｸ","streetKana":"ｻﾝｹﾞﾝﾔﾆｼ","prefecture":"大阪府","city":"大阪市大正区","street":"三軒家西"},{"zipCode":"5510003","prefectureKana":"ｵｵｻｶﾌ","cityKana":"ｵｵｻｶｼﾀｲｼｮｳｸ","streetKana":"ﾁｼﾏ","prefecture":"大阪府","city":"大阪市大正区","street":"千島"},{"zipCode":"5510023","prefectureKana":"ｵｵｻｶﾌ","cityKana":"ｵｵｻｶｼﾀｲｼｮｳｸ","streetKana":"ﾂﾙﾏﾁ","prefecture":"大阪府","city":"大阪市大正区","street":"鶴町"},{"zipCode":"5510012","prefectureKana":"ｵｵｻｶﾌ","cityKana":"ｵｵｻｶｼﾀｲｼｮｳｸ","streetKana":"ﾋﾗｵ","prefecture":"大阪府","city":"大阪市大正区","street":"平尾"},{"zipCode":"5510022","prefectureKana":"ｵｵｻｶﾌ","cityKana":"ｵｵｻｶｼﾀｲｼｮｳｸ","streetKana":"ﾌﾅﾏﾁ","prefecture":"大阪府","city":"大阪市大正区","street":"船町"},{"zipCode":"5510021","prefectureKana":"ｵｵｻｶﾌ","cityKana":"ｵｵｻｶｼﾀｲｼｮｳｸ","streetKana":"ﾐﾅﾐｵｶｼﾞﾏ","prefecture":"大阪府","city":"大阪市大正区","street":"南恩加島"}]