[{"zipCode":"5520000","prefectureKana":"ｵｵｻｶﾌ","cityKana":"ｵｵｻｶｼﾐﾅﾄｸ","streetKana":"ｲｶﾆｹｲｻｲｶﾞﾅｲﾊﾞｱｲ","prefecture":"大阪府","city":"大阪市港区","street":"以下に掲載がない場合"},{"zipCode":"5520015","prefectureKana":"ｵｵｻｶﾌ","cityKana":"ｵｵｻｶｼﾐﾅﾄｸ","streetKana":"ｲｹｼﾞﾏ","prefecture":"大阪府","city":"大阪市港区","street":"池島"},{"zipCode":"5520006","prefectureKana":"ｵｵｻｶﾌ","cityKana":"ｵｵｻｶｼﾐﾅﾄｸ","streetKana":"ｲｼﾀﾞ","prefecture":"大阪府","city":"大阪市港区","street":"石田"},{"zipCode":"5520003","prefectureKana":"ｵｵｻｶﾌ","cityKana":"ｵｵｻｶｼﾐﾅﾄｸ","streetKana":"ｲｿｼﾞ","prefecture":"大阪府","city":"大阪市港区","street":"磯路"},{"zipCode":"5520012","prefectureKana":"ｵｵｻｶﾌ","cityKana":"ｵｵｻｶｼﾐﾅﾄｸ","streetKana":"ｲﾁｵｶ","prefecture":"大阪府","city":"大阪市港区","street":"市岡"},{"zipCode":"5520002","prefectureKana":"ｵｵｻｶﾌ","cityKana":"ｵｵｻｶｼﾐﾅﾄｸ","streetKana":"ｲﾁｵｶﾓﾄﾏﾁ","prefecture":"大阪府","city":"大阪市港区","street":"市岡元町"},{"zipCode":"5520022","prefectureKana":"ｵｵｻｶﾌ","cityKana":"ｵｵｻｶｼﾐﾅﾄｸ","streetKana":"ｶｲｶﾞﾝﾄﾞｵﾘ","prefecture":"大阪府","city":"大阪市港区","street":"海岸通"},{"zipCode":"5520023","prefectureKana":"ｵｵｻｶﾌ","cityKana":"ｵｵｻｶｼﾐﾅﾄｸ","streetKana":"ｺｳｾｲ","prefecture":"大阪府","city":"大阪市港区","street":"港晴"},{"zipCode":"5520005","prefectureKana":"ｵｵｻｶﾌ","cityKana":"ｵｵｻｶｼﾐﾅﾄｸ","streetKana":"ﾀﾅｶ","prefecture":"大阪府","city":"大阪市港区","street":"田中"},{"zipCode":"5520021","prefectureKana":"ｵｵｻｶﾌ","cityKana":"ｵｵｻｶｼﾐﾅﾄｸ","streetKana":"ﾁｯｺｳ","prefecture":"大阪府","city":"大阪市港区","street":"築港"},{"zipCode":"5520001","prefectureKana":"ｵｵｻｶﾌ","cityKana":"ｵｵｻｶｼﾐﾅﾄｸ","streetKana":"ﾅﾐﾖｹ","prefecture":"大阪府","city":"大阪市港区","street":"波除"},{"zipCode":"5520013","prefectureKana":"ｵｵｻｶﾌ","cityKana":"ｵｵｻｶｼﾐﾅﾄｸ","streetKana":"ﾌｸｻﾞｷ","prefecture":"大阪府","city":"大阪市港区","street":"福崎"},{"zipCode":"5520007","prefectureKana":"ｵｵｻｶﾌ","cityKana":"ｵｵｻｶｼﾐﾅﾄｸ","streetKana":"ﾍﾞﾝﾃﾝ","prefecture":"大阪府","city":"大阪市港区","street":"弁天"},{"zipCode":"5520016","prefectureKana":"ｵｵｻｶﾌ","cityKana":"ｵｵｻｶｼﾐﾅﾄｸ","streetKana":"ﾐｻｷ","prefecture":"大阪府","city":"大阪市港区","street":"三先"},{"zipCode":"5520011","prefectureKana":"ｵｵｻｶﾌ","cityKana":"ｵｵｻｶｼﾐﾅﾄｸ","streetKana":"ﾐﾅﾐｲﾁｵｶ","prefecture":"大阪府","city":"大阪市港区","street":"南市岡"},{"zipCode":"5520014","prefectureKana":"ｵｵｻｶﾌ","cityKana":"ｵｵｻｶｼﾐﾅﾄｸ","streetKana":"ﾔﾊﾀﾔ","prefecture":"大阪府","city":"大阪市港区","street":"八幡屋"},{"zipCode":"5520004","prefectureKana":"ｵｵｻｶﾌ","cityKana":"ｵｵｻｶｼﾐﾅﾄｸ","streetKana":"ﾕｳﾅｷﾞ","prefecture":"大阪府","city":"大阪市港区","street":"夕凪"}]