[{"zipCode":"5540000","prefectureKana":"ｵｵｻｶﾌ","cityKana":"ｵｵｻｶｼｺﾉﾊﾅｸ","streetKana":"ｲｶﾆｹｲｻｲｶﾞﾅｲﾊﾞｱｲ","prefecture":"大阪府","city":"大阪市此花区","street":"以下に掲載がない場合"},{"zipCode":"5540011","prefectureKana":"ｵｵｻｶﾌ","cityKana":"ｵｵｻｶｼｺﾉﾊﾅｸ","streetKana":"ｱｻﾋ","prefecture":"大阪府","city":"大阪市此花区","street":"朝日"},{"zipCode":"5540032","prefectureKana":"ｵｵｻｶﾌ","cityKana":"ｵｵｻｶｼｺﾉﾊﾅｸ","streetKana":"ｳﾒﾏﾁ","prefecture":"大阪府","city":"大阪市此花区","street":"梅町"},{"zipCode":"5540022","prefectureKana":"ｵｵｻｶﾌ","cityKana":"ｵｵｻｶｼｺﾉﾊﾅｸ","streetKana":"ｶｽｶﾞﾃﾞﾅｶ","prefecture":"大阪府","city":"大阪市此花区","street":"春日出中"},{"zipCode":"5540023","prefectureKana":"ｵｵｻｶﾌ","cityKana":"ｵｵｻｶｼｺﾉﾊﾅｸ","streetKana":"ｶｽｶﾞﾃﾞﾐﾅﾐ","prefecture":"大阪府","city":"大阪市此花区","street":"春日出南"},{"zipCode":"5540021","prefectureKana":"ｵｵｻｶﾌ","cityKana":"ｵｵｻｶｼｺﾉﾊﾅｸ","streetKana":"ｶｽｶﾞﾃﾞｷﾀ","prefecture":"大阪府","city":"大阪市此花区","street":"春日出北"},{"zipCode":"5540031","prefectureKana":"ｵｵｻｶﾌ","cityKana":"ｵｵｻｶｼｺﾉﾊﾅｸ","streetKana":"ｻｸﾗｼﾞﾏ","prefecture":"大阪府","city":"大阪市此花区","street":"桜島"},{"zipCode":"5540014","prefectureKana":"ｵｵｻｶﾌ","cityKana":"ｵｵｻｶｼｺﾉﾊﾅｸ","streetKana":"ｼｶﾝｼﾞﾏ","prefecture":"大阪府","city":"大阪市此花区","street":"四貫島"},{"zipCode":"5540024","prefectureKana":"ｵｵｻｶﾌ","cityKana":"ｵｵｻｶｼｺﾉﾊﾅｸ","streetKana":"ｼﾏﾔ","prefecture":"大阪府","city":"大阪市此花区","street":"島屋"},{"zipCode":"5540001","prefectureKana":"ｵｵｻｶﾌ","cityKana":"ｵｵｻｶｼｺﾉﾊﾅｸ","streetKana":"ﾀｶﾐ","prefecture":"大阪府","city":"大阪市此花区","street":"高見"},{"zipCode":"5540052","prefectureKana":"ｵｵｻｶﾌ","cityKana":"ｵｵｻｶｼｺﾉﾊﾅｸ","streetKana":"ﾂﾈﾖｼ","prefecture":"大阪府","city":"大阪市此花区","street":"常吉"},{"zipCode":"5540002","prefectureKana":"ｵｵｻｶﾌ","cityKana":"ｵｵｻｶｼｺﾉﾊﾅｸ","streetKana":"ﾃﾞﾝﾎﾟｳ","prefecture":"大阪府","city":"大阪市此花区","street":"伝法"},{"zipCode":"5540051","prefectureKana":"ｵｵｻｶﾌ","cityKana":"ｵｵｻｶｼｺﾉﾊﾅｸ","streetKana":"ﾄﾘｼﾏ","prefecture":"大阪府","city":"大阪市此花区","street":"酉島"},{"zipCode":"5540012","prefectureKana":"ｵｵｻｶﾌ","cityKana":"ｵｵｻｶｼｺﾉﾊﾅｸ","streetKana":"ﾆｼｸｼﾞｮｳ","prefecture":"大阪府","city":"大阪市此花区","street":"西九条"},{"zipCode":"5540013","prefectureKana":"ｵｵｻｶﾌ","cityKana":"ｵｵｻｶｼｺﾉﾊﾅｸ","streetKana":"ﾊﾞｲｶ","prefecture":"大阪府","city":"大阪市此花区","street":"梅香"},{"zipCode":"5540033","prefectureKana":"ｵｵｻｶﾌ","cityKana":"ｵｵｻｶｼｺﾉﾊﾅｸ","streetKana":"ﾎｸｺｳ","prefecture":"大阪府","city":"大阪市此花区","street":"北港"},{"zipCode":"5540041","prefectureKana":"ｵｵｻｶﾌ","cityKana":"ｵｵｻｶｼｺﾉﾊﾅｸ","streetKana":"ﾎｸｺｳｼﾗﾂ","prefecture":"大阪府","city":"大阪市此花区","street":"北港白津"},{"zipCode":"5540042","prefectureKana":"ｵｵｻｶﾌ","cityKana":"ｵｵｻｶｼｺﾉﾊﾅｸ","streetKana":"ﾎｸｺｳﾘｮｸﾁ","prefecture":"大阪府","city":"大阪市此花区","street":"北港緑地"},{"zipCode":"5540043","prefectureKana":"ｵｵｻｶﾌ","cityKana":"ｵｵｻｶｼｺﾉﾊﾅｸ","streetKana":"ﾕﾒｼﾏﾋｶﾞｼ","prefecture":"大阪府","city":"大阪市此花区","street":"夢洲東"}]