[{"zipCode":"5550000","prefectureKana":"ｵｵｻｶﾌ","cityKana":"ｵｵｻｶｼﾆｼﾖﾄﾞｶﾞﾜｸ","streetKana":"ｲｶﾆｹｲｻｲｶﾞﾅｲﾊﾞｱｲ","prefecture":"大阪府","city":"大阪市西淀川区","street":"以下に掲載がない場合"},{"zipCode":"5550021","prefectureKana":"ｵｵｻｶﾌ","cityKana":"ｵｵｻｶｼﾆｼﾖﾄﾞｶﾞﾜｸ","streetKana":"ｳﾀｼﾞﾏ","prefecture":"大阪府","city":"大阪市西淀川区","street":"歌島"},{"zipCode":"5550043","prefectureKana":"ｵｵｻｶﾌ","cityKana":"ｵｵｻｶｼﾆｼﾖﾄﾞｶﾞﾜｸ","streetKana":"ｵｵﾉ","prefecture":"大阪府","city":"大阪市西淀川区","street":"大野"},{"zipCode":"5550032","prefectureKana":"ｵｵｻｶﾌ","cityKana":"ｵｵｻｶｼﾆｼﾖﾄﾞｶﾞﾜｸ","streetKana":"ｵｵﾜﾀﾞ","prefecture":"大阪府","city":"大阪市西淀川区","street":"大和田"},{"zipCode":"5550022","prefectureKana":"ｵｵｻｶﾌ","cityKana":"ｵｵｻｶｼﾆｼﾖﾄﾞｶﾞﾜｸ","streetKana":"ｶｼﾜｻﾞﾄ","prefecture":"大阪府","city":"大阪市西淀川区","street":"柏里"},{"zipCode":"5550011","prefectureKana":"ｵｵｻｶﾌ","cityKana":"ｵｵｻｶｼﾆｼﾖﾄﾞｶﾞﾜｸ","streetKana":"ﾀｹｼﾏ","prefecture":"大阪府","city":"大阪市西淀川区","street":"竹島"},{"zipCode":"5550013","prefectureKana":"ｵｵｻｶﾌ","cityKana":"ｵｵｻｶｼﾆｼﾖﾄﾞｶﾞﾜｸ","streetKana":"ﾁﾌﾞﾈ","prefecture":"大阪府","city":"大阪市西淀川区","street":"千舟"},{"zipCode":"5550001","prefectureKana":"ｵｵｻｶﾌ","cityKana":"ｵｵｻｶｼﾆｼﾖﾄﾞｶﾞﾜｸ","streetKana":"ﾂｸﾀﾞ","prefecture":"大阪府","city":"大阪市西淀川区","street":"佃"},{"zipCode":"5550031","prefectureKana":"ｵｵｻｶﾌ","cityKana":"ｵｵｻｶｼﾆｼﾖﾄﾞｶﾞﾜｸ","streetKana":"ﾃﾞｷｼﾞﾏ","prefecture":"大阪府","city":"大阪市西淀川区","street":"出来島"},{"zipCode":"5550041","prefectureKana":"ｵｵｻｶﾌ","cityKana":"ｵｵｻｶｼﾆｼﾖﾄﾞｶﾞﾜｸ","streetKana":"ﾅｶｼﾏ","prefecture":"大阪府","city":"大阪市西淀川区","street":"中島"},{"zipCode":"5550042","prefectureKana":"ｵｵｻｶﾌ","cityKana":"ｵｵｻｶｼﾆｼﾖﾄﾞｶﾞﾜｸ","streetKana":"ﾆｼｼﾏ","prefecture":"大阪府","city":"大阪市西淀川区","street":"西島"},{"zipCode":"5550024","prefectureKana":"ｵｵｻｶﾌ","cityKana":"ｵｵｻｶｼﾆｼﾖﾄﾞｶﾞﾜｸ","streetKana":"ﾉｻﾞﾄ","prefecture":"大阪府","city":"大阪市西淀川区","street":"野里"},{"zipCode":"5550023","prefectureKana":"ｵｵｻｶﾌ","cityKana":"ｵｵｻｶｼﾆｼﾖﾄﾞｶﾞﾜｸ","streetKana":"ﾊﾅｶﾜ","prefecture":"大阪府","city":"大阪市西淀川区","street":"花川"},{"zipCode":"5550025","prefectureKana":"ｵｵｻｶﾌ","cityKana":"ｵｵｻｶｼﾆｼﾖﾄﾞｶﾞﾜｸ","streetKana":"ﾋﾒｻﾄ","prefecture":"大阪府","city":"大阪市西淀川区","street":"姫里"},{"zipCode":"5550033","prefectureKana":"ｵｵｻｶﾌ","cityKana":"ｵｵｻｶｼﾆｼﾖﾄﾞｶﾞﾜｸ","streetKana":"ﾋﾒｼﾏ","prefecture":"大阪府","city":"大阪市西淀川区","street":"姫島"},{"zipCode":"5550044","prefectureKana":"ｵｵｻｶﾌ","cityKana":"ｵｵｻｶｼﾆｼﾖﾄﾞｶﾞﾜｸ","streetKana":"ﾋｬｸｼﾏ","prefecture":"大阪府","city":"大阪市西淀川区","street":"百島"},{"zipCode":"5550034","prefectureKana":"ｵｵｻｶﾌ","cityKana":"ｵｵｻｶｼﾆｼﾖﾄﾞｶﾞﾜｸ","streetKana":"ﾌｸﾏﾁ","prefecture":"大阪府","city":"大阪市西淀川区","street":"福町"},{"zipCode":"5550012","prefectureKana":"ｵｵｻｶﾌ","cityKana":"ｵｵｻｶｼﾆｼﾖﾄﾞｶﾞﾜｸ","streetKana":"ﾐﾃｼﾞﾏ","prefecture":"大阪府","city":"大阪市西淀川区","street":"御幣島"}]