[{"zipCode":"5600000","prefectureKana":"ｵｵｻｶﾌ","cityKana":"ﾄﾖﾅｶｼ","streetKana":"ｲｶﾆｹｲｻｲｶﾞﾅｲﾊﾞｱｲ","prefecture":"大阪府","city":"豊中市","street":"以下に掲載がない場合"},{"zipCode":"5600015","prefectureKana":"ｵｵｻｶﾌ","cityKana":"ﾄﾖﾅｶｼ","streetKana":"ｱｶｻｶ","prefecture":"大阪府","city":"豊中市","street":"赤阪"},{"zipCode":"5600042","prefectureKana":"ｵｵｻｶﾌ","cityKana":"ﾄﾖﾅｶｼ","streetKana":"ｲｼﾊﾞｼｱｻﾀﾞﾁｮｳ","prefecture":"大阪府","city":"豊中市","street":"石橋麻田町"},{"zipCode":"5600013","prefectureKana":"ｵｵｻｶﾌ","cityKana":"ﾄﾖﾅｶｼ","streetKana":"ｳｴﾉﾋｶﾞｼ","prefecture":"大阪府","city":"豊中市","street":"上野東"},{"zipCode":"5600011","prefectureKana":"ｵｵｻｶﾌ","cityKana":"ﾄﾖﾅｶｼ","streetKana":"ｳｴﾉﾆｼ","prefecture":"大阪府","city":"豊中市","street":"上野西"},{"zipCode":"5600012","prefectureKana":"ｵｵｻｶﾌ","cityKana":"ﾄﾖﾅｶｼ","streetKana":"ｳｴﾉｻｶ","prefecture":"大阪府","city":"豊中市","street":"上野坂"},{"zipCode":"5600051","prefectureKana":"ｵｵｻｶﾌ","cityKana":"ﾄﾖﾅｶｼ","streetKana":"ｴｲﾗｸｿｳ","prefecture":"大阪府","city":"豊中市","street":"永楽荘"},{"zipCode":"5600023","prefectureKana":"ｵｵｻｶﾌ","cityKana":"ﾄﾖﾅｶｼ","streetKana":"ｵｶｶﾐﾉﾁｮｳ","prefecture":"大阪府","city":"豊中市","street":"岡上の町"},{"zipCode":"5600052","prefectureKana":"ｵｵｻｶﾌ","cityKana":"ﾄﾖﾅｶｼ","streetKana":"ｶｽｶﾞﾁｮｳ","prefecture":"大阪府","city":"豊中市","street":"春日町"},{"zipCode":"5600085","prefectureKana":"ｵｵｻｶﾌ","cityKana":"ﾄﾖﾅｶｼ","streetKana":"ｶﾐｼﾝﾃﾞﾝ","prefecture":"大阪府","city":"豊中市","street":"上新田"},{"zipCode":"5600022","prefectureKana":"ｵｵｻｶﾌ","cityKana":"ﾄﾖﾅｶｼ","streetKana":"ｷﾀｻｸﾗﾂﾞｶ","prefecture":"大阪府","city":"豊中市","street":"北桜塚"},{"zipCode":"5600001","prefectureKana":"ｵｵｻｶﾌ","cityKana":"ﾄﾖﾅｶｼ","streetKana":"ｷﾀﾐﾄﾞﾘｶﾞｵｶ","prefecture":"大阪府","city":"豊中市","street":"北緑丘"},{"zipCode":"5600014","prefectureKana":"ｵｵｻｶﾌ","cityKana":"ﾄﾖﾅｶｼ","streetKana":"ｸﾏﾉﾁｮｳ","prefecture":"大阪府","city":"豊中市","street":"熊野町"},{"zipCode":"5600016","prefectureKana":"ｵｵｻｶﾌ","cityKana":"ﾄﾖﾅｶｼ","streetKana":"ｸﾘｶﾞｵｶﾁｮｳ","prefecture":"大阪府","city":"豊中市","street":"栗ケ丘町"},{"zipCode":"5600054","prefectureKana":"ｵｵｻｶﾌ","cityKana":"ﾄﾖﾅｶｼ","streetKana":"ｻｸﾗﾉﾁｮｳ","prefecture":"大阪府","city":"豊中市","street":"桜の町"},{"zipCode":"5600055","prefectureKana":"ｵｵｻｶﾌ","cityKana":"ﾄﾖﾅｶｼ","streetKana":"ｼﾊﾞﾊﾗﾁｮｳ","prefecture":"大阪府","city":"豊中市","street":"柴原町"},{"zipCode":"5600004","prefectureKana":"ｵｵｻｶﾌ","cityKana":"ﾄﾖﾅｶｼ","streetKana":"ｼｮｳｼﾞ","prefecture":"大阪府","city":"豊中市","street":"少路"},{"zipCode":"5600082","prefectureKana":"ｵｵｻｶﾌ","cityKana":"ﾄﾖﾅｶｼ","streetKana":"ｼﾝｾﾝﾘﾋｶﾞｼﾏﾁ","prefecture":"大阪府","city":"豊中市","street":"新千里東町"},{"zipCode":"5600083","prefectureKana":"ｵｵｻｶﾌ","cityKana":"ﾄﾖﾅｶｼ","streetKana":"ｼﾝｾﾝﾘﾆｼﾏﾁ","prefecture":"大阪府","city":"豊中市","street":"新千里西町"},{"zipCode":"5600084","prefectureKana":"ｵｵｻｶﾌ","cityKana":"ﾄﾖﾅｶｼ","streetKana":"ｼﾝｾﾝﾘﾐﾅﾐﾏﾁ","prefecture":"大阪府","city":"豊中市","street":"新千里南町"},{"zipCode":"5600081","prefectureKana":"ｵｵｻｶﾌ","cityKana":"ﾄﾖﾅｶｼ","streetKana":"ｼﾝｾﾝﾘｷﾀﾏﾁ","prefecture":"大阪府","city":"豊中市","street":"新千里北町"},{"zipCode":"5600024","prefectureKana":"ｵｵｻｶﾌ","cityKana":"ﾄﾖﾅｶｼ","streetKana":"ｽｴﾋﾛﾁｮｳ","prefecture":"大阪府","city":"豊中市","street":"末広町"},{"zipCode":"5600041","prefectureKana":"ｵｵｻｶﾌ","cityKana":"ﾄﾖﾅｶｼ","streetKana":"ｾｲﾌｳｿｳ","prefecture":"大阪府","city":"豊中市","street":"清風荘"},{"zipCode":"5600046","prefectureKana":"ｵｵｻｶﾌ","cityKana":"ﾄﾖﾅｶｼ","streetKana":"ｾﾝﾘｴﾝ","prefecture":"大阪府","city":"豊中市","street":"千里園"},{"zipCode":"5600025","prefectureKana":"ｵｵｻｶﾌ","cityKana":"ﾄﾖﾅｶｼ","streetKana":"ﾀﾁﾊﾞﾅﾁｮｳ","prefecture":"大阪府","city":"豊中市","street":"立花町"},{"zipCode":"5600026","prefectureKana":"ｵｵｻｶﾌ","cityKana":"ﾄﾖﾅｶｼ","streetKana":"ﾀﾏｲﾁｮｳ","prefecture":"大阪府","city":"豊中市","street":"玉井町"},{"zipCode":"5600045","prefectureKana":"ｵｵｻｶﾌ","cityKana":"ﾄﾖﾅｶｼ","streetKana":"ﾄﾈﾔﾏ","prefecture":"大阪府","city":"豊中市","street":"刀根山"},{"zipCode":"5600044","prefectureKana":"ｵｵｻｶﾌ","cityKana":"ﾄﾖﾅｶｼ","streetKana":"ﾄﾈﾔﾏﾓﾄﾏﾁ","prefecture":"大阪府","city":"豊中市","street":"刀根山元町"},{"zipCode":"5600005","prefectureKana":"ｵｵｻｶﾌ","cityKana":"ﾄﾖﾅｶｼ","streetKana":"ﾆｼﾐﾄﾞﾘｶﾞｵｶ","prefecture":"大阪府","city":"豊中市","street":"西緑丘"},{"zipCode":"5600003","prefectureKana":"ｵｵｻｶﾌ","cityKana":"ﾄﾖﾅｶｼ","streetKana":"ﾋｶﾞｼﾄﾖﾅｶﾁｮｳ","prefecture":"大阪府","city":"豊中市","street":"東豊中町"},{"zipCode":"5600032","prefectureKana":"ｵｵｻｶﾌ","cityKana":"ﾄﾖﾅｶｼ","streetKana":"ﾎﾀﾙｶﾞｲｹﾋｶﾞｼﾏﾁ","prefecture":"大阪府","city":"豊中市","street":"蛍池東町"},{"zipCode":"5600036","prefectureKana":"ｵｵｻｶﾌ","cityKana":"ﾄﾖﾅｶｼ","streetKana":"ﾎﾀﾙｶﾞｲｹﾆｼﾏﾁ","prefecture":"大阪府","city":"豊中市","street":"蛍池西町"},{"zipCode":"5600034","prefectureKana":"ｵｵｻｶﾌ","cityKana":"ﾄﾖﾅｶｼ","streetKana":"ﾎﾀﾙｶﾞｲｹﾐﾅﾐﾏﾁ","prefecture":"大阪府","city":"豊中市","street":"蛍池南町"},{"zipCode":"5600031","prefectureKana":"ｵｵｻｶﾌ","cityKana":"ﾄﾖﾅｶｼ","streetKana":"ﾎﾀﾙｶﾞｲｹｷﾀﾏﾁ","prefecture":"大阪府","city":"豊中市","street":"蛍池北町"},{"zipCode":"5600033","prefectureKana":"ｵｵｻｶﾌ","cityKana":"ﾄﾖﾅｶｼ","streetKana":"ﾎﾀﾙｶﾞｲｹﾅｶﾏﾁ","prefecture":"大阪府","city":"豊中市","street":"蛍池中町"},{"zipCode":"5600021","prefectureKana":"ｵｵｻｶﾌ","cityKana":"ﾄﾖﾅｶｼ","streetKana":"ﾎﾝﾏﾁ","prefecture":"大阪府","city":"豊中市","street":"本町"},{"zipCode":"5600043","prefectureKana":"ｵｵｻｶﾌ","cityKana":"ﾄﾖﾅｶｼ","streetKana":"ﾏﾁｶﾈﾔﾏﾁｮｳ","prefecture":"大阪府","city":"豊中市","street":"待兼山町"},{"zipCode":"5600002","prefectureKana":"ｵｵｻｶﾌ","cityKana":"ﾄﾖﾅｶｼ","streetKana":"ﾐﾄﾞﾘｶﾞｵｶ","prefecture":"大阪府","city":"豊中市","street":"緑丘"},{"zipCode":"5600035","prefectureKana":"ｵｵｻｶﾌ","cityKana":"ﾄﾖﾅｶｼ","streetKana":"ﾐﾉﾜ","prefecture":"大阪府","city":"豊中市","street":"箕輪"},{"zipCode":"5600056","prefectureKana":"ｵｵｻｶﾌ","cityKana":"ﾄﾖﾅｶｼ","streetKana":"ﾐﾔﾔﾏﾁｮｳ","prefecture":"大阪府","city":"豊中市","street":"宮山町"},{"zipCode":"5600053","prefectureKana":"ｵｵｻｶﾌ","cityKana":"ﾄﾖﾅｶｼ","streetKana":"ﾑｶｲｶﾞｵｶ","prefecture":"大阪府","city":"豊中市","street":"向丘"}]