[{"zipCode":"5620000","prefectureKana":"ｵｵｻｶﾌ","cityKana":"ﾐﾉｵｼ","streetKana":"ｲｶﾆｹｲｻｲｶﾞﾅｲﾊﾞｱｲ","prefecture":"大阪府","city":"箕面市","street":"以下に掲載がない場合"},{"zipCode":"5620025","prefectureKana":"ｵｵｻｶﾌ","cityKana":"ﾐﾉｵｼ","streetKana":"ｱｵｹﾞｲﾝ","prefecture":"大阪府","city":"箕面市","street":"粟生外院"},{"zipCode":"5620024","prefectureKana":"ｵｵｻｶﾌ","cityKana":"ﾐﾉｵｼ","streetKana":"ｱｵｼﾝｹ","prefecture":"大阪府","city":"箕面市","street":"粟生新家"},{"zipCode":"5620021","prefectureKana":"ｵｵｻｶﾌ","cityKana":"ﾐﾉｵｼ","streetKana":"ｱｵﾏﾀﾞﾆ","prefecture":"大阪府","city":"箕面市","street":"粟生間谷"},{"zipCode":"5620022","prefectureKana":"ｵｵｻｶﾌ","cityKana":"ﾐﾉｵｼ","streetKana":"ｱｵﾏﾀﾞﾆﾋｶﾞｼ","prefecture":"大阪府","city":"箕面市","street":"粟生間谷東"},{"zipCode":"5620023","prefectureKana":"ｵｵｻｶﾌ","cityKana":"ﾐﾉｵｼ","streetKana":"ｱｵﾏﾀﾞﾆﾆｼ","prefecture":"大阪府","city":"箕面市","street":"粟生間谷西"},{"zipCode":"5620027","prefectureKana":"ｵｵｻｶﾌ","cityKana":"ﾐﾉｵｼ","streetKana":"ｲｼﾏﾙ","prefecture":"大阪府","city":"箕面市","street":"石丸"},{"zipCode":"5620015","prefectureKana":"ｵｵｻｶﾌ","cityKana":"ﾐﾉｵｼ","streetKana":"ｲﾅ","prefecture":"大阪府","city":"箕面市","street":"稲"},{"zipCode":"5620033","prefectureKana":"ｵｵｻｶﾌ","cityKana":"ﾐﾉｵｼ","streetKana":"ｲﾏﾐﾔ","prefecture":"大阪府","city":"箕面市","street":"今宮"},{"zipCode":"5620031","prefectureKana":"ｵｵｻｶﾌ","cityKana":"ﾐﾉｵｼ","streetKana":"ｵﾉﾊﾗﾋｶﾞｼ","prefecture":"大阪府","city":"箕面市","street":"小野原東"},{"zipCode":"5620032","prefectureKana":"ｵｵｻｶﾌ","cityKana":"ﾐﾉｵｼ","streetKana":"ｵﾉﾊﾗﾆｼ","prefecture":"大阪府","city":"箕面市","street":"小野原西"},{"zipCode":"5620006","prefectureKana":"ｵｵｻｶﾌ","cityKana":"ﾐﾉｵｼ","streetKana":"ｵﾝｾﾝﾁｮｳ","prefecture":"大阪府","city":"箕面市","street":"温泉町"},{"zipCode":"5620014","prefectureKana":"ｵｵｻｶﾌ","cityKana":"ﾐﾉｵｼ","streetKana":"ｶﾔﾉ","prefecture":"大阪府","city":"箕面市","street":"萱野"},{"zipCode":"5620026","prefectureKana":"ｵｵｻｶﾌ","cityKana":"ﾐﾉｵｼ","streetKana":"ｹﾞｲﾝ","prefecture":"大阪府","city":"箕面市","street":"外院"},{"zipCode":"5620028","prefectureKana":"ｵｵｻｶﾌ","cityKana":"ﾐﾉｵｼ","streetKana":"ｻｲﾄｱｵﾐﾅﾐ","prefecture":"大阪府","city":"箕面市","street":"彩都粟生南"},{"zipCode":"5620029","prefectureKana":"ｵｵｻｶﾌ","cityKana":"ﾐﾉｵｼ","streetKana":"ｻｲﾄｱｵｷﾀ","prefecture":"大阪府","city":"箕面市","street":"彩都粟生北"},{"zipCode":"5620041","prefectureKana":"ｵｵｻｶﾌ","cityKana":"ﾐﾉｵｼ","streetKana":"ｻｸﾗ","prefecture":"大阪府","city":"箕面市","street":"桜"},{"zipCode":"5620043","prefectureKana":"ｵｵｻｶﾌ","cityKana":"ﾐﾉｵｼ","streetKana":"ｻｸﾗｲ","prefecture":"大阪府","city":"箕面市","street":"桜井"},{"zipCode":"5620046","prefectureKana":"ｵｵｻｶﾌ","cityKana":"ﾐﾉｵｼ","streetKana":"ｻｸﾗｶﾞｵｶ","prefecture":"大阪府","city":"箕面市","street":"桜ケ丘"},{"zipCode":"5620045","prefectureKana":"ｵｵｻｶﾌ","cityKana":"ﾐﾉｵｼ","streetKana":"ｾｶﾞﾜ","prefecture":"大阪府","city":"箕面市","street":"瀬川"},{"zipCode":"5620035","prefectureKana":"ｵｵｻｶﾌ","cityKana":"ﾐﾉｵｼ","streetKana":"ｾﾝﾊﾞﾋｶﾞｼ","prefecture":"大阪府","city":"箕面市","street":"船場東"},{"zipCode":"5620036","prefectureKana":"ｵｵｻｶﾌ","cityKana":"ﾐﾉｵｼ","streetKana":"ｾﾝﾊﾞﾆｼ","prefecture":"大阪府","city":"箕面市","street":"船場西"},{"zipCode":"5620005","prefectureKana":"ｵｵｻｶﾌ","cityKana":"ﾐﾉｵｼ","streetKana":"ﾆｲﾅ","prefecture":"大阪府","city":"箕面市","street":"新稲"},{"zipCode":"5620003","prefectureKana":"ｵｵｻｶﾌ","cityKana":"ﾐﾉｵｼ","streetKana":"ﾆｼｼｮｳｼﾞ","prefecture":"大阪府","city":"箕面市","street":"西小路"},{"zipCode":"5620034","prefectureKana":"ｵｵｻｶﾌ","cityKana":"ﾐﾉｵｼ","streetKana":"ﾆｼｼﾞｭｸ","prefecture":"大阪府","city":"箕面市","street":"西宿"},{"zipCode":"5620011","prefectureKana":"ｵｵｻｶﾌ","cityKana":"ﾐﾉｵｼ","streetKana":"ﾆｮｲﾀﾞﾆ","prefecture":"大阪府","city":"箕面市","street":"如意谷"},{"zipCode":"5620012","prefectureKana":"ｵｵｻｶﾌ","cityKana":"ﾐﾉｵｼ","streetKana":"ﾊｸﾉｼﾏ","prefecture":"大阪府","city":"箕面市","street":"白島"},{"zipCode":"5620044","prefectureKana":"ｵｵｻｶﾌ","cityKana":"ﾐﾉｵｼ","streetKana":"ﾊﾝｼﾞｮｳ","prefecture":"大阪府","city":"箕面市","street":"半町"},{"zipCode":"5620042","prefectureKana":"ｵｵｻｶﾌ","cityKana":"ﾐﾉｵｼ","streetKana":"ﾋｬｸﾗｸｿｳ","prefecture":"大阪府","city":"箕面市","street":"百楽荘"},{"zipCode":"5620013","prefectureKana":"ｵｵｻｶﾌ","cityKana":"ﾐﾉｵｼ","streetKana":"ﾎﾞｳﾉｼﾏ","prefecture":"大阪府","city":"箕面市","street":"坊島"},{"zipCode":"5620004","prefectureKana":"ｵｵｻｶﾌ","cityKana":"ﾐﾉｵｼ","streetKana":"ﾏｷｵﾁ","prefecture":"大阪府","city":"箕面市","street":"牧落"},{"zipCode":"5620001","prefectureKana":"ｵｵｻｶﾌ","cityKana":"ﾐﾉｵｼ","streetKana":"ﾐﾉｵ","prefecture":"大阪府","city":"箕面市","street":"箕面"},{"zipCode":"5620002","prefectureKana":"ｵｵｻｶﾌ","cityKana":"ﾐﾉｵｼ","streetKana":"ﾐﾉｵｺｳｴﾝ","prefecture":"大阪府","city":"箕面市","street":"箕面公園"}]