[{"zipCode":"5630000","prefectureKana":"ｵｵｻｶﾌ","cityKana":"ｲｹﾀﾞｼ","streetKana":"ｲｶﾆｹｲｻｲｶﾞﾅｲﾊﾞｱｲ","prefecture":"大阪府","city":"池田市","street":"以下に掲載がない場合"},{"zipCode":"5630022","prefectureKana":"ｵｵｻｶﾌ","cityKana":"ｲｹﾀﾞｼ","streetKana":"ｱｻﾋｶﾞｵｶ","prefecture":"大阪府","city":"池田市","street":"旭丘"},{"zipCode":"5630051","prefectureKana":"ｵｵｻｶﾌ","cityKana":"ｲｹﾀﾞｼ","streetKana":"ｱﾔﾊ","prefecture":"大阪府","city":"池田市","street":"綾羽"},{"zipCode":"5630023","prefectureKana":"ｵｵｻｶﾌ","cityKana":"ｲｹﾀﾞｼ","streetKana":"ｲｸﾞﾁﾄﾞｳ","prefecture":"大阪府","city":"池田市","street":"井口堂"},{"zipCode":"5630032","prefectureKana":"ｵｵｻｶﾌ","cityKana":"ｲｹﾀﾞｼ","streetKana":"ｲｼﾊﾞｼ","prefecture":"大阪府","city":"池田市","street":"石橋"},{"zipCode":"5630027","prefectureKana":"ｵｵｻｶﾌ","cityKana":"ｲｹﾀﾞｼ","streetKana":"ｳｴｲｹﾀﾞ","prefecture":"大阪府","city":"池田市","street":"上池田"},{"zipCode":"5630042","prefectureKana":"ｵｵｻｶﾌ","cityKana":"ｲｹﾀﾞｼ","streetKana":"ｳﾎﾁｮｳ","prefecture":"大阪府","city":"池田市","street":"宇保町"},{"zipCode":"5630014","prefectureKana":"ｵｵｻｶﾌ","cityKana":"ｲｹﾀﾞｼ","streetKana":"ｷﾍﾞﾁｮｳ","prefecture":"大阪府","city":"池田市","street":"木部町"},{"zipCode":"5630034","prefectureKana":"ｵｵｻｶﾌ","cityKana":"ｲｹﾀﾞｼ","streetKana":"ｸｳｺｳ","prefecture":"大阪府","city":"池田市","street":"空港"},{"zipCode":"5630048","prefectureKana":"ｵｵｻｶﾌ","cityKana":"ｲｹﾀﾞｼ","streetKana":"ｸﾚﾊﾁｮｳ","prefecture":"大阪府","city":"池田市","street":"呉服町"},{"zipCode":"5630043","prefectureKana":"ｵｵｻｶﾌ","cityKana":"ｲｹﾀﾞｼ","streetKana":"ｺｳﾀﾞ","prefecture":"大阪府","city":"池田市","street":"神田"},{"zipCode":"5630058","prefectureKana":"ｵｵｻｶﾌ","cityKana":"ｲｹﾀﾞｼ","streetKana":"ｻｶｴﾎﾝﾏﾁ","prefecture":"大阪府","city":"池田市","street":"栄本町"},{"zipCode":"5630056","prefectureKana":"ｵｵｻｶﾌ","cityKana":"ｲｹﾀﾞｼ","streetKana":"ｻｶｴﾏﾁ","prefecture":"大阪府","city":"池田市","street":"栄町"},{"zipCode":"5630029","prefectureKana":"ｵｵｻｶﾌ","cityKana":"ｲｹﾀﾞｼ","streetKana":"ｻﾂｷｶﾞｵｶ","prefecture":"大阪府","city":"池田市","street":"五月丘"},{"zipCode":"5630028","prefectureKana":"ｵｵｻｶﾌ","cityKana":"ｲｹﾀﾞｼ","streetKana":"ｼﾌﾞﾀﾆ","prefecture":"大阪府","city":"池田市","street":"渋谷"},{"zipCode":"5630025","prefectureKana":"ｵｵｻｶﾌ","cityKana":"ｲｹﾀﾞｼ","streetKana":"ｼﾞｮｳﾅﾝ","prefecture":"大阪府","city":"池田市","street":"城南"},{"zipCode":"5630052","prefectureKana":"ｵｵｻｶﾌ","cityKana":"ｲｹﾀﾞｼ","streetKana":"ｼﾛﾔﾏﾁｮｳ","prefecture":"大阪府","city":"池田市","street":"城山町"},{"zipCode":"5630050","prefectureKana":"ｵｵｻｶﾌ","cityKana":"ｲｹﾀﾞｼ","streetKana":"ｼﾝﾏﾁ","prefecture":"大阪府","city":"池田市","street":"新町"},{"zipCode":"5630055","prefectureKana":"ｵｵｻｶﾌ","cityKana":"ｲｹﾀﾞｼ","streetKana":"ｽｶﾞﾊﾗﾁｮｳ","prefecture":"大阪府","city":"池田市","street":"菅原町"},{"zipCode":"5630033","prefectureKana":"ｵｵｻｶﾌ","cityKana":"ｲｹﾀﾞｼ","streetKana":"ｽﾐﾖｼ","prefecture":"大阪府","city":"池田市","street":"住吉"},{"zipCode":"5630038","prefectureKana":"ｵｵｻｶﾌ","cityKana":"ｲｹﾀﾞｼ","streetKana":"ｿｳｴﾝ","prefecture":"大阪府","city":"池田市","street":"荘園"},{"zipCode":"5630044","prefectureKana":"ｵｵｻｶﾌ","cityKana":"ｲｹﾀﾞｼ","streetKana":"ﾀﾞｲﾊﾂﾁｮｳ","prefecture":"大阪府","city":"池田市","street":"ダイハツ町"},{"zipCode":"5630054","prefectureKana":"ｵｵｻｶﾌ","cityKana":"ｲｹﾀﾞｼ","streetKana":"ﾀﾞｲﾜﾁｮｳ","prefecture":"大阪府","city":"池田市","street":"大和町"},{"zipCode":"5630053","prefectureKana":"ｵｵｻｶﾌ","cityKana":"ｲｹﾀﾞｼ","streetKana":"ﾀﾃｲｼﾁｮｳ","prefecture":"大阪府","city":"池田市","street":"建石町"},{"zipCode":"5630057","prefectureKana":"ｵｵｻｶﾌ","cityKana":"ｲｹﾀﾞｼ","streetKana":"ﾂｷﾉｷﾁｮｳ","prefecture":"大阪府","city":"池田市","street":"槻木町"},{"zipCode":"5630031","prefectureKana":"ｵｵｻｶﾌ","cityKana":"ｲｹﾀﾞｼ","streetKana":"ﾃﾝｼﾞﾝ","prefecture":"大阪府","city":"池田市","street":"天神"},{"zipCode":"5630035","prefectureKana":"ｵｵｻｶﾌ","cityKana":"ｲｹﾀﾞｼ","streetKana":"ﾄﾖｼﾏﾐﾅﾐ","prefecture":"大阪府","city":"池田市","street":"豊島南"},{"zipCode":"5630036","prefectureKana":"ｵｵｻｶﾌ","cityKana":"ｲｹﾀﾞｼ","streetKana":"ﾄﾖｼﾏｷﾀ","prefecture":"大阪府","city":"池田市","street":"豊島北"},{"zipCode":"5630013","prefectureKana":"ｵｵｻｶﾌ","cityKana":"ｲｹﾀﾞｼ","streetKana":"ﾅｶｶﾞﾜﾗﾁｮｳ","prefecture":"大阪府","city":"池田市","street":"中川原町"},{"zipCode":"5630059","prefectureKana":"ｵｵｻｶﾌ","cityKana":"ｲｹﾀﾞｼ","streetKana":"ﾆｼﾎﾝﾏﾁ","prefecture":"大阪府","city":"池田市","street":"西本町"},{"zipCode":"5630021","prefectureKana":"ｵｵｻｶﾌ","cityKana":"ｲｹﾀﾞｼ","streetKana":"ﾊﾀ","prefecture":"大阪府","city":"池田市","street":"畑"},{"zipCode":"5630037","prefectureKana":"ｵｵｻｶﾌ","cityKana":"ｲｹﾀﾞｼ","streetKana":"ﾊﾁｵｳｼﾞ","prefecture":"大阪府","city":"池田市","street":"八王寺"},{"zipCode":"5630024","prefectureKana":"ｵｵｻｶﾌ","cityKana":"ｲｹﾀﾞｼ","streetKana":"ﾊﾁﾂﾞｶ","prefecture":"大阪府","city":"池田市","street":"鉢塚"},{"zipCode":"5630012","prefectureKana":"ｵｵｻｶﾌ","cityKana":"ｲｹﾀﾞｼ","streetKana":"ﾋｶﾞｼﾔﾏﾁｮｳ","prefecture":"大阪府","city":"池田市","street":"東山町"},{"zipCode":"5630046","prefectureKana":"ｵｵｻｶﾌ","cityKana":"ｲｹﾀﾞｼ","streetKana":"ﾋﾒﾑﾛﾁｮｳ","prefecture":"大阪府","city":"池田市","street":"姫室町"},{"zipCode":"5630017","prefectureKana":"ｵｵｻｶﾌ","cityKana":"ｲｹﾀﾞｼ","streetKana":"ﾌｼｵﾀﾞｲ","prefecture":"大阪府","city":"池田市","street":"伏尾台"},{"zipCode":"5630011","prefectureKana":"ｵｵｻｶﾌ","cityKana":"ｲｹﾀﾞｼ","streetKana":"ﾌｼｵﾁｮｳ","prefecture":"大阪府","city":"池田市","street":"伏尾町"},{"zipCode":"5630015","prefectureKana":"ｵｵｻｶﾌ","cityKana":"ｲｹﾀﾞｼ","streetKana":"ﾌﾙｴﾁｮｳ","prefecture":"大阪府","city":"池田市","street":"古江町"},{"zipCode":"5630041","prefectureKana":"ｵｵｻｶﾌ","cityKana":"ｲｹﾀﾞｼ","streetKana":"ﾏｽﾐﾁｮｳ","prefecture":"大阪府","city":"池田市","street":"満寿美町"},{"zipCode":"5630026","prefectureKana":"ｵｵｻｶﾌ","cityKana":"ｲｹﾀﾞｼ","streetKana":"ﾐﾄﾞﾘｶﾞｵｶ","prefecture":"大阪府","city":"池田市","street":"緑丘"},{"zipCode":"5630047","prefectureKana":"ｵｵｻｶﾌ","cityKana":"ｲｹﾀﾞｼ","streetKana":"ﾑﾛﾏﾁ","prefecture":"大阪府","city":"池田市","street":"室町"},{"zipCode":"5630045","prefectureKana":"ｵｵｻｶﾌ","cityKana":"ｲｹﾀﾞｼ","streetKana":"ﾓﾓｿﾞﾉ","prefecture":"大阪府","city":"池田市","street":"桃園"},{"zipCode":"5630016","prefectureKana":"ｵｵｻｶﾌ","cityKana":"ｲｹﾀﾞｼ","streetKana":"ﾖｼﾀﾞﾁｮｳ","prefecture":"大阪府","city":"池田市","street":"吉田町"},{"zipCode":"5630251","prefectureKana":"ｵｵｻｶﾌ","cityKana":"ﾐﾉｵｼ","streetKana":"ｶﾐﾄﾄﾞﾛﾐ","prefecture":"大阪府","city":"箕面市","street":"上止々呂美"},{"zipCode":"5630252","prefectureKana":"ｵｵｻｶﾌ","cityKana":"ﾐﾉｵｼ","streetKana":"ｼﾓﾄﾄﾞﾛﾐ","prefecture":"大阪府","city":"箕面市","street":"下止々呂美"},{"zipCode":"5630256","prefectureKana":"ｵｵｻｶﾌ","cityKana":"ﾐﾉｵｼ","streetKana":"ｼﾝﾏﾁｷﾀ","prefecture":"大阪府","city":"箕面市","street":"森町北"},{"zipCode":"5630257","prefectureKana":"ｵｵｻｶﾌ","cityKana":"ﾐﾉｵｼ","streetKana":"ｼﾝﾏﾁﾅｶ","prefecture":"大阪府","city":"箕面市","street":"森町中"},{"zipCode":"5630255","prefectureKana":"ｵｵｻｶﾌ","cityKana":"ﾐﾉｵｼ","streetKana":"ｼﾝﾏﾁﾆｼ","prefecture":"大阪府","city":"箕面市","street":"森町西"},{"zipCode":"5630258","prefectureKana":"ｵｵｻｶﾌ","cityKana":"ﾐﾉｵｼ","streetKana":"ｼﾝﾏﾁﾐﾅﾐ","prefecture":"大阪府","city":"箕面市","street":"森町南"},{"zipCode":"5630100","prefectureKana":"ｵｵｻｶﾌ","cityKana":"ﾄﾖﾉｸﾞﾝﾄﾖﾉﾁｮｳ","streetKana":"ｲｶﾆｹｲｻｲｶﾞﾅｲﾊﾞｱｲ","prefecture":"大阪府","city":"豊能郡豊能町","street":"以下に掲載がない場合"},{"zipCode":"5630217","prefectureKana":"ｵｵｻｶﾌ","cityKana":"ﾄﾖﾉｸﾞﾝﾄﾖﾉﾁｮｳ","streetKana":"ｶﾜｼﾘ","prefecture":"大阪府","city":"豊能郡豊能町","street":"川尻"},{"zipCode":"5630215","prefectureKana":"ｵｵｻｶﾌ","cityKana":"ﾄﾖﾉｸﾞﾝﾄﾖﾉﾁｮｳ","streetKana":"ｷｼﾛ","prefecture":"大阪府","city":"豊能郡豊能町","street":"木代"},{"zipCode":"5630214","prefectureKana":"ｵｵｻｶﾌ","cityKana":"ﾄﾖﾉｸﾞﾝﾄﾖﾉﾁｮｳ","streetKana":"ｷﾎﾞｳｶﾞｵｶ","prefecture":"大阪府","city":"豊能郡豊能町","street":"希望ケ丘"},{"zipCode":"5630213","prefectureKana":"ｵｵｻｶﾌ","cityKana":"ﾄﾖﾉｸﾞﾝﾄﾖﾉﾁｮｳ","streetKana":"ｷﾘﾊﾀ","prefecture":"大阪府","city":"豊能郡豊能町","street":"切畑"},{"zipCode":"5630104","prefectureKana":"ｵｵｻｶﾌ","cityKana":"ﾄﾖﾉｸﾞﾝﾄﾖﾉﾁｮｳ","streetKana":"ｺｳﾌｳﾀﾞｲ","prefecture":"大阪府","city":"豊能郡豊能町","street":"光風台"},{"zipCode":"5630105","prefectureKana":"ｵｵｻｶﾌ","cityKana":"ﾄﾖﾉｸﾞﾝﾄﾖﾉﾁｮｳ","streetKana":"ｼﾝｺｳﾌｳﾀﾞｲ","prefecture":"大阪府","city":"豊能郡豊能町","street":"新光風台"},{"zipCode":"5630216","prefectureKana":"ｵｵｻｶﾌ","cityKana":"ﾄﾖﾉｸﾞﾝﾄﾖﾉﾁｮｳ","streetKana":"ﾀｶﾔﾏ","prefecture":"大阪府","city":"豊能郡豊能町","street":"高山"},{"zipCode":"5630212","prefectureKana":"ｵｵｻｶﾌ","cityKana":"ﾄﾖﾉｸﾞﾝﾄﾖﾉﾁｮｳ","streetKana":"ﾃﾗﾀﾞ","prefecture":"大阪府","city":"豊能郡豊能町","street":"寺田"},{"zipCode":"5630102","prefectureKana":"ｵｵｻｶﾌ","cityKana":"ﾄﾖﾉｸﾞﾝﾄﾖﾉﾁｮｳ","streetKana":"ﾄｷﾜﾀﾞｲ","prefecture":"大阪府","city":"豊能郡豊能町","street":"ときわ台"},{"zipCode":"5630218","prefectureKana":"ｵｵｻｶﾌ","cityKana":"ﾄﾖﾉｸﾞﾝﾄﾖﾉﾁｮｳ","streetKana":"ﾉﾏｸﾞﾁ","prefecture":"大阪府","city":"豊能郡豊能町","street":"野間口"},{"zipCode":"5630103","prefectureKana":"ｵｵｻｶﾌ","cityKana":"ﾄﾖﾉｸﾞﾝﾄﾖﾉﾁｮｳ","streetKana":"ﾋｶﾞｼﾄｷﾜﾀﾞｲ","prefecture":"大阪府","city":"豊能郡豊能町","street":"東ときわ台"},{"zipCode":"5630211","prefectureKana":"ｵｵｻｶﾌ","cityKana":"ﾄﾖﾉｸﾞﾝﾄﾖﾉﾁｮｳ","streetKana":"ﾏｷ","prefecture":"大阪府","city":"豊能郡豊能町","street":"牧"},{"zipCode":"5630101","prefectureKana":"ｵｵｻｶﾌ","cityKana":"ﾄﾖﾉｸﾞﾝﾄﾖﾉﾁｮｳ","streetKana":"ﾖｼｶﾜ","prefecture":"大阪府","city":"豊能郡豊能町","street":"吉川"},{"zipCode":"5630219","prefectureKana":"ｵｵｻｶﾌ","cityKana":"ﾄﾖﾉｸﾞﾝﾄﾖﾉﾁｮｳ","streetKana":"ﾖﾉ","prefecture":"大阪府","city":"豊能郡豊能町","street":"余野"},{"zipCode":"5630300","prefectureKana":"ｵｵｻｶﾌ","cityKana":"ﾄﾖﾉｸﾞﾝﾉｾﾁｮｳ","streetKana":"ｲｶﾆｹｲｻｲｶﾞﾅｲﾊﾞｱｲ","prefecture":"大阪府","city":"豊能郡能勢町","street":"以下に掲載がない場合"},{"zipCode":"5630363","prefectureKana":"ｵｵｻｶﾌ","cityKana":"ﾄﾖﾉｸﾞﾝﾉｾﾁｮｳ","streetKana":"ｲﾅｼﾞ","prefecture":"大阪府","city":"豊能郡能勢町","street":"稲地"},{"zipCode":"5630361","prefectureKana":"ｵｵｻｶﾌ","cityKana":"ﾄﾖﾉｸﾞﾝﾉｾﾁｮｳ","streetKana":"ｲﾏﾆｼ","prefecture":"大阪府","city":"豊能郡能勢町","street":"今西"},{"zipCode":"5630365","prefectureKana":"ｵｵｻｶﾌ","cityKana":"ﾄﾖﾉｸﾞﾝﾉｾﾁｮｳ","streetKana":"ｳｴｽｷﾞ","prefecture":"大阪府","city":"豊能郡能勢町","street":"上杉"},{"zipCode":"5630352","prefectureKana":"ｵｵｻｶﾌ","cityKana":"ﾄﾖﾉｸﾞﾝﾉｾﾁｮｳ","streetKana":"ｵｵｻﾞﾄ","prefecture":"大阪府","city":"豊能郡能勢町","street":"大里"},{"zipCode":"5630353","prefectureKana":"ｵｵｻｶﾌ","cityKana":"ﾄﾖﾉｸﾞﾝﾉｾﾁｮｳ","streetKana":"ｶｼﾊﾗ","prefecture":"大阪府","city":"豊能郡能勢町","street":"柏原"},{"zipCode":"5630354","prefectureKana":"ｵｵｻｶﾌ","cityKana":"ﾄﾖﾉｸﾞﾝﾉｾﾁｮｳ","streetKana":"ｶﾀﾔﾏ","prefecture":"大阪府","city":"豊能郡能勢町","street":"片山"},{"zipCode":"5630122","prefectureKana":"ｵｵｻｶﾌ","cityKana":"ﾄﾖﾉｸﾞﾝﾉｾﾁｮｳ","streetKana":"ｶﾐﾀｼﾞﾘ","prefecture":"大阪府","city":"豊能郡能勢町","street":"上田尻"},{"zipCode":"5630113","prefectureKana":"ｵｵｻｶﾌ","cityKana":"ﾄﾖﾉｸﾞﾝﾉｾﾁｮｳ","streetKana":"ｸﾗｶﾞｷ","prefecture":"大阪府","city":"豊能郡能勢町","street":"倉垣"},{"zipCode":"5630351","prefectureKana":"ｵｵｻｶﾌ","cityKana":"ﾄﾖﾉｸﾞﾝﾉｾﾁｮｳ","streetKana":"ｸﾙｽ","prefecture":"大阪府","city":"豊能郡能勢町","street":"栗栖"},{"zipCode":"5630367","prefectureKana":"ｵｵｻｶﾌ","cityKana":"ﾄﾖﾉｸﾞﾝﾉｾﾁｮｳ","streetKana":"ｺﾔﾏ","prefecture":"大阪府","city":"豊能郡能勢町","street":"神山"},{"zipCode":"5630121","prefectureKana":"ｵｵｻｶﾌ","cityKana":"ﾄﾖﾉｸﾞﾝﾉｾﾁｮｳ","streetKana":"ｼﾞｵｳ","prefecture":"大阪府","city":"豊能郡能勢町","street":"地黄"},{"zipCode":"5630123","prefectureKana":"ｵｵｻｶﾌ","cityKana":"ﾄﾖﾉｸﾞﾝﾉｾﾁｮｳ","streetKana":"ｼﾓﾀｼﾞﾘ","prefecture":"大阪府","city":"豊能郡能勢町","street":"下田尻"},{"zipCode":"5630355","prefectureKana":"ｵｵｻｶﾌ","cityKana":"ﾄﾖﾉｸﾞﾝﾉｾﾁｮｳ","streetKana":"ｼﾓﾀﾞ","prefecture":"大阪府","city":"豊能郡能勢町","street":"下田"},{"zipCode":"5630341","prefectureKana":"ｵｵｻｶﾌ","cityKana":"ﾄﾖﾉｸﾞﾝﾉｾﾁｮｳ","streetKana":"ｼｭｸﾉ","prefecture":"大阪府","city":"豊能郡能勢町","street":"宿野"},{"zipCode":"5630112","prefectureKana":"ｵｵｻｶﾌ","cityKana":"ﾄﾖﾉｸﾞﾝﾉｾﾁｮｳ","streetKana":"ｽｷﾞﾊﾗ","prefecture":"大阪府","city":"豊能郡能勢町","street":"杉原"},{"zipCode":"5630366","prefectureKana":"ｵｵｻｶﾌ","cityKana":"ﾄﾖﾉｸﾞﾝﾉｾﾁｮｳ","streetKana":"ﾀﾙﾐ","prefecture":"大阪府","city":"豊能郡能勢町","street":"垂水"},{"zipCode":"5630371","prefectureKana":"ｵｵｻｶﾌ","cityKana":"ﾄﾖﾉｸﾞﾝﾉｾﾁｮｳ","streetKana":"ﾃﾝﾉｳ","prefecture":"大阪府","city":"豊能郡能勢町","street":"天王"},{"zipCode":"5630368","prefectureKana":"ｵｵｻｶﾌ","cityKana":"ﾄﾖﾉｸﾞﾝﾉｾﾁｮｳ","streetKana":"ﾅｶﾞﾀﾆ","prefecture":"大阪府","city":"豊能郡能勢町","street":"長谷"},{"zipCode":"5630133","prefectureKana":"ｵｵｻｶﾌ","cityKana":"ﾄﾖﾉｸﾞﾝﾉｾﾁｮｳ","streetKana":"ﾉﾏｲﾅｼﾞ","prefecture":"大阪府","city":"豊能郡能勢町","street":"野間稲地"},{"zipCode":"5630131","prefectureKana":"ｵｵｻｶﾌ","cityKana":"ﾄﾖﾉｸﾞﾝﾉｾﾁｮｳ","streetKana":"ﾉﾏｵｵﾊﾗ","prefecture":"大阪府","city":"豊能郡能勢町","street":"野間大原"},{"zipCode":"5630134","prefectureKana":"ｵｵｻｶﾌ","cityKana":"ﾄﾖﾉｸﾞﾝﾉｾﾁｮｳ","streetKana":"ﾉﾏｼｭﾂﾉ","prefecture":"大阪府","city":"豊能郡能勢町","street":"野間出野"},{"zipCode":"5630132","prefectureKana":"ｵｵｻｶﾌ","cityKana":"ﾄﾖﾉｸﾞﾝﾉｾﾁｮｳ","streetKana":"ﾉﾏﾅｶ","prefecture":"大阪府","city":"豊能郡能勢町","street":"野間中"},{"zipCode":"5630135","prefectureKana":"ｵｵｻｶﾌ","cityKana":"ﾄﾖﾉｸﾞﾝﾉｾﾁｮｳ","streetKana":"ﾉﾏﾆｼﾔﾏ","prefecture":"大阪府","city":"豊能郡能勢町","street":"野間西山"},{"zipCode":"5630356","prefectureKana":"ｵｵｻｶﾌ","cityKana":"ﾄﾖﾉｸﾞﾝﾉｾﾁｮｳ","streetKana":"ﾋﾗﾄﾞｵﾘ","prefecture":"大阪府","city":"豊能郡能勢町","street":"平通"},{"zipCode":"5630364","prefectureKana":"ｵｵｻｶﾌ","cityKana":"ﾄﾖﾉｸﾞﾝﾉｾﾁｮｳ","streetKana":"ﾋﾗﾉ","prefecture":"大阪府","city":"豊能郡能勢町","street":"平野"},{"zipCode":"5630362","prefectureKana":"ｵｵｻｶﾌ","cityKana":"ﾄﾖﾉｸﾞﾝﾉｾﾁｮｳ","streetKana":"ﾓﾘｶﾞﾐ","prefecture":"大阪府","city":"豊能郡能勢町","street":"森上"},{"zipCode":"5630114","prefectureKana":"ｵｵｻｶﾌ","cityKana":"ﾄﾖﾉｸﾞﾝﾉｾﾁｮｳ","streetKana":"ﾔﾏｳﾁ","prefecture":"大阪府","city":"豊能郡能勢町","street":"山内"},{"zipCode":"5630373","prefectureKana":"ｵｵｻｶﾌ","cityKana":"ﾄﾖﾉｸﾞﾝﾉｾﾁｮｳ","streetKana":"ﾔﾏﾀﾞ","prefecture":"大阪府","city":"豊能郡能勢町","street":"山田"},{"zipCode":"5630372","prefectureKana":"ｵｵｻｶﾌ","cityKana":"ﾄﾖﾉｸﾞﾝﾉｾﾁｮｳ","streetKana":"ﾔﾏﾍﾞ","prefecture":"大阪府","city":"豊能郡能勢町","street":"山辺"},{"zipCode":"5630111","prefectureKana":"ｵｵｻｶﾌ","cityKana":"ﾄﾖﾉｸﾞﾝﾉｾﾁｮｳ","streetKana":"ﾖｼﾉ","prefecture":"大阪府","city":"豊能郡能勢町","street":"吉野"},{"zipCode":"5630801","prefectureKana":"ﾋｮｳｺﾞｹﾝ","cityKana":"ｲﾀﾐｼ","streetKana":"ｵｻｶﾃﾞﾝ(ｸｲﾀ)","prefecture":"兵庫県","city":"伊丹市","street":"小阪田（食田）"}]