[{"zipCode":"5770000","prefectureKana":"ｵｵｻｶﾌ","cityKana":"ﾋｶﾞｼｵｵｻｶｼ","streetKana":"ｲｶﾆｹｲｻｲｶﾞﾅｲﾊﾞｱｲ","prefecture":"大阪府","city":"東大阪市","street":"以下に掲載がない場合"},{"zipCode":"5770841","prefectureKana":"ｵｵｻｶﾌ","cityKana":"ﾋｶﾞｼｵｵｻｶｼ","streetKana":"ｱｼﾞﾛ","prefecture":"大阪府","city":"東大阪市","street":"足代"},{"zipCode":"5770057","prefectureKana":"ｵｵｻｶﾌ","cityKana":"ﾋｶﾞｼｵｵｻｶｼ","streetKana":"ｱｼﾞﾛｼﾝﾏﾁ","prefecture":"大阪府","city":"東大阪市","street":"足代新町"},{"zipCode":"5770842","prefectureKana":"ｵｵｻｶﾌ","cityKana":"ﾋｶﾞｼｵｵｻｶｼ","streetKana":"ｱｼﾞﾛﾐﾅﾐ","prefecture":"大阪府","city":"東大阪市","street":"足代南"},{"zipCode":"5770058","prefectureKana":"ｵｵｻｶﾌ","cityKana":"ﾋｶﾞｼｵｵｻｶｼ","streetKana":"ｱｼﾞﾛｷﾀ","prefecture":"大阪府","city":"東大阪市","street":"足代北"},{"zipCode":"5770843","prefectureKana":"ｵｵｻｶﾌ","cityKana":"ﾋｶﾞｼｵｵｻｶｼ","streetKana":"ｱﾗｶﾜ","prefecture":"大阪府","city":"東大阪市","street":"荒川"},{"zipCode":"5770023","prefectureKana":"ｵｵｻｶﾌ","cityKana":"ﾋｶﾞｼｵｵｻｶｼ","streetKana":"ｱﾗﾓﾄ","prefecture":"大阪府","city":"東大阪市","street":"荒本"},{"zipCode":"5770022","prefectureKana":"ｵｵｻｶﾌ","cityKana":"ﾋｶﾞｼｵｵｻｶｼ","streetKana":"ｱﾗﾓﾄｼﾝﾏﾁ","prefecture":"大阪府","city":"東大阪市","street":"荒本新町"},{"zipCode":"5770024","prefectureKana":"ｵｵｻｶﾌ","cityKana":"ﾋｶﾞｼｵｵｻｶｼ","streetKana":"ｱﾗﾓﾄﾆｼ","prefecture":"大阪府","city":"東大阪市","street":"荒本西"},{"zipCode":"5770011","prefectureKana":"ｵｵｻｶﾌ","cityKana":"ﾋｶﾞｼｵｵｻｶｼ","streetKana":"ｱﾗﾓﾄｷﾀ","prefecture":"大阪府","city":"東大阪市","street":"荒本北"},{"zipCode":"5770002","prefectureKana":"ｵｵｻｶﾌ","cityKana":"ﾋｶﾞｼｵｵｻｶｼ","streetKana":"ｲﾅﾀﾞｳｴﾏﾁ","prefecture":"大阪府","city":"東大阪市","street":"稲田上町"},{"zipCode":"5770004","prefectureKana":"ｵｵｻｶﾌ","cityKana":"ﾋｶﾞｼｵｵｻｶｼ","streetKana":"ｲﾅﾀﾞｼﾝﾏﾁ","prefecture":"大阪府","city":"東大阪市","street":"稲田新町"},{"zipCode":"5770007","prefectureKana":"ｵｵｻｶﾌ","cityKana":"ﾋｶﾞｼｵｵｻｶｼ","streetKana":"ｲﾅﾀﾞﾎﾝﾏﾁ","prefecture":"大阪府","city":"東大阪市","street":"稲田本町"},{"zipCode":"5770003","prefectureKana":"ｵｵｻｶﾌ","cityKana":"ﾋｶﾞｼｵｵｻｶｼ","streetKana":"ｲﾅﾀﾞﾐｼﾏﾁｮｳ","prefecture":"大阪府","city":"東大阪市","street":"稲田三島町"},{"zipCode":"5770809","prefectureKana":"ｵｵｻｶﾌ","cityKana":"ﾋｶﾞｼｵｵｻｶｼ","streetKana":"ｴｲﾜ","prefecture":"大阪府","city":"東大阪市","street":"永和"},{"zipCode":"5770817","prefectureKana":"ｵｵｻｶﾌ","cityKana":"ﾋｶﾞｼｵｵｻｶｼ","streetKana":"ｵｳﾐﾄﾞｳ","prefecture":"大阪府","city":"東大阪市","street":"近江堂"},{"zipCode":"5770824","prefectureKana":"ｵｵｻｶﾌ","cityKana":"ﾋｶﾞｼｵｵｻｶｼ","streetKana":"ｵｵﾊｽﾋｶﾞｼ","prefecture":"大阪府","city":"東大阪市","street":"大蓮東"},{"zipCode":"5770825","prefectureKana":"ｵｵｻｶﾌ","cityKana":"ﾋｶﾞｼｵｵｻｶｼ","streetKana":"ｵｵﾊｽﾐﾅﾐ","prefecture":"大阪府","city":"東大阪市","street":"大蓮南"},{"zipCode":"5770826","prefectureKana":"ｵｵｻｶﾌ","cityKana":"ﾋｶﾞｼｵｵｻｶｼ","streetKana":"ｵｵﾊｽｷﾀ","prefecture":"大阪府","city":"東大阪市","street":"大蓮北"},{"zipCode":"5770833","prefectureKana":"ｵｵｻｶﾌ","cityKana":"ﾋｶﾞｼｵｵｻｶｼ","streetKana":"ｶｼﾀﾋｶﾞｼﾏﾁ","prefecture":"大阪府","city":"東大阪市","street":"柏田東町"},{"zipCode":"5770834","prefectureKana":"ｵｵｻｶﾌ","cityKana":"ﾋｶﾞｼｵｵｻｶｼ","streetKana":"ｶｼﾀﾎﾝﾏﾁ","prefecture":"大阪府","city":"東大阪市","street":"柏田本町"},{"zipCode":"5770835","prefectureKana":"ｵｵｻｶﾌ","cityKana":"ﾋｶﾞｼｵｵｻｶｼ","streetKana":"ｶｼﾀﾆｼ","prefecture":"大阪府","city":"東大阪市","street":"柏田西"},{"zipCode":"5770823","prefectureKana":"ｵｵｻｶﾌ","cityKana":"ﾋｶﾞｼｵｵｻｶｼ","streetKana":"ｶﾅｵｶ","prefecture":"大阪府","city":"東大阪市","street":"金岡"},{"zipCode":"5770815","prefectureKana":"ｵｵｻｶﾌ","cityKana":"ﾋｶﾞｼｵｵｻｶｼ","streetKana":"ｶﾅﾓﾉﾁｮｳ","prefecture":"大阪府","city":"東大阪市","street":"金物町"},{"zipCode":"5770806","prefectureKana":"ｵｵｻｶﾌ","cityKana":"ﾋｶﾞｼｵｵｻｶｼ","streetKana":"ｶﾐｺｻｶ","prefecture":"大阪府","city":"東大阪市","street":"上小阪"},{"zipCode":"5770063","prefectureKana":"ｵｵｻｶﾌ","cityKana":"ﾋｶﾞｼｵｵｻｶｼ","streetKana":"ｶﾜﾏﾀ","prefecture":"大阪府","city":"東大阪市","street":"川俣"},{"zipCode":"5770064","prefectureKana":"ｵｵｻｶﾌ","cityKana":"ﾋｶﾞｼｵｵｻｶｼ","streetKana":"ｶﾜﾏﾀﾎﾝﾏﾁ","prefecture":"大阪府","city":"東大阪市","street":"川俣本町"},{"zipCode":"5770847","prefectureKana":"ｵｵｻｶﾌ","cityKana":"ﾋｶﾞｼｵｵｻｶｼ","streetKana":"ｷｼﾀﾞﾄﾞｳﾐﾅﾐﾏﾁ","prefecture":"大阪府","city":"東大阪市","street":"岸田堂南町"},{"zipCode":"5770846","prefectureKana":"ｵｵｻｶﾌ","cityKana":"ﾋｶﾞｼｵｵｻｶｼ","streetKana":"ｷｼﾀﾞﾄﾞｳｷﾀﾏﾁ","prefecture":"大阪府","city":"東大阪市","street":"岸田堂北町"},{"zipCode":"5770848","prefectureKana":"ｵｵｻｶﾌ","cityKana":"ﾋｶﾞｼｵｵｻｶｼ","streetKana":"ｷｼﾀﾞﾄﾞｳﾆｼ","prefecture":"大阪府","city":"東大阪市","street":"岸田堂西"},{"zipCode":"5770827","prefectureKana":"ｵｵｻｶﾌ","cityKana":"ﾋｶﾞｼｵｵｻｶｼ","streetKana":"ｷｽﾞﾘ","prefecture":"大阪府","city":"東大阪市","street":"衣摺"},{"zipCode":"5770006","prefectureKana":"ｵｵｻｶﾌ","cityKana":"ﾋｶﾞｼｵｵｻｶｼ","streetKana":"ｸｽﾈ","prefecture":"大阪府","city":"東大阪市","street":"楠根"},{"zipCode":"5770822","prefectureKana":"ｵｵｻｶﾌ","cityKana":"ﾋｶﾞｼｵｵｻｶｼ","streetKana":"ｹﾞﾝｼﾞｶﾞｵｶ","prefecture":"大阪府","city":"東大阪市","street":"源氏ケ丘"},{"zipCode":"5770801","prefectureKana":"ｵｵｻｶﾌ","cityKana":"ﾋｶﾞｼｵｵｻｶｼ","streetKana":"ｺｻｶ","prefecture":"大阪府","city":"東大阪市","street":"小阪"},{"zipCode":"5770802","prefectureKana":"ｵｵｻｶﾌ","cityKana":"ﾋｶﾞｼｵｵｻｶｼ","streetKana":"ｺｻｶﾎﾝﾏﾁ","prefecture":"大阪府","city":"東大阪市","street":"小阪本町"},{"zipCode":"5770837","prefectureKana":"ｵｵｻｶﾌ","cityKana":"ﾋｶﾞｼｵｵｻｶｼ","streetKana":"ｺﾄﾌﾞｷﾁｮｳ","prefecture":"大阪府","city":"東大阪市","street":"寿町"},{"zipCode":"5770818","prefectureKana":"ｵｵｻｶﾌ","cityKana":"ﾋｶﾞｼｵｵｻｶｼ","streetKana":"ｺﾜｶｴ","prefecture":"大阪府","city":"東大阪市","street":"小若江"},{"zipCode":"5770849","prefectureKana":"ｵｵｻｶﾌ","cityKana":"ﾋｶﾞｼｵｵｻｶｼ","streetKana":"ｻﾝﾉｾ","prefecture":"大阪府","city":"東大阪市","street":"三ノ瀬"},{"zipCode":"5770052","prefectureKana":"ｵｵｻｶﾌ","cityKana":"ﾋｶﾞｼｵｵｻｶｼ","streetKana":"ｼｷﾞﾀ","prefecture":"大阪府","city":"東大阪市","street":"新喜多"},{"zipCode":"5770005","prefectureKana":"ｵｵｻｶﾌ","cityKana":"ﾋｶﾞｼｵｵｻｶｼ","streetKana":"ｼﾁｹﾝﾔ","prefecture":"大阪府","city":"東大阪市","street":"七軒家"},{"zipCode":"5770836","prefectureKana":"ｵｵｻｶﾌ","cityKana":"ﾋｶﾞｼｵｵｻｶｼ","streetKana":"ｼﾌﾞｶﾜﾁｮｳ","prefecture":"大阪府","city":"東大阪市","street":"渋川町"},{"zipCode":"5770803","prefectureKana":"ｵｵｻｶﾌ","cityKana":"ﾋｶﾞｼｵｵｻｶｼ","streetKana":"ｼﾓｺｻｶ","prefecture":"大阪府","city":"東大阪市","street":"下小阪"},{"zipCode":"5770831","prefectureKana":"ｵｵｻｶﾌ","cityKana":"ﾋｶﾞｼｵｵｻｶｼ","streetKana":"ｼｭﾝﾄｸﾁｮｳ","prefecture":"大阪府","city":"東大阪市","street":"俊徳町"},{"zipCode":"5770813","prefectureKana":"ｵｵｻｶﾌ","cityKana":"ﾋｶﾞｼｵｵｻｶｼ","streetKana":"ｼﾝｶﾐｺｻｶ","prefecture":"大阪府","city":"東大阪市","street":"新上小阪"},{"zipCode":"5770025","prefectureKana":"ｵｵｻｶﾌ","cityKana":"ﾋｶﾞｼｵｵｻｶｼ","streetKana":"ｼﾝｹ","prefecture":"大阪府","city":"東大阪市","street":"新家"},{"zipCode":"5770027","prefectureKana":"ｵｵｻｶﾌ","cityKana":"ﾋｶﾞｼｵｵｻｶｼ","streetKana":"ｼﾝｹﾅｶﾏﾁ","prefecture":"大阪府","city":"東大阪市","street":"新家中町"},{"zipCode":"5770026","prefectureKana":"ｵｵｻｶﾌ","cityKana":"ﾋｶﾞｼｵｵｻｶｼ","streetKana":"ｼﾝｹﾋｶﾞｼﾏﾁ","prefecture":"大阪府","city":"東大阪市","street":"新家東町"},{"zipCode":"5770028","prefectureKana":"ｵｵｻｶﾌ","cityKana":"ﾋｶﾞｼｵｵｻｶｼ","streetKana":"ｼﾝｹﾆｼﾏﾁ","prefecture":"大阪府","city":"東大阪市","street":"新家西町"},{"zipCode":"5770844","prefectureKana":"ｵｵｻｶﾌ","cityKana":"ﾋｶﾞｼｵｵｻｶｼ","streetKana":"ﾀｲﾍｲｼﾞ","prefecture":"大阪府","city":"東大阪市","street":"太平寺"},{"zipCode":"5770053","prefectureKana":"ｵｵｻｶﾌ","cityKana":"ﾋｶﾞｼｵｵｻｶｼ","streetKana":"ﾀｶｲﾀﾞ","prefecture":"大阪府","city":"東大阪市","street":"高井田"},{"zipCode":"5770065","prefectureKana":"ｵｵｻｶﾌ","cityKana":"ﾋｶﾞｼｵｵｻｶｼ","streetKana":"ﾀｶｲﾀﾞﾅｶ","prefecture":"大阪府","city":"東大阪市","street":"高井田中"},{"zipCode":"5770066","prefectureKana":"ｵｵｻｶﾌ","cityKana":"ﾋｶﾞｼｵｵｻｶｼ","streetKana":"ﾀｶｲﾀﾞﾎﾝﾄﾞｵﾘ","prefecture":"大阪府","city":"東大阪市","street":"高井田本通"},{"zipCode":"5770054","prefectureKana":"ｵｵｻｶﾌ","cityKana":"ﾋｶﾞｼｵｵｻｶｼ","streetKana":"ﾀｶｲﾀﾞﾓﾄﾏﾁ","prefecture":"大阪府","city":"東大阪市","street":"高井田元町"},{"zipCode":"5770067","prefectureKana":"ｵｵｻｶﾌ","cityKana":"ﾋｶﾞｼｵｵｻｶｼ","streetKana":"ﾀｶｲﾀﾞﾆｼ","prefecture":"大阪府","city":"東大阪市","street":"高井田西"},{"zipCode":"5770055","prefectureKana":"ｵｵｻｶﾌ","cityKana":"ﾋｶﾞｼｵｵｻｶｼ","streetKana":"ﾁｮｳｴｲｼﾞ","prefecture":"大阪府","city":"東大阪市","street":"長栄寺"},{"zipCode":"5770056","prefectureKana":"ｵｵｻｶﾌ","cityKana":"ﾋｶﾞｼｵｵｻｶｼ","streetKana":"ﾁｮｳﾄﾞｳ","prefecture":"大阪府","city":"東大阪市","street":"長堂"},{"zipCode":"5770845","prefectureKana":"ｵｵｻｶﾌ","cityKana":"ﾋｶﾞｼｵｵｻｶｼ","streetKana":"ﾃﾗﾏｴﾁｮｳ","prefecture":"大阪府","city":"東大阪市","street":"寺前町"},{"zipCode":"5770001","prefectureKana":"ｵｵｻｶﾌ","cityKana":"ﾋｶﾞｼｵｵｻｶｼ","streetKana":"ﾄｸｱﾝﾎﾝﾏﾁ","prefecture":"大阪府","city":"東大阪市","street":"徳庵本町"},{"zipCode":"5770816","prefectureKana":"ｵｵｻｶﾌ","cityKana":"ﾋｶﾞｼｵｵｻｶｼ","streetKana":"ﾄﾓｲ","prefecture":"大阪府","city":"東大阪市","street":"友井"},{"zipCode":"5770804","prefectureKana":"ｵｵｻｶﾌ","cityKana":"ﾋｶﾞｼｵｵｻｶｼ","streetKana":"ﾅｶｺｻｶ","prefecture":"大阪府","city":"東大阪市","street":"中小阪"},{"zipCode":"5770832","prefectureKana":"ｵｵｻｶﾌ","cityKana":"ﾋｶﾞｼｵｵｻｶｼ","streetKana":"ﾅｶﾞｾﾁｮｳ","prefecture":"大阪府","city":"東大阪市","street":"長瀬町"},{"zipCode":"5770015","prefectureKana":"ｵｵｻｶﾌ","cityKana":"ﾋｶﾞｼｵｵｻｶｼ","streetKana":"ﾅｶﾞﾀ","prefecture":"大阪府","city":"東大阪市","street":"長田"},{"zipCode":"5770014","prefectureKana":"ｵｵｻｶﾌ","cityKana":"ﾋｶﾞｼｵｵｻｶｼ","streetKana":"ﾅｶﾞﾀﾅｲｽｹ","prefecture":"大阪府","city":"東大阪市","street":"長田内介"},{"zipCode":"5770013","prefectureKana":"ｵｵｻｶﾌ","cityKana":"ﾋｶﾞｼｵｵｻｶｼ","streetKana":"ﾅｶﾞﾀﾅｶ","prefecture":"大阪府","city":"東大阪市","street":"長田中"},{"zipCode":"5770012","prefectureKana":"ｵｵｻｶﾌ","cityKana":"ﾋｶﾞｼｵｵｻｶｼ","streetKana":"ﾅｶﾞﾀﾋｶﾞｼ","prefecture":"大阪府","city":"東大阪市","street":"長田東"},{"zipCode":"5770016","prefectureKana":"ｵｵｻｶﾌ","cityKana":"ﾋｶﾞｼｵｵｻｶｼ","streetKana":"ﾅｶﾞﾀﾆｼ","prefecture":"大阪府","city":"東大阪市","street":"長田西"},{"zipCode":"5770811","prefectureKana":"ｵｵｻｶﾌ","cityKana":"ﾋｶﾞｼｵｵｻｶｼ","streetKana":"ﾆｼｶﾐｺｻｶ","prefecture":"大阪府","city":"東大阪市","street":"西上小阪"},{"zipCode":"5770042","prefectureKana":"ｵｵｻｶﾌ","cityKana":"ﾋｶﾞｼｵｵｻｶｼ","streetKana":"ﾆｼﾂﾞﾂﾐ","prefecture":"大阪府","city":"東大阪市","street":"西堤"},{"zipCode":"5770044","prefectureKana":"ｵｵｻｶﾌ","cityKana":"ﾋｶﾞｼｵｵｻｶｼ","streetKana":"ﾆｼﾂﾞﾂﾐｶﾞｸｴﾝﾁｮｳ","prefecture":"大阪府","city":"東大阪市","street":"西堤学園町"},{"zipCode":"5770047","prefectureKana":"ｵｵｻｶﾌ","cityKana":"ﾋｶﾞｼｵｵｻｶｼ","streetKana":"ﾆｼﾂﾞﾂﾐｸｽﾉｷﾁｮｳ","prefecture":"大阪府","city":"東大阪市","street":"西堤楠町"},{"zipCode":"5770048","prefectureKana":"ｵｵｻｶﾌ","cityKana":"ﾋｶﾞｼｵｵｻｶｼ","streetKana":"ﾆｼﾂﾂﾐﾆｼ","prefecture":"大阪府","city":"東大阪市","street":"西堤西"},{"zipCode":"5770045","prefectureKana":"ｵｵｻｶﾌ","cityKana":"ﾋｶﾞｼｵｵｻｶｼ","streetKana":"ﾆｼﾂﾞﾂﾐﾎﾝﾄﾞｵﾘﾋｶﾞｼ","prefecture":"大阪府","city":"東大阪市","street":"西堤本通東"},{"zipCode":"5770046","prefectureKana":"ｵｵｻｶﾌ","cityKana":"ﾋｶﾞｼｵｵｻｶｼ","streetKana":"ﾆｼﾂﾞﾂﾐﾎﾝﾄﾞｵﾘﾆｼ","prefecture":"大阪府","city":"東大阪市","street":"西堤本通西"},{"zipCode":"5770812","prefectureKana":"ｵｵｻｶﾌ","cityKana":"ﾋｶﾞｼｵｵｻｶｼ","streetKana":"ﾋｶﾞｼｶﾐｺｻｶ","prefecture":"大阪府","city":"東大阪市","street":"東上小阪"},{"zipCode":"5770807","prefectureKana":"ｵｵｻｶﾌ","cityKana":"ﾋｶﾞｼｵｵｻｶｼ","streetKana":"ﾋｼﾔﾆｼ","prefecture":"大阪府","city":"東大阪市","street":"菱屋西"},{"zipCode":"5770017","prefectureKana":"ｵｵｻｶﾌ","cityKana":"ﾋｶﾞｼｵｵｻｶｼ","streetKana":"ﾌｼﾞﾄｼﾝﾃﾞﾝ","prefecture":"大阪府","city":"東大阪市","street":"藤戸新田"},{"zipCode":"5770805","prefectureKana":"ｵｵｻｶﾌ","cityKana":"ﾋｶﾞｼｵｵｻｶｼ","streetKana":"ﾎｳｼﾞ","prefecture":"大阪府","city":"東大阪市","street":"宝持"},{"zipCode":"5770032","prefectureKana":"ｵｵｻｶﾌ","cityKana":"ﾋｶﾞｼｵｵｻｶｼ","streetKana":"ﾐｸﾘﾔ","prefecture":"大阪府","city":"東大阪市","street":"御厨"},{"zipCode":"5770036","prefectureKana":"ｵｵｻｶﾌ","cityKana":"ﾋｶﾞｼｵｵｻｶｼ","streetKana":"ﾐｸﾘﾔｻｶｴﾏﾁ","prefecture":"大阪府","city":"東大阪市","street":"御厨栄町"},{"zipCode":"5770035","prefectureKana":"ｵｵｻｶﾌ","cityKana":"ﾋｶﾞｼｵｵｻｶｼ","streetKana":"ﾐｸﾘﾔﾅｶ","prefecture":"大阪府","city":"東大阪市","street":"御厨中"},{"zipCode":"5770037","prefectureKana":"ｵｵｻｶﾌ","cityKana":"ﾋｶﾞｼｵｵｻｶｼ","streetKana":"ﾐｸﾘﾔﾆｼﾉﾁｮｳ","prefecture":"大阪府","city":"東大阪市","street":"御厨西ノ町"},{"zipCode":"5770033","prefectureKana":"ｵｵｻｶﾌ","cityKana":"ﾋｶﾞｼｵｵｻｶｼ","streetKana":"ﾐｸﾘﾔﾋｶﾞｼ","prefecture":"大阪府","city":"東大阪市","street":"御厨東"},{"zipCode":"5770034","prefectureKana":"ｵｵｻｶﾌ","cityKana":"ﾋｶﾞｼｵｵｻｶｼ","streetKana":"ﾐｸﾘﾔﾐﾅﾐ","prefecture":"大阪府","city":"東大阪市","street":"御厨南"},{"zipCode":"5770814","prefectureKana":"ｵｵｻｶﾌ","cityKana":"ﾋｶﾞｼｵｵｻｶｼ","streetKana":"ﾐﾅﾐｶﾐｺｻｶ","prefecture":"大阪府","city":"東大阪市","street":"南上小阪"},{"zipCode":"5770062","prefectureKana":"ｵｵｻｶﾌ","cityKana":"ﾋｶﾞｼｵｵｻｶｼ","streetKana":"ﾓﾘｶﾜﾁﾋｶﾞｼ","prefecture":"大阪府","city":"東大阪市","street":"森河内東"},{"zipCode":"5770061","prefectureKana":"ｵｵｻｶﾌ","cityKana":"ﾋｶﾞｼｵｵｻｶｼ","streetKana":"ﾓﾘｶﾜﾁﾆｼ","prefecture":"大阪府","city":"東大阪市","street":"森河内西"},{"zipCode":"5770808","prefectureKana":"ｵｵｻｶﾌ","cityKana":"ﾋｶﾞｼｵｵｻｶｼ","streetKana":"ﾖｺﾇﾏﾁｮｳ","prefecture":"大阪府","city":"東大阪市","street":"横沼町"},{"zipCode":"5770821","prefectureKana":"ｵｵｻｶﾌ","cityKana":"ﾋｶﾞｼｵｵｻｶｼ","streetKana":"ﾖｼﾏﾂ","prefecture":"大阪府","city":"東大阪市","street":"吉松"}]