[{"zipCode":"5798048","prefectureKana":"ｵｵｻｶﾌ","cityKana":"ﾋｶﾞｼｵｵｻｶｼ","streetKana":"ｱｻﾋﾏﾁ","prefecture":"大阪府","city":"東大阪市","street":"旭町"},{"zipCode":"5798064","prefectureKana":"ｵｵｻｶﾌ","cityKana":"ﾋｶﾞｼｵｵｻｶｼ","streetKana":"ｲｹｼﾏﾁｮｳ","prefecture":"大阪府","city":"東大阪市","street":"池島町"},{"zipCode":"5798002","prefectureKana":"ｵｵｻｶﾌ","cityKana":"ﾋｶﾞｼｵｵｻｶｼ","streetKana":"ｲｹﾉﾊﾀﾁｮｳ","prefecture":"大阪府","city":"東大阪市","street":"池之端町"},{"zipCode":"5798033","prefectureKana":"ｵｵｻｶﾌ","cityKana":"ﾋｶﾞｼｵｵｻｶｼ","streetKana":"ｲｽﾞﾓｲﾁｮｳ","prefecture":"大阪府","city":"東大阪市","street":"出雲井町"},{"zipCode":"5798034","prefectureKana":"ｵｵｻｶﾌ","cityKana":"ﾋｶﾞｼｵｵｻｶｼ","streetKana":"ｲｽﾞﾓｲﾎﾝﾏﾁ","prefecture":"大阪府","city":"東大阪市","street":"出雲井本町"},{"zipCode":"5798012","prefectureKana":"ｵｵｻｶﾌ","cityKana":"ﾋｶﾞｼｵｵｻｶｼ","streetKana":"ｶﾐｲｼｷﾘﾁｮｳ(ｿﾉﾀ)","prefecture":"大阪府","city":"東大阪市","street":"上石切町（その他）"},{"zipCode":"5798052","prefectureKana":"ｵｵｻｶﾌ","cityKana":"ﾋｶﾞｼｵｵｻｶｼ","streetKana":"ｶﾐｼｼﾞｮｳﾁｮｳ","prefecture":"大阪府","city":"東大阪市","street":"上四条町"},{"zipCode":"5798062","prefectureKana":"ｵｵｻｶﾌ","cityKana":"ﾋｶﾞｼｵｵｻｶｼ","streetKana":"ｶﾐﾛｸﾏﾝｼﾞﾁｮｳ","prefecture":"大阪府","city":"東大阪市","street":"上六万寺町"},{"zipCode":"5798044","prefectureKana":"ｵｵｻｶﾌ","cityKana":"ﾋｶﾞｼｵｵｻｶｼ","streetKana":"ｶﾜﾁﾁｮｳ","prefecture":"大阪府","city":"東大阪市","street":"河内町"},{"zipCode":"5798058","prefectureKana":"ｵｵｻｶﾌ","cityKana":"ﾋｶﾞｼｵｵｻｶｼ","streetKana":"ｶﾝﾀﾞﾁｮｳ","prefecture":"大阪府","city":"東大阪市","street":"神田町"},{"zipCode":"5798015","prefectureKana":"ｵｵｻｶﾌ","cityKana":"ﾋｶﾞｼｵｵｻｶｼ","streetKana":"ｷﾀｲｼｷﾘﾁｮｳ","prefecture":"大阪府","city":"東大阪市","street":"北石切町"},{"zipCode":"5798043","prefectureKana":"ｵｵｻｶﾌ","cityKana":"ﾋｶﾞｼｵｵｻｶｼ","streetKana":"ｷｬｸﾎﾞｳﾁｮｳ","prefecture":"大阪府","city":"東大阪市","street":"客坊町"},{"zipCode":"5798041","prefectureKana":"ｵｵｻｶﾌ","cityKana":"ﾋｶﾞｼｵｵｻｶｼ","streetKana":"ｷﾘｶﾜﾁｮｳ","prefecture":"大阪府","city":"東大阪市","street":"喜里川町"},{"zipCode":"5798003","prefectureKana":"ｵｵｻｶﾌ","cityKana":"ﾋｶﾞｼｵｵｻｶｼ","streetKana":"ｸｻｶﾁｮｳ","prefecture":"大阪府","city":"東大阪市","street":"日下町"},{"zipCode":"5798042","prefectureKana":"ｵｵｻｶﾌ","cityKana":"ﾋｶﾞｼｵｵｻｶｼ","streetKana":"ｺﾞｼﾞｮｳﾁｮｳ","prefecture":"大阪府","city":"東大阪市","street":"五条町"},{"zipCode":"5798047","prefectureKana":"ｵｵｻｶﾌ","cityKana":"ﾋｶﾞｼｵｵｻｶｼ","streetKana":"ｻｸﾗﾏﾁ","prefecture":"大阪府","city":"東大阪市","street":"桜町"},{"zipCode":"5798053","prefectureKana":"ｵｵｻｶﾌ","cityKana":"ﾋｶﾞｼｵｵｻｶｼ","streetKana":"ｼｼﾞｮｳﾁｮｳ","prefecture":"大阪府","city":"東大阪市","street":"四条町"},{"zipCode":"5798066","prefectureKana":"ｵｵｻｶﾌ","cityKana":"ﾋｶﾞｼｵｵｻｶｼ","streetKana":"ｼﾓﾛｸﾏﾝｼﾞﾁｮｳ","prefecture":"大阪府","city":"東大阪市","street":"下六万寺町"},{"zipCode":"5798046","prefectureKana":"ｵｵｻｶﾌ","cityKana":"ﾋｶﾞｼｵｵｻｶｼ","streetKana":"ｼｮｳﾜﾁｮｳ","prefecture":"大阪府","city":"東大阪市","street":"昭和町"},{"zipCode":"5798065","prefectureKana":"ｵｵｻｶﾌ","cityKana":"ﾋｶﾞｼｵｵｻｶｼ","streetKana":"ｼﾝｲｹｼﾏﾁｮｳ","prefecture":"大阪府","city":"東大阪市","street":"新池島町"},{"zipCode":"5798037","prefectureKana":"ｵｵｻｶﾌ","cityKana":"ﾋｶﾞｼｵｵｻｶｼ","streetKana":"ｼﾝﾏﾁ","prefecture":"大阪府","city":"東大阪市","street":"新町"},{"zipCode":"5798055","prefectureKana":"ｵｵｻｶﾌ","cityKana":"ﾋｶﾞｼｵｵｻｶｼ","streetKana":"ｽｴﾋﾛﾁｮｳ","prefecture":"大阪府","city":"東大阪市","street":"末広町"},{"zipCode":"5798001","prefectureKana":"ｵｵｻｶﾌ","cityKana":"ﾋｶﾞｼｵｵｻｶｼ","streetKana":"ｾﾞﾝｺﾝｼﾞﾁｮｳ","prefecture":"大阪府","city":"東大阪市","street":"善根寺町"},{"zipCode":"5798036","prefectureKana":"ｵｵｻｶﾌ","cityKana":"ﾋｶﾞｼｵｵｻｶｼ","streetKana":"ﾀｶﾄﾞﾉﾁｮｳ","prefecture":"大阪府","city":"東大阪市","street":"鷹殿町"},{"zipCode":"5798025","prefectureKana":"ｵｵｻｶﾌ","cityKana":"ﾋｶﾞｼｵｵｻｶｼ","streetKana":"ﾀｶﾗﾏﾁ","prefecture":"大阪府","city":"東大阪市","street":"宝町"},{"zipCode":"5798023","prefectureKana":"ｵｵｻｶﾌ","cityKana":"ﾋｶﾞｼｵｵｻｶｼ","streetKana":"ﾀﾁﾊﾞﾅﾁｮｳ","prefecture":"大阪府","city":"東大阪市","street":"立花町"},{"zipCode":"5798031","prefectureKana":"ｵｵｻｶﾌ","cityKana":"ﾋｶﾞｼｵｵｻｶｼ","streetKana":"ﾄﾖｳﾗﾁｮｳ","prefecture":"大阪府","city":"東大阪市","street":"豊浦町"},{"zipCode":"5798035","prefectureKana":"ｵｵｻｶﾌ","cityKana":"ﾋｶﾞｼｵｵｻｶｼ","streetKana":"ﾄﾘｲﾁｮｳ","prefecture":"大阪府","city":"東大阪市","street":"鳥居町"},{"zipCode":"5798014","prefectureKana":"ｵｵｻｶﾌ","cityKana":"ﾋｶﾞｼｵｵｻｶｼ","streetKana":"ﾅｶｲｼｷﾘﾁｮｳ","prefecture":"大阪府","city":"東大阪市","street":"中石切町"},{"zipCode":"5798024","prefectureKana":"ｵｵｻｶﾌ","cityKana":"ﾋｶﾞｼｵｵｻｶｼ","streetKana":"ﾅﾝｿｳﾁｮｳ","prefecture":"大阪府","city":"東大阪市","street":"南荘町"},{"zipCode":"5798013","prefectureKana":"ｵｵｻｶﾌ","cityKana":"ﾋｶﾞｼｵｵｻｶｼ","streetKana":"ﾆｼｲｼｷﾘﾁｮｳ","prefecture":"大阪府","city":"東大阪市","street":"西石切町"},{"zipCode":"5798021","prefectureKana":"ｵｵｻｶﾌ","cityKana":"ﾋｶﾞｼｵｵｻｶｼ","streetKana":"ﾇｶﾀﾁｮｳ","prefecture":"大阪府","city":"東大阪市","street":"額田町"},{"zipCode":"5798004","prefectureKana":"ｵｵｻｶﾌ","cityKana":"ﾋｶﾞｼｵｵｻｶｼ","streetKana":"ﾇﾉｲﾁﾁｮｳ","prefecture":"大阪府","city":"東大阪市","street":"布市町"},{"zipCode":"5798038","prefectureKana":"ｵｵｻｶﾌ","cityKana":"ﾋｶﾞｼｵｵｻｶｼ","streetKana":"ﾊｺﾄﾞﾉﾁｮｳ","prefecture":"大阪府","city":"東大阪市","street":"箱殿町"},{"zipCode":"5798011","prefectureKana":"ｵｵｻｶﾌ","cityKana":"ﾋｶﾞｼｵｵｻｶｼ","streetKana":"ﾋｶﾞｼｲｼｷﾘﾁｮｳ","prefecture":"大阪府","city":"東大阪市","street":"東石切町"},{"zipCode":"5798032","prefectureKana":"ｵｵｻｶﾌ","cityKana":"ﾋｶﾞｼｵｵｻｶｼ","streetKana":"ﾋｶﾞｼﾄﾖｳﾗﾁｮｳ","prefecture":"大阪府","city":"東大阪市","street":"東豊浦町"},{"zipCode":"5798027","prefectureKana":"ｵｵｻｶﾌ","cityKana":"ﾋｶﾞｼｵｵｻｶｼ","streetKana":"ﾋｶﾞｼﾔﾏﾁｮｳ","prefecture":"大阪府","city":"東大阪市","street":"東山町"},{"zipCode":"5798051","prefectureKana":"ｵｵｻｶﾌ","cityKana":"ﾋｶﾞｼｵｵｻｶｼ","streetKana":"ﾋｮｳﾀﾝﾔﾏﾁｮｳ","prefecture":"大阪府","city":"東大阪市","street":"瓢箪山町"},{"zipCode":"5798045","prefectureKana":"ｵｵｻｶﾌ","cityKana":"ﾋｶﾞｼｵｵｻｶｼ","streetKana":"ﾎﾝﾏﾁ","prefecture":"大阪府","city":"東大阪市","street":"本町"},{"zipCode":"5798054","prefectureKana":"ｵｵｻｶﾌ","cityKana":"ﾋｶﾞｼｵｵｻｶｼ","streetKana":"ﾐﾅﾐｼｼﾞｮｳﾁｮｳ","prefecture":"大阪府","city":"東大阪市","street":"南四条町"},{"zipCode":"5798057","prefectureKana":"ｵｵｻｶﾌ","cityKana":"ﾋｶﾞｼｵｵｻｶｼ","streetKana":"ﾐﾕｷﾁｮｳ","prefecture":"大阪府","city":"東大阪市","street":"御幸町"},{"zipCode":"5798005","prefectureKana":"ｵｵｻｶﾌ","cityKana":"ﾋｶﾞｼｵｵｻｶｼ","streetKana":"ﾓﾄﾏﾁ","prefecture":"大阪府","city":"東大阪市","street":"元町"},{"zipCode":"5798022","prefectureKana":"ｵｵｻｶﾌ","cityKana":"ﾋｶﾞｼｵｵｻｶｼ","streetKana":"ﾔﾏﾃﾁｮｳ","prefecture":"大阪府","city":"東大阪市","street":"山手町"},{"zipCode":"5798026","prefectureKana":"ｵｵｻｶﾌ","cityKana":"ﾋｶﾞｼｵｵｻｶｼ","streetKana":"ﾔﾖｲﾁｮｳ","prefecture":"大阪府","city":"東大阪市","street":"弥生町"},{"zipCode":"5798063","prefectureKana":"ｵｵｻｶﾌ","cityKana":"ﾋｶﾞｼｵｵｻｶｼ","streetKana":"ﾖｺｼｮｳｼﾞﾁｮｳ","prefecture":"大阪府","city":"東大阪市","street":"横小路町"},{"zipCode":"5798061","prefectureKana":"ｵｵｻｶﾌ","cityKana":"ﾋｶﾞｼｵｵｻｶｼ","streetKana":"ﾛｸﾏﾝｼﾞﾁｮｳ","prefecture":"大阪府","city":"東大阪市","street":"六万寺町"},{"zipCode":"5798056","prefectureKana":"ｵｵｻｶﾌ","cityKana":"ﾋｶﾞｼｵｵｻｶｼ","streetKana":"ﾜｶｸｻﾁｮｳ","prefecture":"大阪府","city":"東大阪市","street":"若草町"}]