[{"zipCode":"5900000","prefectureKana":"ｵｵｻｶﾌ","cityKana":"ｻｶｲｼｻｶｲｸ","streetKana":"ｲｶﾆｹｲｻｲｶﾞﾅｲﾊﾞｱｲ","prefecture":"大阪府","city":"堺市堺区","street":"以下に掲載がない場合"},{"zipCode":"5900012","prefectureKana":"ｵｵｻｶﾌ","cityKana":"ｻｶｲｼｻｶｲｸ","streetKana":"ｱｻｶﾔﾏﾁｮｳ","prefecture":"大阪府","city":"堺市堺区","street":"浅香山町"},{"zipCode":"5900809","prefectureKana":"ｵｵｻｶﾌ","cityKana":"ｻｶｲｼｻｶｲｸ","streetKana":"ｱｻﾋｶﾞｵｶｷﾀﾏﾁ","prefecture":"大阪府","city":"堺市堺区","street":"旭ケ丘北町"},{"zipCode":"5900808","prefectureKana":"ｵｵｻｶﾌ","cityKana":"ｻｶｲｼｻｶｲｸ","streetKana":"ｱｻﾋｶﾞｵｶﾅｶﾏﾁ","prefecture":"大阪府","city":"堺市堺区","street":"旭ケ丘中町"},{"zipCode":"5900807","prefectureKana":"ｵｵｻｶﾌ","cityKana":"ｻｶｲｼｻｶｲｸ","streetKana":"ｱｻﾋｶﾞｵｶﾐﾅﾐﾏﾁ","prefecture":"大阪府","city":"堺市堺区","street":"旭ケ丘南町"},{"zipCode":"5900055","prefectureKana":"ｵｵｻｶﾌ","cityKana":"ｻｶｲｼｻｶｲｸ","streetKana":"ｱｻﾋﾄﾞｵﾘ","prefecture":"大阪府","city":"堺市堺区","street":"旭通"},{"zipCode":"5900926","prefectureKana":"ｵｵｻｶﾌ","cityKana":"ｻｶｲｼｻｶｲｸ","streetKana":"ｱﾔﾉﾁｮｳﾆｼ","prefecture":"大阪府","city":"堺市堺区","street":"綾之町西"},{"zipCode":"5900925","prefectureKana":"ｵｵｻｶﾌ","cityKana":"ｻｶｲｼｻｶｲｸ","streetKana":"ｱﾔﾉﾁｮｳﾋｶﾞｼ","prefecture":"大阪府","city":"堺市堺区","street":"綾之町東"},{"zipCode":"5900823","prefectureKana":"ｵｵｻｶﾌ","cityKana":"ｻｶｲｼｻｶｲｸ","streetKana":"ｲｼﾂﾞｷﾀﾏﾁ","prefecture":"大阪府","city":"堺市堺区","street":"石津北町"},{"zipCode":"5900814","prefectureKana":"ｵｵｻｶﾌ","cityKana":"ｻｶｲｼｻｶｲｸ","streetKana":"ｲｼﾂﾞﾁｮｳ","prefecture":"大阪府","city":"堺市堺区","street":"石津町"},{"zipCode":"5900048","prefectureKana":"ｵｵｻｶﾌ","cityKana":"ｻｶｲｼｻｶｲｸ","streetKana":"ｲﾁｼﾞｮｳﾄﾞｵﾘ","prefecture":"大阪府","city":"堺市堺区","street":"一条通"},{"zipCode":"5900951","prefectureKana":"ｵｵｻｶﾌ","cityKana":"ｻｶｲｼｻｶｲｸ","streetKana":"ｲﾁﾉﾁｮｳﾆｼ","prefecture":"大阪府","city":"堺市堺区","street":"市之町西"},{"zipCode":"5900952","prefectureKana":"ｵｵｻｶﾌ","cityKana":"ｻｶｲｼｻｶｲｸ","streetKana":"ｲﾁﾉﾁｮｳﾋｶﾞｼ","prefecture":"大阪府","city":"堺市堺区","street":"市之町東"},{"zipCode":"5900018","prefectureKana":"ｵｵｻｶﾌ","cityKana":"ｻｶｲｼｻｶｲｸ","streetKana":"ｲﾏｲｹﾁｮｳ","prefecture":"大阪府","city":"堺市堺区","street":"今池町"},{"zipCode":"5900065","prefectureKana":"ｵｵｻｶﾌ","cityKana":"ｻｶｲｼｻｶｲｸ","streetKana":"ｴｲﾀｲﾁｮｳ","prefecture":"大阪府","city":"堺市堺区","street":"永代町"},{"zipCode":"5900027","prefectureKana":"ｵｵｻｶﾌ","cityKana":"ｻｶｲｼｻｶｲｸ","streetKana":"ｴﾉｷﾓﾄﾏﾁ","prefecture":"大阪府","city":"堺市堺区","street":"榎元町"},{"zipCode":"5900985","prefectureKana":"ｵｵｻｶﾌ","cityKana":"ｻｶｲｼｻｶｲｸ","streetKana":"ｴﾋﾞｽｼﾞﾏﾁｮｳ","prefecture":"大阪府","city":"堺市堺区","street":"戎島町"},{"zipCode":"5900948","prefectureKana":"ｵｵｻｶﾌ","cityKana":"ｻｶｲｼｻｶｲｸ","streetKana":"ｴﾋﾞｽﾉﾁｮｳﾆｼ","prefecture":"大阪府","city":"堺市堺区","street":"戎之町西"},{"zipCode":"5900945","prefectureKana":"ｵｵｻｶﾌ","cityKana":"ｻｶｲｼｻｶｲｸ","streetKana":"ｴﾋﾞｽﾉﾁｮｳﾋｶﾞｼ","prefecture":"大阪府","city":"堺市堺区","street":"戎之町東"},{"zipCode":"5900824","prefectureKana":"ｵｵｻｶﾌ","cityKana":"ｻｶｲｼｻｶｲｸ","streetKana":"ｵｲﾏﾂﾁｮｳ","prefecture":"大阪府","city":"堺市堺区","street":"老松町"},{"zipCode":"5900959","prefectureKana":"ｵｵｻｶﾌ","cityKana":"ｻｶｲｼｻｶｲｸ","streetKana":"ｵｵﾁｮｳﾆｼ","prefecture":"大阪府","city":"堺市堺区","street":"大町西"},{"zipCode":"5900954","prefectureKana":"ｵｵｻｶﾌ","cityKana":"ｻｶｲｼｻｶｲｸ","streetKana":"ｵｵﾁｮｳﾋｶﾞｼ","prefecture":"大阪府","city":"堺市堺区","street":"大町東"},{"zipCode":"5900974","prefectureKana":"ｵｵｻｶﾌ","cityKana":"ｻｶｲｼｻｶｲｸ","streetKana":"ｵｵﾊﾏｷﾀﾏﾁ","prefecture":"大阪府","city":"堺市堺区","street":"大浜北町"},{"zipCode":"5900975","prefectureKana":"ｵｵｻｶﾌ","cityKana":"ｻｶｲｼｻｶｲｸ","streetKana":"ｵｵﾊﾏﾅｶﾏﾁ","prefecture":"大阪府","city":"堺市堺区","street":"大浜中町"},{"zipCode":"5900977","prefectureKana":"ｵｵｻｶﾌ","cityKana":"ｻｶｲｼｻｶｲｸ","streetKana":"ｵｵﾊﾏﾆｼﾏﾁ","prefecture":"大阪府","city":"堺市堺区","street":"大浜西町"},{"zipCode":"5900976","prefectureKana":"ｵｵｻｶﾌ","cityKana":"ｻｶｲｼｻｶｲｸ","streetKana":"ｵｵﾊﾏﾐﾅﾐﾏﾁ","prefecture":"大阪府","city":"堺市堺区","street":"大浜南町"},{"zipCode":"5900061","prefectureKana":"ｵｵｻｶﾌ","cityKana":"ｻｶｲｼｻｶｲｸ","streetKana":"ｵｷﾅﾊﾞｼﾁｮｳ","prefecture":"大阪府","city":"堺市堺区","street":"翁橋町"},{"zipCode":"5900001","prefectureKana":"ｵｵｻｶﾌ","cityKana":"ｻｶｲｼｻｶｲｸ","streetKana":"ｵﾘｵﾉﾁｮｳ","prefecture":"大阪府","city":"堺市堺区","street":"遠里小野町"},{"zipCode":"5900982","prefectureKana":"ｵｵｻｶﾌ","cityKana":"ｻｶｲｼｻｶｲｸ","streetKana":"ｶｲｻﾝﾁｮｳ","prefecture":"大阪府","city":"堺市堺区","street":"海山町"},{"zipCode":"5900950","prefectureKana":"ｵｵｻｶﾌ","cityKana":"ｻｶｲｼｻｶｲｸ","streetKana":"ｶｲﾉﾁｮｳﾆｼ","prefecture":"大阪府","city":"堺市堺区","street":"甲斐町西"},{"zipCode":"5900953","prefectureKana":"ｵｵｻｶﾌ","cityKana":"ｻｶｲｼｻｶｲｸ","streetKana":"ｶｲﾉﾁｮｳﾋｶﾞｼ","prefecture":"大阪府","city":"堺市堺区","street":"甲斐町東"},{"zipCode":"5900011","prefectureKana":"ｵｵｻｶﾌ","cityKana":"ｻｶｲｼｻｶｲｸ","streetKana":"ｶｵﾘｶﾞｵｶﾁｮｳ","prefecture":"大阪府","city":"堺市堺区","street":"香ケ丘町"},{"zipCode":"5900837","prefectureKana":"ｵｵｻｶﾌ","cityKana":"ｻｶｲｼｻｶｲｸ","streetKana":"ｶｼﾜｷﾞﾁｮｳ","prefecture":"大阪府","city":"堺市堺区","street":"柏木町"},{"zipCode":"5900827","prefectureKana":"ｵｵｻｶﾌ","cityKana":"ｻｶｲｼｻｶｲｸ","streetKana":"ｶｽｶﾞﾄﾞｵﾘ","prefecture":"大阪府","city":"堺市堺区","street":"春日通"},{"zipCode":"5900812","prefectureKana":"ｵｵｻｶﾌ","cityKana":"ｻｶｲｼｻｶｲｸ","streetKana":"ｶｽﾐｶﾞｵｶﾁｮｳ","prefecture":"大阪府","city":"堺市堺区","street":"霞ケ丘町"},{"zipCode":"5900813","prefectureKana":"ｵｵｻｶﾌ","cityKana":"ｻｶｲｼｻｶｲｸ","streetKana":"ｶﾐｲｼｲﾁﾉﾁｮｳ","prefecture":"大阪府","city":"堺市堺区","street":"神石市之町"},{"zipCode":"5900984","prefectureKana":"ｵｵｻｶﾌ","cityKana":"ｻｶｲｼｻｶｲｸ","streetKana":"ｶﾝﾅﾍﾞﾁｮｳ","prefecture":"大阪府","city":"堺市堺区","street":"神南辺町"},{"zipCode":"5900076","prefectureKana":"ｵｵｻｶﾌ","cityKana":"ｻｶｲｼｻｶｲｸ","streetKana":"ｷﾀｶﾜﾗﾏﾁ","prefecture":"大阪府","city":"堺市堺区","street":"北瓦町"},{"zipCode":"5900071","prefectureKana":"ｵｵｻｶﾌ","cityKana":"ｻｶｲｼｻｶｲｸ","streetKana":"ｷﾀｺｳﾖｳﾁｮｳ","prefecture":"大阪府","city":"堺市堺区","street":"北向陽町"},{"zipCode":"5900004","prefectureKana":"ｵｵｻｶﾌ","cityKana":"ｻｶｲｼｻｶｲｸ","streetKana":"ｷﾀｼﾐｽﾞﾁｮｳ","prefecture":"大阪府","city":"堺市堺区","street":"北清水町"},{"zipCode":"5900007","prefectureKana":"ｵｵｻｶﾌ","cityKana":"ｻｶｲｼｻｶｲｸ","streetKana":"ｷﾀｼｮｳﾁｮｳ","prefecture":"大阪府","city":"堺市堺区","street":"北庄町"},{"zipCode":"5900017","prefectureKana":"ｵｵｻｶﾌ","cityKana":"ｻｶｲｼｻｶｲｸ","streetKana":"ｷﾀﾀﾃﾞｲﾁｮｳ","prefecture":"大阪府","city":"堺市堺区","street":"北田出井町"},{"zipCode":"5900928","prefectureKana":"ｵｵｻｶﾌ","cityKana":"ｻｶｲｼｻｶｲｸ","streetKana":"ｷﾀﾊﾀｺﾞﾁｮｳﾆｼ","prefecture":"大阪府","city":"堺市堺区","street":"北旅籠町西"},{"zipCode":"5900923","prefectureKana":"ｵｵｻｶﾌ","cityKana":"ｻｶｲｼｻｶｲｸ","streetKana":"ｷﾀﾊﾀｺﾞﾁｮｳﾋｶﾞｼ","prefecture":"大阪府","city":"堺市堺区","street":"北旅籠町東"},{"zipCode":"5900986","prefectureKana":"ｵｵｻｶﾌ","cityKana":"ｻｶｲｼｻｶｲｸ","streetKana":"ｷﾀﾊﾄﾁｮｳ","prefecture":"大阪府","city":"堺市堺区","street":"北波止町"},{"zipCode":"5900074","prefectureKana":"ｵｵｻｶﾌ","cityKana":"ｻｶｲｼｻｶｲｸ","streetKana":"ｷﾀﾊﾅﾀﾞｸﾞﾁﾁｮｳ","prefecture":"大阪府","city":"堺市堺区","street":"北花田口町"},{"zipCode":"5900921","prefectureKana":"ｵｵｻｶﾌ","cityKana":"ｻｶｲｼｻｶｲｸ","streetKana":"ｷﾀﾊﾝﾁｮｳﾆｼ","prefecture":"大阪府","city":"堺市堺区","street":"北半町西"},{"zipCode":"5900922","prefectureKana":"ｵｵｻｶﾌ","cityKana":"ｻｶｲｼｻｶｲｸ","streetKana":"ｷﾀﾊﾝﾁｮｳﾋｶﾞｼ","prefecture":"大阪府","city":"堺市堺区","street":"北半町東"},{"zipCode":"5900037","prefectureKana":"ｵｵｻｶﾌ","cityKana":"ｻｶｲｼｻｶｲｸ","streetKana":"ｷﾀﾏﾙﾎｴﾝ","prefecture":"大阪府","city":"堺市堺区","street":"北丸保園"},{"zipCode":"5900021","prefectureKana":"ｵｵｻｶﾌ","cityKana":"ｻｶｲｼｻｶｲｸ","streetKana":"ｷﾀﾐｸﾆｶﾞｵｶﾁｮｳ","prefecture":"大阪府","city":"堺市堺区","street":"北三国ケ丘町"},{"zipCode":"5900062","prefectureKana":"ｵｵｻｶﾌ","cityKana":"ｻｶｲｼｻｶｲｸ","streetKana":"ｷﾀﾔｽｲﾁｮｳ","prefecture":"大阪府","city":"堺市堺区","street":"北安井町"},{"zipCode":"5900054","prefectureKana":"ｵｵｻｶﾌ","cityKana":"ｻｶｲｼｻｶｲｸ","streetKana":"ｷｮｳﾏﾁﾄﾞｵﾘ","prefecture":"大阪府","city":"堺市堺区","street":"京町通"},{"zipCode":"5900822","prefectureKana":"ｵｵｻｶﾌ","cityKana":"ｻｶｲｼｻｶｲｸ","streetKana":"ｷｮｳﾜﾁｮｳ","prefecture":"大阪府","city":"堺市堺区","street":"協和町"},{"zipCode":"5900006","prefectureKana":"ｵｵｻｶﾌ","cityKana":"ｻｶｲｼｻｶｲｸ","streetKana":"ｷﾝﾘｮｳﾁｮｳ","prefecture":"大阪府","city":"堺市堺区","street":"錦綾町"},{"zipCode":"5900939","prefectureKana":"ｵｵｻｶﾌ","cityKana":"ｻｶｲｼｻｶｲｸ","streetKana":"ｸｹﾝﾁｮｳﾆｼ","prefecture":"大阪府","city":"堺市堺区","street":"九間町西"},{"zipCode":"5900934","prefectureKana":"ｵｵｻｶﾌ","cityKana":"ｻｶｲｼｻｶｲｸ","streetKana":"ｸｹﾝﾁｮｳﾋｶﾞｼ","prefecture":"大阪府","city":"堺市堺区","street":"九間町東"},{"zipCode":"5900949","prefectureKana":"ｵｵｻｶﾌ","cityKana":"ｻｶｲｼｻｶｲｸ","streetKana":"ｸｼﾔﾁｮｳﾆｼ","prefecture":"大阪府","city":"堺市堺区","street":"櫛屋町西"},{"zipCode":"5900944","prefectureKana":"ｵｵｻｶﾌ","cityKana":"ｻｶｲｼｻｶｲｸ","streetKana":"ｸｼﾔﾁｮｳﾋｶﾞｼ","prefecture":"大阪府","city":"堺市堺区","street":"櫛屋町東"},{"zipCode":"5900836","prefectureKana":"ｵｵｻｶﾌ","cityKana":"ｻｶｲｼｻｶｲｸ","streetKana":"ｸｽﾉｷﾁｮｳ","prefecture":"大阪府","city":"堺市堺区","street":"楠町"},{"zipCode":"5900947","prefectureKana":"ｵｵｻｶﾌ","cityKana":"ｻｶｲｼｻｶｲｸ","streetKana":"ｸﾏﾉﾁｮｳﾆｼ","prefecture":"大阪府","city":"堺市堺区","street":"熊野町西"},{"zipCode":"5900946","prefectureKana":"ｵｵｻｶﾌ","cityKana":"ｻｶｲｼｻｶｲｸ","streetKana":"ｸﾏﾉﾁｮｳﾋｶﾞｼ","prefecture":"大阪府","city":"堺市堺区","street":"熊野町東"},{"zipCode":"5900940","prefectureKana":"ｵｵｻｶﾌ","cityKana":"ｻｶｲｼｻｶｲｸ","streetKana":"ｸﾙﾏﾉﾁｮｳﾆｼ","prefecture":"大阪府","city":"堺市堺区","street":"車之町西"},{"zipCode":"5900943","prefectureKana":"ｵｵｻｶﾌ","cityKana":"ｻｶｲｼｻｶｲｸ","streetKana":"ｸﾙﾏﾉﾁｮｳﾋｶﾞｼ","prefecture":"大阪府","city":"堺市堺区","street":"車之町東"},{"zipCode":"5900024","prefectureKana":"ｵｵｻｶﾌ","cityKana":"ｻｶｲｼｻｶｲｸ","streetKana":"ｺｳﾘｮｳﾅｶﾏﾁ","prefecture":"大阪府","city":"堺市堺区","street":"向陵中町"},{"zipCode":"5900026","prefectureKana":"ｵｵｻｶﾌ","cityKana":"ｻｶｲｼｻｶｲｸ","streetKana":"ｺｳﾘｮｳﾆｼﾏﾁ","prefecture":"大阪府","city":"堺市堺区","street":"向陵西町"},{"zipCode":"5900025","prefectureKana":"ｵｵｻｶﾌ","cityKana":"ｻｶｲｼｻｶｲｸ","streetKana":"ｺｳﾘｮｳﾋｶﾞｼﾏﾁ","prefecture":"大阪府","city":"堺市堺区","street":"向陵東町"},{"zipCode":"5900044","prefectureKana":"ｵｵｻｶﾌ","cityKana":"ｻｶｲｼｻｶｲｸ","streetKana":"ｺﾞｼﾞｮｳﾄﾞｵﾘ","prefecture":"大阪府","city":"堺市堺区","street":"五条通"},{"zipCode":"5900057","prefectureKana":"ｵｵｻｶﾌ","cityKana":"ｻｶｲｼｻｶｲｸ","streetKana":"ｺﾞﾘｮｳﾄﾞｵﾘ","prefecture":"大阪府","city":"堺市堺区","street":"御陵通"},{"zipCode":"5900941","prefectureKana":"ｵｵｻｶﾌ","cityKana":"ｻｶｲｼｻｶｲｸ","streetKana":"ｻﾞｲﾓｸﾁｮｳﾆｼ","prefecture":"大阪府","city":"堺市堺区","street":"材木町西"},{"zipCode":"5900942","prefectureKana":"ｵｵｻｶﾌ","cityKana":"ｻｶｲｼｻｶｲｸ","streetKana":"ｻﾞｲﾓｸﾁｮｳﾋｶﾞｼ","prefecture":"大阪府","city":"堺市堺区","street":"材木町東"},{"zipCode":"5900051","prefectureKana":"ｵｵｻｶﾌ","cityKana":"ｻｶｲｼｻｶｲｸ","streetKana":"ｻｲﾜｲﾄﾞｵﾘ","prefecture":"大阪府","city":"堺市堺区","street":"幸通"},{"zipCode":"5900971","prefectureKana":"ｵｵｻｶﾌ","cityKana":"ｻｶｲｼｻｶｲｸ","streetKana":"ｻｶｴﾊﾞｼﾁｮｳ","prefecture":"大阪府","city":"堺市堺区","street":"栄橋町"},{"zipCode":"5900927","prefectureKana":"ｵｵｻｶﾌ","cityKana":"ｻｶｲｼｻｶｲｸ","streetKana":"ｻｸﾗﾉﾁｮｳﾆｼ","prefecture":"大阪府","city":"堺市堺区","street":"桜之町西"},{"zipCode":"5900924","prefectureKana":"ｵｵｻｶﾌ","cityKana":"ｻｶｲｼｻｶｲｸ","streetKana":"ｻｸﾗﾉﾁｮｳﾋｶﾞｼ","prefecture":"大阪府","city":"堺市堺区","street":"桜之町東"},{"zipCode":"5900031","prefectureKana":"ｵｵｻｶﾌ","cityKana":"ｻｶｲｼｻｶｲｸ","streetKana":"ｻﾂｷﾁｮｳ","prefecture":"大阪府","city":"堺市堺区","street":"五月町"},{"zipCode":"5900046","prefectureKana":"ｵｵｻｶﾌ","cityKana":"ｻｶｲｼｻｶｲｸ","streetKana":"ｻﾝｼﾞｮｳﾄﾞｵﾘ","prefecture":"大阪府","city":"堺市堺区","street":"三条通"},{"zipCode":"5900906","prefectureKana":"ｵｵｻｶﾌ","cityKana":"ｻｶｲｼｻｶｲｸ","streetKana":"ｻﾝﾎﾞｳﾁｮｳ","prefecture":"大阪府","city":"堺市堺区","street":"三宝町"},{"zipCode":"5900981","prefectureKana":"ｵｵｻｶﾌ","cityKana":"ｻｶｲｼｻｶｲｸ","streetKana":"ｼｵﾊﾏﾁｮｳ","prefecture":"大阪府","city":"堺市堺区","street":"塩浜町"},{"zipCode":"5900045","prefectureKana":"ｵｵｻｶﾌ","cityKana":"ｻｶｲｼｻｶｲｸ","streetKana":"ｼｼﾞｮｳﾄﾞｵﾘ","prefecture":"大阪府","city":"堺市堺区","street":"四条通"},{"zipCode":"5900042","prefectureKana":"ｵｵｻｶﾌ","cityKana":"ｻｶｲｼｻｶｲｸ","streetKana":"ｼﾁｼﾞｮｳﾄﾞｵﾘ","prefecture":"大阪府","city":"堺市堺区","street":"七条通"},{"zipCode":"5900911","prefectureKana":"ｵｵｻｶﾌ","cityKana":"ｻｶｲｼｻｶｲｸ","streetKana":"ｼﾁﾄﾞｳﾆｼﾏﾁ","prefecture":"大阪府","city":"堺市堺区","street":"七道西町"},{"zipCode":"5900913","prefectureKana":"ｵｵｻｶﾌ","cityKana":"ｻｶｲｼｻｶｲｸ","streetKana":"ｼﾁﾄﾞｳﾋｶﾞｼﾏﾁ","prefecture":"大阪府","city":"堺市堺区","street":"七道東町"},{"zipCode":"5900013","prefectureKana":"ｵｵｻｶﾌ","cityKana":"ｻｶｲｼｻｶｲｸ","streetKana":"ｼﾉﾉﾒﾆｼﾏﾁ","prefecture":"大阪府","city":"堺市堺区","street":"東雲西町"},{"zipCode":"5900958","prefectureKana":"ｵｵｻｶﾌ","cityKana":"ｻｶｲｼｻｶｲｸ","streetKana":"ｼｭｸｲﾝﾁｮｳﾆｼ","prefecture":"大阪府","city":"堺市堺区","street":"宿院町西"},{"zipCode":"5900955","prefectureKana":"ｵｵｻｶﾌ","cityKana":"ｻｶｲｼｻｶｲｸ","streetKana":"ｼｭｸｲﾝﾁｮｳﾋｶﾞｼ","prefecture":"大阪府","city":"堺市堺区","street":"宿院町東"},{"zipCode":"5900937","prefectureKana":"ｵｵｻｶﾌ","cityKana":"ｻｶｲｼｻｶｲｸ","streetKana":"ｼｭｸﾔﾁｮｳﾆｼ","prefecture":"大阪府","city":"堺市堺区","street":"宿屋町西"},{"zipCode":"5900936","prefectureKana":"ｵｵｻｶﾌ","cityKana":"ｻｶｲｼｻｶｲｸ","streetKana":"ｼｭｸﾔﾁｮｳﾋｶﾞｼ","prefecture":"大阪府","city":"堺市堺区","street":"宿屋町東"},{"zipCode":"5900960","prefectureKana":"ｵｵｻｶﾌ","cityKana":"ｻｶｲｼｻｶｲｸ","streetKana":"ｼｮｳﾘﾝｼﾞﾁｮｳﾆｼ","prefecture":"大阪府","city":"堺市堺区","street":"少林寺町西"},{"zipCode":"5900963","prefectureKana":"ｵｵｻｶﾌ","cityKana":"ｻｶｲｼｻｶｲｸ","streetKana":"ｼｮｳﾘﾝｼﾞﾁｮｳﾋｶﾞｼ","prefecture":"大阪府","city":"堺市堺区","street":"少林寺町東"},{"zipCode":"5900825","prefectureKana":"ｵｵｻｶﾌ","cityKana":"ｻｶｲｼｻｶｲｸ","streetKana":"ｼｮｳﾜﾄﾞｵﾘ","prefecture":"大阪府","city":"堺市堺区","street":"昭和通"},{"zipCode":"5900969","prefectureKana":"ｵｵｻｶﾌ","cityKana":"ｻｶｲｼｻｶｲｸ","streetKana":"ｼﾝｻﾞｲｹﾁｮｳﾆｼ","prefecture":"大阪府","city":"堺市堺区","street":"新在家町西"},{"zipCode":"5900964","prefectureKana":"ｵｵｻｶﾌ","cityKana":"ｻｶｲｼｻｶｲｸ","streetKana":"ｼﾝｻﾞｲｹﾁｮｳﾋｶﾞｼ","prefecture":"大阪府","city":"堺市堺区","street":"新在家町東"},{"zipCode":"5900056","prefectureKana":"ｵｵｻｶﾌ","cityKana":"ｻｶｲｼｻｶｲｸ","streetKana":"ｼﾝﾎﾟﾄﾞｵﾘ","prefecture":"大阪府","city":"堺市堺区","street":"神保通"},{"zipCode":"5900079","prefectureKana":"ｵｵｻｶﾌ","cityKana":"ｻｶｲｼｻｶｲｸ","streetKana":"ｼﾝﾏﾁ","prefecture":"大阪府","city":"堺市堺区","street":"新町"},{"zipCode":"5900938","prefectureKana":"ｵｵｻｶﾌ","cityKana":"ｻｶｲｼｻｶｲｸ","streetKana":"ｼﾝﾒｲﾁｮｳﾆｼ","prefecture":"大阪府","city":"堺市堺区","street":"神明町西"},{"zipCode":"5900935","prefectureKana":"ｵｵｻｶﾌ","cityKana":"ｻｶｲｼｻｶｲｸ","streetKana":"ｼﾝﾒｲﾁｮｳﾋｶﾞｼ","prefecture":"大阪府","city":"堺市堺区","street":"神明町東"},{"zipCode":"5900826","prefectureKana":"ｵｵｻｶﾌ","cityKana":"ｻｶｲｼｻｶｲｸ","streetKana":"ｽｶﾞﾊﾗﾄﾞｵﾘ","prefecture":"大阪府","city":"堺市堺区","street":"菅原通"},{"zipCode":"5900002","prefectureKana":"ｵｵｻｶﾌ","cityKana":"ｻｶｲｼｻｶｲｸ","streetKana":"ｽﾅﾐﾁﾁｮｳ","prefecture":"大阪府","city":"堺市堺区","street":"砂道町"},{"zipCode":"5900973","prefectureKana":"ｵｵｻｶﾌ","cityKana":"ｻｶｲｼｻｶｲｸ","streetKana":"ｽﾐﾖｼﾊﾞｼﾁｮｳ","prefecture":"大阪府","city":"堺市堺区","street":"住吉橋町"},{"zipCode":"5900035","prefectureKana":"ｵｵｻｶﾌ","cityKana":"ｻｶｲｼｻｶｲｸ","streetKana":"ﾀﾞｲｾﾝﾁｮｳ","prefecture":"大阪府","city":"堺市堺区","street":"大仙町"},{"zipCode":"5900801","prefectureKana":"ｵｵｻｶﾌ","cityKana":"ｻｶｲｼｻｶｲｸ","streetKana":"ﾀﾞｲｾﾝﾅｶﾏﾁ","prefecture":"大阪府","city":"堺市堺区","street":"大仙中町"},{"zipCode":"5900821","prefectureKana":"ｵｵｻｶﾌ","cityKana":"ｻｶｲｼｻｶｲｸ","streetKana":"ﾀﾞｲｾﾝﾆｼﾏﾁ","prefecture":"大阪府","city":"堺市堺区","street":"大仙西町"},{"zipCode":"5900820","prefectureKana":"ｵｵｻｶﾌ","cityKana":"ｻｶｲｼｻｶｲｸ","streetKana":"ﾀｶｻｺﾞﾁｮｳ","prefecture":"大阪府","city":"堺市堺区","street":"高砂町"},{"zipCode":"5900003","prefectureKana":"ｵｵｻｶﾌ","cityKana":"ｻｶｲｼｻｶｲｸ","streetKana":"ﾀｶｽﾁｮｳ","prefecture":"大阪府","city":"堺市堺区","street":"高須町"},{"zipCode":"5900908","prefectureKana":"ｵｵｻｶﾌ","cityKana":"ｻｶｲｼｻｶｲｸ","streetKana":"ﾀｸﾐﾁｮｳ","prefecture":"大阪府","city":"堺市堺区","street":"匠町"},{"zipCode":"5900014","prefectureKana":"ｵｵｻｶﾌ","cityKana":"ｻｶｲｼｻｶｲｸ","streetKana":"ﾀﾃﾞｲﾁｮｳ","prefecture":"大阪府","city":"堺市堺区","street":"田出井町"},{"zipCode":"5900987","prefectureKana":"ｵｵｻｶﾌ","cityKana":"ｻｶｲｼｻｶｲｸ","streetKana":"ﾁｯｺｳﾐﾅﾐﾏﾁ","prefecture":"大阪府","city":"堺市堺区","street":"築港南町"},{"zipCode":"5900901","prefectureKana":"ｵｵｻｶﾌ","cityKana":"ｻｶｲｼｻｶｲｸ","streetKana":"ﾁｯｺｳﾔﾜﾀﾏﾁ","prefecture":"大阪府","city":"堺市堺区","street":"築港八幡町"},{"zipCode":"5900833","prefectureKana":"ｵｵｻｶﾌ","cityKana":"ｻｶｲｼｻｶｲｸ","streetKana":"ﾃﾞｼﾞﾏｶｲｶﾞﾝﾄﾞｵﾘ","prefecture":"大阪府","city":"堺市堺区","street":"出島海岸通"},{"zipCode":"5900834","prefectureKana":"ｵｵｻｶﾌ","cityKana":"ｻｶｲｼｻｶｲｸ","streetKana":"ﾃﾞｼﾞﾏﾁｮｳ","prefecture":"大阪府","city":"堺市堺区","street":"出島町"},{"zipCode":"5900831","prefectureKana":"ｵｵｻｶﾌ","cityKana":"ｻｶｲｼｻｶｲｸ","streetKana":"ﾃﾞｼﾞﾏﾆｼﾏﾁ","prefecture":"大阪府","city":"堺市堺区","street":"出島西町"},{"zipCode":"5900832","prefectureKana":"ｵｵｻｶﾌ","cityKana":"ｻｶｲｼｻｶｲｸ","streetKana":"ﾃﾞｼﾞﾏﾊﾏﾄﾞｵﾘ","prefecture":"大阪府","city":"堺市堺区","street":"出島浜通"},{"zipCode":"5900905","prefectureKana":"ｵｵｻｶﾌ","cityKana":"ｻｶｲｼｻｶｲｸ","streetKana":"ﾃｯﾎﾟｳﾁｮｳ","prefecture":"大阪府","city":"堺市堺区","street":"鉄砲町"},{"zipCode":"5900961","prefectureKana":"ｵｵｻｶﾌ","cityKana":"ｻｶｲｼｻｶｲｸ","streetKana":"ﾃﾗｼﾞﾁｮｳﾆｼ","prefecture":"大阪府","city":"堺市堺区","street":"寺地町西"},{"zipCode":"5900962","prefectureKana":"ｵｵｻｶﾌ","cityKana":"ｻｶｲｼｻｶｲｸ","streetKana":"ﾃﾗｼﾞﾁｮｳﾋｶﾞｼ","prefecture":"大阪府","city":"堺市堺区","street":"寺地町東"},{"zipCode":"5900077","prefectureKana":"ｵｵｻｶﾌ","cityKana":"ｻｶｲｼｻｶｲｸ","streetKana":"ﾅｶｶﾜﾗﾏﾁ","prefecture":"大阪府","city":"堺市堺区","street":"中瓦町"},{"zipCode":"5900072","prefectureKana":"ｵｵｻｶﾌ","cityKana":"ｻｶｲｼｻｶｲｸ","streetKana":"ﾅｶｺｳﾖｳﾁｮｳ","prefecture":"大阪府","city":"堺市堺区","street":"中向陽町"},{"zipCode":"5900016","prefectureKana":"ｵｵｻｶﾌ","cityKana":"ｻｶｲｼｻｶｲｸ","streetKana":"ﾅｶﾀﾃﾞｲﾁｮｳ","prefecture":"大阪府","city":"堺市堺区","street":"中田出井町"},{"zipCode":"5900033","prefectureKana":"ｵｵｻｶﾌ","cityKana":"ｻｶｲｼｻｶｲｸ","streetKana":"ﾅｶﾅｶﾞﾔﾏｴﾝ","prefecture":"大阪府","city":"堺市堺区","street":"中永山園"},{"zipCode":"5900957","prefectureKana":"ｵｵｻｶﾌ","cityKana":"ｻｶｲｼｻｶｲｸ","streetKana":"ﾅｶﾉﾁｮｳﾆｼ","prefecture":"大阪府","city":"堺市堺区","street":"中之町西"},{"zipCode":"5900956","prefectureKana":"ｵｵｻｶﾌ","cityKana":"ｻｶｲｼｻｶｲｸ","streetKana":"ﾅｶﾉﾁｮｳﾋｶﾞｼ","prefecture":"大阪府","city":"堺市堺区","street":"中之町東"},{"zipCode":"5900022","prefectureKana":"ｵｵｻｶﾌ","cityKana":"ｻｶｲｼｻｶｲｸ","streetKana":"ﾅｶﾐｸﾆｶﾞｵｶﾁｮｳ","prefecture":"大阪府","city":"堺市堺区","street":"中三国ケ丘町"},{"zipCode":"5900063","prefectureKana":"ｵｵｻｶﾌ","cityKana":"ｻｶｲｼｻｶｲｸ","streetKana":"ﾅｶﾔｽｲﾁｮｳ","prefecture":"大阪府","city":"堺市堺区","street":"中安井町"},{"zipCode":"5900912","prefectureKana":"ｵｵｻｶﾌ","cityKana":"ｻｶｲｼｻｶｲｸ","streetKana":"ﾅﾐﾏﾂﾁｮｳ","prefecture":"大阪府","city":"堺市堺区","street":"並松町"},{"zipCode":"5900811","prefectureKana":"ｵｵｻｶﾌ","cityKana":"ｻｶｲｼｻｶｲｸ","streetKana":"ﾅﾝﾘｮｳﾁｮｳ","prefecture":"大阪府","city":"堺市堺区","street":"南陵町"},{"zipCode":"5900066","prefectureKana":"ｵｵｻｶﾌ","cityKana":"ｻｶｲｼｻｶｲｸ","streetKana":"ﾆｷﾞﾜｲﾁｮｳ","prefecture":"大阪府","city":"堺市堺区","street":"賑町"},{"zipCode":"5900931","prefectureKana":"ｵｵｻｶﾌ","cityKana":"ｻｶｲｼｻｶｲｸ","streetKana":"ﾆｼｷﾉﾁｮｳﾆｼ","prefecture":"大阪府","city":"堺市堺区","street":"錦之町西"},{"zipCode":"5900932","prefectureKana":"ｵｵｻｶﾌ","cityKana":"ｻｶｲｼｻｶｲｸ","streetKana":"ﾆｼｷﾉﾁｮｳﾋｶﾞｼ","prefecture":"大阪府","city":"堺市堺区","street":"錦之町東"},{"zipCode":"5900032","prefectureKana":"ｵｵｻｶﾌ","cityKana":"ｻｶｲｼｻｶｲｸ","streetKana":"ﾆｼﾅｶﾞﾔﾏｴﾝ","prefecture":"大阪府","city":"堺市堺区","street":"西永山園"},{"zipCode":"5900835","prefectureKana":"ｵｵｻｶﾌ","cityKana":"ｻｶｲｼｻｶｲｸ","streetKana":"ﾆｼﾐﾅﾄﾁｮｳ","prefecture":"大阪府","city":"堺市堺区","street":"西湊町"},{"zipCode":"5900047","prefectureKana":"ｵｵｻｶﾌ","cityKana":"ｻｶｲｼｻｶｲｸ","streetKana":"ﾆｼﾞｮｳﾄﾞｵﾘ","prefecture":"大阪府","city":"堺市堺区","street":"二条通"},{"zipCode":"5900803","prefectureKana":"ｵｵｻｶﾌ","cityKana":"ｻｶｲｼｻｶｲｸ","streetKana":"ﾋｶﾞｼｳｴﾉｼﾊﾞﾁｮｳ(1ﾁｮｳ)","prefecture":"大阪府","city":"堺市堺区","street":"東上野芝町（１丁）"},{"zipCode":"5900034","prefectureKana":"ｵｵｻｶﾌ","cityKana":"ｻｶｲｼｻｶｲｸ","streetKana":"ﾋｶﾞｼﾅｶﾞﾔﾏｴﾝ","prefecture":"大阪府","city":"堺市堺区","street":"東永山園"},{"zipCode":"5900829","prefectureKana":"ｵｵｻｶﾌ","cityKana":"ｻｶｲｼｻｶｲｸ","streetKana":"ﾋｶﾞｼﾐﾅﾄﾁｮｳ","prefecture":"大阪府","city":"堺市堺区","street":"東湊町"},{"zipCode":"5900903","prefectureKana":"ｵｵｻｶﾌ","cityKana":"ｻｶｲｼｻｶｲｸ","streetKana":"ﾏﾂﾔﾁｮｳ","prefecture":"大阪府","city":"堺市堺区","street":"松屋町"},{"zipCode":"5900902","prefectureKana":"ｵｵｻｶﾌ","cityKana":"ｻｶｲｼｻｶｲｸ","streetKana":"ﾏﾂﾔﾔﾏﾄｶﾞﾜﾄﾞｵﾘ","prefecture":"大阪府","city":"堺市堺区","street":"松屋大和川通"},{"zipCode":"5900028","prefectureKana":"ｵｵｻｶﾌ","cityKana":"ｻｶｲｼｻｶｲｸ","streetKana":"ﾐｸﾆｶﾞｵｶﾐﾕｷﾄﾞｵﾘ","prefecture":"大阪府","city":"堺市堺区","street":"三国ケ丘御幸通"},{"zipCode":"5900806","prefectureKana":"ｵｵｻｶﾌ","cityKana":"ｻｶｲｼｻｶｲｸ","streetKana":"ﾐﾄﾞﾘｶﾞｵｶｷﾀﾏﾁ","prefecture":"大阪府","city":"堺市堺区","street":"緑ヶ丘北町"},{"zipCode":"5900805","prefectureKana":"ｵｵｻｶﾌ","cityKana":"ｻｶｲｼｻｶｲｸ","streetKana":"ﾐﾄﾞﾘｶﾞｵｶﾅｶﾏﾁ","prefecture":"大阪府","city":"堺市堺区","street":"緑ヶ丘中町"},{"zipCode":"5900804","prefectureKana":"ｵｵｻｶﾌ","cityKana":"ｻｶｲｼｻｶｲｸ","streetKana":"ﾐﾄﾞﾘｶﾞｵｶﾐﾅﾐﾏﾁ","prefecture":"大阪府","city":"堺市堺区","street":"緑ヶ丘南町"},{"zipCode":"5900907","prefectureKana":"ｵｵｻｶﾌ","cityKana":"ｻｶｲｼｻｶｲｸ","streetKana":"ﾐﾄﾞﾘﾁｮｳ","prefecture":"大阪府","city":"堺市堺区","street":"緑町"},{"zipCode":"5900078","prefectureKana":"ｵｵｻｶﾌ","cityKana":"ｻｶｲｼｻｶｲｸ","streetKana":"ﾐﾅﾐｶﾜﾗﾏﾁ","prefecture":"大阪府","city":"堺市堺区","street":"南瓦町"},{"zipCode":"5900073","prefectureKana":"ｵｵｻｶﾌ","cityKana":"ｻｶｲｼｻｶｲｸ","streetKana":"ﾐﾅﾐｺｳﾖｳﾁｮｳ","prefecture":"大阪府","city":"堺市堺区","street":"南向陽町"},{"zipCode":"5900904","prefectureKana":"ｵｵｻｶﾌ","cityKana":"ｻｶｲｼｻｶｲｸ","streetKana":"ﾐﾅﾐｼﾞﾏﾁｮｳ","prefecture":"大阪府","city":"堺市堺区","street":"南島町"},{"zipCode":"5900005","prefectureKana":"ｵｵｻｶﾌ","cityKana":"ｻｶｲｼｻｶｲｸ","streetKana":"ﾐﾅﾐｼﾐｽﾞﾁｮｳ","prefecture":"大阪府","city":"堺市堺区","street":"南清水町"},{"zipCode":"5900008","prefectureKana":"ｵｵｻｶﾌ","cityKana":"ｻｶｲｼｻｶｲｸ","streetKana":"ﾐﾅﾐｼｮｳﾁｮｳ","prefecture":"大阪府","city":"堺市堺区","street":"南庄町"},{"zipCode":"5900015","prefectureKana":"ｵｵｻｶﾌ","cityKana":"ｻｶｲｼｻｶｲｸ","streetKana":"ﾐﾅﾐﾀﾃﾞｲﾁｮｳ","prefecture":"大阪府","city":"堺市堺区","street":"南田出井町"},{"zipCode":"5900968","prefectureKana":"ｵｵｻｶﾌ","cityKana":"ｻｶｲｼｻｶｲｸ","streetKana":"ﾐﾅﾐﾊﾀｺﾞﾁｮｳﾆｼ","prefecture":"大阪府","city":"堺市堺区","street":"南旅篭町西"},{"zipCode":"5900965","prefectureKana":"ｵｵｻｶﾌ","cityKana":"ｻｶｲｼｻｶｲｸ","streetKana":"ﾐﾅﾐﾊﾀｺﾞﾁｮｳﾋｶﾞｼ","prefecture":"大阪府","city":"堺市堺区","street":"南旅篭町東"},{"zipCode":"5900075","prefectureKana":"ｵｵｻｶﾌ","cityKana":"ｻｶｲｼｻｶｲｸ","streetKana":"ﾐﾅﾐﾊﾅﾀﾞｸﾞﾁﾁｮｳ","prefecture":"大阪府","city":"堺市堺区","street":"南花田口町"},{"zipCode":"5900967","prefectureKana":"ｵｵｻｶﾌ","cityKana":"ｻｶｲｼｻｶｲｸ","streetKana":"ﾐﾅﾐﾊﾝﾁｮｳﾆｼ","prefecture":"大阪府","city":"堺市堺区","street":"南半町西"},{"zipCode":"5900966","prefectureKana":"ｵｵｻｶﾌ","cityKana":"ｻｶｲｼｻｶｲｸ","streetKana":"ﾐﾅﾐﾊﾝﾁｮｳﾋｶﾞｼ","prefecture":"大阪府","city":"堺市堺区","street":"南半町東"},{"zipCode":"5900036","prefectureKana":"ｵｵｻｶﾌ","cityKana":"ｻｶｲｼｻｶｲｸ","streetKana":"ﾐﾅﾐﾏﾙﾎｴﾝ","prefecture":"大阪府","city":"堺市堺区","street":"南丸保園"},{"zipCode":"5900023","prefectureKana":"ｵｵｻｶﾌ","cityKana":"ｻｶｲｼｻｶｲｸ","streetKana":"ﾐﾅﾐﾐｸﾆｶﾞｵｶﾁｮｳ","prefecture":"大阪府","city":"堺市堺区","street":"南三国ケ丘町"},{"zipCode":"5900064","prefectureKana":"ｵｵｻｶﾌ","cityKana":"ｻｶｲｼｻｶｲｸ","streetKana":"ﾐﾅﾐﾔｽｲﾁｮｳ","prefecture":"大阪府","city":"堺市堺区","street":"南安井町"},{"zipCode":"5900802","prefectureKana":"ｵｵｻｶﾌ","cityKana":"ｻｶｲｼｻｶｲｸ","streetKana":"ﾓｽﾞｾｷｳﾝﾁｮｳ","prefecture":"大阪府","city":"堺市堺区","street":"百舌鳥夕雲町"},{"zipCode":"5900053","prefectureKana":"ｵｵｻｶﾌ","cityKana":"ｻｶｲｼｻｶｲｸ","streetKana":"ﾓﾝｼﾞｭﾊﾞｼﾄﾞｵﾘ","prefecture":"大阪府","city":"堺市堺区","street":"文珠橋通"},{"zipCode":"5900052","prefectureKana":"ｵｵｻｶﾌ","cityKana":"ｻｶｲｼｻｶｲｸ","streetKana":"ﾔﾁﾖﾄﾞｵﾘ","prefecture":"大阪府","city":"堺市堺区","street":"八千代通"},{"zipCode":"5900930","prefectureKana":"ｵｵｻｶﾌ","cityKana":"ｻｶｲｼｻｶｲｸ","streetKana":"ﾔﾅｷﾞﾉﾁｮｳﾆｼ","prefecture":"大阪府","city":"堺市堺区","street":"柳之町西"},{"zipCode":"5900933","prefectureKana":"ｵｵｻｶﾌ","cityKana":"ｻｶｲｼｻｶｲｸ","streetKana":"ﾔﾅｷﾞﾉﾁｮｳﾋｶﾞｼ","prefecture":"大阪府","city":"堺市堺区","street":"柳之町東"},{"zipCode":"5900828","prefectureKana":"ｵｵｻｶﾌ","cityKana":"ｻｶｲｼｻｶｲｸ","streetKana":"ﾔﾊﾀﾄﾞｵﾘ","prefecture":"大阪府","city":"堺市堺区","street":"八幡通"},{"zipCode":"5900983","prefectureKana":"ｵｵｻｶﾌ","cityKana":"ｻｶｲｼｻｶｲｸ","streetKana":"ﾔﾏﾓﾄﾁｮｳ","prefecture":"大阪府","city":"堺市堺区","street":"山本町"},{"zipCode":"5900972","prefectureKana":"ｵｵｻｶﾌ","cityKana":"ｻｶｲｼｻｶｲｸ","streetKana":"ﾘｭｳｼﾞﾝﾊﾞｼﾁｮｳ","prefecture":"大阪府","city":"堺市堺区","street":"竜神橋町"},{"zipCode":"5900041","prefectureKana":"ｵｵｻｶﾌ","cityKana":"ｻｶｲｼｻｶｲｸ","streetKana":"ﾘｮｳｻｲﾄﾞｵﾘ","prefecture":"大阪府","city":"堺市堺区","street":"陵西通"},{"zipCode":"5900043","prefectureKana":"ｵｵｻｶﾌ","cityKana":"ｻｶｲｼｻｶｲｸ","streetKana":"ﾛｸｼﾞｮｳﾄﾞｵﾘ","prefecture":"大阪府","city":"堺市堺区","street":"六条通"},{"zipCode":"5900100","prefectureKana":"ｵｵｻｶﾌ","cityKana":"ｻｶｲｼﾐﾅﾐｸ","streetKana":"ｲｶﾆｹｲｻｲｶﾞﾅｲﾊﾞｱｲ","prefecture":"大阪府","city":"堺市南区","street":"以下に掲載がない場合"},{"zipCode":"5900144","prefectureKana":"ｵｵｻｶﾌ","cityKana":"ｻｶｲｼﾐﾅﾐｸ","streetKana":"ｱｶｻｶﾀﾞｲ","prefecture":"大阪府","city":"堺市南区","street":"赤坂台"},{"zipCode":"5900126","prefectureKana":"ｵｵｻｶﾌ","cityKana":"ｻｶｲｼﾐﾅﾐｸ","streetKana":"ｲｽﾞﾐﾀﾅｶ","prefecture":"大阪府","city":"堺市南区","street":"泉田中"},{"zipCode":"5900156","prefectureKana":"ｵｵｻｶﾌ","cityKana":"ｻｶｲｼﾐﾅﾐｸ","streetKana":"ｲﾅﾊﾞ","prefecture":"大阪府","city":"堺市南区","street":"稲葉"},{"zipCode":"5900112","prefectureKana":"ｵｵｻｶﾌ","cityKana":"ｻｶｲｼﾐﾅﾐｸ","streetKana":"ｲﾜﾑﾛ","prefecture":"大阪府","city":"堺市南区","street":"岩室"},{"zipCode":"5900153","prefectureKana":"ｵｵｻｶﾌ","cityKana":"ｻｶｲｼﾐﾅﾐｸ","streetKana":"ｵｵﾊﾞﾃﾞﾗ","prefecture":"大阪府","city":"堺市南区","street":"大庭寺"},{"zipCode":"5900145","prefectureKana":"ｵｵｻｶﾌ","cityKana":"ｻｶｲｼﾐﾅﾐｸ","streetKana":"ｵｵﾓﾘ","prefecture":"大阪府","city":"堺市南区","street":"大森"},{"zipCode":"5900121","prefectureKana":"ｵｵｻｶﾌ","cityKana":"ｻｶｲｼﾐﾅﾐｸ","streetKana":"ｶﾀｸﾗ","prefecture":"大阪府","city":"堺市南区","street":"片蔵"},{"zipCode":"5900122","prefectureKana":"ｵｵｻｶﾌ","cityKana":"ｻｶｲｼﾐﾅﾐｸ","streetKana":"ｶﾏﾑﾛ","prefecture":"大阪府","city":"堺市南区","street":"釜室"},{"zipCode":"5900138","prefectureKana":"ｵｵｻｶﾌ","cityKana":"ｻｶｲｼﾐﾅﾐｸ","streetKana":"ｶﾓﾀﾆﾀﾞｲ","prefecture":"大阪府","city":"堺市南区","street":"鴨谷台"},{"zipCode":"5900151","prefectureKana":"ｵｵｻｶﾌ","cityKana":"ｻｶｲｼﾐﾅﾐｸ","streetKana":"ｺﾀﾞｲ(ｿﾉﾀ)","prefecture":"大阪府","city":"堺市南区","street":"小代（その他）"},{"zipCode":"5900123","prefectureKana":"ｵｵｻｶﾌ","cityKana":"ｻｶｲｼﾐﾅﾐｸ","streetKana":"ｻｶｾｶﾞﾜ","prefecture":"大阪府","city":"堺市南区","street":"逆瀬川"},{"zipCode":"5900137","prefectureKana":"ｵｵｻｶﾌ","cityKana":"ｻｶｲｼﾐﾅﾐｸ","streetKana":"ｼﾛﾔﾏﾀﾞｲ","prefecture":"大阪府","city":"堺市南区","street":"城山台"},{"zipCode":"5900143","prefectureKana":"ｵｵｻｶﾌ","cityKana":"ｻｶｲｼﾐﾅﾐｸ","streetKana":"ｼﾝﾋﾉｵﾀﾞｲ","prefecture":"大阪府","city":"堺市南区","street":"新檜尾台"},{"zipCode":"5900158","prefectureKana":"ｵｵｻｶﾌ","cityKana":"ｻｶｲｼﾐﾅﾐｸ","streetKana":"ﾀｲﾍｲｼﾞ(508-5､696-2-696-3､724-1､725-1､","prefecture":"大阪府","city":"堺市南区","street":"太平寺（５０８－５、６９６－２～６９６－３、７２４－１、７２５－１、"},{"zipCode":"5900158","prefectureKana":"ｵｵｻｶﾌ","cityKana":"ｻｶｲｼﾐﾅﾐｸ","streetKana":"726-1､727､728､728-1､729､730､731､732､","prefecture":"大阪府","city":"堺市南区","street":"７２６－１、７２７、７２８、７２８－１、７２９、７３０、７３１、７３２、"},{"zipCode":"5900158","prefectureKana":"ｵｵｻｶﾌ","cityKana":"ｻｶｲｼﾐﾅﾐｸ","streetKana":"733-1-733-2､735､786-3ﾊﾞﾝﾁ)","prefecture":"大阪府","city":"堺市南区","street":"７３３－１～７３３－２、７３５、７８６－３番地）"},{"zipCode":"5900157","prefectureKana":"ｵｵｻｶﾌ","cityKana":"ｻｶｲｼﾐﾅﾐｸ","streetKana":"ﾀｶｵ","prefecture":"大阪府","city":"堺市南区","street":"高尾"},{"zipCode":"5900117","prefectureKana":"ｵｵｻｶﾌ","cityKana":"ｻｶｲｼﾐﾅﾐｸ","streetKana":"ﾀｶｸﾗﾀﾞｲ","prefecture":"大阪府","city":"堺市南区","street":"高倉台"},{"zipCode":"5900105","prefectureKana":"ｵｵｻｶﾌ","cityKana":"ｻｶｲｼﾐﾅﾐｸ","streetKana":"ﾀｹｼﾛﾀﾞｲ","prefecture":"大阪府","city":"堺市南区","street":"竹城台"},{"zipCode":"5900115","prefectureKana":"ｵｵｻｶﾌ","cityKana":"ｻｶｲｼﾐﾅﾐｸ","streetKana":"ﾁｬﾔﾏﾀﾞｲ","prefecture":"大阪府","city":"堺市南区","street":"茶山台"},{"zipCode":"5900131","prefectureKana":"ｵｵｻｶﾌ","cityKana":"ｻｶｲｼﾐﾅﾐｸ","streetKana":"ﾄｶﾞ","prefecture":"大阪府","city":"堺市南区","street":"栂"},{"zipCode":"5900104","prefectureKana":"ｵｵｻｶﾌ","cityKana":"ｻｶｲｼﾐﾅﾐｸ","streetKana":"ﾄｻﾔﾀﾞｲ","prefecture":"大阪府","city":"堺市南区","street":"土佐屋台"},{"zipCode":"5900127","prefectureKana":"ｵｵｻｶﾌ","cityKana":"ｻｶｲｼﾐﾅﾐｸ","streetKana":"ﾄﾐｸﾗ","prefecture":"大阪府","city":"堺市南区","street":"富蔵"},{"zipCode":"5900106","prefectureKana":"ｵｵｻｶﾌ","cityKana":"ｻｶｲｼﾐﾅﾐｸ","streetKana":"ﾄﾖﾀﾞ","prefecture":"大阪府","city":"堺市南区","street":"豊田"},{"zipCode":"5900133","prefectureKana":"ｵｵｻｶﾌ","cityKana":"ｻｶｲｼﾐﾅﾐｸ","streetKana":"ﾆﾜｼﾛﾀﾞｲ","prefecture":"大阪府","city":"堺市南区","street":"庭代台"},{"zipCode":"5900155","prefectureKana":"ｵｵｻｶﾌ","cityKana":"ｻｶｲｼﾐﾅﾐｸ","streetKana":"ﾉﾉｲ","prefecture":"大阪府","city":"堺市南区","street":"野々井"},{"zipCode":"5900124","prefectureKana":"ｵｵｻｶﾌ","cityKana":"ｻｶｲｼﾐﾅﾐｸ","streetKana":"ﾊﾀ","prefecture":"大阪府","city":"堺市南区","street":"畑"},{"zipCode":"5900125","prefectureKana":"ｵｵｻｶﾌ","cityKana":"ｻｶｲｼﾐﾅﾐｸ","streetKana":"ﾊﾁｶﾞﾐﾈｼﾞ","prefecture":"大阪府","city":"堺市南区","street":"鉢ケ峯寺"},{"zipCode":"5900132","prefectureKana":"ｵｵｻｶﾌ","cityKana":"ｻｶｲｼﾐﾅﾐｸ","streetKana":"ﾊﾗﾔﾏﾀﾞｲ","prefecture":"大阪府","city":"堺市南区","street":"原山台"},{"zipCode":"5900113","prefectureKana":"ｵｵｻｶﾌ","cityKana":"ｻｶｲｼﾐﾅﾐｸ","streetKana":"ﾊﾙﾐﾀﾞｲ","prefecture":"大阪府","city":"堺市南区","street":"晴美台"},{"zipCode":"5900142","prefectureKana":"ｵｵｻｶﾌ","cityKana":"ｻｶｲｼﾐﾅﾐｸ","streetKana":"ﾋﾉｵ","prefecture":"大阪府","city":"堺市南区","street":"檜尾"},{"zipCode":"5900103","prefectureKana":"ｵｵｻｶﾌ","cityKana":"ｻｶｲｼﾐﾅﾐｸ","streetKana":"ﾌｶｻｶﾐﾅﾐ","prefecture":"大阪府","city":"堺市南区","street":"深阪南"},{"zipCode":"5900135","prefectureKana":"ｵｵｻｶﾌ","cityKana":"ｻｶｲｼﾐﾅﾐｸ","streetKana":"ﾍﾞｯｼﾖ","prefecture":"大阪府","city":"堺市南区","street":"別所"},{"zipCode":"5900114","prefectureKana":"ｵｵｻｶﾌ","cityKana":"ｻｶｲｼﾐﾅﾐｸ","streetKana":"ﾏｷﾂﾞｶﾀﾞｲ","prefecture":"大阪府","city":"堺市南区","street":"槇塚台"},{"zipCode":"5900134","prefectureKana":"ｵｵｻｶﾌ","cityKana":"ｻｶｲｼﾐﾅﾐｸ","streetKana":"ﾐｲｹﾀﾞｲ","prefecture":"大阪府","city":"堺市南区","street":"御池台"},{"zipCode":"5900136","prefectureKana":"ｵｵｻｶﾌ","cityKana":"ｻｶｲｼﾐﾅﾐｸ","streetKana":"ﾐｷﾀｶﾐ","prefecture":"大阪府","city":"堺市南区","street":"美木多上"},{"zipCode":"5900154","prefectureKana":"ｵｵｻｶﾌ","cityKana":"ｻｶｲｼﾐﾅﾐｸ","streetKana":"ﾐｷﾄｼﾞ","prefecture":"大阪府","city":"堺市南区","street":"三木閉"},{"zipCode":"5900111","prefectureKana":"ｵｵｻｶﾌ","cityKana":"ｻｶｲｼﾐﾅﾐｸ","streetKana":"ﾐﾊﾗﾀﾞｲ","prefecture":"大阪府","city":"堺市南区","street":"三原台"},{"zipCode":"5900101","prefectureKana":"ｵｵｻｶﾌ","cityKana":"ｻｶｲｼﾐﾅﾐｸ","streetKana":"ﾐﾔﾔﾏﾀﾞｲ","prefecture":"大阪府","city":"堺市南区","street":"宮山台"},{"zipCode":"5900141","prefectureKana":"ｵｵｻｶﾌ","cityKana":"ｻｶｲｼﾐﾅﾐｸ","streetKana":"ﾓﾓﾔﾏﾀﾞｲ","prefecture":"大阪府","city":"堺市南区","street":"桃山台"},{"zipCode":"5900116","prefectureKana":"ｵｵｻｶﾌ","cityKana":"ｻｶｲｼﾐﾅﾐｸ","streetKana":"ﾜｶﾏﾂﾀﾞｲ","prefecture":"大阪府","city":"堺市南区","street":"若松台"},{"zipCode":"5900152","prefectureKana":"ｵｵｻｶﾌ","cityKana":"ｻｶｲｼﾐﾅﾐｸ","streetKana":"ﾜﾀﾞ","prefecture":"大阪府","city":"堺市南区","street":"和田"},{"zipCode":"5900102","prefectureKana":"ｵｵｻｶﾌ","cityKana":"ｻｶｲｼﾐﾅﾐｸ","streetKana":"ﾜﾀﾞﾋｶﾞｼ","prefecture":"大阪府","city":"堺市南区","street":"和田東"},{"zipCode":"5900461","prefectureKana":"ｵｵｻｶﾌ","cityKana":"ｶｲﾂﾞｶｼ","streetKana":"ﾐﾂﾏﾂ(2576ﾊﾞﾝﾁ)","prefecture":"大阪府","city":"貝塚市","street":"三ツ松（２５７６番地）"},{"zipCode":"5900500","prefectureKana":"ｵｵｻｶﾌ","cityKana":"ｾﾝﾅﾝｼ","streetKana":"ｲｶﾆｹｲｻｲｶﾞﾅｲﾊﾞｱｲ","prefecture":"大阪府","city":"泉南市","street":"以下に掲載がない場合"},{"zipCode":"5900501","prefectureKana":"ｵｵｻｶﾌ","cityKana":"ｾﾝﾅﾝｼ","streetKana":"ｳｻｲﾀﾞ","prefecture":"大阪府","city":"泉南市","street":"兎田"},{"zipCode":"5900531","prefectureKana":"ｵｵｻｶﾌ","cityKana":"ｾﾝﾅﾝｼ","streetKana":"ｵｶﾀﾞ","prefecture":"大阪府","city":"泉南市","street":"岡田"},{"zipCode":"5900526","prefectureKana":"ｵｵｻｶﾌ","cityKana":"ｾﾝﾅﾝｼ","streetKana":"ｵﾉｻﾄ","prefecture":"大阪府","city":"泉南市","street":"男里"},{"zipCode":"5900532","prefectureKana":"ｵｵｻｶﾌ","cityKana":"ｾﾝﾅﾝｼ","streetKana":"ｷﾀﾉ","prefecture":"大阪府","city":"泉南市","street":"北野"},{"zipCode":"5900503","prefectureKana":"ｵｵｻｶﾌ","cityKana":"ｾﾝﾅﾝｼ","streetKana":"ｼﾝｹﾞ","prefecture":"大阪府","city":"泉南市","street":"新家"},{"zipCode":"5900504","prefectureKana":"ｵｵｻｶﾌ","cityKana":"ｾﾝﾅﾝｼ","streetKana":"ｼﾝﾀﾞﾁｲﾁﾊﾞ","prefecture":"大阪府","city":"泉南市","street":"信達市場"},{"zipCode":"5900523","prefectureKana":"ｵｵｻｶﾌ","cityKana":"ｾﾝﾅﾝｼ","streetKana":"ｼﾝﾀﾞﾁｵｶﾅｶ","prefecture":"大阪府","city":"泉南市","street":"信達岡中"},{"zipCode":"5900505","prefectureKana":"ｵｵｻｶﾌ","cityKana":"ｾﾝﾅﾝｼ","streetKana":"ｼﾝﾀﾞﾁｵﾉｼﾛ","prefecture":"大阪府","city":"泉南市","street":"信達大苗代"},{"zipCode":"5900514","prefectureKana":"ｵｵｻｶﾌ","cityKana":"ｾﾝﾅﾝｼ","streetKana":"ｼﾝﾀﾞﾁｷﾝﾕｳｼﾞ","prefecture":"大阪府","city":"泉南市","street":"信達金熊寺"},{"zipCode":"5900513","prefectureKana":"ｵｵｻｶﾌ","cityKana":"ｾﾝﾅﾝｼ","streetKana":"ｼﾝﾀﾞﾁｸｽﾊﾞﾀ","prefecture":"大阪府","city":"泉南市","street":"信達楠畑"},{"zipCode":"5900511","prefectureKana":"ｵｵｻｶﾌ","cityKana":"ｾﾝﾅﾝｼ","streetKana":"ｼﾝﾀﾞﾁﾂｽﾞﾗﾊﾞﾀ","prefecture":"大阪府","city":"泉南市","street":"信達葛畑"},{"zipCode":"5900522","prefectureKana":"ｵｵｻｶﾌ","cityKana":"ｾﾝﾅﾝｼ","streetKana":"ｼﾝﾀﾞﾁﾏｷﾉ","prefecture":"大阪府","city":"泉南市","street":"信達牧野"},{"zipCode":"5900515","prefectureKana":"ｵｵｻｶﾌ","cityKana":"ｾﾝﾅﾝｼ","streetKana":"ｼﾝﾀﾞﾁﾑﾂｵ","prefecture":"大阪府","city":"泉南市","street":"信達六尾"},{"zipCode":"5900512","prefectureKana":"ｵｵｻｶﾌ","cityKana":"ｾﾝﾅﾝｼ","streetKana":"ｼﾝﾀﾞﾁﾜﾗﾂﾞﾊﾀ","prefecture":"大阪府","city":"泉南市","street":"信達童子畑"},{"zipCode":"5900521","prefectureKana":"ｵｵｻｶﾌ","cityKana":"ｾﾝﾅﾝｼ","streetKana":"ﾀﾙｲ","prefecture":"大阪府","city":"泉南市","street":"樽井"},{"zipCode":"5900533","prefectureKana":"ｵｵｻｶﾌ","cityKana":"ｾﾝﾅﾝｼ","streetKana":"ﾅｺｳｼﾞ","prefecture":"大阪府","city":"泉南市","street":"中小路"},{"zipCode":"5900534","prefectureKana":"ｵｵｻｶﾌ","cityKana":"ｾﾝﾅﾝｼ","streetKana":"ﾅﾙﾀｷ","prefecture":"大阪府","city":"泉南市","street":"鳴滝"},{"zipCode":"5900525","prefectureKana":"ｵｵｻｶﾌ","cityKana":"ｾﾝﾅﾝｼ","streetKana":"ﾊﾞﾊﾞ","prefecture":"大阪府","city":"泉南市","street":"馬場"},{"zipCode":"5900524","prefectureKana":"ｵｵｻｶﾌ","cityKana":"ｾﾝﾅﾝｼ","streetKana":"ﾊﾀｼﾛ","prefecture":"大阪府","city":"泉南市","street":"幡代"},{"zipCode":"5900502","prefectureKana":"ｵｵｻｶﾌ","cityKana":"ｾﾝﾅﾝｼ","streetKana":"ﾍﾞｯｼﾖ","prefecture":"大阪府","city":"泉南市","street":"別所"},{"zipCode":"5900535","prefectureKana":"ｵｵｻｶﾌ","cityKana":"ｾﾝﾅﾝｼ","streetKana":"ﾘﾝｸｳﾐﾅﾐﾊﾏ","prefecture":"大阪府","city":"泉南市","street":"りんくう南浜"},{"zipCode":"5900400","prefectureKana":"ｵｵｻｶﾌ","cityKana":"ｾﾝﾅﾝｸﾞﾝｸﾏﾄﾘﾁｮｳ","streetKana":"ｲｶﾆｹｲｻｲｶﾞﾅｲﾊﾞｱｲ","prefecture":"大阪府","city":"泉南郡熊取町","street":"以下に掲載がない場合"},{"zipCode":"5900407","prefectureKana":"ｵｵｻｶﾌ","cityKana":"ｾﾝﾅﾝｸﾞﾝｸﾏﾄﾘﾁｮｳ","streetKana":"ｱｵﾊﾞﾀﾞｲ","prefecture":"大阪府","city":"泉南郡熊取町","street":"青葉台"},{"zipCode":"5900458","prefectureKana":"ｵｵｻｶﾌ","cityKana":"ｾﾝﾅﾝｸﾞﾝｸﾏﾄﾘﾁｮｳ","streetKana":"ｱｻｼﾛﾆｼ","prefecture":"大阪府","city":"泉南郡熊取町","street":"朝代西"},{"zipCode":"5900457","prefectureKana":"ｵｵｻｶﾌ","cityKana":"ｾﾝﾅﾝｸﾞﾝｸﾏﾄﾘﾁｮｳ","streetKana":"ｱｻｼﾛﾋｶﾞｼ","prefecture":"大阪府","city":"泉南郡熊取町","street":"朝代東"},{"zipCode":"5900459","prefectureKana":"ｵｵｻｶﾌ","cityKana":"ｾﾝﾅﾝｸﾞﾝｸﾏﾄﾘﾁｮｳ","streetKana":"ｱｻｼﾛﾀﾞｲ","prefecture":"大阪府","city":"泉南郡熊取町","street":"朝代台"},{"zipCode":"5900401","prefectureKana":"ｵｵｻｶﾌ","cityKana":"ｾﾝﾅﾝｸﾞﾝｸﾏﾄﾘﾁｮｳ","streetKana":"ｵｵｸﾎﾞ","prefecture":"大阪府","city":"泉南郡熊取町","street":"大久保"},{"zipCode":"5900402","prefectureKana":"ｵｵｻｶﾌ","cityKana":"ｾﾝﾅﾝｸﾞﾝｸﾏﾄﾘﾁｮｳ","streetKana":"ｵｵｸﾎﾞｷﾀ","prefecture":"大阪府","city":"泉南郡熊取町","street":"大久保北"},{"zipCode":"5900403","prefectureKana":"ｵｵｻｶﾌ","cityKana":"ｾﾝﾅﾝｸﾞﾝｸﾏﾄﾘﾁｮｳ","streetKana":"ｵｵｸﾎﾞﾅｶ","prefecture":"大阪府","city":"泉南郡熊取町","street":"大久保中"},{"zipCode":"5900404","prefectureKana":"ｵｵｻｶﾌ","cityKana":"ｾﾝﾅﾝｸﾞﾝｸﾏﾄﾘﾁｮｳ","streetKana":"ｵｵｸﾎﾞﾆｼ","prefecture":"大阪府","city":"泉南郡熊取町","street":"大久保西"},{"zipCode":"5900406","prefectureKana":"ｵｵｻｶﾌ","cityKana":"ｾﾝﾅﾝｸﾞﾝｸﾏﾄﾘﾁｮｳ","streetKana":"ｵｵｸﾎﾞﾋｶﾞｼ","prefecture":"大阪府","city":"泉南郡熊取町","street":"大久保東"},{"zipCode":"5900405","prefectureKana":"ｵｵｻｶﾌ","cityKana":"ｾﾝﾅﾝｸﾞﾝｸﾏﾄﾘﾁｮｳ","streetKana":"ｵｵｸﾎﾞﾐﾅﾐ","prefecture":"大阪府","city":"泉南郡熊取町","street":"大久保南"},{"zipCode":"5900450","prefectureKana":"ｵｵｻｶﾌ","cityKana":"ｾﾝﾅﾝｸﾞﾝｸﾏﾄﾘﾁｮｳ","streetKana":"ｵｵﾐﾔ","prefecture":"大阪府","city":"泉南郡熊取町","street":"大宮"},{"zipCode":"5900432","prefectureKana":"ｵｵｻｶﾌ","cityKana":"ｾﾝﾅﾝｸﾞﾝｸﾏﾄﾘﾁｮｳ","streetKana":"ｵｶﾞｲﾄ","prefecture":"大阪府","city":"泉南郡熊取町","street":"小垣内"},{"zipCode":"5900431","prefectureKana":"ｵｵｻｶﾌ","cityKana":"ｾﾝﾅﾝｸﾞﾝｸﾏﾄﾘﾁｮｳ","streetKana":"ｵﾀﾞﾆ","prefecture":"大阪府","city":"泉南郡熊取町","street":"小谷"},{"zipCode":"5900434","prefectureKana":"ｵｵｻｶﾌ","cityKana":"ｾﾝﾅﾝｸﾞﾝｸﾏﾄﾘﾁｮｳ","streetKana":"ｵﾀﾞﾆｷﾀ","prefecture":"大阪府","city":"泉南郡熊取町","street":"小谷北"},{"zipCode":"5900435","prefectureKana":"ｵｵｻｶﾌ","cityKana":"ｾﾝﾅﾝｸﾞﾝｸﾏﾄﾘﾁｮｳ","streetKana":"ｵﾀﾞﾆﾐﾅﾐ","prefecture":"大阪府","city":"泉南郡熊取町","street":"小谷南"},{"zipCode":"5900422","prefectureKana":"ｵｵｻｶﾌ","cityKana":"ｾﾝﾅﾝｸﾞﾝｸﾏﾄﾘﾁｮｳ","streetKana":"ｷﾎﾞｳｶﾞｵｶ","prefecture":"大阪府","city":"泉南郡熊取町","street":"希望が丘"},{"zipCode":"5900441","prefectureKana":"ｵｵｻｶﾌ","cityKana":"ｾﾝﾅﾝｸﾞﾝｸﾏﾄﾘﾁｮｳ","streetKana":"ｸﾎﾞ","prefecture":"大阪府","city":"泉南郡熊取町","street":"久保"},{"zipCode":"5900436","prefectureKana":"ｵｵｻｶﾌ","cityKana":"ｾﾝﾅﾝｸﾞﾝｸﾏﾄﾘﾁｮｳ","streetKana":"ｺｳﾀﾞ","prefecture":"大阪府","city":"泉南郡熊取町","street":"高田"},{"zipCode":"5900411","prefectureKana":"ｵｵｻｶﾌ","cityKana":"ｾﾝﾅﾝｸﾞﾝｸﾏﾄﾘﾁｮｳ","streetKana":"ｺﾞﾓﾝ","prefecture":"大阪府","city":"泉南郡熊取町","street":"五門"},{"zipCode":"5900415","prefectureKana":"ｵｵｻｶﾌ","cityKana":"ｾﾝﾅﾝｸﾞﾝｸﾏﾄﾘﾁｮｳ","streetKana":"ｺﾞﾓﾝﾆｼ","prefecture":"大阪府","city":"泉南郡熊取町","street":"五門西"},{"zipCode":"5900414","prefectureKana":"ｵｵｻｶﾌ","cityKana":"ｾﾝﾅﾝｸﾞﾝｸﾏﾄﾘﾁｮｳ","streetKana":"ｺﾞﾓﾝﾋｶﾞｼ","prefecture":"大阪府","city":"泉南郡熊取町","street":"五門東"},{"zipCode":"5900412","prefectureKana":"ｵｵｻｶﾌ","cityKana":"ｾﾝﾅﾝｸﾞﾝｸﾏﾄﾘﾁｮｳ","streetKana":"ｺﾝﾔ","prefecture":"大阪府","city":"泉南郡熊取町","street":"紺屋"},{"zipCode":"5900413","prefectureKana":"ｵｵｻｶﾌ","cityKana":"ｾﾝﾅﾝｸﾞﾝｸﾏﾄﾘﾁｮｳ","streetKana":"ｻｸﾗｶﾞｵｶ","prefecture":"大阪府","city":"泉南郡熊取町","street":"桜が丘"},{"zipCode":"5900445","prefectureKana":"ｵｵｻｶﾌ","cityKana":"ｾﾝﾅﾝｸﾞﾝｸﾏﾄﾘﾁｮｳ","streetKana":"ｻﾂｷｶﾞｵｶ","prefecture":"大阪府","city":"泉南郡熊取町","street":"五月ケ丘"},{"zipCode":"5900421","prefectureKana":"ｵｵｻｶﾌ","cityKana":"ｾﾝﾅﾝｸﾞﾝｸﾏﾄﾘﾁｮｳ","streetKana":"ｼﾁﾔﾏ","prefecture":"大阪府","city":"泉南郡熊取町","street":"七山"},{"zipCode":"5900425","prefectureKana":"ｵｵｻｶﾌ","cityKana":"ｾﾝﾅﾝｸﾞﾝｸﾏﾄﾘﾁｮｳ","streetKana":"ｼﾁﾔﾏﾋｶﾞｼ","prefecture":"大阪府","city":"泉南郡熊取町","street":"七山東"},{"zipCode":"5900427","prefectureKana":"ｵｵｻｶﾌ","cityKana":"ｾﾝﾅﾝｸﾞﾝｸﾏﾄﾘﾁｮｳ","streetKana":"ｼﾁﾔﾏﾆｼ","prefecture":"大阪府","city":"泉南郡熊取町","street":"七山西"},{"zipCode":"5900426","prefectureKana":"ｵｵｻｶﾌ","cityKana":"ｾﾝﾅﾝｸﾞﾝｸﾏﾄﾘﾁｮｳ","streetKana":"ｼﾁﾔﾏﾐﾅﾐ","prefecture":"大阪府","city":"泉南郡熊取町","street":"七山南"},{"zipCode":"5900424","prefectureKana":"ｵｵｻｶﾌ","cityKana":"ｾﾝﾅﾝｸﾞﾝｸﾏﾄﾘﾁｮｳ","streetKana":"ｼﾁﾔﾏｷﾀ","prefecture":"大阪府","city":"泉南郡熊取町","street":"七山北"},{"zipCode":"5900423","prefectureKana":"ｵｵｻｶﾌ","cityKana":"ｾﾝﾅﾝｸﾞﾝｸﾏﾄﾘﾁｮｳ","streetKana":"ｼﾞｭｳｶﾞｵｶ","prefecture":"大阪府","city":"泉南郡熊取町","street":"自由が丘"},{"zipCode":"5900454","prefectureKana":"ｵｵｻｶﾌ","cityKana":"ｾﾝﾅﾝｸﾞﾝｸﾏﾄﾘﾁｮｳ","streetKana":"ｼﾝﾉﾀﾞ","prefecture":"大阪府","city":"泉南郡熊取町","street":"新野田"},{"zipCode":"5900444","prefectureKana":"ｵｵｻｶﾌ","cityKana":"ｾﾝﾅﾝｸﾞﾝｸﾏﾄﾘﾁｮｳ","streetKana":"ﾂﾊﾞｻｶﾞｵｶｷﾀ","prefecture":"大阪府","city":"泉南郡熊取町","street":"つばさが丘北"},{"zipCode":"5900443","prefectureKana":"ｵｵｻｶﾌ","cityKana":"ｾﾝﾅﾝｸﾞﾝｸﾏﾄﾘﾁｮｳ","streetKana":"ﾂﾊﾞｻｶﾞｵｶﾆｼ","prefecture":"大阪府","city":"泉南郡熊取町","street":"つばさが丘西"},{"zipCode":"5900442","prefectureKana":"ｵｵｻｶﾌ","cityKana":"ｾﾝﾅﾝｸﾞﾝｸﾏﾄﾘﾁｮｳ","streetKana":"ﾂﾊﾞｻｶﾞｵｶﾋｶﾞｼ","prefecture":"大阪府","city":"泉南郡熊取町","street":"つばさが丘東"},{"zipCode":"5900416","prefectureKana":"ｵｵｻｶﾌ","cityKana":"ｾﾝﾅﾝｸﾞﾝｸﾏﾄﾘﾁｮｳ","streetKana":"ﾄｳﾜｴﾝ","prefecture":"大阪府","city":"泉南郡熊取町","street":"東和苑"},{"zipCode":"5900455","prefectureKana":"ｵｵｻｶﾌ","cityKana":"ｾﾝﾅﾝｸﾞﾝｸﾏﾄﾘﾁｮｳ","streetKana":"ﾅｶﾞｲｹ","prefecture":"大阪府","city":"泉南郡熊取町","street":"長池"},{"zipCode":"5900447","prefectureKana":"ｵｵｻｶﾌ","cityKana":"ｾﾝﾅﾝｸﾞﾝｸﾏﾄﾘﾁｮｳ","streetKana":"ﾅﾘｱｲﾋｶﾞｼ","prefecture":"大阪府","city":"泉南郡熊取町","street":"成合東"},{"zipCode":"5900449","prefectureKana":"ｵｵｻｶﾌ","cityKana":"ｾﾝﾅﾝｸﾞﾝｸﾏﾄﾘﾁｮｳ","streetKana":"ﾅﾘｱｲﾆｼ","prefecture":"大阪府","city":"泉南郡熊取町","street":"成合西"},{"zipCode":"5900448","prefectureKana":"ｵｵｻｶﾌ","cityKana":"ｾﾝﾅﾝｸﾞﾝｸﾏﾄﾘﾁｮｳ","streetKana":"ﾅﾘｱｲﾐﾅﾐ","prefecture":"大阪府","city":"泉南郡熊取町","street":"成合南"},{"zipCode":"5900446","prefectureKana":"ｵｵｻｶﾌ","cityKana":"ｾﾝﾅﾝｸﾞﾝｸﾏﾄﾘﾁｮｳ","streetKana":"ﾅﾘｱｲｷﾀ","prefecture":"大阪府","city":"泉南郡熊取町","street":"成合北"},{"zipCode":"5900451","prefectureKana":"ｵｵｻｶﾌ","cityKana":"ｾﾝﾅﾝｸﾞﾝｸﾏﾄﾘﾁｮｳ","streetKana":"ﾉﾀﾞ","prefecture":"大阪府","city":"泉南郡熊取町","street":"野田"},{"zipCode":"5900456","prefectureKana":"ｵｵｻｶﾌ","cityKana":"ｾﾝﾅﾝｸﾞﾝｸﾏﾄﾘﾁｮｳ","streetKana":"ﾐｸﾏﾀﾞｲ","prefecture":"大阪府","city":"泉南郡熊取町","street":"美熊台"},{"zipCode":"5900453","prefectureKana":"ｵｵｻｶﾌ","cityKana":"ｾﾝﾅﾝｸﾞﾝｸﾏﾄﾘﾁｮｳ","streetKana":"ﾐﾅﾐﾔﾏﾉﾃﾀﾞｲ","prefecture":"大阪府","city":"泉南郡熊取町","street":"南山の手台"},{"zipCode":"5900452","prefectureKana":"ｵｵｻｶﾌ","cityKana":"ｾﾝﾅﾝｸﾞﾝｸﾏﾄﾘﾁｮｳ","streetKana":"ﾔﾏﾉﾃﾀﾞｲ","prefecture":"大阪府","city":"泉南郡熊取町","street":"山の手台"},{"zipCode":"5900433","prefectureKana":"ｵｵｻｶﾌ","cityKana":"ｾﾝﾅﾝｸﾞﾝｸﾏﾄﾘﾁｮｳ","streetKana":"ﾜｶﾊﾞ","prefecture":"大阪府","city":"泉南郡熊取町","street":"若葉"},{"zipCode":"5900417","prefectureKana":"ｵｵｻｶﾌ","cityKana":"ｾﾝﾅﾝｸﾞﾝｸﾏﾄﾘﾁｮｳ","streetKana":"ﾜﾀﾞ","prefecture":"大阪府","city":"泉南郡熊取町","street":"和田"}]