[{"zipCode":"5910000","prefectureKana":"ｵｵｻｶﾌ","cityKana":"ｻｶｲｼｷﾀｸ","streetKana":"ｲｶﾆｹｲｻｲｶﾞﾅｲﾊﾞｱｲ","prefecture":"大阪府","city":"堺市北区","street":"以下に掲載がない場合"},{"zipCode":"5918007","prefectureKana":"ｵｵｻｶﾌ","cityKana":"ｻｶｲｼｷﾀｸ","streetKana":"ｵｸﾓﾄﾁｮｳ","prefecture":"大阪府","city":"堺市北区","street":"奥本町"},{"zipCode":"5918022","prefectureKana":"ｵｵｻｶﾌ","cityKana":"ｻｶｲｼｷﾀｸ","streetKana":"ｶﾅｵｶﾁｮｳ","prefecture":"大阪府","city":"堺市北区","street":"金岡町"},{"zipCode":"5918043","prefectureKana":"ｵｵｻｶﾌ","cityKana":"ｻｶｲｼｷﾀｸ","streetKana":"ｷﾀﾅｶﾞｵﾁｮｳ","prefecture":"大阪府","city":"堺市北区","street":"北長尾町"},{"zipCode":"5918002","prefectureKana":"ｵｵｻｶﾌ","cityKana":"ｻｶｲｼｷﾀｸ","streetKana":"ｷﾀﾊﾅﾀﾞﾁｮｳ","prefecture":"大阪府","city":"堺市北区","street":"北花田町"},{"zipCode":"5918004","prefectureKana":"ｵｵｻｶﾌ","cityKana":"ｻｶｲｼｷﾀｸ","streetKana":"ｸﾗﾏｴﾁｮｳ","prefecture":"大阪府","city":"堺市北区","street":"蔵前町"},{"zipCode":"5918024","prefectureKana":"ｵｵｻｶﾌ","cityKana":"ｻｶｲｼｷﾀｸ","streetKana":"ｸﾛﾂﾁﾁｮｳ","prefecture":"大阪府","city":"堺市北区","street":"黒土町"},{"zipCode":"5918041","prefectureKana":"ｵｵｻｶﾌ","cityKana":"ｻｶｲｼｷﾀｸ","streetKana":"ｼﾉﾉﾒﾋｶﾞｼﾏﾁ","prefecture":"大阪府","city":"堺市北区","street":"東雲東町"},{"zipCode":"5918021","prefectureKana":"ｵｵｻｶﾌ","cityKana":"ｻｶｲｼｷﾀｸ","streetKana":"ｼﾝｶﾅｵｶﾁｮｳ","prefecture":"大阪府","city":"堺市北区","street":"新金岡町"},{"zipCode":"5918005","prefectureKana":"ｵｵｻｶﾌ","cityKana":"ｻｶｲｼｷﾀｸ","streetKana":"ｼﾝﾎﾞﾘﾁｮｳ","prefecture":"大阪府","city":"堺市北区","street":"新堀町"},{"zipCode":"5918003","prefectureKana":"ｵｵｻｶﾌ","cityKana":"ｻｶｲｼｷﾀｸ","streetKana":"ｾﾝﾄﾞｳﾁｮｳ","prefecture":"大阪府","city":"堺市北区","street":"船堂町"},{"zipCode":"5918001","prefectureKana":"ｵｵｻｶﾌ","cityKana":"ｻｶｲｼｷﾀｸ","streetKana":"ﾄｷﾜﾁｮｳ","prefecture":"大阪府","city":"堺市北区","street":"常磐町"},{"zipCode":"5918025","prefectureKana":"ｵｵｻｶﾌ","cityKana":"ｻｶｲｼｷﾀｸ","streetKana":"ﾅｶﾞｿﾈﾁｮｳ","prefecture":"大阪府","city":"堺市北区","street":"長曽根町"},{"zipCode":"5918044","prefectureKana":"ｵｵｻｶﾌ","cityKana":"ｻｶｲｼｷﾀｸ","streetKana":"ﾅｶﾅｶﾞｵﾁｮｳ","prefecture":"大阪府","city":"堺市北区","street":"中長尾町"},{"zipCode":"5918012","prefectureKana":"ｵｵｻｶﾌ","cityKana":"ｻｶｲｼｷﾀｸ","streetKana":"ﾅｶﾑﾗﾁｮｳ","prefecture":"大阪府","city":"堺市北区","street":"中村町"},{"zipCode":"5918023","prefectureKana":"ｵｵｻｶﾌ","cityKana":"ｻｶｲｼｷﾀｸ","streetKana":"ﾅｶﾓｽﾞﾁｮｳ","prefecture":"大阪府","city":"堺市北区","street":"中百舌鳥町"},{"zipCode":"5918013","prefectureKana":"ｵｵｻｶﾌ","cityKana":"ｻｶｲｼｷﾀｸ","streetKana":"ﾉﾄｳﾁｮｳ","prefecture":"大阪府","city":"堺市北区","street":"野遠町"},{"zipCode":"5918008","prefectureKana":"ｵｵｻｶﾌ","cityKana":"ｻｶｲｼｷﾀｸ","streetKana":"ﾋｶﾞｼｱｻｶﾔﾏﾁｮｳ","prefecture":"大阪府","city":"堺市北区","street":"東浅香山町"},{"zipCode":"5918035","prefectureKana":"ｵｵｻｶﾌ","cityKana":"ｻｶｲｼｷﾀｸ","streetKana":"ﾋｶﾞｼｳｴﾉｼﾊﾞﾁｮｳ(2ﾁｮｳ)","prefecture":"大阪府","city":"堺市北区","street":"東上野芝町（２丁）"},{"zipCode":"5918046","prefectureKana":"ｵｵｻｶﾌ","cityKana":"ｻｶｲｼｷﾀｸ","streetKana":"ﾋｶﾞｼﾐｸﾆｶﾞｵｶﾁｮｳ","prefecture":"大阪府","city":"堺市北区","street":"東三国ケ丘町"},{"zipCode":"5918042","prefectureKana":"ｵｵｻｶﾌ","cityKana":"ｻｶｲｼｷﾀｸ","streetKana":"ﾏﾒﾂﾞｶﾁｮｳ","prefecture":"大阪府","city":"堺市北区","street":"大豆塚町"},{"zipCode":"5918045","prefectureKana":"ｵｵｻｶﾌ","cityKana":"ｻｶｲｼｷﾀｸ","streetKana":"ﾐﾅﾐﾅｶﾞｵﾁｮｳ","prefecture":"大阪府","city":"堺市北区","street":"南長尾町"},{"zipCode":"5918011","prefectureKana":"ｵｵｻｶﾌ","cityKana":"ｻｶｲｼｷﾀｸ","streetKana":"ﾐﾅﾐﾊﾅﾀﾞﾁｮｳ","prefecture":"大阪府","city":"堺市北区","street":"南花田町"},{"zipCode":"5918006","prefectureKana":"ｵｵｻｶﾌ","cityKana":"ｻｶｲｼｷﾀｸ","streetKana":"ﾐﾔﾓﾄﾁｮｳ","prefecture":"大阪府","city":"堺市北区","street":"宮本町"},{"zipCode":"5918037","prefectureKana":"ｵｵｻｶﾌ","cityKana":"ｻｶｲｼｷﾀｸ","streetKana":"ﾓｽﾞｱｶﾊﾀﾁｮｳ","prefecture":"大阪府","city":"堺市北区","street":"百舌鳥赤畑町"},{"zipCode":"5918031","prefectureKana":"ｵｵｻｶﾌ","cityKana":"ｻｶｲｼｷﾀｸ","streetKana":"ﾓｽﾞｳﾒｷﾀﾁｮｳ","prefecture":"大阪府","city":"堺市北区","street":"百舌鳥梅北町"},{"zipCode":"5918032","prefectureKana":"ｵｵｻｶﾌ","cityKana":"ｻｶｲｼｷﾀｸ","streetKana":"ﾓｽﾞｳﾒﾏﾁ","prefecture":"大阪府","city":"堺市北区","street":"百舌鳥梅町"},{"zipCode":"5918033","prefectureKana":"ｵｵｻｶﾌ","cityKana":"ｻｶｲｼｷﾀｸ","streetKana":"ﾓｽﾞﾆｼﾉﾁｮｳ","prefecture":"大阪府","city":"堺市北区","street":"百舌鳥西之町"},{"zipCode":"5918036","prefectureKana":"ｵｵｻｶﾌ","cityKana":"ｻｶｲｼｷﾀｸ","streetKana":"ﾓｽﾞﾎﾝﾏﾁ","prefecture":"大阪府","city":"堺市北区","street":"百舌鳥本町"},{"zipCode":"5918034","prefectureKana":"ｵｵｻｶﾌ","cityKana":"ｻｶｲｼｷﾀｸ","streetKana":"ﾓｽﾞﾘｮｳﾅﾝﾁｮｳ","prefecture":"大阪府","city":"堺市北区","street":"百舌鳥陵南町"},{"zipCode":"5918014","prefectureKana":"ｵｵｻｶﾌ","cityKana":"ｻｶｲｼｷﾀｸ","streetKana":"ﾔｼﾓｷﾀ","prefecture":"大阪府","city":"堺市北区","street":"八下北"}]