[{"zipCode":"5990000","prefectureKana":"ｵｵｻｶﾌ","cityKana":"ｻｶｲｼﾅｶｸ","streetKana":"ｲｶﾆｹｲｻｲｶﾞﾅｲﾊﾞｱｲ","prefecture":"大阪府","city":"堺市中区","street":"以下に掲載がない場合"},{"zipCode":"5998244","prefectureKana":"ｵｵｻｶﾌ","cityKana":"ｻｶｲｼﾅｶｸ","streetKana":"ｳｴﾉ","prefecture":"大阪府","city":"堺市中区","street":"上之"},{"zipCode":"5998233","prefectureKana":"ｵｵｻｶﾌ","cityKana":"ｻｶｲｼﾅｶｸ","streetKana":"ｵｵﾉｼﾊﾞﾁｮｳ","prefecture":"大阪府","city":"堺市中区","street":"大野芝町"},{"zipCode":"5998231","prefectureKana":"ｵｵｻｶﾌ","cityKana":"ｻｶｲｼﾅｶｸ","streetKana":"ｶﾞｸｴﾝﾁｮｳ","prefecture":"大阪府","city":"堺市中区","street":"学園町"},{"zipCode":"5998266","prefectureKana":"ｵｵｻｶﾌ","cityKana":"ｻｶｲｼﾅｶｸ","streetKana":"ｹﾅﾁｮｳ","prefecture":"大阪府","city":"堺市中区","street":"毛穴町"},{"zipCode":"5998276","prefectureKana":"ｵｵｻｶﾌ","cityKana":"ｻｶｲｼﾅｶｸ","streetKana":"ｺｻｶ","prefecture":"大阪府","city":"堺市中区","street":"小阪"},{"zipCode":"5998264","prefectureKana":"ｵｵｻｶﾌ","cityKana":"ｻｶｲｼﾅｶｸ","streetKana":"ｺｻｶﾆｼﾏﾁ","prefecture":"大阪府","city":"堺市中区","street":"小阪西町"},{"zipCode":"5998232","prefectureKana":"ｵｵｻｶﾌ","cityKana":"ｻｶｲｼﾅｶｸ","streetKana":"ｼﾝｹﾁｮｳ","prefecture":"大阪府","city":"堺市中区","street":"新家町"},{"zipCode":"5998246","prefectureKana":"ｵｵｻｶﾌ","cityKana":"ｻｶｲｼﾅｶｸ","streetKana":"ﾀｿﾞﾉ","prefecture":"大阪府","city":"堺市中区","street":"田園"},{"zipCode":"5998245","prefectureKana":"ｵｵｻｶﾌ","cityKana":"ｻｶｲｼﾅｶｸ","streetKana":"ﾂｼﾞﾉ","prefecture":"大阪府","city":"堺市中区","street":"辻之"},{"zipCode":"5998242","prefectureKana":"ｵｵｻｶﾌ","cityKana":"ｻｶｲｼﾅｶｸ","streetKana":"ﾄｳｷｷﾀ","prefecture":"大阪府","city":"堺市中区","street":"陶器北"},{"zipCode":"5998234","prefectureKana":"ｵｵｻｶﾌ","cityKana":"ｻｶｲｼﾅｶｸ","streetKana":"ﾄﾞﾄｳﾁｮｳ","prefecture":"大阪府","city":"堺市中区","street":"土塔町"},{"zipCode":"5998252","prefectureKana":"ｵｵｻｶﾌ","cityKana":"ｻｶｲｼﾅｶｸ","streetKana":"ﾅﾗﾊﾞ","prefecture":"大阪府","city":"堺市中区","street":"楢葉"},{"zipCode":"5998238","prefectureKana":"ｵｵｻｶﾌ","cityKana":"ｻｶｲｼﾅｶｸ","streetKana":"ﾊｾﾞﾁｮｳ","prefecture":"大阪府","city":"堺市中区","street":"土師町"},{"zipCode":"5998267","prefectureKana":"ｵｵｻｶﾌ","cityKana":"ｻｶｲｼﾅｶｸ","streetKana":"ﾊﾝﾀﾞｲｼﾞﾁｮｳ(ｿﾉﾀ)","prefecture":"大阪府","city":"堺市中区","street":"八田寺町（その他）"},{"zipCode":"5998262","prefectureKana":"ｵｵｻｶﾌ","cityKana":"ｻｶｲｼﾅｶｸ","streetKana":"ﾊﾝﾀﾞｷﾀﾁｮｳ","prefecture":"大阪府","city":"堺市中区","street":"八田北町"},{"zipCode":"5998265","prefectureKana":"ｵｵｻｶﾌ","cityKana":"ｻｶｲｼﾅｶｸ","streetKana":"ﾊﾝﾀﾞﾆｼﾏﾁ","prefecture":"大阪府","city":"堺市中区","street":"八田西町"},{"zipCode":"5998263","prefectureKana":"ｵｵｻｶﾌ","cityKana":"ｻｶｲｼﾅｶｸ","streetKana":"ﾊﾝﾀﾞﾐﾅﾐﾉﾁｮｳ","prefecture":"大阪府","city":"堺市中区","street":"八田南之町"},{"zipCode":"5998275","prefectureKana":"ｵｵｻｶﾌ","cityKana":"ｻｶｲｼﾅｶｸ","streetKana":"ﾋｶﾞｼﾊﾝﾀﾞ","prefecture":"大阪府","city":"堺市中区","street":"東八田"},{"zipCode":"5998247","prefectureKana":"ｵｵｻｶﾌ","cityKana":"ｻｶｲｼﾅｶｸ","streetKana":"ﾋｶﾞｼﾔﾏ","prefecture":"大阪府","city":"堺市中区","street":"東山"},{"zipCode":"5998251","prefectureKana":"ｵｵｻｶﾌ","cityKana":"ｻｶｲｼﾅｶｸ","streetKana":"ﾋﾗｲ","prefecture":"大阪府","city":"堺市中区","street":"平井"},{"zipCode":"5998271","prefectureKana":"ｵｵｻｶﾌ","cityKana":"ｻｶｲｼﾅｶｸ","streetKana":"ﾌｶｲｷﾀﾏﾁ","prefecture":"大阪府","city":"堺市中区","street":"深井北町"},{"zipCode":"5998236","prefectureKana":"ｵｵｻｶﾌ","cityKana":"ｻｶｲｼﾅｶｸ","streetKana":"ﾌｶｲｻﾜﾏﾁ","prefecture":"大阪府","city":"堺市中区","street":"深井沢町"},{"zipCode":"5998273","prefectureKana":"ｵｵｻｶﾌ","cityKana":"ｻｶｲｼﾅｶｸ","streetKana":"ﾌｶｲｼﾐｽﾞﾁｮｳ","prefecture":"大阪府","city":"堺市中区","street":"深井清水町"},{"zipCode":"5998272","prefectureKana":"ｵｵｻｶﾌ","cityKana":"ｻｶｲｼﾅｶｸ","streetKana":"ﾌｶｲﾅｶﾏﾁ","prefecture":"大阪府","city":"堺市中区","street":"深井中町"},{"zipCode":"5998248","prefectureKana":"ｵｵｻｶﾌ","cityKana":"ｻｶｲｼﾅｶｸ","streetKana":"ﾌｶｲﾊﾀﾔﾏﾁｮｳ","prefecture":"大阪府","city":"堺市中区","street":"深井畑山町"},{"zipCode":"5998235","prefectureKana":"ｵｵｻｶﾌ","cityKana":"ｻｶｲｼﾅｶｸ","streetKana":"ﾌｶｲﾋｶﾞｼﾏﾁ","prefecture":"大阪府","city":"堺市中区","street":"深井東町"},{"zipCode":"5998237","prefectureKana":"ｵｵｻｶﾌ","cityKana":"ｻｶｲｼﾅｶｸ","streetKana":"ﾌｶｲﾐｽﾞｶﾞｲｹﾁｮｳ","prefecture":"大阪府","city":"堺市中区","street":"深井水池町"},{"zipCode":"5998253","prefectureKana":"ｵｵｻｶﾌ","cityKana":"ｻｶｲｼﾅｶｸ","streetKana":"ﾌｶｻｶ","prefecture":"大阪府","city":"堺市中区","street":"深阪"},{"zipCode":"5998241","prefectureKana":"ｵｵｻｶﾌ","cityKana":"ｻｶｲｼﾅｶｸ","streetKana":"ﾌｸﾀﾞ","prefecture":"大阪府","city":"堺市中区","street":"福田"},{"zipCode":"5998254","prefectureKana":"ｵｵｻｶﾌ","cityKana":"ｻｶｲｼﾅｶｸ","streetKana":"ﾌｾｵ","prefecture":"大阪府","city":"堺市中区","street":"伏尾"},{"zipCode":"5998261","prefectureKana":"ｵｵｻｶﾌ","cityKana":"ｻｶｲｼﾅｶｸ","streetKana":"ﾎﾘｱｹﾞﾁｮｳ","prefecture":"大阪府","city":"堺市中区","street":"堀上町"},{"zipCode":"5998243","prefectureKana":"ｵｵｻｶﾌ","cityKana":"ｻｶｲｼﾅｶｸ","streetKana":"ﾐﾉﾔﾏ","prefecture":"大阪府","city":"堺市中区","street":"見野山"},{"zipCode":"5998274","prefectureKana":"ｵｵｻｶﾌ","cityKana":"ｻｶｲｼﾅｶｸ","streetKana":"ﾐﾔｿﾞﾉﾁｮｳ","prefecture":"大阪府","city":"堺市中区","street":"宮園町"},{"zipCode":"5990000","prefectureKana":"ｵｵｻｶﾌ","cityKana":"ｻｶｲｼﾋｶﾞｼｸ","streetKana":"ｲｶﾆｹｲｻｲｶﾞﾅｲﾊﾞｱｲ","prefecture":"大阪府","city":"堺市東区","street":"以下に掲載がない場合"},{"zipCode":"5998102","prefectureKana":"ｵｵｻｶﾌ","cityKana":"ｻｶｲｼﾋｶﾞｼｸ","streetKana":"ｲｼﾊﾗﾁｮｳ","prefecture":"大阪府","city":"堺市東区","street":"石原町"},{"zipCode":"5998126","prefectureKana":"ｵｵｻｶﾌ","cityKana":"ｻｶｲｼﾋｶﾞｼｸ","streetKana":"ｵｵﾐﾉ","prefecture":"大阪府","city":"堺市東区","street":"大美野"},{"zipCode":"5998123","prefectureKana":"ｵｵｻｶﾌ","cityKana":"ｻｶｲｼﾋｶﾞｼｸ","streetKana":"ｷﾀﾉﾀﾞ","prefecture":"大阪府","city":"堺市東区","street":"北野田"},{"zipCode":"5998127","prefectureKana":"ｵｵｻｶﾌ","cityKana":"ｻｶｲｼﾋｶﾞｼｸ","streetKana":"ｸｻｵ","prefecture":"大阪府","city":"堺市東区","street":"草尾"},{"zipCode":"5998122","prefectureKana":"ｵｵｻｶﾌ","cityKana":"ｻｶｲｼﾋｶﾞｼｸ","streetKana":"ｼﾞｮｳﾛｸ","prefecture":"大阪府","city":"堺市東区","street":"丈六"},{"zipCode":"5998107","prefectureKana":"ｵｵｻｶﾌ","cityKana":"ｻｶｲｼﾋｶﾞｼｸ","streetKana":"ｼﾗｻｷﾞﾁｮｳ","prefecture":"大阪府","city":"堺市東区","street":"白鷺町"},{"zipCode":"5998115","prefectureKana":"ｵｵｻｶﾌ","cityKana":"ｻｶｲｼﾋｶﾞｼｸ","streetKana":"ｾｷﾁｬﾔ","prefecture":"大阪府","city":"堺市東区","street":"関茶屋"},{"zipCode":"5998121","prefectureKana":"ｵｵｻｶﾌ","cityKana":"ｻｶｲｼﾋｶﾞｼｸ","streetKana":"ﾀｶﾏﾂ","prefecture":"大阪府","city":"堺市東区","street":"高松"},{"zipCode":"5998128","prefectureKana":"ｵｵｻｶﾌ","cityKana":"ｻｶｲｼﾋｶﾞｼｸ","streetKana":"ﾅｶﾁｬﾔ","prefecture":"大阪府","city":"堺市東区","street":"中茶屋"},{"zipCode":"5998125","prefectureKana":"ｵｵｻｶﾌ","cityKana":"ｻｶｲｼﾋｶﾞｼｸ","streetKana":"ﾆｼﾉ","prefecture":"大阪府","city":"堺市東区","street":"西野"},{"zipCode":"5998116","prefectureKana":"ｵｵｻｶﾌ","cityKana":"ｻｶｲｼﾋｶﾞｼｸ","streetKana":"ﾉｼﾞﾘﾁｮｳ","prefecture":"大阪府","city":"堺市東区","street":"野尻町"},{"zipCode":"5998111","prefectureKana":"ｵｵｻｶﾌ","cityKana":"ｻｶｲｼﾋｶﾞｼｸ","streetKana":"ﾋｷｼｮｳｷﾀﾏﾁ","prefecture":"大阪府","city":"堺市東区","street":"日置荘北町"},{"zipCode":"5998113","prefectureKana":"ｵｵｻｶﾌ","cityKana":"ｻｶｲｼﾋｶﾞｼｸ","streetKana":"ﾋｷｼｮｳﾀﾅｶﾏﾁ","prefecture":"大阪府","city":"堺市東区","street":"日置荘田中町"},{"zipCode":"5998114","prefectureKana":"ｵｵｻｶﾌ","cityKana":"ｻｶｲｼﾋｶﾞｼｸ","streetKana":"ﾋｷｼｮｳﾆｼﾏﾁ","prefecture":"大阪府","city":"堺市東区","street":"日置荘西町"},{"zipCode":"5998112","prefectureKana":"ｵｵｻｶﾌ","cityKana":"ｻｶｲｼﾋｶﾞｼｸ","streetKana":"ﾋｷｼｮｳﾊﾗﾃﾞﾗﾏﾁ","prefecture":"大阪府","city":"堺市東区","street":"日置荘原寺町"},{"zipCode":"5998104","prefectureKana":"ｵｵｻｶﾌ","cityKana":"ｻｶｲｼﾋｶﾞｼｸ","streetKana":"ﾋｷﾉﾁｮｳ","prefecture":"大阪府","city":"堺市東区","street":"引野町"},{"zipCode":"5998103","prefectureKana":"ｵｵｻｶﾌ","cityKana":"ｻｶｲｼﾋｶﾞｼｸ","streetKana":"ﾎﾞﾀﾞｲﾁｮｳ","prefecture":"大阪府","city":"堺市東区","street":"菩提町"},{"zipCode":"5998124","prefectureKana":"ｵｵｻｶﾌ","cityKana":"ｻｶｲｼﾋｶﾞｼｸ","streetKana":"ﾐﾅﾐﾉﾀﾞ","prefecture":"大阪府","city":"堺市東区","street":"南野田"},{"zipCode":"5998101","prefectureKana":"ｵｵｻｶﾌ","cityKana":"ｻｶｲｼﾋｶﾞｼｸ","streetKana":"ﾔｼﾓﾁｮｳ","prefecture":"大阪府","city":"堺市東区","street":"八下町"},{"zipCode":"5990200","prefectureKana":"ｵｵｻｶﾌ","cityKana":"ﾊﾝﾅﾝｼ","streetKana":"ｲｶﾆｹｲｻｲｶﾞﾅｲﾊﾞｱｲ","prefecture":"大阪府","city":"阪南市","street":"以下に掲載がない場合"},{"zipCode":"5990221","prefectureKana":"ｵｵｻｶﾌ","cityKana":"ﾊﾝﾅﾝｼ","streetKana":"ｲｼﾀﾞ","prefecture":"大阪府","city":"阪南市","street":"石田"},{"zipCode":"5990213","prefectureKana":"ｵｵｻｶﾌ","cityKana":"ﾊﾝﾅﾝｼ","streetKana":"ｲｽﾞﾐﾄｯﾄﾘ","prefecture":"大阪府","city":"阪南市","street":"和泉鳥取"},{"zipCode":"5990201","prefectureKana":"ｵｵｻｶﾌ","cityKana":"ﾊﾝﾅﾝｼ","streetKana":"ｵｻﾞｷﾁｮｳ","prefecture":"大阪府","city":"阪南市","street":"尾崎町"},{"zipCode":"5990231","prefectureKana":"ｵｵｻｶﾌ","cityKana":"ﾊﾝﾅﾝｼ","streetKana":"ｶｲｶｹ","prefecture":"大阪府","city":"阪南市","street":"貝掛"},{"zipCode":"5990203","prefectureKana":"ｵｵｻｶﾌ","cityKana":"ﾊﾝﾅﾝｼ","streetKana":"ｸﾛﾀﾞ","prefecture":"大阪府","city":"阪南市","street":"黒田"},{"zipCode":"5990222","prefectureKana":"ｵｵｻｶﾌ","cityKana":"ﾊﾝﾅﾝｼ","streetKana":"ｸﾜﾊﾞﾀ","prefecture":"大阪府","city":"阪南市","street":"桑畑"},{"zipCode":"5990223","prefectureKana":"ｵｵｻｶﾌ","cityKana":"ﾊﾝﾅﾝｼ","streetKana":"ｺｳﾖｳﾀﾞｲ","prefecture":"大阪府","city":"阪南市","street":"光陽台"},{"zipCode":"5990215","prefectureKana":"ｵｵｻｶﾌ","cityKana":"ﾊﾝﾅﾝｼ","streetKana":"ｻﾂｷﾀﾞｲ","prefecture":"大阪府","city":"阪南市","street":"さつき台"},{"zipCode":"5990212","prefectureKana":"ｵｵｻｶﾌ","cityKana":"ﾊﾝﾅﾝｼ","streetKana":"ｼﾞﾈﾝﾀﾞ","prefecture":"大阪府","city":"阪南市","street":"自然田"},{"zipCode":"5990202","prefectureKana":"ｵｵｻｶﾌ","cityKana":"ﾊﾝﾅﾝｼ","streetKana":"ｼﾓｲﾃﾞ","prefecture":"大阪府","city":"阪南市","street":"下出"},{"zipCode":"5990205","prefectureKana":"ｵｵｻｶﾌ","cityKana":"ﾊﾝﾅﾝｼ","streetKana":"ｼﾝﾏﾁ","prefecture":"大阪府","city":"阪南市","street":"新町"},{"zipCode":"5990234","prefectureKana":"ｵｵｻｶﾌ","cityKana":"ﾊﾝﾅﾝｼ","streetKana":"ﾀﾝﾉﾜ","prefecture":"大阪府","city":"阪南市","street":"淡輪"},{"zipCode":"5990204","prefectureKana":"ｵｵｻｶﾌ","cityKana":"ﾊﾝﾅﾝｼ","streetKana":"ﾄｯﾄﾘ","prefecture":"大阪府","city":"阪南市","street":"鳥取"},{"zipCode":"5990211","prefectureKana":"ｵｵｻｶﾌ","cityKana":"ﾊﾝﾅﾝｼ","streetKana":"ﾄｯﾄﾘﾅｶ","prefecture":"大阪府","city":"阪南市","street":"鳥取中"},{"zipCode":"5990225","prefectureKana":"ｵｵｻｶﾌ","cityKana":"ﾊﾝﾅﾝｼ","streetKana":"ﾄｯﾄﾘﾐﾂｲ","prefecture":"大阪府","city":"阪南市","street":"鳥取三井"},{"zipCode":"5990232","prefectureKana":"ｵｵｻｶﾌ","cityKana":"ﾊﾝﾅﾝｼ","streetKana":"ﾊｺﾂｸﾘ","prefecture":"大阪府","city":"阪南市","street":"箱作"},{"zipCode":"5990235","prefectureKana":"ｵｵｻｶﾌ","cityKana":"ﾊﾝﾅﾝｼ","streetKana":"ﾊｺﾉｳﾗ","prefecture":"大阪府","city":"阪南市","street":"箱の浦"},{"zipCode":"5990224","prefectureKana":"ｵｵｻｶﾌ","cityKana":"ﾊﾝﾅﾝｼ","streetKana":"ﾏｲ","prefecture":"大阪府","city":"阪南市","street":"舞"},{"zipCode":"5990216","prefectureKana":"ｵｵｻｶﾌ","cityKana":"ﾊﾝﾅﾝｼ","streetKana":"ﾐﾄﾞﾘｶﾞｵｶ","prefecture":"大阪府","city":"阪南市","street":"緑ケ丘"},{"zipCode":"5990233","prefectureKana":"ｵｵｻｶﾌ","cityKana":"ﾊﾝﾅﾝｼ","streetKana":"ﾐﾅﾐﾔﾏﾅｶ","prefecture":"大阪府","city":"阪南市","street":"南山中"},{"zipCode":"5990236","prefectureKana":"ｵｵｻｶﾌ","cityKana":"ﾊﾝﾅﾝｼ","streetKana":"ﾓﾓﾉｷﾀﾞｲ","prefecture":"大阪府","city":"阪南市","street":"桃の木台"},{"zipCode":"5990214","prefectureKana":"ｵｵｻｶﾌ","cityKana":"ﾊﾝﾅﾝｼ","streetKana":"ﾔﾏﾅｶﾀﾞﾆ","prefecture":"大阪府","city":"阪南市","street":"山中渓"},{"zipCode":"5990300","prefectureKana":"ｵｵｻｶﾌ","cityKana":"ｾﾝﾅﾝｸﾞﾝﾐｻｷﾁｮｳ","streetKana":"ｲｶﾆｹｲｻｲｶﾞﾅｲﾊﾞｱｲ","prefecture":"大阪府","city":"泉南郡岬町","street":"以下に掲載がない場合"},{"zipCode":"5990302","prefectureKana":"ｵｵｻｶﾌ","cityKana":"ｾﾝﾅﾝｸﾞﾝﾐｻｷﾁｮｳ","streetKana":"ｷｮｳｼ","prefecture":"大阪府","city":"泉南郡岬町","street":"孝子"},{"zipCode":"5990314","prefectureKana":"ｵｵｻｶﾌ","cityKana":"ｾﾝﾅﾝｸﾞﾝﾐｻｷﾁｮｳ","streetKana":"ﾀﾅｶﾞﾜｺｼﾏ","prefecture":"大阪府","city":"泉南郡岬町","street":"多奈川小島"},{"zipCode":"5990311","prefectureKana":"ｵｵｻｶﾌ","cityKana":"ｾﾝﾅﾝｸﾞﾝﾐｻｷﾁｮｳ","streetKana":"ﾀﾅｶﾞﾜﾀﾆｶﾞﾜ","prefecture":"大阪府","city":"泉南郡岬町","street":"多奈川谷川"},{"zipCode":"5990312","prefectureKana":"ｵｵｻｶﾌ","cityKana":"ｾﾝﾅﾝｸﾞﾝﾐｻｷﾁｮｳ","streetKana":"ﾀﾅｶﾞﾜﾋｶﾞｼﾊﾞﾀ","prefecture":"大阪府","city":"泉南郡岬町","street":"多奈川東畑"},{"zipCode":"5990313","prefectureKana":"ｵｵｻｶﾌ","cityKana":"ｾﾝﾅﾝｸﾞﾝﾐｻｷﾁｮｳ","streetKana":"ﾀﾅｶﾞﾜﾆｼﾊﾞﾀ","prefecture":"大阪府","city":"泉南郡岬町","street":"多奈川西畑"},{"zipCode":"5990301","prefectureKana":"ｵｵｻｶﾌ","cityKana":"ｾﾝﾅﾝｸﾞﾝﾐｻｷﾁｮｳ","streetKana":"ﾀﾝﾉﾜ","prefecture":"大阪府","city":"泉南郡岬町","street":"淡輪"},{"zipCode":"5990304","prefectureKana":"ｵｵｻｶﾌ","cityKana":"ｾﾝﾅﾝｸﾞﾝﾐｻｷﾁｮｳ","streetKana":"ﾉｿﾞﾐｻﾞｶ","prefecture":"大阪府","city":"泉南郡岬町","street":"望海坂"},{"zipCode":"5990303","prefectureKana":"ｵｵｻｶﾌ","cityKana":"ｾﾝﾅﾝｸﾞﾝﾐｻｷﾁｮｳ","streetKana":"ﾌｹ","prefecture":"大阪府","city":"泉南郡岬町","street":"深日"}]