[{"zipCode":"6000000","prefectureKana":"ｷｮｳﾄﾌ","cityKana":"ｷｮｳﾄｼｼﾓｷﾞｮｳｸ","streetKana":"ｲｶﾆｹｲｻｲｶﾞﾅｲﾊﾞｱｲ","prefecture":"京都府","city":"京都市下京区","street":"以下に掲載がない場合"},{"zipCode":"6008071","prefectureKana":"ｷｮｳﾄﾌ","cityKana":"ｷｮｳﾄｼｼﾓｷﾞｮｳｸ","streetKana":"ｱｲﾉﾁｮｳ","prefecture":"京都府","city":"京都市下京区","street":"相之町"},{"zipCode":"6008410","prefectureKana":"ｷｮｳﾄﾌ","cityKana":"ｷｮｳﾄｼｼﾓｷﾞｮｳｸ","streetKana":"ｱｸｵｳｼﾞﾁｮｳ","prefecture":"京都府","city":"京都市下京区","street":"悪王子町"},{"zipCode":"6008407","prefectureKana":"ｷｮｳﾄﾌ","cityKana":"ｷｮｳﾄｼｼﾓｷﾞｮｳｸ","streetKana":"ｱｻﾂﾞﾏﾁｮｳ","prefecture":"京都府","city":"京都市下京区","street":"朝妻町"},{"zipCode":"6008473","prefectureKana":"ｷｮｳﾄﾌ","cityKana":"ｷｮｳﾄｼｼﾓｷﾞｮｳｸ","streetKana":"ｱｼｶﾘﾔﾏﾁｮｳ","prefecture":"京都府","city":"京都市下京区","street":"芦刈山町"},{"zipCode":"6008308","prefectureKana":"ｷｮｳﾄﾌ","cityKana":"ｷｮｳﾄｼｼﾓｷﾞｮｳｸ","streetKana":"ｱﾀﾗｼﾁｮｳ","prefecture":"京都府","city":"京都市下京区","street":"新シ町"},{"zipCode":"6008040","prefectureKana":"ｷｮｳﾄﾌ","cityKana":"ｷｮｳﾄｼｼﾓｷﾞｮｳｸ","streetKana":"ｱﾂﾞﾁﾁｮｳ","prefecture":"京都府","city":"京都市下京区","street":"安土町"},{"zipCode":"6008231","prefectureKana":"ｷｮｳﾄﾌ","cityKana":"ｷｮｳﾄｼｼﾓｷﾞｮｳｸ","streetKana":"ｱﾌﾞﾗﾉｺｳｼﾞﾁｮｳ","prefecture":"京都府","city":"京都市下京区","street":"油小路町"},{"zipCode":"6008148","prefectureKana":"ｷｮｳﾄﾌ","cityKana":"ｷｮｳﾄｼｼﾓｷﾞｮｳｸ","streetKana":"ｱﾒﾔﾁｮｳ","prefecture":"京都府","city":"京都市下京区","street":"飴屋町"},{"zipCode":"6008383","prefectureKana":"ｷｮｳﾄﾌ","cityKana":"ｷｮｳﾄｼｼﾓｷﾞｮｳｸ","streetKana":"ｱﾔｵｵﾐﾔﾁｮｳ","prefecture":"京都府","city":"京都市下京区","street":"綾大宮町"},{"zipCode":"6008072","prefectureKana":"ｷｮｳﾄﾌ","cityKana":"ｷｮｳﾄｼｼﾓｷﾞｮｳｸ","streetKana":"ｱﾔｻﾞｲﾓｸﾁｮｳ","prefecture":"京都府","city":"京都市下京区","street":"綾材木町"},{"zipCode":"6008474","prefectureKana":"ｷｮｳﾄﾌ","cityKana":"ｷｮｳﾄｼｼﾓｷﾞｮｳｸ","streetKana":"ｱﾔﾆｼﾉﾄｳｲﾝﾁｮｳ","prefecture":"京都府","city":"京都市下京区","street":"綾西洞院町"},{"zipCode":"6008482","prefectureKana":"ｷｮｳﾄﾌ","cityKana":"ｷｮｳﾄｼｼﾓｷﾞｮｳｸ","streetKana":"ｱﾔﾎﾘｶﾜﾁｮｳ","prefecture":"京都府","city":"京都市下京区","street":"綾堀川町"},{"zipCode":"6008496","prefectureKana":"ｷｮｳﾄﾌ","cityKana":"ｷｮｳﾄｼｼﾓｷﾞｮｳｸ","streetKana":"ｲｼｲﾂﾞﾂﾁｮｳ","prefecture":"京都府","city":"京都市下京区","street":"石井筒町"},{"zipCode":"6008047","prefectureKana":"ｷｮｳﾄﾌ","cityKana":"ｷｮｳﾄｼｼﾓｷﾞｮｳｸ","streetKana":"ｲｼﾌﾄﾞｳﾉﾁｮｳ","prefecture":"京都府","city":"京都市下京区","street":"石不動之町"},{"zipCode":"6008188","prefectureKana":"ｷｮｳﾄﾌ","cityKana":"ｷｮｳﾄｼｼﾓｷﾞｮｳｸ","streetKana":"ｲｽﾞﾐﾁｮｳ","prefecture":"京都府","city":"京都市下京区","street":"和泉町"},{"zipCode":"6008014","prefectureKana":"ｷｮｳﾄﾌ","cityKana":"ｷｮｳﾄｼｼﾓｷﾞｮｳｸ","streetKana":"ｲｽﾞﾐﾔﾁｮｳ","prefecture":"京都府","city":"京都市下京区","street":"和泉屋町"},{"zipCode":"6008254","prefectureKana":"ｷｮｳﾄﾌ","cityKana":"ｷｮｳﾄｼｼﾓｷﾞｮｳｸ","streetKana":"ｲｾﾏﾂﾁｮｳ","prefecture":"京都府","city":"京都市下京区","street":"伊勢松町"},{"zipCode":"6008018","prefectureKana":"ｷｮｳﾄﾌ","cityKana":"ｷｮｳﾄｼｼﾓｷﾞｮｳｸ","streetKana":"ｲﾁﾉﾁｮｳ","prefecture":"京都府","city":"京都市下京区","street":"市之町"},{"zipCode":"6008318","prefectureKana":"ｷｮｳﾄﾌ","cityKana":"ｷｮｳﾄｼｼﾓｷﾞｮｳｸ","streetKana":"ｲﾂﾞﾂﾁｮｳ","prefecture":"京都府","city":"京都市下京区","street":"井筒町"},{"zipCode":"6008432","prefectureKana":"ｷｮｳﾄﾌ","cityKana":"ｷｮｳﾄｼｼﾓｷﾞｮｳｸ","streetKana":"ｲﾄﾔﾁｮｳ","prefecture":"京都府","city":"京都市下京区","street":"糸屋町"},{"zipCode":"6008415","prefectureKana":"ｷｮｳﾄﾌ","cityKana":"ｷｮｳﾄｼｼﾓｷﾞｮｳｸ","streetKana":"ｲﾅﾊﾞﾄﾞｳﾁｮｳ","prefecture":"京都府","city":"京都市下京区","street":"因幡堂町"},{"zipCode":"6008022","prefectureKana":"ｷｮｳﾄﾌ","cityKana":"ｷｮｳﾄｼｼﾓｷﾞｮｳｸ","streetKana":"ｲﾅﾘﾁｮｳ(ｶﾜﾗﾏﾁﾄﾞｵﾘｼｼﾞｮｳｻｶﾞﾙ､ｶﾜﾗﾏﾁﾄﾞｵﾘｼｼﾞｮｳｻｶﾞﾙ2ﾁｮｳﾒ)","prefecture":"京都府","city":"京都市下京区","street":"稲荷町（河原町通四条下る、河原町通四条下る２丁目）"},{"zipCode":"6008133","prefectureKana":"ｷｮｳﾄﾌ","cityKana":"ｷｮｳﾄｼｼﾓｷﾞｮｳｸ","streetKana":"ｲﾅﾘﾁｮｳ(ｼﾁｼﾞｮｳﾄﾞｵﾘｶﾓｶﾞﾜｽｼﾞﾆｼｲﾙ､ｼﾁｼﾞｮｳﾄﾞｵﾘｷﾔﾏﾁﾋｶﾞｼｲﾙ)","prefecture":"京都府","city":"京都市下京区","street":"稲荷町（七条通加茂川筋西入、七条通木屋町東入）"},{"zipCode":"6008098","prefectureKana":"ｷｮｳﾄﾌ","cityKana":"ｷｮｳﾄｼｼﾓｷﾞｮｳｸ","streetKana":"ｲﾅﾘﾁｮｳ","prefecture":"京都府","city":"京都市下京区","street":"稲荷町（間之町通高辻下る、間之町通松原上る、高辻通間之町西"},{"zipCode":"6008098","prefectureKana":"ｷｮｳﾄﾌ","cityKana":"ｷｮｳﾄｼｼﾓｷﾞｮｳｸ","streetKana":"ｲﾅﾘﾁｮｳ","prefecture":"京都府","city":"京都市下京区","street":"入、高辻通間之町東入、高辻通東洞院東入）"},{"zipCode":"6008166","prefectureKana":"ｷｮｳﾄﾌ","cityKana":"ｷｮｳﾄｼｼﾓｷﾞｮｳｸ","streetKana":"ｲﾇｲﾁｮｳ","prefecture":"京都府","city":"京都市下京区","street":"乾町"},{"zipCode":"6008384","prefectureKana":"ｷｮｳﾄﾌ","cityKana":"ｷｮｳﾄｼｼﾓｷﾞｮｳｸ","streetKana":"ｲﾏﾀﾞｲｺｸﾁｮｳ","prefecture":"京都府","city":"京都市下京区","street":"今大黒町"},{"zipCode":"6008115","prefectureKana":"ｷｮｳﾄﾌ","cityKana":"ｷｮｳﾄｼｼﾓｷﾞｮｳｸ","streetKana":"ｲﾜﾀｷﾁｮｳ","prefecture":"京都府","city":"京都市下京区","street":"岩滝町"},{"zipCode":"6008445","prefectureKana":"ｷｮｳﾄﾌ","cityKana":"ｷｮｳﾄｼｼﾓｷﾞｮｳｸ","streetKana":"ｲﾜﾄﾔﾏﾁｮｳ","prefecture":"京都府","city":"京都市下京区","street":"岩戸山町"},{"zipCode":"6008028","prefectureKana":"ｷｮｳﾄﾌ","cityKana":"ｷｮｳﾄｼｼﾓｷﾞｮｳｸ","streetKana":"ｳｴﾏﾂﾁｮｳ","prefecture":"京都府","city":"京都市下京区","street":"植松町（河原町通松原下る、河原町通万寿寺上る、寺町通松原"},{"zipCode":"6008028","prefectureKana":"ｷｮｳﾄﾌ","cityKana":"ｷｮｳﾄｼｼﾓｷﾞｮｳｸ","streetKana":"ｳｴﾏﾂﾁｮｳ","prefecture":"京都府","city":"京都市下京区","street":"下る、寺町通万寿寺上る、松原通寺町西入、松原通寺町東入、万寿寺通河原町"},{"zipCode":"6008028","prefectureKana":"ｷｮｳﾄﾌ","cityKana":"ｷｮｳﾄｼｼﾓｷﾞｮｳｸ","streetKana":"ｳｴﾏﾂﾁｮｳ","prefecture":"京都府","city":"京都市下京区","street":"西入、万寿寺通寺町西入）"},{"zipCode":"6008343","prefectureKana":"ｷｮｳﾄﾌ","cityKana":"ｷｮｳﾄｼｼﾓｷﾞｮｳｸ","streetKana":"ｳｴﾏﾂﾁｮｳ(ｼｮｳﾒﾝﾄﾞｵﾘﾆｼﾉﾄｳｲﾝﾆｼｲﾙ､ﾆｼﾉﾄｳｲﾝﾄﾞｵﾘｼｮｳﾒﾝｻｶﾞﾙ)","prefecture":"京都府","city":"京都市下京区","street":"植松町（正面通西洞院西入、西洞院通正面下る）"},{"zipCode":"6008304","prefectureKana":"ｷｮｳﾄﾌ","cityKana":"ｷｮｳﾄｼｼﾓｷﾞｮｳｸ","streetKana":"ｳｼﾄﾗﾁｮｳ","prefecture":"京都府","city":"京都市下京区","street":"艮町"},{"zipCode":"6008151","prefectureKana":"ｷｮｳﾄﾌ","cityKana":"ｷｮｳﾄｼｼﾓｷﾞｮｳｸ","streetKana":"ｳﾁｺｼﾁｮｳ","prefecture":"京都府","city":"京都市下京区","street":"打越町"},{"zipCode":"6008855","prefectureKana":"ｷｮｳﾄﾌ","cityKana":"ｷｮｳﾄｼｼﾓｷﾞｮｳｸ","streetKana":"ｳﾒｺｳｼﾞｲｼﾊﾞｼﾁｮｳ","prefecture":"京都府","city":"京都市下京区","street":"梅小路石橋町"},{"zipCode":"6008851","prefectureKana":"ｷｮｳﾄﾌ","cityKana":"ｷｮｳﾄｼｼﾓｷﾞｮｳｸ","streetKana":"ｳﾒｺｳｼﾞｶｼﾗﾁｮｳ","prefecture":"京都府","city":"京都市下京区","street":"梅小路頭町"},{"zipCode":"6008853","prefectureKana":"ｷｮｳﾄﾌ","cityKana":"ｷｮｳﾄｼｼﾓｷﾞｮｳｸ","streetKana":"ｳﾒｺｳｼﾞﾀｶﾊﾀﾁｮｳ","prefecture":"京都府","city":"京都市下京区","street":"梅小路高畑町"},{"zipCode":"6008854","prefectureKana":"ｷｮｳﾄﾌ","cityKana":"ｷｮｳﾄｼｼﾓｷﾞｮｳｸ","streetKana":"ｳﾒｺｳｼﾞﾆｼﾅｶﾏﾁ","prefecture":"京都府","city":"京都市下京区","street":"梅小路西中町"},{"zipCode":"6008852","prefectureKana":"ｷｮｳﾄﾌ","cityKana":"ｷｮｳﾄｼｼﾓｷﾞｮｳｸ","streetKana":"ｳﾒｺｳｼﾞﾋｶﾞｼﾅｶﾏﾁ","prefecture":"京都府","city":"京都市下京区","street":"梅小路東中町"},{"zipCode":"6008857","prefectureKana":"ｷｮｳﾄﾌ","cityKana":"ｷｮｳﾄｼｼﾓｷﾞｮｳｸ","streetKana":"ｳﾒｺｳｼﾞﾋｶﾞｼﾏﾁ","prefecture":"京都府","city":"京都市下京区","street":"梅小路東町"},{"zipCode":"6008856","prefectureKana":"ｷｮｳﾄﾌ","cityKana":"ｷｮｳﾄｼｼﾓｷﾞｮｳｸ","streetKana":"ｳﾒｺｳｼﾞﾎﾝﾏﾁ","prefecture":"京都府","city":"京都市下京区","street":"梅小路本町"},{"zipCode":"6008127","prefectureKana":"ｷｮｳﾄﾌ","cityKana":"ｷｮｳﾄｼｼﾓｷﾞｮｳｸ","streetKana":"ｳﾒﾐﾅﾄﾁｮｳ","prefecture":"京都府","city":"京都市下京区","street":"梅湊町"},{"zipCode":"6008822","prefectureKana":"ｷｮｳﾄﾌ","cityKana":"ｷｮｳﾄｼｼﾓｷﾞｮｳｸ","streetKana":"ｳﾗｶﾀﾁｮｳ","prefecture":"京都府","city":"京都市下京区","street":"裏片町"},{"zipCode":"6008463","prefectureKana":"ｷｮｳﾄﾌ","cityKana":"ｷｮｳﾄｼｼﾓｷﾞｮｳｸ","streetKana":"ｴｲﾖｳｼﾞﾁｮｳ","prefecture":"京都府","city":"京都市下京区","street":"永養寺町"},{"zipCode":"6008154","prefectureKana":"ｷｮｳﾄﾌ","cityKana":"ｷｮｳﾄｼｼﾓｷﾞｮｳｸ","streetKana":"ｴﾉｷﾁｮｳ","prefecture":"京都府","city":"京都市下京区","street":"榎木町"},{"zipCode":"6008302","prefectureKana":"ｷｮｳﾄﾌ","cityKana":"ｷｮｳﾄｼｼﾓｷﾞｮｳｸ","streetKana":"ｴﾋﾞｽﾁｮｳ","prefecture":"京都府","city":"京都市下京区","street":"蛭子町"},{"zipCode":"6008033","prefectureKana":"ｷｮｳﾄﾌ","cityKana":"ｷｮｳﾄｼｼﾓｷﾞｮｳｸ","streetKana":"ｴﾋﾞｽﾉﾁｮｳ","prefecture":"京都府","city":"京都市下京区","street":"恵美須之町"},{"zipCode":"6008183","prefectureKana":"ｷｮｳﾄﾌ","cityKana":"ｷｮｳﾄｼｼﾓｷﾞｮｳｸ","streetKana":"ｴﾋﾞｽﾉﾁｮｳ","prefecture":"京都府","city":"京都市下京区","street":"夷之町（間之町通五条下る３丁目、間之町通花屋町上る、間之町通"},{"zipCode":"6008183","prefectureKana":"ｷｮｳﾄﾌ","cityKana":"ｷｮｳﾄｼｼﾓｷﾞｮｳｸ","streetKana":"ｴﾋﾞｽﾉﾁｮｳ","prefecture":"京都府","city":"京都市下京区","street":"六条下る、花屋町通間之町西入、花屋町通間之町東入、花屋町通東洞院東入、"},{"zipCode":"6008183","prefectureKana":"ｷｮｳﾄﾌ","cityKana":"ｷｮｳﾄｼｼﾓｷﾞｮｳｸ","streetKana":"ｴﾋﾞｽﾉﾁｮｳ","prefecture":"京都府","city":"京都市下京区","street":"六条通間之町西入、六条通間之町東入、六条通東洞院東入）"},{"zipCode":"6008310","prefectureKana":"ｷｮｳﾄﾌ","cityKana":"ｷｮｳﾄｼｼﾓｷﾞｮｳｸ","streetKana":"ｴﾋﾞｽﾉﾁｮｳ","prefecture":"京都府","city":"京都市下京区","street":"夷之町（七条通新町西入、七条通新町東入、七条通新町上る東"},{"zipCode":"6008310","prefectureKana":"ｷｮｳﾄﾌ","cityKana":"ｷｮｳﾄｼｼﾓｷﾞｮｳｸ","streetKana":"ｴﾋﾞｽﾉﾁｮｳ","prefecture":"京都府","city":"京都市下京区","street":"入、七条通西洞院東入、新町通七条上る、新町通七条下る、新町通七条下る"},{"zipCode":"6008310","prefectureKana":"ｷｮｳﾄﾌ","cityKana":"ｷｮｳﾄｼｼﾓｷﾞｮｳｸ","streetKana":"ｴﾋﾞｽﾉﾁｮｳ","prefecture":"京都府","city":"京都市下京区","street":"東入、西洞院通七条上る）"},{"zipCode":"6008837","prefectureKana":"ｷｮｳﾄﾌ","cityKana":"ｷｮｳﾄｼｼﾓｷﾞｮｳｸ","streetKana":"ｴﾋﾞｽﾉﾊﾞﾝﾊﾞﾁｮｳ","prefecture":"京都府","city":"京都市下京区","street":"夷馬場町"},{"zipCode":"6008328","prefectureKana":"ｷｮｳﾄﾌ","cityKana":"ｷｮｳﾄｼｼﾓｷﾞｮｳｸ","streetKana":"ｴﾋﾞｽﾐｽﾞﾁｮｳ","prefecture":"京都府","city":"京都市下京区","street":"蛭子水町"},{"zipCode":"6008062","prefectureKana":"ｷｮｳﾄﾌ","cityKana":"ｷｮｳﾄｼｼﾓｷﾞｮｳｸ","streetKana":"ｴﾋﾞｽﾔﾁｮｳ","prefecture":"京都府","city":"京都市下京区","street":"恵美須屋町"},{"zipCode":"6008095","prefectureKana":"ｷｮｳﾄﾌ","cityKana":"ｷｮｳﾄｼｼﾓｷﾞｮｳｸ","streetKana":"ｵｳｷﾞｻｶﾔﾁｮｳ","prefecture":"京都府","city":"京都市下京区","street":"扇酒屋町"},{"zipCode":"6008402","prefectureKana":"ｷｮｳﾄﾌ","cityKana":"ｷｮｳﾄｼｼﾓｷﾞｮｳｸ","streetKana":"ｵｵｴﾁｮｳ","prefecture":"京都府","city":"京都市下京区","street":"大江町"},{"zipCode":"6008177","prefectureKana":"ｷｮｳﾄﾌ","cityKana":"ｷｮｳﾄｼｼﾓｷﾞｮｳｸ","streetKana":"ｵｵｻｶﾁｮｳ","prefecture":"京都府","city":"京都市下京区","street":"大坂町"},{"zipCode":"6008181","prefectureKana":"ｷｮｳﾄﾌ","cityKana":"ｷｮｳﾄｼｼﾓｷﾞｮｳｸ","streetKana":"ｵｵﾂﾁｮｳ","prefecture":"京都府","city":"京都市下京区","street":"大津町"},{"zipCode":"6008419","prefectureKana":"ｷｮｳﾄﾌ","cityKana":"ｷｮｳﾄｼｼﾓｷﾞｮｳｸ","streetKana":"ｵｵﾎﾞﾘﾁｮｳ","prefecture":"京都府","city":"京都市下京区","street":"大堀町"},{"zipCode":"6008413","prefectureKana":"ｷｮｳﾄﾌ","cityKana":"ｷｮｳﾄｼｼﾓｷﾞｮｳｸ","streetKana":"ｵｵﾏﾝﾄﾞｺﾛﾁｮｳ","prefecture":"京都府","city":"京都市下京区","street":"大政所町"},{"zipCode":"6008363","prefectureKana":"ｷｮｳﾄﾌ","cityKana":"ｷｮｳﾄｼｼﾓｷﾞｮｳｸ","streetKana":"ｵｵﾐﾔ(1-3ﾁｮｳﾒ)","prefecture":"京都府","city":"京都市下京区","street":"大宮（１～３丁目）"},{"zipCode":"6008138","prefectureKana":"ｷｮｳﾄﾌ","cityKana":"ｷｮｳﾄｼｼﾓｷﾞｮｳｸ","streetKana":"ｵｵﾐﾔﾁｮｳ","prefecture":"京都府","city":"京都市下京区","street":"大宮町"},{"zipCode":"6008002","prefectureKana":"ｷｮｳﾄﾌ","cityKana":"ｷｮｳﾄｼｼﾓｷﾞｮｳｸ","streetKana":"ｵﾀﾋﾞﾁｮｳ","prefecture":"京都府","city":"京都市下京区","street":"御旅町"},{"zipCode":"6008003","prefectureKana":"ｷｮｳﾄﾌ","cityKana":"ｷｮｳﾄｼｼﾓｷﾞｮｳｸ","streetKana":"ｵﾀﾋﾞﾐﾔﾓﾄﾁｮｳ","prefecture":"京都府","city":"京都市下京区","street":"御旅宮本町"},{"zipCode":"6008430","prefectureKana":"ｷｮｳﾄﾌ","cityKana":"ｷｮｳﾄｼｼﾓｷﾞｮｳｸ","streetKana":"ｵﾀﾞﾜﾗﾁｮｳ","prefecture":"京都府","city":"京都市下京区","street":"小田原町"},{"zipCode":"6008145","prefectureKana":"ｷｮｳﾄﾌ","cityKana":"ｷｮｳﾄｼｼﾓｷﾞｮｳｸ","streetKana":"ｶｲｻﾞﾝﾁｮｳ","prefecture":"京都府","city":"京都市下京区","street":"皆山町"},{"zipCode":"6008246","prefectureKana":"ｷｮｳﾄﾌ","cityKana":"ｷｮｳﾄｼｼﾓｷﾞｮｳｸ","streetKana":"ｶｷｶﾞｳﾁﾁｮｳ","prefecture":"京都府","city":"京都市下京区","street":"垣ケ内町"},{"zipCode":"6008357","prefectureKana":"ｷｮｳﾄﾌ","cityKana":"ｷｮｳﾄｼｼﾓｷﾞｮｳｸ","streetKana":"ｶｷﾓﾄﾁｮｳ","prefecture":"京都府","city":"京都市下京区","street":"柿本町"},{"zipCode":"6008057","prefectureKana":"ｷｮｳﾄﾌ","cityKana":"ｷｮｳﾄｼｼﾓｷﾞｮｳｸ","streetKana":"ｶｷﾞﾔﾁｮｳ","prefecture":"京都府","city":"京都市下京区","street":"鍵屋町（高辻通麩屋町西入、高辻通麩屋町東入、麩屋町通高辻"},{"zipCode":"6008057","prefectureKana":"ｷｮｳﾄﾌ","cityKana":"ｷｮｳﾄｼｼﾓｷﾞｮｳｸ","streetKana":"ｶｷﾞﾔﾁｮｳ","prefecture":"京都府","city":"京都市下京区","street":"下る、麩屋町通松原上る）"},{"zipCode":"6008126","prefectureKana":"ｷｮｳﾄﾌ","cityKana":"ｷｮｳﾄｼｼﾓｷﾞｮｳｸ","streetKana":"ｶｷﾞﾔﾁｮｳ","prefecture":"京都府","city":"京都市下京区","street":"鍵屋町（正面通木屋町東入、加茂川筋正面上る、正面通二ノ宮西"},{"zipCode":"6008126","prefectureKana":"ｷｮｳﾄﾌ","cityKana":"ｷｮｳﾄｼｼﾓｷﾞｮｳｸ","streetKana":"ｶｷﾞﾔﾁｮｳ","prefecture":"京都府","city":"京都市下京区","street":"入、木屋町通正面上る、正面通二ノ宮東入、正面通加茂川筋西入、二ノ宮"},{"zipCode":"6008126","prefectureKana":"ｷｮｳﾄﾌ","cityKana":"ｷｮｳﾄｼｼﾓｷﾞｮｳｸ","streetKana":"ｶｷﾞﾔﾁｮｳ","prefecture":"京都府","city":"京都市下京区","street":"通正面上る）"},{"zipCode":"6008178","prefectureKana":"ｷｮｳﾄﾌ","cityKana":"ｷｮｳﾄｼｼﾓｷﾞｮｳｸ","streetKana":"ｶｷﾞﾔﾁｮｳ","prefecture":"京都府","city":"京都市下京区","street":"鍵屋町（鍵屋町通烏丸西入、鍵屋町通諏訪町西入、鍵屋町通室"},{"zipCode":"6008178","prefectureKana":"ｷｮｳﾄﾌ","cityKana":"ｷｮｳﾄｼｼﾓｷﾞｮｳｸ","streetKana":"ｶｷﾞﾔﾁｮｳ","prefecture":"京都府","city":"京都市下京区","street":"町東入、諏訪町通鍵屋町上る、諏訪町通鍵屋町下る）"},{"zipCode":"6008317","prefectureKana":"ｷｮｳﾄﾌ","cityKana":"ｷｮｳﾄｼｼﾓｷﾞｮｳｸ","streetKana":"ｶｷﾞﾔﾁｮｳ","prefecture":"京都府","city":"京都市下京区","street":"鍵屋町（北小路通西洞院東入、北小路通若宮西入、正面通新町"},{"zipCode":"6008317","prefectureKana":"ｷｮｳﾄﾌ","cityKana":"ｷｮｳﾄｼｼﾓｷﾞｮｳｸ","streetKana":"ｶｷﾞﾔﾁｮｳ","prefecture":"京都府","city":"京都市下京区","street":"西入、若宮通正面下る、若宮通北小路上る、正面通若宮東入）"},{"zipCode":"6008341","prefectureKana":"ｷｮｳﾄﾌ","cityKana":"ｷｮｳﾄｼｼﾓｷﾞｮｳｸ","streetKana":"ｶﾞｸﾘﾝﾁｮｳ","prefecture":"京都府","city":"京都市下京区","street":"学林町"},{"zipCode":"6008475","prefectureKana":"ｷｮｳﾄﾌ","cityKana":"ｷｮｳﾄｼｼﾓｷﾞｮｳｸ","streetKana":"ｶｻﾞﾊﾔﾁｮｳ","prefecture":"京都府","city":"京都市下京区","street":"風早町"},{"zipCode":"6008494","prefectureKana":"ｷｮｳﾄﾌ","cityKana":"ｷｮｳﾄｼｼﾓｷﾞｮｳｸ","streetKana":"ｶｻﾎﾞｺﾁｮｳ","prefecture":"京都府","city":"京都市下京区","street":"傘鉾町"},{"zipCode":"6008079","prefectureKana":"ｷｮｳﾄﾌ","cityKana":"ｷｮｳﾄｼｼﾓｷﾞｮｳｸ","streetKana":"ｶｼﾞﾔﾁｮｳ(ｻｶｲﾏﾁﾄﾞｵﾘﾏﾂﾊﾞﾗｻｶﾞﾙ､ｻｶｲﾏﾁﾄﾞｵﾘﾏﾝｼﾞｭｳｼﾞｱｶﾞﾙ､ﾏﾝｼﾞｭｳｼﾞﾄﾞｵﾘｻｶｲﾏﾁﾋｶﾞｼｲﾙ)","prefecture":"京都府","city":"京都市下京区","street":"鍛冶屋町（堺町通松原下る、堺町通万寿寺上る、万寿寺通堺町東入）"},{"zipCode":"6008329","prefectureKana":"ｷｮｳﾄﾌ","cityKana":"ｷｮｳﾄｼｼﾓｷﾞｮｳｸ","streetKana":"ｶｼﾞﾔﾁｮｳ","prefecture":"京都府","city":"京都市下京区","street":"鍛冶屋町（北小路通西洞院西入、北小路通西洞院東入、西洞院通"},{"zipCode":"6008329","prefectureKana":"ｷｮｳﾄﾌ","cityKana":"ｷｮｳﾄｼｼﾓｷﾞｮｳｸ","streetKana":"ｶｼﾞﾔﾁｮｳ","prefecture":"京都府","city":"京都市下京区","street":"北小路上る、西洞院通正面下る）"},{"zipCode":"6008066","prefectureKana":"ｷｮｳﾄﾌ","cityKana":"ｷｮｳﾄｼｼﾓｷﾞｮｳｸ","streetKana":"ｶｼﾜﾔﾁｮｳ","prefecture":"京都府","city":"京都市下京区","street":"柏屋町（万寿寺通柳馬場西入、柳馬場通五条上る、柳馬場通万寿寺下る）"},{"zipCode":"6008498","prefectureKana":"ｷｮｳﾄﾌ","cityKana":"ｷｮｳﾄｼｼﾓｷﾞｮｳｸ","streetKana":"ｶｼﾜﾔﾁｮｳ","prefecture":"京都府","city":"京都市下京区","street":"柏屋町（四条通油小路西入、四条通醒ケ井西入、四条通醒ケ井"},{"zipCode":"6008498","prefectureKana":"ｷｮｳﾄﾌ","cityKana":"ｷｮｳﾄｼｼﾓｷﾞｮｳｸ","streetKana":"ｶｼﾜﾔﾁｮｳ","prefecture":"京都府","city":"京都市下京区","street":"東入、四条通東堀川東入、四条通堀川東入）"},{"zipCode":"6008049","prefectureKana":"ｷｮｳﾄﾌ","cityKana":"ｷｮｳﾄｼｼﾓｷﾞｮｳｸ","streetKana":"ｶﾀﾀﾞﾁｮｳ(ﾏﾝｼﾞｭｳｼﾞﾄﾞｵﾘｺﾞｺﾏﾁﾆｼｲﾙ)","prefecture":"京都府","city":"京都市下京区","street":"堅田町（万寿寺通御幸町西入）"},{"zipCode":"6008050","prefectureKana":"ｷｮｳﾄﾌ","cityKana":"ｷｮｳﾄｼｼﾓｷﾞｮｳｸ","streetKana":"ｶﾀﾀﾞﾁｮｳ(ﾏﾝｼｭｳｼﾞﾄﾞｵﾘﾄﾐﾉｺｳｼﾞﾋｶﾞｼｲﾙ､ﾏﾝｼｭｳｼﾞﾄﾞｵﾘﾌﾔﾁｮｳﾆｼｲﾙ)","prefecture":"京都府","city":"京都市下京区","street":"堅田町（万寿寺通富小路東入、万寿寺通麩屋町西入）"},{"zipCode":"6008067","prefectureKana":"ｷｮｳﾄﾌ","cityKana":"ｷｮｳﾄｼｼﾓｷﾞｮｳｸ","streetKana":"ｶﾀﾀﾞﾁｮｳ","prefecture":"京都府","city":"京都市下京区","street":"堅田町（万寿寺通堺町東入、万寿寺通富小路西入、万寿寺通柳"},{"zipCode":"6008067","prefectureKana":"ｷｮｳﾄﾌ","cityKana":"ｷｮｳﾄｼｼﾓｷﾞｮｳｸ","streetKana":"ｶﾀﾀﾞﾁｮｳ","prefecture":"京都府","city":"京都市下京区","street":"馬場西入、万寿寺通柳馬場東入、柳馬場通万寿寺上る）"},{"zipCode":"6008089","prefectureKana":"ｷｮｳﾄﾌ","cityKana":"ｷｮｳﾄｼｼﾓｷﾞｮｳｸ","streetKana":"ｶﾀﾀﾞﾁｮｳ(ﾏﾝｼｭｳｼﾞﾄﾞｵﾘｻｶｲﾏﾁﾆｼｲﾙ)","prefecture":"京都府","city":"京都市下京区","street":"堅田町（万寿寺通堺町西入）"},{"zipCode":"6008493","prefectureKana":"ｷｮｳﾄﾌ","cityKana":"ｷｮｳﾄｼｼﾓｷﾞｮｳｸ","streetKana":"ｶﾂｷｮﾔﾏﾁｮｳ","prefecture":"京都府","city":"京都市下京区","street":"郭巨山町"},{"zipCode":"6008323","prefectureKana":"ｷｮｳﾄﾌ","cityKana":"ｷｮｳﾄｼｼﾓｷﾞｮｳｸ","streetKana":"ｶﾅﾔﾁｮｳ","prefecture":"京都府","city":"京都市下京区","street":"金屋町"},{"zipCode":"6008258","prefectureKana":"ｷｮｳﾄﾌ","cityKana":"ｷｮｳﾄｼｼﾓｷﾞｮｳｸ","streetKana":"ｶﾈｶﾞｴﾁｮｳ","prefecture":"京都府","city":"京都市下京区","street":"金換町"},{"zipCode":"6008239","prefectureKana":"ｷｮｳﾄﾌ","cityKana":"ｷｮｳﾄｼｼﾓｷﾞｮｳｸ","streetKana":"ｶﾏﾔﾁｮｳ","prefecture":"京都府","city":"京都市下京区","street":"鎌屋町"},{"zipCode":"6008058","prefectureKana":"ｷｮｳﾄﾌ","cityKana":"ｷｮｳﾄｼｼﾓｷﾞｮｳｸ","streetKana":"ｶﾐｳﾛｺｶﾞﾀﾁｮｳ","prefecture":"京都府","city":"京都市下京区","street":"上鱗形町"},{"zipCode":"6008242","prefectureKana":"ｷｮｳﾄﾌ","cityKana":"ｷｮｳﾄｼｼﾓｷﾞｮｳｸ","streetKana":"ｶﾐｴﾋﾞｽﾁｮｳ","prefecture":"京都府","city":"京都市下京区","street":"上夷町"},{"zipCode":"6008457","prefectureKana":"ｷｮｳﾄﾌ","cityKana":"ｷｮｳﾄｼｼﾓｷﾞｮｳｸ","streetKana":"ｶﾐｶﾅﾌﾞﾂﾁｮｳ","prefecture":"京都府","city":"京都市下京区","street":"上金仏町"},{"zipCode":"6008259","prefectureKana":"ｷｮｳﾄﾌ","cityKana":"ｷｮｳﾄｼｼﾓｷﾞｮｳｸ","streetKana":"ｶﾐｺｳｼﾞﾔﾁｮｳ","prefecture":"京都府","city":"京都市下京区","street":"上糀屋町"},{"zipCode":"6008377","prefectureKana":"ｷｮｳﾄﾌ","cityKana":"ｷｮｳﾄｼｼﾓｷﾞｮｳｸ","streetKana":"ｶﾐｺﾞｼﾞｮｳﾁｮｳ","prefecture":"京都府","city":"京都市下京区","street":"上五条町"},{"zipCode":"6008135","prefectureKana":"ｷｮｳﾄﾌ","cityKana":"ｷｮｳﾄｼｼﾓｷﾞｮｳｸ","streetKana":"ｶﾐｻﾝﾉﾐﾔﾁｮｳ","prefecture":"京都府","city":"京都市下京区","street":"上三之宮町"},{"zipCode":"6008150","prefectureKana":"ｷｮｳﾄﾌ","cityKana":"ｷｮｳﾄｼｼﾓｷﾞｮｳｸ","streetKana":"ｶﾐｼﾞｭｽﾞﾔﾁｮｳ","prefecture":"京都府","city":"京都市下京区","street":"上珠数屋町"},{"zipCode":"6008312","prefectureKana":"ｷｮｳﾄﾌ","cityKana":"ｷｮｳﾄｼｼﾓｷﾞｮｳｸ","streetKana":"ｶﾐｽｽﾞﾔﾁｮｳ","prefecture":"京都府","city":"京都市下京区","street":"上錫屋町"},{"zipCode":"6008170","prefectureKana":"ｷｮｳﾄﾌ","cityKana":"ｷｮｳﾄｼｼﾓｷﾞｮｳｸ","streetKana":"ｶﾐｽﾜﾝﾁｮｳ","prefecture":"京都府","city":"京都市下京区","street":"上諏訪町"},{"zipCode":"6008376","prefectureKana":"ｷｮｳﾄﾌ","cityKana":"ｷｮｳﾄｼｼﾓｷﾞｮｳｸ","streetKana":"ｶﾐﾁｮｳﾌｸｼﾞﾁｮｳ","prefecture":"京都府","city":"京都市下京区","street":"上長福寺町"},{"zipCode":"6008248","prefectureKana":"ｷｮｳﾄﾌ","cityKana":"ｷｮｳﾄｼｼﾓｷﾞｮｳｸ","streetKana":"ｶﾐﾅｶﾉﾁｮｳ","prefecture":"京都府","city":"京都市下京区","street":"上中之町"},{"zipCode":"6008131","prefectureKana":"ｷｮｳﾄﾌ","cityKana":"ｷｮｳﾄｼｼﾓｷﾞｮｳｸ","streetKana":"ｶﾐﾆﾉﾐﾔﾁｮｳ","prefecture":"京都府","city":"京都市下京区","street":"上二之宮町"},{"zipCode":"6008266","prefectureKana":"ｷｮｳﾄﾌ","cityKana":"ｷｮｳﾄｼｼﾓｷﾞｮｳｸ","streetKana":"ｶﾐﾉﾁｮｳ","prefecture":"京都府","city":"京都市下京区","street":"上之町（大宮通木津屋橋上る、大宮通七条下る、大宮通下魚棚下"},{"zipCode":"6008266","prefectureKana":"ｷｮｳﾄﾌ","cityKana":"ｷｮｳﾄｼｼﾓｷﾞｮｳｸ","streetKana":"ｶﾐﾉﾁｮｳ","prefecture":"京都府","city":"京都市下京区","street":"る、木津屋橋通大宮東入、下魚棚通大宮東入）"},{"zipCode":"6008207","prefectureKana":"ｷｮｳﾄﾌ","cityKana":"ｷｮｳﾄｼｼﾓｷﾞｮｳｸ","streetKana":"ｶﾐﾉﾁｮｳ(ｿﾉﾀ)","prefecture":"京都府","city":"京都市下京区","street":"上之町（その他）"},{"zipCode":"6008171","prefectureKana":"ｷｮｳﾄﾌ","cityKana":"ｷｮｳﾄｼｼﾓｷﾞｮｳｸ","streetKana":"ｶﾐﾋﾗﾉﾁｮｳ","prefecture":"京都府","city":"京都市下京区","street":"上平野町"},{"zipCode":"6008099","prefectureKana":"ｷｮｳﾄﾌ","cityKana":"ｷｮｳﾄｼｼﾓｷﾞｮｳｸ","streetKana":"ｶﾐﾔﾅｷﾞﾁｮｳ","prefecture":"京都府","city":"京都市下京区","street":"上柳町（仏光寺通烏丸東入、仏光寺通烏丸東入上る、仏光寺通烏丸東入下る、"},{"zipCode":"6008099","prefectureKana":"ｷｮｳﾄﾌ","cityKana":"ｷｮｳﾄｼｼﾓｷﾞｮｳｸ","streetKana":"ｶﾐﾔﾅｷﾞﾁｮｳ","prefecture":"京都府","city":"京都市下京区","street":"仏光寺通東洞院西入）"},{"zipCode":"6008164","prefectureKana":"ｷｮｳﾄﾌ","cityKana":"ｷｮｳﾄｼｼﾓｷﾞｮｳｸ","streetKana":"ｶﾐﾔﾅｷﾞﾁｮｳ","prefecture":"京都府","city":"京都市下京区","street":"上柳町（諏訪町通花屋町上る、諏訪町通六条上る、諏訪町通六条下"},{"zipCode":"6008164","prefectureKana":"ｷｮｳﾄﾌ","cityKana":"ｷｮｳﾄｼｼﾓｷﾞｮｳｸ","streetKana":"ｶﾐﾔﾅｷﾞﾁｮｳ","prefecture":"京都府","city":"京都市下京区","street":"る、六条通烏丸西入、六条通諏訪町西入、六条通諏訪町東入、六条通室町"},{"zipCode":"6008164","prefectureKana":"ｷｮｳﾄﾌ","cityKana":"ｷｮｳﾄｼｼﾓｷﾞｮｳｸ","streetKana":"ｶﾐﾔﾅｷﾞﾁｮｳ","prefecture":"京都府","city":"京都市下京区","street":"東入）"},{"zipCode":"6008301","prefectureKana":"ｷｮｳﾄﾌ","cityKana":"ｷｮｳﾄｼｼﾓｷﾞｮｳｸ","streetKana":"ｶﾐﾔﾅｷﾞﾁｮｳ","prefecture":"京都府","city":"京都市下京区","street":"上柳町（楊梅通新町東入、室町新町之間五条下る、楊梅通新町東入"},{"zipCode":"6008301","prefectureKana":"ｷｮｳﾄﾌ","cityKana":"ｷｮｳﾄｼｼﾓｷﾞｮｳｸ","streetKana":"ｶﾐﾔﾅｷﾞﾁｮｳ","prefecture":"京都府","city":"京都市下京区","street":"上る、楊梅通室町西入）"},{"zipCode":"6008313","prefectureKana":"ｷｮｳﾄﾌ","cityKana":"ｷｮｳﾄｼｼﾓｷﾞｮｳｸ","streetKana":"ｶﾐﾜｶﾐﾔﾁｮｳ","prefecture":"京都府","city":"京都市下京区","street":"上若宮町"},{"zipCode":"6008159","prefectureKana":"ｷｮｳﾄﾌ","cityKana":"ｷｮｳﾄｼｼﾓｷﾞｮｳｸ","streetKana":"ｶﾒﾏﾁ","prefecture":"京都府","city":"京都市下京区","street":"亀町"},{"zipCode":"6008406","prefectureKana":"ｷｮｳﾄﾌ","cityKana":"ｷｮｳﾄｼｼﾓｷﾞｮｳｸ","streetKana":"ｶﾒﾔﾁｮｳ(ﾀｶｸﾗﾄﾞｵﾘｺﾞｼﾞｮｳｱｶﾞﾙ､ﾀｶｸﾗﾄﾞｵﾘﾏﾝｼﾞｭｳｼﾞｻｶﾞﾙ)","prefecture":"京都府","city":"京都市下京区","street":"亀屋町（高倉通五条上る、高倉通万寿寺下る）"},{"zipCode":"6008451","prefectureKana":"ｷｮｳﾄﾌ","cityKana":"ｷｮｳﾄｼｼﾓｷﾞｮｳｸ","streetKana":"ｶﾒﾔﾁｮｳ(ﾜｶﾐﾔﾄﾞｵﾘﾏﾂﾊﾞﾗｻｶﾞﾙ､ﾜｶﾐﾔﾄﾞｵﾘﾏﾝｼﾞｭｳｼﾞｱｶﾞﾙ)","prefecture":"京都府","city":"京都市下京区","street":"亀屋町（若宮通松原下る、若宮通万寿寺上る）"},{"zipCode":"6008175","prefectureKana":"ｷｮｳﾄﾌ","cityKana":"ｷｮｳﾄｼｼﾓｷﾞｮｳｸ","streetKana":"ｶﾗｽﾏ(2ﾁｮｳﾒ)","prefecture":"京都府","city":"京都市下京区","street":"烏丸（２丁目）"},{"zipCode":"6008499","prefectureKana":"ｷｮｳﾄﾌ","cityKana":"ｷｮｳﾄｼｼﾓｷﾞｮｳｸ","streetKana":"ｶﾗﾂﾔﾁｮｳ","prefecture":"京都府","city":"京都市下京区","street":"唐津屋町"},{"zipCode":"6008197","prefectureKana":"ｷｮｳﾄﾌ","cityKana":"ｷｮｳﾄｼｼﾓｷﾞｮｳｸ","streetKana":"ｶﾗﾓﾉﾁｮｳ","prefecture":"京都府","city":"京都市下京区","street":"唐物町"},{"zipCode":"6008056","prefectureKana":"ｷｮｳﾄﾌ","cityKana":"ｷｮｳﾄｼｼﾓｷﾞｮｳｸ","streetKana":"ｶﾘｶﾞﾈﾁｮｳ(ﾀｶﾂｼﾞﾄﾞｵﾘﾄﾐﾉｺｳｼﾞﾋｶﾞｼｲﾙ､ﾀｶﾂｼﾞﾄﾞｵﾘﾌﾔﾁｮｳﾆｼｲﾙ)","prefecture":"京都府","city":"京都市下京区","street":"雁金町（高辻通富小路東入、高辻通麩屋町西入）"},{"zipCode":"6008060","prefectureKana":"ｷｮｳﾄﾌ","cityKana":"ｷｮｳﾄｼｼﾓｷﾞｮｳｸ","streetKana":"ｶﾘｶﾞﾈﾁｮｳ(ﾀｶﾂｼﾞﾄﾞｵﾘﾄﾐﾉｺｳｼﾞﾆｼｲﾙ､ﾀｶﾂｼﾞﾄﾞｵﾘﾔﾅｷﾞﾊﾞﾊﾞﾋｶﾞｼｲﾙ)","prefecture":"京都府","city":"京都市下京区","street":"雁金町（高辻通富小路西入、高辻通柳馬場東入）"},{"zipCode":"6008393","prefectureKana":"ｷｮｳﾄﾌ","cityKana":"ｷｮｳﾄｼｼﾓｷﾞｮｳｸ","streetKana":"ｶﾘｶﾞﾈﾁｮｳ(ｲﾜｶﾞﾐﾄﾞｵﾘｱﾔﾉｺｳｼﾞｻｶﾞﾙ､ｲﾜｶﾞﾐﾄﾞｵﾘﾌﾞﾂｺｳｼﾞｱｶﾞﾙ)","prefecture":"京都府","city":"京都市下京区","street":"雁金町（岩上通綾小路下る、岩上通仏光寺上る）"},{"zipCode":"6008252","prefectureKana":"ｷｮｳﾄﾌ","cityKana":"ｷｮｳﾄｼｼﾓｷﾞｮｳｸ","streetKana":"ｶﾜﾊﾞﾀﾁｮｳ(ｷｽﾞﾔﾊﾞｼﾄﾞｵﾘﾎﾘｶﾜﾆｼｲﾙ､ﾎﾘｶﾜﾄﾞｵﾘｷｽﾞﾔﾊﾞｼｱｶﾞﾙ)","prefecture":"京都府","city":"京都市下京区","street":"川端町（木津屋橋通堀川西入、堀川通木津屋橋上る）"},{"zipCode":"6008202","prefectureKana":"ｷｮｳﾄﾌ","cityKana":"ｷｮｳﾄｼｼﾓｷﾞｮｳｸ","streetKana":"ｶﾜﾊﾞﾀﾁｮｳ(ｿﾉﾀ)","prefecture":"京都府","city":"京都市下京区","street":"川端町（その他）"},{"zipCode":"6008835","prefectureKana":"ｷｮｳﾄﾌ","cityKana":"ｷｮｳﾄｼｼﾓｷﾞｮｳｸ","streetKana":"ｶﾝｷｼﾞﾁｮｳ","prefecture":"京都府","city":"京都市下京区","street":"観喜寺町"},{"zipCode":"6008009","prefectureKana":"ｷｮｳﾄﾌ","cityKana":"ｷｮｳﾄｼｼﾓｷﾞｮｳｸ","streetKana":"ｶﾝｺﾎﾞｺﾁｮｳ","prefecture":"京都府","city":"京都市下京区","street":"函谷鉾町"},{"zipCode":"6008336","prefectureKana":"ｷｮｳﾄﾌ","cityKana":"ｷｮｳﾄｼｼﾓｷﾞｮｳｸ","streetKana":"ｶﾞﾝｼﾞﾂﾁｮｳ","prefecture":"京都府","city":"京都市下京区","street":"元日町"},{"zipCode":"6008088","prefectureKana":"ｷｮｳﾄﾌ","cityKana":"ｷｮｳﾄｼｼﾓｷﾞｮｳｸ","streetKana":"ｶﾝｼｬﾃﾞﾝﾁｮｳ","prefecture":"京都府","city":"京都市下京区","street":"官社殿町"},{"zipCode":"6008444","prefectureKana":"ｷｮｳﾄﾌ","cityKana":"ｷｮｳﾄｼｼﾓｷﾞｮｳｸ","streetKana":"ｶﾝﾀﾞｲｼﾞﾝﾁｮｳ","prefecture":"京都府","city":"京都市下京区","street":"菅大臣町"},{"zipCode":"6008121","prefectureKana":"ｷｮｳﾄﾌ","cityKana":"ｷｮｳﾄｼｼﾓｷﾞｮｳｸ","streetKana":"ｷｸﾔﾁｮｳ","prefecture":"京都府","city":"京都市下京区","street":"菊屋町（上ノ口通加茂川筋西入、上ノ口通加茂川筋西入上る、加"},{"zipCode":"6008121","prefectureKana":"ｷｮｳﾄﾌ","cityKana":"ｷｮｳﾄｼｼﾓｷﾞｮｳｸ","streetKana":"ｷｸﾔﾁｮｳ","prefecture":"京都府","city":"京都市下京区","street":"茂川筋上ノ口下る、上ノ口通二ノ宮西入、二ノ宮通上ノ口下る）"},{"zipCode":"6008464","prefectureKana":"ｷｮｳﾄﾌ","cityKana":"ｷｮｳﾄｼｼﾓｷﾞｮｳｸ","streetKana":"ｷｸﾔﾁｮｳ","prefecture":"京都府","city":"京都市下京区","street":"菊屋町（高辻通新町西入下る、高辻通西洞院東入下る、若宮通高辻"},{"zipCode":"6008464","prefectureKana":"ｷｮｳﾄﾌ","cityKana":"ｷｮｳﾄｼｼﾓｷﾞｮｳｸ","streetKana":"ｷｸﾔﾁｮｳ","prefecture":"京都府","city":"京都市下京区","street":"下る、若宮通松原上る）"},{"zipCode":"6008228","prefectureKana":"ｷｮｳﾄﾌ","cityKana":"ｷｮｳﾄｼｼﾓｷﾞｮｳｸ","streetKana":"ｷﾀｺｳｼﾞﾁｮｳ","prefecture":"京都府","city":"京都市下京区","street":"北小路町"},{"zipCode":"6008233","prefectureKana":"ｷｮｳﾄﾌ","cityKana":"ｷｮｳﾄｼｼﾓｷﾞｮｳｸ","streetKana":"ｷﾀﾌﾄﾞﾝﾄﾞｳﾁｮｳ","prefecture":"京都府","city":"京都市下京区","street":"北不動堂町"},{"zipCode":"6008176","prefectureKana":"ｷｮｳﾄﾌ","cityKana":"ｷｮｳﾄｼｼﾓｷﾞｮｳｸ","streetKana":"ｷﾀﾏﾁ","prefecture":"京都府","city":"京都市下京区","street":"北町"},{"zipCode":"6008356","prefectureKana":"ｷｮｳﾄﾌ","cityKana":"ｷｮｳﾄｼｼﾓｷﾞｮｳｸ","streetKana":"ｷﾀﾓﾝｾﾞﾝﾁｮｳ","prefecture":"京都府","city":"京都市下京区","street":"北門前町"},{"zipCode":"6008069","prefectureKana":"ｷｮｳﾄﾌ","cityKana":"ｷｮｳﾄｼｼﾓｷﾞｮｳｸ","streetKana":"ｷﾁﾓﾝｼﾞﾁｮｳ","prefecture":"京都府","city":"京都市下京区","street":"吉文字町（高辻通柳馬場西入、高辻通柳馬場東入、柳馬場通高辻"},{"zipCode":"6008069","prefectureKana":"ｷｮｳﾄﾌ","cityKana":"ｷｮｳﾄｼｼﾓｷﾞｮｳｸ","streetKana":"ｷﾁﾓﾝｼﾞﾁｮｳ","prefecture":"京都府","city":"京都市下京区","street":"下る、柳馬場通松原上る）"},{"zipCode":"6008352","prefectureKana":"ｷｮｳﾄﾌ","cityKana":"ｷｮｳﾄｼｼﾓｷﾞｮｳｸ","streetKana":"ｷﾁﾓﾝｼﾞﾁｮｳ(ｲﾜｶﾞﾐﾄﾞｵﾘﾏﾂﾊﾞﾗｱｶﾞﾙ､ｲﾜｶﾞﾐﾄﾞｵﾘﾀｶﾂｼﾞｻｶﾞﾙ)","prefecture":"京都府","city":"京都市下京区","street":"吉文字町（岩上通松原上る、岩上通高辻下る）"},{"zipCode":"6008253","prefectureKana":"ｷｮｳﾄﾌ","cityKana":"ｷｮｳﾄｼｼﾓｷﾞｮｳｸ","streetKana":"ｷﾂﾞﾔﾁｮｳ","prefecture":"京都府","city":"京都市下京区","street":"木津屋町"},{"zipCode":"6008035","prefectureKana":"ｷｮｳﾄﾌ","cityKana":"ｷｮｳﾄｼｼﾓｷﾞｮｳｸ","streetKana":"ｷｮｳｺﾞｸﾁｮｳ","prefecture":"京都府","city":"京都市下京区","street":"京極町"},{"zipCode":"6008476","prefectureKana":"ｷｮｳﾄﾌ","cityKana":"ｷｮｳﾄｼｼﾓｷﾞｮｳｸ","streetKana":"ｷﾖｼﾁｮｳ","prefecture":"京都府","city":"京都市下京区","street":"喜吉町"},{"zipCode":"6008331","prefectureKana":"ｷｮｳﾄﾌ","cityKana":"ｷｮｳﾄｼｼﾓｷﾞｮｳｸ","streetKana":"ｷﾝﾄｳﾖｺﾁｮｳ","prefecture":"京都府","city":"京都市下京区","street":"金東横町"},{"zipCode":"6008423","prefectureKana":"ｷｮｳﾄﾌ","cityKana":"ｷｮｳﾄｼｼﾓｷﾞｮｳｸ","streetKana":"ｸｷﾞｶｸｼﾁｮｳ","prefecture":"京都府","city":"京都市下京区","street":"釘隠町"},{"zipCode":"6008081","prefectureKana":"ｷｮｳﾄﾌ","cityKana":"ｷｮｳﾄｼｼﾓｷﾞｮｳｸ","streetKana":"ｺｲｼﾁｮｳ","prefecture":"京都府","city":"京都市下京区","street":"小石町"},{"zipCode":"6008480","prefectureKana":"ｷｮｳﾄﾌ","cityKana":"ｷｮｳﾄｼｼﾓｷﾞｮｳｸ","streetKana":"ｺｲｽﾞﾐﾁｮｳ","prefecture":"京都府","city":"京都市下京区","street":"小泉町"},{"zipCode":"6008208","prefectureKana":"ｷｮｳﾄﾌ","cityKana":"ｷｮｳﾄｼｼﾓｷﾞｮｳｸ","streetKana":"ｺｲﾅﾘﾁｮｳ","prefecture":"京都府","city":"京都市下京区","street":"小稲荷町"},{"zipCode":"6008460","prefectureKana":"ｷｮｳﾄﾌ","cityKana":"ｷｮｳﾄｼｼﾓｷﾞｮｳｸ","streetKana":"ｺｳｼﾞﾝﾁｮｳ","prefecture":"京都府","city":"京都市下京区","street":"荒神町"},{"zipCode":"6008034","prefectureKana":"ｷｮｳﾄﾌ","cityKana":"ｷｮｳﾄｼｼﾓｷﾞｮｳｸ","streetKana":"ｺｳﾀｹﾁｮｳ","prefecture":"京都府","city":"京都市下京区","street":"幸竹町"},{"zipCode":"6008209","prefectureKana":"ｷｮｳﾄﾌ","cityKana":"ｷｮｳﾄｼｼﾓｷﾞｮｳｸ","streetKana":"ｺﾞｳﾉﾁｮｳ","prefecture":"京都府","city":"京都市下京区","street":"郷之町"},{"zipCode":"6008497","prefectureKana":"ｷｮｳﾄﾌ","cityKana":"ｷｮｳﾄｼｼﾓｷﾞｮｳｸ","streetKana":"ｺｳﾔﾄﾞｳﾁｮｳ","prefecture":"京都府","city":"京都市下京区","street":"高野堂町"},{"zipCode":"6008149","prefectureKana":"ｷｮｳﾄﾌ","cityKana":"ｷｮｳﾄｼｼﾓｷﾞｮｳｸ","streetKana":"ｺｶﾞﾜﾁｮｳ","prefecture":"京都府","city":"京都市下京区","street":"粉川町"},{"zipCode":"6008267","prefectureKana":"ｷｮｳﾄﾌ","cityKana":"ｷｮｳﾄｼｼﾓｷﾞｮｳｸ","streetKana":"ｺﾞｷﾔﾁｮｳ","prefecture":"京都府","city":"京都市下京区","street":"御器屋町"},{"zipCode":"6008429","prefectureKana":"ｷｮｳﾄﾌ","cityKana":"ｷｮｳﾄｼｼﾓｷﾞｮｳｸ","streetKana":"ｺﾞｸｲｼﾁｮｳ","prefecture":"京都府","city":"京都市下京区","street":"御供石町"},{"zipCode":"6008485","prefectureKana":"ｷｮｳﾄﾌ","cityKana":"ｷｮｳﾄｼｼﾓｷﾞｮｳｸ","streetKana":"ｺﾞｹﾝﾁｮｳ","prefecture":"京都府","city":"京都市下京区","street":"五軒町"},{"zipCode":"6008821","prefectureKana":"ｷｮｳﾄﾌ","cityKana":"ｷｮｳﾄｼｼﾓｷﾞｮｳｸ","streetKana":"ｺｻｶﾁｮｳ","prefecture":"京都府","city":"京都市下京区","street":"小坂町"},{"zipCode":"6008426","prefectureKana":"ｷｮｳﾄﾌ","cityKana":"ｷｮｳﾄｼｼﾓｷﾞｮｳｸ","streetKana":"ｺｼﾞﾏﾁｮｳ","prefecture":"京都府","city":"京都市下京区","street":"小島町"},{"zipCode":"6008418","prefectureKana":"ｷｮｳﾄﾌ","cityKana":"ｷｮｳﾄｼｼﾓｷﾞｮｳｸ","streetKana":"ｺﾞｼﾞｮｳｶﾗｽﾏﾁｮｳ","prefecture":"京都府","city":"京都市下京区","street":"五条烏丸町"},{"zipCode":"6008385","prefectureKana":"ｷｮｳﾄﾌ","cityKana":"ｷｮｳﾄｼｼﾓｷﾞｮｳｸ","streetKana":"ｺﾞﾎﾞｳｵｵﾐﾔﾁｮｳ","prefecture":"京都府","city":"京都市下京区","street":"五坊大宮町"},{"zipCode":"6008229","prefectureKana":"ｷｮｳﾄﾌ","cityKana":"ｷｮｳﾄｼｼﾓｷﾞｮｳｸ","streetKana":"ｺﾒﾔﾁｮｳ","prefecture":"京都府","city":"京都市下京区","street":"米屋町"},{"zipCode":"6008322","prefectureKana":"ｷｮｳﾄﾌ","cityKana":"ｷｮｳﾄｼｼﾓｷﾞｮｳｸ","streetKana":"ｺﾔﾅｷﾞﾁｮｳ","prefecture":"京都府","city":"京都市下京区","street":"小柳町"},{"zipCode":"6008130","prefectureKana":"ｷｮｳﾄﾌ","cityKana":"ｷｮｳﾄｼｼﾓｷﾞｮｳｸ","streetKana":"ｺﾝﾔﾁｮｳ","prefecture":"京都府","city":"京都市下京区","street":"紺屋町"},{"zipCode":"6008012","prefectureKana":"ｷｮｳﾄﾌ","cityKana":"ｷｮｳﾄｼｼﾓｷﾞｮｳｸ","streetKana":"ｻｲﾄｳﾁｮｳ","prefecture":"京都府","city":"京都市下京区","street":"斎藤町"},{"zipCode":"6008016","prefectureKana":"ｷｮｳﾄﾌ","cityKana":"ｷｮｳﾄｼｼﾓｷﾞｮｳｸ","streetKana":"ｻﾞｲﾓｸﾁｮｳ","prefecture":"京都府","city":"京都市下京区","street":"材木町（木屋町通松原下る、松原通木屋町東入、松原通高瀬川筋東入）"},{"zipCode":"6008146","prefectureKana":"ｷｮｳﾄﾌ","cityKana":"ｷｮｳﾄｼｼﾓｷﾞｮｳｸ","streetKana":"ｻﾞｲﾓｸﾁｮｳ","prefecture":"京都府","city":"京都市下京区","street":"材木町（間之町通七条下る、間之町通七条上る、河原町通七条上"},{"zipCode":"6008146","prefectureKana":"ｷｮｳﾄﾌ","cityKana":"ｷｮｳﾄｼｼﾓｷﾞｮｳｸ","streetKana":"ｻﾞｲﾓｸﾁｮｳ","prefecture":"京都府","city":"京都市下京区","street":"る、河原町通七条下る、七条通間之町西入、七条通間之町東入、七条通河原町西"},{"zipCode":"6008146","prefectureKana":"ｷｮｳﾄﾌ","cityKana":"ｷｮｳﾄｼｼﾓｷﾞｮｳｸ","streetKana":"ｻﾞｲﾓｸﾁｮｳ","prefecture":"京都府","city":"京都市下京区","street":"入、七条通河原町東入、七条通高倉西入、七条通高倉東入、七条通土手町"},{"zipCode":"6008146","prefectureKana":"ｷｮｳﾄﾌ","cityKana":"ｷｮｳﾄｼｼﾓｷﾞｮｳｸ","streetKana":"ｻﾞｲﾓｸﾁｮｳ","prefecture":"京都府","city":"京都市下京区","street":"西入、七条通東洞院東入、高倉通七条上る、高倉通七条下る、土手町通七条"},{"zipCode":"6008146","prefectureKana":"ｷｮｳﾄﾌ","cityKana":"ｷｮｳﾄｼｼﾓｷﾞｮｳｸ","streetKana":"ｻﾞｲﾓｸﾁｮｳ","prefecture":"京都府","city":"京都市下京区","street":"上る、東洞院通七条下る、柳馬場通七条上る）"},{"zipCode":"6008440","prefectureKana":"ｷｮｳﾄﾌ","cityKana":"ｷｮｳﾄｼｼﾓｷﾞｮｳｸ","streetKana":"ｻﾞｲﾓｸﾁｮｳ","prefecture":"京都府","city":"京都市下京区","street":"材木町（新町通五条上る、新町通万寿寺下る、万寿寺通新町西入、"},{"zipCode":"6008440","prefectureKana":"ｷｮｳﾄﾌ","cityKana":"ｷｮｳﾄｼｼﾓｷﾞｮｳｸ","streetKana":"ｻﾞｲﾓｸﾁｮｳ","prefecture":"京都府","city":"京都市下京区","street":"万寿寺通新町東入）"},{"zipCode":"6008191","prefectureKana":"ｷｮｳﾄﾌ","cityKana":"ｷｮｳﾄｼｼﾓｷﾞｮｳｸ","streetKana":"ｻｶｲﾁｮｳ(ｺﾞｼﾞｮｳﾄﾞｵﾘﾀｶｸﾗﾆｼｲﾙ､ｺﾞｼﾞｮｳﾄﾞｵﾘﾀｶｸﾗﾋｶﾞｼｲﾙ､ﾀｶｸﾗﾄﾞｵﾘｺﾞｼﾞｮｳｻｶﾞﾙ)","prefecture":"京都府","city":"京都市下京区","street":"堺町（五条通高倉西入、五条通高倉東入、高倉通五条下る）"},{"zipCode":"6008162","prefectureKana":"ｷｮｳﾄﾌ","cityKana":"ｷｮｳﾄｼｼﾓｷﾞｮｳｸ","streetKana":"ｻｶｲﾁｮｳ","prefecture":"京都府","city":"京都市下京区","street":"堺町（鍵屋町通室町西入、鍵屋町通室町東入、室町通鍵屋町下"},{"zipCode":"6008162","prefectureKana":"ｷｮｳﾄﾌ","cityKana":"ｷｮｳﾄｼｼﾓｷﾞｮｳｸ","streetKana":"ｻｶｲﾁｮｳ","prefecture":"京都府","city":"京都市下京区","street":"る、的場通室町西入、的場通室町東入、室町通五条下る２丁目、室町通六条"},{"zipCode":"6008162","prefectureKana":"ｷｮｳﾄﾌ","cityKana":"ｷｮｳﾄｼｼﾓｷﾞｮｳｸ","streetKana":"ｻｶｲﾁｮｳ","prefecture":"京都府","city":"京都市下京区","street":"上る、室町通的場上る）"},{"zipCode":"6008349","prefectureKana":"ｷｮｳﾄﾌ","cityKana":"ｷｮｳﾄｼｼﾓｷﾞｮｳｸ","streetKana":"ｻｶｲﾁｮｳ","prefecture":"京都府","city":"京都市下京区","street":"堺町（堀川通旧花屋町東入、堀川通旧花屋町東入下る、堀川通正面上る）"},{"zipCode":"6008194","prefectureKana":"ｷｮｳﾄﾌ","cityKana":"ｷｮｳﾄｼｼﾓｷﾞｮｳｸ","streetKana":"ｻｶｴﾁｮｳ","prefecture":"京都府","city":"京都市下京区","street":"栄町"},{"zipCode":"6008381","prefectureKana":"ｷｮｳﾄﾌ","cityKana":"ｷｮｳﾄｼｼﾓｷﾞｮｳｸ","streetKana":"ｻｶﾞﾘﾏﾂﾁｮｳ","prefecture":"京都府","city":"京都市下京区","street":"下り松町"},{"zipCode":"6008210","prefectureKana":"ｷｮｳﾄﾌ","cityKana":"ｷｮｳﾄｼｼﾓｷﾞｮｳｸ","streetKana":"ｻｸﾗｷﾞﾁｮｳ","prefecture":"京都府","city":"京都市下京区","street":"桜木町"},{"zipCode":"6008156","prefectureKana":"ｷｮｳﾄﾌ","cityKana":"ｷｮｳﾄｼｼﾓｷﾞｮｳｸ","streetKana":"ｻｻﾔﾁｮｳ","prefecture":"京都府","city":"京都市下京区","street":"笹屋町"},{"zipCode":"6008488","prefectureKana":"ｷｮｳﾄﾌ","cityKana":"ｷｮｳﾄｼｼﾓｷﾞｮｳｸ","streetKana":"ｻｻﾔﾁｮｳ","prefecture":"京都府","city":"京都市下京区","street":"篠屋町"},{"zipCode":"6008391","prefectureKana":"ｷｮｳﾄﾌ","cityKana":"ｷｮｳﾄｼｼﾓｷﾞｮｳｸ","streetKana":"ｻﾀｹﾁｮｳ","prefecture":"京都府","city":"京都市下京区","street":"佐竹町"},{"zipCode":"6008337","prefectureKana":"ｷｮｳﾄﾌ","cityKana":"ｷｮｳﾄｼｼﾓｷﾞｮｳｸ","streetKana":"ｻﾒｶﾞｲﾁｮｳ","prefecture":"京都府","city":"京都市下京区","street":"佐女牛井町"},{"zipCode":"6008394","prefectureKana":"ｷｮｳﾄﾌ","cityKana":"ｷｮｳﾄｼｼﾓｷﾞｮｳｸ","streetKana":"ｻﾗｼﾔﾁｮｳ","prefecture":"京都府","city":"京都市下京区","street":"晒屋町"},{"zipCode":"6008257","prefectureKana":"ｷｮｳﾄﾌ","cityKana":"ｷｮｳﾄｼｼﾓｷﾞｮｳｸ","streetKana":"ｻﾝｹﾞﾝｶﾞｴﾁﾁｮｳ","prefecture":"京都府","city":"京都市下京区","street":"三軒替地町"},{"zipCode":"6008097","prefectureKana":"ｷｮｳﾄﾌ","cityKana":"ｷｮｳﾄｼｼﾓｷﾞｮｳｸ","streetKana":"ｻﾝｹﾞﾝﾁｮｳ","prefecture":"京都府","city":"京都市下京区","street":"三軒町"},{"zipCode":"6008134","prefectureKana":"ｷｮｳﾄﾌ","cityKana":"ｷｮｳﾄｼｼﾓｷﾞｮｳｸ","streetKana":"ｻﾝﾉｳﾁｮｳ","prefecture":"京都府","city":"京都市下京区","street":"山王町（正面通木屋町西入、正面通木屋町東入、正面通三ノ宮"},{"zipCode":"6008134","prefectureKana":"ｷｮｳﾄﾌ","cityKana":"ｷｮｳﾄｼｼﾓｷﾞｮｳｸ","streetKana":"ｻﾝﾉｳﾁｮｳ","prefecture":"京都府","city":"京都市下京区","street":"西入、正面通三ノ宮東入、正面通二ノ宮西入）"},{"zipCode":"6008424","prefectureKana":"ｷｮｳﾄﾌ","cityKana":"ｷｮｳﾄｼｼﾓｷﾞｮｳｸ","streetKana":"ｻﾝﾉｳﾁｮｳ(ﾑﾛﾏﾁﾄﾞｵﾘﾀｶﾂｼﾞｱｶﾞﾙ､ﾑﾛﾏﾁﾄﾞｵﾘﾌﾞｯｺｳｼﾞｻｶﾞﾙ)","prefecture":"京都府","city":"京都市下京区","street":"山王町（室町通高辻上る、室町通仏光寺下る）"},{"zipCode":"6008103","prefectureKana":"ｷｮｳﾄﾌ","cityKana":"ｷｮｳﾄｼｼﾓｷﾞｮｳｸ","streetKana":"ｼｵｶﾞﾏﾁｮｳ","prefecture":"京都府","city":"京都市下京区","street":"塩竈町"},{"zipCode":"6008212","prefectureKana":"ｷｮｳﾄﾌ","cityKana":"ｷｮｳﾄｼｼﾓｷﾞｮｳｸ","streetKana":"ｼｵｺｳｼﾞﾁｮｳ","prefecture":"京都府","city":"京都市下京区","street":"塩小路町"},{"zipCode":"6008052","prefectureKana":"ｷｮｳﾄﾌ","cityKana":"ｷｮｳﾄｼｼﾓｷﾞｮｳｸ","streetKana":"ｼｵﾔﾁｮｳ","prefecture":"京都府","city":"京都市下京区","street":"塩屋町（綾小路通富小路西入、綾小路通富小路東入、綾小路通"},{"zipCode":"6008052","prefectureKana":"ｷｮｳﾄﾌ","cityKana":"ｷｮｳﾄｼｼﾓｷﾞｮｳｸ","streetKana":"ｼｵﾔﾁｮｳ","prefecture":"京都府","city":"京都市下京区","street":"麩屋町西入、綾小路通柳馬場東入、富小路通綾小路上る、富小路通綾小路下"},{"zipCode":"6008052","prefectureKana":"ｷｮｳﾄﾌ","cityKana":"ｷｮｳﾄｼｼﾓｷﾞｮｳｸ","streetKana":"ｼｵﾔﾁｮｳ","prefecture":"京都府","city":"京都市下京区","street":"る、麩屋町通綾小路下る）"},{"zipCode":"6008144","prefectureKana":"ｷｮｳﾄﾌ","cityKana":"ｷｮｳﾄｼｼﾓｷﾞｮｳｸ","streetKana":"ｼｵﾔﾁｮｳ","prefecture":"京都府","city":"京都市下京区","street":"塩屋町（河原町通七条上る西入、七条通河原町西入上る、下枳"},{"zipCode":"6008144","prefectureKana":"ｷｮｳﾄﾌ","cityKana":"ｷｮｳﾄｼｼﾓｷﾞｮｳｸ","streetKana":"ｼｵﾔﾁｮｳ","prefecture":"京都府","city":"京都市下京区","street":"殻馬場通河原町西入下る）"},{"zipCode":"6008382","prefectureKana":"ｷｮｳﾄﾌ","cityKana":"ｷｮｳﾄｼｼﾓｷﾞｮｳｸ","streetKana":"ｼｵﾔﾁｮｳ(ｸﾛﾓﾝﾄﾞｵﾘｱﾔﾉｺｳｼﾞｻｶﾞﾙ､ｸﾛﾓﾝﾄﾞｵﾘﾌﾞﾂｺｳｼﾞｱｶﾞﾙ)","prefecture":"京都府","city":"京都市下京区","street":"塩屋町（黒門通綾小路下る、黒門通仏光寺上る）"},{"zipCode":"6008389","prefectureKana":"ｷｮｳﾄﾌ","cityKana":"ｷｮｳﾄｼｼﾓｷﾞｮｳｸ","streetKana":"ｼｼﾞｮｳｵｵﾐﾔﾁｮｳ","prefecture":"京都府","city":"京都市下京区","street":"四条大宮町"},{"zipCode":"6008481","prefectureKana":"ｷｮｳﾄﾌ","cityKana":"ｷｮｳﾄｼｼﾓｷﾞｮｳｸ","streetKana":"ｼｼﾞｮｳﾎﾘｶﾜﾁｮｳ","prefecture":"京都府","city":"京都市下京区","street":"四条堀川町"},{"zipCode":"6008441","prefectureKana":"ｷｮｳﾄﾌ","cityKana":"ｷｮｳﾄｼｼﾓｷﾞｮｳｸ","streetKana":"ｼｼﾞｮｳﾁｮｳ","prefecture":"京都府","city":"京都市下京区","street":"四条町"},{"zipCode":"6008861","prefectureKana":"ｷｮｳﾄﾌ","cityKana":"ｷｮｳﾄｼｼﾓｷﾞｮｳｸ","streetKana":"ｼﾁｼﾞｮｳｺﾞｼｮﾉｳﾁｷﾀﾏﾁ","prefecture":"京都府","city":"京都市下京区","street":"七条御所ノ内北町"},{"zipCode":"6008862","prefectureKana":"ｷｮｳﾄﾌ","cityKana":"ｷｮｳﾄｼｼﾓｷﾞｮｳｸ","streetKana":"ｼﾁｼﾞｮｳｺﾞｼｮﾉｳﾁﾅｶﾏﾁ","prefecture":"京都府","city":"京都市下京区","street":"七条御所ノ内中町"},{"zipCode":"6008865","prefectureKana":"ｷｮｳﾄﾌ","cityKana":"ｷｮｳﾄｼｼﾓｷﾞｮｳｸ","streetKana":"ｼﾁｼﾞｮｳｺﾞｼｮﾉｳﾁﾆｼﾏﾁ","prefecture":"京都府","city":"京都市下京区","street":"七条御所ノ内西町"},{"zipCode":"6008863","prefectureKana":"ｷｮｳﾄﾌ","cityKana":"ｷｮｳﾄｼｼﾓｷﾞｮｳｸ","streetKana":"ｼﾁｼﾞｮｳｺﾞｼｮﾉｳﾁﾎﾝﾏﾁ","prefecture":"京都府","city":"京都市下京区","street":"七条御所ノ内本町"},{"zipCode":"6008864","prefectureKana":"ｷｮｳﾄﾌ","cityKana":"ｷｮｳﾄｼｼﾓｷﾞｮｳｸ","streetKana":"ｼﾁｼﾞｮｳｺﾞｼｮﾉｳﾁﾐﾅﾐﾏﾁ","prefecture":"京都府","city":"京都市下京区","street":"七条御所ノ内南町"},{"zipCode":"6008316","prefectureKana":"ｷｮｳﾄﾌ","cityKana":"ｷｮｳﾄｼｼﾓｷﾞｮｳｸ","streetKana":"ｼﾎﾝﾏﾂﾁｮｳ","prefecture":"京都府","city":"京都市下京区","street":"四本松町"},{"zipCode":"6008025","prefectureKana":"ｷｮｳﾄﾌ","cityKana":"ｷｮｳﾄｼｼﾓｷﾞｮｳｸ","streetKana":"ｼﾐｽﾞﾁｮｳ","prefecture":"京都府","city":"京都市下京区","street":"清水町（河原町通高辻下る、河原町通松原上る、西木屋町通高辻"},{"zipCode":"6008025","prefectureKana":"ｷｮｳﾄﾌ","cityKana":"ｷｮｳﾄｼｼﾓｷﾞｮｳｸ","streetKana":"ｼﾐｽﾞﾁｮｳ","prefecture":"京都府","city":"京都市下京区","street":"下る、西木屋町通松原上る）"},{"zipCode":"6008255","prefectureKana":"ｷｮｳﾄﾌ","cityKana":"ｷｮｳﾄｼｼﾓｷﾞｮｳｸ","streetKana":"ｼﾐｽﾞﾁｮｳ","prefecture":"京都府","city":"京都市下京区","street":"清水町（堀川通木津屋橋下る、堀川通塩小路上る、西堀川通木津屋"},{"zipCode":"6008255","prefectureKana":"ｷｮｳﾄﾌ","cityKana":"ｷｮｳﾄｼｼﾓｷﾞｮｳｸ","streetKana":"ｼﾐｽﾞﾁｮｳ","prefecture":"京都府","city":"京都市下京区","street":"橋下る、堀川通塩小路西入）"},{"zipCode":"6008241","prefectureKana":"ｷｮｳﾄﾌ","cityKana":"ｷｮｳﾄｼｼﾓｷﾞｮｳｸ","streetKana":"ｼﾐｽﾞﾁｮｳ","prefecture":"京都府","city":"京都市下京区","street":"志水町"},{"zipCode":"6008263","prefectureKana":"ｷｮｳﾄﾌ","cityKana":"ｷｮｳﾄｼｼﾓｷﾞｮｳｸ","streetKana":"ｼﾓｳｵﾉﾀﾅ(4ﾁｮｳﾒ)","prefecture":"京都府","city":"京都市下京区","street":"下魚棚（４丁目）"},{"zipCode":"6008059","prefectureKana":"ｷｮｳﾄﾌ","cityKana":"ｷｮｳﾄｼｼﾓｷﾞｮｳｸ","streetKana":"ｼﾓｳﾛｺｶﾞﾀﾁｮｳ","prefecture":"京都府","city":"京都市下京区","street":"下鱗形町"},{"zipCode":"6008249","prefectureKana":"ｷｮｳﾄﾌ","cityKana":"ｷｮｳﾄｼｼﾓｷﾞｮｳｸ","streetKana":"ｼﾓｺｳｼﾞﾔﾁｮｳ","prefecture":"京都府","city":"京都市下京区","street":"下糀屋町"},{"zipCode":"6008373","prefectureKana":"ｷｮｳﾄﾌ","cityKana":"ｷｮｳﾄｼｼﾓｷﾞｮｳｸ","streetKana":"ｼﾓｺﾞｼﾞｮｳﾁｮｳ","prefecture":"京都府","city":"京都市下京区","street":"下五条町"},{"zipCode":"6008017","prefectureKana":"ｷｮｳﾄﾌ","cityKana":"ｷｮｳﾄｼｼﾓｷﾞｮｳｸ","streetKana":"ｼﾓｻﾞｲﾓｸﾁｮｳ","prefecture":"京都府","city":"京都市下京区","street":"下材木町"},{"zipCode":"6008136","prefectureKana":"ｷｮｳﾄﾌ","cityKana":"ｷｮｳﾄｼｼﾓｷﾞｮｳｸ","streetKana":"ｼﾓｻﾝﾉﾐﾔﾁｮｳ","prefecture":"京都府","city":"京都市下京区","street":"下三之宮町"},{"zipCode":"6008163","prefectureKana":"ｷｮｳﾄﾌ","cityKana":"ｷｮｳﾄｼｼﾓｷﾞｮｳｸ","streetKana":"ｼﾓｽﾜﾝﾁｮｳ","prefecture":"京都府","city":"京都市下京区","street":"下諏訪町"},{"zipCode":"6008375","prefectureKana":"ｷｮｳﾄﾌ","cityKana":"ｷｮｳﾄｼｼﾓｷﾞｮｳｸ","streetKana":"ｼﾓﾁｮｳﾌｸｼﾞﾁｮｳ","prefecture":"京都府","city":"京都市下京区","street":"下長福寺町"},{"zipCode":"6008132","prefectureKana":"ｷｮｳﾄﾌ","cityKana":"ｷｮｳﾄｼｼﾓｷﾞｮｳｸ","streetKana":"ｼﾓﾆﾉﾐﾔﾁｮｳ","prefecture":"京都府","city":"京都市下京区","street":"下二之宮町"},{"zipCode":"6008206","prefectureKana":"ｷｮｳﾄﾌ","cityKana":"ｷｮｳﾄｼｼﾓｷﾞｮｳｸ","streetKana":"ｼﾓﾉﾁｮｳ","prefecture":"京都府","city":"京都市下京区","street":"下之町"},{"zipCode":"6008172","prefectureKana":"ｷｮｳﾄﾌ","cityKana":"ｷｮｳﾄｼｼﾓｷﾞｮｳｸ","streetKana":"ｼﾓﾋﾗﾉﾁｮｳ","prefecture":"京都府","city":"京都市下京区","street":"下平野町"},{"zipCode":"6008180","prefectureKana":"ｷｮｳﾄﾌ","cityKana":"ｷｮｳﾄｼｼﾓｷﾞｮｳｸ","streetKana":"ｼﾓﾏﾝｼﾞｭｳｼﾞﾁｮｳ","prefecture":"京都府","city":"京都市下京区","street":"下万寿寺町"},{"zipCode":"6008165","prefectureKana":"ｷｮｳﾄﾌ","cityKana":"ｷｮｳﾄｼｼﾓｷﾞｮｳｸ","streetKana":"ｼﾓﾔﾅｷﾞﾁｮｳ","prefecture":"京都府","city":"京都市下京区","street":"下柳町"},{"zipCode":"6008137","prefectureKana":"ｷｮｳﾄﾌ","cityKana":"ｷｮｳﾄｼｼﾓｷﾞｮｳｸ","streetKana":"ｼﾞｭｳｾﾞﾝｼﾞﾁｮｳ","prefecture":"京都府","city":"京都市下京区","street":"十禅師町"},{"zipCode":"6008354","prefectureKana":"ｷｮｳﾄﾌ","cityKana":"ｷｮｳﾄｼｼﾓｷﾞｮｳｸ","streetKana":"ｼﾞｭｳﾓﾝｼﾞﾁｮｳ","prefecture":"京都府","city":"京都市下京区","street":"十文字町"},{"zipCode":"6008348","prefectureKana":"ｷｮｳﾄﾌ","cityKana":"ｷｮｳﾄｼｼﾓｷﾞｮｳｸ","streetKana":"ｼﾞｭｽﾞﾔﾁｮｳ","prefecture":"京都府","city":"京都市下京区","street":"珠数屋町"},{"zipCode":"6008417","prefectureKana":"ｷｮｳﾄﾌ","cityKana":"ｷｮｳﾄｼｼﾓｷﾞｮｳｸ","streetKana":"ｼｭﾝｾﾞｲﾁｮｳ","prefecture":"京都府","city":"京都市下京区","street":"俊成町"},{"zipCode":"6008021","prefectureKana":"ｷｮｳﾄﾌ","cityKana":"ｷｮｳﾄｼｼﾓｷﾞｮｳｸ","streetKana":"ｼﾞｭﾝﾌﾟｳﾁｮｳ","prefecture":"京都府","city":"京都市下京区","street":"順風町"},{"zipCode":"6008116","prefectureKana":"ｷｮｳﾄﾌ","cityKana":"ｷｮｳﾄｼｼﾓｷﾞｮｳｸ","streetKana":"ｼｮｳｼﾝｼﾞﾁｮｳ","prefecture":"京都府","city":"京都市下京区","street":"聖真子町"},{"zipCode":"6008158","prefectureKana":"ｷｮｳﾄﾌ","cityKana":"ｷｮｳﾄｼｼﾓｷﾞｮｳｸ","streetKana":"ｼｮｸﾔﾁｮｳ","prefecture":"京都府","city":"京都市下京区","street":"卓屋町"},{"zipCode":"6008084","prefectureKana":"ｷｮｳﾄﾌ","cityKana":"ｷｮｳﾄｼｼﾓｷﾞｮｳｸ","streetKana":"ｼﾝｶｲﾁｮｳ","prefecture":"京都府","city":"京都市下京区","street":"新開町"},{"zipCode":"6008471","prefectureKana":"ｷｮｳﾄﾌ","cityKana":"ｷｮｳﾄｼｼﾓｷﾞｮｳｸ","streetKana":"ｼﾝｶﾏﾝｻﾞﾁｮｳ","prefecture":"京都府","city":"京都市下京区","street":"新釜座町"},{"zipCode":"6008001","prefectureKana":"ｷｮｳﾄﾌ","cityKana":"ｷｮｳﾄｼｼﾓｷﾞｮｳｸ","streetKana":"ｼﾝﾁｮｳ","prefecture":"京都府","city":"京都市下京区","street":"真町"},{"zipCode":"6008141","prefectureKana":"ｷｮｳﾄﾌ","cityKana":"ｷｮｳﾄｼｼﾓｷﾞｮｳｸ","streetKana":"ｼﾝﾋﾖｼﾁｮｳ","prefecture":"京都府","city":"京都市下京区","street":"新日吉町"},{"zipCode":"6008092","prefectureKana":"ｷｮｳﾄﾌ","cityKana":"ｷｮｳﾄｼｼﾓｷﾞｮｳｸ","streetKana":"ｼﾝﾒｲﾁｮｳ","prefecture":"京都府","city":"京都市下京区","street":"神明町"},{"zipCode":"6008411","prefectureKana":"ｷｮｳﾄﾌ","cityKana":"ｷｮｳﾄｼｼﾓｷﾞｮｳｸ","streetKana":"ｽｲｷﾞﾝﾔﾁｮｳ","prefecture":"京都府","city":"京都市下京区","street":"水銀屋町"},{"zipCode":"6008386","prefectureKana":"ｷｮｳﾄﾌ","cityKana":"ｷｮｳﾄｼｼﾓｷﾞｮｳｸ","streetKana":"ｽｷﾞｴﾋﾞｽﾁｮｳ","prefecture":"京都府","city":"京都市下京区","street":"杉蛭子町"},{"zipCode":"6008078","prefectureKana":"ｷｮｳﾄﾌ","cityKana":"ｷｮｳﾄｼｼﾓｷﾞｮｳｸ","streetKana":"ｽｷﾞﾔﾁｮｳ","prefecture":"京都府","city":"京都市下京区","street":"杉屋町"},{"zipCode":"6008843","prefectureKana":"ｷｮｳﾄﾌ","cityKana":"ｷｮｳﾄｼｼﾓｷﾞｮｳｸ","streetKana":"ｽｼﾞｬｸｳﾁﾊﾀﾁｮｳ","prefecture":"京都府","city":"京都市下京区","street":"朱雀内畑町"},{"zipCode":"6008844","prefectureKana":"ｷｮｳﾄﾌ","cityKana":"ｷｮｳﾄｼｼﾓｷﾞｮｳｸ","streetKana":"ｽｼﾞｬｸｳﾗﾊﾀﾁｮｳ","prefecture":"京都府","city":"京都市下京区","street":"朱雀裏畑町"},{"zipCode":"6008845","prefectureKana":"ｷｮｳﾄﾌ","cityKana":"ｷｮｳﾄｼｼﾓｷﾞｮｳｸ","streetKana":"ｽｼﾞｬｸｷﾀﾉｸﾁﾁｮｳ","prefecture":"京都府","city":"京都市下京区","street":"朱雀北ノ口町"},{"zipCode":"6008841","prefectureKana":"ｷｮｳﾄﾌ","cityKana":"ｷｮｳﾄｼｼﾓｷﾞｮｳｸ","streetKana":"ｽｼﾞｬｸｼｮｳｶｲﾁｮｳ","prefecture":"京都府","city":"京都市下京区","street":"朱雀正会町"},{"zipCode":"6008842","prefectureKana":"ｷｮｳﾄﾌ","cityKana":"ｷｮｳﾄｼｼﾓｷﾞｮｳｸ","streetKana":"ｽｼﾞｬｸﾄﾞｳﾉｸﾁﾁｮｳ","prefecture":"京都府","city":"京都市下京区","street":"朱雀堂ノ口町"},{"zipCode":"6008847","prefectureKana":"ｷｮｳﾄﾌ","cityKana":"ｷｮｳﾄｼｼﾓｷﾞｮｳｸ","streetKana":"ｽｼﾞｬｸﾌﾞﾝｷﾁｮｳ","prefecture":"京都府","city":"京都市下京区","street":"朱雀分木町"},{"zipCode":"6008846","prefectureKana":"ｷｮｳﾄﾌ","cityKana":"ｷｮｳﾄｼｼﾓｷﾞｮｳｸ","streetKana":"ｽｼﾞｬｸﾎｳｿﾞｳﾁｮｳ","prefecture":"京都府","city":"京都市下京区","street":"朱雀宝蔵町"},{"zipCode":"6008061","prefectureKana":"ｷｮｳﾄﾌ","cityKana":"ｷｮｳﾄｼｼﾓｷﾞｮｳｸ","streetKana":"ｽｼﾞﾔﾁｮｳ","prefecture":"京都府","city":"京都市下京区","street":"筋屋町"},{"zipCode":"6008048","prefectureKana":"ｷｮｳﾄﾌ","cityKana":"ｷｮｳﾄｼｼﾓｷﾞｮｳｸ","streetKana":"ｽﾊﾞﾏﾁｮｳ","prefecture":"京都府","city":"京都市下京区","street":"須浜町"},{"zipCode":"6008143","prefectureKana":"ｷｮｳﾄﾌ","cityKana":"ｷｮｳﾄｼｼﾓｷﾞｮｳｸ","streetKana":"ｽﾐﾖｼﾁｮｳ","prefecture":"京都府","city":"京都市下京区","street":"住吉町（河原町通七条上る、河原町通下枳殻馬場下る、下枳殻馬"},{"zipCode":"6008143","prefectureKana":"ｷｮｳﾄﾌ","cityKana":"ｷｮｳﾄｼｼﾓｷﾞｮｳｸ","streetKana":"ｽﾐﾖｼﾁｮｳ","prefecture":"京都府","city":"京都市下京区","street":"場通河原町西入、下珠数屋町通高倉東入）"},{"zipCode":"6008335","prefectureKana":"ｷｮｳﾄﾌ","cityKana":"ｷｮｳﾄｼｼﾓｷﾞｮｳｸ","streetKana":"ｽﾐﾖｼﾁｮｳ(ｻﾒｶﾞｲﾄﾞｵﾘﾀｶﾂｼﾞｻｶﾞﾙ､ｻﾒｶﾞｲﾄﾞｵﾘﾏﾂﾊﾞﾗｱｶﾞﾙ)","prefecture":"京都府","city":"京都市下京区","street":"住吉町（醒ケ井通高辻下る、醒ケ井通松原上る）"},{"zipCode":"6008468","prefectureKana":"ｷｮｳﾄﾌ","cityKana":"ｷｮｳﾄｼｼﾓｷﾞｮｳｸ","streetKana":"ｽﾐﾖｼﾁｮｳ","prefecture":"京都府","city":"京都市下京区","street":"住吉町（新花屋町通西中筋東入、西中筋通新花屋町上る、西中筋"},{"zipCode":"6008468","prefectureKana":"ｷｮｳﾄﾌ","cityKana":"ｷｮｳﾄｼｼﾓｷﾞｮｳｸ","streetKana":"ｽﾐﾖｼﾁｮｳ","prefecture":"京都府","city":"京都市下京区","street":"通新花屋町下る、西中筋通花屋町上る、西中筋通六条下る、新花屋町通堀川東"},{"zipCode":"6008468","prefectureKana":"ｷｮｳﾄﾌ","cityKana":"ｷｮｳﾄｼｼﾓｷﾞｮｳｸ","streetKana":"ｽﾐﾖｼﾁｮｳ","prefecture":"京都府","city":"京都市下京区","street":"入、堀川通新花屋町上る、堀川通新花屋町下る、堀川通花屋町上る、堀川通六条"},{"zipCode":"6008468","prefectureKana":"ｷｮｳﾄﾌ","cityKana":"ｷｮｳﾄｼｼﾓｷﾞｮｳｸ","streetKana":"ｽﾐﾖｼﾁｮｳ","prefecture":"京都府","city":"京都市下京区","street":"下る）"},{"zipCode":"6008832","prefectureKana":"ｷｮｳﾄﾌ","cityKana":"ｷｮｳﾄｼｼﾓｷﾞｮｳｸ","streetKana":"ｽﾜﾋﾞﾗｷﾁｮｳ","prefecture":"京都府","city":"京都市下京区","street":"諏訪開町"},{"zipCode":"6008398","prefectureKana":"ｷｮｳﾄﾌ","cityKana":"ｷｮｳﾄｼｼﾓｷﾞｮｳｸ","streetKana":"ｾﾄﾔﾁｮｳ","prefecture":"京都府","city":"京都市下京区","street":"瀬戸屋町"},{"zipCode":"6008303","prefectureKana":"ｷｮｳﾄﾌ","cityKana":"ｷｮｳﾄｼｼﾓｷﾞｮｳｸ","streetKana":"ｾﾞﾆﾔﾁｮｳ","prefecture":"京都府","city":"京都市下京区","street":"銭屋町"},{"zipCode":"6008076","prefectureKana":"ｷｮｳﾄﾌ","cityKana":"ｷｮｳﾄｼｼﾓｷﾞｮｳｸ","streetKana":"ｾﾝｼｮｳｼﾞﾁｮｳ","prefecture":"京都府","city":"京都市下京区","street":"泉正寺町"},{"zipCode":"6008338","prefectureKana":"ｷｮｳﾄﾌ","cityKana":"ｷｮｳﾄｼｼﾓｷﾞｮｳｸ","streetKana":"ｾﾝｽｲﾁｮｳ","prefecture":"京都府","city":"京都市下京区","street":"泉水町"},{"zipCode":"6008431","prefectureKana":"ｷｮｳﾄﾌ","cityKana":"ｷｮｳﾄｼｼﾓｷﾞｮｳｸ","streetKana":"ｾﾞﾝﾁｮｳｼﾞﾁｮｳ","prefecture":"京都府","city":"京都市下京区","street":"善長寺町"},{"zipCode":"6008019","prefectureKana":"ｷｮｳﾄﾌ","cityKana":"ｷｮｳﾄｼｼﾓｷﾞｮｳｸ","streetKana":"ｾﾝﾄﾞｳﾁｮｳ","prefecture":"京都府","city":"京都市下京区","street":"船頭町"},{"zipCode":"6008128","prefectureKana":"ｷｮｳﾄﾌ","cityKana":"ｷｮｳﾄｼｼﾓｷﾞｮｳｸ","streetKana":"ﾀﾞｲｸﾁｮｳ","prefecture":"京都府","city":"京都市下京区","street":"大工町（上ノ口通河原町東入、上ノ口通土手町西入、上ノ口通"},{"zipCode":"6008128","prefectureKana":"ｷｮｳﾄﾌ","cityKana":"ｷｮｳﾄｼｼﾓｷﾞｮｳｸ","streetKana":"ﾀﾞｲｸﾁｮｳ","prefecture":"京都府","city":"京都市下京区","street":"土手町東入、上ノ口通西木屋町西入、河原町通上ノ口上る、河原町通上ノ口"},{"zipCode":"6008128","prefectureKana":"ｷｮｳﾄﾌ","cityKana":"ｷｮｳﾄｼｼﾓｷﾞｮｳｸ","streetKana":"ﾀﾞｲｸﾁｮｳ","prefecture":"京都府","city":"京都市下京区","street":"下る、河原町通六条下る、土手町通上ノ口下る、土手町通正面上る、上枳殻馬場"},{"zipCode":"6008128","prefectureKana":"ｷｮｳﾄﾌ","cityKana":"ｷｮｳﾄｼｼﾓｷﾞｮｳｸ","streetKana":"ﾀﾞｲｸﾁｮｳ","prefecture":"京都府","city":"京都市下京区","street":"通河原町東入）"},{"zipCode":"6008268","prefectureKana":"ｷｮｳﾄﾌ","cityKana":"ｷｮｳﾄｼｼﾓｷﾞｮｳｸ","streetKana":"ﾀﾞｲｸﾁｮｳ","prefecture":"京都府","city":"京都市下京区","street":"大工町（猪熊通七条上る、猪熊通七条下る、猪熊通下魚棚上る、七"},{"zipCode":"6008268","prefectureKana":"ｷｮｳﾄﾌ","cityKana":"ｷｮｳﾄｼｼﾓｷﾞｮｳｸ","streetKana":"ﾀﾞｲｸﾁｮｳ","prefecture":"京都府","city":"京都市下京区","street":"条通猪熊西入、七条通大宮東入、下魚棚通猪熊西入、下魚棚通大宮東入、"},{"zipCode":"6008268","prefectureKana":"ｷｮｳﾄﾌ","cityKana":"ｷｮｳﾄｼｼﾓｷﾞｮｳｸ","streetKana":"ﾀﾞｲｸﾁｮｳ","prefecture":"京都府","city":"京都市下京区","street":"下魚棚通大宮東入下る、下魚棚通黒門東入）"},{"zipCode":"6008043","prefectureKana":"ｷｮｳﾄﾌ","cityKana":"ｷｮｳﾄｼｼﾓｷﾞｮｳｸ","streetKana":"ﾀﾞｲｺｸﾁｮｳ","prefecture":"京都府","city":"京都市下京区","street":"大黒町（仏光寺通御幸町西入、仏光寺通御幸町東入、仏光寺通"},{"zipCode":"6008043","prefectureKana":"ｷｮｳﾄﾌ","cityKana":"ｷｮｳﾄｼｼﾓｷﾞｮｳｸ","streetKana":"ﾀﾞｲｺｸﾁｮｳ","prefecture":"京都府","city":"京都市下京区","street":"寺町西入、仏光寺通麩屋町東入）"},{"zipCode":"6008161","prefectureKana":"ｷｮｳﾄﾌ","cityKana":"ｷｮｳﾄｼｼﾓｷﾞｮｳｸ","streetKana":"ﾀﾞｲｺｸﾁｮｳ","prefecture":"京都府","city":"京都市下京区","street":"大黒町（鍵屋町通室町西入、鍵屋町通室町東入、五条通室町東"},{"zipCode":"6008161","prefectureKana":"ｷｮｳﾄﾌ","cityKana":"ｷｮｳﾄｼｼﾓｷﾞｮｳｸ","streetKana":"ﾀﾞｲｺｸﾁｮｳ","prefecture":"京都府","city":"京都市下京区","street":"入、室町通鍵屋町上る、室町通楊梅上る、室町通楊梅下る）"},{"zipCode":"6008223","prefectureKana":"ｷｮｳﾄﾌ","cityKana":"ｷｮｳﾄｼｼﾓｷﾞｮｳｸ","streetKana":"ﾀﾞｲｺｸﾁｮｳ","prefecture":"京都府","city":"京都市下京区","street":"大黒町（油小路通七条下る、七条通油小路東入、七条通西洞院西"},{"zipCode":"6008223","prefectureKana":"ｷｮｳﾄﾌ","cityKana":"ｷｮｳﾄｼｼﾓｷﾞｮｳｸ","streetKana":"ﾀﾞｲｺｸﾁｮｳ","prefecture":"京都府","city":"京都市下京区","street":"入、下魚棚通油小路東入、下魚棚通西洞院西入、西洞院通七条下る、東中"},{"zipCode":"6008223","prefectureKana":"ｷｮｳﾄﾌ","cityKana":"ｷｮｳﾄｼｼﾓｷﾞｮｳｸ","streetKana":"ﾀﾞｲｺｸﾁｮｳ","prefecture":"京都府","city":"京都市下京区","street":"筋通七条下る、東中筋通下魚棚下る）"},{"zipCode":"6008106","prefectureKana":"ｷｮｳﾄﾌ","cityKana":"ｷｮｳﾄｼｼﾓｷﾞｮｳｸ","streetKana":"ﾀﾞｲｺﾞﾁｮｳ","prefecture":"京都府","city":"京都市下京区","street":"醍醐町"},{"zipCode":"6008469","prefectureKana":"ｷｮｳﾄﾌ","cityKana":"ｷｮｳﾄｼｼﾓｷﾞｮｳｸ","streetKana":"ﾀｲｼﾔﾏﾁｮｳ","prefecture":"京都府","city":"京都市下京区","street":"太子山町"},{"zipCode":"6008039","prefectureKana":"ｷｮｳﾄﾌ","cityKana":"ｷｮｳﾄｼｼﾓｷﾞｮｳｸ","streetKana":"ﾀﾞｲｽﾞﾁｮｳ","prefecture":"京都府","city":"京都市下京区","street":"大寿町"},{"zipCode":"6008237","prefectureKana":"ｷｮｳﾄﾌ","cityKana":"ｷｮｳﾄｼｼﾓｷﾞｮｳｸ","streetKana":"ﾀｲﾏﾂﾁｮｳ","prefecture":"京都府","city":"京都市下京区","street":"松明町"},{"zipCode":"6008221","prefectureKana":"ｷｮｳﾄﾌ","cityKana":"ｷｮｳﾄｼｼﾓｷﾞｮｳｸ","streetKana":"ﾀｶｵﾁｮｳ","prefecture":"京都府","city":"京都市下京区","street":"高雄町"},{"zipCode":"6008082","prefectureKana":"ｷｮｳﾄﾌ","cityKana":"ｷｮｳﾄｼｼﾓｷﾞｮｳｸ","streetKana":"ﾀｶｻﾞｲﾓｸﾁｮｳ","prefecture":"京都府","city":"京都市下京区","street":"高材木町"},{"zipCode":"6008420","prefectureKana":"ｷｮｳﾄﾌ","cityKana":"ｷｮｳﾄｼｼﾓｷﾞｮｳｸ","streetKana":"ﾀｶｻｺﾞﾁｮｳ","prefecture":"京都府","city":"京都市下京区","street":"高砂町"},{"zipCode":"6008174","prefectureKana":"ｷｮｳﾄﾌ","cityKana":"ｷｮｳﾄｼｼﾓｷﾞｮｳｸ","streetKana":"ﾀｶﾂｷﾁｮｳ","prefecture":"京都府","city":"京都市下京区","street":"高槻町"},{"zipCode":"6008353","prefectureKana":"ｷｮｳﾄﾌ","cityKana":"ｷｮｳﾄｼｼﾓｷﾞｮｳｸ","streetKana":"ﾀｶﾂｼﾞｲﾉｸﾏﾁｮｳ","prefecture":"京都府","city":"京都市下京区","street":"高辻猪熊町"},{"zipCode":"6008387","prefectureKana":"ｷｮｳﾄﾌ","cityKana":"ｷｮｳﾄｼｼﾓｷﾞｮｳｸ","streetKana":"ﾀｶﾂｼﾞｵｵﾐﾔﾁｮｳ","prefecture":"京都府","city":"京都市下京区","street":"高辻大宮町"},{"zipCode":"6008465","prefectureKana":"ｷｮｳﾄﾌ","cityKana":"ｷｮｳﾄｼｼﾓｷﾞｮｳｸ","streetKana":"ﾀｶﾂｼﾞﾆｼﾉﾄｳｲﾝﾁｮｳ","prefecture":"京都府","city":"京都市下京区","street":"高辻西洞院町"},{"zipCode":"6008486","prefectureKana":"ｷｮｳﾄﾌ","cityKana":"ｷｮｳﾄｼｼﾓｷﾞｮｳｸ","streetKana":"ﾀｶﾂｼﾞﾎﾘｶﾜﾁｮｳ","prefecture":"京都府","city":"京都市下京区","street":"高辻堀川町"},{"zipCode":"6008434","prefectureKana":"ｷｮｳﾄﾌ","cityKana":"ｷｮｳﾄｼｼﾓｷﾞｮｳｸ","streetKana":"ﾀｶﾂｼﾞﾁｮｳ","prefecture":"京都府","city":"京都市下京区","street":"高辻町"},{"zipCode":"6008096","prefectureKana":"ｷｮｳﾄﾌ","cityKana":"ｷｮｳﾄｼｼﾓｷﾞｮｳｸ","streetKana":"ﾀｶﾊｼﾁｮｳ","prefecture":"京都府","city":"京都市下京区","street":"高橋町"},{"zipCode":"6008123","prefectureKana":"ｷｮｳﾄﾌ","cityKana":"ｷｮｳﾄｼｼﾓｷﾞｮｳｸ","streetKana":"ﾀｶﾐﾔﾁｮｳ","prefecture":"京都府","city":"京都市下京区","street":"高宮町"},{"zipCode":"6008093","prefectureKana":"ｷｮｳﾄﾌ","cityKana":"ｷｮｳﾄｼｼﾓｷﾞｮｳｸ","streetKana":"ﾀｹﾔﾁｮｳ","prefecture":"京都府","city":"京都市下京区","street":"竹屋町（高倉通綾小路下る、高倉通仏光寺上る、堺町通綾小路下る西入）"},{"zipCode":"6008319","prefectureKana":"ｷｮｳﾄﾌ","cityKana":"ｷｮｳﾄｼｼﾓｷﾞｮｳｸ","streetKana":"ﾀｹﾔﾁｮｳ(ﾜｶﾐﾔﾄﾞｵﾘｷﾀｺｳｼﾞｻｶﾞﾙ､ﾜｶﾐﾔﾄﾞｵﾘｼﾁｼﾞｮｳｱｶﾞﾙ)","prefecture":"京都府","city":"京都市下京区","street":"竹屋町（若宮通北小路下る、若宮通七条上る）"},{"zipCode":"6008090","prefectureKana":"ｷｮｳﾄﾌ","cityKana":"ｷｮｳﾄｼｼﾓｷﾞｮｳｸ","streetKana":"ﾀｹﾔﾉﾁｮｳ","prefecture":"京都府","city":"京都市下京区","street":"竹屋之町"},{"zipCode":"6008006","prefectureKana":"ｷｮｳﾄﾌ","cityKana":"ｷｮｳﾄｼｼﾓｷﾞｮｳｸ","streetKana":"ﾀﾁｳﾘﾅｶﾉﾁｮｳ","prefecture":"京都府","city":"京都市下京区","street":"立売中之町"},{"zipCode":"6008007","prefectureKana":"ｷｮｳﾄﾌ","cityKana":"ｷｮｳﾄｼｼﾓｷﾞｮｳｸ","streetKana":"ﾀﾁｳﾘﾆｼﾏﾁ","prefecture":"京都府","city":"京都市下京区","street":"立売西町"},{"zipCode":"6008005","prefectureKana":"ｷｮｳﾄﾌ","cityKana":"ｷｮｳﾄｼｼﾓｷﾞｮｳｸ","streetKana":"ﾀﾁｳﾘﾋｶﾞｼﾁｮｳ","prefecture":"京都府","city":"京都市下京区","street":"立売東町"},{"zipCode":"6008044","prefectureKana":"ｷｮｳﾄﾌ","cityKana":"ｷｮｳﾄｼｼﾓｷﾞｮｳｸ","streetKana":"ﾀﾁﾊﾞﾅﾁｮｳ","prefecture":"京都府","city":"京都市下京区","street":"橘町（御幸町通高辻上る、御幸町通仏光寺下る、高辻通御幸町"},{"zipCode":"6008044","prefectureKana":"ｷｮｳﾄﾌ","cityKana":"ｷｮｳﾄｼｼﾓｷﾞｮｳｸ","streetKana":"ﾀﾁﾊﾞﾅﾁｮｳ","prefecture":"京都府","city":"京都市下京区","street":"西入、高辻通御幸町東入）"},{"zipCode":"6008157","prefectureKana":"ｷｮｳﾄﾌ","cityKana":"ｷｮｳﾄｼｼﾓｷﾞｮｳｸ","streetKana":"ﾀﾁﾊﾞﾅﾁｮｳ","prefecture":"京都府","city":"京都市下京区","street":"橘町（下珠数屋町通不明門東入、下珠数屋町通烏丸東入、下珠数屋町通東洞院西入）"},{"zipCode":"6008487","prefectureKana":"ｷｮｳﾄﾌ","cityKana":"ｷｮｳﾄｼｼﾓｷﾞｮｳｸ","streetKana":"ﾀﾁﾊﾞﾅﾁｮｳ","prefecture":"京都府","city":"京都市下京区","street":"橘町（醒ケ井通松原上る、醒ケ井通松原下る、松原通油小路西"},{"zipCode":"6008487","prefectureKana":"ｷｮｳﾄﾌ","cityKana":"ｷｮｳﾄｼｼﾓｷﾞｮｳｸ","streetKana":"ﾀﾁﾊﾞﾅﾁｮｳ","prefecture":"京都府","city":"京都市下京区","street":"入、松原通醒ケ井西入、松原通醒ケ井東入、松原通東堀川東入、松原通堀"},{"zipCode":"6008487","prefectureKana":"ｷｮｳﾄﾌ","cityKana":"ｷｮｳﾄｼｼﾓｷﾞｮｳｸ","streetKana":"ﾀﾁﾊﾞﾅﾁｮｳ","prefecture":"京都府","city":"京都市下京区","street":"川東入）"},{"zipCode":"6008490","prefectureKana":"ｷｮｳﾄﾌ","cityKana":"ｷｮｳﾄｼｼﾓｷﾞｮｳｸ","streetKana":"ﾀﾂﾅｶﾁｮｳ","prefecture":"京都府","city":"京都市下京区","street":"立中町"},{"zipCode":"6008307","prefectureKana":"ｷｮｳﾄﾌ","cityKana":"ｷｮｳﾄｼｼﾓｷﾞｮｳｸ","streetKana":"ﾀﾂﾐﾁｮｳ","prefecture":"京都府","city":"京都市下京区","street":"辰巳町"},{"zipCode":"6008038","prefectureKana":"ｷｮｳﾄﾌ","cityKana":"ｷｮｳﾄｼｼﾓｷﾞｮｳｸ","streetKana":"ﾀﾋﾞﾔﾁｮｳ","prefecture":"京都府","city":"京都市下京区","street":"足袋屋町"},{"zipCode":"6008427","prefectureKana":"ｷｮｳﾄﾌ","cityKana":"ｷｮｳﾄｼｼﾓｷﾞｮｳｸ","streetKana":"ﾀﾏﾂｼﾏﾁｮｳ","prefecture":"京都府","city":"京都市下京区","street":"玉津島町"},{"zipCode":"6008346","prefectureKana":"ｷｮｳﾄﾌ","cityKana":"ｷｮｳﾄｼｼﾓｷﾞｮｳｸ","streetKana":"ﾀﾏﾓﾄﾁｮｳ","prefecture":"京都府","city":"京都市下京区","street":"玉本町"},{"zipCode":"6008409","prefectureKana":"ｷｮｳﾄﾌ","cityKana":"ｷｮｳﾄｼｼﾓｷﾞｮｳｸ","streetKana":"ﾀﾏﾔﾁｮｳ","prefecture":"京都府","city":"京都市下京区","street":"玉屋町"},{"zipCode":"6008129","prefectureKana":"ｷｮｳﾄﾌ","cityKana":"ｷｮｳﾄｼｼﾓｷﾞｮｳｸ","streetKana":"ﾀﾒｲｹﾁｮｳ","prefecture":"京都府","city":"京都市下京区","street":"溜池町"},{"zipCode":"6008264","prefectureKana":"ｷｮｳﾄﾌ","cityKana":"ｷｮｳﾄｼｼﾓｷﾞｮｳｸ","streetKana":"ﾀﾙﾔﾁｮｳ","prefecture":"京都府","city":"京都市下京区","street":"樽屋町"},{"zipCode":"6008042","prefectureKana":"ｷｮｳﾄﾌ","cityKana":"ｷｮｳﾄｼｼﾓｷﾞｮｳｸ","streetKana":"ﾀﾜﾗﾔﾁｮｳ(ﾌﾔﾁｮｳﾄﾞｵﾘｱﾔﾉｺｳｼﾞｻｶﾞﾙ､ﾌﾔﾁｮｳﾄﾞｵﾘﾌﾞﾂｺｳｼﾞｱｶﾞﾙ)","prefecture":"京都府","city":"京都市下京区","street":"俵屋町（麩屋町通綾小路下る、麩屋町通仏光寺上る）"},{"zipCode":"6008070","prefectureKana":"ｷｮｳﾄﾌ","cityKana":"ｷｮｳﾄｼｼﾓｷﾞｮｳｸ","streetKana":"ﾀﾜﾗﾔﾁｮｳ","prefecture":"京都府","city":"京都市下京区","street":"俵屋町（堺町通万寿寺下る、万寿寺通堺町西入、万寿寺通堺町東"},{"zipCode":"6008070","prefectureKana":"ｷｮｳﾄﾌ","cityKana":"ｷｮｳﾄｼｼﾓｷﾞｮｳｸ","streetKana":"ﾀﾜﾗﾔﾁｮｳ","prefecture":"京都府","city":"京都市下京区","street":"入、五条通堺町上る）"},{"zipCode":"6008365","prefectureKana":"ｷｮｳﾄﾌ","cityKana":"ｷｮｳﾄｼｼﾓｷﾞｮｳｸ","streetKana":"ﾀﾝﾊﾞｶｲﾄﾞｳﾁｮｳ","prefecture":"京都府","city":"京都市下京区","street":"丹波街道町"},{"zipCode":"6008036","prefectureKana":"ｷｮｳﾄﾌ","cityKana":"ｷｮｳﾄｼｼﾓｷﾞｮｳｸ","streetKana":"ﾁｬﾏﾔﾁｮｳ(ﾀｶﾂｼﾞﾄﾞｵﾘｺﾞｺｳﾏﾁﾋｶﾞｼｲﾙ､ﾀｶﾂｼﾞﾄﾞｵﾘﾃﾗﾏﾁﾆｼｲﾙ)","prefecture":"京都府","city":"京都市下京区","street":"茶磨屋町（高辻通御幸町東入、高辻通寺町西入）"},{"zipCode":"6008045","prefectureKana":"ｷｮｳﾄﾌ","cityKana":"ｷｮｳﾄｼｼﾓｷﾞｮｳｸ","streetKana":"ﾁｬﾏﾔﾁｮｳ(ﾀｶﾂｼﾞﾄﾞｵﾘｺﾞｺｳﾏﾁﾆｼｲﾙ､ﾀｶﾂｼﾞﾄﾞｵﾘﾌﾔﾁｮｳﾋｶﾞｼｲﾙ)","prefecture":"京都府","city":"京都市下京区","street":"茶磨屋町（高辻通御幸町西入、高辻通麩屋町東入）"},{"zipCode":"6008068","prefectureKana":"ｷｮｳﾄﾌ","cityKana":"ｷｮｳﾄｼｼﾓｷﾞｮｳｸ","streetKana":"ﾁｭｳｱﾝﾁｮｳ","prefecture":"京都府","city":"京都市下京区","street":"忠庵町"},{"zipCode":"6008815","prefectureKana":"ｷｮｳﾄﾌ","cityKana":"ｷｮｳﾄｼｼﾓｷﾞｮｳｸ","streetKana":"ﾁｭｳﾄﾞｳｼﾞｱﾜﾀﾁｮｳ","prefecture":"京都府","city":"京都市下京区","street":"中堂寺粟田町"},{"zipCode":"6008805","prefectureKana":"ｷｮｳﾄﾌ","cityKana":"ｷｮｳﾄｼｼﾓｷﾞｮｳｸ","streetKana":"ﾁｭｳﾄﾞｳｼﾞｶｷﾞﾀﾁｮｳ","prefecture":"京都府","city":"京都市下京区","street":"中堂寺鍵田町"},{"zipCode":"6008812","prefectureKana":"ｷｮｳﾄﾌ","cityKana":"ｷｮｳﾄｼｼﾓｷﾞｮｳｸ","streetKana":"ﾁｭｳﾄﾞｳｼﾞｷﾀﾏﾁ","prefecture":"京都府","city":"京都市下京区","street":"中堂寺北町"},{"zipCode":"6008802","prefectureKana":"ｷｮｳﾄﾌ","cityKana":"ｷｮｳﾄｼｼﾓｷﾞｮｳｸ","streetKana":"ﾁｭｳﾄﾞｳｼﾞｸｼｹﾞﾁｮｳ","prefecture":"京都府","city":"京都市下京区","street":"中堂寺櫛笥町"},{"zipCode":"6008814","prefectureKana":"ｷｮｳﾄﾌ","cityKana":"ｷｮｳﾄｼｼﾓｷﾞｮｳｸ","streetKana":"ﾁｭｳﾄﾞｳｼﾞｼｮｳﾉｳﾁﾁｮｳ","prefecture":"京都府","city":"京都市下京区","street":"中堂寺庄ノ内町"},{"zipCode":"6008801","prefectureKana":"ｷｮｳﾄﾌ","cityKana":"ｷｮｳﾄｼｼﾓｷﾞｮｳｸ","streetKana":"ﾁｭｳﾄﾞｳｼﾞﾆｼﾃﾞﾗﾁｮｳ","prefecture":"京都府","city":"京都市下京区","street":"中堂寺西寺町"},{"zipCode":"6008811","prefectureKana":"ｷｮｳﾄﾌ","cityKana":"ｷｮｳﾄｼｼﾓｷﾞｮｳｸ","streetKana":"ﾁｭｳﾄﾞｳｼﾞﾎﾞｳｼﾞｮｳﾁｮｳ","prefecture":"京都府","city":"京都市下京区","street":"中堂寺坊城町"},{"zipCode":"6008804","prefectureKana":"ｷｮｳﾄﾌ","cityKana":"ｷｮｳﾄｼｼﾓｷﾞｮｳｸ","streetKana":"ﾁｭｳﾄﾞｳｼﾞﾏｴﾀﾞﾁｮｳ","prefecture":"京都府","city":"京都市下京区","street":"中堂寺前田町"},{"zipCode":"6008362","prefectureKana":"ｷｮｳﾄﾌ","cityKana":"ｷｮｳﾄｼｼﾓｷﾞｮｳｸ","streetKana":"ﾁｭｳﾄﾞｳｼﾞﾏｴﾁｮｳ","prefecture":"京都府","city":"京都市下京区","street":"中堂寺前町"},{"zipCode":"6008813","prefectureKana":"ｷｮｳﾄﾌ","cityKana":"ｷｮｳﾄｼｼﾓｷﾞｮｳｸ","streetKana":"ﾁｭｳﾄﾞｳｼﾞﾐﾅﾐﾏﾁ","prefecture":"京都府","city":"京都市下京区","street":"中堂寺南町"},{"zipCode":"6008806","prefectureKana":"ｷｮｳﾄﾌ","cityKana":"ｷｮｳﾄｼｼﾓｷﾞｮｳｸ","streetKana":"ﾁｭｳﾄﾞｳｼﾞﾐﾌﾞｶﾞﾜﾁｮｳ","prefecture":"京都府","city":"京都市下京区","street":"中堂寺壬生川町"},{"zipCode":"6008807","prefectureKana":"ｷｮｳﾄﾌ","cityKana":"ｷｮｳﾄｼｼﾓｷﾞｮｳｸ","streetKana":"ﾁｭｳﾄﾞｳｼﾞﾐｮｳﾌﾞﾁｮｳ","prefecture":"京都府","city":"京都市下京区","street":"中堂寺命婦町"},{"zipCode":"6008803","prefectureKana":"ｷｮｳﾄﾌ","cityKana":"ｷｮｳﾄｼｼﾓｷﾞｮｳｸ","streetKana":"ﾁｭｳﾄﾞｳｼﾞﾔﾌﾞﾉｳﾁﾁｮｳ","prefecture":"京都府","city":"京都市下京区","street":"中堂寺薮ノ内町"},{"zipCode":"6008364","prefectureKana":"ｷｮｳﾄﾌ","cityKana":"ｷｮｳﾄｼｼﾓｷﾞｮｳｸ","streetKana":"ﾂｷﾇｹ(ﾁｮｳﾒ)","prefecture":"京都府","city":"京都市下京区","street":"突抜（丁目）"},{"zipCode":"6008492","prefectureKana":"ｷｮｳﾄﾌ","cityKana":"ｷｮｳﾄｼｼﾓｷﾞｮｳｸ","streetKana":"ﾂｷﾎｺﾁｮｳ","prefecture":"京都府","city":"京都市下京区","street":"月鉾町"},{"zipCode":"6008453","prefectureKana":"ｷｮｳﾄﾌ","cityKana":"ｷｮｳﾄｼｼﾓｷﾞｮｳｸ","streetKana":"ﾂｷﾐﾁｮｳ","prefecture":"京都府","city":"京都市下京区","street":"月見町"},{"zipCode":"6008226","prefectureKana":"ｷｮｳﾄﾌ","cityKana":"ｷｮｳﾄｼｼﾓｷﾞｮｳｸ","streetKana":"ﾂﾁﾊｼﾁｮｳ","prefecture":"京都府","city":"京都市下京区","street":"土橋町"},{"zipCode":"6008396","prefectureKana":"ｷｮｳﾄﾌ","cityKana":"ｷｮｳﾄｼｼﾓｷﾞｮｳｸ","streetKana":"ﾂﾁﾔﾁｮｳ","prefecture":"京都府","city":"京都市下京区","street":"槌屋町"},{"zipCode":"6008152","prefectureKana":"ｷｮｳﾄﾌ","cityKana":"ｷｮｳﾄｼｼﾓｷﾞｮｳｸ","streetKana":"ﾂﾂｶﾞﾈﾁｮｳ","prefecture":"京都府","city":"京都市下京区","street":"筒金町"},{"zipCode":"6008085","prefectureKana":"ｷｮｳﾄﾌ","cityKana":"ｷｮｳﾄｼｼﾓｷﾞｮｳｸ","streetKana":"ﾂﾂﾞﾗﾔﾁｮｳ","prefecture":"京都府","city":"京都市下京区","street":"葛籠屋町"},{"zipCode":"6008031","prefectureKana":"ｷｮｳﾄﾌ","cityKana":"ｷｮｳﾄｼｼﾓｷﾞｮｳｸ","streetKana":"ﾃｲｱﾝﾏｴﾉﾁｮｳ","prefecture":"京都府","city":"京都市下京区","street":"貞安前之町"},{"zipCode":"6008265","prefectureKana":"ｷｮｳﾄﾌ","cityKana":"ｷｮｳﾄｼｼﾓｷﾞｮｳｸ","streetKana":"ﾃｯﾎﾟｳﾁｮｳ","prefecture":"京都府","city":"京都市下京区","street":"徹宝町"},{"zipCode":"6008456","prefectureKana":"ｷｮｳﾄﾌ","cityKana":"ｷｮｳﾄｼｼﾓｷﾞｮｳｸ","streetKana":"ﾃﾝｼﾂｷﾇｹ(ﾁｮｳﾒ)","prefecture":"京都府","city":"京都市下京区","street":"天使突抜（丁目）"},{"zipCode":"6008184","prefectureKana":"ｷｮｳﾄﾌ","cityKana":"ｷｮｳﾄｼｼﾓｷﾞｮｳｸ","streetKana":"ﾃﾝｼﾞﾝﾁｮｳ","prefecture":"京都府","city":"京都市下京区","street":"天神町"},{"zipCode":"6008459","prefectureKana":"ｷｮｳﾄﾌ","cityKana":"ｷｮｳﾄｼｼﾓｷﾞｮｳｸ","streetKana":"ﾃﾝｼﾞﾝﾏｴﾁｮｳ","prefecture":"京都府","city":"京都市下京区","street":"天神前町"},{"zipCode":"6008013","prefectureKana":"ｷｮｳﾄﾌ","cityKana":"ｷｮｳﾄｼｼﾓｷﾞｮｳｸ","streetKana":"ﾃﾝﾉｳﾁｮｳ","prefecture":"京都府","city":"京都市下京区","street":"天王町"},{"zipCode":"6008024","prefectureKana":"ｷｮｳﾄﾌ","cityKana":"ｷｮｳﾄｼｼﾓｷﾞｮｳｸ","streetKana":"ﾃﾝﾏﾁｮｳ","prefecture":"京都府","city":"京都市下京区","street":"天満町"},{"zipCode":"6008111","prefectureKana":"ｷｮｳﾄﾌ","cityKana":"ｷｮｳﾄｼｼﾓｷﾞｮｳｸ","streetKana":"ﾄｲﾁﾁｮｳ","prefecture":"京都府","city":"京都市下京区","street":"都市町"},{"zipCode":"6008421","prefectureKana":"ｷｮｳﾄﾌ","cityKana":"ｷｮｳﾄｼｼﾓｷﾞｮｳｸ","streetKana":"ﾄﾞｳｼﾞｼｬﾁｮｳ","prefecture":"京都府","city":"京都市下京区","street":"童侍者町"},{"zipCode":"6008401","prefectureKana":"ｷｮｳﾄﾌ","cityKana":"ｷｮｳﾄｼｼﾓｷﾞｮｳｸ","streetKana":"ﾄｳﾛｳﾁｮｳ","prefecture":"京都府","city":"京都市下京区","street":"燈籠町"},{"zipCode":"6008167","prefectureKana":"ｷｮｳﾄﾌ","cityKana":"ｷｮｳﾄｼｼﾓｷﾞｮｳｸ","streetKana":"ﾄｷﾜﾁｮｳ","prefecture":"京都府","city":"京都市下京区","street":"常葉町"},{"zipCode":"6008461","prefectureKana":"ｷｮｳﾄﾌ","cityKana":"ｷｮｳﾄｼｼﾓｷﾞｮｳｸ","streetKana":"ﾄｸｻﾔﾏﾁｮｳ","prefecture":"京都府","city":"京都市下京区","street":"木賊山町"},{"zipCode":"6008051","prefectureKana":"ｷｮｳﾄﾌ","cityKana":"ｷｮｳﾄｼｼﾓｷﾞｮｳｸ","streetKana":"ﾄｸｼｮｳｼﾞﾁｮｳ","prefecture":"京都府","city":"京都市下京区","street":"徳正寺町"},{"zipCode":"6008437","prefectureKana":"ｷｮｳﾄﾌ","cityKana":"ｷｮｳﾄｼｼﾓｷﾞｮｳｸ","streetKana":"ﾄｸﾏﾝﾁｮｳ","prefecture":"京都府","city":"京都市下京区","street":"徳万町"},{"zipCode":"6008395","prefectureKana":"ｷｮｳﾄﾌ","cityKana":"ｷｮｳﾄｼｼﾓｷﾞｮｳｸ","streetKana":"ﾄｸﾔﾁｮｳ","prefecture":"京都府","city":"京都市下京区","street":"徳屋町"},{"zipCode":"6008186","prefectureKana":"ｷｮｳﾄﾌ","cityKana":"ｷｮｳﾄｼｼﾓｷﾞｮｳｸ","streetKana":"ﾄﾐﾀﾁｮｳ","prefecture":"京都府","city":"京都市下京区","street":"富田町"},{"zipCode":"6008023","prefectureKana":"ｷｮｳﾄﾌ","cityKana":"ｷｮｳﾄｼｼﾓｷﾞｮｳｸ","streetKana":"ﾄﾐﾅｶﾞﾁｮｳ","prefecture":"京都府","city":"京都市下京区","street":"富永町（河原町通四条下る２丁目、河原町通高辻上る、河原町通仏"},{"zipCode":"6008023","prefectureKana":"ｷｮｳﾄﾌ","cityKana":"ｷｮｳﾄｼｼﾓｷﾞｮｳｸ","streetKana":"ﾄﾐﾅｶﾞﾁｮｳ","prefecture":"京都府","city":"京都市下京区","street":"光寺下る、河原町通松原上る、河原町通松原上る２丁目、高辻通河原町西入、"},{"zipCode":"6008023","prefectureKana":"ｷｮｳﾄﾌ","cityKana":"ｷｮｳﾄｼｼﾓｷﾞｮｳｸ","streetKana":"ﾄﾐﾅｶﾞﾁｮｳ","prefecture":"京都府","city":"京都市下京区","street":"仏光寺通河原町西入）"},{"zipCode":"6008351","prefectureKana":"ｷｮｳﾄﾌ","cityKana":"ｷｮｳﾄｼｼﾓｷﾞｮｳｸ","streetKana":"ﾄﾐﾅｶﾞﾁｮｳ","prefecture":"京都府","city":"京都市下京区","street":"富永町（岩上通高辻上る、岩上通高辻下る、高辻通猪熊東入、高"},{"zipCode":"6008351","prefectureKana":"ｷｮｳﾄﾌ","cityKana":"ｷｮｳﾄｼｼﾓｷﾞｮｳｸ","streetKana":"ﾄﾐﾅｶﾞﾁｮｳ","prefecture":"京都府","city":"京都市下京区","street":"辻通岩上西入、高辻通岩上東入、高辻通西堀川西入、高辻通堀川西入）"},{"zipCode":"6008449","prefectureKana":"ｷｮｳﾄﾌ","cityKana":"ｷｮｳﾄｼｼﾓｷﾞｮｳｸ","streetKana":"ﾄﾐﾅｶﾞﾁｮｳ","prefecture":"京都府","city":"京都市下京区","street":"富永町（新町通松原下る、新町通万寿寺上る、万寿寺通新町西入、"},{"zipCode":"6008449","prefectureKana":"ｷｮｳﾄﾌ","cityKana":"ｷｮｳﾄｼｼﾓｷﾞｮｳｸ","streetKana":"ﾄﾐﾅｶﾞﾁｮｳ","prefecture":"京都府","city":"京都市下京区","street":"万寿寺通新町東入）"},{"zipCode":"6008125","prefectureKana":"ｷｮｳﾄﾌ","cityKana":"ｷｮｳﾄｼｼﾓｷﾞｮｳｸ","streetKana":"ﾄﾐﾊﾏﾁｮｳ","prefecture":"京都府","city":"京都市下京区","street":"富浜町"},{"zipCode":"6008124","prefectureKana":"ｷｮｳﾄﾌ","cityKana":"ｷｮｳﾄｼｼﾓｷﾞｮｳｸ","streetKana":"ﾄﾐﾏﾂﾁｮｳ","prefecture":"京都府","city":"京都市下京区","street":"富松町"},{"zipCode":"6008192","prefectureKana":"ｷｮｳﾄﾌ","cityKana":"ｷｮｳﾄｼｼﾓｷﾞｮｳｸ","streetKana":"ﾄﾐﾔﾁｮｳ","prefecture":"京都府","city":"京都市下京区","street":"富屋町"},{"zipCode":"6008219","prefectureKana":"ｷｮｳﾄﾌ","cityKana":"ｷｮｳﾄｼｼﾓｷﾞｮｳｸ","streetKana":"ﾅｶｲﾁｮｳ","prefecture":"京都府","city":"京都市下京区","street":"中居町"},{"zipCode":"6008332","prefectureKana":"ｷｮｳﾄﾌ","cityKana":"ｷｮｳﾄｼｼﾓｷﾞｮｳｸ","streetKana":"ﾅｶｶﾅﾌﾞﾂﾁｮｳ","prefecture":"京都府","city":"京都市下京区","street":"中金仏町"},{"zipCode":"6008452","prefectureKana":"ｷｮｳﾄﾌ","cityKana":"ｷｮｳﾄｼｼﾓｷﾞｮｳｸ","streetKana":"ﾅｶﾞｸﾗﾁｮｳ","prefecture":"京都府","city":"京都市下京区","street":"永倉町"},{"zipCode":"6008032","prefectureKana":"ｷｮｳﾄﾌ","cityKana":"ｷｮｳﾄｼｼﾓｷﾞｮｳｸ","streetKana":"ﾅｶﾉﾁｮｳ","prefecture":"京都府","city":"京都市下京区","street":"中之町（寺町通綾小路下る、寺町通仏光寺上る、仏光寺通寺町西"},{"zipCode":"6008032","prefectureKana":"ｷｮｳﾄﾌ","cityKana":"ｷｮｳﾄｼｼﾓｷﾞｮｳｸ","streetKana":"ﾅｶﾉﾁｮｳ","prefecture":"京都府","city":"京都市下京区","street":"入、仏光寺通寺町東入）"},{"zipCode":"6008435","prefectureKana":"ｷｮｳﾄﾌ","cityKana":"ｷｮｳﾄｼｼﾓｷﾞｮｳｸ","streetKana":"ﾅｶﾉﾉﾁｮｳ","prefecture":"京都府","city":"京都市下京区","street":"中野之町"},{"zipCode":"6008073","prefectureKana":"ｷｮｳﾄﾌ","cityKana":"ｷｮｳﾄｼｼﾓｷﾞｮｳｸ","streetKana":"ﾅｶﾞﾊﾗﾁｮｳ","prefecture":"京都府","city":"京都市下京区","street":"永原町"},{"zipCode":"6008438","prefectureKana":"ｷｮｳﾄﾌ","cityKana":"ｷｮｳﾄｼｼﾓｷﾞｮｳｸ","streetKana":"ﾅｷﾞﾅﾀｷﾞﾘﾁｮｳ","prefecture":"京都府","city":"京都市下京区","street":"長刀切町"},{"zipCode":"6008008","prefectureKana":"ｷｮｳﾄﾌ","cityKana":"ｷｮｳﾄｼｼﾓｷﾞｮｳｸ","streetKana":"ﾅｷﾞﾅﾀﾎﾞｺﾁｮｳ","prefecture":"京都府","city":"京都市下京区","street":"長刀鉾町"},{"zipCode":"6008055","prefectureKana":"ｷｮｳﾄﾌ","cityKana":"ｷｮｳﾄｼｼﾓｷﾞｮｳｸ","streetKana":"ﾅﾍﾞﾔﾁｮｳ","prefecture":"京都府","city":"京都市下京区","street":"鍋屋町"},{"zipCode":"6008142","prefectureKana":"ｷｮｳﾄﾌ","cityKana":"ｷｮｳﾄｼｼﾓｷﾞｮｳｸ","streetKana":"ﾅﾔﾁｮｳ","prefecture":"京都府","city":"京都市下京区","street":"納屋町"},{"zipCode":"6008004","prefectureKana":"ｷｮｳﾄﾌ","cityKana":"ｷｮｳﾄｼｼﾓｷﾞｮｳｸ","streetKana":"ﾅﾗﾓﾉﾁｮｳ","prefecture":"京都府","city":"京都市下京区","street":"奈良物町"},{"zipCode":"6008027","prefectureKana":"ｷｮｳﾄﾌ","cityKana":"ｷｮｳﾄｼｼﾓｷﾞｮｳｸ","streetKana":"ﾅﾝﾊﾞﾁｮｳ","prefecture":"京都府","city":"京都市下京区","street":"難波町"},{"zipCode":"6008414","prefectureKana":"ｷｮｳﾄﾌ","cityKana":"ｷｮｳﾄｼｼﾓｷﾞｮｳｸ","streetKana":"ﾆｵｲﾃﾝｼﾞﾝﾁｮｳ","prefecture":"京都府","city":"京都市下京区","street":"匂天神町"},{"zipCode":"6008236","prefectureKana":"ｷｮｳﾄﾌ","cityKana":"ｷｮｳﾄｼｼﾓｷﾞｮｳｸ","streetKana":"ﾆｼｱﾌﾞﾗﾉｺｳｼﾞﾁｮｳ","prefecture":"京都府","city":"京都市下京区","street":"西油小路町"},{"zipCode":"6008478","prefectureKana":"ｷｮｳﾄﾌ","cityKana":"ｷｮｳﾄｼｼﾓｷﾞｮｳｸ","streetKana":"ﾆｼｱﾔﾉｺｳｼﾞﾆｼﾊﾝﾁｮｳ","prefecture":"京都府","city":"京都市下京区","street":"西綾小路西半町"},{"zipCode":"6008479","prefectureKana":"ｷｮｳﾄﾌ","cityKana":"ｷｮｳﾄｼｼﾓｷﾞｮｳｸ","streetKana":"ﾆｼｱﾔﾉｺｳｼﾞﾋｶﾞｼﾊﾝﾁｮｳ","prefecture":"京都府","city":"京都市下京区","street":"西綾小路東半町"},{"zipCode":"6008160","prefectureKana":"ｷｮｳﾄﾌ","cityKana":"ｷｮｳﾄｼｼﾓｷﾞｮｳｸ","streetKana":"ﾆｼｳｵﾔﾁｮｳ","prefecture":"京都府","city":"京都市下京区","street":"西魚屋町"},{"zipCode":"6008108","prefectureKana":"ｷｮｳﾄﾌ","cityKana":"ｷｮｳﾄｼｼﾓｷﾞｮｳｸ","streetKana":"ﾆｼｶｻﾞﾘﾔﾁｮｳ","prefecture":"京都府","city":"京都市下京区","street":"西錺屋町"},{"zipCode":"6008325","prefectureKana":"ｷｮｳﾄﾌ","cityKana":"ｷｮｳﾄｼｼﾓｷﾞｮｳｸ","streetKana":"ﾆｼｶﾞﾜﾁｮｳ","prefecture":"京都府","city":"京都市下京区","street":"西側町"},{"zipCode":"6008218","prefectureKana":"ｷｮｳﾄﾌ","cityKana":"ｷｮｳﾄｼｼﾓｷﾞｮｳｸ","streetKana":"ﾆｼｻｶｲﾁｮｳ","prefecture":"京都府","city":"京都市下京区","street":"西境町"},{"zipCode":"6008899","prefectureKana":"ｷｮｳﾄﾌ","cityKana":"ｷｮｳﾄｼｼﾓｷﾞｮｳｸ","streetKana":"ﾆｼｼﾁｼﾞｮｳｱｶﾔｼﾛﾁｮｳ","prefecture":"京都府","city":"京都市下京区","street":"西七条赤社町"},{"zipCode":"6008875","prefectureKana":"ｷｮｳﾄﾌ","cityKana":"ｷｮｳﾄｼｼﾓｷﾞｮｳｸ","streetKana":"ﾆｼｼﾁｼﾞｮｳｲｼｲﾁｮｳ","prefecture":"京都府","city":"京都市下京区","street":"西七条石井町"},{"zipCode":"6008894","prefectureKana":"ｷｮｳﾄﾌ","cityKana":"ｷｮｳﾄｼｼﾓｷﾞｮｳｸ","streetKana":"ﾆｼｼﾁｼﾞｮｳｲﾁﾍﾞﾁｮｳ","prefecture":"京都府","city":"京都市下京区","street":"西七条市部町"},{"zipCode":"6008897","prefectureKana":"ｷｮｳﾄﾌ","cityKana":"ｷｮｳﾄｼｼﾓｷﾞｮｳｸ","streetKana":"ﾆｼｼﾁｼﾞｮｳｵﾝﾏｴﾀﾞﾁｮｳ","prefecture":"京都府","city":"京都市下京区","street":"西七条御前田町"},{"zipCode":"6008881","prefectureKana":"ｷｮｳﾄﾌ","cityKana":"ｷｮｳﾄｼｼﾓｷﾞｮｳｸ","streetKana":"ﾆｼｼﾁｼﾞｮｳｶｹｺﾞｼﾁｮｳ","prefecture":"京都府","city":"京都市下京区","street":"西七条掛越町"},{"zipCode":"6008883","prefectureKana":"ｷｮｳﾄﾌ","cityKana":"ｷｮｳﾄｼｼﾓｷﾞｮｳｸ","streetKana":"ﾆｼｼﾁｼﾞｮｳｷﾀｷﾇﾀﾁｮｳ","prefecture":"京都府","city":"京都市下京区","street":"西七条北衣田町"},{"zipCode":"6008886","prefectureKana":"ｷｮｳﾄﾌ","cityKana":"ｷｮｳﾄｼｼﾓｷﾞｮｳｸ","streetKana":"ﾆｼｼﾁｼﾞｮｳｷﾀﾂｷﾖﾐﾁｮｳ","prefecture":"京都府","city":"京都市下京区","street":"西七条北月読町"},{"zipCode":"6008878","prefectureKana":"ｷｮｳﾄﾌ","cityKana":"ｷｮｳﾄｼｼﾓｷﾞｮｳｸ","streetKana":"ﾆｼｼﾁｼﾞｮｳｷﾀﾆｼﾉﾁｮｳ","prefecture":"京都府","city":"京都市下京区","street":"西七条北西野町"},{"zipCode":"6008871","prefectureKana":"ｷｮｳﾄﾌ","cityKana":"ｷｮｳﾄｼｼﾓｷﾞｮｳｸ","streetKana":"ﾆｼｼﾁｼﾞｮｳｷﾀﾋｶﾞｼﾉﾁｮｳ","prefecture":"京都府","city":"京都市下京区","street":"西七条北東野町"},{"zipCode":"6008893","prefectureKana":"ｷｮｳﾄﾌ","cityKana":"ｷｮｳﾄｼｼﾓｷﾞｮｳｸ","streetKana":"ﾆｼｼﾁｼﾞｮｳｺﾞﾘｮｳﾁｮｳ","prefecture":"京都府","city":"京都市下京区","street":"西七条御領町"},{"zipCode":"6008879","prefectureKana":"ｷｮｳﾄﾌ","cityKana":"ｷｮｳﾄｼｼﾓｷﾞｮｳｸ","streetKana":"ﾆｼｼﾁｼﾞｮｳﾅｶﾉﾁｮｳ","prefecture":"京都府","city":"京都市下京区","street":"西七条中野町"},{"zipCode":"6008887","prefectureKana":"ｷｮｳﾄﾌ","cityKana":"ｷｮｳﾄｼｼﾓｷﾞｮｳｸ","streetKana":"ﾆｼｼﾁｼﾞｮｳﾅｸﾗﾁｮｳ","prefecture":"京都府","city":"京都市下京区","street":"西七条名倉町"},{"zipCode":"6008896","prefectureKana":"ｷｮｳﾄﾌ","cityKana":"ｷｮｳﾄｼｼﾓｷﾞｮｳｸ","streetKana":"ﾆｼｼﾁｼﾞｮｳﾆｼｲｼｶﾞﾂﾎﾞﾁｮｳ","prefecture":"京都府","city":"京都市下京区","street":"西七条西石ケ坪町"},{"zipCode":"6008874","prefectureKana":"ｷｮｳﾄﾌ","cityKana":"ｷｮｳﾄｼｼﾓｷﾞｮｳｸ","streetKana":"ﾆｼｼﾁｼﾞｮｳﾆｼｸﾎﾞﾁｮｳ","prefecture":"京都府","city":"京都市下京区","street":"西七条西久保町"},{"zipCode":"6008892","prefectureKana":"ｷｮｳﾄﾌ","cityKana":"ｷｮｳﾄｼｼﾓｷﾞｮｳｸ","streetKana":"ﾆｼｼﾁｼﾞｮｳﾆｼﾊｯﾀﾝﾀﾞﾁｮｳ","prefecture":"京都府","city":"京都市下京区","street":"西七条西八反田町"},{"zipCode":"6008895","prefectureKana":"ｷｮｳﾄﾌ","cityKana":"ｷｮｳﾄｼｼﾓｷﾞｮｳｸ","streetKana":"ﾆｼｼﾁｼﾞｮｳﾋｶﾞｼｲｼｶﾞﾂﾎﾞﾁｮｳ","prefecture":"京都府","city":"京都市下京区","street":"西七条東石ケ坪町"},{"zipCode":"6008898","prefectureKana":"ｷｮｳﾄﾌ","cityKana":"ｷｮｳﾄｼｼﾓｷﾞｮｳｸ","streetKana":"ﾆｼｼﾁｼﾞｮｳﾋｶﾞｼｵﾝﾏｴﾀﾞﾁｮｳ","prefecture":"京都府","city":"京都市下京区","street":"西七条東御前田町"},{"zipCode":"6008873","prefectureKana":"ｷｮｳﾄﾌ","cityKana":"ｷｮｳﾄｼｼﾓｷﾞｮｳｸ","streetKana":"ﾆｼｼﾁｼﾞｮｳﾋｶﾞｼｸﾎﾞﾁｮｳ","prefecture":"京都府","city":"京都市下京区","street":"西七条東久保町"},{"zipCode":"6008891","prefectureKana":"ｷｮｳﾄﾌ","cityKana":"ｷｮｳﾄｼｼﾓｷﾞｮｳｸ","streetKana":"ﾆｼｼﾁｼﾞｮｳﾋｶﾞｼﾊｯﾀﾝﾀﾞﾁｮｳ","prefecture":"京都府","city":"京都市下京区","street":"西七条東八反田町"},{"zipCode":"6008882","prefectureKana":"ｷｮｳﾄﾌ","cityKana":"ｷｮｳﾄｼｼﾓｷﾞｮｳｸ","streetKana":"ﾆｼｼﾁｼﾞｮｳﾋﾜﾀﾞﾁｮｳ","prefecture":"京都府","city":"京都市下京区","street":"西七条比輪田町"},{"zipCode":"6008884","prefectureKana":"ｷｮｳﾄﾌ","cityKana":"ｷｮｳﾄｼｼﾓｷﾞｮｳｸ","streetKana":"ﾆｼｼﾁｼﾞｮｳﾐﾅﾐｷﾇﾀﾁｮｳ","prefecture":"京都府","city":"京都市下京区","street":"西七条南衣田町"},{"zipCode":"6008885","prefectureKana":"ｷｮｳﾄﾌ","cityKana":"ｷｮｳﾄｼｼﾓｷﾞｮｳｸ","streetKana":"ﾆｼｼﾁｼﾞｮｳﾐﾅﾐﾂｷﾖﾐﾁｮｳ","prefecture":"京都府","city":"京都市下京区","street":"西七条南月読町"},{"zipCode":"6008876","prefectureKana":"ｷｮｳﾄﾌ","cityKana":"ｷｮｳﾄｼｼﾓｷﾞｮｳｸ","streetKana":"ﾆｼｼﾁｼﾞｮｳﾐﾅﾐﾅｶﾉﾁｮｳ","prefecture":"京都府","city":"京都市下京区","street":"西七条南中野町"},{"zipCode":"6008877","prefectureKana":"ｷｮｳﾄﾌ","cityKana":"ｷｮｳﾄｼｼﾓｷﾞｮｳｸ","streetKana":"ﾆｼｼﾁｼﾞｮｳﾐﾅﾐﾆｼﾉﾁｮｳ","prefecture":"京都府","city":"京都市下京区","street":"西七条南西野町"},{"zipCode":"6008872","prefectureKana":"ｷｮｳﾄﾌ","cityKana":"ｷｮｳﾄｼｼﾓｷﾞｮｳｸ","streetKana":"ﾆｼｼﾁｼﾞｮｳﾐﾅﾐﾋｶﾞｼﾉﾁｮｳ","prefecture":"京都府","city":"京都市下京区","street":"西七条南東野町"},{"zipCode":"6008888","prefectureKana":"ｷｮｳﾄﾌ","cityKana":"ｷｮｳﾄｼｼﾓｷﾞｮｳｸ","streetKana":"ﾆｼｼﾁｼﾞｮｳﾔﾜﾀﾁｮｳ","prefecture":"京都府","city":"京都市下京区","street":"西七条八幡町"},{"zipCode":"6008828","prefectureKana":"ｷｮｳﾄﾌ","cityKana":"ｷｮｳﾄｼｼﾓｷﾞｮｳｸ","streetKana":"ﾆｼｼﾝﾔｼｷｱｹﾞﾔﾁｮｳ","prefecture":"京都府","city":"京都市下京区","street":"西新屋敷揚屋町"},{"zipCode":"6008826","prefectureKana":"ｷｮｳﾄﾌ","cityKana":"ｷｮｳﾄｼｼﾓｷﾞｮｳｸ","streetKana":"ﾆｼｼﾝﾔｼｷｶﾐﾉﾁｮｳ","prefecture":"京都府","city":"京都市下京区","street":"西新屋敷上之町"},{"zipCode":"6008829","prefectureKana":"ｷｮｳﾄﾌ","cityKana":"ｷｮｳﾄｼｼﾓｷﾞｮｳｸ","streetKana":"ﾆｼｼﾝﾔｼｷｼﾓﾉﾁｮｳ","prefecture":"京都府","city":"京都市下京区","street":"西新屋敷下之町"},{"zipCode":"6008827","prefectureKana":"ｷｮｳﾄﾌ","cityKana":"ｷｮｳﾄｼｼﾓｷﾞｮｳｸ","streetKana":"ﾆｼｼﾝﾔｼｷﾀﾕｳﾁｮｳ","prefecture":"京都府","city":"京都市下京区","street":"西新屋敷太夫町"},{"zipCode":"6008816","prefectureKana":"ｷｮｳﾄﾌ","cityKana":"ｷｮｳﾄｼｼﾓｷﾞｮｳｸ","streetKana":"ﾆｼｼﾝﾔｼｷﾁｭｳﾄﾞｳｼﾞﾁｮｳ","prefecture":"京都府","city":"京都市下京区","street":"西新屋敷中堂寺町"},{"zipCode":"6008825","prefectureKana":"ｷｮｳﾄﾌ","cityKana":"ｷｮｳﾄｼｼﾓｷﾞｮｳｸ","streetKana":"ﾆｼｼﾝﾔｼｷﾅｶﾉﾁｮｳ","prefecture":"京都府","city":"京都市下京区","street":"西新屋敷中之町"},{"zipCode":"6008833","prefectureKana":"ｷｮｳﾄﾌ","cityKana":"ｷｮｳﾄｼｼﾓｷﾞｮｳｸ","streetKana":"ﾆｼｽﾔﾁｮｳ","prefecture":"京都府","city":"京都市下京区","street":"西酢屋町"},{"zipCode":"6008484","prefectureKana":"ｷｮｳﾄﾌ","cityKana":"ｷｮｳﾄｼｼﾓｷﾞｮｳｸ","streetKana":"ﾆｼﾀｶﾂｼﾞﾁｮｳ","prefecture":"京都府","city":"京都市下京区","street":"西高辻町"},{"zipCode":"6008397","prefectureKana":"ｷｮｳﾄﾌ","cityKana":"ｷｮｳﾄｼｼﾓｷﾞｮｳｸ","streetKana":"ﾆｼﾀﾞﾁｮｳ","prefecture":"京都府","city":"京都市下京区","street":"西田町"},{"zipCode":"6008155","prefectureKana":"ｷｮｳﾄﾌ","cityKana":"ｷｮｳﾄｼｼﾓｷﾞｮｳｸ","streetKana":"ﾆｼﾀﾏﾐｽﾞﾁｮｳ","prefecture":"京都府","city":"京都市下京区","street":"西玉水町"},{"zipCode":"6008205","prefectureKana":"ｷｮｳﾄﾌ","cityKana":"ｷｮｳﾄｼｼﾓｷﾞｮｳｸ","streetKana":"ﾆｼﾉﾁｮｳ","prefecture":"京都府","city":"京都市下京区","street":"西之町"},{"zipCode":"6008327","prefectureKana":"ｷｮｳﾄﾌ","cityKana":"ｷｮｳﾄｼｼﾓｷﾞｮｳｸ","streetKana":"ﾆｼﾉﾄｳｲﾝﾁｮｳ","prefecture":"京都府","city":"京都市下京区","street":"西洞院町"},{"zipCode":"6008029","prefectureKana":"ｷｮｳﾄﾌ","cityKana":"ｷｮｳﾄｼｼﾓｷﾞｮｳｸ","streetKana":"ﾆｼﾊｼﾂﾞﾒﾁｮｳ","prefecture":"京都府","city":"京都市下京区","street":"西橋詰町"},{"zipCode":"6008083","prefectureKana":"ｷｮｳﾄﾌ","cityKana":"ｷｮｳﾄｼｼﾓｷﾞｮｳｸ","streetKana":"ﾆｼﾏｴﾁｮｳ","prefecture":"京都府","city":"京都市下京区","street":"西前町"},{"zipCode":"6008326","prefectureKana":"ｷｮｳﾄﾌ","cityKana":"ｷｮｳﾄｼｼﾓｷﾞｮｳｸ","streetKana":"ﾆｼﾏﾂﾔﾁｮｳ","prefecture":"京都府","city":"京都市下京区","street":"西松屋町"},{"zipCode":"6008371","prefectureKana":"ｷｮｳﾄﾌ","cityKana":"ｷｮｳﾄｼｼﾓｷﾞｮｳｸ","streetKana":"ﾆｼﾓﾝｾﾞﾝﾁｮｳ","prefecture":"京都府","city":"京都市下京区","street":"西門前町"},{"zipCode":"6008269","prefectureKana":"ｷｮｳﾄﾌ","cityKana":"ｷｮｳﾄｼｼﾓｷﾞｮｳｸ","streetKana":"ﾆｼﾔｵﾔﾁｮｳ","prefecture":"京都府","city":"京都市下京区","street":"西八百屋町"},{"zipCode":"6008153","prefectureKana":"ｷｮｳﾄﾌ","cityKana":"ｷｮｳﾄｼｼﾓｷﾞｮｳｸ","streetKana":"ﾆｼﾞｭｳﾆﾝｺｳﾁｮｳ","prefecture":"京都府","city":"京都市下京区","street":"廿人講町"},{"zipCode":"6008412","prefectureKana":"ｷｮｳﾄﾌ","cityKana":"ｷｮｳﾄｼｼﾓｷﾞｮｳｸ","streetKana":"ﾆｼﾞｮｳﾊﾝｼﾞｷﾁｮｳ","prefecture":"京都府","city":"京都市下京区","street":"二帖半敷町"},{"zipCode":"6008334","prefectureKana":"ｷｮｳﾄﾌ","cityKana":"ｷｮｳﾄｼｼﾓｷﾞｮｳｸ","streetKana":"ﾆｼﾜｶﾏﾂﾁｮｳ","prefecture":"京都府","city":"京都市下京区","street":"西若松町"},{"zipCode":"6008824","prefectureKana":"ｷｮｳﾄﾌ","cityKana":"ｷｮｳﾄｼｼﾓｷﾞｮｳｸ","streetKana":"ﾆﾆﾝﾂｶｻﾁｮｳ","prefecture":"京都府","city":"京都市下京区","street":"二人司町"},{"zipCode":"6008491","prefectureKana":"ｷｮｳﾄﾌ","cityKana":"ｷｮｳﾄｼｼﾓｷﾞｮｳｸ","streetKana":"ﾆﾜﾄﾘﾎﾞｺﾁｮｳ","prefecture":"京都府","city":"京都市下京区","street":"鶏鉾町"},{"zipCode":"6008053","prefectureKana":"ｷｮｳﾄﾌ","cityKana":"ｷｮｳﾄｼｼﾓｷﾞｮｳｸ","streetKana":"ﾇｼﾔﾁｮｳ(ﾄﾐﾉｺｳｼﾞﾄﾞｵﾘｱﾔﾉｺｳｼﾞｻｶﾞﾙ､ﾄﾐﾉｺｳｼﾞﾄﾞｵﾘﾌﾞﾂｺｳｼﾞｱｶﾞﾙ)","prefecture":"京都府","city":"京都市下京区","street":"塗師屋町（富小路通綾小路下る、富小路通仏光寺上る）"},{"zipCode":"6008182","prefectureKana":"ｷｮｳﾄﾌ","cityKana":"ｷｮｳﾄｼｼﾓｷﾞｮｳｸ","streetKana":"ﾇｼﾔﾁｮｳ","prefecture":"京都府","city":"京都市下京区","street":"塗師屋町（間之町通五条下る、間之町通五条下る２丁目、間之町"},{"zipCode":"6008182","prefectureKana":"ｷｮｳﾄﾌ","cityKana":"ｷｮｳﾄｼｼﾓｷﾞｮｳｸ","streetKana":"ﾇｼﾔﾁｮｳ","prefecture":"京都府","city":"京都市下京区","street":"六条上る、下坂通間之町西入、下坂通間之町東入、六条通間之町西入、六条"},{"zipCode":"6008182","prefectureKana":"ｷｮｳﾄﾌ","cityKana":"ｷｮｳﾄｼｼﾓｷﾞｮｳｸ","streetKana":"ﾇｼﾔﾁｮｳ","prefecture":"京都府","city":"京都市下京区","street":"通間之町東入、六条通高倉西入、六条通東洞院東入）"},{"zipCode":"6008454","prefectureKana":"ｷｮｳﾄﾌ","cityKana":"ｷｮｳﾄｼｼﾓｷﾞｮｳｸ","streetKana":"ﾇﾉﾔﾁｮｳ","prefecture":"京都府","city":"京都市下京区","street":"布屋町"},{"zipCode":"6008422","prefectureKana":"ｷｮｳﾄﾌ","cityKana":"ｷｮｳﾄｼｼﾓｷﾞｮｳｸ","streetKana":"ﾊｸﾗｸﾃﾝﾁｮｳ","prefecture":"京都府","city":"京都市下京区","street":"白楽天町"},{"zipCode":"6008489","prefectureKana":"ｷｮｳﾄﾌ","cityKana":"ｷｮｳﾄｼｼﾓｷﾞｮｳｸ","streetKana":"ﾊｼﾀﾁﾊﾞﾅﾁｮｳ","prefecture":"京都府","city":"京都市下京区","street":"橋橘町"},{"zipCode":"6008187","prefectureKana":"ｷｮｳﾄﾌ","cityKana":"ｷｮｳﾄｼｼﾓｷﾞｮｳｸ","streetKana":"ﾊｼﾂﾞﾒﾁｮｳ","prefecture":"京都府","city":"京都市下京区","street":"橋詰町"},{"zipCode":"6008113","prefectureKana":"ｷｮｳﾄﾌ","cityKana":"ｷｮｳﾄｼｼﾓｷﾞｮｳｸ","streetKana":"ﾊｼﾄﾞﾉﾁｮｳ","prefecture":"京都府","city":"京都市下京区","street":"波止土濃町"},{"zipCode":"6008011","prefectureKana":"ｷｮｳﾄﾌ","cityKana":"ｷｮｳﾄｼｼﾓｷﾞｮｳｸ","streetKana":"ﾊｼﾓﾄﾁｮｳ","prefecture":"京都府","city":"京都市下京区","street":"橋本町"},{"zipCode":"6008139","prefectureKana":"ｷｮｳﾄﾌ","cityKana":"ｷｮｳﾄｼｼﾓｷﾞｮｳｸ","streetKana":"ﾊﾁｵｳｼﾞﾁｮｳ","prefecture":"京都府","city":"京都市下京区","street":"八王子町"},{"zipCode":"6008196","prefectureKana":"ｷｮｳﾄﾌ","cityKana":"ｷｮｳﾄｼｼﾓｷﾞｮｳｸ","streetKana":"ﾊﾁｹﾝﾁｮｳ","prefecture":"京都府","city":"京都市下京区","street":"八軒町"},{"zipCode":"6008247","prefectureKana":"ｷｮｳﾄﾌ","cityKana":"ｷｮｳﾄｼｼﾓｷﾞｮｳｸ","streetKana":"ﾊﾁｼﾞｮｳﾎﾞｳﾓﾝﾁｮｳ(ｼｵｺｳｼﾞﾄﾞｵﾘｸﾛﾓﾝﾆｼｲﾙ)","prefecture":"京都府","city":"京都市下京区","street":"八条坊門町（塩小路通黒門西入）"},{"zipCode":"6008836","prefectureKana":"ｷｮｳﾄﾌ","cityKana":"ｷｮｳﾄｼｼﾓｷﾞｮｳｸ","streetKana":"ﾊﾁｼﾞｮｳﾎﾞｳﾓﾝﾁｮｳ(ﾊﾁｼﾞｮｳﾄﾞｵﾘｵｵﾐﾔﾆｼｲﾙ)","prefecture":"京都府","city":"京都市下京区","street":"八条坊門町（八条通大宮西入）"},{"zipCode":"6008041","prefectureKana":"ｷｮｳﾄﾌ","cityKana":"ｷｮｳﾄｼｼﾓｷﾞｮｳｸ","streetKana":"ﾊﾁﾓﾝｼﾞﾁｮｳ","prefecture":"京都府","city":"京都市下京区","street":"八文字町"},{"zipCode":"6008261","prefectureKana":"ｷｮｳﾄﾌ","cityKana":"ｷｮｳﾄｼｼﾓｷﾞｮｳｸ","streetKana":"ﾊﾅｿﾞﾉﾁｮｳ","prefecture":"京都府","city":"京都市下京区","street":"花園町"},{"zipCode":"6008831","prefectureKana":"ｷｮｳﾄﾌ","cityKana":"ｷｮｳﾄｼｼﾓｷﾞｮｳｸ","streetKana":"ﾊﾅﾊﾞﾀｹﾁｮｳ","prefecture":"京都府","city":"京都市下京区","street":"花畑町"},{"zipCode":"6008185","prefectureKana":"ｷｮｳﾄﾌ","cityKana":"ｷｮｳﾄｼｼﾓｷﾞｮｳｸ","streetKana":"ﾊﾅﾔﾁｮｳ","prefecture":"京都府","city":"京都市下京区","street":"花屋町（上枳殻馬場通間之町西入、上珠数屋町通間之町西入、"},{"zipCode":"6008185","prefectureKana":"ｷｮｳﾄﾌ","cityKana":"ｷｮｳﾄｼｼﾓｷﾞｮｳｸ","streetKana":"ﾊﾅﾔﾁｮｳ","prefecture":"京都府","city":"京都市下京区","street":"上珠数屋町通東洞院東入、東洞院通上枳殻馬場下る、間之町通上珠数屋町下る）"},{"zipCode":"6008340","prefectureKana":"ｷｮｳﾄﾌ","cityKana":"ｷｮｳﾄｼｼﾓｷﾞｮｳｸ","streetKana":"ﾊﾅﾔﾁｮｳ(ﾊﾅﾔﾁｮｳﾄﾞｵﾘｱﾌﾞﾗﾉｺｳｼﾞﾆｼｲﾙ)","prefecture":"京都府","city":"京都市下京区","street":"花屋町（花屋町通油小路西入）"},{"zipCode":"6008114","prefectureKana":"ｷｮｳﾄﾌ","cityKana":"ｷｮｳﾄｼｼﾓｷﾞｮｳｸ","streetKana":"ﾊﾔｵﾁｮｳ","prefecture":"京都府","city":"京都市下京区","street":"早尾町"},{"zipCode":"6008433","prefectureKana":"ｷｮｳﾄﾌ","cityKana":"ｷｮｳﾄｼｼﾓｷﾞｮｳｸ","streetKana":"ﾊﾝｼﾞｮｳﾁｮｳ","prefecture":"京都府","city":"京都市下京区","street":"繁昌町"},{"zipCode":"6008439","prefectureKana":"ｷｮｳﾄﾌ","cityKana":"ｷｮｳﾄｼｼﾓｷﾞｮｳｸ","streetKana":"ﾊﾞﾝﾄｳﾔﾁｮｳ","prefecture":"京都府","city":"京都市下京区","street":"坂東屋町"},{"zipCode":"6008235","prefectureKana":"ｷｮｳﾄﾌ","cityKana":"ｷｮｳﾄｼｼﾓｷﾞｮｳｸ","streetKana":"ﾋｶﾞｼｱﾌﾞﾗﾉｺｳｼﾞﾁｮｳ","prefecture":"京都府","city":"京都市下京区","street":"東油小路町"},{"zipCode":"6008169","prefectureKana":"ｷｮｳﾄﾌ","cityKana":"ｷｮｳﾄｼｼﾓｷﾞｮｳｸ","streetKana":"ﾋｶﾞｼｳｵﾔﾁｮｳ","prefecture":"京都府","city":"京都市下京区","street":"東魚屋町"},{"zipCode":"6008107","prefectureKana":"ｷｮｳﾄﾌ","cityKana":"ｷｮｳﾄｼｼﾓｷﾞｮｳｸ","streetKana":"ﾋｶﾞｼｶｻﾞﾘﾔﾁｮｳ","prefecture":"京都府","city":"京都市下京区","street":"東錺屋町"},{"zipCode":"6008324","prefectureKana":"ｷｮｳﾄﾌ","cityKana":"ｷｮｳﾄｼｼﾓｷﾞｮｳｸ","streetKana":"ﾋｶﾞｼｶﾞﾜﾁｮｳ","prefecture":"京都府","city":"京都市下京区","street":"東側町"},{"zipCode":"6008217","prefectureKana":"ｷｮｳﾄﾌ","cityKana":"ｷｮｳﾄｼｼﾓｷﾞｮｳｸ","streetKana":"ﾋｶﾞｼｻｶｲﾁｮｳ","prefecture":"京都府","city":"京都市下京区","street":"東境町"},{"zipCode":"6008215","prefectureKana":"ｷｮｳﾄﾌ","cityKana":"ｷｮｳﾄｼｼﾓｷﾞｮｳｸ","streetKana":"ﾋｶﾞｼｼｵｺｳｼﾞｶﾏﾄﾞﾉﾁｮｳ","prefecture":"京都府","city":"京都市下京区","street":"東塩小路釜殿町"},{"zipCode":"6008214","prefectureKana":"ｷｮｳﾄﾌ","cityKana":"ｷｮｳﾄｼｼﾓｷﾞｮｳｸ","streetKana":"ﾋｶﾞｼｼｵｺｳｼﾞﾀｶｸﾗﾁｮｳ","prefecture":"京都府","city":"京都市下京区","street":"東塩小路高倉町"},{"zipCode":"6008213","prefectureKana":"ｷｮｳﾄﾌ","cityKana":"ｷｮｳﾄｼｼﾓｷﾞｮｳｸ","streetKana":"ﾋｶﾞｼｼｵｺｳｼﾞﾑｶｲﾊﾀﾁｮｳ","prefecture":"京都府","city":"京都市下京区","street":"東塩小路向畑町"},{"zipCode":"6008216","prefectureKana":"ｷｮｳﾄﾌ","cityKana":"ｷｮｳﾄｼｼﾓｷﾞｮｳｸ","streetKana":"ﾋｶﾞｼｼｵｺｳｼﾞﾁｮｳ","prefecture":"京都府","city":"京都市下京区","street":"東塩小路町"},{"zipCode":"6008225","prefectureKana":"ｷｮｳﾄﾌ","cityKana":"ｷｮｳﾄｼｼﾓｷﾞｮｳｸ","streetKana":"ﾋｶﾞｼﾀﾞｲｸﾁｮｳ","prefecture":"京都府","city":"京都市下京区","street":"東大工町"},{"zipCode":"6008190","prefectureKana":"ｷｮｳﾄﾌ","cityKana":"ｷｮｳﾄｼｼﾓｷﾞｮｳｸ","streetKana":"ﾋｶﾞｼﾀﾏﾐｽﾞﾁｮｳ","prefecture":"京都府","city":"京都市下京区","street":"東玉水町"},{"zipCode":"6008224","prefectureKana":"ｷｮｳﾄﾌ","cityKana":"ｷｮｳﾄｼｼﾓｷﾞｮｳｸ","streetKana":"ﾋｶﾞｼﾁｮｳ","prefecture":"京都府","city":"京都市下京区","street":"東町"},{"zipCode":"6008204","prefectureKana":"ｷｮｳﾄﾌ","cityKana":"ｷｮｳﾄｼｼﾓｷﾞｮｳｸ","streetKana":"ﾋｶﾞｼﾉﾁｮｳ","prefecture":"京都府","city":"京都市下京区","street":"東之町"},{"zipCode":"6008074","prefectureKana":"ｷｮｳﾄﾌ","cityKana":"ｷｮｳﾄｼｼﾓｷﾞｮｳｸ","streetKana":"ﾋｶﾞｼﾏｴﾁｮｳ","prefecture":"京都府","city":"京都市下京区","street":"東前町"},{"zipCode":"6008315","prefectureKana":"ｷｮｳﾄﾌ","cityKana":"ｷｮｳﾄｼｼﾓｷﾞｮｳｸ","streetKana":"ﾋｶﾞｼﾏﾂﾔﾁｮｳ","prefecture":"京都府","city":"京都市下京区","street":"東松屋町"},{"zipCode":"6008305","prefectureKana":"ｷｮｳﾄﾌ","cityKana":"ｷｮｳﾄｼｼﾓｷﾞｮｳｸ","streetKana":"ﾋｶﾞｼﾜｶﾏﾂﾁｮｳ","prefecture":"京都府","city":"京都市下京区","street":"東若松町"},{"zipCode":"6008458","prefectureKana":"ｷｮｳﾄﾌ","cityKana":"ｷｮｳﾄｼｼﾓｷﾞｮｳｸ","streetKana":"ﾋｸﾞﾁﾁｮｳ","prefecture":"京都府","city":"京都市下京区","street":"樋口町"},{"zipCode":"6008227","prefectureKana":"ｷｮｳﾄﾌ","cityKana":"ｷｮｳﾄｼｼﾓｷﾞｮｳｸ","streetKana":"ﾋｼﾔﾁｮｳ","prefecture":"京都府","city":"京都市下京区","street":"菱屋町"},{"zipCode":"6008311","prefectureKana":"ｷｮｳﾄﾌ","cityKana":"ｷｮｳﾄｼｼﾓｷﾞｮｳｸ","streetKana":"ﾋﾞｼｬﾓﾝﾁｮｳ","prefecture":"京都府","city":"京都市下京区","street":"毘沙門町"},{"zipCode":"6008087","prefectureKana":"ｷｮｳﾄﾌ","cityKana":"ｷｮｳﾄｼｼﾓｷﾞｮｳｸ","streetKana":"ﾋﾉｼﾀﾁｮｳ","prefecture":"京都府","city":"京都市下京区","street":"樋之下町"},{"zipCode":"6008118","prefectureKana":"ｷｮｳﾄﾌ","cityKana":"ｷｮｳﾄｼｼﾓｷﾞｮｳｸ","streetKana":"ﾋﾗｲﾁｮｳ","prefecture":"京都府","city":"京都市下京区","street":"平居町"},{"zipCode":"6008122","prefectureKana":"ｷｮｳﾄﾌ","cityKana":"ｷｮｳﾄｼｼﾓｷﾞｮｳｸ","streetKana":"ﾋﾗｵｶﾁｮｳ","prefecture":"京都府","city":"京都市下京区","street":"平岡町"},{"zipCode":"6008306","prefectureKana":"ｷｮｳﾄﾌ","cityKana":"ｷｮｳﾄｼｼﾓｷﾞｮｳｸ","streetKana":"ﾋﾗﾉﾁｮｳ","prefecture":"京都府","city":"京都市下京区","street":"平野町"},{"zipCode":"6008109","prefectureKana":"ｷｮｳﾄﾌ","cityKana":"ｷｮｳﾄｼｼﾓｷﾞｮｳｸ","streetKana":"ﾋﾗﾔﾁｮｳ","prefecture":"京都府","city":"京都市下京区","street":"平屋町"},{"zipCode":"6008408","prefectureKana":"ｷｮｳﾄﾌ","cityKana":"ｷｮｳﾄｼｼﾓｷﾞｮｳｸ","streetKana":"ﾌｶｸｻﾁｮｳ","prefecture":"京都府","city":"京都市下京区","street":"深草町"},{"zipCode":"6008189","prefectureKana":"ｷｮｳﾄﾌ","cityKana":"ｷｮｳﾄｼｼﾓｷﾞｮｳｸ","streetKana":"ﾌｸｼﾏﾁｮｳ","prefecture":"京都府","city":"京都市下京区","street":"福島町"},{"zipCode":"6008404","prefectureKana":"ｷｮｳﾄﾌ","cityKana":"ｷｮｳﾄｼｼﾓｷﾞｮｳｸ","streetKana":"ﾌｸﾃﾞﾝｼﾞﾁｮｳ","prefecture":"京都府","city":"京都市下京区","street":"福田寺町"},{"zipCode":"6008320","prefectureKana":"ｷｮｳﾄﾌ","cityKana":"ｷｮｳﾄｼｼﾓｷﾞｮｳｸ","streetKana":"ﾌｸﾓﾄﾁｮｳ","prefecture":"京都府","city":"京都市下京区","street":"福本町"},{"zipCode":"6008495","prefectureKana":"ｷｮｳﾄﾌ","cityKana":"ｷｮｳﾄｼｼﾓｷﾞｮｳｸ","streetKana":"ﾌｼﾞﾓﾄﾖﾘﾁｮｳ","prefecture":"京都府","city":"京都市下京区","street":"藤本寄町"},{"zipCode":"6008173","prefectureKana":"ｷｮｳﾄﾌ","cityKana":"ｷｮｳﾄｼｼﾓｷﾞｮｳｸ","streetKana":"ﾌﾞﾂｸﾞﾔﾁｮｳ","prefecture":"京都府","city":"京都市下京区","street":"仏具屋町（不明門通五条下る２丁目、不明門通花屋町上る、不明門通"},{"zipCode":"6008173","prefectureKana":"ｷｮｳﾄﾌ","cityKana":"ｷｮｳﾄｼｼﾓｷﾞｮｳｸ","streetKana":"ﾌﾞﾂｸﾞﾔﾁｮｳ","prefecture":"京都府","city":"京都市下京区","street":"六条上る、不明門通六条下る、花屋町通烏丸東入、花屋町通不明門西入、花"},{"zipCode":"6008173","prefectureKana":"ｷｮｳﾄﾌ","cityKana":"ｷｮｳﾄｼｼﾓｷﾞｮｳｸ","streetKana":"ﾌﾞﾂｸﾞﾔﾁｮｳ","prefecture":"京都府","city":"京都市下京区","street":"屋町通不明門東入、六条通不明門西入、六条通不明門東入、六条通烏丸東"},{"zipCode":"6008173","prefectureKana":"ｷｮｳﾄﾌ","cityKana":"ｷｮｳﾄｼｼﾓｷﾞｮｳｸ","streetKana":"ﾌﾞﾂｸﾞﾔﾁｮｳ","prefecture":"京都府","city":"京都市下京区","street":"入、六条通東洞院西入）"},{"zipCode":"6008347","prefectureKana":"ｷｮｳﾄﾌ","cityKana":"ｷｮｳﾄｼｼﾓｷﾞｮｳｸ","streetKana":"ﾌﾞﾂｸﾞﾔﾁｮｳ","prefecture":"京都府","city":"京都市下京区","street":"仏具屋町（油小路通正面上る、油小路通花屋町下る、正面通油小路"},{"zipCode":"6008347","prefectureKana":"ｷｮｳﾄﾌ","cityKana":"ｷｮｳﾄｼｼﾓｷﾞｮｳｸ","streetKana":"ﾌﾞﾂｸﾞﾔﾁｮｳ","prefecture":"京都府","city":"京都市下京区","street":"東入、花屋町通油小路東入）"},{"zipCode":"6008094","prefectureKana":"ｷｮｳﾄﾌ","cityKana":"ｷｮｳﾄｼｼﾓｷﾞｮｳｸ","streetKana":"ﾌﾞｯｺｳｼﾞﾆｼﾏﾁ","prefecture":"京都府","city":"京都市下京区","street":"仏光寺西町"},{"zipCode":"6008054","prefectureKana":"ｷｮｳﾄﾌ","cityKana":"ｷｮｳﾄｼｼﾓｷﾞｮｳｸ","streetKana":"ﾌﾞｯｺｳｼﾞﾋｶﾞｼﾏﾁ","prefecture":"京都府","city":"京都市下京区","street":"仏光寺東町"},{"zipCode":"6008466","prefectureKana":"ｷｮｳﾄﾌ","cityKana":"ｷｮｳﾄｼｼﾓｷﾞｮｳｸ","streetKana":"ﾌﾅﾔﾁｮｳ","prefecture":"京都府","city":"京都市下京区","street":"舟屋町"},{"zipCode":"6008443","prefectureKana":"ｷｮｳﾄﾌ","cityKana":"ｷｮｳﾄｼｼﾓｷﾞｮｳｸ","streetKana":"ﾌﾈﾎﾞｺﾁｮｳ","prefecture":"京都府","city":"京都市下京区","street":"船鉾町"},{"zipCode":"6008467","prefectureKana":"ｷｮｳﾄﾌ","cityKana":"ｷｮｳﾄｼｼﾓｷﾞｮｳｸ","streetKana":"ﾌﾓﾄﾁｮｳ","prefecture":"京都府","city":"京都市下京区","street":"麓町"},{"zipCode":"6008245","prefectureKana":"ｷｮｳﾄﾌ","cityKana":"ｷｮｳﾄｼｼﾓｷﾞｮｳｸ","streetKana":"ﾌﾙｵﾀﾋﾞﾁｮｳ","prefecture":"京都府","city":"京都市下京区","street":"古御旅町"},{"zipCode":"6008428","prefectureKana":"ｷｮｳﾄﾌ","cityKana":"ｷｮｳﾄｼｼﾓｷﾞｮｳｸ","streetKana":"ﾍﾞﾝｻﾞｲﾃﾝﾁｮｳ","prefecture":"京都府","city":"京都市下京区","street":"弁財天町"},{"zipCode":"6008388","prefectureKana":"ｷｮｳﾄﾌ","cityKana":"ｷｮｳﾄｼｼﾓｷﾞｮｳｸ","streetKana":"ﾎﾞｳﾓﾝﾁｮｳ","prefecture":"京都府","city":"京都市下京区","street":"坊門町"},{"zipCode":"6008244","prefectureKana":"ｷｮｳﾄﾌ","cityKana":"ｷｮｳﾄｼｼﾓｷﾞｮｳｸ","streetKana":"ﾎﾞｳﾓﾝﾅｶﾉﾁｮｳ","prefecture":"京都府","city":"京都市下京区","street":"坊門中之町"},{"zipCode":"6008333","prefectureKana":"ｷｮｳﾄﾌ","cityKana":"ｷｮｳﾄｼｼﾓｷﾞｮｳｸ","streetKana":"ﾎﾞｸﾐｶﾅﾌﾞﾂﾁｮｳ","prefecture":"京都府","city":"京都市下京区","street":"卜味金仏町"},{"zipCode":"6008193","prefectureKana":"ｷｮｳﾄﾌ","cityKana":"ｷｮｳﾄｼｼﾓｷﾞｮｳｸ","streetKana":"ﾎﾈﾔﾁｮｳ(ﾛｸｼﾞｮｳﾄﾞｵﾘﾀｶｸﾗﾋｶﾞｼｲﾙ､ﾛｸｼﾞｮｳﾄﾞｵﾘﾔﾅｷﾞﾊﾞﾊﾞﾆｼｲﾙ)","prefecture":"京都府","city":"京都市下京区","street":"骨屋町（六条通高倉東入、六条通柳馬場西入）"},{"zipCode":"6008425","prefectureKana":"ｷｮｳﾄﾌ","cityKana":"ｷｮｳﾄｼｼﾓｷﾞｮｳｸ","streetKana":"ﾎﾈﾔﾁｮｳ","prefecture":"京都府","city":"京都市下京区","street":"骨屋町（諏訪町通高辻上る、諏訪町通高辻下る、高辻通烏丸西入、高辻通室町東入）"},{"zipCode":"6008147","prefectureKana":"ｷｮｳﾄﾌ","cityKana":"ｷｮｳﾄｼｼﾓｷﾞｮｳｸ","streetKana":"ﾎﾘﾂﾞﾒﾁｮｳ","prefecture":"京都府","city":"京都市下京区","street":"堀詰町"},{"zipCode":"6008446","prefectureKana":"ｷｮｳﾄﾌ","cityKana":"ｷｮｳﾄｼｼﾓｷﾞｮｳｸ","streetKana":"ﾎﾘﾉｳﾁﾁｮｳ","prefecture":"京都府","city":"京都市下京区","street":"堀之内町"},{"zipCode":"6008361","prefectureKana":"ｷｮｳﾄﾌ","cityKana":"ｷｮｳﾄｼｼﾓｷﾞｮｳｸ","streetKana":"ﾎﾘﾉｶﾞﾐﾁｮｳ","prefecture":"京都府","city":"京都市下京区","street":"堀之上町"},{"zipCode":"6008102","prefectureKana":"ｷｮｳﾄﾌ","cityKana":"ｷｮｳﾄｼｼﾓｷﾞｮｳｸ","streetKana":"ﾎﾝｶﾞｸｼﾞﾏｴﾁｮｳ","prefecture":"京都府","city":"京都市下京区","street":"本覚寺前町"},{"zipCode":"6008086","prefectureKana":"ｷｮｳﾄﾌ","cityKana":"ｷｮｳﾄｼｼﾓｷﾞｮｳｸ","streetKana":"ﾎﾝﾄｳﾛｳﾁｮｳ","prefecture":"京都府","city":"京都市下京区","street":"本燈籠町"},{"zipCode":"6008462","prefectureKana":"ｷｮｳﾄﾌ","cityKana":"ｷｮｳﾄｼｼﾓｷﾞｮｳｸ","streetKana":"ﾎﾝﾘｭｳｽｲﾁｮｳ","prefecture":"京都府","city":"京都市下京区","street":"本柳水町"},{"zipCode":"6008211","prefectureKana":"ｷｮｳﾄﾌ","cityKana":"ｷｮｳﾄｼｼﾓｷﾞｮｳｸ","streetKana":"ﾏｵﾔﾁｮｳ","prefecture":"京都府","city":"京都市下京区","street":"真苧屋町"},{"zipCode":"6008046","prefectureKana":"ｷｮｳﾄﾌ","cityKana":"ｷｮｳﾄｼｼﾓｷﾞｮｳｸ","streetKana":"ﾏｽﾔﾁｮｳ","prefecture":"京都府","city":"京都市下京区","street":"桝屋町"},{"zipCode":"6008195","prefectureKana":"ｷｮｳﾄﾌ","cityKana":"ｷｮｳﾄｼｼﾓｷﾞｮｳｸ","streetKana":"ﾏｽﾔﾁｮｳ","prefecture":"京都府","city":"京都市下京区","street":"升屋町"},{"zipCode":"6008026","prefectureKana":"ｷｮｳﾄﾌ","cityKana":"ｷｮｳﾄｼｼﾓｷﾞｮｳｸ","streetKana":"ﾏﾂｶﾜﾁｮｳ","prefecture":"京都府","city":"京都市下京区","street":"松川町"},{"zipCode":"6008063","prefectureKana":"ｷｮｳﾄﾌ","cityKana":"ｷｮｳﾄｼｼﾓｷﾞｮｳｸ","streetKana":"ﾏﾂﾊﾞﾗﾅｶﾉﾁｮｳ","prefecture":"京都府","city":"京都市下京区","street":"松原中之町"},{"zipCode":"6008256","prefectureKana":"ｷｮｳﾄﾌ","cityKana":"ｷｮｳﾄｼｼﾓｷﾞｮｳｸ","streetKana":"ﾏﾂﾓﾄﾁｮｳ(ｲﾜｶﾞﾐﾄﾞｵﾘｷﾂﾞﾔﾊﾞｼｻｶﾞﾙ､ｲﾜｶﾞﾐﾄﾞｵﾘｼｵｺｳｼﾞｱｶﾞﾙ)","prefecture":"京都府","city":"京都市下京区","street":"松本町（岩上通木津屋橋下る、岩上通塩小路上る）"},{"zipCode":"6008390","prefectureKana":"ｷｮｳﾄﾌ","cityKana":"ｷｮｳﾄｼｼﾓｷﾞｮｳｸ","streetKana":"ﾏﾂﾓﾄﾁｮｳ","prefecture":"京都府","city":"京都市下京区","street":"松本町（綾小路通猪熊東入、猪熊通綾小路上る、猪熊通四条下る）"},{"zipCode":"6008105","prefectureKana":"ｷｮｳﾄﾌ","cityKana":"ｷｮｳﾄｼｼﾓｷﾞｮｳｸ","streetKana":"ﾏﾂﾔﾁｮｳ","prefecture":"京都府","city":"京都市下京区","street":"松屋町"},{"zipCode":"6008075","prefectureKana":"ｷｮｳﾄﾌ","cityKana":"ｷｮｳﾄｼｼﾓｷﾞｮｳｸ","streetKana":"ﾏﾘｺｳｼﾞﾁｮｳ","prefecture":"京都府","city":"京都市下京区","street":"万里小路町"},{"zipCode":"6008037","prefectureKana":"ｷｮｳﾄﾌ","cityKana":"ｷｮｳﾄｼｼﾓｷﾞｮｳｸ","streetKana":"ﾏﾙﾔﾁｮｳ(ｺﾞｺﾏﾁﾄﾞｵﾘｱﾔﾉｺｳｼﾞｻｶﾞﾙ､ｺﾞｺﾏﾁﾄﾞｵﾘﾌﾞﾂｺｳｼﾞｱｶﾞﾙ)","prefecture":"京都府","city":"京都市下京区","street":"丸屋町（御幸町通綾小路下る、御幸町通仏光寺上る）"},{"zipCode":"6008359","prefectureKana":"ｷｮｳﾄﾌ","cityKana":"ｷｮｳﾄｼｼﾓｷﾞｮｳｸ","streetKana":"ﾏﾙﾔﾁｮｳ","prefecture":"京都府","city":"京都市下京区","street":"丸屋町（綾小路通猪熊西入、綾小路通大宮東入、綾小路通黒門西"},{"zipCode":"6008359","prefectureKana":"ｷｮｳﾄﾌ","cityKana":"ｷｮｳﾄｼｼﾓｷﾞｮｳｸ","streetKana":"ﾏﾙﾔﾁｮｳ","prefecture":"京都府","city":"京都市下京区","street":"入、綾小路通黒門東入、猪熊通綾小路上る、黒門通綾小路上る、黒門通綾小"},{"zipCode":"6008359","prefectureKana":"ｷｮｳﾄﾌ","cityKana":"ｷｮｳﾄｼｼﾓｷﾞｮｳｸ","streetKana":"ﾏﾙﾔﾁｮｳ","prefecture":"京都府","city":"京都市下京区","street":"路下る）"},{"zipCode":"6008399","prefectureKana":"ｷｮｳﾄﾌ","cityKana":"ｷｮｳﾄｼｼﾓｷﾞｮｳｸ","streetKana":"ﾏﾙﾔﾁｮｳ","prefecture":"京都府","city":"京都市下京区","street":"丸屋町（北小路通西中筋東入、西中筋通北小路上る、西中筋通正"},{"zipCode":"6008399","prefectureKana":"ｷｮｳﾄﾌ","cityKana":"ｷｮｳﾄｼｼﾓｷﾞｮｳｸ","streetKana":"ﾏﾙﾔﾁｮｳ","prefecture":"京都府","city":"京都市下京区","street":"面下る、北小路通堀川東入、堀川通北小路上る、堀川通正面下る）"},{"zipCode":"6008104","prefectureKana":"ｷｮｳﾄﾌ","cityKana":"ｷｮｳﾄｼｼﾓｷﾞｮｳｸ","streetKana":"ﾏﾝｼﾞｭｳｼﾞﾁｮｳ","prefecture":"京都府","city":"京都市下京区","street":"万寿寺町"},{"zipCode":"6008405","prefectureKana":"ｷｮｳﾄﾌ","cityKana":"ｷｮｳﾄｼｼﾓｷﾞｮｳｸ","streetKana":"ﾏﾝｼﾞｭｳｼﾞﾅｶﾉﾁｮｳ","prefecture":"京都府","city":"京都市下京区","street":"万寿寺中之町"},{"zipCode":"6008101","prefectureKana":"ｷｮｳﾄﾌ","cityKana":"ｷｮｳﾄｼｼﾓｷﾞｮｳｸ","streetKana":"ﾐｴｲﾄﾞｳﾁｮｳ","prefecture":"京都府","city":"京都市下京区","street":"御影堂町"},{"zipCode":"6008447","prefectureKana":"ｷｮｳﾄﾌ","cityKana":"ｷｮｳﾄｼｼﾓｷﾞｮｳｸ","streetKana":"ﾐｶｹﾞﾁｮｳ","prefecture":"京都府","city":"京都市下京区","street":"御影町"},{"zipCode":"6008020","prefectureKana":"ｷｮｳﾄﾌ","cityKana":"ｷｮｳﾄｼｼﾓｷﾞｮｳｸ","streetKana":"ﾐｶｹﾞﾄﾞｳﾏｴﾁｮｳ","prefecture":"京都府","city":"京都市下京区","street":"御影堂前町"},{"zipCode":"6008238","prefectureKana":"ｷｮｳﾄﾌ","cityKana":"ｷｮｳﾄｼｼﾓｷﾞｮｳｸ","streetKana":"ﾐｶﾀｺﾝﾔﾁｮｳ","prefecture":"京都府","city":"京都市下京区","street":"御方紺屋町"},{"zipCode":"6008243","prefectureKana":"ｷｮｳﾄﾌ","cityKana":"ｷｮｳﾄｼｼﾓｷﾞｮｳｸ","streetKana":"ﾐﾅﾐｴﾋﾞｽﾁｮｳ","prefecture":"京都府","city":"京都市下京区","street":"南夷町"},{"zipCode":"6008117","prefectureKana":"ｷｮｳﾄﾌ","cityKana":"ｷｮｳﾄｼｼﾓｷﾞｮｳｸ","streetKana":"ﾐﾅﾐｷｮｳｺﾞｸﾁｮｳ","prefecture":"京都府","city":"京都市下京区","street":"南京極町"},{"zipCode":"6008110","prefectureKana":"ｷｮｳﾄﾌ","cityKana":"ｷｮｳﾄｼｼﾓｷﾞｮｳｸ","streetKana":"ﾐﾅﾐﾊｼﾂﾞﾒﾁｮｳ","prefecture":"京都府","city":"京都市下京区","street":"南橋詰町"},{"zipCode":"6008234","prefectureKana":"ｷｮｳﾄﾌ","cityKana":"ｷｮｳﾄｼｼﾓｷﾞｮｳｸ","streetKana":"ﾐﾅﾐﾌﾄﾞﾝﾄﾞｳﾁｮｳ","prefecture":"京都府","city":"京都市下京区","street":"南不動堂町"},{"zipCode":"6008232","prefectureKana":"ｷｮｳﾄﾌ","cityKana":"ｷｮｳﾄｼｼﾓｷﾞｮｳｸ","streetKana":"ﾐﾅﾐﾏﾁ","prefecture":"京都府","city":"京都市下京区","street":"南町"},{"zipCode":"6008372","prefectureKana":"ｷｮｳﾄﾌ","cityKana":"ｷｮｳﾄｼｼﾓｷﾞｮｳｸ","streetKana":"ﾐﾅﾐﾓﾝｾﾞﾝﾁｮｳ","prefecture":"京都府","city":"京都市下京区","street":"南門前町"},{"zipCode":"6008251","prefectureKana":"ｷｮｳﾄﾌ","cityKana":"ｷｮｳﾄｼｼﾓｷﾞｮｳｸ","streetKana":"ﾐﾅﾐﾔｵﾔﾁｮｳ","prefecture":"京都府","city":"京都市下京区","street":"南八百屋町"},{"zipCode":"6008015","prefectureKana":"ｷｮｳﾄﾌ","cityKana":"ｷｮｳﾄｼｼﾓｷﾞｮｳｸ","streetKana":"ﾐﾉﾔﾁｮｳ","prefecture":"京都府","city":"京都市下京区","street":"美濃屋町"},{"zipCode":"6008472","prefectureKana":"ｷｮｳﾄﾌ","cityKana":"ｷｮｳﾄｼｼﾓｷﾞｮｳｸ","streetKana":"ﾐｮｳﾃﾞﾝｼﾞﾁｮｳ","prefecture":"京都府","city":"京都市下京区","street":"妙伝寺町"},{"zipCode":"6008392","prefectureKana":"ｷｮｳﾄﾌ","cityKana":"ｷｮｳﾄｼｼﾓｷﾞｮｳｸ","streetKana":"ﾐｮｳﾏﾝｼﾞﾁｮｳ","prefecture":"京都府","city":"京都市下京区","street":"妙満寺町"},{"zipCode":"6008091","prefectureKana":"ｷｮｳﾄﾌ","cityKana":"ｷｮｳﾄｼｼﾓｷﾞｮｳｸ","streetKana":"ﾓﾄｱｸｵｳｼﾞﾁｮｳ","prefecture":"京都府","city":"京都市下京区","street":"元悪王子町"},{"zipCode":"6008064","prefectureKana":"ｷｮｳﾄﾌ","cityKana":"ｷｮｳﾄｼｼﾓｷﾞｮｳｸ","streetKana":"ﾓﾄｶﾐｼﾝﾒｲﾁｮｳ","prefecture":"京都府","city":"京都市下京区","street":"本上神明町"},{"zipCode":"6008119","prefectureKana":"ｷｮｳﾄﾌ","cityKana":"ｷｮｳﾄｼｼﾓｷﾞｮｳｸ","streetKana":"ﾓﾄｼｵｶﾞﾏﾁｮｳ","prefecture":"京都府","city":"京都市下京区","street":"本塩竈町"},{"zipCode":"6008065","prefectureKana":"ｷｮｳﾄﾌ","cityKana":"ｷｮｳﾄｼｼﾓｷﾞｮｳｸ","streetKana":"ﾓﾄｼﾝﾒｲﾁｮｳ","prefecture":"京都府","city":"京都市下京区","street":"本神明町"},{"zipCode":"6008436","prefectureKana":"ｷｮｳﾄﾌ","cityKana":"ｷｮｳﾄｼｼﾓｷﾞｮｳｸ","streetKana":"ﾓﾄﾘｮｳｶﾞｴﾁｮｳ","prefecture":"京都府","city":"京都市下京区","street":"元両替町"},{"zipCode":"6008345","prefectureKana":"ｷｮｳﾄﾌ","cityKana":"ｷｮｳﾄｼｼﾓｷﾞｮｳｸ","streetKana":"ﾓﾐｼﾞﾁｮｳ","prefecture":"京都府","city":"京都市下京区","street":"紅葉町"},{"zipCode":"6008222","prefectureKana":"ｷｮｳﾄﾌ","cityKana":"ｷｮｳﾄｼｼﾓｷﾞｮｳｸ","streetKana":"ﾓﾝｶﾞｸﾁｮｳ","prefecture":"京都府","city":"京都市下京区","street":"文覚町"},{"zipCode":"6008358","prefectureKana":"ｷｮｳﾄﾌ","cityKana":"ｷｮｳﾄｼｼﾓｷﾞｮｳｸ","streetKana":"ﾓﾝｾﾞﾝﾁｮｳ","prefecture":"京都府","city":"京都市下京区","street":"門前町"},{"zipCode":"6008168","prefectureKana":"ｷｮｳﾄﾌ","cityKana":"ｷｮｳﾄｼｼﾓｷﾞｮｳｸ","streetKana":"ﾔｵﾔﾁｮｳ","prefecture":"京都府","city":"京都市下京区","street":"八百屋町（室町新町ノ間六条下る、室町通花屋町上る、室町通六条下"},{"zipCode":"6008168","prefectureKana":"ｷｮｳﾄﾌ","cityKana":"ｷｮｳﾄｼｼﾓｷﾞｮｳｸ","streetKana":"ﾔｵﾔﾁｮｳ","prefecture":"京都府","city":"京都市下京区","street":"る、六条通新町東入下る、六条通室町西入、六条通室町西入下る）"},{"zipCode":"6008262","prefectureKana":"ｷｮｳﾄﾌ","cityKana":"ｷｮｳﾄｼｼﾓｷﾞｮｳｸ","streetKana":"ﾔｵﾔﾁｮｳ","prefecture":"京都府","city":"京都市下京区","street":"八百屋町（七条通猪熊通東入、七条通東堀川西入、七条通堀川西"},{"zipCode":"6008262","prefectureKana":"ｷｮｳﾄﾌ","cityKana":"ｷｮｳﾄｼｼﾓｷﾞｮｳｸ","streetKana":"ﾔｵﾔﾁｮｳ","prefecture":"京都府","city":"京都市下京区","street":"入、七条通堀川西入下る、東堀川通七条下る西入、下魚棚通堀川西入）"},{"zipCode":"6008321","prefectureKana":"ｷｮｳﾄﾌ","cityKana":"ｷｮｳﾄｼｼﾓｷﾞｮｳｸ","streetKana":"ﾔｵﾔﾁｮｳ","prefecture":"京都府","city":"京都市下京区","street":"八百屋町（西洞院通楊梅上る、西洞院通楊梅下る、楊梅通西洞院東"},{"zipCode":"6008321","prefectureKana":"ｷｮｳﾄﾌ","cityKana":"ｷｮｳﾄｼｼﾓｷﾞｮｳｸ","streetKana":"ﾔｵﾔﾁｮｳ","prefecture":"京都府","city":"京都市下京区","street":"入、楊梅通若宮西入）"},{"zipCode":"6008203","prefectureKana":"ｷｮｳﾄﾌ","cityKana":"ｷｮｳﾄｼｼﾓｷﾞｮｳｸ","streetKana":"ﾔｶﾀﾁｮｳ","prefecture":"京都府","city":"京都市下京区","street":"屋形町"},{"zipCode":"6008823","prefectureKana":"ｷｮｳﾄﾌ","cityKana":"ｷｮｳﾄｼｼﾓｷﾞｮｳｸ","streetKana":"ﾔｸｴﾝﾁｮｳ","prefecture":"京都府","city":"京都市下京区","street":"薬園町"},{"zipCode":"6008416","prefectureKana":"ｷｮｳﾄﾌ","cityKana":"ｷｮｳﾄｼｼﾓｷﾞｮｳｸ","streetKana":"ﾔｸｼﾏｴﾁｮｳ","prefecture":"京都府","city":"京都市下京区","street":"薬師前町"},{"zipCode":"6008442","prefectureKana":"ｷｮｳﾄﾌ","cityKana":"ｷｮｳﾄｼｼﾓｷﾞｮｳｸ","streetKana":"ﾔﾀﾞﾁｮｳ","prefecture":"京都府","city":"京都市下京区","street":"矢田町"},{"zipCode":"6008112","prefectureKana":"ｷｮｳﾄﾌ","cityKana":"ｷｮｳﾄｼｼﾓｷﾞｮｳｸ","streetKana":"ﾔﾂﾔﾅｷﾞﾁｮｳ","prefecture":"京都府","city":"京都市下京区","street":"八ツ柳町"},{"zipCode":"6008344","prefectureKana":"ｷｮｳﾄﾌ","cityKana":"ｷｮｳﾄｼｼﾓｷﾞｮｳｸ","streetKana":"ﾔﾅｷﾞﾁｮｳ","prefecture":"京都府","city":"京都市下京区","street":"柳町"},{"zipCode":"6008448","prefectureKana":"ｷｮｳﾄﾌ","cityKana":"ｷｮｳﾄｼｼﾓｷﾞｮｳｸ","streetKana":"ﾔﾌﾞｼﾀﾁｮｳ","prefecture":"京都府","city":"京都市下京区","street":"藪下町"},{"zipCode":"6008374","prefectureKana":"ｷｮｳﾄﾌ","cityKana":"ｷｮｳﾄｼｼﾓｷﾞｮｳｸ","streetKana":"ﾔﾌﾞﾉｳﾁﾁｮｳ","prefecture":"京都府","city":"京都市下京区","street":"藪之内町"},{"zipCode":"6008342","prefectureKana":"ｷｮｳﾄﾌ","cityKana":"ｷｮｳﾄｼｼﾓｷﾞｮｳｸ","streetKana":"ﾔﾏｶﾜﾁｮｳ","prefecture":"京都府","city":"京都市下京区","street":"山川町"},{"zipCode":"6008455","prefectureKana":"ｷｮｳﾄﾌ","cityKana":"ｷｮｳﾄｼｼﾓｷﾞｮｳｸ","streetKana":"ﾔﾜﾀﾁｮｳ","prefecture":"京都府","city":"京都市下京区","street":"八幡町"},{"zipCode":"6008077","prefectureKana":"ｷｮｳﾄﾌ","cityKana":"ｷｮｳﾄｼｼﾓｷﾞｮｳｸ","streetKana":"ﾕｳｶﾞｵﾁｮｳ","prefecture":"京都府","city":"京都市下京区","street":"夕顔町"},{"zipCode":"6008477","prefectureKana":"ｷｮｳﾄﾌ","cityKana":"ｷｮｳﾄｼｼﾓｷﾞｮｳｸ","streetKana":"ﾖｳﾎｳｼﾞﾁｮｳ","prefecture":"京都府","city":"京都市下京区","street":"要法寺町"},{"zipCode":"6008179","prefectureKana":"ｷｮｳﾄﾌ","cityKana":"ｷｮｳﾄｼｼﾓｷﾞｮｳｸ","streetKana":"ﾖｺｽﾜﾝﾁｮｳ","prefecture":"京都府","city":"京都市下京区","street":"横諏訪町"},{"zipCode":"6008403","prefectureKana":"ｷｮｳﾄﾌ","cityKana":"ｷｮｳﾄｼｼﾓｷﾞｮｳｸ","streetKana":"ﾖｼﾐｽﾞﾁｮｳ(ｱｹｽﾞﾄﾞｵﾘﾏﾂﾊﾞﾗｻｶﾞﾙ､ｱｹｽﾞﾄﾞｵﾘﾏﾝｼﾞｭｳｼﾞｱｶﾞﾙ)","prefecture":"京都府","city":"京都市下京区","street":"吉水町（不明門通松原下る、不明門通万寿寺上る）"},{"zipCode":"6008483","prefectureKana":"ｷｮｳﾄﾌ","cityKana":"ｷｮｳﾄｼｼﾓｷﾞｮｳｸ","streetKana":"ﾖｼﾐｽﾞﾁｮｳ","prefecture":"京都府","city":"京都市下京区","street":"吉水町（西堀川通高辻上る、西堀川通仏光寺下る、東堀川通高辻"},{"zipCode":"6008483","prefectureKana":"ｷｮｳﾄﾌ","cityKana":"ｷｮｳﾄｼｼﾓｷﾞｮｳｸ","streetKana":"ﾖｼﾐｽﾞﾁｮｳ","prefecture":"京都府","city":"京都市下京区","street":"上る、東堀川通仏光寺下る、仏光寺通東堀川東入、堀川通仏光寺下る）"},{"zipCode":"6008199","prefectureKana":"ｷｮｳﾄﾌ","cityKana":"ｷｮｳﾄｼｼﾓｷﾞｮｳｸ","streetKana":"ﾖﾛｽﾞﾔﾁｮｳ","prefecture":"京都府","city":"京都市下京区","street":"万屋町"},{"zipCode":"6008355","prefectureKana":"ｷｮｳﾄﾌ","cityKana":"ｷｮｳﾄｼｼﾓｷﾞｮｳｸ","streetKana":"ﾗｲｺｳﾄﾞｳﾁｮｳ","prefecture":"京都府","city":"京都市下京区","street":"来迎堂町"},{"zipCode":"6008198","prefectureKana":"ｷｮｳﾄﾌ","cityKana":"ｷｮｳﾄｼｼﾓｷﾞｮｳｸ","streetKana":"ﾜｶﾏﾂﾁｮｳ","prefecture":"京都府","city":"京都市下京区","street":"若松町"},{"zipCode":"6008120","prefectureKana":"ｷｮｳﾄﾌ","cityKana":"ｷｮｳﾄｼｼﾓｷﾞｮｳｸ","streetKana":"ﾜｶﾐﾔﾁｮｳ","prefecture":"京都府","city":"京都市下京区","street":"若宮町（上ノ口通河原町西入、上ノ口通河原町西入下る、河原"},{"zipCode":"6008120","prefectureKana":"ｷｮｳﾄﾌ","cityKana":"ｷｮｳﾄｼｼﾓｷﾞｮｳｸ","streetKana":"ﾜｶﾐﾔﾁｮｳ","prefecture":"京都府","city":"京都市下京区","street":"町通上枳殻馬場上る、河原町通上ノ口下る、河原町通正面上る）"},{"zipCode":"6008201","prefectureKana":"ｷｮｳﾄﾌ","cityKana":"ｷｮｳﾄｼｼﾓｷﾞｮｳｸ","streetKana":"ﾜｶﾐﾔﾁｮｳ","prefecture":"京都府","city":"京都市下京区","street":"若宮町（加茂川筋七条下る、木屋町通七条下る、木屋町通七条下"},{"zipCode":"6008201","prefectureKana":"ｷｮｳﾄﾌ","cityKana":"ｷｮｳﾄｼｼﾓｷﾞｮｳｸ","streetKana":"ﾜｶﾐﾔﾁｮｳ","prefecture":"京都府","city":"京都市下京区","street":"る東入、三ノ宮通七条下る、須原通七条下る、七条大橋西入、七条通加茂川筋"},{"zipCode":"6008201","prefectureKana":"ｷｮｳﾄﾌ","cityKana":"ｷｮｳﾄｼｼﾓｷﾞｮｳｸ","streetKana":"ﾜｶﾐﾔﾁｮｳ","prefecture":"京都府","city":"京都市下京区","street":"西入、七条通加茂川筋西入下る）"},{"zipCode":"6008314","prefectureKana":"ｷｮｳﾄﾌ","cityKana":"ｷｮｳﾄｼｼﾓｷﾞｮｳｸ","streetKana":"ﾜｶﾐﾔﾁｮｳ","prefecture":"京都府","city":"京都市下京区","street":"若宮町（新花屋町通若宮西入、新花屋町通若宮東入、六条通新"},{"zipCode":"6008314","prefectureKana":"ｷｮｳﾄﾌ","cityKana":"ｷｮｳﾄｼｼﾓｷﾞｮｳｸ","streetKana":"ﾜｶﾐﾔﾁｮｳ","prefecture":"京都府","city":"京都市下京区","street":"町西入、六条通西洞院東入、六条通若宮西入、六条通若宮東入、若宮通"},{"zipCode":"6008314","prefectureKana":"ｷｮｳﾄﾌ","cityKana":"ｷｮｳﾄｼｼﾓｷﾞｮｳｸ","streetKana":"ﾜｶﾐﾔﾁｮｳ","prefecture":"京都府","city":"京都市下京区","street":"新花屋町上る、若宮通新花屋町下る、若宮通花屋町上る、若宮通花屋町下る、若"},{"zipCode":"6008314","prefectureKana":"ｷｮｳﾄﾌ","cityKana":"ｷｮｳﾄｼｼﾓｷﾞｮｳｸ","streetKana":"ﾜｶﾐﾔﾁｮｳ","prefecture":"京都府","city":"京都市下京区","street":"宮通六条下る）"},{"zipCode":"6008834","prefectureKana":"ｷｮｳﾄﾌ","cityKana":"ｷｮｳﾄｼｼﾓｷﾞｮｳｸ","streetKana":"ﾜｷﾁｮｳ","prefecture":"京都府","city":"京都市下京区","street":"和気町"}]