[{"zipCode":"6010142","prefectureKana":"ｷｮｳﾄﾌ","cityKana":"ｷｮｳﾄｼｷﾀｸ","streetKana":"ｵｵﾓﾘｱｼﾄﾞｳﾁｮｳ","prefecture":"京都府","city":"京都市北区","street":"大森芦堂町"},{"zipCode":"6010141","prefectureKana":"ｷｮｳﾄﾌ","cityKana":"ｷｮｳﾄｼｷﾀｸ","streetKana":"ｵｵﾓﾘｲﾅﾘ","prefecture":"京都府","city":"京都市北区","street":"大森稲荷"},{"zipCode":"6010143","prefectureKana":"ｷｮｳﾄﾌ","cityKana":"ｷｮｳﾄｼｷﾀｸ","streetKana":"ｵｵﾓﾘﾅｶﾁｮｳ","prefecture":"京都府","city":"京都市北区","street":"大森中町"},{"zipCode":"6010144","prefectureKana":"ｷｮｳﾄﾌ","cityKana":"ｷｮｳﾄｼｷﾀｸ","streetKana":"ｵｵﾓﾘﾆｼﾁｮｳ","prefecture":"京都府","city":"京都市北区","street":"大森西町"},{"zipCode":"6010145","prefectureKana":"ｷｮｳﾄﾌ","cityKana":"ｷｮｳﾄｼｷﾀｸ","streetKana":"ｵｵﾓﾘﾋｶﾞｼﾁｮｳ","prefecture":"京都府","city":"京都市北区","street":"大森東町"},{"zipCode":"6010134","prefectureKana":"ｷｮｳﾄﾌ","cityKana":"ｷｮｳﾄｼｷﾀｸ","streetKana":"ｵﾉｲﾜﾄ","prefecture":"京都府","city":"京都市北区","street":"小野岩戸"},{"zipCode":"6010133","prefectureKana":"ｷｮｳﾄﾌ","cityKana":"ｷｮｳﾄｼｷﾀｸ","streetKana":"ｵﾉｶﾐﾉﾁｮｳ","prefecture":"京都府","city":"京都市北区","street":"小野上ノ町"},{"zipCode":"6010131","prefectureKana":"ｷｮｳﾄﾌ","cityKana":"ｷｮｳﾄｼｷﾀｸ","streetKana":"ｵﾉｼﾓﾉﾁｮｳ","prefecture":"京都府","city":"京都市北区","street":"小野下ノ町"},{"zipCode":"6010132","prefectureKana":"ｷｮｳﾄﾌ","cityKana":"ｷｮｳﾄｼｷﾀｸ","streetKana":"ｵﾉﾅｶﾉﾁｮｳ","prefecture":"京都府","city":"京都市北区","street":"小野中ノ町"},{"zipCode":"6010135","prefectureKana":"ｷｮｳﾄﾌ","cityKana":"ｷｮｳﾄｼｷﾀｸ","streetKana":"ｵﾉﾐﾔﾉｶﾐﾁｮｳ","prefecture":"京都府","city":"京都市北区","street":"小野宮ノ上町"},{"zipCode":"6010111","prefectureKana":"ｷｮｳﾄﾌ","cityKana":"ｷｮｳﾄｼｷﾀｸ","streetKana":"ｽｷﾞｻｶｷﾀｵ","prefecture":"京都府","city":"京都市北区","street":"杉阪北尾"},{"zipCode":"6010113","prefectureKana":"ｷｮｳﾄﾌ","cityKana":"ｷｮｳﾄｼｷﾀｸ","streetKana":"ｽｷﾞｻｶﾄｳﾌｳﾁｮｳ","prefecture":"京都府","city":"京都市北区","street":"杉阪道風町"},{"zipCode":"6010112","prefectureKana":"ｷｮｳﾄﾌ","cityKana":"ｷｮｳﾄｼｷﾀｸ","streetKana":"ｽｷﾞｻｶﾐﾔｺﾁｮｳ","prefecture":"京都府","city":"京都市北区","street":"杉阪都町"},{"zipCode":"6010125","prefectureKana":"ｷｮｳﾄﾌ","cityKana":"ｷｮｳﾄｼｷﾀｸ","streetKana":"ﾅｶｶﾞﾜｶﾜﾉﾎﾞﾘ","prefecture":"京都府","city":"京都市北区","street":"中川川登"},{"zipCode":"6010122","prefectureKana":"ｷｮｳﾄﾌ","cityKana":"ｷｮｳﾄｼｷﾀｸ","streetKana":"ﾅｶｶﾞﾜｷﾀﾔﾏﾁｮｳ","prefecture":"京都府","city":"京都市北区","street":"中川北山町"},{"zipCode":"6010124","prefectureKana":"ｷｮｳﾄﾌ","cityKana":"ｷｮｳﾄｼｷﾀｸ","streetKana":"ﾅｶｶﾞﾜﾅｶﾔﾏ","prefecture":"京都府","city":"京都市北区","street":"中川中山"},{"zipCode":"6010123","prefectureKana":"ｷｮｳﾄﾌ","cityKana":"ｷｮｳﾄｼｷﾀｸ","streetKana":"ﾅｶｶﾞﾜﾆｼﾔﾏ","prefecture":"京都府","city":"京都市北区","street":"中川西山"},{"zipCode":"6010121","prefectureKana":"ｷｮｳﾄﾌ","cityKana":"ｷｮｳﾄｼｷﾀｸ","streetKana":"ﾅｶｶﾞﾜﾋｶﾞｼﾔﾏ","prefecture":"京都府","city":"京都市北区","street":"中川東山"},{"zipCode":"6010102","prefectureKana":"ｷｮｳﾄﾌ","cityKana":"ｷｮｳﾄｼｷﾀｸ","streetKana":"ﾏﾕﾐｾﾞﾝﾌﾟｸ","prefecture":"京都府","city":"京都市北区","street":"真弓善福"},{"zipCode":"6010101","prefectureKana":"ｷｮｳﾄﾌ","cityKana":"ｷｮｳﾄｼｷﾀｸ","streetKana":"ﾏﾕﾐﾊﾁﾏﾝﾁｮｳ","prefecture":"京都府","city":"京都市北区","street":"真弓八幡町"},{"zipCode":"6011124","prefectureKana":"ｷｮｳﾄﾌ","cityKana":"ｷｮｳﾄｼｻｷｮｳｸ","streetKana":"ｲﾜｸﾗｱｸﾞﾗﾁｮｳ(267､268ﾊﾞﾝﾁ)","prefecture":"京都府","city":"京都市左京区","street":"岩倉上蔵町（２６７、２６８番地）"},{"zipCode":"6011125","prefectureKana":"ｷｮｳﾄﾌ","cityKana":"ｷｮｳﾄｼｻｷｮｳｸ","streetKana":"ｲﾜｸﾗｷﾉﾁｮｳ(251ﾊﾞﾝﾁ)","prefecture":"京都府","city":"京都市左京区","street":"岩倉木野町（２５１番地）"},{"zipCode":"6011246","prefectureKana":"ｷｮｳﾄﾌ","cityKana":"ｷｮｳﾄｼｻｷｮｳｸ","streetKana":"ｵｵﾊﾗｲﾃﾞﾁｮｳ","prefecture":"京都府","city":"京都市左京区","street":"大原井出町"},{"zipCode":"6011244","prefectureKana":"ｷｮｳﾄﾌ","cityKana":"ｷｮｳﾄｼｻｷｮｳｸ","streetKana":"ｵｵﾊﾗｳｴﾉﾁｮｳ","prefecture":"京都府","city":"京都市左京区","street":"大原上野町"},{"zipCode":"6011243","prefectureKana":"ｷｮｳﾄﾌ","cityKana":"ｷｮｳﾄｼｻｷｮｳｸ","streetKana":"ｵｵﾊﾗｵｵﾅｶﾞｾﾁｮｳ","prefecture":"京都府","city":"京都市左京区","street":"大原大長瀬町"},{"zipCode":"6011232","prefectureKana":"ｷｮｳﾄﾌ","cityKana":"ｷｮｳﾄｼｻｷｮｳｸ","streetKana":"ｵｵﾊﾗｵｵﾐﾁｮｳ","prefecture":"京都府","city":"京都市左京区","street":"大原大見町"},{"zipCode":"6011231","prefectureKana":"ｷｮｳﾄﾌ","cityKana":"ｷｮｳﾄｼｻｷｮｳｸ","streetKana":"ｵｵﾊﾗｵｺﾞｾﾁｮｳ","prefecture":"京都府","city":"京都市左京区","street":"大原尾越町"},{"zipCode":"6011248","prefectureKana":"ｷｮｳﾄﾌ","cityKana":"ｷｮｳﾄｼｻｷｮｳｸ","streetKana":"ｵｵﾊﾗｸｻｵﾁｮｳ","prefecture":"京都府","city":"京都市左京区","street":"大原草生町"},{"zipCode":"6011235","prefectureKana":"ｷｮｳﾄﾌ","cityKana":"ｷｮｳﾄｼｻｷｮｳｸ","streetKana":"ｵｵﾊﾗｺﾁﾋﾗﾁｮｳ","prefecture":"京都府","city":"京都市左京区","street":"大原古知平町"},{"zipCode":"6011234","prefectureKana":"ｷｮｳﾄﾌ","cityKana":"ｷｮｳﾄｼｻｷｮｳｸ","streetKana":"ｵｵﾊﾗｺﾃﾞｲｼﾁｮｳ","prefecture":"京都府","city":"京都市左京区","street":"大原小出石町"},{"zipCode":"6011241","prefectureKana":"ｷｮｳﾄﾌ","cityKana":"ｷｮｳﾄｼｻｷｮｳｸ","streetKana":"ｵｵﾊﾗｼｮｳﾘﾝｲﾝﾁｮｳ","prefecture":"京都府","city":"京都市左京区","street":"大原勝林院町"},{"zipCode":"6011245","prefectureKana":"ｷｮｳﾄﾌ","cityKana":"ｷｮｳﾄｼｻｷｮｳｸ","streetKana":"ｵｵﾊﾗﾄﾃﾞﾗﾁｮｳ","prefecture":"京都府","city":"京都市左京区","street":"大原戸寺町"},{"zipCode":"6011247","prefectureKana":"ｷｮｳﾄﾌ","cityKana":"ｷｮｳﾄｼｻｷｮｳｸ","streetKana":"ｵｵﾊﾗﾉﾑﾗﾁｮｳ","prefecture":"京都府","city":"京都市左京区","street":"大原野村町"},{"zipCode":"6011233","prefectureKana":"ｷｮｳﾄﾌ","cityKana":"ｷｮｳﾄｼｻｷｮｳｸ","streetKana":"ｵｵﾊﾗﾓﾓｲﾁｮｳ","prefecture":"京都府","city":"京都市左京区","street":"大原百井町"},{"zipCode":"6011242","prefectureKana":"ｷｮｳﾄﾌ","cityKana":"ｷｮｳﾄｼｻｷｮｳｸ","streetKana":"ｵｵﾊﾗﾗｲｺｳｲﾝﾁｮｳ","prefecture":"京都府","city":"京都市左京区","street":"大原来迎院町"},{"zipCode":"6011255","prefectureKana":"ｷｮｳﾄﾌ","cityKana":"ｷｮｳﾄｼｻｷｮｳｸ","streetKana":"ｶﾐﾀｶﾉﾋｶﾞｼﾔﾏ(55､57-6､64､65､71-1､71-21､","prefecture":"京都府","city":"京都市左京区","street":"上高野東山（５５、５７－６、６４、６５、７１－１、７１－２１、"},{"zipCode":"6011255","prefectureKana":"ｷｮｳﾄﾌ","cityKana":"ｷｮｳﾄｼｻｷｮｳｸ","streetKana":"72､189､189-1ﾊﾞﾝﾁ)","prefecture":"京都府","city":"京都市左京区","street":"７２、１８９、１８９－１番地）"},{"zipCode":"6011112","prefectureKana":"ｷｮｳﾄﾌ","cityKana":"ｷｮｳﾄｼｻｷｮｳｸ","streetKana":"ｸﾗﾏｷﾌﾞﾈﾁｮｳ","prefecture":"京都府","city":"京都市左京区","street":"鞍馬貴船町"},{"zipCode":"6011113","prefectureKana":"ｷｮｳﾄﾌ","cityKana":"ｷｮｳﾄｼｻｷｮｳｸ","streetKana":"ｸﾗﾏﾆﾉｾﾁｮｳ","prefecture":"京都府","city":"京都市左京区","street":"鞍馬二ノ瀬町"},{"zipCode":"6011111","prefectureKana":"ｷｮｳﾄﾌ","cityKana":"ｷｮｳﾄｼｻｷｮｳｸ","streetKana":"ｸﾗﾏﾎﾝﾏﾁ","prefecture":"京都府","city":"京都市左京区","street":"鞍馬本町"},{"zipCode":"6011123","prefectureKana":"ｷｮｳﾄﾌ","cityKana":"ｷｮｳﾄｼｻｷｮｳｸ","streetKana":"ｼｽﾞｲﾁｲﾁﾊﾗﾁｮｳ","prefecture":"京都府","city":"京都市左京区","street":"静市市原町"},{"zipCode":"6011121","prefectureKana":"ｷｮｳﾄﾌ","cityKana":"ｷｮｳﾄｼｻｷｮｳｸ","streetKana":"ｼｽﾞｲﾁｼｽﾞﾊﾗﾁｮｳ","prefecture":"京都府","city":"京都市左京区","street":"静市静原町"},{"zipCode":"6011122","prefectureKana":"ｷｮｳﾄﾌ","cityKana":"ｷｮｳﾄｼｻｷｮｳｸ","streetKana":"ｼｽﾞｲﾁﾉﾅｶﾁｮｳ","prefecture":"京都府","city":"京都市左京区","street":"静市野中町"},{"zipCode":"6011104","prefectureKana":"ｷｮｳﾄﾌ","cityKana":"ｷｮｳﾄｼｻｷｮｳｸ","streetKana":"ﾊﾅｾｵｵﾌｾﾁｮｳ","prefecture":"京都府","city":"京都市左京区","street":"花脊大布施町"},{"zipCode":"6011102","prefectureKana":"ｷｮｳﾄﾌ","cityKana":"ｷｮｳﾄｼｻｷｮｳｸ","streetKana":"ﾊﾅｾﾊﾗﾁﾁｮｳ","prefecture":"京都府","city":"京都市左京区","street":"花脊原地町"},{"zipCode":"6011105","prefectureKana":"ｷｮｳﾄﾌ","cityKana":"ｷｮｳﾄｼｻｷｮｳｸ","streetKana":"ﾊﾅｾﾍﾞｯｼｮﾁｮｳ","prefecture":"京都府","city":"京都市左京区","street":"花脊別所町"},{"zipCode":"6011103","prefectureKana":"ｷｮｳﾄﾌ","cityKana":"ｷｮｳﾄｼｻｷｮｳｸ","streetKana":"ﾊﾅｾﾔﾏｽﾁｮｳ","prefecture":"京都府","city":"京都市左京区","street":"花脊八桝町"},{"zipCode":"6011101","prefectureKana":"ｷｮｳﾄﾌ","cityKana":"ｷｮｳﾄｼｻｷｮｳｸ","streetKana":"ﾋﾛｶﾞﾜﾗ(ｶｸﾏﾁ)","prefecture":"京都府","city":"京都市左京区","street":"広河原（各町）"},{"zipCode":"6011252","prefectureKana":"ｷｮｳﾄﾌ","cityKana":"ｷｮｳﾄｼｻｷｮｳｸ","streetKana":"ﾔｾｱｷﾓﾄﾁｮｳ","prefecture":"京都府","city":"京都市左京区","street":"八瀬秋元町"},{"zipCode":"6011253","prefectureKana":"ｷｮｳﾄﾌ","cityKana":"ｷｮｳﾄｼｻｷｮｳｸ","streetKana":"ﾔｾｺﾉｴﾁｮｳ","prefecture":"京都府","city":"京都市左京区","street":"八瀬近衛町"},{"zipCode":"6011251","prefectureKana":"ｷｮｳﾄﾌ","cityKana":"ｷｮｳﾄｼｻｷｮｳｸ","streetKana":"ﾔｾﾊﾅｼﾞﾘﾁｮｳ","prefecture":"京都府","city":"京都市左京区","street":"八瀬花尻町"},{"zipCode":"6011254","prefectureKana":"ｷｮｳﾄﾌ","cityKana":"ｷｮｳﾄｼｻｷｮｳｸ","streetKana":"ﾔｾﾉｾﾁｮｳ(ｿﾉﾀ)","prefecture":"京都府","city":"京都市左京区","street":"八瀬野瀬町（その他）"},{"zipCode":"6010000","prefectureKana":"ｷｮｳﾄﾌ","cityKana":"ｷｮｳﾄｼﾐﾅﾐｸ","streetKana":"ｲｶﾆｹｲｻｲｶﾞﾅｲﾊﾞｱｲ","prefecture":"京都府","city":"京都市南区","street":"以下に掲載がない場合"},{"zipCode":"6018406","prefectureKana":"ｷｮｳﾄﾌ","cityKana":"ｷｮｳﾄｼﾐﾅﾐｸ","streetKana":"ｶｲｺｳｼﾞﾁｮｳ","prefecture":"京都府","city":"京都市南区","street":"戒光寺町"},{"zipCode":"6018143","prefectureKana":"ｷｮｳﾄﾌ","cityKana":"ｷｮｳﾄｼﾐﾅﾐｸ","streetKana":"ｶﾐﾄﾊﾞｱｻﾉﾓﾄﾁｮｳ","prefecture":"京都府","city":"京都市南区","street":"上鳥羽麻ノ本町"},{"zipCode":"6018135","prefectureKana":"ｷｮｳﾄﾌ","cityKana":"ｷｮｳﾄｼﾐﾅﾐｸ","streetKana":"ｶﾐﾄﾊﾞｲｼﾊﾞｼﾁｮｳ","prefecture":"京都府","city":"京都市南区","street":"上鳥羽石橋町"},{"zipCode":"6018136","prefectureKana":"ｷｮｳﾄﾌ","cityKana":"ｷｮｳﾄｼﾐﾅﾐｸ","streetKana":"ｶﾐﾄﾊﾞｲﾜﾉﾓﾄﾁｮｳ","prefecture":"京都府","city":"京都市南区","street":"上鳥羽岩ノ本町"},{"zipCode":"6018141","prefectureKana":"ｷｮｳﾄﾌ","cityKana":"ｷｮｳﾄｼﾐﾅﾐｸ","streetKana":"ｶﾐﾄﾊﾞｳﾉﾊﾅﾁｮｳ","prefecture":"京都府","city":"京都市南区","street":"上鳥羽卯ノ花町"},{"zipCode":"6018177","prefectureKana":"ｷｮｳﾄﾌ","cityKana":"ｷｮｳﾄｼﾐﾅﾐｸ","streetKana":"ｶﾐﾄﾊﾞｳﾏﾏﾜｼﾁｮｳ","prefecture":"京都府","city":"京都市南区","street":"上鳥羽馬廻町"},{"zipCode":"6018134","prefectureKana":"ｷｮｳﾄﾌ","cityKana":"ｷｮｳﾄｼﾐﾅﾐｸ","streetKana":"ｶﾐﾄﾊﾞｵｵﾐｿﾞﾁｮｳ","prefecture":"京都府","city":"京都市南区","street":"上鳥羽大溝町"},{"zipCode":"6018128","prefectureKana":"ｷｮｳﾄﾌ","cityKana":"ｷｮｳﾄｼﾐﾅﾐｸ","streetKana":"ｶﾐﾄﾊﾞｵｵﾔﾅｷﾞﾁｮｳ","prefecture":"京都府","city":"京都市南区","street":"上鳥羽大柳町"},{"zipCode":"6018185","prefectureKana":"ｷｮｳﾄﾌ","cityKana":"ｷｮｳﾄｼﾐﾅﾐｸ","streetKana":"ｶﾐﾄﾊﾞｶｲｺｳﾁｮｳ","prefecture":"京都府","city":"京都市南区","street":"上鳥羽戒光町"},{"zipCode":"6018175","prefectureKana":"ｷｮｳﾄﾌ","cityKana":"ｷｮｳﾄｼﾐﾅﾐｸ","streetKana":"ｶﾐﾄﾊﾞｶﾅﾎﾞﾄｹﾁｮｳ","prefecture":"京都府","city":"京都市南区","street":"上鳥羽金仏町"},{"zipCode":"6018105","prefectureKana":"ｷｮｳﾄﾌ","cityKana":"ｷｮｳﾄｼﾐﾅﾐｸ","streetKana":"ｶﾐﾄﾊﾞｶﾐﾁｮｳｼﾁｮｳ","prefecture":"京都府","city":"京都市南区","street":"上鳥羽上調子町"},{"zipCode":"6018131","prefectureKana":"ｷｮｳﾄﾌ","cityKana":"ｷｮｳﾄｼﾐﾅﾐｸ","streetKana":"ｶﾐﾄﾊﾞｶﾓﾝﾃﾞﾝﾁｮｳ","prefecture":"京都府","city":"京都市南区","street":"上鳥羽鴨田町"},{"zipCode":"6018108","prefectureKana":"ｷｮｳﾄﾌ","cityKana":"ｷｮｳﾄｼﾐﾅﾐｸ","streetKana":"ｶﾐﾄﾊﾞｶﾗﾄﾁｮｳ","prefecture":"京都府","city":"京都市南区","street":"上鳥羽唐戸町"},{"zipCode":"6018171","prefectureKana":"ｷｮｳﾄﾌ","cityKana":"ｷｮｳﾄｼﾐﾅﾐｸ","streetKana":"ｶﾐﾄﾊﾞｶﾜﾊﾞﾀﾁｮｳ","prefecture":"京都府","city":"京都市南区","street":"上鳥羽川端町"},{"zipCode":"6018112","prefectureKana":"ｷｮｳﾄﾌ","cityKana":"ｷｮｳﾄｼﾐﾅﾐｸ","streetKana":"ｶﾐﾄﾊﾞｶﾝｼﾞﾝﾊﾞｼﾁｮｳ","prefecture":"京都府","city":"京都市南区","street":"上鳥羽勧進橋町"},{"zipCode":"6018138","prefectureKana":"ｷｮｳﾄﾌ","cityKana":"ｷｮｳﾄｼﾐﾅﾐｸ","streetKana":"ｶﾐﾄﾊﾞｷﾀｲﾜﾉﾓﾄﾁｮｳ","prefecture":"京都府","city":"京都市南区","street":"上鳥羽北岩ノ本町"},{"zipCode":"6018186","prefectureKana":"ｷｮｳﾄﾌ","cityKana":"ｷｮｳﾄｼﾐﾅﾐｸ","streetKana":"ｶﾐﾄﾊﾞｷﾀｶｲｺｳﾁｮｳ","prefecture":"京都府","city":"京都市南区","street":"上鳥羽北戒光町"},{"zipCode":"6018182","prefectureKana":"ｷｮｳﾄﾌ","cityKana":"ｷｮｳﾄｼﾐﾅﾐｸ","streetKana":"ｶﾐﾄﾊﾞｷﾀｼﾏﾀﾞﾁｮｳ","prefecture":"京都府","city":"京都市南区","street":"上鳥羽北島田町"},{"zipCode":"6018122","prefectureKana":"ｷｮｳﾄﾌ","cityKana":"ｷｮｳﾄｼﾐﾅﾐｸ","streetKana":"ｶﾐﾄﾊﾞｷﾀﾄｳﾉﾓﾄﾁｮｳ","prefecture":"京都府","city":"京都市南区","street":"上鳥羽北塔ノ本町"},{"zipCode":"6018106","prefectureKana":"ｷｮｳﾄﾌ","cityKana":"ｷｮｳﾄｼﾐﾅﾐｸ","streetKana":"ｶﾐﾄﾊﾞｷﾀﾅｶﾉﾂﾎﾞﾁｮｳ","prefecture":"京都府","city":"京都市南区","street":"上鳥羽北中ノ坪町"},{"zipCode":"6018127","prefectureKana":"ｷｮｳﾄﾌ","cityKana":"ｷｮｳﾄｼﾐﾅﾐｸ","streetKana":"ｶﾐﾄﾊﾞｷﾀﾊﾅﾅﾁｮｳ","prefecture":"京都府","city":"京都市南区","street":"上鳥羽北花名町"},{"zipCode":"6018187","prefectureKana":"ｷｮｳﾄﾌ","cityKana":"ｷｮｳﾄｼﾐﾅﾐｸ","streetKana":"ｶﾐﾄﾊﾞｷﾀﾑﾗﾔﾏﾁｮｳ","prefecture":"京都府","city":"京都市南区","street":"上鳥羽北村山町"},{"zipCode":"6018174","prefectureKana":"ｷｮｳﾄﾌ","cityKana":"ｷｮｳﾄｼﾐﾅﾐｸ","streetKana":"ｶﾐﾄﾊﾞｷﾖｲﾁｮｳ","prefecture":"京都府","city":"京都市南区","street":"上鳥羽清井町"},{"zipCode":"6018115","prefectureKana":"ｷｮｳﾄﾌ","cityKana":"ｷｮｳﾄｼﾐﾅﾐｸ","streetKana":"ｶﾐﾄﾊﾞｼﾘｷﾘﾁｮｳ","prefecture":"京都府","city":"京都市南区","street":"上鳥羽尻切町"},{"zipCode":"6018137","prefectureKana":"ｷｮｳﾄﾌ","cityKana":"ｷｮｳﾄｼﾐﾅﾐｸ","streetKana":"ｶﾐﾄﾊﾞｼﾛｶﾞﾏｴﾁｮｳ","prefecture":"京都府","city":"京都市南区","street":"上鳥羽城ケ前町"},{"zipCode":"6018102","prefectureKana":"ｷｮｳﾄﾌ","cityKana":"ｷｮｳﾄｼﾐﾅﾐｸ","streetKana":"ｶﾐﾄﾊﾞｽｶﾞﾀﾁｮｳ","prefecture":"京都府","city":"京都市南区","street":"上鳥羽菅田町"},{"zipCode":"6018121","prefectureKana":"ｷｮｳﾄﾌ","cityKana":"ｷｮｳﾄｼﾐﾅﾐｸ","streetKana":"ｶﾐﾄﾊﾞﾀﾞｲﾓﾂﾁｮｳ","prefecture":"京都府","city":"京都市南区","street":"上鳥羽大物町"},{"zipCode":"6018101","prefectureKana":"ｷｮｳﾄﾌ","cityKana":"ｷｮｳﾄｼﾐﾅﾐｸ","streetKana":"ｶﾐﾄﾊﾞﾀｶﾊﾀﾁｮｳ","prefecture":"京都府","city":"京都市南区","street":"上鳥羽高畠町"},{"zipCode":"6018132","prefectureKana":"ｷｮｳﾄﾌ","cityKana":"ｷｮｳﾄｼﾐﾅﾐｸ","streetKana":"ｶﾐﾄﾊﾞﾁｮｳﾀﾞﾏﾁ","prefecture":"京都府","city":"京都市南区","street":"上鳥羽町田町"},{"zipCode":"6018104","prefectureKana":"ｷｮｳﾄﾌ","cityKana":"ｷｮｳﾄｼﾐﾅﾐｸ","streetKana":"ｶﾐﾄﾊﾞﾂﾉﾀﾞﾁｮｳ","prefecture":"京都府","city":"京都市南区","street":"上鳥羽角田町"},{"zipCode":"6018142","prefectureKana":"ｷｮｳﾄﾌ","cityKana":"ｷｮｳﾄｼﾐﾅﾐｸ","streetKana":"ｶﾐﾄﾊﾞﾅｶｶﾞﾜﾗﾁｮｳ","prefecture":"京都府","city":"京都市南区","street":"上鳥羽中河原町"},{"zipCode":"6018146","prefectureKana":"ｷｮｳﾄﾌ","cityKana":"ｷｮｳﾄｼﾐﾅﾐｸ","streetKana":"ｶﾐﾄﾊﾞﾅｽﾉﾁｮｳ","prefecture":"京都府","city":"京都市南区","street":"上鳥羽奈須野町"},{"zipCode":"6018172","prefectureKana":"ｷｮｳﾄﾌ","cityKana":"ｷｮｳﾄｼﾐﾅﾐｸ","streetKana":"ｶﾐﾄﾊﾞﾅﾍﾞｶﾞﾌﾁﾁｮｳ","prefecture":"京都府","city":"京都市南区","street":"上鳥羽鍋ケ渕町"},{"zipCode":"6018111","prefectureKana":"ｷｮｳﾄﾌ","cityKana":"ｷｮｳﾄｼﾐﾅﾐｸ","streetKana":"ｶﾐﾄﾊﾞﾅﾜｼﾛﾁｮｳ","prefecture":"京都府","city":"京都市南区","street":"上鳥羽苗代町"},{"zipCode":"6018145","prefectureKana":"ｷｮｳﾄﾌ","cityKana":"ｷｮｳﾄｼﾐﾅﾐｸ","streetKana":"ｶﾐﾄﾊﾞﾆｼｳﾗﾁｮｳ","prefecture":"京都府","city":"京都市南区","street":"上鳥羽西浦町"},{"zipCode":"6018173","prefectureKana":"ｷｮｳﾄﾌ","cityKana":"ｷｮｳﾄｼﾐﾅﾐｸ","streetKana":"ｶﾐﾄﾊﾞﾊﾁｵｳｼﾞﾝﾁｮｳ","prefecture":"京都府","city":"京都市南区","street":"上鳥羽八王神町"},{"zipCode":"6018144","prefectureKana":"ｷｮｳﾄﾌ","cityKana":"ｷｮｳﾄｼﾐﾅﾐｸ","streetKana":"ｶﾐﾄﾊﾞﾋｳﾁｶﾞﾀﾁｮｳ","prefecture":"京都府","city":"京都市南区","street":"上鳥羽火打形町"},{"zipCode":"6018103","prefectureKana":"ｷｮｳﾄﾌ","cityKana":"ｷｮｳﾄｼﾐﾅﾐｸ","streetKana":"ｶﾐﾄﾊﾞﾌﾞﾂｹﾞﾝｼﾞﾁｮｳ","prefecture":"京都府","city":"京都市南区","street":"上鳥羽仏現寺町"},{"zipCode":"6018116","prefectureKana":"ｷｮｳﾄﾌ","cityKana":"ｷｮｳﾄｼﾐﾅﾐｸ","streetKana":"ｶﾐﾄﾊﾞﾎｺﾀﾃﾁｮｳ","prefecture":"京都府","city":"京都市南区","street":"上鳥羽鉾立町"},{"zipCode":"6018181","prefectureKana":"ｷｮｳﾄﾌ","cityKana":"ｷｮｳﾄｼﾐﾅﾐｸ","streetKana":"ｶﾐﾄﾊﾞﾎﾘｺﾁｮｳ","prefecture":"京都府","city":"京都市南区","street":"上鳥羽堀子町"},{"zipCode":"6018139","prefectureKana":"ｷｮｳﾄﾌ","cityKana":"ｷｮｳﾄｼﾐﾅﾐｸ","streetKana":"ｶﾐﾄﾊﾞﾐﾅﾐｲﾜﾉﾓﾄﾁｮｳ","prefecture":"京都府","city":"京都市南区","street":"上鳥羽南岩ノ本町"},{"zipCode":"6018178","prefectureKana":"ｷｮｳﾄﾌ","cityKana":"ｷｮｳﾄｼﾐﾅﾐｸ","streetKana":"ｶﾐﾄﾊﾞﾐﾅﾐｶｲｺｳﾁｮｳ","prefecture":"京都府","city":"京都市南区","street":"上鳥羽南戒光町"},{"zipCode":"6018107","prefectureKana":"ｷｮｳﾄﾌ","cityKana":"ｷｮｳﾄｼﾐﾅﾐｸ","streetKana":"ｶﾐﾄﾊﾞﾐﾅﾐｶﾗﾄﾁｮｳ","prefecture":"京都府","city":"京都市南区","street":"上鳥羽南唐戸町"},{"zipCode":"6018183","prefectureKana":"ｷｮｳﾄﾌ","cityKana":"ｷｮｳﾄｼﾐﾅﾐｸ","streetKana":"ｶﾐﾄﾊﾞﾐﾅﾐｼﾏﾀﾞﾁｮｳ","prefecture":"京都府","city":"京都市南区","street":"上鳥羽南島田町"},{"zipCode":"6018123","prefectureKana":"ｷｮｳﾄﾌ","cityKana":"ｷｮｳﾄｼﾐﾅﾐｸ","streetKana":"ｶﾐﾄﾊﾞﾐﾅﾐﾄｳﾉﾓﾄﾁｮｳ","prefecture":"京都府","city":"京都市南区","street":"上鳥羽南塔ノ本町"},{"zipCode":"6018188","prefectureKana":"ｷｮｳﾄﾌ","cityKana":"ｷｮｳﾄｼﾐﾅﾐｸ","streetKana":"ｶﾐﾄﾊﾞﾐﾅﾐﾅｶﾉﾂﾎﾞﾁｮｳ","prefecture":"京都府","city":"京都市南区","street":"上鳥羽南中ノ坪町"},{"zipCode":"6018113","prefectureKana":"ｷｮｳﾄﾌ","cityKana":"ｷｮｳﾄｼﾐﾅﾐｸ","streetKana":"ｶﾐﾄﾊﾞﾐﾅﾐﾅﾜｼﾛﾁｮｳ","prefecture":"京都府","city":"京都市南区","street":"上鳥羽南苗代町"},{"zipCode":"6018126","prefectureKana":"ｷｮｳﾄﾌ","cityKana":"ｷｮｳﾄｼﾐﾅﾐｸ","streetKana":"ｶﾐﾄﾊﾞﾐﾅﾐﾊﾅﾅﾁｮｳ","prefecture":"京都府","city":"京都市南区","street":"上鳥羽南花名町"},{"zipCode":"6018114","prefectureKana":"ｷｮｳﾄﾌ","cityKana":"ｷｮｳﾄｼﾐﾅﾐｸ","streetKana":"ｶﾐﾄﾊﾞﾐﾅﾐﾎｺﾀﾃﾁｮｳ","prefecture":"京都府","city":"京都市南区","street":"上鳥羽南鉾立町"},{"zipCode":"6018184","prefectureKana":"ｷｮｳﾄﾌ","cityKana":"ｷｮｳﾄｼﾐﾅﾐｸ","streetKana":"ｶﾐﾄﾊﾞﾐﾅﾐﾑﾗﾔﾏﾁｮｳ","prefecture":"京都府","city":"京都市南区","street":"上鳥羽南村山町"},{"zipCode":"6018176","prefectureKana":"ｷｮｳﾄﾌ","cityKana":"ｷｮｳﾄｼﾐﾅﾐｸ","streetKana":"ｶﾐﾄﾊﾞﾔﾏﾉﾓﾄﾁｮｳ","prefecture":"京都府","city":"京都市南区","street":"上鳥羽山ノ本町"},{"zipCode":"6018133","prefectureKana":"ｷｮｳﾄﾌ","cityKana":"ｷｮｳﾄｼﾐﾅﾐｸ","streetKana":"ｶﾐﾄﾊﾞﾜﾗﾝﾃﾞﾝﾁｮｳ","prefecture":"京都府","city":"京都市南区","street":"上鳥羽藁田町"},{"zipCode":"6018161","prefectureKana":"ｷｮｳﾄﾌ","cityKana":"ｷｮｳﾄｼﾐﾅﾐｸ","streetKana":"ｶﾐﾄﾊﾞﾄｳﾉﾓﾘｳﾒﾉｷ","prefecture":"京都府","city":"京都市南区","street":"上鳥羽塔ノ森梅ノ木"},{"zipCode":"6018163","prefectureKana":"ｷｮｳﾄﾌ","cityKana":"ｷｮｳﾄｼﾐﾅﾐｸ","streetKana":"ｶﾐﾄﾊﾞﾄｳﾉﾓﾘｴｶﾞﾜﾁｮｳ","prefecture":"京都府","city":"京都市南区","street":"上鳥羽塔ノ森江川町"},{"zipCode":"6018155","prefectureKana":"ｷｮｳﾄﾌ","cityKana":"ｷｮｳﾄｼﾐﾅﾐｸ","streetKana":"ｶﾐﾄﾊﾞﾄｳﾉﾓﾘｶﾐｶﾜﾗ","prefecture":"京都府","city":"京都市南区","street":"上鳥羽塔ノ森上河原"},{"zipCode":"6018167","prefectureKana":"ｷｮｳﾄﾌ","cityKana":"ｷｮｳﾄｼﾐﾅﾐｸ","streetKana":"ｶﾐﾄﾊﾞﾄｳﾉﾓﾘｶﾐﾋﾗｷﾉｳﾁ","prefecture":"京都府","city":"京都市南区","street":"上鳥羽塔ノ森上開ノ内"},{"zipCode":"6018162","prefectureKana":"ｷｮｳﾄﾌ","cityKana":"ｷｮｳﾄｼﾐﾅﾐｸ","streetKana":"ｶﾐﾄﾊﾞﾄｳﾉﾓﾘｼﾊﾞﾋｶﾞｼﾁｮｳ","prefecture":"京都府","city":"京都市南区","street":"上鳥羽塔ノ森柴東町"},{"zipCode":"6018153","prefectureKana":"ｷｮｳﾄﾌ","cityKana":"ｷｮｳﾄｼﾐﾅﾐｸ","streetKana":"ｶﾐﾄﾊﾞﾄｳﾉﾓﾘｼﾓｶﾜﾗ","prefecture":"京都府","city":"京都市南区","street":"上鳥羽塔ノ森下河原"},{"zipCode":"6018166","prefectureKana":"ｷｮｳﾄﾌ","cityKana":"ｷｮｳﾄｼﾐﾅﾐｸ","streetKana":"ｶﾐﾄﾊﾞﾄｳﾉﾓﾘｼﾓﾋﾗｷﾉｳﾁ","prefecture":"京都府","city":"京都市南区","street":"上鳥羽塔ノ森下開ノ内"},{"zipCode":"6018152","prefectureKana":"ｷｮｳﾄﾌ","cityKana":"ｷｮｳﾄｼﾐﾅﾐｸ","streetKana":"ｶﾐﾄﾊﾞﾄｳﾉﾓﾘｽｻﾞｷﾁｮｳ","prefecture":"京都府","city":"京都市南区","street":"上鳥羽塔ノ森洲崎町"},{"zipCode":"6018165","prefectureKana":"ｷｮｳﾄﾌ","cityKana":"ｷｮｳﾄｼﾐﾅﾐｸ","streetKana":"ｶﾐﾄﾊﾞﾄｳﾉﾓﾘﾆｼｶﾞﾜﾗﾁｮｳ","prefecture":"京都府","city":"京都市南区","street":"上鳥羽塔ノ森西河原町"},{"zipCode":"6018151","prefectureKana":"ｷｮｳﾄﾌ","cityKana":"ｷｮｳﾄｼﾐﾅﾐｸ","streetKana":"ｶﾐﾄﾊﾞﾄｳﾉﾓﾘﾋｶﾞｼﾑｺｳﾁｮｳ","prefecture":"京都府","city":"京都市南区","street":"上鳥羽塔ノ森東向町"},{"zipCode":"6018154","prefectureKana":"ｷｮｳﾄﾌ","cityKana":"ｷｮｳﾄｼﾐﾅﾐｸ","streetKana":"ｶﾐﾄﾊﾞﾄｳﾉﾓﾘﾔﾅｷﾞﾊﾗ","prefecture":"京都府","city":"京都市南区","street":"上鳥羽塔ノ森柳原"},{"zipCode":"6018164","prefectureKana":"ｷｮｳﾄﾌ","cityKana":"ｷｮｳﾄｼﾐﾅﾐｸ","streetKana":"ｶﾐﾄﾊﾞﾄｳﾉﾓﾘﾖﾂﾔﾁｮｳ","prefecture":"京都府","city":"京都市南区","street":"上鳥羽塔ノ森四ツ谷町"},{"zipCode":"6018463","prefectureKana":"ｷｮｳﾄﾌ","cityKana":"ｷｮｳﾄｼﾐﾅﾐｸ","streetKana":"ｶﾗﾊｼｱｶｶﾈﾁｮｳ","prefecture":"京都府","city":"京都市南区","street":"唐橋赤金町"},{"zipCode":"6018455","prefectureKana":"ｷｮｳﾄﾌ","cityKana":"ｷｮｳﾄｼﾐﾅﾐｸ","streetKana":"ｶﾗﾊｼｱｼﾍﾞﾁｮｳ","prefecture":"京都府","city":"京都市南区","street":"唐橋芦辺町"},{"zipCode":"6018462","prefectureKana":"ｷｮｳﾄﾌ","cityKana":"ｷｮｳﾄｼﾐﾅﾐｸ","streetKana":"ｶﾗﾊｼｲｿﾉﾁｮｳ","prefecture":"京都府","city":"京都市南区","street":"唐橋井園町"},{"zipCode":"6018467","prefectureKana":"ｷｮｳﾄﾌ","cityKana":"ｷｮｳﾄｼﾐﾅﾐｸ","streetKana":"ｶﾗﾊｼｵｵﾐﾔｼﾞﾘﾁｮｳ","prefecture":"京都府","city":"京都市南区","street":"唐橋大宮尻町"},{"zipCode":"6018461","prefectureKana":"ｷｮｳﾄﾌ","cityKana":"ｷｮｳﾄｼﾐﾅﾐｸ","streetKana":"ｶﾗﾊｼｶﾄﾞﾜｷﾁｮｳ","prefecture":"京都府","city":"京都市南区","street":"唐橋門脇町"},{"zipCode":"6018451","prefectureKana":"ｷｮｳﾄﾌ","cityKana":"ｷｮｳﾄｼﾐﾅﾐｸ","streetKana":"ｶﾗﾊｼｶﾜｸﾎﾞﾁｮｳ","prefecture":"京都府","city":"京都市南区","street":"唐橋川久保町"},{"zipCode":"6018454","prefectureKana":"ｷｮｳﾄﾌ","cityKana":"ｷｮｳﾄｼﾐﾅﾐｸ","streetKana":"ｶﾗﾊｼｹｲﾃﾞﾝﾁｮｳ","prefecture":"京都府","city":"京都市南区","street":"唐橋経田町"},{"zipCode":"6018466","prefectureKana":"ｷｮｳﾄﾌ","cityKana":"ｷｮｳﾄｼﾐﾅﾐｸ","streetKana":"ｶﾗﾊｼｻｲｼﾞﾁｮｳ","prefecture":"京都府","city":"京都市南区","street":"唐橋西寺町"},{"zipCode":"6018464","prefectureKana":"ｷｮｳﾄﾌ","cityKana":"ｷｮｳﾄｼﾐﾅﾐｸ","streetKana":"ｶﾗﾊｼﾀｶﾀﾞﾁｮｳ","prefecture":"京都府","city":"京都市南区","street":"唐橋高田町"},{"zipCode":"6018452","prefectureKana":"ｷｮｳﾄﾌ","cityKana":"ｷｮｳﾄｼﾐﾅﾐｸ","streetKana":"ｶﾗﾊｼﾄﾞｳﾉﾏｴﾁｮｳ","prefecture":"京都府","city":"京都市南区","street":"唐橋堂ノ前町"},{"zipCode":"6018468","prefectureKana":"ｷｮｳﾄﾌ","cityKana":"ｷｮｳﾄｼﾐﾅﾐｸ","streetKana":"ｶﾗﾊｼﾆｼﾋﾗｶﾞｷﾁｮｳ","prefecture":"京都府","city":"京都市南区","street":"唐橋西平垣町"},{"zipCode":"6018465","prefectureKana":"ｷｮｳﾄﾌ","cityKana":"ｷｮｳﾄｼﾐﾅﾐｸ","streetKana":"ｶﾗﾊｼﾊﾅｿﾞﾉﾁｮｳ","prefecture":"京都府","city":"京都市南区","street":"唐橋花園町"},{"zipCode":"6018469","prefectureKana":"ｷｮｳﾄﾌ","cityKana":"ｷｮｳﾄｼﾐﾅﾐｸ","streetKana":"ｶﾗﾊｼﾋﾗｶﾞｷﾁｮｳ","prefecture":"京都府","city":"京都市南区","street":"唐橋平垣町"},{"zipCode":"6018457","prefectureKana":"ｷｮｳﾄﾌ","cityKana":"ｷｮｳﾄｼﾐﾅﾐｸ","streetKana":"ｶﾗﾊｼﾋﾞﾜﾁｮｳ","prefecture":"京都府","city":"京都市南区","street":"唐橋琵琶町"},{"zipCode":"6018456","prefectureKana":"ｷｮｳﾄﾌ","cityKana":"ｷｮｳﾄｼﾐﾅﾐｸ","streetKana":"ｶﾗﾊｼﾐﾅﾐﾋﾞﾜﾁｮｳ","prefecture":"京都府","city":"京都市南区","street":"唐橋南琵琶町"},{"zipCode":"6018453","prefectureKana":"ｷｮｳﾄﾌ","cityKana":"ｷｮｳﾄｼﾐﾅﾐｸ","streetKana":"ｶﾗﾊｼﾗｼﾞｮｳﾓﾝﾁｮｳ","prefecture":"京都府","city":"京都市南区","street":"唐橋羅城門町"},{"zipCode":"6018349","prefectureKana":"ｷｮｳﾄﾌ","cityKana":"ｷｮｳﾄｼﾐﾅﾐｸ","streetKana":"ｷｯｼｮｳｲﾝｲｹﾀﾞﾁｮｳ","prefecture":"京都府","city":"京都市南区","street":"吉祥院池田町"},{"zipCode":"6018346","prefectureKana":"ｷｮｳﾄﾌ","cityKana":"ｷｮｳﾄｼﾐﾅﾐｸ","streetKana":"ｷｯｼｮｳｲﾝｲｹﾀﾞﾐﾅﾐﾁｮｳ","prefecture":"京都府","city":"京都市南区","street":"吉祥院池田南町"},{"zipCode":"6018316","prefectureKana":"ｷｮｳﾄﾌ","cityKana":"ｷｮｳﾄｼﾐﾅﾐｸ","streetKana":"ｷｯｼｮｳｲﾝｲｹﾉｳﾁﾁｮｳ","prefecture":"京都府","city":"京都市南区","street":"吉祥院池ノ内町"},{"zipCode":"6018367","prefectureKana":"ｷｮｳﾄﾌ","cityKana":"ｷｮｳﾄｼﾐﾅﾐｸ","streetKana":"ｷｯｼｮｳｲﾝｲｼﾊﾗﾁｮｳ","prefecture":"京都府","city":"京都市南区","street":"吉祥院石原町"},{"zipCode":"6018343","prefectureKana":"ｷｮｳﾄﾌ","cityKana":"ｷｮｳﾄｼﾐﾅﾐｸ","streetKana":"ｷｯｼｮｳｲﾝｲﾅﾊﾞﾁｮｳ","prefecture":"京都府","city":"京都市南区","street":"吉祥院稲葉町"},{"zipCode":"6018314","prefectureKana":"ｷｮｳﾄﾌ","cityKana":"ｷｮｳﾄｼﾐﾅﾐｸ","streetKana":"ｷｯｼｮｳｲﾝｲﾉｸﾁﾁｮｳ","prefecture":"京都府","city":"京都市南区","street":"吉祥院井ノ口町"},{"zipCode":"6018392","prefectureKana":"ｷｮｳﾄﾌ","cityKana":"ｷｮｳﾄｼﾐﾅﾐｸ","streetKana":"ｷｯｼｮｳｲﾝｳﾁｶﾞﾜﾗﾁｮｳ","prefecture":"京都府","city":"京都市南区","street":"吉祥院内河原町"},{"zipCode":"6018327","prefectureKana":"ｷｮｳﾄﾌ","cityKana":"ｷｮｳﾄｼﾐﾅﾐｸ","streetKana":"ｷｯｼｮｳｲﾝｵｲｹﾁｮｳ","prefecture":"京都府","city":"京都市南区","street":"吉祥院御池町"},{"zipCode":"6018391","prefectureKana":"ｷｮｳﾄﾌ","cityKana":"ｷｮｳﾄｼﾐﾅﾐｸ","streetKana":"ｷｯｼｮｳｲﾝｵｵｶﾞﾜﾗﾁｮｳ","prefecture":"京都府","city":"京都市南区","street":"吉祥院大河原町"},{"zipCode":"6018324","prefectureKana":"ｷｮｳﾄﾌ","cityKana":"ｷｮｳﾄｼﾐﾅﾐｸ","streetKana":"ｷｯｼｮｳｲﾝｵﾁｱｲﾁｮｳ","prefecture":"京都府","city":"京都市南区","street":"吉祥院落合町"},{"zipCode":"6018323","prefectureKana":"ｷｮｳﾄﾌ","cityKana":"ｷｮｳﾄｼﾐﾅﾐｸ","streetKana":"ｷｯｼｮｳｲﾝｶｽｶﾞﾁｮｳ","prefecture":"京都府","city":"京都市南区","street":"吉祥院春日町"},{"zipCode":"6018348","prefectureKana":"ｷｮｳﾄﾌ","cityKana":"ｷｮｳﾄｼﾐﾅﾐｸ","streetKana":"ｷｯｼｮｳｲﾝｶﾝﾉﾝﾄﾞｳﾁｮｳ","prefecture":"京都府","city":"京都市南区","street":"吉祥院観音堂町"},{"zipCode":"6018347","prefectureKana":"ｷｮｳﾄﾌ","cityKana":"ｷｮｳﾄｼﾐﾅﾐｸ","streetKana":"ｷｯｼｮｳｲﾝｶﾝﾉﾝﾄﾞｳﾐﾅﾐﾁｮｳ","prefecture":"京都府","city":"京都市南区","street":"吉祥院観音堂南町"},{"zipCode":"6018328","prefectureKana":"ｷｮｳﾄﾌ","cityKana":"ｷｮｳﾄｼﾐﾅﾐｸ","streetKana":"ｷｯｼｮｳｲﾝｸｼﾞｮｳﾁｮｳ","prefecture":"京都府","city":"京都市南区","street":"吉祥院九条町"},{"zipCode":"6018315","prefectureKana":"ｷｮｳﾄﾌ","cityKana":"ｷｮｳﾄｼﾐﾅﾐｸ","streetKana":"ｷｯｼｮｳｲﾝｸﾙﾏﾐﾁﾁｮｳ","prefecture":"京都府","city":"京都市南区","street":"吉祥院車道町"},{"zipCode":"6018322","prefectureKana":"ｷｮｳﾄﾌ","cityKana":"ｷｮｳﾄｼﾐﾅﾐｸ","streetKana":"ｷｯｼｮｳｲﾝｻﾀﾞﾅﾘﾁｮｳ","prefecture":"京都府","city":"京都市南区","street":"吉祥院定成町"},{"zipCode":"6018339","prefectureKana":"ｷｮｳﾄﾌ","cityKana":"ｷｮｳﾄｼﾐﾅﾐｸ","streetKana":"ｷｯｼｮｳｲﾝｻﾄﾉｳﾁﾁｮｳ","prefecture":"京都府","city":"京都市南区","street":"吉祥院里ノ内町"},{"zipCode":"6018319","prefectureKana":"ｷｮｳﾄﾌ","cityKana":"ｷｮｳﾄｼﾐﾅﾐｸ","streetKana":"ｷｯｼｮｳｲﾝｻﾝﾉﾐﾔﾁｮｳ","prefecture":"京都府","city":"京都市南区","street":"吉祥院三ノ宮町"},{"zipCode":"6018318","prefectureKana":"ｷｮｳﾄﾌ","cityKana":"ｷｮｳﾄｼﾐﾅﾐｸ","streetKana":"ｷｯｼｮｳｲﾝｻﾝﾉﾐﾔﾆｼﾏﾁ","prefecture":"京都府","city":"京都市南区","street":"吉祥院三ノ宮西町"},{"zipCode":"6018329","prefectureKana":"ｷｮｳﾄﾌ","cityKana":"ｷｮｳﾄｼﾐﾅﾐｸ","streetKana":"ｷｯｼｮｳｲﾝｼﾐｽﾞﾁｮｳ","prefecture":"京都府","city":"京都市南区","street":"吉祥院清水町"},{"zipCode":"6018336","prefectureKana":"ｷｮｳﾄﾌ","cityKana":"ｷｮｳﾄｼﾐﾅﾐｸ","streetKana":"ｷｯｼｮｳｲﾝｽｶﾞﾊﾗﾁｮｳ","prefecture":"京都府","city":"京都市南区","street":"吉祥院菅原町"},{"zipCode":"6018335","prefectureKana":"ｷｮｳﾄﾌ","cityKana":"ｷｮｳﾄｼﾐﾅﾐｸ","streetKana":"ｷｯｼｮｳｲﾝｽﾅﾉﾁｮｳ","prefecture":"京都府","city":"京都市南区","street":"吉祥院砂ノ町"},{"zipCode":"6018332","prefectureKana":"ｷｮｳﾄﾌ","cityKana":"ｷｮｳﾄｼﾐﾅﾐｸ","streetKana":"ｷｯｼｮｳｲﾝﾀｶﾊﾀﾁｮｳ","prefecture":"京都府","city":"京都市南区","street":"吉祥院高畑町"},{"zipCode":"6018399","prefectureKana":"ｷｮｳﾄﾌ","cityKana":"ｷｮｳﾄｼﾐﾅﾐｸ","streetKana":"ｷｯｼｮｳｲﾝﾂﾂﾐｿﾄﾁｮｳ","prefecture":"京都府","city":"京都市南区","street":"吉祥院堤外町"},{"zipCode":"6018313","prefectureKana":"ｷｮｳﾄﾌ","cityKana":"ｷｮｳﾄｼﾐﾅﾐｸ","streetKana":"ｷｯｼｮｳｲﾝﾅｶｼﾞﾏﾁｮｳ","prefecture":"京都府","city":"京都市南区","street":"吉祥院中島町"},{"zipCode":"6018362","prefectureKana":"ｷｮｳﾄﾌ","cityKana":"ｷｮｳﾄｼﾐﾅﾐｸ","streetKana":"ｷｯｼｮｳｲﾝﾅｶﾞﾀﾁｮｳ","prefecture":"京都府","city":"京都市南区","street":"吉祥院長田町"},{"zipCode":"6018354","prefectureKana":"ｷｮｳﾄﾌ","cityKana":"ｷｮｳﾄｼﾐﾅﾐｸ","streetKana":"ｷｯｼｮｳｲﾝﾆｷﾉﾓﾘﾁｮｳ","prefecture":"京都府","city":"京都市南区","street":"吉祥院仁木ノ森町"},{"zipCode":"6018352","prefectureKana":"ｷｮｳﾄﾌ","cityKana":"ｷｮｳﾄｼﾐﾅﾐｸ","streetKana":"ｷｯｼｮｳｲﾝﾆｼｳﾗﾁｮｳ","prefecture":"京都府","city":"京都市南区","street":"吉祥院西浦町"},{"zipCode":"6018321","prefectureKana":"ｷｮｳﾄﾌ","cityKana":"ｷｮｳﾄｼﾐﾅﾐｸ","streetKana":"ｷｯｼｮｳｲﾝﾆｼｻﾀﾞﾅﾘﾁｮｳ","prefecture":"京都府","city":"京都市南区","street":"吉祥院西定成町"},{"zipCode":"6018338","prefectureKana":"ｷｮｳﾄﾌ","cityKana":"ｷｮｳﾄｼﾐﾅﾐｸ","streetKana":"ｷｯｼｮｳｲﾝﾆｼﾉｳﾁﾁｮｳ","prefecture":"京都府","city":"京都市南区","street":"吉祥院西ノ内町"},{"zipCode":"6018381","prefectureKana":"ｷｮｳﾄﾌ","cityKana":"ｷｮｳﾄｼﾐﾅﾐｸ","streetKana":"ｷｯｼｮｳｲﾝﾆｼﾉﾁｬﾔﾁｮｳ","prefecture":"京都府","city":"京都市南区","street":"吉祥院西ノ茶屋町"},{"zipCode":"6018353","prefectureKana":"ｷｮｳﾄﾌ","cityKana":"ｷｮｳﾄｼﾐﾅﾐｸ","streetKana":"ｷｯｼｮｳｲﾝﾊｲﾉﾎﾞﾘﾅｶﾏﾁ","prefecture":"京都府","city":"京都市南区","street":"吉祥院這登中町"},{"zipCode":"6018351","prefectureKana":"ｷｮｳﾄﾌ","cityKana":"ｷｮｳﾄｼﾐﾅﾐｸ","streetKana":"ｷｯｼｮｳｲﾝﾊｲﾉﾎﾞﾘﾆｼﾏﾁ","prefecture":"京都府","city":"京都市南区","street":"吉祥院這登西町"},{"zipCode":"6018337","prefectureKana":"ｷｮｳﾄﾌ","cityKana":"ｷｮｳﾄｼﾐﾅﾐｸ","streetKana":"ｷｯｼｮｳｲﾝﾊｲﾉﾎﾞﾘﾋｶﾞｼﾏﾁ","prefecture":"京都府","city":"京都市南区","street":"吉祥院這登東町"},{"zipCode":"6018325","prefectureKana":"ｷｮｳﾄﾌ","cityKana":"ｷｮｳﾄｼﾐﾅﾐｸ","streetKana":"ｷｯｼｮｳｲﾝﾊﾂﾀﾝﾀﾞﾁｮｳ","prefecture":"京都府","city":"京都市南区","street":"吉祥院八反田町"},{"zipCode":"6018333","prefectureKana":"ｷｮｳﾄﾌ","cityKana":"ｷｮｳﾄｼﾐﾅﾐｸ","streetKana":"ｷｯｼｮｳｲﾝﾋｶﾞｼｳﾗﾁｮｳ","prefecture":"京都府","city":"京都市南区","street":"吉祥院東浦町"},{"zipCode":"6018334","prefectureKana":"ｷｮｳﾄﾌ","cityKana":"ｷｮｳﾄｼﾐﾅﾐｸ","streetKana":"ｷｯｼｮｳｲﾝﾋｶﾞｼｽﾅﾉﾁｮｳ","prefecture":"京都府","city":"京都市南区","street":"吉祥院東砂ノ町"},{"zipCode":"6018342","prefectureKana":"ｷｮｳﾄﾌ","cityKana":"ｷｮｳﾄｼﾐﾅﾐｸ","streetKana":"ｷｯｼｮｳｲﾝﾋｶﾞｼﾏｴﾀﾞﾁｮｳ","prefecture":"京都府","city":"京都市南区","street":"吉祥院東前田町"},{"zipCode":"6018330","prefectureKana":"ｷｮｳﾄﾌ","cityKana":"ｷｮｳﾄｼﾐﾅﾐｸ","streetKana":"ｷｯｼｮｳｲﾝﾌﾅﾄﾁｮｳ","prefecture":"京都府","city":"京都市南区","street":"吉祥院船戸町"},{"zipCode":"6018304","prefectureKana":"ｷｮｳﾄﾌ","cityKana":"ｷｮｳﾄｼﾐﾅﾐｸ","streetKana":"ｷｯｼｮｳｲﾝﾏｴｶﾞﾜﾗﾁｮｳ","prefecture":"京都府","city":"京都市南区","street":"吉祥院前河原町"},{"zipCode":"6018341","prefectureKana":"ｷｮｳﾄﾌ","cityKana":"ｷｮｳﾄｼﾐﾅﾐｸ","streetKana":"ｷｯｼｮｳｲﾝﾏｴﾀﾞﾁｮｳ","prefecture":"京都府","city":"京都市南区","street":"吉祥院前田町"},{"zipCode":"6018344","prefectureKana":"ｷｮｳﾄﾌ","cityKana":"ｷｮｳﾄｼﾐﾅﾐｸ","streetKana":"ｷｯｼｮｳｲﾝﾏｷｴﾁｮｳ","prefecture":"京都府","city":"京都市南区","street":"吉祥院蒔絵町"},{"zipCode":"6018345","prefectureKana":"ｷｮｳﾄﾌ","cityKana":"ｷｮｳﾄｼﾐﾅﾐｸ","streetKana":"ｷｯｼｮｳｲﾝﾏｷｴﾐﾅﾐﾁｮｳ","prefecture":"京都府","city":"京都市南区","street":"吉祥院蒔絵南町"},{"zipCode":"6018331","prefectureKana":"ｷｮｳﾄﾌ","cityKana":"ｷｮｳﾄｼﾐﾅﾐｸ","streetKana":"ｷｯｼｮｳｲﾝﾏﾝﾄﾞｺﾛﾁｮｳ","prefecture":"京都府","city":"京都市南区","street":"吉祥院政所町"},{"zipCode":"6018326","prefectureKana":"ｷｮｳﾄﾌ","cityKana":"ｷｮｳﾄｼﾐﾅﾐｸ","streetKana":"ｷｯｼｮｳｲﾝﾐﾅﾐｵﾁｱｲﾁｮｳ","prefecture":"京都府","city":"京都市南区","street":"吉祥院南落合町"},{"zipCode":"6018306","prefectureKana":"ｷｮｳﾄﾌ","cityKana":"ｷｮｳﾄｼﾐﾅﾐｸ","streetKana":"ｷｯｼｮｳｲﾝﾐﾔﾉﾆｼﾁｮｳ","prefecture":"京都府","city":"京都市南区","street":"吉祥院宮ノ西町"},{"zipCode":"6018305","prefectureKana":"ｷｮｳﾄﾌ","cityKana":"ｷｮｳﾄｼﾐﾅﾐｸ","streetKana":"ｷｯｼｮｳｲﾝﾐﾔﾉﾋｶﾞｼﾁｮｳ","prefecture":"京都府","city":"京都市南区","street":"吉祥院宮ノ東町"},{"zipCode":"6018307","prefectureKana":"ｷｮｳﾄﾌ","cityKana":"ｷｮｳﾄｼﾐﾅﾐｸ","streetKana":"ｷｯｼｮｳｲﾝﾑｶｲﾀﾞﾆｼﾁｮｳ","prefecture":"京都府","city":"京都市南区","street":"吉祥院向田西町"},{"zipCode":"6018308","prefectureKana":"ｷｮｳﾄﾌ","cityKana":"ｷｮｳﾄｼﾐﾅﾐｸ","streetKana":"ｷｯｼｮｳｲﾝﾑｶｲﾀﾞﾋｶﾞｼﾁｮｳ","prefecture":"京都府","city":"京都市南区","street":"吉祥院向田東町"},{"zipCode":"6018390","prefectureKana":"ｷｮｳﾄﾌ","cityKana":"ｷｮｳﾄｼﾐﾅﾐｸ","streetKana":"ｷｯｼｮｳｲﾝﾘｭｳｻｸﾁｮｳ","prefecture":"京都府","city":"京都市南区","street":"吉祥院流作町"},{"zipCode":"6018382","prefectureKana":"ｷｮｳﾄﾌ","cityKana":"ｷｮｳﾄｼﾐﾅﾐｸ","streetKana":"ｷｯｼｮｳｲﾝｲｼﾊﾗｶﾐｶﾜﾗﾁｮｳ","prefecture":"京都府","city":"京都市南区","street":"吉祥院石原上川原町"},{"zipCode":"6018356","prefectureKana":"ｷｮｳﾄﾌ","cityKana":"ｷｮｳﾄｼﾐﾅﾐｸ","streetKana":"ｷｯｼｮｳｲﾝｲｼﾊﾗｷｮｳﾐﾁﾁｮｳ","prefecture":"京都府","city":"京都市南区","street":"吉祥院石原京道町"},{"zipCode":"6018355","prefectureKana":"ｷｮｳﾄﾌ","cityKana":"ｷｮｳﾄｼﾐﾅﾐｸ","streetKana":"ｷｯｼｮｳｲﾝｲｼﾊﾗﾄﾞｳﾉｳｼﾛﾁｮｳ","prefecture":"京都府","city":"京都市南区","street":"吉祥院石原堂ノ後町"},{"zipCode":"6018357","prefectureKana":"ｷｮｳﾄﾌ","cityKana":"ｷｮｳﾄｼﾐﾅﾐｸ","streetKana":"ｷｯｼｮｳｲﾝｲｼﾊﾗﾄﾞｳﾉｳｼﾛﾆｼﾏﾁ","prefecture":"京都府","city":"京都市南区","street":"吉祥院石原堂ノ後西町"},{"zipCode":"6018383","prefectureKana":"ｷｮｳﾄﾌ","cityKana":"ｷｮｳﾄｼﾐﾅﾐｸ","streetKana":"ｷｯｼｮｳｲﾝｲｼﾊﾗﾅｶﾞﾀﾁｮｳ","prefecture":"京都府","city":"京都市南区","street":"吉祥院石原長田町"},{"zipCode":"6018366","prefectureKana":"ｷｮｳﾄﾌ","cityKana":"ｷｮｳﾄｼﾐﾅﾐｸ","streetKana":"ｷｯｼｮｳｲﾝｲｼﾊﾗﾆｼﾏﾁ","prefecture":"京都府","city":"京都市南区","street":"吉祥院石原西町"},{"zipCode":"6018388","prefectureKana":"ｷｮｳﾄﾌ","cityKana":"ｷｮｳﾄｼﾐﾅﾐｸ","streetKana":"ｷｯｼｮｳｲﾝｲｼﾊﾗﾆｼﾉﾋﾗｷﾁｮｳ","prefecture":"京都府","city":"京都市南区","street":"吉祥院石原西ノ開町"},{"zipCode":"6018384","prefectureKana":"ｷｮｳﾄﾌ","cityKana":"ｷｮｳﾄｼﾐﾅﾐｸ","streetKana":"ｷｯｼｮｳｲﾝｲｼﾊﾗﾉｶﾞﾐﾁｮｳ","prefecture":"京都府","city":"京都市南区","street":"吉祥院石原野上町"},{"zipCode":"6018387","prefectureKana":"ｷｮｳﾄﾌ","cityKana":"ｷｮｳﾄｼﾐﾅﾐｸ","streetKana":"ｷｯｼｮｳｲﾝｲｼﾊﾗﾊｼｳﾗ","prefecture":"京都府","city":"京都市南区","street":"吉祥院石原橋裏"},{"zipCode":"6018389","prefectureKana":"ｷｮｳﾄﾌ","cityKana":"ｷｮｳﾄｼﾐﾅﾐｸ","streetKana":"ｷｯｼｮｳｲﾝｲｼﾊﾗﾊｼｶﾐ","prefecture":"京都府","city":"京都市南区","street":"吉祥院石原橋上"},{"zipCode":"6018361","prefectureKana":"ｷｮｳﾄﾌ","cityKana":"ｷｮｳﾄｼﾐﾅﾐｸ","streetKana":"ｷｯｼｮｳｲﾝｲｼﾊﾗﾋｶﾞｼﾉｸﾁﾁｮｳ","prefecture":"京都府","city":"京都市南区","street":"吉祥院石原東之口町"},{"zipCode":"6018365","prefectureKana":"ｷｮｳﾄﾌ","cityKana":"ｷｮｳﾄｼﾐﾅﾐｸ","streetKana":"ｷｯｼｮｳｲﾝｲｼﾊﾗﾋﾗｷﾏﾁ","prefecture":"京都府","city":"京都市南区","street":"吉祥院石原開町"},{"zipCode":"6018364","prefectureKana":"ｷｮｳﾄﾌ","cityKana":"ｷｮｳﾄｼﾐﾅﾐｸ","streetKana":"ｷｯｼｮｳｲﾝｲｼﾊﾗﾐﾅﾐﾁｮｳ","prefecture":"京都府","city":"京都市南区","street":"吉祥院石原南町"},{"zipCode":"6018385","prefectureKana":"ｷｮｳﾄﾌ","cityKana":"ｷｮｳﾄｼﾐﾅﾐｸ","streetKana":"ｷｯｼｮｳｲﾝｲｼﾊﾗﾖｼﾍﾞﾘ","prefecture":"京都府","city":"京都市南区","street":"吉祥院石原葭縁"},{"zipCode":"6018386","prefectureKana":"ｷｮｳﾄﾌ","cityKana":"ｷｮｳﾄｼﾐﾅﾐｸ","streetKana":"ｷｯｼｮｳｲﾝｲｼﾊﾗﾜﾘﾊﾀ","prefecture":"京都府","city":"京都市南区","street":"吉祥院石原割畑"},{"zipCode":"6018374","prefectureKana":"ｷｮｳﾄﾌ","cityKana":"ｷｮｳﾄｼﾐﾅﾐｸ","streetKana":"ｷｯｼｮｳｲﾝｼﾏｶｻｲﾁｮｳ","prefecture":"京都府","city":"京都市南区","street":"吉祥院嶋笠井町"},{"zipCode":"6018371","prefectureKana":"ｷｮｳﾄﾌ","cityKana":"ｷｮｳﾄｼﾐﾅﾐｸ","streetKana":"ｷｯｼｮｳｲﾝｼﾏｶﾀｷﾞﾔﾏﾁｮｳ","prefecture":"京都府","city":"京都市南区","street":"吉祥院嶋樫山町"},{"zipCode":"6018379","prefectureKana":"ｷｮｳﾄﾌ","cityKana":"ｷｮｳﾄｼﾐﾅﾐｸ","streetKana":"ｷｯｼｮｳｲﾝｼﾏｶﾜﾗﾀﾞﾁｮｳ","prefecture":"京都府","city":"京都市南区","street":"吉祥院嶋川原田町"},{"zipCode":"6018372","prefectureKana":"ｷｮｳﾄﾌ","cityKana":"ｷｮｳﾄｼﾐﾅﾐｸ","streetKana":"ｷｯｼｮｳｲﾝｼﾏﾀｶﾏﾁ","prefecture":"京都府","city":"京都市南区","street":"吉祥院嶋高町"},{"zipCode":"6018378","prefectureKana":"ｷｮｳﾄﾌ","cityKana":"ｷｮｳﾄｼﾐﾅﾐｸ","streetKana":"ｷｯｼｮｳｲﾝｼﾏﾂﾂﾐｿﾄ","prefecture":"京都府","city":"京都市南区","street":"吉祥院嶋堤外"},{"zipCode":"6018373","prefectureKana":"ｷｮｳﾄﾌ","cityKana":"ｷｮｳﾄｼﾐﾅﾐｸ","streetKana":"ｷｯｼｮｳｲﾝｼﾏﾃﾞｻﾞｲｹﾁｮｳ","prefecture":"京都府","city":"京都市南区","street":"吉祥院嶋出在家町"},{"zipCode":"6018377","prefectureKana":"ｷｮｳﾄﾌ","cityKana":"ｷｮｳﾄｼﾐﾅﾐｸ","streetKana":"ｷｯｼｮｳｲﾝｼﾏﾄﾞｳﾉｳﾗ","prefecture":"京都府","city":"京都市南区","street":"吉祥院嶋堂ノ裏"},{"zipCode":"6018376","prefectureKana":"ｷｮｳﾄﾌ","cityKana":"ｷｮｳﾄｼﾐﾅﾐｸ","streetKana":"ｷｯｼｮｳｲﾝｼﾏﾅｶﾉｼﾏ","prefecture":"京都府","city":"京都市南区","street":"吉祥院嶋中ノ島"},{"zipCode":"6018375","prefectureKana":"ｷｮｳﾄﾌ","cityKana":"ｷｮｳﾄｼﾐﾅﾐｸ","streetKana":"ｷｯｼｮｳｲﾝｼﾏﾆｼｳﾗ","prefecture":"京都府","city":"京都市南区","street":"吉祥院嶋西浦"},{"zipCode":"6018363","prefectureKana":"ｷｮｳﾄﾌ","cityKana":"ｷｮｳﾄｼﾐﾅﾐｸ","streetKana":"ｷｯｼｮｳｲﾝｼﾏﾉﾏﾂﾞﾒﾁｮｳ","prefecture":"京都府","city":"京都市南区","street":"吉祥院嶋野間詰町"},{"zipCode":"6018397","prefectureKana":"ｷｮｳﾄﾌ","cityKana":"ｷｮｳﾄｼﾐﾅﾐｸ","streetKana":"ｷｯｼｮｳｲﾝｼﾝﾃﾞﾝｲﾁﾉﾀﾞﾝﾁｮｳ","prefecture":"京都府","city":"京都市南区","street":"吉祥院新田壱ノ段町"},{"zipCode":"6018398","prefectureKana":"ｷｮｳﾄﾌ","cityKana":"ｷｮｳﾄｼﾐﾅﾐｸ","streetKana":"ｷｯｼｮｳｲﾝｼﾝﾃﾞﾝｻﾝﾉﾀﾞﾝﾁｮｳ","prefecture":"京都府","city":"京都市南区","street":"吉祥院新田参ノ段町"},{"zipCode":"6018380","prefectureKana":"ｷｮｳﾄﾌ","cityKana":"ｷｮｳﾄｼﾐﾅﾐｸ","streetKana":"ｷｯｼｮｳｲﾝｼﾝﾃﾞﾝｼﾓﾉﾑｶｲﾁｮｳ","prefecture":"京都府","city":"京都市南区","street":"吉祥院新田下ノ向町"},{"zipCode":"6018317","prefectureKana":"ｷｮｳﾄﾌ","cityKana":"ｷｮｳﾄｼﾐﾅﾐｸ","streetKana":"ｷｯｼｮｳｲﾝｼﾝﾃﾞﾝﾆﾉﾀﾞﾝﾁｮｳ","prefecture":"京都府","city":"京都市南区","street":"吉祥院新田弐ノ段町"},{"zipCode":"6018394","prefectureKana":"ｷｮｳﾄﾌ","cityKana":"ｷｮｳﾄｼﾐﾅﾐｸ","streetKana":"ｷｯｼｮｳｲﾝﾅｶｶﾞﾜﾗｻﾄｷﾀﾁｮｳ","prefecture":"京都府","city":"京都市南区","street":"吉祥院中河原里北町"},{"zipCode":"6018393","prefectureKana":"ｷｮｳﾄﾌ","cityKana":"ｷｮｳﾄｼﾐﾅﾐｸ","streetKana":"ｷｯｼｮｳｲﾝﾅｶｶﾞﾜﾗｻﾄﾆｼﾁｮｳ","prefecture":"京都府","city":"京都市南区","street":"吉祥院中河原里西町"},{"zipCode":"6018396","prefectureKana":"ｷｮｳﾄﾌ","cityKana":"ｷｮｳﾄｼﾐﾅﾐｸ","streetKana":"ｷｯｼｮｳｲﾝﾅｶｶﾞﾜﾗｻﾄﾐﾅﾐﾁｮｳ","prefecture":"京都府","city":"京都市南区","street":"吉祥院中河原里南町"},{"zipCode":"6018395","prefectureKana":"ｷｮｳﾄﾌ","cityKana":"ｷｮｳﾄｼﾐﾅﾐｸ","streetKana":"ｷｯｼｮｳｲﾝﾅｶｶﾞﾜﾗﾆｼﾔｼｷﾁｮｳ","prefecture":"京都府","city":"京都市南区","street":"吉祥院中河原西屋敷町"},{"zipCode":"6018310","prefectureKana":"ｷｮｳﾄﾌ","cityKana":"ｷｮｳﾄｼﾐﾅﾐｸ","streetKana":"ｷｯｼｮｳｲﾝﾆｼﾉｼｮｳｲﾉﾊﾞﾊﾞﾁｮｳ","prefecture":"京都府","city":"京都市南区","street":"吉祥院西ノ庄猪之馬場町"},{"zipCode":"6018301","prefectureKana":"ｷｮｳﾄﾌ","cityKana":"ｷｮｳﾄｼﾐﾅﾐｸ","streetKana":"ｷｯｼｮｳｲﾝﾆｼﾉｼｮｳﾆｼｳﾗﾁｮｳ","prefecture":"京都府","city":"京都市南区","street":"吉祥院西ノ庄西浦町"},{"zipCode":"6018303","prefectureKana":"ｷｮｳﾄﾌ","cityKana":"ｷｮｳﾄｼﾐﾅﾐｸ","streetKana":"ｷｯｼｮｳｲﾝﾆｼﾉｼｮｳﾆｼﾅｶﾁｮｳ","prefecture":"京都府","city":"京都市南区","street":"吉祥院西ノ庄西中町"},{"zipCode":"6018311","prefectureKana":"ｷｮｳﾄﾌ","cityKana":"ｷｮｳﾄｼﾐﾅﾐｸ","streetKana":"ｷｯｼｮｳｲﾝﾆｼﾉｼｮｳﾋｶﾞｼﾔｼｷﾁｮｳ","prefecture":"京都府","city":"京都市南区","street":"吉祥院西ノ庄東屋敷町"},{"zipCode":"6018302","prefectureKana":"ｷｮｳﾄﾌ","cityKana":"ｷｮｳﾄｼﾐﾅﾐｸ","streetKana":"ｷｯｼｮｳｲﾝﾆｼﾉｼｮｳﾌﾁﾉﾆｼﾁｮｳ","prefecture":"京都府","city":"京都市南区","street":"吉祥院西ノ庄淵ノ西町"},{"zipCode":"6018309","prefectureKana":"ｷｮｳﾄﾌ","cityKana":"ｷｮｳﾄｼﾐﾅﾐｸ","streetKana":"ｷｯｼｮｳｲﾝﾆｼﾉｼｮｳﾑｶｲﾀﾞﾁｮｳ","prefecture":"京都府","city":"京都市南区","street":"吉祥院西ノ庄向田町"},{"zipCode":"6018312","prefectureKana":"ｷｮｳﾄﾌ","cityKana":"ｷｮｳﾄｼﾐﾅﾐｸ","streetKana":"ｷｯｼｮｳｲﾝﾆｼﾉｼｮｳﾓﾝｸﾞﾁﾁｮｳ","prefecture":"京都府","city":"京都市南区","street":"吉祥院西ノ庄門口町"},{"zipCode":"6018473","prefectureKana":"ｷｮｳﾄﾌ","cityKana":"ｷｮｳﾄｼﾐﾅﾐｸ","streetKana":"ｸｼﾞｮｳﾁｮｳ","prefecture":"京都府","city":"京都市南区","street":"九条町"},{"zipCode":"6018202","prefectureKana":"ｷｮｳﾄﾌ","cityKana":"ｷｮｳﾄｼﾐﾅﾐｸ","streetKana":"ｸｾﾞｵｵﾂｷﾁｮｳ","prefecture":"京都府","city":"京都市南区","street":"久世大築町"},{"zipCode":"6018206","prefectureKana":"ｷｮｳﾄﾌ","cityKana":"ｷｮｳﾄｼﾐﾅﾐｸ","streetKana":"ｸｾﾞｵｵﾔﾌﾞﾁｮｳ","prefecture":"京都府","city":"京都市南区","street":"久世大薮町"},{"zipCode":"6018212","prefectureKana":"ｷｮｳﾄﾌ","cityKana":"ｷｮｳﾄｼﾐﾅﾐｸ","streetKana":"ｸｾﾞｶﾐｸｾﾞﾁｮｳ","prefecture":"京都府","city":"京都市南区","street":"久世上久世町"},{"zipCode":"6018201","prefectureKana":"ｷｮｳﾄﾌ","cityKana":"ｷｮｳﾄｼﾐﾅﾐｸ","streetKana":"ｸｾﾞｶﾜﾊﾗﾁｮｳ","prefecture":"京都府","city":"京都市南区","street":"久世川原町"},{"zipCode":"6018211","prefectureKana":"ｷｮｳﾄﾌ","cityKana":"ｷｮｳﾄｼﾐﾅﾐｸ","streetKana":"ｸｾﾞﾀｶﾀﾞﾁｮｳ","prefecture":"京都府","city":"京都市南区","street":"久世高田町"},{"zipCode":"6018203","prefectureKana":"ｷｮｳﾄﾌ","cityKana":"ｷｮｳﾄｼﾐﾅﾐｸ","streetKana":"ｸｾﾞﾂｷﾔﾏﾁｮｳ","prefecture":"京都府","city":"京都市南区","street":"久世築山町"},{"zipCode":"6018205","prefectureKana":"ｷｮｳﾄﾌ","cityKana":"ｷｮｳﾄｼﾐﾅﾐｸ","streetKana":"ｸｾﾞﾄﾉｼﾛﾁｮｳ","prefecture":"京都府","city":"京都市南区","street":"久世殿城町"},{"zipCode":"6018213","prefectureKana":"ｷｮｳﾄﾌ","cityKana":"ｷｮｳﾄｼﾐﾅﾐｸ","streetKana":"ｸｾﾞﾅｶｸｾﾞﾁｮｳ","prefecture":"京都府","city":"京都市南区","street":"久世中久世町"},{"zipCode":"6018207","prefectureKana":"ｷｮｳﾄﾌ","cityKana":"ｷｮｳﾄｼﾐﾅﾐｸ","streetKana":"ｸｾﾞﾅｶﾋｻﾁｮｳ","prefecture":"京都府","city":"京都市南区","street":"久世中久町"},{"zipCode":"6018204","prefectureKana":"ｷｮｳﾄﾌ","cityKana":"ｷｮｳﾄｼﾐﾅﾐｸ","streetKana":"ｸｾﾞﾋｶﾞｼﾂﾁｶﾜﾁｮｳ","prefecture":"京都府","city":"京都市南区","street":"久世東土川町"},{"zipCode":"6018401","prefectureKana":"ｷｮｳﾄﾌ","cityKana":"ｷｮｳﾄｼﾐﾅﾐｸ","streetKana":"ｼｵﾔﾁｮｳ","prefecture":"京都府","city":"京都市南区","street":"塩屋町"},{"zipCode":"6018402","prefectureKana":"ｷｮｳﾄﾌ","cityKana":"ｷｮｳﾄｼﾐﾅﾐｸ","streetKana":"ﾀﾞｲｺｸﾁｮｳ","prefecture":"京都府","city":"京都市南区","street":"大黒町"},{"zipCode":"6018478","prefectureKana":"ｷｮｳﾄﾌ","cityKana":"ｷｮｳﾄｼﾐﾅﾐｸ","streetKana":"ﾄｳｼﾞﾁｮｳ","prefecture":"京都府","city":"京都市南区","street":"東寺町"},{"zipCode":"6018428","prefectureKana":"ｷｮｳﾄﾌ","cityKana":"ｷｮｳﾄｼﾐﾅﾐｸ","streetKana":"ﾄｳｼﾞﾋｶﾞｼﾓﾝｾﾞﾝﾁｮｳ","prefecture":"京都府","city":"京都市南区","street":"東寺東門前町"},{"zipCode":"6018416","prefectureKana":"ｷｮｳﾄﾌ","cityKana":"ｷｮｳﾄｼﾐﾅﾐｸ","streetKana":"ﾆｼｸｼﾞｮｳｲｹﾉｳﾁﾁｮｳ","prefecture":"京都府","city":"京都市南区","street":"西九条池ノ内町"},{"zipCode":"6018426","prefectureKana":"ｷｮｳﾄﾌ","cityKana":"ｷｮｳﾄｼﾐﾅﾐｸ","streetKana":"ﾆｼｸｼﾞｮｳｲﾉｸﾏﾁｮｳ","prefecture":"京都府","city":"京都市南区","street":"西九条猪熊町"},{"zipCode":"6018412","prefectureKana":"ｷｮｳﾄﾌ","cityKana":"ｷｮｳﾄｼﾐﾅﾐｸ","streetKana":"ﾆｼｸｼﾞｮｳｲﾝﾏﾁ","prefecture":"京都府","city":"京都市南区","street":"西九条院町"},{"zipCode":"6018449","prefectureKana":"ｷｮｳﾄﾌ","cityKana":"ｷｮｳﾄｼﾐﾅﾐｸ","streetKana":"ﾆｼｸｼﾞｮｳｵｵｸﾆﾁｮｳ","prefecture":"京都府","city":"京都市南区","street":"西九条大国町"},{"zipCode":"6018439","prefectureKana":"ｷｮｳﾄﾌ","cityKana":"ｷｮｳﾄｼﾐﾅﾐｸ","streetKana":"ﾆｼｸｼﾞｮｳｶｲｶﾞﾁｮｳ","prefecture":"京都府","city":"京都市南区","street":"西九条開ケ町"},{"zipCode":"6018405","prefectureKana":"ｷｮｳﾄﾌ","cityKana":"ｷｮｳﾄｼﾐﾅﾐｸ","streetKana":"ﾆｼｸｼﾞｮｳｶｲｺｳｼﾞﾁｮｳ","prefecture":"京都府","city":"京都市南区","street":"西九条戒光寺町"},{"zipCode":"6018413","prefectureKana":"ｷｮｳﾄﾌ","cityKana":"ｷｮｳﾄｼﾐﾅﾐｸ","streetKana":"ﾆｼｸｼﾞｮｳｶｽｶﾞﾁｮｳ","prefecture":"京都府","city":"京都市南区","street":"西九条春日町"},{"zipCode":"6018447","prefectureKana":"ｷｮｳﾄﾌ","cityKana":"ｷｮｳﾄｼﾐﾅﾐｸ","streetKana":"ﾆｼｸｼﾞｮｳｶﾗﾄﾁｮｳ","prefecture":"京都府","city":"京都市南区","street":"西九条唐戸町"},{"zipCode":"6018423","prefectureKana":"ｷｮｳﾄﾌ","cityKana":"ｷｮｳﾄｼﾐﾅﾐｸ","streetKana":"ﾆｼｸｼﾞｮｳｶﾗﾊｼﾁｮｳ","prefecture":"京都府","city":"京都市南区","street":"西九条唐橋町"},{"zipCode":"6018424","prefectureKana":"ｷｮｳﾄﾌ","cityKana":"ｷｮｳﾄｼﾐﾅﾐｸ","streetKana":"ﾆｼｸｼﾞｮｳｶﾜﾗｼﾞｮｳﾁｮｳ","prefecture":"京都府","city":"京都市南区","street":"西九条川原城町"},{"zipCode":"6018411","prefectureKana":"ｷｮｳﾄﾌ","cityKana":"ｷｮｳﾄｼﾐﾅﾐｸ","streetKana":"ﾆｼｸｼﾞｮｳｷﾀﾉｳﾁﾁｮｳ","prefecture":"京都府","city":"京都市南区","street":"西九条北ノ内町"},{"zipCode":"6018442","prefectureKana":"ｷｮｳﾄﾌ","cityKana":"ｷｮｳﾄｼﾐﾅﾐｸ","streetKana":"ﾆｼｸｼﾞｮｳｺﾞｺｳﾃﾞﾝﾁｮｳ","prefecture":"京都府","city":"京都市南区","street":"西九条御幸田町"},{"zipCode":"6018404","prefectureKana":"ｷｮｳﾄﾌ","cityKana":"ｷｮｳﾄｼﾐﾅﾐｸ","streetKana":"ﾆｼｸｼﾞｮｳｺﾃﾞﾗﾁｮｳ","prefecture":"京都府","city":"京都市南区","street":"西九条小寺町"},{"zipCode":"6018414","prefectureKana":"ｷｮｳﾄﾌ","cityKana":"ｷｮｳﾄｼﾐﾅﾐｸ","streetKana":"ﾆｼｸｼﾞｮｳｻﾞｵｳﾁｮｳ","prefecture":"京都府","city":"京都市南区","street":"西九条蔵王町"},{"zipCode":"6018431","prefectureKana":"ｷｮｳﾄﾌ","cityKana":"ｷｮｳﾄｼﾐﾅﾐｸ","streetKana":"ﾆｼｸｼﾞｮｳｼﾏﾏﾁ","prefecture":"京都府","city":"京都市南区","street":"西九条島町"},{"zipCode":"6018445","prefectureKana":"ｷｮｳﾄﾌ","cityKana":"ｷｮｳﾄｼﾐﾅﾐｸ","streetKana":"ﾆｼｸｼﾞｮｳｽｶﾞﾀﾁｮｳ","prefecture":"京都府","city":"京都市南区","street":"西九条菅田町"},{"zipCode":"6018446","prefectureKana":"ｷｮｳﾄﾌ","cityKana":"ｷｮｳﾄｼﾐﾅﾐｸ","streetKana":"ﾆｼｸｼﾞｮｳﾀｶﾊﾀﾁｮｳ","prefecture":"京都府","city":"京都市南区","street":"西九条高畠町"},{"zipCode":"6018407","prefectureKana":"ｷｮｳﾄﾌ","cityKana":"ｷｮｳﾄｼﾐﾅﾐｸ","streetKana":"ﾆｼｸｼﾞｮｳﾃﾗﾉﾏｴﾁｮｳ","prefecture":"京都府","city":"京都市南区","street":"西九条寺ノ前町"},{"zipCode":"6018448","prefectureKana":"ｷｮｳﾄﾌ","cityKana":"ｷｮｳﾄｼﾐﾅﾐｸ","streetKana":"ﾆｼｸｼﾞｮｳﾄﾖﾀﾞﾁｮｳ","prefecture":"京都府","city":"京都市南区","street":"西九条豊田町"},{"zipCode":"6018417","prefectureKana":"ｷｮｳﾄﾌ","cityKana":"ｷｮｳﾄｼﾐﾅﾐｸ","streetKana":"ﾆｼｸｼﾞｮｳﾄﾘｲｸﾞﾁﾁｮｳ","prefecture":"京都府","city":"京都市南区","street":"西九条鳥居口町"},{"zipCode":"6018441","prefectureKana":"ｷｮｳﾄﾌ","cityKana":"ｷｮｳﾄｼﾐﾅﾐｸ","streetKana":"ﾆｼｸｼﾞｮｳﾅﾝﾃﾞﾝﾁｮｳ","prefecture":"京都府","city":"京都市南区","street":"西九条南田町"},{"zipCode":"6018415","prefectureKana":"ｷｮｳﾄﾌ","cityKana":"ｷｮｳﾄｼﾐﾅﾐｸ","streetKana":"ﾆｼｸｼﾞｮｳﾆｼｻﾞｵｳﾁｮｳ","prefecture":"京都府","city":"京都市南区","street":"西九条西蔵王町"},{"zipCode":"6018436","prefectureKana":"ｷｮｳﾄﾌ","cityKana":"ｷｮｳﾄｼﾐﾅﾐｸ","streetKana":"ﾆｼｸｼﾞｮｳﾆｼﾔﾅｷﾞﾉｳﾁﾁｮｳ","prefecture":"京都府","city":"京都市南区","street":"西九条西柳ノ内町"},{"zipCode":"6018422","prefectureKana":"ｷｮｳﾄﾌ","cityKana":"ｷｮｳﾄｼﾐﾅﾐｸ","streetKana":"ﾆｼｸｼﾞｮｳﾊﾘｺｳｼﾞﾁｮｳ","prefecture":"京都府","city":"京都市南区","street":"西九条針小路町"},{"zipCode":"6018437","prefectureKana":"ｷｮｳﾄﾌ","cityKana":"ｷｮｳﾄｼﾐﾅﾐｸ","streetKana":"ﾆｼｸｼﾞｮｳﾋｴｲｼﾞｮｳﾁｮｳ","prefecture":"京都府","city":"京都市南区","street":"西九条比永城町"},{"zipCode":"6018443","prefectureKana":"ｷｮｳﾄﾌ","cityKana":"ｷｮｳﾄｼﾐﾅﾐｸ","streetKana":"ﾆｼｸｼﾞｮｳﾋｶﾞｼｺﾞｺｳﾃﾞﾝﾁｮｳ","prefecture":"京都府","city":"京都市南区","street":"西九条東御幸田町"},{"zipCode":"6018432","prefectureKana":"ｷｮｳﾄﾌ","cityKana":"ｷｮｳﾄｼﾐﾅﾐｸ","streetKana":"ﾆｼｸｼﾞｮｳﾋｶﾞｼｼﾏﾏﾁ","prefecture":"京都府","city":"京都市南区","street":"西九条東島町"},{"zipCode":"6018438","prefectureKana":"ｷｮｳﾄﾌ","cityKana":"ｷｮｳﾄｼﾐﾅﾐｸ","streetKana":"ﾆｼｸｼﾞｮｳﾋｶﾞｼﾋｴｲｼﾞｮｳﾁｮｳ","prefecture":"京都府","city":"京都市南区","street":"西九条東比永城町"},{"zipCode":"6018433","prefectureKana":"ｷｮｳﾄﾌ","cityKana":"ｷｮｳﾄｼﾐﾅﾐｸ","streetKana":"ﾆｼｸｼﾞｮｳﾋｶﾞｼﾔﾅｷﾞﾉｳﾁﾁｮｳ","prefecture":"京都府","city":"京都市南区","street":"西九条東柳ノ内町"},{"zipCode":"6018421","prefectureKana":"ｷｮｳﾄﾌ","cityKana":"ｷｮｳﾄｼﾐﾅﾐｸ","streetKana":"ﾆｼｸｼﾞｮｳﾌｼﾞﾉｷﾁｮｳ","prefecture":"京都府","city":"京都市南区","street":"西九条藤ノ木町"},{"zipCode":"6018434","prefectureKana":"ｷｮｳﾄﾌ","cityKana":"ｷｮｳﾄｼﾐﾅﾐｸ","streetKana":"ﾆｼｸｼﾞｮｳﾌﾞﾂｹﾞﾝｼﾞﾁｮｳ","prefecture":"京都府","city":"京都市南区","street":"西九条仏現寺町"},{"zipCode":"6018425","prefectureKana":"ｷｮｳﾄﾌ","cityKana":"ｷｮｳﾄｼﾐﾅﾐｸ","streetKana":"ﾆｼｸｼﾞｮｳﾐﾅﾐｺｳｼﾞﾁｮｳ","prefecture":"京都府","city":"京都市南区","street":"西九条南小路町"},{"zipCode":"6018444","prefectureKana":"ｷｮｳﾄﾌ","cityKana":"ｷｮｳﾄｼﾐﾅﾐｸ","streetKana":"ﾆｼｸｼﾞｮｳﾓﾘﾓﾄﾁｮｳ","prefecture":"京都府","city":"京都市南区","street":"西九条森本町"},{"zipCode":"6018435","prefectureKana":"ｷｮｳﾄﾌ","cityKana":"ｷｮｳﾄｼﾐﾅﾐｸ","streetKana":"ﾆｼｸｼﾞｮｳﾔﾅｷﾞﾉｳﾁﾁｮｳ","prefecture":"京都府","city":"京都市南区","street":"西九条柳ノ内町"},{"zipCode":"6018427","prefectureKana":"ｷｮｳﾄﾌ","cityKana":"ｷｮｳﾄｼﾐﾅﾐｸ","streetKana":"ﾆｼｸｼﾞｮｳﾖｺﾏﾁ","prefecture":"京都府","city":"京都市南区","street":"西九条横町"},{"zipCode":"6018475","prefectureKana":"ｷｮｳﾄﾌ","cityKana":"ｷｮｳﾄｼﾐﾅﾐｸ","streetKana":"ﾊﾁｼﾞｮｳｳﾁﾀﾞﾁｮｳ","prefecture":"京都府","city":"京都市南区","street":"八条内田町"},{"zipCode":"6018476","prefectureKana":"ｷｮｳﾄﾌ","cityKana":"ｷｮｳﾄｼﾐﾅﾐｸ","streetKana":"ﾊﾁｼﾞｮｳﾃﾗﾉｳﾁﾁｮｳ","prefecture":"京都府","city":"京都市南区","street":"八条寺内町"},{"zipCode":"6018472","prefectureKana":"ｷｮｳﾄﾌ","cityKana":"ｷｮｳﾄｼﾐﾅﾐｸ","streetKana":"ﾊﾁｼﾞｮｳﾎﾞｳﾓﾝﾁｮｳ","prefecture":"京都府","city":"京都市南区","street":"八条坊門町"},{"zipCode":"6018477","prefectureKana":"ｷｮｳﾄﾌ","cityKana":"ｷｮｳﾄｼﾐﾅﾐｸ","streetKana":"ﾊﾁｼﾞｮｳﾐﾅﾓﾄﾁｮｳ","prefecture":"京都府","city":"京都市南区","street":"八条源町"},{"zipCode":"6018471","prefectureKana":"ｷｮｳﾄﾌ","cityKana":"ｷｮｳﾄｼﾐﾅﾐｸ","streetKana":"ﾊﾁｼﾞｮｳﾁｮｳ","prefecture":"京都府","city":"京都市南区","street":"八条町"},{"zipCode":"6018044","prefectureKana":"ｷｮｳﾄﾌ","cityKana":"ｷｮｳﾄｼﾐﾅﾐｸ","streetKana":"ﾋｶﾞｼｸｼﾞｮｳｱｹﾀﾁｮｳ","prefecture":"京都府","city":"京都市南区","street":"東九条明田町"},{"zipCode":"6018032","prefectureKana":"ｷｮｳﾄﾌ","cityKana":"ｷｮｳﾄｼﾐﾅﾐｸ","streetKana":"ﾋｶﾞｼｸｼﾞｮｳｲｼﾀﾞﾁｮｳ","prefecture":"京都府","city":"京都市南区","street":"東九条石田町"},{"zipCode":"6018021","prefectureKana":"ｷｮｳﾄﾌ","cityKana":"ｷｮｳﾄｼﾐﾅﾐｸ","streetKana":"ﾋｶﾞｼｸｼﾞｮｳｳｶﾍﾞﾁｮｳ","prefecture":"京都府","city":"京都市南区","street":"東九条宇賀辺町"},{"zipCode":"6018015","prefectureKana":"ｷｮｳﾄﾌ","cityKana":"ｷｮｳﾄｼﾐﾅﾐｸ","streetKana":"ﾋｶﾞｼｸｼﾞｮｳｶﾐｺﾞﾘｮｳﾁｮｳ","prefecture":"京都府","city":"京都市南区","street":"東九条上御霊町"},{"zipCode":"6018002","prefectureKana":"ｷｮｳﾄﾌ","cityKana":"ｷｮｳﾄｼﾐﾅﾐｸ","streetKana":"ﾋｶﾞｼｸｼﾞｮｳｶﾐﾄﾉﾀﾞﾁｮｳ","prefecture":"京都府","city":"京都市南区","street":"東九条上殿田町"},{"zipCode":"6018016","prefectureKana":"ｷｮｳﾄﾌ","cityKana":"ｷｮｳﾄｼﾐﾅﾐｸ","streetKana":"ﾋｶﾞｼｸｼﾞｮｳｶﾗｽﾏﾁｮｳ","prefecture":"京都府","city":"京都市南区","street":"東九条烏丸町"},{"zipCode":"6018014","prefectureKana":"ｷｮｳﾄﾌ","cityKana":"ｷｮｳﾄｼﾐﾅﾐｸ","streetKana":"ﾋｶﾞｼｸｼﾞｮｳｶﾜﾆｼﾁｮｳ","prefecture":"京都府","city":"京都市南区","street":"東九条河西町"},{"zipCode":"6018031","prefectureKana":"ｷｮｳﾄﾌ","cityKana":"ｷｮｳﾄｼﾐﾅﾐｸ","streetKana":"ﾋｶﾞｼｸｼﾞｮｳｶﾜﾍﾞﾁｮｳ","prefecture":"京都府","city":"京都市南区","street":"東九条河辺町"},{"zipCode":"6018017","prefectureKana":"ｷｮｳﾄﾌ","cityKana":"ｷｮｳﾄｼﾐﾅﾐｸ","streetKana":"ﾋｶﾞｼｸｼﾞｮｳｷﾀｶﾗｽﾏﾁｮｳ","prefecture":"京都府","city":"京都市南区","street":"東九条北烏丸町"},{"zipCode":"6018007","prefectureKana":"ｷｮｳﾄﾌ","cityKana":"ｷｮｳﾄｼﾐﾅﾐｸ","streetKana":"ﾋｶﾞｼｸｼﾞｮｳｷﾀｶﾜﾗﾏﾁ","prefecture":"京都府","city":"京都市南区","street":"東九条北河原町"},{"zipCode":"6018022","prefectureKana":"ｷｮｳﾄﾌ","cityKana":"ｷｮｳﾄｼﾐﾅﾐｸ","streetKana":"ﾋｶﾞｼｸｼﾞｮｳｷﾀﾏﾂﾉｷﾁｮｳ","prefecture":"京都府","city":"京都市南区","street":"東九条北松ノ木町"},{"zipCode":"6018047","prefectureKana":"ｷｮｳﾄﾌ","cityKana":"ｷｮｳﾄｼﾐﾅﾐｸ","streetKana":"ﾋｶﾞｼｸｼﾞｮｳｼﾓﾄﾉﾀﾞﾁｮｳ","prefecture":"京都府","city":"京都市南区","street":"東九条下殿田町"},{"zipCode":"6018027","prefectureKana":"ｷｮｳﾄﾌ","cityKana":"ｷｮｳﾄｼﾐﾅﾐｸ","streetKana":"ﾋｶﾞｼｸｼﾞｮｳﾅｶｺﾞﾘｮｳﾁｮｳ","prefecture":"京都府","city":"京都市南区","street":"東九条中御霊町"},{"zipCode":"6018048","prefectureKana":"ｷｮｳﾄﾌ","cityKana":"ｷｮｳﾄｼﾐﾅﾐｸ","streetKana":"ﾋｶﾞｼｸｼﾞｮｳﾅｶﾄﾉﾀﾞﾁｮｳ","prefecture":"京都府","city":"京都市南区","street":"東九条中殿田町"},{"zipCode":"6018026","prefectureKana":"ｷｮｳﾄﾌ","cityKana":"ｷｮｳﾄｼﾐﾅﾐｸ","streetKana":"ﾋｶﾞｼｸｼﾞｮｳﾅｶﾌﾀﾞﾉﾂｼﾞﾁｮｳ","prefecture":"京都府","city":"京都市南区","street":"東九条中札辻町"},{"zipCode":"6018045","prefectureKana":"ｷｮｳﾄﾌ","cityKana":"ｷｮｳﾄｼﾐﾅﾐｸ","streetKana":"ﾋｶﾞｼｸｼﾞｮｳﾆｼｱｹﾀﾁｮｳ","prefecture":"京都府","city":"京都市南区","street":"東九条西明田町"},{"zipCode":"6018005","prefectureKana":"ｷｮｳﾄﾌ","cityKana":"ｷｮｳﾄｼﾐﾅﾐｸ","streetKana":"ﾋｶﾞｼｸｼﾞｮｳﾆｼｲﾜﾓﾄﾁｮｳ","prefecture":"京都府","city":"京都市南区","street":"東九条西岩本町"},{"zipCode":"6018037","prefectureKana":"ｷｮｳﾄﾌ","cityKana":"ｷｮｳﾄｼﾐﾅﾐｸ","streetKana":"ﾋｶﾞｼｸｼﾞｮｳﾆｼｶﾜﾍﾞﾁｮｳ","prefecture":"京都府","city":"京都市南区","street":"東九条西河辺町"},{"zipCode":"6018042","prefectureKana":"ｷｮｳﾄﾌ","cityKana":"ｷｮｳﾄｼﾐﾅﾐｸ","streetKana":"ﾋｶﾞｼｸｼﾞｮｳﾆｼｺﾞﾘｮｳﾁｮｳ","prefecture":"京都府","city":"京都市南区","street":"東九条西御霊町"},{"zipCode":"6018003","prefectureKana":"ｷｮｳﾄﾌ","cityKana":"ｷｮｳﾄｼﾐﾅﾐｸ","streetKana":"ﾋｶﾞｼｸｼﾞｮｳﾆｼｻﾝﾉｳﾁｮｳ","prefecture":"京都府","city":"京都市南区","street":"東九条西山王町"},{"zipCode":"6018043","prefectureKana":"ｷｮｳﾄﾌ","cityKana":"ｷｮｳﾄｼﾐﾅﾐｸ","streetKana":"ﾋｶﾞｼｸｼﾞｮｳﾆｼﾌﾀﾞﾉﾂｼﾞﾁｮｳ","prefecture":"京都府","city":"京都市南区","street":"東九条西札辻町"},{"zipCode":"6018046","prefectureKana":"ｷｮｳﾄﾌ","cityKana":"ｷｮｳﾄｼﾐﾅﾐｸ","streetKana":"ﾋｶﾞｼｸｼﾞｮｳﾆｼﾔﾏﾁｮｳ","prefecture":"京都府","city":"京都市南区","street":"東九条西山町"},{"zipCode":"6018006","prefectureKana":"ｷｮｳﾄﾌ","cityKana":"ｷｮｳﾄｼﾐﾅﾐｸ","streetKana":"ﾋｶﾞｼｸｼﾞｮｳﾋｶﾞｼｲﾜﾓﾄﾁｮｳ","prefecture":"京都府","city":"京都市南区","street":"東九条東岩本町"},{"zipCode":"6018028","prefectureKana":"ｷｮｳﾄﾌ","cityKana":"ｷｮｳﾄｼﾐﾅﾐｸ","streetKana":"ﾋｶﾞｼｸｼﾞｮｳﾋｶﾞｼｺﾞﾘｮｳﾁｮｳ","prefecture":"京都府","city":"京都市南区","street":"東九条東御霊町"},{"zipCode":"6018004","prefectureKana":"ｷｮｳﾄﾌ","cityKana":"ｷｮｳﾄｼﾐﾅﾐｸ","streetKana":"ﾋｶﾞｼｸｼﾞｮｳﾋｶﾞｼｻﾝﾉｳﾁｮｳ","prefecture":"京都府","city":"京都市南区","street":"東九条東山王町"},{"zipCode":"6018024","prefectureKana":"ｷｮｳﾄﾌ","cityKana":"ｷｮｳﾄｼﾐﾅﾐｸ","streetKana":"ﾋｶﾞｼｸｼﾞｮｳﾋｶﾞｼﾌﾀﾞﾉﾂｼﾞﾁｮｳ","prefecture":"京都府","city":"京都市南区","street":"東九条東札辻町"},{"zipCode":"6018029","prefectureKana":"ｷｮｳﾄﾌ","cityKana":"ｷｮｳﾄｼﾐﾅﾐｸ","streetKana":"ﾋｶﾞｼｸｼﾞｮｳﾋｶﾞｼﾏﾂﾉｷﾁｮｳ","prefecture":"京都府","city":"京都市南区","street":"東九条東松ノ木町"},{"zipCode":"6018036","prefectureKana":"ｷｮｳﾄﾌ","cityKana":"ｷｮｳﾄｼﾐﾅﾐｸ","streetKana":"ﾋｶﾞｼｸｼﾞｮｳﾏﾂﾀﾞﾁｮｳ","prefecture":"京都府","city":"京都市南区","street":"東九条松田町"},{"zipCode":"6018033","prefectureKana":"ｷｮｳﾄﾌ","cityKana":"ｷｮｳﾄｼﾐﾅﾐｸ","streetKana":"ﾋｶﾞｼｸｼﾞｮｳﾐﾅﾐｲｼﾀﾞﾁｮｳ","prefecture":"京都府","city":"京都市南区","street":"東九条南石田町"},{"zipCode":"6018012","prefectureKana":"ｷｮｳﾄﾌ","cityKana":"ｷｮｳﾄｼﾐﾅﾐｸ","streetKana":"ﾋｶﾞｼｸｼﾞｮｳﾐﾅﾐｲﾜﾓﾄﾁｮｳ","prefecture":"京都府","city":"京都市南区","street":"東九条南岩本町"},{"zipCode":"6018041","prefectureKana":"ｷｮｳﾄﾌ","cityKana":"ｷｮｳﾄｼﾐﾅﾐｸ","streetKana":"ﾋｶﾞｼｸｼﾞｮｳﾐﾅﾐｶﾗｽﾏﾁｮｳ","prefecture":"京都府","city":"京都市南区","street":"東九条南烏丸町"},{"zipCode":"6018034","prefectureKana":"ｷｮｳﾄﾌ","cityKana":"ｷｮｳﾄｼﾐﾅﾐｸ","streetKana":"ﾋｶﾞｼｸｼﾞｮｳﾐﾅﾐｶﾜﾍﾞﾁｮｳ","prefecture":"京都府","city":"京都市南区","street":"東九条南河辺町"},{"zipCode":"6018013","prefectureKana":"ｷｮｳﾄﾌ","cityKana":"ｷｮｳﾄｼﾐﾅﾐｸ","streetKana":"ﾋｶﾞｼｸｼﾞｮｳﾐﾅﾐｶﾜﾗﾏﾁ","prefecture":"京都府","city":"京都市南区","street":"東九条南河原町"},{"zipCode":"6018011","prefectureKana":"ｷｮｳﾄﾌ","cityKana":"ｷｮｳﾄｼﾐﾅﾐｸ","streetKana":"ﾋｶﾞｼｸｼﾞｮｳﾐﾅﾐｻﾝﾉｳﾁｮｳ","prefecture":"京都府","city":"京都市南区","street":"東九条南山王町"},{"zipCode":"6018035","prefectureKana":"ｷｮｳﾄﾌ","cityKana":"ｷｮｳﾄｼﾐﾅﾐｸ","streetKana":"ﾋｶﾞｼｸｼﾞｮｳﾐﾅﾐﾏﾂﾀﾞﾁｮｳ","prefecture":"京都府","city":"京都市南区","street":"東九条南松田町"},{"zipCode":"6018023","prefectureKana":"ｷｮｳﾄﾌ","cityKana":"ｷｮｳﾄｼﾐﾅﾐｸ","streetKana":"ﾋｶﾞｼｸｼﾞｮｳﾐﾅﾐﾏﾂﾉｷﾁｮｳ","prefecture":"京都府","city":"京都市南区","street":"東九条南松ノ木町"},{"zipCode":"6018001","prefectureKana":"ｷｮｳﾄﾌ","cityKana":"ｷｮｳﾄｼﾐﾅﾐｸ","streetKana":"ﾋｶﾞｼｸｼﾞｮｳﾑﾛﾏﾁ","prefecture":"京都府","city":"京都市南区","street":"東九条室町"},{"zipCode":"6018025","prefectureKana":"ｷｮｳﾄﾌ","cityKana":"ｷｮｳﾄｼﾐﾅﾐｸ","streetKana":"ﾋｶﾞｼｸｼﾞｮｳﾔﾅｷﾞﾉｼﾀﾁｮｳ","prefecture":"京都府","city":"京都市南区","street":"東九条柳下町"},{"zipCode":"6018403","prefectureKana":"ｷｮｳﾄﾌ","cityKana":"ｷｮｳﾄｼﾐﾅﾐｸ","streetKana":"ﾌﾙｵﾀﾋﾞﾁｮｳ","prefecture":"京都府","city":"京都市南区","street":"古御旅町"},{"zipCode":"6018474","prefectureKana":"ｷｮｳﾄﾌ","cityKana":"ｷｮｳﾄｼﾐﾅﾐｸ","streetKana":"ﾖﾂﾂﾞｶﾁｮｳ","prefecture":"京都府","city":"京都市南区","street":"四ツ塚町"},{"zipCode":"6010541","prefectureKana":"ｷｮｳﾄﾌ","cityKana":"ｷｮｳﾄｼｳｷｮｳｸ","streetKana":"ｹｲﾎｸｱｶｲｼﾁｮｳ","prefecture":"京都府","city":"京都市右京区","street":"京北赤石町"},{"zipCode":"6010273","prefectureKana":"ｷｮｳﾄﾌ","cityKana":"ｷｮｳﾄｼｳｷｮｳｸ","streetKana":"ｹｲﾎｸｱｹｼﾁｮｳ","prefecture":"京都府","city":"京都市右京区","street":"京北明石町"},{"zipCode":"6010274","prefectureKana":"ｷｮｳﾄﾌ","cityKana":"ｷｮｳﾄｼｳｷｮｳｸ","streetKana":"ｹｲﾎｸｱｻﾞｴﾁｮｳ","prefecture":"京都府","city":"京都市右京区","street":"京北浅江町"},{"zipCode":"6010535","prefectureKana":"ｷｮｳﾄﾌ","cityKana":"ｷｮｳﾄｼｳｷｮｳｸ","streetKana":"ｹｲﾎｸｲｻﾞｷﾁｮｳ","prefecture":"京都府","city":"京都市右京区","street":"京北井崎町"},{"zipCode":"6010313","prefectureKana":"ｷｮｳﾄﾌ","cityKana":"ｷｮｳﾄｼｳｷｮｳｸ","streetKana":"ｹｲﾎｸｲﾄﾞﾁｮｳ","prefecture":"京都府","city":"京都市右京区","street":"京北井戸町"},{"zipCode":"6010275","prefectureKana":"ｷｮｳﾄﾌ","cityKana":"ｷｮｳﾄｼｳｷｮｳｸ","streetKana":"ｹｲﾎｸｳﾉﾁｮｳ","prefecture":"京都府","city":"京都市右京区","street":"京北宇野町"},{"zipCode":"6010277","prefectureKana":"ｷｮｳﾄﾌ","cityKana":"ｷｮｳﾄｼｳｷｮｳｸ","streetKana":"ｹｲﾎｸｳﾙｼﾀﾆﾁｮｳ","prefecture":"京都府","city":"京都市右京区","street":"京北漆谷町"},{"zipCode":"6010314","prefectureKana":"ｷｮｳﾄﾌ","cityKana":"ｷｮｳﾄｼｳｷｮｳｸ","streetKana":"ｹｲﾎｸｵｵﾉﾁｮｳ","prefecture":"京都府","city":"京都市右京区","street":"京北大野町"},{"zipCode":"6010311","prefectureKana":"ｷｮｳﾄﾌ","cityKana":"ｷｮｳﾄｼｳｷｮｳｸ","streetKana":"ｹｲﾎｸｵｼｵﾁｮｳ","prefecture":"京都府","city":"京都市右京区","street":"京北小塩町"},{"zipCode":"6010261","prefectureKana":"ｷｮｳﾄﾌ","cityKana":"ｷｮｳﾄｼｳｷｮｳｸ","streetKana":"ｹｲﾎｸｶｼﾜﾗﾁｮｳ","prefecture":"京都府","city":"京都市右京区","street":"京北柏原町"},{"zipCode":"6010401","prefectureKana":"ｷｮｳﾄﾌ","cityKana":"ｷｮｳﾄｼｳｷｮｳｸ","streetKana":"ｹｲﾎｸｶﾀﾅﾐﾁｮｳ","prefecture":"京都府","city":"京都市右京区","street":"京北片波町"},{"zipCode":"6010402","prefectureKana":"ｷｮｳﾄﾌ","cityKana":"ｷｮｳﾄｼｳｷｮｳｸ","streetKana":"ｹｲﾎｸｶﾐｸﾛﾀﾞﾁｮｳ","prefecture":"京都府","city":"京都市右京区","street":"京北上黒田町"},{"zipCode":"6010532","prefectureKana":"ｷｮｳﾄﾌ","cityKana":"ｷｮｳﾄｼｳｷｮｳｸ","streetKana":"ｹｲﾎｸｶﾐﾅｶﾁｮｳ","prefecture":"京都府","city":"京都市右京区","street":"京北上中町"},{"zipCode":"6010531","prefectureKana":"ｷｮｳﾄﾌ","cityKana":"ｷｮｳﾄｼｳｷｮｳｸ","streetKana":"ｹｲﾎｸｶﾐﾕｹﾞﾁｮｳ","prefecture":"京都府","city":"京都市右京区","street":"京北上弓削町"},{"zipCode":"6010271","prefectureKana":"ｷｮｳﾄﾌ","cityKana":"ｷｮｳﾄｼｳｷｮｳｸ","streetKana":"ｹｲﾎｸｸﾏﾀﾁｮｳ","prefecture":"京都府","city":"京都市右京区","street":"京北熊田町"},{"zipCode":"6010252","prefectureKana":"ｷｮｳﾄﾌ","cityKana":"ｷｮｳﾄｼｳｷｮｳｸ","streetKana":"ｹｲﾎｸｺﾞﾎﾝﾏﾂﾁｮｳ","prefecture":"京都府","city":"京都市右京区","street":"京北五本松町"},{"zipCode":"6010536","prefectureKana":"ｷｮｳﾄﾌ","cityKana":"ｷｮｳﾄｼｳｷｮｳｸ","streetKana":"ｹｲﾎｸｼｵﾀﾁｮｳ","prefecture":"京都府","city":"京都市右京区","street":"京北塩田町"},{"zipCode":"6010543","prefectureKana":"ｷｮｳﾄﾌ","cityKana":"ｷｮｳﾄｼｳｷｮｳｸ","streetKana":"ｹｲﾎｸｼﾂﾀﾝﾁｮｳ","prefecture":"京都府","city":"京都市右京区","street":"京北室谷町"},{"zipCode":"6010266","prefectureKana":"ｷｮｳﾄﾌ","cityKana":"ｷｮｳﾄｼｳｷｮｳｸ","streetKana":"ｹｲﾎｸｼﾓｳﾂﾁｮｳ","prefecture":"京都府","city":"京都市右京区","street":"京北下宇津町"},{"zipCode":"6010272","prefectureKana":"ｷｮｳﾄﾌ","cityKana":"ｷｮｳﾄｼｳｷｮｳｸ","streetKana":"ｹｲﾎｸｼﾓｸﾏﾀﾁｮｳ","prefecture":"京都府","city":"京都市右京区","street":"京北下熊田町"},{"zipCode":"6010405","prefectureKana":"ｷｮｳﾄﾌ","cityKana":"ｷｮｳﾄｼｳｷｮｳｸ","streetKana":"ｹｲﾎｸｼﾓｸﾛﾀﾞﾁｮｳ","prefecture":"京都府","city":"京都市右京区","street":"京北下黒田町"},{"zipCode":"6010324","prefectureKana":"ｷｮｳﾄﾌ","cityKana":"ｷｮｳﾄｼｳｷｮｳｸ","streetKana":"ｹｲﾎｸｼﾓﾁｮｳ","prefecture":"京都府","city":"京都市右京区","street":"京北下町"},{"zipCode":"6010533","prefectureKana":"ｷｮｳﾄﾌ","cityKana":"ｷｮｳﾄｼｳｷｮｳｸ","streetKana":"ｹｲﾎｸｼﾓﾅｶﾁｮｳ","prefecture":"京都府","city":"京都市右京区","street":"京北下中町"},{"zipCode":"6010534","prefectureKana":"ｷｮｳﾄﾌ","cityKana":"ｷｮｳﾄｼｳｷｮｳｸ","streetKana":"ｹｲﾎｸｼﾓﾕｹﾞﾁｮｳ","prefecture":"京都府","city":"京都市右京区","street":"京北下弓削町"},{"zipCode":"6010251","prefectureKana":"ｷｮｳﾄﾌ","cityKana":"ｷｮｳﾄｼｳｷｮｳｸ","streetKana":"ｹｲﾎｸｼｭｳｻﾞﾝﾁｮｳ","prefecture":"京都府","city":"京都市右京区","street":"京北周山町"},{"zipCode":"6010404","prefectureKana":"ｷｮｳﾄﾌ","cityKana":"ｷｮｳﾄｼｳｷｮｳｸ","streetKana":"ｹｲﾎｸｾﾘｮｳﾁｮｳ","prefecture":"京都府","city":"京都市右京区","street":"京北芹生町"},{"zipCode":"6010542","prefectureKana":"ｷｮｳﾄﾌ","cityKana":"ｷｮｳﾄｼｳｷｮｳｸ","streetKana":"ｹｲﾎｸﾀﾇｷﾁｮｳ","prefecture":"京都府","city":"京都市右京区","street":"京北田貫町"},{"zipCode":"6010265","prefectureKana":"ｷｮｳﾄﾌ","cityKana":"ｷｮｳﾄｼｳｷｮｳｸ","streetKana":"ｹｲﾎｸﾁｭｳｼﾞﾁｮｳ","prefecture":"京都府","city":"京都市右京区","street":"京北中地町"},{"zipCode":"6010322","prefectureKana":"ｷｮｳﾄﾌ","cityKana":"ｷｮｳﾄｼｳｷｮｳｸ","streetKana":"ｹｲﾎｸﾂｼﾞﾁｮｳ","prefecture":"京都府","city":"京都市右京区","street":"京北辻町"},{"zipCode":"6010321","prefectureKana":"ｷｮｳﾄﾌ","cityKana":"ｷｮｳﾄｼｳｷｮｳｸ","streetKana":"ｹｲﾎｸﾄｳﾁｮｳ","prefecture":"京都府","city":"京都市右京区","street":"京北塔町"},{"zipCode":"6010264","prefectureKana":"ｷｮｳﾄﾌ","cityKana":"ｷｮｳﾄｼｳｷｮｳｸ","streetKana":"ｹｲﾎｸﾄﾁﾓﾄﾁｮｳ","prefecture":"京都府","city":"京都市右京区","street":"京北栃本町"},{"zipCode":"6010323","prefectureKana":"ｷｮｳﾄﾌ","cityKana":"ｷｮｳﾄｼｳｷｮｳｸ","streetKana":"ｹｲﾎｸﾄﾘｲﾁｮｳ","prefecture":"京都府","city":"京都市右京区","street":"京北鳥居町"},{"zipCode":"6010315","prefectureKana":"ｷｮｳﾄﾌ","cityKana":"ｷｮｳﾄｼｳｷｮｳｸ","streetKana":"ｹｲﾎｸﾅｶｴﾁｮｳ","prefecture":"京都府","city":"京都市右京区","street":"京北中江町"},{"zipCode":"6010276","prefectureKana":"ｷｮｳﾄﾌ","cityKana":"ｷｮｳﾄｼｳｷｮｳｸ","streetKana":"ｹｲﾎｸﾆｼﾁｮｳ","prefecture":"京都府","city":"京都市右京区","street":"京北西町"},{"zipCode":"6010403","prefectureKana":"ｷｮｳﾄﾌ","cityKana":"ｷｮｳﾄｼｳｷｮｳｸ","streetKana":"ｹｲﾎｸﾊｲﾔﾁｮｳ","prefecture":"京都府","city":"京都市右京区","street":"京北灰屋町"},{"zipCode":"6010312","prefectureKana":"ｷｮｳﾄﾌ","cityKana":"ｷｮｳﾄｼｳｷｮｳｸ","streetKana":"ｹｲﾎｸﾊﾂｶﾜﾁｮｳ","prefecture":"京都府","city":"京都市右京区","street":"京北初川町"},{"zipCode":"6010316","prefectureKana":"ｷｮｳﾄﾌ","cityKana":"ｷｮｳﾄｼｳｷｮｳｸ","streetKana":"ｹｲﾎｸﾋｶﾞｴﾁｮｳ","prefecture":"京都府","city":"京都市右京区","street":"京北比賀江町"},{"zipCode":"6010262","prefectureKana":"ｷｮｳﾄﾌ","cityKana":"ｷｮｳﾄｼｳｷｮｳｸ","streetKana":"ｹｲﾎｸﾎｿﾉﾁｮｳ","prefecture":"京都府","city":"京都市右京区","street":"京北細野町"},{"zipCode":"6010406","prefectureKana":"ｷｮｳﾄﾌ","cityKana":"ｷｮｳﾄｼｳｷｮｳｸ","streetKana":"ｹｲﾎｸﾐﾔﾁｮｳ","prefecture":"京都府","city":"京都市右京区","street":"京北宮町"},{"zipCode":"6010278","prefectureKana":"ｷｮｳﾄﾌ","cityKana":"ｷｮｳﾄｼｳｷｮｳｸ","streetKana":"ｹｲﾎｸﾔｼﾛﾅｶﾁｮｳ","prefecture":"京都府","city":"京都市右京区","street":"京北矢代中町"},{"zipCode":"6010263","prefectureKana":"ｷｮｳﾄﾌ","cityKana":"ｷｮｳﾄｼｳｷｮｳｸ","streetKana":"ｹｲﾎｸﾕﾂﾞｷﾁｮｳ","prefecture":"京都府","city":"京都市右京区","street":"京北弓槻町"},{"zipCode":"6011432","prefectureKana":"ｷｮｳﾄﾌ","cityKana":"ｷｮｳﾄｼﾌｼﾐｸ","streetKana":"ｲｼﾀﾞｳﾁｻﾄﾁｮｳ","prefecture":"京都府","city":"京都市伏見区","street":"石田内里町"},{"zipCode":"6011431","prefectureKana":"ｷｮｳﾄﾌ","cityKana":"ｷｮｳﾄｼﾌｼﾐｸ","streetKana":"ｲｼﾀﾞｵｵｳｹﾁｮｳ","prefecture":"京都府","city":"京都市伏見区","street":"石田大受町"},{"zipCode":"6011433","prefectureKana":"ｷｮｳﾄﾌ","cityKana":"ｷｮｳﾄｼﾌｼﾐｸ","streetKana":"ｲｼﾀﾞｵｵﾔﾏﾁｮｳ","prefecture":"京都府","city":"京都市伏見区","street":"石田大山町"},{"zipCode":"6011438","prefectureKana":"ｷｮｳﾄﾌ","cityKana":"ｷｮｳﾄｼﾌｼﾐｸ","streetKana":"ｲｼﾀﾞｶﾜﾑｶｲ","prefecture":"京都府","city":"京都市伏見区","street":"石田川向"},{"zipCode":"6011435","prefectureKana":"ｷｮｳﾄﾌ","cityKana":"ｷｮｳﾄｼﾌｼﾐｸ","streetKana":"ｲｼﾀﾞｻｸﾗｷﾞ","prefecture":"京都府","city":"京都市伏見区","street":"石田桜木"},{"zipCode":"6011436","prefectureKana":"ｷｮｳﾄﾌ","cityKana":"ｷｮｳﾄｼﾌｼﾐｸ","streetKana":"ｲｼﾀﾞﾆｼﾉﾂﾎﾞ","prefecture":"京都府","city":"京都市伏見区","street":"石田西ノ坪"},{"zipCode":"6011437","prefectureKana":"ｷｮｳﾄﾌ","cityKana":"ｷｮｳﾄｼﾌｼﾐｸ","streetKana":"ｲｼﾀﾞﾓﾘﾆｼ","prefecture":"京都府","city":"京都市伏見区","street":"石田森西"},{"zipCode":"6011439","prefectureKana":"ｷｮｳﾄﾌ","cityKana":"ｷｮｳﾄｼﾌｼﾐｸ","streetKana":"ｲｼﾀﾞﾓﾘﾋｶﾞｼﾁｮｳ","prefecture":"京都府","city":"京都市伏見区","street":"石田森東町"},{"zipCode":"6011434","prefectureKana":"ｷｮｳﾄﾌ","cityKana":"ｷｮｳﾄｼﾌｼﾐｸ","streetKana":"ｲｼﾀﾞﾓﾘﾐﾅﾐﾁｮｳ","prefecture":"京都府","city":"京都市伏見区","street":"石田森南町"},{"zipCode":"6011464","prefectureKana":"ｷｮｳﾄﾌ","cityKana":"ｷｮｳﾄｼﾌｼﾐｸ","streetKana":"ｵｸﾞﾘｽｲｼｶﾜﾁｮｳ","prefecture":"京都府","city":"京都市伏見区","street":"小栗栖石川町"},{"zipCode":"6011443","prefectureKana":"ｷｮｳﾄﾌ","cityKana":"ｷｮｳﾄｼﾌｼﾐｸ","streetKana":"ｵｸﾞﾘｽｲﾜｶﾞﾌﾁﾁｮｳ","prefecture":"京都府","city":"京都市伏見区","street":"小栗栖岩ケ淵町"},{"zipCode":"6011444","prefectureKana":"ｷｮｳﾄﾌ","cityKana":"ｷｮｳﾄｼﾌｼﾐｸ","streetKana":"ｵｸﾞﾘｽｳｼｶﾞﾌﾁﾁｮｳ","prefecture":"京都府","city":"京都市伏見区","street":"小栗栖牛ケ淵町"},{"zipCode":"6011446","prefectureKana":"ｷｮｳﾄﾌ","cityKana":"ｷｮｳﾄｼﾌｼﾐｸ","streetKana":"ｵｸﾞﾘｽｷﾀｺﾞﾄｳﾁｮｳ","prefecture":"京都府","city":"京都市伏見区","street":"小栗栖北後藤町"},{"zipCode":"6011441","prefectureKana":"ｷｮｳﾄﾌ","cityKana":"ｷｮｳﾄｼﾌｼﾐｸ","streetKana":"ｵｸﾞﾘｽｷﾀﾀﾞﾆﾁｮｳ","prefecture":"京都府","city":"京都市伏見区","street":"小栗栖北谷町"},{"zipCode":"6011455","prefectureKana":"ｷｮｳﾄﾌ","cityKana":"ｷｮｳﾄｼﾌｼﾐｸ","streetKana":"ｵｸﾞﾘｽｺｻｶﾁｮｳ","prefecture":"京都府","city":"京都市伏見区","street":"小栗栖小阪町"},{"zipCode":"6011463","prefectureKana":"ｷｮｳﾄﾌ","cityKana":"ｷｮｳﾄｼﾌｼﾐｸ","streetKana":"ｵｸﾞﾘｽﾅｶﾔﾏﾀﾞﾁｮｳ","prefecture":"京都府","city":"京都市伏見区","street":"小栗栖中山田町"},{"zipCode":"6011453","prefectureKana":"ｷｮｳﾄﾌ","cityKana":"ｷｮｳﾄｼﾌｼﾐｸ","streetKana":"ｵｸﾞﾘｽﾆｼﾀﾞﾆﾁｮｳ","prefecture":"京都府","city":"京都市伏見区","street":"小栗栖西谷町"},{"zipCode":"6011452","prefectureKana":"ｷｮｳﾄﾌ","cityKana":"ｷｮｳﾄｼﾌｼﾐｸ","streetKana":"ｵｸﾞﾘｽﾆｼﾉﾐﾈ","prefecture":"京都府","city":"京都市伏見区","street":"小栗栖西ノ峯"},{"zipCode":"6011451","prefectureKana":"ｷｮｳﾄﾌ","cityKana":"ｷｮｳﾄｼﾌｼﾐｸ","streetKana":"ｵｸﾞﾘｽﾊﾁﾌｾ","prefecture":"京都府","city":"京都市伏見区","street":"小栗栖鉢伏"},{"zipCode":"6011442","prefectureKana":"ｷｮｳﾄﾌ","cityKana":"ｷｮｳﾄｼﾌｼﾐｸ","streetKana":"ｵｸﾞﾘｽﾏﾙﾔﾏ","prefecture":"京都府","city":"京都市伏見区","street":"小栗栖丸山"},{"zipCode":"6011456","prefectureKana":"ｷｮｳﾄﾌ","cityKana":"ｷｮｳﾄｼﾌｼﾐｸ","streetKana":"ｵｸﾞﾘｽﾐﾅﾐｺﾞﾄｳﾁｮｳ","prefecture":"京都府","city":"京都市伏見区","street":"小栗栖南後藤町"},{"zipCode":"6011461","prefectureKana":"ｷｮｳﾄﾌ","cityKana":"ｷｮｳﾄｼﾌｼﾐｸ","streetKana":"ｵｸﾞﾘｽﾐﾔﾔﾏ","prefecture":"京都府","city":"京都市伏見区","street":"小栗栖宮山"},{"zipCode":"6011445","prefectureKana":"ｷｮｳﾄﾌ","cityKana":"ｷｮｳﾄｼﾌｼﾐｸ","streetKana":"ｵｸﾞﾘｽﾓﾘｶﾞﾌﾁﾁｮｳ","prefecture":"京都府","city":"京都市伏見区","street":"小栗栖森ケ淵町"},{"zipCode":"6011462","prefectureKana":"ｷｮｳﾄﾌ","cityKana":"ｷｮｳﾄｼﾌｼﾐｸ","streetKana":"ｵｸﾞﾘｽﾓﾘﾓﾄﾁｮｳ","prefecture":"京都府","city":"京都市伏見区","street":"小栗栖森本町"},{"zipCode":"6011454","prefectureKana":"ｷｮｳﾄﾌ","cityKana":"ｷｮｳﾄｼﾌｼﾐｸ","streetKana":"ｵｸﾞﾘｽﾔﾏｸﾞﾁﾁｮｳ","prefecture":"京都府","city":"京都市伏見区","street":"小栗栖山口町"},{"zipCode":"6011347","prefectureKana":"ｷｮｳﾄﾌ","cityKana":"ｷｮｳﾄｼﾌｼﾐｸ","streetKana":"ﾀﾞｲｺﾞｱｲﾊﾞﾁｮｳ","prefecture":"京都府","city":"京都市伏見区","street":"醍醐合場町"},{"zipCode":"6011323","prefectureKana":"ｷｮｳﾄﾌ","cityKana":"ｷｮｳﾄｼﾌｼﾐｸ","streetKana":"ﾀﾞｲｺﾞｱｶﾏﾐﾅﾐｳﾗﾁｮｳ","prefecture":"京都府","city":"京都市伏見区","street":"醍醐赤間南裏町"},{"zipCode":"6011362","prefectureKana":"ｷｮｳﾄﾌ","cityKana":"ｷｮｳﾄｼﾌｼﾐｸ","streetKana":"ﾀﾞｲｺﾞｲｹﾀﾞﾁｮｳ","prefecture":"京都府","city":"京都市伏見区","street":"醍醐池田町"},{"zipCode":"6011351","prefectureKana":"ｷｮｳﾄﾌ","cityKana":"ｷｮｳﾄｼﾌｼﾐｸ","streetKana":"ﾀﾞｲｺﾞｲｽﾞﾐﾁｮｳ","prefecture":"京都府","city":"京都市伏見区","street":"醍醐和泉町"},{"zipCode":"6011335","prefectureKana":"ｷｮｳﾄﾌ","cityKana":"ｷｮｳﾄｼﾌｼﾐｸ","streetKana":"ﾀﾞｲｺﾞｲﾁｺﾞﾝｼﾞｳﾗﾁｮｳ","prefecture":"京都府","city":"京都市伏見区","street":"醍醐一言寺裏町"},{"zipCode":"6011387","prefectureKana":"ｷｮｳﾄﾌ","cityKana":"ｷｮｳﾄｼﾌｼﾐｸ","streetKana":"ﾀﾞｲｺﾞｲﾁﾉｷﾘﾁｮｳ","prefecture":"京都府","city":"京都市伏見区","street":"醍醐一ノ切町"},{"zipCode":"6011371","prefectureKana":"ｷｮｳﾄﾌ","cityKana":"ｷｮｳﾄｼﾌｼﾐｸ","streetKana":"ﾀﾞｲｺﾞｳｴﾉﾔﾏﾁｮｳ","prefecture":"京都府","city":"京都市伏見区","street":"醍醐上ノ山町"},{"zipCode":"6011302","prefectureKana":"ｷｮｳﾄﾌ","cityKana":"ｷｮｳﾄｼﾌｼﾐｸ","streetKana":"ﾀﾞｲｺﾞｳﾁｶﾞｲﾄﾞ","prefecture":"京都府","city":"京都市伏見区","street":"醍醐内ケ井戸"},{"zipCode":"6011364","prefectureKana":"ｷｮｳﾄﾌ","cityKana":"ｷｮｳﾄｼﾌｼﾐｸ","streetKana":"ﾀﾞｲｺﾞｴﾅｼﾁｮｳ","prefecture":"京都府","city":"京都市伏見区","street":"醍醐江奈志町"},{"zipCode":"6011366","prefectureKana":"ｷｮｳﾄﾌ","cityKana":"ｷｮｳﾄｼﾌｼﾐｸ","streetKana":"ﾀﾞｲｺﾞｵｵｶﾏｴﾁｮｳ","prefecture":"京都府","city":"京都市伏見区","street":"醍醐大構町"},{"zipCode":"6011311","prefectureKana":"ｷｮｳﾄﾌ","cityKana":"ｷｮｳﾄｼﾌｼﾐｸ","streetKana":"ﾀﾞｲｺﾞｵｵﾀｶﾁｮｳ","prefecture":"京都府","city":"京都市伏見区","street":"醍醐大高町"},{"zipCode":"6011303","prefectureKana":"ｷｮｳﾄﾌ","cityKana":"ｷｮｳﾄｼﾌｼﾐｸ","streetKana":"ﾀﾞｲｺﾞｵｵﾊﾀﾁｮｳ","prefecture":"京都府","city":"京都市伏見区","street":"醍醐大畑町"},{"zipCode":"6011338","prefectureKana":"ｷｮｳﾄﾌ","cityKana":"ｷｮｳﾄｼﾌｼﾐｸ","streetKana":"ﾀﾞｲｺﾞｵﾁﾎﾞﾁｮｳ","prefecture":"京都府","city":"京都市伏見区","street":"醍醐落保町"},{"zipCode":"6011376","prefectureKana":"ｷｮｳﾄﾌ","cityKana":"ｷｮｳﾄｼﾌｼﾐｸ","streetKana":"ﾀﾞｲｺﾞｵﾘﾄﾞﾁｮｳ","prefecture":"京都府","city":"京都市伏見区","street":"醍醐折戸町"},{"zipCode":"6011363","prefectureKana":"ｷｮｳﾄﾌ","cityKana":"ｷｮｳﾄｼﾌｼﾐｸ","streetKana":"ﾀﾞｲｺﾞｶｷﾞｵﾁｮｳ","prefecture":"京都府","city":"京都市伏見区","street":"醍醐鍵尾町"},{"zipCode":"6011305","prefectureKana":"ｷｮｳﾄﾌ","cityKana":"ｷｮｳﾄｼﾌｼﾐｸ","streetKana":"ﾀﾞｲｺﾞｶｷﾊﾗﾁｮｳ","prefecture":"京都府","city":"京都市伏見区","street":"醍醐柿原町"},{"zipCode":"6011336","prefectureKana":"ｷｮｳﾄﾌ","cityKana":"ｷｮｳﾄｼﾌｼﾐｸ","streetKana":"ﾀﾞｲｺﾞｶｼﾜﾓﾘﾁｮｳ","prefecture":"京都府","city":"京都市伏見区","street":"醍醐柏森町"},{"zipCode":"6011312","prefectureKana":"ｷｮｳﾄﾌ","cityKana":"ｷｮｳﾄｼﾌｼﾐｸ","streetKana":"ﾀﾞｲｺﾞｶﾀﾔﾏﾁｮｳ","prefecture":"京都府","city":"京都市伏見区","street":"醍醐片山町"},{"zipCode":"6011354","prefectureKana":"ｷｮｳﾄﾌ","cityKana":"ｷｮｳﾄｼﾌｼﾐｸ","streetKana":"ﾀﾞｲｺﾞｶﾏｴｸﾞﾁﾁｮｳ","prefecture":"京都府","city":"京都市伏見区","street":"醍醐構口町"},{"zipCode":"6011333","prefectureKana":"ｷｮｳﾄﾌ","cityKana":"ｷｮｳﾄｼﾌｼﾐｸ","streetKana":"ﾀﾞｲｺﾞｶﾐﾊﾔﾏﾁｮｳ","prefecture":"京都府","city":"京都市伏見区","street":"醍醐上端山町"},{"zipCode":"6011342","prefectureKana":"ｷｮｳﾄﾌ","cityKana":"ｷｮｳﾄｼﾌｼﾐｸ","streetKana":"ﾀﾞｲｺﾞｶﾐﾔﾏｸﾞﾁﾁｮｳ","prefecture":"京都府","city":"京都市伏見区","street":"醍醐上山口町"},{"zipCode":"6011301","prefectureKana":"ｷｮｳﾄﾌ","cityKana":"ｷｮｳﾄｼﾌｼﾐｸ","streetKana":"ﾀﾞｲｺﾞｶﾐﾔﾏﾀﾞ","prefecture":"京都府","city":"京都市伏見区","street":"醍醐上山田"},{"zipCode":"6011315","prefectureKana":"ｷｮｳﾄﾌ","cityKana":"ｷｮｳﾄｼﾌｼﾐｸ","streetKana":"ﾀﾞｲｺﾞｶﾗｽﾊﾞｼﾁｮｳ","prefecture":"京都府","city":"京都市伏見区","street":"醍醐烏橋町"},{"zipCode":"6011324","prefectureKana":"ｷｮｳﾄﾌ","cityKana":"ｷｮｳﾄｼﾌｼﾐｸ","streetKana":"ﾀﾞｲｺﾞｶﾞﾗﾝﾁｮｳ","prefecture":"京都府","city":"京都市伏見区","street":"醍醐伽藍町"},{"zipCode":"6011378","prefectureKana":"ｷｮｳﾄﾌ","cityKana":"ｷｮｳﾄｼﾌｼﾐｸ","streetKana":"ﾀﾞｲｺﾞｶﾜｸﾎﾞﾁｮｳ","prefecture":"京都府","city":"京都市伏見区","street":"醍醐川久保町"},{"zipCode":"6011341","prefectureKana":"ｷｮｳﾄﾌ","cityKana":"ｷｮｳﾄｼﾌｼﾐｸ","streetKana":"ﾀﾞｲｺﾞｷｼﾉｳｴﾁｮｳ","prefecture":"京都府","city":"京都市伏見区","street":"醍醐岸ノ上町"},{"zipCode":"6011322","prefectureKana":"ｷｮｳﾄﾌ","cityKana":"ｷｮｳﾄｼﾌｼﾐｸ","streetKana":"ﾀﾞｲｺﾞｷﾀｶﾞﾗﾝﾁｮｳ","prefecture":"京都府","city":"京都市伏見区","street":"醍醐北伽藍町"},{"zipCode":"6011381","prefectureKana":"ｷｮｳﾄﾌ","cityKana":"ｷｮｳﾄｼﾌｼﾐｸ","streetKana":"ﾀﾞｲｺﾞｷﾀﾀﾞﾆ","prefecture":"京都府","city":"京都市伏見区","street":"醍醐北谷"},{"zipCode":"6011377","prefectureKana":"ｷｮｳﾄﾌ","cityKana":"ｷｮｳﾄｼﾌｼﾐｸ","streetKana":"ﾀﾞｲｺﾞｷﾀﾆｼｳﾗﾁｮｳ","prefecture":"京都府","city":"京都市伏見区","street":"醍醐北西裏町"},{"zipCode":"6011321","prefectureKana":"ｷｮｳﾄﾌ","cityKana":"ｷｮｳﾄｼﾌｼﾐｸ","streetKana":"ﾀﾞｲｺﾞｷﾀﾊﾔﾏ","prefecture":"京都府","city":"京都市伏見区","street":"醍醐北端山"},{"zipCode":"6011317","prefectureKana":"ｷｮｳﾄﾌ","cityKana":"ｷｮｳﾄｼﾌｼﾐｸ","streetKana":"ﾀﾞｲｺﾞｷｮｳﾐﾁﾁｮｳ","prefecture":"京都府","city":"京都市伏見区","street":"醍醐京道町"},{"zipCode":"6011327","prefectureKana":"ｷｮｳﾄﾌ","cityKana":"ｷｮｳﾄｼﾌｼﾐｸ","streetKana":"ﾀﾞｲｺﾞｷﾚﾄﾞﾁｮｳ","prefecture":"京都府","city":"京都市伏見区","street":"醍醐切レ戸町"},{"zipCode":"6011308","prefectureKana":"ｷｮｳﾄﾌ","cityKana":"ｷｮｳﾄｼﾌｼﾐｸ","streetKana":"ﾀﾞｲｺﾞｺﾞｼｮﾉｳﾁ","prefecture":"京都府","city":"京都市伏見区","street":"醍醐御所ノ内"},{"zipCode":"6011361","prefectureKana":"ｷｮｳﾄﾌ","cityKana":"ｷｮｳﾄｼﾌｼﾐｸ","streetKana":"ﾀﾞｲｺﾞｺﾞﾘｮｳｶﾞｼﾀﾁｮｳ","prefecture":"京都府","city":"京都市伏見区","street":"醍醐御霊ケ下町"},{"zipCode":"6011314","prefectureKana":"ｷｮｳﾄﾌ","cityKana":"ｷｮｳﾄｼﾌｼﾐｸ","streetKana":"ﾀﾞｲｺﾞｺﾞﾘｮｳﾆｼｳﾗﾁｮｳ","prefecture":"京都府","city":"京都市伏見区","street":"醍醐御陵西裏町"},{"zipCode":"6011313","prefectureKana":"ｷｮｳﾄﾌ","cityKana":"ｷｮｳﾄｼﾌｼﾐｸ","streetKana":"ﾀﾞｲｺﾞｺﾞﾘｮｳﾋｶﾞｼｳﾗﾁｮｳ","prefecture":"京都府","city":"京都市伏見区","street":"醍醐御陵東裏町"},{"zipCode":"6011387","prefectureKana":"ｷｮｳﾄﾌ","cityKana":"ｷｮｳﾄｼﾌｼﾐｸ","streetKana":"ﾀﾞｲｺﾞｻﾝﾉｷﾘ","prefecture":"京都府","city":"京都市伏見区","street":"醍醐三ノ切"},{"zipCode":"6011332","prefectureKana":"ｷｮｳﾄﾌ","cityKana":"ｷｮｳﾄｼﾌｼﾐｸ","streetKana":"ﾀﾞｲｺﾞｼﾓﾊﾔﾏﾁｮｳ","prefecture":"京都府","city":"京都市伏見区","street":"醍醐下端山町"},{"zipCode":"6011343","prefectureKana":"ｷｮｳﾄﾌ","cityKana":"ｷｮｳﾄｼﾌｼﾐｸ","streetKana":"ﾀﾞｲｺﾞｼﾓﾔﾏｸﾞﾁﾁｮｳ","prefecture":"京都府","city":"京都市伏見区","street":"醍醐下山口町"},{"zipCode":"6011334","prefectureKana":"ｷｮｳﾄﾌ","cityKana":"ｷｮｳﾄｼﾌｼﾐｸ","streetKana":"ﾀﾞｲｺﾞｼｮｳｸﾁﾁｮｳ","prefecture":"京都府","city":"京都市伏見区","street":"醍醐勝口町"},{"zipCode":"6011365","prefectureKana":"ｷｮｳﾄﾌ","cityKana":"ｷｮｳﾄｼﾌｼﾐｸ","streetKana":"ﾀﾞｲｺﾞｼﾝｶｲ","prefecture":"京都府","city":"京都市伏見区","street":"醍醐新開"},{"zipCode":"6011326","prefectureKana":"ｷｮｳﾄﾌ","cityKana":"ｷｮｳﾄｼﾌｼﾐｸ","streetKana":"ﾀﾞｲｺﾞｼﾝﾏﾁｳﾗﾏﾁ","prefecture":"京都府","city":"京都市伏見区","street":"醍醐新町裏町"},{"zipCode":"6011345","prefectureKana":"ｷｮｳﾄﾌ","cityKana":"ｷｮｳﾄｼﾌｼﾐｸ","streetKana":"ﾀﾞｲｺﾞｿﾄﾔﾏｶｲﾄﾞｳﾁｮｳ","prefecture":"京都府","city":"京都市伏見区","street":"醍醐外山街道町"},{"zipCode":"6011383","prefectureKana":"ｷｮｳﾄﾌ","cityKana":"ｷｮｳﾄｼﾌｼﾐｸ","streetKana":"ﾀﾞｲｺﾞﾀﾞｲｺﾞﾔﾏ","prefecture":"京都府","city":"京都市伏見区","street":"醍醐醍醐山"},{"zipCode":"6011384","prefectureKana":"ｷｮｳﾄﾌ","cityKana":"ｷｮｳﾄｼﾌｼﾐｸ","streetKana":"ﾀﾞｲｺﾞﾀｶﾀﾞ","prefecture":"京都府","city":"京都市伏見区","street":"醍醐高田"},{"zipCode":"6011375","prefectureKana":"ｷｮｳﾄﾌ","cityKana":"ｷｮｳﾄｼﾌｼﾐｸ","streetKana":"ﾀﾞｲｺﾞﾀｶﾊﾀﾁｮｳ","prefecture":"京都府","city":"京都市伏見区","street":"醍醐高畑町"},{"zipCode":"6011355","prefectureKana":"ｷｮｳﾄﾌ","cityKana":"ｷｮｳﾄｼﾌｼﾐｸ","streetKana":"ﾀﾞｲｺﾞﾀｺﾝﾀﾞﾁｮｳ","prefecture":"京都府","city":"京都市伏見区","street":"醍醐多近田町"},{"zipCode":"6011344","prefectureKana":"ｷｮｳﾄﾌ","cityKana":"ｷｮｳﾄｼﾌｼﾐｸ","streetKana":"ﾀﾞｲｺﾞﾀﾂﾐﾁｮｳ","prefecture":"京都府","city":"京都市伏見区","street":"醍醐辰巳町"},{"zipCode":"6011386","prefectureKana":"ｷｮｳﾄﾌ","cityKana":"ｷｮｳﾄｼﾌｼﾐｸ","streetKana":"ﾀﾞｲｺﾞﾀﾞﾗﾀﾆ","prefecture":"京都府","city":"京都市伏見区","street":"醍醐陀羅谷"},{"zipCode":"6011357","prefectureKana":"ｷｮｳﾄﾌ","cityKana":"ｷｮｳﾄｼﾌｼﾐｸ","streetKana":"ﾀﾞｲｺﾞﾄﾞﾄﾞﾝﾎﾞｳﾁｮｳ","prefecture":"京都府","city":"京都市伏見区","street":"醍醐僧尊坊町"},{"zipCode":"6011373","prefectureKana":"ｷｮｳﾄﾌ","cityKana":"ｷｮｳﾄｼﾌｼﾐｸ","streetKana":"ﾀﾞｲｺﾞﾅｶﾔﾏﾁｮｳ","prefecture":"京都府","city":"京都市伏見区","street":"醍醐中山町"},{"zipCode":"6011374","prefectureKana":"ｷｮｳﾄﾌ","cityKana":"ｷｮｳﾄｼﾌｼﾐｸ","streetKana":"ﾀﾞｲｺﾞﾆｼｵｵｼﾞﾁｮｳ","prefecture":"京都府","city":"京都市伏見区","street":"醍醐西大路町"},{"zipCode":"6011387","prefectureKana":"ｷｮｳﾄﾌ","cityKana":"ｷｮｳﾄｼﾌｼﾐｸ","streetKana":"ﾀﾞｲｺﾞﾆﾉｷﾘﾁｮｳ","prefecture":"京都府","city":"京都市伏見区","street":"醍醐二ノ切町"},{"zipCode":"6011307","prefectureKana":"ｷｮｳﾄﾌ","cityKana":"ｷｮｳﾄｼﾌｼﾐｸ","streetKana":"ﾀﾞｲｺﾞﾊｻﾞﾏ","prefecture":"京都府","city":"京都市伏見区","street":"醍醐狭間"},{"zipCode":"6011346","prefectureKana":"ｷｮｳﾄﾌ","cityKana":"ｷｮｳﾄｼﾌｼﾐｸ","streetKana":"ﾀﾞｲｺﾞﾋｶﾞｼｱｲﾊﾞﾁｮｳ","prefecture":"京都府","city":"京都市伏見区","street":"醍醐東合場町"},{"zipCode":"6011325","prefectureKana":"ｷｮｳﾄﾌ","cityKana":"ｷｮｳﾄｼﾌｼﾐｸ","streetKana":"ﾀﾞｲｺﾞﾋｶﾞｼｵｵｼﾞﾁｮｳ","prefecture":"京都府","city":"京都市伏見区","street":"醍醐東大路町"},{"zipCode":"6011372","prefectureKana":"ｷｮｳﾄﾌ","cityKana":"ｷｮｳﾄｼﾌｼﾐｸ","streetKana":"ﾀﾞｲｺﾞﾋﾗﾏﾂﾁｮｳ","prefecture":"京都府","city":"京都市伏見区","street":"醍醐平松町"},{"zipCode":"6011316","prefectureKana":"ｷｮｳﾄﾌ","cityKana":"ｷｮｳﾄｼﾌｼﾐｸ","streetKana":"ﾀﾞｲｺﾞﾌﾙﾐﾁﾁｮｳ","prefecture":"京都府","city":"京都市伏見区","street":"醍醐古道町"},{"zipCode":"6011337","prefectureKana":"ｷｮｳﾄﾌ","cityKana":"ｷｮｳﾄｼﾌｼﾐｸ","streetKana":"ﾀﾞｲｺﾞﾏｷﾉｳﾁﾁｮｳ","prefecture":"京都府","city":"京都市伏見区","street":"醍醐槇ノ内町"},{"zipCode":"6011318","prefectureKana":"ｷｮｳﾄﾌ","cityKana":"ｷｮｳﾄｼﾌｼﾐｸ","streetKana":"ﾀﾞｲｺﾞﾏﾜﾘﾄﾞﾁｮｳ","prefecture":"京都府","city":"京都市伏見区","street":"醍醐廻り戸町"},{"zipCode":"6011353","prefectureKana":"ｷｮｳﾄﾌ","cityKana":"ｷｮｳﾄｼﾌｼﾐｸ","streetKana":"ﾀﾞｲｺﾞﾐｿﾉｵﾁｮｳ","prefecture":"京都府","city":"京都市伏見区","street":"醍醐御園尾町"},{"zipCode":"6011352","prefectureKana":"ｷｮｳﾄﾌ","cityKana":"ｷｮｳﾄｼﾌｼﾐｸ","streetKana":"ﾀﾞｲｺﾞﾐﾅﾐｻﾄﾁｮｳ","prefecture":"京都府","city":"京都市伏見区","street":"醍醐南里町"},{"zipCode":"6011382","prefectureKana":"ｷｮｳﾄﾌ","cityKana":"ｷｮｳﾄｼﾌｼﾐｸ","streetKana":"ﾀﾞｲｺﾞﾐﾅﾐﾀﾞﾆ","prefecture":"京都府","city":"京都市伏見区","street":"醍醐南谷"},{"zipCode":"6011356","prefectureKana":"ｷｮｳﾄﾌ","cityKana":"ｷｮｳﾄｼﾌｼﾐｸ","streetKana":"ﾀﾞｲｺﾞﾐﾅﾐﾆｼｳﾗﾁｮｳ","prefecture":"京都府","city":"京都市伏見区","street":"醍醐南西裏町"},{"zipCode":"6011331","prefectureKana":"ｷｮｳﾄﾌ","cityKana":"ｷｮｳﾄｼﾌｼﾐｸ","streetKana":"ﾀﾞｲｺﾞﾐﾅﾐﾊﾔﾏﾁｮｳ","prefecture":"京都府","city":"京都市伏見区","street":"醍醐南端山町"},{"zipCode":"6011385","prefectureKana":"ｷｮｳﾄﾌ","cityKana":"ｷｮｳﾄｼﾌｼﾐｸ","streetKana":"ﾀﾞｲｺﾞﾐﾔﾉｼﾀﾁｮｳ","prefecture":"京都府","city":"京都市伏見区","street":"醍醐宮ノ下町"},{"zipCode":"6011304","prefectureKana":"ｷｮｳﾄﾌ","cityKana":"ｷｮｳﾄｼﾌｼﾐｸ","streetKana":"ﾀﾞｲｺﾞﾔﾏｶﾞﾊﾅ","prefecture":"京都府","city":"京都市伏見区","street":"醍醐山ケ鼻"},{"zipCode":"6011306","prefectureKana":"ｷｮｳﾄﾌ","cityKana":"ｷｮｳﾄｼﾌｼﾐｸ","streetKana":"ﾀﾞｲｺﾞﾚﾝｿﾞｳ","prefecture":"京都府","city":"京都市伏見区","street":"醍醐連蔵"},{"zipCode":"6011416","prefectureKana":"ｷｮｳﾄﾌ","cityKana":"ｷｮｳﾄｼﾌｼﾐｸ","streetKana":"ﾋﾉｵｶﾆｼﾁｮｳ","prefecture":"京都府","city":"京都市伏見区","street":"日野岡西町"},{"zipCode":"6011414","prefectureKana":"ｷｮｳﾄﾌ","cityKana":"ｷｮｳﾄｼﾌｼﾐｸ","streetKana":"ﾋﾉｵｸﾃﾞ","prefecture":"京都府","city":"京都市伏見区","street":"日野奥出"},{"zipCode":"6011404","prefectureKana":"ｷｮｳﾄﾌ","cityKana":"ｷｮｳﾄｼﾌｼﾐｸ","streetKana":"ﾋﾉｷﾀｶﾜﾂﾞﾗ","prefecture":"京都府","city":"京都市伏見区","street":"日野北川頬"},{"zipCode":"6011401","prefectureKana":"ｷｮｳﾄﾌ","cityKana":"ｷｮｳﾄｼﾌｼﾐｸ","streetKana":"ﾋﾉｷﾀﾔﾏ","prefecture":"京都府","city":"京都市伏見区","street":"日野北山"},{"zipCode":"6011411","prefectureKana":"ｷｮｳﾄﾌ","cityKana":"ｷｮｳﾄｼﾌｼﾐｸ","streetKana":"ﾋﾉｼﾞﾋﾁｮｳ","prefecture":"京都府","city":"京都市伏見区","street":"日野慈悲町"},{"zipCode":"6011424","prefectureKana":"ｷｮｳﾄﾌ","cityKana":"ｷｮｳﾄｼﾌｼﾐｸ","streetKana":"ﾋﾉﾀﾂﾞﾗﾁｮｳ","prefecture":"京都府","city":"京都市伏見区","street":"日野田頬町"},{"zipCode":"6011425","prefectureKana":"ｷｮｳﾄﾌ","cityKana":"ｷｮｳﾄｼﾌｼﾐｸ","streetKana":"ﾋﾉﾀﾅｶﾁｮｳ","prefecture":"京都府","city":"京都市伏見区","street":"日野田中町"},{"zipCode":"6011413","prefectureKana":"ｷｮｳﾄﾌ","cityKana":"ｷｮｳﾄｼﾌｼﾐｸ","streetKana":"ﾋﾉﾀﾆﾀﾞﾁｮｳ","prefecture":"京都府","city":"京都市伏見区","street":"日野谷田町"},{"zipCode":"6011406","prefectureKana":"ｷｮｳﾄﾌ","cityKana":"ｷｮｳﾄｼﾌｼﾐｸ","streetKana":"ﾋﾉﾀﾆﾃﾞﾗﾁｮｳ","prefecture":"京都府","city":"京都市伏見区","street":"日野谷寺町"},{"zipCode":"6011426","prefectureKana":"ｷｮｳﾄﾌ","cityKana":"ｷｮｳﾄｼﾌｼﾐｸ","streetKana":"ﾋﾉﾆｼｶﾜﾂﾞﾗ","prefecture":"京都府","city":"京都市伏見区","street":"日野西川頬"},{"zipCode":"6011417","prefectureKana":"ｷｮｳﾄﾌ","cityKana":"ｷｮｳﾄｼﾌｼﾐｸ","streetKana":"ﾋﾉﾆｼﾀﾞｲﾄﾞｳﾁｮｳ","prefecture":"京都府","city":"京都市伏見区","street":"日野西大道町"},{"zipCode":"6011423","prefectureKana":"ｷｮｳﾄﾌ","cityKana":"ｷｮｳﾄｼﾌｼﾐｸ","streetKana":"ﾋﾉﾆｼﾌﾛﾁｮｳ","prefecture":"京都府","city":"京都市伏見区","street":"日野西風呂町"},{"zipCode":"6011415","prefectureKana":"ｷｮｳﾄﾌ","cityKana":"ｷｮｳﾄｼﾌｼﾐｸ","streetKana":"ﾋﾉﾉｲﾛﾁｮｳ","prefecture":"京都府","city":"京都市伏見区","street":"日野野色町"},{"zipCode":"6011412","prefectureKana":"ｷｮｳﾄﾌ","cityKana":"ｷｮｳﾄｼﾌｼﾐｸ","streetKana":"ﾋﾉﾊﾀﾃﾞﾁｮｳ","prefecture":"京都府","city":"京都市伏見区","street":"日野畑出町"},{"zipCode":"6011405","prefectureKana":"ｷｮｳﾄﾌ","cityKana":"ｷｮｳﾄｼﾌｼﾐｸ","streetKana":"ﾋﾉﾊﾔｼ","prefecture":"京都府","city":"京都市伏見区","street":"日野林"},{"zipCode":"6011421","prefectureKana":"ｷｮｳﾄﾌ","cityKana":"ｷｮｳﾄｼﾌｼﾐｸ","streetKana":"ﾋﾉﾊﾞﾝﾊﾞﾃﾁｮｳ","prefecture":"京都府","city":"京都市伏見区","street":"日野馬場出町"},{"zipCode":"6011422","prefectureKana":"ｷｮｳﾄﾌ","cityKana":"ｷｮｳﾄｼﾌｼﾐｸ","streetKana":"ﾋﾉﾌﾄﾞｳｺｳﾁｮｳ","prefecture":"京都府","city":"京都市伏見区","street":"日野不動講町"},{"zipCode":"6011403","prefectureKana":"ｷｮｳﾄﾌ","cityKana":"ｷｮｳﾄｼﾌｼﾐｸ","streetKana":"ﾋﾉﾌﾅｵ","prefecture":"京都府","city":"京都市伏見区","street":"日野船尾"},{"zipCode":"6011402","prefectureKana":"ｷｮｳﾄﾌ","cityKana":"ｷｮｳﾄｼﾌｼﾐｸ","streetKana":"ﾋﾉﾐﾅﾐﾔﾏ","prefecture":"京都府","city":"京都市伏見区","street":"日野南山"},{"zipCode":"6011394","prefectureKana":"ｷｮｳﾄﾌ","cityKana":"ｳｼﾞｼ","streetKana":"ｲｹﾉｵ","prefecture":"京都府","city":"宇治市","street":"池尾"},{"zipCode":"6011395","prefectureKana":"ｷｮｳﾄﾌ","cityKana":"ｳｼﾞｼ","streetKana":"ｽﾐﾔﾏ","prefecture":"京都府","city":"宇治市","street":"炭山"},{"zipCode":"6011396","prefectureKana":"ｷｮｳﾄﾌ","cityKana":"ｳｼﾞｼ","streetKana":"ﾄﾄﾞｳﾋｶﾞｼｶﾞｲﾄ","prefecture":"京都府","city":"宇治市","street":"莵道東垣内"},{"zipCode":"6011393","prefectureKana":"ｷｮｳﾄﾌ","cityKana":"ｳｼﾞｼ","streetKana":"ﾆｵ","prefecture":"京都府","city":"宇治市","street":"二尾"},{"zipCode":"6011392","prefectureKana":"ｷｮｳﾄﾌ","cityKana":"ｳｼﾞｼ","streetKana":"ﾆｼｶｻﾄﾘ","prefecture":"京都府","city":"宇治市","street":"西笠取"},{"zipCode":"6011391","prefectureKana":"ｷｮｳﾄﾌ","cityKana":"ｳｼﾞｼ","streetKana":"ﾋｶﾞｼｶｻﾄﾘ","prefecture":"京都府","city":"宇治市","street":"東笠取"},{"zipCode":"6010722","prefectureKana":"ｷｮｳﾄﾌ","cityKana":"ﾅﾝﾀﾝｼ","streetKana":"ﾐﾔﾏﾁｮｳｱｶﾞｹ","prefecture":"京都府","city":"南丹市","street":"美山町安掛"},{"zipCode":"6010703","prefectureKana":"ｷｮｳﾄﾌ","cityKana":"ﾅﾝﾀﾝｼ","streetKana":"ﾐﾔﾏﾁｮｳｱｼｳ","prefecture":"京都府","city":"南丹市","street":"美山町芦生"},{"zipCode":"6010723","prefectureKana":"ｷｮｳﾄﾌ","cityKana":"ﾅﾝﾀﾝｼ","streetKana":"ﾐﾔﾏﾁｮｳｱﾗｸﾗ","prefecture":"京都府","city":"南丹市","street":"美山町荒倉"},{"zipCode":"6010754","prefectureKana":"ｷｮｳﾄﾌ","cityKana":"ﾅﾝﾀﾝｼ","streetKana":"ﾐﾔﾏﾁｮｳｲｽﾞﾐ","prefecture":"京都府","city":"南丹市","street":"美山町和泉"},{"zipCode":"6010742","prefectureKana":"ｷｮｳﾄﾌ","cityKana":"ﾅﾝﾀﾝｼ","streetKana":"ﾐﾔﾏﾁｮｳｲﾀﾊｼ","prefecture":"京都府","city":"南丹市","street":"美山町板橋"},{"zipCode":"6010724","prefectureKana":"ｷｮｳﾄﾌ","cityKana":"ﾅﾝﾀﾝｼ","streetKana":"ﾐﾔﾏﾁｮｳｳﾁｸﾎﾞ","prefecture":"京都府","city":"南丹市","street":"美山町内久保"},{"zipCode":"6010701","prefectureKana":"ｷｮｳﾄﾌ","cityKana":"ﾅﾝﾀﾝｼ","streetKana":"ﾐﾔﾏﾁｮｳｴﾜ","prefecture":"京都府","city":"南丹市","street":"美山町江和"},{"zipCode":"6010772","prefectureKana":"ｷｮｳﾄﾌ","cityKana":"ﾅﾝﾀﾝｼ","streetKana":"ﾐﾔﾏﾁｮｳｵｵﾉ","prefecture":"京都府","city":"南丹市","street":"美山町大野"},{"zipCode":"6010778","prefectureKana":"ｷｮｳﾄﾌ","cityKana":"ﾅﾝﾀﾝｼ","streetKana":"ﾐﾔﾏﾁｮｳｵﾄﾐ","prefecture":"京都府","city":"南丹市","street":"美山町音海"},{"zipCode":"6010775","prefectureKana":"ｷｮｳﾄﾌ","cityKana":"ﾅﾝﾀﾝｼ","streetKana":"ﾐﾔﾏﾁｮｳｵﾌﾞﾁ","prefecture":"京都府","city":"南丹市","street":"美山町小渕"},{"zipCode":"6010777","prefectureKana":"ｷｮｳﾄﾌ","cityKana":"ﾅﾝﾀﾝｼ","streetKana":"ﾐﾔﾏﾁｮｳｶｼﾜﾗ","prefecture":"京都府","city":"南丹市","street":"美山町樫原"},{"zipCode":"6010721","prefectureKana":"ｷｮｳﾄﾌ","cityKana":"ﾅﾝﾀﾝｼ","streetKana":"ﾐﾔﾏﾁｮｳｶﾐﾋﾗﾔ","prefecture":"京都府","city":"南丹市","street":"美山町上平屋"},{"zipCode":"6010771","prefectureKana":"ｷｮｳﾄﾌ","cityKana":"ﾅﾝﾀﾝｼ","streetKana":"ﾐﾔﾏﾁｮｳｶﾔﾉ","prefecture":"京都府","city":"南丹市","street":"美山町萱野"},{"zipCode":"6010714","prefectureKana":"ｷｮｳﾄﾌ","cityKana":"ﾅﾝﾀﾝｼ","streetKana":"ﾐﾔﾏﾁｮｳｶﾜｳﾁﾀﾞﾆ","prefecture":"京都府","city":"南丹市","street":"美山町河内谷"},{"zipCode":"6010712","prefectureKana":"ｷｮｳﾄﾌ","cityKana":"ﾅﾝﾀﾝｼ","streetKana":"ﾐﾔﾏﾁｮｳｷﾀ","prefecture":"京都府","city":"南丹市","street":"美山町北"},{"zipCode":"6010705","prefectureKana":"ｷｮｳﾄﾌ","cityKana":"ﾅﾝﾀﾝｼ","streetKana":"ﾐﾔﾏﾁｮｳｻｻﾘ","prefecture":"京都府","city":"南丹市","street":"美山町佐々里"},{"zipCode":"6010755","prefectureKana":"ｷｮｳﾄﾌ","cityKana":"ﾅﾝﾀﾝｼ","streetKana":"ﾐﾔﾏﾁｮｳｼｽﾞﾊﾗ","prefecture":"京都府","city":"南丹市","street":"美山町静原"},{"zipCode":"6010751","prefectureKana":"ｷｮｳﾄﾌ","cityKana":"ﾅﾝﾀﾝｼ","streetKana":"ﾐﾔﾏﾁｮｳｼﾏ","prefecture":"京都府","city":"南丹市","street":"美山町島"},{"zipCode":"6010715","prefectureKana":"ｷｮｳﾄﾌ","cityKana":"ﾅﾝﾀﾝｼ","streetKana":"ﾐﾔﾏﾁｮｳｼﾓ","prefecture":"京都府","city":"南丹市","street":"美山町下"},{"zipCode":"6010732","prefectureKana":"ｷｮｳﾄﾌ","cityKana":"ﾅﾝﾀﾝｼ","streetKana":"ﾐﾔﾏﾁｮｳｼﾓﾋﾗﾔ","prefecture":"京都府","city":"南丹市","street":"美山町下平屋"},{"zipCode":"6010744","prefectureKana":"ｷｮｳﾄﾌ","cityKana":"ﾅﾝﾀﾝｼ","streetKana":"ﾐﾔﾏﾁｮｳｼﾓﾖｼﾀﾞ","prefecture":"京都府","city":"南丹市","street":"美山町下吉田"},{"zipCode":"6010753","prefectureKana":"ｷｮｳﾄﾌ","cityKana":"ﾅﾝﾀﾝｼ","streetKana":"ﾐﾔﾏﾁｮｳｼﾞｮｳｼ","prefecture":"京都府","city":"南丹市","street":"美山町上司"},{"zipCode":"6010704","prefectureKana":"ｷｮｳﾄﾌ","cityKana":"ﾅﾝﾀﾝｼ","streetKana":"ﾐﾔﾏﾁｮｳｼﾗｲｼ","prefecture":"京都府","city":"南丹市","street":"美山町白石"},{"zipCode":"6010702","prefectureKana":"ｷｮｳﾄﾌ","cityKana":"ﾅﾝﾀﾝｼ","streetKana":"ﾐﾔﾏﾁｮｳﾀｳﾀ","prefecture":"京都府","city":"南丹市","street":"美山町田歌"},{"zipCode":"6010761","prefectureKana":"ｷｮｳﾄﾌ","cityKana":"ﾅﾝﾀﾝｼ","streetKana":"ﾐﾔﾏﾁｮｳﾀｶﾉ","prefecture":"京都府","city":"南丹市","street":"美山町高野"},{"zipCode":"6010716","prefectureKana":"ｷｮｳﾄﾌ","cityKana":"ﾅﾝﾀﾝｼ","streetKana":"ﾐﾔﾏﾁｮｳﾁﾐ","prefecture":"京都府","city":"南丹市","street":"美山町知見"},{"zipCode":"6010762","prefectureKana":"ｷｮｳﾄﾌ","cityKana":"ﾅﾝﾀﾝｼ","streetKana":"ﾐﾔﾏﾁｮｳﾂﾙｶﾞｵｶ","prefecture":"京都府","city":"南丹市","street":"美山町鶴ケ岡"},{"zipCode":"6010763","prefectureKana":"ｷｮｳﾄﾌ","cityKana":"ﾅﾝﾀﾝｼ","streetKana":"ﾐﾔﾏﾁｮｳﾄﾖｻﾄ","prefecture":"京都府","city":"南丹市","street":"美山町豊郷"},{"zipCode":"6010713","prefectureKana":"ｷｮｳﾄﾌ","cityKana":"ﾅﾝﾀﾝｼ","streetKana":"ﾐﾔﾏﾁｮｳﾅｶ","prefecture":"京都府","city":"南丹市","street":"美山町中"},{"zipCode":"6010734","prefectureKana":"ｷｮｳﾄﾌ","cityKana":"ﾅﾝﾀﾝｼ","streetKana":"ﾐﾔﾏﾁｮｳﾅｶﾞｵ","prefecture":"京都府","city":"南丹市","street":"美山町長尾"},{"zipCode":"6010752","prefectureKana":"ｷｮｳﾄﾌ","cityKana":"ﾅﾝﾀﾝｼ","streetKana":"ﾐﾔﾏﾁｮｳﾅｶﾞﾀﾆ","prefecture":"京都府","city":"南丹市","street":"美山町長谷"},{"zipCode":"6010733","prefectureKana":"ｷｮｳﾄﾌ","cityKana":"ﾅﾝﾀﾝｼ","streetKana":"ﾐﾔﾏﾁｮｳﾉｿﾞｴ","prefecture":"京都府","city":"南丹市","street":"美山町野添"},{"zipCode":"6010741","prefectureKana":"ｷｮｳﾄﾌ","cityKana":"ﾅﾝﾀﾝｼ","streetKana":"ﾐﾔﾏﾁｮｳﾊﾗ","prefecture":"京都府","city":"南丹市","street":"美山町原"},{"zipCode":"6010774","prefectureKana":"ｷｮｳﾄﾌ","cityKana":"ﾅﾝﾀﾝｼ","streetKana":"ﾐﾔﾏﾁｮｳﾋｼﾞﾀﾆ","prefecture":"京都府","city":"南丹市","street":"美山町肱谷"},{"zipCode":"6010735","prefectureKana":"ｷｮｳﾄﾌ","cityKana":"ﾅﾝﾀﾝｼ","streetKana":"ﾐﾔﾏﾁｮｳﾌｶﾐ","prefecture":"京都府","city":"南丹市","street":"美山町深見"},{"zipCode":"6010765","prefectureKana":"ｷｮｳﾄﾌ","cityKana":"ﾅﾝﾀﾝｼ","streetKana":"ﾐﾔﾏﾁｮｳﾌｸｲ","prefecture":"京都府","city":"南丹市","street":"美山町福居"},{"zipCode":"6010731","prefectureKana":"ｷｮｳﾄﾌ","cityKana":"ﾅﾝﾀﾝｼ","streetKana":"ﾐﾔﾏﾁｮｳﾏﾀﾊﾞﾔｼ","prefecture":"京都府","city":"南丹市","street":"美山町又林"},{"zipCode":"6010773","prefectureKana":"ｷｮｳﾄﾌ","cityKana":"ﾅﾝﾀﾝｼ","streetKana":"ﾐﾔﾏﾁｮｳﾐﾂﾉ","prefecture":"京都府","city":"南丹市","street":"美山町三埜"},{"zipCode":"6010711","prefectureKana":"ｷｮｳﾄﾌ","cityKana":"ﾅﾝﾀﾝｼ","streetKana":"ﾐﾔﾏﾁｮｳﾐﾅﾐ","prefecture":"京都府","city":"南丹市","street":"美山町南"},{"zipCode":"6010743","prefectureKana":"ｷｮｳﾄﾌ","cityKana":"ﾅﾝﾀﾝｼ","streetKana":"ﾐﾔﾏﾁｮｳﾐﾔﾉﾜｷ","prefecture":"京都府","city":"南丹市","street":"美山町宮脇"},{"zipCode":"6010776","prefectureKana":"ｷｮｳﾄﾌ","cityKana":"ﾅﾝﾀﾝｼ","streetKana":"ﾐﾔﾏﾁｮｳﾑｶｲﾔﾏ","prefecture":"京都府","city":"南丹市","street":"美山町向山"},{"zipCode":"6010764","prefectureKana":"ｷｮｳﾄﾌ","cityKana":"ﾅﾝﾀﾝｼ","streetKana":"ﾐﾔﾏﾁｮｳﾓﾘｻﾄ","prefecture":"京都府","city":"南丹市","street":"美山町盛郷"}]