[{"zipCode":"6020000","prefectureKana":"ｷｮｳﾄﾌ","cityKana":"ｷｮｳﾄｼｶﾐｷﾞｮｳｸ","streetKana":"ｲｶﾆｹｲｻｲｶﾞﾅｲﾊﾞｱｲ","prefecture":"京都府","city":"京都市上京区","street":"以下に掲載がない場合"},{"zipCode":"6020827","prefectureKana":"ｷｮｳﾄﾌ","cityKana":"ｷｮｳﾄｼｶﾐｷﾞｮｳｸ","streetKana":"ｱｲｵｲﾁｮｳ","prefecture":"京都府","city":"京都市上京区","street":"相生町"},{"zipCode":"6028278","prefectureKana":"ｷｮｳﾄﾌ","cityKana":"ｷｮｳﾄｼｶﾐｷﾞｮｳｸ","streetKana":"ｱｲｾﾞﾝｼﾞﾁｮｳ","prefecture":"京都府","city":"京都市上京区","street":"愛染寺町"},{"zipCode":"6020054","prefectureKana":"ｷｮｳﾄﾌ","cityKana":"ｷｮｳﾄｼｶﾐｷﾞｮｳｸ","streetKana":"ｱｽｶｲﾁｮｳ","prefecture":"京都府","city":"京都市上京区","street":"飛鳥井町"},{"zipCode":"6020923","prefectureKana":"ｷｮｳﾄﾌ","cityKana":"ｷｮｳﾄｼｶﾐｷﾞｮｳｸ","streetKana":"ｱﾌﾞﾗﾊｼﾂﾞﾒﾁｮｳ","prefecture":"京都府","city":"京都市上京区","street":"油橋詰町"},{"zipCode":"6028165","prefectureKana":"ｷｮｳﾄﾌ","cityKana":"ｷｮｳﾄｼｶﾐｷﾞｮｳｸ","streetKana":"ｱﾏｶﾞｻｷﾖｺﾁｮｳ","prefecture":"京都府","city":"京都市上京区","street":"尼ケ崎横町"},{"zipCode":"6028424","prefectureKana":"ｷｮｳﾄﾌ","cityKana":"ｷｮｳﾄｼｶﾐｷﾞｮｳｸ","streetKana":"ｱﾐﾀﾞｼﾞﾁｮｳ","prefecture":"京都府","city":"京都市上京区","street":"阿弥陀寺町"},{"zipCode":"6020803","prefectureKana":"ｷｮｳﾄﾌ","cityKana":"ｷｮｳﾄｼｶﾐｷﾞｮｳｸ","streetKana":"ｱﾐﾀﾞｼﾞﾏｴﾁｮｳ","prefecture":"京都府","city":"京都市上京区","street":"阿弥陀寺前町"},{"zipCode":"6028074","prefectureKana":"ｷｮｳﾄﾌ","cityKana":"ｷｮｳﾄｼｶﾐｷﾞｮｳｸ","streetKana":"ｱﾘﾊﾙﾁｮｳ","prefecture":"京都府","city":"京都市上京区","street":"有春町"},{"zipCode":"6028472","prefectureKana":"ｷｮｳﾄﾌ","cityKana":"ｷｮｳﾄｼｶﾐｷﾞｮｳｸ","streetKana":"ｱﾘﾏﾁｮｳ","prefecture":"京都府","city":"京都市上京区","street":"有馬町"},{"zipCode":"6020064","prefectureKana":"ｷｮｳﾄﾌ","cityKana":"ｷｮｳﾄｼｶﾐｷﾞｮｳｸ","streetKana":"ｱﾝﾗｸｺｳｼﾞﾁｮｳ","prefecture":"京都府","city":"京都市上京区","street":"安楽小路町"},{"zipCode":"6028121","prefectureKana":"ｷｮｳﾄﾌ","cityKana":"ｷｮｳﾄｼｶﾐｷﾞｮｳｸ","streetKana":"ｲｴﾅｶﾞﾁｮｳ","prefecture":"京都府","city":"京都市上京区","street":"家永町"},{"zipCode":"6028407","prefectureKana":"ｷｮｳﾄﾌ","cityKana":"ｷｮｳﾄｼｶﾐｷﾞｮｳｸ","streetKana":"ｲｻﾁｮｳ","prefecture":"京都府","city":"京都市上京区","street":"伊佐町"},{"zipCode":"6028226","prefectureKana":"ｷｮｳﾄﾌ","cityKana":"ｷｮｳﾄｼｶﾐｷﾞｮｳｸ","streetKana":"ｲｼﾔｸｼﾁｮｳ","prefecture":"京都府","city":"京都市上京区","street":"石薬師町"},{"zipCode":"6028297","prefectureKana":"ｷｮｳﾄﾌ","cityKana":"ｷｮｳﾄｼｶﾐｷﾞｮｳｸ","streetKana":"ｲｾﾄﾞﾉｶﾏｴﾁｮｳ","prefecture":"京都府","city":"京都市上京区","street":"伊勢殿構町"},{"zipCode":"6020873","prefectureKana":"ｷｮｳﾄﾌ","cityKana":"ｷｮｳﾄｼｶﾐｷﾞｮｳｸ","streetKana":"ｲｾﾔﾁｮｳ","prefecture":"京都府","city":"京都市上京区","street":"伊勢屋町"},{"zipCode":"6028302","prefectureKana":"ｷｮｳﾄﾌ","cityKana":"ｷｮｳﾄｼｶﾐｷﾞｮｳｸ","streetKana":"ｲﾀﾞﾁｮｳ","prefecture":"京都府","city":"京都市上京区","street":"井田町"},{"zipCode":"6028335","prefectureKana":"ｷｮｳﾄﾌ","cityKana":"ｷｮｳﾄｼｶﾐｷﾞｮｳｸ","streetKana":"ｲﾁｶﾝﾉﾝﾁｮｳ","prefecture":"京都府","city":"京都市上京区","street":"一観音町"},{"zipCode":"6020934","prefectureKana":"ｷｮｳﾄﾌ","cityKana":"ｷｮｳﾄｼｶﾐｷﾞｮｳｸ","streetKana":"ｲﾁｼﾞｮｳﾃﾞﾝﾁｮｳ","prefecture":"京都府","city":"京都市上京区","street":"一条殿町"},{"zipCode":"6020944","prefectureKana":"ｷｮｳﾄﾌ","cityKana":"ｷｮｳﾄｼｶﾐｷﾞｮｳｸ","streetKana":"ｲﾁｼﾞｮｳﾖｺﾁｮｳ","prefecture":"京都府","city":"京都市上京区","street":"一条横町"},{"zipCode":"6028345","prefectureKana":"ｷｮｳﾄﾌ","cityKana":"ｷｮｳﾄｼｶﾐｷﾞｮｳｸ","streetKana":"ｲﾁﾊﾞﾝﾁｮｳ","prefecture":"京都府","city":"京都市上京区","street":"一番町"},{"zipCode":"6020905","prefectureKana":"ｷｮｳﾄﾌ","cityKana":"ｷｮｳﾄｼｶﾐｷﾞｮｳｸ","streetKana":"ｲﾁﾏﾂﾁｮｳ","prefecture":"京都府","city":"京都市上京区","street":"一松町"},{"zipCode":"6028471","prefectureKana":"ｷｮｳﾄﾌ","cityKana":"ｷｮｳﾄｼｶﾐｷﾞｮｳｸ","streetKana":"ｲｯｼｷﾁｮｳ","prefecture":"京都府","city":"京都市上京区","street":"一色町"},{"zipCode":"6020824","prefectureKana":"ｷｮｳﾄﾌ","cityKana":"ｷｮｳﾄｼｶﾐｷﾞｮｳｸ","streetKana":"ｲｯｼﾝﾁｮｳ","prefecture":"京都府","city":"京都市上京区","street":"一真町"},{"zipCode":"6028064","prefectureKana":"ｷｮｳﾄﾌ","cityKana":"ｷｮｳﾄｼｶﾐｷﾞｮｳｸ","streetKana":"ｲｯﾁｮｳﾒ","prefecture":"京都府","city":"京都市上京区","street":"一町目（上長者町通堀川東入、東堀川通上長者町上る、東堀川通中立売通下る）"},{"zipCode":"6028134","prefectureKana":"ｷｮｳﾄﾌ","cityKana":"ｷｮｳﾄｼｶﾐｷﾞｮｳｸ","streetKana":"ｲｯﾁｮｳﾒ","prefecture":"京都府","city":"京都市上京区","street":"一町目（大宮通椹木町下る、大宮通丸太町上る、椹木町通大宮西"},{"zipCode":"6028134","prefectureKana":"ｷｮｳﾄﾌ","cityKana":"ｷｮｳﾄｼｶﾐｷﾞｮｳｸ","streetKana":"ｲｯﾁｮｳﾒ","prefecture":"京都府","city":"京都市上京区","street":"入、丸太町通大宮東入）"},{"zipCode":"6028103","prefectureKana":"ｷｮｳﾄﾌ","cityKana":"ｷｮｳﾄｼｶﾐｷﾞｮｳｸ","streetKana":"ｲｯﾁｮｳﾒ(ﾏﾂﾔﾁｮｳﾄﾞｵﾘﾃﾞﾐｽﾞｻｶﾞﾙ､ﾏﾂﾔﾁｮｳﾄﾞｵﾘｼﾓﾀﾞﾁｳﾘｱｶﾞﾙ)","prefecture":"京都府","city":"京都市上京区","street":"一町目（松屋町通出水下る、松屋町通下立売上る）"},{"zipCode":"6028446","prefectureKana":"ｷｮｳﾄﾌ","cityKana":"ｷｮｳﾄｼｶﾐｷﾞｮｳｸ","streetKana":"ｲﾂﾂｼﾞﾁｮｳ","prefecture":"京都府","city":"京都市上京区","street":"五辻町"},{"zipCode":"6028238","prefectureKana":"ｷｮｳﾄﾌ","cityKana":"ｷｮｳﾄｼｶﾐｷﾞｮｳｸ","streetKana":"ｲﾄﾔﾁｮｳ","prefecture":"京都府","city":"京都市上京区","street":"糸屋町"},{"zipCode":"6028352","prefectureKana":"ｷｮｳﾄﾌ","cityKana":"ｷｮｳﾄｼｶﾐｷﾞｮｳｸ","streetKana":"ｲﾅﾊﾞﾁｮｳ","prefecture":"京都府","city":"京都市上京区","street":"稲葉町"},{"zipCode":"6028497","prefectureKana":"ｷｮｳﾄﾌ","cityKana":"ｷｮｳﾄｼｶﾐｷﾞｮｳｸ","streetKana":"ｲﾇｲﾁｮｳ","prefecture":"京都府","city":"京都市上京区","street":"戌亥町"},{"zipCode":"6028245","prefectureKana":"ｷｮｳﾄﾌ","cityKana":"ｷｮｳﾄｼｶﾐｷﾞｮｳｸ","streetKana":"ｲﾉｸﾏ","prefecture":"京都府","city":"京都市上京区","street":"猪熊"},{"zipCode":"6020066","prefectureKana":"ｷｮｳﾄﾌ","cityKana":"ｷｮｳﾄｼｶﾐｷﾞｮｳｸ","streetKana":"ｲﾊﾞﾁｮｳ","prefecture":"京都府","city":"京都市上京区","street":"射場町"},{"zipCode":"6028025","prefectureKana":"ｷｮｳﾄﾌ","cityKana":"ｷｮｳﾄｼｶﾐｷﾞｮｳｸ","streetKana":"ｲﾏｸｽﾘﾔﾁｮｳ","prefecture":"京都府","city":"京都市上京区","street":"今薬屋町"},{"zipCode":"6028292","prefectureKana":"ｷｮｳﾄﾌ","cityKana":"ｷｮｳﾄｼｶﾐｷﾞｮｳｸ","streetKana":"ｲﾏｼﾝｻﾞｲｹﾁｮｳ","prefecture":"京都府","city":"京都市上京区","street":"今新在家町"},{"zipCode":"6020906","prefectureKana":"ｷｮｳﾄﾌ","cityKana":"ｷｮｳﾄｼｶﾐｷﾞｮｳｸ","streetKana":"ｲﾏｽﾞｼﾁｮｳ","prefecture":"京都府","city":"京都市上京区","street":"今図子町"},{"zipCode":"6020033","prefectureKana":"ｷｮｳﾄﾌ","cityKana":"ｷｮｳﾄｼｶﾐｷﾞｮｳｸ","streetKana":"ｲﾏﾃﾞｶﾞﾜﾁｮｳ","prefecture":"京都府","city":"京都市上京区","street":"今出川町（烏丸通今出川上る、烏丸通今出川下る、今出川通烏丸西"},{"zipCode":"6020033","prefectureKana":"ｷｮｳﾄﾌ","cityKana":"ｷｮｳﾄｼｶﾐｷﾞｮｳｸ","streetKana":"ｲﾏﾃﾞｶﾞﾜﾁｮｳ","prefecture":"京都府","city":"京都市上京区","street":"入、今出川通室町東入）"},{"zipCode":"6028454","prefectureKana":"ｷｮｳﾄﾌ","cityKana":"ｷｮｳﾄｼｶﾐｷﾞｮｳｸ","streetKana":"ｲﾏﾃﾞｶﾞﾜﾁｮｳ","prefecture":"京都府","city":"京都市上京区","street":"今出川町（元誓願寺通浄福寺西入、元誓願寺通浄福寺東入、浄福寺通"},{"zipCode":"6028454","prefectureKana":"ｷｮｳﾄﾌ","cityKana":"ｷｮｳﾄｼｶﾐｷﾞｮｳｸ","streetKana":"ｲﾏﾃﾞｶﾞﾜﾁｮｳ","prefecture":"京都府","city":"京都市上京区","street":"元誓願寺上る、浄福寺通元誓願寺下る）"},{"zipCode":"6028104","prefectureKana":"ｷｮｳﾄﾌ","cityKana":"ｷｮｳﾄｼｶﾐｷﾞｮｳｸ","streetKana":"ｳｷﾀﾁｮｳ","prefecture":"京都府","city":"京都市上京区","street":"浮田町"},{"zipCode":"6020012","prefectureKana":"ｷｮｳﾄﾌ","cityKana":"ｷｮｳﾄｼｶﾐｷﾞｮｳｸ","streetKana":"ｳﾁｶﾞﾏｴﾁｮｳ","prefecture":"京都府","city":"京都市上京区","street":"内構町"},{"zipCode":"6020942","prefectureKana":"ｷｮｳﾄﾌ","cityKana":"ｷｮｳﾄｼｶﾐｷﾞｮｳｸ","streetKana":"ｳﾂﾎﾞﾔﾁｮｳ","prefecture":"京都府","city":"京都市上京区","street":"靭屋町"},{"zipCode":"6028477","prefectureKana":"ｷｮｳﾄﾌ","cityKana":"ｷｮｳﾄｼｶﾐｷﾞｮｳｸ","streetKana":"ｳﾊﾞｶﾞｴﾉｷﾁｮｳ","prefecture":"京都府","city":"京都市上京区","street":"姥ケ榎木町"},{"zipCode":"6028487","prefectureKana":"ｷｮｳﾄﾌ","cityKana":"ｷｮｳﾄｼｶﾐｷﾞｮｳｸ","streetKana":"ｳﾊﾞｶﾞｷﾀﾏﾁ","prefecture":"京都府","city":"京都市上京区","street":"姥ケ北町"},{"zipCode":"6028303","prefectureKana":"ｷｮｳﾄﾌ","cityKana":"ｷｮｳﾄｼｶﾐｷﾞｮｳｸ","streetKana":"ｳﾊﾞｶﾞﾃﾗﾉﾏｴﾁｮｳ","prefecture":"京都府","city":"京都市上京区","street":"姥ケ寺之前町"},{"zipCode":"6028485","prefectureKana":"ｷｮｳﾄﾌ","cityKana":"ｷｮｳﾄｼｶﾐｷﾞｮｳｸ","streetKana":"ｳﾊﾞｶﾞﾄｳｻﾞｲﾁｮｳ","prefecture":"京都府","city":"京都市上京区","street":"姥ケ東西町"},{"zipCode":"6028486","prefectureKana":"ｷｮｳﾄﾌ","cityKana":"ｷｮｳﾄｼｶﾐｷﾞｮｳｸ","streetKana":"ｳﾊﾞｶﾞﾆｼﾁｮｳ","prefecture":"京都府","city":"京都市上京区","street":"姥ケ西町"},{"zipCode":"6020902","prefectureKana":"ｷｮｳﾄﾌ","cityKana":"ｷｮｳﾄｼｶﾐｷﾞｮｳｸ","streetKana":"ｳﾒﾔﾁｮｳ","prefecture":"京都府","city":"京都市上京区","street":"梅屋町"},{"zipCode":"6020031","prefectureKana":"ｷｮｳﾄﾌ","cityKana":"ｷｮｳﾄｼｶﾐｷﾞｮｳｸ","streetKana":"ｳﾗﾂｷｼﾞﾁｮｳ","prefecture":"京都府","city":"京都市上京区","street":"裏築地町"},{"zipCode":"6020025","prefectureKana":"ｷｮｳﾄﾌ","cityKana":"ｷｮｳﾄｼｶﾐｷﾞｮｳｸ","streetKana":"ｳﾗﾌﾛﾁｮｳ","prefecture":"京都府","city":"京都市上京区","street":"裏風呂町"},{"zipCode":"6028251","prefectureKana":"ｷｮｳﾄﾌ","cityKana":"ｷｮｳﾄｼｶﾐｷﾞｮｳｸ","streetKana":"ｴﾉｷﾁｮｳ","prefecture":"京都府","city":"京都市上京区","street":"榎町"},{"zipCode":"6028032","prefectureKana":"ｷｮｳﾄﾌ","cityKana":"ｷｮｳﾄｼｶﾐｷﾞｮｳｸ","streetKana":"ｴﾋﾞｽｶﾞﾜﾁｮｳ","prefecture":"京都府","city":"京都市上京区","street":"夷川町"},{"zipCode":"6028484","prefectureKana":"ｷｮｳﾄﾌ","cityKana":"ｷｮｳﾄｼｶﾐｷﾞｮｳｸ","streetKana":"ｴﾋﾞｽﾁｮｳ(ｶﾐﾀﾞﾁｳﾘﾄﾞｵﾘｼﾞｮｳﾌｸｼﾞﾆｼｲﾙ､ｼﾞｮｳﾌｸｼﾞﾄﾞｵﾘｶﾐﾀﾞﾁｳﾘｻｶﾞﾙ)","prefecture":"京都府","city":"京都市上京区","street":"蛭子町（上立売通浄福寺西入、浄福寺通上立売下る）"},{"zipCode":"6028118","prefectureKana":"ｷｮｳﾄﾌ","cityKana":"ｷｮｳﾄｼｶﾐｷﾞｮｳｸ","streetKana":"ｴﾋﾞｽﾁｮｳ","prefecture":"京都府","city":"京都市上京区","street":"蛭子町（猪熊通出水上る、猪熊通下長者町下る、下長者町通"},{"zipCode":"6028118","prefectureKana":"ｷｮｳﾄﾌ","cityKana":"ｷｮｳﾄｼｶﾐｷﾞｮｳｸ","streetKana":"ｴﾋﾞｽﾁｮｳ","prefecture":"京都府","city":"京都市上京区","street":"猪熊西入、下長者町通猪熊東入、出水通猪熊西入、出水通猪熊東入）"},{"zipCode":"6028307","prefectureKana":"ｷｮｳﾄﾌ","cityKana":"ｷｮｳﾄｼｶﾐｷﾞｮｳｸ","streetKana":"ｴﾝﾏﾏｴﾁｮｳ","prefecture":"京都府","city":"京都市上京区","street":"閻魔前町"},{"zipCode":"6028318","prefectureKana":"ｷｮｳﾄﾌ","cityKana":"ｷｮｳﾄｼｶﾐｷﾞｮｳｸ","streetKana":"ｵｲﾏﾂﾁｮｳ","prefecture":"京都府","city":"京都市上京区","street":"老松町"},{"zipCode":"6028011","prefectureKana":"ｷｮｳﾄﾌ","cityKana":"ｷｮｳﾄｼｶﾐｷﾞｮｳｸ","streetKana":"ｵｳｶｸｴﾝﾁｮｳ","prefecture":"京都府","city":"京都市上京区","street":"桜鶴円町"},{"zipCode":"6020921","prefectureKana":"ｷｮｳﾄﾌ","cityKana":"ｷｮｳﾄｼｶﾐｷﾞｮｳｸ","streetKana":"ｵｳｷﾞﾁｮｳ","prefecture":"京都府","city":"京都市上京区","street":"正親町"},{"zipCode":"6020848","prefectureKana":"ｷｮｳﾄﾌ","cityKana":"ｷｮｳﾄｼｶﾐｷﾞｮｳｸ","streetKana":"ｵｳｷﾞﾁｮｳ","prefecture":"京都府","city":"京都市上京区","street":"扇町（寺町通今出川下る、寺町通石薬師上る、寺町通石薬師下"},{"zipCode":"6020848","prefectureKana":"ｷｮｳﾄﾌ","cityKana":"ｷｮｳﾄｼｶﾐｷﾞｮｳｸ","streetKana":"ｵｳｷﾞﾁｮｳ","prefecture":"京都府","city":"京都市上京区","street":"る、寺町通広小路上る、石薬師通寺町東入）"},{"zipCode":"6020071","prefectureKana":"ｷｮｳﾄﾌ","cityKana":"ｷｮｳﾄｼｶﾐｷﾞｮｳｸ","streetKana":"ｵｳｷﾞﾁｮｳ(ﾎﾘｶﾜﾄﾞｵﾘﾃﾗﾉｳﾁｱｶﾞﾙ､ﾎﾘｶﾜﾄﾞｵﾘｶﾐｺﾞﾘｮｳﾏｴｱｶﾞﾙ､ｶﾐｺﾞﾘｮｳﾏｴﾄﾞｵﾘﾎﾘｶﾜﾋｶﾞｼｲﾙ)","prefecture":"京都府","city":"京都市上京区","street":"扇町（堀川通寺之内上る、堀川通上御霊前上る、上御霊前通堀川東入）"},{"zipCode":"6028405","prefectureKana":"ｷｮｳﾄﾌ","cityKana":"ｷｮｳﾄｼｶﾐｷﾞｮｳｸ","streetKana":"ｵｵｲﾉｸﾏﾁｮｳ","prefecture":"京都府","city":"京都市上京区","street":"大猪熊町（寺之内通大宮西入、寺之内通智恵光院西入、寺之内通智"},{"zipCode":"6028405","prefectureKana":"ｷｮｳﾄﾌ","cityKana":"ｷｮｳﾄｼｶﾐｷﾞｮｳｸ","streetKana":"ｵｵｲﾉｸﾏﾁｮｳ","prefecture":"京都府","city":"京都市上京区","street":"恵光院東入、寺之内通大宮東入、智恵光院通寺之内下る）"},{"zipCode":"6020849","prefectureKana":"ｷｮｳﾄﾌ","cityKana":"ｷｮｳﾄｼｶﾐｷﾞｮｳｸ","streetKana":"ｵｵｲﾉｸﾏﾁｮｳ","prefecture":"京都府","city":"京都市上京区","street":"大猪熊町（中筋通石薬師上る、石薬師通河原町西入、石薬師通寺町"},{"zipCode":"6020849","prefectureKana":"ｷｮｳﾄﾌ","cityKana":"ｷｮｳﾄｼｶﾐｷﾞｮｳｸ","streetKana":"ｵｵｲﾉｸﾏﾁｮｳ","prefecture":"京都府","city":"京都市上京区","street":"東入、石薬師通中筋西入、石薬師通中筋東入）"},{"zipCode":"6028375","prefectureKana":"ｷｮｳﾄﾌ","cityKana":"ｷｮｳﾄｼｶﾐｷﾞｮｳｸ","streetKana":"ｵｵｶﾐﾉﾁｮｳ","prefecture":"京都府","city":"京都市上京区","street":"大上之町"},{"zipCode":"6028413","prefectureKana":"ｷｮｳﾄﾌ","cityKana":"ｷｮｳﾄｼｶﾐｷﾞｮｳｸ","streetKana":"ｵｵｷﾀｺｳｼﾞﾋｶﾞｼﾁｮｳ","prefecture":"京都府","city":"京都市上京区","street":"大北小路東町"},{"zipCode":"6020832","prefectureKana":"ｷｮｳﾄﾌ","cityKana":"ｷｮｳﾄｼｶﾐｷﾞｮｳｸ","streetKana":"ｵｵﾊﾗｸﾞﾁﾁｮｳ","prefecture":"京都府","city":"京都市上京区","street":"大原口町"},{"zipCode":"6020834","prefectureKana":"ｷｮｳﾄﾌ","cityKana":"ｷｮｳﾄｼｶﾐｷﾞｮｳｸ","streetKana":"ｵｵﾊﾗｸﾞﾁﾂｷﾇｹﾁｮｳ","prefecture":"京都府","city":"京都市上京区","street":"大原口突抜町"},{"zipCode":"6028376","prefectureKana":"ｷｮｳﾄﾌ","cityKana":"ｷｮｳﾄｼｶﾐｷﾞｮｳｸ","streetKana":"ｵｵﾋｶﾞｼﾁｮｳ","prefecture":"京都府","city":"京都市上京区","street":"大東町"},{"zipCode":"6020935","prefectureKana":"ｷｮｳﾄﾌ","cityKana":"ｷｮｳﾄｼｶﾐｷﾞｮｳｸ","streetKana":"ｵｵﾐﾈｽﾞｼﾁｮｳ","prefecture":"京都府","city":"京都市上京区","street":"大峰図子町"},{"zipCode":"6020847","prefectureKana":"ｷｮｳﾄﾌ","cityKana":"ｷｮｳﾄｼｶﾐｷﾞｮｳｸ","streetKana":"ｵｵﾐﾔﾁｮｳ","prefecture":"京都府","city":"京都市上京区","street":"大宮町（今出川通河原町西入、今出川通寺町東入、今出川通寺町東"},{"zipCode":"6020847","prefectureKana":"ｷｮｳﾄﾌ","cityKana":"ｷｮｳﾄｼｶﾐｷﾞｮｳｸ","streetKana":"ｵｵﾐﾔﾁｮｳ","prefecture":"京都府","city":"京都市上京区","street":"入下る、河原町通今出川下る、河原町通今出川下る西入、寺町通今出川下る東"},{"zipCode":"6020847","prefectureKana":"ｷｮｳﾄﾌ","cityKana":"ｷｮｳﾄｼｶﾐｷﾞｮｳｸ","streetKana":"ｵｵﾐﾔﾁｮｳ","prefecture":"京都府","city":"京都市上京区","street":"入、中筋通石薬師上る）"},{"zipCode":"6028363","prefectureKana":"ｷｮｳﾄﾌ","cityKana":"ｷｮｳﾄｼｶﾐｷﾞｮｳｸ","streetKana":"ｵｵﾐﾔﾁｮｳ","prefecture":"京都府","city":"京都市上京区","street":"大宮町（上の下立売通御前西入、上の下立売通御前西入上る、"},{"zipCode":"6028363","prefectureKana":"ｷｮｳﾄﾌ","cityKana":"ｷｮｳﾄｼｶﾐｷﾞｮｳｸ","streetKana":"ｵｵﾐﾔﾁｮｳ","prefecture":"京都府","city":"京都市上京区","street":"上の下立売通天神道東入、下立売通御前西入、下立売通御前西入上る）"},{"zipCode":"6020032","prefectureKana":"ｷｮｳﾄﾌ","cityKana":"ｷｮｳﾄｼｶﾐｷﾞｮｳｸ","streetKana":"ｵｶﾏﾂﾁｮｳ","prefecture":"京都府","city":"京都市上京区","street":"岡松町"},{"zipCode":"6020924","prefectureKana":"ｷｮｳﾄﾌ","cityKana":"ｷｮｳﾄｼｶﾐｷﾞｮｳｸ","streetKana":"ｵｶﾞﾜﾁｮｳ","prefecture":"京都府","city":"京都市上京区","street":"小川町"},{"zipCode":"6020825","prefectureKana":"ｷｮｳﾄﾌ","cityKana":"ｷｮｳﾄｼｶﾐｷﾞｮｳｸ","streetKana":"ｵﾓﾃﾁｮｳ","prefecture":"京都府","city":"京都市上京区","street":"表町"},{"zipCode":"6020946","prefectureKana":"ｷｮｳﾄﾌ","cityKana":"ｷｮｳﾄｼｶﾐｷﾞｮｳｸ","streetKana":"ｶｲｺｳｼﾞﾁｮｳ","prefecture":"京都府","city":"京都市上京区","street":"戒光寺町"},{"zipCode":"6028061","prefectureKana":"ｷｮｳﾄﾌ","cityKana":"ｷｮｳﾄｼｶﾐｷﾞｮｳｸ","streetKana":"ｶｲﾉｶﾐﾁｮｳ","prefecture":"京都府","city":"京都市上京区","street":"甲斐守町"},{"zipCode":"6028203","prefectureKana":"ｷｮｳﾄﾌ","cityKana":"ｷｮｳﾄｼｶﾐｷﾞｮｳｸ","streetKana":"ｶｶﾞﾐｲｼﾁｮｳ","prefecture":"京都府","city":"京都市上京区","street":"鏡石町"},{"zipCode":"6028281","prefectureKana":"ｷｮｳﾄﾌ","cityKana":"ｷｮｳﾄｼｶﾐｷﾞｮｳｸ","streetKana":"ｶｶﾞﾔﾁｮｳ","prefecture":"京都府","city":"京都市上京区","street":"加賀屋町"},{"zipCode":"6028014","prefectureKana":"ｷｮｳﾄﾌ","cityKana":"ｷｮｳﾄｼｶﾐｷﾞｮｳｸ","streetKana":"ｶｹﾞﾕｺｳｼﾞﾁｮｳ","prefecture":"京都府","city":"京都市上京区","street":"勘解由小路町"},{"zipCode":"6020841","prefectureKana":"ｷｮｳﾄﾌ","cityKana":"ｷｮｳﾄｼｶﾐｷﾞｮｳｸ","streetKana":"ｶｼﾞｲﾁｮｳ","prefecture":"京都府","city":"京都市上京区","street":"梶井町"},{"zipCode":"6020952","prefectureKana":"ｷｮｳﾄﾌ","cityKana":"ｷｮｳﾄｼｶﾐｷﾞｮｳｸ","streetKana":"ｶｼﾗﾁｮｳ(ｱﾌﾞﾗﾉｺｳｼﾞﾄﾞｵﾘﾓﾄｾｲｶﾞﾝｼﾞｻｶﾞﾙ､ﾓﾄｾｲｶﾞﾝｼﾞﾄﾞｵﾘｱﾌﾞﾗﾉｺｳｼﾞﾆｼｲﾙ)","prefecture":"京都府","city":"京都市上京区","street":"頭町（油小路通元誓願寺下る、元誓願寺通油小路西入）"},{"zipCode":"6028073","prefectureKana":"ｷｮｳﾄﾌ","cityKana":"ｷｮｳﾄｼｶﾐｷﾞｮｳｸ","streetKana":"ｶｼﾗﾁｮｳ","prefecture":"京都府","city":"京都市上京区","street":"頭町（上長者町通西洞院西入、西洞院通上長者町下る、西洞院通"},{"zipCode":"6028073","prefectureKana":"ｷｮｳﾄﾌ","cityKana":"ｷｮｳﾄｼｶﾐｷﾞｮｳｸ","streetKana":"ｶｼﾗﾁｮｳ","prefecture":"京都府","city":"京都市上京区","street":"下長者町上る、西洞院通中長者町上る、西洞院通中長者町下る）"},{"zipCode":"6028311","prefectureKana":"ｷｮｳﾄﾌ","cityKana":"ｷｮｳﾄｼｶﾐｷﾞｮｳｸ","streetKana":"ｶｼﾜｷﾖﾓﾘﾁｮｳ","prefecture":"京都府","city":"京都市上京区","street":"柏清盛町"},{"zipCode":"6028023","prefectureKana":"ｷｮｳﾄﾌ","cityKana":"ｷｮｳﾄｼｶﾐｷﾞｮｳｸ","streetKana":"ｶｽｶﾞﾁｮｳ","prefecture":"京都府","city":"京都市上京区","street":"春日町"},{"zipCode":"6028316","prefectureKana":"ｷｮｳﾄﾌ","cityKana":"ｷｮｳﾄｼｶﾐｷﾞｮｳｸ","streetKana":"ｶﾀﾊﾗﾁｮｳ","prefecture":"京都府","city":"京都市上京区","street":"片原町"},{"zipCode":"6020855","prefectureKana":"ｷｮｳﾄﾌ","cityKana":"ｷｮｳﾄｼｶﾐｷﾞｮｳｸ","streetKana":"ｶﾐｲｹｽﾁｮｳ","prefecture":"京都府","city":"京都市上京区","street":"上生洲町"},{"zipCode":"6020052","prefectureKana":"ｷｮｳﾄﾌ","cityKana":"ｷｮｳﾄｼｶﾐｷﾞｮｳｸ","streetKana":"ｶﾐｵｶﾞﾜﾁｮｳ","prefecture":"京都府","city":"京都市上京区","street":"上小川町"},{"zipCode":"6028033","prefectureKana":"ｷｮｳﾄﾌ","cityKana":"ｷｮｳﾄｼｶﾐｷﾞｮｳｸ","streetKana":"ｶﾐｶｼﾞﾁｮｳ","prefecture":"京都府","city":"京都市上京区","street":"上鍛冶町"},{"zipCode":"6020804","prefectureKana":"ｷｮｳﾄﾌ","cityKana":"ｷｮｳﾄｼｶﾐｷﾞｮｳｸ","streetKana":"ｶﾐｶﾀﾊﾗﾁｮｳ","prefecture":"京都府","city":"京都市上京区","street":"上片原町"},{"zipCode":"6020017","prefectureKana":"ｷｮｳﾄﾌ","cityKana":"ｷｮｳﾄｼｶﾐｷﾞｮｳｸ","streetKana":"ｶﾐｷﾉｼﾀﾁｮｳ","prefecture":"京都府","city":"京都市上京区","street":"上木下町"},{"zipCode":"6020896","prefectureKana":"ｷｮｳﾄﾌ","cityKana":"ｷｮｳﾄｼｶﾐｷﾞｮｳｸ","streetKana":"ｶﾐｺﾞﾘｮｳﾀﾃﾏﾁ","prefecture":"京都府","city":"京都市上京区","street":"上御霊竪町"},{"zipCode":"6020894","prefectureKana":"ｷｮｳﾄﾌ","cityKana":"ｷｮｳﾄｼｶﾐｷﾞｮｳｸ","streetKana":"ｶﾐｺﾞﾘｮｳﾅｶﾏﾁ","prefecture":"京都府","city":"京都市上京区","street":"上御霊中町"},{"zipCode":"6020891","prefectureKana":"ｷｮｳﾄﾌ","cityKana":"ｷｮｳﾄｼｶﾐｷﾞｮｳｸ","streetKana":"ｶﾐｺﾞﾘｮｳﾊﾞﾊﾞﾁｮｳ","prefecture":"京都府","city":"京都市上京区","street":"上御霊馬場町"},{"zipCode":"6020895","prefectureKana":"ｷｮｳﾄﾌ","cityKana":"ｷｮｳﾄｼｶﾐｷﾞｮｳｸ","streetKana":"ｶﾐｺﾞﾘｮｳﾏｴﾁｮｳ","prefecture":"京都府","city":"京都市上京区","street":"上御霊前町"},{"zipCode":"6020024","prefectureKana":"ｷｮｳﾄﾌ","cityKana":"ｷｮｳﾄｼｶﾐｷﾞｮｳｸ","streetKana":"ｶﾐﾀﾞﾁｳﾘﾁｮｳ","prefecture":"京都府","city":"京都市上京区","street":"上立売町"},{"zipCode":"6020022","prefectureKana":"ｷｮｳﾄﾌ","cityKana":"ｷｮｳﾄｼｶﾐｷﾞｮｳｸ","streetKana":"ｶﾐﾀﾞﾁｳﾘﾋｶﾞｼﾁｮｳ","prefecture":"京都府","city":"京都市上京区","street":"上立売東町"},{"zipCode":"6020082","prefectureKana":"ｷｮｳﾄﾌ","cityKana":"ｷｮｳﾄｼｶﾐｷﾞｮｳｸ","streetKana":"ｶﾐﾃﾝｼﾞﾝﾁｮｳ","prefecture":"京都府","city":"京都市上京区","street":"上天神町"},{"zipCode":"6020815","prefectureKana":"ｷｮｳﾄﾌ","cityKana":"ｷｮｳﾄｼｶﾐｷﾞｮｳｸ","streetKana":"ｶﾐﾄｳﾉﾀﾞﾝﾁｮｳ","prefecture":"京都府","city":"京都市上京区","street":"上塔之段町"},{"zipCode":"6020863","prefectureKana":"ｷｮｳﾄﾌ","cityKana":"ｷｮｳﾄｼｶﾐｷﾞｮｳｸ","streetKana":"ｶﾐﾉﾁｮｳ","prefecture":"京都府","city":"京都市上京区","street":"上之町"},{"zipCode":"6028141","prefectureKana":"ｷｮｳﾄﾌ","cityKana":"ｷｮｳﾄｼｶﾐｷﾞｮｳｸ","streetKana":"ｶﾐﾎﾘｶﾜﾁｮｳ","prefecture":"京都府","city":"京都市上京区","street":"上堀川町"},{"zipCode":"6020813","prefectureKana":"ｷｮｳﾄﾌ","cityKana":"ｷｮｳﾄｼｶﾐｷﾞｮｳｸ","streetKana":"ｶﾐﾐｺｼﾁｮｳ","prefecture":"京都府","city":"京都市上京区","street":"上神輿町"},{"zipCode":"6028384","prefectureKana":"ｷｮｳﾄﾌ","cityKana":"ｷｮｳﾄｼｶﾐｷﾞｮｳｸ","streetKana":"ｶﾐﾔｶﾞﾜﾁｮｳ","prefecture":"京都府","city":"京都市上京区","street":"紙屋川町"},{"zipCode":"6020013","prefectureKana":"ｷｮｳﾄﾌ","cityKana":"ｷｮｳﾄｼｶﾐｷﾞｮｳｸ","streetKana":"ｶﾐﾔﾅｷﾞﾊﾗﾁｮｳ","prefecture":"京都府","city":"京都市上京区","street":"上柳原町"},{"zipCode":"6028272","prefectureKana":"ｷｮｳﾄﾌ","cityKana":"ｷｮｳﾄｼｶﾐｷﾞｮｳｸ","streetKana":"ｶﾒｷﾁｮｳ","prefecture":"京都府","city":"京都市上京区","street":"亀木町"},{"zipCode":"6028062","prefectureKana":"ｷｮｳﾄﾌ","cityKana":"ｷｮｳﾄｼｶﾐｷﾞｮｳｸ","streetKana":"ｶﾒﾔﾁｮｳ","prefecture":"京都府","city":"京都市上京区","street":"亀屋町（油小路通上長者町下る、油小路通下長者町上る、油小路通"},{"zipCode":"6028062","prefectureKana":"ｷｮｳﾄﾌ","cityKana":"ｷｮｳﾄｼｶﾐｷﾞｮｳｸ","streetKana":"ｶﾒﾔﾁｮｳ","prefecture":"京都府","city":"京都市上京区","street":"中長者町上る、油小路通中長者町下る、上長者町通油小路西入、上長者町通油小"},{"zipCode":"6028062","prefectureKana":"ｷｮｳﾄﾌ","cityKana":"ｷｮｳﾄｼｶﾐｷﾞｮｳｸ","streetKana":"ｶﾒﾔﾁｮｳ","prefecture":"京都府","city":"京都市上京区","street":"路東入）"},{"zipCode":"6020854","prefectureKana":"ｷｮｳﾄﾌ","cityKana":"ｷｮｳﾄｼｶﾐｷﾞｮｳｸ","streetKana":"ｶﾒﾔﾁｮｳ(ｶﾜﾗﾏﾁﾄﾞｵﾘｺｳｼﾞﾝｸﾞﾁﾋｶﾞｼｲﾙ､ｺｳｼﾞﾝｸﾞﾁﾄﾞｵﾘｶﾜﾊﾗﾁｮｳﾋｶﾞｼｲﾙ)","prefecture":"京都府","city":"京都市上京区","street":"亀屋町（河原町通荒神口東入、荒神口通河原町東入）"},{"zipCode":"6028284","prefectureKana":"ｷｮｳﾄﾌ","cityKana":"ｷｮｳﾄｼｶﾐｷﾞｮｳｸ","streetKana":"ｶﾒﾔﾁｮｳ(ｾﾝﾎﾞﾝﾄﾞｵﾘﾅｶﾀﾞﾁｳﾘｱｶﾞﾙ､ｾﾝﾎﾞﾝﾄﾞｵﾘﾅｶﾀﾞﾁｳﾘｻｶﾞﾙ､ﾅｶﾀﾞﾁｳﾘﾄﾞｵﾘｾﾝﾎﾞﾝﾆｼｲﾙ)","prefecture":"京都府","city":"京都市上京区","street":"亀屋町（千本通中立売上る、千本通中立売下る、中立売通千本西入）"},{"zipCode":"6028119","prefectureKana":"ｷｮｳﾄﾌ","cityKana":"ｷｮｳﾄｼｶﾐｷﾞｮｳｸ","streetKana":"ｶﾒﾔﾁｮｳ","prefecture":"京都府","city":"京都市上京区","street":"亀屋町（葭屋町通下長者町下る、葭屋町通出水上る、下長者町通堀"},{"zipCode":"6028119","prefectureKana":"ｷｮｳﾄﾌ","cityKana":"ｷｮｳﾄｼｶﾐｷﾞｮｳｸ","streetKana":"ｶﾒﾔﾁｮｳ","prefecture":"京都府","city":"京都市上京区","street":"川西入、下長者町通葭屋町東入、下長者町通葭屋町西入、出水通葭屋町西入、出"},{"zipCode":"6028119","prefectureKana":"ｷｮｳﾄﾌ","cityKana":"ｷｮｳﾄｼｶﾐｷﾞｮｳｸ","streetKana":"ｶﾒﾔﾁｮｳ","prefecture":"京都府","city":"京都市上京区","street":"水通葭屋町東入、出水通堀川西入）"},{"zipCode":"6028332","prefectureKana":"ｷｮｳﾄﾌ","cityKana":"ｷｮｳﾄｼｶﾐｷﾞｮｳｸ","streetKana":"ｶﾗｽﾏﾁｮｳ","prefecture":"京都府","city":"京都市上京区","street":"烏丸町"},{"zipCode":"6028369","prefectureKana":"ｷｮｳﾄﾌ","cityKana":"ｷｮｳﾄｼｶﾐｷﾞｮｳｸ","streetKana":"ｶﾜｾﾁｮｳ","prefecture":"京都府","city":"京都市上京区","street":"川瀬町"},{"zipCode":"6020808","prefectureKana":"ｷｮｳﾄﾌ","cityKana":"ｷｮｳﾄｼｶﾐｷﾞｮｳｸ","streetKana":"ｶﾝｷｼﾞﾏｴﾁｮｳ","prefecture":"京都府","city":"京都市上京区","street":"歓喜寺前町"},{"zipCode":"6028492","prefectureKana":"ｷｮｳﾄﾌ","cityKana":"ｷｮｳﾄｼｶﾐｷﾞｮｳｸ","streetKana":"ｶﾝｷﾁｮｳ","prefecture":"京都府","city":"京都市上京区","street":"歓喜町"},{"zipCode":"6020903","prefectureKana":"ｷｮｳﾄﾌ","cityKana":"ｷｮｳﾄｼｶﾐｷﾞｮｳｸ","streetKana":"ｶﾝｻﾝﾀﾁﾊﾞﾅﾁｮｳ","prefecture":"京都府","city":"京都市上京区","street":"観三橘町"},{"zipCode":"6020008","prefectureKana":"ｷｮｳﾄﾌ","cityKana":"ｷｮｳﾄｼｶﾐｷﾞｮｳｸ","streetKana":"ｶﾞﾝｽｲﾝﾁｮｳ","prefecture":"京都府","city":"京都市上京区","street":"岩栖院町"},{"zipCode":"6028441","prefectureKana":"ｷｮｳﾄﾌ","cityKana":"ｷｮｳﾄｼｶﾐｷﾞｮｳｸ","streetKana":"ｶﾝｾﾞﾁｮｳ","prefecture":"京都府","city":"京都市上京区","street":"観世町"},{"zipCode":"6028385","prefectureKana":"ｷｮｳﾄﾌ","cityKana":"ｷｮｳﾄｼｶﾐｷﾞｮｳｸ","streetKana":"ｶﾝﾉﾝｼﾞﾓﾝｾﾞﾝﾁｮｳ","prefecture":"京都府","city":"京都市上京区","street":"観音寺門前町"},{"zipCode":"6028047","prefectureKana":"ｷｮｳﾄﾌ","cityKana":"ｷｮｳﾄｼｶﾐｷﾞｮｳｸ","streetKana":"ｶﾝﾍﾞｴﾁｮｳ","prefecture":"京都府","city":"京都市上京区","street":"勘兵衛町"},{"zipCode":"6028076","prefectureKana":"ｷｮｳﾄﾌ","cityKana":"ｷｮｳﾄｼｶﾐｷﾞｮｳｸ","streetKana":"ｷｸﾔﾁｮｳ","prefecture":"京都府","city":"京都市上京区","street":"菊屋町（西洞院通上長者町上る、西洞院通中立売下る、上長者町通"},{"zipCode":"6028076","prefectureKana":"ｷｮｳﾄﾌ","cityKana":"ｷｮｳﾄｼｶﾐｷﾞｮｳｸ","streetKana":"ｷｸﾔﾁｮｳ","prefecture":"京都府","city":"京都市上京区","street":"西洞院西入、上長者町通西洞院東入）"},{"zipCode":"6028244","prefectureKana":"ｷｮｳﾄﾌ","cityKana":"ｷｮｳﾄｼｶﾐｷﾞｮｳｸ","streetKana":"ｷｸﾔﾁｮｳ","prefecture":"京都府","city":"京都市上京区","street":"菊屋町（葭屋町通上長者町下る、葭屋町通下長者町上る、上長者町"},{"zipCode":"6028244","prefectureKana":"ｷｮｳﾄﾌ","cityKana":"ｷｮｳﾄｼｶﾐｷﾞｮｳｸ","streetKana":"ｷｸﾔﾁｮｳ","prefecture":"京都府","city":"京都市上京区","street":"通葭屋町西入、上長者町通葭屋町東入、下長者町通葭屋町西入、下長者町通葭屋"},{"zipCode":"6028244","prefectureKana":"ｷｮｳﾄﾌ","cityKana":"ｷｮｳﾄｼｶﾐｷﾞｮｳｸ","streetKana":"ｷｸﾔﾁｮｳ","prefecture":"京都府","city":"京都市上京区","street":"町東入、下長者町通堀川西入）"},{"zipCode":"6028296","prefectureKana":"ｷｮｳﾄﾌ","cityKana":"ｷｮｳﾄｼｶﾐｷﾞｮｳｸ","streetKana":"ｷﾀｲｾﾄﾞﾉｶﾏｴﾁｮｳ","prefecture":"京都府","city":"京都市上京区","street":"北伊勢殿構町"},{"zipCode":"6028152","prefectureKana":"ｷｮｳﾄﾌ","cityKana":"ｷｮｳﾄｼｶﾐｷﾞｮｳｸ","streetKana":"ｷﾀｲｾﾔﾁｮｳ","prefecture":"京都府","city":"京都市上京区","street":"北伊勢屋町"},{"zipCode":"6028432","prefectureKana":"ｷｮｳﾄﾌ","cityKana":"ｷｮｳﾄｼｶﾐｷﾞｮｳｸ","streetKana":"ｷﾀｲﾉｸﾏﾁｮｳ","prefecture":"京都府","city":"京都市上京区","street":"北猪熊町"},{"zipCode":"6028115","prefectureKana":"ｷｮｳﾄﾌ","cityKana":"ｷｮｳﾄｼｶﾐｷﾞｮｳｸ","streetKana":"ｷﾀｶﾆﾔﾁｮｳ","prefecture":"京都府","city":"京都市上京区","street":"北蟹屋町"},{"zipCode":"6020044","prefectureKana":"ｷｮｳﾄﾌ","cityKana":"ｷｮｳﾄｼｶﾐｷﾞｮｳｸ","streetKana":"ｷﾀｶﾈﾔｽﾁｮｳ","prefecture":"京都府","city":"京都市上京区","street":"北兼康町"},{"zipCode":"6028308","prefectureKana":"ｷｮｳﾄﾌ","cityKana":"ｷｮｳﾄｼｶﾐｷﾞｮｳｸ","streetKana":"ｷﾀｹﾞﾝﾊﾞﾁｮｳ","prefecture":"京都府","city":"京都市上京区","street":"北玄蕃町"},{"zipCode":"6028461","prefectureKana":"ｷｮｳﾄﾌ","cityKana":"ｷｮｳﾄｼｶﾐｷﾞｮｳｸ","streetKana":"ｷﾀｺｳｼﾞﾅｶﾉﾁｮｳ","prefecture":"京都府","city":"京都市上京区","street":"北小路中之町"},{"zipCode":"6020901","prefectureKana":"ｷｮｳﾄﾌ","cityKana":"ｷｮｳﾄｼｶﾐｷﾞｮｳｸ","streetKana":"ｷﾀｺｳｼﾞﾑﾛﾏﾁ","prefecture":"京都府","city":"京都市上京区","street":"北小路室町"},{"zipCode":"6028252","prefectureKana":"ｷｮｳﾄﾌ","cityKana":"ｷｮｳﾄｼｶﾐｷﾞｮｳｸ","streetKana":"ｷﾀｺﾀﾞｲﾓﾝﾁｮｳ","prefecture":"京都府","city":"京都市上京区","street":"北小大門町"},{"zipCode":"6028207","prefectureKana":"ｷｮｳﾄﾌ","cityKana":"ｷｮｳﾄｼｶﾐｷﾞｮｳｸ","streetKana":"ｷﾀｼﾝｻﾞｲｹﾁｮｳ","prefecture":"京都府","city":"京都市上京区","street":"北新在家町"},{"zipCode":"6028247","prefectureKana":"ｷｮｳﾄﾌ","cityKana":"ｷｮｳﾄｼｶﾐｷﾞｮｳｸ","streetKana":"ｷﾀﾀﾜﾗﾁｮｳ","prefecture":"京都府","city":"京都市上京区","street":"北俵町"},{"zipCode":"6020092","prefectureKana":"ｷｮｳﾄﾌ","cityKana":"ｷｮｳﾄｼｶﾐｷﾞｮｳｸ","streetKana":"ｷﾀﾅｶﾉﾁｮｳ","prefecture":"京都府","city":"京都市上京区","street":"北仲之町"},{"zipCode":"6028214","prefectureKana":"ｷｮｳﾄﾌ","cityKana":"ｷｮｳﾄｼｶﾐｷﾞｮｳｸ","streetKana":"ｷﾀﾉｺﾞﾓﾝﾁｮｳ","prefecture":"京都府","city":"京都市上京区","street":"北之御門町"},{"zipCode":"6020852","prefectureKana":"ｷｮｳﾄﾌ","cityKana":"ｷｮｳﾄｼｶﾐｷﾞｮｳｸ","streetKana":"ｷﾀﾉﾍﾞﾁｮｳ","prefecture":"京都府","city":"京都市上京区","street":"北之辺町"},{"zipCode":"6020056","prefectureKana":"ｷｮｳﾄﾌ","cityKana":"ｷｮｳﾄｼｶﾐｷﾞｮｳｸ","streetKana":"ｷﾀﾌﾅﾊｼﾁｮｳ","prefecture":"京都府","city":"京都市上京区","street":"北舟橋町"},{"zipCode":"6028368","prefectureKana":"ｷｮｳﾄﾌ","cityKana":"ｷｮｳﾄｼｶﾐｷﾞｮｳｸ","streetKana":"ｷﾀﾏﾁ","prefecture":"京都府","city":"京都市上京区","street":"北町（上の下立売通天神道西入上る、上の下立売通御前西入、上"},{"zipCode":"6028368","prefectureKana":"ｷｮｳﾄﾌ","cityKana":"ｷｮｳﾄｼｶﾐｷﾞｮｳｸ","streetKana":"ｷﾀﾏﾁ","prefecture":"京都府","city":"京都市上京区","street":"の下立売通御前西入上る、上の下立売通御前西入２丁目、上の下立売通御前西入"},{"zipCode":"6028368","prefectureKana":"ｷｮｳﾄﾌ","cityKana":"ｷｮｳﾄｼｶﾐｷﾞｮｳｸ","streetKana":"ｷﾀﾏﾁ","prefecture":"京都府","city":"京都市上京区","street":"２筋目、下長者町通御前西入、天神道上の下立売上る、天神道仁和寺街道下る、"},{"zipCode":"6028368","prefectureKana":"ｷｮｳﾄﾌ","cityKana":"ｷｮｳﾄｼｶﾐｷﾞｮｳｸ","streetKana":"ｷﾀﾏﾁ","prefecture":"京都府","city":"京都市上京区","street":"天神道下立売上る、天神道妙心寺道上る、天神道妙心寺道上る西入、仁和寺街"},{"zipCode":"6028368","prefectureKana":"ｷｮｳﾄﾌ","cityKana":"ｷｮｳﾄｼｶﾐｷﾞｮｳｸ","streetKana":"ｷﾀﾏﾁ","prefecture":"京都府","city":"京都市上京区","street":"道天神道西入下る、仁和寺街道天神道東入下る、御前通上の下立売上る、御前通"},{"zipCode":"6028368","prefectureKana":"ｷｮｳﾄﾌ","cityKana":"ｷｮｳﾄｼｶﾐｷﾞｮｳｸ","streetKana":"ｷﾀﾏﾁ","prefecture":"京都府","city":"京都市上京区","street":"上の下立売上る西入、御前通下立売上る、御前通下長者町上る西入、御前通仁"},{"zipCode":"6028368","prefectureKana":"ｷｮｳﾄﾌ","cityKana":"ｷｮｳﾄｼｶﾐｷﾞｮｳｸ","streetKana":"ｷﾀﾏﾁ","prefecture":"京都府","city":"京都市上京区","street":"和寺街道下る西入、御前通妙心寺道上る西入、御前通西裏上の下立売上る、御前"},{"zipCode":"6028368","prefectureKana":"ｷｮｳﾄﾌ","cityKana":"ｷｮｳﾄｼｶﾐｷﾞｮｳｸ","streetKana":"ｷﾀﾏﾁ","prefecture":"京都府","city":"京都市上京区","street":"通西裏下立売上る）"},{"zipCode":"6028392","prefectureKana":"ｷｮｳﾄﾌ","cityKana":"ｷｮｳﾄｼｶﾐｷﾞｮｳｸ","streetKana":"ｷﾀﾏﾁ","prefecture":"京都府","city":"京都市上京区","street":"北町（御前通五辻上る、御前通今出川上る、御前通今出川上る１"},{"zipCode":"6028392","prefectureKana":"ｷｮｳﾄﾌ","cityKana":"ｷｮｳﾄｼｶﾐｷﾞｮｳｸ","streetKana":"ｷﾀﾏﾁ","prefecture":"京都府","city":"京都市上京区","street":"丁目、御前通今出川上る２丁目、御前通今出川上る２丁目西入、御前通今出川上"},{"zipCode":"6028392","prefectureKana":"ｷｮｳﾄﾌ","cityKana":"ｷｮｳﾄｼｶﾐｷﾞｮｳｸ","streetKana":"ｷﾀﾏﾁ","prefecture":"京都府","city":"京都市上京区","street":"る２筋目、御前通今出川上る西入、御前通今出川上る東入、御前通今出川２丁目"},{"zipCode":"6028392","prefectureKana":"ｷｮｳﾄﾌ","cityKana":"ｷｮｳﾄｼｶﾐｷﾞｮｳｸ","streetKana":"ｷﾀﾏﾁ","prefecture":"京都府","city":"京都市上京区","street":"上る、御前通寺之内下る）"},{"zipCode":"6020818","prefectureKana":"ｷｮｳﾄﾌ","cityKana":"ｷｮｳﾄｼｶﾐｷﾞｮｳｸ","streetKana":"ｷﾀﾖｺﾁｮｳ","prefecture":"京都府","city":"京都市上京区","street":"北横町"},{"zipCode":"6020027","prefectureKana":"ｷｮｳﾄﾌ","cityKana":"ｷｮｳﾄｼｶﾐｷﾞｮｳｸ","streetKana":"ｷﾉｼﾀﾂｷﾇｹﾁｮｳ","prefecture":"京都府","city":"京都市上京区","street":"木下突抜町"},{"zipCode":"6028146","prefectureKana":"ｷｮｳﾄﾌ","cityKana":"ｷｮｳﾄｼｶﾐｷﾞｮｳｸ","streetKana":"ｷﾔﾉﾁｮｳ","prefecture":"京都府","city":"京都市上京区","street":"木屋之町"},{"zipCode":"6020851","prefectureKana":"ｷｮｳﾄﾌ","cityKana":"ｷｮｳﾄｼｶﾐｷﾞｮｳｸ","streetKana":"ｷｭｳｹﾝﾁｮｳ","prefecture":"京都府","city":"京都市上京区","street":"九軒町"},{"zipCode":"6020881","prefectureKana":"ｷｮｳﾄﾌ","cityKana":"ｷｮｳﾄｼｶﾐｷﾞｮｳｸ","streetKana":"ｷｮｳﾄｷﾞｮｴﾝ","prefecture":"京都府","city":"京都市上京区","street":"京都御苑"},{"zipCode":"6028116","prefectureKana":"ｷｮｳﾄﾌ","cityKana":"ｷｮｳﾄｼｶﾐｷﾞｮｳｸ","streetKana":"ｷﾖﾓﾄﾁｮｳ","prefecture":"京都府","city":"京都市上京区","street":"清元町"},{"zipCode":"6028476","prefectureKana":"ｷｮｳﾄﾌ","cityKana":"ｷｮｳﾄｼｶﾐｷﾞｮｳｸ","streetKana":"ｷﾘﾉｷﾁｮｳ","prefecture":"京都府","city":"京都市上京区","street":"桐木町"},{"zipCode":"6020876","prefectureKana":"ｷｮｳﾄﾌ","cityKana":"ｷｮｳﾄｼｶﾐｷﾞｮｳｸ","streetKana":"ｷﾝｼｬﾁｮｳ","prefecture":"京都府","city":"京都市上京区","street":"錦砂町"},{"zipCode":"6028173","prefectureKana":"ｷｮｳﾄﾌ","cityKana":"ｷｮｳﾄｼｶﾐｷﾞｮｳｸ","streetKana":"ｷﾝﾊﾞﾊﾞﾁｮｳ","prefecture":"京都府","city":"京都市上京区","street":"金馬場町"},{"zipCode":"6028127","prefectureKana":"ｷｮｳﾄﾌ","cityKana":"ｷｮｳﾄｼｶﾐｷﾞｮｳｸ","streetKana":"ｸｼｹﾞﾁｮｳ","prefecture":"京都府","city":"京都市上京区","street":"櫛笥町"},{"zipCode":"6020918","prefectureKana":"ｷｮｳﾄﾌ","cityKana":"ｷｮｳﾄｼｶﾐｷﾞｮｳｸ","streetKana":"ｸｽﾘﾔﾁｮｳ","prefecture":"京都府","city":"京都市上京区","street":"薬屋町"},{"zipCode":"6028406","prefectureKana":"ｷｮｳﾄﾌ","cityKana":"ｷｮｳﾄｼｶﾐｷﾞｮｳｸ","streetKana":"ｹｲｶｲﾝﾁｮｳ","prefecture":"京都府","city":"京都市上京区","street":"花開院町"},{"zipCode":"6020002","prefectureKana":"ｷｮｳﾄﾌ","cityKana":"ｷｮｳﾄｼｶﾐｷﾞｮｳｸ","streetKana":"ｹｲｺｳｲﾝﾁｮｳ","prefecture":"京都府","city":"京都市上京区","street":"継孝院町"},{"zipCode":"6020018","prefectureKana":"ｷｮｳﾄﾌ","cityKana":"ｷｮｳﾄｼｶﾐｷﾞｮｳｸ","streetKana":"ｹﾞﾝﾊﾞﾁｮｳ","prefecture":"京都府","city":"京都市上京区","street":"玄蕃町"},{"zipCode":"6020893","prefectureKana":"ｷｮｳﾄﾌ","cityKana":"ｷｮｳﾄｼｶﾐｷﾞｮｳｸ","streetKana":"ｹﾞﾝﾌﾞﾁｮｳ","prefecture":"京都府","city":"京都市上京区","street":"玄武町"},{"zipCode":"6028428","prefectureKana":"ｷｮｳﾄﾌ","cityKana":"ｷｮｳﾄｼｶﾐｷﾞｮｳｸ","streetKana":"ｺｳｻﾞｲﾁｮｳ","prefecture":"京都府","city":"京都市上京区","street":"幸在町"},{"zipCode":"6028114","prefectureKana":"ｷｮｳﾄﾌ","cityKana":"ｷｮｳﾄｼｶﾐｷﾞｮｳｸ","streetKana":"ｺｳｼﾞﾝﾁｮｳ","prefecture":"京都府","city":"京都市上京区","street":"荒神町（猪熊通下立売上る、猪熊通出水下る、猪熊通椹木町上"},{"zipCode":"6028114","prefectureKana":"ｷｮｳﾄﾌ","cityKana":"ｷｮｳﾄｼｶﾐｷﾞｮｳｸ","streetKana":"ｺｳｼﾞﾝﾁｮｳ","prefecture":"京都府","city":"京都市上京区","street":"る、出水通猪熊西入、出水通猪熊東入、出水通葭屋町西入）"},{"zipCode":"6020856","prefectureKana":"ｷｮｳﾄﾌ","cityKana":"ｷｮｳﾄｼｶﾐｷﾞｮｳｸ","streetKana":"ｺｳｼﾞﾝﾁｮｳ","prefecture":"京都府","city":"京都市上京区","street":"荒神町（河原町通荒神口上る、荒神口通河原町西入、荒神口通河"},{"zipCode":"6020856","prefectureKana":"ｷｮｳﾄﾌ","cityKana":"ｷｮｳﾄｼｶﾐｷﾞｮｳｸ","streetKana":"ｺｳｼﾞﾝﾁｮｳ","prefecture":"京都府","city":"京都市上京区","street":"原町東入、荒神口通寺町東入、寺町通荒神口上る）"},{"zipCode":"6028267","prefectureKana":"ｷｮｳﾄﾌ","cityKana":"ｷｮｳﾄｼｶﾐｷﾞｮｳｸ","streetKana":"ｺｳﾀﾞｲｲﾝﾀﾃﾏﾁ","prefecture":"京都府","city":"京都市上京区","street":"高台院竪町"},{"zipCode":"6028271","prefectureKana":"ｷｮｳﾄﾌ","cityKana":"ｷｮｳﾄｼｶﾐｷﾞｮｳｸ","streetKana":"ｺｳﾀﾞｲｲﾝﾁｮｳ","prefecture":"京都府","city":"京都市上京区","street":"高台院町"},{"zipCode":"6020835","prefectureKana":"ｷｮｳﾄﾌ","cityKana":"ｷｮｳﾄｼｶﾐｷﾞｮｳｸ","streetKana":"ｺｳﾄﾞｳｳﾁﾁｮｳ","prefecture":"京都府","city":"京都市上京区","street":"革堂内町"},{"zipCode":"6028132","prefectureKana":"ｷｮｳﾄﾌ","cityKana":"ｷｮｳﾄｼｶﾐｷﾞｮｳｸ","streetKana":"ｺｳﾄﾞｳﾁｮｳ","prefecture":"京都府","city":"京都市上京区","street":"講堂町"},{"zipCode":"6020943","prefectureKana":"ｷｮｳﾄﾌ","cityKana":"ｷｮｳﾄｼｶﾐｷﾞｮｳｸ","streetKana":"ｺｳﾄﾞｳﾁｮｳ(ｵｶﾞﾜﾄﾞｵﾘｲﾁｼﾞｮｳｱｶﾞﾙ､ｵｶﾞﾜﾄﾞｵﾘﾑｼｬｺｳｼﾞｻｶﾞﾙ､ﾑｼｬｺｳｼﾞﾄﾞｵﾘｵｶﾞﾜﾋｶﾞｼｲﾙ)","prefecture":"京都府","city":"京都市上京区","street":"革堂町（小川通一条上る、小川通武者小路下る、武者小路通小川東入）"},{"zipCode":"6028463","prefectureKana":"ｷｮｳﾄﾌ","cityKana":"ｷｮｳﾄｼｶﾐｷﾞｮｳｸ","streetKana":"ｺｳﾄﾞｳﾁｮｳ(ﾓﾄｾｲｶﾞﾝｼﾞﾄﾞｵﾘｼﾞｮｳﾌｸｼﾞﾆｼｲﾙ)","prefecture":"京都府","city":"京都市上京区","street":"革堂町（元誓願寺通浄福寺西入）"},{"zipCode":"6020945","prefectureKana":"ｷｮｳﾄﾌ","cityKana":"ｷｮｳﾄｼｶﾐｷﾞｮｳｸ","streetKana":"ｺｳﾄﾞｳﾅｶﾉﾁｮｳ","prefecture":"京都府","city":"京都市上京区","street":"革堂仲之町"},{"zipCode":"6020959","prefectureKana":"ｷｮｳﾄﾌ","cityKana":"ｷｮｳﾄｼｶﾐｷﾞｮｳｸ","streetKana":"ｺｳﾄﾞｳﾆｼﾏﾁ","prefecture":"京都府","city":"京都市上京区","street":"革堂西町"},{"zipCode":"6028299","prefectureKana":"ｷｮｳﾄﾌ","cityKana":"ｷｮｳﾄｼｶﾐｷﾞｮｳｸ","streetKana":"ｺｳﾄﾞｳﾉｳﾁﾁｮｳ","prefecture":"京都府","city":"京都市上京区","street":"革堂之内町"},{"zipCode":"6028275","prefectureKana":"ｷｮｳﾄﾌ","cityKana":"ｷｮｳﾄｼｶﾐｷﾞｮｳｸ","streetKana":"ｺｳﾄﾞｳﾏｴﾉﾁｮｳ","prefecture":"京都府","city":"京都市上京区","street":"革堂前之町"},{"zipCode":"6020801","prefectureKana":"ｷｮｳﾄﾌ","cityKana":"ｷｮｳﾄｼｶﾐｷﾞｮｳｸ","streetKana":"ｺｳﾄｸｼﾞﾁｮｳ","prefecture":"京都府","city":"京都市上京区","street":"高徳寺町"},{"zipCode":"6020051","prefectureKana":"ｷｮｳﾄﾌ","cityKana":"ｷｮｳﾄｼｶﾐｷﾞｮｳｸ","streetKana":"ｺﾞｻﾝｹﾞﾝﾁｮｳ","prefecture":"京都府","city":"京都市上京区","street":"御三軒町"},{"zipCode":"6020904","prefectureKana":"ｷｮｳﾄﾌ","cityKana":"ｷｮｳﾄｼｶﾐｷﾞｮｳｸ","streetKana":"ｺｼﾞﾏﾁｮｳ","prefecture":"京都府","city":"京都市上京区","street":"小島町"},{"zipCode":"6020023","prefectureKana":"ｷｮｳﾄﾌ","cityKana":"ｷｮｳﾄｼｶﾐｷﾞｮｳｸ","streetKana":"ｺﾞｼｮﾊﾁﾏﾝﾁｮｳ","prefecture":"京都府","city":"京都市上京区","street":"御所八幡町"},{"zipCode":"6028043","prefectureKana":"ｷｮｳﾄﾌ","cityKana":"ｷｮｳﾄｼｶﾐｷﾞｮｳｸ","streetKana":"ｺﾞﾁｮｳﾒ","prefecture":"京都府","city":"京都市上京区","street":"五町目"},{"zipCode":"6028013","prefectureKana":"ｷｮｳﾄﾌ","cityKana":"ｷｮｳﾄｼｶﾐｷﾞｮｳｸ","streetKana":"ｺﾞﾁｮｳﾒﾁｮｳ","prefecture":"京都府","city":"京都市上京区","street":"五町目町"},{"zipCode":"6028234","prefectureKana":"ｷｮｳﾄﾌ","cityKana":"ｷｮｳﾄｼｶﾐｷﾞｮｳｸ","streetKana":"ｺﾃﾞﾗﾁｮｳ","prefecture":"京都府","city":"京都市上京区","street":"小寺町"},{"zipCode":"6028133","prefectureKana":"ｷｮｳﾄﾌ","cityKana":"ｷｮｳﾄｼｶﾐｷﾞｮｳｸ","streetKana":"ｺﾃﾞﾝﾏﾁｮｳ","prefecture":"京都府","city":"京都市上京区","street":"小伝馬町"},{"zipCode":"6020821","prefectureKana":"ｷｮｳﾄﾌ","cityKana":"ｷｮｳﾄｼｶﾐｷﾞｮｳｸ","streetKana":"ｺﾞﾄｳﾁｮｳ","prefecture":"京都府","city":"京都市上京区","street":"後藤町"},{"zipCode":"6028046","prefectureKana":"ｷｮｳﾄﾌ","cityKana":"ｷｮｳﾄｼｶﾐｷﾞｮｳｸ","streetKana":"ｺﾉｴﾁｮｳ","prefecture":"京都府","city":"京都市上京区","street":"近衛町（油小路通下立売上る、油小路通出水下る、出水通油小路西"},{"zipCode":"6028046","prefectureKana":"ｷｮｳﾄﾌ","cityKana":"ｷｮｳﾄｼｶﾐｷﾞｮｳｸ","streetKana":"ｺﾉｴﾁｮｳ","prefecture":"京都府","city":"京都市上京区","street":"入、出水通油小路東入）"},{"zipCode":"6028019","prefectureKana":"ｷｮｳﾄﾌ","cityKana":"ｷｮｳﾄｼｶﾐｷﾞｮｳｸ","streetKana":"ｺﾉｴﾁｮｳ","prefecture":"京都府","city":"京都市上京区","street":"近衛町（下長者町通室町西入、下長者町通室町東入、出水通烏丸西"},{"zipCode":"6028019","prefectureKana":"ｷｮｳﾄﾌ","cityKana":"ｷｮｳﾄｼｶﾐｷﾞｮｳｸ","streetKana":"ｺﾉｴﾁｮｳ","prefecture":"京都府","city":"京都市上京区","street":"入、出水通室町東入、室町通下長者町下る、室町通出水上る、室町通出水上る"},{"zipCode":"6028019","prefectureKana":"ｷｮｳﾄﾌ","cityKana":"ｷｮｳﾄｼｶﾐｷﾞｮｳｸ","streetKana":"ｺﾉｴﾁｮｳ","prefecture":"京都府","city":"京都市上京区","street":"東入）"},{"zipCode":"6020047","prefectureKana":"ｷｮｳﾄﾌ","cityKana":"ｷｮｳﾄｼｶﾐｷﾞｮｳｸ","streetKana":"ｺﾉｴﾃﾞﾝｵﾓﾃﾁｮｳ","prefecture":"京都府","city":"京都市上京区","street":"近衛殿表町"},{"zipCode":"6020045","prefectureKana":"ｷｮｳﾄﾌ","cityKana":"ｷｮｳﾄｼｶﾐｷﾞｮｳｸ","streetKana":"ｺﾉｴﾃﾞﾝｷﾀｸﾞﾁﾁｮｳ","prefecture":"京都府","city":"京都市上京区","street":"近衛殿北口町"},{"zipCode":"6028342","prefectureKana":"ｷｮｳﾄﾌ","cityKana":"ｷｮｳﾄｼｶﾐｷﾞｮｳｸ","streetKana":"ｺﾞﾊﾞﾝﾁｮｳ","prefecture":"京都府","city":"京都市上京区","street":"五番町"},{"zipCode":"6020872","prefectureKana":"ｷｮｳﾄﾌ","cityKana":"ｷｮｳﾄｼｶﾐｷﾞｮｳｸ","streetKana":"ｺﾏﾉﾁｮｳ","prefecture":"京都府","city":"京都市上京区","street":"駒之町"},{"zipCode":"6028034","prefectureKana":"ｷｮｳﾄﾌ","cityKana":"ｷｮｳﾄｼｶﾐｷﾞｮｳｸ","streetKana":"ｺﾒﾔﾁｮｳ","prefecture":"京都府","city":"京都市上京区","street":"米屋町（油小路椹木町下る、油小路通丸太町上る、椹木町通油小"},{"zipCode":"6028034","prefectureKana":"ｷｮｳﾄﾌ","cityKana":"ｷｮｳﾄｼｶﾐｷﾞｮｳｸ","streetKana":"ｺﾒﾔﾁｮｳ","prefecture":"京都府","city":"京都市上京区","street":"路西入、椹木町通油小路東入、丸太町通油小路西入、丸太町通油小路東入）"},{"zipCode":"6020846","prefectureKana":"ｷｮｳﾄﾌ","cityKana":"ｷｮｳﾄｼｶﾐｷﾞｮｳｸ","streetKana":"ｺﾒﾔﾁｮｳ","prefecture":"京都府","city":"京都市上京区","street":"米屋町（今出川通寺町東入、今出川通寺町東入下る、今出川通河"},{"zipCode":"6020846","prefectureKana":"ｷｮｳﾄﾌ","cityKana":"ｷｮｳﾄｼｶﾐｷﾞｮｳｸ","streetKana":"ｺﾒﾔﾁｮｳ","prefecture":"京都府","city":"京都市上京区","street":"原町西入上る、河原町通今出川下る西入、寺町通今出川下る、寺町通今出川下"},{"zipCode":"6020846","prefectureKana":"ｷｮｳﾄﾌ","cityKana":"ｷｮｳﾄｼｶﾐｷﾞｮｳｸ","streetKana":"ｺﾒﾔﾁｮｳ","prefecture":"京都府","city":"京都市上京区","street":"る東入、中筋通今出川下る）"},{"zipCode":"6028157","prefectureKana":"ｷｮｳﾄﾌ","cityKana":"ｷｮｳﾄｼｶﾐｷﾞｮｳｸ","streetKana":"ｺﾔﾏﾁｮｳ","prefecture":"京都府","city":"京都市上京区","street":"小山町"},{"zipCode":"6028018","prefectureKana":"ｷｮｳﾄﾌ","cityKana":"ｷｮｳﾄｼｶﾐｷﾞｮｳｸ","streetKana":"ｺﾞﾘｮｳﾁｮｳ","prefecture":"京都府","city":"京都市上京区","street":"御霊町"},{"zipCode":"6028179","prefectureKana":"ｷｮｳﾄﾌ","cityKana":"ｷｮｳﾄｼｶﾐｷﾞｮｳｸ","streetKana":"ｺﾝﾀｶﾁｮｳ","prefecture":"京都府","city":"京都市上京区","street":"坤高町"},{"zipCode":"6028151","prefectureKana":"ｷｮｳﾄﾌ","cityKana":"ｷｮｳﾄｼｶﾐｷﾞｮｳｸ","streetKana":"ｻｲｲﾝﾁｮｳ","prefecture":"京都府","city":"京都市上京区","street":"西院町"},{"zipCode":"6028242","prefectureKana":"ｷｮｳﾄﾌ","cityKana":"ｷｮｳﾄｼｶﾐｷﾞｮｳｸ","streetKana":"ｻｲｶﾁﾁｮｳ","prefecture":"京都府","city":"京都市上京区","street":"皀莢町"},{"zipCode":"6028354","prefectureKana":"ｷｮｳﾄﾌ","cityKana":"ｷｮｳﾄｼｶﾐｷﾞｮｳｸ","streetKana":"ｻｲﾄｳﾁｮｳ","prefecture":"京都府","city":"京都市上京区","street":"西東町"},{"zipCode":"6020814","prefectureKana":"ｷｮｳﾄﾌ","cityKana":"ｷｮｳﾄｼｶﾐｷﾞｮｳｸ","streetKana":"ｻｲﾉｶﾐﾁｮｳ","prefecture":"京都府","city":"京都市上京区","street":"幸神町"},{"zipCode":"6020842","prefectureKana":"ｷｮｳﾄﾌ","cityKana":"ｷｮｳﾄｼｶﾐｷﾞｮｳｸ","streetKana":"ｻｶｴﾁｮｳ","prefecture":"京都府","city":"京都市上京区","street":"栄町（石薬師通河原西入、河原町通石薬師上る、河原町通石薬"},{"zipCode":"6020842","prefectureKana":"ｷｮｳﾄﾌ","cityKana":"ｷｮｳﾄｼｶﾐｷﾞｮｳｸ","streetKana":"ｻｶｴﾁｮｳ","prefecture":"京都府","city":"京都市上京区","street":"師下る、河原町通今出川下る、河原町通今出川２筋目下る西、河原町通今出川"},{"zipCode":"6020842","prefectureKana":"ｷｮｳﾄﾌ","cityKana":"ｷｮｳﾄｼｶﾐｷﾞｮｳｸ","streetKana":"ｻｶｴﾁｮｳ","prefecture":"京都府","city":"京都市上京区","street":"下る２丁目、河原町通今出川下る２筋目西、河原町通今出川下る３丁目）"},{"zipCode":"6028202","prefectureKana":"ｷｮｳﾄﾌ","cityKana":"ｷｮｳﾄｼｶﾐｷﾞｮｳｸ","streetKana":"ｻｶｴﾁｮｳ","prefecture":"京都府","city":"京都市上京区","street":"栄町（大宮通一条上る西入、大宮通中立売下る、智恵光院通一条上る東入）"},{"zipCode":"6028304","prefectureKana":"ｷｮｳﾄﾌ","cityKana":"ｷｮｳﾄｼｶﾐｷﾞｮｳｸ","streetKana":"ｻｸｱﾝﾁｮｳ","prefecture":"京都府","city":"京都市上京区","street":"作庵町"},{"zipCode":"6028445","prefectureKana":"ｷｮｳﾄﾌ","cityKana":"ｷｮｳﾄｼｶﾐｷﾞｮｳｸ","streetKana":"ｻｸﾗｲﾁｮｳ","prefecture":"京都府","city":"京都市上京区","street":"桜井町"},{"zipCode":"6020805","prefectureKana":"ｷｮｳﾄﾌ","cityKana":"ｷｮｳﾄｼｶﾐｷﾞｮｳｸ","streetKana":"ｻｸﾗｷﾞﾁｮｳ","prefecture":"京都府","city":"京都市上京区","street":"桜木町"},{"zipCode":"6028453","prefectureKana":"ｷｮｳﾄﾌ","cityKana":"ｷｮｳﾄｼｶﾐｷﾞｮｳｸ","streetKana":"ｻｻﾔ","prefecture":"京都府","city":"京都市上京区","street":"笹屋"},{"zipCode":"6028314","prefectureKana":"ｷｮｳﾄﾌ","cityKana":"ｷｮｳﾄｼｶﾐｷﾞｮｳｸ","streetKana":"ｻﾀｹﾁｮｳ","prefecture":"京都府","city":"京都市上京区","street":"佐竹町"},{"zipCode":"6028145","prefectureKana":"ｷｮｳﾄﾌ","cityKana":"ｷｮｳﾄｼｶﾐｷﾞｮｳｸ","streetKana":"ｻﾏﾏﾂﾁｮｳ","prefecture":"京都府","city":"京都市上京区","street":"左馬松町"},{"zipCode":"6020826","prefectureKana":"ｷｮｳﾄﾌ","cityKana":"ｷｮｳﾄｼｶﾐｷﾞｮｳｸ","streetKana":"ｻﾝｴｲﾁｮｳ","prefecture":"京都府","city":"京都市上京区","street":"三栄町"},{"zipCode":"6028341","prefectureKana":"ｷｮｳﾄﾌ","cityKana":"ｷｮｳﾄｼｶﾐｷﾞｮｳｸ","streetKana":"ｻﾝｹﾝﾁｮｳ","prefecture":"京都府","city":"京都市上京区","street":"三軒町"},{"zipCode":"6020922","prefectureKana":"ｷｮｳﾄﾌ","cityKana":"ｷｮｳﾄｼｶﾐｷﾞｮｳｸ","streetKana":"ｻﾝｼｭｳｼﾞﾁｮｳ","prefecture":"京都府","city":"京都市上京区","street":"讃州寺町"},{"zipCode":"6028333","prefectureKana":"ｷｮｳﾄﾌ","cityKana":"ｷｮｳﾄｼｶﾐｷﾞｮｳｸ","streetKana":"ｻﾝｼﾞｮｳﾃﾞﾝﾁｮｳ","prefecture":"京都府","city":"京都市上京区","street":"三条殿町"},{"zipCode":"6028356","prefectureKana":"ｷｮｳﾄﾌ","cityKana":"ｷｮｳﾄｼｶﾐｷﾞｮｳｸ","streetKana":"ｻﾝｽｹﾁｮｳ","prefecture":"京都府","city":"京都市上京区","street":"三助町"},{"zipCode":"6028135","prefectureKana":"ｷｮｳﾄﾌ","cityKana":"ｷｮｳﾄｼｶﾐｷﾞｮｳｸ","streetKana":"ｻﾝﾁｮｳﾒ(ﾏﾂﾔﾏﾁﾄﾞｵﾘｻﾜﾗｷﾞﾏﾁｻｶﾞﾙ､ﾏﾂﾔﾏﾁﾄﾞｵﾘﾏﾙﾀﾏﾁｱｶﾞﾙ)","prefecture":"京都府","city":"京都市上京区","street":"三町目（松屋町通椹木町下る、松屋町通丸太町上る）"},{"zipCode":"6028056","prefectureKana":"ｷｮｳﾄﾌ","cityKana":"ｷｮｳﾄｼｶﾐｷﾞｮｳｸ","streetKana":"ｻﾝﾁｮｳﾒ","prefecture":"京都府","city":"京都市上京区","street":"三町目（出水通東堀川東入、出水通堀川東入、東堀川通下長者"},{"zipCode":"6028056","prefectureKana":"ｷｮｳﾄﾌ","cityKana":"ｷｮｳﾄｼｶﾐｷﾞｮｳｸ","streetKana":"ｻﾝﾁｮｳﾒ","prefecture":"京都府","city":"京都市上京区","street":"町下る、東堀川通出水上る）"},{"zipCode":"6020915","prefectureKana":"ｷｮｳﾄﾌ","cityKana":"ｷｮｳﾄｼｶﾐｷﾞｮｳｸ","streetKana":"ｻﾝﾃｲﾁｮｳ","prefecture":"京都府","city":"京都市上京区","street":"三丁町"},{"zipCode":"6028274","prefectureKana":"ｷｮｳﾄﾌ","cityKana":"ｷｮｳﾄｼｶﾐｷﾞｮｳｸ","streetKana":"ｻﾝﾉｳﾁｮｳ","prefecture":"京都府","city":"京都市上京区","street":"山王町"},{"zipCode":"6028358","prefectureKana":"ｷｮｳﾄﾌ","cityKana":"ｷｮｳﾄｼｶﾐｷﾞｮｳｸ","streetKana":"ｻﾝﾊﾞﾝﾁｮｳ","prefecture":"京都府","city":"京都市上京区","street":"三番町"},{"zipCode":"6028436","prefectureKana":"ｷｮｳﾄﾌ","cityKana":"ｷｮｳﾄｼｶﾐｷﾞｮｳｸ","streetKana":"ｼﾞｹﾞﾝｱﾝﾁｮｳ","prefecture":"京都府","city":"京都市上京区","street":"慈眼庵町"},{"zipCode":"6028359","prefectureKana":"ｷｮｳﾄﾌ","cityKana":"ｷｮｳﾄｼｶﾐｷﾞｮｳｸ","streetKana":"ｼﾁﾊﾞﾝﾁｮｳ","prefecture":"京都府","city":"京都市上京区","street":"七番町"},{"zipCode":"6020059","prefectureKana":"ｷｮｳﾄﾌ","cityKana":"ｷｮｳﾄｼｶﾐｷﾞｮｳｸ","streetKana":"ｼﾞｯｿｳｲﾝﾁｮｳ","prefecture":"京都府","city":"京都市上京区","street":"実相院町"},{"zipCode":"6028071","prefectureKana":"ｷｮｳﾄﾌ","cityKana":"ｷｮｳﾄｼｶﾐｷﾞｮｳｸ","streetKana":"ｼﾃｲﾁｮｳ","prefecture":"京都府","city":"京都市上京区","street":"仕丁町"},{"zipCode":"6028277","prefectureKana":"ｷｮｳﾄﾌ","cityKana":"ｷｮｳﾄｼｶﾐｷﾞｮｳｸ","streetKana":"ｼﾅﾉﾁｮｳ","prefecture":"京都府","city":"京都市上京区","street":"信濃町"},{"zipCode":"6028438","prefectureKana":"ｷｮｳﾄﾌ","cityKana":"ｷｮｳﾄｼｶﾐｷﾞｮｳｸ","streetKana":"ｼﾊﾞｵｵﾐﾔﾁｮｳ","prefecture":"京都府","city":"京都市上京区","street":"芝大宮町"},{"zipCode":"6028412","prefectureKana":"ｷｮｳﾄﾌ","cityKana":"ｷｮｳﾄｼｶﾐｷﾞｮｳｸ","streetKana":"ｼﾊﾞﾉﾁｮｳ","prefecture":"京都府","city":"京都市上京区","street":"芝之町"},{"zipCode":"6028421","prefectureKana":"ｷｮｳﾄﾌ","cityKana":"ｷｮｳﾄｼｶﾐｷﾞｮｳｸ","streetKana":"ｼﾊﾞﾔｸｼﾁｮｳ","prefecture":"京都府","city":"京都市上京区","street":"芝薬師町"},{"zipCode":"6028225","prefectureKana":"ｷｮｳﾄﾌ","cityKana":"ｷｮｳﾄｼｶﾐｷﾞｮｳｸ","streetKana":"ｼﾓｲｼﾊﾞｼﾁｮｳ","prefecture":"京都府","city":"京都市上京区","street":"下石橋町"},{"zipCode":"6028239","prefectureKana":"ｷｮｳﾄﾌ","cityKana":"ｷｮｳﾄｼｶﾐｷﾞｮｳｸ","streetKana":"ｼﾓｲｼﾊﾞｼﾐﾅﾐﾊﾝﾁｮｳ","prefecture":"京都府","city":"京都市上京区","street":"下石橋南半町"},{"zipCode":"6028075","prefectureKana":"ｷｮｳﾄﾌ","cityKana":"ｷｮｳﾄｼｶﾐｷﾞｮｳｸ","streetKana":"ｼﾓｵｶﾞﾜﾁｮｳ","prefecture":"京都府","city":"京都市上京区","street":"下小川町"},{"zipCode":"6028204","prefectureKana":"ｷｮｳﾄﾌ","cityKana":"ｷｮｳﾄｼｶﾐｷﾞｮｳｸ","streetKana":"ｼﾓｶｶﾞﾐｲｼﾁｮｳ","prefecture":"京都府","city":"京都市上京区","street":"下鏡石町"},{"zipCode":"6020019","prefectureKana":"ｷｮｳﾄﾌ","cityKana":"ｷｮｳﾄｼｶﾐｷﾞｮｳｸ","streetKana":"ｼﾓｷﾉｼﾀﾁｮｳ","prefecture":"京都府","city":"京都市上京区","street":"下木下町"},{"zipCode":"6020007","prefectureKana":"ｷｮｳﾄﾌ","cityKana":"ｷｮｳﾄｼｶﾐｷﾞｮｳｸ","streetKana":"ｼﾓｾｲｿﾞｳｸﾞﾁﾁｮｳ","prefecture":"京都府","city":"京都市上京区","street":"下清蔵口町"},{"zipCode":"6028372","prefectureKana":"ｷｮｳﾄﾌ","cityKana":"ｷｮｳﾄｼｶﾐｷﾞｮｳｸ","streetKana":"ｼﾓﾀﾃﾁｮｳ","prefecture":"京都府","city":"京都市上京区","street":"下竪町"},{"zipCode":"6020074","prefectureKana":"ｷｮｳﾄﾌ","cityKana":"ｷｮｳﾄｼｶﾐｷﾞｮｳｸ","streetKana":"ｼﾓﾃﾝｼﾞﾝﾁｮｳ","prefecture":"京都府","city":"京都市上京区","street":"下天神町"},{"zipCode":"6020837","prefectureKana":"ｷｮｳﾄﾌ","cityKana":"ｷｮｳﾄｼｶﾐｷﾞｮｳｸ","streetKana":"ｼﾓﾄｳﾉﾀﾞﾝﾁｮｳ","prefecture":"京都府","city":"京都市上京区","street":"下塔之段町"},{"zipCode":"6028365","prefectureKana":"ｷｮｳﾄﾌ","cityKana":"ｷｮｳﾄｼｶﾐｷﾞｮｳｸ","streetKana":"ｼﾓﾉﾁｮｳ","prefecture":"京都府","city":"京都市上京区","street":"下之町"},{"zipCode":"6028142","prefectureKana":"ｷｮｳﾄﾌ","cityKana":"ｷｮｳﾄｼｶﾐｷﾞｮｳｸ","streetKana":"ｼﾓﾎﾘｶﾜﾁｮｳ","prefecture":"京都府","city":"京都市上京区","street":"下堀川町"},{"zipCode":"6028176","prefectureKana":"ｷｮｳﾄﾌ","cityKana":"ｷｮｳﾄｼｶﾐｷﾞｮｳｸ","streetKana":"ｼﾓﾏﾙﾔﾁｮｳ","prefecture":"京都府","city":"京都市上京区","street":"下丸屋町"},{"zipCode":"6020839","prefectureKana":"ｷｮｳﾄﾌ","cityKana":"ｷｮｳﾄｼｶﾐｷﾞｮｳｸ","streetKana":"ｼﾓﾐｺｼﾁｮｳ","prefecture":"京都府","city":"京都市上京区","street":"下御輿町"},{"zipCode":"6020014","prefectureKana":"ｷｮｳﾄﾌ","cityKana":"ｷｮｳﾄｼｶﾐｷﾞｮｳｸ","streetKana":"ｼﾓﾔﾅｷﾞﾊﾗｷﾀﾊﾝﾁｮｳ","prefecture":"京都府","city":"京都市上京区","street":"下柳原北半町"},{"zipCode":"6020015","prefectureKana":"ｷｮｳﾄﾌ","cityKana":"ｷｮｳﾄｼｶﾐｷﾞｮｳｸ","streetKana":"ｼﾓﾔﾅｷﾞﾊﾗﾐﾅﾐﾊﾝﾁｮｳ","prefecture":"京都府","city":"京都市上京区","street":"下柳原南半町"},{"zipCode":"6028265","prefectureKana":"ｷｮｳﾄﾌ","cityKana":"ｷｮｳﾄｼｶﾐｷﾞｮｳｸ","streetKana":"ｼﾓﾔﾏｻﾞﾄﾁｮｳ","prefecture":"京都府","city":"京都市上京区","street":"下山里町"},{"zipCode":"6028373","prefectureKana":"ｷｮｳﾄﾌ","cityKana":"ｷｮｳﾄｼｶﾐｷﾞｮｳｸ","streetKana":"ｼﾓﾖｺﾁｮｳ","prefecture":"京都府","city":"京都市上京区","street":"下横町"},{"zipCode":"6028395","prefectureKana":"ｷｮｳﾄﾌ","cityKana":"ｷｮｳﾄｼｶﾐｷﾞｮｳｸ","streetKana":"ｼｬｹﾅｶﾞﾔﾁｮｳ","prefecture":"京都府","city":"京都市上京区","street":"社家長屋町"},{"zipCode":"6020811","prefectureKana":"ｷｮｳﾄﾌ","cityKana":"ｷｮｳﾄｼｶﾐｷﾞｮｳｸ","streetKana":"ｼﾞｭｳﾈﾝｼﾞﾏｴﾁｮｳ","prefecture":"京都府","city":"京都市上京区","street":"十念寺前町"},{"zipCode":"6028164","prefectureKana":"ｷｮｳﾄﾌ","cityKana":"ｷｮｳﾄｼｶﾐｷﾞｮｳｸ","streetKana":"ｼﾞｭｳﾖﾝｹﾝﾁｮｳ","prefecture":"京都府","city":"京都市上京区","street":"十四軒町"},{"zipCode":"6028067","prefectureKana":"ｷｮｳﾄﾌ","cityKana":"ｷｮｳﾄｼｶﾐｷﾞｮｳｸ","streetKana":"ｼｭｹｲﾁｮｳ","prefecture":"京都府","city":"京都市上京区","street":"主計町"},{"zipCode":"6028155","prefectureKana":"ｷｮｳﾄﾌ","cityKana":"ｷｮｳﾄｼｶﾐｷﾞｮｳｸ","streetKana":"ｼｭｾﾞｲﾁｮｳ","prefecture":"京都府","city":"京都市上京区","street":"主税町"},{"zipCode":"6028156","prefectureKana":"ｷｮｳﾄﾌ","cityKana":"ｷｮｳﾄｼｶﾐｷﾞｮｳｸ","streetKana":"ｼﾞｭﾗｸﾁｮｳ","prefecture":"京都府","city":"京都市上京区","street":"聚楽町"},{"zipCode":"6028015","prefectureKana":"ｷｮｳﾄﾌ","cityKana":"ｷｮｳﾄｼｶﾐｷﾞｮｳｸ","streetKana":"ｼﾞｮｳｾﾝｲﾝﾁｮｳ","prefecture":"京都府","city":"京都市上京区","street":"常泉院町"},{"zipCode":"6028474","prefectureKana":"ｷｮｳﾄﾌ","cityKana":"ｷｮｳﾄｼｶﾐｷﾞｮｳｸ","streetKana":"ｼﾞｮｳｾﾞﾝｼﾞﾁｮｳ","prefecture":"京都府","city":"京都市上京区","street":"上善寺町"},{"zipCode":"6028481","prefectureKana":"ｷｮｳﾄﾌ","cityKana":"ｷｮｳﾄｼｶﾐｷﾞｮｳｸ","streetKana":"ｼｮｳﾃﾝﾁｮｳ","prefecture":"京都府","city":"京都市上京区","street":"聖天町"},{"zipCode":"6028057","prefectureKana":"ｷｮｳﾄﾌ","cityKana":"ｷｮｳﾄｼｶﾐｷﾞｮｳｸ","streetKana":"ｼｮｳﾊﾁｮｳ","prefecture":"京都府","city":"京都市上京区","street":"紹巴町"},{"zipCode":"6028348","prefectureKana":"ｷｮｳﾄﾌ","cityKana":"ｷｮｳﾄｼｶﾐｷﾞｮｳｸ","streetKana":"ｼﾗﾀｹﾁｮｳ","prefecture":"京都府","city":"京都市上京区","street":"白竹町"},{"zipCode":"6028178","prefectureKana":"ｷｮｳﾄﾌ","cityKana":"ｷｮｳﾄｼｶﾐｷﾞｮｳｸ","streetKana":"ｼﾛｶﾞﾈﾁｮｳ","prefecture":"京都府","city":"京都市上京区","street":"白銀町"},{"zipCode":"6028495","prefectureKana":"ｷｮｳﾄﾌ","cityKana":"ｷｮｳﾄｼｶﾐｷﾞｮｳｸ","streetKana":"ｼﾝｲﾉｸﾏﾁｮｳ","prefecture":"京都府","city":"京都市上京区","street":"新猪熊町"},{"zipCode":"6028494","prefectureKana":"ｷｮｳﾄﾌ","cityKana":"ｷｮｳﾄｼｶﾐｷﾞｮｳｸ","streetKana":"ｼﾝｲﾉｸﾏﾋｶﾞｼﾁｮｳ","prefecture":"京都府","city":"京都市上京区","street":"新猪熊東町"},{"zipCode":"6020843","prefectureKana":"ｷｮｳﾄﾌ","cityKana":"ｷｮｳﾄｼｶﾐｷﾞｮｳｸ","streetKana":"ｼﾝｴﾋﾞｽﾁｮｳ","prefecture":"京都府","city":"京都市上京区","street":"新夷町"},{"zipCode":"6020861","prefectureKana":"ｷｮｳﾄﾌ","cityKana":"ｷｮｳﾄｼｶﾐｷﾞｮｳｸ","streetKana":"ｼﾝｶﾗｽﾏｶｼﾗﾁｮｳ","prefecture":"京都府","city":"京都市上京区","street":"新烏丸頭町"},{"zipCode":"6020892","prefectureKana":"ｷｮｳﾄﾌ","cityKana":"ｷｮｳﾄｼｶﾐｷﾞｮｳｸ","streetKana":"ｼﾝｷﾀｺｳｼﾞﾁｮｳ","prefecture":"京都府","city":"京都市上京区","street":"新北小路町"},{"zipCode":"6028161","prefectureKana":"ｷｮｳﾄﾌ","cityKana":"ｷｮｳﾄｼｶﾐｷﾞｮｳｸ","streetKana":"ｼﾝｺﾞｺｳﾁｮｳ","prefecture":"京都府","city":"京都市上京区","street":"新御幸町"},{"zipCode":"6020897","prefectureKana":"ｷｮｳﾄﾌ","cityKana":"ｷｮｳﾄｼｶﾐｷﾞｮｳｸ","streetKana":"ｼﾝｺﾞﾘｮｳｸﾞﾁﾁｮｳ","prefecture":"京都府","city":"京都市上京区","street":"新御霊口町"},{"zipCode":"6028381","prefectureKana":"ｷｮｳﾄﾌ","cityKana":"ｷｮｳﾄｼｶﾐｷﾞｮｳｸ","streetKana":"ｼﾝｾｲﾁｮｳ","prefecture":"京都府","city":"京都市上京区","street":"真盛町"},{"zipCode":"6028337","prefectureKana":"ｷｮｳﾄﾌ","cityKana":"ｷｮｳﾄｼｶﾐｷﾞｮｳｸ","streetKana":"ｼﾝﾀｹﾁｮｳ","prefecture":"京都府","city":"京都市上京区","street":"新建町"},{"zipCode":"6020083","prefectureKana":"ｷｮｳﾄﾌ","cityKana":"ｷｮｳﾄｼｶﾐｷﾞｮｳｸ","streetKana":"ｼﾝﾁｮｳ","prefecture":"京都府","city":"京都市上京区","street":"新ン町"},{"zipCode":"6020866","prefectureKana":"ｷｮｳﾄﾌ","cityKana":"ｷｮｳﾄｼｶﾐｷﾞｮｳｸ","streetKana":"ｼﾝﾁｮｳ","prefecture":"京都府","city":"京都市上京区","street":"真町"},{"zipCode":"6020875","prefectureKana":"ｷｮｳﾄﾌ","cityKana":"ｷｮｳﾄｼｶﾐｷﾞｮｳｸ","streetKana":"ｼﾝﾄﾐﾁｮｳ","prefecture":"京都府","city":"京都市上京区","street":"信富町"},{"zipCode":"6020833","prefectureKana":"ｷｮｳﾄﾌ","cityKana":"ｷｮｳﾄｼｶﾐｷﾞｮｳｸ","streetKana":"ｼﾝﾆｮﾄﾞｳﾂｷﾇｹﾁｮｳ","prefecture":"京都府","city":"京都市上京区","street":"真如堂突抜町"},{"zipCode":"6020845","prefectureKana":"ｷｮｳﾄﾌ","cityKana":"ｷｮｳﾄｼｶﾐｷﾞｮｳｸ","streetKana":"ｼﾝﾆｮﾄﾞｳﾏｴﾁｮｳ","prefecture":"京都府","city":"京都市上京区","street":"真如堂前町"},{"zipCode":"6028205","prefectureKana":"ｷｮｳﾄﾌ","cityKana":"ｷｮｳﾄｼｶﾐｷﾞｮｳｸ","streetKana":"ｼﾝﾊｸｽｲﾏﾙﾁｮｳ","prefecture":"京都府","city":"京都市上京区","street":"新白水丸町"},{"zipCode":"6028293","prefectureKana":"ｷｮｳﾄﾌ","cityKana":"ｷｮｳﾄｼｶﾐｷﾞｮｳｸ","streetKana":"ｼﾝﾏｽﾔﾁｮｳ","prefecture":"京都府","city":"京都市上京区","street":"新桝屋町"},{"zipCode":"6028409","prefectureKana":"ｷｮｳﾄﾌ","cityKana":"ｷｮｳﾄｼｶﾐｷﾞｮｳｸ","streetKana":"ｼﾝﾐﾉﾍﾞﾁｮｳ","prefecture":"京都府","city":"京都市上京区","street":"新美濃部町"},{"zipCode":"6028391","prefectureKana":"ｷｮｳﾄﾌ","cityKana":"ｷｮｳﾄｼｶﾐｷﾞｮｳｸ","streetKana":"ｼﾝﾒｲﾁｮｳ","prefecture":"京都府","city":"京都市上京区","street":"神明町（御前通寺之内下る、御前通今出川上る、御前通今出川上"},{"zipCode":"6028391","prefectureKana":"ｷｮｳﾄﾌ","cityKana":"ｷｮｳﾄｼｶﾐｷﾞｮｳｸ","streetKana":"ｼﾝﾒｲﾁｮｳ","prefecture":"京都府","city":"京都市上京区","street":"る２丁目、御前通今出川上る３丁目、寺之内通御前西入）"},{"zipCode":"6028256","prefectureKana":"ｷｮｳﾄﾌ","cityKana":"ｷｮｳﾄｼｶﾐｷﾞｮｳｸ","streetKana":"ｼﾝﾒｲﾁｮｳ","prefecture":"京都府","city":"京都市上京区","street":"神明町（上長者町通松屋町東入、松屋町通上長者町上る、松屋町通中立売下る）"},{"zipCode":"6028257","prefectureKana":"ｷｮｳﾄﾌ","cityKana":"ｷｮｳﾄｼｶﾐｷﾞｮｳｸ","streetKana":"ｼﾝﾓﾄﾁｮｳ","prefecture":"京都府","city":"京都市上京区","street":"新元町"},{"zipCode":"6028279","prefectureKana":"ｷｮｳﾄﾌ","cityKana":"ｷｮｳﾄｼｶﾐｷﾞｮｳｸ","streetKana":"ｼﾝﾔﾅｷﾞﾉﾊﾞﾝﾊﾞｶｼﾗﾁｮｳ","prefecture":"京都府","city":"京都市上京区","street":"新柳馬場頭町"},{"zipCode":"6020081","prefectureKana":"ｷｮｳﾄﾌ","cityKana":"ｷｮｳﾄｼｶﾐｷﾞｮｳｸ","streetKana":"ｽﾞｲｺｳｲﾝﾏｴﾁｮｳ","prefecture":"京都府","city":"京都市上京区","street":"瑞光院前町"},{"zipCode":"6028382","prefectureKana":"ｷｮｳﾄﾌ","cityKana":"ｷｮｳﾄｼｶﾐｷﾞｮｳｸ","streetKana":"ｽｴﾉｸﾁﾁｮｳ","prefecture":"京都府","city":"京都市上京区","street":"末之口町"},{"zipCode":"6028312","prefectureKana":"ｷｮｳﾄﾌ","cityKana":"ｷｮｳﾄｼｶﾐｷﾞｮｳｸ","streetKana":"ｽｴﾋﾛﾁｮｳ","prefecture":"京都府","city":"京都市上京区","street":"末広町"},{"zipCode":"6028246","prefectureKana":"ｷｮｳﾄﾌ","cityKana":"ｷｮｳﾄｼｶﾐｷﾞｮｳｸ","streetKana":"ｽｷﾞﾓﾄﾁｮｳ","prefecture":"京都府","city":"京都市上京区","street":"杉本町"},{"zipCode":"6028483","prefectureKana":"ｷｮｳﾄﾌ","cityKana":"ｷｮｳﾄｼｶﾐｷﾞｮｳｸ","streetKana":"ｽｷﾞﾜｶﾁｮｳ","prefecture":"京都府","city":"京都市上京区","street":"杉若町"},{"zipCode":"6020091","prefectureKana":"ｷｮｳﾄﾌ","cityKana":"ｷｮｳﾄｼｶﾐｷﾞｮｳｸ","streetKana":"ｽｼﾞｶｲﾊﾞｼﾁｮｳ","prefecture":"京都府","city":"京都市上京区","street":"筋違橋町"},{"zipCode":"6028439","prefectureKana":"ｷｮｳﾄﾌ","cityKana":"ｷｮｳﾄｼｶﾐｷﾞｮｳｸ","streetKana":"ｽｽﾞﾘﾔﾁｮｳ","prefecture":"京都府","city":"京都市上京区","street":"硯屋町"},{"zipCode":"6028262","prefectureKana":"ｷｮｳﾄﾌ","cityKana":"ｷｮｳﾄｼｶﾐｷﾞｮｳｸ","streetKana":"ｽﾊﾏｲｹﾁｮｳ","prefecture":"京都府","city":"京都市上京区","street":"須浜池町"},{"zipCode":"6028264","prefectureKana":"ｷｮｳﾄﾌ","cityKana":"ｷｮｳﾄｼｶﾐｷﾞｮｳｸ","streetKana":"ｽﾊﾏﾁｮｳ","prefecture":"京都府","city":"京都市上京区","street":"須浜町"},{"zipCode":"6028263","prefectureKana":"ｷｮｳﾄﾌ","cityKana":"ｷｮｳﾄｼｶﾐｷﾞｮｳｸ","streetKana":"ｽﾊﾏﾋｶﾞｼﾁｮｳ","prefecture":"京都府","city":"京都市上京区","street":"須浜東町"},{"zipCode":"6028222","prefectureKana":"ｷｮｳﾄﾌ","cityKana":"ｷｮｳﾄｼｶﾐｷﾞｮｳｸ","streetKana":"ｾｲﾒｲﾁｮｳ","prefecture":"京都府","city":"京都市上京区","street":"晴明町"},{"zipCode":"6020822","prefectureKana":"ｷｮｳﾄﾌ","cityKana":"ｷｮｳﾄｼｶﾐｷﾞｮｳｸ","streetKana":"ｾｲﾘｭｳﾁｮｳ","prefecture":"京都府","city":"京都市上京区","street":"青龍町"},{"zipCode":"6028003","prefectureKana":"ｷｮｳﾄﾌ","cityKana":"ｷｮｳﾄｼｶﾐｷﾞｮｳｸ","streetKana":"ｾｲﾜｲﾝﾁｮｳ","prefecture":"京都府","city":"京都市上京区","street":"清和院町"},{"zipCode":"6020006","prefectureKana":"ｷｮｳﾄﾌ","cityKana":"ｷｮｳﾄｼｶﾐｷﾞｮｳｸ","streetKana":"ｾﾞﾝｼｮｳｲﾝﾁｮｳ","prefecture":"京都府","city":"京都市上京区","street":"禅昌院町"},{"zipCode":"6020898","prefectureKana":"ｷｮｳﾄﾌ","cityKana":"ｷｮｳﾄｼｶﾐｷﾞｮｳｸ","streetKana":"ｼｮｳｺｸｼﾞﾓﾝｾﾞﾝﾁｮｳ","prefecture":"京都府","city":"京都市上京区","street":"相国寺門前町"},{"zipCode":"6020844","prefectureKana":"ｷｮｳﾄﾌ","cityKana":"ｷｮｳﾄｼｶﾐｷﾞｮｳｸ","streetKana":"ｿﾒﾄﾞﾉﾁｮｳ","prefecture":"京都府","city":"京都市上京区","street":"染殿町"},{"zipCode":"6028482","prefectureKana":"ｷｮｳﾄﾌ","cityKana":"ｷｮｳﾄｼｶﾐｷﾞｮｳｸ","streetKana":"ﾀﾞｲｺｸﾁｮｳ","prefecture":"京都府","city":"京都市上京区","street":"大黒町（上立売通浄福寺西入、上立売通浄福寺東入、浄福寺通上立"},{"zipCode":"6028482","prefectureKana":"ｷｮｳﾄﾌ","cityKana":"ｷｮｳﾄｼｶﾐｷﾞｮｳｸ","streetKana":"ﾀﾞｲｺｸﾁｮｳ","prefecture":"京都府","city":"京都市上京区","street":"売上る、浄福寺通寺之内下る）"},{"zipCode":"6028137","prefectureKana":"ｷｮｳﾄﾌ","cityKana":"ｷｮｳﾄｼｶﾐｷﾞｮｳｸ","streetKana":"ﾀﾞｲｺｸﾁｮｳ(ｲﾉｸﾏﾄﾞｵﾘｻﾜﾗｷﾞﾁｮｳｱｶﾞﾙ､ｲﾉｸﾏﾄﾞｵﾘｼﾓﾀﾁｳﾘｻｶﾞﾙ､ｻﾜﾗｷﾞﾁｮｳﾄﾞｵﾘｲﾉｸﾏﾆｼｲﾙ)","prefecture":"京都府","city":"京都市上京区","street":"大黒町（猪熊通椹木町上る、猪熊通下立売下る、椹木町通猪熊西入）"},{"zipCode":"6028055","prefectureKana":"ｷｮｳﾄﾌ","cityKana":"ｷｮｳﾄｼｶﾐｷﾞｮｳｸ","streetKana":"ﾀﾞｲｺｸﾔﾁｮｳ","prefecture":"京都府","city":"京都市上京区","street":"大黒屋町"},{"zipCode":"6020003","prefectureKana":"ｷｮｳﾄﾌ","cityKana":"ｷｮｳﾄｼｶﾐｷﾞｮｳｸ","streetKana":"ﾀﾞｲｼﾝｲﾝﾁｮｳ","prefecture":"京都府","city":"京都市上京区","street":"大心院町"},{"zipCode":"6028455","prefectureKana":"ｷｮｳﾄﾌ","cityKana":"ｷｮｳﾄｼｶﾐｷﾞｮｳｸ","streetKana":"ﾀｲﾄﾞｳｶﾀﾊﾗﾁｮｳ","prefecture":"京都府","city":"京都市上京区","street":"泰童片原町"},{"zipCode":"6028298","prefectureKana":"ｷｮｳﾄﾌ","cityKana":"ｷｮｳﾄｼｶﾐｷﾞｮｳｸ","streetKana":"ﾀｲﾄﾞｳﾁｮｳ","prefecture":"京都府","city":"京都市上京区","street":"泰童町"},{"zipCode":"6028323","prefectureKana":"ｷｮｳﾄﾌ","cityKana":"ｷｮｳﾄｼｶﾐｷﾞｮｳｸ","streetKana":"ﾀﾞｲﾓﾝｼﾞﾁｮｳ","prefecture":"京都府","city":"京都市上京区","street":"大文字町"},{"zipCode":"6028024","prefectureKana":"ｷｮｳﾄﾌ","cityKana":"ｷｮｳﾄｼｶﾐｷﾞｮｳｸ","streetKana":"ﾀﾞｲﾓﾝﾁｮｳ","prefecture":"京都府","city":"京都市上京区","street":"大門町"},{"zipCode":"6020878","prefectureKana":"ｷｮｳﾄﾌ","cityKana":"ｷｮｳﾄｼｶﾐｷﾞｮｳｸ","streetKana":"ﾀｶｼﾏﾁｮｳ","prefecture":"京都府","city":"京都市上京区","street":"高島町"},{"zipCode":"6028052","prefectureKana":"ｷｮｳﾄﾌ","cityKana":"ｷｮｳﾄｼｶﾐｷﾞｮｳｸ","streetKana":"ﾀｶﾂｶｻﾁｮｳ(ｼﾓﾁｮｳｼﾞｬﾏﾁﾄﾞｵﾘｵｶﾞﾜﾋｶﾞｼｲﾙ)","prefecture":"京都府","city":"京都市上京区","street":"鷹司町（下長者町通小川東入）"},{"zipCode":"6028002","prefectureKana":"ｷｮｳﾄﾌ","cityKana":"ｷｮｳﾄｼｶﾐｷﾞｮｳｸ","streetKana":"ﾀｶﾂｶｻﾁｮｳ(ｼﾓﾁｮｳｼﾞｬﾏﾁﾄﾞｵﾘｶﾗｽﾆｼｲﾙ)","prefecture":"京都府","city":"京都市上京区","street":"鷹司町（下長者町通鳥丸西入）"},{"zipCode":"6028336","prefectureKana":"ｷｮｳﾄﾌ","cityKana":"ｷｮｳﾄｼｶﾐｷﾞｮｳｸ","streetKana":"ﾀｷｶﾞﾊﾅﾁｮｳ","prefecture":"京都府","city":"京都市上京区","street":"滝ケ鼻町"},{"zipCode":"6020001","prefectureKana":"ｷｮｳﾄﾌ","cityKana":"ｷｮｳﾄｼｶﾐｷﾞｮｳｸ","streetKana":"ﾀｹｿﾞﾉﾁｮｳ","prefecture":"京都府","city":"京都市上京区","street":"竹園町"},{"zipCode":"6020067","prefectureKana":"ｷｮｳﾄﾌ","cityKana":"ｷｮｳﾄｼｶﾐｷﾞｮｳｸ","streetKana":"ﾀｹﾔﾁｮｳ","prefecture":"京都府","city":"京都市上京区","street":"竹屋町"},{"zipCode":"6028209","prefectureKana":"ｷｮｳﾄﾌ","cityKana":"ｷｮｳﾄｼｶﾐｷﾞｮｳｸ","streetKana":"ﾀﾁﾊﾞﾅﾁｮｳ","prefecture":"京都府","city":"京都市上京区","street":"橘町"},{"zipCode":"6020912","prefectureKana":"ｷｮｳﾄﾌ","cityKana":"ｷｮｳﾄｼｶﾐｷﾞｮｳｸ","streetKana":"ﾀﾂﾏｴﾁｮｳ","prefecture":"京都府","city":"京都市上京区","street":"龍前町"},{"zipCode":"6028462","prefectureKana":"ｷｮｳﾄﾌ","cityKana":"ｷｮｳﾄｼｶﾐｷﾞｮｳｸ","streetKana":"ﾀﾃｶﾒﾔﾁｮｳ","prefecture":"京都府","city":"京都市上京区","street":"竪亀屋町"},{"zipCode":"6028228","prefectureKana":"ｷｮｳﾄﾌ","cityKana":"ｷｮｳﾄｼｶﾐｷﾞｮｳｸ","streetKana":"ﾀﾃｼﾝﾒｲﾁｮｳ","prefecture":"京都府","city":"京都市上京区","street":"竪神明町"},{"zipCode":"6020955","prefectureKana":"ｷｮｳﾄﾌ","cityKana":"ｷｮｳﾄｼｶﾐｷﾞｮｳｸ","streetKana":"ﾀﾃﾄﾐﾀﾞﾁｮｳ","prefecture":"京都府","city":"京都市上京区","street":"竪富田町"},{"zipCode":"6028216","prefectureKana":"ｷｮｳﾄﾌ","cityKana":"ｷｮｳﾄｼｶﾐｷﾞｮｳｸ","streetKana":"ﾀﾃﾓﾝｾﾞﾝﾁｮｳ","prefecture":"京都府","city":"京都市上京区","street":"竪門前町"},{"zipCode":"6020098","prefectureKana":"ｷｮｳﾄﾌ","cityKana":"ｷｮｳﾄｼｶﾐｷﾞｮｳｸ","streetKana":"ﾀﾃﾔｼﾛｷﾀﾊﾝﾁｮｳ","prefecture":"京都府","city":"京都市上京区","street":"竪社北半町"},{"zipCode":"6020099","prefectureKana":"ｷｮｳﾄﾌ","cityKana":"ｷｮｳﾄｼｶﾐｷﾞｮｳｸ","streetKana":"ﾀﾃﾔｼﾛﾐﾅﾐﾊﾝﾁｮｳ","prefecture":"京都府","city":"京都市上京区","street":"竪社南半町"},{"zipCode":"6028163","prefectureKana":"ｷｮｳﾄﾌ","cityKana":"ｷｮｳﾄｼｶﾐｷﾞｮｳｸ","streetKana":"ﾀﾅｶﾁｮｳ","prefecture":"京都府","city":"京都市上京区","street":"田中町"},{"zipCode":"6028402","prefectureKana":"ｷｮｳﾄﾌ","cityKana":"ｷｮｳﾄｼｶﾐｷﾞｮｳｸ","streetKana":"ﾀﾊﾞﾀﾁｮｳ","prefecture":"京都府","city":"京都市上京区","street":"田畑町"},{"zipCode":"6028286","prefectureKana":"ｷｮｳﾄﾌ","cityKana":"ｷｮｳﾄｼｶﾐｷﾞｮｳｸ","streetKana":"ﾀﾏﾔﾁｮｳ(ｾﾝﾎﾞﾝﾄﾞｵﾘﾅｶﾀﾁｳﾘｱｶﾞﾙ､ﾅｶﾀﾁｳﾘﾄﾞｵﾘｾﾝﾎﾞﾝﾋｶﾞｼｲﾙ)","prefecture":"京都府","city":"京都市上京区","street":"玉屋町（千本通中立売上る、中立売通千本東入）"},{"zipCode":"6028322","prefectureKana":"ｷｮｳﾄﾌ","cityKana":"ｷｮｳﾄｼｶﾐｷﾞｮｳｸ","streetKana":"ﾀﾏﾔﾁｮｳ","prefecture":"京都府","city":"京都市上京区","street":"玉屋町（元誓願寺通千本西入、元誓願寺通六軒町東入、六軒町通元"},{"zipCode":"6028322","prefectureKana":"ｷｮｳﾄﾌ","cityKana":"ｷｮｳﾄｼｶﾐｷﾞｮｳｸ","streetKana":"ﾀﾏﾔﾁｮｳ","prefecture":"京都府","city":"京都市上京区","street":"誓願寺上る、六軒町通元誓願寺下る、葭屋町通元誓願寺下る）"},{"zipCode":"6028288","prefectureKana":"ｷｮｳﾄﾌ","cityKana":"ｷｮｳﾄｼｶﾐｷﾞｮｳｸ","streetKana":"ﾀﾏﾙﾁｮｳ","prefecture":"京都府","city":"京都市上京区","street":"田丸町"},{"zipCode":"6028177","prefectureKana":"ｷｮｳﾄﾌ","cityKana":"ｷｮｳﾄｼｶﾐｷﾞｮｳｸ","streetKana":"ﾀﾑﾗﾋﾞｾﾞﾝﾁｮｳ","prefecture":"京都府","city":"京都市上京区","street":"田村備前町"},{"zipCode":"6028261","prefectureKana":"ｷｮｳﾄﾌ","cityKana":"ｷｮｳﾄｼｶﾐｷﾞｮｳｸ","streetKana":"ﾀﾓﾝﾁｮｳ","prefecture":"京都府","city":"京都市上京区","street":"多門町"},{"zipCode":"6020871","prefectureKana":"ｷｮｳﾄﾌ","cityKana":"ｷｮｳﾄｼｶﾐｷﾞｮｳｸ","streetKana":"ﾀﾜﾗﾔﾁｮｳ","prefecture":"京都府","city":"京都市上京区","street":"俵屋町"},{"zipCode":"6028224","prefectureKana":"ｷｮｳﾄﾌ","cityKana":"ｷｮｳﾄｼｶﾐｷﾞｮｳｸ","streetKana":"ﾀﾞﾝｼﾞｮｳﾁｮｳ","prefecture":"京都府","city":"京都市上京区","street":"弾正町"},{"zipCode":"6028287","prefectureKana":"ｷｮｳﾄﾌ","cityKana":"ｷｮｳﾄｼｶﾐｷﾞｮｳｸ","streetKana":"ﾀﾝﾊﾞﾔﾁｮｳ","prefecture":"京都府","city":"京都市上京区","street":"丹波屋町"},{"zipCode":"6028208","prefectureKana":"ｷｮｳﾄﾌ","cityKana":"ｷｮｳﾄｼｶﾐｷﾞｮｳｸ","streetKana":"ﾁｴｺｳｲﾝﾏｴﾉﾁｮｳ","prefecture":"京都府","city":"京都市上京区","street":"智恵光院前之町"},{"zipCode":"6028053","prefectureKana":"ｷｮｳﾄﾌ","cityKana":"ｷｮｳﾄｼｶﾐｷﾞｮｳｸ","streetKana":"ﾁｬﾔﾏﾁ","prefecture":"京都府","city":"京都市上京区","street":"茶屋町"},{"zipCode":"6028126","prefectureKana":"ｷｮｳﾄﾌ","cityKana":"ｷｮｳﾄｼｶﾐｷﾞｮｳｸ","streetKana":"ﾁｭｳｼｮﾁｮｳ","prefecture":"京都府","city":"京都市上京区","street":"中書町"},{"zipCode":"6028054","prefectureKana":"ｷｮｳﾄﾌ","cityKana":"ｷｮｳﾄｼｶﾐｷﾞｮｳｸ","streetKana":"ﾁｮｳｼﾞﾌﾞﾛﾁｮｳ","prefecture":"京都府","city":"京都市上京区","street":"丁子風呂町"},{"zipCode":"6028315","prefectureKana":"ｷｮｳﾄﾌ","cityKana":"ｷｮｳﾄｼｶﾐｷﾞｮｳｸ","streetKana":"ﾂｷﾇｹﾁｮｳ","prefecture":"京都府","city":"京都市上京区","street":"突抜町（今出川通七本松東入、今出川通七本松東入上る、五辻通七"},{"zipCode":"6028315","prefectureKana":"ｷｮｳﾄﾌ","cityKana":"ｷｮｳﾄｼｶﾐｷﾞｮｳｸ","streetKana":"ﾂｷﾇｹﾁｮｳ","prefecture":"京都府","city":"京都市上京区","street":"本松東入下る、五辻通六軒町西入下る）"},{"zipCode":"6028065","prefectureKana":"ｷｮｳﾄﾌ","cityKana":"ｷｮｳﾄｼｶﾐｷﾞｮｳｸ","streetKana":"ﾂｷﾇｹﾁｮｳ","prefecture":"京都府","city":"京都市上京区","street":"突抜町（上長者町通堀川東入上る、中立売通堀川東入下る、油小路"},{"zipCode":"6028065","prefectureKana":"ｷｮｳﾄﾌ","cityKana":"ｷｮｳﾄｼｶﾐｷﾞｮｳｸ","streetKana":"ﾂｷﾇｹﾁｮｳ","prefecture":"京都府","city":"京都市上京区","street":"堀川の間中立売下る）"},{"zipCode":"6028364","prefectureKana":"ｷｮｳﾄﾌ","cityKana":"ｷｮｳﾄｼｶﾐｷﾞｮｳｸ","streetKana":"ﾂｷﾇｹﾁｮｳ(ｼﾓﾀﾞﾁｳﾘﾄﾞｵﾘｵﾝﾏｴﾆｼｲﾙ､ｼﾓﾀﾞﾁｳﾘﾄﾞｵﾘｵﾝﾏｴﾆｼｲﾙｻｶﾞﾙ､ｼﾓﾀﾞﾁｳﾘﾄﾞｵﾘﾃﾝ","prefecture":"京都府","city":"京都市上京区","street":"突抜町（下立売通御前西入、下立売通御前西入下る、下立売通天"},{"zipCode":"6028364","prefectureKana":"ｷｮｳﾄﾌ","cityKana":"ｷｮｳﾄｼｶﾐｷﾞｮｳｸ","streetKana":"ｼﾞﾝﾐﾁﾋｶﾞｼｲﾙ､ｼﾓﾉｼﾓﾀﾞﾁｳﾘﾄﾞｵﾘｵﾝﾏｴﾆｼｲﾙ)","prefecture":"京都府","city":"京都市上京区","street":"神道東入、下の下立売通御前西入）"},{"zipCode":"6020038","prefectureKana":"ｷｮｳﾄﾌ","cityKana":"ｷｮｳﾄｼｶﾐｷﾞｮｳｸ","streetKana":"ﾂｷﾔﾏｷﾀﾊﾝﾁｮｳ","prefecture":"京都府","city":"京都市上京区","street":"築山北半町"},{"zipCode":"6020034","prefectureKana":"ｷｮｳﾄﾌ","cityKana":"ｷｮｳﾄｼｶﾐｷﾞｮｳｸ","streetKana":"ﾂｷﾔﾏﾐﾅﾐﾊﾝﾁｮｳ","prefecture":"京都府","city":"京都市上京区","street":"築山南半町"},{"zipCode":"6028427","prefectureKana":"ｷｮｳﾄﾌ","cityKana":"ｷｮｳﾄｼｶﾐｷﾞｮｳｸ","streetKana":"ﾂﾁﾀﾞﾁｮｳ","prefecture":"京都府","city":"京都市上京区","street":"土田町"},{"zipCode":"6028077","prefectureKana":"ｷｮｳﾄﾌ","cityKana":"ｷｮｳﾄｼｶﾐｷﾞｮｳｸ","streetKana":"ﾂﾁﾐｶﾄﾞﾁｮｳ","prefecture":"京都府","city":"京都市上京区","street":"土御門町"},{"zipCode":"6020802","prefectureKana":"ｷｮｳﾄﾌ","cityKana":"ｷｮｳﾄｼｶﾐｷﾞｮｳｸ","streetKana":"ﾂﾙﾔﾏﾁｮｳ","prefecture":"京都府","city":"京都市上京区","street":"鶴山町"},{"zipCode":"6020862","prefectureKana":"ｷｮｳﾄﾌ","cityKana":"ｷｮｳﾄｼｶﾐｷﾞｮｳｸ","streetKana":"ﾃﾞﾐｽﾞﾁｮｳ","prefecture":"京都府","city":"京都市上京区","street":"出水町"},{"zipCode":"6028215","prefectureKana":"ｷｮｳﾄﾌ","cityKana":"ｷｮｳﾄｼｶﾐｷﾞｮｳｸ","streetKana":"ﾃﾗｲﾏﾁｮｳ","prefecture":"京都府","city":"京都市上京区","street":"寺今町"},{"zipCode":"6020073","prefectureKana":"ｷｮｳﾄﾌ","cityKana":"ｷｮｳﾄｼｶﾐｷﾞｮｳｸ","streetKana":"ﾃﾗﾉｳﾁﾀﾃﾁｮｳ","prefecture":"京都府","city":"京都市上京区","street":"寺之内竪町"},{"zipCode":"6020087","prefectureKana":"ｷｮｳﾄﾌ","cityKana":"ｷｮｳﾄｼｶﾐｷﾞｮｳｸ","streetKana":"ﾃﾝｼﾞﾝｷﾀﾏﾁ","prefecture":"京都府","city":"京都市上京区","street":"天神北町"},{"zipCode":"6028105","prefectureKana":"ｷｮｳﾄﾌ","cityKana":"ｷｮｳﾄｼｶﾐｷﾞｮｳｸ","streetKana":"ﾃﾝﾋﾞﾝﾁｮｳ","prefecture":"京都府","city":"京都市上京区","street":"天秤町"},{"zipCode":"6028172","prefectureKana":"ｷｮｳﾄﾌ","cityKana":"ｷｮｳﾄｼｶﾐｷﾞｮｳｸ","streetKana":"ﾃﾝﾋﾞﾝﾏﾙﾁｮｳ","prefecture":"京都府","city":"京都市上京区","street":"天秤丸町"},{"zipCode":"6028355","prefectureKana":"ｷｮｳﾄﾌ","cityKana":"ｷｮｳﾄｼｶﾐｷﾞｮｳｸ","streetKana":"ﾃﾝﾏﾔﾁｮｳ","prefecture":"京都府","city":"京都市上京区","street":"天満屋町"},{"zipCode":"6028254","prefectureKana":"ｷｮｳﾄﾌ","cityKana":"ｷｮｳﾄｼｶﾐｷﾞｮｳｸ","streetKana":"ﾄｳｺﾞﾛｳﾁｮｳ","prefecture":"京都府","city":"京都市上京区","street":"藤五郎町"},{"zipCode":"6028294","prefectureKana":"ｷｮｳﾄﾌ","cityKana":"ｷｮｳﾄｼｶﾐｷﾞｮｳｸ","streetKana":"ﾄｳｻﾞｲﾀﾜﾗﾔﾁｮｳ","prefecture":"京都府","city":"京都市上京区","street":"東西俵屋町"},{"zipCode":"6028411","prefectureKana":"ｷｮｳﾄﾌ","cityKana":"ｷｮｳﾄｼｶﾐｷﾞｮｳｸ","streetKana":"ﾄｳｻﾞｲﾁｮｳ","prefecture":"京都府","city":"京都市上京区","street":"東西町"},{"zipCode":"6020004","prefectureKana":"ｷｮｳﾄﾌ","cityKana":"ｷｮｳﾄｼｶﾐｷﾞｮｳｸ","streetKana":"ﾄﾞｳｼｮｳﾁｮｳ","prefecture":"京都府","city":"京都市上京区","street":"道正町"},{"zipCode":"6020937","prefectureKana":"ｷｮｳﾄﾌ","cityKana":"ｷｮｳﾄｼｶﾐｷﾞｮｳｸ","streetKana":"ﾄｷﾜｲｽﾞｼﾁｮｳ","prefecture":"京都府","city":"京都市上京区","street":"常盤井図子町"},{"zipCode":"6020836","prefectureKana":"ｷｮｳﾄﾌ","cityKana":"ｷｮｳﾄｼｶﾐｷﾞｮｳｸ","streetKana":"ﾄｷﾜｲﾄﾞﾉﾁｮｳ","prefecture":"京都府","city":"京都市上京区","street":"常盤井殿町"},{"zipCode":"6020932","prefectureKana":"ｷｮｳﾄﾌ","cityKana":"ｷｮｳﾄｼｶﾐｷﾞｮｳｸ","streetKana":"ﾄｸﾀﾞｲｼﾞﾃﾞﾝﾁｮｳ","prefecture":"京都府","city":"京都市上京区","street":"徳大寺殿町"},{"zipCode":"6028213","prefectureKana":"ｷｮｳﾄﾌ","cityKana":"ｷｮｳﾄｼｶﾐｷﾞｮｳｸ","streetKana":"ﾄｸﾔﾁｮｳ","prefecture":"京都府","city":"京都市上京区","street":"徳屋町"},{"zipCode":"6020072","prefectureKana":"ｷｮｳﾄﾌ","cityKana":"ｷｮｳﾄｼｶﾐｷﾞｮｳｸ","streetKana":"ﾄﾞﾄﾞﾁｮｳ","prefecture":"京都府","city":"京都市上京区","street":"百々町"},{"zipCode":"6028218","prefectureKana":"ｷｮｳﾄﾌ","cityKana":"ｷｮｳﾄｼｶﾐｷﾞｮｳｸ","streetKana":"ﾄﾐｺｳｼﾞﾁｮｳ","prefecture":"京都府","city":"京都市上京区","street":"富小路町"},{"zipCode":"6028393","prefectureKana":"ｷｮｳﾄﾌ","cityKana":"ｷｮｳﾄｼｶﾐｷﾞｮｳｸ","streetKana":"ﾄﾘｲﾏｴﾁｮｳ","prefecture":"京都府","city":"京都市上京区","street":"鳥居前町"},{"zipCode":"6020063","prefectureKana":"ｷｮｳﾄﾌ","cityKana":"ｷｮｳﾄｼｶﾐｷﾞｮｳｸ","streetKana":"ﾅｲﾄｳﾁｮｳ","prefecture":"京都府","city":"京都市上京区","street":"内藤町"},{"zipCode":"6028147","prefectureKana":"ｷｮｳﾄﾌ","cityKana":"ｷｮｳﾄｼｶﾐｷﾞｮｳｸ","streetKana":"ﾅｵｲｴﾁｮｳ","prefecture":"京都府","city":"京都市上京区","street":"直家町"},{"zipCode":"6028493","prefectureKana":"ｷｮｳﾄﾌ","cityKana":"ｷｮｳﾄｼｶﾐｷﾞｮｳｸ","streetKana":"ﾅｶｲﾉｸﾏﾁｮｳ","prefecture":"京都府","city":"京都市上京区","street":"中猪熊町"},{"zipCode":"6020053","prefectureKana":"ｷｮｳﾄﾌ","cityKana":"ｷｮｳﾄｼｶﾐｷﾞｮｳｸ","streetKana":"ﾅｶｵｶﾞﾜﾁｮｳ","prefecture":"京都府","city":"京都市上京区","street":"中小川町"},{"zipCode":"6028131","prefectureKana":"ｷｮｳﾄﾌ","cityKana":"ｷｮｳﾄｼｶﾐｷﾞｮｳｸ","streetKana":"ﾅｶﾞｵﾁｮｳ","prefecture":"京都府","city":"京都市上京区","street":"長尾町"},{"zipCode":"6020041","prefectureKana":"ｷｮｳﾄﾌ","cityKana":"ｷｮｳﾄｼｶﾐｷﾞｮｳｸ","streetKana":"ﾅｶｺﾞﾘｮｳｽﾞｼﾁｮｳ","prefecture":"京都府","city":"京都市上京区","street":"中御霊図子町"},{"zipCode":"6028283","prefectureKana":"ｷｮｳﾄﾌ","cityKana":"ｷｮｳﾄｼｶﾐｷﾞｮｳｸ","streetKana":"ﾅｶｺﾞﾘｮｳﾁｮｳ","prefecture":"京都府","city":"京都市上京区","street":"仲御霊町"},{"zipCode":"6020857","prefectureKana":"ｷｮｳﾄﾌ","cityKana":"ｷｮｳﾄｼｶﾐｷﾞｮｳｸ","streetKana":"ﾅｶｺﾞﾘｮｳﾁｮｳ","prefecture":"京都府","city":"京都市上京区","street":"中御霊町"},{"zipCode":"6028158","prefectureKana":"ｷｮｳﾄﾌ","cityKana":"ｷｮｳﾄｼｶﾐｷﾞｮｳｸ","streetKana":"ﾅｶﾂｶｻﾁｮｳ","prefecture":"京都府","city":"京都市上京区","street":"中務町"},{"zipCode":"6028012","prefectureKana":"ｷｮｳﾄﾌ","cityKana":"ｷｮｳﾄｼｶﾐｷﾞｮｳｸ","streetKana":"ﾅｶﾃﾞﾐｽﾞﾁｮｳ","prefecture":"京都府","city":"京都市上京区","street":"中出水町"},{"zipCode":"6028353","prefectureKana":"ｷｮｳﾄﾌ","cityKana":"ｷｮｳﾄｼｶﾐｷﾞｮｳｸ","streetKana":"ﾅｶﾞﾄﾁｮｳ","prefecture":"京都府","city":"京都市上京区","street":"長門町"},{"zipCode":"6028143","prefectureKana":"ｷｮｳﾄﾌ","cityKana":"ｷｮｳﾄｼｶﾐｷﾞｮｳｸ","streetKana":"ﾅｶﾉﾁｮｳ(ｲﾉｸﾏﾄﾞｵﾘﾀｹﾔﾁｮｳｱｶﾞﾙ､ｲﾉｸﾏﾄﾞｵﾘﾏﾙﾀﾏﾁｻｶﾞﾙ､ﾆｼﾎﾘｶﾜﾄﾞｵﾘﾏﾙﾀﾏﾁｻｶﾞﾙ)","prefecture":"京都府","city":"京都市上京区","street":"中之町（猪熊通竹屋町上る、猪熊通丸太町下る、西堀川通丸太町下る）"},{"zipCode":"6020864","prefectureKana":"ｷｮｳﾄﾌ","cityKana":"ｷｮｳﾄｼｶﾐｷﾞｮｳｸ","streetKana":"ﾅｶﾉﾁｮｳ(ﾋｶﾞｼｻﾝﾎﾞﾝｷﾞﾄﾞｵﾘﾏﾙﾀﾏﾁｱｶﾞﾙ)","prefecture":"京都府","city":"京都市上京区","street":"中之町（東三本木通丸太町上る）"},{"zipCode":"6020093","prefectureKana":"ｷｮｳﾄﾌ","cityKana":"ｷｮｳﾄｼｶﾐｷﾞｮｳｸ","streetKana":"ﾅｶﾉﾁｮｳ","prefecture":"京都府","city":"京都市上京区","street":"仲之町（大宮通上御霊前上る、大宮通上御霊前下る、大宮通蘆山寺"},{"zipCode":"6020093","prefectureKana":"ｷｮｳﾄﾌ","cityKana":"ｷｮｳﾄｼｶﾐｷﾞｮｳｸ","streetKana":"ﾅｶﾉﾁｮｳ","prefecture":"京都府","city":"京都市上京区","street":"上る、大宮通寺之内上る、大宮通寺之内上る２丁目、上御霊前通大宮西入、上御"},{"zipCode":"6020093","prefectureKana":"ｷｮｳﾄﾌ","cityKana":"ｷｮｳﾄｼｶﾐｷﾞｮｳｸ","streetKana":"ﾅｶﾉﾁｮｳ","prefecture":"京都府","city":"京都市上京区","street":"霊前通大宮東入、蘆山寺通大宮西入）"},{"zipCode":"6028362","prefectureKana":"ｷｮｳﾄﾌ","cityKana":"ｷｮｳﾄｼｶﾐｷﾞｮｳｸ","streetKana":"ﾅｶﾉﾁｮｳ","prefecture":"京都府","city":"京都市上京区","street":"仲之町（御前通上の下立売上る、御前通上の下立売上る東入、御前"},{"zipCode":"6028362","prefectureKana":"ｷｮｳﾄﾌ","cityKana":"ｷｮｳﾄｼｶﾐｷﾞｮｳｸ","streetKana":"ﾅｶﾉﾁｮｳ","prefecture":"京都府","city":"京都市上京区","street":"通上の下立売上る２丁目、御前通下立売上る、御前通下立売上る２丁目、御前通"},{"zipCode":"6028362","prefectureKana":"ｷｮｳﾄﾌ","cityKana":"ｷｮｳﾄｼｶﾐｷﾞｮｳｸ","streetKana":"ﾅｶﾉﾁｮｳ","prefecture":"京都府","city":"京都市上京区","street":"下立売上る２丁目西入、御前通下立売上る東入、下ノ森通下立売上る、下ノ森通"},{"zipCode":"6028362","prefectureKana":"ｷｮｳﾄﾌ","cityKana":"ｷｮｳﾄｼｶﾐｷﾞｮｳｸ","streetKana":"ﾅｶﾉﾁｮｳ","prefecture":"京都府","city":"京都市上京区","street":"下立売上る西入、上の下立売通御前西入上る）"},{"zipCode":"6028072","prefectureKana":"ｷｮｳﾄﾌ","cityKana":"ｷｮｳﾄｼｶﾐｷﾞｮｳｸ","streetKana":"ﾅｶﾉﾁｮｳ","prefecture":"京都府","city":"京都市上京区","street":"仲之町（新町通下長者町上る、新町通中長者町下る、中長者町通新"},{"zipCode":"6028072","prefectureKana":"ｷｮｳﾄﾌ","cityKana":"ｷｮｳﾄｼｶﾐｷﾞｮｳｸ","streetKana":"ﾅｶﾉﾁｮｳ","prefecture":"京都府","city":"京都市上京区","street":"町西入、中長者町通西洞院東入、中長者町通西洞院西入、西洞院通中長者町上"},{"zipCode":"6028072","prefectureKana":"ｷｮｳﾄﾌ","cityKana":"ｷｮｳﾄｼｶﾐｷﾞｮｳｸ","streetKana":"ﾅｶﾉﾁｮｳ","prefecture":"京都府","city":"京都市上京区","street":"る、西洞院通上長者町下る）"},{"zipCode":"6020958","prefectureKana":"ｷｮｳﾄﾌ","cityKana":"ｷｮｳﾄｼｶﾐｷﾞｮｳｸ","streetKana":"ﾅｶﾉﾁｮｳ","prefecture":"京都府","city":"京都市上京区","street":"仲之町（油小路通今出川下る、油小路通元誓願寺上る、元誓願寺通"},{"zipCode":"6020958","prefectureKana":"ｷｮｳﾄﾌ","cityKana":"ｷｮｳﾄｼｶﾐｷﾞｮｳｸ","streetKana":"ﾅｶﾉﾁｮｳ","prefecture":"京都府","city":"京都市上京区","street":"油小路西入、元誓願寺通油小路東入、元誓願寺通堀川東入）"},{"zipCode":"6028051","prefectureKana":"ｷｮｳﾄﾌ","cityKana":"ｷｮｳﾄｼｶﾐｷﾞｮｳｸ","streetKana":"ﾅｶﾊｼﾂﾞﾒﾁｮｳ","prefecture":"京都府","city":"京都市上京区","street":"中橋詰町"},{"zipCode":"6028136","prefectureKana":"ｷｮｳﾄﾌ","cityKana":"ｷｮｳﾄｼｶﾐｷﾞｮｳｸ","streetKana":"ﾅｶﾐｶﾄﾞﾖｺﾁｮｳ","prefecture":"京都府","city":"京都市上京区","street":"中御門横町"},{"zipCode":"6028469","prefectureKana":"ｷｮｳﾄﾌ","cityKana":"ｷｮｳﾄｼｶﾐｷﾞｮｳｸ","streetKana":"ﾅｶﾐﾔﾁｮｳ","prefecture":"京都府","city":"京都市上京区","street":"中宮町"},{"zipCode":"6028175","prefectureKana":"ｷｮｳﾄﾌ","cityKana":"ｷｮｳﾄｼｶﾐｷﾞｮｳｸ","streetKana":"ﾅｶﾑﾗﾁｮｳ","prefecture":"京都府","city":"京都市上京区","street":"中村町"},{"zipCode":"6028403","prefectureKana":"ｷｮｳﾄﾌ","cityKana":"ｷｮｳﾄｼｶﾐｷﾞｮｳｸ","streetKana":"ﾅｶﾔｼﾛﾁｮｳ","prefecture":"京都府","city":"京都市上京区","street":"中社町"},{"zipCode":"6028237","prefectureKana":"ｷｮｳﾄﾌ","cityKana":"ｷｮｳﾄｼｶﾐｷﾞｮｳｸ","streetKana":"ﾅｼﾉｷﾁｮｳ","prefecture":"京都府","city":"京都市上京区","street":"梨木町"},{"zipCode":"6020028","prefectureKana":"ｷｮｳﾄﾌ","cityKana":"ｷｮｳﾄｼｶﾐｷﾞｮｳｸ","streetKana":"ﾅﾔﾁｮｳ","prefecture":"京都府","city":"京都市上京区","street":"納屋町"},{"zipCode":"6028243","prefectureKana":"ｷｮｳﾄﾌ","cityKana":"ｷｮｳﾄｼｶﾐｷﾞｮｳｸ","streetKana":"ﾅﾗﾓﾉﾁｮｳ","prefecture":"京都府","city":"京都市上京区","street":"奈良物町"},{"zipCode":"6028437","prefectureKana":"ｷｮｳﾄﾌ","cityKana":"ｷｮｳﾄｼｶﾐｷﾞｮｳｸ","streetKana":"ﾆｼｲｼﾔﾁｮｳ","prefecture":"京都府","city":"京都市上京区","street":"西石屋町"},{"zipCode":"6028306","prefectureKana":"ｷｮｳﾄﾌ","cityKana":"ｷｮｳﾄｼｶﾐｷﾞｮｳｸ","streetKana":"ﾆｼｲﾂﾂｼﾞｷﾀﾁｮｳ","prefecture":"京都府","city":"京都市上京区","street":"西五辻北町"},{"zipCode":"6028478","prefectureKana":"ｷｮｳﾄﾌ","cityKana":"ｷｮｳﾄｼｶﾐｷﾞｮｳｸ","streetKana":"ﾆｼｲﾂﾂｼﾞﾋｶﾞｼﾏﾁ","prefecture":"京都府","city":"京都市上京区","street":"西五辻東町"},{"zipCode":"6028383","prefectureKana":"ｷｮｳﾄﾌ","cityKana":"ｷｮｳﾄｼｶﾐｷﾞｮｳｸ","streetKana":"ﾆｼｲﾏｺｳｼﾞﾁｮｳ","prefecture":"京都府","city":"京都市上京区","street":"西今小路町"},{"zipCode":"6020957","prefectureKana":"ｷｮｳﾄﾌ","cityKana":"ｷｮｳﾄｼｶﾐｷﾞｮｳｸ","streetKana":"ﾆｼｲﾏﾁｮｳ","prefecture":"京都府","city":"京都市上京区","street":"西今町"},{"zipCode":"6028334","prefectureKana":"ｷｮｳﾄﾌ","cityKana":"ｷｮｳﾄｼｶﾐｷﾞｮｳｸ","streetKana":"ﾆｼｲﾏﾃﾞｶﾞﾜﾁｮｳ","prefecture":"京都府","city":"京都市上京区","street":"西今出川町"},{"zipCode":"6028042","prefectureKana":"ｷｮｳﾄﾌ","cityKana":"ｷｮｳﾄｼｶﾐｷﾞｮｳｸ","streetKana":"ﾆｼｳﾗﾂｼﾞﾁｮｳ","prefecture":"京都府","city":"京都市上京区","street":"西裏辻町"},{"zipCode":"6020046","prefectureKana":"ｷｮｳﾄﾌ","cityKana":"ｷｮｳﾄｼｶﾐｷﾞｮｳｸ","streetKana":"ﾆｼｵｵｼﾞﾁｮｳ","prefecture":"京都府","city":"京都市上京区","street":"西大路町（上立売通小川東入、上立売通新町西入、上立売通新町東"},{"zipCode":"6020046","prefectureKana":"ｷｮｳﾄﾌ","cityKana":"ｷｮｳﾄｼｶﾐｷﾞｮｳｸ","streetKana":"ﾆｼｵｵｼﾞﾁｮｳ","prefecture":"京都府","city":"京都市上京区","street":"入、上立売通新町東入上る、新町通上立売上る）"},{"zipCode":"6028048","prefectureKana":"ｷｮｳﾄﾌ","cityKana":"ｷｮｳﾄｼｶﾐｷﾞｮｳｸ","streetKana":"ﾆｼｵｵｼﾞﾁｮｳ","prefecture":"京都府","city":"京都市上京区","street":"西大路町（油小路通下立売上る、小川通下立売上る、小川通下立売下"},{"zipCode":"6028048","prefectureKana":"ｷｮｳﾄﾌ","cityKana":"ｷｮｳﾄｼｶﾐｷﾞｮｳｸ","streetKana":"ﾆｼｵｵｼﾞﾁｮｳ","prefecture":"京都府","city":"京都市上京区","street":"る、下立売通油小路東入、下立売通小川西入、下立売通小川東入）"},{"zipCode":"6028361","prefectureKana":"ｷｮｳﾄﾌ","cityKana":"ｷｮｳﾄｼｶﾐｷﾞｮｳｸ","streetKana":"ﾆｼｶﾐﾉﾁｮｳ","prefecture":"京都府","city":"京都市上京区","street":"西上之町"},{"zipCode":"6028467","prefectureKana":"ｷｮｳﾄﾌ","cityKana":"ｷｮｳﾄｼｶﾐｷﾞｮｳｸ","streetKana":"ﾆｼｶﾒﾔﾁｮｳ","prefecture":"京都府","city":"京都市上京区","street":"西亀屋町"},{"zipCode":"6020954","prefectureKana":"ｷｮｳﾄﾌ","cityKana":"ｷｮｳﾄｼｶﾐｷﾞｮｳｸ","streetKana":"ﾆｼｶﾜﾊﾞﾀﾁｮｳ","prefecture":"京都府","city":"京都市上京区","street":"西川端町"},{"zipCode":"6028414","prefectureKana":"ｷｮｳﾄﾌ","cityKana":"ｷｮｳﾄｼｶﾐｷﾞｮｳｸ","streetKana":"ﾆｼｷﾀｺｳｼﾞﾁｮｳ","prefecture":"京都府","city":"京都市上京区","street":"西北小路町（猪熊通上立売上る、猪熊通寺之内下る、大宮通寺之内下"},{"zipCode":"6028414","prefectureKana":"ｷｮｳﾄﾌ","cityKana":"ｷｮｳﾄｼｶﾐｷﾞｮｳｸ","streetKana":"ﾆｼｷﾀｺｳｼﾞﾁｮｳ","prefecture":"京都府","city":"京都市上京区","street":"る東入、大宮通寺之内半丁下る東入、大宮通寺之内下る東入１丁目、寺之内通大"},{"zipCode":"6028414","prefectureKana":"ｷｮｳﾄﾌ","cityKana":"ｷｮｳﾄｼｶﾐｷﾞｮｳｸ","streetKana":"ﾆｼｷﾀｺｳｼﾞﾁｮｳ","prefecture":"京都府","city":"京都市上京区","street":"宮東入下る、寺之内通大宮東入１丁目下る）"},{"zipCode":"6028444","prefectureKana":"ｷｮｳﾄﾌ","cityKana":"ｷｮｳﾄｼｶﾐｷﾞｮｳｸ","streetKana":"ﾆｼｷﾀｺｳｼﾞﾁｮｳ","prefecture":"京都府","city":"京都市上京区","street":"西北小路町（今出川通浄福寺東入、今出川通智恵光院西入、今出川通智"},{"zipCode":"6028444","prefectureKana":"ｷｮｳﾄﾌ","cityKana":"ｷｮｳﾄｼｶﾐｷﾞｮｳｸ","streetKana":"ﾆｼｷﾀｺｳｼﾞﾁｮｳ","prefecture":"京都府","city":"京都市上京区","street":"恵光院東入、智恵光院通今出川上る、智恵光院通今出川下る、五辻通浄福寺"},{"zipCode":"6028444","prefectureKana":"ｷｮｳﾄﾌ","cityKana":"ｷｮｳﾄｼｶﾐｷﾞｮｳｸ","streetKana":"ﾆｼｷﾀｺｳｼﾞﾁｮｳ","prefecture":"京都府","city":"京都市上京区","street":"東入）"},{"zipCode":"6028498","prefectureKana":"ｷｮｳﾄﾌ","cityKana":"ｷｮｳﾄｼｶﾐｷﾞｮｳｸ","streetKana":"ﾆｼｸﾏﾁｮｳ","prefecture":"京都府","city":"京都市上京区","street":"西熊町"},{"zipCode":"6028326","prefectureKana":"ｷｮｳﾄﾌ","cityKana":"ｷｮｳﾄｼｶﾐｷﾞｮｳｸ","streetKana":"ﾆｼｼﾞｮｳｾﾞﾝｼﾞﾁｮｳ","prefecture":"京都府","city":"京都市上京区","street":"西上善寺町"},{"zipCode":"6028169","prefectureKana":"ｷｮｳﾄﾌ","cityKana":"ｷｮｳﾄｼｶﾐｷﾞｮｳｸ","streetKana":"ﾆｼｼﾝﾒｲﾁｮｳ","prefecture":"京都府","city":"京都市上京区","street":"西神明町"},{"zipCode":"6028404","prefectureKana":"ｷｮｳﾄﾌ","cityKana":"ｷｮｳﾄｼｶﾐｷﾞｮｳｸ","streetKana":"ﾆｼｾﾝﾎﾞﾝﾁｮｳ","prefecture":"京都府","city":"京都市上京区","street":"西千本町"},{"zipCode":"6028004","prefectureKana":"ｷｮｳﾄﾌ","cityKana":"ｷｮｳﾄｼｶﾐｷﾞｮｳｸ","streetKana":"ﾆｼﾀｶﾂｶｻﾁｮｳ","prefecture":"京都府","city":"京都市上京区","street":"西鷹司町"},{"zipCode":"6028107","prefectureKana":"ｷｮｳﾄﾌ","cityKana":"ｷｮｳﾄｼｶﾐｷﾞｮｳｸ","streetKana":"ﾆｼﾀﾂﾐﾁｮｳ","prefecture":"京都府","city":"京都市上京区","street":"西辰巳町"},{"zipCode":"6028017","prefectureKana":"ｷｮｳﾄﾌ","cityKana":"ｷｮｳﾄｼｶﾐｷﾞｮｳｸ","streetKana":"ﾆｼﾃﾞﾐｽﾞﾁｮｳ","prefecture":"京都府","city":"京都市上京区","street":"西出水町"},{"zipCode":"6028109","prefectureKana":"ｷｮｳﾄﾌ","cityKana":"ｷｮｳﾄｼｶﾐｷﾞｮｳｸ","streetKana":"ﾆｼﾃﾝﾋﾞﾝﾁｮｳ","prefecture":"京都府","city":"京都市上京区","street":"西天秤町"},{"zipCode":"6028282","prefectureKana":"ｷｮｳﾄﾌ","cityKana":"ｷｮｳﾄｼｶﾐｷﾞｮｳｸ","streetKana":"ﾆｼﾄﾐﾅｶﾁｮｳ","prefecture":"京都府","city":"京都市上京区","street":"西富仲町"},{"zipCode":"6028285","prefectureKana":"ｷｮｳﾄﾌ","cityKana":"ｷｮｳﾄｼｶﾐｷﾞｮｳｸ","streetKana":"ﾆｼﾅｶｽｼﾞﾁｮｳ","prefecture":"京都府","city":"京都市上京区","street":"西中筋町"},{"zipCode":"6020925","prefectureKana":"ｷｮｳﾄﾌ","cityKana":"ｷｮｳﾄｼｶﾐｷﾞｮｳｸ","streetKana":"ﾆｼﾉｸﾁﾁｮｳ","prefecture":"京都府","city":"京都市上京区","street":"西之口町"},{"zipCode":"6028138","prefectureKana":"ｷｮｳﾄﾌ","cityKana":"ｷｮｳﾄｼｶﾐｷﾞｮｳｸ","streetKana":"ﾆｼﾊｼﾂﾞﾒﾁｮｳ","prefecture":"京都府","city":"京都市上京区","street":"西橋詰町"},{"zipCode":"6020916","prefectureKana":"ｷｮｳﾄﾌ","cityKana":"ｷｮｳﾄｼｶﾐｷﾞｮｳｸ","streetKana":"ﾆｼﾋﾉﾄﾞﾉﾁｮｳ","prefecture":"京都府","city":"京都市上京区","street":"西日野殿町"},{"zipCode":"6028434","prefectureKana":"ｷｮｳﾄﾌ","cityKana":"ｷｮｳﾄｼｶﾐｷﾞｮｳｸ","streetKana":"ﾆｼﾌﾅﾊｼﾁｮｳ","prefecture":"京都府","city":"京都市上京区","street":"西船橋町"},{"zipCode":"6028371","prefectureKana":"ｷｮｳﾄﾌ","cityKana":"ｷｮｳﾄｼｶﾐｷﾞｮｳｸ","streetKana":"ﾆｼﾏﾁ(ｲﾁｼﾞｮｳﾄﾞｵﾘｵﾝﾏｴﾋｶﾞｼｲﾙ)","prefecture":"京都府","city":"京都市上京区","street":"西町（一条通御前東入）"},{"zipCode":"6028374","prefectureKana":"ｷｮｳﾄﾌ","cityKana":"ｷｮｳﾄｼｶﾐｷﾞｮｳｸ","streetKana":"ﾆｼﾏﾁ","prefecture":"京都府","city":"京都市上京区","street":"西町（一条通御前西入、一条通紙屋川東入、一条通天神道西入、"},{"zipCode":"6028374","prefectureKana":"ｷｮｳﾄﾌ","cityKana":"ｷｮｳﾄｼｶﾐｷﾞｮｳｸ","streetKana":"ﾆｼﾏﾁ","prefecture":"京都府","city":"京都市上京区","street":"一条通御前３丁目西入、一条通御前西入上る、一条通御前西入上る西入、"},{"zipCode":"6028374","prefectureKana":"ｷｮｳﾄﾌ","cityKana":"ｷｮｳﾄｼｶﾐｷﾞｮｳｸ","streetKana":"ﾆｼﾏﾁ","prefecture":"京都府","city":"京都市上京区","street":"一条通御前西入２丁目、一条通御前西入２丁目上る、一条通御前西入２丁目"},{"zipCode":"6028374","prefectureKana":"ｷｮｳﾄﾌ","cityKana":"ｷｮｳﾄｼｶﾐｷﾞｮｳｸ","streetKana":"ﾆｼﾏﾁ","prefecture":"京都府","city":"京都市上京区","street":"下る、一条通御前西入２筋目下る、一条通御前西入３丁目、一条通御前"},{"zipCode":"6028374","prefectureKana":"ｷｮｳﾄﾌ","cityKana":"ｷｮｳﾄｼｶﾐｷﾞｮｳｸ","streetKana":"ﾆｼﾏﾁ","prefecture":"京都府","city":"京都市上京区","street":"西入３丁目上る、一条通御前西入３丁目下る、一条通御前西入３筋目、"},{"zipCode":"6028374","prefectureKana":"ｷｮｳﾄﾌ","cityKana":"ｷｮｳﾄｼｶﾐｷﾞｮｳｸ","streetKana":"ﾆｼﾏﾁ","prefecture":"京都府","city":"京都市上京区","street":"一条通御前西入下る、一条通御前西入下る３丁目、一条通紙屋川東入"},{"zipCode":"6028374","prefectureKana":"ｷｮｳﾄﾌ","cityKana":"ｷｮｳﾄｼｶﾐｷﾞｮｳｸ","streetKana":"ﾆｼﾏﾁ","prefecture":"京都府","city":"京都市上京区","street":"上る、一条通紙屋川東入下る、天神道一条上る、天神道一条下る、天神道"},{"zipCode":"6028374","prefectureKana":"ｷｮｳﾄﾌ","cityKana":"ｷｮｳﾄｼｶﾐｷﾞｮｳｸ","streetKana":"ﾆｼﾏﾁ","prefecture":"京都府","city":"京都市上京区","street":"仁和寺街道上る）"},{"zipCode":"6020956","prefectureKana":"ｷｮｳﾄﾌ","cityKana":"ｷｮｳﾄｼｶﾐｷﾞｮｳｸ","streetKana":"ﾆｼﾏﾁ","prefecture":"京都府","city":"京都市上京区","street":"西町（東堀川通元誓願寺下る、元誓願寺通油小路西入、元誓願寺通東堀川東入）"},{"zipCode":"6028148","prefectureKana":"ｷｮｳﾄﾌ","cityKana":"ｷｮｳﾄｼｶﾐｷﾞｮｳｸ","streetKana":"ﾆｼﾏﾙﾀﾁｮｳ","prefecture":"京都府","city":"京都市上京区","street":"西丸太町"},{"zipCode":"6020936","prefectureKana":"ｷｮｳﾄﾌ","cityKana":"ｷｮｳﾄｼｶﾐｷﾞｮｳｸ","streetKana":"ﾆｼﾑｼｬｺｳｼﾞﾁｮｳ","prefecture":"京都府","city":"京都市上京区","street":"西無車小路町"},{"zipCode":"6028491","prefectureKana":"ｷｮｳﾄﾌ","cityKana":"ｷｮｳﾄｼｶﾐｷﾞｮｳｸ","streetKana":"ﾆｼﾔｼﾛﾁｮｳ","prefecture":"京都府","city":"京都市上京区","street":"西社町"},{"zipCode":"6028394","prefectureKana":"ｷｮｳﾄﾌ","cityKana":"ｷｮｳﾄｼｶﾐｷﾞｮｳｸ","streetKana":"ﾆｼﾔﾅｷﾞﾁｮｳ","prefecture":"京都府","city":"京都市上京区","street":"西柳町"},{"zipCode":"6028036","prefectureKana":"ｷｮｳﾄﾌ","cityKana":"ｷｮｳﾄｼｶﾐｷﾞｮｳｸ","streetKana":"ﾆｼﾔﾏｻﾞｷﾁｮｳ","prefecture":"京都府","city":"京都市上京区","street":"西山崎町"},{"zipCode":"6028301","prefectureKana":"ｷｮｳﾄﾌ","cityKana":"ｷｮｳﾄｼｶﾐｷﾞｮｳｸ","streetKana":"ﾆｼﾛｻﾞﾝｼﾞﾁｮｳ","prefecture":"京都府","city":"京都市上京区","street":"西芦山寺町"},{"zipCode":"6020097","prefectureKana":"ｷｮｳﾄﾌ","cityKana":"ｷｮｳﾄｼｶﾐｷﾞｮｳｸ","streetKana":"ﾆｼﾜｶﾐﾔｷﾀﾊﾝﾁｮｳ","prefecture":"京都府","city":"京都市上京区","street":"西若宮北半町"},{"zipCode":"6020096","prefectureKana":"ｷｮｳﾄﾌ","cityKana":"ｷｮｳﾄｼｶﾐｷﾞｮｳｸ","streetKana":"ﾆｼﾜｶﾐﾔﾐﾅﾐﾊﾝﾁｮｳ","prefecture":"京都府","city":"京都市上京区","street":"西若宮南半町"},{"zipCode":"6020828","prefectureKana":"ｷｮｳﾄﾌ","cityKana":"ｷｮｳﾄｼｶﾐｷﾞｮｳｸ","streetKana":"ﾆｼﾝﾁｮｳ","prefecture":"京都府","city":"京都市上京区","street":"二神町"},{"zipCode":"6028128","prefectureKana":"ｷｮｳﾄﾌ","cityKana":"ｷｮｳﾄｼｶﾐｷﾞｮｳｸ","streetKana":"ﾆﾁｮｳﾒ(ﾏﾂﾔﾏﾁﾄﾞｵﾘｻﾜﾗｷﾞﾁｮｳｱｶﾞﾙ､ﾏﾂﾔﾏﾁﾄﾞｵﾘｼﾓﾀﾃｳﾘｻｶﾞﾙ)","prefecture":"京都府","city":"京都市上京区","street":"二町目（松屋町通椹木町上る、松屋町通下立売下る）"},{"zipCode":"6028058","prefectureKana":"ｷｮｳﾄﾌ","cityKana":"ｷｮｳﾄｼｶﾐｷﾞｮｳｸ","streetKana":"ﾆﾁｮｳﾒ","prefecture":"京都府","city":"京都市上京区","street":"二町目（上長者町通東堀川東入、東堀川通上長者町下る、東堀川通"},{"zipCode":"6028058","prefectureKana":"ｷｮｳﾄﾌ","cityKana":"ｷｮｳﾄｼｶﾐｷﾞｮｳｸ","streetKana":"ﾆﾁｮｳﾒ","prefecture":"京都府","city":"京都市上京区","street":"下長者町上る、東堀川通上長者町上る）"},{"zipCode":"6028344","prefectureKana":"ｷｮｳﾄﾌ","cityKana":"ｷｮｳﾄｼｶﾐｷﾞｮｳｸ","streetKana":"ﾆﾊﾞﾝﾁｮｳ","prefecture":"京都府","city":"京都市上京区","street":"二番町"},{"zipCode":"6028167","prefectureKana":"ｷｮｳﾄﾌ","cityKana":"ｷｮｳﾄｼｶﾐｷﾞｮｳｸ","streetKana":"ﾆﾎﾝﾏﾂﾁｮｳ","prefecture":"京都府","city":"京都市上京区","street":"二本松町"},{"zipCode":"6028231","prefectureKana":"ｷｮｳﾄﾌ","cityKana":"ｷｮｳﾄｼｶﾐｷﾞｮｳｸ","streetKana":"ﾆｮｽｲﾁｮｳ","prefecture":"京都府","city":"京都市上京区","street":"如水町"},{"zipCode":"6028106","prefectureKana":"ｷｮｳﾄﾌ","cityKana":"ｷｮｳﾄｼｶﾐｷﾞｮｳｸ","streetKana":"ﾊｶﾘｸﾞﾁﾁｮｳ","prefecture":"京都府","city":"京都市上京区","street":"秤口町"},{"zipCode":"6028386","prefectureKana":"ｷｮｳﾄﾌ","cityKana":"ｷｮｳﾄｼｶﾐｷﾞｮｳｸ","streetKana":"ﾊﾞｸﾛﾁｮｳ","prefecture":"京都府","city":"京都市上京区","street":"馬喰町"},{"zipCode":"6028212","prefectureKana":"ｷｮｳﾄﾌ","cityKana":"ｷｮｳﾄｼｶﾐｷﾞｮｳｸ","streetKana":"ﾊｼﾂﾞﾒﾁｮｳ","prefecture":"京都府","city":"京都市上京区","street":"橋詰町"},{"zipCode":"6028123","prefectureKana":"ｷｮｳﾄﾌ","cityKana":"ｷｮｳﾄｼｶﾐｷﾞｮｳｸ","streetKana":"ﾊｼﾆｼ2ﾁｮｳﾒ","prefecture":"京都府","city":"京都市上京区","street":"橋西二町目"},{"zipCode":"6028433","prefectureKana":"ｷｮｳﾄﾌ","cityKana":"ｷｮｳﾄｼｶﾐｷﾞｮｳｸ","streetKana":"ﾊｼﾉｳｴﾁｮｳ","prefecture":"京都府","city":"京都市上京区","street":"橋之上町"},{"zipCode":"6028063","prefectureKana":"ｷｮｳﾄﾌ","cityKana":"ｷｮｳﾄｼｶﾐｷﾞｮｳｸ","streetKana":"ﾊｼﾓﾄﾁｮｳ","prefecture":"京都府","city":"京都市上京区","street":"橋本町"},{"zipCode":"6028273","prefectureKana":"ｷｮｳﾄﾌ","cityKana":"ｷｮｳﾄｼｶﾐｷﾞｮｳｸ","streetKana":"ﾊｾﾁｮｳ","prefecture":"京都府","city":"京都市上京区","street":"長谷町"},{"zipCode":"6020035","prefectureKana":"ｷｮｳﾄﾌ","cityKana":"ｷｮｳﾄｼｶﾐｷﾞｮｳｸ","streetKana":"ﾊﾀｹﾔﾏﾁｮｳ","prefecture":"京都府","city":"京都市上京区","street":"畠山町"},{"zipCode":"6020016","prefectureKana":"ｷｮｳﾄﾌ","cityKana":"ｷｮｳﾄｼｶﾐｷﾞｮｳｸ","streetKana":"ﾊﾀﾅｶﾁｮｳ","prefecture":"京都府","city":"京都市上京区","street":"畠中町"},{"zipCode":"6028305","prefectureKana":"ｷｮｳﾄﾌ","cityKana":"ｷｮｳﾄｼｶﾐｷﾞｮｳｸ","streetKana":"ﾊﾅｸﾙﾏﾁｮｳ","prefecture":"京都府","city":"京都市上京区","street":"花車町"},{"zipCode":"6020914","prefectureKana":"ｷｮｳﾄﾌ","cityKana":"ｷｮｳﾄｼｶﾐｷﾞｮｳｸ","streetKana":"ﾊﾅﾀﾃﾁｮｳ","prefecture":"京都府","city":"京都市上京区","street":"花立町"},{"zipCode":"6020948","prefectureKana":"ｷｮｳﾄﾌ","cityKana":"ｷｮｳﾄｼｶﾐｷﾞｮｳｸ","streetKana":"ﾊﾘﾔﾁｮｳ","prefecture":"京都府","city":"京都市上京区","street":"針屋町"},{"zipCode":"6028026","prefectureKana":"ｷｮｳﾄﾌ","cityKana":"ｷｮｳﾄｼｶﾐｷﾞｮｳｸ","streetKana":"ﾊﾙｵﾋﾞﾁｮｳ","prefecture":"京都府","city":"京都市上京区","street":"春帯町"},{"zipCode":"6028473","prefectureKana":"ｷｮｳﾄﾌ","cityKana":"ｷｮｳﾄｼｶﾐｷﾞｮｳｸ","streetKana":"ﾊﾝｼｭｳｲﾝﾏｴﾁｮｳ","prefecture":"京都府","city":"京都市上京区","street":"般舟院前町"},{"zipCode":"6028295","prefectureKana":"ｷｮｳﾄﾌ","cityKana":"ｷｮｳﾄｼｶﾐｷﾞｮｳｸ","streetKana":"ﾋｶﾞｼｲｼﾊﾞｼﾁｮｳ","prefecture":"京都府","city":"京都市上京区","street":"東石橋町"},{"zipCode":"6028431","prefectureKana":"ｷｮｳﾄﾌ","cityKana":"ｷｮｳﾄｼｶﾐｷﾞｮｳｸ","streetKana":"ﾋｶﾞｼｲｼﾔﾁｮｳ","prefecture":"京都府","city":"京都市上京区","street":"東石屋町"},{"zipCode":"6028387","prefectureKana":"ｷｮｳﾄﾌ","cityKana":"ｷｮｳﾄｼｶﾐｷﾞｮｳｸ","streetKana":"ﾋｶﾞｼｲﾏｺｳｼﾞﾁｮｳ","prefecture":"京都府","city":"京都市上京区","street":"東今小路町"},{"zipCode":"6020951","prefectureKana":"ｷｮｳﾄﾌ","cityKana":"ｷｮｳﾄｼｶﾐｷﾞｮｳｸ","streetKana":"ﾋｶﾞｼｲﾏﾁｮｳ","prefecture":"京都府","city":"京都市上京区","street":"東今町"},{"zipCode":"6028038","prefectureKana":"ｷｮｳﾄﾌ","cityKana":"ｷｮｳﾄｼｶﾐｷﾞｮｳｸ","streetKana":"ﾋｶﾞｼｳｵﾔﾁｮｳ","prefecture":"京都府","city":"京都市上京区","street":"東魚屋町"},{"zipCode":"6028031","prefectureKana":"ｷｮｳﾄﾌ","cityKana":"ｷｮｳﾄｼｶﾐｷﾞｮｳｸ","streetKana":"ﾋｶﾞｼｳﾗﾂｼﾞﾁｮｳ","prefecture":"京都府","city":"京都市上京区","street":"東裏辻町"},{"zipCode":"6020858","prefectureKana":"ｷｮｳﾄﾌ","cityKana":"ｷｮｳﾄｼｶﾐｷﾞｮｳｸ","streetKana":"ﾋｶﾞｼｻｸﾗﾁｮｳ","prefecture":"京都府","city":"京都市上京区","street":"東桜町"},{"zipCode":"6028468","prefectureKana":"ｷｮｳﾄﾌ","cityKana":"ｷｮｳﾄｼｶﾐｷﾞｮｳｸ","streetKana":"ﾋｶﾞｼｼﾞｮｳｾﾞﾝｼﾞﾁｮｳ","prefecture":"京都府","city":"京都市上京区","street":"東上善寺町"},{"zipCode":"6028162","prefectureKana":"ｷｮｳﾄﾌ","cityKana":"ｷｮｳﾄｼｶﾐｷﾞｮｳｸ","streetKana":"ﾋｶﾞｼｼﾝﾒｲﾁｮｳ","prefecture":"京都府","city":"京都市上京区","street":"東神明町"},{"zipCode":"6028416","prefectureKana":"ｷｮｳﾄﾌ","cityKana":"ｷｮｳﾄｼｶﾐｷﾞｮｳｸ","streetKana":"ﾋｶﾞｼｾﾝﾎﾞﾝﾁｮｳ","prefecture":"京都府","city":"京都市上京区","street":"東千本町"},{"zipCode":"6028027","prefectureKana":"ｷｮｳﾄﾌ","cityKana":"ｷｮｳﾄｼｶﾐｷﾞｮｳｸ","streetKana":"ﾋｶﾞｼﾀﾁｳﾘﾁｮｳ","prefecture":"京都府","city":"京都市上京区","street":"東立売町"},{"zipCode":"6028101","prefectureKana":"ｷｮｳﾄﾌ","cityKana":"ｷｮｳﾄｼｶﾐｷﾞｮｳｸ","streetKana":"ﾋｶﾞｼﾀﾂﾐﾁｮｳ","prefecture":"京都府","city":"京都市上京区","street":"東辰巳町"},{"zipCode":"6028377","prefectureKana":"ｷｮｳﾄﾌ","cityKana":"ｷｮｳﾄｼｶﾐｷﾞｮｳｸ","streetKana":"ﾋｶﾞｼﾀﾃﾁｮｳ","prefecture":"京都府","city":"京都市上京区","street":"東竪町"},{"zipCode":"6028007","prefectureKana":"ｷｮｳﾄﾌ","cityKana":"ｷｮｳﾄｼｶﾐｷﾞｮｳｸ","streetKana":"ﾋｶﾞｼﾁｮｳｼﾞｬﾁｮｳ","prefecture":"京都府","city":"京都市上京区","street":"東長者町"},{"zipCode":"6020874","prefectureKana":"ｷｮｳﾄﾌ","cityKana":"ｷｮｳﾄｼｶﾐｷﾞｮｳｸ","streetKana":"ﾋｶﾞｼﾂﾁﾐｶﾄﾞﾁｮｳ","prefecture":"京都府","city":"京都市上京区","street":"東土御門町"},{"zipCode":"6028102","prefectureKana":"ｷｮｳﾄﾌ","cityKana":"ｷｮｳﾄｼｶﾐｷﾞｮｳｸ","streetKana":"ﾋｶﾞｼﾃﾝﾋﾞﾝﾁｮｳ","prefecture":"京都府","city":"京都市上京区","street":"東天秤町"},{"zipCode":"6028044","prefectureKana":"ｷｮｳﾄﾌ","cityKana":"ｷｮｳﾄｼｶﾐｷﾞｮｳｸ","streetKana":"ﾋｶﾞｼﾊｼﾂﾞﾒﾁｮｳ(ｼﾓﾀﾞﾁｳﾘﾄﾞｵﾘﾎﾘｶﾜﾋｶﾞｼｲﾙ)","prefecture":"京都府","city":"京都市上京区","street":"東橋詰町（下立売通堀川東入）"},{"zipCode":"6028066","prefectureKana":"ｷｮｳﾄﾌ","cityKana":"ｷｮｳﾄｼｶﾐｷﾞｮｳｸ","streetKana":"ﾋｶﾞｼﾊｼﾂﾞﾒﾁｮｳ(ﾅｶﾀﾁｳﾘﾄﾞｵﾘﾎﾘｶﾜﾋｶﾞｼｲﾙ)","prefecture":"京都府","city":"京都市上京区","street":"東橋詰町（中立売通堀川東入）"},{"zipCode":"6020917","prefectureKana":"ｷｮｳﾄﾌ","cityKana":"ｷｮｳﾄｼｶﾐｷﾞｮｳｸ","streetKana":"ﾋｶﾞｼﾋﾉﾄﾞﾉﾁｮｳ","prefecture":"京都府","city":"京都市上京区","street":"東日野殿町"},{"zipCode":"6028255","prefectureKana":"ｷｮｳﾄﾌ","cityKana":"ｷｮｳﾄｼｶﾐｷﾞｮｳｸ","streetKana":"ﾋｶﾞｼﾎﾘﾁｮｳ","prefecture":"京都府","city":"京都市上京区","street":"東堀町"},{"zipCode":"6020913","prefectureKana":"ｷｮｳﾄﾌ","cityKana":"ｷｮｳﾄｼｶﾐｷﾞｮｳｸ","streetKana":"ﾋｶﾞｼﾏﾁ(ﾅｶﾀﾞﾁｳﾘﾄﾞｵﾘｶﾗｽﾏﾆｼｲﾙ､ﾅｶﾀﾞﾁｳﾘﾄﾞｵﾘﾑﾛﾏﾁﾋｶﾞｼｲﾙ)","prefecture":"京都府","city":"京都市上京区","street":"東町（中立売通烏丸西入、中立売通室町東入）"},{"zipCode":"6028346","prefectureKana":"ｷｮｳﾄﾌ","cityKana":"ｷｮｳﾄｼｶﾐｷﾞｮｳｸ","streetKana":"ﾋｶﾞｼﾏﾁ","prefecture":"京都府","city":"京都市上京区","street":"東町（一条通下ノ森西入、一条通下ノ森東入、一条通七本松西"},{"zipCode":"6028346","prefectureKana":"ｷｮｳﾄﾌ","cityKana":"ｷｮｳﾄｼｶﾐｷﾞｮｳｸ","streetKana":"ﾋｶﾞｼﾏﾁ","prefecture":"京都府","city":"京都市上京区","street":"入、中立売通七本松西入）"},{"zipCode":"6020947","prefectureKana":"ｷｮｳﾄﾌ","cityKana":"ｷｮｳﾄｼｶﾐｷﾞｮｳｸ","streetKana":"ﾋｶﾞｼﾏﾁ(ﾓﾄｾｲｶﾞﾝｼﾞﾄﾞｵﾘｵｶﾞﾜﾆｼｲﾙ)","prefecture":"京都府","city":"京都市上京区","street":"東町（元誓願寺通小川西入）"},{"zipCode":"6028417","prefectureKana":"ｷｮｳﾄﾌ","cityKana":"ｷｮｳﾄｼｶﾐｷﾞｮｳｸ","streetKana":"ﾋｶﾞｼﾔｼﾛﾁｮｳ","prefecture":"京都府","city":"京都市上京区","street":"東社町"},{"zipCode":"6028317","prefectureKana":"ｷｮｳﾄﾌ","cityKana":"ｷｮｳﾄｼｶﾐｷﾞｮｳｸ","streetKana":"ﾋｶﾞｼﾔﾅｷﾞﾁｮｳ","prefecture":"京都府","city":"京都市上京区","street":"東柳町"},{"zipCode":"6020086","prefectureKana":"ｷｮｳﾄﾌ","cityKana":"ｷｮｳﾄｼｶﾐｷﾞｮｳｸ","streetKana":"ﾋｶﾞｼﾜｶﾐﾔﾁｮｳ","prefecture":"京都府","city":"京都市上京区","street":"東若宮町"},{"zipCode":"6020065","prefectureKana":"ｷｮｳﾄﾌ","cityKana":"ｷｮｳﾄｼｶﾐｷﾞｮｳｸ","streetKana":"ﾋｷｷﾞﾁｮｳ","prefecture":"京都府","city":"京都市上京区","street":"挽木町"},{"zipCode":"6028236","prefectureKana":"ｷｮｳﾄﾌ","cityKana":"ｷｮｳﾄｼｶﾐｷﾞｮｳｸ","streetKana":"ﾋｻｼﾁｮｳ","prefecture":"京都府","city":"京都市上京区","street":"庇町"},{"zipCode":"6028266","prefectureKana":"ｷｮｳﾄﾌ","cityKana":"ｷｮｳﾄｼｶﾐｷﾞｮｳｸ","streetKana":"ﾋｼﾏﾙﾁｮｳ","prefecture":"京都府","city":"京都市上京区","street":"菱丸町"},{"zipCode":"6028125","prefectureKana":"ｷｮｳﾄﾌ","cityKana":"ｷｮｳﾄｼｶﾐｷﾞｮｳｸ","streetKana":"ﾋｼﾔﾁｮｳ","prefecture":"京都府","city":"京都市上京区","street":"菱屋町（大宮通椹木町上る、大宮通下立売下る、椹木町通大宮西"},{"zipCode":"6028125","prefectureKana":"ｷｮｳﾄﾌ","cityKana":"ｷｮｳﾄｼｶﾐｷﾞｮｳｸ","streetKana":"ﾋｼﾔﾁｮｳ","prefecture":"京都府","city":"京都市上京区","street":"入、椹木町通大宮東入）"},{"zipCode":"6028451","prefectureKana":"ｷｮｳﾄﾌ","cityKana":"ｷｮｳﾄｼｶﾐｷﾞｮｳｸ","streetKana":"ﾋｼﾔﾁｮｳ(ﾅｶｽｼﾞﾄﾞｵﾘｼﾞｮｳﾌｸｼﾞﾋｶﾞｼｲﾙ､ﾅｶｽｼﾞﾄﾞｵﾘﾁｴｺｳｲﾝﾆｼｲﾙ)","prefecture":"京都府","city":"京都市上京区","street":"菱屋町（中筋通浄福寺東入、中筋通智恵光院西入）"},{"zipCode":"6028227","prefectureKana":"ｷｮｳﾄﾌ","cityKana":"ｷｮｳﾄｼｶﾐｷﾞｮｳｸ","streetKana":"ﾋﾞｼｬﾓﾝﾁｮｳ","prefecture":"京都府","city":"京都市上京区","street":"毘沙門町（大宮通一条上る東入、黒門通一条上る、黒門通元誓願寺"},{"zipCode":"6028227","prefectureKana":"ｷｮｳﾄﾌ","cityKana":"ｷｮｳﾄｼｶﾐｷﾞｮｳｸ","streetKana":"ﾋﾞｼｬﾓﾝﾁｮｳ","prefecture":"京都府","city":"京都市上京区","street":"下る、黒門通元誓願寺下る西入、黒門通一条上る西入）"},{"zipCode":"6020816","prefectureKana":"ｷｮｳﾄﾌ","cityKana":"ｷｮｳﾄｼｶﾐｷﾞｮｳｸ","streetKana":"ﾋﾞｼｬﾓﾝﾁｮｳ","prefecture":"京都府","city":"京都市上京区","street":"毘沙門町（上立売通寺町西入、上立売通寺町西入上る、上立売通寺"},{"zipCode":"6020816","prefectureKana":"ｷｮｳﾄﾌ","cityKana":"ｷｮｳﾄｼｶﾐｷﾞｮｳｸ","streetKana":"ﾋﾞｼｬﾓﾝﾁｮｳ","prefecture":"京都府","city":"京都市上京区","street":"町西入下る、上立売通寺町西入４筋目下る、寺町通今出川上る１筋目西入、寺町"},{"zipCode":"6020816","prefectureKana":"ｷｮｳﾄﾌ","cityKana":"ｷｮｳﾄｼｶﾐｷﾞｮｳｸ","streetKana":"ﾋﾞｼｬﾓﾝﾁｮｳ","prefecture":"京都府","city":"京都市上京区","street":"通今出川上る２丁目、寺町通今出川上る２丁目西入、寺町通今出川上る３丁"},{"zipCode":"6020816","prefectureKana":"ｷｮｳﾄﾌ","cityKana":"ｷｮｳﾄｼｶﾐｷﾞｮｳｸ","streetKana":"ﾋﾞｼｬﾓﾝﾁｮｳ","prefecture":"京都府","city":"京都市上京区","street":"目、寺町通今出川上る３丁目西入、寺町通今出川上る４丁目、寺町通今出川上"},{"zipCode":"6020816","prefectureKana":"ｷｮｳﾄﾌ","cityKana":"ｷｮｳﾄｼｶﾐｷﾞｮｳｸ","streetKana":"ﾋﾞｼｬﾓﾝﾁｮｳ","prefecture":"京都府","city":"京都市上京区","street":"る４丁目西入、寺町通今出川西入、寺町通今出川２丁目上る西入、塔之段寺町通"},{"zipCode":"6020816","prefectureKana":"ｷｮｳﾄﾌ","cityKana":"ｷｮｳﾄｼｶﾐｷﾞｮｳｸ","streetKana":"ﾋﾞｼｬﾓﾝﾁｮｳ","prefecture":"京都府","city":"京都市上京区","street":"今出川上る）"},{"zipCode":"6028325","prefectureKana":"ｷｮｳﾄﾌ","cityKana":"ｷｮｳﾄｼｶﾐｷﾞｮｳｸ","streetKana":"ﾋﾞｼｬﾓﾝﾁｮｳ","prefecture":"京都府","city":"京都市上京区","street":"毘沙門町（今出川通七本松西入、今出川通七本松西入上る、七本松通"},{"zipCode":"6028325","prefectureKana":"ｷｮｳﾄﾌ","cityKana":"ｷｮｳﾄｼｶﾐｷﾞｮｳｸ","streetKana":"ﾋﾞｼｬﾓﾝﾁｮｳ","prefecture":"京都府","city":"京都市上京区","street":"今出川上る、七本松通今出川下る、七本松通元誓願寺上る、七本松通五辻下る）"},{"zipCode":"6020817","prefectureKana":"ｷｮｳﾄﾌ","cityKana":"ｷｮｳﾄｼｶﾐｷﾞｮｳｸ","streetKana":"ﾋﾞｼｬﾓﾝﾖｺﾁｮｳ","prefecture":"京都府","city":"京都市上京区","street":"毘沙門横町"},{"zipCode":"6028259","prefectureKana":"ｷｮｳﾄﾌ","cityKana":"ｷｮｳﾄｼｶﾐｷﾞｮｳｸ","streetKana":"ﾋﾀﾁﾁｮｳ","prefecture":"京都府","city":"京都市上京区","street":"常陸町"},{"zipCode":"6028235","prefectureKana":"ｷｮｳﾄﾌ","cityKana":"ｷｮｳﾄｼｶﾐｷﾞｮｳｸ","streetKana":"ﾋﾀﾞﾄﾞﾉﾁｮｳ","prefecture":"京都府","city":"京都市上京区","street":"飛弾殿町"},{"zipCode":"6028425","prefectureKana":"ｷｮｳﾄﾌ","cityKana":"ｷｮｳﾄｼｶﾐｷﾞｮｳｸ","streetKana":"ﾋﾉｸﾁﾁｮｳ","prefecture":"京都府","city":"京都市上京区","street":"樋之口町"},{"zipCode":"6028276","prefectureKana":"ｷｮｳﾄﾌ","cityKana":"ｷｮｳﾄｼｶﾐｷﾞｮｳｸ","streetKana":"ﾋｬｸﾏﾝﾍﾞﾝﾁｮｳ","prefecture":"京都府","city":"京都市上京区","street":"百万遍町"},{"zipCode":"6020037","prefectureKana":"ｷｮｳﾄﾌ","cityKana":"ｷｮｳﾄｼｶﾐｷﾞｮｳｸ","streetKana":"ﾋｮｳﾀﾝｽﾞｼﾁｮｳ","prefecture":"京都府","city":"京都市上京区","street":"瓢箪図子町"},{"zipCode":"6020911","prefectureKana":"ｷｮｳﾄﾌ","cityKana":"ｷｮｳﾄｼｶﾐｷﾞｮｳｸ","streetKana":"ﾋﾛﾊｼﾄﾞﾉﾁｮｳ","prefecture":"京都府","city":"京都市上京区","street":"広橋殿町"},{"zipCode":"6028029","prefectureKana":"ｷｮｳﾄﾌ","cityKana":"ｷｮｳﾄｼｶﾐｷﾞｮｳｸ","streetKana":"ﾌﾞｴｲｼﾞﾝﾁｮｳ","prefecture":"京都府","city":"京都市上京区","street":"武衛陣町"},{"zipCode":"6028166","prefectureKana":"ｷｮｳﾄﾌ","cityKana":"ｷｮｳﾄｼｶﾐｷﾞｮｳｸ","streetKana":"ﾌｸｼﾏﾁｮｳ","prefecture":"京都府","city":"京都市上京区","street":"福島町"},{"zipCode":"6028233","prefectureKana":"ｷｮｳﾄﾌ","cityKana":"ｷｮｳﾄｼｶﾐｷﾞｮｳｸ","streetKana":"ﾌｸﾀﾞｲﾐｮｳｼﾞﾝﾁｮｳ","prefecture":"京都府","city":"京都市上京区","street":"福大明神町"},{"zipCode":"6020907","prefectureKana":"ｷｮｳﾄﾌ","cityKana":"ｷｮｳﾄｼｶﾐｷﾞｮｳｸ","streetKana":"ﾌｸﾅｶﾞﾁｮｳ","prefecture":"京都府","city":"京都市上京区","street":"福長町"},{"zipCode":"6028291","prefectureKana":"ｷｮｳﾄﾌ","cityKana":"ｷｮｳﾄｼｶﾐｷﾞｮｳｸ","streetKana":"ﾌｸﾓﾄﾁｮｳ","prefecture":"京都府","city":"京都市上京区","street":"福本町"},{"zipCode":"6020868","prefectureKana":"ｷｮｳﾄﾌ","cityKana":"ｷｮｳﾄｼｶﾐｷﾞｮｳｸ","streetKana":"ﾌｸﾛﾁｮｳ","prefecture":"京都府","city":"京都市上京区","street":"袋町"},{"zipCode":"6028423","prefectureKana":"ｷｮｳﾄﾌ","cityKana":"ｷｮｳﾄｼｶﾐｷﾞｮｳｸ","streetKana":"ﾌｼﾞﾉｷﾁｮｳ","prefecture":"京都府","city":"京都市上京区","street":"藤木町"},{"zipCode":"6020807","prefectureKana":"ｷｮｳﾄﾌ","cityKana":"ｷｮｳﾄｼｶﾐｷﾞｮｳｸ","streetKana":"ﾌﾄﾞｳﾏｴﾁｮｳ","prefecture":"京都府","city":"京都市上京区","street":"不動前町"},{"zipCode":"6020026","prefectureKana":"ｷｮｳﾄﾌ","cityKana":"ｷｮｳﾄｼｶﾐｷﾞｮｳｸ","streetKana":"ﾌﾙｷﾁｮｳ","prefecture":"京都府","city":"京都市上京区","street":"古木町"},{"zipCode":"6028408","prefectureKana":"ｷｮｳﾄﾌ","cityKana":"ｷｮｳﾄｼｶﾐｷﾞｮｳｸ","streetKana":"ﾌﾙﾐﾉﾍﾞﾁｮｳ","prefecture":"京都府","city":"京都市上京区","street":"古美濃部町"},{"zipCode":"6028313","prefectureKana":"ｷｮｳﾄﾌ","cityKana":"ｷｮｳﾄｼｶﾐｷﾞｮｳｸ","streetKana":"ﾌﾛﾔﾁｮｳ","prefecture":"京都府","city":"京都市上京区","street":"風呂屋町"},{"zipCode":"6028174","prefectureKana":"ｷｮｳﾄﾌ","cityKana":"ｷｮｳﾄｼｶﾐｷﾞｮｳｸ","streetKana":"ﾌﾞﾝﾄﾞｳﾁｮｳ","prefecture":"京都府","city":"京都市上京区","street":"分銅町"},{"zipCode":"6020939","prefectureKana":"ｷｮｳﾄﾌ","cityKana":"ｷｮｳﾄｼｶﾐｷﾞｮｳｸ","streetKana":"ﾍﾞﾝｻﾞｲﾃﾝﾁｮｳ","prefecture":"京都府","city":"京都市上京区","street":"弁財天町"},{"zipCode":"6028168","prefectureKana":"ｷｮｳﾄﾌ","cityKana":"ｷｮｳﾄｼｶﾐｷﾞｮｳｸ","streetKana":"ﾍﾞﾝﾃﾝﾁｮｳ","prefecture":"京都府","city":"京都市上京区","street":"弁天町"},{"zipCode":"6020062","prefectureKana":"ｷｮｳﾄﾌ","cityKana":"ｷｮｳﾄｼｶﾐｷﾞｮｳｸ","streetKana":"ﾎｳｷｮｳｲﾝﾋｶﾞｼﾏﾁ","prefecture":"京都府","city":"京都市上京区","street":"宝鏡院東町"},{"zipCode":"6028357","prefectureKana":"ｷｮｳﾄﾌ","cityKana":"ｷｮｳﾄｼｶﾐｷﾞｮｳｸ","streetKana":"ﾎｳｽﾞｲﾁｮｳ","prefecture":"京都府","city":"京都市上京区","street":"鳳瑞町"},{"zipCode":"6028496","prefectureKana":"ｷｮｳﾄﾌ","cityKana":"ｷｮｳﾄｼｶﾐｷﾞｮｳｸ","streetKana":"ﾎﾞｹﾊﾗﾁｮｳ","prefecture":"京都府","city":"京都市上京区","street":"木瓜原町"},{"zipCode":"6028475","prefectureKana":"ｷｮｳﾄﾌ","cityKana":"ｷｮｳﾄｼｶﾐｷﾞｮｳｸ","streetKana":"ﾎﾞﾀﾝﾎﾞｺﾁｮｳ","prefecture":"京都府","city":"京都市上京区","street":"牡丹鉾町"},{"zipCode":"6028221","prefectureKana":"ｷｮｳﾄﾌ","cityKana":"ｷｮｳﾄｼｶﾐｷﾞｮｳｸ","streetKana":"ﾎﾘｶﾜｶﾐﾉﾁｮｳ","prefecture":"京都府","city":"京都市上京区","street":"堀川上之町"},{"zipCode":"6028232","prefectureKana":"ｷｮｳﾄﾌ","cityKana":"ｷｮｳﾄｼｶﾐｷﾞｮｳｸ","streetKana":"ﾎﾘｶﾜｼﾓﾉﾁｮｳ","prefecture":"京都府","city":"京都市上京区","street":"堀川下之町"},{"zipCode":"6028367","prefectureKana":"ｷｮｳﾄﾌ","cityKana":"ｷｮｳﾄｼｶﾐｷﾞｮｳｸ","streetKana":"ﾎﾘｶﾜﾁｮｳ","prefecture":"京都府","city":"京都市上京区","street":"堀川町"},{"zipCode":"6020931","prefectureKana":"ｷｮｳﾄﾌ","cityKana":"ｷｮｳﾄｼｶﾐｷﾞｮｳｸ","streetKana":"ﾎﾘﾀﾞｼﾁｮｳ","prefecture":"京都府","city":"京都市上京区","street":"堀出シ町"},{"zipCode":"6020057","prefectureKana":"ｷｮｳﾄﾌ","cityKana":"ｷｮｳﾄｼｶﾐｷﾞｮｳｸ","streetKana":"ﾎﾘﾉｳｴﾁｮｳ","prefecture":"京都府","city":"京都市上京区","street":"堀之上町"},{"zipCode":"6028021","prefectureKana":"ｷｮｳﾄﾌ","cityKana":"ｷｮｳﾄｼｶﾐｷﾞｮｳｸ","streetKana":"ﾎﾘﾏﾂﾁｮｳ","prefecture":"京都府","city":"京都市上京区","street":"堀松町"},{"zipCode":"6020061","prefectureKana":"ｷｮｳﾄﾌ","cityKana":"ｷｮｳﾄｼｶﾐｷﾞｮｳｸ","streetKana":"ﾎﾝﾎﾟｳｼﾞﾏｴﾁｮｳ","prefecture":"京都府","city":"京都市上京区","street":"本法寺前町"},{"zipCode":"6020812","prefectureKana":"ｷｮｳﾄﾌ","cityKana":"ｷｮｳﾄｼｶﾐｷﾞｮｳｸ","streetKana":"ﾎﾝﾏﾝｼﾞﾏｴﾁｮｳ","prefecture":"京都府","city":"京都市上京区","street":"本満寺前町"},{"zipCode":"6028415","prefectureKana":"ｷｮｳﾄﾌ","cityKana":"ｷｮｳﾄｼｶﾐｷﾞｮｳｸ","streetKana":"ﾏｴﾉﾁｮｳ","prefecture":"京都府","city":"京都市上京区","street":"前之町"},{"zipCode":"6020036","prefectureKana":"ｷｮｳﾄﾌ","cityKana":"ｷｮｳﾄｼｶﾐｷﾞｮｳｸ","streetKana":"ﾏｷﾄﾘﾔﾁｮｳ","prefecture":"京都府","city":"京都市上京区","street":"蒔鳥屋町"},{"zipCode":"6028488","prefectureKana":"ｷｮｳﾄﾌ","cityKana":"ｷｮｳﾄｼｶﾐｷﾞｮｳｸ","streetKana":"ﾏｸﾗﾁｮｳ","prefecture":"京都府","city":"京都市上京区","street":"真倉町"},{"zipCode":"6020877","prefectureKana":"ｷｮｳﾄﾌ","cityKana":"ｷｮｳﾄｼｶﾐｷﾞｮｳｸ","streetKana":"ﾏｽﾔﾁｮｳ(ｶﾜﾗﾏﾁﾄﾞｵﾘﾏﾙﾀﾏﾁｱｶﾞﾙ)","prefecture":"京都府","city":"京都市上京区","street":"桝屋町（河原町通丸太町上る）"},{"zipCode":"6028201","prefectureKana":"ｷｮｳﾄﾌ","cityKana":"ｷｮｳﾄｼｶﾐｷﾞｮｳｸ","streetKana":"ﾏｽﾔﾁｮｳ(ｻｻﾔﾏﾁﾄﾞｵﾘｵｵﾐﾔﾆｼｲﾙ､ｻｻﾔﾏﾁﾄﾞｵﾘﾁｴｺｳｲﾝﾋｶﾞｼｲﾙ)","prefecture":"京都府","city":"京都市上京区","street":"桝屋町（笹屋町通大宮西入、笹屋町通智恵光院東入）"},{"zipCode":"6028111","prefectureKana":"ｷｮｳﾄﾌ","cityKana":"ｷｮｳﾄｼｶﾐｷﾞｮｳｸ","streetKana":"ﾏｽﾔﾁｮｳ(ﾆｼﾎﾘｶﾜﾄﾞｵﾘｼﾓﾁｮｳｼﾞｬﾏﾁｻｶﾞﾙ､ﾆｼﾎﾘｶﾜﾄﾞｵﾘﾃﾞﾐｽﾞｱｶﾞﾙ)","prefecture":"京都府","city":"京都市上京区","street":"桝屋町（西堀川通下長者町下る、西堀川通出水上る）"},{"zipCode":"6020867","prefectureKana":"ｷｮｳﾄﾌ","cityKana":"ｷｮｳﾄｼｶﾐｷﾞｮｳｸ","streetKana":"ﾏﾂｶｹﾞﾁｮｳ","prefecture":"京都府","city":"京都市上京区","street":"松蔭町"},{"zipCode":"6028338","prefectureKana":"ｷｮｳﾄﾌ","cityKana":"ｷｮｳﾄｼｶﾐｷﾞｮｳｸ","streetKana":"ﾏﾂﾅｶﾞﾁｮｳ","prefecture":"京都府","city":"京都市上京区","street":"松永町"},{"zipCode":"6020819","prefectureKana":"ｷｮｳﾄﾌ","cityKana":"ｷｮｳﾄｼｶﾐｷﾞｮｳｸ","streetKana":"ﾏﾂﾉｷﾁｮｳ","prefecture":"京都府","city":"京都市上京区","street":"松之木町"},{"zipCode":"6028068","prefectureKana":"ｷｮｳﾄﾌ","cityKana":"ｷｮｳﾄｼｶﾐｷﾞｮｳｸ","streetKana":"ﾏﾂﾉｼﾀﾁｮｳ","prefecture":"京都府","city":"京都市上京区","street":"松之下町"},{"zipCode":"6028465","prefectureKana":"ｷｮｳﾄﾌ","cityKana":"ｷｮｳﾄｼｶﾐｷﾞｮｳｸ","streetKana":"ﾏﾂﾔﾁｮｳ","prefecture":"京都府","city":"京都市上京区","street":"松屋町"},{"zipCode":"6028139","prefectureKana":"ｷｮｳﾄﾌ","cityKana":"ｷｮｳﾄｼｶﾐｷﾞｮｳｸ","streetKana":"ﾏﾙﾔﾁｮｳ","prefecture":"京都府","city":"京都市上京区","street":"丸屋町"},{"zipCode":"6028426","prefectureKana":"ｷｮｳﾄﾌ","cityKana":"ｷｮｳﾄｼｶﾐｷﾞｮｳｸ","streetKana":"ﾏﾝﾀﾞﾗﾁｮｳ","prefecture":"京都府","city":"京都市上京区","street":"曼陀羅町"},{"zipCode":"6020058","prefectureKana":"ｷｮｳﾄﾌ","cityKana":"ｷｮｳﾄｼｶﾐｷﾞｮｳｸ","streetKana":"ﾐｽﾞｵﾁﾁｮｳ","prefecture":"京都府","city":"京都市上京区","street":"水落町"},{"zipCode":"6028319","prefectureKana":"ｷｮｳﾄﾌ","cityKana":"ｷｮｳﾄｼｶﾐｷﾞｮｳｸ","streetKana":"ﾐｿﾞﾏｴﾁｮｳ","prefecture":"京都府","city":"京都市上京区","street":"溝前町"},{"zipCode":"6028153","prefectureKana":"ｷｮｳﾄﾌ","cityKana":"ｷｮｳﾄｼｶﾐｷﾞｮｳｸ","streetKana":"ﾐﾅﾐｲｾﾔﾁｮｳ","prefecture":"京都府","city":"京都市上京区","street":"南伊勢屋町"},{"zipCode":"6028122","prefectureKana":"ｷｮｳﾄﾌ","cityKana":"ｷｮｳﾄｼｶﾐｷﾞｮｳｸ","streetKana":"ﾐﾅﾐｶﾆﾔﾁｮｳ","prefecture":"京都府","city":"京都市上京区","street":"南蟹屋町"},{"zipCode":"6020941","prefectureKana":"ｷｮｳﾄﾌ","cityKana":"ｷｮｳﾄｼｶﾐｷﾞｮｳｸ","streetKana":"ﾐﾅﾐｶﾈﾔｽﾁｮｳ","prefecture":"京都府","city":"京都市上京区","street":"南兼康町"},{"zipCode":"6028253","prefectureKana":"ｷｮｳﾄﾌ","cityKana":"ｷｮｳﾄｼｶﾐｷﾞｮｳｸ","streetKana":"ﾐﾅﾐｺﾀﾞｲﾓﾝﾁｮｳ","prefecture":"京都府","city":"京都市上京区","street":"南小大門町"},{"zipCode":"6028327","prefectureKana":"ｷｮｳﾄﾌ","cityKana":"ｷｮｳﾄｼｶﾐｷﾞｮｳｸ","streetKana":"ﾐﾅﾐｻﾀｹﾁｮｳ","prefecture":"京都府","city":"京都市上京区","street":"南佐竹町"},{"zipCode":"6028108","prefectureKana":"ｷｮｳﾄﾌ","cityKana":"ｷｮｳﾄｼｶﾐｷﾞｮｳｸ","streetKana":"ﾐﾅﾐｼﾐｽﾞﾁｮｳ","prefecture":"京都府","city":"京都市上京区","street":"南清水町"},{"zipCode":"6028321","prefectureKana":"ｷｮｳﾄﾌ","cityKana":"ｷｮｳﾄｼｶﾐｷﾞｮｳｸ","streetKana":"ﾐﾅﾐｼﾞｮｳｾﾞﾝｼﾞﾁｮｳ","prefecture":"京都府","city":"京都市上京区","street":"南上善寺町"},{"zipCode":"6028206","prefectureKana":"ｷｮｳﾄﾌ","cityKana":"ｷｮｳﾄｼｶﾐｷﾞｮｳｸ","streetKana":"ﾐﾅﾐｼﾝｻﾞｲｹﾁｮｳ","prefecture":"京都府","city":"京都市上京区","street":"南新在家町"},{"zipCode":"6028248","prefectureKana":"ｷｮｳﾄﾌ","cityKana":"ｷｮｳﾄｼｶﾐｷﾞｮｳｸ","streetKana":"ﾐﾅﾐﾀﾜﾗﾁｮｳ","prefecture":"京都府","city":"京都市上京区","street":"南俵町"},{"zipCode":"6020865","prefectureKana":"ｷｮｳﾄﾌ","cityKana":"ｷｮｳﾄｼｶﾐｷﾞｮｳｸ","streetKana":"ﾐﾅﾐﾁｮｳ","prefecture":"京都府","city":"京都市上京区","street":"南町"},{"zipCode":"6028466","prefectureKana":"ｷｮｳﾄﾌ","cityKana":"ｷｮｳﾄｼｶﾐｷﾞｮｳｸ","streetKana":"ﾐﾅﾐﾂｼﾞﾁｮｳ","prefecture":"京都府","city":"京都市上京区","street":"南辻町"},{"zipCode":"6020055","prefectureKana":"ｷｮｳﾄﾌ","cityKana":"ｷｮｳﾄｼｶﾐｷﾞｮｳｸ","streetKana":"ﾐﾅﾐﾌﾅﾊｼﾁｮｳ","prefecture":"京都府","city":"京都市上京区","street":"南舟橋町"},{"zipCode":"6028217","prefectureKana":"ｷｮｳﾄﾌ","cityKana":"ｷｮｳﾄｼｶﾐｷﾞｮｳｸ","streetKana":"ﾐﾅﾐﾓﾝｾﾞﾝﾁｮｳ","prefecture":"京都府","city":"京都市上京区","street":"南門前町"},{"zipCode":"6020853","prefectureKana":"ｷｮｳﾄﾌ","cityKana":"ｷｮｳﾄｼｶﾐｷﾞｮｳｸ","streetKana":"ﾐﾔｶﾞｷﾁｮｳ","prefecture":"京都府","city":"京都市上京区","street":"宮垣町"},{"zipCode":"6020005","prefectureKana":"ｷｮｳﾄﾌ","cityKana":"ｷｮｳﾄｼｶﾐｷﾞｮｳｸ","streetKana":"ﾐｮｳｹﾝｼﾞﾏｴﾁｮｳ","prefecture":"京都府","city":"京都市上京区","street":"妙顕寺前町"},{"zipCode":"6028418","prefectureKana":"ｷｮｳﾄﾌ","cityKana":"ｷｮｳﾄｼｶﾐｷﾞｮｳｸ","streetKana":"ﾐｮｳﾚﾝｼﾞﾏｴﾁｮｳ","prefecture":"京都府","city":"京都市上京区","street":"妙蓮寺前町"},{"zipCode":"6020823","prefectureKana":"ｷｮｳﾄﾌ","cityKana":"ｷｮｳﾄｼｶﾐｷﾞｮｳｸ","streetKana":"ﾐﾖｼﾁｮｳ","prefecture":"京都府","city":"京都市上京区","street":"三芳町"},{"zipCode":"6020933","prefectureKana":"ｷｮｳﾄﾌ","cityKana":"ｷｮｳﾄｼｶﾐｷﾞｮｳｸ","streetKana":"ﾑｼｬｺｳｼﾞﾁｮｳ","prefecture":"京都府","city":"京都市上京区","street":"武者小路町"},{"zipCode":"6028211","prefectureKana":"ｷｮｳﾄﾌ","cityKana":"ｷｮｳﾄｼｶﾐｷﾞｮｳｸ","streetKana":"ﾑﾗｸﾓﾁｮｳ","prefecture":"京都府","city":"京都市上京区","street":"村雲町"},{"zipCode":"6020029","prefectureKana":"ｷｮｳﾄﾌ","cityKana":"ｷｮｳﾄｼｶﾐｷﾞｮｳｸ","streetKana":"ﾑﾛﾏﾁｶｼﾗﾁｮｳ","prefecture":"京都府","city":"京都市上京区","street":"室町頭町"},{"zipCode":"6028435","prefectureKana":"ｷｮｳﾄﾌ","cityKana":"ｷｮｳﾄｼｶﾐｷﾞｮｳｸ","streetKana":"ﾓﾄｲｻﾁｮｳ","prefecture":"京都府","city":"京都市上京区","street":"元伊佐町"},{"zipCode":"6028324","prefectureKana":"ｷｮｳﾄﾌ","cityKana":"ｷｮｳﾄｼｶﾐｷﾞｮｳｸ","streetKana":"ﾓﾄｶﾝﾉﾝﾁｮｳ","prefecture":"京都府","city":"京都市上京区","street":"元観音町"},{"zipCode":"6028448","prefectureKana":"ｷｮｳﾄﾌ","cityKana":"ｷｮｳﾄｼｶﾐｷﾞｮｳｸ","streetKana":"ﾓﾄｷﾀｺｳｼﾞﾁｮｳ","prefecture":"京都府","city":"京都市上京区","street":"元北小路町"},{"zipCode":"6028001","prefectureKana":"ｷｮｳﾄﾌ","cityKana":"ｷｮｳﾄｼｶﾐｷﾞｮｳｸ","streetKana":"ﾓﾄｼﾞｮｳｶｲﾝﾁｮｳ","prefecture":"京都府","city":"京都市上京区","street":"元浄花院町"},{"zipCode":"6020042","prefectureKana":"ｷｮｳﾄﾌ","cityKana":"ｷｮｳﾄｼｶﾐｷﾞｮｳｸ","streetKana":"ﾓﾄｼﾝｻﾞｲｹﾁｮｳ","prefecture":"京都府","city":"京都市上京区","street":"元新在家町"},{"zipCode":"6020926","prefectureKana":"ｷｮｳﾄﾌ","cityKana":"ｷｮｳﾄｼｶﾐｷﾞｮｳｸ","streetKana":"ﾓﾄｼﾝﾆｮﾄﾞｳﾁｮｳ","prefecture":"京都府","city":"京都市上京区","street":"元真如堂町"},{"zipCode":"6020938","prefectureKana":"ｷｮｳﾄﾌ","cityKana":"ｷｮｳﾄｼｶﾐｷﾞｮｳｸ","streetKana":"ﾓﾄｽﾞｼﾁｮｳ","prefecture":"京都府","city":"京都市上京区","street":"元図子町"},{"zipCode":"6028005","prefectureKana":"ｷｮｳﾄﾌ","cityKana":"ｷｮｳﾄｼｶﾐｷﾞｮｳｸ","streetKana":"ﾓﾄﾁｮｳﾐｮｳｼﾞﾁｮｳ","prefecture":"京都府","city":"京都市上京区","street":"元頂妙寺町"},{"zipCode":"6028006","prefectureKana":"ｷｮｳﾄﾌ","cityKana":"ｷｮｳﾄｼｶﾐｷﾞｮｳｸ","streetKana":"ﾓﾄﾂﾁﾐｶﾄﾞﾁｮｳ","prefecture":"京都府","city":"京都市上京区","street":"元土御門町"},{"zipCode":"6028452","prefectureKana":"ｷｮｳﾄﾌ","cityKana":"ｷｮｳﾄｼｶﾐｷﾞｮｳｸ","streetKana":"ﾓﾄﾅｶﾉﾁｮｳ","prefecture":"京都府","city":"京都市上京区","street":"元中之町"},{"zipCode":"6020953","prefectureKana":"ｷｮｳﾄﾌ","cityKana":"ｷｮｳﾄｼｶﾐｷﾞｮｳｸ","streetKana":"ﾓﾄﾋｬｸﾏﾝﾍﾞﾝﾁｮｳ","prefecture":"京都府","city":"京都市上京区","street":"元百万遍町"},{"zipCode":"6028113","prefectureKana":"ｷｮｳﾄﾌ","cityKana":"ｷｮｳﾄｼｶﾐｷﾞｮｳｸ","streetKana":"ﾓﾄﾌｸﾀﾞｲﾐｮｳｼﾞﾝﾁｮｳ","prefecture":"京都府","city":"京都市上京区","street":"元福大明神町"},{"zipCode":"6020043","prefectureKana":"ｷｮｳﾄﾌ","cityKana":"ｷｮｳﾄｼｶﾐｷﾞｮｳｸ","streetKana":"ﾓﾄﾎﾝﾏﾝｼﾞﾁｮｳ","prefecture":"京都府","city":"京都市上京区","street":"元本満寺町"},{"zipCode":"6028443","prefectureKana":"ｷｮｳﾄﾌ","cityKana":"ｷｮｳﾄｼｶﾐｷﾞｮｳｸ","streetKana":"ﾓﾄﾐｮｳﾚﾝｼﾞﾁｮｳ","prefecture":"京都府","city":"京都市上京区","street":"元妙蓮寺町"},{"zipCode":"6028464","prefectureKana":"ｷｮｳﾄﾌ","cityKana":"ｷｮｳﾄｼｶﾐｷﾞｮｳｸ","streetKana":"ﾓﾄﾖﾝﾁｮｳﾒ","prefecture":"京都府","city":"京都市上京区","street":"元四丁目"},{"zipCode":"6028124","prefectureKana":"ｷｮｳﾄﾌ","cityKana":"ｷｮｳﾄｼｶﾐｷﾞｮｳｸ","streetKana":"ﾓﾘﾅｶﾁｮｳ","prefecture":"京都府","city":"京都市上京区","street":"森中町"},{"zipCode":"6020011","prefectureKana":"ｷｮｳﾄﾌ","cityKana":"ｷｮｳﾄｼｶﾐｷﾞｮｳｸ","streetKana":"ﾓﾘﾉｷﾁｮｳ","prefecture":"京都府","city":"京都市上京区","street":"森之木町"},{"zipCode":"6028028","prefectureKana":"ｷｮｳﾄﾌ","cityKana":"ｷｮｳﾄｼｶﾐｷﾞｮｳｸ","streetKana":"ﾓﾝｾﾞｷﾁｮｳ","prefecture":"京都府","city":"京都市上京区","street":"門跡町"},{"zipCode":"6028447","prefectureKana":"ｷｮｳﾄﾌ","cityKana":"ｷｮｳﾄｼｶﾐｷﾞｮｳｸ","streetKana":"ﾓﾝﾔﾁｮｳ","prefecture":"京都府","city":"京都市上京区","street":"紋屋町"},{"zipCode":"6028442","prefectureKana":"ｷｮｳﾄﾌ","cityKana":"ｷｮｳﾄｼｶﾐｷﾞｮｳｸ","streetKana":"ﾔｸｼﾁｮｳ","prefecture":"京都府","city":"京都市上京区","street":"薬師町"},{"zipCode":"6028401","prefectureKana":"ｷｮｳﾄﾌ","cityKana":"ｷｮｳﾄｼｶﾐｷﾞｮｳｸ","streetKana":"ﾔｸｼﾏｴﾁｮｳ","prefecture":"京都府","city":"京都市上京区","street":"薬師前町"},{"zipCode":"6028241","prefectureKana":"ｷｮｳﾄﾌ","cityKana":"ｷｮｳﾄｼｶﾐｷﾞｮｳｸ","streetKana":"ﾔｸﾆﾝﾁｮｳ","prefecture":"京都府","city":"京都市上京区","street":"役人町"},{"zipCode":"6020095","prefectureKana":"ｷｮｳﾄﾌ","cityKana":"ｷｮｳﾄｼｶﾐｷﾞｮｳｸ","streetKana":"ﾔｼﾛﾂｷﾇｹﾁｮｳ","prefecture":"京都府","city":"京都市上京区","street":"社突抜町"},{"zipCode":"6020094","prefectureKana":"ｷｮｳﾄﾌ","cityKana":"ｷｮｳﾄｼｶﾐｷﾞｮｳｸ","streetKana":"ﾔｼﾛﾖｺﾁｮｳ","prefecture":"京都府","city":"京都市上京区","street":"社横町"},{"zipCode":"6020021","prefectureKana":"ｷｮｳﾄﾌ","cityKana":"ｷｮｳﾄｼｶﾐｷﾞｮｳｸ","streetKana":"ﾔﾅｷﾞﾉｽﾞｼﾁｮｳ","prefecture":"京都府","city":"京都市上京区","street":"柳図子町"},{"zipCode":"6020838","prefectureKana":"ｷｮｳﾄﾌ","cityKana":"ｷｮｳﾄｼｶﾐｷﾞｮｳｸ","streetKana":"ﾔﾅｷﾞﾌﾛﾁｮｳ","prefecture":"京都府","city":"京都市上京区","street":"柳風呂町"},{"zipCode":"6028037","prefectureKana":"ｷｮｳﾄﾌ","cityKana":"ｷｮｳﾄｼｶﾐｷﾞｮｳｸ","streetKana":"ﾔﾊﾀﾁｮｳ","prefecture":"京都府","city":"京都市上京区","street":"八幡町"},{"zipCode":"6028041","prefectureKana":"ｷｮｳﾄﾌ","cityKana":"ｷｮｳﾄｼｶﾐｷﾞｮｳｸ","streetKana":"ﾔﾌﾞﾉｳﾁﾁｮｳ","prefecture":"京都府","city":"京都市上京区","street":"藪之内町"},{"zipCode":"6020806","prefectureKana":"ｷｮｳﾄﾌ","cityKana":"ｷｮｳﾄｼｶﾐｷﾞｮｳｸ","streetKana":"ﾔﾌﾞﾉｼﾀﾁｮｳ","prefecture":"京都府","city":"京都市上京区","street":"藪之下町"},{"zipCode":"6028268","prefectureKana":"ｷｮｳﾄﾌ","cityKana":"ｷｮｳﾄｼｶﾐｷﾞｮｳｸ","streetKana":"ﾔﾏｻﾞﾄﾁｮｳ","prefecture":"京都府","city":"京都市上京区","street":"山里町"},{"zipCode":"6028422","prefectureKana":"ｷｮｳﾄﾌ","cityKana":"ｷｮｳﾄｼｶﾐｷﾞｮｳｸ","streetKana":"ﾔﾏﾅﾁｮｳ","prefecture":"京都府","city":"京都市上京区","street":"山名町"},{"zipCode":"6028171","prefectureKana":"ｷｮｳﾄﾌ","cityKana":"ｷｮｳﾄｼｶﾐｷﾞｮｳｸ","streetKana":"ﾔﾏﾓﾄﾁｮｳ","prefecture":"京都府","city":"京都市上京区","street":"山本町"},{"zipCode":"6028366","prefectureKana":"ｷｮｳﾄﾌ","cityKana":"ｷｮｳﾄｼｶﾐｷﾞｮｳｸ","streetKana":"ﾕｸｴﾁｮｳ","prefecture":"京都府","city":"京都市上京区","street":"行衛町"},{"zipCode":"6028022","prefectureKana":"ｷｮｳﾄﾌ","cityKana":"ｷｮｳﾄｼｶﾐｷﾞｮｳｸ","streetKana":"ﾖｳｱﾝﾁｮｳ","prefecture":"京都府","city":"京都市上京区","street":"養安町"},{"zipCode":"6028449","prefectureKana":"ｷｮｳﾄﾌ","cityKana":"ｷｮｳﾄｼｶﾐｷﾞｮｳｸ","streetKana":"ﾖｺｵｵﾐﾔﾁｮｳ","prefecture":"京都府","city":"京都市上京区","street":"横大宮町"},{"zipCode":"6028223","prefectureKana":"ｷｮｳﾄﾌ","cityKana":"ｷｮｳﾄｼｶﾐｷﾞｮｳｸ","streetKana":"ﾖｺｼﾝﾒｲﾁｮｳ","prefecture":"京都府","city":"京都市上京区","street":"横神明町"},{"zipCode":"6028117","prefectureKana":"ｷｮｳﾄﾌ","cityKana":"ｷｮｳﾄｼｶﾐｷﾞｮｳｸ","streetKana":"ﾖｼﾉﾁｮｳ","prefecture":"京都府","city":"京都市上京区","street":"吉野町"},{"zipCode":"6028112","prefectureKana":"ｷｮｳﾄﾌ","cityKana":"ｷｮｳﾄｼｶﾐｷﾞｮｳｸ","streetKana":"ﾖﾝﾁｮｳﾒ(ﾆｼﾎﾘｶﾜﾄﾞｵﾘｼﾓﾀﾞﾁｳﾘｱｶﾞﾙ､ﾆｼﾎﾘｶﾜﾄﾞｵﾘﾃﾞﾐｽﾞｻｶﾞﾙ)","prefecture":"京都府","city":"京都市上京区","street":"四町目（西堀川通下立売上る、西堀川通出水下る）"},{"zipCode":"6028045","prefectureKana":"ｷｮｳﾄﾌ","cityKana":"ｷｮｳﾄｼｶﾐｷﾞｮｳｸ","streetKana":"ﾖﾝﾁｮｳﾒ","prefecture":"京都府","city":"京都市上京区","street":"四町目（出水通油小路西入、出水通堀川東入、出水通堀川東入"},{"zipCode":"6028045","prefectureKana":"ｷｮｳﾄﾌ","cityKana":"ｷｮｳﾄｼｶﾐｷﾞｮｳｸ","streetKana":"ﾖﾝﾁｮｳﾒ","prefecture":"京都府","city":"京都市上京区","street":"下る、出水通東堀川東入、下立売通堀川東入、下立売通堀川東入上る、下立売通"},{"zipCode":"6028045","prefectureKana":"ｷｮｳﾄﾌ","cityKana":"ｷｮｳﾄｼｶﾐｷﾞｮｳｸ","streetKana":"ﾖﾝﾁｮｳﾒ","prefecture":"京都府","city":"京都市上京区","street":"堀川東入下る、東堀川通下立売上る、東堀川通出水下る）"},{"zipCode":"6028154","prefectureKana":"ｷｮｳﾄﾌ","cityKana":"ｷｮｳﾄｼｶﾐｷﾞｮｳｸ","streetKana":"ﾖﾝﾁｮｳﾒ","prefecture":"京都府","city":"京都市上京区","street":"四町目（竹屋町通日暮西入、日暮通竹屋町上る、日暮通丸太町下"},{"zipCode":"6028154","prefectureKana":"ｷｮｳﾄﾌ","cityKana":"ｷｮｳﾄｼｶﾐｷﾞｮｳｸ","streetKana":"ﾖﾝﾁｮｳﾒ","prefecture":"京都府","city":"京都市上京区","street":"る、日暮通丸太町下る西入）"},{"zipCode":"6028347","prefectureKana":"ｷｮｳﾄﾌ","cityKana":"ｷｮｳﾄｼｶﾐｷﾞｮｳｸ","streetKana":"ﾖﾝﾊﾞﾝﾁｮｳ","prefecture":"京都府","city":"京都市上京区","street":"四番町"},{"zipCode":"6028343","prefectureKana":"ｷｮｳﾄﾌ","cityKana":"ｷｮｳﾄｼｶﾐｷﾞｮｳｸ","streetKana":"ﾘｾｲﾁｮｳ","prefecture":"京都府","city":"京都市上京区","street":"利生町"},{"zipCode":"6020831","prefectureKana":"ｷｮｳﾄﾌ","cityKana":"ｷｮｳﾄｼｶﾐｷﾞｮｳｸ","streetKana":"ﾘｭｳﾎﾝｼﾞﾏｴﾁｮｳ","prefecture":"京都府","city":"京都市上京区","street":"立本寺前町"},{"zipCode":"6028016","prefectureKana":"ｷｮｳﾄﾌ","cityKana":"ｷｮｳﾄｼｶﾐｷﾞｮｳｸ","streetKana":"ﾘｮｳｺﾞﾘｮｳﾁｮｳ","prefecture":"京都府","city":"京都市上京区","street":"両御霊町"},{"zipCode":"6028035","prefectureKana":"ｷｮｳﾄﾌ","cityKana":"ｷｮｳﾄｼｶﾐｷﾞｮｳｸ","streetKana":"ﾛｸﾁｮｳﾒ","prefecture":"京都府","city":"京都市上京区","street":"六町目"},{"zipCode":"6028351","prefectureKana":"ｷｮｳﾄﾌ","cityKana":"ｷｮｳﾄｼｶﾐｷﾞｮｳｸ","streetKana":"ﾛｸﾊﾞﾝﾁｮｳ","prefecture":"京都府","city":"京都市上京区","street":"六番町"},{"zipCode":"6028331","prefectureKana":"ｷｮｳﾄﾌ","cityKana":"ｷｮｳﾄｼｶﾐｷﾞｮｳｸ","streetKana":"ﾜｶﾏﾂﾁｮｳ","prefecture":"京都府","city":"京都市上京区","street":"若松町"},{"zipCode":"6020085","prefectureKana":"ｷｮｳﾄﾌ","cityKana":"ｷｮｳﾄｼｶﾐｷﾞｮｳｸ","streetKana":"ﾜｶﾐﾔﾀﾃﾁｮｳ","prefecture":"京都府","city":"京都市上京区","street":"若宮竪町"},{"zipCode":"6020084","prefectureKana":"ｷｮｳﾄﾌ","cityKana":"ｷｮｳﾄｼｶﾐｷﾞｮｳｸ","streetKana":"ﾜｶﾐﾔﾖｺﾁｮｳ","prefecture":"京都府","city":"京都市上京区","street":"若宮横町"},{"zipCode":"6028258","prefectureKana":"ｷｮｳﾄﾌ","cityKana":"ｷｮｳﾄｼｶﾐｷﾞｮｳｸ","streetKana":"ﾜｽｲﾁｮｳ","prefecture":"京都府","city":"京都市上京区","street":"和水町"},{"zipCode":"6028144","prefectureKana":"ｷｮｳﾄﾌ","cityKana":"ｷｮｳﾄｼｶﾐｷﾞｮｳｸ","streetKana":"ﾜﾗﾔﾁｮｳ","prefecture":"京都府","city":"京都市上京区","street":"藁屋町"}]