[{"zipCode":"6210000","prefectureKana":"ｷｮｳﾄﾌ","cityKana":"ｶﾒｵｶｼ","streetKana":"ｲｶﾆｹｲｻｲｶﾞﾅｲﾊﾞｱｲ","prefecture":"京都府","city":"亀岡市","street":"以下に掲載がない場合"},{"zipCode":"6210001","prefectureKana":"ｷｮｳﾄﾌ","cityKana":"ｶﾒｵｶｼ","streetKana":"ｱｻﾋﾁｮｳ","prefecture":"京都府","city":"亀岡市","street":"旭町"},{"zipCode":"6210806","prefectureKana":"ｷｮｳﾄﾌ","cityKana":"ｶﾒｵｶｼ","streetKana":"ｱﾏﾙﾍﾞﾁｮｳ","prefecture":"京都府","city":"亀岡市","street":"余部町"},{"zipCode":"6210851","prefectureKana":"ｷｮｳﾄﾌ","cityKana":"ｶﾒｵｶｼ","streetKana":"ｱﾗﾂｶﾁｮｳ","prefecture":"京都府","city":"亀岡市","street":"荒塚町"},{"zipCode":"6210864","prefectureKana":"ｷｮｳﾄﾌ","cityKana":"ｶﾒｵｶｼ","streetKana":"ｳﾁﾏﾙﾁｮｳ","prefecture":"京都府","city":"亀岡市","street":"内丸町"},{"zipCode":"6210801","prefectureKana":"ｷｮｳﾄﾌ","cityKana":"ｶﾒｵｶｼ","streetKana":"ｳﾂﾈﾁｮｳ","prefecture":"京都府","city":"亀岡市","street":"宇津根町"},{"zipCode":"6210008","prefectureKana":"ｷｮｳﾄﾌ","cityKana":"ｶﾒｵｶｼ","streetKana":"ｳﾏｼﾞﾁｮｳ","prefecture":"京都府","city":"亀岡市","street":"馬路町"},{"zipCode":"6210804","prefectureKana":"ｷｮｳﾄﾌ","cityKana":"ｶﾒｵｶｼ","streetKana":"ｵｲﾜｹﾁｮｳ","prefecture":"京都府","city":"亀岡市","street":"追分町"},{"zipCode":"6210012","prefectureKana":"ｷｮｳﾄﾌ","cityKana":"ｶﾒｵｶｼ","streetKana":"ｵｵｲﾁｮｳｶｽﾐｶﾞｵｶ","prefecture":"京都府","city":"亀岡市","street":"大井町かすみケ丘"},{"zipCode":"6210018","prefectureKana":"ｷｮｳﾄﾌ","cityKana":"ｶﾒｵｶｼ","streetKana":"ｵｵｲﾁｮｳｺｶﾅｹﾞ","prefecture":"京都府","city":"亀岡市","street":"大井町小金岐"},{"zipCode":"6210011","prefectureKana":"ｷｮｳﾄﾌ","cityKana":"ｶﾒｵｶｼ","streetKana":"ｵｵｲﾁｮｳﾂﾁﾀﾞ","prefecture":"京都府","city":"亀岡市","street":"大井町土田"},{"zipCode":"6210013","prefectureKana":"ｷｮｳﾄﾌ","cityKana":"ｶﾒｵｶｼ","streetKana":"ｵｵｲﾁｮｳﾅﾐｶﾜ","prefecture":"京都府","city":"亀岡市","street":"大井町並河"},{"zipCode":"6210016","prefectureKana":"ｷｮｳﾄﾌ","cityKana":"ｶﾒｵｶｼ","streetKana":"ｵｵｲﾁｮｳﾐﾅﾐｶﾅｹﾞ","prefecture":"京都府","city":"亀岡市","street":"大井町南金岐"},{"zipCode":"6210017","prefectureKana":"ｷｮｳﾄﾌ","cityKana":"ｶﾒｵｶｼ","streetKana":"ｵｵｲﾁｮｳｷﾀｶﾅｹﾞ","prefecture":"京都府","city":"亀岡市","street":"大井町北金岐"},{"zipCode":"6210856","prefectureKana":"ｷｮｳﾄﾌ","cityKana":"ｶﾒｵｶｼ","streetKana":"ｶﾐﾔﾀﾞﾁｮｳ","prefecture":"京都府","city":"亀岡市","street":"上矢田町"},{"zipCode":"6210807","prefectureKana":"ｷｮｳﾄﾌ","cityKana":"ｶﾒｵｶｼ","streetKana":"ｶﾒｵｶｴｷｷﾀ","prefecture":"京都府","city":"亀岡市","street":"亀岡駅北"},{"zipCode":"6210007","prefectureKana":"ｷｮｳﾄﾌ","cityKana":"ｶﾒｵｶｼ","streetKana":"ｶﾜﾗﾊﾞﾔｼﾁｮｳｶﾜﾗｼﾞﾘ","prefecture":"京都府","city":"亀岡市","street":"河原林町河原尻"},{"zipCode":"6210006","prefectureKana":"ｷｮｳﾄﾌ","cityKana":"ｶﾒｵｶｼ","streetKana":"ｶﾜﾗﾊﾞﾔｼﾁｮｳｼｮｳﾘﾝｼﾞﾏ","prefecture":"京都府","city":"亀岡市","street":"河原林町勝林島"},{"zipCode":"6210803","prefectureKana":"ｷｮｳﾄﾌ","cityKana":"ｶﾒｵｶｼ","streetKana":"ｶﾜﾗﾏﾁ","prefecture":"京都府","city":"亀岡市","street":"河原町"},{"zipCode":"6210802","prefectureKana":"ｷｮｳﾄﾌ","cityKana":"ｶﾒｵｶｼ","streetKana":"ｷﾀｶﾜﾗﾏﾁ","prefecture":"京都府","city":"亀岡市","street":"北河原町"},{"zipCode":"6210811","prefectureKana":"ｷｮｳﾄﾌ","cityKana":"ｶﾒｵｶｼ","streetKana":"ｷﾀｺｾﾁｮｳ","prefecture":"京都府","city":"亀岡市","street":"北古世町"},{"zipCode":"6210861","prefectureKana":"ｷｮｳﾄﾌ","cityKana":"ｶﾒｵｶｼ","streetKana":"ｷﾀﾏﾁ","prefecture":"京都府","city":"亀岡市","street":"北町"},{"zipCode":"6210818","prefectureKana":"ｷｮｳﾄﾌ","cityKana":"ｶﾒｵｶｼ","streetKana":"ｷｮｳﾏﾁ","prefecture":"京都府","city":"亀岡市","street":"京町"},{"zipCode":"6210815","prefectureKana":"ｷｮｳﾄﾌ","cityKana":"ｶﾒｵｶｼ","streetKana":"ｺｾﾁｮｳ","prefecture":"京都府","city":"亀岡市","street":"古世町"},{"zipCode":"6210819","prefectureKana":"ｷｮｳﾄﾌ","cityKana":"ｶﾒｵｶｼ","streetKana":"ｺﾞﾌｸﾏﾁ","prefecture":"京都府","city":"亀岡市","street":"呉服町"},{"zipCode":"6210852","prefectureKana":"ｷｮｳﾄﾌ","cityKana":"ｶﾒｵｶｼ","streetKana":"ｺﾝﾔﾏﾁ","prefecture":"京都府","city":"亀岡市","street":"紺屋町"},{"zipCode":"6210867","prefectureKana":"ｷｮｳﾄﾌ","cityKana":"ｶﾒｵｶｼ","streetKana":"ｼｵﾔﾏﾁ","prefecture":"京都府","city":"亀岡市","street":"塩屋町"},{"zipCode":"6210823","prefectureKana":"ｷｮｳﾄﾌ","cityKana":"ｶﾒｵｶｼ","streetKana":"ｼﾉﾁｮｳｳﾏﾎﾘ","prefecture":"京都府","city":"亀岡市","street":"篠町馬堀"},{"zipCode":"6210828","prefectureKana":"ｷｮｳﾄﾌ","cityKana":"ｶﾒｵｶｼ","streetKana":"ｼﾉﾁｮｳｳﾏﾎﾘｴｷﾏｴ","prefecture":"京都府","city":"亀岡市","street":"篠町馬堀駅前"},{"zipCode":"6210827","prefectureKana":"ｷｮｳﾄﾌ","cityKana":"ｶﾒｵｶｼ","streetKana":"ｼﾉﾁｮｳｵｳｼﾞ","prefecture":"京都府","city":"亀岡市","street":"篠町王子"},{"zipCode":"6210821","prefectureKana":"ｷｮｳﾄﾌ","cityKana":"ｶﾒｵｶｼ","streetKana":"ｼﾉﾁｮｳｶｾﾊﾞﾗ","prefecture":"京都府","city":"亀岡市","street":"篠町柏原"},{"zipCode":"6210826","prefectureKana":"ｷｮｳﾄﾌ","cityKana":"ｶﾒｵｶｼ","streetKana":"ｼﾉﾁｮｳｼﾉ","prefecture":"京都府","city":"亀岡市","street":"篠町篠"},{"zipCode":"6210835","prefectureKana":"ｷｮｳﾄﾌ","cityKana":"ｶﾒｵｶｼ","streetKana":"ｼﾉﾁｮｳｼﾞｮｳﾎﾞｳｼﾞ","prefecture":"京都府","city":"亀岡市","street":"篠町浄法寺"},{"zipCode":"6210822","prefectureKana":"ｷｮｳﾄﾌ","cityKana":"ｶﾒｵｶｼ","streetKana":"ｼﾉﾁｮｳﾉｼﾞｮｳ","prefecture":"京都府","city":"亀岡市","street":"篠町野条"},{"zipCode":"6210834","prefectureKana":"ｷｮｳﾄﾌ","cityKana":"ｶﾒｵｶｼ","streetKana":"ｼﾉﾁｮｳﾋﾛﾀ","prefecture":"京都府","city":"亀岡市","street":"篠町広田"},{"zipCode":"6210824","prefectureKana":"ｷｮｳﾄﾌ","cityKana":"ｶﾒｵｶｼ","streetKana":"ｼﾉﾁｮｳﾐﾊﾙ","prefecture":"京都府","city":"亀岡市","street":"篠町見晴"},{"zipCode":"6210831","prefectureKana":"ｷｮｳﾄﾌ","cityKana":"ｶﾒｵｶｼ","streetKana":"ｼﾉﾁｮｳﾓﾘ","prefecture":"京都府","city":"亀岡市","street":"篠町森"},{"zipCode":"6210825","prefectureKana":"ｷｮｳﾄﾌ","cityKana":"ｶﾒｵｶｼ","streetKana":"ｼﾉﾁｮｳﾔﾏﾓﾄ","prefecture":"京都府","city":"亀岡市","street":"篠町山本"},{"zipCode":"6210829","prefectureKana":"ｷｮｳﾄﾌ","cityKana":"ｶﾒｵｶｼ","streetKana":"ｼﾉﾁｮｳﾕｳﾋｶﾞｵｶ","prefecture":"京都府","city":"亀岡市","street":"篠町夕日ケ丘"},{"zipCode":"6210854","prefectureKana":"ｷｮｳﾄﾌ","cityKana":"ｶﾒｵｶｼ","streetKana":"ｼﾓﾔﾀﾞﾁｮｳ","prefecture":"京都府","city":"亀岡市","street":"下矢田町"},{"zipCode":"6210865","prefectureKana":"ｷｮｳﾄﾌ","cityKana":"ｶﾒｵｶｼ","streetKana":"ｼﾝﾏﾁ","prefecture":"京都府","city":"亀岡市","street":"新町"},{"zipCode":"6210029","prefectureKana":"ｷｮｳﾄﾌ","cityKana":"ｶﾒｵｶｼ","streetKana":"ｿｶﾞﾍﾞﾁｮｳｱﾅｵ","prefecture":"京都府","city":"亀岡市","street":"曽我部町穴太"},{"zipCode":"6210027","prefectureKana":"ｷｮｳﾄﾌ","cityKana":"ｶﾒｵｶｼ","streetKana":"ｿｶﾞﾍﾞﾁｮｳｲﾇｶｲ","prefecture":"京都府","city":"亀岡市","street":"曽我部町犬飼"},{"zipCode":"6210024","prefectureKana":"ｷｮｳﾄﾌ","cityKana":"ｶﾒｵｶｼ","streetKana":"ｿｶﾞﾍﾞﾁｮｳｶｽｶﾍﾞ","prefecture":"京都府","city":"亀岡市","street":"曽我部町春日部"},{"zipCode":"6210021","prefectureKana":"ｷｮｳﾄﾌ","cityKana":"ｶﾒｵｶｼ","streetKana":"ｿｶﾞﾍﾞﾁｮｳｼｹﾞﾄｼ","prefecture":"京都府","city":"亀岡市","street":"曽我部町重利"},{"zipCode":"6210023","prefectureKana":"ｷｮｳﾄﾌ","cityKana":"ｶﾒｵｶｼ","streetKana":"ｿｶﾞﾍﾞﾁｮｳﾃﾗ","prefecture":"京都府","city":"亀岡市","street":"曽我部町寺"},{"zipCode":"6210025","prefectureKana":"ｷｮｳﾄﾌ","cityKana":"ｶﾒｵｶｼ","streetKana":"ｿｶﾞﾍﾞﾁｮｳﾅｶ","prefecture":"京都府","city":"亀岡市","street":"曽我部町中"},{"zipCode":"6210022","prefectureKana":"ｷｮｳﾄﾌ","cityKana":"ｶﾒｵｶｼ","streetKana":"ｿｶﾞﾍﾞﾁｮｳﾅﾝｼﾞｮｳ","prefecture":"京都府","city":"亀岡市","street":"曽我部町南条"},{"zipCode":"6210028","prefectureKana":"ｷｮｳﾄﾌ","cityKana":"ｶﾒｵｶｼ","streetKana":"ｿｶﾞﾍﾞﾁｮｳﾆｼｼﾞｮｳ","prefecture":"京都府","city":"亀岡市","street":"曽我部町西条"},{"zipCode":"6210026","prefectureKana":"ｷｮｳﾄﾌ","cityKana":"ｶﾒｵｶｼ","streetKana":"ｿｶﾞﾍﾞﾁｮｳﾎｳｷ","prefecture":"京都府","city":"亀岡市","street":"曽我部町法貴"},{"zipCode":"6210003","prefectureKana":"ｷｮｳﾄﾌ","cityKana":"ｶﾒｵｶｼ","streetKana":"ﾁﾄｾﾁｮｳｺｸﾌﾞ","prefecture":"京都府","city":"亀岡市","street":"千歳町国分"},{"zipCode":"6210002","prefectureKana":"ｷｮｳﾄﾌ","cityKana":"ｶﾒｵｶｼ","streetKana":"ﾁﾄｾﾁｮｳﾁﾄｾ","prefecture":"京都府","city":"亀岡市","street":"千歳町千歳"},{"zipCode":"6210004","prefectureKana":"ｷｮｳﾄﾌ","cityKana":"ｶﾒｵｶｼ","streetKana":"ﾁﾄｾﾁｮｳﾋﾞｼｬﾓﾝ","prefecture":"京都府","city":"亀岡市","street":"千歳町毘沙門"},{"zipCode":"6210051","prefectureKana":"ｷｮｳﾄﾌ","cityKana":"ｶﾒｵｶｼ","streetKana":"ﾁﾖｶﾜﾁｮｳｲﾏﾂﾞ","prefecture":"京都府","city":"亀岡市","street":"千代川町今津"},{"zipCode":"6210041","prefectureKana":"ｷｮｳﾄﾌ","cityKana":"ｶﾒｵｶｼ","streetKana":"ﾁﾖｶﾜﾁｮｳｵｶﾞﾜ","prefecture":"京都府","city":"亀岡市","street":"千代川町小川"},{"zipCode":"6210043","prefectureKana":"ｷｮｳﾄﾌ","cityKana":"ｶﾒｵｶｼ","streetKana":"ﾁﾖｶﾜﾁｮｳｵﾊﾞﾔｼ","prefecture":"京都府","city":"亀岡市","street":"千代川町小林"},{"zipCode":"6210054","prefectureKana":"ｷｮｳﾄﾌ","cityKana":"ｶﾒｵｶｼ","streetKana":"ﾁﾖｶﾜﾁｮｳｶﾜｾﾞｷ","prefecture":"京都府","city":"亀岡市","street":"千代川町川関"},{"zipCode":"6210046","prefectureKana":"ｷｮｳﾄﾌ","cityKana":"ｶﾒｵｶｼ","streetKana":"ﾁﾖｶﾜﾁｮｳｷﾀﾉｼｮｳ","prefecture":"京都府","city":"亀岡市","street":"千代川町北ノ庄"},{"zipCode":"6210042","prefectureKana":"ｷｮｳﾄﾌ","cityKana":"ｶﾒｵｶｼ","streetKana":"ﾁﾖｶﾜﾁｮｳﾀｶﾉﾊﾔｼ","prefecture":"京都府","city":"亀岡市","street":"千代川町高野林"},{"zipCode":"6210052","prefectureKana":"ｷｮｳﾄﾌ","cityKana":"ｶﾒｵｶｼ","streetKana":"ﾁﾖｶﾜﾁｮｳﾁﾊﾗ","prefecture":"京都府","city":"亀岡市","street":"千代川町千原"},{"zipCode":"6210053","prefectureKana":"ｷｮｳﾄﾌ","cityKana":"ｶﾒｵｶｼ","streetKana":"ﾁﾖｶﾜﾁｮｳﾊｲﾀﾞ","prefecture":"京都府","city":"亀岡市","street":"千代川町拝田"},{"zipCode":"6210044","prefectureKana":"ｷｮｳﾄﾌ","cityKana":"ｶﾒｵｶｼ","streetKana":"ﾁﾖｶﾜﾁｮｳﾋﾖｼﾀﾞｲ","prefecture":"京都府","city":"亀岡市","street":"千代川町日吉台"},{"zipCode":"6210045","prefectureKana":"ｷｮｳﾄﾌ","cityKana":"ｶﾒｵｶｼ","streetKana":"ﾁﾖｶﾜﾁｮｳﾕｲ","prefecture":"京都府","city":"亀岡市","street":"千代川町湯井"},{"zipCode":"6210813","prefectureKana":"ｷｮｳﾄﾌ","cityKana":"ｶﾒｵｶｼ","streetKana":"ﾂｷﾇｹﾁｮｳ","prefecture":"京都府","city":"亀岡市","street":"突抜町"},{"zipCode":"6210855","prefectureKana":"ｷｮｳﾄﾌ","cityKana":"ｶﾒｵｶｼ","streetKana":"ﾅｶﾔﾀﾞﾁｮｳ","prefecture":"京都府","city":"亀岡市","street":"中矢田町"},{"zipCode":"6210863","prefectureKana":"ｷｮｳﾄﾌ","cityKana":"ｶﾒｵｶｼ","streetKana":"ﾅﾝｺﾞｳﾁｮｳ","prefecture":"京都府","city":"亀岡市","street":"南郷町"},{"zipCode":"6210817","prefectureKana":"ｷｮｳﾄﾌ","cityKana":"ｶﾒｵｶｼ","streetKana":"ﾆｼﾀﾂﾁｮｳ","prefecture":"京都府","city":"亀岡市","street":"西竪町"},{"zipCode":"6210842","prefectureKana":"ｷｮｳﾄﾌ","cityKana":"ｶﾒｵｶｼ","streetKana":"ﾆｼﾂﾂｼﾞｶﾞｵｶｳﾝｾﾞﾝﾀﾞｲ","prefecture":"京都府","city":"亀岡市","street":"西つつじケ丘雲仙台"},{"zipCode":"6210844","prefectureKana":"ｷｮｳﾄﾌ","cityKana":"ｶﾒｵｶｼ","streetKana":"ﾆｼﾂﾂｼﾞｶﾞｵｶｷﾘｼﾏﾀﾞｲ","prefecture":"京都府","city":"亀岡市","street":"西つつじケ丘霧島台"},{"zipCode":"6210841","prefectureKana":"ｷｮｳﾄﾌ","cityKana":"ｶﾒｵｶｼ","streetKana":"ﾆｼﾂﾂｼﾞｶﾞｵｶｻﾂｷﾀﾞｲ","prefecture":"京都府","city":"亀岡市","street":"西つつじケ丘五月台"},{"zipCode":"6210843","prefectureKana":"ｷｮｳﾄﾌ","cityKana":"ｶﾒｵｶｼ","streetKana":"ﾆｼﾂﾂｼﾞｶﾞｵｶﾀﾞｲｾﾝﾀﾞｲ","prefecture":"京都府","city":"亀岡市","street":"西つつじケ丘大山台"},{"zipCode":"6210845","prefectureKana":"ｷｮｳﾄﾌ","cityKana":"ｶﾒｵｶｼ","streetKana":"ﾆｼﾂﾂｼﾞｶﾞｵｶﾐﾔﾏﾀﾞｲ","prefecture":"京都府","city":"亀岡市","street":"西つつじケ丘美山台"},{"zipCode":"6210126","prefectureKana":"ｷｮｳﾄﾌ","cityKana":"ｶﾒｵｶｼ","streetKana":"ﾆｼﾍﾞﾂｲﾝﾁｮｳｲﾇｶﾝﾉ","prefecture":"京都府","city":"亀岡市","street":"西別院町犬甘野"},{"zipCode":"6210121","prefectureKana":"ｷｮｳﾄﾌ","cityKana":"ｶﾒｵｶｼ","streetKana":"ﾆｼﾍﾞﾂｲﾝﾁｮｳｵｵﾂｸﾅﾐ","prefecture":"京都府","city":"亀岡市","street":"西別院町大槻並"},{"zipCode":"6210127","prefectureKana":"ｷｮｳﾄﾌ","cityKana":"ｶﾒｵｶｼ","streetKana":"ﾆｼﾍﾞﾂｲﾝﾁｮｳｺｳｼﾞ","prefecture":"京都府","city":"亀岡市","street":"西別院町神地"},{"zipCode":"6210123","prefectureKana":"ｷｮｳﾄﾌ","cityKana":"ｶﾒｵｶｼ","streetKana":"ﾆｼﾍﾞﾂｲﾝﾁｮｳﾃﾗﾀﾞ","prefecture":"京都府","city":"亀岡市","street":"西別院町寺田"},{"zipCode":"6210122","prefectureKana":"ｷｮｳﾄﾌ","cityKana":"ｶﾒｵｶｼ","streetKana":"ﾆｼﾍﾞﾂｲﾝﾁｮｳﾏﾝｶﾞﾝｼﾞ","prefecture":"京都府","city":"亀岡市","street":"西別院町万願寺"},{"zipCode":"6210124","prefectureKana":"ｷｮｳﾄﾌ","cityKana":"ｶﾒｵｶｼ","streetKana":"ﾆｼﾍﾞﾂｲﾝﾁｮｳﾕﾉﾊﾗ","prefecture":"京都府","city":"亀岡市","street":"西別院町柚原"},{"zipCode":"6210125","prefectureKana":"ｷｮｳﾄﾌ","cityKana":"ｶﾒｵｶｼ","streetKana":"ﾆｼﾍﾞﾂｲﾝﾁｮｳﾜﾛｳｼﾞ","prefecture":"京都府","city":"亀岡市","street":"西別院町笑路"},{"zipCode":"6210862","prefectureKana":"ｷｮｳﾄﾌ","cityKana":"ｶﾒｵｶｼ","streetKana":"ﾆｼﾏﾁ","prefecture":"京都府","city":"亀岡市","street":"西町"},{"zipCode":"6210866","prefectureKana":"ｷｮｳﾄﾌ","cityKana":"ｶﾒｵｶｼ","streetKana":"ﾊﾀｺﾞﾏﾁ","prefecture":"京都府","city":"亀岡市","street":"旅籠町"},{"zipCode":"6210261","prefectureKana":"ｷｮｳﾄﾌ","cityKana":"ｶﾒｵｶｼ","streetKana":"ﾊﾀﾉﾁｮｳｾﾝｶﾞﾊﾀ","prefecture":"京都府","city":"亀岡市","street":"畑野町千ケ畑"},{"zipCode":"6210263","prefectureKana":"ｷｮｳﾄﾌ","cityKana":"ｶﾒｵｶｼ","streetKana":"ﾊﾀﾉﾁｮｳﾄﾞﾝｶﾞﾊﾀ","prefecture":"京都府","city":"亀岡市","street":"畑野町土ケ畑"},{"zipCode":"6210262","prefectureKana":"ｷｮｳﾄﾌ","cityKana":"ｶﾒｵｶｼ","streetKana":"ﾊﾀﾉﾁｮｳﾋﾛﾉ","prefecture":"京都府","city":"亀岡市","street":"畑野町広野"},{"zipCode":"6210034","prefectureKana":"ｷｮｳﾄﾌ","cityKana":"ｶﾒｵｶｼ","streetKana":"ﾋｴﾀﾞﾉﾁｮｳｱｼﾉﾔﾏ","prefecture":"京都府","city":"亀岡市","street":"ひえ田野町芦ノ山"},{"zipCode":"6210031","prefectureKana":"ｷｮｳﾄﾌ","cityKana":"ｶﾒｵｶｼ","streetKana":"ﾋｴﾀﾞﾉﾁｮｳｵｵﾀ","prefecture":"京都府","city":"亀岡市","street":"ひえ田野町太田"},{"zipCode":"6210035","prefectureKana":"ｷｮｳﾄﾌ","cityKana":"ｶﾒｵｶｼ","streetKana":"ﾋｴﾀﾞﾉﾁｮｳｵｸｼﾞｮｳ","prefecture":"京都府","city":"亀岡市","street":"ひえ田野町奥条"},{"zipCode":"6210036","prefectureKana":"ｷｮｳﾄﾌ","cityKana":"ｶﾒｵｶｼ","streetKana":"ﾋｴﾀﾞﾉﾁｮｳｶｷﾊﾅ","prefecture":"京都府","city":"亀岡市","street":"ひえ田野町柿花"},{"zipCode":"6210033","prefectureKana":"ｷｮｳﾄﾌ","cityKana":"ｶﾒｵｶｼ","streetKana":"ﾋｴﾀﾞﾉﾁｮｳｻｴｷ","prefecture":"京都府","city":"亀岡市","street":"ひえ田野町佐伯"},{"zipCode":"6210032","prefectureKana":"ｷｮｳﾄﾌ","cityKana":"ｶﾒｵｶｼ","streetKana":"ﾋｴﾀﾞﾉﾁｮｳﾃﾝｶﾞﾜ","prefecture":"京都府","city":"亀岡市","street":"ひえ田野町天川"},{"zipCode":"6210037","prefectureKana":"ｷｮｳﾄﾌ","cityKana":"ｶﾒｵｶｼ","streetKana":"ﾋｴﾀﾞﾉﾁｮｳﾛｸﾔ","prefecture":"京都府","city":"亀岡市","street":"ひえ田野町鹿谷"},{"zipCode":"6210816","prefectureKana":"ｷｮｳﾄﾌ","cityKana":"ｶﾒｵｶｼ","streetKana":"ﾋｶﾞｼﾀﾂﾁｮｳ","prefecture":"京都府","city":"亀岡市","street":"東竪町"},{"zipCode":"6210833","prefectureKana":"ｷｮｳﾄﾌ","cityKana":"ｶﾒｵｶｼ","streetKana":"ﾋｶﾞｼﾂﾂｼﾞｶﾞｵｶｱｹﾎﾞﾉﾀﾞｲ","prefecture":"京都府","city":"亀岡市","street":"東つつじケ丘曙台"},{"zipCode":"6210832","prefectureKana":"ｷｮｳﾄﾌ","cityKana":"ｶﾒｵｶｼ","streetKana":"ﾋｶﾞｼﾂﾂｼﾞｶﾞｵｶﾐﾔｺﾀﾞｲ","prefecture":"京都府","city":"亀岡市","street":"東つつじケ丘都台"},{"zipCode":"6210104","prefectureKana":"ｷｮｳﾄﾌ","cityKana":"ｶﾒｵｶｼ","streetKana":"ﾋｶﾞｼﾍﾞﾂｲﾝﾁｮｳｵｵﾉ","prefecture":"京都府","city":"亀岡市","street":"東別院町大野"},{"zipCode":"6210115","prefectureKana":"ｷｮｳﾄﾌ","cityKana":"ｶﾒｵｶｼ","streetKana":"ﾋｶﾞｼﾍﾞﾂｲﾝﾁｮｳｶｲﾊﾞﾗ","prefecture":"京都府","city":"亀岡市","street":"東別院町栢原"},{"zipCode":"6210114","prefectureKana":"ｷｮｳﾄﾌ","cityKana":"ｶﾒｵｶｼ","streetKana":"ﾋｶﾞｼﾍﾞﾂｲﾝﾁｮｳｶﾏｸﾗ","prefecture":"京都府","city":"亀岡市","street":"東別院町鎌倉"},{"zipCode":"6210102","prefectureKana":"ｷｮｳﾄﾌ","cityKana":"ｶﾒｵｶｼ","streetKana":"ﾋｶﾞｼﾍﾞﾂｲﾝﾁｮｳｶﾐﾊﾗ","prefecture":"京都府","city":"亀岡市","street":"東別院町神原"},{"zipCode":"6210113","prefectureKana":"ｷｮｳﾄﾌ","cityKana":"ｶﾒｵｶｼ","streetKana":"ﾋｶﾞｼﾍﾞﾂｲﾝﾁｮｳｸﾗﾀﾞﾆ","prefecture":"京都府","city":"亀岡市","street":"東別院町倉谷"},{"zipCode":"6210101","prefectureKana":"ｷｮｳﾄﾌ","cityKana":"ｶﾒｵｶｼ","streetKana":"ﾋｶﾞｼﾍﾞﾂｲﾝﾁｮｳｺｲｽﾞﾐ","prefecture":"京都府","city":"亀岡市","street":"東別院町小泉"},{"zipCode":"6210103","prefectureKana":"ｷｮｳﾄﾌ","cityKana":"ｶﾒｵｶｼ","streetKana":"ﾋｶﾞｼﾍﾞﾂｲﾝﾁｮｳﾄｳｹﾞ","prefecture":"京都府","city":"亀岡市","street":"東別院町東掛"},{"zipCode":"6210111","prefectureKana":"ｷｮｳﾄﾌ","cityKana":"ｶﾒｵｶｼ","streetKana":"ﾋｶﾞｼﾍﾞﾂｲﾝﾁｮｳﾅﾝｹﾞ","prefecture":"京都府","city":"亀岡市","street":"東別院町南掛"},{"zipCode":"6210112","prefectureKana":"ｷｮｳﾄﾌ","cityKana":"ｶﾒｵｶｼ","streetKana":"ﾋｶﾞｼﾍﾞﾂｲﾝﾁｮｳﾕﾔ","prefecture":"京都府","city":"亀岡市","street":"東別院町湯谷"},{"zipCode":"6210234","prefectureKana":"ｷｮｳﾄﾌ","cityKana":"ｶﾒｵｶｼ","streetKana":"ﾋｶﾞｼﾎﾝﾒﾁｮｳｱｶｸﾏ","prefecture":"京都府","city":"亀岡市","street":"東本梅町赤熊"},{"zipCode":"6210231","prefectureKana":"ｷｮｳﾄﾌ","cityKana":"ｶﾒｵｶｼ","streetKana":"ﾋｶﾞｼﾎﾝﾒﾁｮｳｵｵｳﾁ","prefecture":"京都府","city":"亀岡市","street":"東本梅町大内"},{"zipCode":"6210233","prefectureKana":"ｷｮｳﾄﾌ","cityKana":"ｶﾒｵｶｼ","streetKana":"ﾋｶﾞｼﾎﾝﾒﾁｮｳﾅｶﾉ","prefecture":"京都府","city":"亀岡市","street":"東本梅町中野"},{"zipCode":"6210235","prefectureKana":"ｷｮｳﾄﾌ","cityKana":"ｶﾒｵｶｼ","streetKana":"ﾋｶﾞｼﾎﾝﾒﾁｮｳﾋｶﾞｼｵｵﾀﾆ","prefecture":"京都府","city":"亀岡市","street":"東本梅町東大谷"},{"zipCode":"6210232","prefectureKana":"ｷｮｳﾄﾌ","cityKana":"ｶﾒｵｶｼ","streetKana":"ﾋｶﾞｼﾎﾝﾒﾁｮｳﾏﾂｸﾏ","prefecture":"京都府","city":"亀岡市","street":"東本梅町松熊"},{"zipCode":"6210005","prefectureKana":"ｷｮｳﾄﾌ","cityKana":"ｶﾒｵｶｼ","streetKana":"ﾎﾂﾞﾁｮｳ","prefecture":"京都府","city":"亀岡市","street":"保津町"},{"zipCode":"6210869","prefectureKana":"ｷｮｳﾄﾌ","cityKana":"ｶﾒｵｶｼ","streetKana":"ﾎﾝﾏﾁ","prefecture":"京都府","city":"亀岡市","street":"本町"},{"zipCode":"6210253","prefectureKana":"ｷｮｳﾄﾌ","cityKana":"ｶﾒｵｶｼ","streetKana":"ﾎﾝﾒﾁｮｳｲﾃﾞ","prefecture":"京都府","city":"亀岡市","street":"本梅町井手"},{"zipCode":"6210252","prefectureKana":"ｷｮｳﾄﾌ","cityKana":"ｶﾒｵｶｼ","streetKana":"ﾎﾝﾒﾁｮｳﾅｶﾉ","prefecture":"京都府","city":"亀岡市","street":"本梅町中野"},{"zipCode":"6210254","prefectureKana":"ｷｮｳﾄﾌ","cityKana":"ｶﾒｵｶｼ","streetKana":"ﾎﾝﾒﾁｮｳﾋｶﾞｼｶﾔ","prefecture":"京都府","city":"亀岡市","street":"本梅町東加舎"},{"zipCode":"6210255","prefectureKana":"ｷｮｳﾄﾌ","cityKana":"ｶﾒｵｶｼ","streetKana":"ﾎﾝﾒﾁｮｳﾆｼｶﾔ","prefecture":"京都府","city":"亀岡市","street":"本梅町西加舎"},{"zipCode":"6210251","prefectureKana":"ｷｮｳﾄﾌ","cityKana":"ｶﾒｵｶｼ","streetKana":"ﾎﾝﾒﾁｮｳﾋﾗﾏﾂ","prefecture":"京都府","city":"亀岡市","street":"本梅町平松"},{"zipCode":"6210846","prefectureKana":"ｷｮｳﾄﾌ","cityKana":"ｶﾒｵｶｼ","streetKana":"ﾐﾅﾐﾂﾂｼﾞｶﾞｵｶｵｵﾊﾞﾀﾞｲ","prefecture":"京都府","city":"亀岡市","street":"南つつじケ丘大葉台"},{"zipCode":"6210847","prefectureKana":"ｷｮｳﾄﾌ","cityKana":"ｶﾒｵｶｼ","streetKana":"ﾐﾅﾐﾂﾂｼﾞｶﾞｵｶｻｸﾗﾀﾞｲ","prefecture":"京都府","city":"亀岡市","street":"南つつじケ丘桜台"},{"zipCode":"6210814","prefectureKana":"ｷｮｳﾄﾌ","cityKana":"ｶﾒｵｶｼ","streetKana":"ﾐﾔｹﾁｮｳ","prefecture":"京都府","city":"亀岡市","street":"三宅町"},{"zipCode":"6210241","prefectureKana":"ｷｮｳﾄﾌ","cityKana":"ｶﾒｵｶｼ","streetKana":"ﾐﾔｻﾞｷﾁｮｳｲﾉｸﾗ","prefecture":"京都府","city":"亀岡市","street":"宮前町猪倉"},{"zipCode":"6210242","prefectureKana":"ｷｮｳﾄﾌ","cityKana":"ｶﾒｵｶｼ","streetKana":"ﾐﾔｻﾞｷﾁｮｳｺｳｻﾞｷ","prefecture":"京都府","city":"亀岡市","street":"宮前町神前"},{"zipCode":"6210243","prefectureKana":"ｷｮｳﾄﾌ","cityKana":"ｶﾒｵｶｼ","streetKana":"ﾐﾔｻﾞｷﾁｮｳﾐﾔｶﾞﾜ","prefecture":"京都府","city":"亀岡市","street":"宮前町宮川"},{"zipCode":"6210805","prefectureKana":"ｷｮｳﾄﾌ","cityKana":"ｶﾒｵｶｼ","streetKana":"ﾔｽﾏﾁ","prefecture":"京都府","city":"亀岡市","street":"安町"},{"zipCode":"6210853","prefectureKana":"ｷｮｳﾄﾌ","cityKana":"ｶﾒｵｶｼ","streetKana":"ﾔﾀﾞﾏﾁ","prefecture":"京都府","city":"亀岡市","street":"矢田町"},{"zipCode":"6210868","prefectureKana":"ｷｮｳﾄﾌ","cityKana":"ｶﾒｵｶｼ","streetKana":"ﾔﾅｷﾞﾏﾁ","prefecture":"京都府","city":"亀岡市","street":"柳町"},{"zipCode":"6210812","prefectureKana":"ｷｮｳﾄﾌ","cityKana":"ｶﾒｵｶｼ","streetKana":"ﾖｺﾁｮｳ","prefecture":"京都府","city":"亀岡市","street":"横町"},{"zipCode":"6210014","prefectureKana":"ｷｮｳﾄﾌ","cityKana":"ｶﾒｵｶｼ","streetKana":"ﾖｼｶﾜﾁｮｳｱﾅｶﾞﾜ","prefecture":"京都府","city":"亀岡市","street":"吉川町穴川"},{"zipCode":"6210015","prefectureKana":"ｷｮｳﾄﾌ","cityKana":"ｶﾒｵｶｼ","streetKana":"ﾖｼｶﾜﾁｮｳﾖｼﾀﾞ","prefecture":"京都府","city":"亀岡市","street":"吉川町吉田"}]