[{"zipCode":"6230000","prefectureKana":"ｷｮｳﾄﾌ","cityKana":"ｱﾔﾍﾞｼ","streetKana":"ｲｶﾆｹｲｻｲｶﾞﾅｲﾊﾞｱｲ","prefecture":"京都府","city":"綾部市","street":"以下に掲載がない場合"},{"zipCode":"6230062","prefectureKana":"ｷｮｳﾄﾌ","cityKana":"ｱﾔﾍﾞｼ","streetKana":"ｱｲｵｲﾁｮｳ","prefecture":"京都府","city":"綾部市","street":"相生町"},{"zipCode":"6230011","prefectureKana":"ｷｮｳﾄﾌ","cityKana":"ｱﾔﾍﾞｼ","streetKana":"ｱｵﾉﾁｮｳ","prefecture":"京都府","city":"綾部市","street":"青野町"},{"zipCode":"6230013","prefectureKana":"ｷｮｳﾄﾌ","cityKana":"ｱﾔﾍﾞｼ","streetKana":"ｱﾔﾅｶﾁｮｳ","prefecture":"京都府","city":"綾部市","street":"綾中町"},{"zipCode":"6230006","prefectureKana":"ｷｮｳﾄﾌ","cityKana":"ｱﾔﾍﾞｼ","streetKana":"ｱﾘｵｶﾁｮｳ","prefecture":"京都府","city":"綾部市","street":"有岡町"},{"zipCode":"6230104","prefectureKana":"ｷｮｳﾄﾌ","cityKana":"ｱﾔﾍﾞｼ","streetKana":"ｱﾝｺｸｼﾞﾁｮｳ","prefecture":"京都府","city":"綾部市","street":"安国寺町"},{"zipCode":"6231124","prefectureKana":"ｷｮｳﾄﾌ","cityKana":"ｱﾔﾍﾞｼ","streetKana":"ｲｲｽﾞﾐﾁｮｳ","prefecture":"京都府","city":"綾部市","street":"五泉町"},{"zipCode":"6230224","prefectureKana":"ｷｮｳﾄﾌ","cityKana":"ｱﾔﾍﾞｼ","streetKana":"ｲｼﾜﾗﾁｮｳ","prefecture":"京都府","city":"綾部市","street":"石原町"},{"zipCode":"6231123","prefectureKana":"ｷｮｳﾄﾌ","cityKana":"ｱﾔﾍﾞｼ","streetKana":"ｲﾂｱｲﾁｮｳ","prefecture":"京都府","city":"綾部市","street":"五津合町"},{"zipCode":"6230221","prefectureKana":"ｷｮｳﾄﾌ","cityKana":"ｱﾔﾍﾞｼ","streetKana":"ｲﾃﾞﾝﾁｮｳ","prefecture":"京都府","city":"綾部市","street":"位田町"},{"zipCode":"6230051","prefectureKana":"ｷｮｳﾄﾌ","cityKana":"ｱﾔﾍﾞｼ","streetKana":"ｲﾉｸﾗｼﾝﾏﾁ","prefecture":"京都府","city":"綾部市","street":"井倉新町"},{"zipCode":"6230054","prefectureKana":"ｷｮｳﾄﾌ","cityKana":"ｱﾔﾍﾞｼ","streetKana":"ｲﾉｸﾗﾁｮｳ","prefecture":"京都府","city":"綾部市","street":"井倉町"},{"zipCode":"6230233","prefectureKana":"ｷｮｳﾄﾌ","cityKana":"ｱﾔﾍﾞｼ","streetKana":"ｲﾏﾀﾞﾁｮｳ","prefecture":"京都府","city":"綾部市","street":"今田町"},{"zipCode":"6230102","prefectureKana":"ｷｮｳﾄﾌ","cityKana":"ｱﾔﾍﾞｼ","streetKana":"ｳｴｽｷﾞﾁｮｳ","prefecture":"京都府","city":"綾部市","street":"上杉町"},{"zipCode":"6230035","prefectureKana":"ｷｮｳﾄﾌ","cityKana":"ｱﾔﾍﾞｼ","streetKana":"ｳｴﾉﾁｮｳ","prefecture":"京都府","city":"綾部市","street":"上野町"},{"zipCode":"6230341","prefectureKana":"ｷｮｳﾄﾌ","cityKana":"ｱﾔﾍﾞｼ","streetKana":"ｳﾁｸﾞｲﾁｮｳ","prefecture":"京都府","city":"綾部市","street":"内久井町"},{"zipCode":"6230103","prefectureKana":"ｷｮｳﾄﾌ","cityKana":"ｱﾔﾍﾞｼ","streetKana":"ｳﾒｻﾞｺﾁｮｳ","prefecture":"京都府","city":"綾部市","street":"梅迫町"},{"zipCode":"6230043","prefectureKana":"ｷｮｳﾄﾌ","cityKana":"ｱﾔﾍﾞｼ","streetKana":"ｳﾜﾉﾌﾞﾁｮｳ","prefecture":"京都府","city":"綾部市","street":"上延町"},{"zipCode":"6230066","prefectureKana":"ｷｮｳﾄﾌ","cityKana":"ｱﾔﾍﾞｼ","streetKana":"ｴｷﾏｴﾄﾞｵﾘ","prefecture":"京都府","city":"綾部市","street":"駅前通"},{"zipCode":"6231134","prefectureKana":"ｷｮｳﾄﾌ","cityKana":"ｱﾔﾍﾞｼ","streetKana":"ｵｲﾄﾐﾁｮｳ","prefecture":"京都府","city":"綾部市","street":"老富町"},{"zipCode":"6230046","prefectureKana":"ｷｮｳﾄﾌ","cityKana":"ｱﾔﾍﾞｼ","streetKana":"ｵｵｼﾏﾁｮｳ","prefecture":"京都府","city":"綾部市","street":"大島町"},{"zipCode":"6230231","prefectureKana":"ｷｮｳﾄﾌ","cityKana":"ｱﾔﾍﾞｼ","streetKana":"ｵｵﾊﾞﾀｹﾁｮｳ","prefecture":"京都府","city":"綾部市","street":"大畠町"},{"zipCode":"6230225","prefectureKana":"ｷｮｳﾄﾌ","cityKana":"ｱﾔﾍﾞｼ","streetKana":"ｵｶﾞｲﾁｮｳ","prefecture":"京都府","city":"綾部市","street":"小貝町"},{"zipCode":"6230042","prefectureKana":"ｷｮｳﾄﾌ","cityKana":"ｱﾔﾍﾞｼ","streetKana":"ｵｶﾁｮｳ","prefecture":"京都府","city":"綾部市","street":"岡町"},{"zipCode":"6230114","prefectureKana":"ｷｮｳﾄﾌ","cityKana":"ｱﾔﾍﾞｼ","streetKana":"ｵｶﾔｽﾁｮｳ","prefecture":"京都府","city":"綾部市","street":"岡安町"},{"zipCode":"6230236","prefectureKana":"ｷｮｳﾄﾌ","cityKana":"ｱﾔﾍﾞｼ","streetKana":"ｵﾊﾞﾀﾁｮｳ","prefecture":"京都府","city":"綾部市","street":"小畑町"},{"zipCode":"6230101","prefectureKana":"ｷｮｳﾄﾌ","cityKana":"ｱﾔﾍﾞｼ","streetKana":"ｵﾖｷﾞﾁｮｳ","prefecture":"京都府","city":"綾部市","street":"於与岐町"},{"zipCode":"6230001","prefectureKana":"ｷｮｳﾄﾌ","cityKana":"ｱﾔﾍﾞｼ","streetKana":"ｵﾛﾁｮｳ","prefecture":"京都府","city":"綾部市","street":"小呂町"},{"zipCode":"6230235","prefectureKana":"ｷｮｳﾄﾌ","cityKana":"ｱﾔﾍﾞｼ","streetKana":"ｶｼﾞﾔﾁｮｳ","prefecture":"京都府","city":"綾部市","street":"鍛治屋町"},{"zipCode":"6230342","prefectureKana":"ｷｮｳﾄﾌ","cityKana":"ｱﾔﾍﾞｼ","streetKana":"ｶﾈｺﾞﾁﾁｮｳ","prefecture":"京都府","city":"綾部市","street":"金河内町"},{"zipCode":"6230112","prefectureKana":"ｷｮｳﾄﾌ","cityKana":"ｱﾔﾍﾞｼ","streetKana":"ｶﾐﾔﾀﾁｮｳ","prefecture":"京都府","city":"綾部市","street":"上八田町"},{"zipCode":"6230012","prefectureKana":"ｷｮｳﾄﾌ","cityKana":"ｱﾔﾍﾞｼ","streetKana":"ｶﾜｲﾄﾁｮｳ","prefecture":"京都府","city":"綾部市","street":"川糸町"},{"zipCode":"6230226","prefectureKana":"ｷｮｳﾄﾌ","cityKana":"ｱﾔﾍﾞｼ","streetKana":"ｷｻｲﾁﾁｮｳ","prefecture":"京都府","city":"綾部市","street":"私市町"},{"zipCode":"6230222","prefectureKana":"ｷｮｳﾄﾌ","cityKana":"ｱﾔﾍﾞｼ","streetKana":"ｸﾘﾁｮｳ","prefecture":"京都府","city":"綾部市","street":"栗町"},{"zipCode":"6230108","prefectureKana":"ｷｮｳﾄﾌ","cityKana":"ｱﾔﾍﾞｼ","streetKana":"ｸﾛﾀﾆﾁｮｳ","prefecture":"京都府","city":"綾部市","street":"黒谷町"},{"zipCode":"6230234","prefectureKana":"ｷｮｳﾄﾌ","cityKana":"ｱﾔﾍﾞｼ","streetKana":"ｺﾆｼﾁｮｳ","prefecture":"京都府","city":"綾部市","street":"小西町"},{"zipCode":"6231132","prefectureKana":"ｷｮｳﾄﾌ","cityKana":"ｱﾔﾍﾞｼ","streetKana":"ｺﾔｵｶﾁｮｳ","prefecture":"京都府","city":"綾部市","street":"故屋岡町"},{"zipCode":"6230052","prefectureKana":"ｷｮｳﾄﾌ","cityKana":"ｱﾔﾍﾞｼ","streetKana":"ｻｲﾜｲﾄﾞｵﾘ","prefecture":"京都府","city":"綾部市","street":"幸通"},{"zipCode":"6230008","prefectureKana":"ｷｮｳﾄﾌ","cityKana":"ｱﾔﾍﾞｼ","streetKana":"ｻｸﾗｶﾞｵｶ","prefecture":"京都府","city":"綾部市","street":"桜が丘"},{"zipCode":"6230005","prefectureKana":"ｷｮｳﾄﾌ","cityKana":"ｱﾔﾍﾞｼ","streetKana":"ｻﾄﾁｮｳ","prefecture":"京都府","city":"綾部市","street":"里町"},{"zipCode":"6230343","prefectureKana":"ｷｮｳﾄﾌ","cityKana":"ｱﾔﾍﾞｼ","streetKana":"ｼｶﾞｻﾄﾁｮｳ","prefecture":"京都府","city":"綾部市","street":"志賀郷町"},{"zipCode":"6230111","prefectureKana":"ｷｮｳﾄﾌ","cityKana":"ｱﾔﾍﾞｼ","streetKana":"ｼﾁﾋｬｸｺｸﾁｮｳ","prefecture":"京都府","city":"綾部市","street":"七百石町"},{"zipCode":"6230351","prefectureKana":"ｷｮｳﾄﾌ","cityKana":"ｱﾔﾍﾞｼ","streetKana":"ｼﾉﾀﾞﾁｮｳ","prefecture":"京都府","city":"綾部市","street":"篠田町"},{"zipCode":"6230116","prefectureKana":"ｷｮｳﾄﾌ","cityKana":"ｱﾔﾍﾞｼ","streetKana":"ｼﾓﾔﾀﾁｮｳ","prefecture":"京都府","city":"綾部市","street":"下八田町"},{"zipCode":"6230003","prefectureKana":"ｷｮｳﾄﾌ","cityKana":"ｱﾔﾍﾞｼ","streetKana":"ｼﾛﾔﾏﾁｮｳ","prefecture":"京都府","city":"綾部市","street":"城山町"},{"zipCode":"6230026","prefectureKana":"ｷｮｳﾄﾌ","cityKana":"ｱﾔﾍﾞｼ","streetKana":"ｼﾞﾝｸﾞｳｼﾞﾁｮｳ","prefecture":"京都府","city":"綾部市","street":"神宮寺町"},{"zipCode":"6230022","prefectureKana":"ｷｮｳﾄﾌ","cityKana":"ｱﾔﾍﾞｼ","streetKana":"ｼﾝｸﾞｳﾁｮｳ","prefecture":"京都府","city":"綾部市","street":"新宮町"},{"zipCode":"6230363","prefectureKana":"ｷｮｳﾄﾌ","cityKana":"ｱﾔﾍﾞｼ","streetKana":"ｼﾝｼﾞｮｳﾁｮｳ","prefecture":"京都府","city":"綾部市","street":"新庄町"},{"zipCode":"6230023","prefectureKana":"ｷｮｳﾄﾌ","cityKana":"ｱﾔﾍﾞｼ","streetKana":"ｼﾝﾏﾁ","prefecture":"京都府","city":"綾部市","street":"新町"},{"zipCode":"6230002","prefectureKana":"ｷｮｳﾄﾌ","cityKana":"ｱﾔﾍﾞｼ","streetKana":"ﾀｶｸﾗﾁｮｳ","prefecture":"京都府","city":"綾部市","street":"高倉町"},{"zipCode":"6230106","prefectureKana":"ｷｮｳﾄﾌ","cityKana":"ｱﾔﾍﾞｼ","streetKana":"ﾀｶﾂｷﾁｮｳ","prefecture":"京都府","city":"綾部市","street":"高槻町"},{"zipCode":"6230045","prefectureKana":"ｷｮｳﾄﾌ","cityKana":"ｱﾔﾍﾞｼ","streetKana":"ﾀｶﾂﾁｮｳ","prefecture":"京都府","city":"綾部市","street":"高津町"},{"zipCode":"6230004","prefectureKana":"ｷｮｳﾄﾌ","cityKana":"ｱﾔﾍﾞｼ","streetKana":"ﾀﾀﾞﾁｮｳ","prefecture":"京都府","city":"綾部市","street":"多田町"},{"zipCode":"6230232","prefectureKana":"ｷｮｳﾄﾌ","cityKana":"ｱﾔﾍﾞｼ","streetKana":"ﾀﾁﾁｮｳ","prefecture":"京都府","city":"綾部市","street":"舘町"},{"zipCode":"6230034","prefectureKana":"ｷｮｳﾄﾌ","cityKana":"ｱﾔﾍﾞｼ","streetKana":"ﾀﾉﾁｮｳ","prefecture":"京都府","city":"綾部市","street":"田野町"},{"zipCode":"6230024","prefectureKana":"ｷｮｳﾄﾌ","cityKana":"ｱﾔﾍﾞｼ","streetKana":"ﾀﾏﾁ","prefecture":"京都府","city":"綾部市","street":"田町"},{"zipCode":"6230025","prefectureKana":"ｷｮｳﾄﾌ","cityKana":"ｱﾔﾍﾞｼ","streetKana":"ﾂｷﾐﾁｮｳ","prefecture":"京都府","city":"綾部市","street":"月見町"},{"zipCode":"6230033","prefectureKana":"ｷｮｳﾄﾌ","cityKana":"ｱﾔﾍﾞｼ","streetKana":"ﾃﾗﾏﾁ","prefecture":"京都府","city":"綾部市","street":"寺町"},{"zipCode":"6230061","prefectureKana":"ｷｮｳﾄﾌ","cityKana":"ｱﾔﾍﾞｼ","streetKana":"ﾃﾝｼﾞﾝﾁｮｳ","prefecture":"京都府","city":"綾部市","street":"天神町"},{"zipCode":"6230117","prefectureKana":"ｷｮｳﾄﾌ","cityKana":"ｱﾔﾍﾞｼ","streetKana":"ﾄﾖｻｶﾁｮｳ","prefecture":"京都府","city":"綾部市","street":"とよさか町"},{"zipCode":"6230223","prefectureKana":"ｷｮｳﾄﾌ","cityKana":"ｱﾔﾍﾞｼ","streetKana":"ﾄﾖｻﾄﾁｮｳ","prefecture":"京都府","city":"綾部市","street":"豊里町"},{"zipCode":"6230113","prefectureKana":"ｷｮｳﾄﾌ","cityKana":"ｱﾔﾍﾞｼ","streetKana":"ﾅｶｽｼﾞﾁｮｳ","prefecture":"京都府","city":"綾部市","street":"中筋町"},{"zipCode":"6230064","prefectureKana":"ｷｮｳﾄﾌ","cityKana":"ｱﾔﾍﾞｼ","streetKana":"ﾅｶﾉﾁｮｳ","prefecture":"京都府","city":"綾部市","street":"中ノ町"},{"zipCode":"6230105","prefectureKana":"ｷｮｳﾄﾌ","cityKana":"ｱﾔﾍﾞｼ","streetKana":"ﾅｶﾔﾏﾁｮｳ","prefecture":"京都府","city":"綾部市","street":"中山町"},{"zipCode":"6230037","prefectureKana":"ｷｮｳﾄﾌ","cityKana":"ｱﾔﾍﾞｼ","streetKana":"ﾅﾝﾏﾂﾁｮｳ","prefecture":"京都府","city":"綾部市","street":"並松町"},{"zipCode":"6230344","prefectureKana":"ｷｮｳﾄﾌ","cityKana":"ｱﾔﾍﾞｼ","streetKana":"ﾆｼｶﾞﾀﾁｮｳ","prefecture":"京都府","city":"綾部市","street":"西方町"},{"zipCode":"6230364","prefectureKana":"ｷｮｳﾄﾌ","cityKana":"ｱﾔﾍﾞｼ","streetKana":"ﾆｼｻﾞｶﾁｮｳ","prefecture":"京都府","city":"綾部市","street":"西坂町"},{"zipCode":"6230065","prefectureKana":"ｷｮｳﾄﾌ","cityKana":"ｱﾔﾍﾞｼ","streetKana":"ﾆｼｼﾝﾏﾁ","prefecture":"京都府","city":"綾部市","street":"西新町"},{"zipCode":"6230016","prefectureKana":"ｷｮｳﾄﾌ","cityKana":"ｱﾔﾍﾞｼ","streetKana":"ﾆｼﾏﾁ","prefecture":"京都府","city":"綾部市","street":"西町"},{"zipCode":"6230345","prefectureKana":"ｷｮｳﾄﾌ","cityKana":"ｱﾔﾍﾞｼ","streetKana":"ﾆﾜﾁｮｳ","prefecture":"京都府","city":"綾部市","street":"仁和町"},{"zipCode":"6230032","prefectureKana":"ｷｮｳﾄﾌ","cityKana":"ｱﾔﾍﾞｼ","streetKana":"ﾉﾀﾞﾁｮｳ","prefecture":"京都府","city":"綾部市","street":"野田町"},{"zipCode":"6230041","prefectureKana":"ｷｮｳﾄﾌ","cityKana":"ｱﾔﾍﾞｼ","streetKana":"ﾉﾌﾞﾁｮｳ","prefecture":"京都府","city":"綾部市","street":"延町"},{"zipCode":"6230361","prefectureKana":"ｷｮｳﾄﾌ","cityKana":"ｱﾔﾍﾞｼ","streetKana":"ﾊｿｳｼﾞﾁｮｳ","prefecture":"京都府","city":"綾部市","street":"白道路町"},{"zipCode":"6230063","prefectureKana":"ｷｮｳﾄﾌ","cityKana":"ｱﾔﾍﾞｼ","streetKana":"ﾋﾛｺｳｼﾞ","prefecture":"京都府","city":"綾部市","street":"広小路"},{"zipCode":"6230115","prefectureKana":"ｷｮｳﾄﾌ","cityKana":"ｱﾔﾍﾞｼ","streetKana":"ﾌﾁｶﾞｷﾁｮｳ","prefecture":"京都府","city":"綾部市","street":"渕垣町"},{"zipCode":"6230353","prefectureKana":"ｷｮｳﾄﾌ","cityKana":"ｱﾔﾍﾞｼ","streetKana":"ﾍﾞｯｼﾖﾁｮｳ","prefecture":"京都府","city":"綾部市","street":"別所町"},{"zipCode":"6230346","prefectureKana":"ｷｮｳﾄﾌ","cityKana":"ｱﾔﾍﾞｼ","streetKana":"ﾎﾞｳｸﾞﾁﾁｮｳ","prefecture":"京都府","city":"綾部市","street":"坊口町"},{"zipCode":"6230007","prefectureKana":"ｷｮｳﾄﾌ","cityKana":"ｱﾔﾍﾞｼ","streetKana":"ﾎｼﾊﾞﾗﾁｮｳ","prefecture":"京都府","city":"綾部市","street":"星原町"},{"zipCode":"6230036","prefectureKana":"ｷｮｳﾄﾌ","cityKana":"ｱﾔﾍﾞｼ","streetKana":"ﾎﾝｸﾞｳﾁｮｳ","prefecture":"京都府","city":"綾部市","street":"本宮町"},{"zipCode":"6230021","prefectureKana":"ｷｮｳﾄﾌ","cityKana":"ｱﾔﾍﾞｼ","streetKana":"ﾎﾝﾏﾁ","prefecture":"京都府","city":"綾部市","street":"本町"},{"zipCode":"6230031","prefectureKana":"ｷｮｳﾄﾌ","cityKana":"ｱﾔﾍﾞｼ","streetKana":"ﾐｶﾀﾁｮｳ","prefecture":"京都府","city":"綾部市","street":"味方町"},{"zipCode":"6231133","prefectureKana":"ｷｮｳﾄﾌ","cityKana":"ｱﾔﾍﾞｼ","streetKana":"ﾐﾂﾉﾁｮｳ","prefecture":"京都府","city":"綾部市","street":"光野町"},{"zipCode":"6230053","prefectureKana":"ｷｮｳﾄﾌ","cityKana":"ｱﾔﾍﾞｼ","streetKana":"ﾐﾔｼﾛﾁｮｳ","prefecture":"京都府","city":"綾部市","street":"宮代町"},{"zipCode":"6230352","prefectureKana":"ｷｮｳﾄﾌ","cityKana":"ｱﾔﾍﾞｼ","streetKana":"ﾑｺｳﾀﾞﾁｮｳ","prefecture":"京都府","city":"綾部市","street":"向田町"},{"zipCode":"6231121","prefectureKana":"ｷｮｳﾄﾌ","cityKana":"ｱﾔﾍﾞｼ","streetKana":"ﾑﾂｱｲﾁｮｳ","prefecture":"京都府","city":"綾部市","street":"睦合町"},{"zipCode":"6231131","prefectureKana":"ｷｮｳﾄﾌ","cityKana":"ｱﾔﾍﾞｼ","streetKana":"ﾑﾂﾖﾘﾁｮｳ","prefecture":"京都府","city":"綾部市","street":"睦寄町"},{"zipCode":"6230362","prefectureKana":"ｷｮｳﾄﾌ","cityKana":"ｱﾔﾍﾞｼ","streetKana":"ﾓﾉﾍﾞﾁｮｳ","prefecture":"京都府","city":"綾部市","street":"物部町"},{"zipCode":"6230107","prefectureKana":"ｷｮｳﾄﾌ","cityKana":"ｱﾔﾍﾞｼ","streetKana":"ﾔｼﾛﾁｮｳ","prefecture":"京都府","city":"綾部市","street":"八代町"},{"zipCode":"6230044","prefectureKana":"ｷｮｳﾄﾌ","cityKana":"ｱﾔﾍﾞｼ","streetKana":"ﾔｽﾊﾞﾁｮｳ","prefecture":"京都府","city":"綾部市","street":"安場町"},{"zipCode":"6231122","prefectureKana":"ｷｮｳﾄﾌ","cityKana":"ｱﾔﾍﾞｼ","streetKana":"ﾔﾂｱｲﾁｮｳ","prefecture":"京都府","city":"綾部市","street":"八津合町"},{"zipCode":"6230014","prefectureKana":"ｷｮｳﾄﾌ","cityKana":"ｱﾔﾍﾞｼ","streetKana":"ﾜｶﾀｹﾁｮｳ","prefecture":"京都府","city":"綾部市","street":"若竹町"},{"zipCode":"6230015","prefectureKana":"ｷｮｳﾄﾌ","cityKana":"ｱﾔﾍﾞｼ","streetKana":"ﾜｶﾏﾂﾁｮｳ","prefecture":"京都府","city":"綾部市","street":"若松町"}]