[{"zipCode":"6240942","prefectureKana":"ｷｮｳﾄﾌ","cityKana":"ﾏｲﾂﾞﾙｼ","streetKana":"ｱｵｲ","prefecture":"京都府","city":"舞鶴市","street":"青井"},{"zipCode":"6240842","prefectureKana":"ｷｮｳﾄﾌ","cityKana":"ﾏｲﾂﾞﾙｼ","streetKana":"ｱｻｼﾛ","prefecture":"京都府","city":"舞鶴市","street":"朝代"},{"zipCode":"6240811","prefectureKana":"ｷｮｳﾄﾌ","cityKana":"ﾏｲﾂﾞﾙｼ","streetKana":"ｲｹﾉｳﾁｼﾓ","prefecture":"京都府","city":"舞鶴市","street":"池ノ内下"},{"zipCode":"6240816","prefectureKana":"ｷｮｳﾄﾌ","cityKana":"ﾏｲﾂﾞﾙｼ","streetKana":"ｲｻﾂﾞ","prefecture":"京都府","city":"舞鶴市","street":"伊佐津"},{"zipCode":"6240813","prefectureKana":"ｷｮｳﾄﾌ","cityKana":"ﾏｲﾂﾞﾙｼ","streetKana":"ｲﾏﾀﾞ","prefecture":"京都府","city":"舞鶴市","street":"今田"},{"zipCode":"6240802","prefectureKana":"ｷｮｳﾄﾌ","cityKana":"ﾏｲﾂﾞﾙｼ","streetKana":"ｳｴﾈ","prefecture":"京都府","city":"舞鶴市","street":"上根"},{"zipCode":"6240912","prefectureKana":"ｷｮｳﾄﾌ","cityKana":"ﾏｲﾂﾞﾙｼ","streetKana":"ｳｴﾔｽ","prefecture":"京都府","city":"舞鶴市","street":"上安"},{"zipCode":"6240911","prefectureKana":"ｷｮｳﾄﾌ","cityKana":"ﾏｲﾂﾞﾙｼ","streetKana":"ｳｴﾔｽﾋｶﾞｼﾏﾁ","prefecture":"京都府","city":"舞鶴市","street":"上安東町"},{"zipCode":"6240923","prefectureKana":"ｷｮｳﾄﾌ","cityKana":"ﾏｲﾂﾞﾙｼ","streetKana":"ｳｵﾔ","prefecture":"京都府","city":"舞鶴市","street":"魚屋"},{"zipCode":"6240854","prefectureKana":"ｷｮｳﾄﾌ","cityKana":"ﾏｲﾂﾞﾙｼ","streetKana":"ｴﾝﾏﾝｼﾞ","prefecture":"京都府","city":"舞鶴市","street":"円満寺"},{"zipCode":"6240852","prefectureKana":"ｷｮｳﾄﾌ","cityKana":"ﾏｲﾂﾞﾙｼ","streetKana":"ｵｵｳﾁ","prefecture":"京都府","city":"舞鶴市","street":"大内"},{"zipCode":"6240101","prefectureKana":"ｷｮｳﾄﾌ","cityKana":"ﾏｲﾂﾞﾙｼ","streetKana":"ｵｵｶﾜ","prefecture":"京都府","city":"舞鶴市","street":"大川"},{"zipCode":"6240944","prefectureKana":"ｷｮｳﾄﾌ","cityKana":"ﾏｲﾂﾞﾙｼ","streetKana":"ｵｵｷﾐ","prefecture":"京都府","city":"舞鶴市","street":"大君"},{"zipCode":"6240851","prefectureKana":"ｷｮｳﾄﾌ","cityKana":"ﾏｲﾂﾞﾙｼ","streetKana":"ｵｵﾁﾉﾁｮｳ","prefecture":"京都府","city":"舞鶴市","street":"大内野町"},{"zipCode":"6240123","prefectureKana":"ｷｮｳﾄﾌ","cityKana":"ﾏｲﾂﾞﾙｼ","streetKana":"ｵｵﾏﾀ","prefecture":"京都府","city":"舞鶴市","street":"大俣"},{"zipCode":"6240117","prefectureKana":"ｷｮｳﾄﾌ","cityKana":"ﾏｲﾂﾞﾙｼ","streetKana":"ｵｶﾀﾞﾕﾘ","prefecture":"京都府","city":"舞鶴市","street":"岡田由里"},{"zipCode":"6240964","prefectureKana":"ｷｮｳﾄﾌ","cityKana":"ﾏｲﾂﾞﾙｼ","streetKana":"ｶﾏﾔ","prefecture":"京都府","city":"舞鶴市","street":"蒲江"},{"zipCode":"6240913","prefectureKana":"ｷｮｳﾄﾌ","cityKana":"ﾏｲﾂﾞﾙｼ","streetKana":"ｶﾐｱｸﾞ","prefecture":"京都府","city":"舞鶴市","street":"上安久"},{"zipCode":"6240112","prefectureKana":"ｷｮｳﾄﾌ","cityKana":"ﾏｲﾂﾞﾙｼ","streetKana":"ｶﾐｳﾙｼﾊﾞﾗ","prefecture":"京都府","city":"舞鶴市","street":"上漆原"},{"zipCode":"6240968","prefectureKana":"ｷｮｳﾄﾌ","cityKana":"ﾏｲﾂﾞﾙｼ","streetKana":"ｶﾐﾋｶﾞｼ","prefecture":"京都府","city":"舞鶴市","street":"上東"},{"zipCode":"6240951","prefectureKana":"ｷｮｳﾄﾌ","cityKana":"ﾏｲﾂﾞﾙｼ","streetKana":"ｶﾐﾌｸｲ","prefecture":"京都府","city":"舞鶴市","street":"上福井"},{"zipCode":"6240804","prefectureKana":"ｷｮｳﾄﾌ","cityKana":"ﾏｲﾂﾞﾙｼ","streetKana":"ｷｼﾀﾞﾆ","prefecture":"京都府","city":"舞鶴市","street":"岸谷"},{"zipCode":"6240945","prefectureKana":"ｷｮｳﾄﾌ","cityKana":"ﾏｲﾂﾞﾙｼ","streetKana":"ｷﾀ","prefecture":"京都府","city":"舞鶴市","street":"喜多"},{"zipCode":"6240855","prefectureKana":"ｷｮｳﾄﾌ","cityKana":"ﾏｲﾂﾞﾙｼ","streetKana":"ｷﾀﾀﾅﾍﾞ","prefecture":"京都府","city":"舞鶴市","street":"北田辺"},{"zipCode":"6240935","prefectureKana":"ｷｮｳﾄﾌ","cityKana":"ﾏｲﾂﾞﾙｼ","streetKana":"ｷｮｳｸﾞﾁ","prefecture":"京都府","city":"舞鶴市","street":"京口"},{"zipCode":"6240823","prefectureKana":"ｷｮｳﾄﾌ","cityKana":"ﾏｲﾂﾞﾙｼ","streetKana":"ｷｮｳﾀﾞ","prefecture":"京都府","city":"舞鶴市","street":"京田"},{"zipCode":"6240826","prefectureKana":"ｷｮｳﾄﾌ","cityKana":"ﾏｲﾂﾞﾙｼ","streetKana":"ｷｮｳﾀﾞｼﾝﾏﾁ","prefecture":"京都府","city":"舞鶴市","street":"京田新町"},{"zipCode":"6240901","prefectureKana":"ｷｮｳﾄﾌ","cityKana":"ﾏｲﾂﾞﾙｼ","streetKana":"ｷﾖﾐｶﾞｵｶ","prefecture":"京都府","city":"舞鶴市","street":"清美が丘"},{"zipCode":"6240902","prefectureKana":"ｷｮｳﾄﾌ","cityKana":"ﾏｲﾂﾞﾙｼ","streetKana":"ｷﾖﾐﾁ","prefecture":"京都府","city":"舞鶴市","street":"清道"},{"zipCode":"6240908","prefectureKana":"ｷｮｳﾄﾌ","cityKana":"ﾏｲﾂﾞﾙｼ","streetKana":"ｷﾖﾐﾁｼﾝﾏﾁ","prefecture":"京都府","city":"舞鶴市","street":"清道新町"},{"zipCode":"6240103","prefectureKana":"ｷｮｳﾄﾌ","cityKana":"ﾏｲﾂﾞﾙｼ","streetKana":"ｸﾀﾐ","prefecture":"京都府","city":"舞鶴市","street":"久田美"},{"zipCode":"6240821","prefectureKana":"ｷｮｳﾄﾌ","cityKana":"ﾏｲﾂﾞﾙｼ","streetKana":"ｸﾓﾝﾅ","prefecture":"京都府","city":"舞鶴市","street":"公文名"},{"zipCode":"6240906","prefectureKana":"ｷｮｳﾄﾌ","cityKana":"ﾏｲﾂﾞﾙｼ","streetKana":"ｸﾗﾀﾆ","prefecture":"京都府","city":"舞鶴市","street":"倉谷"},{"zipCode":"6240125","prefectureKana":"ｷｮｳﾄﾌ","cityKana":"ﾏｲﾂﾞﾙｼ","streetKana":"ｸﾜｶﾞｲｶﾐ","prefecture":"京都府","city":"舞鶴市","street":"桑飼上"},{"zipCode":"6240124","prefectureKana":"ｷｮｳﾄﾌ","cityKana":"ﾏｲﾂﾞﾙｼ","streetKana":"ｸﾜｶﾞｲｼﾓ","prefecture":"京都府","city":"舞鶴市","street":"桑飼下"},{"zipCode":"6240115","prefectureKana":"ｷｮｳﾄﾌ","cityKana":"ﾏｲﾂﾞﾙｼ","streetKana":"ｺｳﾗ","prefecture":"京都府","city":"舞鶴市","street":"河原"},{"zipCode":"6240936","prefectureKana":"ｷｮｳﾄﾌ","cityKana":"ﾏｲﾂﾞﾙｼ","streetKana":"ｺﾝﾔ","prefecture":"京都府","city":"舞鶴市","street":"紺屋"},{"zipCode":"6240118","prefectureKana":"ｷｮｳﾄﾌ","cityKana":"ﾏｲﾂﾞﾙｼ","streetKana":"ｻｲﾎｳｼﾞ","prefecture":"京都府","city":"舞鶴市","street":"西方寺"},{"zipCode":"6240815","prefectureKana":"ｷｮｳﾄﾌ","cityKana":"ﾏｲﾂﾞﾙｼ","streetKana":"ｻｶｲﾀﾞﾆ","prefecture":"京都府","city":"舞鶴市","street":"境谷"},{"zipCode":"6240102","prefectureKana":"ｷｮｳﾄﾌ","cityKana":"ﾏｲﾂﾞﾙｼ","streetKana":"ｼﾀﾞｶ","prefecture":"京都府","city":"舞鶴市","street":"志高"},{"zipCode":"6240122","prefectureKana":"ｷｮｳﾄﾌ","cityKana":"ﾏｲﾂﾞﾙｼ","streetKana":"ｼﾞﾄｳ","prefecture":"京都府","city":"舞鶴市","street":"地頭"},{"zipCode":"6240929","prefectureKana":"ｷｮｳﾄﾌ","cityKana":"ﾏｲﾂﾞﾙｼ","streetKana":"ｼﾞﾅｲ","prefecture":"京都府","city":"舞鶴市","street":"寺内"},{"zipCode":"6240914","prefectureKana":"ｷｮｳﾄﾌ","cityKana":"ﾏｲﾂﾞﾙｼ","streetKana":"ｼﾓｱｸﾞ","prefecture":"京都府","city":"舞鶴市","street":"下安久"},{"zipCode":"6240113","prefectureKana":"ｷｮｳﾄﾌ","cityKana":"ﾏｲﾂﾞﾙｼ","streetKana":"ｼﾓｳﾙｼﾊﾞﾗ","prefecture":"京都府","city":"舞鶴市","street":"下漆原"},{"zipCode":"6240967","prefectureKana":"ｷｮｳﾄﾌ","cityKana":"ﾏｲﾂﾞﾙｼ","streetKana":"ｼﾓﾋｶﾞｼ","prefecture":"京都府","city":"舞鶴市","street":"下東"},{"zipCode":"6240946","prefectureKana":"ｷｮｳﾄﾌ","cityKana":"ﾏｲﾂﾞﾙｼ","streetKana":"ｼﾓﾌｸｲ","prefecture":"京都府","city":"舞鶴市","street":"下福井"},{"zipCode":"6240114","prefectureKana":"ｷｮｳﾄﾌ","cityKana":"ﾏｲﾂﾞﾙｼ","streetKana":"ｼﾓﾐﾀﾞﾆ","prefecture":"京都府","city":"舞鶴市","street":"下見谷"},{"zipCode":"6240834","prefectureKana":"ｷｮｳﾄﾌ","cityKana":"ﾏｲﾂﾞﾙｼ","streetKana":"ｼﾞｮｳﾔ","prefecture":"京都府","city":"舞鶴市","street":"城屋"},{"zipCode":"6240904","prefectureKana":"ｷｮｳﾄﾌ","cityKana":"ﾏｲﾂﾞﾙｼ","streetKana":"ｼｮｳﾜﾀﾞｲ","prefecture":"京都府","city":"舞鶴市","street":"昭和台"},{"zipCode":"6240924","prefectureKana":"ｷｮｳﾄﾌ","cityKana":"ﾏｲﾂﾞﾙｼ","streetKana":"ｼｮｸﾆﾝ","prefecture":"京都府","city":"舞鶴市","street":"職人"},{"zipCode":"6240941","prefectureKana":"ｷｮｳﾄﾌ","cityKana":"ﾏｲﾂﾞﾙｼ","streetKana":"ｼﾗｽｷﾞ","prefecture":"京都府","city":"舞鶴市","street":"白杉"},{"zipCode":"6240803","prefectureKana":"ｷｮｳﾄﾌ","cityKana":"ﾏｲﾂﾞﾙｼ","streetKana":"ｼﾗﾀｷ","prefecture":"京都府","city":"舞鶴市","street":"白滝"},{"zipCode":"6240933","prefectureKana":"ｷｮｳﾄﾌ","cityKana":"ﾏｲﾂﾞﾙｼ","streetKana":"ｼﾝ","prefecture":"京都府","city":"舞鶴市","street":"新"},{"zipCode":"6240832","prefectureKana":"ｷｮｳﾄﾌ","cityKana":"ﾏｲﾂﾞﾙｼ","streetKana":"ﾀｶﾉﾀﾞｲ","prefecture":"京都府","city":"舞鶴市","street":"高野台"},{"zipCode":"6240835","prefectureKana":"ｷｮｳﾄﾌ","cityKana":"ﾏｲﾂﾞﾙｼ","streetKana":"ﾀｶﾉﾕﾘ","prefecture":"京都府","city":"舞鶴市","street":"高野由里"},{"zipCode":"6240121","prefectureKana":"ｷｮｳﾄﾌ","cityKana":"ﾏｲﾂﾞﾙｼ","streetKana":"ﾀｷｶﾞｳﾛ","prefecture":"京都府","city":"舞鶴市","street":"滝ケ宇呂"},{"zipCode":"6240928","prefectureKana":"ｷｮｳﾄﾌ","cityKana":"ﾏｲﾂﾞﾙｼ","streetKana":"ﾀｹﾔ","prefecture":"京都府","city":"舞鶴市","street":"竹屋"},{"zipCode":"6240925","prefectureKana":"ｷｮｳﾄﾌ","cityKana":"ﾏｲﾂﾞﾙｼ","streetKana":"ﾀﾝﾊﾞ","prefecture":"京都府","city":"舞鶴市","street":"丹波"},{"zipCode":"6240801","prefectureKana":"ｷｮｳﾄﾌ","cityKana":"ﾏｲﾂﾞﾙｼ","streetKana":"ﾃﾗﾀﾞ","prefecture":"京都府","city":"舞鶴市","street":"寺田"},{"zipCode":"6240903","prefectureKana":"ｷｮｳﾄﾌ","cityKana":"ﾏｲﾂﾞﾙｼ","streetKana":"ﾃﾝﾀﾞｲ","prefecture":"京都府","city":"舞鶴市","street":"天台"},{"zipCode":"6240909","prefectureKana":"ｷｮｳﾄﾌ","cityKana":"ﾏｲﾂﾞﾙｼ","streetKana":"ﾃﾝﾀﾞｲｼﾝﾏﾁ","prefecture":"京都府","city":"舞鶴市","street":"天台新町"},{"zipCode":"6240825","prefectureKana":"ｷｮｳﾄﾌ","cityKana":"ﾏｲﾂﾞﾙｼ","streetKana":"ﾄｸﾗ","prefecture":"京都府","city":"舞鶴市","street":"十倉"},{"zipCode":"6240111","prefectureKana":"ｷｮｳﾄﾌ","cityKana":"ﾏｲﾂﾞﾙｼ","streetKana":"ﾅｶﾞﾀﾆ","prefecture":"京都府","city":"舞鶴市","street":"長谷"},{"zipCode":"6240966","prefectureKana":"ｷｮｳﾄﾌ","cityKana":"ﾏｲﾂﾞﾙｼ","streetKana":"ﾅｶﾔﾏ","prefecture":"京都府","city":"舞鶴市","street":"中山"},{"zipCode":"6240822","prefectureKana":"ｷｮｳﾄﾌ","cityKana":"ﾏｲﾂﾞﾙｼ","streetKana":"ﾅﾇｶｲﾁ","prefecture":"京都府","city":"舞鶴市","street":"七日市"},{"zipCode":"6240937","prefectureKana":"ｷｮｳﾄﾌ","cityKana":"ﾏｲﾂﾞﾙｼ","streetKana":"ﾆｼ","prefecture":"京都府","city":"舞鶴市","street":"西"},{"zipCode":"6240961","prefectureKana":"ｷｮｳﾄﾌ","cityKana":"ﾏｲﾂﾞﾙｼ","streetKana":"ﾆｼｶﾝｻﾞｷ","prefecture":"京都府","city":"舞鶴市","street":"西神崎"},{"zipCode":"6240922","prefectureKana":"ｷｮｳﾄﾌ","cityKana":"ﾏｲﾂﾞﾙｼ","streetKana":"ﾆｼﾖｼﾊﾗ","prefecture":"京都府","city":"舞鶴市","street":"西吉原"},{"zipCode":"6240831","prefectureKana":"ｷｮｳﾄﾌ","cityKana":"ﾏｲﾂﾞﾙｼ","streetKana":"ﾆｮｳ","prefecture":"京都府","city":"舞鶴市","street":"女布"},{"zipCode":"6240836","prefectureKana":"ｷｮｳﾄﾌ","cityKana":"ﾏｲﾂﾞﾙｼ","streetKana":"ﾆｮｳｷﾀﾏﾁ","prefecture":"京都府","city":"舞鶴市","street":"女布北町"},{"zipCode":"6240806","prefectureKana":"ｷｮｳﾄﾌ","cityKana":"ﾏｲﾂﾞﾙｼ","streetKana":"ﾇﾉｼｷ","prefecture":"京都府","city":"舞鶴市","street":"布敷"},{"zipCode":"6240833","prefectureKana":"ｷｮｳﾄﾌ","cityKana":"ﾏｲﾂﾞﾙｼ","streetKana":"ﾉﾑﾗｼﾞ","prefecture":"京都府","city":"舞鶴市","street":"野村寺"},{"zipCode":"6240954","prefectureKana":"ｷｮｳﾄﾌ","cityKana":"ﾏｲﾂﾞﾙｼ","streetKana":"ﾊｯﾀ","prefecture":"京都府","city":"舞鶴市","street":"八田"},{"zipCode":"6240953","prefectureKana":"ｷｮｳﾄﾌ","cityKana":"ﾏｲﾂﾞﾙｼ","streetKana":"ﾊﾄﾁ","prefecture":"京都府","city":"舞鶴市","street":"八戸地"},{"zipCode":"6240962","prefectureKana":"ｷｮｳﾄﾌ","cityKana":"ﾏｲﾂﾞﾙｼ","streetKana":"ﾋｶﾞｼｶﾝｻﾞｷ","prefecture":"京都府","city":"舞鶴市","street":"東神崎"},{"zipCode":"6240921","prefectureKana":"ｷｮｳﾄﾌ","cityKana":"ﾏｲﾂﾞﾙｼ","streetKana":"ﾋｶﾞｼﾖｼﾊﾗ","prefecture":"京都府","city":"舞鶴市","street":"東吉原"},{"zipCode":"6240841","prefectureKana":"ｷｮｳﾄﾌ","cityKana":"ﾏｲﾂﾞﾙｼ","streetKana":"ﾋｷﾂﾁ","prefecture":"京都府","city":"舞鶴市","street":"引土"},{"zipCode":"6240843","prefectureKana":"ｷｮｳﾄﾌ","cityKana":"ﾏｲﾂﾞﾙｼ","streetKana":"ﾋｷﾂﾁｼﾝ","prefecture":"京都府","city":"舞鶴市","street":"引土新"},{"zipCode":"6240927","prefectureKana":"ｷｮｳﾄﾌ","cityKana":"ﾏｲﾂﾞﾙｼ","streetKana":"ﾋﾗﾉﾔ","prefecture":"京都府","city":"舞鶴市","street":"平野屋"},{"zipCode":"6240905","prefectureKana":"ｷｮｳﾄﾌ","cityKana":"ﾏｲﾂﾞﾙｼ","streetKana":"ﾌｷ","prefecture":"京都府","city":"舞鶴市","street":"福来"},{"zipCode":"6240907","prefectureKana":"ｷｮｳﾄﾌ","cityKana":"ﾏｲﾂﾞﾙｼ","streetKana":"ﾌｷﾄﾝﾔﾏﾁ","prefecture":"京都府","city":"舞鶴市","street":"福来問屋町"},{"zipCode":"6240116","prefectureKana":"ｷｮｳﾄﾌ","cityKana":"ﾏｲﾂﾞﾙｼ","streetKana":"ﾌﾑﾛ","prefecture":"京都府","city":"舞鶴市","street":"富室"},{"zipCode":"6240805","prefectureKana":"ｷｮｳﾄﾌ","cityKana":"ﾏｲﾂﾞﾙｼ","streetKana":"ﾍﾞｯｼﾖ","prefecture":"京都府","city":"舞鶴市","street":"別所"},{"zipCode":"6240812","prefectureKana":"ｷｮｳﾄﾌ","cityKana":"ﾏｲﾂﾞﾙｼ","streetKana":"ﾎﾘ","prefecture":"京都府","city":"舞鶴市","street":"堀"},{"zipCode":"6240934","prefectureKana":"ｷｮｳﾄﾌ","cityKana":"ﾏｲﾂﾞﾙｼ","streetKana":"ﾎﾘｶﾐ","prefecture":"京都府","city":"舞鶴市","street":"堀上"},{"zipCode":"6240926","prefectureKana":"ｷｮｳﾄﾌ","cityKana":"ﾏｲﾂﾞﾙｼ","streetKana":"ﾎﾝ","prefecture":"京都府","city":"舞鶴市","street":"本"},{"zipCode":"6240824","prefectureKana":"ｷｮｳﾄﾌ","cityKana":"ﾏｲﾂﾞﾙｼ","streetKana":"ﾏｸﾞﾗ","prefecture":"京都府","city":"舞鶴市","street":"真倉"},{"zipCode":"6240931","prefectureKana":"ｷｮｳﾄﾌ","cityKana":"ﾏｲﾂﾞﾙｼ","streetKana":"ﾏﾂｶｹﾞ","prefecture":"京都府","city":"舞鶴市","street":"松陰"},{"zipCode":"6240955","prefectureKana":"ｷｮｳﾄﾌ","cityKana":"ﾏｲﾂﾞﾙｼ","streetKana":"ﾏﾙﾀ","prefecture":"京都府","city":"舞鶴市","street":"丸田"},{"zipCode":"6240814","prefectureKana":"ｷｮｳﾄﾌ","cityKana":"ﾏｲﾂﾞﾙｼ","streetKana":"ﾏﾝｶﾞﾝｼﾞ","prefecture":"京都府","city":"舞鶴市","street":"万願寺"},{"zipCode":"6240965","prefectureKana":"ｷｮｳﾄﾌ","cityKana":"ﾏｲﾂﾞﾙｼ","streetKana":"ﾐｽﾞﾏ","prefecture":"京都府","city":"舞鶴市","street":"水間"},{"zipCode":"6240952","prefectureKana":"ｷｮｳﾄﾌ","cityKana":"ﾏｲﾂﾞﾙｼ","streetKana":"ﾐｯｶｲﾁ","prefecture":"京都府","city":"舞鶴市","street":"三日市"},{"zipCode":"6240853","prefectureKana":"ｷｮｳﾄﾌ","cityKana":"ﾏｲﾂﾞﾙｼ","streetKana":"ﾐﾅﾐﾀﾅﾍﾞ","prefecture":"京都府","city":"舞鶴市","street":"南田辺"},{"zipCode":"6240932","prefectureKana":"ｷｮｳﾄﾌ","cityKana":"ﾏｲﾂﾞﾙｼ","streetKana":"ﾐﾔﾂﾞｸﾞﾁ","prefecture":"京都府","city":"舞鶴市","street":"宮津口"},{"zipCode":"6240963","prefectureKana":"ｷｮｳﾄﾌ","cityKana":"ﾏｲﾂﾞﾙｼ","streetKana":"ﾕｺﾞ","prefecture":"京都府","city":"舞鶴市","street":"油江"},{"zipCode":"6240943","prefectureKana":"ｷｮｳﾄﾌ","cityKana":"ﾏｲﾂﾞﾙｼ","streetKana":"ﾖｼﾀﾞ","prefecture":"京都府","city":"舞鶴市","street":"吉田"},{"zipCode":"6240956","prefectureKana":"ｷｮｳﾄﾌ","cityKana":"ﾏｲﾂﾞﾙｼ","streetKana":"ﾜｴ","prefecture":"京都府","city":"舞鶴市","street":"和江"}]