[{"zipCode":"6250000","prefectureKana":"ｷｮｳﾄﾌ","cityKana":"ﾏｲﾂﾞﾙｼ","streetKana":"ｲｶﾆｹｲｻｲｶﾞﾅｲﾊﾞｱｲ","prefecture":"京都府","city":"舞鶴市","street":"以下に掲載がない場合"},{"zipCode":"6250151","prefectureKana":"ｷｮｳﾄﾌ","cityKana":"ﾏｲﾂﾞﾙｼ","streetKana":"ｱｶﾉ","prefecture":"京都府","city":"舞鶴市","street":"赤野"},{"zipCode":"6250005","prefectureKana":"ｷｮｳﾄﾌ","cityKana":"ﾏｲﾂﾞﾙｼ","streetKana":"ｱｾｸﾅｶ","prefecture":"京都府","city":"舞鶴市","street":"朝来中"},{"zipCode":"6250004","prefectureKana":"ｷｮｳﾄﾌ","cityKana":"ﾏｲﾂﾞﾙｼ","streetKana":"ｱｾｸﾆｼﾏﾁ","prefecture":"京都府","city":"舞鶴市","street":"朝来西町"},{"zipCode":"6250030","prefectureKana":"ｷｮｳﾄﾌ","cityKana":"ﾏｲﾂﾞﾙｼ","streetKana":"ｱﾀｺﾞｶﾐﾏﾁ","prefecture":"京都府","city":"舞鶴市","street":"愛宕上町"},{"zipCode":"6250031","prefectureKana":"ｷｮｳﾄﾌ","cityKana":"ﾏｲﾂﾞﾙｼ","streetKana":"ｱﾀｺﾞﾅｶﾏﾁ","prefecture":"京都府","city":"舞鶴市","street":"愛宕中町"},{"zipCode":"6250032","prefectureKana":"ｷｮｳﾄﾌ","cityKana":"ﾏｲﾂﾞﾙｼ","streetKana":"ｱﾀｺﾞｼﾓﾏﾁ","prefecture":"京都府","city":"舞鶴市","street":"愛宕下町"},{"zipCode":"6250033","prefectureKana":"ｷｮｳﾄﾌ","cityKana":"ﾏｲﾂﾞﾙｼ","streetKana":"ｱﾀｺﾞﾊﾏﾏﾁ","prefecture":"京都府","city":"舞鶴市","street":"愛宕浜町"},{"zipCode":"6250083","prefectureKana":"ｷｮｳﾄﾌ","cityKana":"ﾏｲﾂﾞﾙｼ","streetKana":"ｱﾏﾙﾍﾞｶﾐ","prefecture":"京都府","city":"舞鶴市","street":"余部上"},{"zipCode":"6250087","prefectureKana":"ｷｮｳﾄﾌ","cityKana":"ﾏｲﾂﾞﾙｼ","streetKana":"ｱﾏﾙﾍﾞｼﾓ","prefecture":"京都府","city":"舞鶴市","street":"余部下"},{"zipCode":"6250025","prefectureKana":"ｷｮｳﾄﾌ","cityKana":"ﾏｲﾂﾞﾙｼ","streetKana":"ｲﾁﾊﾞ","prefecture":"京都府","city":"舞鶴市","street":"市場"},{"zipCode":"6250043","prefectureKana":"ｷｮｳﾄﾌ","cityKana":"ﾏｲﾂﾞﾙｼ","streetKana":"ｳﾒｶﾞﾀﾆ","prefecture":"京都府","city":"舞鶴市","street":"梅ケ谷"},{"zipCode":"6250136","prefectureKana":"ｷｮｳﾄﾌ","cityKana":"ﾏｲﾂﾞﾙｼ","streetKana":"ｵｵﾆｭｳ","prefecture":"京都府","city":"舞鶴市","street":"大丹生"},{"zipCode":"6250006","prefectureKana":"ｷｮｳﾄﾌ","cityKana":"ﾏｲﾂﾞﾙｼ","streetKana":"ｵｵﾊﾞｶﾐ","prefecture":"京都府","city":"舞鶴市","street":"大波上"},{"zipCode":"6250007","prefectureKana":"ｷｮｳﾄﾌ","cityKana":"ﾏｲﾂﾞﾙｼ","streetKana":"ｵｵﾊﾞｼﾓ","prefecture":"京都府","city":"舞鶴市","street":"大波下"},{"zipCode":"6250158","prefectureKana":"ｷｮｳﾄﾌ","cityKana":"ﾏｲﾂﾞﾙｼ","streetKana":"ｵｵﾔﾏ","prefecture":"京都府","city":"舞鶴市","street":"大山"},{"zipCode":"6250015","prefectureKana":"ｷｮｳﾄﾌ","cityKana":"ﾏｲﾂﾞﾙｼ","streetKana":"ｵｶﾔｽ","prefecture":"京都府","city":"舞鶴市","street":"岡安"},{"zipCode":"6250020","prefectureKana":"ｷｮｳﾄﾌ","cityKana":"ﾏｲﾂﾞﾙｼ","streetKana":"ｵｸﾞﾗ","prefecture":"京都府","city":"舞鶴市","street":"小倉"},{"zipCode":"6250154","prefectureKana":"ｷｮｳﾄﾌ","cityKana":"ﾏｲﾂﾞﾙｼ","streetKana":"ｵﾊﾞｾ","prefecture":"京都府","city":"舞鶴市","street":"小橋"},{"zipCode":"6250053","prefectureKana":"ｷｮｳﾄﾌ","cityKana":"ﾏｲﾂﾞﾙｼ","streetKana":"ｶﾅﾔﾁｮｳ","prefecture":"京都府","city":"舞鶴市","street":"金屋町"},{"zipCode":"6250014","prefectureKana":"ｷｮｳﾄﾌ","cityKana":"ﾏｲﾂﾞﾙｼ","streetKana":"ｶﾊﾗ","prefecture":"京都府","city":"舞鶴市","street":"鹿原"},{"zipCode":"6250013","prefectureKana":"ｷｮｳﾄﾌ","cityKana":"ﾏｲﾂﾞﾙｼ","streetKana":"ｶﾊﾗﾆｼﾏﾁ","prefecture":"京都府","city":"舞鶴市","street":"鹿原西町"},{"zipCode":"6250077","prefectureKana":"ｷｮｳﾄﾌ","cityKana":"ﾏｲﾂﾞﾙｼ","streetKana":"ｶﾒｲﾜﾁｮｳ","prefecture":"京都府","city":"舞鶴市","street":"亀岩町"},{"zipCode":"6250141","prefectureKana":"ｷｮｳﾄﾌ","cityKana":"ﾏｲﾂﾞﾙｼ","streetKana":"ｶﾜﾍﾞﾅｶ","prefecture":"京都府","city":"舞鶴市","street":"河辺中"},{"zipCode":"6250146","prefectureKana":"ｷｮｳﾄﾌ","cityKana":"ﾏｲﾂﾞﾙｼ","streetKana":"ｶﾜﾍﾞﾊﾗ","prefecture":"京都府","city":"舞鶴市","street":"河辺原"},{"zipCode":"6250144","prefectureKana":"ｷｮｳﾄﾌ","cityKana":"ﾏｲﾂﾞﾙｼ","streetKana":"ｶﾜﾍﾞﾕﾘ","prefecture":"京都府","city":"舞鶴市","street":"河辺由里"},{"zipCode":"6250145","prefectureKana":"ｷｮｳﾄﾌ","cityKana":"ﾏｲﾂﾞﾙｼ","streetKana":"ｶﾝﾉﾝｼﾞ","prefecture":"京都府","city":"舞鶴市","street":"観音寺"},{"zipCode":"6250080","prefectureKana":"ｷｮｳﾄﾌ","cityKana":"ﾏｲﾂﾞﾙｼ","streetKana":"ｷﾀｽｲ","prefecture":"京都府","city":"舞鶴市","street":"北吸"},{"zipCode":"6250050","prefectureKana":"ｷｮｳﾄﾌ","cityKana":"ﾏｲﾂﾞﾙｼ","streetKana":"ｷﾀﾊﾏﾁｮｳ","prefecture":"京都府","city":"舞鶴市","street":"北浜町"},{"zipCode":"6250011","prefectureKana":"ｷｮｳﾄﾌ","cityKana":"ﾏｲﾂﾞﾙｼ","streetKana":"ｷﾁｻｶ","prefecture":"京都府","city":"舞鶴市","street":"吉坂"},{"zipCode":"6250073","prefectureKana":"ｷｮｳﾄﾌ","cityKana":"ﾏｲﾂﾞﾙｼ","streetKana":"ｷﾉｼﾀ","prefecture":"京都府","city":"舞鶴市","street":"木ノ下"},{"zipCode":"6250076","prefectureKana":"ｷｮｳﾄﾌ","cityKana":"ﾏｲﾂﾞﾙｼ","streetKana":"ｷｮｳｹﾞﾂﾁｮｳ","prefecture":"京都府","city":"舞鶴市","street":"京月町"},{"zipCode":"6250075","prefectureKana":"ｷｮｳﾄﾌ","cityKana":"ﾏｲﾂﾞﾙｼ","streetKana":"ｷｮｳｹﾞﾂﾋｶﾞｼﾏﾁ","prefecture":"京都府","city":"舞鶴市","street":"京月東町"},{"zipCode":"6250056","prefectureKana":"ｷｮｳﾄﾌ","cityKana":"ﾏｲﾂﾞﾙｼ","streetKana":"ｸﾗﾊｼﾁｮｳ","prefecture":"京都府","city":"舞鶴市","street":"倉梯町"},{"zipCode":"6250055","prefectureKana":"ｷｮｳﾄﾌ","cityKana":"ﾏｲﾂﾞﾙｼ","streetKana":"ｸﾗﾊｼﾅｶﾏﾁ","prefecture":"京都府","city":"舞鶴市","street":"倉梯中町"},{"zipCode":"6250134","prefectureKana":"ｷｮｳﾄﾌ","cityKana":"ﾏｲﾂﾞﾙｼ","streetKana":"ｻﾊﾞｶ","prefecture":"京都府","city":"舞鶴市","street":"佐波賀"},{"zipCode":"6250054","prefectureKana":"ｷｮｳﾄﾌ","cityKana":"ﾏｲﾂﾞﾙｼ","streetKana":"ｼﾁｼﾞｮｳﾅｶﾏﾁ","prefecture":"京都府","city":"舞鶴市","street":"七条中町"},{"zipCode":"6250084","prefectureKana":"ｷｮｳﾄﾌ","cityKana":"ﾏｲﾂﾞﾙｼ","streetKana":"ｼﾗﾊﾏﾀﾞｲ","prefecture":"京都府","city":"舞鶴市","street":"白浜台"},{"zipCode":"6250016","prefectureKana":"ｷｮｳﾄﾌ","cityKana":"ﾏｲﾂﾞﾙｼ","streetKana":"ｼﾛﾔ","prefecture":"京都府","city":"舞鶴市","street":"白屋"},{"zipCode":"6250012","prefectureKana":"ｷｮｳﾄﾌ","cityKana":"ﾏｲﾂﾞﾙｼ","streetKana":"ｼﾛﾔﾁｮｳ","prefecture":"京都府","city":"舞鶴市","street":"白屋町"},{"zipCode":"6250001","prefectureKana":"ｷｮｳﾄﾌ","cityKana":"ﾏｲﾂﾞﾙｼ","streetKana":"ｽｷﾞﾔﾏ","prefecture":"京都府","city":"舞鶴市","street":"杉山"},{"zipCode":"6250137","prefectureKana":"ｷｮｳﾄﾌ","cityKana":"ﾏｲﾂﾞﾙｼ","streetKana":"ｾｻﾞｷ","prefecture":"京都府","city":"舞鶴市","street":"瀬崎"},{"zipCode":"6250026","prefectureKana":"ｷｮｳﾄﾌ","cityKana":"ﾏｲﾂﾞﾙｼ","streetKana":"ｾﾝｹﾞﾝｼﾞ","prefecture":"京都府","city":"舞鶴市","street":"泉源寺"},{"zipCode":"6250157","prefectureKana":"ｷｮｳﾄﾌ","cityKana":"ﾏｲﾂﾞﾙｼ","streetKana":"ﾀｲ","prefecture":"京都府","city":"舞鶴市","street":"田井"},{"zipCode":"6250133","prefectureKana":"ｷｮｳﾄﾌ","cityKana":"ﾏｲﾂﾞﾙｼ","streetKana":"ﾀｲﾗ","prefecture":"京都府","city":"舞鶴市","street":"平"},{"zipCode":"6250023","prefectureKana":"ｷｮｳﾄﾌ","cityKana":"ﾏｲﾂﾞﾙｼ","streetKana":"ﾀﾅｶ","prefecture":"京都府","city":"舞鶴市","street":"田中"},{"zipCode":"6250024","prefectureKana":"ｷｮｳﾄﾌ","cityKana":"ﾏｲﾂﾞﾙｼ","streetKana":"ﾀﾅｶﾁｮｳ","prefecture":"京都府","city":"舞鶴市","street":"田中町"},{"zipCode":"6250152","prefectureKana":"ｷｮｳﾄﾌ","cityKana":"ﾏｲﾂﾞﾙｼ","streetKana":"ﾀﾈｼﾞ","prefecture":"京都府","city":"舞鶴市","street":"多祢寺"},{"zipCode":"6250045","prefectureKana":"ｷｮｳﾄﾌ","cityKana":"ﾏｲﾂﾞﾙｼ","streetKana":"ﾀﾓﾝｲﾝ","prefecture":"京都府","city":"舞鶴市","street":"多門院"},{"zipCode":"6250135","prefectureKana":"ｷｮｳﾄﾌ","cityKana":"ﾏｲﾂﾞﾙｼ","streetKana":"ﾁﾄｾ","prefecture":"京都府","city":"舞鶴市","street":"千歳"},{"zipCode":"6250082","prefectureKana":"ｷｮｳﾄﾌ","cityKana":"ﾏｲﾂﾞﾙｼ","streetKana":"ﾂﾂｼﾞｶﾞｵｶ","prefecture":"京都府","city":"舞鶴市","street":"つつじケ丘"},{"zipCode":"6250072","prefectureKana":"ｷｮｳﾄﾌ","cityKana":"ﾏｲﾂﾞﾙｼ","streetKana":"ﾂﾈ","prefecture":"京都府","city":"舞鶴市","street":"常"},{"zipCode":"6250071","prefectureKana":"ｷｮｳﾄﾌ","cityKana":"ﾏｲﾂﾞﾙｼ","streetKana":"ﾂﾈｼﾝﾏﾁ","prefecture":"京都府","city":"舞鶴市","street":"常新町"},{"zipCode":"6250027","prefectureKana":"ｷｮｳﾄﾌ","cityKana":"ﾏｲﾂﾞﾙｼ","streetKana":"ﾃﾞﾝｴﾝﾁｮｳ","prefecture":"京都府","city":"舞鶴市","street":"田園町"},{"zipCode":"6250044","prefectureKana":"ｷｮｳﾄﾌ","cityKana":"ﾏｲﾂﾞﾙｼ","streetKana":"ﾄﾞｳﾉｵｸ","prefecture":"京都府","city":"舞鶴市","street":"堂奥"},{"zipCode":"6250147","prefectureKana":"ｷｮｳﾄﾌ","cityKana":"ﾏｲﾂﾞﾙｼ","streetKana":"ﾄﾁｵ","prefecture":"京都府","city":"舞鶴市","street":"栃尾"},{"zipCode":"6250132","prefectureKana":"ｷｮｳﾄﾌ","cityKana":"ﾏｲﾂﾞﾙｼ","streetKana":"ﾅｶﾀﾞ","prefecture":"京都府","city":"舞鶴市","street":"中田"},{"zipCode":"6250131","prefectureKana":"ｷｮｳﾄﾌ","cityKana":"ﾏｲﾂﾞﾙｼ","streetKana":"ﾅｶﾀﾞﾁｮｳ","prefecture":"京都府","city":"舞鶴市","street":"中田町"},{"zipCode":"6250086","prefectureKana":"ｷｮｳﾄﾌ","cityKana":"ﾏｲﾂﾞﾙｼ","streetKana":"ﾅｶﾞﾊﾏ","prefecture":"京都府","city":"舞鶴市","street":"長浜"},{"zipCode":"6250156","prefectureKana":"ｷｮｳﾄﾌ","cityKana":"ﾏｲﾂﾞﾙｼ","streetKana":"ﾅﾘｳ","prefecture":"京都府","city":"舞鶴市","street":"成生"},{"zipCode":"6250142","prefectureKana":"ｷｮｳﾄﾌ","cityKana":"ﾏｲﾂﾞﾙｼ","streetKana":"ﾆｼﾔ","prefecture":"京都府","city":"舞鶴市","street":"西屋"},{"zipCode":"6250155","prefectureKana":"ｷｮｳﾄﾌ","cityKana":"ﾏｲﾂﾞﾙｼ","streetKana":"ﾉﾊﾗ","prefecture":"京都府","city":"舞鶴市","street":"野原"},{"zipCode":"6250002","prefectureKana":"ｷｮｳﾄﾌ","cityKana":"ﾏｲﾂﾞﾙｼ","streetKana":"ﾉﾎﾞﾘｵ","prefecture":"京都府","city":"舞鶴市","street":"登尾"},{"zipCode":"6250078","prefectureKana":"ｷｮｳﾄﾌ","cityKana":"ﾏｲﾂﾞﾙｼ","streetKana":"ﾊｯﾀﾝﾀﾞﾐﾅﾐﾏﾁ","prefecture":"京都府","city":"舞鶴市","street":"八反田南町"},{"zipCode":"6250070","prefectureKana":"ｷｮｳﾄﾌ","cityKana":"ﾏｲﾂﾞﾙｼ","streetKana":"ﾊｯﾀﾝﾀﾞｷﾀﾏﾁ","prefecture":"京都府","city":"舞鶴市","street":"八反田北町"},{"zipCode":"6250036","prefectureKana":"ｷｮｳﾄﾌ","cityKana":"ﾏｲﾂﾞﾙｼ","streetKana":"ﾊﾏ","prefecture":"京都府","city":"舞鶴市","street":"浜"},{"zipCode":"6250037","prefectureKana":"ｷｮｳﾄﾌ","cityKana":"ﾏｲﾂﾞﾙｼ","streetKana":"ﾊﾏﾏﾁ","prefecture":"京都府","city":"舞鶴市","street":"浜町"},{"zipCode":"6250010","prefectureKana":"ｷｮｳﾄﾌ","cityKana":"ﾏｲﾂﾞﾙｼ","streetKana":"ﾏﾂｵ","prefecture":"京都府","city":"舞鶴市","street":"松尾"},{"zipCode":"6250065","prefectureKana":"ｷｮｳﾄﾌ","cityKana":"ﾏｲﾂﾞﾙｼ","streetKana":"ﾏﾙﾔﾏﾅｶﾏﾁ","prefecture":"京都府","city":"舞鶴市","street":"丸山中町"},{"zipCode":"6250064","prefectureKana":"ｷｮｳﾄﾌ","cityKana":"ﾏｲﾂﾞﾙｼ","streetKana":"ﾏﾙﾔﾏﾆｼﾏﾁ","prefecture":"京都府","city":"舞鶴市","street":"丸山西町"},{"zipCode":"6250066","prefectureKana":"ｷｮｳﾄﾌ","cityKana":"ﾏｲﾂﾞﾙｼ","streetKana":"ﾏﾙﾔﾏｸﾞﾁﾁｮｳ","prefecture":"京都府","city":"舞鶴市","street":"丸山口町"},{"zipCode":"6250063","prefectureKana":"ｷｮｳﾄﾌ","cityKana":"ﾏｲﾂﾞﾙｼ","streetKana":"ﾏﾙﾔﾏﾁｮｳ","prefecture":"京都府","city":"舞鶴市","street":"丸山町"},{"zipCode":"6250035","prefectureKana":"ｷｮｳﾄﾌ","cityKana":"ﾏｲﾂﾞﾙｼ","streetKana":"ﾐｿﾞｼﾘ","prefecture":"京都府","city":"舞鶴市","street":"溝尻"},{"zipCode":"6250042","prefectureKana":"ｷｮｳﾄﾌ","cityKana":"ﾏｲﾂﾞﾙｼ","streetKana":"ﾐｿﾞｼﾘﾁｮｳ","prefecture":"京都府","city":"舞鶴市","street":"溝尻町"},{"zipCode":"6250041","prefectureKana":"ｷｮｳﾄﾌ","cityKana":"ﾏｲﾂﾞﾙｼ","streetKana":"ﾐｿﾞｼﾘﾅｶﾏﾁ","prefecture":"京都府","city":"舞鶴市","street":"溝尻中町"},{"zipCode":"6250057","prefectureKana":"ｷｮｳﾄﾌ","cityKana":"ﾏｲﾂﾞﾙｼ","streetKana":"ﾐﾅﾐﾊﾏﾁｮｳ","prefecture":"京都府","city":"舞鶴市","street":"南浜町"},{"zipCode":"6250153","prefectureKana":"ｷｮｳﾄﾌ","cityKana":"ﾏｲﾂﾞﾙｼ","streetKana":"ﾐﾊﾏ","prefecture":"京都府","city":"舞鶴市","street":"三浜"},{"zipCode":"6250081","prefectureKana":"ｷｮｳﾄﾌ","cityKana":"ﾏｲﾂﾞﾙｼ","streetKana":"ﾐﾔｹ","prefecture":"京都府","city":"舞鶴市","street":"三宅"},{"zipCode":"6250143","prefectureKana":"ｷｮｳﾄﾌ","cityKana":"ﾏｲﾂﾞﾙｼ","streetKana":"ﾑﾛｼﾞ","prefecture":"京都府","city":"舞鶴市","street":"室牛"},{"zipCode":"6250060","prefectureKana":"ｷｮｳﾄﾌ","cityKana":"ﾏｲﾂﾞﾙｼ","streetKana":"ﾓﾓﾔﾏﾁｮｳ","prefecture":"京都府","city":"舞鶴市","street":"桃山町"},{"zipCode":"6250062","prefectureKana":"ｷｮｳﾄﾌ","cityKana":"ﾏｲﾂﾞﾙｼ","streetKana":"ﾓﾘ","prefecture":"京都府","city":"舞鶴市","street":"森"},{"zipCode":"6250061","prefectureKana":"ｷｮｳﾄﾌ","cityKana":"ﾏｲﾂﾞﾙｼ","streetKana":"ﾓﾘﾁｮｳ","prefecture":"京都府","city":"舞鶴市","street":"森町"},{"zipCode":"6250067","prefectureKana":"ｷｮｳﾄﾌ","cityKana":"ﾏｲﾂﾞﾙｼ","streetKana":"ﾓﾘﾎﾝﾏﾁ","prefecture":"京都府","city":"舞鶴市","street":"森本町"},{"zipCode":"6250021","prefectureKana":"ｷｮｳﾄﾌ","cityKana":"ﾏｲﾂﾞﾙｼ","streetKana":"ﾔｽｵｶ","prefecture":"京都府","city":"舞鶴市","street":"安岡"},{"zipCode":"6250022","prefectureKana":"ｷｮｳﾄﾌ","cityKana":"ﾏｲﾂﾞﾙｼ","streetKana":"ﾔｽｵｶﾁｮｳ","prefecture":"京都府","city":"舞鶴市","street":"安岡町"},{"zipCode":"6250040","prefectureKana":"ｷｮｳﾄﾌ","cityKana":"ﾏｲﾂﾞﾙｼ","streetKana":"ﾔﾉｽｹﾁｮｳ","prefecture":"京都府","city":"舞鶴市","street":"矢之助町"},{"zipCode":"6250052","prefectureKana":"ｷｮｳﾄﾌ","cityKana":"ﾏｲﾂﾞﾙｼ","streetKana":"ﾕｷﾅｶﾞ","prefecture":"京都府","city":"舞鶴市","street":"行永"},{"zipCode":"6250058","prefectureKana":"ｷｮｳﾄﾌ","cityKana":"ﾏｲﾂﾞﾙｼ","streetKana":"ﾕｷﾅｶﾞｻｸﾗﾄﾞｵﾘ","prefecture":"京都府","city":"舞鶴市","street":"行永桜通り"},{"zipCode":"6250051","prefectureKana":"ｷｮｳﾄﾌ","cityKana":"ﾏｲﾂﾞﾙｼ","streetKana":"ﾕｷﾅｶﾞﾋｶﾞｼﾏﾁ","prefecture":"京都府","city":"舞鶴市","street":"行永東町"},{"zipCode":"6250003","prefectureKana":"ｷｮｳﾄﾌ","cityKana":"ﾏｲﾂﾞﾙｼ","streetKana":"ﾖｼﾉ","prefecture":"京都府","city":"舞鶴市","street":"吉野"},{"zipCode":"6250074","prefectureKana":"ｷｮｳﾄﾌ","cityKana":"ﾏｲﾂﾞﾙｼ","streetKana":"ﾖﾎﾛ","prefecture":"京都府","city":"舞鶴市","street":"与保呂"},{"zipCode":"6250034","prefectureKana":"ｷｮｳﾄﾌ","cityKana":"ﾏｲﾂﾞﾙｼ","streetKana":"ﾘｭｳｸﾞｳﾁｮｳ","prefecture":"京都府","city":"舞鶴市","street":"竜宮町"},{"zipCode":"6250085","prefectureKana":"ｷｮｳﾄﾌ","cityKana":"ﾏｲﾂﾞﾙｼ","streetKana":"ﾜﾀﾞ","prefecture":"京都府","city":"舞鶴市","street":"和田"}]