[{"zipCode":"6310053","prefectureKana":"ﾅﾗｹﾝ","cityKana":"ﾅﾗｼ","streetKana":"ｱｵｶﾞｷﾀﾞｲ","prefecture":"奈良県","city":"奈良市","street":"青垣台"},{"zipCode":"6310841","prefectureKana":"ﾅﾗｹﾝ","cityKana":"ﾅﾗｼ","streetKana":"ｱｵﾉﾁｮｳ","prefecture":"奈良県","city":"奈良市","street":"青野町"},{"zipCode":"6310812","prefectureKana":"ﾅﾗｹﾝ","cityKana":"ﾅﾗｼ","streetKana":"ｱｷｼﾉｻﾂｷﾁｮｳ","prefecture":"奈良県","city":"奈良市","street":"秋篠早月町"},{"zipCode":"6310814","prefectureKana":"ﾅﾗｹﾝ","cityKana":"ﾅﾗｼ","streetKana":"ｱｷｼﾉｻﾝﾜﾁｮｳ","prefecture":"奈良県","city":"奈良市","street":"秋篠三和町"},{"zipCode":"6310813","prefectureKana":"ﾅﾗｹﾝ","cityKana":"ﾅﾗｼ","streetKana":"ｱｷｼﾉｼﾝﾏﾁ","prefecture":"奈良県","city":"奈良市","street":"秋篠新町"},{"zipCode":"6310811","prefectureKana":"ﾅﾗｹﾝ","cityKana":"ﾅﾗｼ","streetKana":"ｱｷｼﾉﾁｮｳ","prefecture":"奈良県","city":"奈良市","street":"秋篠町"},{"zipCode":"6310014","prefectureKana":"ﾅﾗｹﾝ","cityKana":"ﾅﾗｼ","streetKana":"ｱｻﾋﾁｮｳ","prefecture":"奈良県","city":"奈良市","street":"朝日町"},{"zipCode":"6310033","prefectureKana":"ﾅﾗｹﾝ","cityKana":"ﾅﾗｼ","streetKana":"ｱﾔﾒｲｹﾐﾅﾐ","prefecture":"奈良県","city":"奈良市","street":"あやめ池南"},{"zipCode":"6310032","prefectureKana":"ﾅﾗｹﾝ","cityKana":"ﾅﾗｼ","streetKana":"ｱﾔﾒｲｹｷﾀ","prefecture":"奈良県","city":"奈良市","street":"あやめ池北"},{"zipCode":"6310054","prefectureKana":"ﾅﾗｹﾝ","cityKana":"ﾅﾗｼ","streetKana":"ｲｼｷﾁｮｳ","prefecture":"奈良県","city":"奈良市","street":"石木町"},{"zipCode":"6310805","prefectureKana":"ﾅﾗｹﾝ","cityKana":"ﾅﾗｼ","streetKana":"ｳｷｮｳ","prefecture":"奈良県","city":"奈良市","street":"右京"},{"zipCode":"6310802","prefectureKana":"ﾅﾗｹﾝ","cityKana":"ﾅﾗｼ","streetKana":"ｳﾀﾋﾒﾁｮｳ","prefecture":"奈良県","city":"奈良市","street":"歌姫町"},{"zipCode":"6310005","prefectureKana":"ﾅﾗｹﾝ","cityKana":"ﾅﾗｼ","streetKana":"ｵｵﾌﾞﾁﾁｮｳ","prefecture":"奈良県","city":"奈良市","street":"大渕町"},{"zipCode":"6310042","prefectureKana":"ﾅﾗｹﾝ","cityKana":"ﾅﾗｼ","streetKana":"ｵｵﾔﾏﾄﾁｮｳ","prefecture":"奈良県","city":"奈良市","street":"大倭町"},{"zipCode":"6310055","prefectureKana":"ﾅﾗｹﾝ","cityKana":"ﾅﾗｼ","streetKana":"ｵｵﾜﾀﾞﾁｮｳ","prefecture":"奈良県","city":"奈良市","street":"大和田町"},{"zipCode":"6310011","prefectureKana":"ﾅﾗｹﾝ","cityKana":"ﾅﾗｼ","streetKana":"ｵｼｸﾏﾁｮｳ","prefecture":"奈良県","city":"奈良市","street":"押熊町"},{"zipCode":"6310027","prefectureKana":"ﾅﾗｹﾝ","cityKana":"ﾅﾗｼ","streetKana":"ｶﾞｸｴﾝｱｶﾏﾂﾁｮｳ","prefecture":"奈良県","city":"奈良市","street":"学園赤松町"},{"zipCode":"6310016","prefectureKana":"ﾅﾗｹﾝ","cityKana":"ﾅﾗｼ","streetKana":"ｶﾞｸｴﾝｱｻﾋﾁｮｳ","prefecture":"奈良県","city":"奈良市","street":"学園朝日町"},{"zipCode":"6310015","prefectureKana":"ﾅﾗｹﾝ","cityKana":"ﾅﾗｼ","streetKana":"ｶﾞｸｴﾝｱｻﾋﾓﾄﾏﾁ","prefecture":"奈良県","city":"奈良市","street":"学園朝日元町"},{"zipCode":"6310025","prefectureKana":"ﾅﾗｹﾝ","cityKana":"ﾅﾗｼ","streetKana":"ｶﾞｸｴﾝｼﾝﾃﾞﾝﾁｮｳ","prefecture":"奈良県","city":"奈良市","street":"学園新田町"},{"zipCode":"6310041","prefectureKana":"ﾅﾗｹﾝ","cityKana":"ﾅﾗｼ","streetKana":"ｶﾞｸｴﾝﾀﾞｲﾜﾁｮｳ","prefecture":"奈良県","city":"奈良市","street":"学園大和町"},{"zipCode":"6310035","prefectureKana":"ﾅﾗｹﾝ","cityKana":"ﾅﾗｼ","streetKana":"ｶﾞｸｴﾝﾅｶ","prefecture":"奈良県","city":"奈良市","street":"学園中"},{"zipCode":"6310026","prefectureKana":"ﾅﾗｹﾝ","cityKana":"ﾅﾗｼ","streetKana":"ｶﾞｸｴﾝﾐﾄﾞﾘｶﾞｵｶ","prefecture":"奈良県","city":"奈良市","street":"学園緑ヶ丘"},{"zipCode":"6310034","prefectureKana":"ﾅﾗｹﾝ","cityKana":"ﾅﾗｼ","streetKana":"ｶﾞｸｴﾝﾐﾅﾐ","prefecture":"奈良県","city":"奈良市","street":"学園南"},{"zipCode":"6310036","prefectureKana":"ﾅﾗｹﾝ","cityKana":"ﾅﾗｼ","streetKana":"ｶﾞｸｴﾝｷﾀ","prefecture":"奈良県","city":"奈良市","street":"学園北"},{"zipCode":"6310001","prefectureKana":"ﾅﾗｹﾝ","cityKana":"ﾅﾗｼ","streetKana":"ｷﾀﾄﾐｶﾞｵｶ","prefecture":"奈良県","city":"奈良市","street":"北登美ヶ丘"},{"zipCode":"6310818","prefectureKana":"ﾅﾗｹﾝ","cityKana":"ﾅﾗｼ","streetKana":"ｻｲﾀﾞｲｼﾞｱｺﾀﾞﾁｮｳ","prefecture":"奈良県","city":"奈良市","street":"西大寺赤田町"},{"zipCode":"6310823","prefectureKana":"ﾅﾗｹﾝ","cityKana":"ﾅﾗｼ","streetKana":"ｻｲﾀﾞｲｼﾞｸﾆﾐﾁｮｳ","prefecture":"奈良県","city":"奈良市","street":"西大寺国見町"},{"zipCode":"6310827","prefectureKana":"ﾅﾗｹﾝ","cityKana":"ﾅﾗｼ","streetKana":"ｻｲﾀﾞｲｼﾞｺﾎﾞｳﾁｮｳ","prefecture":"奈良県","city":"奈良市","street":"西大寺小坊町"},{"zipCode":"6310822","prefectureKana":"ﾅﾗｹﾝ","cityKana":"ﾅﾗｼ","streetKana":"ｻｲﾀﾞｲｼﾞｻｶｴﾏﾁ","prefecture":"奈良県","city":"奈良市","street":"西大寺栄町"},{"zipCode":"6310825","prefectureKana":"ﾅﾗｹﾝ","cityKana":"ﾅﾗｼ","streetKana":"ｻｲﾀﾞｲｼﾞｼﾊﾞﾏﾁ","prefecture":"奈良県","city":"奈良市","street":"西大寺芝町"},{"zipCode":"6310834","prefectureKana":"ﾅﾗｹﾝ","cityKana":"ﾅﾗｼ","streetKana":"ｻｲﾀﾞｲｼﾞｼﾝｲｹﾁｮｳ","prefecture":"奈良県","city":"奈良市","street":"西大寺新池町"},{"zipCode":"6310832","prefectureKana":"ﾅﾗｹﾝ","cityKana":"ﾅﾗｼ","streetKana":"ｻｲﾀﾞｲｼﾞｼﾝﾃﾞﾝﾁｮｳ","prefecture":"奈良県","city":"奈良市","street":"西大寺新田町"},{"zipCode":"6310815","prefectureKana":"ﾅﾗｹﾝ","cityKana":"ﾅﾗｼ","streetKana":"ｻｲﾀﾞｲｼﾞｼﾝﾏﾁ","prefecture":"奈良県","city":"奈良市","street":"西大寺新町"},{"zipCode":"6310835","prefectureKana":"ﾅﾗｹﾝ","cityKana":"ﾅﾗｼ","streetKana":"ｻｲﾀﾞｲｼﾞﾀｶﾂｶﾁｮｳ","prefecture":"奈良県","city":"奈良市","street":"西大寺高塚町"},{"zipCode":"6310831","prefectureKana":"ﾅﾗｹﾝ","cityKana":"ﾅﾗｼ","streetKana":"ｻｲﾀﾞｲｼﾞﾀｶﾗｶﾞｵｶ","prefecture":"奈良県","city":"奈良市","street":"西大寺宝ヶ丘"},{"zipCode":"6310833","prefectureKana":"ﾅﾗｹﾝ","cityKana":"ﾅﾗｼ","streetKana":"ｻｲﾀﾞｲｼﾞﾉｶﾞﾐﾁｮｳ","prefecture":"奈良県","city":"奈良市","street":"西大寺野神町"},{"zipCode":"6310816","prefectureKana":"ﾅﾗｹﾝ","cityKana":"ﾅﾗｼ","streetKana":"ｻｲﾀﾞｲｼﾞﾎﾝﾏﾁ","prefecture":"奈良県","city":"奈良市","street":"西大寺本町"},{"zipCode":"6310821","prefectureKana":"ﾅﾗｹﾝ","cityKana":"ﾅﾗｼ","streetKana":"ｻｲﾀﾞｲｼﾞﾋｶﾞｼﾏﾁ","prefecture":"奈良県","city":"奈良市","street":"西大寺東町"},{"zipCode":"6310824","prefectureKana":"ﾅﾗｹﾝ","cityKana":"ﾅﾗｼ","streetKana":"ｻｲﾀﾞｲｼﾞﾐﾅﾐﾏﾁ","prefecture":"奈良県","city":"奈良市","street":"西大寺南町"},{"zipCode":"6310817","prefectureKana":"ﾅﾗｹﾝ","cityKana":"ﾅﾗｼ","streetKana":"ｻｲﾀﾞｲｼﾞｷﾀﾏﾁ","prefecture":"奈良県","city":"奈良市","street":"西大寺北町"},{"zipCode":"6310836","prefectureKana":"ﾅﾗｹﾝ","cityKana":"ﾅﾗｼ","streetKana":"ｻｲﾀﾞｲｼﾞﾘｭｳｵｳﾁｮｳ","prefecture":"奈良県","city":"奈良市","street":"西大寺竜王町"},{"zipCode":"6310826","prefectureKana":"ﾅﾗｹﾝ","cityKana":"ﾅﾗｼ","streetKana":"ｻｲﾀﾞｲｼﾞﾁｮｳ","prefecture":"奈良県","city":"奈良市","street":"西大寺町"},{"zipCode":"6310801","prefectureKana":"ﾅﾗｹﾝ","cityKana":"ﾅﾗｼ","streetKana":"ｻｷｮｳ","prefecture":"奈良県","city":"奈良市","street":"左京"},{"zipCode":"6310031","prefectureKana":"ﾅﾗｹﾝ","cityKana":"ﾅﾗｼ","streetKana":"ｼｷｼﾏﾁｮｳ","prefecture":"奈良県","city":"奈良市","street":"敷島町"},{"zipCode":"6310007","prefectureKana":"ﾅﾗｹﾝ","cityKana":"ﾅﾗｼ","streetKana":"ｼｮｳﾖｳﾀﾞｲ","prefecture":"奈良県","city":"奈良市","street":"松陽台"},{"zipCode":"6310804","prefectureKana":"ﾅﾗｹﾝ","cityKana":"ﾅﾗｼ","streetKana":"ｼﾞﾝｸﾞｳ","prefecture":"奈良県","city":"奈良市","street":"神功"},{"zipCode":"6310043","prefectureKana":"ﾅﾗｹﾝ","cityKana":"ﾅﾗｼ","streetKana":"ｽｶﾞﾉﾀﾞｲ","prefecture":"奈良県","city":"奈良市","street":"菅野台"},{"zipCode":"6310842","prefectureKana":"ﾅﾗｹﾝ","cityKana":"ﾅﾗｼ","streetKana":"ｽｶﾞﾊﾗﾁｮｳ","prefecture":"奈良県","city":"奈良市","street":"菅原町"},{"zipCode":"6310842","prefectureKana":"ﾅﾗｹﾝ","cityKana":"ﾅﾗｼ","streetKana":"ｽｶﾞﾊﾗﾋｶﾞｼ","prefecture":"奈良県","city":"奈良市","street":"菅原東"},{"zipCode":"6310806","prefectureKana":"ﾅﾗｹﾝ","cityKana":"ﾅﾗｼ","streetKana":"ｽｻﾞｸ","prefecture":"奈良県","city":"奈良市","street":"朱雀"},{"zipCode":"6310045","prefectureKana":"ﾅﾗｹﾝ","cityKana":"ﾅﾗｼ","streetKana":"ﾁﾖｶﾞｵｶ","prefecture":"奈良県","city":"奈良市","street":"千代ヶ丘"},{"zipCode":"6310021","prefectureKana":"ﾅﾗｹﾝ","cityKana":"ﾅﾗｼ","streetKana":"ﾂﾙﾏｲﾋｶﾞｼﾏﾁ","prefecture":"奈良県","city":"奈良市","street":"鶴舞東町"},{"zipCode":"6310022","prefectureKana":"ﾅﾗｹﾝ","cityKana":"ﾅﾗｼ","streetKana":"ﾂﾙﾏｲﾆｼﾏﾁ","prefecture":"奈良県","city":"奈良市","street":"鶴舞西町"},{"zipCode":"6310062","prefectureKana":"ﾅﾗｹﾝ","cityKana":"ﾅﾗｼ","streetKana":"ﾃﾂﾞｶﾔﾏ","prefecture":"奈良県","city":"奈良市","street":"帝塚山"},{"zipCode":"6310063","prefectureKana":"ﾅﾗｹﾝ","cityKana":"ﾅﾗｼ","streetKana":"ﾃﾂﾞｶﾔﾏﾅｶﾏﾁ","prefecture":"奈良県","city":"奈良市","street":"帝塚山中町"},{"zipCode":"6310066","prefectureKana":"ﾅﾗｹﾝ","cityKana":"ﾅﾗｼ","streetKana":"ﾃﾂﾞｶﾔﾏﾆｼ","prefecture":"奈良県","city":"奈良市","street":"帝塚山西"},{"zipCode":"6310064","prefectureKana":"ﾅﾗｹﾝ","cityKana":"ﾅﾗｼ","streetKana":"ﾃﾂﾞｶﾔﾏﾐﾅﾐ","prefecture":"奈良県","city":"奈良市","street":"帝塚山南"},{"zipCode":"6310051","prefectureKana":"ﾅﾗｹﾝ","cityKana":"ﾅﾗｼ","streetKana":"ﾄﾐｵｲｽﾞﾐｶﾞｵｶ","prefecture":"奈良県","city":"奈良市","street":"富雄泉ヶ丘"},{"zipCode":"6310077","prefectureKana":"ﾅﾗｹﾝ","cityKana":"ﾅﾗｼ","streetKana":"ﾄﾐｵｶﾜﾆｼ","prefecture":"奈良県","city":"奈良市","street":"富雄川西"},{"zipCode":"6310078","prefectureKana":"ﾅﾗｹﾝ","cityKana":"ﾅﾗｼ","streetKana":"ﾄﾐｵﾓﾄﾏﾁ","prefecture":"奈良県","city":"奈良市","street":"富雄元町"},{"zipCode":"6310076","prefectureKana":"ﾅﾗｹﾝ","cityKana":"ﾅﾗｼ","streetKana":"ﾄﾐｵｷﾀ","prefecture":"奈良県","city":"奈良市","street":"富雄北"},{"zipCode":"6310004","prefectureKana":"ﾅﾗｹﾝ","cityKana":"ﾅﾗｼ","streetKana":"ﾄﾐｶﾞｵｶ","prefecture":"奈良県","city":"奈良市","street":"登美ヶ丘"},{"zipCode":"6310065","prefectureKana":"ﾅﾗｹﾝ","cityKana":"ﾅﾗｼ","streetKana":"ﾄﾘﾐﾁｮｳ","prefecture":"奈良県","city":"奈良市","street":"鳥見町"},{"zipCode":"6310003","prefectureKana":"ﾅﾗｹﾝ","cityKana":"ﾅﾗｼ","streetKana":"ﾅｶﾄﾐｶﾞｵｶ","prefecture":"奈良県","city":"奈良市","street":"中登美ヶ丘"},{"zipCode":"6310052","prefectureKana":"ﾅﾗｹﾝ","cityKana":"ﾅﾗｼ","streetKana":"ﾅｶﾏﾁ(ｿﾉﾀ)","prefecture":"奈良県","city":"奈良市","street":"中町（その他）"},{"zipCode":"6310012","prefectureKana":"ﾅﾗｹﾝ","cityKana":"ﾅﾗｼ","streetKana":"ﾅｶﾔﾏﾁｮｳ","prefecture":"奈良県","city":"奈良市","street":"中山町"},{"zipCode":"6310013","prefectureKana":"ﾅﾗｹﾝ","cityKana":"ﾅﾗｼ","streetKana":"ﾅｶﾔﾏﾁｮｳﾆｼ","prefecture":"奈良県","city":"奈良市","street":"中山町西"},{"zipCode":"6310046","prefectureKana":"ﾅﾗｹﾝ","cityKana":"ﾅﾗｼ","streetKana":"ﾆｼﾁﾖｶﾞｵｶ","prefecture":"奈良県","city":"奈良市","street":"西千代ヶ丘"},{"zipCode":"6310006","prefectureKana":"ﾅﾗｹﾝ","cityKana":"ﾅﾗｼ","streetKana":"ﾆｼﾄﾐｶﾞｵｶ","prefecture":"奈良県","city":"奈良市","street":"西登美ヶ丘"},{"zipCode":"6310072","prefectureKana":"ﾅﾗｹﾝ","cityKana":"ﾅﾗｼ","streetKana":"ﾆﾐｮｳ","prefecture":"奈良県","city":"奈良市","street":"二名"},{"zipCode":"6310073","prefectureKana":"ﾅﾗｹﾝ","cityKana":"ﾅﾗｼ","streetKana":"ﾆﾐｮｳﾋｶﾞｼﾏﾁ","prefecture":"奈良県","city":"奈良市","street":"二名東町"},{"zipCode":"6310071","prefectureKana":"ﾅﾗｹﾝ","cityKana":"ﾅﾗｼ","streetKana":"ﾆﾐｮｳﾋﾗﾉ","prefecture":"奈良県","city":"奈良市","street":"二名平野"},{"zipCode":"6310008","prefectureKana":"ﾅﾗｹﾝ","cityKana":"ﾅﾗｼ","streetKana":"ﾆﾐｮｳﾁｮｳ","prefecture":"奈良県","city":"奈良市","street":"二名町"},{"zipCode":"6310002","prefectureKana":"ﾅﾗｹﾝ","cityKana":"ﾅﾗｼ","streetKana":"ﾋｶﾞｼﾄﾐｶﾞｵｶ","prefecture":"奈良県","city":"奈良市","street":"東登美ヶ丘"},{"zipCode":"6310843","prefectureKana":"ﾅﾗｹﾝ","cityKana":"ﾅﾗｼ","streetKana":"ﾋｷﾀﾞﾁｮｳ","prefecture":"奈良県","city":"奈良市","street":"疋田町"},{"zipCode":"6310024","prefectureKana":"ﾅﾗｹﾝ","cityKana":"ﾅﾗｼ","streetKana":"ﾋｬｸﾗｸｴﾝ","prefecture":"奈良県","city":"奈良市","street":"百楽園"},{"zipCode":"6310846","prefectureKana":"ﾅﾗｹﾝ","cityKana":"ﾅﾗｼ","streetKana":"ﾋﾗﾏﾂ","prefecture":"奈良県","city":"奈良市","street":"平松"},{"zipCode":"6310044","prefectureKana":"ﾅﾗｹﾝ","cityKana":"ﾅﾗｼ","streetKana":"ﾌｼﾞﾉｷﾀﾞｲ","prefecture":"奈良県","city":"奈良市","street":"藤ノ木台"},{"zipCode":"6310845","prefectureKana":"ﾅﾗｹﾝ","cityKana":"ﾅﾗｼ","streetKana":"ﾎｳﾗｲ","prefecture":"奈良県","city":"奈良市","street":"宝来"},{"zipCode":"6310844","prefectureKana":"ﾅﾗｹﾝ","cityKana":"ﾅﾗｼ","streetKana":"ﾎｳﾗｲﾁｮｳ","prefecture":"奈良県","city":"奈良市","street":"宝来町"},{"zipCode":"6310056","prefectureKana":"ﾅﾗｹﾝ","cityKana":"ﾅﾗｼ","streetKana":"ﾏﾙﾔﾏ","prefecture":"奈良県","city":"奈良市","street":"丸山"},{"zipCode":"6310803","prefectureKana":"ﾅﾗｹﾝ","cityKana":"ﾅﾗｼ","streetKana":"ﾐｻｻｷﾞﾁｮｳ","prefecture":"奈良県","city":"奈良市","street":"山陵町"},{"zipCode":"6310061","prefectureKana":"ﾅﾗｹﾝ","cityKana":"ﾅﾗｼ","streetKana":"ﾐﾂｶﾞﾗｽ","prefecture":"奈良県","city":"奈良市","street":"三碓"},{"zipCode":"6310061","prefectureKana":"ﾅﾗｹﾝ","cityKana":"ﾅﾗｼ","streetKana":"ﾐﾂｶﾞﾗｽﾁｮｳ","prefecture":"奈良県","city":"奈良市","street":"三碓町"},{"zipCode":"6310023","prefectureKana":"ﾅﾗｹﾝ","cityKana":"ﾅﾗｼ","streetKana":"ﾐﾅﾐﾄﾐｶﾞｵｶ","prefecture":"奈良県","city":"奈良市","street":"南登美ヶ丘"},{"zipCode":"6310074","prefectureKana":"ﾅﾗｹﾝ","cityKana":"ﾅﾗｼ","streetKana":"ﾐﾏﾂ","prefecture":"奈良県","city":"奈良市","street":"三松"},{"zipCode":"6310075","prefectureKana":"ﾅﾗｹﾝ","cityKana":"ﾅﾗｼ","streetKana":"ﾐﾏﾂｶﾞｵｶ","prefecture":"奈良県","city":"奈良市","street":"三松ヶ丘"},{"zipCode":"6310828","prefectureKana":"ﾅﾗｹﾝ","cityKana":"ﾅﾗｼ","streetKana":"ﾖｺﾘｮｳﾁｮｳ","prefecture":"奈良県","city":"奈良市","street":"横領町"},{"zipCode":"6310837","prefectureKana":"ﾅﾗｹﾝ","cityKana":"ﾅﾗｼ","streetKana":"ﾜｶﾊﾞﾀﾞｲ","prefecture":"奈良県","city":"奈良市","street":"若葉台"}]