[{"zipCode":"6360000","prefectureKana":"ﾅﾗｹﾝ","cityKana":"ｲｺﾏｸﾞﾝﾍｸﾞﾘﾁｮｳ","streetKana":"ｲｶﾆｹｲｻｲｶﾞﾅｲﾊﾞｱｲ","prefecture":"奈良県","city":"生駒郡平群町","street":"以下に掲載がない場合"},{"zipCode":"6360944","prefectureKana":"ﾅﾗｹﾝ","cityKana":"ｲｺﾏｸﾞﾝﾍｸﾞﾘﾁｮｳ","streetKana":"ｲﾁﾊﾗ","prefecture":"奈良県","city":"生駒郡平群町","street":"櫟原"},{"zipCode":"6360915","prefectureKana":"ﾅﾗｹﾝ","cityKana":"ｲｺﾏｸﾞﾝﾍｸﾞﾘﾁｮｳ","streetKana":"ｶｽｶﾞｵｶ","prefecture":"奈良県","city":"生駒郡平群町","street":"春日丘"},{"zipCode":"6360905","prefectureKana":"ﾅﾗｹﾝ","cityKana":"ｲｺﾏｸﾞﾝﾍｸﾞﾘﾁｮｳ","streetKana":"ｶﾐｼｮｳ","prefecture":"奈良県","city":"生駒郡平群町","street":"上庄"},{"zipCode":"6360906","prefectureKana":"ﾅﾗｹﾝ","cityKana":"ｲｺﾏｸﾞﾝﾍｸﾞﾘﾁｮｳ","streetKana":"ｷｸﾐﾀﾞｲ","prefecture":"奈良県","city":"生駒郡平群町","street":"菊美台"},{"zipCode":"6360913","prefectureKana":"ﾅﾗｹﾝ","cityKana":"ｲｺﾏｸﾞﾝﾍｸﾞﾘﾁｮｳ","streetKana":"ｷﾀｼｷﾞｶﾞｵｶ","prefecture":"奈良県","city":"生駒郡平群町","street":"北信貴ケ丘"},{"zipCode":"6360924","prefectureKana":"ﾅﾗｹﾝ","cityKana":"ｲｺﾏｸﾞﾝﾍｸﾞﾘﾁｮｳ","streetKana":"ｷｭｳｱﾝｼﾞ","prefecture":"奈良県","city":"生駒郡平群町","street":"久安寺"},{"zipCode":"6360925","prefectureKana":"ﾅﾗｹﾝ","cityKana":"ｲｺﾏｸﾞﾝﾍｸﾞﾘﾁｮｳ","streetKana":"ｺｼｷﾂﾞｶ","prefecture":"奈良県","city":"生駒郡平群町","street":"越木塚"},{"zipCode":"6360923","prefectureKana":"ﾅﾗｹﾝ","cityKana":"ｲｺﾏｸﾞﾝﾍｸﾞﾘﾁｮｳ","streetKana":"ｼｷﾞｻﾝ","prefecture":"奈良県","city":"生駒郡平群町","street":"信貴山"},{"zipCode":"6360922","prefectureKana":"ﾅﾗｹﾝ","cityKana":"ｲｺﾏｸﾞﾝﾍｸﾞﾘﾁｮｳ","streetKana":"ｼｷﾞﾊﾀ","prefecture":"奈良県","city":"生駒郡平群町","street":"信貴畑"},{"zipCode":"6360901","prefectureKana":"ﾅﾗｹﾝ","cityKana":"ｲｺﾏｸﾞﾝﾍｸﾞﾘﾁｮｳ","streetKana":"ｼﾃﾞﾊﾗ","prefecture":"奈良県","city":"生駒郡平群町","street":"椣原"},{"zipCode":"6360933","prefectureKana":"ﾅﾗｹﾝ","cityKana":"ｲｺﾏｸﾞﾝﾍｸﾞﾘﾁｮｳ","streetKana":"ｼﾓｶﾞｲﾄ","prefecture":"奈良県","city":"生駒郡平群町","street":"下垣内"},{"zipCode":"6360902","prefectureKana":"ﾅﾗｹﾝ","cityKana":"ｲｺﾏｸﾞﾝﾍｸﾞﾘﾁｮｳ","streetKana":"ｼﾗｲｼﾊﾞﾀ","prefecture":"奈良県","city":"生駒郡平群町","street":"白石畑"},{"zipCode":"6360912","prefectureKana":"ﾅﾗｹﾝ","cityKana":"ｲｺﾏｸﾞﾝﾍｸﾞﾘﾁｮｳ","streetKana":"ﾀﾂﾀｶﾞﾜ","prefecture":"奈良県","city":"生駒郡平群町","street":"竜田川"},{"zipCode":"6360911","prefectureKana":"ﾅﾗｹﾝ","cityKana":"ｲｺﾏｸﾞﾝﾍｸﾞﾘﾁｮｳ","streetKana":"ﾂﾊﾞｲ","prefecture":"奈良県","city":"生駒郡平群町","street":"椿井"},{"zipCode":"6360943","prefectureKana":"ﾅﾗｹﾝ","cityKana":"ｲｺﾏｸﾞﾝﾍｸﾞﾘﾁｮｳ","streetKana":"ﾂﾊﾞｷﾀﾞｲ","prefecture":"奈良県","city":"生駒郡平群町","street":"椿台"},{"zipCode":"6360931","prefectureKana":"ﾅﾗｹﾝ","cityKana":"ｲｺﾏｸﾞﾝﾍｸﾞﾘﾁｮｳ","streetKana":"ﾅｼﾓﾄ","prefecture":"奈良県","city":"生駒郡平群町","street":"梨本"},{"zipCode":"6360945","prefectureKana":"ﾅﾗｹﾝ","cityKana":"ｲｺﾏｸﾞﾝﾍｸﾞﾘﾁｮｳ","streetKana":"ﾅﾙｶﾜ","prefecture":"奈良県","city":"生駒郡平群町","street":"鳴川"},{"zipCode":"6360914","prefectureKana":"ﾅﾗｹﾝ","cityKana":"ｲｺﾏｸﾞﾝﾍｸﾞﾘﾁｮｳ","streetKana":"ﾆｼﾉﾐﾔ","prefecture":"奈良県","city":"生駒郡平群町","street":"西宮"},{"zipCode":"6360942","prefectureKana":"ﾅﾗｹﾝ","cityKana":"ｲｺﾏｸﾞﾝﾍｸﾞﾘﾁｮｳ","streetKana":"ﾆｼﾑｶｲ","prefecture":"奈良県","city":"生駒郡平群町","street":"西向"},{"zipCode":"6360934","prefectureKana":"ﾅﾗｹﾝ","cityKana":"ｲｺﾏｸﾞﾝﾍｸﾞﾘﾁｮｳ","streetKana":"ﾊﾂｶﾀﾞｲ","prefecture":"奈良県","city":"生駒郡平群町","street":"初香台"},{"zipCode":"6360935","prefectureKana":"ﾅﾗｹﾝ","cityKana":"ｲｺﾏｸﾞﾝﾍｸﾞﾘﾁｮｳ","streetKana":"ﾋｶﾘｶﾞｵｶ","prefecture":"奈良県","city":"生駒郡平群町","street":"光ケ丘"},{"zipCode":"6360903","prefectureKana":"ﾅﾗｹﾝ","cityKana":"ｲｺﾏｸﾞﾝﾍｸﾞﾘﾁｮｳ","streetKana":"ﾋﾞｮｳﾄﾞｳｼﾞ","prefecture":"奈良県","city":"生駒郡平群町","street":"平等寺"},{"zipCode":"6360936","prefectureKana":"ﾅﾗｹﾝ","cityKana":"ｲｺﾏｸﾞﾝﾍｸﾞﾘﾁｮｳ","streetKana":"ﾌｷ","prefecture":"奈良県","city":"生駒郡平群町","street":"福貴"},{"zipCode":"6360937","prefectureKana":"ﾅﾗｹﾝ","cityKana":"ｲｺﾏｸﾞﾝﾍｸﾞﾘﾁｮｳ","streetKana":"ﾌｷﾊﾀ","prefecture":"奈良県","city":"生駒郡平群町","street":"福貴畑"},{"zipCode":"6360921","prefectureKana":"ﾅﾗｹﾝ","cityKana":"ｲｺﾏｸﾞﾝﾍｸﾞﾘﾁｮｳ","streetKana":"ﾌｼﾊﾗ","prefecture":"奈良県","city":"生駒郡平群町","street":"椹原"},{"zipCode":"6360904","prefectureKana":"ﾅﾗｹﾝ","cityKana":"ｲｺﾏｸﾞﾝﾍｸﾞﾘﾁｮｳ","streetKana":"ﾐｻﾄ","prefecture":"奈良県","city":"生駒郡平群町","street":"三里"},{"zipCode":"6360941","prefectureKana":"ﾅﾗｹﾝ","cityKana":"ｲｺﾏｸﾞﾝﾍｸﾞﾘﾁｮｳ","streetKana":"ﾐﾄﾞﾘｶﾞｵｶ","prefecture":"奈良県","city":"生駒郡平群町","street":"緑ケ丘"},{"zipCode":"6360932","prefectureKana":"ﾅﾗｹﾝ","cityKana":"ｲｺﾏｸﾞﾝﾍｸﾞﾘﾁｮｳ","streetKana":"ﾖｼｼﾝ","prefecture":"奈良県","city":"生駒郡平群町","street":"吉新"},{"zipCode":"6360916","prefectureKana":"ﾅﾗｹﾝ","cityKana":"ｲｺﾏｸﾞﾝﾍｸﾞﾘﾁｮｳ","streetKana":"ﾜｶｲ","prefecture":"奈良県","city":"生駒郡平群町","street":"若井"},{"zipCode":"6360938","prefectureKana":"ﾅﾗｹﾝ","cityKana":"ｲｺﾏｸﾞﾝﾍｸﾞﾘﾁｮｳ","streetKana":"ﾜｶﾊﾞﾀﾞｲ","prefecture":"奈良県","city":"生駒郡平群町","street":"若葉台"},{"zipCode":"6360000","prefectureKana":"ﾅﾗｹﾝ","cityKana":"ｲｺﾏｸﾞﾝｻﾝｺﾞｳﾁｮｳ","streetKana":"ｲｶﾆｹｲｻｲｶﾞﾅｲﾊﾞｱｲ","prefecture":"奈良県","city":"生駒郡三郷町","street":"以下に掲載がない場合"},{"zipCode":"6360813","prefectureKana":"ﾅﾗｹﾝ","cityKana":"ｲｺﾏｸﾞﾝｻﾝｺﾞｳﾁｮｳ","streetKana":"ｼｷﾞｶﾞｵｶ","prefecture":"奈良県","city":"生駒郡三郷町","street":"信貴ケ丘"},{"zipCode":"6360831","prefectureKana":"ﾅﾗｹﾝ","cityKana":"ｲｺﾏｸﾞﾝｻﾝｺﾞｳﾁｮｳ","streetKana":"ｼｷﾞｻﾝﾋｶﾞｼ","prefecture":"奈良県","city":"生駒郡三郷町","street":"信貴山東"},{"zipCode":"6360832","prefectureKana":"ﾅﾗｹﾝ","cityKana":"ｲｺﾏｸﾞﾝｻﾝｺﾞｳﾁｮｳ","streetKana":"ｼｷﾞｻﾝﾆｼ","prefecture":"奈良県","city":"生駒郡三郷町","street":"信貴山西"},{"zipCode":"6360833","prefectureKana":"ﾅﾗｹﾝ","cityKana":"ｲｺﾏｸﾞﾝｻﾝｺﾞｳﾁｮｳ","streetKana":"ｼｷﾞﾐﾅﾐﾊﾀ","prefecture":"奈良県","city":"生駒郡三郷町","street":"信貴南畑"},{"zipCode":"6360824","prefectureKana":"ﾅﾗｹﾝ","cityKana":"ｲｺﾏｸﾞﾝｻﾝｺﾞｳﾁｮｳ","streetKana":"ｼﾛﾔﾏﾀﾞｲ","prefecture":"奈良県","city":"生駒郡三郷町","street":"城山台"},{"zipCode":"6360814","prefectureKana":"ﾅﾗｹﾝ","cityKana":"ｲｺﾏｸﾞﾝｻﾝｺﾞｳﾁｮｳ","streetKana":"ｾﾔ","prefecture":"奈良県","city":"生駒郡三郷町","street":"勢野"},{"zipCode":"6360815","prefectureKana":"ﾅﾗｹﾝ","cityKana":"ｲｺﾏｸﾞﾝｻﾝｺﾞｳﾁｮｳ","streetKana":"ｾﾔｷﾀ","prefecture":"奈良県","city":"生駒郡三郷町","street":"勢野北"},{"zipCode":"6360811","prefectureKana":"ﾅﾗｹﾝ","cityKana":"ｲｺﾏｸﾞﾝｻﾝｺﾞｳﾁｮｳ","streetKana":"ｾﾔﾋｶﾞｼ","prefecture":"奈良県","city":"生駒郡三郷町","street":"勢野東"},{"zipCode":"6360812","prefectureKana":"ﾅﾗｹﾝ","cityKana":"ｲｺﾏｸﾞﾝｻﾝｺﾞｳﾁｮｳ","streetKana":"ｾﾔﾆｼ","prefecture":"奈良県","city":"生駒郡三郷町","street":"勢野西"},{"zipCode":"6360823","prefectureKana":"ﾅﾗｹﾝ","cityKana":"ｲｺﾏｸﾞﾝｻﾝｺﾞｳﾁｮｳ","streetKana":"ﾀﾂﾉ","prefecture":"奈良県","city":"生駒郡三郷町","street":"立野"},{"zipCode":"6360822","prefectureKana":"ﾅﾗｹﾝ","cityKana":"ｲｺﾏｸﾞﾝｻﾝｺﾞｳﾁｮｳ","streetKana":"ﾀﾂﾉﾐﾅﾐ","prefecture":"奈良県","city":"生駒郡三郷町","street":"立野南"},{"zipCode":"6360821","prefectureKana":"ﾅﾗｹﾝ","cityKana":"ｲｺﾏｸﾞﾝｻﾝｺﾞｳﾁｮｳ","streetKana":"ﾀﾂﾉｷﾀ","prefecture":"奈良県","city":"生駒郡三郷町","street":"立野北"},{"zipCode":"6360803","prefectureKana":"ﾅﾗｹﾝ","cityKana":"ｲｺﾏｸﾞﾝｻﾝｺﾞｳﾁｮｳ","streetKana":"ﾋｶﾞｼｼｷﾞｶﾞｵｶ","prefecture":"奈良県","city":"生駒郡三郷町","street":"東信貴ケ丘"},{"zipCode":"6360834","prefectureKana":"ﾅﾗｹﾝ","cityKana":"ｲｺﾏｸﾞﾝｻﾝｺﾞｳﾁｮｳ","streetKana":"ﾐﾅﾐﾊﾀ","prefecture":"奈良県","city":"生駒郡三郷町","street":"南畑"},{"zipCode":"6360805","prefectureKana":"ﾅﾗｹﾝ","cityKana":"ｲｺﾏｸﾞﾝｻﾝｺﾞｳﾁｮｳ","streetKana":"ﾐﾏﾂｶﾞｵｶﾋｶﾞｼ","prefecture":"奈良県","city":"生駒郡三郷町","street":"美松ケ丘東"},{"zipCode":"6360804","prefectureKana":"ﾅﾗｹﾝ","cityKana":"ｲｺﾏｸﾞﾝｻﾝｺﾞｳﾁｮｳ","streetKana":"ﾐﾏﾂｶﾞｵｶﾆｼ","prefecture":"奈良県","city":"生駒郡三郷町","street":"美松ケ丘西"},{"zipCode":"6360802","prefectureKana":"ﾅﾗｹﾝ","cityKana":"ｲｺﾏｸﾞﾝｻﾝｺﾞｳﾁｮｳ","streetKana":"ﾐﾑﾛ","prefecture":"奈良県","city":"生駒郡三郷町","street":"三室"},{"zipCode":"6360801","prefectureKana":"ﾅﾗｹﾝ","cityKana":"ｲｺﾏｸﾞﾝｻﾝｺﾞｳﾁｮｳ","streetKana":"ﾕｳﾋｶﾞｵｶ","prefecture":"奈良県","city":"生駒郡三郷町","street":"夕陽ケ丘"},{"zipCode":"6360100","prefectureKana":"ﾅﾗｹﾝ","cityKana":"ｲｺﾏｸﾞﾝｲｶﾙｶﾞﾁｮｳ","streetKana":"ｲｶﾆｹｲｻｲｶﾞﾅｲﾊﾞｱｲ","prefecture":"奈良県","city":"生駒郡斑鳩町","street":"以下に掲載がない場合"},{"zipCode":"6360122","prefectureKana":"ﾅﾗｹﾝ","cityKana":"ｲｺﾏｸﾞﾝｲｶﾙｶﾞﾁｮｳ","streetKana":"ｱﾜ","prefecture":"奈良県","city":"生駒郡斑鳩町","street":"阿波"},{"zipCode":"6360124","prefectureKana":"ﾅﾗｹﾝ","cityKana":"ｲｺﾏｸﾞﾝｲｶﾙｶﾞﾁｮｳ","streetKana":"ｲｵｲ","prefecture":"奈良県","city":"生駒郡斑鳩町","street":"五百井"},{"zipCode":"6360144","prefectureKana":"ﾅﾗｹﾝ","cityKana":"ｲｺﾏｸﾞﾝｲｶﾙｶﾞﾁｮｳ","streetKana":"ｲﾅﾊﾞﾆｼ","prefecture":"奈良県","city":"生駒郡斑鳩町","street":"稲葉西"},{"zipCode":"6360141","prefectureKana":"ﾅﾗｹﾝ","cityKana":"ｲｺﾏｸﾞﾝｲｶﾙｶﾞﾁｮｳ","streetKana":"ｲﾅﾊﾞｸﾙﾏｾ","prefecture":"奈良県","city":"生駒郡斑鳩町","street":"稲葉車瀬"},{"zipCode":"6360102","prefectureKana":"ﾅﾗｹﾝ","cityKana":"ｲｺﾏｸﾞﾝｲｶﾙｶﾞﾁｮｳ","streetKana":"ｵｶﾓﾄ","prefecture":"奈良県","city":"生駒郡斑鳩町","street":"岡本"},{"zipCode":"6360123","prefectureKana":"ﾅﾗｹﾝ","cityKana":"ｲｺﾏｸﾞﾝｲｶﾙｶﾞﾁｮｳ","streetKana":"ｵｷﾄﾞﾒ","prefecture":"奈良県","city":"生駒郡斑鳩町","street":"興留"},{"zipCode":"6360121","prefectureKana":"ﾅﾗｹﾝ","cityKana":"ｲｺﾏｸﾞﾝｲｶﾙｶﾞﾁｮｳ","streetKana":"ｵｷﾄﾞﾒﾋｶﾞｼ","prefecture":"奈良県","city":"生駒郡斑鳩町","street":"興留東"},{"zipCode":"6360103","prefectureKana":"ﾅﾗｹﾝ","cityKana":"ｲｺﾏｸﾞﾝｲｶﾙｶﾞﾁｮｳ","streetKana":"ｺｳｾﾞﾝ","prefecture":"奈良県","city":"生駒郡斑鳩町","street":"幸前"},{"zipCode":"6360142","prefectureKana":"ﾅﾗｹﾝ","cityKana":"ｲｺﾏｸﾞﾝｲｶﾙｶﾞﾁｮｳ","streetKana":"ｺﾖｼﾀﾞ","prefecture":"奈良県","city":"生駒郡斑鳩町","street":"小吉田"},{"zipCode":"6360143","prefectureKana":"ﾅﾗｹﾝ","cityKana":"ｲｺﾏｸﾞﾝｲｶﾙｶﾞﾁｮｳ","streetKana":"ｼﾞﾝﾅﾝ","prefecture":"奈良県","city":"生駒郡斑鳩町","street":"神南"},{"zipCode":"6360104","prefectureKana":"ﾅﾗｹﾝ","cityKana":"ｲｺﾏｸﾞﾝｲｶﾙｶﾞﾁｮｳ","streetKana":"ﾀｶﾔｽ","prefecture":"奈良県","city":"生駒郡斑鳩町","street":"高安"},{"zipCode":"6360106","prefectureKana":"ﾅﾗｹﾝ","cityKana":"ｲｺﾏｸﾞﾝｲｶﾙｶﾞﾁｮｳ","streetKana":"ﾀｶﾔｽﾆｼ","prefecture":"奈良県","city":"生駒郡斑鳩町","street":"高安西"},{"zipCode":"6360152","prefectureKana":"ﾅﾗｹﾝ","cityKana":"ｲｺﾏｸﾞﾝｲｶﾙｶﾞﾁｮｳ","streetKana":"ﾀﾂﾀ","prefecture":"奈良県","city":"生駒郡斑鳩町","street":"龍田"},{"zipCode":"6360154","prefectureKana":"ﾅﾗｹﾝ","cityKana":"ｲｺﾏｸﾞﾝｲｶﾙｶﾞﾁｮｳ","streetKana":"ﾀﾂﾀﾆｼ","prefecture":"奈良県","city":"生駒郡斑鳩町","street":"龍田西"},{"zipCode":"6360153","prefectureKana":"ﾅﾗｹﾝ","cityKana":"ｲｺﾏｸﾞﾝｲｶﾙｶﾞﾁｮｳ","streetKana":"ﾀﾂﾀﾐﾅﾐ","prefecture":"奈良県","city":"生駒郡斑鳩町","street":"龍田南"},{"zipCode":"6360151","prefectureKana":"ﾅﾗｹﾝ","cityKana":"ｲｺﾏｸﾞﾝｲｶﾙｶﾞﾁｮｳ","streetKana":"ﾀﾂﾀｷﾀ","prefecture":"奈良県","city":"生駒郡斑鳩町","street":"龍田北"},{"zipCode":"6360105","prefectureKana":"ﾅﾗｹﾝ","cityKana":"ｲｺﾏｸﾞﾝｲｶﾙｶﾞﾁｮｳ","streetKana":"ﾄｳﾌｸｼﾞ","prefecture":"奈良県","city":"生駒郡斑鳩町","street":"東福寺"},{"zipCode":"6360131","prefectureKana":"ﾅﾗｹﾝ","cityKana":"ｲｺﾏｸﾞﾝｲｶﾙｶﾞﾁｮｳ","streetKana":"ﾊｯﾄﾘ","prefecture":"奈良県","city":"生駒郡斑鳩町","street":"服部"},{"zipCode":"6360116","prefectureKana":"ﾅﾗｹﾝ","cityKana":"ｲｺﾏｸﾞﾝｲｶﾙｶﾞﾁｮｳ","streetKana":"ﾎｳﾘｭｳｼﾞ","prefecture":"奈良県","city":"生駒郡斑鳩町","street":"法隆寺"},{"zipCode":"6360115","prefectureKana":"ﾅﾗｹﾝ","cityKana":"ｲｺﾏｸﾞﾝｲｶﾙｶﾞﾁｮｳ","streetKana":"ﾎｳﾘｭｳｼﾞｻﾝﾅｲ","prefecture":"奈良県","city":"生駒郡斑鳩町","street":"法隆寺山内"},{"zipCode":"6360112","prefectureKana":"ﾅﾗｹﾝ","cityKana":"ｲｺﾏｸﾞﾝｲｶﾙｶﾞﾁｮｳ","streetKana":"ﾎｳﾘｭｳｼﾞﾋｶﾞｼ","prefecture":"奈良県","city":"生駒郡斑鳩町","street":"法隆寺東"},{"zipCode":"6360114","prefectureKana":"ﾅﾗｹﾝ","cityKana":"ｲｺﾏｸﾞﾝｲｶﾙｶﾞﾁｮｳ","streetKana":"ﾎｳﾘｭｳｼﾞﾆｼ","prefecture":"奈良県","city":"生駒郡斑鳩町","street":"法隆寺西"},{"zipCode":"6360113","prefectureKana":"ﾅﾗｹﾝ","cityKana":"ｲｺﾏｸﾞﾝｲｶﾙｶﾞﾁｮｳ","streetKana":"ﾎｳﾘｭｳｼﾞﾐﾅﾐ","prefecture":"奈良県","city":"生駒郡斑鳩町","street":"法隆寺南"},{"zipCode":"6360111","prefectureKana":"ﾅﾗｹﾝ","cityKana":"ｲｺﾏｸﾞﾝｲｶﾙｶﾞﾁｮｳ","streetKana":"ﾎｳﾘｭｳｼﾞｷﾀ","prefecture":"奈良県","city":"生駒郡斑鳩町","street":"法隆寺北"},{"zipCode":"6360101","prefectureKana":"ﾅﾗｹﾝ","cityKana":"ｲｺﾏｸﾞﾝｲｶﾙｶﾞﾁｮｳ","streetKana":"ﾐｲ","prefecture":"奈良県","city":"生駒郡斑鳩町","street":"三井"},{"zipCode":"6360132","prefectureKana":"ﾅﾗｹﾝ","cityKana":"ｲｺﾏｸﾞﾝｲｶﾙｶﾞﾁｮｳ","streetKana":"ﾒﾔｽ","prefecture":"奈良県","city":"生駒郡斑鳩町","street":"目安"},{"zipCode":"6360133","prefectureKana":"ﾅﾗｹﾝ","cityKana":"ｲｺﾏｸﾞﾝｲｶﾙｶﾞﾁｮｳ","streetKana":"ﾒﾔｽｷﾀ","prefecture":"奈良県","city":"生駒郡斑鳩町","street":"目安北"},{"zipCode":"6360300","prefectureKana":"ﾅﾗｹﾝ","cityKana":"ｼｷｸﾞﾝｶﾜﾆｼﾁｮｳ","streetKana":"ｲｶﾆｹｲｻｲｶﾞﾅｲﾊﾞｱｲ","prefecture":"奈良県","city":"磯城郡川西町","street":"以下に掲載がない場合"},{"zipCode":"6360203","prefectureKana":"ﾅﾗｹﾝ","cityKana":"ｼｷｸﾞﾝｶﾜﾆｼﾁｮｳ","streetKana":"ｳﾒﾄﾞ","prefecture":"奈良県","city":"磯城郡川西町","street":"梅戸"},{"zipCode":"6360201","prefectureKana":"ﾅﾗｹﾝ","cityKana":"ｼｷｸﾞﾝｶﾜﾆｼﾁｮｳ","streetKana":"ｼﾓﾅｶﾞ","prefecture":"奈良県","city":"磯城郡川西町","street":"下永"},{"zipCode":"6360204","prefectureKana":"ﾅﾗｹﾝ","cityKana":"ｼｷｸﾞﾝｶﾜﾆｼﾁｮｳ","streetKana":"ﾄｳｲﾝ","prefecture":"奈良県","city":"磯城郡川西町","street":"唐院"},{"zipCode":"6360206","prefectureKana":"ﾅﾗｹﾝ","cityKana":"ｼｷｸﾞﾝｶﾜﾆｼﾁｮｳ","streetKana":"ﾊﾝﾀﾞ","prefecture":"奈良県","city":"磯城郡川西町","street":"吐田"},{"zipCode":"6360205","prefectureKana":"ﾅﾗｹﾝ","cityKana":"ｼｷｸﾞﾝｶﾜﾆｼﾁｮｳ","streetKana":"ﾎﾀ","prefecture":"奈良県","city":"磯城郡川西町","street":"保田"},{"zipCode":"6360202","prefectureKana":"ﾅﾗｹﾝ","cityKana":"ｼｷｸﾞﾝｶﾜﾆｼﾁｮｳ","streetKana":"ﾕｳｻﾞｷ","prefecture":"奈良県","city":"磯城郡川西町","street":"結崎"},{"zipCode":"6360300","prefectureKana":"ﾅﾗｹﾝ","cityKana":"ｼｷｸﾞﾝﾐﾔｹﾁｮｳ","streetKana":"ｲｶﾆｹｲｻｲｶﾞﾅｲﾊﾞｱｲ","prefecture":"奈良県","city":"磯城郡三宅町","street":"以下に掲載がない場合"},{"zipCode":"6360212","prefectureKana":"ﾅﾗｹﾝ","cityKana":"ｼｷｸﾞﾝﾐﾔｹﾁｮｳ","streetKana":"ｲﾜﾐ","prefecture":"奈良県","city":"磯城郡三宅町","street":"石見"},{"zipCode":"6360216","prefectureKana":"ﾅﾗｹﾝ","cityKana":"ｼｷｸﾞﾝﾐﾔｹﾁｮｳ","streetKana":"ｵﾔﾅｷﾞ","prefecture":"奈良県","city":"磯城郡三宅町","street":"小柳"},{"zipCode":"6360215","prefectureKana":"ﾅﾗｹﾝ","cityKana":"ｼｷｸﾞﾝﾐﾔｹﾁｮｳ","streetKana":"ｶﾐﾀｼﾞﾏ","prefecture":"奈良県","city":"磯城郡三宅町","street":"上但馬"},{"zipCode":"6360214","prefectureKana":"ﾅﾗｹﾝ","cityKana":"ｼｷｸﾞﾝﾐﾔｹﾁｮｳ","streetKana":"ﾀｼﾞﾏ","prefecture":"奈良県","city":"磯城郡三宅町","street":"但馬"},{"zipCode":"6360213","prefectureKana":"ﾅﾗｹﾝ","cityKana":"ｼｷｸﾞﾝﾐﾔｹﾁｮｳ","streetKana":"ﾄﾓﾝﾄﾞｳ","prefecture":"奈良県","city":"磯城郡三宅町","street":"伴堂"},{"zipCode":"6360217","prefectureKana":"ﾅﾗｹﾝ","cityKana":"ｼｷｸﾞﾝﾐﾔｹﾁｮｳ","streetKana":"ﾋﾞｮｳﾌﾞ","prefecture":"奈良県","city":"磯城郡三宅町","street":"屏風"},{"zipCode":"6360211","prefectureKana":"ﾅﾗｹﾝ","cityKana":"ｼｷｸﾞﾝﾐﾔｹﾁｮｳ","streetKana":"ﾐｶﾜ","prefecture":"奈良県","city":"磯城郡三宅町","street":"三河"},{"zipCode":"6360300","prefectureKana":"ﾅﾗｹﾝ","cityKana":"ｼｷｸﾞﾝﾀﾜﾗﾓﾄﾁｮｳ","streetKana":"ｲｶﾆｹｲｻｲｶﾞﾅｲﾊﾞｱｲ","prefecture":"奈良県","city":"磯城郡田原本町","street":"以下に掲載がない場合"},{"zipCode":"6360313","prefectureKana":"ﾅﾗｹﾝ","cityKana":"ｼｷｸﾞﾝﾀﾜﾗﾓﾄﾁｮｳ","streetKana":"ｱｻﾋﾏﾁ","prefecture":"奈良県","city":"磯城郡田原本町","street":"旭町"},{"zipCode":"6360245","prefectureKana":"ﾅﾗｹﾝ","cityKana":"ｼｷｸﾞﾝﾀﾜﾗﾓﾄﾁｮｳ","streetKana":"ｱｼﾞﾏ","prefecture":"奈良県","city":"磯城郡田原本町","street":"味間"},{"zipCode":"6360329","prefectureKana":"ﾅﾗｹﾝ","cityKana":"ｼｷｸﾞﾝﾀﾜﾗﾓﾄﾁｮｳ","streetKana":"ｱｼﾞﾏﾏﾁ","prefecture":"奈良県","city":"磯城郡田原本町","street":"味間町"},{"zipCode":"6360332","prefectureKana":"ﾅﾗｹﾝ","cityKana":"ｼｷｸﾞﾝﾀﾜﾗﾓﾄﾁｮｳ","streetKana":"ｲﾁﾏﾁ","prefecture":"奈良県","city":"磯城郡田原本町","street":"市町"},{"zipCode":"6360224","prefectureKana":"ﾅﾗｹﾝ","cityKana":"ｼｷｸﾞﾝﾀﾜﾗﾓﾄﾁｮｳ","streetKana":"ｲﾏｻﾞﾄ","prefecture":"奈良県","city":"磯城郡田原本町","street":"今里"},{"zipCode":"6360243","prefectureKana":"ﾅﾗｹﾝ","cityKana":"ｼｷｸﾞﾝﾀﾜﾗﾓﾄﾁｮｳ","streetKana":"ｲﾖﾄﾞ","prefecture":"奈良県","city":"磯城郡田原本町","street":"伊与戸"},{"zipCode":"6360331","prefectureKana":"ﾅﾗｹﾝ","cityKana":"ｼｷｸﾞﾝﾀﾜﾗﾓﾄﾁｮｳ","streetKana":"ｳｵﾏﾁ","prefecture":"奈良県","city":"磯城郡田原本町","street":"魚町"},{"zipCode":"6360314","prefectureKana":"ﾅﾗｹﾝ","cityKana":"ｼｷｸﾞﾝﾀﾜﾗﾓﾄﾁｮｳ","streetKana":"ｴﾋﾞｽﾄﾞｵﾘ","prefecture":"奈良県","city":"磯城郡田原本町","street":"戎通"},{"zipCode":"6360345","prefectureKana":"ﾅﾗｹﾝ","cityKana":"ｼｷｸﾞﾝﾀﾜﾗﾓﾄﾁｮｳ","streetKana":"ｵｵ","prefecture":"奈良県","city":"磯城郡田原本町","street":"多"},{"zipCode":"6360353","prefectureKana":"ﾅﾗｹﾝ","cityKana":"ｼｷｸﾞﾝﾀﾜﾗﾓﾄﾁｮｳ","streetKana":"ｵｵｱﾐ","prefecture":"奈良県","city":"磯城郡田原本町","street":"大網"},{"zipCode":"6360242","prefectureKana":"ﾅﾗｹﾝ","cityKana":"ｼｷｸﾞﾝﾀﾜﾗﾓﾄﾁｮｳ","streetKana":"ｵｵｷﾞ","prefecture":"奈良県","city":"磯城郡田原本町","street":"大木"},{"zipCode":"6360223","prefectureKana":"ﾅﾗｹﾝ","cityKana":"ｼｷｸﾞﾝﾀﾜﾗﾓﾄﾁｮｳ","streetKana":"ｶｷﾞ","prefecture":"奈良県","city":"磯城郡田原本町","street":"鍵"},{"zipCode":"6360322","prefectureKana":"ﾅﾗｹﾝ","cityKana":"ｼｷｸﾞﾝﾀﾜﾗﾓﾄﾁｮｳ","streetKana":"ｶｸﾅｲ","prefecture":"奈良県","city":"磯城郡田原本町","street":"郭内"},{"zipCode":"6360244","prefectureKana":"ﾅﾗｹﾝ","cityKana":"ｼｷｸﾞﾝﾀﾜﾗﾓﾄﾁｮｳ","streetKana":"ｶｻｶﾞﾀ","prefecture":"奈良県","city":"磯城郡田原本町","street":"笠形"},{"zipCode":"6360232","prefectureKana":"ﾅﾗｹﾝ","cityKana":"ｼｷｸﾞﾝﾀﾜﾗﾓﾄﾁｮｳ","streetKana":"ｶﾅｻﾞﾜ","prefecture":"奈良県","city":"磯城郡田原本町","street":"金沢"},{"zipCode":"6360226","prefectureKana":"ﾅﾗｹﾝ","cityKana":"ｼｷｸﾞﾝﾀﾜﾗﾓﾄﾁｮｳ","streetKana":"ｶﾗｺ","prefecture":"奈良県","city":"磯城郡田原本町","street":"唐古"},{"zipCode":"6360333","prefectureKana":"ﾅﾗｹﾝ","cityKana":"ｼｷｸﾞﾝﾀﾜﾗﾓﾄﾁｮｳ","streetKana":"ｷﾞｵﾝﾏﾁ","prefecture":"奈良県","city":"磯城郡田原本町","street":"祗園町"},{"zipCode":"6360234","prefectureKana":"ﾅﾗｹﾝ","cityKana":"ｼｷｸﾞﾝﾀﾜﾗﾓﾄﾁｮｳ","streetKana":"ｸﾗﾄﾞｳ","prefecture":"奈良県","city":"磯城郡田原本町","street":"蔵堂"},{"zipCode":"6360301","prefectureKana":"ﾅﾗｹﾝ","cityKana":"ｼｷｸﾞﾝﾀﾜﾗﾓﾄﾁｮｳ","streetKana":"ｸﾛﾀﾞ","prefecture":"奈良県","city":"磯城郡田原本町","street":"黒田"},{"zipCode":"6360237","prefectureKana":"ﾅﾗｹﾝ","cityKana":"ｼｷｸﾞﾝﾀﾜﾗﾓﾄﾁｮｳ","streetKana":"ｺｻｶ","prefecture":"奈良県","city":"磯城郡田原本町","street":"小阪"},{"zipCode":"6360339","prefectureKana":"ﾅﾗｹﾝ","cityKana":"ｼｷｸﾞﾝﾀﾜﾗﾓﾄﾁｮｳ","streetKana":"ｺﾑﾛ","prefecture":"奈良県","city":"磯城郡田原本町","street":"小室"},{"zipCode":"6360352","prefectureKana":"ﾅﾗｹﾝ","cityKana":"ｼｷｸﾞﾝﾀﾜﾗﾓﾄﾁｮｳ","streetKana":"ｺﾝｺﾞｳｼﾞ","prefecture":"奈良県","city":"磯城郡田原本町","street":"金剛寺"},{"zipCode":"6360328","prefectureKana":"ﾅﾗｹﾝ","cityKana":"ｼｷｸﾞﾝﾀﾜﾗﾓﾄﾁｮｳ","streetKana":"ｻﾞｲﾓｸﾏﾁ","prefecture":"奈良県","city":"磯城郡田原本町","street":"材木町"},{"zipCode":"6360315","prefectureKana":"ﾅﾗｹﾝ","cityKana":"ｼｷｸﾞﾝﾀﾜﾗﾓﾄﾁｮｳ","streetKana":"ｻｲﾜｲﾏﾁ","prefecture":"奈良県","city":"磯城郡田原本町","street":"幸町"},{"zipCode":"6360327","prefectureKana":"ﾅﾗｹﾝ","cityKana":"ｼｷｸﾞﾝﾀﾜﾗﾓﾄﾁｮｳ","streetKana":"ｻｶｲﾏﾁ","prefecture":"奈良県","city":"磯城郡田原本町","street":"堺町"},{"zipCode":"6360247","prefectureKana":"ﾅﾗｹﾝ","cityKana":"ｼｷｸﾞﾝﾀﾜﾗﾓﾄﾁｮｳ","streetKana":"ｻｶﾃ","prefecture":"奈良県","city":"磯城郡田原本町","street":"阪手"},{"zipCode":"6360355","prefectureKana":"ﾅﾗｹﾝ","cityKana":"ｼｷｸﾞﾝﾀﾜﾗﾓﾄﾁｮｳ","streetKana":"ｻﾐ","prefecture":"奈良県","city":"磯城郡田原本町","street":"佐味"},{"zipCode":"6360304","prefectureKana":"ﾅﾗｹﾝ","cityKana":"ｼｷｸﾞﾝﾀﾜﾗﾓﾄﾁｮｳ","streetKana":"ｼﾞｭｳﾛｸｾﾝ","prefecture":"奈良県","city":"磯城郡田原本町","street":"十六面"},{"zipCode":"6360326","prefectureKana":"ﾅﾗｹﾝ","cityKana":"ｼｷｸﾞﾝﾀﾜﾗﾓﾄﾁｮｳ","streetKana":"ｼﾝﾁ","prefecture":"奈良県","city":"磯城郡田原本町","street":"新地"},{"zipCode":"6360312","prefectureKana":"ﾅﾗｹﾝ","cityKana":"ｼｷｸﾞﾝﾀﾜﾗﾓﾄﾁｮｳ","streetKana":"ｼﾝﾏﾁ","prefecture":"奈良県","city":"磯城郡田原本町","street":"新町"},{"zipCode":"6360233","prefectureKana":"ﾅﾗｹﾝ","cityKana":"ｼｷｸﾞﾝﾀﾜﾗﾓﾄﾁｮｳ","streetKana":"ﾀﾒｶﾞﾜﾅﾝﾎﾟｳ","prefecture":"奈良県","city":"磯城郡田原本町","street":"為川南方"},{"zipCode":"6360231","prefectureKana":"ﾅﾗｹﾝ","cityKana":"ｼｷｸﾞﾝﾀﾜﾗﾓﾄﾁｮｳ","streetKana":"ﾀﾒｶﾞﾜﾎｯﾎﾟｳ","prefecture":"奈良県","city":"磯城郡田原本町","street":"為川北方"},{"zipCode":"6360248","prefectureKana":"ﾅﾗｹﾝ","cityKana":"ｼｷｸﾞﾝﾀﾜﾗﾓﾄﾁｮｳ","streetKana":"ﾀﾞｲｱﾝｼﾞ","prefecture":"奈良県","city":"磯城郡田原本町","street":"大安寺"},{"zipCode":"6360336","prefectureKana":"ﾅﾗｹﾝ","cityKana":"ｼｷｸﾞﾝﾀﾜﾗﾓﾄﾁｮｳ","streetKana":"ﾀﾞｲﾓﾝﾅｶ","prefecture":"奈良県","city":"磯城郡田原本町","street":"大門中"},{"zipCode":"6360335","prefectureKana":"ﾅﾗｹﾝ","cityKana":"ｼｷｸﾞﾝﾀﾜﾗﾓﾄﾁｮｳ","streetKana":"ﾀﾞｲﾓﾝﾋｶﾞｼ","prefecture":"奈良県","city":"磯城郡田原本町","street":"大門東"},{"zipCode":"6360337","prefectureKana":"ﾅﾗｹﾝ","cityKana":"ｼｷｸﾞﾝﾀﾜﾗﾓﾄﾁｮｳ","streetKana":"ﾀﾞｲﾓﾝﾆｼ","prefecture":"奈良県","city":"磯城郡田原本町","street":"大門西"},{"zipCode":"6360246","prefectureKana":"ﾅﾗｹﾝ","cityKana":"ｼｷｸﾞﾝﾀﾜﾗﾓﾄﾁｮｳ","streetKana":"ﾁｼﾛ","prefecture":"奈良県","city":"磯城郡田原本町","street":"千代"},{"zipCode":"6360338","prefectureKana":"ﾅﾗｹﾝ","cityKana":"ｼｷｸﾞﾝﾀﾜﾗﾓﾄﾁｮｳ","streetKana":"ﾁｬﾏﾁ","prefecture":"奈良県","city":"磯城郡田原本町","street":"茶町"},{"zipCode":"6360317","prefectureKana":"ﾅﾗｹﾝ","cityKana":"ｼｷｸﾞﾝﾀﾜﾗﾓﾄﾁｮｳ","streetKana":"ﾄﾉﾏﾁ","prefecture":"奈良県","city":"磯城郡田原本町","street":"殿町"},{"zipCode":"6360307","prefectureKana":"ﾅﾗｹﾝ","cityKana":"ｼｷｸﾞﾝﾀﾜﾗﾓﾄﾁｮｳ","streetKana":"ﾄﾝﾓﾄ","prefecture":"奈良県","city":"磯城郡田原本町","street":"富本"},{"zipCode":"6360347","prefectureKana":"ﾅﾗｹﾝ","cityKana":"ｼｷｸﾞﾝﾀﾜﾗﾓﾄﾁｮｳ","streetKana":"ﾆｷ","prefecture":"奈良県","city":"磯城郡田原本町","street":"新木"},{"zipCode":"6360236","prefectureKana":"ﾅﾗｹﾝ","cityKana":"ｼｷｸﾞﾝﾀﾜﾗﾓﾄﾁｮｳ","streetKana":"ﾆｼｲﾈ","prefecture":"奈良県","city":"磯城郡田原本町","street":"西井上"},{"zipCode":"6360306","prefectureKana":"ﾅﾗｹﾝ","cityKana":"ｼｷｸﾞﾝﾀﾜﾗﾓﾄﾁｮｳ","streetKana":"ﾆｼﾀｹﾀﾞ","prefecture":"奈良県","city":"磯城郡田原本町","street":"西竹田"},{"zipCode":"6360225","prefectureKana":"ﾅﾗｹﾝ","cityKana":"ｼｷｸﾞﾝﾀﾜﾗﾓﾄﾁｮｳ","streetKana":"ﾆｼﾝﾀﾞｲ","prefecture":"奈良県","city":"磯城郡田原本町","street":"西代"},{"zipCode":"6360323","prefectureKana":"ﾅﾗｹﾝ","cityKana":"ｼｷｸﾞﾝﾀﾜﾗﾓﾄﾁｮｳ","streetKana":"ﾈﾌﾞﾄｸﾞﾁ","prefecture":"奈良県","city":"磯城郡田原本町","street":"根太口"},{"zipCode":"6360343","prefectureKana":"ﾅﾗｹﾝ","cityKana":"ｼｷｸﾞﾝﾀﾜﾗﾓﾄﾁｮｳ","streetKana":"ﾊﾀﾉｼｮｳ","prefecture":"奈良県","city":"磯城郡田原本町","street":"秦庄"},{"zipCode":"6360221","prefectureKana":"ﾅﾗｹﾝ","cityKana":"ｼｷｸﾞﾝﾀﾜﾗﾓﾄﾁｮｳ","streetKana":"ﾊｯﾀ","prefecture":"奈良県","city":"磯城郡田原本町","street":"八田"},{"zipCode":"6360235","prefectureKana":"ﾅﾗｹﾝ","cityKana":"ｼｷｸﾞﾝﾀﾜﾗﾓﾄﾁｮｳ","streetKana":"ﾋｶﾞｼｲﾈ","prefecture":"奈良県","city":"磯城郡田原本町","street":"東井上"},{"zipCode":"6360241","prefectureKana":"ﾅﾗｹﾝ","cityKana":"ｼｷｸﾞﾝﾀﾜﾗﾓﾄﾁｮｳ","streetKana":"ﾋﾗﾀ","prefecture":"奈良県","city":"磯城郡田原本町","street":"平田"},{"zipCode":"6360305","prefectureKana":"ﾅﾗｹﾝ","cityKana":"ｼｷｸﾞﾝﾀﾜﾗﾓﾄﾁｮｳ","streetKana":"ﾋﾗﾉ","prefecture":"奈良県","city":"磯城郡田原本町","street":"平野"},{"zipCode":"6360222","prefectureKana":"ﾅﾗｹﾝ","cityKana":"ｼｷｸﾞﾝﾀﾜﾗﾓﾄﾁｮｳ","streetKana":"ﾎｳｷｼﾞ","prefecture":"奈良県","city":"磯城郡田原本町","street":"法貴寺"},{"zipCode":"6360303","prefectureKana":"ﾅﾗｹﾝ","cityKana":"ｼｷｸﾞﾝﾀﾜﾗﾓﾄﾁｮｳ","streetKana":"ﾎﾂ","prefecture":"奈良県","city":"磯城郡田原本町","street":"保津"},{"zipCode":"6360334","prefectureKana":"ﾅﾗｹﾝ","cityKana":"ｼｷｸﾞﾝﾀﾜﾗﾓﾄﾁｮｳ","streetKana":"ﾎﾝﾏﾁ","prefecture":"奈良県","city":"磯城郡田原本町","street":"本町"},{"zipCode":"6360351","prefectureKana":"ﾅﾗｹﾝ","cityKana":"ｼｷｸﾞﾝﾀﾜﾗﾓﾄﾁｮｳ","streetKana":"ﾏﾂﾓﾄ","prefecture":"奈良県","city":"磯城郡田原本町","street":"松本"},{"zipCode":"6360354","prefectureKana":"ﾅﾗｹﾝ","cityKana":"ｼｷｸﾞﾝﾀﾜﾗﾓﾄﾁｮｳ","streetKana":"ﾏﾝﾀﾞ","prefecture":"奈良県","city":"磯城郡田原本町","street":"満田"},{"zipCode":"6360342","prefectureKana":"ﾅﾗｹﾝ","cityKana":"ｼｷｸﾞﾝﾀﾜﾗﾓﾄﾁｮｳ","streetKana":"ﾐｶｻ","prefecture":"奈良県","city":"磯城郡田原本町","street":"三笠"},{"zipCode":"6360325","prefectureKana":"ﾅﾗｹﾝ","cityKana":"ｼｷｸﾞﾝﾀﾜﾗﾓﾄﾁｮｳ","streetKana":"ﾐﾅﾐﾏﾁ","prefecture":"奈良県","city":"磯城郡田原本町","street":"南町"},{"zipCode":"6360302","prefectureKana":"ﾅﾗｹﾝ","cityKana":"ｼｷｸﾞﾝﾀﾜﾗﾓﾄﾁｮｳ","streetKana":"ﾐﾔｺ","prefecture":"奈良県","city":"磯城郡田原本町","street":"宮古"},{"zipCode":"6360344","prefectureKana":"ﾅﾗｹﾝ","cityKana":"ｼｷｸﾞﾝﾀﾜﾗﾓﾄﾁｮｳ","streetKana":"ﾐﾔﾉﾓﾘ","prefecture":"奈良県","city":"磯城郡田原本町","street":"宮森"},{"zipCode":"6360324","prefectureKana":"ﾅﾗｹﾝ","cityKana":"ｼｷｸﾞﾝﾀﾜﾗﾓﾄﾁｮｳ","streetKana":"ﾐﾜﾏﾁ","prefecture":"奈良県","city":"磯城郡田原本町","street":"三輪町"},{"zipCode":"6360316","prefectureKana":"ﾅﾗｹﾝ","cityKana":"ｼｷｸﾞﾝﾀﾜﾗﾓﾄﾁｮｳ","streetKana":"ﾑﾛﾏﾁ","prefecture":"奈良県","city":"磯城郡田原本町","street":"室町"},{"zipCode":"6360311","prefectureKana":"ﾅﾗｹﾝ","cityKana":"ｼｷｸﾞﾝﾀﾜﾗﾓﾄﾁｮｳ","streetKana":"ﾔｵ","prefecture":"奈良県","city":"磯城郡田原本町","street":"八尾"},{"zipCode":"6360341","prefectureKana":"ﾅﾗｹﾝ","cityKana":"ｼｷｸﾞﾝﾀﾜﾗﾓﾄﾁｮｳ","streetKana":"ﾔｸｵｳｼﾞ","prefecture":"奈良県","city":"磯城郡田原本町","street":"薬王寺"},{"zipCode":"6360321","prefectureKana":"ﾅﾗｹﾝ","cityKana":"ｼｷｸﾞﾝﾀﾜﾗﾓﾄﾁｮｳ","streetKana":"ﾔﾊﾀﾏﾁ","prefecture":"奈良県","city":"磯城郡田原本町","street":"八幡町"},{"zipCode":"6360346","prefectureKana":"ﾅﾗｹﾝ","cityKana":"ｼｷｸﾞﾝﾀﾜﾗﾓﾄﾁｮｳ","streetKana":"ﾔﾍﾞ","prefecture":"奈良県","city":"磯城郡田原本町","street":"矢部"},{"zipCode":"6360000","prefectureKana":"ﾅﾗｹﾝ","cityKana":"ｷﾀｶﾂﾗｷﾞｸﾞﾝｵｳｼﾞﾁｮｳ","streetKana":"ｲｶﾆｹｲｻｲｶﾞﾅｲﾊﾞｱｲ","prefecture":"奈良県","city":"北葛城郡王寺町","street":"以下に掲載がない場合"},{"zipCode":"6360002","prefectureKana":"ﾅﾗｹﾝ","cityKana":"ｷﾀｶﾂﾗｷﾞｸﾞﾝｵｳｼﾞﾁｮｳ","streetKana":"ｵｳｼﾞ","prefecture":"奈良県","city":"北葛城郡王寺町","street":"王寺"},{"zipCode":"6360011","prefectureKana":"ﾅﾗｹﾝ","cityKana":"ｷﾀｶﾂﾗｷﾞｸﾞﾝｵｳｼﾞﾁｮｳ","streetKana":"ｶﾂｼﾓ","prefecture":"奈良県","city":"北葛城郡王寺町","street":"葛下"},{"zipCode":"6360003","prefectureKana":"ﾅﾗｹﾝ","cityKana":"ｷﾀｶﾂﾗｷﾞｸﾞﾝｵｳｼﾞﾁｮｳ","streetKana":"ｸﾄﾞ","prefecture":"奈良県","city":"北葛城郡王寺町","street":"久度"},{"zipCode":"6360023","prefectureKana":"ﾅﾗｹﾝ","cityKana":"ｷﾀｶﾂﾗｷﾞｸﾞﾝｵｳｼﾞﾁｮｳ","streetKana":"ﾀｲｼ","prefecture":"奈良県","city":"北葛城郡王寺町","street":"太子"},{"zipCode":"6360021","prefectureKana":"ﾅﾗｹﾝ","cityKana":"ｷﾀｶﾂﾗｷﾞｸﾞﾝｵｳｼﾞﾁｮｳ","streetKana":"ﾊﾀｹﾀﾞ","prefecture":"奈良県","city":"北葛城郡王寺町","street":"畠田"},{"zipCode":"6360014","prefectureKana":"ﾅﾗｹﾝ","cityKana":"ｷﾀｶﾂﾗｷﾞｸﾞﾝｵｳｼﾞﾁｮｳ","streetKana":"ﾌｼﾞｲ","prefecture":"奈良県","city":"北葛城郡王寺町","street":"藤井"},{"zipCode":"6360001","prefectureKana":"ﾅﾗｹﾝ","cityKana":"ｷﾀｶﾂﾗｷﾞｸﾞﾝｵｳｼﾞﾁｮｳ","streetKana":"ﾌﾅﾄ","prefecture":"奈良県","city":"北葛城郡王寺町","street":"舟戸"},{"zipCode":"6360012","prefectureKana":"ﾅﾗｹﾝ","cityKana":"ｷﾀｶﾂﾗｷﾞｸﾞﾝｵｳｼﾞﾁｮｳ","streetKana":"ﾎﾝﾏﾁ","prefecture":"奈良県","city":"北葛城郡王寺町","street":"本町"},{"zipCode":"6360015","prefectureKana":"ﾅﾗｹﾝ","cityKana":"ｷﾀｶﾂﾗｷﾞｸﾞﾝｵｳｼﾞﾁｮｳ","streetKana":"ﾐﾅﾐﾓﾄﾏﾁ","prefecture":"奈良県","city":"北葛城郡王寺町","street":"南元町"},{"zipCode":"6360022","prefectureKana":"ﾅﾗｹﾝ","cityKana":"ｷﾀｶﾂﾗｷﾞｸﾞﾝｵｳｼﾞﾁｮｳ","streetKana":"ﾐｮｳｼﾞﾝ","prefecture":"奈良県","city":"北葛城郡王寺町","street":"明神"},{"zipCode":"6360013","prefectureKana":"ﾅﾗｹﾝ","cityKana":"ｷﾀｶﾂﾗｷﾞｸﾞﾝｵｳｼﾞﾁｮｳ","streetKana":"ﾓﾄﾏﾁ","prefecture":"奈良県","city":"北葛城郡王寺町","street":"元町"},{"zipCode":"6360000","prefectureKana":"ﾅﾗｹﾝ","cityKana":"ｷﾀｶﾂﾗｷﾞｸﾞﾝｶﾜｲﾁｮｳ","streetKana":"ｲｶﾆｹｲｻｲｶﾞﾅｲﾊﾞｱｲ","prefecture":"奈良県","city":"北葛城郡河合町","street":"以下に掲載がない場合"},{"zipCode":"6360053","prefectureKana":"ﾅﾗｹﾝ","cityKana":"ｷﾀｶﾂﾗｷﾞｸﾞﾝｶﾜｲﾁｮｳ","streetKana":"ｲｹﾍﾞ","prefecture":"奈良県","city":"北葛城郡河合町","street":"池部"},{"zipCode":"6360091","prefectureKana":"ﾅﾗｹﾝ","cityKana":"ｷﾀｶﾂﾗｷﾞｸﾞﾝｶﾜｲﾁｮｳ","streetKana":"ｲｽﾞﾐﾀﾞｲ","prefecture":"奈良県","city":"北葛城郡河合町","street":"泉台"},{"zipCode":"6360057","prefectureKana":"ﾅﾗｹﾝ","cityKana":"ｷﾀｶﾂﾗｷﾞｸﾞﾝｶﾜｲﾁｮｳ","streetKana":"ｲﾛﾄﾞﾘﾉﾓﾘ","prefecture":"奈良県","city":"北葛城郡河合町","street":"彩りの杜"},{"zipCode":"6360093","prefectureKana":"ﾅﾗｹﾝ","cityKana":"ｷﾀｶﾂﾗｷﾞｸﾞﾝｶﾜｲﾁｮｳ","streetKana":"ｵｵﾜﾀﾞ","prefecture":"奈良県","city":"北葛城郡河合町","street":"大輪田"},{"zipCode":"6360051","prefectureKana":"ﾅﾗｹﾝ","cityKana":"ｷﾀｶﾂﾗｷﾞｸﾞﾝｶﾜｲﾁｮｳ","streetKana":"ｶﾜｲ","prefecture":"奈良県","city":"北葛城郡河合町","street":"川合"},{"zipCode":"6360082","prefectureKana":"ﾅﾗｹﾝ","cityKana":"ｷﾀｶﾂﾗｷﾞｸﾞﾝｶﾜｲﾁｮｳ","streetKana":"ｸｽﾘｲ","prefecture":"奈良県","city":"北葛城郡河合町","street":"薬井"},{"zipCode":"6360063","prefectureKana":"ﾅﾗｹﾝ","cityKana":"ｷﾀｶﾂﾗｷﾞｸﾞﾝｶﾜｲﾁｮｳ","streetKana":"ｸﾐｶﾞｵｶ","prefecture":"奈良県","city":"北葛城郡河合町","street":"久美ケ丘"},{"zipCode":"6360062","prefectureKana":"ﾅﾗｹﾝ","cityKana":"ｷﾀｶﾂﾗｷﾞｸﾞﾝｶﾜｲﾁｮｳ","streetKana":"ｻﾐﾀ","prefecture":"奈良県","city":"北葛城郡河合町","street":"佐味田"},{"zipCode":"6360092","prefectureKana":"ﾅﾗｹﾝ","cityKana":"ｷﾀｶﾂﾗｷﾞｸﾞﾝｶﾜｲﾁｮｳ","streetKana":"ｼﾞｮｳﾅｲ","prefecture":"奈良県","city":"北葛城郡河合町","street":"城内"},{"zipCode":"6360081","prefectureKana":"ﾅﾗｹﾝ","cityKana":"ｷﾀｶﾂﾗｷﾞｸﾞﾝｶﾜｲﾁｮｳ","streetKana":"ｾｲﾜﾀﾞｲ","prefecture":"奈良県","city":"北葛城郡河合町","street":"星和台"},{"zipCode":"6360071","prefectureKana":"ﾅﾗｹﾝ","cityKana":"ｷﾀｶﾂﾗｷﾞｸﾞﾝｶﾜｲﾁｮｳ","streetKana":"ﾀｶﾂｶﾀﾞｲ","prefecture":"奈良県","city":"北葛城郡河合町","street":"高塚台"},{"zipCode":"6360052","prefectureKana":"ﾅﾗｹﾝ","cityKana":"ｷﾀｶﾂﾗｷﾞｸﾞﾝｶﾜｲﾁｮｳ","streetKana":"ﾁｮｳﾗｸ","prefecture":"奈良県","city":"北葛城郡河合町","street":"長楽"},{"zipCode":"6360072","prefectureKana":"ﾅﾗｹﾝ","cityKana":"ｷﾀｶﾂﾗｷﾞｸﾞﾝｶﾜｲﾁｮｳ","streetKana":"ﾅｶﾔﾏﾀﾞｲ","prefecture":"奈良県","city":"北葛城郡河合町","street":"中山台"},{"zipCode":"6360054","prefectureKana":"ﾅﾗｹﾝ","cityKana":"ｷﾀｶﾂﾗｷﾞｸﾞﾝｶﾜｲﾁｮｳ","streetKana":"ﾅｸﾞﾗ","prefecture":"奈良県","city":"北葛城郡河合町","street":"穴闇"},{"zipCode":"6360055","prefectureKana":"ﾅﾗｹﾝ","cityKana":"ｷﾀｶﾂﾗｷﾞｸﾞﾝｶﾜｲﾁｮｳ","streetKana":"ﾆｼﾅｸﾞﾗ","prefecture":"奈良県","city":"北葛城郡河合町","street":"西穴闇"},{"zipCode":"6360056","prefectureKana":"ﾅﾗｹﾝ","cityKana":"ｷﾀｶﾂﾗｷﾞｸﾞﾝｶﾜｲﾁｮｳ","streetKana":"ﾆｼﾔﾏﾀﾞｲ","prefecture":"奈良県","city":"北葛城郡河合町","street":"西山台"},{"zipCode":"6360073","prefectureKana":"ﾅﾗｹﾝ","cityKana":"ｷﾀｶﾂﾗｷﾞｸﾞﾝｶﾜｲﾁｮｳ","streetKana":"ﾋﾛｾﾀﾞｲ","prefecture":"奈良県","city":"北葛城郡河合町","street":"広瀬台"},{"zipCode":"6360061","prefectureKana":"ﾅﾗｹﾝ","cityKana":"ｷﾀｶﾂﾗｷﾞｸﾞﾝｶﾜｲﾁｮｳ","streetKana":"ﾔﾏﾉﾎﾞｳ","prefecture":"奈良県","city":"北葛城郡河合町","street":"山坊"}]