[{"zipCode":"6391100","prefectureKana":"ﾅﾗｹﾝ","cityKana":"ﾔﾏﾄｺｵﾘﾔﾏｼ","streetKana":"ｲｶﾆｹｲｻｲｶﾞﾅｲﾊﾞｱｲ","prefecture":"奈良県","city":"大和郡山市","street":"以下に掲載がない場合"},{"zipCode":"6391013","prefectureKana":"ﾅﾗｹﾝ","cityKana":"ﾔﾏﾄｺｵﾘﾔﾏｼ","streetKana":"ｱｻﾋﾁｮｳ","prefecture":"奈良県","city":"大和郡山市","street":"朝日町"},{"zipCode":"6391032","prefectureKana":"ﾅﾗｹﾝ","cityKana":"ﾔﾏﾄｺｵﾘﾔﾏｼ","streetKana":"ｲｹｻﾞﾜﾁｮｳ","prefecture":"奈良県","city":"大和郡山市","street":"池沢町"},{"zipCode":"6391027","prefectureKana":"ﾅﾗｹﾝ","cityKana":"ﾔﾏﾄｺｵﾘﾔﾏｼ","streetKana":"ｲｹﾉｳﾁﾁｮｳ","prefecture":"奈良県","city":"大和郡山市","street":"池之内町"},{"zipCode":"6391111","prefectureKana":"ﾅﾗｹﾝ","cityKana":"ﾔﾏﾄｺｵﾘﾔﾏｼ","streetKana":"ｲｼｶﾜﾁｮｳ","prefecture":"奈良県","city":"大和郡山市","street":"石川町"},{"zipCode":"6391116","prefectureKana":"ﾅﾗｹﾝ","cityKana":"ﾔﾏﾄｺｵﾘﾔﾏｼ","streetKana":"ｲｽﾞｼﾁｼﾞｮｳﾁｮｳ","prefecture":"奈良県","city":"大和郡山市","street":"伊豆七条町"},{"zipCode":"6391056","prefectureKana":"ﾅﾗｹﾝ","cityKana":"ﾔﾏﾄｺｵﾘﾔﾏｼ","streetKana":"ｲｽﾞﾐﾊﾗﾁｮｳ","prefecture":"奈良県","city":"大和郡山市","street":"泉原町"},{"zipCode":"6391113","prefectureKana":"ﾅﾗｹﾝ","cityKana":"ﾔﾏﾄｺｵﾘﾔﾏｼ","streetKana":"ｲﾁｴﾀﾞﾁｮｳ","prefecture":"奈良県","city":"大和郡山市","street":"櫟枝町"},{"zipCode":"6391104","prefectureKana":"ﾅﾗｹﾝ","cityKana":"ﾔﾏﾄｺｵﾘﾔﾏｼ","streetKana":"ｲﾄﾞﾉﾁｮｳ","prefecture":"奈良県","city":"大和郡山市","street":"井戸野町"},{"zipCode":"6391158","prefectureKana":"ﾅﾗｹﾝ","cityKana":"ﾔﾏﾄｺｵﾘﾔﾏｼ","streetKana":"ｲﾉﾏﾁ","prefecture":"奈良県","city":"大和郡山市","street":"藺町"},{"zipCode":"6391155","prefectureKana":"ﾅﾗｹﾝ","cityKana":"ﾔﾏﾄｺｵﾘﾔﾏｼ","streetKana":"ｲﾏｲﾏﾁ","prefecture":"奈良県","city":"大和郡山市","street":"今井町"},{"zipCode":"6391031","prefectureKana":"ﾅﾗｹﾝ","cityKana":"ﾔﾏﾄｺｵﾘﾔﾏｼ","streetKana":"ｲﾏｺﾞｳﾁｮｳ","prefecture":"奈良県","city":"大和郡山市","street":"今国府町"},{"zipCode":"6391005","prefectureKana":"ﾅﾗｹﾝ","cityKana":"ﾔﾏﾄｺｵﾘﾔﾏｼ","streetKana":"ｳｴﾂｷﾁｮｳ","prefecture":"奈良県","city":"大和郡山市","street":"植槻町"},{"zipCode":"6391168","prefectureKana":"ﾅﾗｹﾝ","cityKana":"ﾔﾏﾄｺｵﾘﾔﾏｼ","streetKana":"ｳｵﾏﾁ","prefecture":"奈良県","city":"大和郡山市","street":"魚町"},{"zipCode":"6391019","prefectureKana":"ﾅﾗｹﾝ","cityKana":"ﾔﾏﾄｺｵﾘﾔﾏｼ","streetKana":"ｴｲｹｲｼﾞﾁｮｳ","prefecture":"奈良県","city":"大和郡山市","street":"永慶寺町"},{"zipCode":"6391106","prefectureKana":"ﾅﾗｹﾝ","cityKana":"ﾔﾏﾄｺｵﾘﾔﾏｼ","streetKana":"ｵｵｴﾁｮｳ","prefecture":"奈良県","city":"大和郡山市","street":"大江町"},{"zipCode":"6391138","prefectureKana":"ﾅﾗｹﾝ","cityKana":"ﾔﾏﾄｺｵﾘﾔﾏｼ","streetKana":"ｵｵﾐﾔﾁｮｳ","prefecture":"奈良県","city":"大和郡山市","street":"大宮町"},{"zipCode":"6391034","prefectureKana":"ﾅﾗｹﾝ","cityKana":"ﾔﾏﾄｺｵﾘﾔﾏｼ","streetKana":"ｶｼﾜｷﾞﾁｮｳ","prefecture":"奈良県","city":"大和郡山市","street":"柏木町"},{"zipCode":"6391102","prefectureKana":"ﾅﾗｹﾝ","cityKana":"ﾔﾏﾄｺｵﾘﾔﾏｼ","streetKana":"ｶﾐﾐﾂﾊｼﾁｮｳ","prefecture":"奈良県","city":"大和郡山市","street":"上三橋町"},{"zipCode":"6391018","prefectureKana":"ﾅﾗｹﾝ","cityKana":"ﾔﾏﾄｺｵﾘﾔﾏｼ","streetKana":"ｶﾝｻﾞﾝﾁｮｳ","prefecture":"奈良県","city":"大和郡山市","street":"冠山町"},{"zipCode":"6391161","prefectureKana":"ﾅﾗｹﾝ","cityKana":"ﾔﾏﾄｺｵﾘﾔﾏｼ","streetKana":"ｶﾝﾉﾝｼﾞﾁｮｳ","prefecture":"奈良県","city":"大和郡山市","street":"観音寺町"},{"zipCode":"6391165","prefectureKana":"ﾅﾗｹﾝ","cityKana":"ﾔﾏﾄｺｵﾘﾔﾏｼ","streetKana":"ｷﾀｶｼﾞﾏﾁ","prefecture":"奈良県","city":"大和郡山市","street":"北鍛冶町"},{"zipCode":"6391160","prefectureKana":"ﾅﾗｹﾝ","cityKana":"ﾔﾏﾄｺｵﾘﾔﾏｼ","streetKana":"ｷﾀｺｵﾘﾔﾏﾁｮｳ","prefecture":"奈良県","city":"大和郡山市","street":"北郡山町"},{"zipCode":"6391146","prefectureKana":"ﾅﾗｹﾝ","cityKana":"ﾔﾏﾄｺｵﾘﾔﾏｼ","streetKana":"ｷﾀﾀﾞｲｸﾏﾁ","prefecture":"奈良県","city":"大和郡山市","street":"北大工町"},{"zipCode":"6391025","prefectureKana":"ﾅﾗｹﾝ","cityKana":"ﾔﾏﾄｺｵﾘﾔﾏｼ","streetKana":"ｷﾀﾆｼﾁｮｳ","prefecture":"奈良県","city":"大和郡山市","street":"北西町"},{"zipCode":"6391001","prefectureKana":"ﾅﾗｹﾝ","cityKana":"ﾔﾏﾄｺｵﾘﾔﾏｼ","streetKana":"ｸｼﾞｮｳﾁｮｳ","prefecture":"奈良県","city":"大和郡山市","street":"九条町"},{"zipCode":"6391002","prefectureKana":"ﾅﾗｹﾝ","cityKana":"ﾔﾏﾄｺｵﾘﾔﾏｼ","streetKana":"ｸｼﾞｮｳﾋﾗﾉﾁｮｳ","prefecture":"奈良県","city":"大和郡山市","street":"九条平野町"},{"zipCode":"6391147","prefectureKana":"ﾅﾗｹﾝ","cityKana":"ﾔﾏﾄｺｵﾘﾔﾏｼ","streetKana":"ｸﾙﾏﾏﾁ","prefecture":"奈良県","city":"大和郡山市","street":"車町"},{"zipCode":"6391042","prefectureKana":"ﾅﾗｹﾝ","cityKana":"ﾔﾏﾄｺｵﾘﾔﾏｼ","streetKana":"ｺｲｽﾞﾐﾁｮｳ","prefecture":"奈良県","city":"大和郡山市","street":"小泉町"},{"zipCode":"6391044","prefectureKana":"ﾅﾗｹﾝ","cityKana":"ﾔﾏﾄｺｵﾘﾔﾏｼ","streetKana":"ｺｲｽﾞﾐﾁｮｳﾋｶﾞｼ","prefecture":"奈良県","city":"大和郡山市","street":"小泉町東"},{"zipCode":"6391026","prefectureKana":"ﾅﾗｹﾝ","cityKana":"ﾔﾏﾄｺｵﾘﾔﾏｼ","streetKana":"ｺﾊﾞﾔｼﾁｮｳ","prefecture":"奈良県","city":"大和郡山市","street":"小林町"},{"zipCode":"6391045","prefectureKana":"ﾅﾗｹﾝ","cityKana":"ﾔﾏﾄｺｵﾘﾔﾏｼ","streetKana":"ｺﾊﾞﾔｼﾁｮｳﾆｼ","prefecture":"奈良県","city":"大和郡山市","street":"小林町西"},{"zipCode":"6391023","prefectureKana":"ﾅﾗｹﾝ","cityKana":"ﾔﾏﾄｺｵﾘﾔﾏｼ","streetKana":"ｺﾐﾅﾐﾁｮｳ","prefecture":"奈良県","city":"大和郡山市","street":"小南町"},{"zipCode":"6391148","prefectureKana":"ﾅﾗｹﾝ","cityKana":"ﾔﾏﾄｺｵﾘﾔﾏｼ","streetKana":"ｺﾝﾔﾏﾁ","prefecture":"奈良県","city":"大和郡山市","street":"紺屋町"},{"zipCode":"6391156","prefectureKana":"ﾅﾗｹﾝ","cityKana":"ﾔﾏﾄｺｵﾘﾔﾏｼ","streetKana":"ｻｶｲﾁｮｳ","prefecture":"奈良県","city":"大和郡山市","street":"堺町"},{"zipCode":"6391141","prefectureKana":"ﾅﾗｹﾝ","cityKana":"ﾔﾏﾄｺｵﾘﾔﾏｼ","streetKana":"ｻﾞｲﾓｸﾏﾁ","prefecture":"奈良県","city":"大和郡山市","street":"材木町"},{"zipCode":"6391150","prefectureKana":"ﾅﾗｹﾝ","cityKana":"ﾔﾏﾄｺｵﾘﾔﾏｼ","streetKana":"ｻﾞｺｸﾏﾁ","prefecture":"奈良県","city":"大和郡山市","street":"雑穀町"},{"zipCode":"6391169","prefectureKana":"ﾅﾗｹﾝ","cityKana":"ﾔﾏﾄｺｵﾘﾔﾏｼ","streetKana":"ｼｵﾏﾁ","prefecture":"奈良県","city":"大和郡山市","street":"塩町"},{"zipCode":"6391039","prefectureKana":"ﾅﾗｹﾝ","cityKana":"ﾔﾏﾄｺｵﾘﾔﾏｼ","streetKana":"ｼｷﾞﾁｮｳ","prefecture":"奈良県","city":"大和郡山市","street":"椎木町"},{"zipCode":"6391101","prefectureKana":"ﾅﾗｹﾝ","cityKana":"ﾔﾏﾄｺｵﾘﾔﾏｼ","streetKana":"ｼﾓﾐﾂﾊｼﾁｮｳ","prefecture":"奈良県","city":"大和郡山市","street":"下三橋町"},{"zipCode":"6391051","prefectureKana":"ﾅﾗｹﾝ","cityKana":"ﾔﾏﾄｺｵﾘﾔﾏｼ","streetKana":"ｼﾞｮｳﾁｮｳ","prefecture":"奈良県","city":"大和郡山市","street":"城町"},{"zipCode":"6391011","prefectureKana":"ﾅﾗｹﾝ","cityKana":"ﾔﾏﾄｺｵﾘﾔﾏｼ","streetKana":"ｼﾞｮｳﾅｲﾁｮｳ","prefecture":"奈良県","city":"大和郡山市","street":"城内町"},{"zipCode":"6391016","prefectureKana":"ﾅﾗｹﾝ","cityKana":"ﾔﾏﾄｺｵﾘﾔﾏｼ","streetKana":"ｼﾞｮｳﾅﾝﾁｮｳ","prefecture":"奈良県","city":"大和郡山市","street":"城南町"},{"zipCode":"6391004","prefectureKana":"ﾅﾗｹﾝ","cityKana":"ﾔﾏﾄｺｵﾘﾔﾏｼ","streetKana":"ｼﾞｮｳﾎｸﾁｮｳ","prefecture":"奈良県","city":"大和郡山市","street":"城北町"},{"zipCode":"6391033","prefectureKana":"ﾅﾗｹﾝ","cityKana":"ﾔﾏﾄｺｵﾘﾔﾏｼ","streetKana":"ｼｮｳﾜﾁｮｳ","prefecture":"奈良県","city":"大和郡山市","street":"昭和町"},{"zipCode":"6391112","prefectureKana":"ﾅﾗｹﾝ","cityKana":"ﾔﾏﾄｺｵﾘﾔﾏｼ","streetKana":"ｼﾗﾂﾁﾁｮｳ","prefecture":"奈良県","city":"大和郡山市","street":"白土町"},{"zipCode":"6391008","prefectureKana":"ﾅﾗｹﾝ","cityKana":"ﾔﾏﾄｺｵﾘﾔﾏｼ","streetKana":"ｼﾛﾉﾀﾞｲﾁｮｳ","prefecture":"奈良県","city":"大和郡山市","street":"城の台町"},{"zipCode":"6391012","prefectureKana":"ﾅﾗｹﾝ","cityKana":"ﾔﾏﾄｺｵﾘﾔﾏｼ","streetKana":"ｼﾛﾐﾁｮｳ","prefecture":"奈良県","city":"大和郡山市","street":"城見町"},{"zipCode":"6391143","prefectureKana":"ﾅﾗｹﾝ","cityKana":"ﾔﾏﾄｺｵﾘﾔﾏｼ","streetKana":"ｼﾝｺﾝﾔﾏﾁ","prefecture":"奈良県","city":"大和郡山市","street":"新紺屋町"},{"zipCode":"6391114","prefectureKana":"ﾅﾗｹﾝ","cityKana":"ﾔﾏﾄｺｵﾘﾔﾏｼ","streetKana":"ｼﾝｼﾞｮｳﾁｮｳ","prefecture":"奈良県","city":"大和郡山市","street":"新庄町"},{"zipCode":"6391157","prefectureKana":"ﾅﾗｹﾝ","cityKana":"ﾔﾏﾄｺｵﾘﾔﾏｼ","streetKana":"ｼﾝﾅｶﾏﾁ","prefecture":"奈良県","city":"大和郡山市","street":"新中町"},{"zipCode":"6391054","prefectureKana":"ﾅﾗｹﾝ","cityKana":"ﾔﾏﾄｺｵﾘﾔﾏｼ","streetKana":"ｼﾝﾏﾁ","prefecture":"奈良県","city":"大和郡山市","street":"新町"},{"zipCode":"6391121","prefectureKana":"ﾅﾗｹﾝ","cityKana":"ﾔﾏﾄｺｵﾘﾔﾏｼ","streetKana":"ｽｷﾞﾁｮｳ","prefecture":"奈良県","city":"大和郡山市","street":"杉町"},{"zipCode":"6391053","prefectureKana":"ﾅﾗｹﾝ","cityKana":"ﾔﾏﾄｺｵﾘﾔﾏｼ","streetKana":"ｾﾝﾆﾁﾁｮｳ","prefecture":"奈良県","city":"大和郡山市","street":"千日町"},{"zipCode":"6391003","prefectureKana":"ﾅﾗｹﾝ","cityKana":"ﾔﾏﾄｺｵﾘﾔﾏｼ","streetKana":"ﾀﾞｲｶﾝﾁｮｳ","prefecture":"奈良県","city":"大和郡山市","street":"代官町"},{"zipCode":"6391133","prefectureKana":"ﾅﾗｹﾝ","cityKana":"ﾔﾏﾄｺｵﾘﾔﾏｼ","streetKana":"ﾀｶﾀﾞｸﾞﾁﾁｮｳ","prefecture":"奈良県","city":"大和郡山市","street":"高田口町"},{"zipCode":"6391132","prefectureKana":"ﾅﾗｹﾝ","cityKana":"ﾔﾏﾄｺｵﾘﾔﾏｼ","streetKana":"ﾀｶﾀﾞﾁｮｳ","prefecture":"奈良県","city":"大和郡山市","street":"高田町"},{"zipCode":"6391028","prefectureKana":"ﾅﾗｹﾝ","cityKana":"ﾔﾏﾄｺｵﾘﾔﾏｼ","streetKana":"ﾀﾅｶﾁｮｳ","prefecture":"奈良県","city":"大和郡山市","street":"田中町"},{"zipCode":"6391122","prefectureKana":"ﾅﾗｹﾝ","cityKana":"ﾔﾏﾄｺｵﾘﾔﾏｼ","streetKana":"ﾀﾝｺﾞﾉｼｮｳﾁｮｳ","prefecture":"奈良県","city":"大和郡山市","street":"丹後庄町"},{"zipCode":"6391152","prefectureKana":"ﾅﾗｹﾝ","cityKana":"ﾔﾏﾄｺｵﾘﾔﾏｼ","streetKana":"ﾁｬﾏﾁ","prefecture":"奈良県","city":"大和郡山市","street":"茶町"},{"zipCode":"6391127","prefectureKana":"ﾅﾗｹﾝ","cityKana":"ﾔﾏﾄｺｵﾘﾔﾏｼ","streetKana":"ﾁｮｳｱﾝｼﾞﾁｮｳ","prefecture":"奈良県","city":"大和郡山市","street":"長安寺町"},{"zipCode":"6391123","prefectureKana":"ﾅﾗｹﾝ","cityKana":"ﾔﾏﾄｺｵﾘﾔﾏｼ","streetKana":"ﾂﾂｲﾁｮｳ","prefecture":"奈良県","city":"大和郡山市","street":"筒井町"},{"zipCode":"6391135","prefectureKana":"ﾅﾗｹﾝ","cityKana":"ﾔﾏﾄｺｵﾘﾔﾏｼ","streetKana":"ﾃﾝｼﾞｮｳﾁｮｳ","prefecture":"奈良県","city":"大和郡山市","street":"天井町"},{"zipCode":"6391006","prefectureKana":"ﾅﾗｹﾝ","cityKana":"ﾔﾏﾄｺｵﾘﾔﾏｼ","streetKana":"ﾃﾝﾘﾁｮｳ","prefecture":"奈良県","city":"大和郡山市","street":"天理町"},{"zipCode":"6391144","prefectureKana":"ﾅﾗｹﾝ","cityKana":"ﾔﾏﾄｺｵﾘﾔﾏｼ","streetKana":"ﾄｳｾﾝｼﾞﾁｮｳ","prefecture":"奈良県","city":"大和郡山市","street":"洞泉寺町"},{"zipCode":"6391149","prefectureKana":"ﾅﾗｹﾝ","cityKana":"ﾔﾏﾄｺｵﾘﾔﾏｼ","streetKana":"ﾄｳﾌﾏﾁ","prefecture":"奈良県","city":"大和郡山市","street":"豆腐町"},{"zipCode":"6391052","prefectureKana":"ﾅﾗｹﾝ","cityKana":"ﾔﾏﾄｺｵﾘﾔﾏｼ","streetKana":"ﾄｶﾞﾜﾁｮｳ","prefecture":"奈良県","city":"大和郡山市","street":"外川町"},{"zipCode":"6391022","prefectureKana":"ﾅﾗｹﾝ","cityKana":"ﾔﾏﾄｺｵﾘﾔﾏｼ","streetKana":"ﾄﾖｳﾗﾁｮｳ","prefecture":"奈良県","city":"大和郡山市","street":"豊浦町"},{"zipCode":"6391166","prefectureKana":"ﾅﾗｹﾝ","cityKana":"ﾔﾏﾄｺｵﾘﾔﾏｼ","streetKana":"ﾅｶｶｼﾞﾏﾁ","prefecture":"奈良県","city":"大和郡山市","street":"中鍛冶町"},{"zipCode":"6391118","prefectureKana":"ﾅﾗｹﾝ","cityKana":"ﾔﾏﾄｺｵﾘﾔﾏｼ","streetKana":"ﾅｶｼﾞｮｳﾁｮｳ","prefecture":"奈良県","city":"大和郡山市","street":"中城町"},{"zipCode":"6391159","prefectureKana":"ﾅﾗｹﾝ","cityKana":"ﾔﾏﾄｺｵﾘﾔﾏｼ","streetKana":"ﾅﾗﾏﾁ","prefecture":"奈良県","city":"大和郡山市","street":"奈良町"},{"zipCode":"6391021","prefectureKana":"ﾅﾗｹﾝ","cityKana":"ﾔﾏﾄｺｵﾘﾔﾏｼ","streetKana":"ﾆｷﾁｮｳ","prefecture":"奈良県","city":"大和郡山市","street":"新木町"},{"zipCode":"6391014","prefectureKana":"ﾅﾗｹﾝ","cityKana":"ﾔﾏﾄｺｵﾘﾔﾏｼ","streetKana":"ﾆｼｵｶﾁｮｳ","prefecture":"奈良県","city":"大和郡山市","street":"西岡町"},{"zipCode":"6391164","prefectureKana":"ﾅﾗｹﾝ","cityKana":"ﾔﾏﾄｺｵﾘﾔﾏｼ","streetKana":"ﾆｼｶﾝﾉﾝｼﾞﾁｮｳ","prefecture":"奈良県","city":"大和郡山市","street":"西観音寺町"},{"zipCode":"6391043","prefectureKana":"ﾅﾗｹﾝ","cityKana":"ﾔﾏﾄｺｵﾘﾔﾏｼ","streetKana":"ﾆｼﾀﾅｶﾁｮｳ","prefecture":"奈良県","city":"大和郡山市","street":"西田中町"},{"zipCode":"6391163","prefectureKana":"ﾅﾗｹﾝ","cityKana":"ﾔﾏﾄｺｵﾘﾔﾏｼ","streetKana":"ﾆｼﾅﾗｸﾞﾁﾁｮｳ","prefecture":"奈良県","city":"大和郡山市","street":"西奈良口町"},{"zipCode":"6391153","prefectureKana":"ﾅﾗｹﾝ","cityKana":"ﾔﾏﾄｺｵﾘﾔﾏｼ","streetKana":"ﾆｼﾉｶﾞｲﾄﾁｮｳ","prefecture":"奈良県","city":"大和郡山市","street":"西野垣内町"},{"zipCode":"6391038","prefectureKana":"ﾅﾗｹﾝ","cityKana":"ﾔﾏﾄｺｵﾘﾔﾏｼ","streetKana":"ﾆｼﾏﾁ","prefecture":"奈良県","city":"大和郡山市","street":"西町"},{"zipCode":"6391036","prefectureKana":"ﾅﾗｹﾝ","cityKana":"ﾔﾏﾄｺｵﾘﾔﾏｼ","streetKana":"ﾇｶﾀﾍﾞﾃﾗﾏﾁ","prefecture":"奈良県","city":"大和郡山市","street":"額田部寺町"},{"zipCode":"6391035","prefectureKana":"ﾅﾗｹﾝ","cityKana":"ﾔﾏﾄｺｵﾘﾔﾏｼ","streetKana":"ﾇｶﾀﾍﾞﾐﾅﾐﾁｮｳ","prefecture":"奈良県","city":"大和郡山市","street":"額田部南町"},{"zipCode":"6391037","prefectureKana":"ﾅﾗｹﾝ","cityKana":"ﾔﾏﾄｺｵﾘﾔﾏｼ","streetKana":"ﾇｶﾀﾍﾞｷﾀﾏﾁ","prefecture":"奈良県","city":"大和郡山市","street":"額田部北町"},{"zipCode":"6391131","prefectureKana":"ﾅﾗｹﾝ","cityKana":"ﾔﾏﾄｺｵﾘﾔﾏｼ","streetKana":"ﾉｶﾞｲﾄﾁｮｳ","prefecture":"奈良県","city":"大和郡山市","street":"野垣内町"},{"zipCode":"6391125","prefectureKana":"ﾅﾗｹﾝ","cityKana":"ﾔﾏﾄｺｵﾘﾔﾏｼ","streetKana":"ﾊﾁｼﾞｮｳﾁｮｳ","prefecture":"奈良県","city":"大和郡山市","street":"八条町"},{"zipCode":"6391119","prefectureKana":"ﾅﾗｹﾝ","cityKana":"ﾔﾏﾄｺｵﾘﾔﾏｼ","streetKana":"ﾊﾂｼｲﾝﾁｮｳ","prefecture":"奈良県","city":"大和郡山市","street":"発志院町"},{"zipCode":"6391105","prefectureKana":"ﾅﾗｹﾝ","cityKana":"ﾔﾏﾄｺｵﾘﾔﾏｼ","streetKana":"ﾊﾞﾝｼﾞｮｳﾀﾅｶﾁｮｳ","prefecture":"奈良県","city":"大和郡山市","street":"番匠田中町"},{"zipCode":"6391117","prefectureKana":"ﾅﾗｹﾝ","cityKana":"ﾔﾏﾄｺｵﾘﾔﾏｼ","streetKana":"ﾊﾞﾝｼﾞｮｳﾁｮｳ","prefecture":"奈良県","city":"大和郡山市","street":"番条町"},{"zipCode":"6391108","prefectureKana":"ﾅﾗｹﾝ","cityKana":"ﾔﾏﾄｺｵﾘﾔﾏｼ","streetKana":"ﾋｴﾀﾞﾁｮｳ","prefecture":"奈良県","city":"大和郡山市","street":"稗田町"},{"zipCode":"6391137","prefectureKana":"ﾅﾗｹﾝ","cityKana":"ﾔﾏﾄｺｵﾘﾔﾏｼ","streetKana":"ﾋｶﾞｼｵｶﾁｮｳ","prefecture":"奈良県","city":"大和郡山市","street":"東岡町"},{"zipCode":"6391162","prefectureKana":"ﾅﾗｹﾝ","cityKana":"ﾔﾏﾄｺｵﾘﾔﾏｼ","streetKana":"ﾋｶﾞｼﾅﾗｸﾞﾁﾁｮｳ","prefecture":"奈良県","city":"大和郡山市","street":"東奈良口町"},{"zipCode":"6391017","prefectureKana":"ﾅﾗｹﾝ","cityKana":"ﾔﾏﾄｺｵﾘﾔﾏｼ","streetKana":"ﾌｼﾞﾜﾗﾁｮｳ","prefecture":"奈良県","city":"大和郡山市","street":"藤原町"},{"zipCode":"6391136","prefectureKana":"ﾅﾗｹﾝ","cityKana":"ﾔﾏﾄｺｵﾘﾔﾏｼ","streetKana":"ﾎﾝｼﾞｮｳﾁｮｳ","prefecture":"奈良県","city":"大和郡山市","street":"本庄町"},{"zipCode":"6391151","prefectureKana":"ﾅﾗｹﾝ","cityKana":"ﾔﾏﾄｺｵﾘﾔﾏｼ","streetKana":"ﾎﾝﾏﾁ","prefecture":"奈良県","city":"大和郡山市","street":"本町"},{"zipCode":"6391124","prefectureKana":"ﾅﾗｹﾝ","cityKana":"ﾔﾏﾄｺｵﾘﾔﾏｼ","streetKana":"ﾏﾂｶｻﾁｮｳ","prefecture":"奈良県","city":"大和郡山市","street":"馬司町"},{"zipCode":"6391041","prefectureKana":"ﾅﾗｹﾝ","cityKana":"ﾔﾏﾄｺｵﾘﾔﾏｼ","streetKana":"ﾏﾝｶﾞﾝｼﾞﾁｮｳ","prefecture":"奈良県","city":"大和郡山市","street":"満願寺町"},{"zipCode":"6391024","prefectureKana":"ﾅﾗｹﾝ","cityKana":"ﾔﾏﾄｺｵﾘﾔﾏｼ","streetKana":"ﾐﾅﾐｲﾁｮｳ","prefecture":"奈良県","city":"大和郡山市","street":"南井町"},{"zipCode":"6391167","prefectureKana":"ﾅﾗｹﾝ","cityKana":"ﾔﾏﾄｺｵﾘﾔﾏｼ","streetKana":"ﾐﾅﾐｶｼﾞﾏﾁ","prefecture":"奈良県","city":"大和郡山市","street":"南鍛冶町"},{"zipCode":"6391007","prefectureKana":"ﾅﾗｹﾝ","cityKana":"ﾔﾏﾄｺｵﾘﾔﾏｼ","streetKana":"ﾐﾅﾐｺｵﾘﾔﾏﾁｮｳ","prefecture":"奈良県","city":"大和郡山市","street":"南郡山町"},{"zipCode":"6391145","prefectureKana":"ﾅﾗｹﾝ","cityKana":"ﾔﾏﾄｺｵﾘﾔﾏｼ","streetKana":"ﾐﾅﾐﾀﾞｲｸﾏﾁ","prefecture":"奈良県","city":"大和郡山市","street":"南大工町"},{"zipCode":"6391103","prefectureKana":"ﾅﾗｹﾝ","cityKana":"ﾔﾏﾄｺｵﾘﾔﾏｼ","streetKana":"ﾐﾉｼｮｳﾁｮｳ","prefecture":"奈良県","city":"大和郡山市","street":"美濃庄町"},{"zipCode":"6391015","prefectureKana":"ﾅﾗｹﾝ","cityKana":"ﾔﾏﾄｺｵﾘﾔﾏｼ","streetKana":"ﾐﾉﾔﾏﾁｮｳ","prefecture":"奈良県","city":"大和郡山市","street":"箕山町"},{"zipCode":"6391126","prefectureKana":"ﾅﾗｹﾝ","cityKana":"ﾔﾏﾄｺｵﾘﾔﾏｼ","streetKana":"ﾐﾔﾄﾞｳﾁｮｳ","prefecture":"奈良県","city":"大和郡山市","street":"宮堂町"},{"zipCode":"6391058","prefectureKana":"ﾅﾗｹﾝ","cityKana":"ﾔﾏﾄｺｵﾘﾔﾏｼ","streetKana":"ﾔﾀﾁｮｳ","prefecture":"奈良県","city":"大和郡山市","street":"矢田町"},{"zipCode":"6391142","prefectureKana":"ﾅﾗｹﾝ","cityKana":"ﾔﾏﾄｺｵﾘﾔﾏｼ","streetKana":"ﾔﾀﾏﾁﾄﾞｵﾘ","prefecture":"奈良県","city":"大和郡山市","street":"矢田町通"},{"zipCode":"6391055","prefectureKana":"ﾅﾗｹﾝ","cityKana":"ﾔﾏﾄｺｵﾘﾔﾏｼ","streetKana":"ﾔﾀﾔﾏﾁｮｳ","prefecture":"奈良県","city":"大和郡山市","street":"矢田山町"},{"zipCode":"6391134","prefectureKana":"ﾅﾗｹﾝ","cityKana":"ﾔﾏﾄｺｵﾘﾔﾏｼ","streetKana":"ﾔﾅｷﾞ","prefecture":"奈良県","city":"大和郡山市","street":"柳"},{"zipCode":"6391134","prefectureKana":"ﾅﾗｹﾝ","cityKana":"ﾔﾏﾄｺｵﾘﾔﾏｼ","streetKana":"ﾔﾅｷﾞﾏﾁ","prefecture":"奈良県","city":"大和郡山市","street":"柳町"},{"zipCode":"6391057","prefectureKana":"ﾅﾗｹﾝ","cityKana":"ﾔﾏﾄｺｵﾘﾔﾏｼ","streetKana":"ﾔﾏﾀﾞﾁｮｳ","prefecture":"奈良県","city":"大和郡山市","street":"山田町"},{"zipCode":"6391115","prefectureKana":"ﾅﾗｹﾝ","cityKana":"ﾔﾏﾄｺｵﾘﾔﾏｼ","streetKana":"ﾖｺﾀﾁｮｳ","prefecture":"奈良県","city":"大和郡山市","street":"横田町"},{"zipCode":"6391107","prefectureKana":"ﾅﾗｹﾝ","cityKana":"ﾔﾏﾄｺｵﾘﾔﾏｼ","streetKana":"ﾜｶﾂｷﾁｮｳ","prefecture":"奈良県","city":"大和郡山市","street":"若槻町"},{"zipCode":"6391154","prefectureKana":"ﾅﾗｹﾝ","cityKana":"ﾔﾏﾄｺｵﾘﾔﾏｼ","streetKana":"ﾜﾀﾏﾁ","prefecture":"奈良県","city":"大和郡山市","street":"綿町"},{"zipCode":"6392200","prefectureKana":"ﾅﾗｹﾝ","cityKana":"ｺﾞｾｼ","streetKana":"ｲｶﾆｹｲｻｲｶﾞﾅｲﾊﾞｱｲ","prefecture":"奈良県","city":"御所市","street":"以下に掲載がない場合"},{"zipCode":"6392341","prefectureKana":"ﾅﾗｹﾝ","cityKana":"ｺﾞｾｼ","streetKana":"ｱｻﾂﾞﾏ","prefecture":"奈良県","city":"御所市","street":"朝妻"},{"zipCode":"6392239","prefectureKana":"ﾅﾗｹﾝ","cityKana":"ｺﾞｾｼ","streetKana":"ｱｻﾋﾏﾁ","prefecture":"奈良県","city":"御所市","street":"旭町"},{"zipCode":"6392255","prefectureKana":"ﾅﾗｹﾝ","cityKana":"ｺﾞｾｼ","streetKana":"ｱｻﾏﾁ","prefecture":"奈良県","city":"御所市","street":"朝町"},{"zipCode":"6392264","prefectureKana":"ﾅﾗｹﾝ","cityKana":"ｺﾞｾｼ","streetKana":"ｲｳｶ","prefecture":"奈良県","city":"御所市","street":"五百家"},{"zipCode":"6392273","prefectureKana":"ﾅﾗｹﾝ","cityKana":"ｺﾞｾｼ","streetKana":"ｲｹﾉｳﾁ","prefecture":"奈良県","city":"御所市","street":"池之内"},{"zipCode":"6392326","prefectureKana":"ﾅﾗｹﾝ","cityKana":"ｺﾞｾｼ","streetKana":"ｲﾄﾞ","prefecture":"奈良県","city":"御所市","street":"井戸"},{"zipCode":"6392258","prefectureKana":"ﾅﾗｹﾝ","cityKana":"ｺﾞｾｼ","streetKana":"ｲﾅｲﾄﾞ","prefecture":"奈良県","city":"御所市","street":"稲宿"},{"zipCode":"6392245","prefectureKana":"ﾅﾗｹﾝ","cityKana":"ｺﾞｾｼ","streetKana":"ｲﾏｽﾞﾐ","prefecture":"奈良県","city":"御所市","street":"今住"},{"zipCode":"6392279","prefectureKana":"ﾅﾗｹﾝ","cityKana":"ｺﾞｾｼ","streetKana":"ｲﾏﾃﾞ","prefecture":"奈良県","city":"御所市","street":"今出"},{"zipCode":"6392207","prefectureKana":"ﾅﾗｹﾝ","cityKana":"ｺﾞｾｼ","streetKana":"ｲﾏﾝｼﾞｮｳ","prefecture":"奈良県","city":"御所市","street":"今城"},{"zipCode":"6392267","prefectureKana":"ﾅﾗｹﾝ","cityKana":"ｺﾞｾｼ","streetKana":"ｳﾁﾀﾆ","prefecture":"奈良県","city":"御所市","street":"内谷"},{"zipCode":"6392323","prefectureKana":"ﾅﾗｹﾝ","cityKana":"ｺﾞｾｼ","streetKana":"ｵｲﾀﾞ","prefecture":"奈良県","city":"御所市","street":"多田"},{"zipCode":"6392238","prefectureKana":"ﾅﾗｹﾝ","cityKana":"ｺﾞｾｼ","streetKana":"ｵｵﾊｼﾄﾞｵﾘ","prefecture":"奈良県","city":"御所市","street":"大橋通り"},{"zipCode":"6392304","prefectureKana":"ﾅﾗｹﾝ","cityKana":"ｺﾞｾｼ","streetKana":"ｵｵﾋﾛﾁｮｳ","prefecture":"奈良県","city":"御所市","street":"大広町"},{"zipCode":"6392257","prefectureKana":"ﾅﾗｹﾝ","cityKana":"ｺﾞｾｼ","streetKana":"ｵﾄﾞﾉ","prefecture":"奈良県","city":"御所市","street":"小殿"},{"zipCode":"6392231","prefectureKana":"ﾅﾗｹﾝ","cityKana":"ｺﾞｾｼ","streetKana":"ｶｷｶﾞﾂﾎﾞﾁｮｳ","prefecture":"奈良県","city":"御所市","street":"柿ケ坪町"},{"zipCode":"6392244","prefectureKana":"ﾅﾗｹﾝ","cityKana":"ｺﾞｾｼ","streetKana":"ｶｼﾊﾗ","prefecture":"奈良県","city":"御所市","street":"柏原"},{"zipCode":"6392343","prefectureKana":"ﾅﾗｹﾝ","cityKana":"ｺﾞｾｼ","streetKana":"ｶﾓｶﾞﾐ","prefecture":"奈良県","city":"御所市","street":"鴨神"},{"zipCode":"6392229","prefectureKana":"ﾅﾗｹﾝ","cityKana":"ｺﾞｾｼ","streetKana":"ｶﾓｸﾞﾁﾁｮｳ","prefecture":"奈良県","city":"御所市","street":"鴨口町"},{"zipCode":"6392334","prefectureKana":"ﾅﾗｹﾝ","cityKana":"ｺﾞｾｼ","streetKana":"ｷﾀｸﾎﾞ","prefecture":"奈良県","city":"御所市","street":"北窪"},{"zipCode":"6392203","prefectureKana":"ﾅﾗｹﾝ","cityKana":"ｺﾞｾｼ","streetKana":"ｷﾀｼﾞｭｳｿ","prefecture":"奈良県","city":"御所市","street":"北十三"},{"zipCode":"6392312","prefectureKana":"ﾅﾗｹﾝ","cityKana":"ｺﾞｾｼ","streetKana":"ｸｼﾞﾗ","prefecture":"奈良県","city":"御所市","street":"櫛羅"},{"zipCode":"6392256","prefectureKana":"ﾅﾗｹﾝ","cityKana":"ｺﾞｾｼ","streetKana":"ｸﾘｻｶ","prefecture":"奈良県","city":"御所市","street":"栗阪"},{"zipCode":"6392337","prefectureKana":"ﾅﾗｹﾝ","cityKana":"ｺﾞｾｼ","streetKana":"ｺﾞｸﾗｸｼﾞ","prefecture":"奈良県","city":"御所市","street":"極楽寺"},{"zipCode":"6392254","prefectureKana":"ﾅﾗｹﾝ","cityKana":"ｺﾞｾｼ","streetKana":"ｺｾ","prefecture":"奈良県","city":"御所市","street":"古瀬"},{"zipCode":"6392311","prefectureKana":"ﾅﾗｹﾝ","cityKana":"ｺﾞｾｼ","streetKana":"ｺﾊﾞﾔｼ","prefecture":"奈良県","city":"御所市","street":"小林"},{"zipCode":"6392224","prefectureKana":"ﾅﾗｹﾝ","cityKana":"ｺﾞｾｼ","streetKana":"ｻｲｶｼﾁｮｳ","prefecture":"奈良県","city":"御所市","street":"西柏町"},{"zipCode":"6392314","prefectureKana":"ﾅﾗｹﾝ","cityKana":"ｺﾞｾｼ","streetKana":"ｻｲﾜｲﾁｮｳ","prefecture":"奈良県","city":"御所市","street":"幸町"},{"zipCode":"6392221","prefectureKana":"ﾅﾗｹﾝ","cityKana":"ｺﾞｾｼ","streetKana":"ｻｶｴﾏﾁ","prefecture":"奈良県","city":"御所市","street":"栄町"},{"zipCode":"6392325","prefectureKana":"ﾅﾗｹﾝ","cityKana":"ｺﾞｾｼ","streetKana":"ｻﾀﾞ","prefecture":"奈良県","city":"御所市","street":"佐田"},{"zipCode":"6392272","prefectureKana":"ﾅﾗｹﾝ","cityKana":"ｺﾞｾｼ","streetKana":"ｻﾗｷﾞ","prefecture":"奈良県","city":"御所市","street":"蛇穴"},{"zipCode":"6392211","prefectureKana":"ﾅﾗｹﾝ","cityKana":"ｺﾞｾｼ","streetKana":"ｼﾞｪｲｱｰﾙｺﾞｾｴｷﾏｴﾄﾞｵﾘ","prefecture":"奈良県","city":"御所市","street":"ＪＲ御所駅前通り"},{"zipCode":"6392324","prefectureKana":"ﾅﾗｹﾝ","cityKana":"ｺﾞｾｼ","streetKana":"ｼﾓﾉﾁｬﾔ","prefecture":"奈良県","city":"御所市","street":"下茶屋"},{"zipCode":"6392276","prefectureKana":"ﾅﾗｹﾝ","cityKana":"ｺﾞｾｼ","streetKana":"ｼﾞｮｳ","prefecture":"奈良県","city":"御所市","street":"條"},{"zipCode":"6392261","prefectureKana":"ﾅﾗｹﾝ","cityKana":"ｺﾞｾｼ","streetKana":"ｼﾛﾔﾏﾀﾞｲ","prefecture":"奈良県","city":"御所市","street":"城山台"},{"zipCode":"6392213","prefectureKana":"ﾅﾗｹﾝ","cityKana":"ｺﾞｾｼ","streetKana":"ｼﾞﾝｸﾞｳﾁｮｳ","prefecture":"奈良県","city":"御所市","street":"神宮町"},{"zipCode":"6392217","prefectureKana":"ﾅﾗｹﾝ","cityKana":"ｺﾞｾｼ","streetKana":"ｼﾝﾁﾏﾁ","prefecture":"奈良県","city":"御所市","street":"新地町"},{"zipCode":"6392265","prefectureKana":"ﾅﾗｹﾝ","cityKana":"ｺﾞｾｼ","streetKana":"ｼﾝﾃﾞﾝ","prefecture":"奈良県","city":"御所市","street":"新田"},{"zipCode":"6392235","prefectureKana":"ﾅﾗｹﾝ","cityKana":"ｺﾞｾｼ","streetKana":"ｼﾞﾅｲﾁｮｳ","prefecture":"奈良県","city":"御所市","street":"寺内町"},{"zipCode":"6392303","prefectureKana":"ﾅﾗｹﾝ","cityKana":"ｺﾞｾｼ","streetKana":"ｽｴﾋﾛﾁｮｳ","prefecture":"奈良県","city":"御所市","street":"末広町"},{"zipCode":"6392328","prefectureKana":"ﾅﾗｹﾝ","cityKana":"ｺﾞｾｼ","streetKana":"ｾｷﾔ","prefecture":"奈良県","city":"御所市","street":"関屋"},{"zipCode":"6392342","prefectureKana":"ﾅﾗｹﾝ","cityKana":"ｺﾞｾｼ","streetKana":"ｿｳﾄﾞｳ","prefecture":"奈良県","city":"御所市","street":"僧堂"},{"zipCode":"6392236","prefectureKana":"ﾅﾗｹﾝ","cityKana":"ｺﾞｾｼ","streetKana":"ﾀﾞｲｶﾝﾏﾁ","prefecture":"奈良県","city":"御所市","street":"代官町"},{"zipCode":"6392336","prefectureKana":"ﾅﾗｹﾝ","cityKana":"ｺﾞｾｼ","streetKana":"ﾀｶﾏ","prefecture":"奈良県","city":"御所市","street":"高天"},{"zipCode":"6392206","prefectureKana":"ﾅﾗｹﾝ","cityKana":"ｺﾞｾｼ","streetKana":"ﾀｹﾀﾞ","prefecture":"奈良県","city":"御所市","street":"竹田"},{"zipCode":"6392247","prefectureKana":"ﾅﾗｹﾝ","cityKana":"ｺﾞｾｼ","streetKana":"ﾀﾏﾃﾞ","prefecture":"奈良県","city":"御所市","street":"玉手"},{"zipCode":"6392241","prefectureKana":"ﾅﾗｹﾝ","cityKana":"ｺﾞｾｼ","streetKana":"ﾁﾊﾗ","prefecture":"奈良県","city":"御所市","street":"茅原"},{"zipCode":"6392212","prefectureKana":"ﾅﾗｹﾝ","cityKana":"ｺﾞｾｼ","streetKana":"ﾁｭｳｵｳﾄﾞｵﾘ","prefecture":"奈良県","city":"御所市","street":"中央通り"},{"zipCode":"6392275","prefectureKana":"ﾅﾗｹﾝ","cityKana":"ｺﾞｾｼ","streetKana":"ﾃﾞﾊｼﾘ","prefecture":"奈良県","city":"御所市","street":"出走"},{"zipCode":"6392202","prefectureKana":"ﾅﾗｹﾝ","cityKana":"ｺﾞｾｼ","streetKana":"ﾃﾞﾔｼｷ","prefecture":"奈良県","city":"御所市","street":"出屋敷"},{"zipCode":"6392251","prefectureKana":"ﾅﾗｹﾝ","cityKana":"ｺﾞｾｼ","streetKana":"ﾄｳｹﾞ","prefecture":"奈良県","city":"御所市","street":"戸毛"},{"zipCode":"6392274","prefectureKana":"ﾅﾗｹﾝ","cityKana":"ｺﾞｾｼ","streetKana":"ﾄﾐﾀ","prefecture":"奈良県","city":"御所市","street":"冨田"},{"zipCode":"6392317","prefectureKana":"ﾅﾗｹﾝ","cityKana":"ｺﾞｾｼ","streetKana":"ﾄﾖﾀﾞ","prefecture":"奈良県","city":"御所市","street":"豊田"},{"zipCode":"6392263","prefectureKana":"ﾅﾗｹﾝ","cityKana":"ｺﾞｾｼ","streetKana":"ﾄﾘｲﾄﾞ","prefecture":"奈良県","city":"御所市","street":"鳥井戸"},{"zipCode":"6392225","prefectureKana":"ﾅﾗｹﾝ","cityKana":"ｺﾞｾｼ","streetKana":"ﾅｶﾎﾝﾏﾁ","prefecture":"奈良県","city":"御所市","street":"中本町"},{"zipCode":"6392321","prefectureKana":"ﾅﾗｹﾝ","cityKana":"ｺﾞｾｼ","streetKana":"ﾅｶﾞﾗ","prefecture":"奈良県","city":"御所市","street":"名柄"},{"zipCode":"6392313","prefectureKana":"ﾅﾗｹﾝ","cityKana":"ｺﾞｾｼ","streetKana":"ﾅﾗﾊﾞﾗ","prefecture":"奈良県","city":"御所市","street":"楢原"},{"zipCode":"6392331","prefectureKana":"ﾅﾗｹﾝ","cityKana":"ｺﾞｾｼ","streetKana":"ﾅﾝｺﾞｳ","prefecture":"奈良県","city":"御所市","street":"南郷"},{"zipCode":"6392335","prefectureKana":"ﾅﾗｹﾝ","cityKana":"ｺﾞｾｼ","streetKana":"ﾆｼｷﾀｸﾎﾞ","prefecture":"奈良県","city":"御所市","street":"西北窪"},{"zipCode":"6392228","prefectureKana":"ﾅﾗｹﾝ","cityKana":"ｺﾞｾｼ","streetKana":"ﾆｼｸﾎﾞﾎﾝﾏﾁ","prefecture":"奈良県","city":"御所市","street":"西久保本町"},{"zipCode":"6392345","prefectureKana":"ﾅﾗｹﾝ","cityKana":"ｺﾞｾｼ","streetKana":"ﾆｼｻﾋﾞ","prefecture":"奈良県","city":"御所市","street":"西佐味"},{"zipCode":"6392316","prefectureKana":"ﾅﾗｹﾝ","cityKana":"ｺﾞｾｼ","streetKana":"ﾆｼﾃﾗﾀﾞ","prefecture":"奈良県","city":"御所市","street":"西寺田"},{"zipCode":"6392215","prefectureKana":"ﾅﾗｹﾝ","cityKana":"ｺﾞｾｼ","streetKana":"ﾆｼﾏﾁ","prefecture":"奈良県","city":"御所市","street":"西町"},{"zipCode":"6392332","prefectureKana":"ﾅﾗｹﾝ","cityKana":"ｺﾞｾｼ","streetKana":"ﾆｼﾓｯﾀ","prefecture":"奈良県","city":"御所市","street":"西持田"},{"zipCode":"6392333","prefectureKana":"ﾅﾗｹﾝ","cityKana":"ｺﾞｾｼ","streetKana":"ﾊﾔｼ","prefecture":"奈良県","city":"御所市","street":"林"},{"zipCode":"6392246","prefectureKana":"ﾅﾗｹﾝ","cityKana":"ｺﾞｾｼ","streetKana":"ﾊﾗﾀﾞﾆ","prefecture":"奈良県","city":"御所市","street":"原谷"},{"zipCode":"6392227","prefectureKana":"ﾅﾗｹﾝ","cityKana":"ｺﾞｾｼ","streetKana":"ﾋｶﾞｼｸﾎﾞﾁｮｳ","prefecture":"奈良県","city":"御所市","street":"東久保町"},{"zipCode":"6392344","prefectureKana":"ﾅﾗｹﾝ","cityKana":"ｺﾞｾｼ","streetKana":"ﾋｶﾞｼｻﾋﾞ","prefecture":"奈良県","city":"御所市","street":"東佐味"},{"zipCode":"6392205","prefectureKana":"ﾅﾗｹﾝ","cityKana":"ｺﾞｾｼ","streetKana":"ﾋｶﾞｼﾂｼﾞ","prefecture":"奈良県","city":"御所市","street":"東辻"},{"zipCode":"6392243","prefectureKana":"ﾅﾗｹﾝ","cityKana":"ｺﾞｾｼ","streetKana":"ﾋｶﾞｼﾃﾗﾀﾞ","prefecture":"奈良県","city":"御所市","street":"東寺田"},{"zipCode":"6392322","prefectureKana":"ﾅﾗｹﾝ","cityKana":"ｺﾞｾｼ","streetKana":"ﾋｶﾞｼﾅｶﾞﾗ","prefecture":"奈良県","city":"御所市","street":"東名柄"},{"zipCode":"6392302","prefectureKana":"ﾅﾗｹﾝ","cityKana":"ｺﾞｾｼ","streetKana":"ﾋｶﾞｼﾏﾂﾓﾄ","prefecture":"奈良県","city":"御所市","street":"東松本"},{"zipCode":"6392262","prefectureKana":"ﾅﾗｹﾝ","cityKana":"ｺﾞｾｼ","streetKana":"ﾋｶﾞｼﾓｯﾀ","prefecture":"奈良県","city":"御所市","street":"東持田"},{"zipCode":"6392252","prefectureKana":"ﾅﾗｹﾝ","cityKana":"ｺﾞｾｼ","streetKana":"ﾋﾉ","prefecture":"奈良県","city":"御所市","street":"樋野"},{"zipCode":"6392346","prefectureKana":"ﾅﾗｹﾝ","cityKana":"ｺﾞｾｼ","streetKana":"ﾌｼﾐ","prefecture":"奈良県","city":"御所市","street":"伏見"},{"zipCode":"6392268","prefectureKana":"ﾅﾗｹﾝ","cityKana":"ｺﾞｾｼ","streetKana":"ﾌﾅｼﾞ","prefecture":"奈良県","city":"御所市","street":"船路"},{"zipCode":"6392253","prefectureKana":"ﾅﾗｹﾝ","cityKana":"ｺﾞｾｼ","streetKana":"ﾌﾞﾝｾﾞ","prefecture":"奈良県","city":"御所市","street":"奉膳"},{"zipCode":"6392266","prefectureKana":"ﾅﾗｹﾝ","cityKana":"ｺﾞｾｼ","streetKana":"ﾍｲｻｶ","prefecture":"奈良県","city":"御所市","street":"重阪"},{"zipCode":"6392237","prefectureKana":"ﾅﾗｹﾝ","cityKana":"ｺﾞｾｼ","streetKana":"ﾎｳﾈﾝﾊﾞｼﾄﾞｵﾘ","prefecture":"奈良県","city":"御所市","street":"豊年橋通り"},{"zipCode":"6392242","prefectureKana":"ﾅﾗｹﾝ","cityKana":"ｺﾞｾｼ","streetKana":"ﾎﾝﾏ","prefecture":"奈良県","city":"御所市","street":"本馬"},{"zipCode":"6392223","prefectureKana":"ﾅﾗｹﾝ","cityKana":"ｺﾞｾｼ","streetKana":"ﾎﾝﾏﾁ","prefecture":"奈良県","city":"御所市","street":"本町"},{"zipCode":"6392327","prefectureKana":"ﾅﾗｹﾝ","cityKana":"ｺﾞｾｼ","streetKana":"ﾏｼ","prefecture":"奈良県","city":"御所市","street":"増"},{"zipCode":"6392232","prefectureKana":"ﾅﾗｹﾝ","cityKana":"ｺﾞｾｼ","streetKana":"ﾐｶﾄﾞﾁｮｳ","prefecture":"奈良県","city":"御所市","street":"御門町"},{"zipCode":"6392216","prefectureKana":"ﾅﾗｹﾝ","cityKana":"ｺﾞｾｼ","streetKana":"ﾐｸﾆﾄﾞｵﾘ","prefecture":"奈良県","city":"御所市","street":"御国通り"},{"zipCode":"6392214","prefectureKana":"ﾅﾗｹﾝ","cityKana":"ｺﾞｾｼ","streetKana":"ﾐﾄﾞｳｳｵﾝﾀﾅﾁｮｳ","prefecture":"奈良県","city":"御所市","street":"御堂魚棚町"},{"zipCode":"6392278","prefectureKana":"ﾅﾗｹﾝ","cityKana":"ｺﾞｾｼ","streetKana":"ﾐﾄﾞﾘｶﾞｵｶ","prefecture":"奈良県","city":"御所市","street":"緑ケ丘"},{"zipCode":"6392248","prefectureKana":"ﾅﾗｹﾝ","cityKana":"ｺﾞｾｼ","streetKana":"ﾐﾄﾞﾘﾏﾁ","prefecture":"奈良県","city":"御所市","street":"緑町"},{"zipCode":"6392204","prefectureKana":"ﾅﾗｹﾝ","cityKana":"ｺﾞｾｼ","streetKana":"ﾐﾅﾐｼﾞｭｳｿ","prefecture":"奈良県","city":"御所市","street":"南十三"},{"zipCode":"6392226","prefectureKana":"ﾅﾗｹﾝ","cityKana":"ｺﾞｾｼ","streetKana":"ﾐﾅﾐﾅｶﾏﾁ","prefecture":"奈良県","city":"御所市","street":"南中町"},{"zipCode":"6392306","prefectureKana":"ﾅﾗｹﾝ","cityKana":"ｺﾞｾｼ","streetKana":"ﾐﾑﾛ","prefecture":"奈良県","city":"御所市","street":"三室"},{"zipCode":"6392233","prefectureKana":"ﾅﾗｹﾝ","cityKana":"ｺﾞｾｼ","streetKana":"ﾐﾔｺﾏﾁ","prefecture":"奈良県","city":"御所市","street":"都町"},{"zipCode":"6392315","prefectureKana":"ﾅﾗｹﾝ","cityKana":"ｺﾞｾｼ","streetKana":"ﾐﾔﾄﾞ","prefecture":"奈良県","city":"御所市","street":"宮戸"},{"zipCode":"6392271","prefectureKana":"ﾅﾗｹﾝ","cityKana":"ｺﾞｾｼ","streetKana":"ﾐﾔﾏｴﾏﾁ","prefecture":"奈良県","city":"御所市","street":"宮前町"},{"zipCode":"6392277","prefectureKana":"ﾅﾗｹﾝ","cityKana":"ｺﾞｾｼ","streetKana":"ﾑﾛ","prefecture":"奈良県","city":"御所市","street":"室"},{"zipCode":"6392262","prefectureKana":"ﾅﾗｹﾝ","cityKana":"ｺﾞｾｼ","streetKana":"ﾓｯﾀ","prefecture":"奈良県","city":"御所市","street":"持田"},{"zipCode":"6392301","prefectureKana":"ﾅﾗｹﾝ","cityKana":"ｺﾞｾｼ","streetKana":"ﾓﾄﾏﾁ","prefecture":"奈良県","city":"御所市","street":"元町"},{"zipCode":"6392318","prefectureKana":"ﾅﾗｹﾝ","cityKana":"ｺﾞｾｼ","streetKana":"ﾓﾘﾜｷ","prefecture":"奈良県","city":"御所市","street":"森脇"},{"zipCode":"6392305","prefectureKana":"ﾅﾗｹﾝ","cityKana":"ｺﾞｾｼ","streetKana":"ﾔﾅｷﾞﾀﾞﾁｮｳ","prefecture":"奈良県","city":"御所市","street":"柳田町"},{"zipCode":"6392201","prefectureKana":"ﾅﾗｹﾝ","cityKana":"ｺﾞｾｼ","streetKana":"ﾔﾅｷﾞﾊﾗ","prefecture":"奈良県","city":"御所市","street":"柳原"},{"zipCode":"6392234","prefectureKana":"ﾅﾗｹﾝ","cityKana":"ｺﾞｾｼ","streetKana":"ﾔﾅｷﾞﾏﾁ","prefecture":"奈良県","city":"御所市","street":"柳町"},{"zipCode":"6392222","prefectureKana":"ﾅﾗｹﾝ","cityKana":"ｺﾞｾｼ","streetKana":"ﾛｯｹﾝﾏﾁ","prefecture":"奈良県","city":"御所市","street":"六軒町"},{"zipCode":"6390200","prefectureKana":"ﾅﾗｹﾝ","cityKana":"ｶｼﾊﾞｼ","streetKana":"ｲｶﾆｹｲｻｲｶﾞﾅｲﾊﾞｱｲ","prefecture":"奈良県","city":"香芝市","street":"以下に掲載がない場合"},{"zipCode":"6390266","prefectureKana":"ﾅﾗｹﾝ","cityKana":"ｶｼﾊﾞｼ","streetKana":"ｱｻﾋｶﾞｵｶ","prefecture":"奈良県","city":"香芝市","street":"旭ケ丘"},{"zipCode":"6390252","prefectureKana":"ﾅﾗｹﾝ","cityKana":"ｶｼﾊﾞｼ","streetKana":"ｱﾅﾑｼ","prefecture":"奈良県","city":"香芝市","street":"穴虫"},{"zipCode":"6390236","prefectureKana":"ﾅﾗｹﾝ","cityKana":"ｶｼﾊﾞｼ","streetKana":"ｲｿｶﾍﾞ","prefecture":"奈良県","city":"香芝市","street":"磯壁"},{"zipCode":"6390264","prefectureKana":"ﾅﾗｹﾝ","cityKana":"ｶｼﾊﾞｼ","streetKana":"ｲﾏｲｽﾞﾐ","prefecture":"奈良県","city":"香芝市","street":"今泉"},{"zipCode":"6390251","prefectureKana":"ﾅﾗｹﾝ","cityKana":"ｶｼﾊﾞｼ","streetKana":"ｵｳｻｶ","prefecture":"奈良県","city":"香芝市","street":"逢坂"},{"zipCode":"6390227","prefectureKana":"ﾅﾗｹﾝ","cityKana":"ｶｼﾊﾞｼ","streetKana":"ｶﾏﾀﾞ","prefecture":"奈良県","city":"香芝市","street":"鎌田"},{"zipCode":"6390265","prefectureKana":"ﾅﾗｹﾝ","cityKana":"ｶｼﾊﾞｼ","streetKana":"ｶﾐﾅｶ","prefecture":"奈良県","city":"香芝市","street":"上中"},{"zipCode":"6390225","prefectureKana":"ﾅﾗｹﾝ","cityKana":"ｶｼﾊﾞｼ","streetKana":"ｶﾜﾗｸﾞﾁ","prefecture":"奈良県","city":"香芝市","street":"瓦口"},{"zipCode":"6390242","prefectureKana":"ﾅﾗｹﾝ","cityKana":"ｶｼﾊﾞｼ","streetKana":"ｷﾀｲﾏｲﾁ","prefecture":"奈良県","city":"香芝市","street":"北今市"},{"zipCode":"6390234","prefectureKana":"ﾅﾗｹﾝ","cityKana":"ｶｼﾊﾞｼ","streetKana":"ｷﾂｲ","prefecture":"奈良県","city":"香芝市","street":"狐井"},{"zipCode":"6390226","prefectureKana":"ﾅﾗｹﾝ","cityKana":"ｶｼﾊﾞｼ","streetKana":"ｺﾞｲﾄﾞｳ","prefecture":"奈良県","city":"香芝市","street":"五位堂"},{"zipCode":"6390221","prefectureKana":"ﾅﾗｹﾝ","cityKana":"ｶｼﾊﾞｼ","streetKana":"ｺﾞｶｼｮ","prefecture":"奈良県","city":"香芝市","street":"五ケ所"},{"zipCode":"6390233","prefectureKana":"ﾅﾗｹﾝ","cityKana":"ｶｼﾊﾞｼ","streetKana":"ｼﾓﾀﾞ","prefecture":"奈良県","city":"香芝市","street":"下田"},{"zipCode":"6390232","prefectureKana":"ﾅﾗｹﾝ","cityKana":"ｶｼﾊﾞｼ","streetKana":"ｼﾓﾀﾞﾋｶﾞｼ","prefecture":"奈良県","city":"香芝市","street":"下田東"},{"zipCode":"6390231","prefectureKana":"ﾅﾗｹﾝ","cityKana":"ｶｼﾊﾞｼ","streetKana":"ｼﾓﾀﾞﾆｼ","prefecture":"奈良県","city":"香芝市","street":"下田西"},{"zipCode":"6390237","prefectureKana":"ﾅﾗｹﾝ","cityKana":"ｶｼﾊﾞｼ","streetKana":"ｽﾐﾚﾉ","prefecture":"奈良県","city":"香芝市","street":"すみれ野"},{"zipCode":"6390255","prefectureKana":"ﾅﾗｹﾝ","cityKana":"ｶｼﾊﾞｼ","streetKana":"ｾｷﾔ","prefecture":"奈良県","city":"香芝市","street":"関屋"},{"zipCode":"6390254","prefectureKana":"ﾅﾗｹﾝ","cityKana":"ｶｼﾊﾞｼ","streetKana":"ｾｷﾔｷﾀ","prefecture":"奈良県","city":"香芝市","street":"関屋北"},{"zipCode":"6390241","prefectureKana":"ﾅﾗｹﾝ","cityKana":"ｶｼﾊﾞｼ","streetKana":"ﾀｶ","prefecture":"奈良県","city":"香芝市","street":"高"},{"zipCode":"6390256","prefectureKana":"ﾅﾗｹﾝ","cityKana":"ｶｼﾊﾞｼ","streetKana":"ﾀｶﾔﾏﾀﾞｲ","prefecture":"奈良県","city":"香芝市","street":"高山台"},{"zipCode":"6390253","prefectureKana":"ﾅﾗｹﾝ","cityKana":"ｶｼﾊﾞｼ","streetKana":"ﾀｼﾞﾘ","prefecture":"奈良県","city":"香芝市","street":"田尻"},{"zipCode":"6390222","prefectureKana":"ﾅﾗｹﾝ","cityKana":"ｶｼﾊﾞｼ","streetKana":"ﾆｼﾏﾐ","prefecture":"奈良県","city":"香芝市","street":"西真美"},{"zipCode":"6390261","prefectureKana":"ﾅﾗｹﾝ","cityKana":"ｶｼﾊﾞｼ","streetKana":"ﾆﾝｼﾞ","prefecture":"奈良県","city":"香芝市","street":"尼寺"},{"zipCode":"6390262","prefectureKana":"ﾅﾗｹﾝ","cityKana":"ｶｼﾊﾞｼ","streetKana":"ﾊｸﾎｳﾀﾞｲ","prefecture":"奈良県","city":"香芝市","street":"白鳳台"},{"zipCode":"6390245","prefectureKana":"ﾅﾗｹﾝ","cityKana":"ｶｼﾊﾞｼ","streetKana":"ﾊﾀ","prefecture":"奈良県","city":"香芝市","street":"畑"},{"zipCode":"6390263","prefectureKana":"ﾅﾗｹﾝ","cityKana":"ｶｼﾊﾞｼ","streetKana":"ﾋﾗﾉ","prefecture":"奈良県","city":"香芝市","street":"平野"},{"zipCode":"6390243","prefectureKana":"ﾅﾗｹﾝ","cityKana":"ｶｼﾊﾞｼ","streetKana":"ﾌｼﾞﾔﾏ","prefecture":"奈良県","city":"香芝市","street":"藤山"},{"zipCode":"6390224","prefectureKana":"ﾅﾗｹﾝ","cityKana":"ｶｼﾊﾞｼ","streetKana":"ﾍﾞｯｼﾖ","prefecture":"奈良県","city":"香芝市","street":"別所"},{"zipCode":"6390244","prefectureKana":"ﾅﾗｹﾝ","cityKana":"ｶｼﾊﾞｼ","streetKana":"ﾎﾝﾏﾁ","prefecture":"奈良県","city":"香芝市","street":"本町"},{"zipCode":"6390223","prefectureKana":"ﾅﾗｹﾝ","cityKana":"ｶｼﾊﾞｼ","streetKana":"ﾏﾐｶﾞｵｶ","prefecture":"奈良県","city":"香芝市","street":"真美ケ丘"},{"zipCode":"6390235","prefectureKana":"ﾅﾗｹﾝ","cityKana":"ｶｼﾊﾞｼ","streetKana":"ﾘｮｳﾌｸｼﾞ","prefecture":"奈良県","city":"香芝市","street":"良福寺"},{"zipCode":"6392100","prefectureKana":"ﾅﾗｹﾝ","cityKana":"ｶﾂﾗｷﾞｼ","streetKana":"ｲｶﾆｹｲｻｲｶﾞﾅｲﾊﾞｱｲ","prefecture":"奈良県","city":"葛城市","street":"以下に掲載がない場合"},{"zipCode":"6390274","prefectureKana":"ﾅﾗｹﾝ","cityKana":"ｶﾂﾗｷﾞｼ","streetKana":"ｲﾏｻﾞｲｹ","prefecture":"奈良県","city":"葛城市","street":"今在家"},{"zipCode":"6392133","prefectureKana":"ﾅﾗｹﾝ","cityKana":"ｶﾂﾗｷﾞｼ","streetKana":"ｳﾒﾑﾛ","prefecture":"奈良県","city":"葛城市","street":"梅室"},{"zipCode":"6392153","prefectureKana":"ﾅﾗｹﾝ","cityKana":"ｶﾂﾗｷﾞｼ","streetKana":"ｵｵﾀ","prefecture":"奈良県","city":"葛城市","street":"太田"},{"zipCode":"6392145","prefectureKana":"ﾅﾗｹﾝ","cityKana":"ｶﾂﾗｷﾞｼ","streetKana":"ｵｵﾔ","prefecture":"奈良県","city":"葛城市","street":"大屋"},{"zipCode":"6392123","prefectureKana":"ﾅﾗｹﾝ","cityKana":"ｶﾂﾗｷﾞｼ","streetKana":"ｵｼﾐ","prefecture":"奈良県","city":"葛城市","street":"忍海"},{"zipCode":"6392152","prefectureKana":"ﾅﾗｹﾝ","cityKana":"ｶﾂﾗｷﾞｼ","streetKana":"ｵﾊﾞﾀｹ","prefecture":"奈良県","city":"葛城市","street":"大畑"},{"zipCode":"6392111","prefectureKana":"ﾅﾗｹﾝ","cityKana":"ｶﾂﾗｷﾞｼ","streetKana":"ｶｷﾉﾓﾄ","prefecture":"奈良県","city":"葛城市","street":"柿本"},{"zipCode":"6390275","prefectureKana":"ﾅﾗｹﾝ","cityKana":"ｶﾂﾗｷﾞｼ","streetKana":"ｶﾂﾈ","prefecture":"奈良県","city":"葛城市","street":"勝根"},{"zipCode":"6392144","prefectureKana":"ﾅﾗｹﾝ","cityKana":"ｶﾂﾗｷﾞｼ","streetKana":"ｶﾂﾗｷﾞ","prefecture":"奈良県","city":"葛城市","street":"葛木"},{"zipCode":"6390271","prefectureKana":"ﾅﾗｹﾝ","cityKana":"ｶﾂﾗｷﾞｼ","streetKana":"ｶﾓﾘ","prefecture":"奈良県","city":"葛城市","street":"加守"},{"zipCode":"6392113","prefectureKana":"ﾅﾗｹﾝ","cityKana":"ｶﾂﾗｷﾞｼ","streetKana":"ｷﾀﾊﾅｳﾁ","prefecture":"奈良県","city":"葛城市","street":"北花内"},{"zipCode":"6392142","prefectureKana":"ﾅﾗｹﾝ","cityKana":"ｶﾂﾗｷﾞｼ","streetKana":"ｷﾀﾐﾂﾎﾞ","prefecture":"奈良県","city":"葛城市","street":"北道穂"},{"zipCode":"6392161","prefectureKana":"ﾅﾗｹﾝ","cityKana":"ｶﾂﾗｷﾞｼ","streetKana":"ｷﾄﾞ","prefecture":"奈良県","city":"葛城市","street":"木戸"},{"zipCode":"6392121","prefectureKana":"ﾅﾗｹﾝ","cityKana":"ｶﾂﾗｷﾞｼ","streetKana":"ｼﾑﾗ","prefecture":"奈良県","city":"葛城市","street":"新村"},{"zipCode":"6392162","prefectureKana":"ﾅﾗｹﾝ","cityKana":"ｶﾂﾗｷﾞｼ","streetKana":"ｼｬｸﾄﾞ","prefecture":"奈良県","city":"葛城市","street":"尺土"},{"zipCode":"6390272","prefectureKana":"ﾅﾗｹﾝ","cityKana":"ｶﾂﾗｷﾞｼ","streetKana":"ｼﾝｻﾞｲｹ","prefecture":"奈良県","city":"葛城市","street":"新在家"},{"zipCode":"6392147","prefectureKana":"ﾅﾗｹﾝ","cityKana":"ｶﾂﾗｷﾞｼ","streetKana":"ｼﾝｼﾞｮｳ","prefecture":"奈良県","city":"葛城市","street":"新庄"},{"zipCode":"6392127","prefectureKana":"ﾅﾗｹﾝ","cityKana":"ｶﾂﾗｷﾞｼ","streetKana":"ｼﾝﾏﾁ","prefecture":"奈良県","city":"葛城市","street":"新町"},{"zipCode":"6390273","prefectureKana":"ﾅﾗｹﾝ","cityKana":"ｶﾂﾗｷﾞｼ","streetKana":"ｿﾒﾉ","prefecture":"奈良県","city":"葛城市","street":"染野"},{"zipCode":"6390276","prefectureKana":"ﾅﾗｹﾝ","cityKana":"ｶﾂﾗｷﾞｼ","streetKana":"ﾀｲﾏ","prefecture":"奈良県","city":"葛城市","street":"當麻"},{"zipCode":"6392155","prefectureKana":"ﾅﾗｹﾝ","cityKana":"ｶﾂﾗｷﾞｼ","streetKana":"ﾀｹﾉｳﾁ","prefecture":"奈良県","city":"葛城市","street":"竹内"},{"zipCode":"6392135","prefectureKana":"ﾅﾗｹﾝ","cityKana":"ｶﾂﾗｷﾞｼ","streetKana":"ﾃﾗｸﾞﾁ","prefecture":"奈良県","city":"葛城市","street":"寺口"},{"zipCode":"6392164","prefectureKana":"ﾅﾗｹﾝ","cityKana":"ｶﾂﾗｷﾞｼ","streetKana":"ﾅｶﾞｵ","prefecture":"奈良県","city":"葛城市","street":"長尾"},{"zipCode":"6392146","prefectureKana":"ﾅﾗｹﾝ","cityKana":"ｶﾂﾗｷﾞｼ","streetKana":"ﾅｶﾄ","prefecture":"奈良県","city":"葛城市","street":"中戸"},{"zipCode":"6392125","prefectureKana":"ﾅﾗｹﾝ","cityKana":"ｶﾂﾗｷﾞｼ","streetKana":"ﾆｼﾂｼﾞ","prefecture":"奈良県","city":"葛城市","street":"西辻"},{"zipCode":"6392103","prefectureKana":"ﾅﾗｹﾝ","cityKana":"ｶﾂﾗｷﾞｼ","streetKana":"ﾆｼﾑﾛ","prefecture":"奈良県","city":"葛城市","street":"西室"},{"zipCode":"6392122","prefectureKana":"ﾅﾗｹﾝ","cityKana":"ｶﾂﾗｷﾞｼ","streetKana":"ﾊｼﾞｶﾐ","prefecture":"奈良県","city":"葛城市","street":"薑"},{"zipCode":"6392163","prefectureKana":"ﾅﾗｹﾝ","cityKana":"ｶﾂﾗｷﾞｼ","streetKana":"ﾊﾁｶﾞﾜ","prefecture":"奈良県","city":"葛城市","street":"八川"},{"zipCode":"6392131","prefectureKana":"ﾅﾗｹﾝ","cityKana":"ｶﾂﾗｷﾞｼ","streetKana":"ﾊﾔｼﾄﾞｳ","prefecture":"奈良県","city":"葛城市","street":"林堂"},{"zipCode":"6392102","prefectureKana":"ﾅﾗｹﾝ","cityKana":"ｶﾂﾗｷﾞｼ","streetKana":"ﾋｶﾞｼﾑﾛ","prefecture":"奈良県","city":"葛城市","street":"東室"},{"zipCode":"6392101","prefectureKana":"ﾅﾗｹﾝ","cityKana":"ｶﾂﾗｷﾞｼ","streetKana":"ﾋｷﾀﾞ","prefecture":"奈良県","city":"葛城市","street":"疋田"},{"zipCode":"6392154","prefectureKana":"ﾅﾗｹﾝ","cityKana":"ｶﾂﾗｷﾞｼ","streetKana":"ﾋｮｳｹﾞ","prefecture":"奈良県","city":"葛城市","street":"兵家"},{"zipCode":"6392136","prefectureKana":"ﾅﾗｹﾝ","cityKana":"ｶﾂﾗｷﾞｼ","streetKana":"ﾋﾗｵｶ","prefecture":"奈良県","city":"葛城市","street":"平岡"},{"zipCode":"6392112","prefectureKana":"ﾅﾗｹﾝ","cityKana":"ｶﾂﾗｷﾞｼ","streetKana":"ﾌｴﾄﾞｳ","prefecture":"奈良県","city":"葛城市","street":"笛堂"},{"zipCode":"6392132","prefectureKana":"ﾅﾗｹﾝ","cityKana":"ｶﾂﾗｷﾞｼ","streetKana":"ﾌｴﾌｷ","prefecture":"奈良県","city":"葛城市","street":"笛吹"},{"zipCode":"6392141","prefectureKana":"ﾅﾗｹﾝ","cityKana":"ｶﾂﾗｷﾞｼ","streetKana":"ﾍﾞﾝﾉｼｮｳ","prefecture":"奈良県","city":"葛城市","street":"弁之庄"},{"zipCode":"6392151","prefectureKana":"ﾅﾗｹﾝ","cityKana":"ｶﾂﾗｷﾞｼ","streetKana":"ﾐﾅﾐｲﾏｲﾁ","prefecture":"奈良県","city":"葛城市","street":"南今市"},{"zipCode":"6392123","prefectureKana":"ﾅﾗｹﾝ","cityKana":"ｶﾂﾗｷﾞｼ","streetKana":"ﾐﾅﾐｼﾝﾏﾁ","prefecture":"奈良県","city":"葛城市","street":"南新町"},{"zipCode":"6392126","prefectureKana":"ﾅﾗｹﾝ","cityKana":"ｶﾂﾗｷﾞｼ","streetKana":"ﾐﾅﾐﾊﾅｳﾁ","prefecture":"奈良県","city":"葛城市","street":"南花内"},{"zipCode":"6392137","prefectureKana":"ﾅﾗｹﾝ","cityKana":"ｶﾂﾗｷﾞｼ","streetKana":"ﾐﾅﾐﾌｼﾞｲ","prefecture":"奈良県","city":"葛城市","street":"南藤井"},{"zipCode":"6392143","prefectureKana":"ﾅﾗｹﾝ","cityKana":"ｶﾂﾗｷﾞｼ","streetKana":"ﾐﾅﾐﾐﾂﾎﾞ","prefecture":"奈良県","city":"葛城市","street":"南道穂"},{"zipCode":"6392134","prefectureKana":"ﾅﾗｹﾝ","cityKana":"ｶﾂﾗｷﾞｼ","streetKana":"ﾔﾏｸﾞﾁ","prefecture":"奈良県","city":"葛城市","street":"山口"},{"zipCode":"6392138","prefectureKana":"ﾅﾗｹﾝ","cityKana":"ｶﾂﾗｷﾞｼ","streetKana":"ﾔﾏﾀﾞ","prefecture":"奈良県","city":"葛城市","street":"山田"},{"zipCode":"6392124","prefectureKana":"ﾅﾗｹﾝ","cityKana":"ｶﾂﾗｷﾞｼ","streetKana":"ﾜｷﾀﾞ","prefecture":"奈良県","city":"葛城市","street":"脇田"},{"zipCode":"6391100","prefectureKana":"ﾅﾗｹﾝ","cityKana":"ｲｺﾏｸﾞﾝｱﾝﾄﾞﾁｮｳ","streetKana":"ｲｶﾆｹｲｻｲｶﾞﾅｲﾊﾞｱｲ","prefecture":"奈良県","city":"生駒郡安堵町","street":"以下に掲載がない場合"},{"zipCode":"6391062","prefectureKana":"ﾅﾗｹﾝ","cityKana":"ｲｺﾏｸﾞﾝｱﾝﾄﾞﾁｮｳ","streetKana":"ｵｶｻｷ","prefecture":"奈良県","city":"生駒郡安堵町","street":"岡崎"},{"zipCode":"6391065","prefectureKana":"ﾅﾗｹﾝ","cityKana":"ｲｺﾏｸﾞﾝｱﾝﾄﾞﾁｮｳ","streetKana":"ｶｻﾒ","prefecture":"奈良県","city":"生駒郡安堵町","street":"笠目"},{"zipCode":"6391063","prefectureKana":"ﾅﾗｹﾝ","cityKana":"ｲｺﾏｸﾞﾝｱﾝﾄﾞﾁｮｳ","streetKana":"ｶｼﾉｷﾀﾞｲ","prefecture":"奈良県","city":"生駒郡安堵町","street":"かしの木台"},{"zipCode":"6391064","prefectureKana":"ﾅﾗｹﾝ","cityKana":"ｲｺﾏｸﾞﾝｱﾝﾄﾞﾁｮｳ","streetKana":"ｸﾎﾞﾀ","prefecture":"奈良県","city":"生駒郡安堵町","street":"窪田"},{"zipCode":"6391066","prefectureKana":"ﾅﾗｹﾝ","cityKana":"ｲｺﾏｸﾞﾝｱﾝﾄﾞﾁｮｳ","streetKana":"ﾆｼｱﾝﾄﾞ","prefecture":"奈良県","city":"生駒郡安堵町","street":"西安堵"},{"zipCode":"6391061","prefectureKana":"ﾅﾗｹﾝ","cityKana":"ｲｺﾏｸﾞﾝｱﾝﾄﾞﾁｮｳ","streetKana":"ﾋｶﾞｼｱﾝﾄﾞ","prefecture":"奈良県","city":"生駒郡安堵町","street":"東安堵"},{"zipCode":"6390200","prefectureKana":"ﾅﾗｹﾝ","cityKana":"ｷﾀｶﾂﾗｷﾞｸﾞﾝｶﾝﾏｷﾁｮｳ","streetKana":"ｲｶﾆｹｲｻｲｶﾞﾅｲﾊﾞｱｲ","prefecture":"奈良県","city":"北葛城郡上牧町","street":"以下に掲載がない場合"},{"zipCode":"6390201","prefectureKana":"ﾅﾗｹﾝ","cityKana":"ｷﾀｶﾂﾗｷﾞｸﾞﾝｶﾝﾏｷﾁｮｳ","streetKana":"ｶﾀｵｶﾀﾞｲ","prefecture":"奈良県","city":"北葛城郡上牧町","street":"片岡台"},{"zipCode":"6390215","prefectureKana":"ﾅﾗｹﾝ","cityKana":"ｷﾀｶﾂﾗｷﾞｸﾞﾝｶﾝﾏｷﾁｮｳ","streetKana":"ｶﾂﾗｷﾞﾀﾞｲ","prefecture":"奈良県","city":"北葛城郡上牧町","street":"葛城台"},{"zipCode":"6390214","prefectureKana":"ﾅﾗｹﾝ","cityKana":"ｷﾀｶﾂﾗｷﾞｸﾞﾝｶﾝﾏｷﾁｮｳ","streetKana":"ｶﾝﾏｷ","prefecture":"奈良県","city":"北葛城郡上牧町","street":"上牧"},{"zipCode":"6390202","prefectureKana":"ﾅﾗｹﾝ","cityKana":"ｷﾀｶﾂﾗｷﾞｸﾞﾝｶﾝﾏｷﾁｮｳ","streetKana":"ｻｸﾗｶﾞｵｶ","prefecture":"奈良県","city":"北葛城郡上牧町","street":"桜ケ丘"},{"zipCode":"6390218","prefectureKana":"ﾅﾗｹﾝ","cityKana":"ｷﾀｶﾂﾗｷﾞｸﾞﾝｶﾝﾏｷﾁｮｳ","streetKana":"ｻｻﾕﾘﾀﾞｲ","prefecture":"奈良県","city":"北葛城郡上牧町","street":"ささゆり台"},{"zipCode":"6390205","prefectureKana":"ﾅﾗｹﾝ","cityKana":"ｷﾀｶﾂﾗｷﾞｸﾞﾝｶﾝﾏｷﾁｮｳ","streetKana":"ｼﾓﾏｷ","prefecture":"奈良県","city":"北葛城郡上牧町","street":"下牧"},{"zipCode":"6390216","prefectureKana":"ﾅﾗｹﾝ","cityKana":"ｷﾀｶﾂﾗｷﾞｸﾞﾝｶﾝﾏｷﾁｮｳ","streetKana":"ｼｮｳﾘｴﾝ","prefecture":"奈良県","city":"北葛城郡上牧町","street":"松里園"},{"zipCode":"6390211","prefectureKana":"ﾅﾗｹﾝ","cityKana":"ｷﾀｶﾂﾗｷﾞｸﾞﾝｶﾝﾏｷﾁｮｳ","streetKana":"ﾀｷｶﾞﾜﾀﾞｲ","prefecture":"奈良県","city":"北葛城郡上牧町","street":"滝川台"},{"zipCode":"6390203","prefectureKana":"ﾅﾗｹﾝ","cityKana":"ｷﾀｶﾂﾗｷﾞｸﾞﾝｶﾝﾏｷﾁｮｳ","streetKana":"ﾄﾓｶﾞｵｶ","prefecture":"奈良県","city":"北葛城郡上牧町","street":"友が丘"},{"zipCode":"6390217","prefectureKana":"ﾅﾗｹﾝ","cityKana":"ｷﾀｶﾂﾗｷﾞｸﾞﾝｶﾝﾏｷﾁｮｳ","streetKana":"ﾅｶｽｼﾞｼｭﾂｻｸ","prefecture":"奈良県","city":"北葛城郡上牧町","street":"中筋出作"},{"zipCode":"6390212","prefectureKana":"ﾅﾗｹﾝ","cityKana":"ｷﾀｶﾂﾗｷﾞｸﾞﾝｶﾝﾏｷﾁｮｳ","streetKana":"ﾊｯﾄﾘﾀﾞｲ","prefecture":"奈良県","city":"北葛城郡上牧町","street":"服部台"},{"zipCode":"6390204","prefectureKana":"ﾅﾗｹﾝ","cityKana":"ｷﾀｶﾂﾗｷﾞｸﾞﾝｶﾝﾏｷﾁｮｳ","streetKana":"ﾐﾄﾞﾘｶﾞｵｶ","prefecture":"奈良県","city":"北葛城郡上牧町","street":"緑ケ丘"},{"zipCode":"6390206","prefectureKana":"ﾅﾗｹﾝ","cityKana":"ｷﾀｶﾂﾗｷﾞｸﾞﾝｶﾝﾏｷﾁｮｳ","streetKana":"ﾕﾘｶﾞｵｶ","prefecture":"奈良県","city":"北葛城郡上牧町","street":"ゆりが丘"},{"zipCode":"6390213","prefectureKana":"ﾅﾗｹﾝ","cityKana":"ｷﾀｶﾂﾗｷﾞｸﾞﾝｶﾝﾏｷﾁｮｳ","streetKana":"ﾖﾈﾔﾏﾀﾞｲ","prefecture":"奈良県","city":"北葛城郡上牧町","street":"米山台"},{"zipCode":"6393100","prefectureKana":"ﾅﾗｹﾝ","cityKana":"ﾖｼﾉｸﾞﾝﾖｼﾉﾁｮｳ","streetKana":"ｲｶﾆｹｲｻｲｶﾞﾅｲﾊﾞｱｲ","prefecture":"奈良県","city":"吉野郡吉野町","street":"以下に掲載がない場合"},{"zipCode":"6393433","prefectureKana":"ﾅﾗｹﾝ","cityKana":"ﾖｼﾉｸﾞﾝﾖｼﾉﾁｮｳ","streetKana":"ｱﾀﾗｼ","prefecture":"奈良県","city":"吉野郡吉野町","street":"新子"},{"zipCode":"6393113","prefectureKana":"ﾅﾗｹﾝ","cityKana":"ﾖｼﾉｸﾞﾝﾖｼﾉﾁｮｳ","streetKana":"ｲｲｶﾞｲ","prefecture":"奈良県","city":"吉野郡吉野町","street":"飯貝"},{"zipCode":"6393323","prefectureKana":"ﾅﾗｹﾝ","cityKana":"ﾖｼﾉｸﾞﾝﾖｼﾉﾁｮｳ","streetKana":"ｲﾛｳ","prefecture":"奈良県","city":"吉野郡吉野町","street":"色生"},{"zipCode":"6393436","prefectureKana":"ﾅﾗｹﾝ","cityKana":"ﾖｼﾉｸﾞﾝﾖｼﾉﾁｮｳ","streetKana":"ｶｼｵ","prefecture":"奈良県","city":"吉野郡吉野町","street":"樫尾"},{"zipCode":"6393111","prefectureKana":"ﾅﾗｹﾝ","cityKana":"ﾖｼﾉｸﾞﾝﾖｼﾉﾁｮｳ","streetKana":"ｶﾐｲﾁ","prefecture":"奈良県","city":"吉野郡吉野町","street":"上市"},{"zipCode":"6393102","prefectureKana":"ﾅﾗｹﾝ","cityKana":"ﾖｼﾉｸﾞﾝﾖｼﾉﾁｮｳ","streetKana":"ｶﾜﾊﾗﾔ","prefecture":"奈良県","city":"吉野郡吉野町","street":"河原屋"},{"zipCode":"6393442","prefectureKana":"ﾅﾗｹﾝ","cityKana":"ﾖｼﾉｸﾞﾝﾖｼﾉﾁｮｳ","streetKana":"ｷｻﾀﾞﾆ","prefecture":"奈良県","city":"吉野郡吉野町","street":"喜佐谷"},{"zipCode":"6393434","prefectureKana":"ﾅﾗｹﾝ","cityKana":"ﾖｼﾉｸﾞﾝﾖｼﾉﾁｮｳ","streetKana":"ｸｽﾞ","prefecture":"奈良県","city":"吉野郡吉野町","street":"国栖"},{"zipCode":"6393432","prefectureKana":"ﾅﾗｹﾝ","cityKana":"ﾖｼﾉｸﾞﾝﾖｼﾉﾁｮｳ","streetKana":"ｸﾎﾞｶﾞｲﾄ","prefecture":"奈良県","city":"吉野郡吉野町","street":"窪垣内"},{"zipCode":"6393324","prefectureKana":"ﾅﾗｹﾝ","cityKana":"ﾖｼﾉｸﾞﾝﾖｼﾉﾁｮｳ","streetKana":"ｺｳｿｸ","prefecture":"奈良県","city":"吉野郡吉野町","street":"香束"},{"zipCode":"6393322","prefectureKana":"ﾅﾗｹﾝ","cityKana":"ﾖｼﾉｸﾞﾝﾖｼﾉﾁｮｳ","streetKana":"ｺﾅ","prefecture":"奈良県","city":"吉野郡吉野町","street":"小名"},{"zipCode":"6393107","prefectureKana":"ﾅﾗｹﾝ","cityKana":"ﾖｼﾉｸﾞﾝﾖｼﾉﾁｮｳ","streetKana":"ｻｻﾗ","prefecture":"奈良県","city":"吉野郡吉野町","street":"佐々羅"},{"zipCode":"6393117","prefectureKana":"ﾅﾗｹﾝ","cityKana":"ﾖｼﾉｸﾞﾝﾖｼﾉﾁｮｳ","streetKana":"ｻｿ","prefecture":"奈良県","city":"吉野郡吉野町","street":"左曽"},{"zipCode":"6393431","prefectureKana":"ﾅﾗｹﾝ","cityKana":"ﾖｼﾉｸﾞﾝﾖｼﾉﾁｮｳ","streetKana":"ｼｵﾉ","prefecture":"奈良県","city":"吉野郡吉野町","street":"入野"},{"zipCode":"6393106","prefectureKana":"ﾅﾗｹﾝ","cityKana":"ﾖｼﾉｸﾞﾝﾖｼﾉﾁｮｳ","streetKana":"ｼｶﾞ","prefecture":"奈良県","city":"吉野郡吉野町","street":"志賀"},{"zipCode":"6393106","prefectureKana":"ﾅﾗｹﾝ","cityKana":"ﾖｼﾉｸﾞﾝﾖｼﾉﾁｮｳ","streetKana":"ﾀｷﾊﾀ","prefecture":"奈良県","city":"吉野郡吉野町","street":"滝畑"},{"zipCode":"6393112","prefectureKana":"ﾅﾗｹﾝ","cityKana":"ﾖｼﾉｸﾞﾝﾖｼﾉﾁｮｳ","streetKana":"ﾀﾁﾉ","prefecture":"奈良県","city":"吉野郡吉野町","street":"立野"},{"zipCode":"6393114","prefectureKana":"ﾅﾗｹﾝ","cityKana":"ﾖｼﾉｸﾞﾝﾖｼﾉﾁｮｳ","streetKana":"ﾀﾝｼﾞ","prefecture":"奈良県","city":"吉野郡吉野町","street":"丹治"},{"zipCode":"6393105","prefectureKana":"ﾅﾗｹﾝ","cityKana":"ﾖｼﾉｸﾞﾝﾖｼﾉﾁｮｳ","streetKana":"ﾁﾏﾀ","prefecture":"奈良県","city":"吉野郡吉野町","street":"千股"},{"zipCode":"6393102","prefectureKana":"ﾅﾗｹﾝ","cityKana":"ﾖｼﾉｸﾞﾝﾖｼﾉﾁｮｳ","streetKana":"ﾂﾌﾞﾛ","prefecture":"奈良県","city":"吉野郡吉野町","street":"津風呂"},{"zipCode":"6393446","prefectureKana":"ﾅﾗｹﾝ","cityKana":"ﾖｼﾉｸﾞﾝﾖｼﾉﾁｮｳ","streetKana":"ﾅﾂﾐ","prefecture":"奈良県","city":"吉野郡吉野町","street":"菜摘"},{"zipCode":"6393445","prefectureKana":"ﾅﾗｹﾝ","cityKana":"ﾖｼﾉｸﾞﾝﾖｼﾉﾁｮｳ","streetKana":"ﾅﾗｲ","prefecture":"奈良県","city":"吉野郡吉野町","street":"楢井"},{"zipCode":"6393108","prefectureKana":"ﾅﾗｹﾝ","cityKana":"ﾖｼﾉｸﾞﾝﾖｼﾉﾁｮｳ","streetKana":"ﾆｼﾀﾆ","prefecture":"奈良県","city":"吉野郡吉野町","street":"西谷"},{"zipCode":"6393118","prefectureKana":"ﾅﾗｹﾝ","cityKana":"ﾖｼﾉｸﾞﾝﾖｼﾉﾁｮｳ","streetKana":"ﾊｼﾔ","prefecture":"奈良県","city":"吉野郡吉野町","street":"橋屋"},{"zipCode":"6393103","prefectureKana":"ﾅﾗｹﾝ","cityKana":"ﾖｼﾉｸﾞﾝﾖｼﾉﾁｮｳ","streetKana":"ﾋﾗｵ","prefecture":"奈良県","city":"吉野郡吉野町","street":"平尾"},{"zipCode":"6393444","prefectureKana":"ﾅﾗｹﾝ","cityKana":"ﾖｼﾉｸﾞﾝﾖｼﾉﾁｮｳ","streetKana":"ﾐｿﾉ","prefecture":"奈良県","city":"吉野郡吉野町","street":"御園"},{"zipCode":"6393321","prefectureKana":"ﾅﾗｹﾝ","cityKana":"ﾖｼﾉｸﾞﾝﾖｼﾉﾁｮｳ","streetKana":"ﾐﾂﾁｬﾔ","prefecture":"奈良県","city":"吉野郡吉野町","street":"三茶屋"},{"zipCode":"6393108","prefectureKana":"ﾅﾗｹﾝ","cityKana":"ﾖｼﾉｸﾞﾝﾖｼﾉﾁｮｳ","streetKana":"ﾐﾂﾞ","prefecture":"奈良県","city":"吉野郡吉野町","street":"三津"},{"zipCode":"6393437","prefectureKana":"ﾅﾗｹﾝ","cityKana":"ﾖｼﾉｸﾞﾝﾖｼﾉﾁｮｳ","streetKana":"ﾐﾅﾐｵｵﾉ","prefecture":"奈良県","city":"吉野郡吉野町","street":"南大野"},{"zipCode":"6393435","prefectureKana":"ﾅﾗｹﾝ","cityKana":"ﾖｼﾉｸﾞﾝﾖｼﾉﾁｮｳ","streetKana":"ﾐﾅﾐｸｽﾞ","prefecture":"奈良県","city":"吉野郡吉野町","street":"南国栖"},{"zipCode":"6393104","prefectureKana":"ﾅﾗｹﾝ","cityKana":"ﾖｼﾉｸﾞﾝﾖｼﾉﾁｮｳ","streetKana":"ﾐﾈﾃﾞﾗ","prefecture":"奈良県","city":"吉野郡吉野町","street":"峰寺"},{"zipCode":"6393443","prefectureKana":"ﾅﾗｹﾝ","cityKana":"ﾖｼﾉｸﾞﾝﾖｼﾉﾁｮｳ","streetKana":"ﾐﾔﾀｷ","prefecture":"奈良県","city":"吉野郡吉野町","street":"宮滝"},{"zipCode":"6393116","prefectureKana":"ﾅﾗｹﾝ","cityKana":"ﾖｼﾉｸﾞﾝﾖｼﾉﾁｮｳ","streetKana":"ﾑﾀﾞ","prefecture":"奈良県","city":"吉野郡吉野町","street":"六田"},{"zipCode":"6393441","prefectureKana":"ﾅﾗｹﾝ","cityKana":"ﾖｼﾉｸﾞﾝﾖｼﾉﾁｮｳ","streetKana":"ﾔｼﾞ","prefecture":"奈良県","city":"吉野郡吉野町","street":"矢治"},{"zipCode":"6393325","prefectureKana":"ﾅﾗｹﾝ","cityKana":"ﾖｼﾉｸﾞﾝﾖｼﾉﾁｮｳ","streetKana":"ﾔﾅｷﾞ","prefecture":"奈良県","city":"吉野郡吉野町","street":"柳"},{"zipCode":"6393101","prefectureKana":"ﾅﾗｹﾝ","cityKana":"ﾖｼﾉｸﾞﾝﾖｼﾉﾁｮｳ","streetKana":"ﾔﾏｸﾞﾁ","prefecture":"奈良県","city":"吉野郡吉野町","street":"山口"},{"zipCode":"6393115","prefectureKana":"ﾅﾗｹﾝ","cityKana":"ﾖｼﾉｸﾞﾝﾖｼﾉﾁｮｳ","streetKana":"ﾖｼﾉﾔﾏ","prefecture":"奈良県","city":"吉野郡吉野町","street":"吉野山"},{"zipCode":"6393125","prefectureKana":"ﾅﾗｹﾝ","cityKana":"ﾖｼﾉｸﾞﾝｵｵﾖﾄﾞﾁｮｳ","streetKana":"ｷﾀﾉ","prefecture":"奈良県","city":"吉野郡大淀町","street":"北野"},{"zipCode":"6393124","prefectureKana":"ﾅﾗｹﾝ","cityKana":"ﾖｼﾉｸﾞﾝｵｵﾖﾄﾞﾁｮｳ","streetKana":"ｷﾀﾑﾀﾞ","prefecture":"奈良県","city":"吉野郡大淀町","street":"北六田"},{"zipCode":"6393122","prefectureKana":"ﾅﾗｹﾝ","cityKana":"ﾖｼﾉｸﾞﾝｵｵﾖﾄﾞﾁｮｳ","streetKana":"ﾅｶﾏｼ","prefecture":"奈良県","city":"吉野郡大淀町","street":"中増"},{"zipCode":"6393121","prefectureKana":"ﾅﾗｹﾝ","cityKana":"ﾖｼﾉｸﾞﾝｵｵﾖﾄﾞﾁｮｳ","streetKana":"ﾆｼﾏｼ","prefecture":"奈良県","city":"吉野郡大淀町","street":"西増"},{"zipCode":"6393126","prefectureKana":"ﾅﾗｹﾝ","cityKana":"ﾖｼﾉｸﾞﾝｵｵﾖﾄﾞﾁｮｳ","streetKana":"ﾆﾉ","prefecture":"奈良県","city":"吉野郡大淀町","street":"新野"},{"zipCode":"6393127","prefectureKana":"ﾅﾗｹﾝ","cityKana":"ﾖｼﾉｸﾞﾝｵｵﾖﾄﾞﾁｮｳ","streetKana":"ﾊﾞｻ","prefecture":"奈良県","city":"吉野郡大淀町","street":"馬佐"},{"zipCode":"6393128","prefectureKana":"ﾅﾗｹﾝ","cityKana":"ﾖｼﾉｸﾞﾝｵｵﾖﾄﾞﾁｮｳ","streetKana":"ﾋｿ","prefecture":"奈良県","city":"吉野郡大淀町","street":"比曽"},{"zipCode":"6393123","prefectureKana":"ﾅﾗｹﾝ","cityKana":"ﾖｼﾉｸﾞﾝｵｵﾖﾄﾞﾁｮｳ","streetKana":"ﾏｼｸﾞﾁ","prefecture":"奈良県","city":"吉野郡大淀町","street":"増口"},{"zipCode":"6393800","prefectureKana":"ﾅﾗｹﾝ","cityKana":"ﾖｼﾉｸﾞﾝｼﾓｷﾀﾔﾏﾑﾗ","streetKana":"ｲｶﾆｹｲｻｲｶﾞﾅｲﾊﾞｱｲ","prefecture":"奈良県","city":"吉野郡下北山村","street":"以下に掲載がない場合"},{"zipCode":"6393804","prefectureKana":"ﾅﾗｹﾝ","cityKana":"ﾖｼﾉｸﾞﾝｼﾓｷﾀﾔﾏﾑﾗ","streetKana":"ｲｹﾐﾈ","prefecture":"奈良県","city":"吉野郡下北山村","street":"池峰"},{"zipCode":"6393802","prefectureKana":"ﾅﾗｹﾝ","cityKana":"ﾖｼﾉｸﾞﾝｼﾓｷﾀﾔﾏﾑﾗ","streetKana":"ｳﾗﾑｶｲ","prefecture":"奈良県","city":"吉野郡下北山村","street":"浦向"},{"zipCode":"6393805","prefectureKana":"ﾅﾗｹﾝ","cityKana":"ﾖｼﾉｸﾞﾝｼﾓｷﾀﾔﾏﾑﾗ","streetKana":"ｶﾐｲｹﾊﾗ","prefecture":"奈良県","city":"吉野郡下北山村","street":"上池原"},{"zipCode":"6393808","prefectureKana":"ﾅﾗｹﾝ","cityKana":"ﾖｼﾉｸﾞﾝｼﾓｷﾀﾔﾏﾑﾗ","streetKana":"ｶﾐｸﾜﾊﾗ","prefecture":"奈良県","city":"吉野郡下北山村","street":"上桑原"},{"zipCode":"6393801","prefectureKana":"ﾅﾗｹﾝ","cityKana":"ﾖｼﾉｸﾞﾝｼﾓｷﾀﾔﾏﾑﾗ","streetKana":"ｻﾀﾞ","prefecture":"奈良県","city":"吉野郡下北山村","street":"佐田"},{"zipCode":"6393806","prefectureKana":"ﾅﾗｹﾝ","cityKana":"ﾖｼﾉｸﾞﾝｼﾓｷﾀﾔﾏﾑﾗ","streetKana":"ｼﾓｲｹﾊﾗ","prefecture":"奈良県","city":"吉野郡下北山村","street":"下池原"},{"zipCode":"6393807","prefectureKana":"ﾅﾗｹﾝ","cityKana":"ﾖｼﾉｸﾞﾝｼﾓｷﾀﾔﾏﾑﾗ","streetKana":"ｼﾓｸﾜﾊﾗ","prefecture":"奈良県","city":"吉野郡下北山村","street":"下桑原"},{"zipCode":"6393809","prefectureKana":"ﾅﾗｹﾝ","cityKana":"ﾖｼﾉｸﾞﾝｼﾓｷﾀﾔﾏﾑﾗ","streetKana":"ｾﾞﾝｷ","prefecture":"奈良県","city":"吉野郡下北山村","street":"前鬼"},{"zipCode":"6393803","prefectureKana":"ﾅﾗｹﾝ","cityKana":"ﾖｼﾉｸﾞﾝｼﾓｷﾀﾔﾏﾑﾗ","streetKana":"ﾃﾗｶﾞｲﾄ","prefecture":"奈良県","city":"吉野郡下北山村","street":"寺垣内"},{"zipCode":"6393700","prefectureKana":"ﾅﾗｹﾝ","cityKana":"ﾖｼﾉｸﾞﾝｶﾐｷﾀﾔﾏﾑﾗ","streetKana":"ｲｶﾆｹｲｻｲｶﾞﾅｲﾊﾞｱｲ","prefecture":"奈良県","city":"吉野郡上北山村","street":"以下に掲載がない場合"},{"zipCode":"6393701","prefectureKana":"ﾅﾗｹﾝ","cityKana":"ﾖｼﾉｸﾞﾝｶﾐｷﾀﾔﾏﾑﾗ","streetKana":"ｶﾜｲ","prefecture":"奈良県","city":"吉野郡上北山村","street":"河合"},{"zipCode":"6393702","prefectureKana":"ﾅﾗｹﾝ","cityKana":"ﾖｼﾉｸﾞﾝｶﾐｷﾀﾔﾏﾑﾗ","streetKana":"ｺﾄﾁ","prefecture":"奈良県","city":"吉野郡上北山村","street":"小橡"},{"zipCode":"6393703","prefectureKana":"ﾅﾗｹﾝ","cityKana":"ﾖｼﾉｸﾞﾝｶﾐｷﾀﾔﾏﾑﾗ","streetKana":"ｼﾗｶﾜ","prefecture":"奈良県","city":"吉野郡上北山村","street":"白川"},{"zipCode":"6393704","prefectureKana":"ﾅﾗｹﾝ","cityKana":"ﾖｼﾉｸﾞﾝｶﾐｷﾀﾔﾏﾑﾗ","streetKana":"ﾆｼﾊﾗ","prefecture":"奈良県","city":"吉野郡上北山村","street":"西原"},{"zipCode":"6393705","prefectureKana":"ﾅﾗｹﾝ","cityKana":"ﾖｼﾉｸﾞﾝｶﾐｷﾀﾔﾏﾑﾗ","streetKana":"ﾋｶﾞｼﾉｶﾜ","prefecture":"奈良県","city":"吉野郡上北山村","street":"東ノ川"},{"zipCode":"6393500","prefectureKana":"ﾅﾗｹﾝ","cityKana":"ﾖｼﾉｸﾞﾝｶﾜｶﾐﾑﾗ","streetKana":"ｲｶﾆｹｲｻｲｶﾞﾅｲﾊﾞｱｲ","prefecture":"奈良県","city":"吉野郡川上村","street":"以下に掲載がない場合"},{"zipCode":"6393623","prefectureKana":"ﾅﾗｹﾝ","cityKana":"ﾖｼﾉｸﾞﾝｶﾜｶﾐﾑﾗ","streetKana":"ｲｶﾘ","prefecture":"奈良県","city":"吉野郡川上村","street":"井光"},{"zipCode":"6393622","prefectureKana":"ﾅﾗｹﾝ","cityKana":"ﾖｼﾉｸﾞﾝｶﾜｶﾐﾑﾗ","streetKana":"ｲﾄﾞ(ﾈｼﾞﾊﾞﾀ)","prefecture":"奈良県","city":"吉野郡川上村","street":"井戸（ネジ畑）"},{"zipCode":"6393558","prefectureKana":"ﾅﾗｹﾝ","cityKana":"ﾖｼﾉｸﾞﾝｶﾜｶﾐﾑﾗ","streetKana":"ｲﾄﾞ(ｿﾉﾀ)","prefecture":"奈良県","city":"吉野郡川上村","street":"井戸（その他）"},{"zipCode":"6393541","prefectureKana":"ﾅﾗｹﾝ","cityKana":"ﾖｼﾉｸﾞﾝｶﾜｶﾐﾑﾗ","streetKana":"ｳﾉｶﾞﾜ","prefecture":"奈良県","city":"吉野郡川上村","street":"東川"},{"zipCode":"6393612","prefectureKana":"ﾅﾗｹﾝ","cityKana":"ﾖｼﾉｸﾞﾝｶﾜｶﾐﾑﾗ","streetKana":"ｵｵｻｺ","prefecture":"奈良県","city":"吉野郡川上村","street":"大迫"},{"zipCode":"6393543","prefectureKana":"ﾅﾗｹﾝ","cityKana":"ﾖｼﾉｸﾞﾝｶﾜｶﾐﾑﾗ","streetKana":"ｵｵﾀｷ","prefecture":"奈良県","city":"吉野郡川上村","street":"大滝"},{"zipCode":"6393613","prefectureKana":"ﾅﾗｹﾝ","cityKana":"ﾖｼﾉｸﾞﾝｶﾜｶﾐﾑﾗ","streetKana":"ｵﾊﾞﾀﾆ","prefecture":"奈良県","city":"吉野郡川上村","street":"伯母谷"},{"zipCode":"6393601","prefectureKana":"ﾅﾗｹﾝ","cityKana":"ﾖｼﾉｸﾞﾝｶﾜｶﾐﾑﾗ","streetKana":"ｶｼﾜｷﾞ","prefecture":"奈良県","city":"吉野郡川上村","street":"柏木"},{"zipCode":"6393552","prefectureKana":"ﾅﾗｹﾝ","cityKana":"ﾖｼﾉｸﾞﾝｶﾜｶﾐﾑﾗ","streetKana":"ｷﾀｼｵﾀﾞﾆ","prefecture":"奈良県","city":"吉野郡川上村","street":"北塩谷"},{"zipCode":"6393603","prefectureKana":"ﾅﾗｹﾝ","cityKana":"ﾖｼﾉｸﾞﾝｶﾜｶﾐﾑﾗ","streetKana":"ｷﾀﾜﾀﾞ","prefecture":"奈良県","city":"吉野郡川上村","street":"北和田"},{"zipCode":"6393602","prefectureKana":"ﾅﾗｹﾝ","cityKana":"ﾖｼﾉｸﾞﾝｶﾜｶﾐﾑﾗ","streetKana":"ｺｳﾀﾞｺ","prefecture":"奈良県","city":"吉野郡川上村","street":"上多古"},{"zipCode":"6393604","prefectureKana":"ﾅﾗｹﾝ","cityKana":"ﾖｼﾉｸﾞﾝｶﾜｶﾐﾑﾗ","streetKana":"ｺｳﾀﾞﾆ","prefecture":"奈良県","city":"吉野郡川上村","street":"上谷"},{"zipCode":"6393635","prefectureKana":"ﾅﾗｹﾝ","cityKana":"ﾖｼﾉｸﾞﾝｶﾜｶﾐﾑﾗ","streetKana":"ｺｳﾉﾀﾆ","prefecture":"奈良県","city":"吉野郡川上村","street":"神之谷"},{"zipCode":"6393553","prefectureKana":"ﾅﾗｹﾝ","cityKana":"ﾖｼﾉｸﾞﾝｶﾜｶﾐﾑﾗ","streetKana":"ｻｺ","prefecture":"奈良県","city":"吉野郡川上村","street":"迫"},{"zipCode":"6393611","prefectureKana":"ﾅﾗｹﾝ","cityKana":"ﾖｼﾉｸﾞﾝｶﾜｶﾐﾑﾗ","streetKana":"ｼｵﾉﾊ","prefecture":"奈良県","city":"吉野郡川上村","street":"入之波"},{"zipCode":"6393621","prefectureKana":"ﾅﾗｹﾝ","cityKana":"ﾖｼﾉｸﾞﾝｶﾜｶﾐﾑﾗ","streetKana":"ｼﾓﾀｺ","prefecture":"奈良県","city":"吉野郡川上村","street":"下多古"},{"zipCode":"6393631","prefectureKana":"ﾅﾗｹﾝ","cityKana":"ﾖｼﾉｸﾞﾝｶﾜｶﾐﾑﾗ","streetKana":"ｼﾗｶﾜﾄﾞ","prefecture":"奈良県","city":"吉野郡川上村","street":"白川渡"},{"zipCode":"6393555","prefectureKana":"ﾅﾗｹﾝ","cityKana":"ﾖｼﾉｸﾞﾝｶﾜｶﾐﾑﾗ","streetKana":"ｼﾗﾔ","prefecture":"奈良県","city":"吉野郡川上村","street":"白屋"},{"zipCode":"6393634","prefectureKana":"ﾅﾗｹﾝ","cityKana":"ﾖｼﾉｸﾞﾝｶﾜｶﾐﾑﾗ","streetKana":"ｾﾄ","prefecture":"奈良県","city":"吉野郡川上村","street":"瀬戸"},{"zipCode":"6393632","prefectureKana":"ﾅﾗｹﾝ","cityKana":"ﾖｼﾉｸﾞﾝｶﾜｶﾐﾑﾗ","streetKana":"ｿｷﾞｵ","prefecture":"奈良県","city":"吉野郡川上村","street":"枌尾"},{"zipCode":"6393554","prefectureKana":"ﾅﾗｹﾝ","cityKana":"ﾖｼﾉｸﾞﾝｶﾜｶﾐﾑﾗ","streetKana":"ﾀｶﾊﾗ","prefecture":"奈良県","city":"吉野郡川上村","street":"高原"},{"zipCode":"6393556","prefectureKana":"ﾅﾗｹﾝ","cityKana":"ﾖｼﾉｸﾞﾝｶﾜｶﾐﾑﾗ","streetKana":"ﾀｶﾊﾗﾄﾞﾊﾞ","prefecture":"奈良県","city":"吉野郡川上村","street":"高原土場"},{"zipCode":"6393622","prefectureKana":"ﾅﾗｹﾝ","cityKana":"ﾖｼﾉｸﾞﾝｶﾜｶﾐﾑﾗ","streetKana":"ﾀｷｷﾞ","prefecture":"奈良県","city":"吉野郡川上村","street":"武木"},{"zipCode":"6393551","prefectureKana":"ﾅﾗｹﾝ","cityKana":"ﾖｼﾉｸﾞﾝｶﾜｶﾐﾑﾗ","streetKana":"ﾃﾗｵ","prefecture":"奈良県","city":"吉野郡川上村","street":"寺尾"},{"zipCode":"6393633","prefectureKana":"ﾅﾗｹﾝ","cityKana":"ﾖｼﾉｸﾞﾝｶﾜｶﾐﾑﾗ","streetKana":"ﾅｶｵｸ","prefecture":"奈良県","city":"吉野郡川上村","street":"中奥"},{"zipCode":"6393542","prefectureKana":"ﾅﾗｹﾝ","cityKana":"ﾖｼﾉｸﾞﾝｶﾜｶﾐﾑﾗ","streetKana":"ﾆｼｶﾞﾜ","prefecture":"奈良県","city":"吉野郡川上村","street":"西河"},{"zipCode":"6393557","prefectureKana":"ﾅﾗｹﾝ","cityKana":"ﾖｼﾉｸﾞﾝｶﾜｶﾐﾑﾗ","streetKana":"ﾋﾄｼﾞ","prefecture":"奈良県","city":"吉野郡川上村","street":"人知"}]