[{"zipCode":"6471321","prefectureKana":"ﾐｴｹﾝ","cityKana":"ｸﾏﾉｼ","streetKana":"ｷﾜﾁｮｳｹｲ","prefecture":"三重県","city":"熊野市","street":"紀和町花井"},{"zipCode":"6471322","prefectureKana":"ﾐｴｹﾝ","cityKana":"ｸﾏﾉｼ","streetKana":"ｷﾜﾁｮｳｺﾌﾞﾈ","prefecture":"三重県","city":"熊野市","street":"紀和町小船"},{"zipCode":"6471325","prefectureKana":"ﾐｴｹﾝ","cityKana":"ｸﾏﾉｼ","streetKana":"ｷﾜﾁｮｳﾖｳｼﾞ","prefecture":"三重県","city":"熊野市","street":"紀和町楊枝"},{"zipCode":"6471323","prefectureKana":"ﾐｴｹﾝ","cityKana":"ｸﾏﾉｼ","streetKana":"ｷﾜﾁｮｳﾖｳｼﾞｶﾞﾜ","prefecture":"三重県","city":"熊野市","street":"紀和町楊枝川"},{"zipCode":"6471324","prefectureKana":"ﾐｴｹﾝ","cityKana":"ｸﾏﾉｼ","streetKana":"ｷﾜﾁｮｳﾜｹ","prefecture":"三重県","city":"熊野市","street":"紀和町和気"},{"zipCode":"6471584","prefectureKana":"ﾅﾗｹﾝ","cityKana":"ﾖｼﾉｸﾞﾝﾄﾂｶﾜﾑﾗ","streetKana":"ｶﾐｸｽﾞｶﾞﾜ","prefecture":"奈良県","city":"吉野郡十津川村","street":"上葛川"},{"zipCode":"6471581","prefectureKana":"ﾅﾗｹﾝ","cityKana":"ﾖｼﾉｸﾞﾝﾄﾂｶﾜﾑﾗ","streetKana":"ｺｳｶ","prefecture":"奈良県","city":"吉野郡十津川村","street":"神下"},{"zipCode":"6471271","prefectureKana":"ﾅﾗｹﾝ","cityKana":"ﾖｼﾉｸﾞﾝﾄﾂｶﾜﾑﾗ","streetKana":"ﾀｹﾄｳ","prefecture":"奈良県","city":"吉野郡十津川村","street":"竹筒"},{"zipCode":"6471582","prefectureKana":"ﾅﾗｹﾝ","cityKana":"ﾖｼﾉｸﾞﾝﾄﾂｶﾜﾑﾗ","streetKana":"ﾀﾏｲｶﾞﾜ","prefecture":"奈良県","city":"吉野郡十津川村","street":"玉置川"},{"zipCode":"6471583","prefectureKana":"ﾅﾗｹﾝ","cityKana":"ﾖｼﾉｸﾞﾝﾄﾂｶﾜﾑﾗ","streetKana":"ﾋｶﾞｼﾅｶ","prefecture":"奈良県","city":"吉野郡十津川村","street":"東中"},{"zipCode":"6471742","prefectureKana":"ﾜｶﾔﾏｹﾝ","cityKana":"ﾀﾅﾍﾞｼ","streetKana":"ﾎﾝｸﾞｳﾁｮｳｲｯﾎﾟﾝﾏﾂ","prefecture":"和歌山県","city":"田辺市","street":"本宮町一本松"},{"zipCode":"6471703","prefectureKana":"ﾜｶﾔﾏｹﾝ","cityKana":"ﾀﾅﾍﾞｼ","streetKana":"ﾎﾝｸﾞｳﾁｮｳｳｹｶﾞﾜ","prefecture":"和歌山県","city":"田辺市","street":"本宮町請川"},{"zipCode":"6471741","prefectureKana":"ﾜｶﾔﾏｹﾝ","cityKana":"ﾀﾅﾍﾞｼ","streetKana":"ﾎﾝｸﾞｳﾁｮｳｵｵｲ","prefecture":"和歌山県","city":"田辺市","street":"本宮町大居"},{"zipCode":"6471725","prefectureKana":"ﾜｶﾔﾏｹﾝ","cityKana":"ﾀﾅﾍﾞｼ","streetKana":"ﾎﾝｸﾞｳﾁｮｳｵｵｾﾞ","prefecture":"和歌山県","city":"田辺市","street":"本宮町大瀬"},{"zipCode":"6471702","prefectureKana":"ﾜｶﾔﾏｹﾝ","cityKana":"ﾀﾅﾍﾞｼ","streetKana":"ﾎﾝｸﾞｳﾁｮｳｵｵﾂｶﾞ","prefecture":"和歌山県","city":"田辺市","street":"本宮町大津荷"},{"zipCode":"6471716","prefectureKana":"ﾜｶﾔﾏｹﾝ","cityKana":"ﾀﾅﾍﾞｼ","streetKana":"ﾎﾝｸﾞｳﾁｮｳｶﾐｵｵﾉ","prefecture":"和歌山県","city":"田辺市","street":"本宮町上大野"},{"zipCode":"6471751","prefectureKana":"ﾜｶﾔﾏｹﾝ","cityKana":"ﾀﾅﾍﾞｼ","streetKana":"ﾎﾝｸﾞｳﾁｮｳｶﾐｷﾘﾊﾞﾗ","prefecture":"和歌山県","city":"田辺市","street":"本宮町上切原"},{"zipCode":"6471717","prefectureKana":"ﾜｶﾔﾏｹﾝ","cityKana":"ﾀﾅﾍﾞｼ","streetKana":"ﾎﾝｸﾞｳﾁｮｳｶﾜﾕ","prefecture":"和歌山県","city":"田辺市","street":"本宮町川湯"},{"zipCode":"6471752","prefectureKana":"ﾜｶﾔﾏｹﾝ","cityKana":"ﾀﾅﾍﾞｼ","streetKana":"ﾎﾝｸﾞｳﾁｮｳｷﾘﾊﾀ","prefecture":"和歌山県","city":"田辺市","street":"本宮町切畑"},{"zipCode":"6471736","prefectureKana":"ﾜｶﾔﾏｹﾝ","cityKana":"ﾀﾅﾍﾞｼ","streetKana":"ﾎﾝｸﾞｳﾁｮｳｸﾎﾞﾉ","prefecture":"和歌山県","city":"田辺市","street":"本宮町久保野"},{"zipCode":"6471722","prefectureKana":"ﾜｶﾔﾏｹﾝ","cityKana":"ﾀﾅﾍﾞｼ","streetKana":"ﾎﾝｸﾞｳﾁｮｳｺｺﾞﾓﾘ","prefecture":"和歌山県","city":"田辺市","street":"本宮町小々森"},{"zipCode":"6471701","prefectureKana":"ﾜｶﾔﾏｹﾝ","cityKana":"ﾀﾅﾍﾞｼ","streetKana":"ﾎﾝｸﾞｳﾁｮｳｺﾂｶﾞ","prefecture":"和歌山県","city":"田辺市","street":"本宮町小津荷"},{"zipCode":"6471714","prefectureKana":"ﾜｶﾔﾏｹﾝ","cityKana":"ﾀﾅﾍﾞｼ","streetKana":"ﾎﾝｸﾞｳﾁｮｳｼｽﾞｶﾜ","prefecture":"和歌山県","city":"田辺市","street":"本宮町静川"},{"zipCode":"6471734","prefectureKana":"ﾜｶﾔﾏｹﾝ","cityKana":"ﾀﾅﾍﾞｼ","streetKana":"ﾎﾝｸﾞｳﾁｮｳｼﾓﾕｶﾜ","prefecture":"和歌山県","city":"田辺市","street":"本宮町下湯川"},{"zipCode":"6471705","prefectureKana":"ﾜｶﾔﾏｹﾝ","cityKana":"ﾀﾅﾍﾞｼ","streetKana":"ﾎﾝｸﾞｳﾁｮｳﾀｶﾔﾏ","prefecture":"和歌山県","city":"田辺市","street":"本宮町高山"},{"zipCode":"6471712","prefectureKana":"ﾜｶﾔﾏｹﾝ","cityKana":"ﾀﾅﾍﾞｼ","streetKana":"ﾎﾝｸﾞｳﾁｮｳﾀｼﾛ","prefecture":"和歌山県","city":"田辺市","street":"本宮町田代"},{"zipCode":"6471753","prefectureKana":"ﾜｶﾔﾏｹﾝ","cityKana":"ﾀﾅﾍﾞｼ","streetKana":"ﾎﾝｸﾞｳﾁｮｳﾂﾁｺﾞﾔ","prefecture":"和歌山県","city":"田辺市","street":"本宮町土河屋"},{"zipCode":"6471724","prefectureKana":"ﾜｶﾔﾏｹﾝ","cityKana":"ﾀﾅﾍﾞｼ","streetKana":"ﾎﾝｸﾞｳﾁｮｳﾉﾀﾞｹ","prefecture":"和歌山県","city":"田辺市","street":"本宮町野竹"},{"zipCode":"6471715","prefectureKana":"ﾜｶﾔﾏｹﾝ","cityKana":"ﾀﾅﾍﾞｼ","streetKana":"ﾎﾝｸﾞｳﾁｮｳﾋｶﾞｼﾜﾀﾞ","prefecture":"和歌山県","city":"田辺市","street":"本宮町東和田"},{"zipCode":"6471721","prefectureKana":"ﾜｶﾔﾏｹﾝ","cityKana":"ﾀﾅﾍﾞｼ","streetKana":"ﾎﾝｸﾞｳﾁｮｳﾋﾊﾞ","prefecture":"和歌山県","city":"田辺市","street":"本宮町檜葉"},{"zipCode":"6471743","prefectureKana":"ﾜｶﾔﾏｹﾝ","cityKana":"ﾀﾅﾍﾞｼ","streetKana":"ﾎﾝｸﾞｳﾁｮｳﾌｼｵｶﾞﾐ","prefecture":"和歌山県","city":"田辺市","street":"本宮町伏拝"},{"zipCode":"6471726","prefectureKana":"ﾜｶﾔﾏｹﾝ","cityKana":"ﾀﾅﾍﾞｼ","streetKana":"ﾎﾝｸﾞｳﾁｮｳﾌﾞｼﾞｭｳ","prefecture":"和歌山県","city":"田辺市","street":"本宮町武住"},{"zipCode":"6471731","prefectureKana":"ﾜｶﾔﾏｹﾝ","cityKana":"ﾀﾅﾍﾞｼ","streetKana":"ﾎﾝｸﾞｳﾁｮｳﾎﾝｸﾞｳ","prefecture":"和歌山県","city":"田辺市","street":"本宮町本宮"},{"zipCode":"6471735","prefectureKana":"ﾜｶﾔﾏｹﾝ","cityKana":"ﾀﾅﾍﾞｼ","streetKana":"ﾎﾝｸﾞｳﾁｮｳﾏｶﾞﾘｶﾜ","prefecture":"和歌山県","city":"田辺市","street":"本宮町曲川"},{"zipCode":"6471744","prefectureKana":"ﾜｶﾔﾏｹﾝ","cityKana":"ﾀﾅﾍﾞｼ","streetKana":"ﾎﾝｸﾞｳﾁｮｳﾐｺｼ","prefecture":"和歌山県","city":"田辺市","street":"本宮町三越"},{"zipCode":"6471711","prefectureKana":"ﾜｶﾔﾏｹﾝ","cityKana":"ﾀﾅﾍﾞｼ","streetKana":"ﾎﾝｸﾞｳﾁｮｳﾐﾅｾｶﾞﾜ","prefecture":"和歌山県","city":"田辺市","street":"本宮町皆瀬川"},{"zipCode":"6471723","prefectureKana":"ﾜｶﾔﾏｹﾝ","cityKana":"ﾀﾅﾍﾞｼ","streetKana":"ﾎﾝｸﾞｳﾁｮｳﾐﾅﾁ","prefecture":"和歌山県","city":"田辺市","street":"本宮町皆地"},{"zipCode":"6471713","prefectureKana":"ﾜｶﾔﾏｹﾝ","cityKana":"ﾀﾅﾍﾞｼ","streetKana":"ﾎﾝｸﾞｳﾁｮｳﾐﾉｵﾀﾞﾆ","prefecture":"和歌山県","city":"田辺市","street":"本宮町簑尾谷"},{"zipCode":"6471704","prefectureKana":"ﾜｶﾔﾏｹﾝ","cityKana":"ﾀﾅﾍﾞｼ","streetKana":"ﾎﾝｸﾞｳﾁｮｳﾐﾐｳﾁ","prefecture":"和歌山県","city":"田辺市","street":"本宮町耳打"},{"zipCode":"6471732","prefectureKana":"ﾜｶﾔﾏｹﾝ","cityKana":"ﾀﾅﾍﾞｼ","streetKana":"ﾎﾝｸﾞｳﾁｮｳﾕﾉﾐﾈ","prefecture":"和歌山県","city":"田辺市","street":"本宮町湯峯"},{"zipCode":"6471733","prefectureKana":"ﾜｶﾔﾏｹﾝ","cityKana":"ﾀﾅﾍﾞｼ","streetKana":"ﾎﾝｸﾞｳﾁｮｳﾜﾀｾﾞ","prefecture":"和歌山県","city":"田辺市","street":"本宮町渡瀬"},{"zipCode":"6470000","prefectureKana":"ﾜｶﾔﾏｹﾝ","cityKana":"ｼﾝｸﾞｳｼ","streetKana":"ｲｶﾆｹｲｻｲｶﾞﾅｲﾊﾞｱｲ","prefecture":"和歌山県","city":"新宮市","street":"以下に掲載がない場合"},{"zipCode":"6470001","prefectureKana":"ﾜｶﾔﾏｹﾝ","cityKana":"ｼﾝｸﾞｳｼ","streetKana":"ｱｲｽｼﾞ","prefecture":"和歌山県","city":"新宮市","street":"相筋"},{"zipCode":"6470025","prefectureKana":"ﾜｶﾔﾏｹﾝ","cityKana":"ｼﾝｸﾞｳｼ","streetKana":"ｱｹﾎﾞﾉ","prefecture":"和歌山県","city":"新宮市","street":"あけぼの"},{"zipCode":"6470022","prefectureKana":"ﾜｶﾔﾏｹﾝ","cityKana":"ｼﾝｸﾞｳｼ","streetKana":"ｱｽｶ","prefecture":"和歌山県","city":"新宮市","street":"阿須賀"},{"zipCode":"6470021","prefectureKana":"ﾜｶﾔﾏｹﾝ","cityKana":"ｼﾝｸﾞｳｼ","streetKana":"ｲｹﾀﾞ","prefecture":"和歌山県","city":"新宮市","street":"池田"},{"zipCode":"6470012","prefectureKana":"ﾜｶﾔﾏｹﾝ","cityKana":"ｼﾝｸﾞｳｼ","streetKana":"ｲｻﾀﾞﾁｮｳ","prefecture":"和歌山県","city":"新宮市","street":"伊佐田町"},{"zipCode":"6470045","prefectureKana":"ﾜｶﾔﾏｹﾝ","cityKana":"ｼﾝｸﾞｳｼ","streetKana":"ｲﾉｻﾜ","prefecture":"和歌山県","city":"新宮市","street":"井の沢"},{"zipCode":"6470051","prefectureKana":"ﾜｶﾔﾏｹﾝ","cityKana":"ｼﾝｸﾞｳｼ","streetKana":"ｲﾜﾀﾃ","prefecture":"和歌山県","city":"新宮市","street":"磐盾"},{"zipCode":"6470014","prefectureKana":"ﾜｶﾔﾏｹﾝ","cityKana":"ｼﾝｸﾞｳｼ","streetKana":"ｳｷｼﾞﾏ","prefecture":"和歌山県","city":"新宮市","street":"浮島"},{"zipCode":"6470008","prefectureKana":"ﾜｶﾔﾏｹﾝ","cityKana":"ｼﾝｸﾞｳｼ","streetKana":"ｳﾏﾏﾁ","prefecture":"和歌山県","city":"新宮市","street":"馬町"},{"zipCode":"6471102","prefectureKana":"ﾜｶﾔﾏｹﾝ","cityKana":"ｼﾝｸﾞｳｼ","streetKana":"ｵｳｶﾞ","prefecture":"和歌山県","city":"新宮市","street":"相賀"},{"zipCode":"6470032","prefectureKana":"ﾜｶﾔﾏｹﾝ","cityKana":"ｼﾝｸﾞｳｼ","streetKana":"ｵｳｼﾞﾁｮｳ","prefecture":"和歌山県","city":"新宮市","street":"王子町"},{"zipCode":"6470004","prefectureKana":"ﾜｶﾔﾏｹﾝ","cityKana":"ｼﾝｸﾞｳｼ","streetKana":"ｵｵﾊｼﾄﾞｵﾘ","prefecture":"和歌山県","city":"新宮市","street":"大橋通"},{"zipCode":"6470013","prefectureKana":"ﾜｶﾔﾏｹﾝ","cityKana":"ｼﾝｸﾞｳｼ","streetKana":"ｶｽｶﾞ","prefecture":"和歌山県","city":"新宮市","street":"春日"},{"zipCode":"6470044","prefectureKana":"ﾜｶﾔﾏｹﾝ","cityKana":"ｼﾝｸﾞｳｼ","streetKana":"ｶﾐｸﾗ","prefecture":"和歌山県","city":"新宮市","street":"神倉"},{"zipCode":"6470003","prefectureKana":"ﾜｶﾔﾏｹﾝ","cityKana":"ｼﾝｸﾞｳｼ","streetKana":"ｶﾐﾎﾝﾏﾁ","prefecture":"和歌山県","city":"新宮市","street":"上本町"},{"zipCode":"6470073","prefectureKana":"ﾜｶﾔﾏｹﾝ","cityKana":"ｼﾝｸﾞｳｼ","streetKana":"ｷﾉｶﾜ","prefecture":"和歌山県","city":"新宮市","street":"木ノ川"},{"zipCode":"6471216","prefectureKana":"ﾜｶﾔﾏｹﾝ","cityKana":"ｼﾝｸﾞｳｼ","streetKana":"ｸﾏﾉｶﾞﾜﾁｮｳｱｲｽ","prefecture":"和歌山県","city":"新宮市","street":"熊野川町相須"},{"zipCode":"6471214","prefectureKana":"ﾜｶﾔﾏｹﾝ","cityKana":"ｼﾝｸﾞｳｼ","streetKana":"ｸﾏﾉｶﾞﾜﾁｮｳｱｶｷﾞ","prefecture":"和歌山県","city":"新宮市","street":"熊野川町赤木"},{"zipCode":"6471207","prefectureKana":"ﾜｶﾔﾏｹﾝ","cityKana":"ｼﾝｸﾞｳｼ","streetKana":"ｸﾏﾉｶﾞﾜﾁｮｳｳﾈﾊﾀ","prefecture":"和歌山県","city":"新宮市","street":"熊野川町畝畑"},{"zipCode":"6471203","prefectureKana":"ﾜｶﾔﾏｹﾝ","cityKana":"ｼﾝｸﾞｳｼ","streetKana":"ｸﾏﾉｶﾞﾜﾁｮｳｵｵﾔﾏ","prefecture":"和歌山県","city":"新宮市","street":"熊野川町大山"},{"zipCode":"6471204","prefectureKana":"ﾜｶﾔﾏｹﾝ","cityKana":"ｼﾝｸﾞｳｼ","streetKana":"ｸﾏﾉｶﾞﾜﾁｮｳｶﾏﾂﾞｶ","prefecture":"和歌山県","city":"新宮市","street":"熊野川町鎌塚"},{"zipCode":"6471201","prefectureKana":"ﾜｶﾔﾏｹﾝ","cityKana":"ｼﾝｸﾞｳｼ","streetKana":"ｸﾏﾉｶﾞﾜﾁｮｳｶﾐﾅｶﾞｲ","prefecture":"和歌山県","city":"新宮市","street":"熊野川町上長井"},{"zipCode":"6471233","prefectureKana":"ﾜｶﾔﾏｹﾝ","cityKana":"ｼﾝｸﾞｳｼ","streetKana":"ｸﾏﾉｶﾞﾜﾁｮｳｸｼﾞｭｳ","prefecture":"和歌山県","city":"新宮市","street":"熊野川町九重"},{"zipCode":"6471223","prefectureKana":"ﾜｶﾔﾏｹﾝ","cityKana":"ｼﾝｸﾞｳｼ","streetKana":"ｸﾏﾉｶﾞﾜﾁｮｳｻｻﾋﾞ","prefecture":"和歌山県","city":"新宮市","street":"熊野川町篠尾"},{"zipCode":"6471234","prefectureKana":"ﾜｶﾔﾏｹﾝ","cityKana":"ｼﾝｸﾞｳｼ","streetKana":"ｸﾏﾉｶﾞﾜﾁｮｳｼﾀｷ","prefecture":"和歌山県","city":"新宮市","street":"熊野川町四滝"},{"zipCode":"6471232","prefectureKana":"ﾜｶﾔﾏｹﾝ","cityKana":"ｼﾝｸﾞｳｼ","streetKana":"ｸﾏﾉｶﾞﾜﾁｮｳｼﾏﾂﾞ","prefecture":"和歌山県","city":"新宮市","street":"熊野川町嶋津"},{"zipCode":"6471205","prefectureKana":"ﾜｶﾔﾏｹﾝ","cityKana":"ｼﾝｸﾞｳｼ","streetKana":"ｸﾏﾉｶﾞﾜﾁｮｳﾀｷﾓﾄ","prefecture":"和歌山県","city":"新宮市","street":"熊野川町滝本"},{"zipCode":"6471212","prefectureKana":"ﾜｶﾔﾏｹﾝ","cityKana":"ｼﾝｸﾞｳｼ","streetKana":"ｸﾏﾉｶﾞﾜﾁｮｳﾀﾅｺﾞ","prefecture":"和歌山県","city":"新宮市","street":"熊野川町田長"},{"zipCode":"6471231","prefectureKana":"ﾜｶﾔﾏｹﾝ","cityKana":"ｼﾝｸﾞｳｼ","streetKana":"ｸﾏﾉｶﾞﾜﾁｮｳﾀﾏｷｸﾞﾁ","prefecture":"和歌山県","city":"新宮市","street":"熊野川町玉置口"},{"zipCode":"6471206","prefectureKana":"ﾜｶﾔﾏｹﾝ","cityKana":"ｼﾝｸﾞｳｼ","streetKana":"ｸﾏﾉｶﾞﾜﾁｮｳﾆｼ","prefecture":"和歌山県","city":"新宮市","street":"熊野川町西"},{"zipCode":"6471221","prefectureKana":"ﾜｶﾔﾏｹﾝ","cityKana":"ｼﾝｸﾞｳｼ","streetKana":"ｸﾏﾉｶﾞﾜﾁｮｳﾆｼｼｷﾔ","prefecture":"和歌山県","city":"新宮市","street":"熊野川町西敷屋"},{"zipCode":"6471213","prefectureKana":"ﾜｶﾔﾏｹﾝ","cityKana":"ｼﾝｸﾞｳｼ","streetKana":"ｸﾏﾉｶﾞﾜﾁｮｳﾉｷﾔﾏﾓﾄ","prefecture":"和歌山県","city":"新宮市","street":"熊野川町能城山本"},{"zipCode":"6471202","prefectureKana":"ﾜｶﾔﾏｹﾝ","cityKana":"ｼﾝｸﾞｳｼ","streetKana":"ｸﾏﾉｶﾞﾜﾁｮｳﾋｶﾞｼ","prefecture":"和歌山県","city":"新宮市","street":"熊野川町東"},{"zipCode":"6471222","prefectureKana":"ﾜｶﾔﾏｹﾝ","cityKana":"ｼﾝｸﾞｳｼ","streetKana":"ｸﾏﾉｶﾞﾜﾁｮｳﾋｶﾞｼｼｷﾔ","prefecture":"和歌山県","city":"新宮市","street":"熊野川町東敷屋"},{"zipCode":"6471211","prefectureKana":"ﾜｶﾔﾏｹﾝ","cityKana":"ｼﾝｸﾞｳｼ","streetKana":"ｸﾏﾉｶﾞﾜﾁｮｳﾋﾀﾘ","prefecture":"和歌山県","city":"新宮市","street":"熊野川町日足"},{"zipCode":"6471235","prefectureKana":"ﾜｶﾔﾏｹﾝ","cityKana":"ｼﾝｸﾞｳｼ","streetKana":"ｸﾏﾉｶﾞﾜﾁｮｳﾐﾔｲ","prefecture":"和歌山県","city":"新宮市","street":"熊野川町宮井"},{"zipCode":"6471215","prefectureKana":"ﾜｶﾔﾏｹﾝ","cityKana":"ｼﾝｸﾞｳｼ","streetKana":"ｸﾏﾉｶﾞﾜﾁｮｳﾑｸﾉｲ","prefecture":"和歌山県","city":"新宮市","street":"熊野川町椋井"},{"zipCode":"6470024","prefectureKana":"ﾜｶﾔﾏｹﾝ","cityKana":"ｼﾝｸﾞｳｼ","streetKana":"ｸﾏﾉｼﾞ","prefecture":"和歌山県","city":"新宮市","street":"熊野地"},{"zipCode":"6470053","prefectureKana":"ﾜｶﾔﾏｹﾝ","cityKana":"ｼﾝｸﾞｳｼ","streetKana":"ｺﾞｼﾝ","prefecture":"和歌山県","city":"新宮市","street":"五新"},{"zipCode":"6470071","prefectureKana":"ﾜｶﾔﾏｹﾝ","cityKana":"ｼﾝｸﾞｳｼ","streetKana":"ｻﾉ","prefecture":"和歌山県","city":"新宮市","street":"佐野"},{"zipCode":"6470033","prefectureKana":"ﾜｶﾔﾏｹﾝ","cityKana":"ｼﾝｸﾞｳｼ","streetKana":"ｼﾐｽﾞﾓﾄ","prefecture":"和歌山県","city":"新宮市","street":"清水元"},{"zipCode":"6470042","prefectureKana":"ﾜｶﾔﾏｹﾝ","cityKana":"ｼﾝｸﾞｳｼ","streetKana":"ｼﾓﾀﾞ","prefecture":"和歌山県","city":"新宮市","street":"下田"},{"zipCode":"6470011","prefectureKana":"ﾜｶﾔﾏｹﾝ","cityKana":"ｼﾝｸﾞｳｼ","streetKana":"ｼﾓﾎﾝﾏﾁ","prefecture":"和歌山県","city":"新宮市","street":"下本町"},{"zipCode":"6470020","prefectureKana":"ﾜｶﾔﾏｹﾝ","cityKana":"ｼﾝｸﾞｳｼ","streetKana":"ｼﾞｮﾌｸ","prefecture":"和歌山県","city":"新宮市","street":"徐福"},{"zipCode":"6470081","prefectureKana":"ﾜｶﾔﾏｹﾝ","cityKana":"ｼﾝｸﾞｳｼ","streetKana":"ｼﾝｸﾞｳ","prefecture":"和歌山県","city":"新宮市","street":"新宮"},{"zipCode":"6470019","prefectureKana":"ﾜｶﾔﾏｹﾝ","cityKana":"ｼﾝｸﾞｳｼ","streetKana":"ｼﾝﾏﾁ","prefecture":"和歌山県","city":"新宮市","street":"新町"},{"zipCode":"6471101","prefectureKana":"ﾜｶﾔﾏｹﾝ","cityKana":"ｼﾝｸﾞｳｼ","streetKana":"ﾀｶﾀ","prefecture":"和歌山県","city":"新宮市","street":"高田"},{"zipCode":"6470031","prefectureKana":"ﾜｶﾔﾏｹﾝ","cityKana":"ｼﾝｸﾞｳｼ","streetKana":"ﾀｽﾞﾊﾗﾁｮｳ","prefecture":"和歌山県","city":"新宮市","street":"田鶴原町"},{"zipCode":"6470016","prefectureKana":"ﾜｶﾔﾏｹﾝ","cityKana":"ｼﾝｸﾞｳｼ","streetKana":"ﾀﾆｵｳｼﾞﾁｮｳ","prefecture":"和歌山県","city":"新宮市","street":"谷王子町"},{"zipCode":"6470010","prefectureKana":"ﾜｶﾔﾏｹﾝ","cityKana":"ｼﾝｸﾞｳｼ","streetKana":"ﾀﾝｶｸ","prefecture":"和歌山県","city":"新宮市","street":"丹鶴"},{"zipCode":"6470015","prefectureKana":"ﾜｶﾔﾏｹﾝ","cityKana":"ｼﾝｸﾞｳｼ","streetKana":"ﾁﾎ","prefecture":"和歌山県","city":"新宮市","street":"千穂"},{"zipCode":"6470018","prefectureKana":"ﾜｶﾔﾏｹﾝ","cityKana":"ｼﾝｸﾞｳｼ","streetKana":"ﾅｶﾉﾁｮｳ","prefecture":"和歌山県","city":"新宮市","street":"仲之町"},{"zipCode":"6470041","prefectureKana":"ﾜｶﾔﾏｹﾝ","cityKana":"ｼﾝｸﾞｳｼ","streetKana":"ﾉﾀﾞ","prefecture":"和歌山県","city":"新宮市","street":"野田"},{"zipCode":"6470052","prefectureKana":"ﾜｶﾔﾏｹﾝ","cityKana":"ｼﾝｸﾞｳｼ","streetKana":"ﾊｼﾓﾄ","prefecture":"和歌山県","city":"新宮市","street":"橋本"},{"zipCode":"6470072","prefectureKana":"ﾜｶﾔﾏｹﾝ","cityKana":"ｼﾝｸﾞｳｼ","streetKana":"ﾊﾁﾌﾞｾ","prefecture":"和歌山県","city":"新宮市","street":"蜂伏"},{"zipCode":"6470002","prefectureKana":"ﾜｶﾔﾏｹﾝ","cityKana":"ｼﾝｸﾞｳｼ","streetKana":"ﾌﾅﾏﾁ","prefecture":"和歌山県","city":"新宮市","street":"船町"},{"zipCode":"6470007","prefectureKana":"ﾜｶﾔﾏｹﾝ","cityKana":"ｼﾝｸﾞｳｼ","streetKana":"ﾍﾞｯﾄｳﾔｼｷﾁｮｳ","prefecture":"和歌山県","city":"新宮市","street":"別当屋敷町"},{"zipCode":"6470023","prefectureKana":"ﾜｶﾔﾏｹﾝ","cityKana":"ｼﾝｸﾞｳｼ","streetKana":"ﾎｳﾗｲ","prefecture":"和歌山県","city":"新宮市","street":"蓬莱"},{"zipCode":"6470034","prefectureKana":"ﾜｶﾔﾏｹﾝ","cityKana":"ｼﾝｸﾞｳｼ","streetKana":"ﾏﾙﾔﾏ","prefecture":"和歌山県","city":"新宮市","street":"丸山"},{"zipCode":"6470043","prefectureKana":"ﾜｶﾔﾏｹﾝ","cityKana":"ｼﾝｸﾞｳｼ","streetKana":"ﾐﾄﾞﾘｶﾞｵｶ","prefecture":"和歌山県","city":"新宮市","street":"緑ケ丘"},{"zipCode":"6470054","prefectureKana":"ﾜｶﾔﾏｹﾝ","cityKana":"ｼﾝｸﾞｳｼ","streetKana":"ﾐﾅﾐﾋﾂﾞｴ","prefecture":"和歌山県","city":"新宮市","street":"南檜杖"},{"zipCode":"6471103","prefectureKana":"ﾜｶﾔﾏｹﾝ","cityKana":"ｼﾝｸﾞｳｼ","streetKana":"ﾐﾅﾐﾋﾂﾞｴ(ﾂﾁﾉｺ)","prefecture":"和歌山県","city":"新宮市","street":"南檜杖（土ノ河）"},{"zipCode":"6470061","prefectureKana":"ﾜｶﾔﾏｹﾝ","cityKana":"ｼﾝｸﾞｳｼ","streetKana":"ﾐﾜｻｷ","prefecture":"和歌山県","city":"新宮市","street":"三輪崎"},{"zipCode":"6470005","prefectureKana":"ﾜｶﾔﾏｹﾝ","cityKana":"ｼﾝｸﾞｳｼ","streetKana":"ﾓﾄｶｼﾞﾁｮｳ","prefecture":"和歌山県","city":"新宮市","street":"元鍛治町"},{"zipCode":"6470006","prefectureKana":"ﾜｶﾔﾏｹﾝ","cityKana":"ｼﾝｸﾞｳｼ","streetKana":"ﾔｸｼﾏﾁ","prefecture":"和歌山県","city":"新宮市","street":"薬師町"},{"zipCode":"6470017","prefectureKana":"ﾜｶﾔﾏｹﾝ","cityKana":"ｼﾝｸﾞｳｼ","streetKana":"ﾖｺﾏﾁ","prefecture":"和歌山県","city":"新宮市","street":"横町"},{"zipCode":"6471600","prefectureKana":"ﾜｶﾔﾏｹﾝ","cityKana":"ﾋｶﾞｼﾑﾛｸﾞﾝｷﾀﾔﾏﾑﾗ","streetKana":"ｲｶﾆｹｲｻｲｶﾞﾅｲﾊﾞｱｲ","prefecture":"和歌山県","city":"東牟婁郡北山村","street":"以下に掲載がない場合"},{"zipCode":"6471603","prefectureKana":"ﾜｶﾔﾏｹﾝ","cityKana":"ﾋｶﾞｼﾑﾛｸﾞﾝｷﾀﾔﾏﾑﾗ","streetKana":"ｵｵﾇﾏ","prefecture":"和歌山県","city":"東牟婁郡北山村","street":"大沼"},{"zipCode":"6471605","prefectureKana":"ﾜｶﾔﾏｹﾝ","cityKana":"ﾋｶﾞｼﾑﾛｸﾞﾝｷﾀﾔﾏﾑﾗ","streetKana":"ｺﾏﾂ","prefecture":"和歌山県","city":"東牟婁郡北山村","street":"小松"},{"zipCode":"6471604","prefectureKana":"ﾜｶﾔﾏｹﾝ","cityKana":"ﾋｶﾞｼﾑﾛｸﾞﾝｷﾀﾔﾏﾑﾗ","streetKana":"ｼﾓｵｲ","prefecture":"和歌山県","city":"東牟婁郡北山村","street":"下尾井"},{"zipCode":"6471602","prefectureKana":"ﾜｶﾔﾏｹﾝ","cityKana":"ﾋｶﾞｼﾑﾛｸﾞﾝｷﾀﾔﾏﾑﾗ","streetKana":"ﾀｹﾊﾗ","prefecture":"和歌山県","city":"東牟婁郡北山村","street":"竹原"},{"zipCode":"6471601","prefectureKana":"ﾜｶﾔﾏｹﾝ","cityKana":"ﾋｶﾞｼﾑﾛｸﾞﾝｷﾀﾔﾏﾑﾗ","streetKana":"ﾅﾅｲﾛ","prefecture":"和歌山県","city":"東牟婁郡北山村","street":"七色"}]