[{"zipCode":"6496336","prefectureKana":"ﾜｶﾔﾏｹﾝ","cityKana":"ﾜｶﾔﾏｼ","streetKana":"ｱｽﾞｼﾏ","prefecture":"和歌山県","city":"和歌山市","street":"小豆島"},{"zipCode":"6496323","prefectureKana":"ﾜｶﾔﾏｹﾝ","cityKana":"ﾜｶﾔﾏｼ","streetKana":"ｲﾉｸﾁ","prefecture":"和歌山県","city":"和歌山市","street":"井ノ口"},{"zipCode":"6496316","prefectureKana":"ﾜｶﾔﾏｹﾝ","cityKana":"ﾜｶﾔﾏｼ","streetKana":"ｳｴﾉ","prefecture":"和歌山県","city":"和歌山市","street":"上野"},{"zipCode":"6496332","prefectureKana":"ﾜｶﾔﾏｹﾝ","cityKana":"ﾜｶﾔﾏｼ","streetKana":"ｳﾀﾞﾓﾘ","prefecture":"和歌山県","city":"和歌山市","street":"宇田森"},{"zipCode":"6496272","prefectureKana":"ﾜｶﾔﾏｹﾝ","cityKana":"ﾜｶﾔﾏｼ","streetKana":"ｵｵｶﾞｲﾄ","prefecture":"和歌山県","city":"和歌山市","street":"大垣内"},{"zipCode":"6496261","prefectureKana":"ﾜｶﾔﾏｹﾝ","cityKana":"ﾜｶﾔﾏｼ","streetKana":"ｵｸﾞﾗ","prefecture":"和歌山県","city":"和歌山市","street":"小倉"},{"zipCode":"6496308","prefectureKana":"ﾜｶﾔﾏｹﾝ","cityKana":"ﾜｶﾔﾏｼ","streetKana":"ｵﾁｱｲ","prefecture":"和歌山県","city":"和歌山市","street":"落合"},{"zipCode":"6496274","prefectureKana":"ﾜｶﾔﾏｹﾝ","cityKana":"ﾜｶﾔﾏｼ","streetKana":"ｶﾅﾔ","prefecture":"和歌山県","city":"和歌山市","street":"金谷"},{"zipCode":"6496306","prefectureKana":"ﾜｶﾔﾏｹﾝ","cityKana":"ﾜｶﾔﾏｼ","streetKana":"ｶﾐｸﾛﾀﾞﾆ","prefecture":"和歌山県","city":"和歌山市","street":"上黒谷"},{"zipCode":"6496262","prefectureKana":"ﾜｶﾔﾏｹﾝ","cityKana":"ﾜｶﾔﾏｼ","streetKana":"ｶﾐﾐｹ","prefecture":"和歌山県","city":"和歌山市","street":"上三毛"},{"zipCode":"6496312","prefectureKana":"ﾜｶﾔﾏｹﾝ","cityKana":"ﾜｶﾔﾏｼ","streetKana":"ｶﾜﾅﾍﾞ","prefecture":"和歌山県","city":"和歌山市","street":"川辺"},{"zipCode":"6496334","prefectureKana":"ﾜｶﾔﾏｹﾝ","cityKana":"ﾜｶﾔﾏｼ","streetKana":"ｷﾀ","prefecture":"和歌山県","city":"和歌山市","street":"北"},{"zipCode":"6496331","prefectureKana":"ﾜｶﾔﾏｹﾝ","cityKana":"ﾜｶﾔﾏｼ","streetKana":"ｷﾀﾉ","prefecture":"和歌山県","city":"和歌山市","street":"北野"},{"zipCode":"6496307","prefectureKana":"ﾜｶﾔﾏｹﾝ","cityKana":"ﾜｶﾔﾏｼ","streetKana":"ｷﾀﾍﾞｯｼﾖ","prefecture":"和歌山県","city":"和歌山市","street":"北別所"},{"zipCode":"6496313","prefectureKana":"ﾜｶﾔﾏｹﾝ","cityKana":"ﾜｶﾔﾏｼ","streetKana":"ｸｽﾓﾄ","prefecture":"和歌山県","city":"和歌山市","street":"楠本"},{"zipCode":"6496315","prefectureKana":"ﾜｶﾔﾏｹﾝ","cityKana":"ﾜｶﾔﾏｼ","streetKana":"ｺｳﾅﾐ","prefecture":"和歌山県","city":"和歌山市","street":"神波"},{"zipCode":"6496311","prefectureKana":"ﾜｶﾔﾏｹﾝ","cityKana":"ﾜｶﾔﾏｼ","streetKana":"ｻﾄ","prefecture":"和歌山県","city":"和歌山市","street":"里"},{"zipCode":"6496314","prefectureKana":"ﾜｶﾔﾏｹﾝ","cityKana":"ﾜｶﾔﾏｼ","streetKana":"ｼﾏ","prefecture":"和歌山県","city":"和歌山市","street":"島"},{"zipCode":"6496263","prefectureKana":"ﾜｶﾔﾏｹﾝ","cityKana":"ﾜｶﾔﾏｼ","streetKana":"ｼﾓﾐｹ","prefecture":"和歌山県","city":"和歌山市","street":"下三毛"},{"zipCode":"6496325","prefectureKana":"ﾜｶﾔﾏｹﾝ","cityKana":"ﾜｶﾔﾏｼ","streetKana":"ｼﾓﾜｻ","prefecture":"和歌山県","city":"和歌山市","street":"下和佐"},{"zipCode":"6496264","prefectureKana":"ﾜｶﾔﾏｹﾝ","cityKana":"ﾜｶﾔﾏｼ","streetKana":"ｼﾝｼﾞｮｳ","prefecture":"和歌山県","city":"和歌山市","street":"新庄"},{"zipCode":"6496301","prefectureKana":"ﾜｶﾔﾏｹﾝ","cityKana":"ﾜｶﾔﾏｼ","streetKana":"ﾀｷﾊﾀ","prefecture":"和歌山県","city":"和歌山市","street":"滝畑"},{"zipCode":"6496305","prefectureKana":"ﾜｶﾔﾏｹﾝ","cityKana":"ﾜｶﾔﾏｼ","streetKana":"ﾀﾆ","prefecture":"和歌山県","city":"和歌山市","street":"谷"},{"zipCode":"6496337","prefectureKana":"ﾜｶﾔﾏｹﾝ","cityKana":"ﾜｶﾔﾏｼ","streetKana":"ﾀﾔ","prefecture":"和歌山県","city":"和歌山市","street":"田屋"},{"zipCode":"6496304","prefectureKana":"ﾜｶﾔﾏｹﾝ","cityKana":"ﾜｶﾔﾏｼ","streetKana":"ﾅｶｽｼﾞﾋﾉﾍﾞ","prefecture":"和歌山県","city":"和歌山市","street":"中筋日延"},{"zipCode":"6496333","prefectureKana":"ﾜｶﾔﾏｹﾝ","cityKana":"ﾜｶﾔﾏｼ","streetKana":"ﾅﾝｺﾞ","prefecture":"和歌山県","city":"和歌山市","street":"永穂"},{"zipCode":"6496335","prefectureKana":"ﾜｶﾔﾏｹﾝ","cityKana":"ﾜｶﾔﾏｼ","streetKana":"ﾆｼﾀｲ","prefecture":"和歌山県","city":"和歌山市","street":"西田井"},{"zipCode":"6496324","prefectureKana":"ﾜｶﾔﾏｹﾝ","cityKana":"ﾜｶﾔﾏｼ","streetKana":"ﾈｷﾞ","prefecture":"和歌山県","city":"和歌山市","street":"祢宜"},{"zipCode":"6496275","prefectureKana":"ﾜｶﾔﾏｹﾝ","cityKana":"ﾜｶﾔﾏｼ","streetKana":"ﾊﾝｻﾞｷ","prefecture":"和歌山県","city":"和歌山市","street":"吐前"},{"zipCode":"6496273","prefectureKana":"ﾜｶﾔﾏｹﾝ","cityKana":"ﾜｶﾔﾏｼ","streetKana":"ﾋｶﾞｼﾀﾅｶ","prefecture":"和歌山県","city":"和歌山市","street":"東田中"},{"zipCode":"6496303","prefectureKana":"ﾜｶﾔﾏｹﾝ","cityKana":"ﾜｶﾔﾏｼ","streetKana":"ﾋﾗｵｶ","prefecture":"和歌山県","city":"和歌山市","street":"平岡"},{"zipCode":"6496339","prefectureKana":"ﾜｶﾔﾏｹﾝ","cityKana":"ﾜｶﾔﾏｼ","streetKana":"ﾋﾛﾆｼ","prefecture":"和歌山県","city":"和歌山市","street":"弘西"},{"zipCode":"6496318","prefectureKana":"ﾜｶﾔﾏｹﾝ","cityKana":"ﾜｶﾔﾏｼ","streetKana":"ﾌｼﾞﾀ","prefecture":"和歌山県","city":"和歌山市","street":"藤田"},{"zipCode":"6496338","prefectureKana":"ﾜｶﾔﾏｹﾝ","cityKana":"ﾜｶﾔﾏｼ","streetKana":"ﾌﾁｭｳ","prefecture":"和歌山県","city":"和歌山市","street":"府中"},{"zipCode":"6496321","prefectureKana":"ﾜｶﾔﾏｹﾝ","cityKana":"ﾜｶﾔﾏｼ","streetKana":"ﾎｼﾔ","prefecture":"和歌山県","city":"和歌山市","street":"布施屋"},{"zipCode":"6496271","prefectureKana":"ﾜｶﾔﾏｹﾝ","cityKana":"ﾜｶﾔﾏｼ","streetKana":"ﾐﾂﾔ","prefecture":"和歌山県","city":"和歌山市","street":"満屋"},{"zipCode":"6496317","prefectureKana":"ﾜｶﾔﾏｹﾝ","cityKana":"ﾜｶﾔﾏｼ","streetKana":"ﾔﾏｸﾞﾁﾆｼ","prefecture":"和歌山県","city":"和歌山市","street":"山口西"},{"zipCode":"6496302","prefectureKana":"ﾜｶﾔﾏｹﾝ","cityKana":"ﾜｶﾔﾏｼ","streetKana":"ﾕﾔﾀﾞﾆ","prefecture":"和歌山県","city":"和歌山市","street":"湯屋谷"},{"zipCode":"6496322","prefectureKana":"ﾜｶﾔﾏｹﾝ","cityKana":"ﾜｶﾔﾏｼ","streetKana":"ﾜｻｾｷﾄﾞ","prefecture":"和歌山県","city":"和歌山市","street":"和佐関戸"},{"zipCode":"6496326","prefectureKana":"ﾜｶﾔﾏｹﾝ","cityKana":"ﾜｶﾔﾏｼ","streetKana":"ﾜｻﾅｶ","prefecture":"和歌山県","city":"和歌山市","street":"和佐中"},{"zipCode":"6490147","prefectureKana":"ﾜｶﾔﾏｹﾝ","cityKana":"ｶｲﾅﾝｼ","streetKana":"ｼﾓﾂﾁｮｳｱｵｼ","prefecture":"和歌山県","city":"海南市","street":"下津町青枝"},{"zipCode":"6490145","prefectureKana":"ﾜｶﾔﾏｹﾝ","cityKana":"ｶｲﾅﾝｼ","streetKana":"ｼﾓﾂﾁｮｳｲﾁﾂﾎﾞ","prefecture":"和歌山県","city":"海南市","street":"下津町市坪"},{"zipCode":"6490132","prefectureKana":"ﾜｶﾔﾏｹﾝ","cityKana":"ｶｲﾅﾝｼ","streetKana":"ｼﾓﾂﾁｮｳｳﾒﾀﾞ","prefecture":"和歌山県","city":"海南市","street":"下津町梅田"},{"zipCode":"6490155","prefectureKana":"ﾜｶﾔﾏｹﾝ","cityKana":"ｶｲﾅﾝｼ","streetKana":"ｼﾓﾂﾁｮｳｵｵｸﾎﾞ","prefecture":"和歌山県","city":"海南市","street":"下津町大窪"},{"zipCode":"6490112","prefectureKana":"ﾜｶﾔﾏｹﾝ","cityKana":"ｶｲﾅﾝｼ","streetKana":"ｼﾓﾂﾁｮｳｵｵｻｷ","prefecture":"和歌山県","city":"海南市","street":"下津町大崎"},{"zipCode":"6490153","prefectureKana":"ﾜｶﾔﾏｹﾝ","cityKana":"ｶｲﾅﾝｼ","streetKana":"ｼﾓﾂﾁｮｳｵｷ","prefecture":"和歌山県","city":"海南市","street":"下津町興"},{"zipCode":"6490162","prefectureKana":"ﾜｶﾔﾏｹﾝ","cityKana":"ｶｲﾅﾝｼ","streetKana":"ｼﾓﾂﾁｮｳｵﾊﾞﾗ","prefecture":"和歌山県","city":"海南市","street":"下津町小原"},{"zipCode":"6490154","prefectureKana":"ﾜｶﾔﾏｹﾝ","cityKana":"ｶｲﾅﾝｼ","streetKana":"ｼﾓﾂﾁｮｳｶｻﾊﾞﾀ","prefecture":"和歌山県","city":"海南市","street":"下津町笠畑"},{"zipCode":"6490111","prefectureKana":"ﾜｶﾔﾏｹﾝ","cityKana":"ｶｲﾅﾝｼ","streetKana":"ｼﾓﾂﾁｮｳｶﾀ","prefecture":"和歌山県","city":"海南市","street":"下津町方"},{"zipCode":"6490164","prefectureKana":"ﾜｶﾔﾏｹﾝ","cityKana":"ｶｲﾅﾝｼ","streetKana":"ｼﾓﾂﾁｮｳｶﾐ","prefecture":"和歌山県","city":"海南市","street":"下津町上"},{"zipCode":"6490163","prefectureKana":"ﾜｶﾔﾏｹﾝ","cityKana":"ｶｲﾅﾝｼ","streetKana":"ｼﾓﾂﾁｮｳｶﾚｶﾞﾜ","prefecture":"和歌山県","city":"海南市","street":"下津町鰈川"},{"zipCode":"6490144","prefectureKana":"ﾜｶﾔﾏｹﾝ","cityKana":"ｶｲﾅﾝｼ","streetKana":"ｼﾓﾂﾁｮｳｷﾂﾓﾄ","prefecture":"和歌山県","city":"海南市","street":"下津町橘本"},{"zipCode":"6490146","prefectureKana":"ﾜｶﾔﾏｹﾝ","cityKana":"ｶｲﾅﾝｼ","streetKana":"ｼﾓﾂﾁｮｳｸﾂｶｹ","prefecture":"和歌山県","city":"海南市","street":"下津町沓掛"},{"zipCode":"6490122","prefectureKana":"ﾜｶﾔﾏｹﾝ","cityKana":"ｶｲﾅﾝｼ","streetKana":"ｼﾓﾂﾁｮｳｸﾛﾀﾞ","prefecture":"和歌山県","city":"海南市","street":"下津町黒田"},{"zipCode":"6490161","prefectureKana":"ﾜｶﾔﾏｹﾝ","cityKana":"ｶｲﾅﾝｼ","streetKana":"ｼﾓﾂﾁｮｳｺﾊﾞﾀ","prefecture":"和歌山県","city":"海南市","street":"下津町小畑"},{"zipCode":"6490143","prefectureKana":"ﾜｶﾔﾏｹﾝ","cityKana":"ｶｲﾅﾝｼ","streetKana":"ｼﾓﾂﾁｮｳｺﾏﾂﾊﾞﾗ","prefecture":"和歌山県","city":"海南市","street":"下津町小松原"},{"zipCode":"6490141","prefectureKana":"ﾜｶﾔﾏｹﾝ","cityKana":"ｶｲﾅﾝｼ","streetKana":"ｼﾓﾂﾁｮｳｺﾐﾅﾐ","prefecture":"和歌山県","city":"海南市","street":"下津町小南"},{"zipCode":"6490131","prefectureKana":"ﾜｶﾔﾏｹﾝ","cityKana":"ｶｲﾅﾝｼ","streetKana":"ｼﾓﾂﾁｮｳｼｵﾂ","prefecture":"和歌山県","city":"海南市","street":"下津町塩津"},{"zipCode":"6490133","prefectureKana":"ﾜｶﾔﾏｹﾝ","cityKana":"ｶｲﾅﾝｼ","streetKana":"ｼﾓﾂﾁｮｳｼﾓ","prefecture":"和歌山県","city":"海南市","street":"下津町下"},{"zipCode":"6490101","prefectureKana":"ﾜｶﾔﾏｹﾝ","cityKana":"ｶｲﾅﾝｼ","streetKana":"ｼﾓﾂﾁｮｳｼﾓﾂ","prefecture":"和歌山県","city":"海南市","street":"下津町下津"},{"zipCode":"6490151","prefectureKana":"ﾜｶﾔﾏｹﾝ","cityKana":"ｶｲﾅﾝｼ","streetKana":"ｼﾓﾂﾁｮｳｿﾈﾀﾞ","prefecture":"和歌山県","city":"海南市","street":"下津町曽根田"},{"zipCode":"6490142","prefectureKana":"ﾜｶﾔﾏｹﾝ","cityKana":"ｶｲﾅﾝｼ","streetKana":"ｼﾓﾂﾁｮｳﾅｶ","prefecture":"和歌山県","city":"海南市","street":"下津町中"},{"zipCode":"6490152","prefectureKana":"ﾜｶﾔﾏｹﾝ","cityKana":"ｶｲﾅﾝｼ","streetKana":"ｼﾓﾂﾁｮｳﾋｷｵ","prefecture":"和歌山県","city":"海南市","street":"下津町引尾"},{"zipCode":"6490121","prefectureKana":"ﾜｶﾔﾏｹﾝ","cityKana":"ｶｲﾅﾝｼ","streetKana":"ｼﾓﾂﾁｮｳﾏﾙﾀﾞ","prefecture":"和歌山県","city":"海南市","street":"下津町丸田"},{"zipCode":"6490156","prefectureKana":"ﾜｶﾔﾏｹﾝ","cityKana":"ｶｲﾅﾝｼ","streetKana":"ｼﾓﾂﾁｮｳﾓﾓｶﾞｲﾄ","prefecture":"和歌山県","city":"海南市","street":"下津町百垣内"},{"zipCode":"6490123","prefectureKana":"ﾜｶﾔﾏｹﾝ","cityKana":"ｶｲﾅﾝｼ","streetKana":"ｼﾓﾂﾁｮｳﾖﾛ","prefecture":"和歌山県","city":"海南市","street":"下津町丁"},{"zipCode":"6497201","prefectureKana":"ﾜｶﾔﾏｹﾝ","cityKana":"ﾊｼﾓﾄｼ","streetKana":"ｺｳﾔｸﾞﾁﾁｮｳｵｳｺﾞ","prefecture":"和歌山県","city":"橋本市","street":"高野口町応其"},{"zipCode":"6497207","prefectureKana":"ﾜｶﾔﾏｹﾝ","cityKana":"ﾊｼﾓﾄｼ","streetKana":"ｺｳﾔｸﾞﾁﾁｮｳｵｵﾉ","prefecture":"和歌山県","city":"橋本市","street":"高野口町大野"},{"zipCode":"6497204","prefectureKana":"ﾜｶﾔﾏｹﾝ","cityKana":"ﾊｼﾓﾄｼ","streetKana":"ｺｳﾔｸﾞﾁﾁｮｳｵﾀﾞ","prefecture":"和歌山県","city":"橋本市","street":"高野口町小田"},{"zipCode":"6497212","prefectureKana":"ﾜｶﾔﾏｹﾝ","cityKana":"ﾊｼﾓﾄｼ","streetKana":"ｺｳﾔｸﾞﾁﾁｮｳｶﾐﾅｶ","prefecture":"和歌山県","city":"橋本市","street":"高野口町上中"},{"zipCode":"6497215","prefectureKana":"ﾜｶﾔﾏｹﾝ","cityKana":"ﾊｼﾓﾄｼ","streetKana":"ｺｳﾔｸﾞﾁﾁｮｳｸｼﾞｭｳ","prefecture":"和歌山県","city":"橋本市","street":"高野口町九重"},{"zipCode":"6497213","prefectureKana":"ﾜｶﾔﾏｹﾝ","cityKana":"ﾊｼﾓﾄｼ","streetKana":"ｺｳﾔｸﾞﾁﾁｮｳｻｶﾞﾀﾆ","prefecture":"和歌山県","city":"橋本市","street":"高野口町嵯峨谷"},{"zipCode":"6497211","prefectureKana":"ﾜｶﾔﾏｹﾝ","cityKana":"ﾊｼﾓﾄｼ","streetKana":"ｺｳﾔｸﾞﾁﾁｮｳｼﾓﾅｶ","prefecture":"和歌山県","city":"橋本市","street":"高野口町下中"},{"zipCode":"6497214","prefectureKana":"ﾜｶﾔﾏｹﾝ","cityKana":"ﾊｼﾓﾄｼ","streetKana":"ｺｳﾔｸﾞﾁﾁｮｳﾀｹｵ","prefecture":"和歌山県","city":"橋本市","street":"高野口町竹尾"},{"zipCode":"6497216","prefectureKana":"ﾜｶﾔﾏｹﾝ","cityKana":"ﾊｼﾓﾄｼ","streetKana":"ｺｳﾔｸﾞﾁﾁｮｳﾀﾊﾗ","prefecture":"和歌山県","city":"橋本市","street":"高野口町田原"},{"zipCode":"6497205","prefectureKana":"ﾜｶﾔﾏｹﾝ","cityKana":"ﾊｼﾓﾄｼ","streetKana":"ｺｳﾔｸﾞﾁﾁｮｳﾅｸﾞﾗ","prefecture":"和歌山県","city":"橋本市","street":"高野口町名倉"},{"zipCode":"6497203","prefectureKana":"ﾜｶﾔﾏｹﾝ","cityKana":"ﾊｼﾓﾄｼ","streetKana":"ｺｳﾔｸﾞﾁﾁｮｳﾅｺﾞｿ","prefecture":"和歌山県","city":"橋本市","street":"高野口町名古曽"},{"zipCode":"6497202","prefectureKana":"ﾜｶﾔﾏｹﾝ","cityKana":"ﾊｼﾓﾄｼ","streetKana":"ｺｳﾔｸﾞﾁﾁｮｳﾌｼﾊﾗ","prefecture":"和歌山県","city":"橋本市","street":"高野口町伏原"},{"zipCode":"6497206","prefectureKana":"ﾜｶﾔﾏｹﾝ","cityKana":"ﾊｼﾓﾄｼ","streetKana":"ｺｳﾔｸﾞﾁﾁｮｳﾑｺｳｼﾞﾏ","prefecture":"和歌山県","city":"橋本市","street":"高野口町向島"},{"zipCode":"6490300","prefectureKana":"ﾜｶﾔﾏｹﾝ","cityKana":"ｱﾘﾀﾞｼ","streetKana":"ｲｶﾆｹｲｻｲｶﾞﾅｲﾊﾞｱｲ","prefecture":"和歌山県","city":"有田市","street":"以下に掲載がない場合"},{"zipCode":"6490421","prefectureKana":"ﾜｶﾔﾏｹﾝ","cityKana":"ｱﾘﾀﾞｼ","streetKana":"ｲﾄｶﾞﾁｮｳﾅｶﾊﾞﾝ","prefecture":"和歌山県","city":"有田市","street":"糸我町中番"},{"zipCode":"6490422","prefectureKana":"ﾜｶﾔﾏｹﾝ","cityKana":"ｱﾘﾀﾞｼ","streetKana":"ｲﾄｶﾞﾁｮｳﾆｼ","prefecture":"和歌山県","city":"有田市","street":"糸我町西"},{"zipCode":"6490317","prefectureKana":"ﾜｶﾔﾏｹﾝ","cityKana":"ｱﾘﾀﾞｼ","streetKana":"ｺｴﾐ","prefecture":"和歌山県","city":"有田市","street":"古江見"},{"zipCode":"6490301","prefectureKana":"ﾜｶﾔﾏｹﾝ","cityKana":"ｱﾘﾀﾞｼ","streetKana":"ｼﾓﾅｶｼﾏ","prefecture":"和歌山県","city":"有田市","street":"下中島"},{"zipCode":"6490303","prefectureKana":"ﾜｶﾔﾏｹﾝ","cityKana":"ｱﾘﾀﾞｼ","streetKana":"ｼﾝﾄﾞｳ","prefecture":"和歌山県","city":"有田市","street":"新堂"},{"zipCode":"6490313","prefectureKana":"ﾜｶﾔﾏｹﾝ","cityKana":"ｱﾘﾀﾞｼ","streetKana":"ﾁﾀﾞ","prefecture":"和歌山県","city":"有田市","street":"千田"},{"zipCode":"6490311","prefectureKana":"ﾜｶﾔﾏｹﾝ","cityKana":"ｱﾘﾀﾞｼ","streetKana":"ﾂｼﾞﾄﾞｳ","prefecture":"和歌山県","city":"有田市","street":"辻堂"},{"zipCode":"6490314","prefectureKana":"ﾜｶﾔﾏｹﾝ","cityKana":"ｱﾘﾀﾞｼ","streetKana":"ﾉ","prefecture":"和歌山県","city":"有田市","street":"野"},{"zipCode":"6490307","prefectureKana":"ﾜｶﾔﾏｹﾝ","cityKana":"ｱﾘﾀﾞｼ","streetKana":"ﾊﾂｼﾏﾁｮｳｻﾄ","prefecture":"和歌山県","city":"有田市","street":"初島町里"},{"zipCode":"6490306","prefectureKana":"ﾜｶﾔﾏｹﾝ","cityKana":"ｱﾘﾀﾞｼ","streetKana":"ﾊﾂｼﾏﾁｮｳﾊﾏ","prefecture":"和歌山県","city":"有田市","street":"初島町浜"},{"zipCode":"6490312","prefectureKana":"ﾜｶﾔﾏｹﾝ","cityKana":"ｱﾘﾀﾞｼ","streetKana":"ﾎｼｵ","prefecture":"和歌山県","city":"有田市","street":"星尾"},{"zipCode":"6490305","prefectureKana":"ﾜｶﾔﾏｹﾝ","cityKana":"ｱﾘﾀﾞｼ","streetKana":"ﾐﾅﾄﾏﾁ","prefecture":"和歌山県","city":"有田市","street":"港町"},{"zipCode":"6490304","prefectureKana":"ﾜｶﾔﾏｹﾝ","cityKana":"ｱﾘﾀﾞｼ","streetKana":"ﾐﾉｼﾏ","prefecture":"和歌山県","city":"有田市","street":"箕島"},{"zipCode":"6490316","prefectureKana":"ﾜｶﾔﾏｹﾝ","cityKana":"ｱﾘﾀﾞｼ","streetKana":"ﾐﾔｻﾞｷﾁｮｳ","prefecture":"和歌山県","city":"有田市","street":"宮崎町"},{"zipCode":"6490434","prefectureKana":"ﾜｶﾔﾏｹﾝ","cityKana":"ｱﾘﾀﾞｼ","streetKana":"ﾐﾔﾊﾗﾁｮｳｼﾝﾏﾁ","prefecture":"和歌山県","city":"有田市","street":"宮原町新町"},{"zipCode":"6490433","prefectureKana":"ﾜｶﾔﾏｹﾝ","cityKana":"ｱﾘﾀﾞｼ","streetKana":"ﾐﾔﾊﾗﾁｮｳｽｶﾞｲ","prefecture":"和歌山県","city":"有田市","street":"宮原町須谷"},{"zipCode":"6490437","prefectureKana":"ﾜｶﾔﾏｹﾝ","cityKana":"ｱﾘﾀﾞｼ","streetKana":"ﾐﾔﾊﾗﾁｮｳﾀｷ","prefecture":"和歌山県","city":"有田市","street":"宮原町滝"},{"zipCode":"6490435","prefectureKana":"ﾜｶﾔﾏｹﾝ","cityKana":"ｱﾘﾀﾞｼ","streetKana":"ﾐﾔﾊﾗﾁｮｳﾀｷｶﾞﾊﾗ","prefecture":"和歌山県","city":"有田市","street":"宮原町滝川原"},{"zipCode":"6490436","prefectureKana":"ﾜｶﾔﾏｹﾝ","cityKana":"ｱﾘﾀﾞｼ","streetKana":"ﾐﾔﾊﾗﾁｮｳﾄﾞｳ","prefecture":"和歌山県","city":"有田市","street":"宮原町道"},{"zipCode":"6490431","prefectureKana":"ﾜｶﾔﾏｹﾝ","cityKana":"ｱﾘﾀﾞｼ","streetKana":"ﾐﾔﾊﾗﾁｮｳﾊﾀ","prefecture":"和歌山県","city":"有田市","street":"宮原町畑"},{"zipCode":"6490432","prefectureKana":"ﾜｶﾔﾏｹﾝ","cityKana":"ｱﾘﾀﾞｼ","streetKana":"ﾐﾔﾊﾗﾁｮｳﾋｶﾞｼ","prefecture":"和歌山県","city":"有田市","street":"宮原町東"},{"zipCode":"6490302","prefectureKana":"ﾜｶﾔﾏｹﾝ","cityKana":"ｱﾘﾀﾞｼ","streetKana":"ﾔﾏﾀﾞﾊﾗ","prefecture":"和歌山県","city":"有田市","street":"山田原"},{"zipCode":"6490315","prefectureKana":"ﾜｶﾔﾏｹﾝ","cityKana":"ｱﾘﾀﾞｼ","streetKana":"ﾔﾏﾁ","prefecture":"和歌山県","city":"有田市","street":"山地"},{"zipCode":"6491341","prefectureKana":"ﾜｶﾔﾏｹﾝ","cityKana":"ｺﾞﾎﾞｳｼ","streetKana":"ﾌｼﾞﾀﾁｮｳﾌｼﾞｲ","prefecture":"和歌山県","city":"御坊市","street":"藤田町藤井"},{"zipCode":"6491342","prefectureKana":"ﾜｶﾔﾏｹﾝ","cityKana":"ｺﾞﾎﾞｳｼ","streetKana":"ﾌｼﾞﾀﾁｮｳﾖｼﾀﾞ","prefecture":"和歌山県","city":"御坊市","street":"藤田町吉田"},{"zipCode":"6496400","prefectureKana":"ﾜｶﾔﾏｹﾝ","cityKana":"ｷﾉｶﾜｼ","streetKana":"ｲｶﾆｹｲｻｲｶﾞﾅｲﾊﾞｱｲ","prefecture":"和歌山県","city":"紀の川市","street":"以下に掲載がない場合"},{"zipCode":"6496404","prefectureKana":"ﾜｶﾔﾏｹﾝ","cityKana":"ｷﾉｶﾜｼ","streetKana":"ｱｶｵ","prefecture":"和歌山県","city":"紀の川市","street":"赤尾"},{"zipCode":"6496614","prefectureKana":"ﾜｶﾔﾏｹﾝ","cityKana":"ｷﾉｶﾜｼ","streetKana":"ｱｶﾝﾀ","prefecture":"和歌山県","city":"紀の川市","street":"赤沼田"},{"zipCode":"6496611","prefectureKana":"ﾜｶﾔﾏｹﾝ","cityKana":"ｷﾉｶﾜｼ","streetKana":"ｱﾅﾌﾞｼ","prefecture":"和歌山県","city":"紀の川市","street":"穴伏"},{"zipCode":"6496561","prefectureKana":"ﾜｶﾔﾏｹﾝ","cityKana":"ｷﾉｶﾜｼ","streetKana":"ｱﾗﾐ","prefecture":"和歌山県","city":"紀の川市","street":"荒見"},{"zipCode":"6496407","prefectureKana":"ﾜｶﾔﾏｹﾝ","cityKana":"ｷﾉｶﾜｼ","streetKana":"ｲｹﾀﾞｼﾝ","prefecture":"和歌山県","city":"紀の川市","street":"池田新"},{"zipCode":"6496541","prefectureKana":"ﾜｶﾔﾏｹﾝ","cityKana":"ｷﾉｶﾜｼ","streetKana":"ｲﾀﾞ","prefecture":"和歌山県","city":"紀の川市","street":"井田"},{"zipCode":"6496511","prefectureKana":"ﾜｶﾔﾏｹﾝ","cityKana":"ｷﾉｶﾜｼ","streetKana":"ｲﾉｶｹ","prefecture":"和歌山県","city":"紀の川市","street":"猪垣"},{"zipCode":"6496416","prefectureKana":"ﾜｶﾔﾏｹﾝ","cityKana":"ｷﾉｶﾜｼ","streetKana":"ｳｴﾉ","prefecture":"和歌山県","city":"紀の川市","street":"上野"},{"zipCode":"6496414","prefectureKana":"ﾜｶﾔﾏｹﾝ","cityKana":"ｷﾉｶﾜｼ","streetKana":"ｳﾁﾀ","prefecture":"和歌山県","city":"紀の川市","street":"打田"},{"zipCode":"6496521","prefectureKana":"ﾜｶﾔﾏｹﾝ","cityKana":"ｷﾉｶﾜｼ","streetKana":"ｳﾏﾔﾄﾞ","prefecture":"和歌山県","city":"紀の川市","street":"馬宿"},{"zipCode":"6496605","prefectureKana":"ﾜｶﾔﾏｹﾝ","cityKana":"ｷﾉｶﾜｼ","streetKana":"ｴｶﾜﾅｶ","prefecture":"和歌山県","city":"紀の川市","street":"江川中"},{"zipCode":"6496624","prefectureKana":"ﾜｶﾔﾏｹﾝ","cityKana":"ｷﾉｶﾜｼ","streetKana":"ｵｳｼﾞ","prefecture":"和歌山県","city":"紀の川市","street":"王子"},{"zipCode":"6496615","prefectureKana":"ﾜｶﾔﾏｹﾝ","cityKana":"ｷﾉｶﾜｼ","streetKana":"ｵｳﾂﾞﾅｶ","prefecture":"和歌山県","city":"紀の川市","street":"麻生津中"},{"zipCode":"6496423","prefectureKana":"ﾜｶﾔﾏｹﾝ","cityKana":"ｷﾉｶﾜｼ","streetKana":"ｵｻﾞｷ","prefecture":"和歌山県","city":"紀の川市","street":"尾崎"},{"zipCode":"6496562","prefectureKana":"ﾜｶﾔﾏｹﾝ","cityKana":"ｷﾉｶﾜｼ","streetKana":"ｵﾁｶﾀ","prefecture":"和歌山県","city":"紀の川市","street":"遠方"},{"zipCode":"6496563","prefectureKana":"ﾜｶﾔﾏｹﾝ","cityKana":"ｷﾉｶﾜｼ","streetKana":"ｶｻﾞｼ","prefecture":"和歌山県","city":"紀の川市","street":"風市"},{"zipCode":"6496564","prefectureKana":"ﾜｶﾔﾏｹﾝ","cityKana":"ｷﾉｶﾜｼ","streetKana":"ｶｽｶﾐ","prefecture":"和歌山県","city":"紀の川市","street":"勝神"},{"zipCode":"6496571","prefectureKana":"ﾜｶﾔﾏｹﾝ","cityKana":"ｷﾉｶﾜｼ","streetKana":"ｶﾐﾄﾓﾌﾞﾁ","prefecture":"和歌山県","city":"紀の川市","street":"上鞆渕"},{"zipCode":"6496522","prefectureKana":"ﾜｶﾔﾏｹﾝ","cityKana":"ｷﾉｶﾜｼ","streetKana":"ｶﾐﾆｭｳﾔ","prefecture":"和歌山県","city":"紀の川市","street":"上丹生谷"},{"zipCode":"6496406","prefectureKana":"ﾜｶﾔﾏｹﾝ","cityKana":"ｷﾉｶﾜｼ","streetKana":"ｷﾀｵｵｲ","prefecture":"和歌山県","city":"紀の川市","street":"北大井"},{"zipCode":"6496501","prefectureKana":"ﾜｶﾔﾏｹﾝ","cityKana":"ｷﾉｶﾜｼ","streetKana":"ｷﾀｼﾉ","prefecture":"和歌山県","city":"紀の川市","street":"北志野"},{"zipCode":"6496402","prefectureKana":"ﾜｶﾔﾏｹﾝ","cityKana":"ｷﾉｶﾜｼ","streetKana":"ｷﾀｾｲﾀﾞ","prefecture":"和歌山県","city":"紀の川市","street":"北勢田"},{"zipCode":"6496443","prefectureKana":"ﾜｶﾔﾏｹﾝ","cityKana":"ｷﾉｶﾜｼ","streetKana":"ｷﾀﾅｶ","prefecture":"和歌山県","city":"紀の川市","street":"北中"},{"zipCode":"6496502","prefectureKana":"ﾜｶﾔﾏｹﾝ","cityKana":"ｷﾉｶﾜｼ","streetKana":"ｷﾀﾅｶﾞﾀ","prefecture":"和歌山県","city":"紀の川市","street":"北長田"},{"zipCode":"6496612","prefectureKana":"ﾜｶﾔﾏｹﾝ","cityKana":"ｷﾉｶﾜｼ","streetKana":"ｷﾀﾜｷ","prefecture":"和歌山県","city":"紀の川市","street":"北涌"},{"zipCode":"6496606","prefectureKana":"ﾜｶﾔﾏｹﾝ","cityKana":"ｷﾉｶﾜｼ","streetKana":"ｷﾘﾊﾀ","prefecture":"和歌山県","city":"紀の川市","street":"切畑"},{"zipCode":"6496415","prefectureKana":"ﾜｶﾔﾏｹﾝ","cityKana":"ｷﾉｶﾜｼ","streetKana":"ｸﾎﾞ","prefecture":"和歌山県","city":"紀の川市","street":"窪"},{"zipCode":"6496418","prefectureKana":"ﾜｶﾔﾏｹﾝ","cityKana":"ｷﾉｶﾜｼ","streetKana":"ｸﾙﾍﾞｷ","prefecture":"和歌山県","city":"紀の川市","street":"久留壁"},{"zipCode":"6496412","prefectureKana":"ﾜｶﾔﾏｹﾝ","cityKana":"ｷﾉｶﾜｼ","streetKana":"ｸﾛﾂﾁ","prefecture":"和歌山県","city":"紀の川市","street":"黒土"},{"zipCode":"6496422","prefectureKana":"ﾜｶﾔﾏｹﾝ","cityKana":"ｷﾉｶﾜｼ","streetKana":"ｹﾔ","prefecture":"和歌山県","city":"紀の川市","street":"花野"},{"zipCode":"6496551","prefectureKana":"ﾜｶﾔﾏｹﾝ","cityKana":"ｷﾉｶﾜｼ","streetKana":"ｺｳﾀﾞｲ","prefecture":"和歌山県","city":"紀の川市","street":"上田井"},{"zipCode":"6496531","prefectureKana":"ﾜｶﾔﾏｹﾝ","cityKana":"ｷﾉｶﾜｼ","streetKana":"ｺｶﾜ","prefecture":"和歌山県","city":"紀の川市","street":"粉河"},{"zipCode":"6496401","prefectureKana":"ﾜｶﾔﾏｹﾝ","cityKana":"ｷﾉｶﾜｼ","streetKana":"ｼｹﾞｷ","prefecture":"和歌山県","city":"紀の川市","street":"重行"},{"zipCode":"6496552","prefectureKana":"ﾜｶﾔﾏｹﾝ","cityKana":"ｷﾉｶﾜｼ","streetKana":"ｼﾏ","prefecture":"和歌山県","city":"紀の川市","street":"嶋"},{"zipCode":"6496426","prefectureKana":"ﾜｶﾔﾏｹﾝ","cityKana":"ｷﾉｶﾜｼ","streetKana":"ｼﾓｲｻｶ","prefecture":"和歌山県","city":"紀の川市","street":"下井阪"},{"zipCode":"6496572","prefectureKana":"ﾜｶﾔﾏｹﾝ","cityKana":"ｷﾉｶﾜｼ","streetKana":"ｼﾓﾄﾓﾌﾞﾁ","prefecture":"和歌山県","city":"紀の川市","street":"下鞆渕"},{"zipCode":"6496523","prefectureKana":"ﾜｶﾔﾏｹﾝ","cityKana":"ｷﾉｶﾜｼ","streetKana":"ｼﾓﾆｭｳﾔ","prefecture":"和歌山県","city":"紀の川市","street":"下丹生谷"},{"zipCode":"6496622","prefectureKana":"ﾜｶﾔﾏｹﾝ","cityKana":"ｷﾉｶﾜｼ","streetKana":"ｼﾚﾀﾞ","prefecture":"和歌山県","city":"紀の川市","street":"後田"},{"zipCode":"6496451","prefectureKana":"ﾜｶﾔﾏｹﾝ","cityKana":"ｷﾉｶﾜｼ","streetKana":"ｼﾞﾝﾂﾞｳ","prefecture":"和歌山県","city":"紀の川市","street":"神通"},{"zipCode":"6496442","prefectureKana":"ﾜｶﾔﾏｹﾝ","cityKana":"ｷﾉｶﾜｼ","streetKana":"ｼﾞﾝﾘｮｳ","prefecture":"和歌山県","city":"紀の川市","street":"神領"},{"zipCode":"6496565","prefectureKana":"ﾜｶﾔﾏｹﾝ","cityKana":"ｷﾉｶﾜｼ","streetKana":"ｽｲﾊﾞﾗ","prefecture":"和歌山県","city":"紀の川市","street":"杉原"},{"zipCode":"6496161","prefectureKana":"ﾜｶﾔﾏｹﾝ","cityKana":"ｷﾉｶﾜｼ","streetKana":"ﾀｶﾉ","prefecture":"和歌山県","city":"紀の川市","street":"高野"},{"zipCode":"6496413","prefectureKana":"ﾜｶﾔﾏｹﾝ","cityKana":"ｷﾉｶﾜｼ","streetKana":"ﾀｹﾌﾞｻ(450ﾊﾞﾝﾁｲｶ)","prefecture":"和歌山県","city":"紀の川市","street":"竹房（４５０番地以下）"},{"zipCode":"6496162","prefectureKana":"ﾜｶﾔﾏｹﾝ","cityKana":"ｷﾉｶﾜｼ","streetKana":"ﾀｹﾌﾞｻ(451ﾊﾞﾝﾁｲｼﾞｮｳ)","prefecture":"和歌山県","city":"紀の川市","street":"竹房（４５１番地以上）"},{"zipCode":"6496421","prefectureKana":"ﾜｶﾔﾏｹﾝ","cityKana":"ｷﾉｶﾜｼ","streetKana":"ﾀﾅｶﾊﾞﾊﾞ","prefecture":"和歌山県","city":"紀の川市","street":"田中馬場"},{"zipCode":"6496512","prefectureKana":"ﾜｶﾔﾏｹﾝ","cityKana":"ｷﾉｶﾜｼ","streetKana":"ﾄｳｹﾞ","prefecture":"和歌山県","city":"紀の川市","street":"東毛"},{"zipCode":"6496445","prefectureKana":"ﾜｶﾔﾏｹﾝ","cityKana":"ｷﾉｶﾜｼ","streetKana":"ﾄﾖﾀﾞ","prefecture":"和歌山県","city":"紀の川市","street":"豊田"},{"zipCode":"6496425","prefectureKana":"ﾜｶﾔﾏｹﾝ","cityKana":"ｷﾉｶﾜｼ","streetKana":"ﾅｶｲｻｶ","prefecture":"和歌山県","city":"紀の川市","street":"中井阪"},{"zipCode":"6496503","prefectureKana":"ﾜｶﾔﾏｹﾝ","cityKana":"ｷﾉｶﾜｼ","streetKana":"ﾅｶﾞﾀﾅｶ","prefecture":"和歌山県","city":"紀の川市","street":"長田中"},{"zipCode":"6496513","prefectureKana":"ﾜｶﾔﾏｹﾝ","cityKana":"ｷﾉｶﾜｼ","streetKana":"ﾅｶﾂｶﾞﾜ","prefecture":"和歌山県","city":"紀の川市","street":"中津川"},{"zipCode":"6496573","prefectureKana":"ﾜｶﾔﾏｹﾝ","cityKana":"ｷﾉｶﾜｼ","streetKana":"ﾅｶﾄﾓﾌﾞﾁ","prefecture":"和歌山県","city":"紀の川市","street":"中鞆渕"},{"zipCode":"6496452","prefectureKana":"ﾜｶﾔﾏｹﾝ","cityKana":"ｷﾉｶﾜｼ","streetKana":"ﾅｶﾊﾀ","prefecture":"和歌山県","city":"紀の川市","street":"中畑"},{"zipCode":"6496434","prefectureKana":"ﾜｶﾔﾏｹﾝ","cityKana":"ｷﾉｶﾜｼ","streetKana":"ﾅｶﾐﾀﾆ","prefecture":"和歌山県","city":"紀の川市","street":"中三谷"},{"zipCode":"6496532","prefectureKana":"ﾜｶﾔﾏｹﾝ","cityKana":"ｷﾉｶﾜｼ","streetKana":"ﾅｶﾔﾏ","prefecture":"和歌山県","city":"紀の川市","street":"中山"},{"zipCode":"6496631","prefectureKana":"ﾜｶﾔﾏｹﾝ","cityKana":"ｷﾉｶﾜｼ","streetKana":"ﾅﾃｲﾁﾊﾞ","prefecture":"和歌山県","city":"紀の川市","street":"名手市場"},{"zipCode":"6496601","prefectureKana":"ﾜｶﾔﾏｹﾝ","cityKana":"ｷﾉｶﾜｼ","streetKana":"ﾅﾃｶﾐ","prefecture":"和歌山県","city":"紀の川市","street":"名手上"},{"zipCode":"6496603","prefectureKana":"ﾜｶﾔﾏｹﾝ","cityKana":"ｷﾉｶﾜｼ","streetKana":"ﾅﾃｼﾓ","prefecture":"和歌山県","city":"紀の川市","street":"名手下"},{"zipCode":"6496621","prefectureKana":"ﾜｶﾔﾏｹﾝ","cityKana":"ｷﾉｶﾜｼ","streetKana":"ﾅﾃﾆｼﾉ","prefecture":"和歌山県","city":"紀の川市","street":"名手西野"},{"zipCode":"6496427","prefectureKana":"ﾜｶﾔﾏｹﾝ","cityKana":"ｷﾉｶﾜｼ","streetKana":"ﾆｼｲｻｶ","prefecture":"和歌山県","city":"紀の川市","street":"西井阪"},{"zipCode":"6496417","prefectureKana":"ﾜｶﾔﾏｹﾝ","cityKana":"ｷﾉｶﾜｼ","streetKana":"ﾆｼｵｵｲ","prefecture":"和歌山県","city":"紀の川市","street":"西大井"},{"zipCode":"6496524","prefectureKana":"ﾜｶﾔﾏｹﾝ","cityKana":"ｷﾉｶﾜｼ","streetKana":"ﾆｼｶﾜﾊﾗ","prefecture":"和歌山県","city":"紀の川市","street":"西川原"},{"zipCode":"6496604","prefectureKana":"ﾜｶﾔﾏｹﾝ","cityKana":"ｷﾉｶﾜｼ","streetKana":"ﾆｼﾉﾔﾏ","prefecture":"和歌山県","city":"紀の川市","street":"西野山"},{"zipCode":"6496433","prefectureKana":"ﾜｶﾔﾏｹﾝ","cityKana":"ｷﾉｶﾜｼ","streetKana":"ﾆｼﾐﾀﾆ","prefecture":"和歌山県","city":"紀の川市","street":"西三谷"},{"zipCode":"6496447","prefectureKana":"ﾜｶﾔﾏｹﾝ","cityKana":"ｷﾉｶﾜｼ","streetKana":"ﾆｼﾔﾏﾀﾞ","prefecture":"和歌山県","city":"紀の川市","street":"西山田"},{"zipCode":"6496616","prefectureKana":"ﾜｶﾔﾏｹﾝ","cityKana":"ｷﾉｶﾜｼ","streetKana":"ﾆｼﾜｷ","prefecture":"和歌山県","city":"紀の川市","street":"西脇"},{"zipCode":"6496525","prefectureKana":"ﾜｶﾔﾏｹﾝ","cityKana":"ｷﾉｶﾜｼ","streetKana":"ﾉｶﾞﾐ","prefecture":"和歌山県","city":"紀の川市","street":"野上"},{"zipCode":"6496444","prefectureKana":"ﾜｶﾔﾏｹﾝ","cityKana":"ｷﾉｶﾜｼ","streetKana":"ﾉﾎﾞﾘｵ","prefecture":"和歌山県","city":"紀の川市","street":"登尾"},{"zipCode":"6496424","prefectureKana":"ﾜｶﾔﾏｹﾝ","cityKana":"ｷﾉｶﾜｼ","streetKana":"ﾊﾀﾉｳｴ","prefecture":"和歌山県","city":"紀の川市","street":"畑野上"},{"zipCode":"6496405","prefectureKana":"ﾜｶﾔﾏｹﾝ","cityKana":"ｷﾉｶﾜｼ","streetKana":"ﾋｶﾞｼｵｵｲ","prefecture":"和歌山県","city":"紀の川市","street":"東大井"},{"zipCode":"6496526","prefectureKana":"ﾜｶﾔﾏｹﾝ","cityKana":"ｷﾉｶﾜｼ","streetKana":"ﾋｶﾞｼｶﾜﾊﾗ","prefecture":"和歌山県","city":"紀の川市","street":"東川原"},{"zipCode":"6496428","prefectureKana":"ﾜｶﾔﾏｹﾝ","cityKana":"ｷﾉｶﾜｼ","streetKana":"ﾋｶﾞｼｺｸﾌﾞ","prefecture":"和歌山県","city":"紀の川市","street":"東国分"},{"zipCode":"6496542","prefectureKana":"ﾜｶﾔﾏｹﾝ","cityKana":"ｷﾉｶﾜｼ","streetKana":"ﾋｶﾞｼﾉ","prefecture":"和歌山県","city":"紀の川市","street":"東野"},{"zipCode":"6496435","prefectureKana":"ﾜｶﾔﾏｹﾝ","cityKana":"ｷﾉｶﾜｼ","streetKana":"ﾋｶﾞｼﾐﾀﾆ","prefecture":"和歌山県","city":"紀の川市","street":"東三谷"},{"zipCode":"6496441","prefectureKana":"ﾜｶﾔﾏｹﾝ","cityKana":"ｷﾉｶﾜｼ","streetKana":"ﾋｶﾞｼﾔﾏﾀﾞ","prefecture":"和歌山県","city":"紀の川市","street":"東山田"},{"zipCode":"6496602","prefectureKana":"ﾜｶﾔﾏｹﾝ","cityKana":"ｷﾉｶﾜｼ","streetKana":"ﾋﾗﾉ","prefecture":"和歌山県","city":"紀の川市","street":"平野"},{"zipCode":"6496411","prefectureKana":"ﾜｶﾔﾏｹﾝ","cityKana":"ｷﾉｶﾜｼ","streetKana":"ﾋﾛﾉ","prefecture":"和歌山県","city":"紀の川市","street":"広野"},{"zipCode":"6496446","prefectureKana":"ﾜｶﾔﾏｹﾝ","cityKana":"ｷﾉｶﾜｼ","streetKana":"ﾋﾞﾜﾀﾞﾆ","prefecture":"和歌山県","city":"紀の川市","street":"枇杷谷"},{"zipCode":"6496553","prefectureKana":"ﾜｶﾔﾏｹﾝ","cityKana":"ｷﾉｶﾜｼ","streetKana":"ﾌｹﾀﾞ","prefecture":"和歌山県","city":"紀の川市","street":"深田"},{"zipCode":"6496514","prefectureKana":"ﾜｶﾔﾏｹﾝ","cityKana":"ｷﾉｶﾜｼ","streetKana":"ﾌｼﾞｲ","prefecture":"和歌山県","city":"紀の川市","street":"藤井"},{"zipCode":"6496623","prefectureKana":"ﾜｶﾔﾏｹﾝ","cityKana":"ｷﾉｶﾜｼ","streetKana":"ﾌｼﾞｻｷ","prefecture":"和歌山県","city":"紀の川市","street":"藤崎"},{"zipCode":"6496432","prefectureKana":"ﾜｶﾔﾏｹﾝ","cityKana":"ｷﾉｶﾜｼ","streetKana":"ﾌﾙﾜﾀﾞ","prefecture":"和歌山県","city":"紀の川市","street":"古和田"},{"zipCode":"6496554","prefectureKana":"ﾜｶﾔﾏｹﾝ","cityKana":"ｷﾉｶﾜｼ","streetKana":"ﾍﾞｯｼﾖ","prefecture":"和歌山県","city":"紀の川市","street":"別所"},{"zipCode":"6496555","prefectureKana":"ﾜｶﾔﾏｹﾝ","cityKana":"ｷﾉｶﾜｼ","streetKana":"ﾏﾂｲ","prefecture":"和歌山県","city":"紀の川市","street":"松井"},{"zipCode":"6496504","prefectureKana":"ﾜｶﾔﾏｹﾝ","cityKana":"ｷﾉｶﾜｼ","streetKana":"ﾐﾅﾐｼﾉ","prefecture":"和歌山県","city":"紀の川市","street":"南志野"},{"zipCode":"6496403","prefectureKana":"ﾜｶﾔﾏｹﾝ","cityKana":"ｷﾉｶﾜｼ","streetKana":"ﾐﾅﾐｾｲﾀﾞ","prefecture":"和歌山県","city":"紀の川市","street":"南勢田"},{"zipCode":"6496431","prefectureKana":"ﾜｶﾔﾏｹﾝ","cityKana":"ｷﾉｶﾜｼ","streetKana":"ﾐﾅﾐﾅｶ","prefecture":"和歌山県","city":"紀の川市","street":"南中"},{"zipCode":"6496124","prefectureKana":"ﾜｶﾔﾏｹﾝ","cityKana":"ｷﾉｶﾜｼ","streetKana":"ﾓﾓﾔﾏﾁｮｳｲﾁﾊﾞ","prefecture":"和歌山県","city":"紀の川市","street":"桃山町市場"},{"zipCode":"6496105","prefectureKana":"ﾜｶﾔﾏｹﾝ","cityKana":"ｷﾉｶﾜｼ","streetKana":"ﾓﾓﾔﾏﾁｮｳｵｵﾊﾞﾗ","prefecture":"和歌山県","city":"紀の川市","street":"桃山町大原"},{"zipCode":"6496102","prefectureKana":"ﾜｶﾔﾏｹﾝ","cityKana":"ｷﾉｶﾜｼ","streetKana":"ﾓﾓﾔﾏﾁｮｳｸﾛｶﾜ","prefecture":"和歌山県","city":"紀の川市","street":"桃山町黒川"},{"zipCode":"6496123","prefectureKana":"ﾜｶﾔﾏｹﾝ","cityKana":"ｷﾉｶﾜｼ","streetKana":"ﾓﾓﾔﾏﾁｮｳｺｳﾀﾞ","prefecture":"和歌山県","city":"紀の川市","street":"桃山町神田"},{"zipCode":"6496101","prefectureKana":"ﾜｶﾔﾏｹﾝ","cityKana":"ｷﾉｶﾜｼ","streetKana":"ﾓﾓﾔﾏﾁｮｳｾﾞﾝﾀﾞ","prefecture":"和歌山県","city":"紀の川市","street":"桃山町善田"},{"zipCode":"6496125","prefectureKana":"ﾜｶﾔﾏｹﾝ","cityKana":"ｷﾉｶﾜｼ","streetKana":"ﾓﾓﾔﾏﾁｮｳﾀﾞﾝ","prefecture":"和歌山県","city":"紀の川市","street":"桃山町段"},{"zipCode":"6496121","prefectureKana":"ﾜｶﾔﾏｹﾝ","cityKana":"ｷﾉｶﾜｼ","streetKana":"ﾓﾓﾔﾏﾁｮｳﾀﾞﾝｼﾝﾃﾞﾝ","prefecture":"和歌山県","city":"紀の川市","street":"桃山町段新田"},{"zipCode":"6496112","prefectureKana":"ﾜｶﾔﾏｹﾝ","cityKana":"ｷﾉｶﾜｼ","streetKana":"ﾓﾓﾔﾏﾁｮｳﾂｶﾂｷ","prefecture":"和歌山県","city":"紀の川市","street":"桃山町調月"},{"zipCode":"6496103","prefectureKana":"ﾜｶﾔﾏｹﾝ","cityKana":"ｷﾉｶﾜｼ","streetKana":"ﾓﾓﾔﾏﾁｮｳﾉﾀﾊﾗ","prefecture":"和歌山県","city":"紀の川市","street":"桃山町野田原"},{"zipCode":"6496111","prefectureKana":"ﾜｶﾔﾏｹﾝ","cityKana":"ｷﾉｶﾜｼ","streetKana":"ﾓﾓﾔﾏﾁｮｳﾓｶﾞﾐ","prefecture":"和歌山県","city":"紀の川市","street":"桃山町最上"},{"zipCode":"6496122","prefectureKana":"ﾜｶﾔﾏｹﾝ","cityKana":"ｷﾉｶﾜｼ","streetKana":"ﾓﾓﾔﾏﾁｮｳﾓﾄ","prefecture":"和歌山県","city":"紀の川市","street":"桃山町元"},{"zipCode":"6496104","prefectureKana":"ﾜｶﾔﾏｹﾝ","cityKana":"ｷﾉｶﾜｼ","streetKana":"ﾓﾓﾔﾏﾁｮｳﾜｷﾀﾞﾆ","prefecture":"和歌山県","city":"紀の川市","street":"桃山町脇谷"},{"zipCode":"6496613","prefectureKana":"ﾜｶﾔﾏｹﾝ","cityKana":"ｷﾉｶﾜｼ","streetKana":"ﾖｺﾀﾞﾆ","prefecture":"和歌山県","city":"紀の川市","street":"横谷"},{"zipCode":"6496200","prefectureKana":"ﾜｶﾔﾏｹﾝ","cityKana":"ｲﾜﾃﾞｼ","streetKana":"ｲｶﾆｹｲｻｲｶﾞﾅｲﾊﾞｱｲ","prefecture":"和歌山県","city":"岩出市","street":"以下に掲載がない場合"},{"zipCode":"6496257","prefectureKana":"ﾜｶﾔﾏｹﾝ","cityKana":"ｲﾜﾃﾞｼ","streetKana":"ｱｲﾀﾞﾆ","prefecture":"和歌山県","city":"岩出市","street":"相谷"},{"zipCode":"6496242","prefectureKana":"ﾜｶﾔﾏｹﾝ","cityKana":"ｲﾜﾃﾞｼ","streetKana":"ｱｶｶﾞｲﾄ","prefecture":"和歌山県","city":"岩出市","street":"赤垣内"},{"zipCode":"6496207","prefectureKana":"ﾜｶﾔﾏｹﾝ","cityKana":"ｲﾜﾃﾞｼ","streetKana":"ｱﾏｶﾞﾂｼﾞ","prefecture":"和歌山県","city":"岩出市","street":"尼ケ辻"},{"zipCode":"6496252","prefectureKana":"ﾜｶﾔﾏｹﾝ","cityKana":"ｲﾜﾃﾞｼ","streetKana":"ｱﾝｼﾞｮｳ","prefecture":"和歌山県","city":"岩出市","street":"安上"},{"zipCode":"6496232","prefectureKana":"ﾜｶﾔﾏｹﾝ","cityKana":"ｲﾜﾃﾞｼ","streetKana":"ｲﾊﾞﾗﾓﾄ","prefecture":"和歌山県","city":"岩出市","street":"荊本"},{"zipCode":"6496204","prefectureKana":"ﾜｶﾔﾏｹﾝ","cityKana":"ｲﾜﾃﾞｼ","streetKana":"ｲﾏﾅｶ","prefecture":"和歌山県","city":"岩出市","street":"今中"},{"zipCode":"6496208","prefectureKana":"ﾜｶﾔﾏｹﾝ","cityKana":"ｲﾜﾃﾞｼ","streetKana":"ｲﾏﾊﾀ","prefecture":"和歌山県","city":"岩出市","street":"今畑"},{"zipCode":"6496228","prefectureKana":"ﾜｶﾔﾏｹﾝ","cityKana":"ｲﾜﾃﾞｼ","streetKana":"ｵｵﾏﾁ","prefecture":"和歌山県","city":"岩出市","street":"大町"},{"zipCode":"6496222","prefectureKana":"ﾜｶﾔﾏｹﾝ","cityKana":"ｲﾜﾃﾞｼ","streetKana":"ｵｶﾀﾞ","prefecture":"和歌山県","city":"岩出市","street":"岡田"},{"zipCode":"6496201","prefectureKana":"ﾜｶﾔﾏｹﾝ","cityKana":"ｲﾜﾃﾞｼ","streetKana":"ｵｼｶﾞﾜ","prefecture":"和歌山県","city":"岩出市","street":"押川"},{"zipCode":"6496256","prefectureKana":"ﾜｶﾔﾏｹﾝ","cityKana":"ｲﾜﾃﾞｼ","streetKana":"ｶﾅｲｹ","prefecture":"和歌山県","city":"岩出市","street":"金池"},{"zipCode":"6496243","prefectureKana":"ﾜｶﾔﾏｹﾝ","cityKana":"ｲﾜﾃﾞｼ","streetKana":"ｶﾅﾔ","prefecture":"和歌山県","city":"岩出市","street":"金屋"},{"zipCode":"6496231","prefectureKana":"ﾜｶﾔﾏｹﾝ","cityKana":"ｲﾜﾃﾞｼ","streetKana":"ｶﾜｼﾘ","prefecture":"和歌山県","city":"岩出市","street":"川尻"},{"zipCode":"6496253","prefectureKana":"ﾜｶﾔﾏｹﾝ","cityKana":"ｲﾜﾃﾞｼ","streetKana":"ｷｾﾝﾀﾞｲ","prefecture":"和歌山県","city":"岩出市","street":"紀泉台"},{"zipCode":"6496219","prefectureKana":"ﾜｶﾔﾏｹﾝ","cityKana":"ｲﾜﾃﾞｼ","streetKana":"ｷﾀｵｲｹ","prefecture":"和歌山県","city":"岩出市","street":"北大池"},{"zipCode":"6496251","prefectureKana":"ﾜｶﾔﾏｹﾝ","cityKana":"ｲﾜﾃﾞｼ","streetKana":"ｻｶｲﾀﾞﾆ","prefecture":"和歌山県","city":"岩出市","street":"境谷"},{"zipCode":"6496203","prefectureKana":"ﾜｶﾔﾏｹﾝ","cityKana":"ｲﾜﾃﾞｼ","streetKana":"ｻｸﾗﾀﾞｲ","prefecture":"和歌山県","city":"岩出市","street":"桜台"},{"zipCode":"6496227","prefectureKana":"ﾜｶﾔﾏｹﾝ","cityKana":"ｲﾜﾃﾞｼ","streetKana":"ｼﾐｽﾞ","prefecture":"和歌山県","city":"岩出市","street":"清水"},{"zipCode":"6496212","prefectureKana":"ﾜｶﾔﾏｹﾝ","cityKana":"ｲﾜﾃﾞｼ","streetKana":"ｼﾝﾃﾞﾝﾋﾛｼﾊﾞ","prefecture":"和歌山県","city":"岩出市","street":"新田広芝"},{"zipCode":"6496236","prefectureKana":"ﾜｶﾔﾏｹﾝ","cityKana":"ｲﾜﾃﾞｼ","streetKana":"ｿｳﾔ","prefecture":"和歌山県","city":"岩出市","street":"曽屋"},{"zipCode":"6496234","prefectureKana":"ﾜｶﾔﾏｹﾝ","cityKana":"ｲﾜﾃﾞｼ","streetKana":"ﾀｶｾ","prefecture":"和歌山県","city":"岩出市","street":"高瀬"},{"zipCode":"6496223","prefectureKana":"ﾜｶﾔﾏｹﾝ","cityKana":"ｲﾜﾃﾞｼ","streetKana":"ﾀｶﾂｶ","prefecture":"和歌山県","city":"岩出市","street":"高塚"},{"zipCode":"6496248","prefectureKana":"ﾜｶﾔﾏｹﾝ","cityKana":"ｲﾜﾃﾞｼ","streetKana":"ﾅｶｸﾛ","prefecture":"和歌山県","city":"岩出市","street":"中黒"},{"zipCode":"6496245","prefectureKana":"ﾜｶﾔﾏｹﾝ","cityKana":"ｲﾜﾃﾞｼ","streetKana":"ﾅｶｼﾞﾏ","prefecture":"和歌山県","city":"岩出市","street":"中島"},{"zipCode":"6496215","prefectureKana":"ﾜｶﾔﾏｹﾝ","cityKana":"ｲﾜﾃﾞｼ","streetKana":"ﾅｶﾌﾞｻ","prefecture":"和歌山県","city":"岩出市","street":"中迫"},{"zipCode":"6496255","prefectureKana":"ﾜｶﾔﾏｹﾝ","cityKana":"ｲﾜﾃﾞｼ","streetKana":"ﾆｼｱﾝｼﾞｮｳ","prefecture":"和歌山県","city":"岩出市","street":"西安上"},{"zipCode":"6496213","prefectureKana":"ﾜｶﾔﾏｹﾝ","cityKana":"ｲﾜﾃﾞｼ","streetKana":"ﾆｼｺｸﾌﾞ","prefecture":"和歌山県","city":"岩出市","street":"西国分"},{"zipCode":"6496235","prefectureKana":"ﾜｶﾔﾏｹﾝ","cityKana":"ｲﾜﾃﾞｼ","streetKana":"ﾆｼﾉ","prefecture":"和歌山県","city":"岩出市","street":"西野"},{"zipCode":"6496202","prefectureKana":"ﾜｶﾔﾏｹﾝ","cityKana":"ｲﾜﾃﾞｼ","streetKana":"ﾈｺﾞﾛ","prefecture":"和歌山県","city":"岩出市","street":"根来"},{"zipCode":"6496216","prefectureKana":"ﾜｶﾔﾏｹﾝ","cityKana":"ｲﾜﾃﾞｼ","streetKana":"ﾉｼﾞｮﾉ","prefecture":"和歌山県","city":"岩出市","street":"野上野"},{"zipCode":"6496244","prefectureKana":"ﾜｶﾔﾏｹﾝ","cityKana":"ｲﾜﾃﾞｼ","streetKana":"ﾊﾀｹ","prefecture":"和歌山県","city":"岩出市","street":"畑毛"},{"zipCode":"6496241","prefectureKana":"ﾜｶﾔﾏｹﾝ","cityKana":"ｲﾜﾃﾞｼ","streetKana":"ﾊﾌﾞ","prefecture":"和歌山県","city":"岩出市","street":"波分"},{"zipCode":"6496254","prefectureKana":"ﾜｶﾔﾏｹﾝ","cityKana":"ｲﾜﾃﾞｼ","streetKana":"ﾊﾗ","prefecture":"和歌山県","city":"岩出市","street":"原"},{"zipCode":"6496211","prefectureKana":"ﾜｶﾔﾏｹﾝ","cityKana":"ｲﾜﾃﾞｼ","streetKana":"ﾋｶﾞｼｻｶﾓﾄ","prefecture":"和歌山県","city":"岩出市","street":"東坂本"},{"zipCode":"6496233","prefectureKana":"ﾜｶﾔﾏｹﾝ","cityKana":"ｲﾜﾃﾞｼ","streetKana":"ﾋﾞｾﾞﾝ","prefecture":"和歌山県","city":"岩出市","street":"備前"},{"zipCode":"6496225","prefectureKana":"ﾜｶﾔﾏｹﾝ","cityKana":"ｲﾜﾃﾞｼ","streetKana":"ﾌﾅﾄ","prefecture":"和歌山県","city":"岩出市","street":"船戸"},{"zipCode":"6496206","prefectureKana":"ﾜｶﾔﾏｹﾝ","cityKana":"ｲﾜﾃﾞｼ","streetKana":"ﾎﾘｸﾞﾁ","prefecture":"和歌山県","city":"岩出市","street":"堀口"},{"zipCode":"6496214","prefectureKana":"ﾜｶﾔﾏｹﾝ","cityKana":"ｲﾜﾃﾞｼ","streetKana":"ﾐｽﾞｽ","prefecture":"和歌山県","city":"岩出市","street":"水栖"},{"zipCode":"6496221","prefectureKana":"ﾜｶﾔﾏｹﾝ","cityKana":"ｲﾜﾃﾞｼ","streetKana":"ﾐｿﾞｶﾜ","prefecture":"和歌山県","city":"岩出市","street":"溝川"},{"zipCode":"6496218","prefectureKana":"ﾜｶﾔﾏｹﾝ","cityKana":"ｲﾜﾃﾞｼ","streetKana":"ﾐﾅﾐｵｲｹ","prefecture":"和歌山県","city":"岩出市","street":"南大池"},{"zipCode":"6496226","prefectureKana":"ﾜｶﾔﾏｹﾝ","cityKana":"ｲﾜﾃﾞｼ","streetKana":"ﾐﾔ","prefecture":"和歌山県","city":"岩出市","street":"宮"},{"zipCode":"6496205","prefectureKana":"ﾜｶﾔﾏｹﾝ","cityKana":"ｲﾜﾃﾞｼ","streetKana":"ﾓﾘ","prefecture":"和歌山県","city":"岩出市","street":"森"},{"zipCode":"6496258","prefectureKana":"ﾜｶﾔﾏｹﾝ","cityKana":"ｲﾜﾃﾞｼ","streetKana":"ﾔﾏ","prefecture":"和歌山県","city":"岩出市","street":"山"},{"zipCode":"6496224","prefectureKana":"ﾜｶﾔﾏｹﾝ","cityKana":"ｲﾜﾃﾞｼ","streetKana":"ﾔﾏｻｷ","prefecture":"和歌山県","city":"岩出市","street":"山崎"},{"zipCode":"6496217","prefectureKana":"ﾜｶﾔﾏｹﾝ","cityKana":"ｲﾜﾃﾞｼ","streetKana":"ﾔﾏﾀﾞ","prefecture":"和歌山県","city":"岩出市","street":"山田"},{"zipCode":"6496248","prefectureKana":"ﾜｶﾔﾏｹﾝ","cityKana":"ｲﾜﾃﾞｼ","streetKana":"ﾕｸﾎﾞ","prefecture":"和歌山県","city":"岩出市","street":"湯窪"},{"zipCode":"6496246","prefectureKana":"ﾜｶﾔﾏｹﾝ","cityKana":"ｲﾜﾃﾞｼ","streetKana":"ﾖｼﾀﾞ","prefecture":"和歌山県","city":"岩出市","street":"吉田"},{"zipCode":"6497100","prefectureKana":"ﾜｶﾔﾏｹﾝ","cityKana":"ｲﾄｸﾞﾝｶﾂﾗｷﾞﾁｮｳ","streetKana":"ｲｶﾆｹｲｻｲｶﾞﾅｲﾊﾞｱｲ","prefecture":"和歌山県","city":"伊都郡かつらぎ町","street":"以下に掲載がない場合"},{"zipCode":"6497137","prefectureKana":"ﾜｶﾔﾏｹﾝ","cityKana":"ｲﾄｸﾞﾝｶﾂﾗｷﾞﾁｮｳ","streetKana":"ｱﾆｲ","prefecture":"和歌山県","city":"伊都郡かつらぎ町","street":"兄井"},{"zipCode":"6497167","prefectureKana":"ﾜｶﾔﾏｹﾝ","cityKana":"ｲﾄｸﾞﾝｶﾂﾗｷﾞﾁｮｳ","streetKana":"ｳﾂﾘ","prefecture":"和歌山県","city":"伊都郡かつらぎ町","street":"移"},{"zipCode":"6497172","prefectureKana":"ﾜｶﾔﾏｹﾝ","cityKana":"ｲﾄｸﾞﾝｶﾂﾗｷﾞﾁｮｳ","streetKana":"ｴﾋﾞｽ","prefecture":"和歌山県","city":"伊都郡かつらぎ町","street":"蛭子"},{"zipCode":"6497173","prefectureKana":"ﾜｶﾔﾏｹﾝ","cityKana":"ｲﾄｸﾞﾝｶﾂﾗｷﾞﾁｮｳ","streetKana":"ｵｵﾀﾆ","prefecture":"和歌山県","city":"伊都郡かつらぎ町","street":"大谷"},{"zipCode":"6497111","prefectureKana":"ﾜｶﾔﾏｹﾝ","cityKana":"ｲﾄｸﾞﾝｶﾂﾗｷﾞﾁｮｳ","streetKana":"ｵｵﾊﾀ","prefecture":"和歌山県","city":"伊都郡かつらぎ町","street":"大畑"},{"zipCode":"6497171","prefectureKana":"ﾜｶﾔﾏｹﾝ","cityKana":"ｲﾄｸﾞﾝｶﾂﾗｷﾞﾁｮｳ","streetKana":"ｵｵﾔﾌﾞ","prefecture":"和歌山県","city":"伊都郡かつらぎ町","street":"大薮"},{"zipCode":"6497123","prefectureKana":"ﾜｶﾔﾏｹﾝ","cityKana":"ｲﾄｸﾞﾝｶﾂﾗｷﾞﾁｮｳ","streetKana":"ｶｼﾜｷﾞ","prefecture":"和歌山県","city":"伊都郡かつらぎ町","street":"柏木"},{"zipCode":"6497162","prefectureKana":"ﾜｶﾔﾏｹﾝ","cityKana":"ｲﾄｸﾞﾝｶﾂﾗｷﾞﾁｮｳ","streetKana":"ｶｾﾀﾞﾅｶ","prefecture":"和歌山県","city":"伊都郡かつらぎ町","street":"笠田中"},{"zipCode":"6497161","prefectureKana":"ﾜｶﾔﾏｹﾝ","cityKana":"ｲﾄｸﾞﾝｶﾂﾗｷﾞﾁｮｳ","streetKana":"ｶｾﾀﾞﾋｶﾞｼ","prefecture":"和歌山県","city":"伊都郡かつらぎ町","street":"笠田東"},{"zipCode":"6497141","prefectureKana":"ﾜｶﾔﾏｹﾝ","cityKana":"ｲﾄｸﾞﾝｶﾂﾗｷﾞﾁｮｳ","streetKana":"ｶﾐｱﾏﾉ","prefecture":"和歌山県","city":"伊都郡かつらぎ町","street":"上天野"},{"zipCode":"6497132","prefectureKana":"ﾜｶﾔﾏｹﾝ","cityKana":"ｲﾄｸﾞﾝｶﾂﾗｷﾞﾁｮｳ","streetKana":"ｷｮｳﾗｼﾞ","prefecture":"和歌山県","city":"伊都郡かつらぎ町","street":"教良寺"},{"zipCode":"6497164","prefectureKana":"ﾜｶﾔﾏｹﾝ","cityKana":"ｲﾄｸﾞﾝｶﾂﾗｷﾞﾁｮｳ","streetKana":"ｸﾎﾞ","prefecture":"和歌山県","city":"伊都郡かつらぎ町","street":"窪"},{"zipCode":"6497143","prefectureKana":"ﾜｶﾔﾏｹﾝ","cityKana":"ｲﾄｸﾞﾝｶﾂﾗｷﾞﾁｮｳ","streetKana":"ｺｳﾀﾞ","prefecture":"和歌山県","city":"伊都郡かつらぎ町","street":"神田"},{"zipCode":"6497153","prefectureKana":"ﾜｶﾔﾏｹﾝ","cityKana":"ｲﾄｸﾞﾝｶﾂﾗｷﾞﾁｮｳ","streetKana":"ｺﾞｾ","prefecture":"和歌山県","city":"伊都郡かつらぎ町","street":"御所"},{"zipCode":"6497174","prefectureKana":"ﾜｶﾔﾏｹﾝ","cityKana":"ｲﾄｸﾞﾝｶﾂﾗｷﾞﾁｮｳ","streetKana":"ｻﾔ","prefecture":"和歌山県","city":"伊都郡かつらぎ町","street":"佐野"},{"zipCode":"6497144","prefectureKana":"ﾜｶﾔﾏｹﾝ","cityKana":"ｲﾄｸﾞﾝｶﾂﾗｷﾞﾁｮｳ","streetKana":"ｼｶﾞ","prefecture":"和歌山県","city":"伊都郡かつらぎ町","street":"志賀"},{"zipCode":"6497155","prefectureKana":"ﾜｶﾔﾏｹﾝ","cityKana":"ｲﾄｸﾞﾝｶﾂﾗｷﾞﾁｮｳ","streetKana":"ｼﾏ","prefecture":"和歌山県","city":"伊都郡かつらぎ町","street":"島"},{"zipCode":"6497142","prefectureKana":"ﾜｶﾔﾏｹﾝ","cityKana":"ｲﾄｸﾞﾝｶﾂﾗｷﾞﾁｮｳ","streetKana":"ｼﾓｱﾏﾉ","prefecture":"和歌山県","city":"伊都郡かつらぎ町","street":"下天野"},{"zipCode":"6497122","prefectureKana":"ﾜｶﾔﾏｹﾝ","cityKana":"ｲﾄｸﾞﾝｶﾂﾗｷﾞﾁｮｳ","streetKana":"ｼﾝﾃﾞﾝ","prefecture":"和歌山県","city":"伊都郡かつらぎ町","street":"新田"},{"zipCode":"6497165","prefectureKana":"ﾜｶﾔﾏｹﾝ","cityKana":"ｲﾄｸﾞﾝｶﾂﾗｷﾞﾁｮｳ","streetKana":"ｾﾉﾔﾏ","prefecture":"和歌山県","city":"伊都郡かつらぎ町","street":"背ノ山"},{"zipCode":"6497104","prefectureKana":"ﾜｶﾔﾏｹﾝ","cityKana":"ｲﾄｸﾞﾝｶﾂﾗｷﾞﾁｮｳ","streetKana":"ﾀｲﾗ","prefecture":"和歌山県","city":"伊都郡かつらぎ町","street":"平"},{"zipCode":"6497166","prefectureKana":"ﾜｶﾔﾏｹﾝ","cityKana":"ｲﾄｸﾞﾝｶﾂﾗｷﾞﾁｮｳ","streetKana":"ﾀｶﾀﾞ","prefecture":"和歌山県","city":"伊都郡かつらぎ町","street":"高田"},{"zipCode":"6497102","prefectureKana":"ﾜｶﾔﾏｹﾝ","cityKana":"ｲﾄｸﾞﾝｶﾂﾗｷﾞﾁｮｳ","streetKana":"ﾀｷ","prefecture":"和歌山県","city":"伊都郡かつらぎ町","street":"滝"},{"zipCode":"6497121","prefectureKana":"ﾜｶﾔﾏｹﾝ","cityKana":"ｲﾄｸﾞﾝｶﾂﾗｷﾞﾁｮｳ","streetKana":"ﾁｮｳﾉﾏﾁ","prefecture":"和歌山県","city":"伊都郡かつらぎ町","street":"丁ノ町"},{"zipCode":"6497136","prefectureKana":"ﾜｶﾔﾏｹﾝ","cityKana":"ｲﾄｸﾞﾝｶﾂﾗｷﾞﾁｮｳ","streetKana":"ﾃﾗｵ","prefecture":"和歌山県","city":"伊都郡かつらぎ町","street":"寺尾"},{"zipCode":"6497112","prefectureKana":"ﾜｶﾔﾏｹﾝ","cityKana":"ｲﾄｸﾞﾝｶﾂﾗｷﾞﾁｮｳ","streetKana":"ﾅｶｲﾌﾞﾘ","prefecture":"和歌山県","city":"伊都郡かつらぎ町","street":"中飯降"},{"zipCode":"6497114","prefectureKana":"ﾜｶﾔﾏｹﾝ","cityKana":"ｲﾄｸﾞﾝｶﾂﾗｷﾞﾁｮｳ","streetKana":"ﾆｼｲﾌﾞﾘ","prefecture":"和歌山県","city":"伊都郡かつらぎ町","street":"西飯降"},{"zipCode":"6497154","prefectureKana":"ﾜｶﾔﾏｹﾝ","cityKana":"ｲﾄｸﾞﾝｶﾂﾗｷﾞﾁｮｳ","streetKana":"ﾆｼｼﾌﾞﾀ","prefecture":"和歌山県","city":"伊都郡かつらぎ町","street":"西渋田"},{"zipCode":"6497163","prefectureKana":"ﾜｶﾔﾏｹﾝ","cityKana":"ｲﾄｸﾞﾝｶﾂﾗｷﾞﾁｮｳ","streetKana":"ﾊｷﾞﾊﾗ","prefecture":"和歌山県","city":"伊都郡かつらぎ町","street":"萩原"},{"zipCode":"6497151","prefectureKana":"ﾜｶﾔﾏｹﾝ","cityKana":"ｲﾄｸﾞﾝｶﾂﾗｷﾞﾁｮｳ","streetKana":"ﾋｶﾞｼｼﾌﾞﾀ","prefecture":"和歌山県","city":"伊都郡かつらぎ町","street":"東渋田"},{"zipCode":"6497101","prefectureKana":"ﾜｶﾔﾏｹﾝ","cityKana":"ｲﾄｸﾞﾝｶﾂﾗｷﾞﾁｮｳ","streetKana":"ﾋｶﾞｼﾀﾆ","prefecture":"和歌山県","city":"伊都郡かつらぎ町","street":"東谷"},{"zipCode":"6497145","prefectureKana":"ﾜｶﾔﾏｹﾝ","cityKana":"ｲﾄｸﾞﾝｶﾂﾗｷﾞﾁｮｳ","streetKana":"ﾋﾀﾞｶ","prefecture":"和歌山県","city":"伊都郡かつらぎ町","street":"日高"},{"zipCode":"6497135","prefectureKana":"ﾜｶﾔﾏｹﾝ","cityKana":"ｲﾄｸﾞﾝｶﾂﾗｷﾞﾁｮｳ","streetKana":"ﾋﾗﾝﾀ","prefecture":"和歌山県","city":"伊都郡かつらぎ町","street":"平沼田"},{"zipCode":"6497175","prefectureKana":"ﾜｶﾔﾏｹﾝ","cityKana":"ｲﾄｸﾞﾝｶﾂﾗｷﾞﾁｮｳ","streetKana":"ﾋﾛｳﾗ","prefecture":"和歌山県","city":"伊都郡かつらぎ町","street":"広浦"},{"zipCode":"6497103","prefectureKana":"ﾜｶﾔﾏｹﾝ","cityKana":"ｲﾄｸﾞﾝｶﾂﾗｷﾞﾁｮｳ","streetKana":"ﾋﾛｸﾁ","prefecture":"和歌山県","city":"伊都郡かつらぎ町","street":"広口"},{"zipCode":"6497152","prefectureKana":"ﾜｶﾔﾏｹﾝ","cityKana":"ｲﾄｸﾞﾝｶﾂﾗｷﾞﾁｮｳ","streetKana":"ﾎｼｶﾜ","prefecture":"和歌山県","city":"伊都郡かつらぎ町","street":"星川"},{"zipCode":"6497146","prefectureKana":"ﾜｶﾔﾏｹﾝ","cityKana":"ｲﾄｸﾞﾝｶﾂﾗｷﾞﾁｮｳ","streetKana":"ﾎｼﾔﾏ","prefecture":"和歌山県","city":"伊都郡かつらぎ町","street":"星山"},{"zipCode":"6497115","prefectureKana":"ﾜｶﾔﾏｹﾝ","cityKana":"ｲﾄｸﾞﾝｶﾂﾗｷﾞﾁｮｳ","streetKana":"ﾐｼﾞｶﾉ","prefecture":"和歌山県","city":"伊都郡かつらぎ町","street":"短野"},{"zipCode":"6497133","prefectureKana":"ﾜｶﾔﾏｹﾝ","cityKana":"ｲﾄｸﾞﾝｶﾂﾗｷﾞﾁｮｳ","streetKana":"ﾐﾀﾆ","prefecture":"和歌山県","city":"伊都郡かつらぎ町","street":"三谷"},{"zipCode":"6497134","prefectureKana":"ﾜｶﾔﾏｹﾝ","cityKana":"ｲﾄｸﾞﾝｶﾂﾗｷﾞﾁｮｳ","streetKana":"ﾐﾔﾓﾄ","prefecture":"和歌山県","city":"伊都郡かつらぎ町","street":"宮本"},{"zipCode":"6497113","prefectureKana":"ﾜｶﾔﾏｹﾝ","cityKana":"ｲﾄｸﾞﾝｶﾂﾗｷﾞﾁｮｳ","streetKana":"ﾐｮｳｼﾞ","prefecture":"和歌山県","city":"伊都郡かつらぎ町","street":"妙寺"},{"zipCode":"6497131","prefectureKana":"ﾜｶﾔﾏｹﾝ","cityKana":"ｲﾄｸﾞﾝｶﾂﾗｷﾞﾁｮｳ","streetKana":"ﾔﾏｻｷ","prefecture":"和歌山県","city":"伊都郡かつらぎ町","street":"山崎"},{"zipCode":"6491200","prefectureKana":"ﾜｶﾔﾏｹﾝ","cityKana":"ﾋﾀﾞｶｸﾞﾝﾋﾀﾞｶﾁｮｳ","streetKana":"ｲｶﾆｹｲｻｲｶﾞﾅｲﾊﾞｱｲ","prefecture":"和歌山県","city":"日高郡日高町","street":"以下に掲載がない場合"},{"zipCode":"6491232","prefectureKana":"ﾜｶﾔﾏｹﾝ","cityKana":"ﾋﾀﾞｶｸﾞﾝﾋﾀﾞｶﾁｮｳ","streetKana":"ｱｵ","prefecture":"和歌山県","city":"日高郡日高町","street":"阿尾"},{"zipCode":"6491203","prefectureKana":"ﾜｶﾔﾏｹﾝ","cityKana":"ﾋﾀﾞｶｸﾞﾝﾋﾀﾞｶﾁｮｳ","streetKana":"ｲｹﾀﾞ","prefecture":"和歌山県","city":"日高郡日高町","street":"池田"},{"zipCode":"6491211","prefectureKana":"ﾜｶﾔﾏｹﾝ","cityKana":"ﾋﾀﾞｶｸﾞﾝﾋﾀﾞｶﾁｮｳ","streetKana":"ｲﾊﾞﾗｷ","prefecture":"和歌山県","city":"日高郡日高町","street":"荊木"},{"zipCode":"6491233","prefectureKana":"ﾜｶﾔﾏｹﾝ","cityKana":"ﾋﾀﾞｶｸﾞﾝﾋﾀﾞｶﾁｮｳ","streetKana":"ｳﾌﾞﾕ","prefecture":"和歌山県","city":"日高郡日高町","street":"産湯"},{"zipCode":"6491222","prefectureKana":"ﾜｶﾔﾏｹﾝ","cityKana":"ﾋﾀﾞｶｸﾞﾝﾋﾀﾞｶﾁｮｳ","streetKana":"ｵｲｹ","prefecture":"和歌山県","city":"日高郡日高町","street":"小池"},{"zipCode":"6491223","prefectureKana":"ﾜｶﾔﾏｹﾝ","cityKana":"ﾋﾀﾞｶｸﾞﾝﾋﾀﾞｶﾁｮｳ","streetKana":"ｵｳﾗ","prefecture":"和歌山県","city":"日高郡日高町","street":"小浦"},{"zipCode":"6491231","prefectureKana":"ﾜｶﾔﾏｹﾝ","cityKana":"ﾋﾀﾞｶｸﾞﾝﾋﾀﾞｶﾁｮｳ","streetKana":"ｵｻｶ","prefecture":"和歌山県","city":"日高郡日高町","street":"小坂"},{"zipCode":"6491212","prefectureKana":"ﾜｶﾔﾏｹﾝ","cityKana":"ﾋﾀﾞｶｸﾞﾝﾋﾀﾞｶﾁｮｳ","streetKana":"ｵﾅｶ","prefecture":"和歌山県","city":"日高郡日高町","street":"小中"},{"zipCode":"6491225","prefectureKana":"ﾜｶﾔﾏｹﾝ","cityKana":"ﾋﾀﾞｶｸﾞﾝﾋﾀﾞｶﾁｮｳ","streetKana":"ｶﾀｸｲ","prefecture":"和歌山県","city":"日高郡日高町","street":"方杭"},{"zipCode":"6491221","prefectureKana":"ﾜｶﾔﾏｹﾝ","cityKana":"ﾋﾀﾞｶｸﾞﾝﾋﾀﾞｶﾁｮｳ","streetKana":"ｼｶﾞ","prefecture":"和歌山県","city":"日高郡日高町","street":"志賀"},{"zipCode":"6491213","prefectureKana":"ﾜｶﾔﾏｹﾝ","cityKana":"ﾋﾀﾞｶｸﾞﾝﾋﾀﾞｶﾁｮｳ","streetKana":"ﾀｲｴ","prefecture":"和歌山県","city":"日高郡日高町","street":"高家"},{"zipCode":"6491224","prefectureKana":"ﾜｶﾔﾏｹﾝ","cityKana":"ﾋﾀﾞｶｸﾞﾝﾋﾀﾞｶﾁｮｳ","streetKana":"ﾂｸﾉ","prefecture":"和歌山県","city":"日高郡日高町","street":"津久野"},{"zipCode":"6491202","prefectureKana":"ﾜｶﾔﾏｹﾝ","cityKana":"ﾋﾀﾞｶｸﾞﾝﾋﾀﾞｶﾁｮｳ","streetKana":"ﾊｷﾞﾜﾗ","prefecture":"和歌山県","city":"日高郡日高町","street":"萩原"},{"zipCode":"6491201","prefectureKana":"ﾜｶﾔﾏｹﾝ","cityKana":"ﾋﾀﾞｶｸﾞﾝﾋﾀﾞｶﾁｮｳ","streetKana":"ﾊﾗﾀﾞﾆ","prefecture":"和歌山県","city":"日高郡日高町","street":"原谷"},{"zipCode":"6491234","prefectureKana":"ﾜｶﾔﾏｹﾝ","cityKana":"ﾋﾀﾞｶｸﾞﾝﾋﾀﾞｶﾁｮｳ","streetKana":"ﾋｲ","prefecture":"和歌山県","city":"日高郡日高町","street":"比井"},{"zipCode":"6491100","prefectureKana":"ﾜｶﾔﾏｹﾝ","cityKana":"ﾋﾀﾞｶｸﾞﾝﾕﾗﾁｮｳ","streetKana":"ｲｶﾆｹｲｻｲｶﾞﾅｲﾊﾞｱｲ","prefecture":"和歌山県","city":"日高郡由良町","street":"以下に掲載がない場合"},{"zipCode":"6491112","prefectureKana":"ﾜｶﾔﾏｹﾝ","cityKana":"ﾋﾀﾞｶｸﾞﾝﾕﾗﾁｮｳ","streetKana":"ｱｼﾞﾛ","prefecture":"和歌山県","city":"日高郡由良町","street":"網代"},{"zipCode":"6491113","prefectureKana":"ﾜｶﾔﾏｹﾝ","cityKana":"ﾋﾀﾞｶｸﾞﾝﾕﾗﾁｮｳ","streetKana":"ｱﾄ","prefecture":"和歌山県","city":"日高郡由良町","street":"阿戸"},{"zipCode":"6491132","prefectureKana":"ﾜｶﾔﾏｹﾝ","cityKana":"ﾋﾀﾞｶｸﾞﾝﾕﾗﾁｮｳ","streetKana":"ｴﾅ","prefecture":"和歌山県","city":"日高郡由良町","street":"衣奈"},{"zipCode":"6491104","prefectureKana":"ﾜｶﾔﾏｹﾝ","cityKana":"ﾋﾀﾞｶｸﾞﾝﾕﾗﾁｮｳ","streetKana":"ｴﾉｺﾏ","prefecture":"和歌山県","city":"日高郡由良町","street":"江ノ駒"},{"zipCode":"6491123","prefectureKana":"ﾜｶﾔﾏｹﾝ","cityKana":"ﾋﾀﾞｶｸﾞﾝﾕﾗﾁｮｳ","streetKana":"ｵｵﾋﾞｷ","prefecture":"和歌山県","city":"日高郡由良町","street":"大引"},{"zipCode":"6491122","prefectureKana":"ﾜｶﾔﾏｹﾝ","cityKana":"ﾋﾀﾞｶｸﾞﾝﾕﾗﾁｮｳ","streetKana":"ｶﾐﾔ","prefecture":"和歌山県","city":"日高郡由良町","street":"神谷"},{"zipCode":"6491131","prefectureKana":"ﾜｶﾔﾏｹﾝ","cityKana":"ﾋﾀﾞｶｸﾞﾝﾕﾗﾁｮｳ","streetKana":"ｺﾋﾞｷ","prefecture":"和歌山県","city":"日高郡由良町","street":"小引"},{"zipCode":"6491111","prefectureKana":"ﾜｶﾔﾏｹﾝ","cityKana":"ﾋﾀﾞｶｸﾞﾝﾕﾗﾁｮｳ","streetKana":"ｻﾄ","prefecture":"和歌山県","city":"日高郡由良町","street":"里"},{"zipCode":"6491134","prefectureKana":"ﾜｶﾔﾏｹﾝ","cityKana":"ﾋﾀﾞｶｸﾞﾝﾕﾗﾁｮｳ","streetKana":"ﾄﾂｲ","prefecture":"和歌山県","city":"日高郡由良町","street":"戸津井"},{"zipCode":"6491102","prefectureKana":"ﾜｶﾔﾏｹﾝ","cityKana":"ﾋﾀﾞｶｸﾞﾝﾕﾗﾁｮｳ","streetKana":"ﾅｶ","prefecture":"和歌山県","city":"日高郡由良町","street":"中"},{"zipCode":"6491101","prefectureKana":"ﾜｶﾔﾏｹﾝ","cityKana":"ﾋﾀﾞｶｸﾞﾝﾕﾗﾁｮｳ","streetKana":"ﾊﾀ","prefecture":"和歌山県","city":"日高郡由良町","street":"畑"},{"zipCode":"6491121","prefectureKana":"ﾜｶﾔﾏｹﾝ","cityKana":"ﾋﾀﾞｶｸﾞﾝﾕﾗﾁｮｳ","streetKana":"ﾌｹｲ","prefecture":"和歌山県","city":"日高郡由良町","street":"吹井"},{"zipCode":"6491133","prefectureKana":"ﾜｶﾔﾏｹﾝ","cityKana":"ﾋﾀﾞｶｸﾞﾝﾕﾗﾁｮｳ","streetKana":"ﾐｵｶﾞﾜ","prefecture":"和歌山県","city":"日高郡由良町","street":"三尾川"},{"zipCode":"6491103","prefectureKana":"ﾜｶﾔﾏｹﾝ","cityKana":"ﾋﾀﾞｶｸﾞﾝﾕﾗﾁｮｳ","streetKana":"ﾓﾝｾﾞﾝ","prefecture":"和歌山県","city":"日高郡由良町","street":"門前"},{"zipCode":"6491500","prefectureKana":"ﾜｶﾔﾏｹﾝ","cityKana":"ﾋﾀﾞｶｸﾞﾝｲﾅﾐﾁｮｳ","streetKana":"ｲｶﾆｹｲｻｲｶﾞﾅｲﾊﾞｱｲ","prefecture":"和歌山県","city":"日高郡印南町","street":"以下に掲載がない場合"},{"zipCode":"6491534","prefectureKana":"ﾜｶﾔﾏｹﾝ","cityKana":"ﾋﾀﾞｶｸﾞﾝｲﾅﾐﾁｮｳ","streetKana":"ｲﾅﾐ","prefecture":"和歌山県","city":"日高郡印南町","street":"印南"},{"zipCode":"6491532","prefectureKana":"ﾜｶﾔﾏｹﾝ","cityKana":"ﾋﾀﾞｶｸﾞﾝｲﾅﾐﾁｮｳ","streetKana":"ｲﾅﾝﾊﾞﾗ","prefecture":"和歌山県","city":"日高郡印南町","street":"印南原"},{"zipCode":"6491527","prefectureKana":"ﾜｶﾔﾏｹﾝ","cityKana":"ﾋﾀﾞｶｸﾞﾝｲﾅﾐﾁｮｳ","streetKana":"ｼﾏﾀﾞ","prefecture":"和歌山県","city":"日高郡印南町","street":"島田"},{"zipCode":"6491531","prefectureKana":"ﾜｶﾔﾏｹﾝ","cityKana":"ﾋﾀﾞｶｸﾞﾝｲﾅﾐﾁｮｳ","streetKana":"ﾀﾃｲｼ","prefecture":"和歌山県","city":"日高郡印南町","street":"立石"},{"zipCode":"6491535","prefectureKana":"ﾜｶﾔﾏｹﾝ","cityKana":"ﾋﾀﾞｶｸﾞﾝｲﾅﾐﾁｮｳ","streetKana":"ﾂｲ","prefecture":"和歌山県","city":"日高郡印南町","street":"津井"},{"zipCode":"6491528","prefectureKana":"ﾜｶﾔﾏｹﾝ","cityKana":"ﾋﾀﾞｶｸﾞﾝｲﾅﾐﾁｮｳ","streetKana":"ﾆｼﾉｼﾞ","prefecture":"和歌山県","city":"日高郡印南町","street":"西ノ地"},{"zipCode":"6491524","prefectureKana":"ﾜｶﾔﾏｹﾝ","cityKana":"ﾋﾀﾞｶｸﾞﾝｲﾅﾐﾁｮｳ","streetKana":"ﾊﾛｸ","prefecture":"和歌山県","city":"日高郡印南町","street":"羽六"},{"zipCode":"6491522","prefectureKana":"ﾜｶﾔﾏｹﾝ","cityKana":"ﾋﾀﾞｶｸﾞﾝｲﾅﾐﾁｮｳ","streetKana":"ﾌﾙｲ","prefecture":"和歌山県","city":"日高郡印南町","street":"古井"},{"zipCode":"6491525","prefectureKana":"ﾜｶﾔﾏｹﾝ","cityKana":"ﾋﾀﾞｶｸﾞﾝｲﾅﾐﾁｮｳ","streetKana":"ﾌﾙﾔ","prefecture":"和歌山県","city":"日高郡印南町","street":"古屋"},{"zipCode":"6491523","prefectureKana":"ﾜｶﾔﾏｹﾝ","cityKana":"ﾋﾀﾞｶｸﾞﾝｲﾅﾐﾁｮｳ","streetKana":"ﾎｸｿｶﾞﾜ","prefecture":"和歌山県","city":"日高郡印南町","street":"樮川"},{"zipCode":"6491521","prefectureKana":"ﾜｶﾔﾏｹﾝ","cityKana":"ﾋﾀﾞｶｸﾞﾝｲﾅﾐﾁｮｳ","streetKana":"ﾐｻﾄ","prefecture":"和歌山県","city":"日高郡印南町","street":"美里"},{"zipCode":"6491536","prefectureKana":"ﾜｶﾔﾏｹﾝ","cityKana":"ﾋﾀﾞｶｸﾞﾝｲﾅﾐﾁｮｳ","streetKana":"ﾐﾅﾐﾀﾞﾆ","prefecture":"和歌山県","city":"日高郡印南町","street":"南谷"},{"zipCode":"6491526","prefectureKana":"ﾜｶﾔﾏｹﾝ","cityKana":"ﾋﾀﾞｶｸﾞﾝｲﾅﾐﾁｮｳ","streetKana":"ﾐﾔﾉﾏｴ","prefecture":"和歌山県","city":"日高郡印南町","street":"宮ノ前"},{"zipCode":"6491537","prefectureKana":"ﾜｶﾔﾏｹﾝ","cityKana":"ﾋﾀﾞｶｸﾞﾝｲﾅﾐﾁｮｳ","streetKana":"ﾐｮｳｼﾞﾝｶﾞﾜ","prefecture":"和歌山県","city":"日高郡印南町","street":"明神川"},{"zipCode":"6491533","prefectureKana":"ﾜｶﾔﾏｹﾝ","cityKana":"ﾋﾀﾞｶｸﾞﾝｲﾅﾐﾁｮｳ","streetKana":"ﾔﾏｸﾞﾁ","prefecture":"和歌山県","city":"日高郡印南町","street":"山口"},{"zipCode":"6491300","prefectureKana":"ﾜｶﾔﾏｹﾝ","cityKana":"ﾋﾀﾞｶｸﾞﾝﾋﾀﾞｶｶﾞﾜﾁｮｳ","streetKana":"ｲｶﾆｹｲｻｲｶﾞﾅｲﾊﾞｱｲ","prefecture":"和歌山県","city":"日高郡日高川町","street":"以下に掲載がない場合"},{"zipCode":"6491313","prefectureKana":"ﾜｶﾔﾏｹﾝ","cityKana":"ﾋﾀﾞｶｸﾞﾝﾋﾀﾞｶｶﾞﾜﾁｮｳ","streetKana":"ｲﾄｺﾞ","prefecture":"和歌山県","city":"日高郡日高川町","street":"伊藤川"},{"zipCode":"6491442","prefectureKana":"ﾜｶﾔﾏｹﾝ","cityKana":"ﾋﾀﾞｶｸﾞﾝﾋﾀﾞｶｶﾞﾜﾁｮｳ","streetKana":"ｴｶﾜ","prefecture":"和歌山県","city":"日高郡日高川町","street":"江川"},{"zipCode":"6491331","prefectureKana":"ﾜｶﾔﾏｹﾝ","cityKana":"ﾋﾀﾞｶｸﾞﾝﾋﾀﾞｶｶﾞﾜﾁｮｳ","streetKana":"ｶﾈﾏｷ","prefecture":"和歌山県","city":"日高郡日高川町","street":"鐘巻"},{"zipCode":"6491315","prefectureKana":"ﾜｶﾔﾏｹﾝ","cityKana":"ﾋﾀﾞｶｸﾞﾝﾋﾀﾞｶｶﾞﾜﾁｮｳ","streetKana":"ｹﾞﾝｺﾞ","prefecture":"和歌山県","city":"日高郡日高川町","street":"玄子"},{"zipCode":"6491323","prefectureKana":"ﾜｶﾔﾏｹﾝ","cityKana":"ﾋﾀﾞｶｸﾞﾝﾋﾀﾞｶｶﾞﾜﾁｮｳ","streetKana":"ｺｸﾞﾏ","prefecture":"和歌山県","city":"日高郡日高川町","street":"小熊"},{"zipCode":"6491441","prefectureKana":"ﾜｶﾔﾏｹﾝ","cityKana":"ﾋﾀﾞｶｸﾞﾝﾋﾀﾞｶｶﾞﾜﾁｮｳ","streetKana":"ｻﾝﾔ","prefecture":"和歌山県","city":"日高郡日高川町","street":"山野"},{"zipCode":"6491332","prefectureKana":"ﾜｶﾔﾏｹﾝ","cityKana":"ﾋﾀﾞｶｸﾞﾝﾋﾀﾞｶｶﾞﾜﾁｮｳ","streetKana":"ｾﾝﾂﾞｶﾞﾜ","prefecture":"和歌山県","city":"日高郡日高川町","street":"千津川"},{"zipCode":"6491325","prefectureKana":"ﾜｶﾔﾏｹﾝ","cityKana":"ﾋﾀﾞｶｸﾞﾝﾋﾀﾞｶｶﾞﾜﾁｮｳ","streetKana":"ﾅｶﾂｶﾜ","prefecture":"和歌山県","city":"日高郡日高川町","street":"中津川"},{"zipCode":"6491321","prefectureKana":"ﾜｶﾔﾏｹﾝ","cityKana":"ﾋﾀﾞｶｸﾞﾝﾋﾀﾞｶｶﾞﾜﾁｮｳ","streetKana":"ﾆｭｳﾉ","prefecture":"和歌山県","city":"日高郡日高川町","street":"入野"},{"zipCode":"6491314","prefectureKana":"ﾜｶﾔﾏｹﾝ","cityKana":"ﾋﾀﾞｶｸﾞﾝﾋﾀﾞｶｶﾞﾜﾁｮｳ","streetKana":"ﾊｲｸｽﾞ","prefecture":"和歌山県","city":"日高郡日高川町","street":"早藤"},{"zipCode":"6491324","prefectureKana":"ﾜｶﾔﾏｹﾝ","cityKana":"ﾋﾀﾞｶｸﾞﾝﾋﾀﾞｶｶﾞﾜﾁｮｳ","streetKana":"ﾊﾌﾞ","prefecture":"和歌山県","city":"日高郡日高川町","street":"土生"},{"zipCode":"6491311","prefectureKana":"ﾜｶﾔﾏｹﾝ","cityKana":"ﾋﾀﾞｶｸﾞﾝﾋﾀﾞｶｶﾞﾜﾁｮｳ","streetKana":"ﾋｭｳｶﾞﾜ","prefecture":"和歌山県","city":"日高郡日高川町","street":"平川"},{"zipCode":"6491316","prefectureKana":"ﾜｶﾔﾏｹﾝ","cityKana":"ﾋﾀﾞｶｸﾞﾝﾋﾀﾞｶｶﾞﾜﾁｮｳ","streetKana":"ﾍﾋﾞｵ","prefecture":"和歌山県","city":"日高郡日高川町","street":"蛇尾"},{"zipCode":"6491444","prefectureKana":"ﾜｶﾔﾏｹﾝ","cityKana":"ﾋﾀﾞｶｸﾞﾝﾋﾀﾞｶｶﾞﾜﾁｮｳ","streetKana":"ﾏﾂｾ","prefecture":"和歌山県","city":"日高郡日高川町","street":"松瀬"},{"zipCode":"6491312","prefectureKana":"ﾜｶﾔﾏｹﾝ","cityKana":"ﾋﾀﾞｶｸﾞﾝﾋﾀﾞｶｶﾞﾜﾁｮｳ","streetKana":"ﾐﾖｾ","prefecture":"和歌山県","city":"日高郡日高川町","street":"三百瀬"},{"zipCode":"6491322","prefectureKana":"ﾜｶﾔﾏｹﾝ","cityKana":"ﾋﾀﾞｶｸﾞﾝﾋﾀﾞｶｶﾞﾜﾁｮｳ","streetKana":"ﾜｶﾉ","prefecture":"和歌山県","city":"日高郡日高川町","street":"若野"},{"zipCode":"6491443","prefectureKana":"ﾜｶﾔﾏｹﾝ","cityKana":"ﾋﾀﾞｶｸﾞﾝﾋﾀﾞｶｶﾞﾜﾁｮｳ","streetKana":"ﾜｻ","prefecture":"和歌山県","city":"日高郡日高川町","street":"和佐"},{"zipCode":"6492200","prefectureKana":"ﾜｶﾔﾏｹﾝ","cityKana":"ﾆｼﾑﾛｸﾞﾝｼﾗﾊﾏﾁｮｳ","streetKana":"ｲｶﾆｹｲｻｲｶﾞﾅｲﾊﾞｱｲ","prefecture":"和歌山県","city":"西牟婁郡白浜町","street":"以下に掲載がない場合"},{"zipCode":"6492211","prefectureKana":"ﾜｶﾔﾏｹﾝ","cityKana":"ﾆｼﾑﾛｸﾞﾝｼﾗﾊﾏﾁｮｳ","streetKana":"ｼﾗﾊﾏﾁｮｳﾉﾂｷﾞﾆﾊﾞﾝﾁｶﾞｸﾙﾊﾞｱｲ","prefecture":"和歌山県","city":"西牟婁郡白浜町","street":"白浜町の次に番地がくる場合"},{"zipCode":"6492532","prefectureKana":"ﾜｶﾔﾏｹﾝ","cityKana":"ﾆｼﾑﾛｸﾞﾝｼﾗﾊﾏﾁｮｳ","streetKana":"ｱｺﾞ","prefecture":"和歌山県","city":"西牟婁郡白浜町","street":"安居"},{"zipCode":"6492524","prefectureKana":"ﾜｶﾔﾏｹﾝ","cityKana":"ﾆｼﾑﾛｸﾞﾝｼﾗﾊﾏﾁｮｳ","streetKana":"ｱﾀｷﾞ","prefecture":"和歌山県","city":"西牟婁郡白浜町","street":"安宅"},{"zipCode":"6492322","prefectureKana":"ﾜｶﾔﾏｹﾝ","cityKana":"ﾆｼﾑﾛｸﾞﾝｼﾗﾊﾏﾁｮｳ","streetKana":"ｳﾁﾉｶﾜ","prefecture":"和歌山県","city":"西牟婁郡白浜町","street":"内ノ川"},{"zipCode":"6492537","prefectureKana":"ﾜｶﾔﾏｹﾝ","cityKana":"ﾆｼﾑﾛｸﾞﾝｼﾗﾊﾏﾁｮｳ","streetKana":"ｳﾂｷﾞ","prefecture":"和歌山県","city":"西牟婁郡白浜町","street":"宇津木"},{"zipCode":"6492521","prefectureKana":"ﾜｶﾔﾏｹﾝ","cityKana":"ﾆｼﾑﾛｸﾞﾝｼﾗﾊﾏﾁｮｳ","streetKana":"ｵｵﾌﾙ","prefecture":"和歌山県","city":"西牟婁郡白浜町","street":"大古"},{"zipCode":"6492201","prefectureKana":"ﾜｶﾔﾏｹﾝ","cityKana":"ﾆｼﾑﾛｸﾞﾝｼﾗﾊﾏﾁｮｳ","streetKana":"ｶﾀﾀ","prefecture":"和歌山県","city":"西牟婁郡白浜町","street":"堅田"},{"zipCode":"6492531","prefectureKana":"ﾜｶﾔﾏｹﾝ","cityKana":"ﾆｼﾑﾛｸﾞﾝｼﾗﾊﾏﾁｮｳ","streetKana":"ｸﾁｶﾞﾀﾆ","prefecture":"和歌山県","city":"西牟婁郡白浜町","street":"口ケ谷"},{"zipCode":"6492538","prefectureKana":"ﾜｶﾔﾏｹﾝ","cityKana":"ﾆｼﾑﾛｸﾞﾝｼﾗﾊﾏﾁｮｳ","streetKana":"ｺｶﾞﾜ","prefecture":"和歌山県","city":"西牟婁郡白浜町","street":"小川"},{"zipCode":"6492334","prefectureKana":"ﾜｶﾔﾏｹﾝ","cityKana":"ﾆｼﾑﾛｸﾞﾝｼﾗﾊﾏﾁｮｳ","streetKana":"ｻｲﾉ","prefecture":"和歌山県","city":"西牟婁郡白浜町","street":"才野"},{"zipCode":"6492332","prefectureKana":"ﾜｶﾔﾏｹﾝ","cityKana":"ﾆｼﾑﾛｸﾞﾝｼﾗﾊﾏﾁｮｳ","streetKana":"ｻｶｴ","prefecture":"和歌山県","city":"西牟婁郡白浜町","street":"栄"},{"zipCode":"6492525","prefectureKana":"ﾜｶﾔﾏｹﾝ","cityKana":"ﾆｼﾑﾛｸﾞﾝｼﾗﾊﾏﾁｮｳ","streetKana":"ｼｵﾉ","prefecture":"和歌山県","city":"西牟婁郡白浜町","street":"塩野"},{"zipCode":"6492323","prefectureKana":"ﾜｶﾔﾏｹﾝ","cityKana":"ﾆｼﾑﾛｸﾞﾝｼﾗﾊﾏﾁｮｳ","streetKana":"ｼｬｶﾞﾜ","prefecture":"和歌山県","city":"西牟婁郡白浜町","street":"庄川"},{"zipCode":"6492539","prefectureKana":"ﾜｶﾔﾏｹﾝ","cityKana":"ﾆｼﾑﾛｸﾞﾝｼﾗﾊﾏﾁｮｳ","streetKana":"ｼﾞｮｳ","prefecture":"和歌山県","city":"西牟婁郡白浜町","street":"城"},{"zipCode":"6492331","prefectureKana":"ﾜｶﾔﾏｹﾝ","cityKana":"ﾆｼﾑﾛｸﾞﾝｼﾗﾊﾏﾁｮｳ","streetKana":"ﾀｲﾗ","prefecture":"和歌山県","city":"西牟婁郡白浜町","street":"平"},{"zipCode":"6492523","prefectureKana":"ﾜｶﾔﾏｹﾝ","cityKana":"ﾆｼﾑﾛｸﾞﾝｼﾗﾊﾏﾁｮｳ","streetKana":"ﾀﾉｲ","prefecture":"和歌山県","city":"西牟婁郡白浜町","street":"田野井"},{"zipCode":"6492324","prefectureKana":"ﾜｶﾔﾏｹﾝ","cityKana":"ﾆｼﾑﾛｸﾞﾝｼﾗﾊﾏﾁｮｳ","streetKana":"ﾂﾂﾞﾗﾌﾁ","prefecture":"和歌山県","city":"西牟婁郡白浜町","street":"十九渕"},{"zipCode":"6492326","prefectureKana":"ﾜｶﾔﾏｹﾝ","cityKana":"ﾆｼﾑﾛｸﾞﾝｼﾗﾊﾏﾁｮｳ","streetKana":"ﾂﾊﾞｷ","prefecture":"和歌山県","city":"西牟婁郡白浜町","street":"椿"},{"zipCode":"6492534","prefectureKana":"ﾜｶﾔﾏｹﾝ","cityKana":"ﾆｼﾑﾛｸﾞﾝｼﾗﾊﾏﾁｮｳ","streetKana":"ﾃﾗﾔﾏ","prefecture":"和歌山県","city":"西牟婁郡白浜町","street":"寺山"},{"zipCode":"6492325","prefectureKana":"ﾜｶﾔﾏｹﾝ","cityKana":"ﾆｼﾑﾛｸﾞﾝｼﾗﾊﾏﾁｮｳ","streetKana":"ﾄﾝﾀﾞ","prefecture":"和歌山県","city":"西牟婁郡白浜町","street":"富田"},{"zipCode":"6492333","prefectureKana":"ﾜｶﾔﾏｹﾝ","cityKana":"ﾆｼﾑﾛｸﾞﾝｼﾗﾊﾏﾁｮｳ","streetKana":"ﾅｶ","prefecture":"和歌山県","city":"西牟婁郡白浜町","street":"中"},{"zipCode":"6492533","prefectureKana":"ﾜｶﾔﾏｹﾝ","cityKana":"ﾆｼﾑﾛｸﾞﾝｼﾗﾊﾏﾁｮｳ","streetKana":"ﾅｶｼﾞﾏ","prefecture":"和歌山県","city":"西牟婁郡白浜町","street":"中嶋"},{"zipCode":"6492511","prefectureKana":"ﾜｶﾔﾏｹﾝ","cityKana":"ﾆｼﾑﾛｸﾞﾝｼﾗﾊﾏﾁｮｳ","streetKana":"ﾋｷ","prefecture":"和歌山県","city":"西牟婁郡白浜町","street":"日置"},{"zipCode":"6492536","prefectureKana":"ﾜｶﾔﾏｹﾝ","cityKana":"ﾆｼﾑﾛｸﾞﾝｼﾗﾊﾏﾁｮｳ","streetKana":"ﾋｻｷﾞ","prefecture":"和歌山県","city":"西牟婁郡白浜町","street":"久木"},{"zipCode":"6492321","prefectureKana":"ﾜｶﾔﾏｹﾝ","cityKana":"ﾆｼﾑﾛｸﾞﾝｼﾗﾊﾏﾁｮｳ","streetKana":"ﾎﾛ","prefecture":"和歌山県","city":"西牟婁郡白浜町","street":"保呂"},{"zipCode":"6492535","prefectureKana":"ﾜｶﾔﾏｹﾝ","cityKana":"ﾆｼﾑﾛｸﾞﾝｼﾗﾊﾏﾁｮｳ","streetKana":"ﾑｶｲﾀﾞｲﾗ","prefecture":"和歌山県","city":"西牟婁郡白浜町","street":"向平"},{"zipCode":"6492522","prefectureKana":"ﾜｶﾔﾏｹﾝ","cityKana":"ﾆｼﾑﾛｸﾞﾝｼﾗﾊﾏﾁｮｳ","streetKana":"ﾔﾀ","prefecture":"和歌山県","city":"西牟婁郡白浜町","street":"矢田"},{"zipCode":"6492100","prefectureKana":"ﾜｶﾔﾏｹﾝ","cityKana":"ﾆｼﾑﾛｸﾞﾝｶﾐﾄﾝﾀﾞﾁｮｳ","streetKana":"ｲｶﾆｹｲｻｲｶﾞﾅｲﾊﾞｱｲ","prefecture":"和歌山県","city":"西牟婁郡上富田町","street":"以下に掲載がない場合"},{"zipCode":"6492105","prefectureKana":"ﾜｶﾔﾏｹﾝ","cityKana":"ﾆｼﾑﾛｸﾞﾝｶﾐﾄﾝﾀﾞﾁｮｳ","streetKana":"ｱｯｿ","prefecture":"和歌山県","city":"西牟婁郡上富田町","street":"朝来"},{"zipCode":"6492103","prefectureKana":"ﾜｶﾔﾏｹﾝ","cityKana":"ﾆｼﾑﾛｸﾞﾝｶﾐﾄﾝﾀﾞﾁｮｳ","streetKana":"ｲｸﾏ","prefecture":"和歌山県","city":"西牟婁郡上富田町","street":"生馬"},{"zipCode":"6492107","prefectureKana":"ﾜｶﾔﾏｹﾝ","cityKana":"ﾆｼﾑﾛｸﾞﾝｶﾐﾄﾝﾀﾞﾁｮｳ","streetKana":"ｲﾁﾉｾ","prefecture":"和歌山県","city":"西牟婁郡上富田町","street":"市ノ瀬"},{"zipCode":"6492104","prefectureKana":"ﾜｶﾔﾏｹﾝ","cityKana":"ﾆｼﾑﾛｸﾞﾝｶﾐﾄﾝﾀﾞﾁｮｳ","streetKana":"ｲﾜｻｷ","prefecture":"和歌山県","city":"西牟婁郡上富田町","street":"岩崎"},{"zipCode":"6492102","prefectureKana":"ﾜｶﾔﾏｹﾝ","cityKana":"ﾆｼﾑﾛｸﾞﾝｶﾐﾄﾝﾀﾞﾁｮｳ","streetKana":"ｲﾜﾀﾞ","prefecture":"和歌山県","city":"西牟婁郡上富田町","street":"岩田"},{"zipCode":"6492101","prefectureKana":"ﾜｶﾔﾏｹﾝ","cityKana":"ﾆｼﾑﾛｸﾞﾝｶﾐﾄﾝﾀﾞﾁｮｳ","streetKana":"ｵｶ","prefecture":"和歌山県","city":"西牟婁郡上富田町","street":"岡"},{"zipCode":"6492108","prefectureKana":"ﾜｶﾔﾏｹﾝ","cityKana":"ﾆｼﾑﾛｸﾞﾝｶﾐﾄﾝﾀﾞﾁｮｳ","streetKana":"ｼﾓｱﾕｶﾜ","prefecture":"和歌山県","city":"西牟婁郡上富田町","street":"下鮎川"},{"zipCode":"6492106","prefectureKana":"ﾜｶﾔﾏｹﾝ","cityKana":"ﾆｼﾑﾛｸﾞﾝｶﾐﾄﾝﾀﾞﾁｮｳ","streetKana":"ﾅﾝｷﾉﾀﾞｲ","prefecture":"和歌山県","city":"西牟婁郡上富田町","street":"南紀の台"},{"zipCode":"6492600","prefectureKana":"ﾜｶﾔﾏｹﾝ","cityKana":"ﾆｼﾑﾛｸﾞﾝｽｻﾐﾁｮｳ","streetKana":"ｲｶﾆｹｲｻｲｶﾞﾅｲﾊﾞｱｲ","prefecture":"和歌山県","city":"西牟婁郡すさみ町","street":"以下に掲載がない場合"},{"zipCode":"6493142","prefectureKana":"ﾜｶﾔﾏｹﾝ","cityKana":"ﾆｼﾑﾛｸﾞﾝｽｻﾐﾁｮｳ","streetKana":"ｴｽﾐ","prefecture":"和歌山県","city":"西牟婁郡すさみ町","street":"江住"},{"zipCode":"6493151","prefectureKana":"ﾜｶﾔﾏｹﾝ","cityKana":"ﾆｼﾑﾛｸﾞﾝｽｻﾐﾁｮｳ","streetKana":"ｵｵｶﾞﾏ","prefecture":"和歌山県","city":"西牟婁郡すさみ町","street":"大鎌"},{"zipCode":"6493153","prefectureKana":"ﾜｶﾔﾏｹﾝ","cityKana":"ﾆｼﾑﾛｸﾞﾝｽｻﾐﾁｮｳ","streetKana":"ｵｵﾀﾆ","prefecture":"和歌山県","city":"西牟婁郡すさみ町","street":"大谷"},{"zipCode":"6492602","prefectureKana":"ﾜｶﾔﾏｹﾝ","cityKana":"ﾆｼﾑﾛｸﾞﾝｽｻﾐﾁｮｳ","streetKana":"ｵｵﾂｷ","prefecture":"和歌山県","city":"西牟婁郡すさみ町","street":"大附"},{"zipCode":"6492603","prefectureKana":"ﾜｶﾔﾏｹﾝ","cityKana":"ﾆｼﾑﾛｸﾞﾝｽｻﾐﾁｮｳ","streetKana":"ｵｶｳﾁ","prefecture":"和歌山県","city":"西牟婁郡すさみ町","street":"小河内"},{"zipCode":"6492612","prefectureKana":"ﾜｶﾔﾏｹﾝ","cityKana":"ﾆｼﾑﾛｸﾞﾝｽｻﾐﾁｮｳ","streetKana":"ｸﾁﾜﾌﾞｶ","prefecture":"和歌山県","city":"西牟婁郡すさみ町","street":"口和深"},{"zipCode":"6492601","prefectureKana":"ﾜｶﾔﾏｹﾝ","cityKana":"ﾆｼﾑﾛｸﾞﾝｽｻﾐﾁｮｳ","streetKana":"ｺﾂｷ","prefecture":"和歌山県","city":"西牟婁郡すさみ町","street":"小附"},{"zipCode":"6493143","prefectureKana":"ﾜｶﾔﾏｹﾝ","cityKana":"ﾆｼﾑﾛｸﾞﾝｽｻﾐﾁｮｳ","streetKana":"ｻﾄﾉ","prefecture":"和歌山県","city":"西牟婁郡すさみ町","street":"里野"},{"zipCode":"6493162","prefectureKana":"ﾜｶﾔﾏｹﾝ","cityKana":"ﾆｼﾑﾛｸﾞﾝｽｻﾐﾁｮｳ","streetKana":"ｻﾓﾄｵｲｶﾞﾜ","prefecture":"和歌山県","city":"西牟婁郡すさみ町","street":"佐本追川"},{"zipCode":"6493161","prefectureKana":"ﾜｶﾔﾏｹﾝ","cityKana":"ﾆｼﾑﾛｸﾞﾝｽｻﾐﾁｮｳ","streetKana":"ｻﾓﾄﾅｶ","prefecture":"和歌山県","city":"西牟婁郡すさみ町","street":"佐本中"},{"zipCode":"6493165","prefectureKana":"ﾜｶﾔﾏｹﾝ","cityKana":"ﾆｼﾑﾛｸﾞﾝｽｻﾐﾁｮｳ","streetKana":"ｻﾓﾄﾅｶﾉ","prefecture":"和歌山県","city":"西牟婁郡すさみ町","street":"佐本中野"},{"zipCode":"6493163","prefectureKana":"ﾜｶﾔﾏｹﾝ","cityKana":"ﾆｼﾑﾛｸﾞﾝｽｻﾐﾁｮｳ","streetKana":"ｻﾓﾄﾆｼｸﾘｶﾞｲﾄ","prefecture":"和歌山県","city":"西牟婁郡すさみ町","street":"佐本西栗垣内"},{"zipCode":"6493166","prefectureKana":"ﾜｶﾔﾏｹﾝ","cityKana":"ﾆｼﾑﾛｸﾞﾝｽｻﾐﾁｮｳ","streetKana":"ｻﾓﾄﾆｼﾉｶﾜ","prefecture":"和歌山県","city":"西牟婁郡すさみ町","street":"佐本西野川"},{"zipCode":"6493168","prefectureKana":"ﾜｶﾔﾏｹﾝ","cityKana":"ﾆｼﾑﾛｸﾞﾝｽｻﾐﾁｮｳ","streetKana":"ｻﾓﾄﾈｸﾗ","prefecture":"和歌山県","city":"西牟婁郡すさみ町","street":"佐本根倉"},{"zipCode":"6493164","prefectureKana":"ﾜｶﾔﾏｹﾝ","cityKana":"ﾆｼﾑﾛｸﾞﾝｽｻﾐﾁｮｳ","streetKana":"ｻﾓﾄﾋｶﾞｼｸﾘｶﾞｲﾄ","prefecture":"和歌山県","city":"西牟婁郡すさみ町","street":"佐本東栗垣内"},{"zipCode":"6493167","prefectureKana":"ﾜｶﾔﾏｹﾝ","cityKana":"ﾆｼﾑﾛｸﾞﾝｽｻﾐﾁｮｳ","streetKana":"ｻﾓﾄﾋﾗﾉ","prefecture":"和歌山県","city":"西牟婁郡すさみ町","street":"佐本平野"},{"zipCode":"6493169","prefectureKana":"ﾜｶﾔﾏｹﾝ","cityKana":"ﾆｼﾑﾛｸﾞﾝｽｻﾐﾁｮｳ","streetKana":"ｻﾓﾄﾌｶﾀﾆ","prefecture":"和歌山県","city":"西牟婁郡すさみ町","street":"佐本深谷"},{"zipCode":"6492621","prefectureKana":"ﾜｶﾔﾏｹﾝ","cityKana":"ﾆｼﾑﾛｸﾞﾝｽｻﾐﾁｮｳ","streetKana":"ｽｻﾐ","prefecture":"和歌山県","city":"西牟婁郡すさみ町","street":"周参見"},{"zipCode":"6492631","prefectureKana":"ﾜｶﾔﾏｹﾝ","cityKana":"ﾆｼﾑﾛｸﾞﾝｽｻﾐﾁｮｳ","streetKana":"ﾀｲﾏｶﾞﾜ","prefecture":"和歌山県","city":"西牟婁郡すさみ町","street":"太間川"},{"zipCode":"6493152","prefectureKana":"ﾜｶﾔﾏｹﾝ","cityKana":"ﾆｼﾑﾛｸﾞﾝｽｻﾐﾁｮｳ","streetKana":"ﾂﾂﾞﾗ","prefecture":"和歌山県","city":"西牟婁郡すさみ町","street":"防己"},{"zipCode":"6493141","prefectureKana":"ﾜｶﾔﾏｹﾝ","cityKana":"ﾆｼﾑﾛｸﾞﾝｽｻﾐﾁｮｳ","streetKana":"ﾐﾛﾂﾞ","prefecture":"和歌山県","city":"西牟婁郡すさみ町","street":"見老津"},{"zipCode":"6492604","prefectureKana":"ﾜｶﾔﾏｹﾝ","cityKana":"ﾆｼﾑﾛｸﾞﾝｽｻﾐﾁｮｳ","streetKana":"ﾔﾉｸﾁ","prefecture":"和歌山県","city":"西牟婁郡すさみ町","street":"矢野口"},{"zipCode":"6492611","prefectureKana":"ﾜｶﾔﾏｹﾝ","cityKana":"ﾆｼﾑﾛｸﾞﾝｽｻﾐﾁｮｳ","streetKana":"ﾜﾌﾞｶｶﾞﾜ","prefecture":"和歌山県","city":"西牟婁郡すさみ町","street":"和深川"},{"zipCode":"6495300","prefectureKana":"ﾜｶﾔﾏｹﾝ","cityKana":"ﾋｶﾞｼﾑﾛｸﾞﾝﾅﾁｶﾂｳﾗﾁｮｳ","streetKana":"ｲｶﾆｹｲｻｲｶﾞﾅｲﾊﾞｱｲ","prefecture":"和歌山県","city":"東牟婁郡那智勝浦町","street":"以下に掲載がない場合"},{"zipCode":"6495332","prefectureKana":"ﾜｶﾔﾏｹﾝ","cityKana":"ﾋｶﾞｼﾑﾛｸﾞﾝﾅﾁｶﾂｳﾗﾁｮｳ","streetKana":"ｱｻﾋ","prefecture":"和歌山県","city":"東牟婁郡那智勝浦町","street":"朝日"},{"zipCode":"6495133","prefectureKana":"ﾜｶﾔﾏｹﾝ","cityKana":"ﾋｶﾞｼﾑﾛｸﾞﾝﾅﾁｶﾂｳﾗﾁｮｳ","streetKana":"ｲｼﾞｼ","prefecture":"和歌山県","city":"東牟婁郡那智勝浦町","street":"井鹿"},{"zipCode":"6495303","prefectureKana":"ﾜｶﾔﾏｹﾝ","cityKana":"ﾋｶﾞｼﾑﾛｸﾞﾝﾅﾁｶﾂｳﾗﾁｮｳ","streetKana":"ｲｾｷ","prefecture":"和歌山県","city":"東牟婁郡那智勝浦町","street":"井関"},{"zipCode":"6495302","prefectureKana":"ﾜｶﾔﾏｹﾝ","cityKana":"ﾋｶﾞｼﾑﾛｸﾞﾝﾅﾁｶﾂｳﾗﾁｮｳ","streetKana":"ｲﾁﾉﾉ","prefecture":"和歌山県","city":"東牟婁郡那智勝浦町","street":"市野々"},{"zipCode":"6495339","prefectureKana":"ﾜｶﾔﾏｹﾝ","cityKana":"ﾋｶﾞｼﾑﾛｸﾞﾝﾅﾁｶﾂｳﾗﾁｮｳ","streetKana":"ｲﾁﾔ(ｵｵｳﾗ､1054-9)","prefecture":"和歌山県","city":"東牟婁郡那智勝浦町","street":"市屋（大浦、１０５４－９）"},{"zipCode":"6495141","prefectureKana":"ﾜｶﾔﾏｹﾝ","cityKana":"ﾋｶﾞｼﾑﾛｸﾞﾝﾅﾁｶﾂｳﾗﾁｮｳ","streetKana":"ｲﾁﾔ(ｿﾉﾀ)","prefecture":"和歌山県","city":"東牟婁郡那智勝浦町","street":"市屋（その他）"},{"zipCode":"6495312","prefectureKana":"ﾜｶﾔﾏｹﾝ","cityKana":"ﾋｶﾞｼﾑﾛｸﾞﾝﾅﾁｶﾂｳﾗﾁｮｳ","streetKana":"ｳｸﾞｲ","prefecture":"和歌山県","city":"東牟婁郡那智勝浦町","street":"宇久井"},{"zipCode":"6495145","prefectureKana":"ﾜｶﾔﾏｹﾝ","cityKana":"ﾋｶﾞｼﾑﾛｸﾞﾝﾅﾁｶﾂｳﾗﾁｮｳ","streetKana":"ｳﾗｶﾞﾐ","prefecture":"和歌山県","city":"東牟婁郡那智勝浦町","street":"浦神"},{"zipCode":"6495461","prefectureKana":"ﾜｶﾔﾏｹﾝ","cityKana":"ﾋｶﾞｼﾑﾛｸﾞﾝﾅﾁｶﾂｳﾗﾁｮｳ","streetKana":"ｵｵﾉ","prefecture":"和歌山県","city":"東牟婁郡那智勝浦町","street":"大野"},{"zipCode":"6495466","prefectureKana":"ﾜｶﾔﾏｹﾝ","cityKana":"ﾋｶﾞｼﾑﾛｸﾞﾝﾅﾁｶﾂｳﾗﾁｮｳ","streetKana":"ｶｼﾜﾗ","prefecture":"和歌山県","city":"東牟婁郡那智勝浦町","street":"樫原"},{"zipCode":"6495334","prefectureKana":"ﾜｶﾔﾏｹﾝ","cityKana":"ﾋｶﾞｼﾑﾛｸﾞﾝﾅﾁｶﾂｳﾗﾁｮｳ","streetKana":"ｶﾂｳﾗ","prefecture":"和歌山県","city":"東牟婁郡那智勝浦町","street":"勝浦"},{"zipCode":"6495304","prefectureKana":"ﾜｶﾔﾏｹﾝ","cityKana":"ﾋｶﾞｼﾑﾛｸﾞﾝﾅﾁｶﾂｳﾗﾁｮｳ","streetKana":"ｶﾜｾｷ","prefecture":"和歌山県","city":"東牟婁郡那智勝浦町","street":"川関"},{"zipCode":"6495333","prefectureKana":"ﾜｶﾔﾏｹﾝ","cityKana":"ﾋｶﾞｼﾑﾛｸﾞﾝﾅﾁｶﾂｳﾗﾁｮｳ","streetKana":"ｷﾀﾊﾏ","prefecture":"和歌山県","city":"東牟婁郡那智勝浦町","street":"北浜"},{"zipCode":"6495313","prefectureKana":"ﾜｶﾔﾏｹﾝ","cityKana":"ﾋｶﾞｼﾑﾛｸﾞﾝﾅﾁｶﾂｳﾗﾁｮｳ","streetKana":"ｸｼﾞﾉｶﾜ","prefecture":"和歌山県","city":"東牟婁郡那智勝浦町","street":"狗子ノ川"},{"zipCode":"6495451","prefectureKana":"ﾜｶﾔﾏｹﾝ","cityKana":"ﾋｶﾞｼﾑﾛｸﾞﾝﾅﾁｶﾂｳﾗﾁｮｳ","streetKana":"ｸﾁｲﾛｶﾜ","prefecture":"和歌山県","city":"東牟婁郡那智勝浦町","street":"口色川"},{"zipCode":"6495454","prefectureKana":"ﾜｶﾔﾏｹﾝ","cityKana":"ﾋｶﾞｼﾑﾛｸﾞﾝﾅﾁｶﾂｳﾗﾁｮｳ","streetKana":"ｸﾏｾｶﾞﾜ","prefecture":"和歌山県","city":"東牟婁郡那智勝浦町","street":"熊瀬川"},{"zipCode":"6495311","prefectureKana":"ﾜｶﾔﾏｹﾝ","cityKana":"ﾋｶﾞｼﾑﾛｸﾞﾝﾅﾁｶﾂｳﾗﾁｮｳ","streetKana":"ｺｳﾂﾞｹ","prefecture":"和歌山県","city":"東牟婁郡那智勝浦町","street":"高津気"},{"zipCode":"6495135","prefectureKana":"ﾜｶﾔﾏｹﾝ","cityKana":"ﾋｶﾞｼﾑﾛｸﾞﾝﾅﾁｶﾂｳﾗﾁｮｳ","streetKana":"ｺｳﾄﾞｵｲ","prefecture":"和歌山県","city":"東牟婁郡那智勝浦町","street":"高遠井"},{"zipCode":"6495452","prefectureKana":"ﾜｶﾔﾏｹﾝ","cityKana":"ﾋｶﾞｼﾑﾛｸﾞﾝﾅﾁｶﾂｳﾗﾁｮｳ","streetKana":"ｺｻｶ","prefecture":"和歌山県","city":"東牟婁郡那智勝浦町","street":"小阪"},{"zipCode":"6495137","prefectureKana":"ﾜｶﾔﾏｹﾝ","cityKana":"ﾋｶﾞｼﾑﾛｸﾞﾝﾅﾁｶﾂｳﾗﾁｮｳ","streetKana":"ｺﾀﾞｸﾐ","prefecture":"和歌山県","city":"東牟婁郡那智勝浦町","street":"小匠"},{"zipCode":"6495144","prefectureKana":"ﾜｶﾔﾏｹﾝ","cityKana":"ﾋｶﾞｼﾑﾛｸﾞﾝﾅﾁｶﾂｳﾗﾁｮｳ","streetKana":"ｺﾉｼﾛ","prefecture":"和歌山県","city":"東牟婁郡那智勝浦町","street":"粉白"},{"zipCode":"6495465","prefectureKana":"ﾜｶﾔﾏｹﾝ","cityKana":"ﾋｶﾞｼﾑﾛｸﾞﾝﾅﾁｶﾂｳﾗﾁｮｳ","streetKana":"ｻｶｱｼ","prefecture":"和歌山県","city":"東牟婁郡那智勝浦町","street":"坂足"},{"zipCode":"6495142","prefectureKana":"ﾜｶﾔﾏｹﾝ","cityKana":"ﾋｶﾞｼﾑﾛｸﾞﾝﾅﾁｶﾂｳﾗﾁｮｳ","streetKana":"ｼﾓｻﾄ","prefecture":"和歌山県","city":"東牟婁郡那智勝浦町","street":"下里"},{"zipCode":"6495148","prefectureKana":"ﾜｶﾔﾏｹﾝ","cityKana":"ﾋｶﾞｼﾑﾛｸﾞﾝﾅﾁｶﾂｳﾗﾁｮｳ","streetKana":"ｼﾓﾜﾀﾞ","prefecture":"和歌山県","city":"東牟婁郡那智勝浦町","street":"下和田"},{"zipCode":"6495147","prefectureKana":"ﾜｶﾔﾏｹﾝ","cityKana":"ﾋｶﾞｼﾑﾛｸﾞﾝﾅﾁｶﾂｳﾗﾁｮｳ","streetKana":"ｼｮｳ","prefecture":"和歌山県","city":"東牟婁郡那智勝浦町","street":"庄"},{"zipCode":"6495463","prefectureKana":"ﾜｶﾔﾏｹﾝ","cityKana":"ﾋｶﾞｼﾑﾛｸﾞﾝﾅﾁｶﾂｳﾗﾁｮｳ","streetKana":"ﾀｶﾉ","prefecture":"和歌山県","city":"東牟婁郡那智勝浦町","street":"高野"},{"zipCode":"6495462","prefectureKana":"ﾜｶﾔﾏｹﾝ","cityKana":"ﾋｶﾞｼﾑﾛｸﾞﾝﾅﾁｶﾂｳﾗﾁｮｳ","streetKana":"ﾀｶﾞｲﾄ","prefecture":"和歌山県","city":"東牟婁郡那智勝浦町","street":"田垣内"},{"zipCode":"6495335","prefectureKana":"ﾜｶﾔﾏｹﾝ","cityKana":"ﾋｶﾞｼﾑﾛｸﾞﾝﾅﾁｶﾂｳﾗﾁｮｳ","streetKana":"ﾂｷｼﾞ","prefecture":"和歌山県","city":"東牟婁郡那智勝浦町","street":"築地"},{"zipCode":"6495331","prefectureKana":"ﾜｶﾔﾏｹﾝ","cityKana":"ﾋｶﾞｼﾑﾛｸﾞﾝﾅﾁｶﾂｳﾗﾁｮｳ","streetKana":"ﾃﾝﾏ","prefecture":"和歌山県","city":"東牟婁郡那智勝浦町","street":"天満"},{"zipCode":"6495146","prefectureKana":"ﾜｶﾔﾏｹﾝ","cityKana":"ﾋｶﾞｼﾑﾛｸﾞﾝﾅﾁｶﾂｳﾗﾁｮｳ","streetKana":"ﾅｶｻﾄ","prefecture":"和歌山県","city":"東牟婁郡那智勝浦町","street":"中里"},{"zipCode":"6495132","prefectureKana":"ﾜｶﾔﾏｹﾝ","cityKana":"ﾋｶﾞｼﾑﾛｸﾞﾝﾅﾁｶﾂｳﾗﾁｮｳ","streetKana":"ﾅｶﾉｶﾜ","prefecture":"和歌山県","city":"東牟婁郡那智勝浦町","street":"中ノ川"},{"zipCode":"6495136","prefectureKana":"ﾜｶﾔﾏｹﾝ","cityKana":"ﾋｶﾞｼﾑﾛｸﾞﾝﾅﾁｶﾂｳﾗﾁｮｳ","streetKana":"ﾅｶﾞｲ","prefecture":"和歌山県","city":"東牟婁郡那智勝浦町","street":"長井"},{"zipCode":"6495301","prefectureKana":"ﾜｶﾔﾏｹﾝ","cityKana":"ﾋｶﾞｼﾑﾛｸﾞﾝﾅﾁｶﾂｳﾗﾁｮｳ","streetKana":"ﾅﾁｻﾝ","prefecture":"和歌山県","city":"東牟婁郡那智勝浦町","street":"那智山"},{"zipCode":"6495338","prefectureKana":"ﾜｶﾔﾏｹﾝ","cityKana":"ﾋｶﾞｼﾑﾛｸﾞﾝﾅﾁｶﾂｳﾗﾁｮｳ","streetKana":"ﾆｺｳ","prefecture":"和歌山県","city":"東牟婁郡那智勝浦町","street":"二河"},{"zipCode":"6495131","prefectureKana":"ﾜｶﾔﾏｹﾝ","cityKana":"ﾋｶﾞｼﾑﾛｸﾞﾝﾅﾁｶﾂｳﾗﾁｮｳ","streetKana":"ﾆｼﾅｶﾉｶﾜ","prefecture":"和歌山県","city":"東牟婁郡那智勝浦町","street":"西中野川"},{"zipCode":"6495337","prefectureKana":"ﾜｶﾔﾏｹﾝ","cityKana":"ﾋｶﾞｼﾑﾛｸﾞﾝﾅﾁｶﾂｳﾗﾁｮｳ","streetKana":"ﾊｼﾉｶﾜ","prefecture":"和歌山県","city":"東牟婁郡那智勝浦町","street":"橋ノ川"},{"zipCode":"6495314","prefectureKana":"ﾜｶﾔﾏｹﾝ","cityKana":"ﾋｶﾞｼﾑﾛｸﾞﾝﾅﾁｶﾂｳﾗﾁｮｳ","streetKana":"ﾊﾏﾉﾐﾔ","prefecture":"和歌山県","city":"東牟婁郡那智勝浦町","street":"浜ノ宮"},{"zipCode":"6495464","prefectureKana":"ﾜｶﾔﾏｹﾝ","cityKana":"ﾋｶﾞｼﾑﾛｸﾞﾝﾅﾁｶﾂｳﾗﾁｮｳ","streetKana":"ﾋﾀﾊｼﾗ","prefecture":"和歌山県","city":"東牟婁郡那智勝浦町","street":"直柱"},{"zipCode":"6495134","prefectureKana":"ﾜｶﾔﾏｹﾝ","cityKana":"ﾋｶﾞｼﾑﾛｸﾞﾝﾅﾁｶﾂｳﾗﾁｮｳ","streetKana":"ﾐﾅﾐｵｵｲ","prefecture":"和歌山県","city":"東牟婁郡那智勝浦町","street":"南大居"},{"zipCode":"6495453","prefectureKana":"ﾜｶﾔﾏｹﾝ","cityKana":"ﾋｶﾞｼﾑﾛｸﾞﾝﾅﾁｶﾂｳﾗﾁｮｳ","streetKana":"ﾐﾅﾐﾋﾗﾉ","prefecture":"和歌山県","city":"東牟婁郡那智勝浦町","street":"南平野"},{"zipCode":"6495143","prefectureKana":"ﾜｶﾔﾏｹﾝ","cityKana":"ﾋｶﾞｼﾑﾛｸﾞﾝﾅﾁｶﾂｳﾗﾁｮｳ","streetKana":"ﾔﾀｶﾞﾉ","prefecture":"和歌山県","city":"東牟婁郡那智勝浦町","street":"八尺鏡野"},{"zipCode":"6495336","prefectureKana":"ﾜｶﾔﾏｹﾝ","cityKana":"ﾋｶﾞｼﾑﾛｸﾞﾝﾅﾁｶﾂｳﾗﾁｮｳ","streetKana":"ﾕｶﾜ","prefecture":"和歌山県","city":"東牟婁郡那智勝浦町","street":"湯川"},{"zipCode":"6495100","prefectureKana":"ﾜｶﾔﾏｹﾝ","cityKana":"ﾋｶﾞｼﾑﾛｸﾞﾝﾀｲｼﾞﾁｮｳ","streetKana":"ｲｶﾆｹｲｻｲｶﾞﾅｲﾊﾞｱｲ","prefecture":"和歌山県","city":"東牟婁郡太地町","street":"以下に掲載がない場合"},{"zipCode":"6495371","prefectureKana":"ﾜｶﾔﾏｹﾝ","cityKana":"ﾋｶﾞｼﾑﾛｸﾞﾝﾀｲｼﾞﾁｮｳ","streetKana":"ﾀｲｼﾞ(3772-3904ﾊﾞﾝﾁ)","prefecture":"和歌山県","city":"東牟婁郡太地町","street":"太地（３７７２～３９０４番地）"},{"zipCode":"6495171","prefectureKana":"ﾜｶﾔﾏｹﾝ","cityKana":"ﾋｶﾞｼﾑﾛｸﾞﾝﾀｲｼﾞﾁｮｳ","streetKana":"ﾀｲｼﾞ(ｿﾉﾀ)","prefecture":"和歌山県","city":"東牟婁郡太地町","street":"太地（その他）"},{"zipCode":"6495172","prefectureKana":"ﾜｶﾔﾏｹﾝ","cityKana":"ﾋｶﾞｼﾑﾛｸﾞﾝﾀｲｼﾞﾁｮｳ","streetKana":"ﾓﾘｳﾗ","prefecture":"和歌山県","city":"東牟婁郡太地町","street":"森浦"},{"zipCode":"6494100","prefectureKana":"ﾜｶﾔﾏｹﾝ","cityKana":"ﾋｶﾞｼﾑﾛｸﾞﾝｺｻﾞｶﾞﾜﾁｮｳ","streetKana":"ｲｶﾆｹｲｻｲｶﾞﾅｲﾊﾞｱｲ","prefecture":"和歌山県","city":"東牟婁郡古座川町","street":"以下に掲載がない場合"},{"zipCode":"6494235","prefectureKana":"ﾜｶﾔﾏｹﾝ","cityKana":"ﾋｶﾞｼﾑﾛｸﾞﾝｺｻﾞｶﾞﾜﾁｮｳ","streetKana":"ｱｲｾ","prefecture":"和歌山県","city":"東牟婁郡古座川町","street":"相瀬"},{"zipCode":"6494103","prefectureKana":"ﾜｶﾔﾏｹﾝ","cityKana":"ﾋｶﾞｼﾑﾛｸﾞﾝｺｻﾞｶﾞﾜﾁｮｳ","streetKana":"ｲｹﾉﾔﾏ","prefecture":"和歌山県","city":"東牟婁郡古座川町","street":"池野山"},{"zipCode":"6494232","prefectureKana":"ﾜｶﾔﾏｹﾝ","cityKana":"ﾋｶﾞｼﾑﾛｸﾞﾝｺｻﾞｶﾞﾜﾁｮｳ","streetKana":"ｲﾁﾌﾞﾘ","prefecture":"和歌山県","city":"東牟婁郡古座川町","street":"一雨"},{"zipCode":"6494453","prefectureKana":"ﾜｶﾔﾏｹﾝ","cityKana":"ﾋｶﾞｼﾑﾛｸﾞﾝｺｻﾞｶﾞﾜﾁｮｳ","streetKana":"ｳﾂｵ","prefecture":"和歌山県","city":"東牟婁郡古座川町","street":"洞尾"},{"zipCode":"6494105","prefectureKana":"ﾜｶﾔﾏｹﾝ","cityKana":"ﾋｶﾞｼﾑﾛｸﾞﾝｺｻﾞｶﾞﾜﾁｮｳ","streetKana":"ｳﾂｷﾞ","prefecture":"和歌山県","city":"東牟婁郡古座川町","street":"宇津木"},{"zipCode":"6494214","prefectureKana":"ﾜｶﾔﾏｹﾝ","cityKana":"ﾋｶﾞｼﾑﾛｸﾞﾝｺｻﾞｶﾞﾜﾁｮｳ","streetKana":"ｳﾂﾞﾂｲ","prefecture":"和歌山県","city":"東牟婁郡古座川町","street":"宇筒井"},{"zipCode":"6494225","prefectureKana":"ﾜｶﾔﾏｹﾝ","cityKana":"ﾋｶﾞｼﾑﾛｸﾞﾝｺｻﾞｶﾞﾜﾁｮｳ","streetKana":"ｳﾙﾉ","prefecture":"和歌山県","city":"東牟婁郡古座川町","street":"潤野"},{"zipCode":"6494451","prefectureKana":"ﾜｶﾔﾏｹﾝ","cityKana":"ﾋｶﾞｼﾑﾛｸﾞﾝｺｻﾞｶﾞﾜﾁｮｳ","streetKana":"ｵｵｶﾜ","prefecture":"和歌山県","city":"東牟婁郡古座川町","street":"大川"},{"zipCode":"6494215","prefectureKana":"ﾜｶﾔﾏｹﾝ","cityKana":"ﾋｶﾞｼﾑﾛｸﾞﾝｺｻﾞｶﾞﾜﾁｮｳ","streetKana":"ｵｵｸﾞﾜ","prefecture":"和歌山県","city":"東牟婁郡古座川町","street":"大桑"},{"zipCode":"6494227","prefectureKana":"ﾜｶﾔﾏｹﾝ","cityKana":"ﾋｶﾞｼﾑﾛｸﾞﾝｺｻﾞｶﾞﾜﾁｮｳ","streetKana":"ｵｵﾔﾅｷﾞ","prefecture":"和歌山県","city":"東牟婁郡古座川町","street":"大柳"},{"zipCode":"6494101","prefectureKana":"ﾜｶﾔﾏｹﾝ","cityKana":"ﾋｶﾞｼﾑﾛｸﾞﾝｺｻﾞｶﾞﾜﾁｮｳ","streetKana":"ｶｼﾔﾏ","prefecture":"和歌山県","city":"東牟婁郡古座川町","street":"樫山"},{"zipCode":"6494223","prefectureKana":"ﾜｶﾔﾏｹﾝ","cityKana":"ﾋｶﾞｼﾑﾛｸﾞﾝｺｻﾞｶﾞﾜﾁｮｳ","streetKana":"ｶﾜｸﾞﾁ","prefecture":"和歌山県","city":"東牟婁郡古座川町","street":"川口"},{"zipCode":"6494102","prefectureKana":"ﾜｶﾔﾏｹﾝ","cityKana":"ﾋｶﾞｼﾑﾛｸﾞﾝｺｻﾞｶﾞﾜﾁｮｳ","streetKana":"ｸｽ","prefecture":"和歌山県","city":"東牟婁郡古座川町","street":"楠"},{"zipCode":"6494452","prefectureKana":"ﾜｶﾔﾏｹﾝ","cityKana":"ﾋｶﾞｼﾑﾛｸﾞﾝｺｻﾞｶﾞﾜﾁｮｳ","streetKana":"ｸﾛｽﾞ","prefecture":"和歌山県","city":"東牟婁郡古座川町","street":"蔵土"},{"zipCode":"6494216","prefectureKana":"ﾜｶﾔﾏｹﾝ","cityKana":"ﾋｶﾞｼﾑﾛｸﾞﾝｺｻﾞｶﾞﾜﾁｮｳ","streetKana":"ｺｶﾞﾜ","prefecture":"和歌山県","city":"東牟婁郡古座川町","street":"小川"},{"zipCode":"6494211","prefectureKana":"ﾜｶﾔﾏｹﾝ","cityKana":"ﾋｶﾞｼﾑﾛｸﾞﾝｺｻﾞｶﾞﾜﾁｮｳ","streetKana":"ｺﾓﾘｶﾞﾜ","prefecture":"和歌山県","city":"東牟婁郡古座川町","street":"小森川"},{"zipCode":"6494442","prefectureKana":"ﾜｶﾔﾏｹﾝ","cityKana":"ﾋｶﾞｼﾑﾛｸﾞﾝｺｻﾞｶﾞﾜﾁｮｳ","streetKana":"ｻﾀﾞ","prefecture":"和歌山県","city":"東牟婁郡古座川町","street":"佐田"},{"zipCode":"6494562","prefectureKana":"ﾜｶﾔﾏｹﾝ","cityKana":"ﾋｶﾞｼﾑﾛｸﾞﾝｺｻﾞｶﾞﾜﾁｮｳ","streetKana":"ｼﾓﾂﾕ","prefecture":"和歌山県","city":"東牟婁郡古座川町","street":"下露"},{"zipCode":"6494441","prefectureKana":"ﾜｶﾔﾏｹﾝ","cityKana":"ﾋｶﾞｼﾑﾛｸﾞﾝｺｻﾞｶﾞﾜﾁｮｳ","streetKana":"ｿｲﾉｶﾞﾜ","prefecture":"和歌山県","city":"東牟婁郡古座川町","street":"添野川"},{"zipCode":"6494104","prefectureKana":"ﾜｶﾔﾏｹﾝ","cityKana":"ﾋｶﾞｼﾑﾛｸﾞﾝｺｻﾞｶﾞﾜﾁｮｳ","streetKana":"ﾀｶｲｹ","prefecture":"和歌山県","city":"東牟婁郡古座川町","street":"高池"},{"zipCode":"6494224","prefectureKana":"ﾜｶﾔﾏｹﾝ","cityKana":"ﾋｶﾞｼﾑﾛｸﾞﾝｺｻﾞｶﾞﾜﾁｮｳ","streetKana":"ﾀｶｾ","prefecture":"和歌山県","city":"東牟婁郡古座川町","street":"高瀬"},{"zipCode":"6494212","prefectureKana":"ﾜｶﾔﾏｹﾝ","cityKana":"ﾋｶﾞｼﾑﾛｸﾞﾝｺｻﾞｶﾞﾜﾁｮｳ","streetKana":"ﾀｶﾞﾜ","prefecture":"和歌山県","city":"東牟婁郡古座川町","street":"田川"},{"zipCode":"6494233","prefectureKana":"ﾜｶﾔﾏｹﾝ","cityKana":"ﾋｶﾞｼﾑﾛｸﾞﾝｺｻﾞｶﾞﾜﾁｮｳ","streetKana":"ﾀﾁｱｲ","prefecture":"和歌山県","city":"東牟婁郡古座川町","street":"立合"},{"zipCode":"6494236","prefectureKana":"ﾜｶﾔﾏｹﾝ","cityKana":"ﾋｶﾞｼﾑﾛｸﾞﾝｺｻﾞｶﾞﾜﾁｮｳ","streetKana":"ﾀﾁｱｲｶﾞﾜ","prefecture":"和歌山県","city":"東牟婁郡古座川町","street":"立合川"},{"zipCode":"6494106","prefectureKana":"ﾜｶﾔﾏｹﾝ","cityKana":"ﾋｶﾞｼﾑﾛｸﾞﾝｺｻﾞｶﾞﾜﾁｮｳ","streetKana":"ﾂｷﾉｾ","prefecture":"和歌山県","city":"東牟婁郡古座川町","street":"月野瀬"},{"zipCode":"6494231","prefectureKana":"ﾜｶﾔﾏｹﾝ","cityKana":"ﾋｶﾞｼﾑﾛｸﾞﾝｺｻﾞｶﾞﾜﾁｮｳ","streetKana":"ﾂﾙｶﾞﾜ","prefecture":"和歌山県","city":"東牟婁郡古座川町","street":"鶴川"},{"zipCode":"6494221","prefectureKana":"ﾜｶﾔﾏｹﾝ","cityKana":"ﾋｶﾞｼﾑﾛｸﾞﾝｺｻﾞｶﾞﾜﾁｮｳ","streetKana":"ﾅｶｻﾞｷ","prefecture":"和歌山県","city":"東牟婁郡古座川町","street":"中崎"},{"zipCode":"6494444","prefectureKana":"ﾜｶﾔﾏｹﾝ","cityKana":"ﾋｶﾞｼﾑﾛｸﾞﾝｺｻﾞｶﾞﾜﾁｮｳ","streetKana":"ﾅｶﾞｵｲ","prefecture":"和歌山県","city":"東牟婁郡古座川町","street":"長追"},{"zipCode":"6494454","prefectureKana":"ﾜｶﾔﾏｹﾝ","cityKana":"ﾋｶﾞｼﾑﾛｸﾞﾝｺｻﾞｶﾞﾜﾁｮｳ","streetKana":"ﾅﾍﾞﾗ","prefecture":"和歌山県","city":"東牟婁郡古座川町","street":"南平"},{"zipCode":"6494565","prefectureKana":"ﾜｶﾔﾏｹﾝ","cityKana":"ﾋｶﾞｼﾑﾛｸﾞﾝｺｻﾞｶﾞﾜﾁｮｳ","streetKana":"ﾅﾙｶﾜ","prefecture":"和歌山県","city":"東牟婁郡古座川町","street":"成川"},{"zipCode":"6494213","prefectureKana":"ﾜｶﾔﾏｹﾝ","cityKana":"ﾋｶﾞｼﾑﾛｸﾞﾝｺｻﾞｶﾞﾜﾁｮｳ","streetKana":"ﾆｼｱｶｷﾞ","prefecture":"和歌山県","city":"東牟婁郡古座川町","street":"西赤木"},{"zipCode":"6494561","prefectureKana":"ﾜｶﾔﾏｹﾝ","cityKana":"ﾋｶﾞｼﾑﾛｸﾞﾝｺｻﾞｶﾞﾜﾁｮｳ","streetKana":"ﾆｼｶﾜ","prefecture":"和歌山県","city":"東牟婁郡古座川町","street":"西川"},{"zipCode":"6494222","prefectureKana":"ﾜｶﾔﾏｹﾝ","cityKana":"ﾋｶﾞｼﾑﾛｸﾞﾝｺｻﾞｶﾞﾜﾁｮｳ","streetKana":"ﾇｸﾐ","prefecture":"和歌山県","city":"東牟婁郡古座川町","street":"直見"},{"zipCode":"6494563","prefectureKana":"ﾜｶﾔﾏｹﾝ","cityKana":"ﾋｶﾞｼﾑﾛｸﾞﾝｺｻﾞｶﾞﾜﾁｮｳ","streetKana":"ﾋﾗｲ","prefecture":"和歌山県","city":"東牟婁郡古座川町","street":"平井"},{"zipCode":"6494564","prefectureKana":"ﾜｶﾔﾏｹﾝ","cityKana":"ﾋｶﾞｼﾑﾛｸﾞﾝｺｻﾞｶﾞﾜﾁｮｳ","streetKana":"ﾏﾂﾈ","prefecture":"和歌山県","city":"東牟婁郡古座川町","street":"松根"},{"zipCode":"6494443","prefectureKana":"ﾜｶﾔﾏｹﾝ","cityKana":"ﾋｶﾞｼﾑﾛｸﾞﾝｺｻﾞｶﾞﾜﾁｮｳ","streetKana":"ﾏﾅｺﾞ","prefecture":"和歌山県","city":"東牟婁郡古座川町","street":"真砂"},{"zipCode":"6494455","prefectureKana":"ﾜｶﾔﾏｹﾝ","cityKana":"ﾋｶﾞｼﾑﾛｸﾞﾝｺｻﾞｶﾞﾜﾁｮｳ","streetKana":"ﾐﾄｶﾞﾜ","prefecture":"和歌山県","city":"東牟婁郡古座川町","street":"三尾川"},{"zipCode":"6494234","prefectureKana":"ﾜｶﾔﾏｹﾝ","cityKana":"ﾋｶﾞｼﾑﾛｸﾞﾝｺｻﾞｶﾞﾜﾁｮｳ","streetKana":"ﾐﾈ","prefecture":"和歌山県","city":"東牟婁郡古座川町","street":"峰"},{"zipCode":"6494226","prefectureKana":"ﾜｶﾔﾏｹﾝ","cityKana":"ﾋｶﾞｼﾑﾛｸﾞﾝｺｻﾞｶﾞﾜﾁｮｳ","streetKana":"ﾐｮｳｼﾞﾝ","prefecture":"和歌山県","city":"東牟婁郡古座川町","street":"明神"},{"zipCode":"6494217","prefectureKana":"ﾜｶﾔﾏｹﾝ","cityKana":"ﾋｶﾞｼﾑﾛｸﾞﾝｺｻﾞｶﾞﾜﾁｮｳ","streetKana":"ﾔﾏﾃ","prefecture":"和歌山県","city":"東牟婁郡古座川町","street":"山手"},{"zipCode":"6493500","prefectureKana":"ﾜｶﾔﾏｹﾝ","cityKana":"ﾋｶﾞｼﾑﾛｸﾞﾝｸｼﾓﾄﾁｮｳ","streetKana":"ｲｶﾆｹｲｻｲｶﾞﾅｲﾊﾞｱｲ","prefecture":"和歌山県","city":"東牟婁郡串本町","street":"以下に掲載がない場合"},{"zipCode":"6493514","prefectureKana":"ﾜｶﾔﾏｹﾝ","cityKana":"ﾋｶﾞｼﾑﾛｸﾞﾝｸｼﾓﾄﾁｮｳ","streetKana":"ｱﾘﾀﾞ","prefecture":"和歌山県","city":"東牟婁郡串本町","street":"有田"},{"zipCode":"6493518","prefectureKana":"ﾜｶﾔﾏｹﾝ","cityKana":"ﾋｶﾞｼﾑﾛｸﾞﾝｸｼﾓﾄﾁｮｳ","streetKana":"ｱﾘﾀﾞｶﾐ","prefecture":"和歌山県","city":"東牟婁郡串本町","street":"有田上"},{"zipCode":"6494124","prefectureKana":"ﾜｶﾔﾏｹﾝ","cityKana":"ﾋｶﾞｼﾑﾛｸﾞﾝｸｼﾓﾄﾁｮｳ","streetKana":"ｲｸｼ","prefecture":"和歌山県","city":"東牟婁郡串本町","street":"伊串"},{"zipCode":"6493501","prefectureKana":"ﾜｶﾔﾏｹﾝ","cityKana":"ﾋｶﾞｼﾑﾛｸﾞﾝｸｼﾓﾄﾁｮｳ","streetKana":"ｲﾂﾓ","prefecture":"和歌山県","city":"東牟婁郡串本町","street":"出雲"},{"zipCode":"6494114","prefectureKana":"ﾜｶﾔﾏｹﾝ","cityKana":"ﾋｶﾞｼﾑﾛｸﾞﾝｸｼﾓﾄﾁｮｳ","streetKana":"ｳｴﾉﾔﾏ","prefecture":"和歌山県","city":"東牟婁郡串本町","street":"上野山"},{"zipCode":"6493521","prefectureKana":"ﾜｶﾔﾏｹﾝ","cityKana":"ﾋｶﾞｼﾑﾛｸﾞﾝｸｼﾓﾄﾁｮｳ","streetKana":"ｴﾀﾞ","prefecture":"和歌山県","city":"東牟婁郡串本町","street":"江田"},{"zipCode":"6493633","prefectureKana":"ﾜｶﾔﾏｹﾝ","cityKana":"ﾋｶﾞｼﾑﾛｸﾞﾝｸｼﾓﾄﾁｮｳ","streetKana":"ｵｵｼﾏ","prefecture":"和歌山県","city":"東牟婁郡串本町","street":"大島"},{"zipCode":"6493631","prefectureKana":"ﾜｶﾔﾏｹﾝ","cityKana":"ﾋｶﾞｼﾑﾛｸﾞﾝｸｼﾓﾄﾁｮｳ","streetKana":"ｶｼﾉ","prefecture":"和歌山県","city":"東牟婁郡串本町","street":"樫野"},{"zipCode":"6494111","prefectureKana":"ﾜｶﾔﾏｹﾝ","cityKana":"ﾋｶﾞｼﾑﾛｸﾞﾝｸｼﾓﾄﾁｮｳ","streetKana":"ｶﾐﾀﾜﾗ","prefecture":"和歌山県","city":"東牟婁郡串本町","street":"上田原"},{"zipCode":"6493511","prefectureKana":"ﾜｶﾔﾏｹﾝ","cityKana":"ﾋｶﾞｼﾑﾛｸﾞﾝｸｼﾓﾄﾁｮｳ","streetKana":"ｸｼﾞﾉｶﾜ","prefecture":"和歌山県","city":"東牟婁郡串本町","street":"鬮野川"},{"zipCode":"6493503","prefectureKana":"ﾜｶﾔﾏｹﾝ","cityKana":"ﾋｶﾞｼﾑﾛｸﾞﾝｸｼﾓﾄﾁｮｳ","streetKana":"ｸｼﾓﾄ","prefecture":"和歌山県","city":"東牟婁郡串本町","street":"串本"},{"zipCode":"6494115","prefectureKana":"ﾜｶﾔﾏｹﾝ","cityKana":"ﾋｶﾞｼﾑﾛｸﾞﾝｸｼﾓﾄﾁｮｳ","streetKana":"ｺｻﾞ","prefecture":"和歌山県","city":"東牟婁郡串本町","street":"古座"},{"zipCode":"6494123","prefectureKana":"ﾜｶﾔﾏｹﾝ","cityKana":"ﾋｶﾞｼﾑﾛｸﾞﾝｸｼﾓﾄﾁｮｳ","streetKana":"ｺﾉｶﾞﾜ","prefecture":"和歌山県","city":"東牟婁郡串本町","street":"神野川"},{"zipCode":"6493524","prefectureKana":"ﾜｶﾔﾏｹﾝ","cityKana":"ﾋｶﾞｼﾑﾛｸﾞﾝｸｼﾓﾄﾁｮｳ","streetKana":"ｻﾄｶﾞﾜ","prefecture":"和歌山県","city":"東牟婁郡串本町","street":"里川"},{"zipCode":"6494117","prefectureKana":"ﾜｶﾔﾏｹﾝ","cityKana":"ﾋｶﾞｼﾑﾛｸﾞﾝｸｼﾓﾄﾁｮｳ","streetKana":"ｻﾍﾞ","prefecture":"和歌山県","city":"東牟婁郡串本町","street":"佐部"},{"zipCode":"6493510","prefectureKana":"ﾜｶﾔﾏｹﾝ","cityKana":"ﾋｶﾞｼﾑﾛｸﾞﾝｸｼﾓﾄﾁｮｳ","streetKana":"ｻﾝｺﾞﾀﾞｲ","prefecture":"和歌山県","city":"東牟婁郡串本町","street":"サンゴ台"},{"zipCode":"6493502","prefectureKana":"ﾜｶﾔﾏｹﾝ","cityKana":"ﾋｶﾞｼﾑﾛｸﾞﾝｸｼﾓﾄﾁｮｳ","streetKana":"ｼｵﾉﾐｻｷ","prefecture":"和歌山県","city":"東牟婁郡串本町","street":"潮岬"},{"zipCode":"6493632","prefectureKana":"ﾜｶﾔﾏｹﾝ","cityKana":"ﾋｶﾞｼﾑﾛｸﾞﾝｸｼﾓﾄﾁｮｳ","streetKana":"ｽｴ","prefecture":"和歌山県","city":"東牟婁郡串本町","street":"須江"},{"zipCode":"6493513","prefectureKana":"ﾜｶﾔﾏｹﾝ","cityKana":"ﾋｶﾞｼﾑﾛｸﾞﾝｸｼﾓﾄﾁｮｳ","streetKana":"ﾀｶﾄﾐ","prefecture":"和歌山県","city":"東牟婁郡串本町","street":"高富"},{"zipCode":"6493522","prefectureKana":"ﾜｶﾔﾏｹﾝ","cityKana":"ﾋｶﾞｼﾑﾛｸﾞﾝｸｼﾓﾄﾁｮｳ","streetKana":"ﾀｺ","prefecture":"和歌山県","city":"東牟婁郡串本町","street":"田子"},{"zipCode":"6493515","prefectureKana":"ﾜｶﾔﾏｹﾝ","cityKana":"ﾋｶﾞｼﾑﾛｸﾞﾝｸｼﾓﾄﾁｮｳ","streetKana":"ﾀﾅﾐ","prefecture":"和歌山県","city":"東牟婁郡串本町","street":"田並"},{"zipCode":"6493516","prefectureKana":"ﾜｶﾔﾏｹﾝ","cityKana":"ﾋｶﾞｼﾑﾛｸﾞﾝｸｼﾓﾄﾁｮｳ","streetKana":"ﾀﾅﾐｶﾐ","prefecture":"和歌山県","city":"東牟婁郡串本町","street":"田並上"},{"zipCode":"6494112","prefectureKana":"ﾜｶﾔﾏｹﾝ","cityKana":"ﾋｶﾞｼﾑﾛｸﾞﾝｸｼﾓﾄﾁｮｳ","streetKana":"ﾀﾜﾗ","prefecture":"和歌山県","city":"東牟婁郡串本町","street":"田原"},{"zipCode":"6494113","prefectureKana":"ﾜｶﾔﾏｹﾝ","cityKana":"ﾋｶﾞｼﾑﾛｸﾞﾝｸｼﾓﾄﾁｮｳ","streetKana":"ﾂｶﾞ","prefecture":"和歌山県","city":"東牟婁郡串本町","street":"津荷"},{"zipCode":"6494116","prefectureKana":"ﾜｶﾔﾏｹﾝ","cityKana":"ﾋｶﾞｼﾑﾛｸﾞﾝｸｼﾓﾄﾁｮｳ","streetKana":"ﾅｶﾐﾅﾄ","prefecture":"和歌山県","city":"東牟婁郡串本町","street":"中湊"},{"zipCode":"6493512","prefectureKana":"ﾜｶﾔﾏｹﾝ","cityKana":"ﾋｶﾞｼﾑﾛｸﾞﾝｸｼﾓﾄﾁｮｳ","streetKana":"ﾆｼｷ","prefecture":"和歌山県","city":"東牟婁郡串本町","street":"二色"},{"zipCode":"6494122","prefectureKana":"ﾜｶﾔﾏｹﾝ","cityKana":"ﾋｶﾞｼﾑﾛｸﾞﾝｸｼﾓﾄﾁｮｳ","streetKana":"ﾆｼﾑｶｲ","prefecture":"和歌山県","city":"東牟婁郡串本町","street":"西向"},{"zipCode":"6493517","prefectureKana":"ﾜｶﾔﾏｹﾝ","cityKana":"ﾋｶﾞｼﾑﾛｸﾞﾝｸｼﾓﾄﾁｮｳ","streetKana":"ﾊﾌﾞ","prefecture":"和歌山県","city":"東牟婁郡串本町","street":"吐生"},{"zipCode":"6494125","prefectureKana":"ﾜｶﾔﾏｹﾝ","cityKana":"ﾋｶﾞｼﾑﾛｸﾞﾝｸｼﾓﾄﾁｮｳ","streetKana":"ﾋﾒ","prefecture":"和歌山県","city":"東牟婁郡串本町","street":"姫"},{"zipCode":"6494126","prefectureKana":"ﾜｶﾔﾏｹﾝ","cityKana":"ﾋｶﾞｼﾑﾛｸﾞﾝｸｼﾓﾄﾁｮｳ","streetKana":"ﾋﾒｶﾞﾜ","prefecture":"和歌山県","city":"東牟婁郡串本町","street":"姫川"},{"zipCode":"6494121","prefectureKana":"ﾜｶﾔﾏｹﾝ","cityKana":"ﾋｶﾞｼﾑﾛｸﾞﾝｸｼﾓﾄﾁｮｳ","streetKana":"ﾌﾙﾀ","prefecture":"和歌山県","city":"東牟婁郡串本町","street":"古田"},{"zipCode":"6493523","prefectureKana":"ﾜｶﾔﾏｹﾝ","cityKana":"ﾋｶﾞｼﾑﾛｸﾞﾝｸｼﾓﾄﾁｮｳ","streetKana":"ﾜﾌﾞｶ","prefecture":"和歌山県","city":"東牟婁郡串本町","street":"和深"}]