[{"zipCode":"6511100","prefectureKana":"ﾋｮｳｺﾞｹﾝ","cityKana":"ｺｳﾍﾞｼｷﾀｸ","streetKana":"ｲｶﾆｹｲｻｲｶﾞﾅｲﾊﾞｱｲ","prefecture":"兵庫県","city":"神戸市北区","street":"以下に掲載がない場合"},{"zipCode":"6511231","prefectureKana":"ﾋｮｳｺﾞｹﾝ","cityKana":"ｺｳﾍﾞｼｷﾀｸ","streetKana":"ｱｵﾊﾞﾀﾞｲ","prefecture":"兵庫県","city":"神戸市北区","street":"青葉台"},{"zipCode":"6511516","prefectureKana":"ﾋｮｳｺﾞｹﾝ","cityKana":"ｺｳﾍﾞｼｷﾀｸ","streetKana":"ｱｶﾏﾂﾀﾞｲ","prefecture":"兵庫県","city":"神戸市北区","street":"赤松台"},{"zipCode":"6511321","prefectureKana":"ﾋｮｳｺﾞｹﾝ","cityKana":"ｺｳﾍﾞｼｷﾀｸ","streetKana":"ｱﾘﾉﾀﾞｲ","prefecture":"兵庫県","city":"神戸市北区","street":"有野台"},{"zipCode":"6511312","prefectureKana":"ﾋｮｳｺﾞｹﾝ","cityKana":"ｺｳﾍﾞｼｷﾀｸ","streetKana":"ｱﾘﾉﾁｮｳｱﾘﾉ","prefecture":"兵庫県","city":"神戸市北区","street":"有野町有野"},{"zipCode":"6511331","prefectureKana":"ﾋｮｳｺﾞｹﾝ","cityKana":"ｺｳﾍﾞｼｷﾀｸ","streetKana":"ｱﾘﾉﾁｮｳｶﾗﾄ","prefecture":"兵庫県","city":"神戸市北区","street":"有野町唐櫃"},{"zipCode":"6511311","prefectureKana":"ﾋｮｳｺﾞｹﾝ","cityKana":"ｺｳﾍﾞｼｷﾀｸ","streetKana":"ｱﾘﾉﾁｮｳﾆﾛｳ","prefecture":"兵庫県","city":"神戸市北区","street":"有野町二郎"},{"zipCode":"6511313","prefectureKana":"ﾋｮｳｺﾞｹﾝ","cityKana":"ｺｳﾍﾞｼｷﾀｸ","streetKana":"ｱﾘﾉﾅｶﾏﾁ","prefecture":"兵庫県","city":"神戸市北区","street":"有野中町"},{"zipCode":"6511401","prefectureKana":"ﾋｮｳｺﾞｹﾝ","cityKana":"ｺｳﾍﾞｼｷﾀｸ","streetKana":"ｱﾘﾏﾁｮｳ","prefecture":"兵庫県","city":"神戸市北区","street":"有馬町"},{"zipCode":"6511141","prefectureKana":"ﾋｮｳｺﾞｹﾝ","cityKana":"ｺｳﾍﾞｼｷﾀｸ","streetKana":"ｲｽﾞﾐﾀﾞｲ","prefecture":"兵庫県","city":"神戸市北区","street":"泉台"},{"zipCode":"6511603","prefectureKana":"ﾋｮｳｺﾞｹﾝ","cityKana":"ｺｳﾍﾞｼｷﾀｸ","streetKana":"ｵｳｺﾞﾁｮｳｵｳｺﾞ","prefecture":"兵庫県","city":"神戸市北区","street":"淡河町淡河"},{"zipCode":"6511604","prefectureKana":"ﾋｮｳｺﾞｹﾝ","cityKana":"ｺｳﾍﾞｼｷﾀｸ","streetKana":"ｵｳｺﾞﾁｮｳｶﾂｵ","prefecture":"兵庫県","city":"神戸市北区","street":"淡河町勝雄"},{"zipCode":"6511601","prefectureKana":"ﾋｮｳｺﾞｹﾝ","cityKana":"ｺｳﾍﾞｼｷﾀｸ","streetKana":"ｵｳｺﾞﾁｮｳｷﾀｿｵ","prefecture":"兵庫県","city":"神戸市北区","street":"淡河町北僧尾"},{"zipCode":"6511616","prefectureKana":"ﾋｮｳｺﾞｹﾝ","cityKana":"ｺｳﾍﾞｼｷﾀｸ","streetKana":"ｵｳｺﾞﾁｮｳｷﾀﾊﾀ","prefecture":"兵庫県","city":"神戸市北区","street":"淡河町北畑"},{"zipCode":"6511614","prefectureKana":"ﾋｮｳｺﾞｹﾝ","cityKana":"ｺｳﾍﾞｼｷﾀｸ","streetKana":"ｵｳｺﾞﾁｮｳｷﾂﾞ","prefecture":"兵庫県","city":"神戸市北区","street":"淡河町木津"},{"zipCode":"6511613","prefectureKana":"ﾋｮｳｺﾞｹﾝ","cityKana":"ｺｳﾍﾞｼｷﾀｸ","streetKana":"ｵｳｺﾞﾁｮｳｷﾞｮｳﾉﾊﾗ","prefecture":"兵庫県","city":"神戸市北区","street":"淡河町行原"},{"zipCode":"6511622","prefectureKana":"ﾋｮｳｺﾞｹﾝ","cityKana":"ｺｳﾍﾞｼｷﾀｸ","streetKana":"ｵｳｺﾞﾁｮｳｺｳﾀﾞ","prefecture":"兵庫県","city":"神戸市北区","street":"淡河町神田"},{"zipCode":"6511611","prefectureKana":"ﾋｮｳｺﾞｹﾝ","cityKana":"ｺｳﾍﾞｼｷﾀｸ","streetKana":"ｵｳｺﾞﾁｮｳﾅｶﾔﾏ","prefecture":"兵庫県","city":"神戸市北区","street":"淡河町中山"},{"zipCode":"6511623","prefectureKana":"ﾋｮｳｺﾞｹﾝ","cityKana":"ｺｳﾍﾞｼｷﾀｸ","streetKana":"ｵｳｺﾞﾁｮｳﾉｾ","prefecture":"兵庫県","city":"神戸市北区","street":"淡河町野瀬"},{"zipCode":"6511615","prefectureKana":"ﾋｮｳｺﾞｹﾝ","cityKana":"ｺｳﾍﾞｼｷﾀｸ","streetKana":"ｵｳｺﾞﾁｮｳﾊｷﾞﾜﾗ","prefecture":"兵庫県","city":"神戸市北区","street":"淡河町萩原"},{"zipCode":"6511612","prefectureKana":"ﾋｮｳｺﾞｹﾝ","cityKana":"ｺｳﾍﾞｼｷﾀｸ","streetKana":"ｵｳｺﾞﾁｮｳﾋｶﾞｼﾊﾞﾀ","prefecture":"兵庫県","city":"神戸市北区","street":"淡河町東畑"},{"zipCode":"6511621","prefectureKana":"ﾋｮｳｺﾞｹﾝ","cityKana":"ｺｳﾍﾞｼｷﾀｸ","streetKana":"ｵｳｺﾞﾁｮｳﾐｶｹﾞ","prefecture":"兵庫県","city":"神戸市北区","street":"淡河町神影"},{"zipCode":"6511602","prefectureKana":"ﾋｮｳｺﾞｹﾝ","cityKana":"ｺｳﾍﾞｼｷﾀｸ","streetKana":"ｵｳｺﾞﾁｮｳﾐﾅﾐｿｵ","prefecture":"兵庫県","city":"神戸市北区","street":"淡河町南僧尾"},{"zipCode":"6511206","prefectureKana":"ﾋｮｳｺﾞｹﾝ","cityKana":"ｺｳﾍﾞｼｷﾀｸ","streetKana":"ｵｵｲｹﾐﾔﾏﾀﾞｲ","prefecture":"兵庫県","city":"神戸市北区","street":"大池見山台"},{"zipCode":"6511521","prefectureKana":"ﾋｮｳｺﾞｹﾝ","cityKana":"ｺｳﾍﾞｼｷﾀｸ","streetKana":"ｵｵｿﾞｳﾁｮｳｲﾁﾊﾗ","prefecture":"兵庫県","city":"神戸市北区","street":"大沢町市原"},{"zipCode":"6511522","prefectureKana":"ﾋｮｳｺﾞｹﾝ","cityKana":"ｺｳﾍﾞｼｷﾀｸ","streetKana":"ｵｵｿﾞｳﾁｮｳｶﾐｵｵｿﾞｳ","prefecture":"兵庫県","city":"神戸市北区","street":"大沢町上大沢"},{"zipCode":"6511523","prefectureKana":"ﾋｮｳｺﾞｹﾝ","cityKana":"ｺｳﾍﾞｼｷﾀｸ","streetKana":"ｵｵｿﾞｳﾁｮｳｶﾝﾂﾞｹ","prefecture":"兵庫県","city":"神戸市北区","street":"大沢町神付"},{"zipCode":"6511526","prefectureKana":"ﾋｮｳｺﾞｹﾝ","cityKana":"ｺｳﾍﾞｼｷﾀｸ","streetKana":"ｵｵｿﾞｳﾁｮｳｽﾀﾞﾚ","prefecture":"兵庫県","city":"神戸市北区","street":"大沢町簾"},{"zipCode":"6511524","prefectureKana":"ﾋｮｳｺﾞｹﾝ","cityKana":"ｺｳﾍﾞｼｷﾀｸ","streetKana":"ｵｵｿﾞｳﾁｮｳﾅｶｵｵｿﾞｳ","prefecture":"兵庫県","city":"神戸市北区","street":"大沢町中大沢"},{"zipCode":"6511525","prefectureKana":"ﾋｮｳｺﾞｹﾝ","cityKana":"ｺｳﾍﾞｼｷﾀｸ","streetKana":"ｵｵｿﾞｳﾁｮｳﾋｻｲﾊﾞﾗ","prefecture":"兵庫県","city":"神戸市北区","street":"大沢町日西原"},{"zipCode":"6511222","prefectureKana":"ﾋｮｳｺﾞｹﾝ","cityKana":"ｺｳﾍﾞｼｷﾀｸ","streetKana":"ｵｵﾊﾗ","prefecture":"兵庫県","city":"神戸市北区","street":"大原"},{"zipCode":"6511144","prefectureKana":"ﾋｮｳｺﾞｹﾝ","cityKana":"ｺｳﾍﾞｼｷﾀｸ","streetKana":"ｵｵﾜｷﾀﾞｲ","prefecture":"兵庫県","city":"神戸市北区","street":"大脇台"},{"zipCode":"6511211","prefectureKana":"ﾋｮｳｺﾞｹﾝ","cityKana":"ｺｳﾍﾞｼｷﾀｸ","streetKana":"ｵｸﾞﾗﾀﾞｲ","prefecture":"兵庫県","city":"神戸市北区","street":"小倉台"},{"zipCode":"6511255","prefectureKana":"ﾋｮｳｺﾞｹﾝ","cityKana":"ｺｳﾍﾞｼｷﾀｸ","streetKana":"ｶｼｵﾀﾞｲ","prefecture":"兵庫県","city":"神戸市北区","street":"柏尾台"},{"zipCode":"6511223","prefectureKana":"ﾋｮｳｺﾞｹﾝ","cityKana":"ｺｳﾍﾞｼｷﾀｸ","streetKana":"ｶﾂﾗｷﾞ","prefecture":"兵庫県","city":"神戸市北区","street":"桂木"},{"zipCode":"6511514","prefectureKana":"ﾋｮｳｺﾞｹﾝ","cityKana":"ｺｳﾍﾞｼｷﾀｸ","streetKana":"ｶﾉｺﾀﾞｲﾐﾅﾐﾏﾁ","prefecture":"兵庫県","city":"神戸市北区","street":"鹿の子台南町"},{"zipCode":"6511513","prefectureKana":"ﾋｮｳｺﾞｹﾝ","cityKana":"ｺｳﾍﾞｼｷﾀｸ","streetKana":"ｶﾉｺﾀﾞｲｷﾀﾏﾁ","prefecture":"兵庫県","city":"神戸市北区","street":"鹿の子台北町"},{"zipCode":"6511332","prefectureKana":"ﾋｮｳｺﾞｹﾝ","cityKana":"ｺｳﾍﾞｼｷﾀｸ","streetKana":"ｶﾗﾄﾀﾞｲ","prefecture":"兵庫県","city":"神戸市北区","street":"唐櫃台"},{"zipCode":"6511334","prefectureKana":"ﾋｮｳｺﾞｹﾝ","cityKana":"ｺｳﾍﾞｼｷﾀｸ","streetKana":"ｶﾗﾄﾛｯｺｳﾀﾞｲ","prefecture":"兵庫県","city":"神戸市北区","street":"唐櫃六甲台"},{"zipCode":"6511131","prefectureKana":"ﾋｮｳｺﾞｹﾝ","cityKana":"ｺｳﾍﾞｼｷﾀｸ","streetKana":"ｷﾀｺﾞﾖｳ","prefecture":"兵庫県","city":"神戸市北区","street":"北五葉"},{"zipCode":"6511122","prefectureKana":"ﾋｮｳｺﾞｹﾝ","cityKana":"ｺｳﾍﾞｼｷﾀｸ","streetKana":"ｷﾐｶｹﾞﾁｮｳ","prefecture":"兵庫県","city":"神戸市北区","street":"君影町"},{"zipCode":"6511304","prefectureKana":"ﾋｮｳｺﾞｹﾝ","cityKana":"ｺｳﾍﾞｼｷﾀｸ","streetKana":"ｷｮｳｼﾞ","prefecture":"兵庫県","city":"神戸市北区","street":"京地"},{"zipCode":"6511142","prefectureKana":"ﾋｮｳｺﾞｹﾝ","cityKana":"ｺｳﾍﾞｼｷﾀｸ","streetKana":"ｺｳｴｲﾀﾞｲ","prefecture":"兵庫県","city":"神戸市北区","street":"甲栄台"},{"zipCode":"6511515","prefectureKana":"ﾋｮｳｺﾞｹﾝ","cityKana":"ｺｳﾍﾞｼｷﾀｸ","streetKana":"ｺｳﾂﾞﾀﾞｲ","prefecture":"兵庫県","city":"神戸市北区","street":"上津台"},{"zipCode":"6511203","prefectureKana":"ﾋｮｳｺﾞｹﾝ","cityKana":"ｺｳﾍﾞｼｷﾀｸ","streetKana":"ｺｳﾖｳﾁｮｳ","prefecture":"兵庫県","city":"神戸市北区","street":"幸陽町"},{"zipCode":"6511213","prefectureKana":"ﾋｮｳｺﾞｹﾝ","cityKana":"ｺｳﾍﾞｼｷﾀｸ","streetKana":"ｺｳﾘｮｳﾁｮｳ","prefecture":"兵庫県","city":"神戸市北区","street":"広陵町"},{"zipCode":"6511214","prefectureKana":"ﾋｮｳｺﾞｹﾝ","cityKana":"ｺｳﾍﾞｼｷﾀｸ","streetKana":"ｻｸﾗｼﾝﾏﾁ","prefecture":"兵庫県","city":"神戸市北区","street":"桜森町"},{"zipCode":"6511106","prefectureKana":"ﾋｮｳｺﾞｹﾝ","cityKana":"ｺｳﾍﾞｼｷﾀｸ","streetKana":"ｼｱﾜｾﾉﾑﾗ","prefecture":"兵庫県","city":"神戸市北区","street":"しあわせの村"},{"zipCode":"6511306","prefectureKana":"ﾋｮｳｺﾞｹﾝ","cityKana":"ｺｳﾍﾞｼｷﾀｸ","streetKana":"ｼｮｳﾌﾞｶﾞｵｶ","prefecture":"兵庫県","city":"神戸市北区","street":"菖蒲が丘"},{"zipCode":"6511146","prefectureKana":"ﾋｮｳｺﾞｹﾝ","cityKana":"ｺｳﾍﾞｼｷﾀｸ","streetKana":"ｽｷﾞｵﾀﾞｲ","prefecture":"兵庫県","city":"神戸市北区","street":"杉尾台"},{"zipCode":"6511112","prefectureKana":"ﾋｮｳｺﾞｹﾝ","cityKana":"ｺｳﾍﾞｼｷﾀｸ","streetKana":"ｽｽﾞﾗﾝﾀﾞｲﾋｶﾞｼﾏﾁ","prefecture":"兵庫県","city":"神戸市北区","street":"鈴蘭台東町"},{"zipCode":"6511114","prefectureKana":"ﾋｮｳｺﾞｹﾝ","cityKana":"ｺｳﾍﾞｼｷﾀｸ","streetKana":"ｽｽﾞﾗﾝﾀﾞｲﾆｼﾏﾁ","prefecture":"兵庫県","city":"神戸市北区","street":"鈴蘭台西町"},{"zipCode":"6511113","prefectureKana":"ﾋｮｳｺﾞｹﾝ","cityKana":"ｺｳﾍﾞｼｷﾀｸ","streetKana":"ｽｽﾞﾗﾝﾀﾞｲﾐﾅﾐﾏﾁ","prefecture":"兵庫県","city":"神戸市北区","street":"鈴蘭台南町"},{"zipCode":"6511111","prefectureKana":"ﾋｮｳｺﾞｹﾝ","cityKana":"ｺｳﾍﾞｼｷﾀｸ","streetKana":"ｽｽﾞﾗﾝﾀﾞｲｷﾀﾏﾁ","prefecture":"兵庫県","city":"神戸市北区","street":"鈴蘭台北町"},{"zipCode":"6511121","prefectureKana":"ﾋｮｳｺﾞｹﾝ","cityKana":"ｺｳﾍﾞｼｷﾀｸ","streetKana":"ｾｲﾜﾀﾞｲ","prefecture":"兵庫県","city":"神戸市北区","street":"星和台"},{"zipCode":"6511145","prefectureKana":"ﾋｮｳｺﾞｹﾝ","cityKana":"ｺｳﾍﾞｼｷﾀｸ","streetKana":"ｿｳﾔﾏﾁｮｳ","prefecture":"兵庫県","city":"神戸市北区","street":"惣山町"},{"zipCode":"6511245","prefectureKana":"ﾋｮｳｺﾞｹﾝ","cityKana":"ｺｳﾍﾞｼｷﾀｸ","streetKana":"ﾀﾆｶﾞﾐﾋｶﾞｼﾏﾁ","prefecture":"兵庫県","city":"神戸市北区","street":"谷上東町"},{"zipCode":"6511246","prefectureKana":"ﾋｮｳｺﾞｹﾝ","cityKana":"ｺｳﾍﾞｼｷﾀｸ","streetKana":"ﾀﾆｶﾞﾐﾆｼﾏﾁ","prefecture":"兵庫県","city":"神戸市北区","street":"谷上西町"},{"zipCode":"6511244","prefectureKana":"ﾋｮｳｺﾞｹﾝ","cityKana":"ｺｳﾍﾞｼｷﾀｸ","streetKana":"ﾀﾆｶﾞﾐﾐﾅﾐﾏﾁ","prefecture":"兵庫県","city":"神戸市北区","street":"谷上南町"},{"zipCode":"6511212","prefectureKana":"ﾋｮｳｺﾞｹﾝ","cityKana":"ｺｳﾍﾞｼｷﾀｸ","streetKana":"ﾂｸｼｶﾞｵｶ","prefecture":"兵庫県","city":"神戸市北区","street":"筑紫が丘"},{"zipCode":"6511505","prefectureKana":"ﾋｮｳｺﾞｹﾝ","cityKana":"ｺｳﾍﾞｼｷﾀｸ","streetKana":"ﾄﾞｳｼﾞｮｳﾁｮｳｸｻｶﾍﾞ","prefecture":"兵庫県","city":"神戸市北区","street":"道場町日下部"},{"zipCode":"6511502","prefectureKana":"ﾋｮｳｺﾞｹﾝ","cityKana":"ｺｳﾍﾞｼｷﾀｸ","streetKana":"ﾄﾞｳｼﾞｮｳﾁｮｳｼｵﾀ","prefecture":"兵庫県","city":"神戸市北区","street":"道場町塩田"},{"zipCode":"6511501","prefectureKana":"ﾋｮｳｺﾞｹﾝ","cityKana":"ｺｳﾍﾞｼｷﾀｸ","streetKana":"ﾄﾞｳｼﾞｮｳﾁｮｳﾄﾞｳｼﾞｮｳ","prefecture":"兵庫県","city":"神戸市北区","street":"道場町道場"},{"zipCode":"6511504","prefectureKana":"ﾋｮｳｺﾞｹﾝ","cityKana":"ｺｳﾍﾞｼｷﾀｸ","streetKana":"ﾄﾞｳｼﾞｮｳﾁｮｳﾋﾗﾀ","prefecture":"兵庫県","city":"神戸市北区","street":"道場町平田"},{"zipCode":"6511503","prefectureKana":"ﾋｮｳｺﾞｹﾝ","cityKana":"ｺｳﾍﾞｼｷﾀｸ","streetKana":"ﾄﾞｳｼﾞｮｳﾁｮｳｲｸﾉ(ｿﾉﾀ)","prefecture":"兵庫県","city":"神戸市北区","street":"道場町生野（その他）"},{"zipCode":"6511103","prefectureKana":"ﾋｮｳｺﾞｹﾝ","cityKana":"ｺｳﾍﾞｼｷﾀｸ","streetKana":"ﾅｶｻﾞﾄﾁｮｳ","prefecture":"兵庫県","city":"神戸市北区","street":"中里町"},{"zipCode":"6511511","prefectureKana":"ﾋｮｳｺﾞｹﾝ","cityKana":"ｺｳﾍﾞｼｷﾀｸ","streetKana":"ﾅｶﾞｵﾁｮｳｴｲﾊﾞﾗ","prefecture":"兵庫県","city":"神戸市北区","street":"長尾町宅原"},{"zipCode":"6511512","prefectureKana":"ﾋｮｳｺﾞｹﾝ","cityKana":"ｺｳﾍﾞｼｷﾀｸ","streetKana":"ﾅｶﾞｵﾁｮｳｺｳﾂﾞ","prefecture":"兵庫県","city":"神戸市北区","street":"長尾町上津"},{"zipCode":"6511133","prefectureKana":"ﾋｮｳｺﾞｹﾝ","cityKana":"ｺｳﾍﾞｼｷﾀｸ","streetKana":"ﾅﾙｺ","prefecture":"兵庫県","city":"神戸市北区","street":"鳴子"},{"zipCode":"6511201","prefectureKana":"ﾋｮｳｺﾞｹﾝ","cityKana":"ｺｳﾍﾞｼｷﾀｸ","streetKana":"ﾆｼｵｵｲｹ","prefecture":"兵庫県","city":"神戸市北区","street":"西大池"},{"zipCode":"6511305","prefectureKana":"ﾋｮｳｺﾞｹﾝ","cityKana":"ｺｳﾍﾞｼｷﾀｸ","streetKana":"ﾆｼﾔﾏ","prefecture":"兵庫県","city":"神戸市北区","street":"西山"},{"zipCode":"6511354","prefectureKana":"ﾋｮｳｺﾞｹﾝ","cityKana":"ｺｳﾍﾞｼｷﾀｸ","streetKana":"ﾊﾀﾁｮｳｶﾐｵﾅﾀﾞ","prefecture":"兵庫県","city":"神戸市北区","street":"八多町上小名田"},{"zipCode":"6511352","prefectureKana":"ﾋｮｳｺﾞｹﾝ","cityKana":"ｺｳﾍﾞｼｷﾀｸ","streetKana":"ﾊﾀﾁｮｳｼﾓｵﾅﾀﾞ","prefecture":"兵庫県","city":"神戸市北区","street":"八多町下小名田"},{"zipCode":"6511343","prefectureKana":"ﾋｮｳｺﾞｹﾝ","cityKana":"ｺｳﾍﾞｼｷﾀｸ","streetKana":"ﾊﾀﾁｮｳﾂｸﾓﾉ","prefecture":"兵庫県","city":"神戸市北区","street":"八多町附物"},{"zipCode":"6511351","prefectureKana":"ﾋｮｳｺﾞｹﾝ","cityKana":"ｺｳﾍﾞｼｷﾀｸ","streetKana":"ﾊﾀﾁｮｳﾅｶ","prefecture":"兵庫県","city":"神戸市北区","street":"八多町中"},{"zipCode":"6511345","prefectureKana":"ﾋｮｳｺﾞｹﾝ","cityKana":"ｺｳﾍﾞｼｷﾀｸ","streetKana":"ﾊﾀﾁｮｳﾆｼﾊﾞﾀ","prefecture":"兵庫県","city":"神戸市北区","street":"八多町西畑"},{"zipCode":"6511344","prefectureKana":"ﾋｮｳｺﾞｹﾝ","cityKana":"ｺｳﾍﾞｼｷﾀｸ","streetKana":"ﾊﾀﾁｮｳﾋﾞｮｳﾌﾞ","prefecture":"兵庫県","city":"神戸市北区","street":"八多町屏風"},{"zipCode":"6511341","prefectureKana":"ﾋｮｳｺﾞｹﾝ","cityKana":"ｺｳﾍﾞｼｷﾀｸ","streetKana":"ﾊﾀﾁｮｳﾌｶﾀﾆ","prefecture":"兵庫県","city":"神戸市北区","street":"八多町深谷"},{"zipCode":"6511342","prefectureKana":"ﾋｮｳｺﾞｹﾝ","cityKana":"ｺｳﾍﾞｼｷﾀｸ","streetKana":"ﾊﾀﾁｮｳﾔﾅｷﾞﾀﾞﾆ","prefecture":"兵庫県","city":"神戸市北区","street":"八多町柳谷"},{"zipCode":"6511353","prefectureKana":"ﾋｮｳｺﾞｹﾝ","cityKana":"ｺｳﾍﾞｼｷﾀｸ","streetKana":"ﾊﾀﾁｮｳﾖｼｵ","prefecture":"兵庫県","city":"神戸市北区","street":"八多町吉尾"},{"zipCode":"6511205","prefectureKana":"ﾋｮｳｺﾞｹﾝ","cityKana":"ｺｳﾍﾞｼｷﾀｸ","streetKana":"ﾊﾅﾔﾏﾀﾞｲ","prefecture":"兵庫県","city":"神戸市北区","street":"花山台"},{"zipCode":"6511202","prefectureKana":"ﾋｮｳｺﾞｹﾝ","cityKana":"ｺｳﾍﾞｼｷﾀｸ","streetKana":"ﾊﾅﾔﾏﾅｶｵﾀﾞｲ","prefecture":"兵庫県","city":"神戸市北区","street":"花山中尾台"},{"zipCode":"6511204","prefectureKana":"ﾋｮｳｺﾞｹﾝ","cityKana":"ｺｳﾍﾞｼｷﾀｸ","streetKana":"ﾊﾅﾔﾏﾋｶﾞｼﾏﾁ","prefecture":"兵庫県","city":"神戸市北区","street":"花山東町"},{"zipCode":"6511322","prefectureKana":"ﾋｮｳｺﾞｹﾝ","cityKana":"ｺｳﾍﾞｼｷﾀｸ","streetKana":"ﾋｶﾞｼｱﾘﾉﾀﾞｲ","prefecture":"兵庫県","city":"神戸市北区","street":"東有野台"},{"zipCode":"6511333","prefectureKana":"ﾋｮｳｺﾞｹﾝ","cityKana":"ｺｳﾍﾞｼｷﾀｸ","streetKana":"ﾋｶﾞｼｵｵｲｹ","prefecture":"兵庫県","city":"神戸市北区","street":"東大池"},{"zipCode":"6511233","prefectureKana":"ﾋｮｳｺﾞｹﾝ","cityKana":"ｺｳﾍﾞｼｷﾀｸ","streetKana":"ﾋﾉﾐﾈ","prefecture":"兵庫県","city":"神戸市北区","street":"日の峰"},{"zipCode":"6511124","prefectureKana":"ﾋｮｳｺﾞｹﾝ","cityKana":"ｺｳﾍﾞｼｷﾀｸ","streetKana":"ﾋﾖﾄﾞﾘｷﾀﾏﾁ","prefecture":"兵庫県","city":"神戸市北区","street":"ひよどり北町"},{"zipCode":"6511123","prefectureKana":"ﾋｮｳｺﾞｹﾝ","cityKana":"ｺｳﾍﾞｼｷﾀｸ","streetKana":"ﾋﾖﾄﾞﾘﾀﾞｲ","prefecture":"兵庫県","city":"神戸市北区","street":"ひよどり台"},{"zipCode":"6511125","prefectureKana":"ﾋｮｳｺﾞｹﾝ","cityKana":"ｺｳﾍﾞｼｷﾀｸ","streetKana":"ﾋﾖﾄﾞﾘﾀﾞｲﾐﾅﾐﾏﾁ","prefecture":"兵庫県","city":"神戸市北区","street":"ひよどり台南町"},{"zipCode":"6511301","prefectureKana":"ﾋｮｳｺﾞｹﾝ","cityKana":"ｺｳﾍﾞｼｷﾀｸ","streetKana":"ﾌｼﾞﾜﾗﾀﾞｲｷﾀﾏﾁ","prefecture":"兵庫県","city":"神戸市北区","street":"藤原台北町"},{"zipCode":"6511302","prefectureKana":"ﾋｮｳｺﾞｹﾝ","cityKana":"ｺｳﾍﾞｼｷﾀｸ","streetKana":"ﾌｼﾞﾜﾗﾀﾞｲﾅｶﾏﾁ","prefecture":"兵庫県","city":"神戸市北区","street":"藤原台中町"},{"zipCode":"6511303","prefectureKana":"ﾋｮｳｺﾞｹﾝ","cityKana":"ｺｳﾍﾞｼｷﾀｸ","streetKana":"ﾌｼﾞﾜﾗﾀﾞｲﾐﾅﾐﾏﾁ","prefecture":"兵庫県","city":"神戸市北区","street":"藤原台南町"},{"zipCode":"6511232","prefectureKana":"ﾋｮｳｺﾞｹﾝ","cityKana":"ｺｳﾍﾞｼｷﾀｸ","streetKana":"ﾏﾂｶﾞｴﾁｮｳ","prefecture":"兵庫県","city":"神戸市北区","street":"松が枝町"},{"zipCode":"6511147","prefectureKana":"ﾋｮｳｺﾞｹﾝ","cityKana":"ｺｳﾍﾞｼｷﾀｸ","streetKana":"ﾏﾂﾐﾔﾀﾞｲ","prefecture":"兵庫県","city":"神戸市北区","street":"松宮台"},{"zipCode":"6511221","prefectureKana":"ﾋｮｳｺﾞｹﾝ","cityKana":"ｺｳﾍﾞｼｷﾀｸ","streetKana":"ﾐﾄﾞﾘﾏﾁ","prefecture":"兵庫県","city":"神戸市北区","street":"緑町"},{"zipCode":"6511132","prefectureKana":"ﾋｮｳｺﾞｹﾝ","cityKana":"ｺｳﾍﾞｼｷﾀｸ","streetKana":"ﾐﾅﾐｺﾞﾖｳ","prefecture":"兵庫県","city":"神戸市北区","street":"南五葉"},{"zipCode":"6511104","prefectureKana":"ﾋｮｳｺﾞｹﾝ","cityKana":"ｺｳﾍﾞｼｷﾀｸ","streetKana":"ﾔﾏﾀﾞﾁｮｳｱｲﾅ","prefecture":"兵庫県","city":"神戸市北区","street":"山田町藍那"},{"zipCode":"6511105","prefectureKana":"ﾋｮｳｺﾞｹﾝ","cityKana":"ｺｳﾍﾞｼｷﾀｸ","streetKana":"ﾔﾏﾀﾞﾁｮｳｵｳｺﾞ","prefecture":"兵庫県","city":"神戸市北区","street":"山田町小河"},{"zipCode":"6511101","prefectureKana":"ﾋｮｳｺﾞｹﾝ","cityKana":"ｺｳﾍﾞｼｷﾀｸ","streetKana":"ﾔﾏﾀﾞﾁｮｳｵｳﾌﾞ","prefecture":"兵庫県","city":"神戸市北区","street":"山田町小部"},{"zipCode":"6511241","prefectureKana":"ﾋｮｳｺﾞｹﾝ","cityKana":"ｺｳﾍﾞｼｷﾀｸ","streetKana":"ﾔﾏﾀﾞﾁｮｳｵｵｲｹ","prefecture":"兵庫県","city":"神戸市北区","street":"山田町大池"},{"zipCode":"6511242","prefectureKana":"ﾋｮｳｺﾞｹﾝ","cityKana":"ｺｳﾍﾞｼｷﾀｸ","streetKana":"ﾔﾏﾀﾞﾁｮｳｶﾐﾀﾆｶﾞﾐ","prefecture":"兵庫県","city":"神戸市北区","street":"山田町上谷上"},{"zipCode":"6511261","prefectureKana":"ﾋｮｳｺﾞｹﾝ","cityKana":"ｺｳﾍﾞｼｷﾀｸ","streetKana":"ﾔﾏﾀﾞﾁｮｳｻｶﾓﾄ","prefecture":"兵庫県","city":"神戸市北区","street":"山田町坂本"},{"zipCode":"6511102","prefectureKana":"ﾋｮｳｺﾞｹﾝ","cityKana":"ｺｳﾍﾞｼｷﾀｸ","streetKana":"ﾔﾏﾀﾞﾁｮｳｼﾓﾀﾆｶﾞﾐ(ｵｵｶﾐﾀﾞﾆ､ｼｭｳﾎｳｶﾞﾊﾗ､ﾅｶｲﾁﾘﾔﾏ<9ﾊﾞﾝﾁﾉ4､12ﾊﾞﾝﾁｦﾉｿﾞｸ>､","prefecture":"兵庫県","city":"神戸市北区","street":"山田町下谷上（大上谷、修法ケ原、中一里山「９番地の４、１２番地を除く」、"},{"zipCode":"6511102","prefectureKana":"ﾋｮｳｺﾞｹﾝ","cityKana":"ｺｳﾍﾞｼｷﾀｸ","streetKana":"ﾅｶﾞｵﾔﾏ､ﾌﾀﾀﾋﾞｺｳｴﾝ)","prefecture":"兵庫県","city":"神戸市北区","street":"長尾山、再度公園）"},{"zipCode":"6511243","prefectureKana":"ﾋｮｳｺﾞｹﾝ","cityKana":"ｺｳﾍﾞｼｷﾀｸ","streetKana":"ﾔﾏﾀﾞﾁｮｳｼﾓﾀﾆｶﾞﾐ(ｿﾉﾀ)","prefecture":"兵庫県","city":"神戸市北区","street":"山田町下谷上（その他）"},{"zipCode":"6511264","prefectureKana":"ﾋｮｳｺﾞｹﾝ","cityKana":"ｺｳﾍﾞｼｷﾀｸ","streetKana":"ﾔﾏﾀﾞﾁｮｳﾂｸﾊﾗ","prefecture":"兵庫県","city":"神戸市北区","street":"山田町衝原"},{"zipCode":"6511253","prefectureKana":"ﾋｮｳｺﾞｹﾝ","cityKana":"ｺｳﾍﾞｼｷﾀｸ","streetKana":"ﾔﾏﾀﾞﾁｮｳﾅｶ","prefecture":"兵庫県","city":"神戸市北区","street":"山田町中"},{"zipCode":"6511263","prefectureKana":"ﾋｮｳｺﾞｹﾝ","cityKana":"ｺｳﾍﾞｼｷﾀｸ","streetKana":"ﾔﾏﾀﾞﾁｮｳﾆｼｼﾓ","prefecture":"兵庫県","city":"神戸市北区","street":"山田町西下"},{"zipCode":"6511252","prefectureKana":"ﾋｮｳｺﾞｹﾝ","cityKana":"ｺｳﾍﾞｼｷﾀｸ","streetKana":"ﾔﾏﾀﾞﾁｮｳﾊﾗﾉ","prefecture":"兵庫県","city":"神戸市北区","street":"山田町原野"},{"zipCode":"6511262","prefectureKana":"ﾋｮｳｺﾞｹﾝ","cityKana":"ｺｳﾍﾞｼｷﾀｸ","streetKana":"ﾔﾏﾀﾞﾁｮｳﾋｶﾞｼｼﾓ","prefecture":"兵庫県","city":"神戸市北区","street":"山田町東下"},{"zipCode":"6511254","prefectureKana":"ﾋｮｳｺﾞｹﾝ","cityKana":"ｺｳﾍﾞｼｷﾀｸ","streetKana":"ﾔﾏﾀﾞﾁｮｳﾌｸﾁ","prefecture":"兵庫県","city":"神戸市北区","street":"山田町福地"},{"zipCode":"6511251","prefectureKana":"ﾋｮｳｺﾞｹﾝ","cityKana":"ｺｳﾍﾞｼｷﾀｸ","streetKana":"ﾔﾏﾀﾞﾁｮｳﾖｻﾞｴﾓﾝｼﾝﾃﾞﾝ","prefecture":"兵庫県","city":"神戸市北区","street":"山田町与左衛門新田"},{"zipCode":"6511143","prefectureKana":"ﾋｮｳｺﾞｹﾝ","cityKana":"ｺｳﾍﾞｼｷﾀｸ","streetKana":"ﾜｶﾊﾞﾀﾞｲ","prefecture":"兵庫県","city":"神戸市北区","street":"若葉台"},{"zipCode":"6510095","prefectureKana":"ﾋｮｳｺﾞｹﾝ","cityKana":"ｺｳﾍﾞｼﾁｭｳｵｳｸ","streetKana":"ｱｻﾋﾄﾞｵﾘ","prefecture":"兵庫県","city":"神戸市中央区","street":"旭通"},{"zipCode":"6510076","prefectureKana":"ﾋｮｳｺﾞｹﾝ","cityKana":"ｺｳﾍﾞｼﾁｭｳｵｳｸ","streetKana":"ｱﾂﾞﾏﾄﾞｵﾘ","prefecture":"兵庫県","city":"神戸市中央区","street":"吾妻通"},{"zipCode":"6510092","prefectureKana":"ﾋｮｳｺﾞｹﾝ","cityKana":"ｺｳﾍﾞｼﾁｭｳｵｳｸ","streetKana":"ｲｸﾀﾁｮｳ","prefecture":"兵庫県","city":"神戸市中央区","street":"生田町"},{"zipCode":"6510086","prefectureKana":"ﾋｮｳｺﾞｹﾝ","cityKana":"ｺｳﾍﾞｼﾁｭｳｵｳｸ","streetKana":"ｲｿｶﾞﾐﾄﾞｵﾘ","prefecture":"兵庫県","city":"神戸市中央区","street":"磯上通"},{"zipCode":"6510084","prefectureKana":"ﾋｮｳｺﾞｹﾝ","cityKana":"ｺｳﾍﾞｼﾁｭｳｵｳｸ","streetKana":"ｲｿﾍﾞﾄﾞｵﾘ","prefecture":"兵庫県","city":"神戸市中央区","street":"磯辺通"},{"zipCode":"6510088","prefectureKana":"ﾋｮｳｺﾞｹﾝ","cityKana":"ｺｳﾍﾞｼﾁｭｳｵｳｸ","streetKana":"ｵﾉｴﾄﾞｵﾘ","prefecture":"兵庫県","city":"神戸市中央区","street":"小野柄通"},{"zipCode":"6510082","prefectureKana":"ﾋｮｳｺﾞｹﾝ","cityKana":"ｺｳﾍﾞｼﾁｭｳｵｳｸ","streetKana":"ｵﾉﾊﾏﾁｮｳ","prefecture":"兵庫県","city":"神戸市中央区","street":"小野浜町"},{"zipCode":"6510053","prefectureKana":"ﾋｮｳｺﾞｹﾝ","cityKana":"ｺｳﾍﾞｼﾁｭｳｵｳｸ","streetKana":"ｶｺﾞｲｹﾄﾞｵﾘ","prefecture":"兵庫県","city":"神戸市中央区","street":"籠池通"},{"zipCode":"6510061","prefectureKana":"ﾋｮｳｺﾞｹﾝ","cityKana":"ｺｳﾍﾞｼﾁｭｳｵｳｸ","streetKana":"ｶﾐﾂﾂｲﾄﾞｵﾘ","prefecture":"兵庫県","city":"神戸市中央区","street":"上筒井通"},{"zipCode":"6510067","prefectureKana":"ﾋｮｳｺﾞｹﾝ","cityKana":"ｺｳﾍﾞｼﾁｭｳｵｳｸ","streetKana":"ｶﾐﾜｶﾄﾞｵﾘ","prefecture":"兵庫県","city":"神戸市中央区","street":"神若通"},{"zipCode":"6510075","prefectureKana":"ﾋｮｳｺﾞｹﾝ","cityKana":"ｺｳﾍﾞｼﾁｭｳｵｳｸ","streetKana":"ｷﾀﾎﾝﾏﾁﾄﾞｵﾘ","prefecture":"兵庫県","city":"神戸市中央区","street":"北本町通"},{"zipCode":"6510066","prefectureKana":"ﾋｮｳｺﾞｹﾝ","cityKana":"ｺｳﾍﾞｼﾁｭｳｵｳｸ","streetKana":"ｸﾆｶﾄﾞｵﾘ","prefecture":"兵庫県","city":"神戸市中央区","street":"国香通"},{"zipCode":"6510096","prefectureKana":"ﾋｮｳｺﾞｹﾝ","cityKana":"ｺｳﾍﾞｼﾁｭｳｵｳｸ","streetKana":"ｸﾓｲﾄﾞｵﾘ","prefecture":"兵庫県","city":"神戸市中央区","street":"雲井通"},{"zipCode":"6510056","prefectureKana":"ﾋｮｳｺﾞｹﾝ","cityKana":"ｺｳﾍﾞｼﾁｭｳｵｳｸ","streetKana":"ｸﾓﾁﾁｮｳ","prefecture":"兵庫県","city":"神戸市中央区","street":"熊内町"},{"zipCode":"6510055","prefectureKana":"ﾋｮｳｺﾞｹﾝ","cityKana":"ｺｳﾍﾞｼﾁｭｳｵｳｸ","streetKana":"ｸﾓﾁﾊﾞｼﾄﾞｵﾘ","prefecture":"兵庫県","city":"神戸市中央区","street":"熊内橋通"},{"zipCode":"6510087","prefectureKana":"ﾋｮｳｺﾞｹﾝ","cityKana":"ｺｳﾍﾞｼﾁｭｳｵｳｸ","streetKana":"ｺﾞｺｳﾄﾞｵﾘ","prefecture":"兵庫県","city":"神戸市中央区","street":"御幸通"},{"zipCode":"6510094","prefectureKana":"ﾋｮｳｺﾞｹﾝ","cityKana":"ｺｳﾍﾞｼﾁｭｳｵｳｸ","streetKana":"ｺﾄﾉｵﾁｮｳ","prefecture":"兵庫県","city":"神戸市中央区","street":"琴ノ緒町"},{"zipCode":"6510062","prefectureKana":"ﾋｮｳｺﾞｹﾝ","cityKana":"ｺｳﾍﾞｼﾁｭｳｵｳｸ","streetKana":"ｻｶｸﾞﾁﾄﾞｵﾘ","prefecture":"兵庫県","city":"神戸市中央区","street":"坂口通"},{"zipCode":"6510079","prefectureKana":"ﾋｮｳｺﾞｹﾝ","cityKana":"ｺｳﾍﾞｼﾁｭｳｵｳｸ","streetKana":"ｼﾉﾉﾒﾄﾞｵﾘ","prefecture":"兵庫県","city":"神戸市中央区","street":"東雲通"},{"zipCode":"6510051","prefectureKana":"ﾋｮｳｺﾞｹﾝ","cityKana":"ｺｳﾍﾞｼﾁｭｳｵｳｸ","streetKana":"ｼﾝｾﾝｼﾞﾄﾞｵﾘ","prefecture":"兵庫県","city":"神戸市中央区","street":"神仙寺通"},{"zipCode":"6510064","prefectureKana":"ﾋｮｳｺﾞｹﾝ","cityKana":"ｺｳﾍﾞｼﾁｭｳｵｳｸ","streetKana":"ﾀﾞｲﾆﾁﾄﾞｵﾘ","prefecture":"兵庫県","city":"神戸市中央区","street":"大日通"},{"zipCode":"6510071","prefectureKana":"ﾋｮｳｺﾞｹﾝ","cityKana":"ｺｳﾍﾞｼﾁｭｳｵｳｸ","streetKana":"ﾂﾂｲﾁｮｳ","prefecture":"兵庫県","city":"神戸市中央区","street":"筒井町"},{"zipCode":"6510057","prefectureKana":"ﾋｮｳｺﾞｹﾝ","cityKana":"ｺｳﾍﾞｼﾁｭｳｵｳｸ","streetKana":"ﾅｶｵﾁｮｳ","prefecture":"兵庫県","city":"神戸市中央区","street":"中尾町"},{"zipCode":"6510052","prefectureKana":"ﾋｮｳｺﾞｹﾝ","cityKana":"ｺｳﾍﾞｼﾁｭｳｵｳｸ","streetKana":"ﾅｶｼﾞﾏﾄﾞｵﾘ","prefecture":"兵庫県","city":"神戸市中央区","street":"中島通"},{"zipCode":"6510093","prefectureKana":"ﾋｮｳｺﾞｹﾝ","cityKana":"ｺｳﾍﾞｼﾁｭｳｵｳｸ","streetKana":"ﾆﾉﾐﾔﾁｮｳ","prefecture":"兵庫県","city":"神戸市中央区","street":"二宮町"},{"zipCode":"6510097","prefectureKana":"ﾋｮｳｺﾞｹﾝ","cityKana":"ｺｳﾍﾞｼﾁｭｳｵｳｸ","streetKana":"ﾇﾉﾋﾞｷﾁｮｳ","prefecture":"兵庫県","city":"神戸市中央区","street":"布引町"},{"zipCode":"6510054","prefectureKana":"ﾋｮｳｺﾞｹﾝ","cityKana":"ｺｳﾍﾞｼﾁｭｳｵｳｸ","streetKana":"ﾉｻﾞｷﾄﾞｵﾘ","prefecture":"兵庫県","city":"神戸市中央区","street":"野崎通"},{"zipCode":"6510068","prefectureKana":"ﾋｮｳｺﾞｹﾝ","cityKana":"ｺｳﾍﾞｼﾁｭｳｵｳｸ","streetKana":"ﾊﾀﾂｶﾄﾞｵﾘ","prefecture":"兵庫県","city":"神戸市中央区","street":"旗塚通"},{"zipCode":"6510085","prefectureKana":"ﾋｮｳｺﾞｹﾝ","cityKana":"ｺｳﾍﾞｼﾁｭｳｵｳｸ","streetKana":"ﾊﾁﾏﾝﾄﾞｵﾘ","prefecture":"兵庫県","city":"神戸市中央区","street":"八幡通"},{"zipCode":"6510083","prefectureKana":"ﾋｮｳｺﾞｹﾝ","cityKana":"ｺｳﾍﾞｼﾁｭｳｵｳｸ","streetKana":"ﾊﾏﾍﾞﾄﾞｵﾘ","prefecture":"兵庫県","city":"神戸市中央区","street":"浜辺通"},{"zipCode":"6510077","prefectureKana":"ﾋｮｳｺﾞｹﾝ","cityKana":"ｺｳﾍﾞｼﾁｭｳｵｳｸ","streetKana":"ﾋｸﾞﾚﾄﾞｵﾘ","prefecture":"兵庫県","city":"神戸市中央区","street":"日暮通"},{"zipCode":"6510058","prefectureKana":"ﾋｮｳｺﾞｹﾝ","cityKana":"ｺｳﾍﾞｼﾁｭｳｵｳｸ","streetKana":"ﾌｷｱｲﾁｮｳ","prefecture":"兵庫県","city":"神戸市中央区","street":"葺合町"},{"zipCode":"6510081","prefectureKana":"ﾋｮｳｺﾞｹﾝ","cityKana":"ｺｳﾍﾞｼﾁｭｳｵｳｸ","streetKana":"ﾏｻｺﾞﾄﾞｵﾘ","prefecture":"兵庫県","city":"神戸市中央区","street":"真砂通"},{"zipCode":"6510074","prefectureKana":"ﾋｮｳｺﾞｹﾝ","cityKana":"ｺｳﾍﾞｼﾁｭｳｵｳｸ","streetKana":"ﾐﾅﾐﾎﾝﾏﾁﾄﾞｵﾘ","prefecture":"兵庫県","city":"神戸市中央区","street":"南本町通"},{"zipCode":"6510063","prefectureKana":"ﾋｮｳｺﾞｹﾝ","cityKana":"ｺｳﾍﾞｼﾁｭｳｵｳｸ","streetKana":"ﾐﾔﾓﾄﾄﾞｵﾘ","prefecture":"兵庫県","city":"神戸市中央区","street":"宮本通"},{"zipCode":"6510078","prefectureKana":"ﾋｮｳｺﾞｹﾝ","cityKana":"ｺｳﾍﾞｼﾁｭｳｵｳｸ","streetKana":"ﾔｸﾞﾓﾄﾞｵﾘ","prefecture":"兵庫県","city":"神戸市中央区","street":"八雲通"},{"zipCode":"6510091","prefectureKana":"ﾋｮｳｺﾞｹﾝ","cityKana":"ｺｳﾍﾞｼﾁｭｳｵｳｸ","streetKana":"ﾜｶﾅﾄﾞｵﾘ","prefecture":"兵庫県","city":"神戸市中央区","street":"若菜通"},{"zipCode":"6510073","prefectureKana":"ﾋｮｳｺﾞｹﾝ","cityKana":"ｺｳﾍﾞｼﾁｭｳｵｳｸ","streetKana":"ﾜｷﾉﾊﾏｶｲｶﾞﾝﾄﾞｵﾘ","prefecture":"兵庫県","city":"神戸市中央区","street":"脇浜海岸通"},{"zipCode":"6510072","prefectureKana":"ﾋｮｳｺﾞｹﾝ","cityKana":"ｺｳﾍﾞｼﾁｭｳｵｳｸ","streetKana":"ﾜｷﾉﾊﾏﾁｮｳ","prefecture":"兵庫県","city":"神戸市中央区","street":"脇浜町"},{"zipCode":"6510065","prefectureKana":"ﾋｮｳｺﾞｹﾝ","cityKana":"ｺｳﾍﾞｼﾁｭｳｵｳｸ","streetKana":"ﾜﾘﾂﾞｶﾄﾞｵﾘ","prefecture":"兵庫県","city":"神戸市中央区","street":"割塚通"},{"zipCode":"6512224","prefectureKana":"ﾋｮｳｺﾞｹﾝ","cityKana":"ｺｳﾍﾞｼﾆｼｸ","streetKana":"ｱｷﾊﾞﾀﾞｲ","prefecture":"兵庫県","city":"神戸市西区","street":"秋葉台"},{"zipCode":"6512134","prefectureKana":"ﾋｮｳｺﾞｹﾝ","cityKana":"ｺｳﾍﾞｼﾆｼｸ","streetKana":"ｱｹﾎﾞﾉﾁｮｳ","prefecture":"兵庫県","city":"神戸市西区","street":"曙町"},{"zipCode":"6512141","prefectureKana":"ﾋｮｳｺﾞｹﾝ","cityKana":"ｺｳﾍﾞｼﾆｼｸ","streetKana":"ｱﾏｶﾞｵｶ","prefecture":"兵庫県","city":"神戸市西区","street":"天が岡"},{"zipCode":"6512113","prefectureKana":"ﾋｮｳｺﾞｹﾝ","cityKana":"ｺｳﾍﾞｼﾆｼｸ","streetKana":"ｲｶﾜﾀﾞﾆﾁｮｳｱﾘｾ","prefecture":"兵庫県","city":"神戸市西区","street":"伊川谷町有瀬"},{"zipCode":"6512106","prefectureKana":"ﾋｮｳｺﾞｹﾝ","cityKana":"ｺｳﾍﾞｼﾆｼｸ","streetKana":"ｲｶﾜﾀﾞﾆﾁｮｳｲﾌﾞｷ","prefecture":"兵庫県","city":"神戸市西区","street":"伊川谷町井吹"},{"zipCode":"6512105","prefectureKana":"ﾋｮｳｺﾞｹﾝ","cityKana":"ｺｳﾍﾞｼﾆｼｸ","streetKana":"ｲｶﾜﾀﾞﾆﾁｮｳｶﾐﾜｷ","prefecture":"兵庫県","city":"神戸市西区","street":"伊川谷町上脇"},{"zipCode":"6512107","prefectureKana":"ﾋｮｳｺﾞｹﾝ","cityKana":"ｺｳﾍﾞｼﾆｼｸ","streetKana":"ｲｶﾜﾀﾞﾆﾁｮｳｺﾃﾞﾗ","prefecture":"兵庫県","city":"神戸市西区","street":"伊川谷町小寺"},{"zipCode":"6512124","prefectureKana":"ﾋｮｳｺﾞｹﾝ","cityKana":"ｺｳﾍﾞｼﾆｼｸ","streetKana":"ｲｶﾜﾀﾞﾆﾁｮｳｼﾞｭﾝﾅ","prefecture":"兵庫県","city":"神戸市西区","street":"伊川谷町潤和"},{"zipCode":"6512108","prefectureKana":"ﾋｮｳｺﾞｹﾝ","cityKana":"ｺｳﾍﾞｼﾆｼｸ","streetKana":"ｲｶﾜﾀﾞﾆﾁｮｳｾﾞﾝｶｲ","prefecture":"兵庫県","city":"神戸市西区","street":"伊川谷町前開"},{"zipCode":"6512104","prefectureKana":"ﾋｮｳｺﾞｹﾝ","cityKana":"ｺｳﾍﾞｼﾆｼｸ","streetKana":"ｲｶﾜﾀﾞﾆﾁｮｳﾅｶﾞｻｶ","prefecture":"兵庫県","city":"神戸市西区","street":"伊川谷町長坂"},{"zipCode":"6512101","prefectureKana":"ﾋｮｳｺﾞｹﾝ","cityKana":"ｺｳﾍﾞｼﾆｼｸ","streetKana":"ｲｶﾜﾀﾞﾆﾁｮｳﾌｾﾊﾀ","prefecture":"兵庫県","city":"神戸市西区","street":"伊川谷町布施畑"},{"zipCode":"6512115","prefectureKana":"ﾋｮｳｺﾞｹﾝ","cityKana":"ｺｳﾍﾞｼﾆｼｸ","streetKana":"ｲｶﾜﾀﾞﾆﾁｮｳﾍﾞﾌ","prefecture":"兵庫県","city":"神戸市西区","street":"伊川谷町別府"},{"zipCode":"6512111","prefectureKana":"ﾋｮｳｺﾞｹﾝ","cityKana":"ｺｳﾍﾞｼﾆｼｸ","streetKana":"ｲｹｶﾞﾐ","prefecture":"兵庫県","city":"神戸市西区","street":"池上"},{"zipCode":"6512242","prefectureKana":"ﾋｮｳｺﾞｹﾝ","cityKana":"ｺｳﾍﾞｼﾆｼｸ","streetKana":"ｲﾌﾞｷﾀﾞｲﾋｶﾞｼﾏﾁ","prefecture":"兵庫県","city":"神戸市西区","street":"井吹台東町"},{"zipCode":"6512243","prefectureKana":"ﾋｮｳｺﾞｹﾝ","cityKana":"ｺｳﾍﾞｼﾆｼｸ","streetKana":"ｲﾌﾞｷﾀﾞｲﾆｼﾏﾁ","prefecture":"兵庫県","city":"神戸市西区","street":"井吹台西町"},{"zipCode":"6512244","prefectureKana":"ﾋｮｳｺﾞｹﾝ","cityKana":"ｺｳﾍﾞｼﾆｼｸ","streetKana":"ｲﾌﾞｷﾀﾞｲｷﾀﾏﾁ","prefecture":"兵庫県","city":"神戸市西区","street":"井吹台北町"},{"zipCode":"6512114","prefectureKana":"ﾋｮｳｺﾞｹﾝ","cityKana":"ｺｳﾍﾞｼﾆｼｸ","streetKana":"ｲﾏﾃﾞﾗ","prefecture":"兵庫県","city":"神戸市西区","street":"今寺"},{"zipCode":"6512401","prefectureKana":"ﾋｮｳｺﾞｹﾝ","cityKana":"ｺｳﾍﾞｼﾆｼｸ","streetKana":"ｲﾜｵｶﾁｮｳｲﾜｵｶ","prefecture":"兵庫県","city":"神戸市西区","street":"岩岡町岩岡"},{"zipCode":"6512402","prefectureKana":"ﾋｮｳｺﾞｹﾝ","cityKana":"ｺｳﾍﾞｼﾆｼｸ","streetKana":"ｲﾜｵｶﾁｮｳｲﾝｼﾞ","prefecture":"兵庫県","city":"神戸市西区","street":"岩岡町印路"},{"zipCode":"6512403","prefectureKana":"ﾋｮｳｺﾞｹﾝ","cityKana":"ｺｳﾍﾞｼﾆｼｸ","streetKana":"ｲﾜｵｶﾁｮｳﾆｼﾜｷ","prefecture":"兵庫県","city":"神戸市西区","street":"岩岡町西脇"},{"zipCode":"6512405","prefectureKana":"ﾋｮｳｺﾞｹﾝ","cityKana":"ｺｳﾍﾞｼﾆｼｸ","streetKana":"ｲﾜｵｶﾁｮｳﾉﾅｶ","prefecture":"兵庫県","city":"神戸市西区","street":"岩岡町野中"},{"zipCode":"6512404","prefectureKana":"ﾋｮｳｺﾞｹﾝ","cityKana":"ｺｳﾍﾞｼﾆｼｸ","streetKana":"ｲﾜｵｶﾁｮｳﾌﾙｻﾄ","prefecture":"兵庫県","city":"神戸市西区","street":"岩岡町古郷"},{"zipCode":"6512133","prefectureKana":"ﾋｮｳｺﾞｹﾝ","cityKana":"ｺｳﾍﾞｼﾆｼｸ","streetKana":"ｴﾀﾞﾖｼ","prefecture":"兵庫県","city":"神戸市西区","street":"枝吉"},{"zipCode":"6512135","prefectureKana":"ﾋｮｳｺﾞｹﾝ","cityKana":"ｺｳﾍﾞｼﾆｼｸ","streetKana":"ｵｳﾂｶﾀﾞｲ","prefecture":"兵庫県","city":"神戸市西区","street":"王塚台"},{"zipCode":"6512414","prefectureKana":"ﾋｮｳｺﾞｹﾝ","cityKana":"ｺｳﾍﾞｼﾆｼｸ","streetKana":"ｵｵｻﾜ","prefecture":"兵庫県","city":"神戸市西区","street":"大沢"},{"zipCode":"6512112","prefectureKana":"ﾋｮｳｺﾞｹﾝ","cityKana":"ｺｳﾍﾞｼﾆｼｸ","streetKana":"ｵｵﾂﾜ","prefecture":"兵庫県","city":"神戸市西区","street":"大津和"},{"zipCode":"6512212","prefectureKana":"ﾋｮｳｺﾞｹﾝ","cityKana":"ｺｳﾍﾞｼﾆｼｸ","streetKana":"ｵｼﾍﾞﾀﾞﾆﾁｮｳｵｼﾍﾞ","prefecture":"兵庫県","city":"神戸市西区","street":"押部谷町押部"},{"zipCode":"6512222","prefectureKana":"ﾋｮｳｺﾞｹﾝ","cityKana":"ｺｳﾍﾞｼﾆｼｸ","streetKana":"ｵｼﾍﾞﾀﾞﾆﾁｮｳｷﾂﾞ","prefecture":"兵庫県","city":"神戸市西区","street":"押部谷町木津"},{"zipCode":"6512203","prefectureKana":"ﾋｮｳｺﾞｹﾝ","cityKana":"ｺｳﾍﾞｼﾆｼｸ","streetKana":"ｵｼﾍﾞﾀﾞﾆﾁｮｳｷﾝｺｳ","prefecture":"兵庫県","city":"神戸市西区","street":"押部谷町近江"},{"zipCode":"6512223","prefectureKana":"ﾋｮｳｺﾞｹﾝ","cityKana":"ｺｳﾍﾞｼﾆｼｸ","streetKana":"ｵｼﾍﾞﾀﾞﾆﾁｮｳｺｳﾐ","prefecture":"兵庫県","city":"神戸市西区","street":"押部谷町木見"},{"zipCode":"6512221","prefectureKana":"ﾋｮｳｺﾞｹﾝ","cityKana":"ｺｳﾍﾞｼﾆｼｸ","streetKana":"ｵｼﾍﾞﾀﾞﾆﾁｮｳｺﾊﾞﾀ","prefecture":"兵庫県","city":"神戸市西区","street":"押部谷町木幡"},{"zipCode":"6512207","prefectureKana":"ﾋｮｳｺﾞｹﾝ","cityKana":"ｺｳﾍﾞｼﾆｼｸ","streetKana":"ｵｼﾍﾞﾀﾞﾆﾁｮｳｻｲﾀ","prefecture":"兵庫県","city":"神戸市西区","street":"押部谷町細田"},{"zipCode":"6512211","prefectureKana":"ﾋｮｳｺﾞｹﾝ","cityKana":"ｺｳﾍﾞｼﾆｼｸ","streetKana":"ｵｼﾍﾞﾀﾞﾆﾁｮｳｻｶｴ","prefecture":"兵庫県","city":"神戸市西区","street":"押部谷町栄"},{"zipCode":"6512204","prefectureKana":"ﾋｮｳｺﾞｹﾝ","cityKana":"ｺｳﾍﾞｼﾆｼｸ","streetKana":"ｵｼﾍﾞﾀﾞﾆﾁｮｳﾀｶﾜ","prefecture":"兵庫県","city":"神戸市西区","street":"押部谷町高和"},{"zipCode":"6512202","prefectureKana":"ﾋｮｳｺﾞｹﾝ","cityKana":"ｺｳﾍﾞｼﾆｼｸ","streetKana":"ｵｼﾍﾞﾀﾞﾆﾁｮｳﾆｼﾓﾘ","prefecture":"兵庫県","city":"神戸市西区","street":"押部谷町西盛"},{"zipCode":"6512213","prefectureKana":"ﾋｮｳｺﾞｹﾝ","cityKana":"ｺｳﾍﾞｼﾆｼｸ","streetKana":"ｵｼﾍﾞﾀﾞﾆﾁｮｳﾌｸｽﾐ","prefecture":"兵庫県","city":"神戸市西区","street":"押部谷町福住"},{"zipCode":"6512205","prefectureKana":"ﾋｮｳｺﾞｹﾝ","cityKana":"ｺｳﾍﾞｼﾆｼｸ","streetKana":"ｵｼﾍﾞﾀﾞﾆﾁｮｳﾖｳﾀﾞ","prefecture":"兵庫県","city":"神戸市西区","street":"押部谷町養田"},{"zipCode":"6512206","prefectureKana":"ﾋｮｳｺﾞｹﾝ","cityKana":"ｺｳﾍﾞｼﾆｼｸ","streetKana":"ｵｼﾍﾞﾀﾞﾆﾁｮｳﾜﾀﾞ","prefecture":"兵庫県","city":"神戸市西区","street":"押部谷町和田"},{"zipCode":"6512103","prefectureKana":"ﾋｮｳｺﾞｹﾝ","cityKana":"ｺｳﾍﾞｼﾆｼｸ","streetKana":"ｶﾞｸｴﾝﾆｼﾏﾁ","prefecture":"兵庫県","city":"神戸市西区","street":"学園西町"},{"zipCode":"6512102","prefectureKana":"ﾋｮｳｺﾞｹﾝ","cityKana":"ｺｳﾍﾞｼﾆｼｸ","streetKana":"ｶﾞｸｴﾝﾋｶﾞｼﾏﾁ","prefecture":"兵庫県","city":"神戸市西区","street":"学園東町"},{"zipCode":"6512275","prefectureKana":"ﾋｮｳｺﾞｹﾝ","cityKana":"ｺｳﾍﾞｼﾆｼｸ","streetKana":"ｶｼﾉﾀﾞｲ","prefecture":"兵庫県","city":"神戸市西区","street":"樫野台"},{"zipCode":"6512276","prefectureKana":"ﾋｮｳｺﾞｹﾝ","cityKana":"ｺｳﾍﾞｼﾆｼｸ","streetKana":"ｶｽｶﾞﾀﾞｲ","prefecture":"兵庫県","city":"神戸市西区","street":"春日台"},{"zipCode":"6512411","prefectureKana":"ﾋｮｳｺﾞｹﾝ","cityKana":"ｺｳﾍﾞｼﾆｼｸ","streetKana":"ｶﾐｼﾝﾁ","prefecture":"兵庫県","city":"神戸市西区","street":"上新地"},{"zipCode":"6512272","prefectureKana":"ﾋｮｳｺﾞｹﾝ","cityKana":"ｺｳﾍﾞｼﾆｼｸ","streetKana":"ｶﾘﾊﾞﾀﾞｲ","prefecture":"兵庫県","city":"神戸市西区","street":"狩場台"},{"zipCode":"6512303","prefectureKana":"ﾋｮｳｺﾞｹﾝ","cityKana":"ｺｳﾍﾞｼﾆｼｸ","streetKana":"ｶﾝﾃﾞﾁｮｳｲｵﾛｲ","prefecture":"兵庫県","city":"神戸市西区","street":"神出町五百蔵"},{"zipCode":"6512333","prefectureKana":"ﾋｮｳｺﾞｹﾝ","cityKana":"ｺｳﾍﾞｼﾆｼｸ","streetKana":"ｶﾝﾃﾞﾁｮｳｲｹﾀﾞ","prefecture":"兵庫県","city":"神戸市西区","street":"神出町池田"},{"zipCode":"6512302","prefectureKana":"ﾋｮｳｺﾞｹﾝ","cityKana":"ｺｳﾍﾞｼﾆｼｸ","streetKana":"ｶﾝﾃﾞﾁｮｳｺｶﾞﾐ","prefecture":"兵庫県","city":"神戸市西区","street":"神出町古神"},{"zipCode":"6512304","prefectureKana":"ﾋｮｳｺﾞｹﾝ","cityKana":"ｺｳﾍﾞｼﾆｼｸ","streetKana":"ｶﾝﾃﾞﾁｮｳｺｿｸﾉ","prefecture":"兵庫県","city":"神戸市西区","street":"神出町小束野"},{"zipCode":"6512313","prefectureKana":"ﾋｮｳｺﾞｹﾝ","cityKana":"ｺｳﾍﾞｼﾆｼｸ","streetKana":"ｶﾝﾃﾞﾁｮｳﾀｲ","prefecture":"兵庫県","city":"神戸市西区","street":"神出町田井"},{"zipCode":"6512331","prefectureKana":"ﾋｮｳｺﾞｹﾝ","cityKana":"ｺｳﾍﾞｼﾆｼｸ","streetKana":"ｶﾝﾃﾞﾁｮｳﾋﾛﾀﾆ","prefecture":"兵庫県","city":"神戸市西区","street":"神出町広谷"},{"zipCode":"6512321","prefectureKana":"ﾋｮｳｺﾞｹﾝ","cityKana":"ｺｳﾍﾞｼﾆｼｸ","streetKana":"ｶﾝﾃﾞﾁｮｳﾎｳｾｲ","prefecture":"兵庫県","city":"神戸市西区","street":"神出町宝勢"},{"zipCode":"6512334","prefectureKana":"ﾋｮｳｺﾞｹﾝ","cityKana":"ｺｳﾍﾞｼﾆｼｸ","streetKana":"ｶﾝﾃﾞﾁｮｳﾕｳﾀﾞ","prefecture":"兵庫県","city":"神戸市西区","street":"神出町紫合"},{"zipCode":"6512301","prefectureKana":"ﾋｮｳｺﾞｹﾝ","cityKana":"ｺｳﾍﾞｼﾆｼｸ","streetKana":"ｶﾝﾃﾞﾁｮｳﾖｼﾅﾘ","prefecture":"兵庫県","city":"神戸市西区","street":"神出町勝成"},{"zipCode":"6512311","prefectureKana":"ﾋｮｳｺﾞｹﾝ","cityKana":"ｺｳﾍﾞｼﾆｼｸ","streetKana":"ｶﾝﾃﾞﾁｮｳﾋｶﾞｼ","prefecture":"兵庫県","city":"神戸市西区","street":"神出町東"},{"zipCode":"6512312","prefectureKana":"ﾋｮｳｺﾞｹﾝ","cityKana":"ｺｳﾍﾞｼﾆｼｸ","streetKana":"ｶﾝﾃﾞﾁｮｳﾐﾅﾐ","prefecture":"兵庫県","city":"神戸市西区","street":"神出町南"},{"zipCode":"6512332","prefectureKana":"ﾋｮｳｺﾞｹﾝ","cityKana":"ｺｳﾍﾞｼﾆｼｸ","streetKana":"ｶﾝﾃﾞﾁｮｳｷﾀ","prefecture":"兵庫県","city":"神戸市西区","street":"神出町北"},{"zipCode":"6512117","prefectureKana":"ﾋｮｳｺﾞｹﾝ","cityKana":"ｺｳﾍﾞｼﾆｼｸ","streetKana":"ｷﾀﾍﾞﾌ","prefecture":"兵庫県","city":"神戸市西区","street":"北別府"},{"zipCode":"6512215","prefectureKana":"ﾋｮｳｺﾞｹﾝ","cityKana":"ｺｳﾍﾞｼﾆｼｸ","streetKana":"ｷﾀﾔﾏﾀﾞｲ","prefecture":"兵庫県","city":"神戸市西区","street":"北山台"},{"zipCode":"6512273","prefectureKana":"ﾋｮｳｺﾞｹﾝ","cityKana":"ｺｳﾍﾞｼﾆｼｸ","streetKana":"ｺｳｼﾞﾀﾞｲ","prefecture":"兵庫県","city":"神戸市西区","street":"糀台"},{"zipCode":"6512144","prefectureKana":"ﾋｮｳｺﾞｹﾝ","cityKana":"ｺｳﾍﾞｼﾆｼｸ","streetKana":"ｺﾔﾏ","prefecture":"兵庫県","city":"神戸市西区","street":"小山"},{"zipCode":"6512226","prefectureKana":"ﾋｮｳｺﾞｹﾝ","cityKana":"ｺｳﾍﾞｼﾆｼｸ","streetKana":"ｻｸﾗｶﾞｵｶﾅｶﾏﾁ","prefecture":"兵庫県","city":"神戸市西区","street":"桜が丘中町"},{"zipCode":"6512225","prefectureKana":"ﾋｮｳｺﾞｹﾝ","cityKana":"ｺｳﾍﾞｼﾆｼｸ","streetKana":"ｻｸﾗｶﾞｵｶﾋｶﾞｼﾏﾁ","prefecture":"兵庫県","city":"神戸市西区","street":"桜が丘東町"},{"zipCode":"6512227","prefectureKana":"ﾋｮｳｺﾞｹﾝ","cityKana":"ｺｳﾍﾞｼﾆｼｸ","streetKana":"ｻｸﾗｶﾞｵｶﾆｼﾏﾁ","prefecture":"兵庫県","city":"神戸市西区","street":"桜が丘西町"},{"zipCode":"6512129","prefectureKana":"ﾋｮｳｺﾞｹﾝ","cityKana":"ｺｳﾍﾞｼﾆｼｸ","streetKana":"ｼﾗﾐｽﾞ","prefecture":"兵庫県","city":"神戸市西区","street":"白水"},{"zipCode":"6512109","prefectureKana":"ﾋｮｳｺﾞｹﾝ","cityKana":"ｺｳﾍﾞｼﾆｼｸ","streetKana":"ｾﾞﾝｶｲﾐﾅﾐﾏﾁ","prefecture":"兵庫県","city":"神戸市西区","street":"前開南町"},{"zipCode":"6512201","prefectureKana":"ﾋｮｳｺﾞｹﾝ","cityKana":"ｺｳﾍﾞｼﾆｼｸ","streetKana":"ﾀｶｵﾀﾞｲ","prefecture":"兵庫県","city":"神戸市西区","street":"高雄台"},{"zipCode":"6512271","prefectureKana":"ﾋｮｳｺﾞｹﾝ","cityKana":"ｺｳﾍﾞｼﾆｼｸ","streetKana":"ﾀｶﾂｶﾀﾞｲ","prefecture":"兵庫県","city":"神戸市西区","street":"高塚台"},{"zipCode":"6512274","prefectureKana":"ﾋｮｳｺﾞｹﾝ","cityKana":"ｺｳﾍﾞｼﾆｼｸ","streetKana":"ﾀｹﾉﾀﾞｲ","prefecture":"兵庫県","city":"神戸市西区","street":"竹の台"},{"zipCode":"6512145","prefectureKana":"ﾋｮｳｺﾞｹﾝ","cityKana":"ｺｳﾍﾞｼﾆｼｸ","streetKana":"ﾀﾏﾂﾁｮｳｲｽﾐ","prefecture":"兵庫県","city":"神戸市西区","street":"玉津町居住"},{"zipCode":"6512128","prefectureKana":"ﾋｮｳｺﾞｹﾝ","cityKana":"ｺｳﾍﾞｼﾆｼｸ","streetKana":"ﾀﾏﾂﾁｮｳｲﾏﾂﾞ","prefecture":"兵庫県","city":"神戸市西区","street":"玉津町今津"},{"zipCode":"6512126","prefectureKana":"ﾋｮｳｺﾞｹﾝ","cityKana":"ｺｳﾍﾞｼﾆｼｸ","streetKana":"ﾀﾏﾂﾁｮｳｶﾐｲｹ","prefecture":"兵庫県","city":"神戸市西区","street":"玉津町上池"},{"zipCode":"6512122","prefectureKana":"ﾋｮｳｺﾞｹﾝ","cityKana":"ｺｳﾍﾞｼﾆｼｸ","streetKana":"ﾀﾏﾂﾁｮｳｺｳﾂﾞﾊﾞｼ","prefecture":"兵庫県","city":"神戸市西区","street":"玉津町高津橋"},{"zipCode":"6512144","prefectureKana":"ﾋｮｳｺﾞｹﾝ","cityKana":"ｺｳﾍﾞｼﾆｼｸ","streetKana":"ﾀﾏﾂﾁｮｳｺﾔﾏ","prefecture":"兵庫県","city":"神戸市西区","street":"玉津町小山"},{"zipCode":"6512125","prefectureKana":"ﾋｮｳｺﾞｹﾝ","cityKana":"ｺｳﾍﾞｼﾆｼｸ","streetKana":"ﾀﾏﾂﾁｮｳｼﾝﾎﾟｳ","prefecture":"兵庫県","city":"神戸市西区","street":"玉津町新方"},{"zipCode":"6512147","prefectureKana":"ﾋｮｳｺﾞｹﾝ","cityKana":"ｺｳﾍﾞｼﾆｼｸ","streetKana":"ﾀﾏﾂﾁｮｳﾀﾅｶ","prefecture":"兵庫県","city":"神戸市西区","street":"玉津町田中"},{"zipCode":"6512137","prefectureKana":"ﾋｮｳｺﾞｹﾝ","cityKana":"ｺｳﾍﾞｼﾆｼｸ","streetKana":"ﾀﾏﾂﾁｮｳﾃﾞｱｲ","prefecture":"兵庫県","city":"神戸市西区","street":"玉津町出合"},{"zipCode":"6512127","prefectureKana":"ﾋｮｳｺﾞｹﾝ","cityKana":"ｺｳﾍﾞｼﾆｼｸ","streetKana":"ﾀﾏﾂﾁｮｳﾆｼｶﾞﾜﾗ","prefecture":"兵庫県","city":"神戸市西区","street":"玉津町西河原"},{"zipCode":"6512142","prefectureKana":"ﾋｮｳｺﾞｹﾝ","cityKana":"ｺｳﾍﾞｼﾆｼｸ","streetKana":"ﾀﾏﾂﾁｮｳﾌﾀﾂﾔ","prefecture":"兵庫県","city":"神戸市西区","street":"玉津町二ツ屋"},{"zipCode":"6512143","prefectureKana":"ﾋｮｳｺﾞｹﾝ","cityKana":"ｺｳﾍﾞｼﾆｼｸ","streetKana":"ﾀﾏﾂﾁｮｳﾏﾙﾂﾞｶ","prefecture":"兵庫県","city":"神戸市西区","street":"玉津町丸塚"},{"zipCode":"6512121","prefectureKana":"ﾋｮｳｺﾞｹﾝ","cityKana":"ｺｳﾍﾞｼﾆｼｸ","streetKana":"ﾀﾏﾂﾁｮｳﾐﾀﾆ","prefecture":"兵庫県","city":"神戸市西区","street":"玉津町水谷"},{"zipCode":"6512138","prefectureKana":"ﾋｮｳｺﾞｹﾝ","cityKana":"ｺｳﾍﾞｼﾆｼｸ","streetKana":"ﾀﾏﾂﾁｮｳﾖｼﾀﾞ","prefecture":"兵庫県","city":"神戸市西区","street":"玉津町吉田"},{"zipCode":"6512217","prefectureKana":"ﾋｮｳｺﾞｹﾝ","cityKana":"ｺｳﾍﾞｼﾆｼｸ","streetKana":"ﾂｷｶﾞｵｶ","prefecture":"兵庫県","city":"神戸市西区","street":"月が丘"},{"zipCode":"6512123","prefectureKana":"ﾋｮｳｺﾞｹﾝ","cityKana":"ｺｳﾍﾞｼﾆｼｸ","streetKana":"ﾃﾝﾉｳｻﾞﾝ","prefecture":"兵庫県","city":"神戸市西区","street":"天王山"},{"zipCode":"6512136","prefectureKana":"ﾋｮｳｺﾞｹﾝ","cityKana":"ｺｳﾍﾞｼﾆｼｸ","streetKana":"ﾅｶﾉ","prefecture":"兵庫県","city":"神戸市西区","street":"中野"},{"zipCode":"6512148","prefectureKana":"ﾋｮｳｺﾞｹﾝ","cityKana":"ｺｳﾍﾞｼﾆｼｸ","streetKana":"ﾅｶﾞﾊﾀﾁｮｳ","prefecture":"兵庫県","city":"神戸市西区","street":"長畑町"},{"zipCode":"6512234","prefectureKana":"ﾋｮｳｺﾞｹﾝ","cityKana":"ｺｳﾍﾞｼﾆｼｸ","streetKana":"ﾊｾﾀﾆﾁｮｳｲｹﾀﾆ","prefecture":"兵庫県","city":"神戸市西区","street":"櫨谷町池谷"},{"zipCode":"6512238","prefectureKana":"ﾋｮｳｺﾞｹﾝ","cityKana":"ｺｳﾍﾞｼﾆｼｸ","streetKana":"ﾊｾﾀﾆﾁｮｳｽｶﾞﾉ","prefecture":"兵庫県","city":"神戸市西区","street":"櫨谷町菅野"},{"zipCode":"6512237","prefectureKana":"ﾋｮｳｺﾞｹﾝ","cityKana":"ｺｳﾍﾞｼﾆｼｸ","streetKana":"ﾊｾﾀﾆﾁｮｳﾀﾆｸﾞﾁ","prefecture":"兵庫県","city":"神戸市西区","street":"櫨谷町谷口"},{"zipCode":"6512231","prefectureKana":"ﾋｮｳｺﾞｹﾝ","cityKana":"ｺｳﾍﾞｼﾆｼｸ","streetKana":"ﾊｾﾀﾆﾁｮｳﾃﾗﾀﾆ","prefecture":"兵庫県","city":"神戸市西区","street":"櫨谷町寺谷"},{"zipCode":"6512236","prefectureKana":"ﾋｮｳｺﾞｹﾝ","cityKana":"ｺｳﾍﾞｼﾆｼｸ","streetKana":"ﾊｾﾀﾆﾁｮｳﾄﾁﾉｷ","prefecture":"兵庫県","city":"神戸市西区","street":"櫨谷町栃木"},{"zipCode":"6512232","prefectureKana":"ﾋｮｳｺﾞｹﾝ","cityKana":"ｺｳﾍﾞｼﾆｼｸ","streetKana":"ﾊｾﾀﾆﾁｮｳﾄﾓｷﾖ","prefecture":"兵庫県","city":"神戸市西区","street":"櫨谷町友清"},{"zipCode":"6512235","prefectureKana":"ﾋｮｳｺﾞｹﾝ","cityKana":"ｺｳﾍﾞｼﾆｼｸ","streetKana":"ﾊｾﾀﾆﾁｮｳﾊｾ","prefecture":"兵庫県","city":"神戸市西区","street":"櫨谷町長谷"},{"zipCode":"6512233","prefectureKana":"ﾋｮｳｺﾞｹﾝ","cityKana":"ｺｳﾍﾞｼﾆｼｸ","streetKana":"ﾊｾﾀﾆﾁｮｳﾌｸﾀﾆ","prefecture":"兵庫県","city":"神戸市西区","street":"櫨谷町福谷"},{"zipCode":"6512239","prefectureKana":"ﾋｮｳｺﾞｹﾝ","cityKana":"ｺｳﾍﾞｼﾆｼｸ","streetKana":"ﾊｾﾀﾆﾁｮｳﾏﾂﾓﾄ","prefecture":"兵庫県","city":"神戸市西区","street":"櫨谷町松本"},{"zipCode":"6512266","prefectureKana":"ﾋｮｳｺﾞｹﾝ","cityKana":"ｺｳﾍﾞｼﾆｼｸ","streetKana":"ﾋﾗﾉﾁｮｳｲﾝｼﾞ","prefecture":"兵庫県","city":"神戸市西区","street":"平野町印路"},{"zipCode":"6512256","prefectureKana":"ﾋｮｳｺﾞｹﾝ","cityKana":"ｺｳﾍﾞｼﾆｼｸ","streetKana":"ﾋﾗﾉﾁｮｳｵｵﾉ","prefecture":"兵庫県","city":"神戸市西区","street":"平野町大野"},{"zipCode":"6512264","prefectureKana":"ﾋｮｳｺﾞｹﾝ","cityKana":"ｺｳﾍﾞｼﾆｼｸ","streetKana":"ﾋﾗﾉﾁｮｳｵｵﾊﾀ","prefecture":"兵庫県","city":"神戸市西区","street":"平野町大畑"},{"zipCode":"6512261","prefectureKana":"ﾋｮｳｺﾞｹﾝ","cityKana":"ｺｳﾍﾞｼﾆｼｸ","streetKana":"ﾋﾗﾉﾁｮｳｶﾀﾀﾞ","prefecture":"兵庫県","city":"神戸市西区","street":"平野町堅田"},{"zipCode":"6512268","prefectureKana":"ﾋｮｳｺﾞｹﾝ","cityKana":"ｺｳﾍﾞｼﾆｼｸ","streetKana":"ﾋﾗﾉﾁｮｳｸﾛﾀﾞ","prefecture":"兵庫県","city":"神戸市西区","street":"平野町黒田"},{"zipCode":"6512255","prefectureKana":"ﾋｮｳｺﾞｹﾝ","cityKana":"ｺｳﾍﾞｼﾆｼｸ","streetKana":"ﾋﾗﾉﾁｮｳｹｲﾒｲ","prefecture":"兵庫県","city":"神戸市西区","street":"平野町慶明"},{"zipCode":"6512262","prefectureKana":"ﾋｮｳｺﾞｹﾝ","cityKana":"ｺｳﾍﾞｼﾆｼｸ","streetKana":"ﾋﾗﾉﾁｮｳｼｹﾞﾀ","prefecture":"兵庫県","city":"神戸市西区","street":"平野町繁田"},{"zipCode":"6512254","prefectureKana":"ﾋｮｳｺﾞｹﾝ","cityKana":"ｺｳﾍﾞｼﾆｼｸ","streetKana":"ﾋﾗﾉﾁｮｳｼﾊﾞｻｷ","prefecture":"兵庫県","city":"神戸市西区","street":"平野町芝崎"},{"zipCode":"6512251","prefectureKana":"ﾋｮｳｺﾞｹﾝ","cityKana":"ｺｳﾍﾞｼﾆｼｸ","streetKana":"ﾋﾗﾉﾁｮｳｼﾓﾑﾗ","prefecture":"兵庫県","city":"神戸市西区","street":"平野町下村"},{"zipCode":"6512263","prefectureKana":"ﾋｮｳｺﾞｹﾝ","cityKana":"ｺｳﾍﾞｼﾆｼｸ","streetKana":"ﾋﾗﾉﾁｮｳﾂﾈﾓﾄ","prefecture":"兵庫県","city":"神戸市西区","street":"平野町常本"},{"zipCode":"6512257","prefectureKana":"ﾋｮｳｺﾞｹﾝ","cityKana":"ｺｳﾍﾞｼﾆｼｸ","streetKana":"ﾋﾗﾉﾁｮｳﾅｶﾂ","prefecture":"兵庫県","city":"神戸市西区","street":"平野町中津"},{"zipCode":"6512267","prefectureKana":"ﾋｮｳｺﾞｹﾝ","cityKana":"ｺｳﾍﾞｼﾆｼｸ","streetKana":"ﾋﾗﾉﾁｮｳﾆｼﾄﾀﾞ","prefecture":"兵庫県","city":"神戸市西区","street":"平野町西戸田"},{"zipCode":"6512252","prefectureKana":"ﾋｮｳｺﾞｹﾝ","cityKana":"ｺｳﾍﾞｼﾆｼｸ","streetKana":"ﾋﾗﾉﾁｮｳﾌｸﾅｶ","prefecture":"兵庫県","city":"神戸市西区","street":"平野町福中"},{"zipCode":"6512265","prefectureKana":"ﾋｮｳｺﾞｹﾝ","cityKana":"ｺｳﾍﾞｼﾆｼｸ","streetKana":"ﾋﾗﾉﾁｮｳﾐﾔﾏｴ","prefecture":"兵庫県","city":"神戸市西区","street":"平野町宮前"},{"zipCode":"6512253","prefectureKana":"ﾋｮｳｺﾞｹﾝ","cityKana":"ｺｳﾍﾞｼﾆｼｸ","streetKana":"ﾋﾗﾉﾁｮｳﾑｶｲ","prefecture":"兵庫県","city":"神戸市西区","street":"平野町向井"},{"zipCode":"6512413","prefectureKana":"ﾋｮｳｺﾞｹﾝ","cityKana":"ｺｳﾍﾞｼﾆｼｸ","streetKana":"ﾌｸﾖｼﾀﾞｲ","prefecture":"兵庫県","city":"神戸市西区","street":"福吉台"},{"zipCode":"6512214","prefectureKana":"ﾋｮｳｺﾞｹﾝ","cityKana":"ｺｳﾍﾞｼﾆｼｸ","streetKana":"ﾌｼﾞﾐｶﾞｵｶ","prefecture":"兵庫県","city":"神戸市西区","street":"富士見が丘"},{"zipCode":"6512142","prefectureKana":"ﾋｮｳｺﾞｹﾝ","cityKana":"ｺｳﾍﾞｼﾆｼｸ","streetKana":"ﾌﾀﾂﾔ","prefecture":"兵庫県","city":"神戸市西区","street":"二ツ屋"},{"zipCode":"6512143","prefectureKana":"ﾋｮｳｺﾞｹﾝ","cityKana":"ｺｳﾍﾞｼﾆｼｸ","streetKana":"ﾏﾙﾂﾞｶ","prefecture":"兵庫県","city":"神戸市西区","street":"丸塚"},{"zipCode":"6512277","prefectureKana":"ﾋｮｳｺﾞｹﾝ","cityKana":"ｺｳﾍﾞｼﾆｼｸ","streetKana":"ﾐｶﾀﾀﾞｲ","prefecture":"兵庫県","city":"神戸市西区","street":"美賀多台"},{"zipCode":"6512121","prefectureKana":"ﾋｮｳｺﾞｹﾝ","cityKana":"ｺｳﾍﾞｼﾆｼｸ","streetKana":"ﾐﾀﾆ","prefecture":"兵庫県","city":"神戸市西区","street":"水谷"},{"zipCode":"6512228","prefectureKana":"ﾋｮｳｺﾞｹﾝ","cityKana":"ｺｳﾍﾞｼﾆｼｸ","streetKana":"ﾐﾂｶﾞｵｶ","prefecture":"兵庫県","city":"神戸市西区","street":"見津が丘"},{"zipCode":"6512116","prefectureKana":"ﾋｮｳｺﾞｹﾝ","cityKana":"ｺｳﾍﾞｼﾆｼｸ","streetKana":"ﾐﾅﾐﾍﾞﾌ","prefecture":"兵庫県","city":"神戸市西区","street":"南別府"},{"zipCode":"6512216","prefectureKana":"ﾋｮｳｺﾞｹﾝ","cityKana":"ｺｳﾍﾞｼﾆｼｸ","streetKana":"ﾐﾎｶﾞｵｶ","prefecture":"兵庫県","city":"神戸市西区","street":"美穂が丘"},{"zipCode":"6512146","prefectureKana":"ﾋｮｳｺﾞｹﾝ","cityKana":"ｺｳﾍﾞｼﾆｼｸ","streetKana":"ﾐﾔｼﾀ","prefecture":"兵庫県","city":"神戸市西区","street":"宮下"},{"zipCode":"6512241","prefectureKana":"ﾋｮｳｺﾞｹﾝ","cityKana":"ｺｳﾍﾞｼﾆｼｸ","streetKana":"ﾑﾛﾀﾆ","prefecture":"兵庫県","city":"神戸市西区","street":"室谷"},{"zipCode":"6512131","prefectureKana":"ﾋｮｳｺﾞｹﾝ","cityKana":"ｺｳﾍﾞｼﾆｼｸ","streetKana":"ﾓﾁｺ","prefecture":"兵庫県","city":"神戸市西区","street":"持子"},{"zipCode":"6512132","prefectureKana":"ﾋｮｳｺﾞｹﾝ","cityKana":"ｺｳﾍﾞｼﾆｼｸ","streetKana":"ﾓﾘﾄﾓ","prefecture":"兵庫県","city":"神戸市西区","street":"森友"},{"zipCode":"6512412","prefectureKana":"ﾋｮｳｺﾞｹﾝ","cityKana":"ｺｳﾍﾞｼﾆｼｸ","streetKana":"ﾘｭｳｶﾞｵｶ","prefecture":"兵庫県","city":"神戸市西区","street":"竜が岡"},{"zipCode":"6512120","prefectureKana":"ﾋｮｳｺﾞｹﾝ","cityKana":"ｺｳﾍﾞｼﾆｼｸ","streetKana":"ﾜｲﾄﾞﾘ","prefecture":"兵庫県","city":"神戸市西区","street":"和井取"},{"zipCode":"6511413","prefectureKana":"ﾋｮｳｺﾞｹﾝ","cityKana":"ﾆｼﾉﾐﾔｼ","streetKana":"ｷﾀﾛｯｺｳﾀﾞｲ","prefecture":"兵庫県","city":"西宮市","street":"北六甲台"},{"zipCode":"6511432","prefectureKana":"ﾋｮｳｺﾞｹﾝ","cityKana":"ﾆｼﾉﾐﾔｼ","streetKana":"ｽﾐﾚﾀﾞｲ","prefecture":"兵庫県","city":"西宮市","street":"すみれ台"},{"zipCode":"6511421","prefectureKana":"ﾋｮｳｺﾞｹﾝ","cityKana":"ﾆｼﾉﾐﾔｼ","streetKana":"ﾔﾏｸﾞﾁﾁｮｳｶﾐﾔﾏｸﾞﾁ","prefecture":"兵庫県","city":"西宮市","street":"山口町上山口"},{"zipCode":"6511422","prefectureKana":"ﾋｮｳｺﾞｹﾝ","cityKana":"ﾆｼﾉﾐﾔｼ","streetKana":"ﾔﾏｸﾞﾁﾁｮｳｷﾝｾﾝｼﾞ","prefecture":"兵庫県","city":"西宮市","street":"山口町金仙寺"},{"zipCode":"6511424","prefectureKana":"ﾋｮｳｺﾞｹﾝ","cityKana":"ﾆｼﾉﾐﾔｼ","streetKana":"ﾔﾏｸﾞﾁﾁｮｳｺｳｶｴﾝ","prefecture":"兵庫県","city":"西宮市","street":"山口町香花園"},{"zipCode":"6511412","prefectureKana":"ﾋｮｳｺﾞｹﾝ","cityKana":"ﾆｼﾉﾐﾔｼ","streetKana":"ﾔﾏｸﾞﾁﾁｮｳｼﾓﾔﾏｸﾞﾁ","prefecture":"兵庫県","city":"西宮市","street":"山口町下山口"},{"zipCode":"6511433","prefectureKana":"ﾋｮｳｺﾞｹﾝ","cityKana":"ﾆｼﾉﾐﾔｼ","streetKana":"ﾔﾏｸﾞﾁﾁｮｳﾅｶﾉ","prefecture":"兵庫県","city":"西宮市","street":"山口町中野"},{"zipCode":"6511411","prefectureKana":"ﾋｮｳｺﾞｹﾝ","cityKana":"ﾆｼﾉﾐﾔｼ","streetKana":"ﾔﾏｸﾞﾁﾁｮｳﾅﾗｲ","prefecture":"兵庫県","city":"西宮市","street":"山口町名来"},{"zipCode":"6511431","prefectureKana":"ﾋｮｳｺﾞｹﾝ","cityKana":"ﾆｼﾉﾐﾔｼ","streetKana":"ﾔﾏｸﾞﾁﾁｮｳﾊﾝｼﾝﾘｭｳﾂｳｾﾝﾀｰ","prefecture":"兵庫県","city":"西宮市","street":"山口町阪神流通センター"},{"zipCode":"6511423","prefectureKana":"ﾋｮｳｺﾞｹﾝ","cityKana":"ﾆｼﾉﾐﾔｼ","streetKana":"ﾔﾏｸﾞﾁﾁｮｳﾌﾅｻｶ","prefecture":"兵庫県","city":"西宮市","street":"山口町船坂"}]