[{"zipCode":"6550000","prefectureKana":"ﾋｮｳｺﾞｹﾝ","cityKana":"ｺｳﾍﾞｼﾀﾙﾐｸ","streetKana":"ｲｶﾆｹｲｻｲｶﾞﾅｲﾊﾞｱｲ","prefecture":"兵庫県","city":"神戸市垂水区","street":"以下に掲載がない場合"},{"zipCode":"6550873","prefectureKana":"ﾋｮｳｺﾞｹﾝ","cityKana":"ｺｳﾍﾞｼﾀﾙﾐｸ","streetKana":"ｱｵﾔﾏﾀﾞｲ","prefecture":"兵庫県","city":"神戸市垂水区","street":"青山台"},{"zipCode":"6550862","prefectureKana":"ﾋｮｳｺﾞｹﾝ","cityKana":"ｺｳﾍﾞｼﾀﾙﾐｸ","streetKana":"ｱｻﾀﾆﾁｮｳ","prefecture":"兵庫県","city":"神戸市垂水区","street":"朝谷町"},{"zipCode":"6550033","prefectureKana":"ﾋｮｳｺﾞｹﾝ","cityKana":"ｺｳﾍﾞｼﾀﾙﾐｸ","streetKana":"ｱｻﾋｶﾞｵｶ","prefecture":"兵庫県","city":"神戸市垂水区","street":"旭が丘"},{"zipCode":"6550885","prefectureKana":"ﾋｮｳｺﾞｹﾝ","cityKana":"ｺｳﾍﾞｼﾀﾙﾐｸ","streetKana":"ｲｽﾞﾐｶﾞｵｶ","prefecture":"兵庫県","city":"神戸市垂水区","street":"泉が丘"},{"zipCode":"6550037","prefectureKana":"ﾋｮｳｺﾞｹﾝ","cityKana":"ｺｳﾍﾞｼﾀﾙﾐｸ","streetKana":"ｳﾀｼｷﾔﾏ","prefecture":"兵庫県","city":"神戸市垂水区","street":"歌敷山"},{"zipCode":"6550883","prefectureKana":"ﾋｮｳｺﾞｹﾝ","cityKana":"ｺｳﾍﾞｼﾀﾙﾐｸ","streetKana":"ｵｳｲﾃﾞﾝ","prefecture":"兵庫県","city":"神戸市垂水区","street":"王居殿"},{"zipCode":"6550014","prefectureKana":"ﾋｮｳｺﾞｹﾝ","cityKana":"ｺｳﾍﾞｼﾀﾙﾐｸ","streetKana":"ｵｵﾏﾁ","prefecture":"兵庫県","city":"神戸市垂水区","street":"大町"},{"zipCode":"6550882","prefectureKana":"ﾋｮｳｺﾞｹﾝ","cityKana":"ｺｳﾍﾞｼﾀﾙﾐｸ","streetKana":"ｵﾄｷﾞ","prefecture":"兵庫県","city":"神戸市垂水区","street":"乙木"},{"zipCode":"6550036","prefectureKana":"ﾋｮｳｺﾞｹﾝ","cityKana":"ｺｳﾍﾞｼﾀﾙﾐｸ","streetKana":"ｶｲｶﾞﾝﾄﾞｵﾘ","prefecture":"兵庫県","city":"神戸市垂水区","street":"海岸通"},{"zipCode":"6550039","prefectureKana":"ﾋｮｳｺﾞｹﾝ","cityKana":"ｺｳﾍﾞｼﾀﾙﾐｸ","streetKana":"ｶｽﾐｶﾞｵｶ","prefecture":"兵庫県","city":"神戸市垂水区","street":"霞ケ丘"},{"zipCode":"6550017","prefectureKana":"ﾋｮｳｺﾞｹﾝ","cityKana":"ｺｳﾍﾞｼﾀﾙﾐｸ","streetKana":"ｶﾐﾀｶﾏﾙ","prefecture":"兵庫県","city":"神戸市垂水区","street":"上高丸"},{"zipCode":"6550049","prefectureKana":"ﾋｮｳｺﾞｹﾝ","cityKana":"ｺｳﾍﾞｼﾀﾙﾐｸ","streetKana":"ｶﾘｸﾞﾁﾀﾞｲ","prefecture":"兵庫県","city":"神戸市垂水区","street":"狩口台"},{"zipCode":"6550894","prefectureKana":"ﾋｮｳｺﾞｹﾝ","cityKana":"ｺｳﾍﾞｼﾀﾙﾐｸ","streetKana":"ｶﾜﾊﾗ","prefecture":"兵庫県","city":"神戸市垂水区","street":"川原"},{"zipCode":"6550027","prefectureKana":"ﾋｮｳｺﾞｹﾝ","cityKana":"ｺｳﾍﾞｼﾀﾙﾐｸ","streetKana":"ｶﾝﾀﾞﾁｮｳ","prefecture":"兵庫県","city":"神戸市垂水区","street":"神田町"},{"zipCode":"6550045","prefectureKana":"ﾋｮｳｺﾞｹﾝ","cityKana":"ｺｳﾍﾞｼﾀﾙﾐｸ","streetKana":"ｷﾀﾏｲｺ","prefecture":"兵庫県","city":"神戸市垂水区","street":"北舞子"},{"zipCode":"6550026","prefectureKana":"ﾋｮｳｺﾞｹﾝ","cityKana":"ｺｳﾍﾞｼﾀﾙﾐｸ","streetKana":"ｸｶﾞﾉﾁｮｳ","prefecture":"兵庫県","city":"神戸市垂水区","street":"陸ノ町"},{"zipCode":"6550012","prefectureKana":"ﾋｮｳｺﾞｹﾝ","cityKana":"ｺｳﾍﾞｼﾀﾙﾐｸ","streetKana":"ｺｳﾖｳ","prefecture":"兵庫県","city":"神戸市垂水区","street":"向陽"},{"zipCode":"6550008","prefectureKana":"ﾋｮｳｺﾞｹﾝ","cityKana":"ｺｳﾍﾞｼﾀﾙﾐｸ","streetKana":"ｺﾂﾞｶﾀﾞｲ","prefecture":"兵庫県","city":"神戸市垂水区","street":"小束台"},{"zipCode":"6550061","prefectureKana":"ﾋｮｳｺﾞｹﾝ","cityKana":"ｺｳﾍﾞｼﾀﾙﾐｸ","streetKana":"ｺﾂﾞｶﾀﾞｲﾋｶﾞｼ","prefecture":"兵庫県","city":"神戸市垂水区","street":"小束台東"},{"zipCode":"6550002","prefectureKana":"ﾋｮｳｺﾞｹﾝ","cityKana":"ｺｳﾍﾞｼﾀﾙﾐｸ","streetKana":"ｺﾂﾞｶﾔﾏ","prefecture":"兵庫県","city":"神戸市垂水区","street":"小束山"},{"zipCode":"6550009","prefectureKana":"ﾋｮｳｺﾞｹﾝ","cityKana":"ｺｳﾍﾞｼﾀﾙﾐｸ","streetKana":"ｺﾂﾞｶﾔﾏﾃ","prefecture":"兵庫県","city":"神戸市垂水区","street":"小束山手"},{"zipCode":"6550003","prefectureKana":"ﾋｮｳｺﾞｹﾝ","cityKana":"ｺｳﾍﾞｼﾀﾙﾐｸ","streetKana":"ｺﾂﾞｶﾔﾏﾎﾝﾏﾁ","prefecture":"兵庫県","city":"神戸市垂水区","street":"小束山本町"},{"zipCode":"6550035","prefectureKana":"ﾋｮｳｺﾞｹﾝ","cityKana":"ｺｳﾍﾞｼﾀﾙﾐｸ","streetKana":"ｺﾞｼｷﾔﾏ","prefecture":"兵庫県","city":"神戸市垂水区","street":"五色山"},{"zipCode":"6550024","prefectureKana":"ﾋｮｳｺﾞｹﾝ","cityKana":"ｺｳﾍﾞｼﾀﾙﾐｸ","streetKana":"ｺﾞﾘｮｳﾁｮｳ","prefecture":"兵庫県","city":"神戸市垂水区","street":"御霊町"},{"zipCode":"6550895","prefectureKana":"ﾋｮｳｺﾞｹﾝ","cityKana":"ｺｳﾍﾞｼﾀﾙﾐｸ","streetKana":"ｻｶｶﾞﾐ","prefecture":"兵庫県","city":"神戸市垂水区","street":"坂上"},{"zipCode":"6550005","prefectureKana":"ﾋｮｳｺﾞｹﾝ","cityKana":"ｺｳﾍﾞｼﾀﾙﾐｸ","streetKana":"ｼｵﾐｶﾞｵｶ","prefecture":"兵庫県","city":"神戸市垂水区","street":"潮見が丘"},{"zipCode":"6550863","prefectureKana":"ﾋｮｳｺﾞｹﾝ","cityKana":"ｺｳﾍﾞｼﾀﾙﾐｸ","streetKana":"ｼｵﾔｷﾀﾏﾁ","prefecture":"兵庫県","city":"神戸市垂水区","street":"塩屋北町"},{"zipCode":"6550864","prefectureKana":"ﾋｮｳｺﾞｹﾝ","cityKana":"ｺｳﾍﾞｼﾀﾙﾐｸ","streetKana":"ｼｵﾔﾀﾞｲ","prefecture":"兵庫県","city":"神戸市垂水区","street":"塩屋台"},{"zipCode":"6550872","prefectureKana":"ﾋｮｳｺﾞｹﾝ","cityKana":"ｺｳﾍﾞｼﾀﾙﾐｸ","streetKana":"ｼｵﾔﾁｮｳ","prefecture":"兵庫県","city":"神戸市垂水区","street":"塩屋町"},{"zipCode":"6550031","prefectureKana":"ﾋｮｳｺﾞｹﾝ","cityKana":"ｺｳﾍﾞｼﾀﾙﾐｸ","streetKana":"ｼﾐｽﾞｶﾞｵｶ","prefecture":"兵庫県","city":"神戸市垂水区","street":"清水が丘"},{"zipCode":"6550023","prefectureKana":"ﾋｮｳｺﾞｹﾝ","cityKana":"ｺｳﾍﾞｼﾀﾙﾐｸ","streetKana":"ｼﾐｽﾞﾄﾞｵﾘ","prefecture":"兵庫県","city":"神戸市垂水区","street":"清水通"},{"zipCode":"6550861","prefectureKana":"ﾋｮｳｺﾞｹﾝ","cityKana":"ｺｳﾍﾞｼﾀﾙﾐｸ","streetKana":"ｼﾓﾊﾀﾁｮｳ","prefecture":"兵庫県","city":"神戸市垂水区","street":"下畑町"},{"zipCode":"6550871","prefectureKana":"ﾋｮｳｺﾞｹﾝ","cityKana":"ｺｳﾍﾞｼﾀﾙﾐｸ","streetKana":"ｼｮｳﾌｳﾀﾞｲ","prefecture":"兵庫県","city":"神戸市垂水区","street":"松風台"},{"zipCode":"6550884","prefectureKana":"ﾋｮｳｺﾞｹﾝ","cityKana":"ｺｳﾍﾞｼﾀﾙﾐｸ","streetKana":"ｼﾛｶﾞﾔﾏ","prefecture":"兵庫県","city":"神戸市垂水区","street":"城が山"},{"zipCode":"6550041","prefectureKana":"ﾋｮｳｺﾞｹﾝ","cityKana":"ｺｳﾍﾞｼﾀﾙﾐｸ","streetKana":"ｼﾝﾘｮｳﾀﾞｲ","prefecture":"兵庫県","city":"神戸市垂水区","street":"神陵台"},{"zipCode":"6550851","prefectureKana":"ﾋｮｳｺﾞｹﾝ","cityKana":"ｺｳﾍﾞｼﾀﾙﾐｸ","streetKana":"ｼﾝﾜﾀﾞｲ","prefecture":"兵庫県","city":"神戸市垂水区","street":"神和台"},{"zipCode":"6550865","prefectureKana":"ﾋｮｳｺﾞｹﾝ","cityKana":"ｺｳﾍﾞｼﾀﾙﾐｸ","streetKana":"ｾｲｹﾞﾝﾁｮｳ","prefecture":"兵庫県","city":"神戸市垂水区","street":"清玄町"},{"zipCode":"6550038","prefectureKana":"ﾋｮｳｺﾞｹﾝ","cityKana":"ｺｳﾍﾞｼﾀﾙﾐｸ","streetKana":"ｾｲﾘｮｳﾀﾞｲ","prefecture":"兵庫県","city":"神戸市垂水区","street":"星陵台"},{"zipCode":"6550016","prefectureKana":"ﾋｮｳｺﾞｹﾝ","cityKana":"ｺｳﾍﾞｼﾀﾙﾐｸ","streetKana":"ﾀｶﾏﾙ","prefecture":"兵庫県","city":"神戸市垂水区","street":"高丸"},{"zipCode":"6550007","prefectureKana":"ﾋｮｳｺﾞｹﾝ","cityKana":"ｺｳﾍﾞｼﾀﾙﾐｸ","streetKana":"ﾀﾓﾝﾀﾞｲ","prefecture":"兵庫県","city":"神戸市垂水区","street":"多聞台"},{"zipCode":"6550001","prefectureKana":"ﾋｮｳｺﾞｹﾝ","cityKana":"ｺｳﾍﾞｼﾀﾙﾐｸ","streetKana":"ﾀﾓﾝﾁｮｳ","prefecture":"兵庫県","city":"神戸市垂水区","street":"多聞町"},{"zipCode":"6550011","prefectureKana":"ﾋｮｳｺﾞｹﾝ","cityKana":"ｺｳﾍﾞｼﾀﾙﾐｸ","streetKana":"ﾁﾄﾞﾘｶﾞｵｶ","prefecture":"兵庫県","city":"神戸市垂水区","street":"千鳥が丘"},{"zipCode":"6550018","prefectureKana":"ﾋｮｳｺﾞｹﾝ","cityKana":"ｺｳﾍﾞｼﾀﾙﾐｸ","streetKana":"ﾁﾖｶﾞｵｶ","prefecture":"兵庫県","city":"神戸市垂水区","street":"千代が丘"},{"zipCode":"6550853","prefectureKana":"ﾋｮｳｺﾞｹﾝ","cityKana":"ｺｳﾍﾞｼﾀﾙﾐｸ","streetKana":"ﾂﾂｼﾞｶﾞｵｶ","prefecture":"兵庫県","city":"神戸市垂水区","street":"つつじが丘"},{"zipCode":"6550029","prefectureKana":"ﾋｮｳｺﾞｹﾝ","cityKana":"ｺｳﾍﾞｼﾀﾙﾐｸ","streetKana":"ﾃﾝﾉｼﾀﾁｮｳ","prefecture":"兵庫県","city":"神戸市垂水区","street":"天ノ下町"},{"zipCode":"6550034","prefectureKana":"ﾋｮｳｺﾞｹﾝ","cityKana":"ｺｳﾍﾞｼﾀﾙﾐｸ","streetKana":"ﾅｶﾀ","prefecture":"兵庫県","city":"神戸市垂水区","street":"仲田"},{"zipCode":"6550896","prefectureKana":"ﾋｮｳｺﾞｹﾝ","cityKana":"ｺｳﾍﾞｼﾀﾙﾐｸ","streetKana":"ﾅｶﾐﾁ","prefecture":"兵庫県","city":"神戸市垂水区","street":"中道"},{"zipCode":"6550048","prefectureKana":"ﾋｮｳｺﾞｹﾝ","cityKana":"ｺｳﾍﾞｼﾀﾙﾐｸ","streetKana":"ﾆｼﾏｲｺ","prefecture":"兵庫県","city":"神戸市垂水区","street":"西舞子"},{"zipCode":"6550042","prefectureKana":"ﾋｮｳｺﾞｹﾝ","cityKana":"ｺｳﾍﾞｼﾀﾙﾐｸ","streetKana":"ﾆｼﾜｷ","prefecture":"兵庫県","city":"神戸市垂水区","street":"西脇"},{"zipCode":"6550015","prefectureKana":"ﾋｮｳｺﾞｹﾝ","cityKana":"ｺｳﾍﾞｼﾀﾙﾐｸ","streetKana":"ﾉﾀﾞﾄﾞｵﾘ","prefecture":"兵庫県","city":"神戸市垂水区","street":"野田通"},{"zipCode":"6550021","prefectureKana":"ﾋｮｳｺﾞｹﾝ","cityKana":"ｺｳﾍﾞｼﾀﾙﾐｸ","streetKana":"ﾊﾞﾊﾞﾄﾞｵﾘ","prefecture":"兵庫県","city":"神戸市垂水区","street":"馬場通"},{"zipCode":"6550886","prefectureKana":"ﾋｮｳｺﾞｹﾝ","cityKana":"ｺｳﾍﾞｼﾀﾙﾐｸ","streetKana":"ﾋｶﾞｼﾀﾙﾐ","prefecture":"兵庫県","city":"神戸市垂水区","street":"東垂水"},{"zipCode":"6550881","prefectureKana":"ﾋｮｳｺﾞｹﾝ","cityKana":"ｺｳﾍﾞｼﾀﾙﾐｸ","streetKana":"ﾋｶﾞｼﾀﾙﾐﾁｮｳ","prefecture":"兵庫県","city":"神戸市垂水区","street":"東垂水町"},{"zipCode":"6550047","prefectureKana":"ﾋｮｳｺﾞｹﾝ","cityKana":"ｺｳﾍﾞｼﾀﾙﾐｸ","streetKana":"ﾋｶﾞｼﾏｲｺﾁｮｳ","prefecture":"兵庫県","city":"神戸市垂水区","street":"東舞子町"},{"zipCode":"6550893","prefectureKana":"ﾋｮｳｺﾞｹﾝ","cityKana":"ｺｳﾍﾞｼﾀﾙﾐｸ","streetKana":"ﾋｭｳｶﾞ","prefecture":"兵庫県","city":"神戸市垂水区","street":"日向"},{"zipCode":"6550892","prefectureKana":"ﾋｮｳｺﾞｹﾝ","cityKana":"ｺｳﾍﾞｼﾀﾙﾐｸ","streetKana":"ﾋﾗｲｿ","prefecture":"兵庫県","city":"神戸市垂水区","street":"平磯"},{"zipCode":"6550013","prefectureKana":"ﾋｮｳｺﾞｹﾝ","cityKana":"ｺｳﾍﾞｼﾀﾙﾐｸ","streetKana":"ﾌｸﾀﾞ","prefecture":"兵庫県","city":"神戸市垂水区","street":"福田"},{"zipCode":"6550032","prefectureKana":"ﾋｮｳｺﾞｹﾝ","cityKana":"ｺｳﾍﾞｼﾀﾙﾐｸ","streetKana":"ﾎｼｶﾞｵｶ","prefecture":"兵庫県","city":"神戸市垂水区","street":"星が丘"},{"zipCode":"6550006","prefectureKana":"ﾋｮｳｺﾞｹﾝ","cityKana":"ｺｳﾍﾞｼﾀﾙﾐｸ","streetKana":"ﾎﾝﾀﾓﾝ","prefecture":"兵庫県","city":"神戸市垂水区","street":"本多聞"},{"zipCode":"6550044","prefectureKana":"ﾋｮｳｺﾞｹﾝ","cityKana":"ｺｳﾍﾞｼﾀﾙﾐｸ","streetKana":"ﾏｲｺｻﾞｶ","prefecture":"兵庫県","city":"神戸市垂水区","street":"舞子坂"},{"zipCode":"6550046","prefectureKana":"ﾋｮｳｺﾞｹﾝ","cityKana":"ｺｳﾍﾞｼﾀﾙﾐｸ","streetKana":"ﾏｲｺﾀﾞｲ","prefecture":"兵庫県","city":"神戸市垂水区","street":"舞子台"},{"zipCode":"6550051","prefectureKana":"ﾋｮｳｺﾞｹﾝ","cityKana":"ｺｳﾍﾞｼﾀﾙﾐｸ","streetKana":"ﾏｲﾀﾓﾝﾆｼ","prefecture":"兵庫県","city":"神戸市垂水区","street":"舞多聞西"},{"zipCode":"6550052","prefectureKana":"ﾋｮｳｺﾞｹﾝ","cityKana":"ｺｳﾍﾞｼﾀﾙﾐｸ","streetKana":"ﾏｲﾀﾓﾝﾋｶﾞｼ","prefecture":"兵庫県","city":"神戸市垂水区","street":"舞多聞東"},{"zipCode":"6550004","prefectureKana":"ﾋｮｳｺﾞｹﾝ","cityKana":"ｺｳﾍﾞｼﾀﾙﾐｸ","streetKana":"ﾏﾅﾋﾞｶﾞｵｶ","prefecture":"兵庫県","city":"神戸市垂水区","street":"学が丘"},{"zipCode":"6550025","prefectureKana":"ﾋｮｳｺﾞｹﾝ","cityKana":"ｺｳﾍﾞｼﾀﾙﾐｸ","streetKana":"ﾐｽﾞｶﾞｵｶ","prefecture":"兵庫県","city":"神戸市垂水区","street":"瑞ケ丘"},{"zipCode":"6550022","prefectureKana":"ﾋｮｳｺﾞｹﾝ","cityKana":"ｺｳﾍﾞｼﾀﾙﾐｸ","streetKana":"ﾐｽﾞﾎﾄﾞｵﾘ","prefecture":"兵庫県","city":"神戸市垂水区","street":"瑞穂通"},{"zipCode":"6550043","prefectureKana":"ﾋｮｳｺﾞｹﾝ","cityKana":"ｺｳﾍﾞｼﾀﾙﾐｸ","streetKana":"ﾐﾅﾐﾀﾓﾝﾀﾞｲ","prefecture":"兵庫県","city":"神戸市垂水区","street":"南多聞台"},{"zipCode":"6550874","prefectureKana":"ﾋｮｳｺﾞｹﾝ","cityKana":"ｺｳﾍﾞｼﾀﾙﾐｸ","streetKana":"ﾐﾔﾏﾀﾞｲ","prefecture":"兵庫県","city":"神戸市垂水区","street":"美山台"},{"zipCode":"6550028","prefectureKana":"ﾋｮｳｺﾞｹﾝ","cityKana":"ｺｳﾍﾞｼﾀﾙﾐｸ","streetKana":"ﾐﾔﾓﾄﾁｮｳ","prefecture":"兵庫県","city":"神戸市垂水区","street":"宮本町"},{"zipCode":"6550852","prefectureKana":"ﾋｮｳｺﾞｹﾝ","cityKana":"ｺｳﾍﾞｼﾀﾙﾐｸ","streetKana":"ﾐｮｳﾀﾞﾆﾁｮｳ","prefecture":"兵庫県","city":"神戸市垂水区","street":"名谷町"},{"zipCode":"6550854","prefectureKana":"ﾋｮｳｺﾞｹﾝ","cityKana":"ｺｳﾍﾞｼﾀﾙﾐｸ","streetKana":"ﾓﾓﾔﾏﾀﾞｲ","prefecture":"兵庫県","city":"神戸市垂水区","street":"桃山台"},{"zipCode":"6550891","prefectureKana":"ﾋｮｳｺﾞｹﾝ","cityKana":"ｺｳﾍﾞｼﾀﾙﾐｸ","streetKana":"ﾔﾏﾃ","prefecture":"兵庫県","city":"神戸市垂水区","street":"山手"}]