[{"zipCode":"6670000","prefectureKana":"ﾋｮｳｺﾞｹﾝ","cityKana":"ﾔﾌﾞｼ","streetKana":"ｲｶﾆｹｲｻｲｶﾞﾅｲﾊﾞｱｲ","prefecture":"兵庫県","city":"養父市","street":"以下に掲載がない場合"},{"zipCode":"6670115","prefectureKana":"ﾋｮｳｺﾞｹﾝ","cityKana":"ﾔﾌﾞｼ","streetKana":"ｱｹﾞ","prefecture":"兵庫県","city":"養父市","street":"上箇"},{"zipCode":"6670103","prefectureKana":"ﾋｮｳｺﾞｹﾝ","cityKana":"ﾔﾌﾞｼ","streetKana":"ｱｻﾞﾉ","prefecture":"兵庫県","city":"養父市","street":"浅野"},{"zipCode":"6670104","prefectureKana":"ﾋｮｳｺﾞｹﾝ","cityKana":"ﾔﾌﾞｼ","streetKana":"ｲｽﾞ","prefecture":"兵庫県","city":"養父市","street":"伊豆"},{"zipCode":"6670132","prefectureKana":"ﾋｮｳｺﾞｹﾝ","cityKana":"ﾔﾌﾞｼ","streetKana":"ｲﾅﾂﾞ","prefecture":"兵庫県","city":"養父市","street":"稲津"},{"zipCode":"6670131","prefectureKana":"ﾋｮｳｺﾞｹﾝ","cityKana":"ﾔﾌﾞｼ","streetKana":"ｳｴﾉ","prefecture":"兵庫県","city":"養父市","street":"上野"},{"zipCode":"6671119","prefectureKana":"ﾋｮｳｺﾞｹﾝ","cityKana":"ﾔﾌﾞｼ","streetKana":"ｳﾅﾜ","prefecture":"兵庫県","city":"養父市","street":"鵜縄"},{"zipCode":"6671127","prefectureKana":"ﾋｮｳｺﾞｹﾝ","cityKana":"ﾔﾌﾞｼ","streetKana":"ｵｵｸﾎﾞ","prefecture":"兵庫県","city":"養父市","street":"大久保"},{"zipCode":"6671102","prefectureKana":"ﾋｮｳｺﾞｹﾝ","cityKana":"ﾔﾌﾞｼ","streetKana":"ｵｵﾀﾆ","prefecture":"兵庫県","city":"養父市","street":"大谷"},{"zipCode":"6670125","prefectureKana":"ﾋｮｳｺﾞｹﾝ","cityKana":"ﾔﾌﾞｼ","streetKana":"ｵｵﾂｶ","prefecture":"兵庫県","city":"養父市","street":"大塚"},{"zipCode":"6670134","prefectureKana":"ﾋｮｳｺﾞｹﾝ","cityKana":"ﾔﾌﾞｼ","streetKana":"ｵｵﾂﾎﾞ","prefecture":"兵庫県","city":"養父市","street":"大坪"},{"zipCode":"6670436","prefectureKana":"ﾋｮｳｺﾞｹﾝ","cityKana":"ﾔﾌﾞｼ","streetKana":"ｵｵﾔﾁｮｳｱｹﾉﾍﾞ","prefecture":"兵庫県","city":"養父市","street":"大屋町明延"},{"zipCode":"6670322","prefectureKana":"ﾋｮｳｺﾞｹﾝ","cityKana":"ﾔﾌﾞｼ","streetKana":"ｵｵﾔﾁｮｳｲｶﾀﾞ","prefecture":"兵庫県","city":"養父市","street":"大屋町筏"},{"zipCode":"6670431","prefectureKana":"ﾋｮｳｺﾞｹﾝ","cityKana":"ﾔﾌﾞｼ","streetKana":"ｵｵﾔﾁｮｳｲﾄﾜﾗ","prefecture":"兵庫県","city":"養父市","street":"大屋町糸原"},{"zipCode":"6670301","prefectureKana":"ﾋｮｳｺﾞｹﾝ","cityKana":"ﾔﾌﾞｼ","streetKana":"ｵｵﾔﾁｮｳｳﾔﾏ","prefecture":"兵庫県","city":"養父市","street":"大屋町上山"},{"zipCode":"6670303","prefectureKana":"ﾋｮｳｺﾞｹﾝ","cityKana":"ﾔﾌﾞｼ","streetKana":"ｵｵﾔﾁｮｳｵｳﾐ","prefecture":"兵庫県","city":"養父市","street":"大屋町おうみ"},{"zipCode":"6670314","prefectureKana":"ﾋｮｳｺﾞｹﾝ","cityKana":"ﾔﾌﾞｼ","streetKana":"ｵｵﾔﾁｮｳｵｵｽｷﾞ","prefecture":"兵庫県","city":"養父市","street":"大屋町大杉"},{"zipCode":"6670311","prefectureKana":"ﾋｮｳｺﾞｹﾝ","cityKana":"ﾔﾌﾞｼ","streetKana":"ｵｵﾔﾁｮｳｵｵﾔｲﾁﾊﾞ","prefecture":"兵庫県","city":"養父市","street":"大屋町大屋市場"},{"zipCode":"6670313","prefectureKana":"ﾋｮｳｺﾞｹﾝ","cityKana":"ﾔﾌﾞｼ","streetKana":"ｵｵﾔﾁｮｳｶｻﾀﾞﾆ","prefecture":"兵庫県","city":"養父市","street":"大屋町笠谷"},{"zipCode":"6670433","prefectureKana":"ﾋｮｳｺﾞｹﾝ","cityKana":"ﾔﾌﾞｼ","streetKana":"ｵｵﾔﾁｮｳｶﾄﾞﾉ","prefecture":"兵庫県","city":"養父市","street":"大屋町門野"},{"zipCode":"6670315","prefectureKana":"ﾋｮｳｺﾞｹﾝ","cityKana":"ﾔﾌﾞｼ","streetKana":"ｵｵﾔﾁｮｳｶﾎﾞ","prefecture":"兵庫県","city":"養父市","street":"大屋町加保"},{"zipCode":"6670321","prefectureKana":"ﾋｮｳｺﾞｹﾝ","cityKana":"ﾔﾌﾞｼ","streetKana":"ｵｵﾔﾁｮｳｸﾗｶﾞｷ","prefecture":"兵庫県","city":"養父市","street":"大屋町蔵垣"},{"zipCode":"6670325","prefectureKana":"ﾋｮｳｺﾞｹﾝ","cityKana":"ﾔﾌﾞｼ","streetKana":"ｵｵﾔﾁｮｳｸﾘﾉｼﾀ","prefecture":"兵庫県","city":"養父市","street":"大屋町栗ノ下"},{"zipCode":"6670434","prefectureKana":"ﾋｮｳｺﾞｹﾝ","cityKana":"ﾔﾌﾞｼ","streetKana":"ｵｵﾔﾁｮｳｽｻｲ","prefecture":"兵庫県","city":"養父市","street":"大屋町須西"},{"zipCode":"6670302","prefectureKana":"ﾋｮｳｺﾞｹﾝ","cityKana":"ﾔﾌﾞｼ","streetKana":"ｵｵﾔﾁｮｳﾀﾙﾐ","prefecture":"兵庫県","city":"養父市","street":"大屋町樽見"},{"zipCode":"6670304","prefectureKana":"ﾋｮｳｺﾞｹﾝ","cityKana":"ﾔﾌﾞｼ","streetKana":"ｵｵﾔﾁｮｳﾅｶ","prefecture":"兵庫県","city":"養父市","street":"大屋町中"},{"zipCode":"6670325","prefectureKana":"ﾋｮｳｺﾞｹﾝ","cityKana":"ﾔﾌﾞｼ","streetKana":"ｵｵﾔﾁｮｳﾅｶﾏ","prefecture":"兵庫県","city":"養父市","street":"大屋町中間"},{"zipCode":"6670305","prefectureKana":"ﾋｮｳｺﾞｹﾝ","cityKana":"ﾔﾌﾞｼ","streetKana":"ｵｵﾔﾁｮｳﾅﾂﾒ","prefecture":"兵庫県","city":"養父市","street":"大屋町夏梅"},{"zipCode":"6670306","prefectureKana":"ﾋｮｳｺﾞｹﾝ","cityKana":"ﾔﾌﾞｼ","streetKana":"ｵｵﾔﾁｮｳﾐﾔｶﾞｷ","prefecture":"兵庫県","city":"養父市","street":"大屋町宮垣"},{"zipCode":"6670432","prefectureKana":"ﾋｮｳｺﾞｹﾝ","cityKana":"ﾔﾌﾞｼ","streetKana":"ｵｵﾔﾁｮｳﾐﾔﾓﾄ","prefecture":"兵庫県","city":"養父市","street":"大屋町宮本"},{"zipCode":"6670312","prefectureKana":"ﾋｮｳｺﾞｹﾝ","cityKana":"ﾔﾌﾞｼ","streetKana":"ｵｵﾔﾁｮｳﾔﾏｼﾞ","prefecture":"兵庫県","city":"養父市","street":"大屋町山路"},{"zipCode":"6670304","prefectureKana":"ﾋｮｳｺﾞｹﾝ","cityKana":"ﾔﾌﾞｼ","streetKana":"ｵｵﾔﾁｮｳﾕﾗ","prefecture":"兵庫県","city":"養父市","street":"大屋町由良"},{"zipCode":"6670324","prefectureKana":"ﾋｮｳｺﾞｹﾝ","cityKana":"ﾔﾌﾞｼ","streetKana":"ｵｵﾔﾁｮｳﾖｺｲｷ","prefecture":"兵庫県","city":"養父市","street":"大屋町横行"},{"zipCode":"6670323","prefectureKana":"ﾋｮｳｺﾞｹﾝ","cityKana":"ﾔﾌﾞｼ","streetKana":"ｵｵﾔﾁｮｳﾜｶｽ","prefecture":"兵庫県","city":"養父市","street":"大屋町若杉"},{"zipCode":"6670435","prefectureKana":"ﾋｮｳｺﾞｹﾝ","cityKana":"ﾔﾌﾞｼ","streetKana":"ｵｵﾔﾁｮｳﾜﾀﾞ","prefecture":"兵庫県","city":"養父市","street":"大屋町和田"},{"zipCode":"6670111","prefectureKana":"ﾋｮｳｺﾞｹﾝ","cityKana":"ﾔﾌﾞｼ","streetKana":"ｵｵﾔﾌﾞ","prefecture":"兵庫県","city":"養父市","street":"大薮"},{"zipCode":"6670121","prefectureKana":"ﾋｮｳｺﾞｹﾝ","cityKana":"ﾔﾌﾞｼ","streetKana":"ｵｸﾒｲｼﾞ","prefecture":"兵庫県","city":"養父市","street":"奥米地"},{"zipCode":"6671104","prefectureKana":"ﾋｮｳｺﾞｹﾝ","cityKana":"ﾔﾌﾞｼ","streetKana":"ｵｻｷ","prefecture":"兵庫県","city":"養父市","street":"尾崎"},{"zipCode":"6671114","prefectureKana":"ﾋｮｳｺﾞｹﾝ","cityKana":"ﾔﾌﾞｼ","streetKana":"ｵｼﾞｺﾛ","prefecture":"兵庫県","city":"養父市","street":"小路頃"},{"zipCode":"6671115","prefectureKana":"ﾋｮｳｺﾞｹﾝ","cityKana":"ﾔﾌﾞｼ","streetKana":"ｶｽﾞﾗﾊﾀ","prefecture":"兵庫県","city":"養父市","street":"葛畑"},{"zipCode":"6670123","prefectureKana":"ﾋｮｳｺﾞｹﾝ","cityKana":"ﾔﾌﾞｼ","streetKana":"ｶﾅﾔﾒｲｼﾞ","prefecture":"兵庫県","city":"養父市","street":"鉄屋米地"},{"zipCode":"6671113","prefectureKana":"ﾋｮｳｺﾞｹﾝ","cityKana":"ﾔﾌﾞｼ","streetKana":"ｶﾜﾗﾊﾞ","prefecture":"兵庫県","city":"養父市","street":"川原場"},{"zipCode":"6671122","prefectureKana":"ﾋｮｳｺﾞｹﾝ","cityKana":"ﾔﾌﾞｼ","streetKana":"ｸｻｲﾃﾞ","prefecture":"兵庫県","city":"養父市","street":"草出"},{"zipCode":"6670124","prefectureKana":"ﾋｮｳｺﾞｹﾝ","cityKana":"ﾔﾌﾞｼ","streetKana":"ｸﾁﾒｲｼﾞ","prefecture":"兵庫県","city":"養父市","street":"口米地"},{"zipCode":"6670114","prefectureKana":"ﾋｮｳｺﾞｹﾝ","cityKana":"ﾔﾌﾞｼ","streetKana":"ｺｼﾞｮｳ","prefecture":"兵庫県","city":"養父市","street":"小城"},{"zipCode":"6670105","prefectureKana":"ﾋｮｳｺﾞｹﾝ","cityKana":"ﾔﾌﾞｼ","streetKana":"ｻｺﾔﾏ","prefecture":"兵庫県","city":"養父市","street":"左近山"},{"zipCode":"6670102","prefectureKana":"ﾋｮｳｺﾞｹﾝ","cityKana":"ﾔﾌﾞｼ","streetKana":"ｼﾞｭｳﾆｼｮ","prefecture":"兵庫県","city":"養父市","street":"十二所"},{"zipCode":"6670107","prefectureKana":"ﾋｮｳｺﾞｹﾝ","cityKana":"ﾔﾌﾞｼ","streetKana":"ｼﾝﾂﾞ","prefecture":"兵庫県","city":"養父市","street":"新津"},{"zipCode":"6671105","prefectureKana":"ﾋｮｳｺﾞｹﾝ","cityKana":"ﾔﾌﾞｼ","streetKana":"ｾｷﾉﾐﾔ","prefecture":"兵庫県","city":"養父市","street":"関宮"},{"zipCode":"6670142","prefectureKana":"ﾋｮｳｺﾞｹﾝ","cityKana":"ﾔﾌﾞｼ","streetKana":"ﾀｷﾉﾔ","prefecture":"兵庫県","city":"養父市","street":"建屋"},{"zipCode":"6670106","prefectureKana":"ﾋｮｳｺﾞｹﾝ","cityKana":"ﾔﾌﾞｼ","streetKana":"ﾀﾏﾐ","prefecture":"兵庫県","city":"養父市","street":"玉見"},{"zipCode":"6671124","prefectureKana":"ﾋｮｳｺﾞｹﾝ","cityKana":"ﾔﾌﾞｼ","streetKana":"ﾀﾝﾄﾞ","prefecture":"兵庫県","city":"養父市","street":"丹戸"},{"zipCode":"6671112","prefectureKana":"ﾋｮｳｺﾞｹﾝ","cityKana":"ﾔﾌﾞｼ","streetKana":"ﾃﾞｱｲ","prefecture":"兵庫県","city":"養父市","street":"出合"},{"zipCode":"6671117","prefectureKana":"ﾋｮｳｺﾞｹﾝ","cityKana":"ﾔﾌﾞｼ","streetKana":"ﾄﾄﾞﾛｷ","prefecture":"兵庫県","city":"養父市","street":"轟"},{"zipCode":"6671121","prefectureKana":"ﾋｮｳｺﾞｹﾝ","cityKana":"ﾔﾌﾞｼ","streetKana":"ﾄﾉ","prefecture":"兵庫県","city":"養父市","street":"外野"},{"zipCode":"6671116","prefectureKana":"ﾋｮｳｺﾞｹﾝ","cityKana":"ﾔﾌﾞｼ","streetKana":"ﾅｶｾﾞ","prefecture":"兵庫県","city":"養父市","street":"中瀬"},{"zipCode":"6670145","prefectureKana":"ﾋｮｳｺﾞｹﾝ","cityKana":"ﾔﾌﾞｼ","streetKana":"ﾅｶﾞﾉ","prefecture":"兵庫県","city":"養父市","street":"長野"},{"zipCode":"6670122","prefectureKana":"ﾋｮｳｺﾞｹﾝ","cityKana":"ﾔﾌﾞｼ","streetKana":"ﾅｶﾒｲｼﾞ","prefecture":"兵庫県","city":"養父市","street":"中米地"},{"zipCode":"6671123","prefectureKana":"ﾋｮｳｺﾞｹﾝ","cityKana":"ﾔﾌﾞｼ","streetKana":"ﾅｼｶﾞﾊﾗ","prefecture":"兵庫県","city":"養父市","street":"梨ケ原"},{"zipCode":"6671125","prefectureKana":"ﾋｮｳｺﾞｹﾝ","cityKana":"ﾔﾌﾞｼ","streetKana":"ﾅﾗｵ","prefecture":"兵庫県","city":"養父市","street":"奈良尾"},{"zipCode":"6670143","prefectureKana":"ﾋｮｳｺﾞｹﾝ","cityKana":"ﾔﾌﾞｼ","streetKana":"ﾉｳｻﾞ","prefecture":"兵庫県","city":"養父市","street":"能座"},{"zipCode":"6670133","prefectureKana":"ﾋｮｳｺﾞｹﾝ","cityKana":"ﾔﾌﾞｼ","streetKana":"ﾊﾀ","prefecture":"兵庫県","city":"養父市","street":"畑"},{"zipCode":"6670101","prefectureKana":"ﾋｮｳｺﾞｹﾝ","cityKana":"ﾔﾌﾞｼ","streetKana":"ﾋﾛﾀﾆ","prefecture":"兵庫県","city":"養父市","street":"広谷"},{"zipCode":"6671126","prefectureKana":"ﾋｮｳｺﾞｹﾝ","cityKana":"ﾔﾌﾞｼ","streetKana":"ﾌｸｻﾀﾞ","prefecture":"兵庫県","city":"養父市","street":"福定"},{"zipCode":"6670135","prefectureKana":"ﾋｮｳｺﾞｹﾝ","cityKana":"ﾔﾌﾞｼ","streetKana":"ﾌﾈﾀﾞﾆ","prefecture":"兵庫県","city":"養父市","street":"船谷"},{"zipCode":"6671128","prefectureKana":"ﾋｮｳｺﾞｹﾝ","cityKana":"ﾔﾌﾞｼ","streetKana":"ﾍﾞｯｸｳ","prefecture":"兵庫県","city":"養父市","street":"別宮"},{"zipCode":"6670126","prefectureKana":"ﾋｮｳｺﾞｹﾝ","cityKana":"ﾔﾌﾞｼ","streetKana":"ﾎﾘﾊﾀ","prefecture":"兵庫県","city":"養父市","street":"堀畑"},{"zipCode":"6671103","prefectureKana":"ﾋｮｳｺﾞｹﾝ","cityKana":"ﾔﾌﾞｼ","streetKana":"ﾏｸﾘ","prefecture":"兵庫県","city":"養父市","street":"万久里"},{"zipCode":"6670136","prefectureKana":"ﾋｮｳｺﾞｹﾝ","cityKana":"ﾔﾌﾞｼ","streetKana":"ﾐﾀﾆ","prefecture":"兵庫県","city":"養父市","street":"三谷"},{"zipCode":"6671101","prefectureKana":"ﾋｮｳｺﾞｹﾝ","cityKana":"ﾔﾌﾞｼ","streetKana":"ﾐﾔｹ","prefecture":"兵庫県","city":"養父市","street":"三宅"},{"zipCode":"6670144","prefectureKana":"ﾋｮｳｺﾞｹﾝ","cityKana":"ﾔﾌﾞｼ","streetKana":"ﾓﾁｺﾞｳﾁ","prefecture":"兵庫県","city":"養父市","street":"餅耕地"},{"zipCode":"6670141","prefectureKana":"ﾋｮｳｺﾞｹﾝ","cityKana":"ﾔﾌﾞｼ","streetKana":"ﾓﾘ","prefecture":"兵庫県","city":"養父市","street":"森"},{"zipCode":"6671118","prefectureKana":"ﾋｮｳｺﾞｹﾝ","cityKana":"ﾔﾌﾞｼ","streetKana":"ﾔｽｲ","prefecture":"兵庫県","city":"養父市","street":"安井"},{"zipCode":"6670112","prefectureKana":"ﾋｮｳｺﾞｹﾝ","cityKana":"ﾔﾌﾞｼ","streetKana":"ﾔﾌﾞｲﾁﾊﾞ","prefecture":"兵庫県","city":"養父市","street":"養父市場"},{"zipCode":"6670113","prefectureKana":"ﾋｮｳｺﾞｹﾝ","cityKana":"ﾔﾌﾞｼ","streetKana":"ﾔﾌﾞｻｷ","prefecture":"兵庫県","city":"養父市","street":"薮崎"},{"zipCode":"6670001","prefectureKana":"ﾋｮｳｺﾞｹﾝ","cityKana":"ﾔﾌﾞｼ","streetKana":"ﾖｳｶﾁｮｳｱｵﾔﾏ","prefecture":"兵庫県","city":"養父市","street":"八鹿町青山"},{"zipCode":"6670024","prefectureKana":"ﾋｮｳｺﾞｹﾝ","cityKana":"ﾔﾌﾞｼ","streetKana":"ﾖｳｶﾁｮｳｱｻｸﾗ","prefecture":"兵庫県","city":"養父市","street":"八鹿町朝倉"},{"zipCode":"6670011","prefectureKana":"ﾋｮｳｺﾞｹﾝ","cityKana":"ﾔﾌﾞｼ","streetKana":"ﾖｳｶﾁｮｳｱｻﾏ","prefecture":"兵庫県","city":"養父市","street":"八鹿町浅間"},{"zipCode":"6670012","prefectureKana":"ﾋｮｳｺﾞｹﾝ","cityKana":"ﾔﾌﾞｼ","streetKana":"ﾖｳｶﾁｮｳｲｻﾞ","prefecture":"兵庫県","city":"養父市","street":"八鹿町伊佐"},{"zipCode":"6670051","prefectureKana":"ﾋｮｳｺﾞｹﾝ","cityKana":"ﾔﾌﾞｼ","streetKana":"ﾖｳｶﾁｮｳｲｼﾊﾗ","prefecture":"兵庫県","city":"養父市","street":"八鹿町石原"},{"zipCode":"6670014","prefectureKana":"ﾋｮｳｺﾞｹﾝ","cityKana":"ﾔﾌﾞｼ","streetKana":"ﾖｳｶﾁｮｳｲﾜｻｲ","prefecture":"兵庫県","city":"養父市","street":"八鹿町岩崎"},{"zipCode":"6670015","prefectureKana":"ﾋｮｳｺﾞｹﾝ","cityKana":"ﾔﾌﾞｼ","streetKana":"ﾖｳｶﾁｮｳｵｵｴ","prefecture":"兵庫県","city":"養父市","street":"八鹿町大江"},{"zipCode":"6670053","prefectureKana":"ﾋｮｳｺﾞｹﾝ","cityKana":"ﾔﾌﾞｼ","streetKana":"ﾖｳｶﾁｮｳｵｻ","prefecture":"兵庫県","city":"養父市","street":"八鹿町小佐"},{"zipCode":"6670004","prefectureKana":"ﾋｮｳｺﾞｹﾝ","cityKana":"ﾔﾌﾞｼ","streetKana":"ﾖｳｶﾁｮｳｶﾐｵﾀﾞ","prefecture":"兵庫県","city":"養父市","street":"八鹿町上小田"},{"zipCode":"6670023","prefectureKana":"ﾋｮｳｺﾞｹﾝ","cityKana":"ﾔﾌﾞｼ","streetKana":"ﾖｳｶﾁｮｳｶﾐﾅﾝﾊﾞ","prefecture":"兵庫県","city":"養父市","street":"八鹿町上網場"},{"zipCode":"6670044","prefectureKana":"ﾋｮｳｺﾞｹﾝ","cityKana":"ﾔﾌﾞｼ","streetKana":"ﾖｳｶﾁｮｳｸﾇｷﾞ","prefecture":"兵庫県","city":"養父市","street":"八鹿町国木"},{"zipCode":"6670031","prefectureKana":"ﾋｮｳｺﾞｹﾝ","cityKana":"ﾔﾌﾞｼ","streetKana":"ﾖｳｶﾁｮｳｸﾛｸ","prefecture":"兵庫県","city":"養父市","street":"八鹿町九鹿"},{"zipCode":"6670032","prefectureKana":"ﾋｮｳｺﾞｹﾝ","cityKana":"ﾔﾌﾞｼ","streetKana":"ﾖｳｶﾁｮｳｺﾔﾏ","prefecture":"兵庫県","city":"養父市","street":"八鹿町小山"},{"zipCode":"6670042","prefectureKana":"ﾋｮｳｺﾞｹﾝ","cityKana":"ﾔﾌﾞｼ","streetKana":"ﾖｳｶﾁｮｳｺﾝﾘｭｳｼﾞ","prefecture":"兵庫県","city":"養父市","street":"八鹿町今滝寺"},{"zipCode":"6670013","prefectureKana":"ﾋｮｳｺﾞｹﾝ","cityKana":"ﾔﾌﾞｼ","streetKana":"ﾖｳｶﾁｮｳｻｶﾓﾄ","prefecture":"兵庫県","city":"養父市","street":"八鹿町坂本"},{"zipCode":"6670005","prefectureKana":"ﾋｮｳｺﾞｹﾝ","cityKana":"ﾔﾌﾞｼ","streetKana":"ﾖｳｶﾁｮｳｼﾓｵﾀﾞ","prefecture":"兵庫県","city":"養父市","street":"八鹿町下小田"},{"zipCode":"6670022","prefectureKana":"ﾋｮｳｺﾞｹﾝ","cityKana":"ﾔﾌﾞｼ","streetKana":"ﾖｳｶﾁｮｳｼﾓﾅﾝﾊﾞ","prefecture":"兵庫県","city":"養父市","street":"八鹿町下網場"},{"zipCode":"6670003","prefectureKana":"ﾋｮｳｺﾞｹﾝ","cityKana":"ﾔﾌﾞｼ","streetKana":"ﾖｳｶﾁｮｳｼｭｸﾅﾐ","prefecture":"兵庫県","city":"養父市","street":"八鹿町宿南"},{"zipCode":"6670043","prefectureKana":"ﾋｮｳｺﾞｹﾝ","cityKana":"ﾔﾌﾞｼ","streetKana":"ﾖｳｶﾁｮｳﾀｶﾔﾅｷﾞ","prefecture":"兵庫県","city":"養父市","street":"八鹿町高柳"},{"zipCode":"6670052","prefectureKana":"ﾋｮｳｺﾞｹﾝ","cityKana":"ﾔﾌﾞｼ","streetKana":"ﾖｳｶﾁｮｳﾋﾊﾞﾀ","prefecture":"兵庫県","city":"養父市","street":"八鹿町日畑"},{"zipCode":"6670016","prefectureKana":"ﾋｮｳｺﾞｹﾝ","cityKana":"ﾔﾌﾞｼ","streetKana":"ﾖｳｶﾁｮｳﾌﾞｷｮｳ","prefecture":"兵庫県","city":"養父市","street":"八鹿町舞狂"},{"zipCode":"6670002","prefectureKana":"ﾋｮｳｺﾞｹﾝ","cityKana":"ﾔﾌﾞｼ","streetKana":"ﾖｳｶﾁｮｳﾐﾀﾆ","prefecture":"兵庫県","city":"養父市","street":"八鹿町三谷"},{"zipCode":"6670045","prefectureKana":"ﾋｮｳｺﾞｹﾝ","cityKana":"ﾔﾌﾞｼ","streetKana":"ﾖｳｶﾁｮｳﾒｲﾘ","prefecture":"兵庫県","city":"養父市","street":"八鹿町米里"},{"zipCode":"6670041","prefectureKana":"ﾋｮｳｺﾞｹﾝ","cityKana":"ﾔﾌﾞｼ","streetKana":"ﾖｳｶﾁｮｳﾔｷﾞ","prefecture":"兵庫県","city":"養父市","street":"八鹿町八木"},{"zipCode":"6670021","prefectureKana":"ﾋｮｳｺﾞｹﾝ","cityKana":"ﾔﾌﾞｼ","streetKana":"ﾖｳｶﾁｮｳﾖｳｶ","prefecture":"兵庫県","city":"養父市","street":"八鹿町八鹿"},{"zipCode":"6671111","prefectureKana":"ﾋｮｳｺﾞｹﾝ","cityKana":"ﾔﾌﾞｼ","streetKana":"ﾖｼｲ","prefecture":"兵庫県","city":"養父市","street":"吉井"},{"zipCode":"6671533","prefectureKana":"ﾋｮｳｺﾞｹﾝ","cityKana":"ﾐｶﾀｸﾞﾝｶﾐﾁｮｳ","streetKana":"ｵｼﾞﾛｸｱｷｵｶ","prefecture":"兵庫県","city":"美方郡香美町","street":"小代区秋岡"},{"zipCode":"6671512","prefectureKana":"ﾋｮｳｺﾞｹﾝ","cityKana":"ﾐｶﾀｸﾞﾝｶﾐﾁｮｳ","streetKana":"ｵｼﾞﾛｸｲｼﾃﾞﾗ","prefecture":"兵庫県","city":"美方郡香美町","street":"小代区石寺"},{"zipCode":"6671503","prefectureKana":"ﾋｮｳｺﾞｹﾝ","cityKana":"ﾐｶﾀｸﾞﾝｶﾐﾁｮｳ","streetKana":"ｵｼﾞﾛｸｵｵﾀﾆ","prefecture":"兵庫県","city":"美方郡香美町","street":"小代区大谷"},{"zipCode":"6671542","prefectureKana":"ﾋｮｳｺﾞｹﾝ","cityKana":"ﾐｶﾀｸﾞﾝｶﾐﾁｮｳ","streetKana":"ｵｼﾞﾛｸｶｼﾞﾔ","prefecture":"兵庫県","city":"美方郡香美町","street":"小代区鍛治屋"},{"zipCode":"6671531","prefectureKana":"ﾋｮｳｺﾞｹﾝ","cityKana":"ﾐｶﾀｸﾞﾝｶﾐﾁｮｳ","streetKana":"ｵｼﾞﾛｸｶﾔﾉ","prefecture":"兵庫県","city":"美方郡香美町","street":"小代区茅野"},{"zipCode":"6671511","prefectureKana":"ﾋｮｳｺﾞｹﾝ","cityKana":"ﾐｶﾀｸﾞﾝｶﾐﾁｮｳ","streetKana":"ｵｼﾞﾛｸｶﾝｽﾞｲ","prefecture":"兵庫県","city":"美方郡香美町","street":"小代区神水"},{"zipCode":"6671514","prefectureKana":"ﾋｮｳｺﾞｹﾝ","cityKana":"ﾐｶﾀｸﾞﾝｶﾐﾁｮｳ","streetKana":"ｵｼﾞﾛｸｶﾝﾊﾞ","prefecture":"兵庫県","city":"美方郡香美町","street":"小代区神場"},{"zipCode":"6671501","prefectureKana":"ﾋｮｳｺﾞｹﾝ","cityKana":"ﾐｶﾀｸﾞﾝｶﾐﾁｮｳ","streetKana":"ｵｼﾞﾛｸｸｽﾍﾞ","prefecture":"兵庫県","city":"美方郡香美町","street":"小代区久須部"},{"zipCode":"6671522","prefectureKana":"ﾋｮｳｺﾞｹﾝ","cityKana":"ﾐｶﾀｸﾞﾝｶﾐﾁｮｳ","streetKana":"ｵｼﾞﾛｸｻﾈﾔﾏ","prefecture":"兵庫県","city":"美方郡香美町","street":"小代区実山"},{"zipCode":"6671541","prefectureKana":"ﾋｮｳｺﾞｹﾝ","cityKana":"ﾐｶﾀｸﾞﾝｶﾐﾁｮｳ","streetKana":"ｵｼﾞﾛｸｻﾎﾞｳ","prefecture":"兵庫県","city":"美方郡香美町","street":"小代区佐坊"},{"zipCode":"6671502","prefectureKana":"ﾋｮｳｺﾞｹﾝ","cityKana":"ﾐｶﾀｸﾞﾝｶﾐﾁｮｳ","streetKana":"ｵｼﾞﾛｸｼﾞｮｳﾔﾏ","prefecture":"兵庫県","city":"美方郡香美町","street":"小代区城山"},{"zipCode":"6671543","prefectureKana":"ﾋｮｳｺﾞｹﾝ","cityKana":"ﾐｶﾀｸﾞﾝｶﾐﾁｮｳ","streetKana":"ｵｼﾞﾛｸﾀﾀﾞﾉﾐﾔ","prefecture":"兵庫県","city":"美方郡香美町","street":"小代区忠宮"},{"zipCode":"6671532","prefectureKana":"ﾋｮｳｺﾞｹﾝ","cityKana":"ﾐｶﾀｸﾞﾝｶﾐﾁｮｳ","streetKana":"ｵｼﾞﾛｸﾆｲﾔ","prefecture":"兵庫県","city":"美方郡香美町","street":"小代区新屋"},{"zipCode":"6671544","prefectureKana":"ﾋｮｳｺﾞｹﾝ","cityKana":"ﾐｶﾀｸﾞﾝｶﾐﾁｮｳ","streetKana":"ｵｼﾞﾛｸﾇｷﾀﾞ","prefecture":"兵庫県","city":"美方郡香美町","street":"小代区貫田"},{"zipCode":"6671521","prefectureKana":"ﾋｮｳｺﾞｹﾝ","cityKana":"ﾐｶﾀｸﾞﾝｶﾐﾁｮｳ","streetKana":"ｵｼﾞﾛｸﾉﾏﾀﾆ","prefecture":"兵庫県","city":"美方郡香美町","street":"小代区野間谷"},{"zipCode":"6671545","prefectureKana":"ﾋｮｳｺﾞｹﾝ","cityKana":"ﾐｶﾀｸﾞﾝｶﾐﾁｮｳ","streetKana":"ｵｼﾞﾛｸﾋｶﾞｼｶﾞｷ","prefecture":"兵庫県","city":"美方郡香美町","street":"小代区東垣"},{"zipCode":"6671523","prefectureKana":"ﾋｮｳｺﾞｹﾝ","cityKana":"ﾐｶﾀｸﾞﾝｶﾐﾁｮｳ","streetKana":"ｵｼﾞﾛｸﾋﾗﾉ","prefecture":"兵庫県","city":"美方郡香美町","street":"小代区平野"},{"zipCode":"6671513","prefectureKana":"ﾋｮｳｺﾞｹﾝ","cityKana":"ﾐｶﾀｸﾞﾝｶﾐﾁｮｳ","streetKana":"ｵｼﾞﾛｸﾋﾛｲ","prefecture":"兵庫県","city":"美方郡香美町","street":"小代区広井"},{"zipCode":"6671515","prefectureKana":"ﾋｮｳｺﾞｹﾝ","cityKana":"ﾐｶﾀｸﾞﾝｶﾐﾁｮｳ","streetKana":"ｵｼﾞﾛｸﾐｽﾞﾏ","prefecture":"兵庫県","city":"美方郡香美町","street":"小代区水間"},{"zipCode":"6671312","prefectureKana":"ﾋｮｳｺﾞｹﾝ","cityKana":"ﾐｶﾀｸﾞﾝｶﾐﾁｮｳ","streetKana":"ﾑﾗｵｶｸｱｲﾀﾞ","prefecture":"兵庫県","city":"美方郡香美町","street":"村岡区相田"},{"zipCode":"6671346","prefectureKana":"ﾋｮｳｺﾞｹﾝ","cityKana":"ﾐｶﾀｸﾞﾝｶﾐﾁｮｳ","streetKana":"ﾑﾗｵｶｸｲｹｶﾞﾅﾙ","prefecture":"兵庫県","city":"美方郡香美町","street":"村岡区池ケ平"},{"zipCode":"6671315","prefectureKana":"ﾋｮｳｺﾞｹﾝ","cityKana":"ﾐｶﾀｸﾞﾝｶﾐﾁｮｳ","streetKana":"ﾑﾗｵｶｸｲﾀｼﾉ","prefecture":"兵庫県","city":"美方郡香美町","street":"村岡区板仕野"},{"zipCode":"6671324","prefectureKana":"ﾋｮｳｺﾞｹﾝ","cityKana":"ﾐｶﾀｸﾞﾝｶﾐﾁｮｳ","streetKana":"ﾑﾗｵｶｸｲﾁﾊﾞﾗ","prefecture":"兵庫県","city":"美方郡香美町","street":"村岡区市原"},{"zipCode":"6671368","prefectureKana":"ﾋｮｳｺﾞｹﾝ","cityKana":"ﾐｶﾀｸﾞﾝｶﾐﾁｮｳ","streetKana":"ﾑﾗｵｶｸｲﾘｴ","prefecture":"兵庫県","city":"美方郡香美町","street":"村岡区入江"},{"zipCode":"6671344","prefectureKana":"ﾋｮｳｺﾞｹﾝ","cityKana":"ﾐｶﾀｸﾞﾝｶﾐﾁｮｳ","streetKana":"ﾑﾗｵｶｸｵｵｻｻ","prefecture":"兵庫県","city":"美方郡香美町","street":"村岡区大笹"},{"zipCode":"6671321","prefectureKana":"ﾋｮｳｺﾞｹﾝ","cityKana":"ﾐｶﾀｸﾞﾝｶﾐﾁｮｳ","streetKana":"ﾑﾗｵｶｸｵｵﾇｶ","prefecture":"兵庫県","city":"美方郡香美町","street":"村岡区大糠"},{"zipCode":"6671333","prefectureKana":"ﾋｮｳｺﾞｹﾝ","cityKana":"ﾐｶﾀｸﾞﾝｶﾐﾁｮｳ","streetKana":"ﾑﾗｵｶｸｵｵﾉ","prefecture":"兵庫県","city":"美方郡香美町","street":"村岡区大野"},{"zipCode":"6671323","prefectureKana":"ﾋｮｳｺﾞｹﾝ","cityKana":"ﾐｶﾀｸﾞﾝｶﾐﾁｮｳ","streetKana":"ﾑﾗｵｶｸｶｶﾔﾏ","prefecture":"兵庫県","city":"美方郡香美町","street":"村岡区耀山"},{"zipCode":"6671366","prefectureKana":"ﾋｮｳｺﾞｹﾝ","cityKana":"ﾐｶﾀｸﾞﾝｶﾐﾁｮｳ","streetKana":"ﾑﾗｵｶｸｶﾜｲ","prefecture":"兵庫県","city":"美方郡香美町","street":"村岡区川会"},{"zipCode":"6671313","prefectureKana":"ﾋｮｳｺﾞｹﾝ","cityKana":"ﾐｶﾀｸﾞﾝｶﾐﾁｮｳ","streetKana":"ﾑﾗｵｶｸｶﾝｻﾞｶ","prefecture":"兵庫県","city":"美方郡香美町","street":"村岡区神坂"},{"zipCode":"6671342","prefectureKana":"ﾋｮｳｺﾞｹﾝ","cityKana":"ﾐｶﾀｸﾞﾝｶﾐﾁｮｳ","streetKana":"ﾑﾗｵｶｸｸﾁｵｵﾀﾆ","prefecture":"兵庫県","city":"美方郡香美町","street":"村岡区口大谷"},{"zipCode":"6671353","prefectureKana":"ﾋｮｳｺﾞｹﾝ","cityKana":"ﾐｶﾀｸﾞﾝｶﾐﾁｮｳ","streetKana":"ﾑﾗｵｶｸｸﾏﾅﾐ","prefecture":"兵庫県","city":"美方郡香美町","street":"村岡区熊波"},{"zipCode":"6671335","prefectureKana":"ﾋｮｳｺﾞｹﾝ","cityKana":"ﾐｶﾀｸﾞﾝｶﾐﾁｮｳ","streetKana":"ﾑﾗｵｶｸｸﾛﾀﾞ","prefecture":"兵庫県","city":"美方郡香美町","street":"村岡区黒田"},{"zipCode":"6671354","prefectureKana":"ﾋｮｳｺﾞｹﾝ","cityKana":"ﾐｶﾀｸﾞﾝｶﾐﾁｮｳ","streetKana":"ﾑﾗｵｶｸｹﾋﾞｵｶ","prefecture":"兵庫県","city":"美方郡香美町","street":"村岡区柤岡"},{"zipCode":"6671326","prefectureKana":"ﾋｮｳｺﾞｹﾝ","cityKana":"ﾐｶﾀｸﾞﾝｶﾐﾁｮｳ","streetKana":"ﾑﾗｵｶｸｺｳﾖｳ","prefecture":"兵庫県","city":"美方郡香美町","street":"村岡区光陽"},{"zipCode":"6671303","prefectureKana":"ﾋｮｳｺﾞｹﾝ","cityKana":"ﾐｶﾀｸﾞﾝｶﾐﾁｮｳ","streetKana":"ﾑﾗｵｶｸｺｼﾞｮｳ","prefecture":"兵庫県","city":"美方郡香美町","street":"村岡区小城"},{"zipCode":"6671301","prefectureKana":"ﾋｮｳｺﾞｹﾝ","cityKana":"ﾐｶﾀｸﾞﾝｶﾐﾁｮｳ","streetKana":"ﾑﾗｵｶｸｻｶｲ","prefecture":"兵庫県","city":"美方郡香美町","street":"村岡区境"},{"zipCode":"6671316","prefectureKana":"ﾋｮｳｺﾞｹﾝ","cityKana":"ﾐｶﾀｸﾞﾝｶﾐﾁｮｳ","streetKana":"ﾑﾗｵｶｸｼｶﾀﾞ","prefecture":"兵庫県","city":"美方郡香美町","street":"村岡区鹿田"},{"zipCode":"6671325","prefectureKana":"ﾋｮｳｺﾞｹﾝ","cityKana":"ﾐｶﾀｸﾞﾝｶﾐﾁｮｳ","streetKana":"ﾑﾗｵｶｸﾀｶｲ","prefecture":"兵庫県","city":"美方郡香美町","street":"村岡区高井"},{"zipCode":"6671345","prefectureKana":"ﾋｮｳｺﾞｹﾝ","cityKana":"ﾐｶﾀｸﾞﾝｶﾐﾁｮｳ","streetKana":"ﾑﾗｵｶｸﾀｶｻｶ","prefecture":"兵庫県","city":"美方郡香美町","street":"村岡区高坂"},{"zipCode":"6671365","prefectureKana":"ﾋｮｳｺﾞｹﾝ","cityKana":"ﾐｶﾀｸﾞﾝｶﾐﾁｮｳ","streetKana":"ﾑﾗｵｶｸﾀｶﾂﾞ","prefecture":"兵庫県","city":"美方郡香美町","street":"村岡区高津"},{"zipCode":"6671331","prefectureKana":"ﾋｮｳｺﾞｹﾝ","cityKana":"ﾐｶﾀｸﾞﾝｶﾐﾁｮｳ","streetKana":"ﾑﾗｵｶｸﾂｸﾘﾔﾏ","prefecture":"兵庫県","city":"美方郡香美町","street":"村岡区作山"},{"zipCode":"6671322","prefectureKana":"ﾋｮｳｺﾞｹﾝ","cityKana":"ﾐｶﾀｸﾞﾝｶﾐﾁｮｳ","streetKana":"ﾑﾗｵｶｸﾃﾗｶﾞﾜｳﾁ","prefecture":"兵庫県","city":"美方郡香美町","street":"村岡区寺河内"},{"zipCode":"6671352","prefectureKana":"ﾋｮｳｺﾞｹﾝ","cityKana":"ﾐｶﾀｸﾞﾝｶﾐﾁｮｳ","streetKana":"ﾑﾗｵｶｸﾅｶﾞｲﾀ","prefecture":"兵庫県","city":"美方郡香美町","street":"村岡区長板"},{"zipCode":"6671343","prefectureKana":"ﾋｮｳｺﾞｹﾝ","cityKana":"ﾐｶﾀｸﾞﾝｶﾐﾁｮｳ","streetKana":"ﾑﾗｵｶｸﾅｶｵｵﾀﾆ","prefecture":"兵庫県","city":"美方郡香美町","street":"村岡区中大谷"},{"zipCode":"6671364","prefectureKana":"ﾋｮｳｺﾞｹﾝ","cityKana":"ﾐｶﾀｸﾞﾝｶﾐﾁｮｳ","streetKana":"ﾑﾗｵｶｸﾅｶﾞｽ","prefecture":"兵庫県","city":"美方郡香美町","street":"村岡区長須"},{"zipCode":"6671361","prefectureKana":"ﾋｮｳｺﾞｹﾝ","cityKana":"ﾐｶﾀｸﾞﾝｶﾐﾁｮｳ","streetKana":"ﾑﾗｵｶｸﾅｶﾞｾ","prefecture":"兵庫県","city":"美方郡香美町","street":"村岡区長瀬"},{"zipCode":"6671314","prefectureKana":"ﾋｮｳｺﾞｹﾝ","cityKana":"ﾐｶﾀｸﾞﾝｶﾐﾁｮｳ","streetKana":"ﾑﾗｵｶｸﾊｷﾞﾔﾏ","prefecture":"兵庫県","city":"美方郡香美町","street":"村岡区萩山"},{"zipCode":"6671362","prefectureKana":"ﾋｮｳｺﾞｹﾝ","cityKana":"ﾐｶﾀｸﾞﾝｶﾐﾁｮｳ","streetKana":"ﾑﾗｵｶｸﾊﾗ","prefecture":"兵庫県","city":"美方郡香美町","street":"村岡区原"},{"zipCode":"6671337","prefectureKana":"ﾋｮｳｺﾞｹﾝ","cityKana":"ﾐｶﾀｸﾞﾝｶﾐﾁｮｳ","streetKana":"ﾑﾗｵｶｸﾋｶｹﾞ","prefecture":"兵庫県","city":"美方郡香美町","street":"村岡区日影"},{"zipCode":"6671334","prefectureKana":"ﾋｮｳｺﾞｹﾝ","cityKana":"ﾐｶﾀｸﾞﾝｶﾐﾁｮｳ","streetKana":"ﾑﾗｵｶｸﾌｸｵｶ","prefecture":"兵庫県","city":"美方郡香美町","street":"村岡区福岡"},{"zipCode":"6671351","prefectureKana":"ﾋｮｳｺﾞｹﾝ","cityKana":"ﾐｶﾀｸﾞﾝｶﾐﾁｮｳ","streetKana":"ﾑﾗｵｶｸﾏﾙﾐ","prefecture":"兵庫県","city":"美方郡香美町","street":"村岡区丸味"},{"zipCode":"6671363","prefectureKana":"ﾋｮｳｺﾞｹﾝ","cityKana":"ﾐｶﾀｸﾞﾝｶﾐﾁｮｳ","streetKana":"ﾑﾗｵｶｸﾐﾄﾞﾘ","prefecture":"兵庫県","city":"美方郡香美町","street":"村岡区味取"},{"zipCode":"6671311","prefectureKana":"ﾋｮｳｺﾞｹﾝ","cityKana":"ﾐｶﾀｸﾞﾝｶﾐﾁｮｳ","streetKana":"ﾑﾗｵｶｸﾑﾗｵｶ","prefecture":"兵庫県","city":"美方郡香美町","street":"村岡区村岡"},{"zipCode":"6671341","prefectureKana":"ﾋｮｳｺﾞｹﾝ","cityKana":"ﾐｶﾀｸﾞﾝｶﾐﾁｮｳ","streetKana":"ﾑﾗｵｶｸﾓﾘﾜｷ","prefecture":"兵庫県","city":"美方郡香美町","street":"村岡区森脇"},{"zipCode":"6671332","prefectureKana":"ﾋｮｳｺﾞｹﾝ","cityKana":"ﾐｶﾀｸﾞﾝｶﾐﾁｮｳ","streetKana":"ﾑﾗｵｶｸﾔｲﾀﾞﾆ","prefecture":"兵庫県","city":"美方郡香美町","street":"村岡区八井谷"},{"zipCode":"6671336","prefectureKana":"ﾋｮｳｺﾞｹﾝ","cityKana":"ﾐｶﾀｸﾞﾝｶﾐﾁｮｳ","streetKana":"ﾑﾗｵｶｸﾔﾄﾞ","prefecture":"兵庫県","city":"美方郡香美町","street":"村岡区宿"},{"zipCode":"6671302","prefectureKana":"ﾋｮｳｺﾞｹﾝ","cityKana":"ﾐｶﾀｸﾞﾝｶﾐﾁｮｳ","streetKana":"ﾑﾗｵｶｸﾔﾏﾀﾞ","prefecture":"兵庫県","city":"美方郡香美町","street":"村岡区山田"},{"zipCode":"6671317","prefectureKana":"ﾋｮｳｺﾞｹﾝ","cityKana":"ﾐｶﾀｸﾞﾝｶﾐﾁｮｳ","streetKana":"ﾑﾗｵｶｸﾖｳﾉ","prefecture":"兵庫県","city":"美方郡香美町","street":"村岡区用野"},{"zipCode":"6671304","prefectureKana":"ﾋｮｳｺﾞｹﾝ","cityKana":"ﾐｶﾀｸﾞﾝｶﾐﾁｮｳ","streetKana":"ﾑﾗｵｶｸﾜｻﾌﾞ","prefecture":"兵庫県","city":"美方郡香美町","street":"村岡区和佐父"},{"zipCode":"6671367","prefectureKana":"ﾋｮｳｺﾞｹﾝ","cityKana":"ﾐｶﾀｸﾞﾝｶﾐﾁｮｳ","streetKana":"ﾑﾗｵｶｸﾜﾀﾞ","prefecture":"兵庫県","city":"美方郡香美町","street":"村岡区和田"},{"zipCode":"6671347","prefectureKana":"ﾋｮｳｺﾞｹﾝ","cityKana":"ﾐｶﾀｸﾞﾝｶﾐﾁｮｳ","streetKana":"ﾑﾗｵｶｸﾜﾁ","prefecture":"兵庫県","city":"美方郡香美町","street":"村岡区和池"}]