[{"zipCode":"6810000","prefectureKana":"ﾄｯﾄﾘｹﾝ","cityKana":"ｲﾜﾐｸﾞﾝｲﾜﾐﾁｮｳ","streetKana":"ｲｶﾆｹｲｻｲｶﾞﾅｲﾊﾞｱｲ","prefecture":"鳥取県","city":"岩美郡岩美町","street":"以下に掲載がない場合"},{"zipCode":"6810002","prefectureKana":"ﾄｯﾄﾘｹﾝ","cityKana":"ｲﾜﾐｸﾞﾝｲﾜﾐﾁｮｳ","streetKana":"ｱｲﾀﾞﾆ","prefecture":"鳥取県","city":"岩美郡岩美町","street":"相谷"},{"zipCode":"6810036","prefectureKana":"ﾄｯﾄﾘｹﾝ","cityKana":"ｲﾜﾐｸﾞﾝｲﾜﾐﾁｮｳ","streetKana":"ｱｲﾔﾏ","prefecture":"鳥取県","city":"岩美郡岩美町","street":"相山"},{"zipCode":"6810074","prefectureKana":"ﾄｯﾄﾘｹﾝ","cityKana":"ｲﾜﾐｸﾞﾝｲﾜﾐﾁｮｳ","streetKana":"ｱｼﾞﾛ","prefecture":"鳥取県","city":"岩美郡岩美町","street":"網代"},{"zipCode":"6810032","prefectureKana":"ﾄｯﾄﾘｹﾝ","cityKana":"ｲﾜﾐｸﾞﾝｲﾜﾐﾁｮｳ","streetKana":"ｱﾗｲ","prefecture":"鳥取県","city":"岩美郡岩美町","street":"洗井"},{"zipCode":"6810055","prefectureKana":"ﾄｯﾄﾘｹﾝ","cityKana":"ｲﾜﾐｸﾞﾝｲﾜﾐﾁｮｳ","streetKana":"ｱﾗｶﾈ","prefecture":"鳥取県","city":"岩美郡岩美町","street":"荒金"},{"zipCode":"6810047","prefectureKana":"ﾄｯﾄﾘｹﾝ","cityKana":"ｲﾜﾐｸﾞﾝｲﾜﾐﾁｮｳ","streetKana":"ｲｹﾀﾞﾆ","prefecture":"鳥取県","city":"岩美郡岩美町","street":"池谷"},{"zipCode":"6810024","prefectureKana":"ﾄｯﾄﾘｹﾝ","cityKana":"ｲﾜﾐｸﾞﾝｲﾜﾐﾁｮｳ","streetKana":"ｲﾜｲ","prefecture":"鳥取県","city":"岩美郡岩美町","street":"岩井"},{"zipCode":"6810052","prefectureKana":"ﾄｯﾄﾘｹﾝ","cityKana":"ｲﾜﾐｸﾞﾝｲﾜﾐﾁｮｳ","streetKana":"ｲﾜﾂﾈ","prefecture":"鳥取県","city":"岩美郡岩美町","street":"岩常"},{"zipCode":"6810072","prefectureKana":"ﾄｯﾄﾘｹﾝ","cityKana":"ｲﾜﾐｸﾞﾝｲﾜﾐﾁｮｳ","streetKana":"ｲﾜﾓﾄ","prefecture":"鳥取県","city":"岩美郡岩美町","street":"岩本"},{"zipCode":"6810054","prefectureKana":"ﾄｯﾄﾘｹﾝ","cityKana":"ｲﾜﾐｸﾞﾝｲﾜﾐﾁｮｳ","streetKana":"ｲﾝﾅｲ","prefecture":"鳥取県","city":"岩美郡岩美町","street":"院内"},{"zipCode":"6810025","prefectureKana":"ﾄｯﾄﾘｹﾝ","cityKana":"ｲﾜﾐｸﾞﾝｲﾜﾐﾁｮｳ","streetKana":"ｳｼﾞ","prefecture":"鳥取県","city":"岩美郡岩美町","street":"宇治"},{"zipCode":"6810003","prefectureKana":"ﾄｯﾄﾘｹﾝ","cityKana":"ｲﾜﾐｸﾞﾝｲﾜﾐﾁｮｳ","streetKana":"ｳﾗﾄﾞﾒ","prefecture":"鳥取県","city":"岩美郡岩美町","street":"浦富"},{"zipCode":"6810046","prefectureKana":"ﾄｯﾄﾘｹﾝ","cityKana":"ｲﾜﾐｸﾞﾝｲﾜﾐﾁｮｳ","streetKana":"ｴﾝｺﾞｳｼﾞ","prefecture":"鳥取県","city":"岩美郡岩美町","street":"延興寺"},{"zipCode":"6810043","prefectureKana":"ﾄｯﾄﾘｹﾝ","cityKana":"ｲﾜﾐｸﾞﾝｲﾜﾐﾁｮｳ","streetKana":"ｵｵｻｶ","prefecture":"鳥取県","city":"岩美郡岩美町","street":"大坂"},{"zipCode":"6810063","prefectureKana":"ﾄｯﾄﾘｹﾝ","cityKana":"ｲﾜﾐｸﾞﾝｲﾜﾐﾁｮｳ","streetKana":"ｵｵﾀ","prefecture":"鳥取県","city":"岩美郡岩美町","street":"太田"},{"zipCode":"6810073","prefectureKana":"ﾄｯﾄﾘｹﾝ","cityKana":"ｲﾜﾐｸﾞﾝｲﾜﾐﾁｮｳ","streetKana":"ｵｵﾀﾆ","prefecture":"鳥取県","city":"岩美郡岩美町","street":"大谷"},{"zipCode":"6810014","prefectureKana":"ﾄｯﾄﾘｹﾝ","cityKana":"ｲﾜﾐｸﾞﾝｲﾜﾐﾁｮｳ","streetKana":"ｵｵﾊﾞﾈｵ","prefecture":"鳥取県","city":"岩美郡岩美町","street":"大羽尾"},{"zipCode":"6810042","prefectureKana":"ﾄｯﾄﾘｹﾝ","cityKana":"ｲﾜﾐｸﾞﾝｲﾜﾐﾁｮｳ","streetKana":"ｵﾀﾞ","prefecture":"鳥取県","city":"岩美郡岩美町","street":"小田"},{"zipCode":"6810062","prefectureKana":"ﾄｯﾄﾘｹﾝ","cityKana":"ｲﾜﾐｸﾞﾝｲﾜﾐﾁｮｳ","streetKana":"ｵﾝｼﾞ","prefecture":"鳥取県","city":"岩美郡岩美町","street":"恩志"},{"zipCode":"6810031","prefectureKana":"ﾄｯﾄﾘｹﾝ","cityKana":"ｲﾜﾐｸﾞﾝｲﾜﾐﾁｮｳ","streetKana":"ｶﾞﾓｳ","prefecture":"鳥取県","city":"岩美郡岩美町","street":"蒲生"},{"zipCode":"6810045","prefectureKana":"ﾄｯﾄﾘｹﾝ","cityKana":"ｲﾜﾐｸﾞﾝｲﾜﾐﾁｮｳ","streetKana":"ｶﾗｶﾜ","prefecture":"鳥取県","city":"岩美郡岩美町","street":"唐川"},{"zipCode":"6810051","prefectureKana":"ﾄｯﾄﾘｹﾝ","cityKana":"ｲﾜﾐｸﾞﾝｲﾜﾐﾁｮｳ","streetKana":"ｶﾜｻｷ","prefecture":"鳥取県","city":"岩美郡岩美町","street":"河崎"},{"zipCode":"6810034","prefectureKana":"ﾄｯﾄﾘｹﾝ","cityKana":"ｲﾜﾐｸﾞﾝｲﾜﾐﾁｮｳ","streetKana":"ｷﾞﾝｻﾞﾝ","prefecture":"鳥取県","city":"岩美郡岩美町","street":"銀山"},{"zipCode":"6810011","prefectureKana":"ﾄｯﾄﾘｹﾝ","cityKana":"ｲﾜﾐｸﾞﾝｲﾜﾐﾁｮｳ","streetKana":"ｸｶﾞﾐ","prefecture":"鳥取県","city":"岩美郡岩美町","street":"陸上"},{"zipCode":"6810041","prefectureKana":"ﾄｯﾄﾘｹﾝ","cityKana":"ｲﾜﾐｸﾞﾝｲﾜﾐﾁｮｳ","streetKana":"ｸﾛﾀﾞﾆ","prefecture":"鳥取県","city":"岩美郡岩美町","street":"黒谷"},{"zipCode":"6810013","prefectureKana":"ﾄｯﾄﾘｹﾝ","cityKana":"ｲﾜﾐｸﾞﾝｲﾜﾐﾁｮｳ","streetKana":"ｺﾊﾞﾈｵ","prefecture":"鳥取県","city":"岩美郡岩美町","street":"小羽尾"},{"zipCode":"6810022","prefectureKana":"ﾄｯﾄﾘｹﾝ","cityKana":"ｲﾜﾐｸﾞﾝｲﾜﾐﾁｮｳ","streetKana":"ｼﾗｼﾞ","prefecture":"鳥取県","city":"岩美郡岩美町","street":"白地"},{"zipCode":"6810053","prefectureKana":"ﾄｯﾄﾘｹﾝ","cityKana":"ｲﾜﾐｸﾞﾝｲﾜﾐﾁｮｳ","streetKana":"ﾀｶｽﾞﾐ","prefecture":"鳥取県","city":"岩美郡岩美町","street":"高住"},{"zipCode":"6810061","prefectureKana":"ﾄｯﾄﾘｹﾝ","cityKana":"ｲﾜﾐｸﾞﾝｲﾜﾐﾁｮｳ","streetKana":"ﾀｶﾔﾏ","prefecture":"鳥取県","city":"岩美郡岩美町","street":"高山"},{"zipCode":"6810071","prefectureKana":"ﾄｯﾄﾘｹﾝ","cityKana":"ｲﾜﾐｸﾞﾝｲﾜﾐﾁｮｳ","streetKana":"ﾀｼﾞﾘ","prefecture":"鳥取県","city":"岩美郡岩美町","street":"田後"},{"zipCode":"6810012","prefectureKana":"ﾄｯﾄﾘｹﾝ","cityKana":"ｲﾜﾐｸﾞﾝｲﾜﾐﾁｮｳ","streetKana":"ﾀﾉｺｳｼﾞ","prefecture":"鳥取県","city":"岩美郡岩美町","street":"田河内"},{"zipCode":"6810056","prefectureKana":"ﾄｯﾄﾘｹﾝ","cityKana":"ｲﾜﾐｸﾞﾝｲﾜﾐﾁｮｳ","streetKana":"ﾁｮｳｺﾞｳ","prefecture":"鳥取県","city":"岩美郡岩美町","street":"長郷"},{"zipCode":"6810044","prefectureKana":"ﾄｯﾄﾘｹﾝ","cityKana":"ｲﾜﾐｸﾞﾝｲﾜﾐﾁｮｳ","streetKana":"ﾄﾉﾑﾗ","prefecture":"鳥取県","city":"岩美郡岩美町","street":"外邑"},{"zipCode":"6810033","prefectureKana":"ﾄｯﾄﾘｹﾝ","cityKana":"ｲﾜﾐｸﾞﾝｲﾜﾐﾁｮｳ","streetKana":"ﾄﾘｺﾞｴ","prefecture":"鳥取県","city":"岩美郡岩美町","street":"鳥越"},{"zipCode":"6810021","prefectureKana":"ﾄｯﾄﾘｹﾝ","cityKana":"ｲﾜﾐｸﾞﾝｲﾜﾐﾁｮｳ","streetKana":"ﾅｶﾞﾀﾆ","prefecture":"鳥取県","city":"岩美郡岩美町","street":"長谷"},{"zipCode":"6810065","prefectureKana":"ﾄｯﾄﾘｹﾝ","cityKana":"ｲﾜﾐｸﾞﾝｲﾜﾐﾁｮｳ","streetKana":"ﾆｲ","prefecture":"鳥取県","city":"岩美郡岩美町","street":"新井"},{"zipCode":"6810035","prefectureKana":"ﾄｯﾄﾘｹﾝ","cityKana":"ｲﾜﾐｸﾞﾝｲﾜﾐﾁｮｳ","streetKana":"ﾊﾞﾊﾞ","prefecture":"鳥取県","city":"岩美郡岩美町","street":"馬場"},{"zipCode":"6810064","prefectureKana":"ﾄｯﾄﾘｹﾝ","cityKana":"ｲﾜﾐｸﾞﾝｲﾜﾐﾁｮｳ","streetKana":"ﾎﾝｼﾞｮｳ","prefecture":"鳥取県","city":"岩美郡岩美町","street":"本庄"},{"zipCode":"6810001","prefectureKana":"ﾄｯﾄﾘｹﾝ","cityKana":"ｲﾜﾐｸﾞﾝｲﾜﾐﾁｮｳ","streetKana":"ﾏｷﾀﾞﾆ","prefecture":"鳥取県","city":"岩美郡岩美町","street":"牧谷"},{"zipCode":"6810023","prefectureKana":"ﾄｯﾄﾘｹﾝ","cityKana":"ｲﾜﾐｸﾞﾝｲﾜﾐﾁｮｳ","streetKana":"ﾏﾅ","prefecture":"鳥取県","city":"岩美郡岩美町","street":"真名"}]