[{"zipCode":"6850000","prefectureKana":"ｼﾏﾈｹﾝ","cityKana":"ｵｷｸﾞﾝｵｷﾉｼﾏﾁｮｳ","streetKana":"ｲｶﾆｹｲｻｲｶﾞﾅｲﾊﾞｱｲ","prefecture":"島根県","city":"隠岐郡隠岐の島町","street":"以下に掲載がない場合"},{"zipCode":"6850006","prefectureKana":"ｼﾏﾈｹﾝ","cityKana":"ｵｷｸﾞﾝｵｷﾉｼﾏﾁｮｳ","streetKana":"ｱﾗｷ","prefecture":"島根県","city":"隠岐郡隠岐の島町","street":"有木"},{"zipCode":"6850004","prefectureKana":"ｼﾏﾈｹﾝ","cityKana":"ｵｷｸﾞﾝｵｷﾉｼﾏﾁｮｳ","streetKana":"ｲｲﾀﾞ","prefecture":"島根県","city":"隠岐郡隠岐の島町","street":"飯田"},{"zipCode":"6850411","prefectureKana":"ｼﾏﾈｹﾝ","cityKana":"ｵｷｸﾞﾝｵｷﾉｼﾏﾁｮｳ","streetKana":"ｲｲﾋﾞ","prefecture":"島根県","city":"隠岐郡隠岐の島町","street":"飯美"},{"zipCode":"6850007","prefectureKana":"ｼﾏﾈｹﾝ","cityKana":"ｵｷｸﾞﾝｵｷﾉｼﾏﾁｮｳ","streetKana":"ｲｹﾀﾞ","prefecture":"島根県","city":"隠岐郡隠岐の島町","street":"池田"},{"zipCode":"6850431","prefectureKana":"ｼﾏﾈｹﾝ","cityKana":"ｵｷｸﾞﾝｵｷﾉｼﾏﾁｮｳ","streetKana":"ｲｺﾞ(ｿﾉﾀ)","prefecture":"島根県","city":"隠岐郡隠岐の島町","street":"伊後（その他）"},{"zipCode":"6850306","prefectureKana":"ｼﾏﾈｹﾝ","cityKana":"ｵｷｸﾞﾝｵｷﾉｼﾏﾁｮｳ","streetKana":"ｲｺﾞ(ﾑｺｳｶﾞｵｶ)","prefecture":"島根県","city":"隠岐郡隠岐の島町","street":"伊後（向ケ丘）"},{"zipCode":"6850003","prefectureKana":"ｼﾏﾈｹﾝ","cityKana":"ｵｷｸﾞﾝｵｷﾉｼﾏﾁｮｳ","streetKana":"ｲﾇｸﾞ","prefecture":"島根県","city":"隠岐郡隠岐の島町","street":"犬来"},{"zipCode":"6850022","prefectureKana":"ｼﾏﾈｹﾝ","cityKana":"ｵｷｸﾞﾝｵｷﾉｼﾏﾁｮｳ","streetKana":"ｲﾏﾂﾞ","prefecture":"島根県","city":"隠岐郡隠岐の島町","street":"今津"},{"zipCode":"6850413","prefectureKana":"ｼﾏﾈｹﾝ","cityKana":"ｵｷｸﾞﾝｵｷﾉｼﾏﾁｮｳ","streetKana":"ｳｽﾞｷ","prefecture":"島根県","city":"隠岐郡隠岐の島町","street":"卯敷"},{"zipCode":"6850001","prefectureKana":"ｼﾏﾈｹﾝ","cityKana":"ｵｷｸﾞﾝｵｷﾉｼﾏﾁｮｳ","streetKana":"ｵｵｸ","prefecture":"島根県","city":"隠岐郡隠岐の島町","street":"大久"},{"zipCode":"6850002","prefectureKana":"ｼﾏﾈｹﾝ","cityKana":"ｵｷｸﾞﾝｵｷﾉｼﾏﾁｮｳ","streetKana":"ｶﾏ","prefecture":"島根県","city":"隠岐郡隠岐の島町","street":"釜"},{"zipCode":"6850026","prefectureKana":"ｼﾏﾈｹﾝ","cityKana":"ｵｷｸﾞﾝｵｷﾉｼﾏﾁｮｳ","streetKana":"ｶﾐﾆｼ","prefecture":"島根県","city":"隠岐郡隠岐の島町","street":"上西"},{"zipCode":"6850024","prefectureKana":"ｼﾏﾈｹﾝ","cityKana":"ｵｷｸﾞﾝｵｷﾉｼﾏﾁｮｳ","streetKana":"ｶﾓ","prefecture":"島根県","city":"隠岐郡隠岐の島町","street":"加茂"},{"zipCode":"6850435","prefectureKana":"ｼﾏﾈｹﾝ","cityKana":"ｵｷｸﾞﾝｵｷﾉｼﾏﾁｮｳ","streetKana":"ｶﾞﾝﾔ","prefecture":"島根県","city":"隠岐郡隠岐の島町","street":"元屋"},{"zipCode":"6850301","prefectureKana":"ｼﾏﾈｹﾝ","cityKana":"ｵｷｸﾞﾝｵｷﾉｼﾏﾁｮｳ","streetKana":"ｷﾀｶﾞﾀ","prefecture":"島根県","city":"隠岐郡隠岐の島町","street":"北方"},{"zipCode":"6850305","prefectureKana":"ｼﾏﾈｹﾝ","cityKana":"ｵｷｸﾞﾝｵｷﾉｼﾏﾁｮｳ","streetKana":"ｸﾐ","prefecture":"島根県","city":"隠岐郡隠岐の島町","street":"久見"},{"zipCode":"6850101","prefectureKana":"ｼﾏﾈｹﾝ","cityKana":"ｵｷｸﾞﾝｵｷﾉｼﾏﾁｮｳ","streetKana":"ｸﾗﾀ","prefecture":"島根県","city":"隠岐郡隠岐の島町","street":"蔵田"},{"zipCode":"6850312","prefectureKana":"ｼﾏﾈｹﾝ","cityKana":"ｵｷｸﾞﾝｵｷﾉｼﾏﾁｮｳ","streetKana":"ｺｳｼﾞ","prefecture":"島根県","city":"隠岐郡隠岐の島町","street":"小路"},{"zipCode":"6850311","prefectureKana":"ｼﾏﾈｹﾝ","cityKana":"ｵｷｸﾞﾝｵｷﾉｼﾏﾁｮｳ","streetKana":"ｺｵﾘ","prefecture":"島根県","city":"隠岐郡隠岐の島町","street":"郡"},{"zipCode":"6850011","prefectureKana":"ｼﾏﾈｹﾝ","cityKana":"ｵｷｸﾞﾝｵｷﾉｼﾏﾁｮｳ","streetKana":"ｻｶｴﾏﾁ","prefecture":"島根県","city":"隠岐郡隠岐の島町","street":"栄町"},{"zipCode":"6850017","prefectureKana":"ｼﾏﾈｹﾝ","cityKana":"ｵｷｸﾞﾝｵｷﾉｼﾏﾁｮｳ","streetKana":"ｼﾓﾆｼ","prefecture":"島根県","city":"隠岐郡隠岐の島町","street":"下西"},{"zipCode":"6850016","prefectureKana":"ｼﾏﾈｹﾝ","cityKana":"ｵｷｸﾞﾝｵｷﾉｼﾏﾁｮｳ","streetKana":"ｼﾞｮｳﾎｸﾏﾁ","prefecture":"島根県","city":"隠岐郡隠岐の島町","street":"城北町"},{"zipCode":"6850304","prefectureKana":"ｼﾏﾈｹﾝ","cityKana":"ｵｷｸﾞﾝｵｷﾉｼﾏﾁｮｳ","streetKana":"ｼﾛ","prefecture":"島根県","city":"隠岐郡隠岐の島町","street":"代"},{"zipCode":"6850106","prefectureKana":"ｼﾏﾈｹﾝ","cityKana":"ｵｷｸﾞﾝｵｷﾉｼﾏﾁｮｳ","streetKana":"ﾀｸｷﾞ","prefecture":"島根県","city":"隠岐郡隠岐の島町","street":"蛸木"},{"zipCode":"6850105","prefectureKana":"ｼﾏﾈｹﾝ","cityKana":"ｵｷｸﾞﾝｵｷﾉｼﾏﾁｮｳ","streetKana":"ﾂﾄﾞ","prefecture":"島根県","city":"隠岐郡隠岐の島町","street":"津戸"},{"zipCode":"6850104","prefectureKana":"ｼﾏﾈｹﾝ","cityKana":"ｵｷｸﾞﾝｵｷﾉｼﾏﾁｮｳ","streetKana":"ﾂﾏ","prefecture":"島根県","city":"隠岐郡隠岐の島町","street":"都万"},{"zipCode":"6850005","prefectureKana":"ｼﾏﾈｹﾝ","cityKana":"ｵｷｸﾞﾝｵｷﾉｼﾏﾁｮｳ","streetKana":"ﾄｳｺﾞｳ","prefecture":"島根県","city":"隠岐郡隠岐の島町","street":"東郷"},{"zipCode":"6850013","prefectureKana":"ｼﾏﾈｹﾝ","cityKana":"ｵｷｸﾞﾝｵｷﾉｼﾏﾁｮｳ","streetKana":"ﾅｶﾏﾁ","prefecture":"島根県","city":"隠岐郡隠岐の島町","street":"中町"},{"zipCode":"6850434","prefectureKana":"ｼﾏﾈｹﾝ","cityKana":"ｵｷｸﾞﾝｵｷﾉｼﾏﾁｮｳ","streetKana":"ﾅｶﾑﾗ","prefecture":"島根県","city":"隠岐郡隠岐の島町","street":"中村"},{"zipCode":"6850103","prefectureKana":"ｼﾏﾈｹﾝ","cityKana":"ｵｷｸﾞﾝｵｷﾉｼﾏﾁｮｳ","streetKana":"ﾅｸﾞ","prefecture":"島根県","city":"隠岐郡隠岐の島町","street":"那久"},{"zipCode":"6850313","prefectureKana":"ｼﾏﾈｹﾝ","cityKana":"ｵｷｸﾞﾝｵｷﾉｼﾏﾁｮｳ","streetKana":"ﾅｸﾞﾁ","prefecture":"島根県","city":"隠岐郡隠岐の島町","street":"那久路"},{"zipCode":"6850302","prefectureKana":"ｼﾏﾈｹﾝ","cityKana":"ｵｷｸﾞﾝｵｷﾉｼﾏﾁｮｳ","streetKana":"ﾅﾜｼﾛﾀﾞ","prefecture":"島根県","city":"隠岐郡隠岐の島町","street":"苗代田"},{"zipCode":"6850023","prefectureKana":"ｼﾏﾈｹﾝ","cityKana":"ｵｷｸﾞﾝｵｷﾉｼﾏﾁｮｳ","streetKana":"ﾆｼﾀﾞ","prefecture":"島根県","city":"隠岐郡隠岐の島町","street":"西田"},{"zipCode":"6850014","prefectureKana":"ｼﾏﾈｹﾝ","cityKana":"ｵｷｸﾞﾝｵｷﾉｼﾏﾁｮｳ","streetKana":"ﾆｼﾏﾁ","prefecture":"島根県","city":"隠岐郡隠岐の島町","street":"西町"},{"zipCode":"6850432","prefectureKana":"ｼﾏﾈｹﾝ","cityKana":"ｵｷｸﾞﾝｵｷﾉｼﾏﾁｮｳ","streetKana":"ﾆｼﾑﾗ","prefecture":"島根県","city":"隠岐郡隠岐の島町","street":"西村"},{"zipCode":"6850027","prefectureKana":"ｼﾏﾈｹﾝ","cityKana":"ｵｷｸﾞﾝｵｷﾉｼﾏﾁｮｳ","streetKana":"ﾊﾗﾀﾞ","prefecture":"島根県","city":"隠岐郡隠岐の島町","street":"原田"},{"zipCode":"6850012","prefectureKana":"ｼﾏﾈｹﾝ","cityKana":"ｵｷｸﾞﾝｵｷﾉｼﾏﾁｮｳ","streetKana":"ﾋｶﾞｼﾏﾁ","prefecture":"島根県","city":"隠岐郡隠岐の島町","street":"東町"},{"zipCode":"6850412","prefectureKana":"ｼﾏﾈｹﾝ","cityKana":"ｵｷｸﾞﾝｵｷﾉｼﾏﾁｮｳ","streetKana":"ﾌｾ","prefecture":"島根県","city":"隠岐郡隠岐の島町","street":"布施"},{"zipCode":"6850025","prefectureKana":"ｼﾏﾈｹﾝ","cityKana":"ｵｷｸﾞﾝｵｷﾉｼﾏﾁｮｳ","streetKana":"ﾍｲ","prefecture":"島根県","city":"隠岐郡隠岐の島町","street":"平"},{"zipCode":"6850021","prefectureKana":"ｼﾏﾈｹﾝ","cityKana":"ｵｷｸﾞﾝｵｷﾉｼﾏﾁｮｳ","streetKana":"ﾐｻｷﾏﾁ","prefecture":"島根県","city":"隠岐郡隠岐の島町","street":"岬町"},{"zipCode":"6850433","prefectureKana":"ｼﾏﾈｹﾝ","cityKana":"ｵｷｸﾞﾝｵｷﾉｼﾏﾁｮｳ","streetKana":"ﾐﾅﾄ","prefecture":"島根県","city":"隠岐郡隠岐の島町","street":"湊"},{"zipCode":"6850015","prefectureKana":"ｼﾏﾈｹﾝ","cityKana":"ｵｷｸﾞﾝｵｷﾉｼﾏﾁｮｳ","streetKana":"ﾐﾅﾄﾏﾁ","prefecture":"島根県","city":"隠岐郡隠岐の島町","street":"港町"},{"zipCode":"6850303","prefectureKana":"ｼﾏﾈｹﾝ","cityKana":"ｵｷｸﾞﾝｵｷﾉｼﾏﾁｮｳ","streetKana":"ﾐﾅﾐｶﾞﾀ","prefecture":"島根県","city":"隠岐郡隠岐の島町","street":"南方"},{"zipCode":"6850314","prefectureKana":"ｼﾏﾈｹﾝ","cityKana":"ｵｷｸﾞﾝｵｷﾉｼﾏﾁｮｳ","streetKana":"ﾔﾏﾀﾞ","prefecture":"島根県","city":"隠岐郡隠岐の島町","street":"山田"},{"zipCode":"6850102","prefectureKana":"ｼﾏﾈｹﾝ","cityKana":"ｵｷｸﾞﾝｵｷﾉｼﾏﾁｮｳ","streetKana":"ﾕｲ","prefecture":"島根県","city":"隠岐郡隠岐の島町","street":"油井"}]