[{"zipCode":"6930000","prefectureKana":"ｼﾏﾈｹﾝ","cityKana":"ｲｽﾞﾓｼ","streetKana":"ｲｶﾆｹｲｻｲｶﾞﾅｲﾊﾞｱｲ","prefecture":"島根県","city":"出雲市","street":"以下に掲載がない場合"},{"zipCode":"6930213","prefectureKana":"ｼﾏﾈｹﾝ","cityKana":"ｲｽﾞﾓｼ","streetKana":"ｱｻﾔﾏﾁｮｳ","prefecture":"島根県","city":"出雲市","street":"朝山町"},{"zipCode":"6930035","prefectureKana":"ｼﾏﾈｹﾝ","cityKana":"ｲｽﾞﾓｼ","streetKana":"ｱｼﾜﾀﾁｮｳ","prefecture":"島根県","city":"出雲市","street":"芦渡町"},{"zipCode":"6930044","prefectureKana":"ｼﾏﾈｹﾝ","cityKana":"ｲｽﾞﾓｼ","streetKana":"ｱﾗｶﾔﾁｮｳ","prefecture":"島根県","city":"出雲市","street":"荒茅町"},{"zipCode":"6930027","prefectureKana":"ｼﾏﾈｹﾝ","cityKana":"ｲｽﾞﾓｼ","streetKana":"ｲﾀﾞｲﾐﾅﾐﾏﾁ","prefecture":"島根県","city":"出雲市","street":"医大南町"},{"zipCode":"6930071","prefectureKana":"ｼﾏﾈｹﾝ","cityKana":"ｲｽﾞﾓｼ","streetKana":"ｲﾅｵｶﾁｮｳ","prefecture":"島根県","city":"出雲市","street":"稲岡町"},{"zipCode":"6930001","prefectureKana":"ｼﾏﾈｹﾝ","cityKana":"ｲｽﾞﾓｼ","streetKana":"ｲﾏｲﾁﾁｮｳ","prefecture":"島根県","city":"出雲市","street":"今市町"},{"zipCode":"6930002","prefectureKana":"ｼﾏﾈｹﾝ","cityKana":"ｲｽﾞﾓｼ","streetKana":"ｲﾏｲﾁﾁｮｳｷﾀﾎﾝﾏﾁ","prefecture":"島根県","city":"出雲市","street":"今市町北本町"},{"zipCode":"6930003","prefectureKana":"ｼﾏﾈｹﾝ","cityKana":"ｲｽﾞﾓｼ","streetKana":"ｲﾏｲﾁﾁｮｳﾐﾅﾐﾎﾝﾏﾁ","prefecture":"島根県","city":"出雲市","street":"今市町南本町"},{"zipCode":"6930105","prefectureKana":"ｼﾏﾈｹﾝ","cityKana":"ｲｽﾞﾓｼ","streetKana":"ｳﾅﾃﾁｮｳ","prefecture":"島根県","city":"出雲市","street":"宇那手町"},{"zipCode":"6930007","prefectureKana":"ｼﾏﾈｹﾝ","cityKana":"ｲｽﾞﾓｼ","streetKana":"ｴｷｷﾀﾏﾁ","prefecture":"島根県","city":"出雲市","street":"駅北町"},{"zipCode":"6930008","prefectureKana":"ｼﾏﾈｹﾝ","cityKana":"ｲｽﾞﾓｼ","streetKana":"ｴｷﾐﾅﾐﾏﾁ","prefecture":"島根県","city":"出雲市","street":"駅南町"},{"zipCode":"6930017","prefectureKana":"ｼﾏﾈｹﾝ","cityKana":"ｲｽﾞﾓｼ","streetKana":"ｴﾀﾞｵｵﾂﾁｮｳ","prefecture":"島根県","city":"出雲市","street":"枝大津町"},{"zipCode":"6930056","prefectureKana":"ｼﾏﾈｹﾝ","cityKana":"ｲｽﾞﾓｼ","streetKana":"ｴﾀﾁｮｳ","prefecture":"島根県","city":"出雲市","street":"江田町"},{"zipCode":"6930023","prefectureKana":"ｼﾏﾈｹﾝ","cityKana":"ｲｽﾞﾓｼ","streetKana":"ｴﾝﾔｱﾘﾊﾗﾁｮｳ","prefecture":"島根県","city":"出雲市","street":"塩冶有原町"},{"zipCode":"6930024","prefectureKana":"ｼﾏﾈｹﾝ","cityKana":"ｲｽﾞﾓｼ","streetKana":"ｴﾝﾔｶﾝﾏｴ","prefecture":"島根県","city":"出雲市","street":"塩冶神前"},{"zipCode":"6930028","prefectureKana":"ｼﾏﾈｹﾝ","cityKana":"ｲｽﾞﾓｼ","streetKana":"ｴﾝﾔｾﾞﾝｺｳﾁｮｳ","prefecture":"島根県","city":"出雲市","street":"塩冶善行町"},{"zipCode":"6930021","prefectureKana":"ｼﾏﾈｹﾝ","cityKana":"ｲｽﾞﾓｼ","streetKana":"ｴﾝﾔﾁｮｳ","prefecture":"島根県","city":"出雲市","street":"塩冶町"},{"zipCode":"6930025","prefectureKana":"ｼﾏﾈｹﾝ","cityKana":"ｲｽﾞﾓｼ","streetKana":"ｴﾝﾔﾁｮｳﾐﾅﾐﾏﾁ","prefecture":"島根県","city":"出雲市","street":"塩冶町南町"},{"zipCode":"6930026","prefectureKana":"ｼﾏﾈｹﾝ","cityKana":"ｲｽﾞﾓｼ","streetKana":"ｴﾝﾔﾊﾗﾏﾁ","prefecture":"島根県","city":"出雲市","street":"塩冶原町"},{"zipCode":"6930015","prefectureKana":"ｼﾏﾈｹﾝ","cityKana":"ｲｽﾞﾓｼ","streetKana":"ｵｵﾂｱｻｸﾗ","prefecture":"島根県","city":"出雲市","street":"大津朝倉"},{"zipCode":"6930063","prefectureKana":"ｼﾏﾈｹﾝ","cityKana":"ｲｽﾞﾓｼ","streetKana":"ｵｵﾂｶﾁｮｳ","prefecture":"島根県","city":"出雲市","street":"大塚町"},{"zipCode":"6930012","prefectureKana":"ｼﾏﾈｹﾝ","cityKana":"ｲｽﾞﾓｼ","streetKana":"ｵｵﾂｼﾝｻﾞｷﾁｮｳ","prefecture":"島根県","city":"出雲市","street":"大津新崎町"},{"zipCode":"6930011","prefectureKana":"ｼﾏﾈｹﾝ","cityKana":"ｲｽﾞﾓｼ","streetKana":"ｵｵﾂﾁｮｳ","prefecture":"島根県","city":"出雲市","street":"大津町"},{"zipCode":"6930013","prefectureKana":"ｼﾏﾈｹﾝ","cityKana":"ｲｽﾞﾓｼ","streetKana":"ｵｷﾞﾄﾁﾁｮｳ","prefecture":"島根県","city":"出雲市","street":"荻杼町"},{"zipCode":"6930216","prefectureKana":"ｼﾏﾈｹﾝ","cityKana":"ｲｽﾞﾓｼ","streetKana":"ｵｯﾀﾁﾁｮｳ","prefecture":"島根県","city":"出雲市","street":"乙立町"},{"zipCode":"6930051","prefectureKana":"ｼﾏﾈｹﾝ","cityKana":"ｲｽﾞﾓｼ","streetKana":"ｵﾔﾏﾁｮｳ","prefecture":"島根県","city":"出雲市","street":"小山町"},{"zipCode":"6930022","prefectureKana":"ｼﾏﾈｹﾝ","cityKana":"ｲｽﾞﾓｼ","streetKana":"ｶﾐｴﾝﾔﾁｮｳ","prefecture":"島根県","city":"出雲市","street":"上塩冶町"},{"zipCode":"6930101","prefectureKana":"ｼﾏﾈｹﾝ","cityKana":"ｲｽﾞﾓｼ","streetKana":"ｶﾐｼﾏﾁｮｳ","prefecture":"島根県","city":"出雲市","street":"上島町"},{"zipCode":"6930034","prefectureKana":"ｼﾏﾈｹﾝ","cityKana":"ｲｽﾞﾓｼ","streetKana":"ｶﾝﾄﾞﾁｮｳ","prefecture":"島根県","city":"出雲市","street":"神門町"},{"zipCode":"6930072","prefectureKana":"ｼﾏﾈｹﾝ","cityKana":"ｲｽﾞﾓｼ","streetKana":"ｸｻｶﾁｮｳ","prefecture":"島根県","city":"出雲市","street":"日下町"},{"zipCode":"6930031","prefectureKana":"ｼﾏﾈｹﾝ","cityKana":"ｲｽﾞﾓｼ","streetKana":"ｺｼﾁｮｳ","prefecture":"島根県","city":"出雲市","street":"古志町"},{"zipCode":"6930501","prefectureKana":"ｼﾏﾈｹﾝ","cityKana":"ｲｽﾞﾓｼ","streetKana":"ｻﾀﾞﾁｮｳｱｻﾞﾊﾞﾗ","prefecture":"島根県","city":"出雲市","street":"佐田町朝原"},{"zipCode":"6930504","prefectureKana":"ｼﾏﾈｹﾝ","cityKana":"ｲｽﾞﾓｼ","streetKana":"ｻﾀﾞﾁｮｳｵｵﾛ","prefecture":"島根県","city":"出雲市","street":"佐田町大呂"},{"zipCode":"6930526","prefectureKana":"ｼﾏﾈｹﾝ","cityKana":"ｲｽﾞﾓｼ","streetKana":"ｻﾀﾞﾁｮｳｶﾐﾊｼﾅﾐ","prefecture":"島根県","city":"出雲市","street":"佐田町上橋波"},{"zipCode":"6930521","prefectureKana":"ｼﾏﾈｹﾝ","cityKana":"ｲｽﾞﾓｼ","streetKana":"ｻﾀﾞﾁｮｳｹﾂﾞ","prefecture":"島根県","city":"出雲市","street":"佐田町毛津"},{"zipCode":"6930523","prefectureKana":"ｼﾏﾈｹﾝ","cityKana":"ｲｽﾞﾓｼ","streetKana":"ｻﾀﾞﾁｮｳｻﾂﾒ","prefecture":"島根県","city":"出雲市","street":"佐田町佐津目"},{"zipCode":"6930525","prefectureKana":"ｼﾏﾈｹﾝ","cityKana":"ｲｽﾞﾓｼ","streetKana":"ｻﾀﾞﾁｮｳｼﾓﾊｼﾅﾐ","prefecture":"島根県","city":"出雲市","street":"佐田町下橋波"},{"zipCode":"6930503","prefectureKana":"ｼﾏﾈｹﾝ","cityKana":"ｲｽﾞﾓｼ","streetKana":"ｻﾀﾞﾁｮｳｽｻ","prefecture":"島根県","city":"出雲市","street":"佐田町須佐"},{"zipCode":"6930524","prefectureKana":"ｼﾏﾈｹﾝ","cityKana":"ｲｽﾞﾓｼ","streetKana":"ｻﾀﾞﾁｮｳﾀｶﾂﾔ","prefecture":"島根県","city":"出雲市","street":"佐田町高津屋"},{"zipCode":"6930506","prefectureKana":"ｼﾏﾈｹﾝ","cityKana":"ｲｽﾞﾓｼ","streetKana":"ｻﾀﾞﾁｮｳﾀﾝﾍﾞ","prefecture":"島根県","city":"出雲市","street":"佐田町反辺"},{"zipCode":"6930502","prefectureKana":"ｼﾏﾈｹﾝ","cityKana":"ｲｽﾞﾓｼ","streetKana":"ｻﾀﾞﾁｮｳﾊﾗﾀﾞ","prefecture":"島根県","city":"出雲市","street":"佐田町原田"},{"zipCode":"6930512","prefectureKana":"ｼﾏﾈｹﾝ","cityKana":"ｲｽﾞﾓｼ","streetKana":"ｻﾀﾞﾁｮｳﾋｶﾞｼﾑﾗ","prefecture":"島根県","city":"出雲市","street":"佐田町東村"},{"zipCode":"6930522","prefectureKana":"ｼﾏﾈｹﾝ","cityKana":"ｲｽﾞﾓｼ","streetKana":"ｻﾀﾞﾁｮｳﾋﾄｸﾎﾞﾀ","prefecture":"島根県","city":"出雲市","street":"佐田町一窪田"},{"zipCode":"6930511","prefectureKana":"ｼﾏﾈｹﾝ","cityKana":"ｲｽﾞﾓｼ","streetKana":"ｻﾀﾞﾁｮｳﾔﾜﾀﾊﾞﾗ","prefecture":"島根県","city":"出雲市","street":"佐田町八幡原"},{"zipCode":"6930505","prefectureKana":"ｼﾏﾈｹﾝ","cityKana":"ｲｽﾞﾓｼ","streetKana":"ｻﾀﾞﾁｮｳﾖｼﾉ","prefecture":"島根県","city":"出雲市","street":"佐田町吉野"},{"zipCode":"6930064","prefectureKana":"ｼﾏﾈｹﾝ","cityKana":"ｲｽﾞﾓｼ","streetKana":"ｻﾄｶﾀﾁｮｳ","prefecture":"島根県","city":"出雲市","street":"里方町"},{"zipCode":"6930032","prefectureKana":"ｼﾏﾈｹﾝ","cityKana":"ｲｽﾞﾓｼ","streetKana":"ｼﾓｺｼﾁｮｳ","prefecture":"島根県","city":"出雲市","street":"下古志町"},{"zipCode":"6930046","prefectureKana":"ｼﾏﾈｹﾝ","cityKana":"ｲｽﾞﾓｼ","streetKana":"ｼﾓﾖｺﾁｮｳ","prefecture":"島根県","city":"出雲市","street":"下横町"},{"zipCode":"6930006","prefectureKana":"ｼﾏﾈｹﾝ","cityKana":"ｲｽﾞﾓｼ","streetKana":"ｼﾛｴﾀﾞﾁｮｳ","prefecture":"島根県","city":"出雲市","street":"白枝町"},{"zipCode":"6930042","prefectureKana":"ｼﾏﾈｹﾝ","cityKana":"ｲｽﾞﾓｼ","streetKana":"ｿﾄｿﾞﾉﾁｮｳ","prefecture":"島根県","city":"出雲市","street":"外園町"},{"zipCode":"6930066","prefectureKana":"ｼﾏﾈｹﾝ","cityKana":"ｲｽﾞﾓｼ","streetKana":"ﾀｶｵｶﾁｮｳ","prefecture":"島根県","city":"出雲市","street":"高岡町"},{"zipCode":"6930053","prefectureKana":"ｼﾏﾈｹﾝ","cityKana":"ｲｽﾞﾓｼ","streetKana":"ﾀｶﾏﾂﾁｮｳ","prefecture":"島根県","city":"出雲市","street":"高松町"},{"zipCode":"6930014","prefectureKana":"ｼﾏﾈｹﾝ","cityKana":"ｲｽﾞﾓｼ","streetKana":"ﾀｹｼﾁｮｳ","prefecture":"島根県","city":"出雲市","street":"武志町"},{"zipCode":"6930033","prefectureKana":"ｼﾏﾈｹﾝ","cityKana":"ｲｽﾞﾓｼ","streetKana":"ﾁｲﾐﾔﾁｮｳ","prefecture":"島根県","city":"出雲市","street":"知井宮町"},{"zipCode":"6930029","prefectureKana":"ｼﾏﾈｹﾝ","cityKana":"ｲｽﾞﾓｼ","streetKana":"ﾂｷﾔﾏｼﾝﾏﾁ","prefecture":"島根県","city":"出雲市","street":"築山新町"},{"zipCode":"6930057","prefectureKana":"ｼﾏﾈｹﾝ","cityKana":"ｲｽﾞﾓｼ","streetKana":"ﾂﾈﾏﾂﾁｮｳ","prefecture":"島根県","city":"出雲市","street":"常松町"},{"zipCode":"6930005","prefectureKana":"ｼﾏﾈｹﾝ","cityKana":"ｲｽﾞﾓｼ","streetKana":"ﾃﾝｼﾞﾝﾁｮｳ","prefecture":"島根県","city":"出雲市","street":"天神町"},{"zipCode":"6930214","prefectureKana":"ｼﾏﾈｹﾝ","cityKana":"ｲｽﾞﾓｼ","streetKana":"ﾄｺﾛﾊﾗﾁｮｳ","prefecture":"島根県","city":"出雲市","street":"所原町"},{"zipCode":"6930062","prefectureKana":"ｼﾏﾈｹﾝ","cityKana":"ｲｽﾞﾓｼ","streetKana":"ﾅｶﾉﾁｮｳ","prefecture":"島根県","city":"出雲市","street":"中野町"},{"zipCode":"6930081","prefectureKana":"ｼﾏﾈｹﾝ","cityKana":"ｲｽﾞﾓｼ","streetKana":"ﾅｶﾉﾐﾎｷﾀ","prefecture":"島根県","city":"出雲市","street":"中野美保北"},{"zipCode":"6930082","prefectureKana":"ｼﾏﾈｹﾝ","cityKana":"ｲｽﾞﾓｼ","streetKana":"ﾅｶﾉﾐﾎﾐﾅﾐ","prefecture":"島根県","city":"出雲市","street":"中野美保南"},{"zipCode":"6930043","prefectureKana":"ｼﾏﾈｹﾝ","cityKana":"ｲｽﾞﾓｼ","streetKana":"ﾅｶﾞﾊﾏﾁｮｳ","prefecture":"島根県","city":"出雲市","street":"長浜町"},{"zipCode":"6930037","prefectureKana":"ｼﾏﾈｹﾝ","cityKana":"ｲｽﾞﾓｼ","streetKana":"ﾆｼｼﾝﾏﾁ","prefecture":"島根県","city":"出雲市","street":"西新町"},{"zipCode":"6930041","prefectureKana":"ｼﾏﾈｹﾝ","cityKana":"ｲｽﾞﾓｼ","streetKana":"ﾆｼｿﾞﾉﾁｮｳ","prefecture":"島根県","city":"出雲市","street":"西園町"},{"zipCode":"6930102","prefectureKana":"ｼﾏﾈｹﾝ","cityKana":"ｲｽﾞﾓｼ","streetKana":"ﾆｼﾀﾞﾆﾁｮｳ","prefecture":"島根県","city":"出雲市","street":"西谷町"},{"zipCode":"6930073","prefectureKana":"ｼﾏﾈｹﾝ","cityKana":"ｲｽﾞﾓｼ","streetKana":"ﾆｼﾊﾔｼｷﾞﾁｮｳ","prefecture":"島根県","city":"出雲市","street":"西林木町"},{"zipCode":"6930103","prefectureKana":"ｼﾏﾈｹﾝ","cityKana":"ｲｽﾞﾓｼ","streetKana":"ﾉｼﾞﾘﾁｮｳ","prefecture":"島根県","city":"出雲市","street":"野尻町"},{"zipCode":"6930054","prefectureKana":"ｼﾏﾈｹﾝ","cityKana":"ｲｽﾞﾓｼ","streetKana":"ﾊﾏﾁｮｳ","prefecture":"島根県","city":"出雲市","street":"浜町"},{"zipCode":"6930104","prefectureKana":"ｼﾏﾈｹﾝ","cityKana":"ｲｽﾞﾓｼ","streetKana":"ﾋｴﾊﾞﾗﾁｮｳ","prefecture":"島根県","city":"出雲市","street":"稗原町"},{"zipCode":"6930045","prefectureKana":"ｼﾏﾈｹﾝ","cityKana":"ｲｽﾞﾓｼ","streetKana":"ﾋｶﾞｼｿﾞﾉﾁｮｳ","prefecture":"島根県","city":"出雲市","street":"東園町"},{"zipCode":"6930074","prefectureKana":"ｼﾏﾈｹﾝ","cityKana":"ｲｽﾞﾓｼ","streetKana":"ﾋｶﾞｼﾊﾔｼｷﾞﾁｮｳ","prefecture":"島根県","city":"出雲市","street":"東林木町"},{"zipCode":"6930068","prefectureKana":"ｼﾏﾈｹﾝ","cityKana":"ｲｽﾞﾓｼ","streetKana":"ﾋﾒﾊﾞﾗ(1-4ﾁｮｳﾒ)","prefecture":"島根県","city":"出雲市","street":"姫原（１～４丁目）"},{"zipCode":"6930061","prefectureKana":"ｼﾏﾈｹﾝ","cityKana":"ｲｽﾞﾓｼ","streetKana":"ﾋﾒﾊﾞﾗﾁｮｳ","prefecture":"島根県","city":"出雲市","street":"姫原町"},{"zipCode":"6930065","prefectureKana":"ｼﾏﾈｹﾝ","cityKana":"ｲｽﾞﾓｼ","streetKana":"ﾋﾗﾉﾁｮｳ","prefecture":"島根県","city":"出雲市","street":"平野町"},{"zipCode":"6930106","prefectureKana":"ｼﾏﾈｹﾝ","cityKana":"ｲｽﾞﾓｼ","streetKana":"ﾌﾅﾂﾁｮｳ","prefecture":"島根県","city":"出雲市","street":"船津町"},{"zipCode":"6930036","prefectureKana":"ｼﾏﾈｹﾝ","cityKana":"ｲｽﾞﾓｼ","streetKana":"ﾍｲｾｲﾁｮｳ","prefecture":"島根県","city":"出雲市","street":"平成町"},{"zipCode":"6930211","prefectureKana":"ｼﾏﾈｹﾝ","cityKana":"ｲｽﾞﾓｼ","streetKana":"ﾏｷｷﾀﾏﾁ","prefecture":"島根県","city":"出雲市","street":"馬木北町"},{"zipCode":"6930212","prefectureKana":"ｼﾏﾈｹﾝ","cityKana":"ｲｽﾞﾓｼ","streetKana":"ﾏｷﾁｮｳ","prefecture":"島根県","city":"出雲市","street":"馬木町"},{"zipCode":"6930052","prefectureKana":"ｼﾏﾈｹﾝ","cityKana":"ｲｽﾞﾓｼ","streetKana":"ﾏﾂﾖﾘｼﾓﾁｮｳ","prefecture":"島根県","city":"出雲市","street":"松寄下町"},{"zipCode":"6930215","prefectureKana":"ｼﾏﾈｹﾝ","cityKana":"ｲｽﾞﾓｼ","streetKana":"ﾐﾐｸﾁｮｳ","prefecture":"島根県","city":"出雲市","street":"見々久町"},{"zipCode":"6930055","prefectureKana":"ｼﾏﾈｹﾝ","cityKana":"ｲｽﾞﾓｼ","streetKana":"ﾔｼﾏﾁｮｳ","prefecture":"島根県","city":"出雲市","street":"八島町"},{"zipCode":"6930058","prefectureKana":"ｼﾏﾈｹﾝ","cityKana":"ｲｽﾞﾓｼ","streetKana":"ﾔﾉﾁｮｳ","prefecture":"島根県","city":"出雲市","street":"矢野町"},{"zipCode":"6930067","prefectureKana":"ｼﾏﾈｹﾝ","cityKana":"ｲｽﾞﾓｼ","streetKana":"ﾔﾋﾞﾁｮｳ","prefecture":"島根県","city":"出雲市","street":"矢尾町"},{"zipCode":"6930004","prefectureKana":"ｼﾏﾈｹﾝ","cityKana":"ｲｽﾞﾓｼ","streetKana":"ﾜﾀﾘﾊｼﾁｮｳ","prefecture":"島根県","city":"出雲市","street":"渡橋町"}]