[{"zipCode":"6950102","prefectureKana":"ｼﾏﾈｹﾝ","cityKana":"ﾊﾏﾀﾞｼ","streetKana":"ｳﾉﾁｮｳ","prefecture":"島根県","city":"浜田市","street":"宇野町"},{"zipCode":"6950103","prefectureKana":"ｼﾏﾈｹﾝ","cityKana":"ﾊﾏﾀﾞｼ","streetKana":"ｵｵｶﾞﾈﾁｮｳ","prefecture":"島根県","city":"浜田市","street":"大金町"},{"zipCode":"6950101","prefectureKana":"ｼﾏﾈｹﾝ","cityKana":"ﾊﾏﾀﾞｼ","streetKana":"ｼﾓｱﾘﾌｸﾁｮｳ","prefecture":"島根県","city":"浜田市","street":"下有福町"},{"zipCode":"6950000","prefectureKana":"ｼﾏﾈｹﾝ","cityKana":"ｺﾞｳﾂｼ","streetKana":"ｲｶﾆｹｲｻｲｶﾞﾅｲﾊﾞｱｲ","prefecture":"島根県","city":"江津市","street":"以下に掲載がない場合"},{"zipCode":"6950002","prefectureKana":"ｼﾏﾈｹﾝ","cityKana":"ｺﾞｳﾂｼ","streetKana":"ｱｻﾘﾁｮｳ","prefecture":"島根県","city":"江津市","street":"浅利町"},{"zipCode":"6950152","prefectureKana":"ｼﾏﾈｹﾝ","cityKana":"ｺﾞｳﾂｼ","streetKana":"ｱﾄｲﾁﾁｮｳ","prefecture":"島根県","city":"江津市","street":"跡市町"},{"zipCode":"6950156","prefectureKana":"ｼﾏﾈｹﾝ","cityKana":"ｺﾞｳﾂｼ","streetKana":"ｱﾘﾌｸｵﾝｾﾝﾁｮｳ","prefecture":"島根県","city":"江津市","street":"有福温泉町"},{"zipCode":"6950155","prefectureKana":"ｼﾏﾈｹﾝ","cityKana":"ｺﾞｳﾂｼ","streetKana":"ｱﾘﾌｸｵﾝｾﾝﾁｮｳﾎﾝﾐｮｳ","prefecture":"島根県","city":"江津市","street":"有福温泉町本明"},{"zipCode":"6950154","prefectureKana":"ｼﾏﾈｹﾝ","cityKana":"ｺﾞｳﾂｼ","streetKana":"ｲｿｳﾁｮｳ","prefecture":"島根県","city":"江津市","street":"井沢町"},{"zipCode":"6950016","prefectureKana":"ｼﾏﾈｹﾝ","cityKana":"ｺﾞｳﾂｼ","streetKana":"ｶｸｼﾁｮｳ","prefecture":"島根県","city":"江津市","street":"嘉久志町"},{"zipCode":"6950012","prefectureKana":"ｼﾏﾈｹﾝ","cityKana":"ｺﾞｳﾂｼ","streetKana":"ｶﾈﾀﾁｮｳ","prefecture":"島根県","city":"江津市","street":"金田町"},{"zipCode":"6950014","prefectureKana":"ｼﾏﾈｹﾝ","cityKana":"ｺﾞｳﾂｼ","streetKana":"ｶﾜﾋﾗﾁｮｳﾋﾗﾀ","prefecture":"島根県","city":"江津市","street":"川平町平田"},{"zipCode":"6950013","prefectureKana":"ｼﾏﾈｹﾝ","cityKana":"ｺﾞｳﾂｼ","streetKana":"ｶﾜﾋﾗﾁｮｳﾐﾅﾐｶﾜﾉﾎﾞﾘ","prefecture":"島根県","city":"江津市","street":"川平町南川上"},{"zipCode":"6950011","prefectureKana":"ｼﾏﾈｹﾝ","cityKana":"ｺﾞｳﾂｼ","streetKana":"ｺﾞｳﾂﾁｮｳ","prefecture":"島根県","city":"江津市","street":"江津町"},{"zipCode":"6950015","prefectureKana":"ｼﾏﾈｹﾝ","cityKana":"ｺﾞｳﾂｼ","streetKana":"ｼﾏﾉﾎｼﾁｮｳ","prefecture":"島根県","city":"江津市","street":"島の星町"},{"zipCode":"6950153","prefectureKana":"ｼﾏﾈｹﾝ","cityKana":"ｺﾞｳﾂｼ","streetKana":"ｾｲﾐﾁｮｳ","prefecture":"島根県","city":"江津市","street":"清見町"},{"zipCode":"6950151","prefectureKana":"ｼﾏﾈｹﾝ","cityKana":"ｺﾞｳﾂｼ","streetKana":"ﾁﾀﾞﾁｮｳ","prefecture":"島根県","city":"江津市","street":"千田町"},{"zipCode":"6950021","prefectureKana":"ｼﾏﾈｹﾝ","cityKana":"ｺﾞｳﾂｼ","streetKana":"ﾂﾉﾂﾞﾁｮｳ","prefecture":"島根県","city":"江津市","street":"都野津町"},{"zipCode":"6950023","prefectureKana":"ｼﾏﾈｹﾝ","cityKana":"ｺﾞｳﾂｼ","streetKana":"ﾆﾉﾐﾔﾁｮｳｶﾑﾗ","prefecture":"島根県","city":"江津市","street":"二宮町神村"},{"zipCode":"6950024","prefectureKana":"ｼﾏﾈｹﾝ","cityKana":"ｺﾞｳﾂｼ","streetKana":"ﾆﾉﾐﾔﾁｮｳｶﾝﾇｼ","prefecture":"島根県","city":"江津市","street":"二宮町神主"},{"zipCode":"6950022","prefectureKana":"ｼﾏﾈｹﾝ","cityKana":"ｺﾞｳﾂｼ","streetKana":"ﾆﾉﾐﾔﾁｮｳﾊｼﾛ","prefecture":"島根県","city":"江津市","street":"二宮町羽代"},{"zipCode":"6950004","prefectureKana":"ｼﾏﾈｹﾝ","cityKana":"ｺﾞｳﾂｼ","streetKana":"ﾏﾂｶﾜﾁｮｳｲﾁﾑﾗ","prefecture":"島根県","city":"江津市","street":"松川町市村"},{"zipCode":"6950007","prefectureKana":"ｼﾏﾈｹﾝ","cityKana":"ｺﾞｳﾂｼ","streetKana":"ﾏﾂｶﾜﾁｮｳｵｵﾀ","prefecture":"島根県","city":"江津市","street":"松川町太田"},{"zipCode":"6950003","prefectureKana":"ｼﾏﾈｹﾝ","cityKana":"ｺﾞｳﾂｼ","streetKana":"ﾏﾂｶﾜﾁｮｳｼﾓｶﾜﾄﾞ","prefecture":"島根県","city":"江津市","street":"松川町下河戸"},{"zipCode":"6950005","prefectureKana":"ｼﾏﾈｹﾝ","cityKana":"ｺﾞｳﾂｼ","streetKana":"ﾏﾂｶﾜﾁｮｳﾅｶﾞﾗ","prefecture":"島根県","city":"江津市","street":"松川町長良"},{"zipCode":"6950006","prefectureKana":"ｼﾏﾈｹﾝ","cityKana":"ｺﾞｳﾂｼ","streetKana":"ﾏﾂｶﾜﾁｮｳﾔｶﾐ","prefecture":"島根県","city":"江津市","street":"松川町八神"},{"zipCode":"6950017","prefectureKana":"ｼﾏﾈｹﾝ","cityKana":"ｺﾞｳﾂｼ","streetKana":"ﾜｷﾁｮｳ","prefecture":"島根県","city":"江津市","street":"和木町"},{"zipCode":"6950001","prefectureKana":"ｼﾏﾈｹﾝ","cityKana":"ｺﾞｳﾂｼ","streetKana":"ﾜﾀﾂﾞﾁｮｳ","prefecture":"島根県","city":"江津市","street":"渡津町"}]