[{"zipCode":"7048181","prefectureKana":"ｵｶﾔﾏｹﾝ","cityKana":"ｵｶﾔﾏｼﾋｶﾞｼｸ","streetKana":"ｱｻｺﾞｴ","prefecture":"岡山県","city":"岡山市東区","street":"浅越"},{"zipCode":"7048153","prefectureKana":"ｵｶﾔﾏｹﾝ","cityKana":"ｵｶﾔﾏｼﾋｶﾞｼｸ","streetKana":"ｲﾇｼﾞﾏ","prefecture":"岡山県","city":"岡山市東区","street":"犬島"},{"zipCode":"7048172","prefectureKana":"ｵｶﾔﾏｹﾝ","cityKana":"ｵｶﾔﾏｼﾋｶﾞｼｸ","streetKana":"ｵｵﾀﾞﾗﾁｮｳ","prefecture":"岡山県","city":"岡山市東区","street":"大多羅町"},{"zipCode":"7048132","prefectureKana":"ｵｶﾔﾏｹﾝ","cityKana":"ｵｶﾔﾏｼﾋｶﾞｼｸ","streetKana":"ｵｸﾉｺﾞｳ","prefecture":"岡山県","city":"岡山市東区","street":"邑久郷"},{"zipCode":"7048137","prefectureKana":"ｵｶﾔﾏｹﾝ","cityKana":"ｵｶﾔﾏｼﾋｶﾞｼｸ","streetKana":"ｵﾄｺﾞ","prefecture":"岡山県","city":"岡山市東区","street":"乙子"},{"zipCode":"7048173","prefectureKana":"ｵｶﾔﾏｹﾝ","cityKana":"ｵｶﾔﾏｼﾋｶﾞｼｸ","streetKana":"ｶﾁ","prefecture":"岡山県","city":"岡山市東区","street":"可知"},{"zipCode":"7048193","prefectureKana":"ｵｶﾔﾏｹﾝ","cityKana":"ｵｶﾔﾏｼﾋｶﾞｼｸ","streetKana":"ｶﾅｵｶﾆｼﾏﾁ","prefecture":"岡山県","city":"岡山市東区","street":"金岡西町"},{"zipCode":"7048194","prefectureKana":"ｵｶﾔﾏｹﾝ","cityKana":"ｵｶﾔﾏｼﾋｶﾞｼｸ","streetKana":"ｶﾅｵｶﾋｶﾞｼﾏﾁ","prefecture":"岡山県","city":"岡山市東区","street":"金岡東町"},{"zipCode":"7048196","prefectureKana":"ｵｶﾔﾏｹﾝ","cityKana":"ｵｶﾔﾏｼﾋｶﾞｼｸ","streetKana":"ｶﾅﾀﾞ","prefecture":"岡山県","city":"岡山市東区","street":"金田"},{"zipCode":"7048142","prefectureKana":"ｵｶﾔﾏｹﾝ","cityKana":"ｵｶﾔﾏｼﾋｶﾞｼｸ","streetKana":"ｶﾐｱﾁ","prefecture":"岡山県","city":"岡山市東区","street":"上阿知"},{"zipCode":"7048138","prefectureKana":"ｵｶﾔﾏｹﾝ","cityKana":"ｵｶﾔﾏｼﾋｶﾞｼｸ","streetKana":"ｶﾝｻﾞｷﾁｮｳ","prefecture":"岡山県","city":"岡山市東区","street":"神崎町"},{"zipCode":"7048134","prefectureKana":"ｵｶﾔﾏｹﾝ","cityKana":"ｵｶﾔﾏｼﾋｶﾞｼｸ","streetKana":"ｷﾀｺｳﾀﾞ","prefecture":"岡山県","city":"岡山市東区","street":"北幸田"},{"zipCode":"7048166","prefectureKana":"ｵｶﾔﾏｹﾝ","cityKana":"ｵｶﾔﾏｼﾋｶﾞｼｸ","streetKana":"ｷﾐﾂ","prefecture":"岡山県","city":"岡山市東区","street":"君津"},{"zipCode":"7048154","prefectureKana":"ｵｶﾔﾏｹﾝ","cityKana":"ｵｶﾔﾏｼﾋｶﾞｼｸ","streetKana":"ｸｸﾞｲ","prefecture":"岡山県","city":"岡山市東区","street":"久々井"},{"zipCode":"7048161","prefectureKana":"ｵｶﾔﾏｹﾝ","cityKana":"ｵｶﾔﾏｼﾋｶﾞｼｸ","streetKana":"ｸﾊﾞﾝ","prefecture":"岡山県","city":"岡山市東区","street":"九蟠"},{"zipCode":"7048102","prefectureKana":"ｵｶﾔﾏｹﾝ","cityKana":"ｵｶﾔﾏｼﾋｶﾞｼｸ","streetKana":"ｸﾎﾞ","prefecture":"岡山県","city":"岡山市東区","street":"久保"},{"zipCode":"7048149","prefectureKana":"ｵｶﾔﾏｹﾝ","cityKana":"ｵｶﾔﾏｼﾋｶﾞｼｸ","streetKana":"ｺｳﾁｻﾞｷﾁｮｳ","prefecture":"岡山県","city":"岡山市東区","street":"幸地崎町"},{"zipCode":"7048164","prefectureKana":"ｵｶﾔﾏｹﾝ","cityKana":"ｵｶﾔﾏｼﾋｶﾞｼｸ","streetKana":"ｺｳﾂ","prefecture":"岡山県","city":"岡山市東区","street":"光津"},{"zipCode":"7048103","prefectureKana":"ｵｶﾔﾏｹﾝ","cityKana":"ｵｶﾔﾏｼﾋｶﾞｼｸ","streetKana":"ｺｳﾓﾄﾁｮｳ","prefecture":"岡山県","city":"岡山市東区","street":"河本町"},{"zipCode":"7048113","prefectureKana":"ｵｶﾔﾏｹﾝ","cityKana":"ｵｶﾔﾏｼﾋｶﾞｼｸ","streetKana":"ｻｲﾀﾞｲｼﾞ","prefecture":"岡山県","city":"岡山市東区","street":"西大寺"},{"zipCode":"7048121","prefectureKana":"ｵｶﾔﾏｹﾝ","cityKana":"ｵｶﾔﾏｼﾋｶﾞｼｸ","streetKana":"ｻｲﾀﾞｲｼﾞｲｺｼ","prefecture":"岡山県","city":"岡山市東区","street":"西大寺射越"},{"zipCode":"7048144","prefectureKana":"ｵｶﾔﾏｹﾝ","cityKana":"ｵｶﾔﾏｼﾋｶﾞｼｸ","streetKana":"ｻｲﾀﾞｲｼﾞｲﾁﾉﾐﾔ","prefecture":"岡山県","city":"岡山市東区","street":"西大寺一宮"},{"zipCode":"7048195","prefectureKana":"ｵｶﾔﾏｹﾝ","cityKana":"ｵｶﾔﾏｼﾋｶﾞｼｸ","streetKana":"ｻｲﾀﾞｲｼﾞｶﾅｵｶ","prefecture":"岡山県","city":"岡山市東区","street":"西大寺金岡"},{"zipCode":"7048112","prefectureKana":"ｵｶﾔﾏｹﾝ","cityKana":"ｵｶﾔﾏｼﾋｶﾞｼｸ","streetKana":"ｻｲﾀﾞｲｼﾞｶﾐ","prefecture":"岡山県","city":"岡山市東区","street":"西大寺上"},{"zipCode":"7048125","prefectureKana":"ｵｶﾔﾏｹﾝ","cityKana":"ｵｶﾔﾏｼﾋｶﾞｼｸ","streetKana":"ｻｲﾀﾞｲｼﾞｶﾜｸﾞﾁ","prefecture":"岡山県","city":"岡山市東区","street":"西大寺川口"},{"zipCode":"7048111","prefectureKana":"ｵｶﾔﾏｹﾝ","cityKana":"ｵｶﾔﾏｼﾋｶﾞｼｸ","streetKana":"ｻｲﾀﾞｲｼﾞｷﾀ","prefecture":"岡山県","city":"岡山市東区","street":"西大寺北"},{"zipCode":"7048124","prefectureKana":"ｵｶﾔﾏｹﾝ","cityKana":"ｵｶﾔﾏｼﾋｶﾞｼｸ","streetKana":"ｻｲﾀﾞｲｼﾞｺﾞﾐｮｳ","prefecture":"岡山県","city":"岡山市東区","street":"西大寺五明"},{"zipCode":"7048127","prefectureKana":"ｵｶﾔﾏｹﾝ","cityKana":"ｵｶﾔﾏｼﾋｶﾞｼｸ","streetKana":"ｻｲﾀﾞｲｼﾞｼﾝ","prefecture":"岡山県","city":"岡山市東区","street":"西大寺新"},{"zipCode":"7048122","prefectureKana":"ｵｶﾔﾏｹﾝ","cityKana":"ｵｶﾔﾏｼﾋｶﾞｼｸ","streetKana":"ｻｲﾀﾞｲｼﾞｼﾝﾁ","prefecture":"岡山県","city":"岡山市東区","street":"西大寺新地"},{"zipCode":"7048116","prefectureKana":"ｵｶﾔﾏｹﾝ","cityKana":"ｵｶﾔﾏｼﾋｶﾞｼｸ","streetKana":"ｻｲﾀﾞｲｼﾞﾅｶ","prefecture":"岡山県","city":"岡山市東区","street":"西大寺中"},{"zipCode":"7048191","prefectureKana":"ｵｶﾔﾏｹﾝ","cityKana":"ｵｶﾔﾏｼﾋｶﾞｼｸ","streetKana":"ｻｲﾀﾞｲｼﾞﾅｶﾉ","prefecture":"岡山県","city":"岡山市東区","street":"西大寺中野"},{"zipCode":"7048192","prefectureKana":"ｵｶﾔﾏｹﾝ","cityKana":"ｵｶﾔﾏｼﾋｶﾞｼｸ","streetKana":"ｻｲﾀﾞｲｼﾞﾅｶﾉﾎﾝﾏﾁ","prefecture":"岡山県","city":"岡山市東区","street":"西大寺中野本町"},{"zipCode":"7048126","prefectureKana":"ｵｶﾔﾏｹﾝ","cityKana":"ｵｶﾔﾏｼﾋｶﾞｼｸ","streetKana":"ｻｲﾀﾞｲｼﾞﾊﾏ","prefecture":"岡山県","city":"岡山市東区","street":"西大寺浜"},{"zipCode":"7048114","prefectureKana":"ｵｶﾔﾏｹﾝ","cityKana":"ｵｶﾔﾏｼﾋｶﾞｼｸ","streetKana":"ｻｲﾀﾞｲｼﾞﾋｶﾞｼ","prefecture":"岡山県","city":"岡山市東区","street":"西大寺東"},{"zipCode":"7048183","prefectureKana":"ｵｶﾔﾏｹﾝ","cityKana":"ｵｶﾔﾏｼﾋｶﾞｼｸ","streetKana":"ｻｲﾀﾞｲｼﾞﾏﾂｻﾞｷ","prefecture":"岡山県","city":"岡山市東区","street":"西大寺松崎"},{"zipCode":"7048117","prefectureKana":"ｵｶﾔﾏｹﾝ","cityKana":"ｵｶﾔﾏｼﾋｶﾞｼｸ","streetKana":"ｻｲﾀﾞｲｼﾞﾐﾅﾐ","prefecture":"岡山県","city":"岡山市東区","street":"西大寺南"},{"zipCode":"7048123","prefectureKana":"ｵｶﾔﾏｹﾝ","cityKana":"ｵｶﾔﾏｼﾋｶﾞｼｸ","streetKana":"ｻｲﾀﾞｲｼﾞﾓﾝｾﾞﾝ","prefecture":"岡山県","city":"岡山市東区","street":"西大寺門前"},{"zipCode":"7048101","prefectureKana":"ｵｶﾔﾏｹﾝ","cityKana":"ｵｶﾔﾏｼﾋｶﾞｼｸ","streetKana":"ｻｲﾘｭｳｼﾞ","prefecture":"岡山県","city":"岡山市東区","street":"西隆寺"},{"zipCode":"7048141","prefectureKana":"ｵｶﾔﾏｹﾝ","cityKana":"ｵｶﾔﾏｼﾋｶﾞｼｸ","streetKana":"ｼﾓｱﾁ","prefecture":"岡山県","city":"岡山市東区","street":"下阿知"},{"zipCode":"7048133","prefectureKana":"ｵｶﾔﾏｹﾝ","cityKana":"ｵｶﾔﾏｼﾋｶﾞｼｸ","streetKana":"ｼｭｸﾓ","prefecture":"岡山県","city":"岡山市東区","street":"宿毛"},{"zipCode":"7048148","prefectureKana":"ｵｶﾔﾏｹﾝ","cityKana":"ｵｶﾔﾏｼﾋｶﾞｼｸ","streetKana":"ｽｲﾓﾝﾁｮｳ","prefecture":"岡山県","city":"岡山市東区","street":"水門町"},{"zipCode":"7048143","prefectureKana":"ｵｶﾔﾏｹﾝ","cityKana":"ｵｶﾔﾏｼﾋｶﾞｼｸ","streetKana":"ｾﾝｼﾞｭ","prefecture":"岡山県","city":"岡山市東区","street":"千手"},{"zipCode":"7048104","prefectureKana":"ｵｶﾔﾏｹﾝ","cityKana":"ｵｶﾔﾏｼﾋｶﾞｼｸ","streetKana":"ﾄﾐｻｷ","prefecture":"岡山県","city":"岡山市東区","street":"富崎"},{"zipCode":"7048162","prefectureKana":"ｵｶﾔﾏｹﾝ","cityKana":"ｵｶﾔﾏｼﾋｶﾞｼｸ","streetKana":"ﾄﾖﾀ","prefecture":"岡山県","city":"岡山市東区","street":"豊田"},{"zipCode":"7048176","prefectureKana":"ｵｶﾔﾏｹﾝ","cityKana":"ｵｶﾔﾏｼﾋｶﾞｼｸ","streetKana":"ﾅｶｶﾞﾜﾁｮｳ","prefecture":"岡山県","city":"岡山市東区","street":"中川町"},{"zipCode":"7048131","prefectureKana":"ｵｶﾔﾏｹﾝ","cityKana":"ｵｶﾔﾏｼﾋｶﾞｼｸ","streetKana":"ﾅｶﾞﾇﾏ","prefecture":"岡山県","city":"岡山市東区","street":"長沼"},{"zipCode":"7048155","prefectureKana":"ｵｶﾔﾏｹﾝ","cityKana":"ｵｶﾔﾏｼﾋｶﾞｼｸ","streetKana":"ﾆｼｶﾀｵｶ","prefecture":"岡山県","city":"岡山市東区","street":"西片岡"},{"zipCode":"7048136","prefectureKana":"ｵｶﾔﾏｹﾝ","cityKana":"ｵｶﾔﾏｼﾋｶﾞｼｸ","streetKana":"ﾆｼｺｳｻﾞｲ","prefecture":"岡山県","city":"岡山市東区","street":"西幸西"},{"zipCode":"7048106","prefectureKana":"ｵｶﾔﾏｹﾝ","cityKana":"ｵｶﾔﾏｼﾋｶﾞｼｸ","streetKana":"ﾆｼｼｮｳ","prefecture":"岡山県","city":"岡山市東区","street":"西庄"},{"zipCode":"7048151","prefectureKana":"ｵｶﾔﾏｹﾝ","cityKana":"ｵｶﾔﾏｼﾋｶﾞｼｸ","streetKana":"ﾋｶﾞｼｶﾀｵｶ","prefecture":"岡山県","city":"岡山市東区","street":"東片岡"},{"zipCode":"7048135","prefectureKana":"ｵｶﾔﾏｹﾝ","cityKana":"ｵｶﾔﾏｼﾋｶﾞｼｸ","streetKana":"ﾋｶﾞｼｺｳｻﾞｲ","prefecture":"岡山県","city":"岡山市東区","street":"東幸西"},{"zipCode":"7048145","prefectureKana":"ｵｶﾔﾏｹﾝ","cityKana":"ｵｶﾔﾏｼﾋｶﾞｼｸ","streetKana":"ﾋｶﾞｼｺｳｻﾞｷ","prefecture":"岡山県","city":"岡山市東区","street":"東幸崎"},{"zipCode":"7048182","prefectureKana":"ｵｶﾔﾏｹﾝ","cityKana":"ｵｶﾔﾏｼﾋｶﾞｼｸ","streetKana":"ﾋﾛﾀﾆ","prefecture":"岡山県","city":"岡山市東区","street":"広谷"},{"zipCode":"7048107","prefectureKana":"ｵｶﾔﾏｹﾝ","cityKana":"ｵｶﾔﾏｼﾋｶﾞｼｸ","streetKana":"ﾌｸｼﾞ","prefecture":"岡山県","city":"岡山市東区","street":"福治"},{"zipCode":"7048184","prefectureKana":"ｵｶﾔﾏｹﾝ","cityKana":"ｵｶﾔﾏｼﾋｶﾞｼｸ","streetKana":"ﾌｼﾞﾐﾁｮｳ","prefecture":"岡山県","city":"岡山市東区","street":"富士見町"},{"zipCode":"7048152","prefectureKana":"ｵｶﾔﾏｹﾝ","cityKana":"ｵｶﾔﾏｼﾋｶﾞｼｸ","streetKana":"ﾎｳﾃﾞﾝ","prefecture":"岡山県","city":"岡山市東区","street":"宝伝"},{"zipCode":"7048147","prefectureKana":"ｵｶﾔﾏｹﾝ","cityKana":"ｵｶﾔﾏｼﾋｶﾞｼｸ","streetKana":"ﾏｻｷ","prefecture":"岡山県","city":"岡山市東区","street":"正儀"},{"zipCode":"7048165","prefectureKana":"ｵｶﾔﾏｹﾝ","cityKana":"ｵｶﾔﾏｼﾋｶﾞｼｸ","streetKana":"ﾏｻﾂ","prefecture":"岡山県","city":"岡山市東区","street":"政津"},{"zipCode":"7048163","prefectureKana":"ｵｶﾔﾏｹﾝ","cityKana":"ｵｶﾔﾏｼﾋｶﾞｼｸ","streetKana":"ﾏｽﾀﾞ","prefecture":"岡山県","city":"岡山市東区","street":"升田"},{"zipCode":"7048175","prefectureKana":"ｵｶﾔﾏｹﾝ","cityKana":"ｵｶﾔﾏｼﾋｶﾞｼｸ","streetKana":"ﾏｽﾉﾁｮｳ","prefecture":"岡山県","city":"岡山市東区","street":"益野町"},{"zipCode":"7048174","prefectureKana":"ｵｶﾔﾏｹﾝ","cityKana":"ｵｶﾔﾏｼﾋｶﾞｼｸ","streetKana":"ﾏﾂｼﾝﾁｮｳ","prefecture":"岡山県","city":"岡山市東区","street":"松新町"},{"zipCode":"7048146","prefectureKana":"ｵｶﾔﾏｹﾝ","cityKana":"ｵｶﾔﾏｼﾋｶﾞｼｸ","streetKana":"ﾐﾅﾐｽｲﾓﾝﾁｮｳ","prefecture":"岡山県","city":"岡山市東区","street":"南水門町"},{"zipCode":"7048115","prefectureKana":"ｵｶﾔﾏｹﾝ","cityKana":"ｵｶﾔﾏｼﾋｶﾞｼｸ","streetKana":"ﾑｺｳｽ","prefecture":"岡山県","city":"岡山市東区","street":"向州"},{"zipCode":"7048171","prefectureKana":"ｵｶﾔﾏｹﾝ","cityKana":"ｵｶﾔﾏｼﾋｶﾞｼｸ","streetKana":"ﾒｸﾞﾛﾁｮｳ","prefecture":"岡山県","city":"岡山市東区","street":"目黒町"},{"zipCode":"7048105","prefectureKana":"ｵｶﾔﾏｹﾝ","cityKana":"ｵｶﾔﾏｼﾋｶﾞｼｸ","streetKana":"ﾖｼﾜﾗ","prefecture":"岡山県","city":"岡山市東区","street":"吉原"}]