[{"zipCode":"7070000","prefectureKana":"ｵｶﾔﾏｹﾝ","cityKana":"ﾐﾏｻｶｼ","streetKana":"ｲｶﾆｹｲｻｲｶﾞﾅｲﾊﾞｱｲ","prefecture":"岡山県","city":"美作市","street":"以下に掲載がない場合"},{"zipCode":"7070065","prefectureKana":"ｵｶﾔﾏｹﾝ","cityKana":"ﾐﾏｻｶｼ","streetKana":"ｱｵｷ","prefecture":"岡山県","city":"美作市","street":"青木"},{"zipCode":"7070432","prefectureKana":"ｵｶﾔﾏｹﾝ","cityKana":"ﾐﾏｻｶｼ","streetKana":"ｱｶﾀﾞ","prefecture":"岡山県","city":"美作市","street":"赤田"},{"zipCode":"7070053","prefectureKana":"ｵｶﾔﾏｹﾝ","cityKana":"ﾐﾏｻｶｼ","streetKana":"ｱｿ","prefecture":"岡山県","city":"美作市","street":"安蘇"},{"zipCode":"7070437","prefectureKana":"ｵｶﾔﾏｹﾝ","cityKana":"ﾐﾏｻｶｼ","streetKana":"ｱﾜﾉ","prefecture":"岡山県","city":"美作市","street":"粟野"},{"zipCode":"7070052","prefectureKana":"ｵｶﾔﾏｹﾝ","cityKana":"ﾐﾏｻｶｼ","streetKana":"ｲﾃﾞﾝ","prefecture":"岡山県","city":"美作市","street":"位田"},{"zipCode":"7070051","prefectureKana":"ｵｶﾔﾏｹﾝ","cityKana":"ﾐﾏｻｶｼ","streetKana":"ｲﾅﾎ","prefecture":"岡山県","city":"美作市","street":"稲穂"},{"zipCode":"7070034","prefectureKana":"ｵｶﾔﾏｹﾝ","cityKana":"ﾐﾏｻｶｼ","streetKana":"ｲﾌﾞｼ","prefecture":"岡山県","city":"美作市","street":"猪臥"},{"zipCode":"7070416","prefectureKana":"ｵｶﾔﾏｹﾝ","cityKana":"ﾐﾏｻｶｼ","streetKana":"ｲﾏｵｶ","prefecture":"岡山県","city":"美作市","street":"今岡"},{"zipCode":"7070054","prefectureKana":"ｵｶﾔﾏｹﾝ","cityKana":"ﾐﾏｻｶｼ","streetKana":"ｲﾜﾐﾀﾞ","prefecture":"岡山県","city":"美作市","street":"岩見田"},{"zipCode":"7070401","prefectureKana":"ｵｶﾔﾏｹﾝ","cityKana":"ﾐﾏｻｶｼ","streetKana":"ｳｼﾛﾔﾏ","prefecture":"岡山県","city":"美作市","street":"後山"},{"zipCode":"7070204","prefectureKana":"ｵｶﾔﾏｹﾝ","cityKana":"ﾐﾏｻｶｼ","streetKana":"ｳﾃ","prefecture":"岡山県","city":"美作市","street":"右手"},{"zipCode":"7070411","prefectureKana":"ｵｶﾔﾏｹﾝ","cityKana":"ﾐﾏｻｶｼ","streetKana":"ｴﾉﾊﾗ","prefecture":"岡山県","city":"美作市","street":"江ノ原"},{"zipCode":"7070005","prefectureKana":"ｵｶﾔﾏｹﾝ","cityKana":"ﾐﾏｻｶｼ","streetKana":"ｵｵｲｶﾞｵｶ","prefecture":"岡山県","city":"美作市","street":"大井が丘"},{"zipCode":"7070404","prefectureKana":"ｵｶﾔﾏｹﾝ","cityKana":"ﾐﾏｻｶｼ","streetKana":"ｵｵﾀ","prefecture":"岡山県","city":"美作市","street":"太田"},{"zipCode":"7070033","prefectureKana":"ｵｶﾔﾏｹﾝ","cityKana":"ﾐﾏｻｶｼ","streetKana":"ｵｵﾊﾞﾗ","prefecture":"岡山県","city":"美作市","street":"大原"},{"zipCode":"7070124","prefectureKana":"ｵｶﾔﾏｹﾝ","cityKana":"ﾐﾏｻｶｼ","streetKana":"ｵｵﾏﾁ","prefecture":"岡山県","city":"美作市","street":"大町"},{"zipCode":"7070067","prefectureKana":"ｵｶﾔﾏｹﾝ","cityKana":"ﾐﾏｻｶｼ","streetKana":"ｵｸｵｵﾀﾆ","prefecture":"岡山県","city":"美作市","street":"奥大谷"},{"zipCode":"7070132","prefectureKana":"ｵｶﾔﾏｹﾝ","cityKana":"ﾐﾏｻｶｼ","streetKana":"ｵﾊﾞﾀ","prefecture":"岡山県","city":"美作市","street":"小畑"},{"zipCode":"7070423","prefectureKana":"ｵｶﾔﾏｹﾝ","cityKana":"ﾐﾏｻｶｼ","streetKana":"ｵﾊﾗﾀﾞ","prefecture":"岡山県","city":"美作市","street":"小原田"},{"zipCode":"7070044","prefectureKana":"ｵｶﾔﾏｹﾝ","cityKana":"ﾐﾏｻｶｼ","streetKana":"ｶｲﾀ","prefecture":"岡山県","city":"美作市","street":"海田"},{"zipCode":"7070201","prefectureKana":"ｵｶﾔﾏｹﾝ","cityKana":"ﾐﾏｻｶｼ","streetKana":"ｶｼﾞﾅﾐ","prefecture":"岡山県","city":"美作市","street":"梶並"},{"zipCode":"7070426","prefectureKana":"ｵｶﾔﾏｹﾝ","cityKana":"ﾐﾏｻｶｼ","streetKana":"ｶﾂﾗﾂﾎﾞ","prefecture":"岡山県","city":"美作市","street":"桂坪"},{"zipCode":"7070055","prefectureKana":"ｵｶﾔﾏｹﾝ","cityKana":"ﾐﾏｻｶｼ","streetKana":"ｶﾅﾊﾗ","prefecture":"岡山県","city":"美作市","street":"金原"},{"zipCode":"7070001","prefectureKana":"ｵｶﾔﾏｹﾝ","cityKana":"ﾐﾏｻｶｼ","streetKana":"ｶﾐﾔ","prefecture":"岡山県","city":"美作市","street":"上相"},{"zipCode":"7070421","prefectureKana":"ｵｶﾔﾏｹﾝ","cityKana":"ﾐﾏｻｶｼ","streetKana":"ｶﾜｶﾐ","prefecture":"岡山県","city":"美作市","street":"川上"},{"zipCode":"7070436","prefectureKana":"ｵｶﾔﾏｹﾝ","cityKana":"ﾐﾏｻｶｼ","streetKana":"ｶﾜﾄ","prefecture":"岡山県","city":"美作市","street":"川戸"},{"zipCode":"7070407","prefectureKana":"ｵｶﾔﾏｹﾝ","cityKana":"ﾐﾏｻｶｼ","streetKana":"ｶﾜﾋｶﾞｼ","prefecture":"岡山県","city":"美作市","street":"川東"},{"zipCode":"7070063","prefectureKana":"ｵｶﾔﾏｹﾝ","cityKana":"ﾐﾏｻｶｼ","streetKana":"ｷﾀｻｶ","prefecture":"岡山県","city":"美作市","street":"北坂"},{"zipCode":"7070036","prefectureKana":"ｵｶﾔﾏｹﾝ","cityKana":"ﾐﾏｻｶｼ","streetKana":"ｷﾀﾊﾞﾗ","prefecture":"岡山県","city":"美作市","street":"北原"},{"zipCode":"7070014","prefectureKana":"ｵｶﾔﾏｹﾝ","cityKana":"ﾐﾏｻｶｼ","streetKana":"ｷﾀﾔﾏ","prefecture":"岡山県","city":"美作市","street":"北山"},{"zipCode":"7070111","prefectureKana":"ｵｶﾔﾏｹﾝ","cityKana":"ﾐﾏｻｶｼ","streetKana":"ｸｶﾞ","prefecture":"岡山県","city":"美作市","street":"久賀"},{"zipCode":"7070042","prefectureKana":"ｵｶﾔﾏｹﾝ","cityKana":"ﾐﾏｻｶｼ","streetKana":"ｸﾂｷﾞ","prefecture":"岡山県","city":"美作市","street":"朽木"},{"zipCode":"7070202","prefectureKana":"ｵｶﾔﾏｹﾝ","cityKana":"ﾐﾏｻｶｼ","streetKana":"ｺｳｿﾞ","prefecture":"岡山県","city":"美作市","street":"楮"},{"zipCode":"7070131","prefectureKana":"ｵｶﾔﾏｹﾝ","cityKana":"ﾐﾏｻｶｼ","streetKana":"ｺｳﾁ","prefecture":"岡山県","city":"美作市","street":"河内"},{"zipCode":"7070045","prefectureKana":"ｵｶﾔﾏｹﾝ","cityKana":"ﾐﾏｻｶｼ","streetKana":"ｺｾ","prefecture":"岡山県","city":"美作市","street":"巨勢"},{"zipCode":"7070025","prefectureKana":"ｵｶﾔﾏｹﾝ","cityKana":"ﾐﾏｻｶｼ","streetKana":"ｻｶｴﾏﾁ","prefecture":"岡山県","city":"美作市","street":"栄町"},{"zipCode":"7070422","prefectureKana":"ｵｶﾔﾏｹﾝ","cityKana":"ﾐﾏｻｶｼ","streetKana":"ｻｻｵｶ","prefecture":"岡山県","city":"美作市","street":"笹岡"},{"zipCode":"7070435","prefectureKana":"ｵｶﾔﾏｹﾝ","cityKana":"ﾐﾏｻｶｼ","streetKana":"ｻﾜﾀﾞ","prefecture":"岡山県","city":"美作市","street":"沢田"},{"zipCode":"7070066","prefectureKana":"ｵｶﾔﾏｹﾝ","cityKana":"ﾐﾏｻｶｼ","streetKana":"ｼﾓｵｵﾀﾆ","prefecture":"岡山県","city":"美作市","street":"下大谷"},{"zipCode":"7070016","prefectureKana":"ｵｶﾔﾏｹﾝ","cityKana":"ﾐﾏｻｶｼ","streetKana":"ｼﾓｶﾔﾏ","prefecture":"岡山県","city":"美作市","street":"下香山"},{"zipCode":"7070425","prefectureKana":"ｵｶﾔﾏｹﾝ","cityKana":"ﾐﾏｻｶｼ","streetKana":"ｼﾓｼｮｳﾏﾁ","prefecture":"岡山県","city":"美作市","street":"下庄町"},{"zipCode":"7070417","prefectureKana":"ｵｶﾔﾏｹﾝ","cityKana":"ﾐﾏｻｶｼ","streetKana":"ｼﾓﾏﾁ","prefecture":"岡山県","city":"美作市","street":"下町"},{"zipCode":"7070133","prefectureKana":"ｵｶﾔﾏｹﾝ","cityKana":"ﾐﾏｻｶｼ","streetKana":"ｽｷﾞﾊﾗ","prefecture":"岡山県","city":"美作市","street":"杉原"},{"zipCode":"7070431","prefectureKana":"ｵｶﾔﾏｹﾝ","cityKana":"ﾐﾏｻｶｼ","streetKana":"ﾀｲ","prefecture":"岡山県","city":"美作市","street":"田井"},{"zipCode":"7070427","prefectureKana":"ｵｶﾔﾏｹﾝ","cityKana":"ﾐﾏｻｶｼ","streetKana":"ﾀｷ","prefecture":"岡山県","city":"美作市","street":"滝"},{"zipCode":"7070433","prefectureKana":"ｵｶﾔﾏｹﾝ","cityKana":"ﾐﾏｻｶｼ","streetKana":"ﾀﾃｲｼ","prefecture":"岡山県","city":"美作市","street":"立石"},{"zipCode":"7070012","prefectureKana":"ｵｶﾔﾏｹﾝ","cityKana":"ﾐﾏｻｶｼ","streetKana":"ﾀﾄﾞﾉ","prefecture":"岡山県","city":"美作市","street":"田殿"},{"zipCode":"7070064","prefectureKana":"ｵｶﾔﾏｹﾝ","cityKana":"ﾐﾏｻｶｼ","streetKana":"ﾄﾉﾄﾞｺﾛ","prefecture":"岡山県","city":"美作市","street":"殿所"},{"zipCode":"7070037","prefectureKana":"ｵｶﾔﾏｹﾝ","cityKana":"ﾐﾏｻｶｼ","streetKana":"ﾄﾓﾉ","prefecture":"岡山県","city":"美作市","street":"友野"},{"zipCode":"7070015","prefectureKana":"ｵｶﾔﾏｹﾝ","cityKana":"ﾐﾏｻｶｼ","streetKana":"ﾄﾖｸﾆﾊﾗ","prefecture":"岡山県","city":"美作市","street":"豊国原"},{"zipCode":"7070056","prefectureKana":"ｵｶﾔﾏｹﾝ","cityKana":"ﾐﾏｻｶｼ","streetKana":"ﾅｶﾞｳﾁ","prefecture":"岡山県","city":"美作市","street":"長内"},{"zipCode":"7070002","prefectureKana":"ｵｶﾔﾏｹﾝ","cityKana":"ﾐﾏｻｶｼ","streetKana":"ﾅｶｵ","prefecture":"岡山県","city":"美作市","street":"中尾"},{"zipCode":"7070402","prefectureKana":"ｵｶﾔﾏｹﾝ","cityKana":"ﾐﾏｻｶｼ","streetKana":"ﾅｶﾀﾞﾆ","prefecture":"岡山県","city":"美作市","street":"中谷"},{"zipCode":"7070413","prefectureKana":"ｵｶﾔﾏｹﾝ","cityKana":"ﾐﾏｻｶｼ","streetKana":"ﾅｶﾏﾁ","prefecture":"岡山県","city":"美作市","street":"中町"},{"zipCode":"7070061","prefectureKana":"ｵｶﾔﾏｹﾝ","cityKana":"ﾐﾏｻｶｼ","streetKana":"ﾅｶﾔﾏ","prefecture":"岡山県","city":"美作市","street":"中山"},{"zipCode":"7070022","prefectureKana":"ｵｶﾔﾏｹﾝ","cityKana":"ﾐﾏｻｶｼ","streetKana":"ﾅﾗﾊﾗｶﾐ","prefecture":"岡山県","city":"美作市","street":"楢原上"},{"zipCode":"7070024","prefectureKana":"ｵｶﾔﾏｹﾝ","cityKana":"ﾐﾏｻｶｼ","streetKana":"ﾅﾗﾊﾗｼﾓ","prefecture":"岡山県","city":"美作市","street":"楢原下"},{"zipCode":"7070021","prefectureKana":"ｵｶﾔﾏｹﾝ","cityKana":"ﾐﾏｻｶｼ","streetKana":"ﾅﾗﾊﾗﾅｶ","prefecture":"岡山県","city":"美作市","street":"楢原中"},{"zipCode":"7070414","prefectureKana":"ｵｶﾔﾏｹﾝ","cityKana":"ﾐﾏｻｶｼ","streetKana":"ﾆｼﾏﾁ","prefecture":"岡山県","city":"美作市","street":"西町"},{"zipCode":"7070004","prefectureKana":"ｵｶﾔﾏｹﾝ","cityKana":"ﾐﾏｻｶｼ","streetKana":"ﾆｭｳﾀ","prefecture":"岡山県","city":"美作市","street":"入田"},{"zipCode":"7070424","prefectureKana":"ｵｶﾔﾏｹﾝ","cityKana":"ﾐﾏｻｶｼ","streetKana":"ﾉｶﾞﾀ","prefecture":"岡山県","city":"美作市","street":"野形"},{"zipCode":"7070405","prefectureKana":"ｵｶﾔﾏｹﾝ","cityKana":"ﾐﾏｻｶｼ","streetKana":"ﾉﾊﾗ","prefecture":"岡山県","city":"美作市","street":"野原"},{"zipCode":"7070057","prefectureKana":"ｵｶﾔﾏｹﾝ","cityKana":"ﾐﾏｻｶｼ","streetKana":"ﾉﾘﾋﾗ","prefecture":"岡山県","city":"美作市","street":"則平"},{"zipCode":"7070121","prefectureKana":"ｵｶﾔﾏｹﾝ","cityKana":"ﾐﾏｻｶｼ","streetKana":"ﾊｾｳﾁ","prefecture":"岡山県","city":"美作市","street":"長谷内"},{"zipCode":"7070041","prefectureKana":"ｵｶﾔﾏｹﾝ","cityKana":"ﾐﾏｻｶｼ","streetKana":"ﾊﾔｼﾉ","prefecture":"岡山県","city":"美作市","street":"林野"},{"zipCode":"7070403","prefectureKana":"ｵｶﾔﾏｹﾝ","cityKana":"ﾐﾏｻｶｼ","streetKana":"ﾋｶﾞｼｱｵﾉ","prefecture":"岡山県","city":"美作市","street":"東青野"},{"zipCode":"7070205","prefectureKana":"ｵｶﾔﾏｹﾝ","cityKana":"ﾐﾏｻｶｼ","streetKana":"ﾋｶﾞｼﾀﾞﾆｶﾐ","prefecture":"岡山県","city":"美作市","street":"東谷上"},{"zipCode":"7070206","prefectureKana":"ｵｶﾔﾏｹﾝ","cityKana":"ﾐﾏｻｶｼ","streetKana":"ﾋｶﾞｼﾀﾞﾆｼﾓ","prefecture":"岡山県","city":"美作市","street":"東谷下"},{"zipCode":"7070406","prefectureKana":"ｵｶﾔﾏｹﾝ","cityKana":"ﾐﾏｻｶｼ","streetKana":"ﾋｶﾞｼﾖｼﾀﾞ","prefecture":"岡山県","city":"美作市","street":"東吉田"},{"zipCode":"7070035","prefectureKana":"ｵｶﾔﾏｹﾝ","cityKana":"ﾐﾏｻｶｼ","streetKana":"ﾋﾗﾀ","prefecture":"岡山県","city":"美作市","street":"平田"},{"zipCode":"7070023","prefectureKana":"ｵｶﾔﾏｹﾝ","cityKana":"ﾐﾏｻｶｼ","streetKana":"ﾋﾗﾌｸ","prefecture":"岡山県","city":"美作市","street":"平福"},{"zipCode":"7070412","prefectureKana":"ｵｶﾔﾏｹﾝ","cityKana":"ﾐﾏｻｶｼ","streetKana":"ﾌﾙﾏﾁ","prefecture":"岡山県","city":"美作市","street":"古町"},{"zipCode":"7070122","prefectureKana":"ｵｶﾔﾏｹﾝ","cityKana":"ﾐﾏｻｶｼ","streetKana":"ﾏｶﾞﾀ","prefecture":"岡山県","city":"美作市","street":"馬形"},{"zipCode":"7070113","prefectureKana":"ｵｶﾔﾏｹﾝ","cityKana":"ﾐﾏｻｶｼ","streetKana":"ﾏｶﾍﾞ","prefecture":"岡山県","city":"美作市","street":"真加部"},{"zipCode":"7070203","prefectureKana":"ｵｶﾔﾏｹﾝ","cityKana":"ﾐﾏｻｶｼ","streetKana":"ﾏﾄﾉ","prefecture":"岡山県","city":"美作市","street":"真殿"},{"zipCode":"7070043","prefectureKana":"ｵｶﾔﾏｹﾝ","cityKana":"ﾐﾏｻｶｼ","streetKana":"ﾐｳﾁ","prefecture":"岡山県","city":"美作市","street":"海内"},{"zipCode":"7070046","prefectureKana":"ｵｶﾔﾏｹﾝ","cityKana":"ﾐﾏｻｶｼ","streetKana":"ﾐｸﾗﾀﾞ","prefecture":"岡山県","city":"美作市","street":"三倉田"},{"zipCode":"7070434","prefectureKana":"ｵｶﾔﾏｹﾝ","cityKana":"ﾐﾏｻｶｼ","streetKana":"ﾐﾌﾞ","prefecture":"岡山県","city":"美作市","street":"壬生"},{"zipCode":"7070415","prefectureKana":"ｵｶﾔﾏｹﾝ","cityKana":"ﾐﾏｻｶｼ","streetKana":"ﾐﾔﾓﾄ","prefecture":"岡山県","city":"美作市","street":"宮本"},{"zipCode":"7070003","prefectureKana":"ｵｶﾔﾏｹﾝ","cityKana":"ﾐﾏｻｶｼ","streetKana":"ﾐｮｳｹﾝ","prefecture":"岡山県","city":"美作市","street":"明見"},{"zipCode":"7070123","prefectureKana":"ｵｶﾔﾏｹﾝ","cityKana":"ﾐﾏｻｶｼ","streetKana":"ﾑﾅｶｹ","prefecture":"岡山県","city":"美作市","street":"宗掛"},{"zipCode":"7070134","prefectureKana":"ｵｶﾔﾏｹﾝ","cityKana":"ﾐﾏｻｶｼ","streetKana":"ﾔﾀ","prefecture":"岡山県","city":"美作市","street":"矢田"},{"zipCode":"7070031","prefectureKana":"ｵｶﾔﾏｹﾝ","cityKana":"ﾐﾏｻｶｼ","streetKana":"ﾔﾏｸﾞﾁ","prefecture":"岡山県","city":"美作市","street":"山口"},{"zipCode":"7070032","prefectureKana":"ｵｶﾔﾏｹﾝ","cityKana":"ﾐﾏｻｶｼ","streetKana":"ﾔﾏﾄﾉ","prefecture":"岡山県","city":"美作市","street":"山外野"},{"zipCode":"7070062","prefectureKana":"ｵｶﾔﾏｹﾝ","cityKana":"ﾐﾏｻｶｼ","streetKana":"ﾕﾉｺﾞｳ","prefecture":"岡山県","city":"美作市","street":"湯郷"},{"zipCode":"7070013","prefectureKana":"ｵｶﾔﾏｹﾝ","cityKana":"ﾐﾏｻｶｼ","streetKana":"ﾖｼ","prefecture":"岡山県","city":"美作市","street":"吉"},{"zipCode":"7070112","prefectureKana":"ｵｶﾔﾏｹﾝ","cityKana":"ﾐﾏｻｶｼ","streetKana":"ﾖﾉ","prefecture":"岡山県","city":"美作市","street":"余野"},{"zipCode":"7070011","prefectureKana":"ｵｶﾔﾏｹﾝ","cityKana":"ﾐﾏｻｶｼ","streetKana":"ﾜﾀﾞ","prefecture":"岡山県","city":"美作市","street":"和田"},{"zipCode":"7070500","prefectureKana":"ｵｶﾔﾏｹﾝ","cityKana":"ｱｲﾀﾞｸﾞﾝﾆｼｱﾜｸﾗｿﾝ","streetKana":"ｲｶﾆｹｲｻｲｶﾞﾅｲﾊﾞｱｲ","prefecture":"岡山県","city":"英田郡西粟倉村","street":"以下に掲載がない場合"},{"zipCode":"7070505","prefectureKana":"ｵｶﾔﾏｹﾝ","cityKana":"ｱｲﾀﾞｸﾞﾝﾆｼｱﾜｸﾗｿﾝ","streetKana":"ｲｶﾀﾞﾂ","prefecture":"岡山県","city":"英田郡西粟倉村","street":"筏津"},{"zipCode":"7070501","prefectureKana":"ｵｶﾔﾏｹﾝ","cityKana":"ｱｲﾀﾞｸﾞﾝﾆｼｱﾜｸﾗｿﾝ","streetKana":"ｵｵｶﾞﾔ","prefecture":"岡山県","city":"英田郡西粟倉村","street":"大茅"},{"zipCode":"7070503","prefectureKana":"ｵｶﾔﾏｹﾝ","cityKana":"ｱｲﾀﾞｸﾞﾝﾆｼｱﾜｸﾗｿﾝ","streetKana":"ｶｹﾞｲｼ","prefecture":"岡山県","city":"英田郡西粟倉村","street":"影石"},{"zipCode":"7070502","prefectureKana":"ｵｶﾔﾏｹﾝ","cityKana":"ｱｲﾀﾞｸﾞﾝﾆｼｱﾜｸﾗｿﾝ","streetKana":"ｻｶﾈ","prefecture":"岡山県","city":"英田郡西粟倉村","street":"坂根"},{"zipCode":"7070506","prefectureKana":"ｵｶﾔﾏｹﾝ","cityKana":"ｱｲﾀﾞｸﾞﾝﾆｼｱﾜｸﾗｿﾝ","streetKana":"ﾁｼｬ","prefecture":"岡山県","city":"英田郡西粟倉村","street":"知社"},{"zipCode":"7070504","prefectureKana":"ｵｶﾔﾏｹﾝ","cityKana":"ｱｲﾀﾞｸﾞﾝﾆｼｱﾜｸﾗｿﾝ","streetKana":"ﾅｶﾞｵ","prefecture":"岡山県","city":"英田郡西粟倉村","street":"長尾"}]