[{"zipCode":"7093131","prefectureKana":"ｵｶﾔﾏｹﾝ","cityKana":"ｵｶﾔﾏｼｷﾀｸ","streetKana":"ﾀｹﾍﾞﾁｮｳｲﾁﾊﾞ","prefecture":"岡山県","city":"岡山市北区","street":"建部町市場"},{"zipCode":"7093121","prefectureKana":"ｵｶﾔﾏｹﾝ","cityKana":"ｵｶﾔﾏｼｷﾀｸ","streetKana":"ﾀｹﾍﾞﾁｮｳｵｵﾀﾞ","prefecture":"岡山県","city":"岡山市北区","street":"建部町大田"},{"zipCode":"7093124","prefectureKana":"ｵｶﾔﾏｹﾝ","cityKana":"ｵｶﾔﾏｼｷﾀｸ","streetKana":"ﾀｹﾍﾞﾁｮｳｵｸﾞﾗ","prefecture":"岡山県","city":"岡山市北区","street":"建部町小倉"},{"zipCode":"7093112","prefectureKana":"ｵｶﾔﾏｹﾝ","cityKana":"ｵｶﾔﾏｼｷﾀｸ","streetKana":"ﾀｹﾍﾞﾁｮｳｶﾜｸﾞﾁ","prefecture":"岡山県","city":"岡山市北区","street":"建部町川口"},{"zipCode":"7093134","prefectureKana":"ｵｶﾔﾏｹﾝ","cityKana":"ｵｶﾔﾏｼｷﾀｸ","streetKana":"ﾀｹﾍﾞﾁｮｳｻｸﾗ","prefecture":"岡山県","city":"岡山市北区","street":"建部町桜"},{"zipCode":"7093105","prefectureKana":"ｵｶﾔﾏｹﾝ","cityKana":"ｵｶﾔﾏｼｷﾀｸ","streetKana":"ﾀｹﾍﾞﾁｮｳｻﾝﾐｮｳｼﾞ","prefecture":"岡山県","city":"岡山市北区","street":"建部町三明寺"},{"zipCode":"7093141","prefectureKana":"ｵｶﾔﾏｹﾝ","cityKana":"ｵｶﾔﾏｼｷﾀｸ","streetKana":"ﾀｹﾍﾞﾁｮｳｼﾅﾀﾞ","prefecture":"岡山県","city":"岡山市北区","street":"建部町品田"},{"zipCode":"7093113","prefectureKana":"ｵｶﾔﾏｹﾝ","cityKana":"ｵｶﾔﾏｼｷﾀｸ","streetKana":"ﾀｹﾍﾞﾁｮｳｼﾓｺｳﾒ","prefecture":"岡山県","city":"岡山市北区","street":"建部町下神目"},{"zipCode":"7093142","prefectureKana":"ｵｶﾔﾏｹﾝ","cityKana":"ｵｶﾔﾏｼｷﾀｸ","streetKana":"ﾀｹﾍﾞﾁｮｳﾀｹﾍﾞｶﾐ","prefecture":"岡山県","city":"岡山市北区","street":"建部町建部上"},{"zipCode":"7093145","prefectureKana":"ｵｶﾔﾏｹﾝ","cityKana":"ｵｶﾔﾏｼｷﾀｸ","streetKana":"ﾀｹﾍﾞﾁｮｳﾀｼﾞｺ","prefecture":"岡山県","city":"岡山市北区","street":"建部町田地子"},{"zipCode":"7093101","prefectureKana":"ｵｶﾔﾏｹﾝ","cityKana":"ｵｶﾔﾏｼｷﾀｸ","streetKana":"ﾀｹﾍﾞﾁｮｳﾀﾂﾞﾀ","prefecture":"岡山県","city":"岡山市北区","street":"建部町鶴田"},{"zipCode":"7093103","prefectureKana":"ｵｶﾔﾏｹﾝ","cityKana":"ｵｶﾔﾏｼｷﾀｸ","streetKana":"ﾀｹﾍﾞﾁｮｳﾂｲｼｳﾈ","prefecture":"岡山県","city":"岡山市北区","street":"建部町角石畝"},{"zipCode":"7093104","prefectureKana":"ｵｶﾔﾏｹﾝ","cityKana":"ｵｶﾔﾏｼｷﾀｸ","streetKana":"ﾀｹﾍﾞﾁｮｳﾂｲｼﾀﾞﾆ","prefecture":"岡山県","city":"岡山市北区","street":"建部町角石谷"},{"zipCode":"7093144","prefectureKana":"ｵｶﾔﾏｹﾝ","cityKana":"ｵｶﾔﾏｼｷﾀｸ","streetKana":"ﾀｹﾍﾞﾁｮｳﾄﾐｻﾜ","prefecture":"岡山県","city":"岡山市北区","street":"建部町富沢"},{"zipCode":"7093132","prefectureKana":"ｵｶﾔﾏｹﾝ","cityKana":"ｵｶﾔﾏｼｷﾀｸ","streetKana":"ﾀｹﾍﾞﾁｮｳﾅｶﾀﾞ","prefecture":"岡山県","city":"岡山市北区","street":"建部町中田"},{"zipCode":"7093133","prefectureKana":"ｵｶﾔﾏｹﾝ","cityKana":"ｵｶﾔﾏｼｷﾀｸ","streetKana":"ﾀｹﾍﾞﾁｮｳﾆｼﾊﾞﾗ","prefecture":"岡山県","city":"岡山市北区","street":"建部町西原"},{"zipCode":"7093123","prefectureKana":"ｵｶﾔﾏｹﾝ","cityKana":"ｵｶﾔﾏｼｷﾀｸ","streetKana":"ﾀｹﾍﾞﾁｮｳﾊｼﾞｶﾀ","prefecture":"岡山県","city":"岡山市北区","street":"建部町土師方"},{"zipCode":"7093111","prefectureKana":"ｵｶﾔﾏｹﾝ","cityKana":"ｵｶﾔﾏｼｷﾀｸ","streetKana":"ﾀｹﾍﾞﾁｮｳﾌｸﾜﾀﾘ","prefecture":"岡山県","city":"岡山市北区","street":"建部町福渡"},{"zipCode":"7093114","prefectureKana":"ｵｶﾔﾏｹﾝ","cityKana":"ｵｶﾔﾏｼｷﾀｸ","streetKana":"ﾀｹﾍﾞﾁｮｳﾌﾞﾗｸｼﾞ","prefecture":"岡山県","city":"岡山市北区","street":"建部町豊楽寺"},{"zipCode":"7093143","prefectureKana":"ｵｶﾔﾏｹﾝ","cityKana":"ｵｶﾔﾏｼｷﾀｸ","streetKana":"ﾀｹﾍﾞﾁｮｳﾐﾔｼﾞ","prefecture":"岡山県","city":"岡山市北区","street":"建部町宮地"},{"zipCode":"7093122","prefectureKana":"ｵｶﾔﾏｹﾝ","cityKana":"ｵｶﾔﾏｼｷﾀｸ","streetKana":"ﾀｹﾍﾞﾁｮｳﾖｼﾀﾞ","prefecture":"岡山県","city":"岡山市北区","street":"建部町吉田"},{"zipCode":"7093102","prefectureKana":"ｵｶﾔﾏｹﾝ","cityKana":"ｵｶﾔﾏｼｷﾀｸ","streetKana":"ﾀｹﾍﾞﾁｮｳﾜﾀﾞﾐﾅﾐ","prefecture":"岡山県","city":"岡山市北区","street":"建部町和田南"},{"zipCode":"7092101","prefectureKana":"ｵｶﾔﾏｹﾝ","cityKana":"ｵｶﾔﾏｼｷﾀｸ","streetKana":"ﾐﾂｲｼｶﾐ","prefecture":"岡山県","city":"岡山市北区","street":"御津石上"},{"zipCode":"7092105","prefectureKana":"ｵｶﾔﾏｹﾝ","cityKana":"ｵｶﾔﾏｼｷﾀｸ","streetKana":"ﾐﾂｲﾀ","prefecture":"岡山県","city":"岡山市北区","street":"御津伊田"},{"zipCode":"7092125","prefectureKana":"ｵｶﾔﾏｹﾝ","cityKana":"ｵｶﾔﾏｼｷﾀｸ","streetKana":"ﾐﾂｳｶｲ","prefecture":"岡山県","city":"岡山市北区","street":"御津宇甘"},{"zipCode":"7092121","prefectureKana":"ｵｶﾔﾏｹﾝ","cityKana":"ｵｶﾔﾏｼｷﾀｸ","streetKana":"ﾐﾂｳｶﾞｷ","prefecture":"岡山県","city":"岡山市北区","street":"御津宇垣"},{"zipCode":"7092131","prefectureKana":"ｵｶﾔﾏｹﾝ","cityKana":"ｵｶﾔﾏｼｷﾀｸ","streetKana":"ﾐﾂｶｾ","prefecture":"岡山県","city":"岡山市北区","street":"御津鹿瀬"},{"zipCode":"7092126","prefectureKana":"ｵｶﾔﾏｹﾝ","cityKana":"ｵｶﾔﾏｼｷﾀｸ","streetKana":"ﾐﾂｶﾂｵ","prefecture":"岡山県","city":"岡山市北区","street":"御津勝尾"},{"zipCode":"7092133","prefectureKana":"ｵｶﾔﾏｹﾝ","cityKana":"ｵｶﾔﾏｼｷﾀｸ","streetKana":"ﾐﾂｶﾅｶﾞﾜ","prefecture":"岡山県","city":"岡山市北区","street":"御津金川"},{"zipCode":"7092111","prefectureKana":"ｵｶﾔﾏｹﾝ","cityKana":"ｵｶﾔﾏｼｷﾀｸ","streetKana":"ﾐﾂｶﾜﾀｶ","prefecture":"岡山県","city":"岡山市北区","street":"御津川高"},{"zipCode":"7092115","prefectureKana":"ｵｶﾔﾏｹﾝ","cityKana":"ｵｶﾔﾏｼｷﾀｸ","streetKana":"ﾐﾂｷﾀﾉ","prefecture":"岡山県","city":"岡山市北区","street":"御津北野"},{"zipCode":"7092132","prefectureKana":"ｵｶﾔﾏｹﾝ","cityKana":"ｵｶﾔﾏｼｷﾀｸ","streetKana":"ﾐﾂｸｿｳ","prefecture":"岡山県","city":"岡山市北区","street":"御津草生"},{"zipCode":"7092112","prefectureKana":"ｵｶﾔﾏｹﾝ","cityKana":"ｵｶﾔﾏｼｷﾀｸ","streetKana":"ﾐﾂｸﾆｶﾞﾊﾗ","prefecture":"岡山県","city":"岡山市北区","street":"御津国ケ原"},{"zipCode":"7092123","prefectureKana":"ｵｶﾔﾏｹﾝ","cityKana":"ｵｶﾔﾏｼｷﾀｸ","streetKana":"ﾐﾂｺｳﾁ","prefecture":"岡山県","city":"岡山市北区","street":"御津河内"},{"zipCode":"7092137","prefectureKana":"ｵｶﾔﾏｹﾝ","cityKana":"ｵｶﾔﾏｼｷﾀｸ","streetKana":"ﾐﾂｺｸﾞﾗ","prefecture":"岡山県","city":"岡山市北区","street":"御津虎倉"},{"zipCode":"7092136","prefectureKana":"ｵｶﾔﾏｹﾝ","cityKana":"ｵｶﾔﾏｼｷﾀｸ","streetKana":"ﾐﾂｼﾄﾘ","prefecture":"岡山県","city":"岡山市北区","street":"御津紙工"},{"zipCode":"7092134","prefectureKana":"ｵｶﾔﾏｹﾝ","cityKana":"ｵｶﾔﾏｼｷﾀｸ","streetKana":"ﾐﾂｼﾓﾀﾞ","prefecture":"岡山県","city":"岡山市北区","street":"御津下田"},{"zipCode":"7092106","prefectureKana":"ｵｶﾔﾏｹﾝ","cityKana":"ｵｶﾔﾏｼｷﾀｸ","streetKana":"ﾐﾂｼﾝｼﾞｮｳ","prefecture":"岡山県","city":"岡山市北区","street":"御津新庄"},{"zipCode":"7092124","prefectureKana":"ｵｶﾔﾏｹﾝ","cityKana":"ｵｶﾔﾏｼｷﾀｸ","streetKana":"ﾐﾂﾀｶﾂﾞ","prefecture":"岡山県","city":"岡山市北区","street":"御津高津"},{"zipCode":"7092135","prefectureKana":"ｵｶﾔﾏｹﾝ","cityKana":"ｵｶﾔﾏｼｷﾀｸ","streetKana":"ﾐﾂﾅｶｲｽﾞﾐ","prefecture":"岡山県","city":"岡山市北区","street":"御津中泉"},{"zipCode":"7092102","prefectureKana":"ｵｶﾔﾏｹﾝ","cityKana":"ｵｶﾔﾏｼｷﾀｸ","streetKana":"ﾐﾂﾅｶﾊﾀ","prefecture":"岡山県","city":"岡山市北区","street":"御津中畑"},{"zipCode":"7092114","prefectureKana":"ｵｶﾔﾏｹﾝ","cityKana":"ｵｶﾔﾏｼｷﾀｸ","streetKana":"ﾐﾂﾅｶﾏｷ","prefecture":"岡山県","city":"岡山市北区","street":"御津中牧"},{"zipCode":"7092116","prefectureKana":"ｵｶﾔﾏｹﾝ","cityKana":"ｵｶﾔﾏｼｷﾀｸ","streetKana":"ﾐﾂﾅｶﾔﾏ","prefecture":"岡山県","city":"岡山市北区","street":"御津中山"},{"zipCode":"7092117","prefectureKana":"ｵｶﾔﾏｹﾝ","cityKana":"ｵｶﾔﾏｼｷﾀｸ","streetKana":"ﾐﾂﾉﾉｸﾁ","prefecture":"岡山県","city":"岡山市北区","street":"御津野々口"},{"zipCode":"7092104","prefectureKana":"ｵｶﾔﾏｹﾝ","cityKana":"ｵｶﾔﾏｼｷﾀｸ","streetKana":"ﾐﾂﾋﾗｵｶﾆｼ","prefecture":"岡山県","city":"岡山市北区","street":"御津平岡西"},{"zipCode":"7092103","prefectureKana":"ｵｶﾔﾏｹﾝ","cityKana":"ｵｶﾔﾏｼｷﾀｸ","streetKana":"ﾐﾂﾔﾁ","prefecture":"岡山県","city":"岡山市北区","street":"御津矢知"},{"zipCode":"7092107","prefectureKana":"ｵｶﾔﾏｹﾝ","cityKana":"ｵｶﾔﾏｼｷﾀｸ","streetKana":"ﾐﾂﾔﾊﾞﾗ","prefecture":"岡山県","city":"岡山市北区","street":"御津矢原"},{"zipCode":"7092122","prefectureKana":"ｵｶﾔﾏｹﾝ","cityKana":"ｵｶﾔﾏｼｷﾀｸ","streetKana":"ﾐﾂﾖｼｵ","prefecture":"岡山県","city":"岡山市北区","street":"御津吉尾"},{"zipCode":"7092113","prefectureKana":"ｵｶﾔﾏｹﾝ","cityKana":"ｵｶﾔﾏｼｷﾀｸ","streetKana":"ﾐﾂﾖｼﾀﾆ","prefecture":"岡山県","city":"岡山市北区","street":"御津芳谷"},{"zipCode":"7090605","prefectureKana":"ｵｶﾔﾏｹﾝ","cityKana":"ｵｶﾔﾏｼﾋｶﾞｼｸ","streetKana":"ｱｻｶﾜ","prefecture":"岡山県","city":"岡山市東区","street":"浅川"},{"zipCode":"7090612","prefectureKana":"ｵｶﾔﾏｹﾝ","cityKana":"ｵｶﾔﾏｼﾋｶﾞｼｸ","streetKana":"ｳﾁｶﾞﾊﾗ","prefecture":"岡山県","city":"岡山市東区","street":"内ケ原"},{"zipCode":"7090607","prefectureKana":"ｵｶﾔﾏｹﾝ","cityKana":"ｵｶﾔﾏｼﾋｶﾞｼｸ","streetKana":"ｳﾗﾏ","prefecture":"岡山県","city":"岡山市東区","street":"浦間"},{"zipCode":"7090635","prefectureKana":"ｵｶﾔﾏｹﾝ","cityKana":"ｵｶﾔﾏｼﾋｶﾞｼｸ","streetKana":"ｸｻｶﾍﾞ","prefecture":"岡山県","city":"岡山市東区","street":"草ケ部"},{"zipCode":"7090615","prefectureKana":"ｵｶﾔﾏｹﾝ","cityKana":"ｵｶﾔﾏｼﾋｶﾞｼｸ","streetKana":"ｻｲｻﾞｷ","prefecture":"岡山県","city":"岡山市東区","street":"才崎"},{"zipCode":"7090625","prefectureKana":"ｵｶﾔﾏｹﾝ","cityKana":"ｵｶﾔﾏｼﾋｶﾞｼｸ","streetKana":"ｼﾞｮｳﾄｳｷﾀｶﾞﾀ","prefecture":"岡山県","city":"岡山市東区","street":"上道北方"},{"zipCode":"7090624","prefectureKana":"ｵｶﾔﾏｹﾝ","cityKana":"ｵｶﾔﾏｼﾋｶﾞｼｸ","streetKana":"ｼﾞｮｳﾄｳﾀﾞｲﾆｼ","prefecture":"岡山県","city":"岡山市東区","street":"城東台西"},{"zipCode":"7090622","prefectureKana":"ｵｶﾔﾏｹﾝ","cityKana":"ｵｶﾔﾏｼﾋｶﾞｼｸ","streetKana":"ｼﾞｮｳﾄｳﾀﾞｲﾋｶﾞｼ","prefecture":"岡山県","city":"岡山市東区","street":"城東台東"},{"zipCode":"7090623","prefectureKana":"ｵｶﾔﾏｹﾝ","cityKana":"ｵｶﾔﾏｼﾋｶﾞｼｸ","streetKana":"ｼﾞｮｳﾄｳﾀﾞｲﾐﾅﾐ","prefecture":"岡山県","city":"岡山市東区","street":"城東台南"},{"zipCode":"7090634","prefectureKana":"ｵｶﾔﾏｹﾝ","cityKana":"ｵｶﾔﾏｼﾋｶﾞｼｸ","streetKana":"ｽﾅﾊﾞ","prefecture":"岡山県","city":"岡山市東区","street":"砂場"},{"zipCode":"7090603","prefectureKana":"ｵｶﾔﾏｹﾝ","cityKana":"ｵｶﾔﾏｼﾋｶﾞｼｸ","streetKana":"ｾｲｿ","prefecture":"岡山県","city":"岡山市東区","street":"西祖"},{"zipCode":"7090853","prefectureKana":"ｵｶﾔﾏｹﾝ","cityKana":"ｵｶﾔﾏｼﾋｶﾞｼｸ","streetKana":"ｾﾄﾁｮｳｱｻﾋｶﾞｵｶ","prefecture":"岡山県","city":"岡山市東区","street":"瀬戸町旭ヶ丘"},{"zipCode":"7090854","prefectureKana":"ｵｶﾔﾏｹﾝ","cityKana":"ｵｶﾔﾏｼﾋｶﾞｼｸ","streetKana":"ｾﾄﾁｮｳｴｼﾞﾘ","prefecture":"岡山県","city":"岡山市東区","street":"瀬戸町江尻"},{"zipCode":"7090851","prefectureKana":"ｵｶﾔﾏｹﾝ","cityKana":"ｵｶﾔﾏｼﾋｶﾞｼｸ","streetKana":"ｾﾄﾁｮｳｵｵﾁ","prefecture":"岡山県","city":"岡山市東区","street":"瀬戸町大内"},{"zipCode":"7090855","prefectureKana":"ｵｶﾔﾏｹﾝ","cityKana":"ｵｶﾔﾏｼﾋｶﾞｼｸ","streetKana":"ｾﾄﾁｮｳｵｷ","prefecture":"岡山県","city":"岡山市東区","street":"瀬戸町沖"},{"zipCode":"7090845","prefectureKana":"ｵｶﾔﾏｹﾝ","cityKana":"ｵｶﾔﾏｼﾋｶﾞｼｸ","streetKana":"ｾﾄﾁｮｳｶｼﾞﾔ","prefecture":"岡山県","city":"岡山市東区","street":"瀬戸町鍛冶屋"},{"zipCode":"7090852","prefectureKana":"ｵｶﾔﾏｹﾝ","cityKana":"ｵｶﾔﾏｼﾋｶﾞｼｸ","streetKana":"ｾﾄﾁｮｳｶﾀｾ","prefecture":"岡山県","city":"岡山市東区","street":"瀬戸町肩脊"},{"zipCode":"7090863","prefectureKana":"ｵｶﾔﾏｹﾝ","cityKana":"ｵｶﾔﾏｼﾋｶﾞｼｸ","streetKana":"ｾﾄﾁｮｳｶﾝｵﾝｼﾞ","prefecture":"岡山県","city":"岡山市東区","street":"瀬戸町観音寺"},{"zipCode":"7090865","prefectureKana":"ｵｶﾔﾏｹﾝ","cityKana":"ｵｶﾔﾏｼﾋｶﾞｼｸ","streetKana":"ｾﾄﾁｮｳｷｸﾔﾏ","prefecture":"岡山県","city":"岡山市東区","street":"瀬戸町菊山"},{"zipCode":"7090876","prefectureKana":"ｵｶﾔﾏｹﾝ","cityKana":"ｵｶﾔﾏｼﾋｶﾞｼｸ","streetKana":"ｾﾄﾁｮｳｺｳﾐｮｳﾀﾆ","prefecture":"岡山県","city":"岡山市東区","street":"瀬戸町光明谷"},{"zipCode":"7090873","prefectureKana":"ｵｶﾔﾏｹﾝ","cityKana":"ｵｶﾔﾏｼﾋｶﾞｼｸ","streetKana":"ｾﾄﾁｮｳｻｶﾈ","prefecture":"岡山県","city":"岡山市東区","street":"瀬戸町坂根"},{"zipCode":"7090862","prefectureKana":"ｵｶﾔﾏｹﾝ","cityKana":"ｵｶﾔﾏｼﾋｶﾞｼｸ","streetKana":"ｾﾄﾁｮｳｻｻｵｶ","prefecture":"岡山県","city":"岡山市東区","street":"瀬戸町笹岡"},{"zipCode":"7090871","prefectureKana":"ｵｶﾔﾏｹﾝ","cityKana":"ｵｶﾔﾏｼﾋｶﾞｼｸ","streetKana":"ｾﾄﾁｮｳｼｵﾉｳ","prefecture":"岡山県","city":"岡山市東区","street":"瀬戸町塩納"},{"zipCode":"7090856","prefectureKana":"ｵｶﾔﾏｹﾝ","cityKana":"ｵｶﾔﾏｼﾋｶﾞｼｸ","streetKana":"ｾﾄﾁｮｳｼﾓ","prefecture":"岡山県","city":"岡山市東区","street":"瀬戸町下"},{"zipCode":"7090864","prefectureKana":"ｵｶﾔﾏｹﾝ","cityKana":"ｵｶﾔﾏｼﾋｶﾞｼｸ","streetKana":"ｾﾄﾁｮｳｼｭｸｵｸ","prefecture":"岡山県","city":"岡山市東区","street":"瀬戸町宿奥"},{"zipCode":"7090861","prefectureKana":"ｵｶﾔﾏｹﾝ","cityKana":"ｵｶﾔﾏｼﾋｶﾞｼｸ","streetKana":"ｾﾄﾁｮｳｾﾄ","prefecture":"岡山県","city":"岡山市東区","street":"瀬戸町瀬戸"},{"zipCode":"7090872","prefectureKana":"ｵｶﾔﾏｹﾝ","cityKana":"ｵｶﾔﾏｼﾋｶﾞｼｸ","streetKana":"ｾﾄﾁｮｳｿｳﾄﾞｳ","prefecture":"岡山県","city":"岡山市東区","street":"瀬戸町宗堂"},{"zipCode":"7090846","prefectureKana":"ｵｶﾔﾏｹﾝ","cityKana":"ｵｶﾔﾏｼﾋｶﾞｼｸ","streetKana":"ｾﾄﾁｮｳﾀﾞｲｲ","prefecture":"岡山県","city":"岡山市東区","street":"瀬戸町大井"},{"zipCode":"7090875","prefectureKana":"ｵｶﾔﾏｹﾝ","cityKana":"ｵｶﾔﾏｼﾋｶﾞｼｸ","streetKana":"ｾﾄﾁｮｳﾃﾗｼﾞ","prefecture":"岡山県","city":"岡山市東区","street":"瀬戸町寺地"},{"zipCode":"7090842","prefectureKana":"ｵｶﾔﾏｹﾝ","cityKana":"ｵｶﾔﾏｼﾋｶﾞｼｸ","streetKana":"ｾﾄﾁｮｳﾌﾂｶｲﾁ","prefecture":"岡山県","city":"岡山市東区","street":"瀬戸町二日市"},{"zipCode":"7090841","prefectureKana":"ｵｶﾔﾏｹﾝ","cityKana":"ｵｶﾔﾏｼﾋｶﾞｼｸ","streetKana":"ｾﾄﾁｮｳﾏﾝﾄﾐ","prefecture":"岡山県","city":"岡山市東区","street":"瀬戸町万富"},{"zipCode":"7090844","prefectureKana":"ｵｶﾔﾏｹﾝ","cityKana":"ｵｶﾔﾏｼﾋｶﾞｼｸ","streetKana":"ｾﾄﾁｮｳﾐﾅﾐｶﾞﾀ","prefecture":"岡山県","city":"岡山市東区","street":"瀬戸町南方"},{"zipCode":"7090874","prefectureKana":"ｵｶﾔﾏｹﾝ","cityKana":"ｵｶﾔﾏｼﾋｶﾞｼｸ","streetKana":"ｾﾄﾁｮｳﾓﾘｽｴ","prefecture":"岡山県","city":"岡山市東区","street":"瀬戸町森末"},{"zipCode":"7090843","prefectureKana":"ｵｶﾔﾏｹﾝ","cityKana":"ｵｶﾔﾏｼﾋｶﾞｼｸ","streetKana":"ｾﾄﾁｮｳﾕｹﾞ","prefecture":"岡山県","city":"岡山市東区","street":"瀬戸町弓削"},{"zipCode":"7090614","prefectureKana":"ｵｶﾔﾏｹﾝ","cityKana":"ｵｶﾔﾏｼﾋｶﾞｼｸ","streetKana":"ﾀｹﾜﾗ","prefecture":"岡山県","city":"岡山市東区","street":"竹原"},{"zipCode":"7090636","prefectureKana":"ｵｶﾔﾏｹﾝ","cityKana":"ｵｶﾔﾏｼﾋｶﾞｼｸ","streetKana":"ﾀﾆｼﾘ","prefecture":"岡山県","city":"岡山市東区","street":"谷尻"},{"zipCode":"7090604","prefectureKana":"ｵｶﾔﾏｹﾝ","cityKana":"ｵｶﾔﾏｼﾋｶﾞｼｸ","streetKana":"ﾃﾗﾔﾏ","prefecture":"岡山県","city":"岡山市東区","street":"寺山"},{"zipCode":"7090626","prefectureKana":"ｵｶﾔﾏｹﾝ","cityKana":"ｵｶﾔﾏｼﾋｶﾞｼｸ","streetKana":"ﾅｶｵ","prefecture":"岡山県","city":"岡山市東区","street":"中尾"},{"zipCode":"7090611","prefectureKana":"ｵｶﾔﾏｹﾝ","cityKana":"ｵｶﾔﾏｼﾋｶﾞｼｸ","streetKana":"ﾅﾗﾊﾞﾗ","prefecture":"岡山県","city":"岡山市東区","street":"楢原"},{"zipCode":"7090633","prefectureKana":"ｵｶﾔﾏｹﾝ","cityKana":"ｵｶﾔﾏｼﾋｶﾞｼｸ","streetKana":"ﾆｼﾋﾗｼﾞﾏ","prefecture":"岡山県","city":"岡山市東区","street":"西平島"},{"zipCode":"7090621","prefectureKana":"ｵｶﾔﾏｹﾝ","cityKana":"ｵｶﾔﾏｼﾋｶﾞｼｸ","streetKana":"ﾇﾏ","prefecture":"岡山県","city":"岡山市東区","street":"沼"},{"zipCode":"7090631","prefectureKana":"ｵｶﾔﾏｹﾝ","cityKana":"ｵｶﾔﾏｼﾋｶﾞｼｸ","streetKana":"ﾋｶﾞｼﾋﾗｼﾞﾏ","prefecture":"岡山県","city":"岡山市東区","street":"東平島"},{"zipCode":"7090602","prefectureKana":"ｵｶﾔﾏｹﾝ","cityKana":"ｵｶﾔﾏｼﾋｶﾞｼｸ","streetKana":"ﾋﾄｲﾁ","prefecture":"岡山県","city":"岡山市東区","street":"一日市"},{"zipCode":"7090632","prefectureKana":"ｵｶﾔﾏｹﾝ","cityKana":"ｵｶﾔﾏｼﾋｶﾞｼｸ","streetKana":"ﾐﾅﾐｺｽﾞ","prefecture":"岡山県","city":"岡山市東区","street":"南古都"},{"zipCode":"7090613","prefectureKana":"ｵｶﾔﾏｹﾝ","cityKana":"ｵｶﾔﾏｼﾋｶﾞｼｸ","streetKana":"ﾓﾓｴﾂﾞｷ","prefecture":"岡山県","city":"岡山市東区","street":"百枝月"},{"zipCode":"7090606","prefectureKana":"ｵｶﾔﾏｹﾝ","cityKana":"ｵｶﾔﾏｼﾋｶﾞｼｸ","streetKana":"ﾔｲ","prefecture":"岡山県","city":"岡山市東区","street":"矢井"},{"zipCode":"7090601","prefectureKana":"ｵｶﾔﾏｹﾝ","cityKana":"ｵｶﾔﾏｼﾋｶﾞｼｸ","streetKana":"ﾖｼｲ","prefecture":"岡山県","city":"岡山市東区","street":"吉井"},{"zipCode":"7091212","prefectureKana":"ｵｶﾔﾏｹﾝ","cityKana":"ｵｶﾔﾏｼﾐﾅﾐｸ","streetKana":"ｵｸﾊｻﾞｶﾜ","prefecture":"岡山県","city":"岡山市南区","street":"奥迫川"},{"zipCode":"7091215","prefectureKana":"ｵｶﾔﾏｹﾝ","cityKana":"ｵｶﾔﾏｼﾐﾅﾐｸ","streetKana":"ｶﾀｵｶ","prefecture":"岡山県","city":"岡山市南区","street":"片岡"},{"zipCode":"7091214","prefectureKana":"ｵｶﾔﾏｹﾝ","cityKana":"ｵｶﾔﾏｼﾐﾅﾐｸ","streetKana":"ｶﾜﾊﾘ","prefecture":"岡山県","city":"岡山市南区","street":"川張"},{"zipCode":"7091201","prefectureKana":"ｵｶﾔﾏｹﾝ","cityKana":"ｵｶﾔﾏｼﾐﾅﾐｸ","streetKana":"ｷﾀﾅﾅｸ","prefecture":"岡山県","city":"岡山市南区","street":"北七区"},{"zipCode":"7091216","prefectureKana":"ｵｶﾔﾏｹﾝ","cityKana":"ｵｶﾔﾏｼﾐﾅﾐｸ","streetKana":"ｿｳﾂﾞ","prefecture":"岡山県","city":"岡山市南区","street":"宗津"},{"zipCode":"7091203","prefectureKana":"ｵｶﾔﾏｹﾝ","cityKana":"ｵｶﾔﾏｼﾐﾅﾐｸ","streetKana":"ﾆｼｺｳﾖｳﾀﾞｲ","prefecture":"岡山県","city":"岡山市南区","street":"西紅陽台"},{"zipCode":"7091204","prefectureKana":"ｵｶﾔﾏｹﾝ","cityKana":"ｵｶﾔﾏｼﾐﾅﾐｸ","streetKana":"ﾆｼﾀｶｻｷ","prefecture":"岡山県","city":"岡山市南区","street":"西高崎"},{"zipCode":"7091202","prefectureKana":"ｵｶﾔﾏｹﾝ","cityKana":"ｵｶﾔﾏｼﾐﾅﾐｸ","streetKana":"ﾆｼﾅﾅｸ","prefecture":"岡山県","city":"岡山市南区","street":"西七区"},{"zipCode":"7091211","prefectureKana":"ｵｶﾔﾏｹﾝ","cityKana":"ｵｶﾔﾏｼﾐﾅﾐｸ","streetKana":"ﾊｻﾞｶﾜ","prefecture":"岡山県","city":"岡山市南区","street":"迫川"},{"zipCode":"7091213","prefectureKana":"ｵｶﾔﾏｹﾝ","cityKana":"ｵｶﾔﾏｼﾐﾅﾐｸ","streetKana":"ﾋｺｻｷ","prefecture":"岡山県","city":"岡山市南区","street":"彦崎"},{"zipCode":"7093951","prefectureKana":"ｵｶﾔﾏｹﾝ","cityKana":"ﾂﾔﾏｼ","streetKana":"ｱﾊﾞ","prefecture":"岡山県","city":"津山市","street":"阿波"},{"zipCode":"7094615","prefectureKana":"ｵｶﾔﾏｹﾝ","cityKana":"ﾂﾔﾏｼ","streetKana":"ｲｼｷ","prefecture":"岡山県","city":"津山市","street":"一色"},{"zipCode":"7093915","prefectureKana":"ｵｶﾔﾏｹﾝ","cityKana":"ﾂﾔﾏｼ","streetKana":"ｶﾓﾁｮｳｱｵﾔｷﾞ","prefecture":"岡山県","city":"津山市","street":"加茂町青柳"},{"zipCode":"7093907","prefectureKana":"ｵｶﾔﾏｹﾝ","cityKana":"ﾂﾔﾏｼ","streetKana":"ｶﾓﾁｮｳｳﾉ","prefecture":"岡山県","city":"津山市","street":"加茂町宇野"},{"zipCode":"7093924","prefectureKana":"ｵｶﾔﾏｹﾝ","cityKana":"ﾂﾔﾏｼ","streetKana":"ｶﾓﾁｮｳｵﾌﾞﾁ","prefecture":"岡山県","city":"津山市","street":"加茂町小渕"},{"zipCode":"7093912","prefectureKana":"ｵｶﾔﾏｹﾝ","cityKana":"ﾂﾔﾏｼ","streetKana":"ｶﾓﾁｮｳｶﾜｲ","prefecture":"岡山県","city":"津山市","street":"加茂町河井"},{"zipCode":"7093921","prefectureKana":"ｵｶﾔﾏｹﾝ","cityKana":"ﾂﾔﾏｼ","streetKana":"ｶﾓﾁｮｳｸｺﾞｳ","prefecture":"岡山県","city":"津山市","street":"加茂町公郷"},{"zipCode":"7093901","prefectureKana":"ｵｶﾔﾏｹﾝ","cityKana":"ﾂﾔﾏｼ","streetKana":"ｶﾓﾁｮｳｸﾗﾐ","prefecture":"岡山県","city":"津山市","street":"加茂町倉見"},{"zipCode":"7093902","prefectureKana":"ｵｶﾔﾏｹﾝ","cityKana":"ﾂﾔﾏｼ","streetKana":"ｶﾓﾁｮｳｸﾛｷﾞ","prefecture":"岡山県","city":"津山市","street":"加茂町黒木"},{"zipCode":"7093923","prefectureKana":"ｵｶﾔﾏｹﾝ","cityKana":"ﾂﾔﾏｼ","streetKana":"ｶﾓﾁｮｳｸﾜﾊﾞﾗ","prefecture":"岡山県","city":"津山市","street":"加茂町桑原"},{"zipCode":"7093906","prefectureKana":"ｵｶﾔﾏｹﾝ","cityKana":"ﾂﾔﾏｼ","streetKana":"ｶﾓﾁｮｳｺﾅｶﾊﾞﾗ","prefecture":"岡山県","city":"津山市","street":"加茂町小中原"},{"zipCode":"7093904","prefectureKana":"ｵｶﾔﾏｹﾝ","cityKana":"ﾂﾔﾏｼ","streetKana":"ｶﾓﾁｮｳｻｲﾉﾀﾆ","prefecture":"岡山県","city":"津山市","street":"加茂町斉野谷"},{"zipCode":"7093913","prefectureKana":"ｵｶﾔﾏｹﾝ","cityKana":"ﾂﾔﾏｼ","streetKana":"ｶﾓﾁｮｳｻﾝｹﾞ","prefecture":"岡山県","city":"津山市","street":"加茂町山下"},{"zipCode":"7093922","prefectureKana":"ｵｶﾔﾏｹﾝ","cityKana":"ﾂﾔﾏｼ","streetKana":"ｶﾓﾁｮｳｼﾓﾂｶﾞﾜ","prefecture":"岡山県","city":"津山市","street":"加茂町下津川"},{"zipCode":"7093905","prefectureKana":"ｵｶﾔﾏｹﾝ","cityKana":"ﾂﾔﾏｼ","streetKana":"ｶﾓﾁｮｳﾀﾂﾁｭｳ","prefecture":"岡山県","city":"津山市","street":"加茂町塔中"},{"zipCode":"7093914","prefectureKana":"ｵｶﾔﾏｹﾝ","cityKana":"ﾂﾔﾏｼ","streetKana":"ｶﾓﾁｮｳﾁﾜ","prefecture":"岡山県","city":"津山市","street":"加茂町知和"},{"zipCode":"7093935","prefectureKana":"ｵｶﾔﾏｹﾝ","cityKana":"ﾂﾔﾏｼ","streetKana":"ｶﾓﾁｮｳﾄﾞｳﾄﾞｳ","prefecture":"岡山県","city":"津山市","street":"加茂町百々"},{"zipCode":"7093903","prefectureKana":"ｵｶﾔﾏｹﾝ","cityKana":"ﾂﾔﾏｼ","streetKana":"ｶﾓﾁｮｳﾄｶ","prefecture":"岡山県","city":"津山市","street":"加茂町戸賀"},{"zipCode":"7093931","prefectureKana":"ｵｶﾔﾏｹﾝ","cityKana":"ﾂﾔﾏｼ","streetKana":"ｶﾓﾁｮｳﾅｶﾊﾞﾗ","prefecture":"岡山県","city":"津山市","street":"加茂町中原"},{"zipCode":"7093934","prefectureKana":"ｵｶﾔﾏｹﾝ","cityKana":"ﾂﾔﾏｼ","streetKana":"ｶﾓﾁｮｳﾅﾗｲ","prefecture":"岡山県","city":"津山市","street":"加茂町楢井"},{"zipCode":"7093932","prefectureKana":"ｵｶﾔﾏｹﾝ","cityKana":"ﾂﾔﾏｼ","streetKana":"ｶﾓﾁｮｳﾅﾘﾔｽ","prefecture":"岡山県","city":"津山市","street":"加茂町成安"},{"zipCode":"7093908","prefectureKana":"ｵｶﾔﾏｹﾝ","cityKana":"ﾂﾔﾏｼ","streetKana":"ｶﾓﾁｮｳﾊﾗｸﾞﾁ","prefecture":"岡山県","city":"津山市","street":"加茂町原口"},{"zipCode":"7093911","prefectureKana":"ｵｶﾔﾏｹﾝ","cityKana":"ﾂﾔﾏｼ","streetKana":"ｶﾓﾁｮｳﾓﾉﾐ","prefecture":"岡山県","city":"津山市","street":"加茂町物見"},{"zipCode":"7093933","prefectureKana":"ｵｶﾔﾏｹﾝ","cityKana":"ﾂﾔﾏｼ","streetKana":"ｶﾓﾁｮｳﾕｷｼｹﾞ","prefecture":"岡山県","city":"津山市","street":"加茂町行重"},{"zipCode":"7094612","prefectureKana":"ｵｶﾔﾏｹﾝ","cityKana":"ﾂﾔﾏｼ","streetKana":"ｸﾒ","prefecture":"岡山県","city":"津山市","street":"くめ"},{"zipCode":"7094614","prefectureKana":"ｵｶﾔﾏｹﾝ","cityKana":"ﾂﾔﾏｼ","streetKana":"ｸﾒｶﾜﾐﾅﾐ","prefecture":"岡山県","city":"津山市","street":"久米川南"},{"zipCode":"7094624","prefectureKana":"ｵｶﾔﾏｹﾝ","cityKana":"ﾂﾔﾏｼ","streetKana":"ｸﾜｶﾐ","prefecture":"岡山県","city":"津山市","street":"桑上"},{"zipCode":"7094623","prefectureKana":"ｵｶﾔﾏｹﾝ","cityKana":"ﾂﾔﾏｼ","streetKana":"ｸﾜｼﾓ","prefecture":"岡山県","city":"津山市","street":"桑下"},{"zipCode":"7094621","prefectureKana":"ｵｶﾔﾏｹﾝ","cityKana":"ﾂﾔﾏｼ","streetKana":"ｺｳｼﾞﾛ","prefecture":"岡山県","city":"津山市","street":"神代"},{"zipCode":"7094625","prefectureKana":"ｵｶﾔﾏｹﾝ","cityKana":"ﾂﾔﾏｼ","streetKana":"ｻﾄｸﾓﾝ","prefecture":"岡山県","city":"津山市","street":"里公文"},{"zipCode":"7094626","prefectureKana":"ｵｶﾔﾏｹﾝ","cityKana":"ﾂﾔﾏｼ","streetKana":"ｻﾄｸﾓﾝｶﾐ","prefecture":"岡山県","city":"津山市","street":"里公文上"},{"zipCode":"7094605","prefectureKana":"ｵｶﾔﾏｹﾝ","cityKana":"ﾂﾔﾏｼ","streetKana":"ﾂﾎﾞｲｶﾐ","prefecture":"岡山県","city":"津山市","street":"坪井上"},{"zipCode":"7094604","prefectureKana":"ｵｶﾔﾏｹﾝ","cityKana":"ﾂﾔﾏｼ","streetKana":"ﾂﾎﾞｲｼﾓ","prefecture":"岡山県","city":"津山市","street":"坪井下"},{"zipCode":"7094622","prefectureKana":"ｵｶﾔﾏｹﾝ","cityKana":"ﾂﾔﾏｼ","streetKana":"ﾄﾜｷ","prefecture":"岡山県","city":"津山市","street":"戸脇"},{"zipCode":"7094606","prefectureKana":"ｵｶﾔﾏｹﾝ","cityKana":"ﾂﾔﾏｼ","streetKana":"ﾅｶｷﾞﾀｶﾐ","prefecture":"岡山県","city":"津山市","street":"中北上"},{"zipCode":"7094603","prefectureKana":"ｵｶﾔﾏｹﾝ","cityKana":"ﾂﾔﾏｼ","streetKana":"ﾅｶｷﾞﾀｼﾓ","prefecture":"岡山県","city":"津山市","street":"中北下"},{"zipCode":"7094631","prefectureKana":"ｵｶﾔﾏｹﾝ","cityKana":"ﾂﾔﾏｼ","streetKana":"ﾌｸﾀﾞｼﾓ","prefecture":"岡山県","city":"津山市","street":"福田下"},{"zipCode":"7094616","prefectureKana":"ｵｶﾔﾏｹﾝ","cityKana":"ﾂﾔﾏｼ","streetKana":"ﾐﾅﾐｶﾞﾀﾅｶ","prefecture":"岡山県","city":"津山市","street":"南方中"},{"zipCode":"7094613","prefectureKana":"ｵｶﾔﾏｹﾝ","cityKana":"ﾂﾔﾏｼ","streetKana":"ﾐﾔｵ","prefecture":"岡山県","city":"津山市","street":"宮尾"},{"zipCode":"7094601","prefectureKana":"ｵｶﾔﾏｹﾝ","cityKana":"ﾂﾔﾏｼ","streetKana":"ﾐﾔﾍﾞｶﾐ","prefecture":"岡山県","city":"津山市","street":"宮部上"},{"zipCode":"7094602","prefectureKana":"ｵｶﾔﾏｹﾝ","cityKana":"ﾂﾔﾏｼ","streetKana":"ﾐﾔﾍﾞｼﾓ","prefecture":"岡山県","city":"津山市","street":"宮部下"},{"zipCode":"7094632","prefectureKana":"ｵｶﾔﾏｹﾝ","cityKana":"ﾂﾔﾏｼ","streetKana":"ﾔｻ","prefecture":"岡山県","city":"津山市","street":"八社"},{"zipCode":"7094633","prefectureKana":"ｵｶﾔﾏｹﾝ","cityKana":"ﾂﾔﾏｼ","streetKana":"ﾕｷｶﾐ","prefecture":"岡山県","city":"津山市","street":"油木上"},{"zipCode":"7094635","prefectureKana":"ｵｶﾔﾏｹﾝ","cityKana":"ﾂﾔﾏｼ","streetKana":"ﾕｷｷﾀ","prefecture":"岡山県","city":"津山市","street":"油木北"},{"zipCode":"7094634","prefectureKana":"ｵｶﾔﾏｹﾝ","cityKana":"ﾂﾔﾏｼ","streetKana":"ﾕｷｼﾓ","prefecture":"岡山県","city":"津山市","street":"油木下"},{"zipCode":"7094611","prefectureKana":"ｵｶﾔﾏｹﾝ","cityKana":"ﾂﾔﾏｼ","streetKana":"ﾘｮｳｹ","prefecture":"岡山県","city":"津山市","street":"領家"},{"zipCode":"7090213","prefectureKana":"ｵｶﾔﾏｹﾝ","cityKana":"ﾋﾞｾﾞﾝｼ","streetKana":"ﾖｼﾅｶﾞﾁｮｳｲﾏｻｷ","prefecture":"岡山県","city":"備前市","street":"吉永町今崎"},{"zipCode":"7090226","prefectureKana":"ｵｶﾔﾏｹﾝ","cityKana":"ﾋﾞｾﾞﾝｼ","streetKana":"ﾖｼﾅｶﾞﾁｮｳｲﾜｻｷ","prefecture":"岡山県","city":"備前市","street":"吉永町岩崎"},{"zipCode":"7090301","prefectureKana":"ｵｶﾔﾏｹﾝ","cityKana":"ﾋﾞｾﾞﾝｼ","streetKana":"ﾖｼﾅｶﾞﾁｮｳｶｶﾞﾐ","prefecture":"岡山県","city":"備前市","street":"吉永町加賀美"},{"zipCode":"7090221","prefectureKana":"ｵｶﾔﾏｹﾝ","cityKana":"ﾋﾞｾﾞﾝｼ","streetKana":"ﾖｼﾅｶﾞﾁｮｳｶﾅﾀﾞﾆ","prefecture":"岡山県","city":"備前市","street":"吉永町金谷"},{"zipCode":"7090212","prefectureKana":"ｵｶﾔﾏｹﾝ","cityKana":"ﾋﾞｾﾞﾝｼ","streetKana":"ﾖｼﾅｶﾞﾁｮｳｺｳﾈﾎﾝ","prefecture":"岡山県","city":"備前市","street":"吉永町神根本"},{"zipCode":"7090304","prefectureKana":"ｵｶﾔﾏｹﾝ","cityKana":"ﾋﾞｾﾞﾝｼ","streetKana":"ﾖｼﾅｶﾞﾁｮｳｻｻﾒ","prefecture":"岡山県","city":"備前市","street":"吉永町笹目"},{"zipCode":"7090211","prefectureKana":"ｵｶﾔﾏｹﾝ","cityKana":"ﾋﾞｾﾞﾝｼ","streetKana":"ﾖｼﾅｶﾞﾁｮｳﾀｶﾀ","prefecture":"岡山県","city":"備前市","street":"吉永町高田"},{"zipCode":"7090302","prefectureKana":"ｵｶﾔﾏｹﾝ","cityKana":"ﾋﾞｾﾞﾝｼ","streetKana":"ﾖｼﾅｶﾞﾁｮｳﾀﾏ","prefecture":"岡山県","city":"備前市","street":"吉永町多麻"},{"zipCode":"7090303","prefectureKana":"ｵｶﾔﾏｹﾝ","cityKana":"ﾋﾞｾﾞﾝｼ","streetKana":"ﾖｼﾅｶﾞﾁｮｳﾂﾙｷﾞ","prefecture":"岡山県","city":"備前市","street":"吉永町都留岐"},{"zipCode":"7090222","prefectureKana":"ｵｶﾔﾏｹﾝ","cityKana":"ﾋﾞｾﾞﾝｼ","streetKana":"ﾖｼﾅｶﾞﾁｮｳﾌｸﾐﾂ","prefecture":"岡山県","city":"備前市","street":"吉永町福満"},{"zipCode":"7090225","prefectureKana":"ｵｶﾔﾏｹﾝ","cityKana":"ﾋﾞｾﾞﾝｼ","streetKana":"ﾖｼﾅｶﾞﾁｮｳﾐﾂﾏﾀ","prefecture":"岡山県","city":"備前市","street":"吉永町三股"},{"zipCode":"7090223","prefectureKana":"ｵｶﾔﾏｹﾝ","cityKana":"ﾋﾞｾﾞﾝｼ","streetKana":"ﾖｼﾅｶﾞﾁｮｳﾐﾅﾐｶﾞﾀ","prefecture":"岡山県","city":"備前市","street":"吉永町南方"},{"zipCode":"7090224","prefectureKana":"ｵｶﾔﾏｹﾝ","cityKana":"ﾋﾞｾﾞﾝｼ","streetKana":"ﾖｼﾅｶﾞﾁｮｳﾖｼﾅｶﾞﾅｶ","prefecture":"岡山県","city":"備前市","street":"吉永町吉永中"},{"zipCode":"7090214","prefectureKana":"ｵｶﾔﾏｹﾝ","cityKana":"ﾋﾞｾﾞﾝｼ","streetKana":"ﾖｼﾅｶﾞﾁｮｳﾜｲﾀﾞﾆ","prefecture":"岡山県","city":"備前市","street":"吉永町和意谷"},{"zipCode":"7090800","prefectureKana":"ｵｶﾔﾏｹﾝ","cityKana":"ｱｶｲﾜｼ","streetKana":"ｲｶﾆｹｲｻｲｶﾞﾅｲﾊﾞｱｲ","prefecture":"岡山県","city":"赤磐市","street":"以下に掲載がない場合"},{"zipCode":"7090831","prefectureKana":"ｵｶﾔﾏｹﾝ","cityKana":"ｱｶｲﾜｼ","streetKana":"ｲﾂｶｲﾁ","prefecture":"岡山県","city":"赤磐市","street":"五日市"},{"zipCode":"7090822","prefectureKana":"ｵｶﾔﾏｹﾝ","cityKana":"ｱｶｲﾜｼ","streetKana":"ｲﾜﾀ","prefecture":"岡山県","city":"赤磐市","street":"岩田"},{"zipCode":"7090711","prefectureKana":"ｵｶﾔﾏｹﾝ","cityKana":"ｱｶｲﾜｼ","streetKana":"ｴﾝｺｳｼﾞ","prefecture":"岡山県","city":"赤磐市","street":"円光寺"},{"zipCode":"7090702","prefectureKana":"ｵｶﾔﾏｹﾝ","cityKana":"ｱｶｲﾜｼ","streetKana":"ｵｶ","prefecture":"岡山県","city":"赤磐市","street":"岡"},{"zipCode":"7090713","prefectureKana":"ｵｶﾔﾏｹﾝ","cityKana":"ｱｶｲﾜｼ","streetKana":"ｵｸﾖｼﾊﾗ","prefecture":"岡山県","city":"赤磐市","street":"奥吉原"},{"zipCode":"7090717","prefectureKana":"ｵｶﾔﾏｹﾝ","cityKana":"ｱｶｲﾜｼ","streetKana":"ｵｾｷﾞ","prefecture":"岡山県","city":"赤磐市","street":"小瀬木"},{"zipCode":"7090806","prefectureKana":"ｵｶﾔﾏｹﾝ","cityKana":"ｱｶｲﾜｼ","streetKana":"ｵﾀﾞﾆ","prefecture":"岡山県","city":"赤磐市","street":"尾谷"},{"zipCode":"7090733","prefectureKana":"ｵｶﾔﾏｹﾝ","cityKana":"ｱｶｲﾜｼ","streetKana":"ｶﾏｶﾐ","prefecture":"岡山県","city":"赤磐市","street":"可真上"},{"zipCode":"7090732","prefectureKana":"ｵｶﾔﾏｹﾝ","cityKana":"ｱｶｲﾜｼ","streetKana":"ｶﾏｼﾓ","prefecture":"岡山県","city":"赤磐市","street":"可真下"},{"zipCode":"7090817","prefectureKana":"ｵｶﾔﾏｹﾝ","cityKana":"ｱｶｲﾜｼ","streetKana":"ｶﾐｲﾁ","prefecture":"岡山県","city":"赤磐市","street":"上市"},{"zipCode":"7090837","prefectureKana":"ｵｶﾔﾏｹﾝ","cityKana":"ｱｶｲﾜｼ","streetKana":"ｶﾐﾆﾎﾞ","prefecture":"岡山県","city":"赤磐市","street":"上仁保"},{"zipCode":"7090834","prefectureKana":"ｵｶﾔﾏｹﾝ","cityKana":"ｱｶｲﾜｼ","streetKana":"ｶﾓｻｷ","prefecture":"岡山県","city":"赤磐市","street":"鴨前"},{"zipCode":"7090719","prefectureKana":"ｵｶﾔﾏｹﾝ","cityKana":"ｱｶｲﾜｼ","streetKana":"ｶﾜﾀﾊﾗ","prefecture":"岡山県","city":"赤磐市","street":"河田原"},{"zipCode":"7090833","prefectureKana":"ｵｶﾔﾏｹﾝ","cityKana":"ｱｶｲﾜｼ","streetKana":"ｸﾏｻﾞｷ","prefecture":"岡山県","city":"赤磐市","street":"熊崎"},{"zipCode":"7090801","prefectureKana":"ｵｶﾔﾏｹﾝ","cityKana":"ｱｶｲﾜｼ","streetKana":"ｺｳﾀﾞ","prefecture":"岡山県","city":"赤磐市","street":"神田"},{"zipCode":"7090821","prefectureKana":"ｵｶﾔﾏｹﾝ","cityKana":"ｱｶｲﾜｼ","streetKana":"ｺｳﾓﾄ","prefecture":"岡山県","city":"赤磐市","street":"河本"},{"zipCode":"7090813","prefectureKana":"ｵｶﾔﾏｹﾝ","cityKana":"ｱｶｲﾜｼ","streetKana":"ｻｲﾄﾞﾐ","prefecture":"岡山県","city":"赤磐市","street":"斎富"},{"zipCode":"7090802","prefectureKana":"ｵｶﾔﾏｹﾝ","cityKana":"ｱｶｲﾜｼ","streetKana":"ｻｸﾗｶﾞｵｶﾆｼ","prefecture":"岡山県","city":"赤磐市","street":"桜が丘西"},{"zipCode":"7090721","prefectureKana":"ｵｶﾔﾏｹﾝ","cityKana":"ｱｶｲﾜｼ","streetKana":"ｻｸﾗｶﾞｵｶﾋｶﾞｼ","prefecture":"岡山県","city":"赤磐市","street":"桜が丘東"},{"zipCode":"7090706","prefectureKana":"ｵｶﾔﾏｹﾝ","cityKana":"ｱｶｲﾜｼ","streetKana":"ｻｺ","prefecture":"岡山県","city":"赤磐市","street":"佐古"},{"zipCode":"7090704","prefectureKana":"ｵｶﾔﾏｹﾝ","cityKana":"ｱｶｲﾜｼ","streetKana":"ｻﾜﾊﾗ","prefecture":"岡山県","city":"赤磐市","street":"沢原"},{"zipCode":"7090827","prefectureKana":"ｵｶﾔﾏｹﾝ","cityKana":"ｱｶｲﾜｼ","streetKana":"ｻﾝﾖｳ","prefecture":"岡山県","city":"赤磐市","street":"山陽"},{"zipCode":"7090816","prefectureKana":"ｵｶﾔﾏｹﾝ","cityKana":"ｱｶｲﾜｼ","streetKana":"ｼﾓｲﾁ","prefecture":"岡山県","city":"赤磐市","street":"下市"},{"zipCode":"7090836","prefectureKana":"ｵｶﾔﾏｹﾝ","cityKana":"ｱｶｲﾜｼ","streetKana":"ｼﾓﾆﾎﾞ","prefecture":"岡山県","city":"赤磐市","street":"下仁保"},{"zipCode":"7090701","prefectureKana":"ｵｶﾔﾏｹﾝ","cityKana":"ｱｶｲﾜｼ","streetKana":"ｼｬｸﾀﾞ","prefecture":"岡山県","city":"赤磐市","street":"酌田"},{"zipCode":"7090731","prefectureKana":"ｵｶﾔﾏｹﾝ","cityKana":"ｱｶｲﾜｼ","streetKana":"ｼｬｸﾚﾝｼﾞ","prefecture":"岡山県","city":"赤磐市","street":"石蓮寺"},{"zipCode":"7090832","prefectureKana":"ｵｶﾔﾏｹﾝ","cityKana":"ｱｶｲﾜｼ","streetKana":"ｼｮｳｻﾞｷ","prefecture":"岡山県","city":"赤磐市","street":"正崎"},{"zipCode":"7090715","prefectureKana":"ｵｶﾔﾏｹﾝ","cityKana":"ｱｶｲﾜｼ","streetKana":"ｾｲﾘｷ","prefecture":"岡山県","city":"赤磐市","street":"勢力"},{"zipCode":"7090714","prefectureKana":"ｵｶﾔﾏｹﾝ","cityKana":"ｱｶｲﾜｼ","streetKana":"ｾﾝﾀﾞ","prefecture":"岡山県","city":"赤磐市","street":"千躰"},{"zipCode":"7090811","prefectureKana":"ｵｶﾔﾏｹﾝ","cityKana":"ｱｶｲﾜｼ","streetKana":"ﾀｶﾔ","prefecture":"岡山県","city":"赤磐市","street":"高屋"},{"zipCode":"7090815","prefectureKana":"ｵｶﾔﾏｹﾝ","cityKana":"ｱｶｲﾜｼ","streetKana":"ﾀﾂｶﾜ","prefecture":"岡山県","city":"赤磐市","street":"立川"},{"zipCode":"7090807","prefectureKana":"ｵｶﾔﾏｹﾝ","cityKana":"ｱｶｲﾜｼ","streetKana":"ﾂｻﾞｷ","prefecture":"岡山県","city":"赤磐市","street":"津崎"},{"zipCode":"7090718","prefectureKana":"ｵｶﾔﾏｹﾝ","cityKana":"ｱｶｲﾜｼ","streetKana":"ﾂﾙｲ","prefecture":"岡山県","city":"赤磐市","street":"釣井"},{"zipCode":"7090838","prefectureKana":"ｵｶﾔﾏｹﾝ","cityKana":"ｱｶｲﾜｼ","streetKana":"ﾄｱﾘ","prefecture":"岡山県","city":"赤磐市","street":"斗有"},{"zipCode":"7090716","prefectureKana":"ｵｶﾔﾏｹﾝ","cityKana":"ｱｶｲﾜｼ","streetKana":"ﾄｸﾄﾞﾐ","prefecture":"岡山県","city":"赤磐市","street":"徳富"},{"zipCode":"7090703","prefectureKana":"ｵｶﾔﾏｹﾝ","cityKana":"ｱｶｲﾜｼ","streetKana":"ﾄﾉﾀﾞﾆ","prefecture":"岡山県","city":"赤磐市","street":"殿谷"},{"zipCode":"7090823","prefectureKana":"ｵｶﾔﾏｹﾝ","cityKana":"ｱｶｲﾜｼ","streetKana":"ﾅｶﾞｵ","prefecture":"岡山県","city":"赤磐市","street":"長尾"},{"zipCode":"7090803","prefectureKana":"ｵｶﾔﾏｹﾝ","cityKana":"ｱｶｲﾜｼ","streetKana":"ﾅｶｼﾏ","prefecture":"岡山県","city":"赤磐市","street":"中島"},{"zipCode":"7090835","prefectureKana":"ｵｶﾔﾏｹﾝ","cityKana":"ｱｶｲﾜｼ","streetKana":"ﾆｼﾅｶ","prefecture":"岡山県","city":"赤磐市","street":"西中"},{"zipCode":"7090812","prefectureKana":"ｵｶﾔﾏｹﾝ","cityKana":"ｱｶｲﾜｼ","streetKana":"ﾇﾀ","prefecture":"岡山県","city":"赤磐市","street":"沼田"},{"zipCode":"7090735","prefectureKana":"ｵｶﾔﾏｹﾝ","cityKana":"ｱｶｲﾜｼ","streetKana":"ﾉﾏ","prefecture":"岡山県","city":"赤磐市","street":"野間"},{"zipCode":"7090736","prefectureKana":"ｵｶﾔﾏｹﾝ","cityKana":"ｱｶｲﾜｼ","streetKana":"ﾋｴﾀﾞ","prefecture":"岡山県","city":"赤磐市","street":"稗田"},{"zipCode":"7090804","prefectureKana":"ｵｶﾔﾏｹﾝ","cityKana":"ｱｶｲﾜｼ","streetKana":"ﾋｺｷﾞ","prefecture":"岡山県","city":"赤磐市","street":"日古木"},{"zipCode":"7090805","prefectureKana":"ｵｶﾔﾏｹﾝ","cityKana":"ｱｶｲﾜｼ","streetKana":"ﾌﾀｲ","prefecture":"岡山県","city":"赤磐市","street":"二井"},{"zipCode":"7090824","prefectureKana":"ｵｶﾔﾏｹﾝ","cityKana":"ｱｶｲﾜｼ","streetKana":"ﾎｻｷ","prefecture":"岡山県","city":"赤磐市","street":"穂崎"},{"zipCode":"7090705","prefectureKana":"ｵｶﾔﾏｹﾝ","cityKana":"ｱｶｲﾜｼ","streetKana":"ﾏﾂｷ","prefecture":"岡山県","city":"赤磐市","street":"松木"},{"zipCode":"7090825","prefectureKana":"ｵｶﾔﾏｹﾝ","cityKana":"ｱｶｲﾜｼ","streetKana":"ﾏﾔ","prefecture":"岡山県","city":"赤磐市","street":"馬屋"},{"zipCode":"7090814","prefectureKana":"ｵｶﾔﾏｹﾝ","cityKana":"ｱｶｲﾜｼ","streetKana":"ﾐﾅﾐｶﾞﾀ","prefecture":"岡山県","city":"赤磐市","street":"南方"},{"zipCode":"7090734","prefectureKana":"ｵｶﾔﾏｹﾝ","cityKana":"ｱｶｲﾜｼ","streetKana":"ﾔｶﾞﾐ","prefecture":"岡山県","city":"赤磐市","street":"弥上"},{"zipCode":"7090712","prefectureKana":"ｵｶﾔﾏｹﾝ","cityKana":"ｱｶｲﾜｼ","streetKana":"ﾖｼﾊﾗ","prefecture":"岡山県","city":"赤磐市","street":"吉原"},{"zipCode":"7090826","prefectureKana":"ｵｶﾔﾏｹﾝ","cityKana":"ｱｶｲﾜｼ","streetKana":"ﾜﾀﾞ","prefecture":"岡山県","city":"赤磐市","street":"和田"},{"zipCode":"7094232","prefectureKana":"ｵｶﾔﾏｹﾝ","cityKana":"ﾐﾏｻｶｼ","streetKana":"ｱｼｺﾞｳﾁ","prefecture":"岡山県","city":"美作市","street":"芦河内"},{"zipCode":"7094205","prefectureKana":"ｵｶﾔﾏｹﾝ","cityKana":"ﾐﾏｻｶｼ","streetKana":"ｱﾜｲﾅｶ","prefecture":"岡山県","city":"美作市","street":"粟井中"},{"zipCode":"7094222","prefectureKana":"ｵｶﾔﾏｹﾝ","cityKana":"ﾐﾏｻｶｼ","streetKana":"ｲﾜﾅﾍﾞ","prefecture":"岡山県","city":"美作市","street":"岩辺"},{"zipCode":"7094234","prefectureKana":"ｵｶﾔﾏｹﾝ","cityKana":"ﾐﾏｻｶｼ","streetKana":"ｴﾐ","prefecture":"岡山県","city":"美作市","street":"江見"},{"zipCode":"7094227","prefectureKana":"ｵｶﾔﾏｹﾝ","cityKana":"ﾐﾏｻｶｼ","streetKana":"ｴﾐﾖｼﾀﾞ","prefecture":"岡山県","city":"美作市","street":"江見吉田"},{"zipCode":"7094223","prefectureKana":"ｵｶﾔﾏｹﾝ","cityKana":"ﾐﾏｻｶｼ","streetKana":"ｵｵｳﾁﾀﾞﾆ","prefecture":"岡山県","city":"美作市","street":"大内谷"},{"zipCode":"7094203","prefectureKana":"ｵｶﾔﾏｹﾝ","cityKana":"ﾐﾏｻｶｼ","streetKana":"ｵﾉ","prefecture":"岡山県","city":"美作市","street":"小野"},{"zipCode":"7094215","prefectureKana":"ｵｶﾔﾏｹﾝ","cityKana":"ﾐﾏｻｶｼ","streetKana":"ｵﾉﾀﾆ","prefecture":"岡山県","city":"美作市","street":"小ノ谷"},{"zipCode":"7094201","prefectureKana":"ｵｶﾔﾏｹﾝ","cityKana":"ﾐﾏｻｶｼ","streetKana":"ｵﾌﾞｻ","prefecture":"岡山県","city":"美作市","street":"小房"},{"zipCode":"7094253","prefectureKana":"ｵｶﾔﾏｹﾝ","cityKana":"ﾐﾏｻｶｼ","streetKana":"ｶｷｶﾞﾊﾗ","prefecture":"岡山県","city":"美作市","street":"柿ケ原"},{"zipCode":"7094202","prefectureKana":"ｵｶﾔﾏｹﾝ","cityKana":"ﾐﾏｻｶｼ","streetKana":"ｶｼﾞﾜﾗ","prefecture":"岡山県","city":"美作市","street":"梶原"},{"zipCode":"7094246","prefectureKana":"ｵｶﾔﾏｹﾝ","cityKana":"ﾐﾏｻｶｼ","streetKana":"ｶﾐﾌｸﾊﾗ","prefecture":"岡山県","city":"美作市","street":"上福原"},{"zipCode":"7094236","prefectureKana":"ｵｶﾔﾏｹﾝ","cityKana":"ﾐﾏｻｶｼ","streetKana":"ｶﾜｷﾞﾀ","prefecture":"岡山県","city":"美作市","street":"川北"},{"zipCode":"7094255","prefectureKana":"ｵｶﾔﾏｹﾝ","cityKana":"ﾐﾏｻｶｼ","streetKana":"ｸﾆｻﾀﾞ","prefecture":"岡山県","city":"美作市","street":"国貞"},{"zipCode":"7094211","prefectureKana":"ｵｶﾔﾏｹﾝ","cityKana":"ﾐﾏｻｶｼ","streetKana":"ｺﾞﾐｮｳ","prefecture":"岡山県","city":"美作市","street":"五名"},{"zipCode":"7094204","prefectureKana":"ｵｶﾔﾏｹﾝ","cityKana":"ﾐﾏｻｶｼ","streetKana":"ｻｷﾞｽ","prefecture":"岡山県","city":"美作市","street":"鷺巣"},{"zipCode":"7094251","prefectureKana":"ｵｶﾔﾏｹﾝ","cityKana":"ﾐﾏｻｶｼ","streetKana":"ｼﾗﾐｽﾞ","prefecture":"岡山県","city":"美作市","street":"白水"},{"zipCode":"7094256","prefectureKana":"ｵｶﾔﾏｹﾝ","cityKana":"ﾐﾏｻｶｼ","streetKana":"ｽｽﾞｹ","prefecture":"岡山県","city":"美作市","street":"鈴家"},{"zipCode":"7094252","prefectureKana":"ｵｶﾔﾏｹﾝ","cityKana":"ﾐﾏｻｶｼ","streetKana":"ｽﾅﾐ","prefecture":"岡山県","city":"美作市","street":"角南"},{"zipCode":"7094221","prefectureKana":"ｵｶﾔﾏｹﾝ","cityKana":"ﾐﾏｻｶｼ","streetKana":"ｾﾄ","prefecture":"岡山県","city":"美作市","street":"瀬戸"},{"zipCode":"7094213","prefectureKana":"ｵｶﾔﾏｹﾝ","cityKana":"ﾐﾏｻｶｼ","streetKana":"ﾀﾞｲｼｮｳｼﾞ","prefecture":"岡山県","city":"美作市","street":"大聖寺"},{"zipCode":"7094245","prefectureKana":"ｵｶﾔﾏｹﾝ","cityKana":"ﾐﾏｻｶｼ","streetKana":"ﾀｹﾀﾞ","prefecture":"岡山県","city":"美作市","street":"竹田"},{"zipCode":"7094257","prefectureKana":"ｵｶﾔﾏｹﾝ","cityKana":"ﾐﾏｻｶｼ","streetKana":"ﾀﾌﾞﾁ","prefecture":"岡山県","city":"美作市","street":"田渕"},{"zipCode":"7094242","prefectureKana":"ｵｶﾔﾏｹﾝ","cityKana":"ﾐﾏｻｶｼ","streetKana":"ﾀﾜﾗ","prefecture":"岡山県","city":"美作市","street":"田原"},{"zipCode":"7094244","prefectureKana":"ｵｶﾔﾏｹﾝ","cityKana":"ﾐﾏｻｶｼ","streetKana":"ﾄﾞｲ","prefecture":"岡山県","city":"美作市","street":"土居"},{"zipCode":"7094224","prefectureKana":"ｵｶﾔﾏｹﾝ","cityKana":"ﾐﾏｻｶｼ","streetKana":"ﾄﾖﾉ","prefecture":"岡山県","city":"美作市","street":"豊野"},{"zipCode":"7094226","prefectureKana":"ｵｶﾔﾏｹﾝ","cityKana":"ﾐﾏｻｶｼ","streetKana":"ﾅﾏｽﾞ","prefecture":"岡山県","city":"美作市","street":"鯰"},{"zipCode":"7094231","prefectureKana":"ｵｶﾔﾏｹﾝ","cityKana":"ﾐﾏｻｶｼ","streetKana":"ﾅﾝｶﾞｲ","prefecture":"岡山県","city":"美作市","street":"南海"},{"zipCode":"7094235","prefectureKana":"ｵｶﾔﾏｹﾝ","cityKana":"ﾐﾏｻｶｼ","streetKana":"ﾊﾗ","prefecture":"岡山県","city":"美作市","street":"原"},{"zipCode":"7094241","prefectureKana":"ｵｶﾔﾏｹﾝ","cityKana":"ﾐﾏｻｶｼ","streetKana":"ﾋｻｼ","prefecture":"岡山県","city":"美作市","street":"日指"},{"zipCode":"7094233","prefectureKana":"ｵｶﾔﾏｹﾝ","cityKana":"ﾐﾏｻｶｼ","streetKana":"ﾌｼﾞｭｳ","prefecture":"岡山県","city":"美作市","street":"藤生"},{"zipCode":"7094225","prefectureKana":"ｵｶﾔﾏｹﾝ","cityKana":"ﾐﾏｻｶｼ","streetKana":"ﾏﾂﾜｷ","prefecture":"岡山県","city":"美作市","street":"松脇"},{"zipCode":"7094214","prefectureKana":"ｵｶﾔﾏｹﾝ","cityKana":"ﾐﾏｻｶｼ","streetKana":"ﾏﾒﾀﾞ","prefecture":"岡山県","city":"美作市","street":"豆田"},{"zipCode":"7094254","prefectureKana":"ｵｶﾔﾏｹﾝ","cityKana":"ﾐﾏｻｶｼ","streetKana":"ﾏﾝｾﾞﾝ","prefecture":"岡山県","city":"美作市","street":"万善"},{"zipCode":"7094212","prefectureKana":"ｵｶﾔﾏｹﾝ","cityKana":"ﾐﾏｻｶｼ","streetKana":"ﾐﾔﾊﾞﾗ","prefecture":"岡山県","city":"美作市","street":"宮原"},{"zipCode":"7094247","prefectureKana":"ｵｶﾔﾏｹﾝ","cityKana":"ﾐﾏｻｶｼ","streetKana":"ﾔﾏｼﾛ","prefecture":"岡山県","city":"美作市","street":"山城"},{"zipCode":"7094216","prefectureKana":"ｵｶﾔﾏｹﾝ","cityKana":"ﾐﾏｻｶｼ","streetKana":"ﾔﾏﾃ","prefecture":"岡山県","city":"美作市","street":"山手"},{"zipCode":"7094243","prefectureKana":"ｵｶﾔﾏｹﾝ","cityKana":"ﾐﾏｻｶｼ","streetKana":"ﾚﾝｹﾞｼﾞ","prefecture":"岡山県","city":"美作市","street":"蓮花寺"},{"zipCode":"7090400","prefectureKana":"ｵｶﾔﾏｹﾝ","cityKana":"ﾜｹｸﾞﾝﾜｹﾁｮｳ","streetKana":"ｲｶﾆｹｲｻｲｶﾞﾅｲﾊﾞｱｲ","prefecture":"岡山県","city":"和気郡和気町","street":"以下に掲載がない場合"},{"zipCode":"7090413","prefectureKana":"ｵｶﾔﾏｹﾝ","cityKana":"ﾜｹｸﾞﾝﾜｹﾁｮｳ","streetKana":"ｲｽﾞﾐ","prefecture":"岡山県","city":"和気郡和気町","street":"泉"},{"zipCode":"7090513","prefectureKana":"ｵｶﾔﾏｹﾝ","cityKana":"ﾜｹｸﾞﾝﾜｹﾁｮｳ","streetKana":"ｲﾜﾄ","prefecture":"岡山県","city":"和気郡和気町","street":"岩戸"},{"zipCode":"7090525","prefectureKana":"ｵｶﾔﾏｹﾝ","cityKana":"ﾜｹｸﾞﾝﾜｹﾁｮｳ","streetKana":"ｳﾌﾞ","prefecture":"岡山県","city":"和気郡和気町","street":"宇生"},{"zipCode":"7090414","prefectureKana":"ｵｶﾔﾏｹﾝ","cityKana":"ﾜｹｸﾞﾝﾜｹﾁｮｳ","streetKana":"ｵｵﾀﾜﾗ","prefecture":"岡山県","city":"和気郡和気町","street":"大田原"},{"zipCode":"7090432","prefectureKana":"ｵｶﾔﾏｹﾝ","cityKana":"ﾜｹｸﾞﾝﾜｹﾁｮｳ","streetKana":"ｵｵﾅｶﾔﾏ","prefecture":"岡山県","city":"和気郡和気町","street":"大中山"},{"zipCode":"7090501","prefectureKana":"ｵｶﾔﾏｹﾝ","cityKana":"ﾜｹｸﾞﾝﾜｹﾁｮｳ","streetKana":"ｵｸｼｵﾀ","prefecture":"岡山県","city":"和気郡和気町","street":"奥塩田"},{"zipCode":"7090522","prefectureKana":"ｵｶﾔﾏｹﾝ","cityKana":"ﾜｹｸﾞﾝﾜｹﾁｮｳ","streetKana":"ｶﾐｶﾞﾀ","prefecture":"岡山県","city":"和気郡和気町","street":"加三方"},{"zipCode":"7090504","prefectureKana":"ｵｶﾔﾏｹﾝ","cityKana":"ﾜｹｸﾞﾝﾜｹﾁｮｳ","streetKana":"ｷﾀﾔﾏｶﾞﾀ","prefecture":"岡山県","city":"和気郡和気町","street":"北山方"},{"zipCode":"7090441","prefectureKana":"ｵｶﾔﾏｹﾝ","cityKana":"ﾜｹｸﾞﾝﾜｹﾁｮｳ","streetKana":"ｷﾇｶﾞｻ","prefecture":"岡山県","city":"和気郡和気町","street":"衣笠"},{"zipCode":"7090404","prefectureKana":"ｵｶﾔﾏｹﾝ","cityKana":"ﾜｹｸﾞﾝﾜｹﾁｮｳ","streetKana":"ｷﾉｸﾗ","prefecture":"岡山県","city":"和気郡和気町","street":"木倉"},{"zipCode":"7090523","prefectureKana":"ｵｶﾔﾏｹﾝ","cityKana":"ﾜｹｸﾞﾝﾜｹﾁｮｳ","streetKana":"ｺｻﾞｶ","prefecture":"岡山県","city":"和気郡和気町","street":"小坂"},{"zipCode":"7090514","prefectureKana":"ｵｶﾔﾏｹﾝ","cityKana":"ﾜｹｸﾞﾝﾜｹﾁｮｳ","streetKana":"ｻｴｷ","prefecture":"岡山県","city":"和気郡和気町","street":"佐伯"},{"zipCode":"7090506","prefectureKana":"ｵｶﾔﾏｹﾝ","cityKana":"ﾜｹｸﾞﾝﾜｹﾁｮｳ","streetKana":"ｼｵﾀ","prefecture":"岡山県","city":"和気郡和気町","street":"塩田"},{"zipCode":"7090431","prefectureKana":"ｵｶﾔﾏｹﾝ","cityKana":"ﾜｹｸﾞﾝﾜｹﾁｮｳ","streetKana":"ｼﾐｽﾞ","prefecture":"岡山県","city":"和気郡和気町","street":"清水"},{"zipCode":"7090422","prefectureKana":"ｵｶﾔﾏｹﾝ","cityKana":"ﾜｹｸﾞﾝﾜｹﾁｮｳ","streetKana":"ｼｬｸｿ","prefecture":"岡山県","city":"和気郡和気町","street":"尺所"},{"zipCode":"7090524","prefectureKana":"ｵｶﾔﾏｹﾝ","cityKana":"ﾜｹｸﾞﾝﾜｹﾁｮｳ","streetKana":"ﾀｶﾞ","prefecture":"岡山県","city":"和気郡和気町","street":"田賀"},{"zipCode":"7090512","prefectureKana":"ｵｶﾔﾏｹﾝ","cityKana":"ﾜｹｸﾞﾝﾜｹﾁｮｳ","streetKana":"ﾀﾄﾞ","prefecture":"岡山県","city":"和気郡和気町","street":"田土"},{"zipCode":"7090463","prefectureKana":"ｵｶﾔﾏｹﾝ","cityKana":"ﾜｹｸﾞﾝﾜｹﾁｮｳ","streetKana":"ﾀﾜﾗｶﾐ","prefecture":"岡山県","city":"和気郡和気町","street":"田原上"},{"zipCode":"7090464","prefectureKana":"ｵｶﾔﾏｹﾝ","cityKana":"ﾜｹｸﾞﾝﾜｹﾁｮｳ","streetKana":"ﾀﾜﾗｼﾓ","prefecture":"岡山県","city":"和気郡和気町","street":"田原下"},{"zipCode":"7090521","prefectureKana":"ｵｶﾔﾏｹﾝ","cityKana":"ﾜｹｸﾞﾝﾜｹﾁｮｳ","streetKana":"ﾁﾁｲﾊﾞﾗ","prefecture":"岡山県","city":"和気郡和気町","street":"父井原"},{"zipCode":"7090516","prefectureKana":"ｵｶﾔﾏｹﾝ","cityKana":"ﾜｹｸﾞﾝﾜｹﾁｮｳ","streetKana":"ﾂｾﾞ","prefecture":"岡山県","city":"和気郡和気町","street":"津瀬"},{"zipCode":"7090505","prefectureKana":"ｵｶﾔﾏｹﾝ","cityKana":"ﾜｹｸﾞﾝﾜｹﾁｮｳ","streetKana":"ﾆｶﾞｷ","prefecture":"岡山県","city":"和気郡和気町","street":"苦木"},{"zipCode":"7090461","prefectureKana":"ｵｶﾔﾏｹﾝ","cityKana":"ﾜｹｸﾞﾝﾜｹﾁｮｳ","streetKana":"ﾊﾗ","prefecture":"岡山県","city":"和気郡和気町","street":"原"},{"zipCode":"7090402","prefectureKana":"ｵｶﾔﾏｹﾝ","cityKana":"ﾜｹｸﾞﾝﾜｹﾁｮｳ","streetKana":"ﾋｶｻｶﾐ","prefecture":"岡山県","city":"和気郡和気町","street":"日笠上"},{"zipCode":"7090403","prefectureKana":"ｵｶﾔﾏｹﾝ","cityKana":"ﾜｹｸﾞﾝﾜｹﾁｮｳ","streetKana":"ﾋｶｻｼﾓ","prefecture":"岡山県","city":"和気郡和気町","street":"日笠下"},{"zipCode":"7090421","prefectureKana":"ｵｶﾔﾏｹﾝ","cityKana":"ﾜｹｸﾞﾝﾜｹﾁｮｳ","streetKana":"ﾋﾑﾛ","prefecture":"岡山県","city":"和気郡和気町","street":"日室"},{"zipCode":"7090442","prefectureKana":"ｵｶﾔﾏｹﾝ","cityKana":"ﾜｹｸﾞﾝﾜｹﾁｮｳ","streetKana":"ﾌｸﾄﾐ","prefecture":"岡山県","city":"和気郡和気町","street":"福富"},{"zipCode":"7090412","prefectureKana":"ｵｶﾔﾏｹﾝ","cityKana":"ﾜｹｸﾞﾝﾜｹﾁｮｳ","streetKana":"ﾌｼﾞﾉ","prefecture":"岡山県","city":"和気郡和気町","street":"藤野"},{"zipCode":"7090401","prefectureKana":"ｵｶﾔﾏｹﾝ","cityKana":"ﾜｹｸﾞﾝﾜｹﾁｮｳ","streetKana":"ﾎｿｳ","prefecture":"岡山県","city":"和気郡和気町","street":"保曽"},{"zipCode":"7090462","prefectureKana":"ｵｶﾔﾏｹﾝ","cityKana":"ﾜｹｸﾞﾝﾜｹﾁｮｳ","streetKana":"ﾎﾝ","prefecture":"岡山県","city":"和気郡和気町","street":"本"},{"zipCode":"7090452","prefectureKana":"ｵｶﾔﾏｹﾝ","cityKana":"ﾜｹｸﾞﾝﾜｹﾁｮｳ","streetKana":"ﾏｽﾊﾞﾗ","prefecture":"岡山県","city":"和気郡和気町","street":"益原"},{"zipCode":"7090502","prefectureKana":"ｵｶﾔﾏｹﾝ","cityKana":"ﾜｹｸﾞﾝﾜｹﾁｮｳ","streetKana":"ﾏﾙﾔﾏ","prefecture":"岡山県","city":"和気郡和気町","street":"丸山"},{"zipCode":"7090503","prefectureKana":"ｵｶﾔﾏｹﾝ","cityKana":"ﾜｹｸﾞﾝﾜｹﾁｮｳ","streetKana":"ﾐﾅﾐﾔﾏｶﾞﾀ","prefecture":"岡山県","city":"和気郡和気町","street":"南山方"},{"zipCode":"7090511","prefectureKana":"ｵｶﾔﾏｹﾝ","cityKana":"ﾜｹｸﾞﾝﾜｹﾁｮｳ","streetKana":"ﾔﾀ","prefecture":"岡山県","city":"和気郡和気町","street":"矢田"},{"zipCode":"7090526","prefectureKana":"ｵｶﾔﾏｹﾝ","cityKana":"ﾜｹｸﾞﾝﾜｹﾁｮｳ","streetKana":"ﾔﾀﾍﾞ","prefecture":"岡山県","city":"和気郡和気町","street":"矢田部"},{"zipCode":"7090411","prefectureKana":"ｵｶﾔﾏｹﾝ","cityKana":"ﾜｹｸﾞﾝﾜｹﾁｮｳ","streetKana":"ﾖｼﾀﾞ","prefecture":"岡山県","city":"和気郡和気町","street":"吉田"},{"zipCode":"7090515","prefectureKana":"ｵｶﾔﾏｹﾝ","cityKana":"ﾜｹｸﾞﾝﾜｹﾁｮｳ","streetKana":"ﾖﾈｻﾞﾜ","prefecture":"岡山県","city":"和気郡和気町","street":"米澤"},{"zipCode":"7090451","prefectureKana":"ｵｶﾔﾏｹﾝ","cityKana":"ﾜｹｸﾞﾝﾜｹﾁｮｳ","streetKana":"ﾜｹ","prefecture":"岡山県","city":"和気郡和気町","street":"和気"},{"zipCode":"7094300","prefectureKana":"ｵｶﾔﾏｹﾝ","cityKana":"ｶﾂﾀｸﾞﾝｼｮｳｵｳﾁｮｳ","streetKana":"ｲｶﾆｹｲｻｲｶﾞﾅｲﾊﾞｱｲ","prefecture":"岡山県","city":"勝田郡勝央町","street":"以下に掲載がない場合"},{"zipCode":"7094307","prefectureKana":"ｵｶﾔﾏｹﾝ","cityKana":"ｶﾂﾀｸﾞﾝｼｮｳｵｳﾁｮｳ","streetKana":"ｲｼｭｳ","prefecture":"岡山県","city":"勝田郡勝央町","street":"石生"},{"zipCode":"7094335","prefectureKana":"ｵｶﾔﾏｹﾝ","cityKana":"ｶﾂﾀｸﾞﾝｼｮｳｵｳﾁｮｳ","streetKana":"ｳｴﾂｷﾅｶ","prefecture":"岡山県","city":"勝田郡勝央町","street":"植月中"},{"zipCode":"7094332","prefectureKana":"ｵｶﾔﾏｹﾝ","cityKana":"ｶﾂﾀｸﾞﾝｼｮｳｵｳﾁｮｳ","streetKana":"ｳｴﾂｷﾋｶﾞｼ","prefecture":"岡山県","city":"勝田郡勝央町","street":"植月東"},{"zipCode":"7094331","prefectureKana":"ｵｶﾔﾏｹﾝ","cityKana":"ｶﾂﾀｸﾞﾝｼｮｳｵｳﾁｮｳ","streetKana":"ｳｴﾂｷｷﾀ","prefecture":"岡山県","city":"勝田郡勝央町","street":"植月北"},{"zipCode":"7094311","prefectureKana":"ｵｶﾔﾏｹﾝ","cityKana":"ｶﾂﾀｸﾞﾝｼｮｳｵｳﾁｮｳ","streetKana":"ｵｶ","prefecture":"岡山県","city":"勝田郡勝央町","street":"岡"},{"zipCode":"7094313","prefectureKana":"ｵｶﾔﾏｹﾝ","cityKana":"ｶﾂﾀｸﾞﾝｼｮｳｵｳﾁｮｳ","streetKana":"ｵﾔﾀ","prefecture":"岡山県","city":"勝田郡勝央町","street":"小矢田"},{"zipCode":"7094316","prefectureKana":"ｵｶﾔﾏｹﾝ","cityKana":"ｶﾂﾀｸﾞﾝｼｮｳｵｳﾁｮｳ","streetKana":"ｶﾂﾏﾀﾞ","prefecture":"岡山県","city":"勝田郡勝央町","street":"勝間田"},{"zipCode":"7094304","prefectureKana":"ｵｶﾔﾏｹﾝ","cityKana":"ｶﾂﾀｸﾞﾝｼｮｳｵｳﾁｮｳ","streetKana":"ｶﾐｶﾞﾔﾏ","prefecture":"岡山県","city":"勝田郡勝央町","street":"上香山"},{"zipCode":"7094302","prefectureKana":"ｵｶﾔﾏｹﾝ","cityKana":"ｶﾂﾀｸﾞﾝｼｮｳｵｳﾁｮｳ","streetKana":"ｶﾜﾗ","prefecture":"岡山県","city":"勝田郡勝央町","street":"河原"},{"zipCode":"7094323","prefectureKana":"ｵｶﾔﾏｹﾝ","cityKana":"ｶﾂﾀｸﾞﾝｼｮｳｵｳﾁｮｳ","streetKana":"ｸﾛｻｶ","prefecture":"岡山県","city":"勝田郡勝央町","street":"黒坂"},{"zipCode":"7094312","prefectureKana":"ｵｶﾔﾏｹﾝ","cityKana":"ｶﾂﾀｸﾞﾝｼｮｳｵｳﾁｮｳ","streetKana":"ｸﾛﾂﾁ","prefecture":"岡山県","city":"勝田郡勝央町","street":"黒土"},{"zipCode":"7094301","prefectureKana":"ｵｶﾔﾏｹﾝ","cityKana":"ｶﾂﾀｸﾞﾝｼｮｳｵｳﾁｮｳ","streetKana":"ｼﾓﾏﾁｶﾞﾜ","prefecture":"岡山県","city":"勝田郡勝央町","street":"下町川"},{"zipCode":"7094305","prefectureKana":"ｵｶﾔﾏｹﾝ","cityKana":"ｶﾂﾀｸﾞﾝｼｮｳｵｳﾁｮｳ","streetKana":"ｿｲ","prefecture":"岡山県","city":"勝田郡勝央町","street":"曽井"},{"zipCode":"7094333","prefectureKana":"ｵｶﾔﾏｹﾝ","cityKana":"ｶﾂﾀｸﾞﾝｼｮｳｵｳﾁｮｳ","streetKana":"ﾀｲ","prefecture":"岡山県","city":"勝田郡勝央町","street":"田井"},{"zipCode":"7094321","prefectureKana":"ｵｶﾔﾏｹﾝ","cityKana":"ｶﾂﾀｸﾞﾝｼｮｳｵｳﾁｮｳ","streetKana":"ﾀｲﾍｲﾀﾞｲ","prefecture":"岡山県","city":"勝田郡勝央町","street":"太平台"},{"zipCode":"7094334","prefectureKana":"ｵｶﾔﾏｹﾝ","cityKana":"ｶﾂﾀｸﾞﾝｼｮｳｵｳﾁｮｳ","streetKana":"ﾀｲﾗ","prefecture":"岡山県","city":"勝田郡勝央町","street":"平"},{"zipCode":"7094324","prefectureKana":"ｵｶﾔﾏｹﾝ","cityKana":"ｶﾂﾀｸﾞﾝｼｮｳｵｳﾁｮｳ","streetKana":"ﾀﾒﾓﾄ","prefecture":"岡山県","city":"勝田郡勝央町","street":"為本"},{"zipCode":"7094303","prefectureKana":"ｵｶﾔﾏｹﾝ","cityKana":"ｶﾂﾀｸﾞﾝｼｮｳｵｳﾁｮｳ","streetKana":"ﾄﾖｸﾀﾞ","prefecture":"岡山県","city":"勝田郡勝央町","street":"豊久田"},{"zipCode":"7094315","prefectureKana":"ｵｶﾔﾏｹﾝ","cityKana":"ｶﾂﾀｸﾞﾝｼｮｳｵｳﾁｮｳ","streetKana":"ﾊﾀﾔ","prefecture":"岡山県","city":"勝田郡勝央町","street":"畑屋"},{"zipCode":"7094314","prefectureKana":"ｵｶﾔﾏｹﾝ","cityKana":"ｶﾂﾀｸﾞﾝｼｮｳｵｳﾁｮｳ","streetKana":"ﾋｶﾞｼﾖｼﾀﾞ","prefecture":"岡山県","city":"勝田郡勝央町","street":"東吉田"},{"zipCode":"7094322","prefectureKana":"ｵｶﾔﾏｹﾝ","cityKana":"ｶﾂﾀｸﾞﾝｼｮｳｵｳﾁｮｳ","streetKana":"ﾌｸﾖｼ","prefecture":"岡山県","city":"勝田郡勝央町","street":"福吉"},{"zipCode":"7094306","prefectureKana":"ｵｶﾔﾏｹﾝ","cityKana":"ｶﾂﾀｸﾞﾝｼｮｳｵｳﾁｮｳ","streetKana":"ﾐﾉ","prefecture":"岡山県","city":"勝田郡勝央町","street":"美野"},{"zipCode":"7093600","prefectureKana":"ｵｶﾔﾏｹﾝ","cityKana":"ｸﾒｸﾞﾝｸﾒﾅﾝﾁｮｳ","streetKana":"ｲｶﾆｹｲｻｲｶﾞﾅｲﾊﾞｱｲ","prefecture":"岡山県","city":"久米郡久米南町","street":"以下に掲載がない場合"},{"zipCode":"7093626","prefectureKana":"ｵｶﾔﾏｹﾝ","cityKana":"ｸﾒｸﾞﾝｸﾒﾅﾝﾁｮｳ","streetKana":"ｶﾐｺｳﾒ","prefecture":"岡山県","city":"久米郡久米南町","street":"上神目"},{"zipCode":"7093615","prefectureKana":"ｵｶﾔﾏｹﾝ","cityKana":"ｸﾒｸﾞﾝｸﾒﾅﾝﾁｮｳ","streetKana":"ｶﾐﾆｶ","prefecture":"岡山県","city":"久米郡久米南町","street":"上二ケ"},{"zipCode":"7093621","prefectureKana":"ｵｶﾔﾏｹﾝ","cityKana":"ｸﾒｸﾞﾝｸﾒﾅﾝﾁｮｳ","streetKana":"ｶﾐﾓﾐ","prefecture":"岡山県","city":"久米郡久米南町","street":"上籾"},{"zipCode":"7093612","prefectureKana":"ｵｶﾔﾏｹﾝ","cityKana":"ｸﾒｸﾞﾝｸﾒﾅﾝﾁｮｳ","streetKana":"ｶﾐﾕｹﾞ","prefecture":"岡山県","city":"久米郡久米南町","street":"上弓削"},{"zipCode":"7093601","prefectureKana":"ｵｶﾔﾏｹﾝ","cityKana":"ｸﾒｸﾞﾝｸﾒﾅﾝﾁｮｳ","streetKana":"ｷﾀｼｮｳ","prefecture":"岡山県","city":"久米郡久米南町","street":"北庄"},{"zipCode":"7093634","prefectureKana":"ｵｶﾔﾏｹﾝ","cityKana":"ｸﾒｸﾞﾝｸﾒﾅﾝﾁｮｳ","streetKana":"ｷｮｳﾉｵ","prefecture":"岡山県","city":"久米郡久米南町","street":"京尾"},{"zipCode":"7093627","prefectureKana":"ｵｶﾔﾏｹﾝ","cityKana":"ｸﾒｸﾞﾝｸﾒﾅﾝﾁｮｳ","streetKana":"ｺｳﾒﾅｶ","prefecture":"岡山県","city":"久米郡久米南町","street":"神目中"},{"zipCode":"7093602","prefectureKana":"ｵｶﾔﾏｹﾝ","cityKana":"ｸﾒｸﾞﾝｸﾒﾅﾝﾁｮｳ","streetKana":"ｻﾄｶﾞﾀ","prefecture":"岡山県","city":"久米郡久米南町","street":"里方"},{"zipCode":"7093605","prefectureKana":"ｵｶﾔﾏｹﾝ","cityKana":"ｸﾒｸﾞﾝｸﾒﾅﾝﾁｮｳ","streetKana":"ｼｵﾉｳﾁ","prefecture":"岡山県","city":"久米郡久米南町","street":"塩之内"},{"zipCode":"7093617","prefectureKana":"ｵｶﾔﾏｹﾝ","cityKana":"ｸﾒｸﾞﾝｸﾒﾅﾝﾁｮｳ","streetKana":"ｼﾓﾆｶ","prefecture":"岡山県","city":"久米郡久米南町","street":"下二ケ"},{"zipCode":"7093624","prefectureKana":"ｵｶﾔﾏｹﾝ","cityKana":"ｸﾒｸﾞﾝｸﾒﾅﾝﾁｮｳ","streetKana":"ｼﾓﾓﾐ","prefecture":"岡山県","city":"久米郡久米南町","street":"下籾"},{"zipCode":"7093614","prefectureKana":"ｵｶﾔﾏｹﾝ","cityKana":"ｸﾒｸﾞﾝｸﾒﾅﾝﾁｮｳ","streetKana":"ｼﾓﾕｹﾞ","prefecture":"岡山県","city":"久米郡久米南町","street":"下弓削"},{"zipCode":"7093633","prefectureKana":"ｵｶﾔﾏｹﾝ","cityKana":"ｸﾒｸﾞﾝｸﾒﾅﾝﾁｮｳ","streetKana":"ﾄｳｹﾞ","prefecture":"岡山県","city":"久米郡久米南町","street":"峠"},{"zipCode":"7093623","prefectureKana":"ｵｶﾔﾏｹﾝ","cityKana":"ｸﾒｸﾞﾝｸﾒﾅﾝﾁｮｳ","streetKana":"ﾅｶﾓﾐ","prefecture":"岡山県","city":"久米郡久米南町","street":"中籾"},{"zipCode":"7093613","prefectureKana":"ｵｶﾔﾏｹﾝ","cityKana":"ｸﾒｸﾞﾝｸﾒﾅﾝﾁｮｳ","streetKana":"ﾆｼﾔﾏｼﾞ","prefecture":"岡山県","city":"久米郡久米南町","street":"西山寺"},{"zipCode":"7093606","prefectureKana":"ｵｶﾔﾏｹﾝ","cityKana":"ｸﾒｸﾞﾝｸﾒﾅﾝﾁｮｳ","streetKana":"ﾊﾃﾞｷﾞ","prefecture":"岡山県","city":"久米郡久米南町","street":"羽出木"},{"zipCode":"7093622","prefectureKana":"ｵｶﾔﾏｹﾝ","cityKana":"ｸﾒｸﾞﾝｸﾒﾅﾝﾁｮｳ","streetKana":"ﾌﾞﾂｷｮｳｼﾞ","prefecture":"岡山県","city":"久米郡久米南町","street":"仏教寺"},{"zipCode":"7093625","prefectureKana":"ｵｶﾔﾏｹﾝ","cityKana":"ｸﾒｸﾞﾝｸﾒﾅﾝﾁｮｳ","streetKana":"ﾍﾞｯｼﾖ","prefecture":"岡山県","city":"久米郡久米南町","street":"別所"},{"zipCode":"7093616","prefectureKana":"ｵｶﾔﾏｹﾝ","cityKana":"ｸﾒｸﾞﾝｸﾒﾅﾝﾁｮｳ","streetKana":"ﾏﾀﾏ","prefecture":"岡山県","city":"久米郡久米南町","street":"全間"},{"zipCode":"7093611","prefectureKana":"ｵｶﾔﾏｹﾝ","cityKana":"ｸﾒｸﾞﾝｸﾒﾅﾝﾁｮｳ","streetKana":"ﾏﾂ","prefecture":"岡山県","city":"久米郡久米南町","street":"松"},{"zipCode":"7093604","prefectureKana":"ｵｶﾔﾏｹﾝ","cityKana":"ｸﾒｸﾞﾝｸﾒﾅﾝﾁｮｳ","streetKana":"ﾐﾅﾐｼｮｳ","prefecture":"岡山県","city":"久米郡久米南町","street":"南庄"},{"zipCode":"7093635","prefectureKana":"ｵｶﾔﾏｹﾝ","cityKana":"ｸﾒｸﾞﾝｸﾒﾅﾝﾁｮｳ","streetKana":"ﾐﾅﾐﾊﾀ","prefecture":"岡山県","city":"久米郡久米南町","street":"南畑"},{"zipCode":"7093631","prefectureKana":"ｵｶﾔﾏｹﾝ","cityKana":"ｸﾒｸﾞﾝｸﾒﾅﾝﾁｮｳ","streetKana":"ﾐﾔｼﾞ","prefecture":"岡山県","city":"久米郡久米南町","street":"宮地"},{"zipCode":"7093636","prefectureKana":"ｵｶﾔﾏｹﾝ","cityKana":"ｸﾒｸﾞﾝｸﾒﾅﾝﾁｮｳ","streetKana":"ﾔｽｶﾞﾀﾜ","prefecture":"岡山県","city":"久米郡久米南町","street":"安ケ乢"},{"zipCode":"7093632","prefectureKana":"ｵｶﾔﾏｹﾝ","cityKana":"ｸﾒｸﾞﾝｸﾒﾅﾝﾁｮｳ","streetKana":"ﾔﾏﾃ","prefecture":"岡山県","city":"久米郡久米南町","street":"山手"},{"zipCode":"7093603","prefectureKana":"ｵｶﾔﾏｹﾝ","cityKana":"ｸﾒｸﾞﾝｸﾒﾅﾝﾁｮｳ","streetKana":"ﾔﾏﾉｼﾞｮｳ","prefecture":"岡山県","city":"久米郡久米南町","street":"山ノ城"},{"zipCode":"7093700","prefectureKana":"ｵｶﾔﾏｹﾝ","cityKana":"ｸﾒｸﾞﾝﾐｻｷﾁｮｳ","streetKana":"ｲｶﾆｹｲｻｲｶﾞﾅｲﾊﾞｱｲ","prefecture":"岡山県","city":"久米郡美咲町","street":"以下に掲載がない場合"},{"zipCode":"7093411","prefectureKana":"ｵｶﾔﾏｹﾝ","cityKana":"ｸﾒｸﾞﾝﾐｻｷﾁｮｳ","streetKana":"ｳｴｸﾁ","prefecture":"岡山県","city":"久米郡美咲町","street":"上口"},{"zipCode":"7093705","prefectureKana":"ｵｶﾔﾏｹﾝ","cityKana":"ｸﾒｸﾞﾝﾐｻｷﾁｮｳ","streetKana":"ｳﾀﾉｶﾐ","prefecture":"岡山県","city":"久米郡美咲町","street":"打穴上"},{"zipCode":"7093706","prefectureKana":"ｵｶﾔﾏｹﾝ","cityKana":"ｸﾒｸﾞﾝﾐｻｷﾁｮｳ","streetKana":"ｳﾀﾉｷﾀ","prefecture":"岡山県","city":"久米郡美咲町","street":"打穴北"},{"zipCode":"7093704","prefectureKana":"ｵｶﾔﾏｹﾝ","cityKana":"ｸﾒｸﾞﾝﾐｻｷﾁｮｳ","streetKana":"ｳﾀﾉｻﾄ","prefecture":"岡山県","city":"久米郡美咲町","street":"打穴里"},{"zipCode":"7093702","prefectureKana":"ｵｶﾔﾏｹﾝ","cityKana":"ｸﾒｸﾞﾝﾐｻｷﾁｮｳ","streetKana":"ｳﾀﾉｼﾓ","prefecture":"岡山県","city":"久米郡美咲町","street":"打穴下"},{"zipCode":"7093703","prefectureKana":"ｵｶﾔﾏｹﾝ","cityKana":"ｸﾒｸﾞﾝﾐｻｷﾁｮｳ","streetKana":"ｳﾀﾉﾅｶ","prefecture":"岡山県","city":"久米郡美咲町","street":"打穴中"},{"zipCode":"7093707","prefectureKana":"ｵｶﾔﾏｹﾝ","cityKana":"ｸﾒｸﾞﾝﾐｻｷﾁｮｳ","streetKana":"ｳﾀﾉﾆｼ","prefecture":"岡山県","city":"久米郡美咲町","street":"打穴西"},{"zipCode":"7093415","prefectureKana":"ｵｶﾔﾏｹﾝ","cityKana":"ｸﾒｸﾞﾝﾐｻｷﾁｮｳ","streetKana":"ｴﾖﾐ","prefecture":"岡山県","city":"久米郡美咲町","street":"江与味"},{"zipCode":"7093726","prefectureKana":"ｵｶﾔﾏｹﾝ","cityKana":"ｸﾒｸﾞﾝﾐｻｷﾁｮｳ","streetKana":"ｵｵﾊｶﾞﾆｼ","prefecture":"岡山県","city":"久米郡美咲町","street":"大垪和西"},{"zipCode":"7093722","prefectureKana":"ｵｶﾔﾏｹﾝ","cityKana":"ｸﾒｸﾞﾝﾐｻｷﾁｮｳ","streetKana":"ｵｵﾊｶﾞﾋｶﾞｼ","prefecture":"岡山県","city":"久米郡美咲町","street":"大垪和東"},{"zipCode":"7093714","prefectureKana":"ｵｶﾔﾏｹﾝ","cityKana":"ｸﾒｸﾞﾝﾐｻｷﾁｮｳ","streetKana":"ｵﾊﾞﾗ","prefecture":"岡山県","city":"久米郡美咲町","street":"小原"},{"zipCode":"7093712","prefectureKana":"ｵｶﾔﾏｹﾝ","cityKana":"ｸﾒｸﾞﾝﾐｻｷﾁｮｳ","streetKana":"ｶﾅﾎﾞﾘ","prefecture":"岡山県","city":"久米郡美咲町","street":"金堀"},{"zipCode":"7093401","prefectureKana":"ｵｶﾔﾏｹﾝ","cityKana":"ｸﾒｸﾞﾝﾐｻｷﾁｮｳ","streetKana":"ｷﾀ","prefecture":"岡山県","city":"久米郡美咲町","street":"北"},{"zipCode":"7093412","prefectureKana":"ｵｶﾔﾏｹﾝ","cityKana":"ｸﾒｸﾞﾝﾐｻｷﾁｮｳ","streetKana":"ｺﾔﾏ","prefecture":"岡山県","city":"久米郡美咲町","street":"小山"},{"zipCode":"7093711","prefectureKana":"ｵｶﾔﾏｹﾝ","cityKana":"ｸﾒｸﾞﾝﾐｻｷﾁｮｳ","streetKana":"ｺﾖｵ","prefecture":"岡山県","city":"久米郡美咲町","street":"越尾"},{"zipCode":"7093715","prefectureKana":"ｵｶﾔﾏｹﾝ","cityKana":"ｸﾒｸﾞﾝﾐｻｷﾁｮｳ","streetKana":"ｻｲｺｳ","prefecture":"岡山県","city":"久米郡美咲町","street":"西幸"},{"zipCode":"7093723","prefectureKana":"ｵｶﾔﾏｹﾝ","cityKana":"ｸﾒｸﾞﾝﾐｻｷﾁｮｳ","streetKana":"ｻｶｲ","prefecture":"岡山県","city":"久米郡美咲町","street":"境"},{"zipCode":"7093403","prefectureKana":"ｵｶﾔﾏｹﾝ","cityKana":"ｸﾒｸﾞﾝﾐｻｷﾁｮｳ","streetKana":"ｻﾄ","prefecture":"岡山県","city":"久米郡美咲町","street":"里"},{"zipCode":"7093713","prefectureKana":"ｵｶﾔﾏｹﾝ","cityKana":"ｸﾒｸﾞﾝﾐｻｷﾁｮｳ","streetKana":"ｼﾝｼﾞｮｳ","prefecture":"岡山県","city":"久米郡美咲町","street":"新城"},{"zipCode":"7093724","prefectureKana":"ｵｶﾔﾏｹﾝ","cityKana":"ｸﾒｸﾞﾝﾐｻｷﾁｮｳ","streetKana":"ﾂｲｼｿﾎﾞ","prefecture":"岡山県","city":"久米郡美咲町","street":"角石祖母"},{"zipCode":"7093413","prefectureKana":"ｵｶﾔﾏｹﾝ","cityKana":"ｸﾒｸﾞﾝﾐｻｷﾁｮｳ","streetKana":"ﾄﾁﾊﾞﾗ","prefecture":"岡山県","city":"久米郡美咲町","street":"栃原"},{"zipCode":"7093407","prefectureKana":"ｵｶﾔﾏｹﾝ","cityKana":"ｸﾒｸﾞﾝﾐｻｷﾁｮｳ","streetKana":"ﾅｶ","prefecture":"岡山県","city":"久米郡美咲町","street":"中"},{"zipCode":"7093417","prefectureKana":"ｵｶﾔﾏｹﾝ","cityKana":"ｸﾒｸﾞﾝﾐｻｷﾁｮｳ","streetKana":"ﾅｶﾊｶﾞ","prefecture":"岡山県","city":"久米郡美咲町","street":"中垪和"},{"zipCode":"7093405","prefectureKana":"ｵｶﾔﾏｹﾝ","cityKana":"ｸﾒｸﾞﾝﾐｻｷﾁｮｳ","streetKana":"ﾆｼ","prefecture":"岡山県","city":"久米郡美咲町","street":"西"},{"zipCode":"7093404","prefectureKana":"ｵｶﾔﾏｹﾝ","cityKana":"ｸﾒｸﾞﾝﾐｻｷﾁｮｳ","streetKana":"ﾆｼｶﾞﾜ","prefecture":"岡山県","city":"久米郡美咲町","street":"西川"},{"zipCode":"7093406","prefectureKana":"ｵｶﾔﾏｹﾝ","cityKana":"ｸﾒｸﾞﾝﾐｻｷﾁｮｳ","streetKana":"ﾆｼｶﾞﾜｶﾐ","prefecture":"岡山県","city":"久米郡美咲町","street":"西川上"},{"zipCode":"7093701","prefectureKana":"ｵｶﾔﾏｹﾝ","cityKana":"ｸﾒｸﾞﾝﾐｻｷﾁｮｳ","streetKana":"ﾆｼｺﾘ","prefecture":"岡山県","city":"久米郡美咲町","street":"錦織"},{"zipCode":"7093414","prefectureKana":"ｵｶﾔﾏｹﾝ","cityKana":"ｸﾒｸﾞﾝﾐｻｷﾁｮｳ","streetKana":"ﾆｼﾊｶﾞ","prefecture":"岡山県","city":"久米郡美咲町","street":"西垪和"},{"zipCode":"7093717","prefectureKana":"ｵｶﾔﾏｹﾝ","cityKana":"ｸﾒｸﾞﾝﾐｻｷﾁｮｳ","streetKana":"ﾊﾗﾀﾞ","prefecture":"岡山県","city":"久米郡美咲町","street":"原田"},{"zipCode":"7093416","prefectureKana":"ｵｶﾔﾏｹﾝ","cityKana":"ｸﾒｸﾞﾝﾐｻｷﾁｮｳ","streetKana":"ﾋｶﾞｼﾊｶﾞ","prefecture":"岡山県","city":"久米郡美咲町","street":"東垪和"},{"zipCode":"7093402","prefectureKana":"ｵｶﾔﾏｹﾝ","cityKana":"ｸﾒｸﾞﾝﾐｻｷﾁｮｳ","streetKana":"ﾐﾅﾐ","prefecture":"岡山県","city":"久米郡美咲町","street":"南"},{"zipCode":"7093716","prefectureKana":"ｵｶﾔﾏｹﾝ","cityKana":"ｸﾒｸﾞﾝﾐｻｷﾁｮｳ","streetKana":"ﾖﾘﾓﾄ","prefecture":"岡山県","city":"久米郡美咲町","street":"頼元"},{"zipCode":"7093721","prefectureKana":"ｵｶﾔﾏｹﾝ","cityKana":"ｸﾒｸﾞﾝﾐｻｷﾁｮｳ","streetKana":"ﾘｮｳｻﾝｼﾞ","prefecture":"岡山県","city":"久米郡美咲町","street":"両山寺"},{"zipCode":"7093725","prefectureKana":"ｵｶﾔﾏｹﾝ","cityKana":"ｸﾒｸﾞﾝﾐｻｷﾁｮｳ","streetKana":"ﾜﾀﾞｷﾀ","prefecture":"岡山県","city":"久米郡美咲町","street":"和田北"},{"zipCode":"7092672","prefectureKana":"ｵｶﾔﾏｹﾝ","cityKana":"ｶｶﾞｸﾞﾝｷﾋﾞﾁｭｳｵｳﾁｮｳ","streetKana":"ｱﾜｲﾀﾆ","prefecture":"岡山県","city":"加賀郡吉備中央町","street":"粟井谷"},{"zipCode":"7092403","prefectureKana":"ｵｶﾔﾏｹﾝ","cityKana":"ｶｶﾞｸﾞﾝｷﾋﾞﾁｭｳｵｳﾁｮｳ","streetKana":"ｱﾝﾀﾞ","prefecture":"岡山県","city":"加賀郡吉備中央町","street":"案田"},{"zipCode":"7092552","prefectureKana":"ｵｶﾔﾏｹﾝ","cityKana":"ｶｶﾞｸﾞﾝｷﾋﾞﾁｭｳｵｳﾁｮｳ","streetKana":"ｲﾊﾗ","prefecture":"岡山県","city":"加賀郡吉備中央町","street":"井原"},{"zipCode":"7092413","prefectureKana":"ｵｶﾔﾏｹﾝ","cityKana":"ｶｶﾞｸﾞﾝｷﾋﾞﾁｭｳｵｳﾁｮｳ","streetKana":"ｳｴﾀﾞﾆｼ","prefecture":"岡山県","city":"加賀郡吉備中央町","street":"上田西"},{"zipCode":"7092411","prefectureKana":"ｵｶﾔﾏｹﾝ","cityKana":"ｶｶﾞｸﾞﾝｷﾋﾞﾁｭｳｵｳﾁｮｳ","streetKana":"ｳｴﾀﾞﾋｶﾞｼ","prefecture":"岡山県","city":"加賀郡吉備中央町","street":"上田東"},{"zipCode":"7092344","prefectureKana":"ｵｶﾔﾏｹﾝ","cityKana":"ｶｶﾞｸﾞﾝｷﾋﾞﾁｭｳｵｳﾁｮｳ","streetKana":"ｳｴﾉ","prefecture":"岡山県","city":"加賀郡吉備中央町","street":"上野"},{"zipCode":"7092412","prefectureKana":"ｵｶﾔﾏｹﾝ","cityKana":"ｶｶﾞｸﾞﾝｷﾋﾞﾁｭｳｵｳﾁｮｳ","streetKana":"ｴﾝｼﾞｮｳ","prefecture":"岡山県","city":"加賀郡吉備中央町","street":"円城"},{"zipCode":"7092663","prefectureKana":"ｵｶﾔﾏｹﾝ","cityKana":"ｶｶﾞｸﾞﾝｷﾋﾞﾁｭｳｵｳﾁｮｳ","streetKana":"ｵｵｷﾞ","prefecture":"岡山県","city":"加賀郡吉備中央町","street":"大木"},{"zipCode":"7092673","prefectureKana":"ｵｶﾔﾏｹﾝ","cityKana":"ｶｶﾞｸﾞﾝｷﾋﾞﾁｭｳｵｳﾁｮｳ","streetKana":"ｵﾊﾞﾗ","prefecture":"岡山県","city":"加賀郡吉備中央町","street":"尾原"},{"zipCode":"7092341","prefectureKana":"ｵｶﾔﾏｹﾝ","cityKana":"ｶｶﾞｸﾞﾝｷﾋﾞﾁｭｳｵｳﾁｮｳ","streetKana":"ｶﾐｶﾞﾓ","prefecture":"岡山県","city":"加賀郡吉備中央町","street":"上加茂"},{"zipCode":"7092333","prefectureKana":"ｵｶﾔﾏｹﾝ","cityKana":"ｶｶﾞｸﾞﾝｷﾋﾞﾁｭｳｵｳﾁｮｳ","streetKana":"ｶﾓｲﾁﾊﾞ","prefecture":"岡山県","city":"加賀郡吉備中央町","street":"加茂市場"},{"zipCode":"7092401","prefectureKana":"ｵｶﾔﾏｹﾝ","cityKana":"ｶｶﾞｸﾞﾝｷﾋﾞﾁｭｳｵｳﾁｮｳ","streetKana":"ｶﾝｾ","prefecture":"岡山県","city":"加賀郡吉備中央町","street":"神瀬"},{"zipCode":"7092404","prefectureKana":"ｵｶﾔﾏｹﾝ","cityKana":"ｶｶﾞｸﾞﾝｷﾋﾞﾁｭｳｵｳﾁｮｳ","streetKana":"ｺﾓﾘ","prefecture":"岡山県","city":"加賀郡吉備中央町","street":"小森"},{"zipCode":"7092674","prefectureKana":"ｵｶﾔﾏｹﾝ","cityKana":"ｶｶﾞｸﾞﾝｷﾋﾞﾁｭｳｵｳﾁｮｳ","streetKana":"ｻｻﾒ","prefecture":"岡山県","city":"加賀郡吉備中央町","street":"笹目"},{"zipCode":"7092331","prefectureKana":"ｵｶﾔﾏｹﾝ","cityKana":"ｶｶﾞｸﾞﾝｷﾋﾞﾁｭｳｵｳﾁｮｳ","streetKana":"ｼﾓｶﾞﾓ","prefecture":"岡山県","city":"加賀郡吉備中央町","street":"下加茂"},{"zipCode":"7092551","prefectureKana":"ｵｶﾔﾏｹﾝ","cityKana":"ｶｶﾞｸﾞﾝｷﾋﾞﾁｭｳｵｳﾁｮｳ","streetKana":"ｼﾓﾄﾞｲ","prefecture":"岡山県","city":"加賀郡吉備中央町","street":"下土井"},{"zipCode":"7092671","prefectureKana":"ｵｶﾔﾏｹﾝ","cityKana":"ｶｶﾞｸﾞﾝｷﾋﾞﾁｭｳｵｳﾁｮｳ","streetKana":"ｽｷﾞﾀﾆ","prefecture":"岡山県","city":"加賀郡吉備中央町","street":"杉谷"},{"zipCode":"7092402","prefectureKana":"ｵｶﾔﾏｹﾝ","cityKana":"ｶｶﾞｸﾞﾝｷﾋﾞﾁｭｳｵｳﾁｮｳ","streetKana":"ﾀｶﾄﾐ","prefecture":"岡山県","city":"加賀郡吉備中央町","street":"高富"},{"zipCode":"7092332","prefectureKana":"ｵｶﾔﾏｹﾝ","cityKana":"ｶｶﾞｸﾞﾝｷﾋﾞﾁｭｳｵｳﾁｮｳ","streetKana":"ﾀｶﾔ","prefecture":"岡山県","city":"加賀郡吉備中央町","street":"高谷"},{"zipCode":"7092343","prefectureKana":"ｵｶﾔﾏｹﾝ","cityKana":"ｶｶﾞｸﾞﾝｷﾋﾞﾁｭｳｵｳﾁｮｳ","streetKana":"ﾀｹﾍﾞ","prefecture":"岡山県","city":"加賀郡吉備中央町","street":"竹部"},{"zipCode":"7092553","prefectureKana":"ｵｶﾔﾏｹﾝ","cityKana":"ｶｶﾞｸﾞﾝｷﾋﾞﾁｭｳｵｳﾁｮｳ","streetKana":"ﾄﾐﾅｶﾞ","prefecture":"岡山県","city":"加賀郡吉備中央町","street":"富永"},{"zipCode":"7092664","prefectureKana":"ｵｶﾔﾏｹﾝ","cityKana":"ｶｶﾞｸﾞﾝｷﾋﾞﾁｭｳｵｳﾁｮｳ","streetKana":"ﾄﾖｵｶｶﾐ","prefecture":"岡山県","city":"加賀郡吉備中央町","street":"豊岡上"},{"zipCode":"7092661","prefectureKana":"ｵｶﾔﾏｹﾝ","cityKana":"ｶｶﾞｸﾞﾝｷﾋﾞﾁｭｳｵｳﾁｮｳ","streetKana":"ﾄﾖｵｶｼﾓ","prefecture":"岡山県","city":"加賀郡吉備中央町","street":"豊岡下"},{"zipCode":"7092345","prefectureKana":"ｵｶﾔﾏｹﾝ","cityKana":"ｶｶﾞｸﾞﾝｷﾋﾞﾁｭｳｵｳﾁｮｳ","streetKana":"ﾋﾗｵｶ","prefecture":"岡山県","city":"加賀郡吉備中央町","street":"平岡"},{"zipCode":"7092342","prefectureKana":"ｵｶﾔﾏｹﾝ","cityKana":"ｶｶﾞｸﾞﾝｷﾋﾞﾁｭｳｵｳﾁｮｳ","streetKana":"ﾋﾛﾓ","prefecture":"岡山県","city":"加賀郡吉備中央町","street":"広面"},{"zipCode":"7092675","prefectureKana":"ｵｶﾔﾏｹﾝ","cityKana":"ｶｶﾞｸﾞﾝｷﾋﾞﾁｭｳｵｳﾁｮｳ","streetKana":"ﾌｸｻﾞﾜ","prefecture":"岡山県","city":"加賀郡吉備中央町","street":"福沢"},{"zipCode":"7092421","prefectureKana":"ｵｶﾔﾏｹﾝ","cityKana":"ｶｶﾞｸﾞﾝｷﾋﾞﾁｭｳｵｳﾁｮｳ","streetKana":"ﾎｿﾀﾞ","prefecture":"岡山県","city":"加賀郡吉備中央町","street":"細田"},{"zipCode":"7092676","prefectureKana":"ｵｶﾔﾏｹﾝ","cityKana":"ｶｶﾞｸﾞﾝｷﾋﾞﾁｭｳｵｳﾁｮｳ","streetKana":"ﾐｿﾞﾍﾞ","prefecture":"岡山県","city":"加賀郡吉備中央町","street":"溝部"},{"zipCode":"7092662","prefectureKana":"ｵｶﾔﾏｹﾝ","cityKana":"ｶｶﾞｸﾞﾝｷﾋﾞﾁｭｳｵｳﾁｮｳ","streetKana":"ﾐﾀﾆ","prefecture":"岡山県","city":"加賀郡吉備中央町","street":"三谷"},{"zipCode":"7092422","prefectureKana":"ｵｶﾔﾏｹﾝ","cityKana":"ｶｶﾞｸﾞﾝｷﾋﾞﾁｭｳｵｳﾁｮｳ","streetKana":"ﾐﾉｳﾀﾆ","prefecture":"岡山県","city":"加賀郡吉備中央町","street":"三納谷"},{"zipCode":"7092334","prefectureKana":"ｵｶﾔﾏｹﾝ","cityKana":"ｶｶﾞｸﾞﾝｷﾋﾞﾁｭｳｵｳﾁｮｳ","streetKana":"ﾐﾊﾗ","prefecture":"岡山県","city":"加賀郡吉備中央町","street":"美原"},{"zipCode":"7092554","prefectureKana":"ｵｶﾔﾏｹﾝ","cityKana":"ｶｶﾞｸﾞﾝｷﾋﾞﾁｭｳｵｳﾁｮｳ","streetKana":"ﾜﾀﾞ","prefecture":"岡山県","city":"加賀郡吉備中央町","street":"和田"}]