[{"zipCode":"7170026","prefectureKana":"ｵｶﾔﾏｹﾝ","cityKana":"ﾏﾆﾜｼ","streetKana":"ｱﾗﾀ","prefecture":"岡山県","city":"真庭市","street":"荒田"},{"zipCode":"7170421","prefectureKana":"ｵｶﾔﾏｹﾝ","cityKana":"ﾏﾆﾜｼ","streetKana":"ｱﾜﾀﾞﾆ","prefecture":"岡山県","city":"真庭市","street":"粟谷"},{"zipCode":"7170413","prefectureKana":"ｵｶﾔﾏｹﾝ","cityKana":"ﾏﾆﾜｼ","streetKana":"ｲﾅﾂ","prefecture":"岡山県","city":"真庭市","street":"禾津"},{"zipCode":"7170745","prefectureKana":"ｵｶﾔﾏｹﾝ","cityKana":"ﾏﾆﾜｼ","streetKana":"ｲﾜｲｳﾈ","prefecture":"岡山県","city":"真庭市","street":"岩井畝"},{"zipCode":"7170744","prefectureKana":"ｵｶﾔﾏｹﾝ","cityKana":"ﾏﾆﾜｼ","streetKana":"ｲﾜｲﾀﾞﾆ","prefecture":"岡山県","city":"真庭市","street":"岩井谷"},{"zipCode":"7170742","prefectureKana":"ｵｶﾔﾏｹﾝ","cityKana":"ﾏﾆﾜｼ","streetKana":"ｳｼﾛﾀﾞﾆ","prefecture":"岡山県","city":"真庭市","street":"後谷"},{"zipCode":"7170025","prefectureKana":"ｵｶﾔﾏｹﾝ","cityKana":"ﾏﾆﾜｼ","streetKana":"ｳｼﾛﾀﾞﾆｳﾈ","prefecture":"岡山県","city":"真庭市","street":"後谷畝"},{"zipCode":"7170023","prefectureKana":"ｵｶﾔﾏｹﾝ","cityKana":"ﾏﾆﾜｼ","streetKana":"ｴｶﾞﾜ","prefecture":"岡山県","city":"真庭市","street":"江川"},{"zipCode":"7170015","prefectureKana":"ｵｶﾔﾏｹﾝ","cityKana":"ﾏﾆﾜｼ","streetKana":"ｵｶ","prefecture":"岡山県","city":"真庭市","street":"岡"},{"zipCode":"7170013","prefectureKana":"ｵｶﾔﾏｹﾝ","cityKana":"ﾏﾆﾜｼ","streetKana":"ｶﾂﾔﾏ","prefecture":"岡山県","city":"真庭市","street":"勝山"},{"zipCode":"7170101","prefectureKana":"ｵｶﾔﾏｹﾝ","cityKana":"ﾏﾆﾜｼ","streetKana":"ｶﾈﾔﾏ","prefecture":"岡山県","city":"真庭市","street":"鉄山"},{"zipCode":"7170746","prefectureKana":"ｵｶﾔﾏｹﾝ","cityKana":"ﾏﾆﾜｼ","streetKana":"ｶﾐ","prefecture":"岡山県","city":"真庭市","street":"上"},{"zipCode":"7170004","prefectureKana":"ｵｶﾔﾏｹﾝ","cityKana":"ﾏﾆﾜｼ","streetKana":"ｶﾝﾊﾞ","prefecture":"岡山県","city":"真庭市","street":"神庭"},{"zipCode":"7170414","prefectureKana":"ｵｶﾔﾏｹﾝ","cityKana":"ﾏﾆﾜｼ","streetKana":"ｸｷﾞﾇｷｺｶﾞﾜ","prefecture":"岡山県","city":"真庭市","street":"釘貫小川"},{"zipCode":"7170006","prefectureKana":"ｵｶﾔﾏｹﾝ","cityKana":"ﾏﾆﾜｼ","streetKana":"ｸﾐ","prefecture":"岡山県","city":"真庭市","street":"組"},{"zipCode":"7170423","prefectureKana":"ｵｶﾔﾏｹﾝ","cityKana":"ﾏﾆﾜｼ","streetKana":"ｸﾛｸｲ","prefecture":"岡山県","city":"真庭市","street":"黒杭"},{"zipCode":"7170102","prefectureKana":"ｵｶﾔﾏｹﾝ","cityKana":"ﾏﾆﾜｼ","streetKana":"ｸﾛﾀﾞ","prefecture":"岡山県","city":"真庭市","street":"黒田"},{"zipCode":"7170027","prefectureKana":"ｵｶﾔﾏｹﾝ","cityKana":"ﾏﾆﾜｼ","streetKana":"ｺｳｼﾞﾛ","prefecture":"岡山県","city":"真庭市","street":"神代"},{"zipCode":"7170736","prefectureKana":"ｵｶﾔﾏｹﾝ","cityKana":"ﾏﾆﾜｼ","streetKana":"ｺﾛﾛﾋﾞﾅｶ","prefecture":"岡山県","city":"真庭市","street":"古呂々尾中"},{"zipCode":"7170022","prefectureKana":"ｵｶﾔﾏｹﾝ","cityKana":"ﾏﾆﾜｼ","streetKana":"ｻﾝﾃﾞﾝ","prefecture":"岡山県","city":"真庭市","street":"三田"},{"zipCode":"7170014","prefectureKana":"ｵｶﾔﾏｹﾝ","cityKana":"ﾏﾆﾜｼ","streetKana":"ｼﾊﾞﾗ","prefecture":"岡山県","city":"真庭市","street":"柴原"},{"zipCode":"7170735","prefectureKana":"ｵｶﾔﾏｹﾝ","cityKana":"ﾏﾆﾜｼ","streetKana":"ｼﾓｲﾜ","prefecture":"岡山県","city":"真庭市","street":"下岩"},{"zipCode":"7170403","prefectureKana":"ｵｶﾔﾏｹﾝ","cityKana":"ﾏﾆﾜｼ","streetKana":"ｼﾓﾕﾊﾞﾗ","prefecture":"岡山県","city":"真庭市","street":"下湯原"},{"zipCode":"7170002","prefectureKana":"ｵｶﾔﾏｹﾝ","cityKana":"ﾏﾆﾜｼ","streetKana":"ｽｶﾞﾀﾆ","prefecture":"岡山県","city":"真庭市","street":"菅谷"},{"zipCode":"7170737","prefectureKana":"ｵｶﾔﾏｹﾝ","cityKana":"ﾏﾆﾜｼ","streetKana":"ｾｲﾀﾆ","prefecture":"岡山県","city":"真庭市","street":"清谷"},{"zipCode":"7170732","prefectureKana":"ｵｶﾔﾏｹﾝ","cityKana":"ﾏﾆﾜｼ","streetKana":"ﾀｶﾀﾔﾏｳｴ","prefecture":"岡山県","city":"真庭市","street":"高田山上"},{"zipCode":"7170103","prefectureKana":"ｵｶﾔﾏｹﾝ","cityKana":"ﾏﾆﾜｼ","streetKana":"ﾀｸﾞﾁ","prefecture":"岡山県","city":"真庭市","street":"田口"},{"zipCode":"7170003","prefectureKana":"ｵｶﾔﾏｹﾝ","cityKana":"ﾏﾆﾜｼ","streetKana":"ﾀｹﾊﾞﾗ","prefecture":"岡山県","city":"真庭市","street":"竹原"},{"zipCode":"7170424","prefectureKana":"ｵｶﾔﾏｹﾝ","cityKana":"ﾏﾆﾜｼ","streetKana":"ﾀﾈ","prefecture":"岡山県","city":"真庭市","street":"種"},{"zipCode":"7170401","prefectureKana":"ｵｶﾔﾏｹﾝ","cityKana":"ﾏﾆﾜｼ","streetKana":"ﾀﾊﾞﾈ","prefecture":"岡山県","city":"真庭市","street":"田羽根"},{"zipCode":"7170024","prefectureKana":"ｵｶﾔﾏｹﾝ","cityKana":"ﾏﾆﾜｼ","streetKana":"ﾂｷﾀﾞ","prefecture":"岡山県","city":"真庭市","street":"月田"},{"zipCode":"7170743","prefectureKana":"ｵｶﾔﾏｹﾝ","cityKana":"ﾏﾆﾜｼ","streetKana":"ﾂｷﾀﾞﾎﾝ","prefecture":"岡山県","city":"真庭市","street":"月田本"},{"zipCode":"7170415","prefectureKana":"ｵｶﾔﾏｹﾝ","cityKana":"ﾏﾆﾜｼ","streetKana":"ﾂｷﾞﾀﾙ","prefecture":"岡山県","city":"真庭市","street":"都喜足"},{"zipCode":"7170406","prefectureKana":"ｵｶﾔﾏｹﾝ","cityKana":"ﾏﾆﾜｼ","streetKana":"ﾄﾖｻｶ","prefecture":"岡山県","city":"真庭市","street":"豊栄"},{"zipCode":"7170416","prefectureKana":"ｵｶﾔﾏｹﾝ","cityKana":"ﾏﾆﾜｼ","streetKana":"ﾅｶﾏ","prefecture":"岡山県","city":"真庭市","street":"仲間"},{"zipCode":"7170734","prefectureKana":"ｵｶﾔﾏｹﾝ","cityKana":"ﾏﾆﾜｼ","streetKana":"ﾉ","prefecture":"岡山県","city":"真庭市","street":"野"},{"zipCode":"7170104","prefectureKana":"ｵｶﾔﾏｹﾝ","cityKana":"ﾏﾆﾜｼ","streetKana":"ﾉﾌﾞｶｾﾞ","prefecture":"岡山県","city":"真庭市","street":"延風"},{"zipCode":"7170405","prefectureKana":"ｵｶﾔﾏｹﾝ","cityKana":"ﾏﾆﾜｼ","streetKana":"ﾋｻﾐ","prefecture":"岡山県","city":"真庭市","street":"久見"},{"zipCode":"7170425","prefectureKana":"ｵｶﾔﾏｹﾝ","cityKana":"ﾏﾆﾜｼ","streetKana":"ﾋｼﾞﾔ","prefecture":"岡山県","city":"真庭市","street":"小童谷"},{"zipCode":"7170612","prefectureKana":"ｵｶﾔﾏｹﾝ","cityKana":"ﾏﾆﾜｼ","streetKana":"ﾋﾙｾﾞﾝｶﾐﾄｸﾔﾏ","prefecture":"岡山県","city":"真庭市","street":"蒜山上徳山"},{"zipCode":"7170505","prefectureKana":"ｵｶﾔﾏｹﾝ","cityKana":"ﾏﾆﾜｼ","streetKana":"ﾋﾙｾﾞﾝｶﾐﾅｶﾞﾀ","prefecture":"岡山県","city":"真庭市","street":"蒜山上長田"},{"zipCode":"7170602","prefectureKana":"ｵｶﾔﾏｹﾝ","cityKana":"ﾏﾆﾜｼ","streetKana":"ﾋﾙｾﾞﾝｶﾐﾌｸﾀﾞ","prefecture":"岡山県","city":"真庭市","street":"蒜山上福田"},{"zipCode":"7170513","prefectureKana":"ｵｶﾔﾏｹﾝ","cityKana":"ﾏﾆﾜｼ","streetKana":"ﾋﾙｾﾞﾝｼﾀｵ","prefecture":"岡山県","city":"真庭市","street":"蒜山下和"},{"zipCode":"7170613","prefectureKana":"ｵｶﾔﾏｹﾝ","cityKana":"ﾏﾆﾜｼ","streetKana":"ﾋﾙｾﾞﾝｼﾓﾄｸﾔﾏ","prefecture":"岡山県","city":"真庭市","street":"蒜山下徳山"},{"zipCode":"7170506","prefectureKana":"ｵｶﾔﾏｹﾝ","cityKana":"ﾏﾆﾜｼ","streetKana":"ﾋﾙｾﾞﾝｼﾓﾅｶﾞﾀ","prefecture":"岡山県","city":"真庭市","street":"蒜山下長田"},{"zipCode":"7170504","prefectureKana":"ｵｶﾔﾏｹﾝ","cityKana":"ﾏﾆﾜｼ","streetKana":"ﾋﾙｾﾞﾝｼﾓﾌｸﾀﾞ","prefecture":"岡山県","city":"真庭市","street":"蒜山下福田"},{"zipCode":"7170507","prefectureKana":"ｵｶﾔﾏｹﾝ","cityKana":"ﾏﾆﾜｼ","streetKana":"ﾋﾙｾﾞﾝｼﾓﾐ","prefecture":"岡山県","city":"真庭市","street":"蒜山下見"},{"zipCode":"7170502","prefectureKana":"ｵｶﾔﾏｹﾝ","cityKana":"ﾏﾆﾜｼ","streetKana":"ﾋﾙｾﾞﾝﾄﾐｶｹﾀﾞ","prefecture":"岡山県","city":"真庭市","street":"蒜山富掛田"},{"zipCode":"7170503","prefectureKana":"ｵｶﾔﾏｹﾝ","cityKana":"ﾏﾆﾜｼ","streetKana":"ﾋﾙｾﾞﾝﾄﾐﾔﾏﾈ","prefecture":"岡山県","city":"真庭市","street":"蒜山富山根"},{"zipCode":"7170501","prefectureKana":"ｵｶﾔﾏｹﾝ","cityKana":"ﾏﾆﾜｼ","streetKana":"ﾋﾙｾﾞﾝﾅｶﾌｸﾀﾞ","prefecture":"岡山県","city":"真庭市","street":"蒜山中福田"},{"zipCode":"7170604","prefectureKana":"ｵｶﾔﾏｹﾝ","cityKana":"ﾏﾆﾜｼ","streetKana":"ﾋﾙｾﾞﾝﾆｼｶﾔﾍﾞ","prefecture":"岡山県","city":"真庭市","street":"蒜山西茅部"},{"zipCode":"7170511","prefectureKana":"ｵｶﾔﾏｹﾝ","cityKana":"ﾏﾆﾜｼ","streetKana":"ﾋﾙｾﾞﾝﾊﾂﾜ","prefecture":"岡山県","city":"真庭市","street":"蒜山初和"},{"zipCode":"7170603","prefectureKana":"ｵｶﾔﾏｹﾝ","cityKana":"ﾏﾆﾜｼ","streetKana":"ﾋﾙｾﾞﾝﾋｶﾞｼｶﾔﾍﾞ","prefecture":"岡山県","city":"真庭市","street":"蒜山東茅部"},{"zipCode":"7170515","prefectureKana":"ｵｶﾔﾏｹﾝ","cityKana":"ﾏﾆﾜｼ","streetKana":"ﾋﾙｾﾞﾝﾍﾞｯｼｮ","prefecture":"岡山県","city":"真庭市","street":"蒜山別所"},{"zipCode":"7170611","prefectureKana":"ｵｶﾔﾏｹﾝ","cityKana":"ﾏﾆﾜｼ","streetKana":"ﾋﾙｾﾞﾝﾎﾝｶﾔﾍﾞ","prefecture":"岡山県","city":"真庭市","street":"蒜山本茅部"},{"zipCode":"7170512","prefectureKana":"ｵｶﾔﾏｹﾝ","cityKana":"ﾏﾆﾜｼ","streetKana":"ﾋﾙｾﾞﾝﾏｶｺﾞ","prefecture":"岡山県","city":"真庭市","street":"蒜山真加子"},{"zipCode":"7170601","prefectureKana":"ｵｶﾔﾏｹﾝ","cityKana":"ﾏﾆﾜｼ","streetKana":"ﾋﾙｾﾞﾝﾕﾌﾞﾈ","prefecture":"岡山県","city":"真庭市","street":"蒜山湯船"},{"zipCode":"7170514","prefectureKana":"ｵｶﾔﾏｹﾝ","cityKana":"ﾏﾆﾜｼ","streetKana":"ﾋﾙｾﾞﾝﾖｼﾀﾞ","prefecture":"岡山県","city":"真庭市","street":"蒜山吉田"},{"zipCode":"7170021","prefectureKana":"ｵｶﾔﾏｹﾝ","cityKana":"ﾏﾆﾜｼ","streetKana":"ﾌｸﾀﾆ","prefecture":"岡山県","city":"真庭市","street":"福谷"},{"zipCode":"7170422","prefectureKana":"ｵｶﾔﾏｹﾝ","cityKana":"ﾏﾆﾜｼ","streetKana":"ﾌｼﾞﾓﾘ","prefecture":"岡山県","city":"真庭市","street":"藤森"},{"zipCode":"7170001","prefectureKana":"ｵｶﾔﾏｹﾝ","cityKana":"ﾏﾆﾜｼ","streetKana":"ﾎｼﾔﾏ","prefecture":"岡山県","city":"真庭市","street":"星山"},{"zipCode":"7170007","prefectureKana":"ｵｶﾔﾏｹﾝ","cityKana":"ﾏﾆﾜｼ","streetKana":"ﾎﾝｺﾞｳ","prefecture":"岡山県","city":"真庭市","street":"本郷"},{"zipCode":"7170412","prefectureKana":"ｵｶﾔﾏｹﾝ","cityKana":"ﾏﾆﾜｼ","streetKana":"ﾎﾝｼﾞｮｳ","prefecture":"岡山県","city":"真庭市","street":"本庄"},{"zipCode":"7170017","prefectureKana":"ｵｶﾔﾏｹﾝ","cityKana":"ﾏﾆﾜｼ","streetKana":"ﾏｶﾞ","prefecture":"岡山県","city":"真庭市","street":"真賀"},{"zipCode":"7170731","prefectureKana":"ｵｶﾔﾏｹﾝ","cityKana":"ﾏﾆﾜｼ","streetKana":"ﾏｶﾞﾘ","prefecture":"岡山県","city":"真庭市","street":"曲り"},{"zipCode":"7170016","prefectureKana":"ｵｶﾔﾏｹﾝ","cityKana":"ﾏﾆﾜｼ","streetKana":"ﾏｻﾖｼ","prefecture":"岡山県","city":"真庭市","street":"正吉"},{"zipCode":"7170411","prefectureKana":"ｵｶﾔﾏｹﾝ","cityKana":"ﾏﾆﾜｼ","streetKana":"ﾐｱｹﾄﾞ","prefecture":"岡山県","city":"真庭市","street":"見明戸"},{"zipCode":"7170011","prefectureKana":"ｵｶﾔﾏｹﾝ","cityKana":"ﾏﾆﾜｼ","streetKana":"ﾐｵ","prefecture":"岡山県","city":"真庭市","street":"見尾"},{"zipCode":"7170105","prefectureKana":"ｵｶﾔﾏｹﾝ","cityKana":"ﾏﾆﾜｼ","streetKana":"ﾐｶﾓ","prefecture":"岡山県","city":"真庭市","street":"美甘"},{"zipCode":"7170426","prefectureKana":"ｵｶﾔﾏｹﾝ","cityKana":"ﾏﾆﾜｼ","streetKana":"ﾐｾｼﾁﾊﾞﾗ","prefecture":"岡山県","city":"真庭市","street":"三世七原"},{"zipCode":"7170404","prefectureKana":"ｵｶﾔﾏｹﾝ","cityKana":"ﾏﾆﾜｼ","streetKana":"ﾔｼﾛ","prefecture":"岡山県","city":"真庭市","street":"社"},{"zipCode":"7170012","prefectureKana":"ｵｶﾔﾏｹﾝ","cityKana":"ﾏﾆﾜｼ","streetKana":"ﾔﾏｸｾ","prefecture":"岡山県","city":"真庭市","street":"山久世"},{"zipCode":"7170402","prefectureKana":"ｵｶﾔﾏｹﾝ","cityKana":"ﾏﾆﾜｼ","streetKana":"ﾕﾊﾞﾗｵﾝｾﾝ","prefecture":"岡山県","city":"真庭市","street":"湯原温泉"},{"zipCode":"7170005","prefectureKana":"ｵｶﾔﾏｹﾝ","cityKana":"ﾏﾆﾜｼ","streetKana":"ﾖｺﾍﾞ","prefecture":"岡山県","city":"真庭市","street":"横部"},{"zipCode":"7170741","prefectureKana":"ｵｶﾔﾏｹﾝ","cityKana":"ﾏﾆﾜｼ","streetKana":"ﾜｶｼﾛ","prefecture":"岡山県","city":"真庭市","street":"若代"},{"zipCode":"7170733","prefectureKana":"ｵｶﾔﾏｹﾝ","cityKana":"ﾏﾆﾜｼ","streetKana":"ﾜｶｼﾛｳﾈ","prefecture":"岡山県","city":"真庭市","street":"若代畝"},{"zipCode":"7170201","prefectureKana":"ｵｶﾔﾏｹﾝ","cityKana":"ﾏﾆﾜｸﾞﾝｼﾝｼﾞｮｳｿﾝ","streetKana":"ｼﾝｼﾞｮｳｿﾝｲﾁｴﾝ","prefecture":"岡山県","city":"真庭郡新庄村","street":"新庄村一円"}]