[{"zipCode":"7180000","prefectureKana":"ｵｶﾔﾏｹﾝ","cityKana":"ﾆｲﾐｼ","streetKana":"ｲｶﾆｹｲｻｲｶﾞﾅｲﾊﾞｱｲ","prefecture":"岡山県","city":"新見市","street":"以下に掲載がない場合"},{"zipCode":"7180006","prefectureKana":"ｵｶﾔﾏｹﾝ","cityKana":"ﾆｲﾐｼ","streetKana":"ｱｼﾀﾞﾁ","prefecture":"岡山県","city":"新見市","street":"足立"},{"zipCode":"7180015","prefectureKana":"ｵｶﾔﾏｹﾝ","cityKana":"ﾆｲﾐｼ","streetKana":"ｲｼｶﾞ","prefecture":"岡山県","city":"新見市","street":"石蟹"},{"zipCode":"7180016","prefectureKana":"ｵｶﾔﾏｹﾝ","cityKana":"ﾆｲﾐｼ","streetKana":"ｶﾅﾔ","prefecture":"岡山県","city":"新見市","street":"金谷"},{"zipCode":"7180005","prefectureKana":"ｵｶﾔﾏｹﾝ","cityKana":"ﾆｲﾐｼ","streetKana":"ｶﾐｲﾁ","prefecture":"岡山県","city":"新見市","street":"上市"},{"zipCode":"7180001","prefectureKana":"ｵｶﾔﾏｹﾝ","cityKana":"ﾆｲﾐｼ","streetKana":"ｶﾐｸﾏﾀﾆ","prefecture":"岡山県","city":"新見市","street":"上熊谷"},{"zipCode":"7180012","prefectureKana":"ｵｶﾔﾏｹﾝ","cityKana":"ﾆｲﾐｼ","streetKana":"ｶﾗﾏﾂ","prefecture":"岡山県","city":"新見市","street":"唐松"},{"zipCode":"7180007","prefectureKana":"ｵｶﾔﾏｹﾝ","cityKana":"ﾆｲﾐｼ","streetKana":"ｻｶﾓﾄ","prefecture":"岡山県","city":"新見市","street":"坂本"},{"zipCode":"7180002","prefectureKana":"ｵｶﾔﾏｹﾝ","cityKana":"ﾆｲﾐｼ","streetKana":"ｼﾓｸﾏﾀﾆ","prefecture":"岡山県","city":"新見市","street":"下熊谷"},{"zipCode":"7180013","prefectureKana":"ｵｶﾔﾏｹﾝ","cityKana":"ﾆｲﾐｼ","streetKana":"ｼｮｳﾃﾞﾝ","prefecture":"岡山県","city":"新見市","street":"正田"},{"zipCode":"7180211","prefectureKana":"ｵｶﾔﾏｹﾝ","cityKana":"ﾆｲﾐｼ","streetKana":"ｽｺﾞｳ","prefecture":"岡山県","city":"新見市","street":"菅生"},{"zipCode":"7180003","prefectureKana":"ｵｶﾔﾏｹﾝ","cityKana":"ﾆｲﾐｼ","streetKana":"ﾀｶｵ","prefecture":"岡山県","city":"新見市","street":"高尾"},{"zipCode":"7180101","prefectureKana":"ｵｶﾔﾏｹﾝ","cityKana":"ﾆｲﾐｼ","streetKana":"ﾁﾔ","prefecture":"岡山県","city":"新見市","street":"千屋"},{"zipCode":"7180103","prefectureKana":"ｵｶﾔﾏｹﾝ","cityKana":"ﾆｲﾐｼ","streetKana":"ﾁﾔｲﾊﾗ","prefecture":"岡山県","city":"新見市","street":"千屋井原"},{"zipCode":"7180102","prefectureKana":"ｵｶﾔﾏｹﾝ","cityKana":"ﾆｲﾐｼ","streetKana":"ﾁﾔｻﾈ","prefecture":"岡山県","city":"新見市","street":"千屋実"},{"zipCode":"7180104","prefectureKana":"ｵｶﾔﾏｹﾝ","cityKana":"ﾆｲﾐｼ","streetKana":"ﾁﾔﾊﾅﾐ","prefecture":"岡山県","city":"新見市","street":"千屋花見"},{"zipCode":"7180307","prefectureKana":"ｵｶﾔﾏｹﾝ","cityKana":"ﾆｲﾐｼ","streetKana":"ﾃｯﾀﾁｮｳｵｲｻﾞｺ","prefecture":"岡山県","city":"新見市","street":"哲多町老栄"},{"zipCode":"7180313","prefectureKana":"ｵｶﾔﾏｹﾝ","cityKana":"ﾆｲﾐｼ","streetKana":"ﾃｯﾀﾁｮｳｵｵﾉ","prefecture":"岡山県","city":"新見市","street":"哲多町大野"},{"zipCode":"7180305","prefectureKana":"ｵｶﾔﾏｹﾝ","cityKana":"ﾆｲﾐｼ","streetKana":"ﾃｯﾀﾁｮｳｵｷﾞｮｵ","prefecture":"岡山県","city":"新見市","street":"哲多町荻尾"},{"zipCode":"7180311","prefectureKana":"ｵｶﾔﾏｹﾝ","cityKana":"ﾆｲﾐｼ","streetKana":"ﾃｯﾀﾁｮｳｺｳﾉｲｴ","prefecture":"岡山県","city":"新見市","street":"哲多町蚊家"},{"zipCode":"7180312","prefectureKana":"ｵｶﾔﾏｹﾝ","cityKana":"ﾆｲﾐｼ","streetKana":"ﾃｯﾀﾁｮｳﾀﾌﾞﾁ","prefecture":"岡山県","city":"新見市","street":"哲多町田淵"},{"zipCode":"7180304","prefectureKana":"ｵｶﾔﾏｹﾝ","cityKana":"ﾆｲﾐｼ","streetKana":"ﾃｯﾀﾁｮｳﾅﾘﾏﾂ","prefecture":"岡山県","city":"新見市","street":"哲多町成松"},{"zipCode":"7180302","prefectureKana":"ｵｶﾔﾏｹﾝ","cityKana":"ﾆｲﾐｼ","streetKana":"ﾃｯﾀﾁｮｳﾊﾅｷﾞ","prefecture":"岡山県","city":"新見市","street":"哲多町花木"},{"zipCode":"7180303","prefectureKana":"ｵｶﾔﾏｹﾝ","cityKana":"ﾆｲﾐｼ","streetKana":"ﾃｯﾀﾁｮｳﾎﾝｺﾞｳ","prefecture":"岡山県","city":"新見市","street":"哲多町本郷"},{"zipCode":"7180301","prefectureKana":"ｵｶﾔﾏｹﾝ","cityKana":"ﾆｲﾐｼ","streetKana":"ﾃｯﾀﾁｮｳﾐﾔｺﾞｳﾁ","prefecture":"岡山県","city":"新見市","street":"哲多町宮河内"},{"zipCode":"7180306","prefectureKana":"ｵｶﾔﾏｹﾝ","cityKana":"ﾆｲﾐｼ","streetKana":"ﾃｯﾀﾁｮｳﾔﾄ","prefecture":"岡山県","city":"新見市","street":"哲多町矢戸"},{"zipCode":"7180014","prefectureKana":"ｵｶﾔﾏｹﾝ","cityKana":"ﾆｲﾐｼ","streetKana":"ﾅｶﾞﾔ","prefecture":"岡山県","city":"新見市","street":"長屋"},{"zipCode":"7180011","prefectureKana":"ｵｶﾔﾏｹﾝ","cityKana":"ﾆｲﾐｼ","streetKana":"ﾆｲﾐ","prefecture":"岡山県","city":"新見市","street":"新見"},{"zipCode":"7180017","prefectureKana":"ｵｶﾔﾏｹﾝ","cityKana":"ﾆｲﾐｼ","streetKana":"ﾆｼｶﾞﾀ","prefecture":"岡山県","city":"新見市","street":"西方"},{"zipCode":"7180004","prefectureKana":"ｵｶﾔﾏｹﾝ","cityKana":"ﾆｲﾐｼ","streetKana":"ﾏﾂﾞｶ","prefecture":"岡山県","city":"新見市","street":"馬塚"}]