[{"zipCode":"7191100","prefectureKana":"ｵｶﾔﾏｹﾝ","cityKana":"ｿｳｼﾞｬｼ","streetKana":"ｲｶﾆｹｲｻｲｶﾞﾅｲﾊﾞｱｲ","prefecture":"岡山県","city":"総社市","street":"以下に掲載がない場合"},{"zipCode":"7191121","prefectureKana":"ｵｶﾔﾏｹﾝ","cityKana":"ｿｳｼﾞｬｼ","streetKana":"ｱｶﾊﾏ","prefecture":"岡山県","city":"総社市","street":"赤浜"},{"zipCode":"7191154","prefectureKana":"ｵｶﾔﾏｹﾝ","cityKana":"ｿｳｼﾞｬｼ","streetKana":"ｲｼﾞﾘﾉ","prefecture":"岡山県","city":"総社市","street":"井尻野"},{"zipCode":"7191106","prefectureKana":"ｵｶﾔﾏｹﾝ","cityKana":"ｿｳｼﾞｬｼ","streetKana":"ｲｽﾞﾐ","prefecture":"岡山県","city":"総社市","street":"泉"},{"zipCode":"7191125","prefectureKana":"ｵｶﾔﾏｹﾝ","cityKana":"ｿｳｼﾞｬｼ","streetKana":"ｲﾃﾞ","prefecture":"岡山県","city":"総社市","street":"井手"},{"zipCode":"7191315","prefectureKana":"ｵｶﾔﾏｹﾝ","cityKana":"ｿｳｼﾞｬｼ","streetKana":"ｳﾔﾏ","prefecture":"岡山県","city":"総社市","street":"宇山"},{"zipCode":"7191137","prefectureKana":"ｵｶﾔﾏｹﾝ","cityKana":"ｿｳｼﾞｬｼ","streetKana":"ｴｷﾅﾝ","prefecture":"岡山県","city":"総社市","street":"駅南"},{"zipCode":"7191136","prefectureKana":"ｵｶﾔﾏｹﾝ","cityKana":"ｿｳｼﾞｬｼ","streetKana":"ｴｷﾏｴ","prefecture":"岡山県","city":"総社市","street":"駅前"},{"zipCode":"7191162","prefectureKana":"ｵｶﾔﾏｹﾝ","cityKana":"ｿｳｼﾞｬｼ","streetKana":"ｵｶﾀﾞﾆ","prefecture":"岡山県","city":"総社市","street":"岡谷"},{"zipCode":"7191101","prefectureKana":"ｵｶﾔﾏｹﾝ","cityKana":"ｿｳｼﾞｬｼ","streetKana":"ｵｸｻｶ","prefecture":"岡山県","city":"総社市","street":"奥坂"},{"zipCode":"7191116","prefectureKana":"ｵｶﾔﾏｹﾝ","cityKana":"ｿｳｼﾞｬｼ","streetKana":"ｵｼｶﾍﾞ","prefecture":"岡山県","city":"総社市","street":"刑部"},{"zipCode":"7191322","prefectureKana":"ｵｶﾔﾏｹﾝ","cityKana":"ｿｳｼﾞｬｼ","streetKana":"ｶｹﾞ","prefecture":"岡山県","city":"総社市","street":"影"},{"zipCode":"7191114","prefectureKana":"ｵｶﾔﾏｹﾝ","cityKana":"ｿｳｼﾞｬｼ","streetKana":"ｶﾅｲﾄﾞ","prefecture":"岡山県","city":"総社市","street":"金井戸"},{"zipCode":"7191123","prefectureKana":"ｵｶﾔﾏｹﾝ","cityKana":"ｿｳｼﾞｬｼ","streetKana":"ｶﾝﾊﾞﾔｼ","prefecture":"岡山県","city":"総社市","street":"上林"},{"zipCode":"7191143","prefectureKana":"ｵｶﾔﾏｹﾝ","cityKana":"ｿｳｼﾞｬｼ","streetKana":"ｶﾝﾊﾞﾗ","prefecture":"岡山県","city":"総社市","street":"上原"},{"zipCode":"7191117","prefectureKana":"ｵｶﾔﾏｹﾝ","cityKana":"ｿｳｼﾞｬｼ","streetKana":"ｷﾀﾐｿﾞﾃ","prefecture":"岡山県","city":"総社市","street":"北溝手"},{"zipCode":"7191176","prefectureKana":"ｵｶﾔﾏｹﾝ","cityKana":"ｿｳｼﾞｬｼ","streetKana":"ｷﾖﾈｶｷﾉｷ","prefecture":"岡山県","city":"総社市","street":"清音柿木"},{"zipCode":"7191175","prefectureKana":"ｵｶﾔﾏｹﾝ","cityKana":"ｿｳｼﾞｬｼ","streetKana":"ｷﾖﾈｶﾐﾅｶｼﾏ","prefecture":"岡山県","city":"総社市","street":"清音上中島"},{"zipCode":"7191172","prefectureKana":"ｵｶﾔﾏｹﾝ","cityKana":"ｿｳｼﾞｬｼ","streetKana":"ｷﾖﾈｶﾙﾍﾞ","prefecture":"岡山県","city":"総社市","street":"清音軽部"},{"zipCode":"7191173","prefectureKana":"ｵｶﾔﾏｹﾝ","cityKana":"ｿｳｼﾞｬｼ","streetKana":"ｷﾖﾈｸﾛﾀ","prefecture":"岡山県","city":"総社市","street":"清音黒田"},{"zipCode":"7191174","prefectureKana":"ｵｶﾔﾏｹﾝ","cityKana":"ｿｳｼﾞｬｼ","streetKana":"ｷﾖﾈｺﾁ","prefecture":"岡山県","city":"総社市","street":"清音古地"},{"zipCode":"7191171","prefectureKana":"ｵｶﾔﾏｹﾝ","cityKana":"ｿｳｼﾞｬｼ","streetKana":"ｷﾖﾈﾐﾖﾘ","prefecture":"岡山県","city":"総社市","street":"清音三因"},{"zipCode":"7191112","prefectureKana":"ｵｶﾔﾏｹﾝ","cityKana":"ｿｳｼﾞｬｼ","streetKana":"ｸﾎﾞｷ","prefecture":"岡山県","city":"総社市","street":"窪木"},{"zipCode":"7191104","prefectureKana":"ｵｶﾔﾏｹﾝ","cityKana":"ｿｳｼﾞｬｼ","streetKana":"ｸﾒ","prefecture":"岡山県","city":"総社市","street":"久米"},{"zipCode":"7191105","prefectureKana":"ｵｶﾔﾏｹﾝ","cityKana":"ｿｳｼﾞｬｼ","streetKana":"ｸﾛｵ","prefecture":"岡山県","city":"総社市","street":"黒尾"},{"zipCode":"7191313","prefectureKana":"ｵｶﾔﾏｹﾝ","cityKana":"ｿｳｼﾞｬｼ","streetKana":"ｹﾔｷ","prefecture":"岡山県","city":"総社市","street":"槁"},{"zipCode":"7191155","prefectureKana":"ｵｶﾔﾏｹﾝ","cityKana":"ｿｳｼﾞｬｼ","streetKana":"ｺﾃﾞﾗ","prefecture":"岡山県","city":"総社市","street":"小寺"},{"zipCode":"7191153","prefectureKana":"ｵｶﾔﾏｹﾝ","cityKana":"ｿｳｼﾞｬｼ","streetKana":"ｼｻﾜ","prefecture":"岡山県","city":"総社市","street":"宍粟"},{"zipCode":"7191321","prefectureKana":"ｵｶﾔﾏｹﾝ","cityKana":"ｿｳｼﾞｬｼ","streetKana":"ｼﾀｸﾞﾗ","prefecture":"岡山県","city":"総社市","street":"下倉"},{"zipCode":"7191163","prefectureKana":"ｵｶﾔﾏｹﾝ","cityKana":"ｿｳｼﾞｬｼ","streetKana":"ｼﾞﾄｳｶﾀﾔﾏ","prefecture":"岡山県","city":"総社市","street":"地頭片山"},{"zipCode":"7191122","prefectureKana":"ｵｶﾔﾏｹﾝ","cityKana":"ｿｳｼﾞｬｼ","streetKana":"ｼﾓﾊﾞﾔｼ","prefecture":"岡山県","city":"総社市","street":"下林"},{"zipCode":"7191145","prefectureKana":"ｵｶﾔﾏｹﾝ","cityKana":"ｿｳｼﾞｬｼ","streetKana":"ｼﾓﾊﾞﾗ","prefecture":"岡山県","city":"総社市","street":"下原"},{"zipCode":"7191161","prefectureKana":"ｵｶﾔﾏｹﾝ","cityKana":"ｿｳｼﾞｬｼ","streetKana":"ｼｭｸ","prefecture":"岡山県","city":"総社市","street":"宿"},{"zipCode":"7191126","prefectureKana":"ｵｶﾔﾏｹﾝ","cityKana":"ｿｳｼﾞｬｼ","streetKana":"ｿｳｼﾞｬ","prefecture":"岡山県","city":"総社市","street":"総社"},{"zipCode":"7191312","prefectureKana":"ｵｶﾔﾏｹﾝ","cityKana":"ｿｳｼﾞｬｼ","streetKana":"ﾀﾈｲ","prefecture":"岡山県","city":"総社市","street":"種井"},{"zipCode":"7191131","prefectureKana":"ｵｶﾔﾏｹﾝ","cityKana":"ｿｳｼﾞｬｼ","streetKana":"ﾁｭｳｵｳ","prefecture":"岡山県","city":"総社市","street":"中央"},{"zipCode":"7191144","prefectureKana":"ｵｶﾔﾏｹﾝ","cityKana":"ｿｳｼﾞｬｼ","streetKana":"ﾄﾝﾊﾞﾗ","prefecture":"岡山県","city":"総社市","street":"富原"},{"zipCode":"7191323","prefectureKana":"ｵｶﾔﾏｹﾝ","cityKana":"ｿｳｼﾞｬｼ","streetKana":"ﾅｶｵ","prefecture":"岡山県","city":"総社市","street":"中尾"},{"zipCode":"7191133","prefectureKana":"ｵｶﾔﾏｹﾝ","cityKana":"ｿｳｼﾞｬｼ","streetKana":"ﾅｶﾊﾞﾗ","prefecture":"岡山県","city":"総社市","street":"中原"},{"zipCode":"7191111","prefectureKana":"ｵｶﾔﾏｹﾝ","cityKana":"ｿｳｼﾞｬｼ","streetKana":"ﾅｶﾞﾗ","prefecture":"岡山県","city":"総社市","street":"長良"},{"zipCode":"7191103","prefectureKana":"ｵｶﾔﾏｹﾝ","cityKana":"ｿｳｼﾞｬｼ","streetKana":"ﾆｼｱｿﾞ","prefecture":"岡山県","city":"総社市","street":"西阿曽"},{"zipCode":"7191164","prefectureKana":"ｵｶﾔﾏｹﾝ","cityKana":"ｿｳｼﾞｬｼ","streetKana":"ﾆｼｺﾞｵﾘ","prefecture":"岡山県","city":"総社市","street":"西郡"},{"zipCode":"7191165","prefectureKana":"ｵｶﾔﾏｹﾝ","cityKana":"ｿｳｼﾞｬｼ","streetKana":"ﾆｼｻｶﾀﾞｲ","prefecture":"岡山県","city":"総社市","street":"西坂台"},{"zipCode":"7191314","prefectureKana":"ｵｶﾔﾏｹﾝ","cityKana":"ｿｳｼﾞｬｼ","streetKana":"ﾉﾌﾞﾊﾗ","prefecture":"岡山県","city":"総社市","street":"延原"},{"zipCode":"7191142","prefectureKana":"ｵｶﾔﾏｹﾝ","cityKana":"ｿｳｼﾞｬｼ","streetKana":"ﾊﾀﾞ","prefecture":"岡山県","city":"総社市","street":"秦"},{"zipCode":"7191324","prefectureKana":"ｵｶﾔﾏｹﾝ","cityKana":"ｿｳｼﾞｬｼ","streetKana":"ﾊﾗ","prefecture":"岡山県","city":"総社市","street":"原"},{"zipCode":"7191102","prefectureKana":"ｵｶﾔﾏｹﾝ","cityKana":"ｿｳｼﾞｬｼ","streetKana":"ﾋｶﾞｼｱｿﾞ","prefecture":"岡山県","city":"総社市","street":"東阿曽"},{"zipCode":"7191316","prefectureKana":"ｵｶﾔﾏｹﾝ","cityKana":"ｿｳｼﾞｬｼ","streetKana":"ﾋﾜ","prefecture":"岡山県","city":"総社市","street":"日羽"},{"zipCode":"7191115","prefectureKana":"ｵｶﾔﾏｹﾝ","cityKana":"ｿｳｼﾞｬｼ","streetKana":"ﾌｸｲ","prefecture":"岡山県","city":"総社市","street":"福井"},{"zipCode":"7191141","prefectureKana":"ｵｶﾔﾏｹﾝ","cityKana":"ｿｳｼﾞｬｼ","streetKana":"ﾌｸﾀﾆ","prefecture":"岡山県","city":"総社市","street":"福谷"},{"zipCode":"7191134","prefectureKana":"ｵｶﾔﾏｹﾝ","cityKana":"ｿｳｼﾞｬｼ","streetKana":"ﾏｶﾍﾞ","prefecture":"岡山県","city":"総社市","street":"真壁"},{"zipCode":"7191151","prefectureKana":"ｵｶﾔﾏｹﾝ","cityKana":"ｿｳｼﾞｬｼ","streetKana":"ﾏｷﾀﾞﾆ","prefecture":"岡山県","city":"総社市","street":"槇谷"},{"zipCode":"7191124","prefectureKana":"ｵｶﾔﾏｹﾝ","cityKana":"ｿｳｼﾞｬｼ","streetKana":"ﾐｽ","prefecture":"岡山県","city":"総社市","street":"三須"},{"zipCode":"7191135","prefectureKana":"ｵｶﾔﾏｹﾝ","cityKana":"ｿｳｼﾞｬｼ","streetKana":"ﾐｿﾞｸﾁ","prefecture":"岡山県","city":"総社市","street":"溝口"},{"zipCode":"7191311","prefectureKana":"ｵｶﾔﾏｹﾝ","cityKana":"ｿｳｼﾞｬｼ","streetKana":"ﾐﾅｷﾞ","prefecture":"岡山県","city":"総社市","street":"美袋"},{"zipCode":"7191113","prefectureKana":"ｵｶﾔﾏｹﾝ","cityKana":"ｿｳｼﾞｬｼ","streetKana":"ﾐﾅﾐﾐｿﾞﾃ","prefecture":"岡山県","city":"総社市","street":"南溝手"},{"zipCode":"7191152","prefectureKana":"ｵｶﾔﾏｹﾝ","cityKana":"ｿｳｼﾞｬｼ","streetKana":"ﾐﾉﾍﾞ","prefecture":"岡山県","city":"総社市","street":"見延"},{"zipCode":"7191132","prefectureKana":"ｵｶﾔﾏｹﾝ","cityKana":"ｿｳｼﾞｬｼ","streetKana":"ﾐﾜ","prefecture":"岡山県","city":"総社市","street":"三輪"},{"zipCode":"7191156","prefectureKana":"ｵｶﾔﾏｹﾝ","cityKana":"ｿｳｼﾞｬｼ","streetKana":"ﾓﾝﾃﾞ","prefecture":"岡山県","city":"総社市","street":"門田"},{"zipCode":"7191146","prefectureKana":"ｵｶﾔﾏｹﾝ","cityKana":"ｿｳｼﾞｬｼ","streetKana":"ﾔｼﾛ","prefecture":"岡山県","city":"総社市","street":"八代"},{"zipCode":"7192233","prefectureKana":"ｵｶﾔﾏｹﾝ","cityKana":"ﾀｶﾊｼｼ","streetKana":"ｳｼﾞﾁｮｳｱﾅﾀﾞ","prefecture":"岡山県","city":"高梁市","street":"宇治町穴田"},{"zipCode":"7192232","prefectureKana":"ｵｶﾔﾏｹﾝ","cityKana":"ﾀｶﾊｼｼ","streetKana":"ｳｼﾞﾁｮｳｳｼﾞ","prefecture":"岡山県","city":"高梁市","street":"宇治町宇治"},{"zipCode":"7192231","prefectureKana":"ｵｶﾔﾏｹﾝ","cityKana":"ﾀｶﾊｼｼ","streetKana":"ｳｼﾞﾁｮｳﾄｵﾊﾞﾗ","prefecture":"岡山県","city":"高梁市","street":"宇治町遠原"},{"zipCode":"7192234","prefectureKana":"ｵｶﾔﾏｹﾝ","cityKana":"ﾀｶﾊｼｼ","streetKana":"ｳｼﾞﾁｮｳﾎﾝｺﾞｳ","prefecture":"岡山県","city":"高梁市","street":"宇治町本郷"},{"zipCode":"7192121","prefectureKana":"ｵｶﾔﾏｹﾝ","cityKana":"ﾀｶﾊｼｼ","streetKana":"ｶﾜﾓﾁｮｳ","prefecture":"岡山県","city":"高梁市","street":"川面町"},{"zipCode":"7192123","prefectureKana":"ｵｶﾔﾏｹﾝ","cityKana":"ﾀｶﾊｼｼ","streetKana":"ﾀｶｸﾗﾁｮｳｲｲﾍﾞ","prefecture":"岡山県","city":"高梁市","street":"高倉町飯部"},{"zipCode":"7192122","prefectureKana":"ｵｶﾔﾏｹﾝ","cityKana":"ﾀｶﾊｼｼ","streetKana":"ﾀｶｸﾗﾁｮｳﾀｲ","prefecture":"岡山県","city":"高梁市","street":"高倉町田井"},{"zipCode":"7192401","prefectureKana":"ｵｶﾔﾏｹﾝ","cityKana":"ﾀｶﾊｼｼ","streetKana":"ﾅｶｲﾁｮｳﾂﾂ","prefecture":"岡山県","city":"高梁市","street":"中井町津々"},{"zipCode":"7192402","prefectureKana":"ｵｶﾔﾏｹﾝ","cityKana":"ﾀｶﾊｼｼ","streetKana":"ﾅｶｲﾁｮｳﾆｼｶﾞﾀ","prefecture":"岡山県","city":"高梁市","street":"中井町西方"},{"zipCode":"7192343","prefectureKana":"ｵｶﾔﾏｹﾝ","cityKana":"ﾀｶﾊｼｼ","streetKana":"ﾅﾘﾜﾁｮｳｻｶﾓﾄ","prefecture":"岡山県","city":"高梁市","street":"成羽町坂本"},{"zipCode":"7192342","prefectureKana":"ｵｶﾔﾏｹﾝ","cityKana":"ﾀｶﾊｼｼ","streetKana":"ﾅﾘﾜﾁｮｳﾅｶﾉ","prefecture":"岡山県","city":"高梁市","street":"成羽町中野"},{"zipCode":"7192341","prefectureKana":"ｵｶﾔﾏｹﾝ","cityKana":"ﾀｶﾊｼｼ","streetKana":"ﾅﾘﾜﾁｮｳﾌｷﾔ","prefecture":"岡山県","city":"高梁市","street":"成羽町吹屋"},{"zipCode":"7192551","prefectureKana":"ｵｶﾔﾏｹﾝ","cityKana":"ﾆｲﾐｼ","streetKana":"ｲｸﾗ","prefecture":"岡山県","city":"新見市","street":"井倉"},{"zipCode":"7193501","prefectureKana":"ｵｶﾔﾏｹﾝ","cityKana":"ﾆｲﾐｼ","streetKana":"ｵｵｻｵｵｲﾉ","prefecture":"岡山県","city":"新見市","street":"大佐大井野"},{"zipCode":"7193503","prefectureKana":"ｵｶﾔﾏｹﾝ","cityKana":"ﾆｲﾐｼ","streetKana":"ｵｵｻｵｻｶﾍﾞ","prefecture":"岡山県","city":"新見市","street":"大佐小阪部"},{"zipCode":"7193502","prefectureKana":"ｵｶﾔﾏｹﾝ","cityKana":"ﾆｲﾐｼ","streetKana":"ｵｵｻｶﾐｵｻｶﾍﾞ","prefecture":"岡山県","city":"新見市","street":"大佐上刑部"},{"zipCode":"7193507","prefectureKana":"ｵｶﾔﾏｹﾝ","cityKana":"ﾆｲﾐｼ","streetKana":"ｵｵｻｺﾐﾅﾐ","prefecture":"岡山県","city":"新見市","street":"大佐小南"},{"zipCode":"7193506","prefectureKana":"ｵｶﾔﾏｹﾝ","cityKana":"ﾆｲﾐｼ","streetKana":"ｵｵｻﾀｼﾞﾍﾞ","prefecture":"岡山県","city":"新見市","street":"大佐田治部"},{"zipCode":"7193504","prefectureKana":"ｵｶﾔﾏｹﾝ","cityKana":"ﾆｲﾐｼ","streetKana":"ｵｵｻﾅｶﾞﾄﾞﾐ","prefecture":"岡山県","city":"新見市","street":"大佐永富"},{"zipCode":"7193505","prefectureKana":"ｵｶﾔﾏｹﾝ","cityKana":"ﾆｲﾐｼ","streetKana":"ｵｵｻﾌｾ","prefecture":"岡山県","city":"新見市","street":"大佐布瀬"},{"zipCode":"7192732","prefectureKana":"ｵｶﾔﾏｹﾝ","cityKana":"ﾆｲﾐｼ","streetKana":"ｸｻﾏ(ｼﾓﾕｶﾜ､ﾖｺﾊﾀ)","prefecture":"岡山県","city":"新見市","street":"草間（下湯川、横畑）"},{"zipCode":"7192641","prefectureKana":"ｵｶﾔﾏｹﾝ","cityKana":"ﾆｲﾐｼ","streetKana":"ｸｻﾏ(ｿﾉﾀ)","prefecture":"岡山県","city":"新見市","street":"草間（その他）"},{"zipCode":"7192801","prefectureKana":"ｵｶﾔﾏｹﾝ","cityKana":"ﾆｲﾐｼ","streetKana":"ｼﾝｺﾞｳｶﾏﾑﾗ","prefecture":"岡山県","city":"新見市","street":"神郷釜村"},{"zipCode":"7193611","prefectureKana":"ｵｶﾔﾏｹﾝ","cityKana":"ﾆｲﾐｼ","streetKana":"ｼﾝｺﾞｳｼﾓｺｳｼﾞﾛ","prefecture":"岡山県","city":"新見市","street":"神郷下神代"},{"zipCode":"7192802","prefectureKana":"ｵｶﾔﾏｹﾝ","cityKana":"ﾆｲﾐｼ","streetKana":"ｼﾝｺﾞｳﾀｶｾ","prefecture":"岡山県","city":"新見市","street":"神郷高瀬"},{"zipCode":"7193612","prefectureKana":"ｵｶﾔﾏｹﾝ","cityKana":"ﾆｲﾐｼ","streetKana":"ｼﾝｺﾞｳﾕﾉ","prefecture":"岡山県","city":"新見市","street":"神郷油野"},{"zipCode":"7192642","prefectureKana":"ｵｶﾔﾏｹﾝ","cityKana":"ﾆｲﾐｼ","streetKana":"ﾀﾙﾐ","prefecture":"岡山県","city":"新見市","street":"足見"},{"zipCode":"7192731","prefectureKana":"ｵｶﾔﾏｹﾝ","cityKana":"ﾆｲﾐｼ","streetKana":"ﾂﾁﾊｼ(ｵﾁｶﾀ､ﾃﾗｳﾁ)","prefecture":"岡山県","city":"新見市","street":"土橋（落方、寺内）"},{"zipCode":"7192643","prefectureKana":"ｵｶﾔﾏｹﾝ","cityKana":"ﾆｲﾐｼ","streetKana":"ﾂﾁﾊｼ(ｿﾉﾀ)","prefecture":"岡山県","city":"新見市","street":"土橋（その他）"},{"zipCode":"7193811","prefectureKana":"ｵｶﾔﾏｹﾝ","cityKana":"ﾆｲﾐｼ","streetKana":"ﾃｯｾｲﾁｮｳｵｵﾀｹ","prefecture":"岡山県","city":"新見市","street":"哲西町大竹"},{"zipCode":"7193814","prefectureKana":"ｵｶﾔﾏｹﾝ","cityKana":"ﾆｲﾐｼ","streetKana":"ﾃｯｾｲﾁｮｳｵｵﾉﾍﾞ","prefecture":"岡山県","city":"新見市","street":"哲西町大野部"},{"zipCode":"7193702","prefectureKana":"ｵｶﾔﾏｹﾝ","cityKana":"ﾆｲﾐｼ","streetKana":"ﾃｯｾｲﾁｮｳｶﾐｺｳｼﾞﾛ","prefecture":"岡山県","city":"新見市","street":"哲西町上神代"},{"zipCode":"7193812","prefectureKana":"ｵｶﾔﾏｹﾝ","cityKana":"ﾆｲﾐｼ","streetKana":"ﾃｯｾｲﾁｮｳﾊﾀｷ","prefecture":"岡山県","city":"新見市","street":"哲西町畑木"},{"zipCode":"7193813","prefectureKana":"ｵｶﾔﾏｹﾝ","cityKana":"ﾆｲﾐｼ","streetKana":"ﾃｯｾｲﾁｮｳﾊｯﾄﾘ","prefecture":"岡山県","city":"新見市","street":"哲西町八鳥"},{"zipCode":"7193701","prefectureKana":"ｵｶﾔﾏｹﾝ","cityKana":"ﾆｲﾐｼ","streetKana":"ﾃｯｾｲﾁｮｳﾔﾀﾞ","prefecture":"岡山県","city":"新見市","street":"哲西町矢田"},{"zipCode":"7192721","prefectureKana":"ｵｶﾔﾏｹﾝ","cityKana":"ﾆｲﾐｼ","streetKana":"ﾄﾖﾅｶﾞｱｺｳﾏ","prefecture":"岡山県","city":"新見市","street":"豊永赤馬"},{"zipCode":"7192723","prefectureKana":"ｵｶﾔﾏｹﾝ","cityKana":"ﾆｲﾐｼ","streetKana":"ﾄﾖﾅｶﾞｳﾔﾏ","prefecture":"岡山県","city":"新見市","street":"豊永宇山"},{"zipCode":"7192722","prefectureKana":"ｵｶﾔﾏｹﾝ","cityKana":"ﾆｲﾐｼ","streetKana":"ﾄﾖﾅｶﾞｻﾌﾞｼ","prefecture":"岡山県","city":"新見市","street":"豊永佐伏"},{"zipCode":"7192552","prefectureKana":"ｵｶﾔﾏｹﾝ","cityKana":"ﾆｲﾐｼ","streetKana":"ﾎｳｿ","prefecture":"岡山県","city":"新見市","street":"法曽"},{"zipCode":"7193100","prefectureKana":"ｵｶﾔﾏｹﾝ","cityKana":"ﾏﾆﾜｼ","streetKana":"ｲｶﾆｹｲｻｲｶﾞﾅｲﾊﾞｱｲ","prefecture":"岡山県","city":"真庭市","street":"以下に掲載がない場合"},{"zipCode":"7193101","prefectureKana":"ｵｶﾔﾏｹﾝ","cityKana":"ﾏﾆﾜｼ","streetKana":"ｱｶﾉ","prefecture":"岡山県","city":"真庭市","street":"赤野"},{"zipCode":"7193151","prefectureKana":"ｵｶﾔﾏｹﾝ","cityKana":"ﾏﾆﾜｼ","streetKana":"ｲｼｷ","prefecture":"岡山県","city":"真庭市","street":"一色"},{"zipCode":"7193131","prefectureKana":"ｵｶﾔﾏｹﾝ","cityKana":"ﾏﾆﾜｼ","streetKana":"ｳｴﾔﾏ","prefecture":"岡山県","city":"真庭市","street":"上山"},{"zipCode":"7193102","prefectureKana":"ｵｶﾔﾏｹﾝ","cityKana":"ﾏﾆﾜｼ","streetKana":"ｵｵﾊﾞ","prefecture":"岡山県","city":"真庭市","street":"大庭"},{"zipCode":"7193144","prefectureKana":"ｵｶﾔﾏｹﾝ","cityKana":"ﾏﾆﾜｼ","streetKana":"ｵﾁｱｲﾀﾙﾐ","prefecture":"岡山県","city":"真庭市","street":"落合垂水"},{"zipCode":"7193111","prefectureKana":"ｵｶﾔﾏｹﾝ","cityKana":"ﾏﾆﾜｼ","streetKana":"ｶｲﾃﾞ","prefecture":"岡山県","city":"真庭市","street":"開田"},{"zipCode":"7193112","prefectureKana":"ｵｶﾔﾏｹﾝ","cityKana":"ﾏﾆﾜｼ","streetKana":"ｶｹﾞ","prefecture":"岡山県","city":"真庭市","street":"影"},{"zipCode":"7193211","prefectureKana":"ｵｶﾔﾏｹﾝ","cityKana":"ﾏﾆﾜｼ","streetKana":"ｶｼﾆｼ","prefecture":"岡山県","city":"真庭市","street":"樫西"},{"zipCode":"7193223","prefectureKana":"ｵｶﾔﾏｹﾝ","cityKana":"ﾏﾆﾜｼ","streetKana":"ｶｼﾋｶﾞｼ","prefecture":"岡山県","city":"真庭市","street":"樫東"},{"zipCode":"7193152","prefectureKana":"ｵｶﾔﾏｹﾝ","cityKana":"ﾏﾆﾜｼ","streetKana":"ｶﾂﾀ","prefecture":"岡山県","city":"真庭市","street":"鹿田"},{"zipCode":"7193141","prefectureKana":"ｵｶﾔﾏｹﾝ","cityKana":"ﾏﾆﾜｼ","streetKana":"ｶﾐｲﾁｾﾞ","prefecture":"岡山県","city":"真庭市","street":"上市瀬"},{"zipCode":"7193121","prefectureKana":"ｵｶﾔﾏｹﾝ","cityKana":"ﾏﾆﾜｼ","streetKana":"ｶﾐｺﾞｳﾁ","prefecture":"岡山県","city":"真庭市","street":"上河内"},{"zipCode":"7193142","prefectureKana":"ｵｶﾔﾏｹﾝ","cityKana":"ﾏﾆﾜｼ","streetKana":"ｷﾔﾏ","prefecture":"岡山県","city":"真庭市","street":"木山"},{"zipCode":"7193205","prefectureKana":"ｵｶﾔﾏｹﾝ","cityKana":"ﾏﾆﾜｼ","streetKana":"ｸｻｶﾍﾞ","prefecture":"岡山県","city":"真庭市","street":"草加部"},{"zipCode":"7193201","prefectureKana":"ｵｶﾔﾏｹﾝ","cityKana":"ﾏﾆﾜｼ","streetKana":"ｸｾ","prefecture":"岡山県","city":"真庭市","street":"久世"},{"zipCode":"7193153","prefectureKana":"ｵｶﾔﾏｹﾝ","cityKana":"ﾏﾆﾜｼ","streetKana":"ｸﾘﾊﾗ","prefecture":"岡山県","city":"真庭市","street":"栗原"},{"zipCode":"7193206","prefectureKana":"ｵｶﾔﾏｹﾝ","cityKana":"ﾏﾆﾜｼ","streetKana":"ｺｳ","prefecture":"岡山県","city":"真庭市","street":"神"},{"zipCode":"7193228","prefectureKana":"ｵｶﾔﾏｹﾝ","cityKana":"ﾏﾆﾜｼ","streetKana":"ｺﾞﾀﾝ","prefecture":"岡山県","city":"真庭市","street":"五反"},{"zipCode":"7193103","prefectureKana":"ｵｶﾔﾏｹﾝ","cityKana":"ﾏﾆﾜｼ","streetKana":"ｺﾐ","prefecture":"岡山県","city":"真庭市","street":"古見"},{"zipCode":"7193154","prefectureKana":"ｵｶﾔﾏｹﾝ","cityKana":"ﾏﾆﾜｼ","streetKana":"ｻﾋﾞｷ","prefecture":"岡山県","city":"真庭市","street":"佐引"},{"zipCode":"7193143","prefectureKana":"ｵｶﾔﾏｹﾝ","cityKana":"ﾏﾆﾜｼ","streetKana":"ｼﾓｲﾁｾﾞ","prefecture":"岡山県","city":"真庭市","street":"下市瀬"},{"zipCode":"7193155","prefectureKana":"ｵｶﾔﾏｹﾝ","cityKana":"ﾏﾆﾜｼ","streetKana":"ｼﾓｶﾞﾀ","prefecture":"岡山県","city":"真庭市","street":"下方"},{"zipCode":"7193122","prefectureKana":"ｵｶﾔﾏｹﾝ","cityKana":"ﾏﾆﾜｼ","streetKana":"ｼﾓｺﾞｳﾁ","prefecture":"岡山県","city":"真庭市","street":"下河内"},{"zipCode":"7193123","prefectureKana":"ｵｶﾔﾏｹﾝ","cityKana":"ﾏﾆﾜｼ","streetKana":"ｼﾓﾐ","prefecture":"岡山県","city":"真庭市","street":"下見"},{"zipCode":"7193113","prefectureKana":"ｵｶﾔﾏｹﾝ","cityKana":"ﾏﾆﾜｼ","streetKana":"ｽｷﾞﾔﾏ","prefecture":"岡山県","city":"真庭市","street":"杉山"},{"zipCode":"7193156","prefectureKana":"ｵｶﾔﾏｹﾝ","cityKana":"ﾏﾆﾜｼ","streetKana":"ｾｷ","prefecture":"岡山県","city":"真庭市","street":"関"},{"zipCode":"7193204","prefectureKana":"ｵｶﾔﾏｹﾝ","cityKana":"ﾏﾆﾜｼ","streetKana":"ｿｳ","prefecture":"岡山県","city":"真庭市","street":"惣"},{"zipCode":"7193227","prefectureKana":"ｵｶﾔﾏｹﾝ","cityKana":"ﾏﾆﾜｼ","streetKana":"ﾀﾞｲｶﾅﾔ","prefecture":"岡山県","city":"真庭市","street":"台金屋"},{"zipCode":"7193114","prefectureKana":"ｵｶﾔﾏｹﾝ","cityKana":"ﾏﾆﾜｼ","streetKana":"ﾀｶﾔ","prefecture":"岡山県","city":"真庭市","street":"高屋"},{"zipCode":"7193213","prefectureKana":"ｵｶﾔﾏｹﾝ","cityKana":"ﾏﾆﾜｼ","streetKana":"ﾀﾀﾞ","prefecture":"岡山県","city":"真庭市","street":"多田"},{"zipCode":"7193104","prefectureKana":"ｵｶﾔﾏｹﾝ","cityKana":"ﾏﾆﾜｼ","streetKana":"ﾀﾊﾗ","prefecture":"岡山県","city":"真庭市","street":"田原"},{"zipCode":"7193132","prefectureKana":"ｵｶﾔﾏｹﾝ","cityKana":"ﾏﾆﾜｼ","streetKana":"ﾀﾊﾗｻﾝｼﾞｮｳ","prefecture":"岡山県","city":"真庭市","street":"田原山上"},{"zipCode":"7193133","prefectureKana":"ｵｶﾔﾏｹﾝ","cityKana":"ﾏﾆﾜｼ","streetKana":"ﾀﾞﾝﾄﾞ","prefecture":"岡山県","city":"真庭市","street":"旦土"},{"zipCode":"7193203","prefectureKana":"ｵｶﾔﾏｹﾝ","cityKana":"ﾏﾆﾜｼ","streetKana":"ﾄﾐﾉｵ","prefecture":"岡山県","city":"真庭市","street":"富尾"},{"zipCode":"7193115","prefectureKana":"ｵｶﾔﾏｹﾝ","cityKana":"ﾏﾆﾜｼ","streetKana":"ﾅｶ","prefecture":"岡山県","city":"真庭市","street":"中"},{"zipCode":"7193124","prefectureKana":"ｵｶﾔﾏｹﾝ","cityKana":"ﾏﾆﾜｼ","streetKana":"ﾅｶｺﾞｳﾁ","prefecture":"岡山県","city":"真庭市","street":"中河内"},{"zipCode":"7193202","prefectureKana":"ｵｶﾔﾏｹﾝ","cityKana":"ﾏﾆﾜｼ","streetKana":"ﾅｶｼﾏ","prefecture":"岡山県","city":"真庭市","street":"中島"},{"zipCode":"7193225","prefectureKana":"ｵｶﾔﾏｹﾝ","cityKana":"ﾏﾆﾜｼ","streetKana":"ﾅｶﾊﾞﾗ","prefecture":"岡山県","city":"真庭市","street":"中原"},{"zipCode":"7193214","prefectureKana":"ｵｶﾔﾏｹﾝ","cityKana":"ﾏﾆﾜｼ","streetKana":"ﾅﾍﾞﾔ","prefecture":"岡山県","city":"真庭市","street":"鍋屋"},{"zipCode":"7193145","prefectureKana":"ｵｶﾔﾏｹﾝ","cityKana":"ﾏﾆﾜｼ","streetKana":"ﾆｼｺﾞｳﾁ","prefecture":"岡山県","city":"真庭市","street":"西河内"},{"zipCode":"7193105","prefectureKana":"ｵｶﾔﾏｹﾝ","cityKana":"ﾏﾆﾜｼ","streetKana":"ﾆｼﾊﾞﾗ","prefecture":"岡山県","city":"真庭市","street":"西原"},{"zipCode":"7193106","prefectureKana":"ｵｶﾔﾏｹﾝ","cityKana":"ﾏﾆﾜｼ","streetKana":"ﾉｶﾞﾜ","prefecture":"岡山県","city":"真庭市","street":"野川"},{"zipCode":"7193134","prefectureKana":"ｵｶﾔﾏｹﾝ","cityKana":"ﾏﾆﾜｼ","streetKana":"ﾉﾊﾗ","prefecture":"岡山県","city":"真庭市","street":"野原"},{"zipCode":"7193116","prefectureKana":"ｵｶﾔﾏｹﾝ","cityKana":"ﾏﾆﾜｼ","streetKana":"ﾋﾅ","prefecture":"岡山県","city":"真庭市","street":"日名"},{"zipCode":"7193146","prefectureKana":"ｵｶﾔﾏｹﾝ","cityKana":"ﾏﾆﾜｼ","streetKana":"ﾋﾉｳｴ","prefecture":"岡山県","city":"真庭市","street":"日野上"},{"zipCode":"7193107","prefectureKana":"ｵｶﾔﾏｹﾝ","cityKana":"ﾏﾆﾜｼ","streetKana":"ﾋﾗﾏﾂ","prefecture":"岡山県","city":"真庭市","street":"平松"},{"zipCode":"7193117","prefectureKana":"ｵｶﾔﾏｹﾝ","cityKana":"ﾏﾆﾜｼ","streetKana":"ﾌｸﾀﾞ","prefecture":"岡山県","city":"真庭市","street":"福田"},{"zipCode":"7193157","prefectureKana":"ｵｶﾔﾏｹﾝ","cityKana":"ﾏﾆﾜｼ","streetKana":"ﾍﾞｯｼﾖ","prefecture":"岡山県","city":"真庭市","street":"別所"},{"zipCode":"7193125","prefectureKana":"ｵｶﾔﾏｹﾝ","cityKana":"ﾏﾆﾜｼ","streetKana":"ﾎｳｶｲｼﾞ","prefecture":"岡山県","city":"真庭市","street":"法界寺"},{"zipCode":"7193135","prefectureKana":"ｵｶﾔﾏｹﾝ","cityKana":"ﾏﾆﾜｼ","streetKana":"ﾏｲﾀｶ","prefecture":"岡山県","city":"真庭市","street":"舞高"},{"zipCode":"7193212","prefectureKana":"ｵｶﾔﾏｹﾝ","cityKana":"ﾏﾆﾜｼ","streetKana":"ﾐｻｶ","prefecture":"岡山県","city":"真庭市","street":"三阪"},{"zipCode":"7193226","prefectureKana":"ｵｶﾔﾏｹﾝ","cityKana":"ﾏﾆﾜｼ","streetKana":"ﾐｻｷ","prefecture":"岡山県","city":"真庭市","street":"三崎"},{"zipCode":"7193126","prefectureKana":"ｵｶﾔﾏｹﾝ","cityKana":"ﾏﾆﾜｼ","streetKana":"ﾑｶﾂﾔ","prefecture":"岡山県","city":"真庭市","street":"向津矢"},{"zipCode":"7193224","prefectureKana":"ｵｶﾔﾏｹﾝ","cityKana":"ﾏﾆﾜｼ","streetKana":"ﾒｷ","prefecture":"岡山県","city":"真庭市","street":"目木"},{"zipCode":"7193136","prefectureKana":"ｵｶﾔﾏｹﾝ","cityKana":"ﾏﾆﾜｼ","streetKana":"ﾖｼ","prefecture":"岡山県","city":"真庭市","street":"吉"},{"zipCode":"7193221","prefectureKana":"ｵｶﾔﾏｹﾝ","cityKana":"ﾏﾆﾜｼ","streetKana":"ﾖﾉｶﾐ","prefecture":"岡山県","city":"真庭市","street":"余野上"},{"zipCode":"7193222","prefectureKana":"ｵｶﾔﾏｹﾝ","cityKana":"ﾏﾆﾜｼ","streetKana":"ﾖﾉｼﾓ","prefecture":"岡山県","city":"真庭市","street":"余野下"},{"zipCode":"7190200","prefectureKana":"ｵｶﾔﾏｹﾝ","cityKana":"ｱｻｸﾁｼ","streetKana":"ｲｶﾆｹｲｻｲｶﾞﾅｲﾊﾞｱｲ","prefecture":"岡山県","city":"浅口市","street":"以下に掲載がない場合"},{"zipCode":"7190243","prefectureKana":"ｵｶﾔﾏｹﾝ","cityKana":"ｱｻｸﾁｼ","streetKana":"ｶﾓｶﾞﾀﾁｮｳｶﾓｶﾞﾀ","prefecture":"岡山県","city":"浅口市","street":"鴨方町鴨方"},{"zipCode":"7190231","prefectureKana":"ｵｶﾔﾏｹﾝ","cityKana":"ｱｻｸﾁｼ","streetKana":"ｶﾓｶﾞﾀﾁｮｳｺｻｶﾆｼ","prefecture":"岡山県","city":"浅口市","street":"鴨方町小坂西"},{"zipCode":"7190241","prefectureKana":"ｵｶﾔﾏｹﾝ","cityKana":"ｱｻｸﾁｼ","streetKana":"ｶﾓｶﾞﾀﾁｮｳｺｻｶﾋｶﾞｼ","prefecture":"岡山県","city":"浅口市","street":"鴨方町小坂東"},{"zipCode":"7190233","prefectureKana":"ｵｶﾔﾏｹﾝ","cityKana":"ｱｻｸﾁｼ","streetKana":"ｶﾓｶﾞﾀﾁｮｳﾁﾞﾄｳｶﾐ","prefecture":"岡山県","city":"浅口市","street":"鴨方町地頭上"},{"zipCode":"7190253","prefectureKana":"ｵｶﾔﾏｹﾝ","cityKana":"ｱｻｸﾁｼ","streetKana":"ｶﾓｶﾞﾀﾁｮｳﾊﾄｶﾞｵｶ","prefecture":"岡山県","city":"浅口市","street":"鴨方町鳩ケ丘"},{"zipCode":"7190244","prefectureKana":"ｵｶﾔﾏｹﾝ","cityKana":"ｱｻｸﾁｼ","streetKana":"ｶﾓｶﾞﾀﾁｮｳﾌｶﾀﾞ","prefecture":"岡山県","city":"浅口市","street":"鴨方町深田"},{"zipCode":"7190232","prefectureKana":"ｵｶﾔﾏｹﾝ","cityKana":"ｱｻｸﾁｼ","streetKana":"ｶﾓｶﾞﾀﾁｮｳﾎﾝｼﾞｮ","prefecture":"岡山県","city":"浅口市","street":"鴨方町本庄"},{"zipCode":"7190234","prefectureKana":"ｵｶﾔﾏｹﾝ","cityKana":"ｱｻｸﾁｼ","streetKana":"ｶﾓｶﾞﾀﾁｮｳﾏｽｻｶ","prefecture":"岡山県","city":"浅口市","street":"鴨方町益坂"},{"zipCode":"7190242","prefectureKana":"ｵｶﾔﾏｹﾝ","cityKana":"ｱｻｸﾁｼ","streetKana":"ｶﾓｶﾞﾀﾁｮｳﾐﾄﾞﾘｶﾞｵｶ","prefecture":"岡山県","city":"浅口市","street":"鴨方町みどりケ丘"},{"zipCode":"7190252","prefectureKana":"ｵｶﾔﾏｹﾝ","cityKana":"ｱｻｸﾁｼ","streetKana":"ｶﾓｶﾞﾀﾁｮｳﾛｸｼﾞｮｳｲﾝﾅｶ","prefecture":"岡山県","city":"浅口市","street":"鴨方町六条院中"},{"zipCode":"7190251","prefectureKana":"ｵｶﾔﾏｹﾝ","cityKana":"ｱｻｸﾁｼ","streetKana":"ｶﾓｶﾞﾀﾁｮｳﾛｸｼﾞｮｳｲﾝﾆｼ","prefecture":"岡山県","city":"浅口市","street":"鴨方町六条院西"},{"zipCode":"7190254","prefectureKana":"ｵｶﾔﾏｹﾝ","cityKana":"ｱｻｸﾁｼ","streetKana":"ｶﾓｶﾞﾀﾁｮｳﾛｸｼﾞｮｳｲﾝﾋｶﾞｼ","prefecture":"岡山県","city":"浅口市","street":"鴨方町六条院東"},{"zipCode":"7190105","prefectureKana":"ｵｶﾔﾏｹﾝ","cityKana":"ｱｻｸﾁｼ","streetKana":"ｺﾝｺｳﾁｮｳｳﾗﾐ","prefecture":"岡山県","city":"浅口市","street":"金光町占見"},{"zipCode":"7190104","prefectureKana":"ｵｶﾔﾏｹﾝ","cityKana":"ｱｻｸﾁｼ","streetKana":"ｺﾝｺｳﾁｮｳｳﾗﾐｼﾝﾃﾞﾝ","prefecture":"岡山県","city":"浅口市","street":"金光町占見新田"},{"zipCode":"7190111","prefectureKana":"ｵｶﾔﾏｹﾝ","cityKana":"ｱｻｸﾁｼ","streetKana":"ｺﾝｺｳﾁｮｳｵｵﾀﾆ","prefecture":"岡山県","city":"浅口市","street":"金光町大谷"},{"zipCode":"7190221","prefectureKana":"ｵｶﾔﾏｹﾝ","cityKana":"ｱｻｸﾁｼ","streetKana":"ｺﾝｺｳﾁｮｳｶﾐﾀﾞｹ(ﾖｳｼｮｳｻﾞﾝ)","prefecture":"岡山県","city":"浅口市","street":"金光町上竹（遙照山）"},{"zipCode":"7190101","prefectureKana":"ｵｶﾔﾏｹﾝ","cityKana":"ｱｻｸﾁｼ","streetKana":"ｺﾝｺｳﾁｮｳｶﾐﾀﾞｹ(ｿﾉﾀ)","prefecture":"岡山県","city":"浅口市","street":"金光町上竹（その他）"},{"zipCode":"7190113","prefectureKana":"ｵｶﾔﾏｹﾝ","cityKana":"ｱｻｸﾁｼ","streetKana":"ｺﾝｺｳﾁｮｳｻｶﾞﾀ","prefecture":"岡山県","city":"浅口市","street":"金光町佐方"},{"zipCode":"7190106","prefectureKana":"ｵｶﾔﾏｹﾝ","cityKana":"ｱｻｸﾁｼ","streetKana":"ｺﾝｺｳﾁｮｳｼﾞﾄｳｼﾓ","prefecture":"岡山県","city":"浅口市","street":"金光町地頭下"},{"zipCode":"7190102","prefectureKana":"ｵｶﾔﾏｹﾝ","cityKana":"ｱｻｸﾁｼ","streetKana":"ｺﾝｺｳﾁｮｳｼﾓﾀﾞｹ","prefecture":"岡山県","city":"浅口市","street":"金光町下竹"},{"zipCode":"7190112","prefectureKana":"ｵｶﾔﾏｹﾝ","cityKana":"ｱｻｸﾁｼ","streetKana":"ｺﾝｺｳﾁｮｳｽｴ","prefecture":"岡山県","city":"浅口市","street":"金光町須恵"},{"zipCode":"7190103","prefectureKana":"ｵｶﾔﾏｹﾝ","cityKana":"ｱｻｸﾁｼ","streetKana":"ｺﾝｺｳﾁｮｳﾔｴ","prefecture":"岡山県","city":"浅口市","street":"金光町八重"},{"zipCode":"7190300","prefectureKana":"ｵｶﾔﾏｹﾝ","cityKana":"ｱｻｸﾁｸﾞﾝｻﾄｼｮｳﾁｮｳ","streetKana":"ｲｶﾆｹｲｻｲｶﾞﾅｲﾊﾞｱｲ","prefecture":"岡山県","city":"浅口郡里庄町","street":"以下に掲載がない場合"},{"zipCode":"7190301","prefectureKana":"ｵｶﾔﾏｹﾝ","cityKana":"ｱｻｸﾁｸﾞﾝｻﾄｼｮｳﾁｮｳ","streetKana":"ｻﾄﾐ","prefecture":"岡山県","city":"浅口郡里庄町","street":"里見"},{"zipCode":"7190302","prefectureKana":"ｵｶﾔﾏｹﾝ","cityKana":"ｱｻｸﾁｸﾞﾝｻﾄｼｮｳﾁｮｳ","streetKana":"ｼﾝｼﾞｮｳ","prefecture":"岡山県","city":"浅口郡里庄町","street":"新庄"},{"zipCode":"7190304","prefectureKana":"ｵｶﾔﾏｹﾝ","cityKana":"ｱｻｸﾁｸﾞﾝｻﾄｼｮｳﾁｮｳ","streetKana":"ｼﾝｼﾞｮｳｸﾞﾘｰﾝｸﾚｽﾄ","prefecture":"岡山県","city":"浅口郡里庄町","street":"新庄グリーンクレスト"},{"zipCode":"7190303","prefectureKana":"ｵｶﾔﾏｹﾝ","cityKana":"ｱｻｸﾁｸﾞﾝｻﾄｼｮｳﾁｮｳ","streetKana":"ﾊﾏﾅｶ","prefecture":"岡山県","city":"浅口郡里庄町","street":"浜中"}]