[{"zipCode":"7200551","prefectureKana":"ﾋﾛｼﾏｹﾝ","cityKana":"ｵﾉﾐﾁｼ","streetKana":"ｳﾗｻｷﾁｮｳ","prefecture":"広島県","city":"尾道市","street":"浦崎町"},{"zipCode":"7200843","prefectureKana":"ﾋﾛｼﾏｹﾝ","cityKana":"ﾌｸﾔﾏｼ","streetKana":"ｱｶｻｶﾁｮｳｱｶｻｶ","prefecture":"広島県","city":"福山市","street":"赤坂町赤坂"},{"zipCode":"7200844","prefectureKana":"ﾋﾛｼﾏｹﾝ","cityKana":"ﾌｸﾔﾏｼ","streetKana":"ｱｶｻｶﾁｮｳﾊﾔﾄ","prefecture":"広島県","city":"福山市","street":"赤坂町早戸"},{"zipCode":"7200033","prefectureKana":"ﾋﾛｼﾏｹﾝ","cityKana":"ﾌｸﾔﾏｼ","streetKana":"ｱｻﾋﾏﾁ","prefecture":"広島県","city":"福山市","street":"旭町"},{"zipCode":"7201261","prefectureKana":"ﾋﾛｼﾏｹﾝ","cityKana":"ﾌｸﾔﾏｼ","streetKana":"ｱｼﾀﾞﾁｮｳｶﾐｱﾙｼﾞ","prefecture":"広島県","city":"福山市","street":"芦田町上有地"},{"zipCode":"7201262","prefectureKana":"ﾋﾛｼﾏｹﾝ","cityKana":"ﾌｸﾔﾏｼ","streetKana":"ｱｼﾀﾞﾁｮｳｼﾓｱﾙｼﾞ","prefecture":"広島県","city":"福山市","street":"芦田町下有地"},{"zipCode":"7201263","prefectureKana":"ﾋﾛｼﾏｹﾝ","cityKana":"ﾌｸﾔﾏｼ","streetKana":"ｱｼﾀﾞﾁｮｳﾀﾙﾏ","prefecture":"広島県","city":"福山市","street":"芦田町柞磨"},{"zipCode":"7201265","prefectureKana":"ﾋﾛｼﾏｹﾝ","cityKana":"ﾌｸﾔﾏｼ","streetKana":"ｱｼﾀﾞﾁｮｳｺｳﾖｳﾀﾞｲ","prefecture":"広島県","city":"福山市","street":"芦田町向陽台"},{"zipCode":"7200845","prefectureKana":"ﾋﾛｼﾏｹﾝ","cityKana":"ﾌｸﾔﾏｼ","streetKana":"ｱｼﾀﾞﾁｮｳﾌｸﾀﾞ(376-10<ｾｲﾎｳｼﾞ>)","prefecture":"広島県","city":"福山市","street":"芦田町福田（３７６－１０「聖宝寺」）"},{"zipCode":"7201264","prefectureKana":"ﾋﾛｼﾏｹﾝ","cityKana":"ﾌｸﾔﾏｼ","streetKana":"ｱｼﾀﾞﾁｮｳﾌｸﾀﾞ(376-10ｦﾉｿﾞｸ)","prefecture":"広島県","city":"福山市","street":"芦田町福田（３７６－１０を除く）"},{"zipCode":"7200046","prefectureKana":"ﾋﾛｼﾏｹﾝ","cityKana":"ﾌｸﾔﾏｼ","streetKana":"ｲﾏﾏﾁ","prefecture":"広島県","city":"福山市","street":"今町"},{"zipCode":"7200801","prefectureKana":"ﾋﾛｼﾏｹﾝ","cityKana":"ﾌｸﾔﾏｼ","streetKana":"ｲﾘﾌﾈﾁｮｳ","prefecture":"広島県","city":"福山市","street":"入船町"},{"zipCode":"7202525","prefectureKana":"ﾋﾛｼﾏｹﾝ","cityKana":"ﾌｸﾔﾏｼ","streetKana":"ｴｷﾔﾁｮｳｱﾒｷﾞ","prefecture":"広島県","city":"福山市","street":"駅家町雨木"},{"zipCode":"7201145","prefectureKana":"ﾋﾛｼﾏｹﾝ","cityKana":"ﾌｸﾔﾏｼ","streetKana":"ｴｷﾔﾁｮｳｲﾏｵｶ","prefecture":"広島県","city":"福山市","street":"駅家町今岡"},{"zipCode":"7201141","prefectureKana":"ﾋﾛｼﾏｹﾝ","cityKana":"ﾌｸﾔﾏｼ","streetKana":"ｴｷﾔﾁｮｳｴﾗ","prefecture":"広島県","city":"福山市","street":"駅家町江良"},{"zipCode":"7201146","prefectureKana":"ﾋﾛｼﾏｹﾝ","cityKana":"ﾌｸﾔﾏｼ","streetKana":"ｴｷﾔﾁｮｳｵｵﾊｼ","prefecture":"広島県","city":"福山市","street":"駅家町大橋"},{"zipCode":"7201142","prefectureKana":"ﾋﾛｼﾏｹﾝ","cityKana":"ﾌｸﾔﾏｼ","streetKana":"ｴｷﾔﾁｮｳｶﾐﾔﾏﾓﾘ","prefecture":"広島県","city":"福山市","street":"駅家町上山守"},{"zipCode":"7201143","prefectureKana":"ﾋﾛｼﾏｹﾝ","cityKana":"ﾌｸﾔﾏｼ","streetKana":"ｴｷﾔﾁｮｳｼﾓﾔﾏﾓﾘ","prefecture":"広島県","city":"福山市","street":"駅家町下山守"},{"zipCode":"7201132","prefectureKana":"ﾋﾛｼﾏｹﾝ","cityKana":"ﾌｸﾔﾏｼ","streetKana":"ｴｷﾔﾁｮｳｸﾗﾐﾂ","prefecture":"広島県","city":"福山市","street":"駅家町倉光"},{"zipCode":"7202524","prefectureKana":"ﾋﾛｼﾏｹﾝ","cityKana":"ﾌｸﾔﾏｼ","streetKana":"ｴｷﾔﾁｮｳｽｹﾓﾄ","prefecture":"広島県","city":"福山市","street":"駅家町助元"},{"zipCode":"7201133","prefectureKana":"ﾋﾛｼﾏｹﾝ","cityKana":"ﾌｸﾔﾏｼ","streetKana":"ｴｷﾔﾁｮｳﾁｶﾀ","prefecture":"広島県","city":"福山市","street":"駅家町近田"},{"zipCode":"7201134","prefectureKana":"ﾋﾛｼﾏｹﾝ","cityKana":"ﾌｸﾔﾏｼ","streetKana":"ｴｷﾔﾁｮｳﾅｶｼﾏ","prefecture":"広島県","city":"福山市","street":"駅家町中島"},{"zipCode":"7202523","prefectureKana":"ﾋﾛｼﾏｹﾝ","cityKana":"ﾌｸﾔﾏｼ","streetKana":"ｴｷﾔﾁｮｳﾆｲﾔﾏ","prefecture":"広島県","city":"福山市","street":"駅家町新山"},{"zipCode":"7202522","prefectureKana":"ﾋﾛｼﾏｹﾝ","cityKana":"ﾌｸﾔﾏｼ","streetKana":"ｴｷﾔﾁｮｳﾊｯﾄﾘﾅｶﾞﾀﾆ","prefecture":"広島県","city":"福山市","street":"駅家町服部永谷"},{"zipCode":"7202521","prefectureKana":"ﾋﾛｼﾏｹﾝ","cityKana":"ﾌｸﾔﾏｼ","streetKana":"ｴｷﾔﾁｮｳﾊｯﾄﾘﾎﾝｺﾞｳ","prefecture":"広島県","city":"福山市","street":"駅家町服部本郷"},{"zipCode":"7202413","prefectureKana":"ﾋﾛｼﾏｹﾝ","cityKana":"ﾌｸﾔﾏｼ","streetKana":"ｴｷﾔﾁｮｳﾎｳｼﾞｮｳｼﾞ","prefecture":"広島県","city":"福山市","street":"駅家町法成寺"},{"zipCode":"7201144","prefectureKana":"ﾋﾛｼﾏｹﾝ","cityKana":"ﾌｸﾔﾏｼ","streetKana":"ｴｷﾔﾁｮｳﾎﾞｳｼﾞ","prefecture":"広島県","city":"福山市","street":"駅家町坊寺"},{"zipCode":"7201131","prefectureKana":"ﾋﾛｼﾏｹﾝ","cityKana":"ﾌｸﾔﾏｼ","streetKana":"ｴｷﾔﾁｮｳﾏﾅｸﾞﾗ","prefecture":"広島県","city":"福山市","street":"駅家町万能倉"},{"zipCode":"7201147","prefectureKana":"ﾋﾛｼﾏｹﾝ","cityKana":"ﾌｸﾔﾏｼ","streetKana":"ｴｷﾔﾁｮｳﾑｶｲﾅｶﾞﾀﾆ","prefecture":"広島県","city":"福山市","street":"駅家町向永谷"},{"zipCode":"7201135","prefectureKana":"ﾋﾛｼﾏｹﾝ","cityKana":"ﾌｸﾔﾏｼ","streetKana":"ｴｷﾔﾁｮｳﾔﾖｲｶﾞｵｶ","prefecture":"広島県","city":"福山市","street":"駅家町弥生ケ丘"},{"zipCode":"7200055","prefectureKana":"ﾋﾛｼﾏｹﾝ","cityKana":"ﾌｸﾔﾏｼ","streetKana":"ｴﾋﾞｽﾏﾁ","prefecture":"広島県","city":"福山市","street":"胡町"},{"zipCode":"7200825","prefectureKana":"ﾋﾛｼﾏｹﾝ","cityKana":"ﾌｸﾔﾏｼ","streetKana":"ｵｷﾉｶﾞﾐﾁｮｳ","prefecture":"広島県","city":"福山市","street":"沖野上町"},{"zipCode":"7200044","prefectureKana":"ﾋﾛｼﾏｹﾝ","cityKana":"ﾌｸﾔﾏｼ","streetKana":"ｶｻｵｶﾏﾁ","prefecture":"広島県","city":"福山市","street":"笠岡町"},{"zipCode":"7200091","prefectureKana":"ﾋﾛｼﾏｹﾝ","cityKana":"ﾌｸﾔﾏｼ","streetKana":"ｶｼﾏﾁｮｳ","prefecture":"広島県","city":"福山市","street":"神島町"},{"zipCode":"7200812","prefectureKana":"ﾋﾛｼﾏｹﾝ","cityKana":"ﾌｸﾔﾏｼ","streetKana":"ｶｽﾐﾁｮｳ","prefecture":"広島県","city":"福山市","street":"霞町"},{"zipCode":"7200541","prefectureKana":"ﾋﾛｼﾏｹﾝ","cityKana":"ﾌｸﾔﾏｼ","streetKana":"ｶﾅｴﾁｮｳｶﾅﾐ","prefecture":"広島県","city":"福山市","street":"金江町金見"},{"zipCode":"7200542","prefectureKana":"ﾋﾛｼﾏｹﾝ","cityKana":"ﾌｸﾔﾏｼ","streetKana":"ｶﾅｴﾁｮｳﾜﾗｴ","prefecture":"広島県","city":"福山市","street":"金江町藁江"},{"zipCode":"7202417","prefectureKana":"ﾋﾛｼﾏｹﾝ","cityKana":"ﾌｸﾔﾏｼ","streetKana":"ｶﾓﾁｮｳｱｼﾜﾗ","prefecture":"広島県","city":"福山市","street":"加茂町芦原"},{"zipCode":"7202416","prefectureKana":"ﾋﾛｼﾏｹﾝ","cityKana":"ﾌｸﾔﾏｼ","streetKana":"ｶﾓﾁｮｳｱﾜﾈ","prefecture":"広島県","city":"福山市","street":"加茂町粟根"},{"zipCode":"7202419","prefectureKana":"ﾋﾛｼﾏｹﾝ","cityKana":"ﾌｸﾔﾏｼ","streetKana":"ｶﾓﾁｮｳｶﾐｶﾞﾓ","prefecture":"広島県","city":"福山市","street":"加茂町上加茂"},{"zipCode":"7202415","prefectureKana":"ﾋﾛｼﾏｹﾝ","cityKana":"ﾌｸﾔﾏｼ","streetKana":"ｶﾓﾁｮｳｷﾀﾔﾏ","prefecture":"広島県","city":"福山市","street":"加茂町北山"},{"zipCode":"7202412","prefectureKana":"ﾋﾛｼﾏｹﾝ","cityKana":"ﾌｸﾔﾏｼ","streetKana":"ｶﾓﾁｮｳｼﾓｶﾞﾓ","prefecture":"広島県","city":"福山市","street":"加茂町下加茂"},{"zipCode":"7202418","prefectureKana":"ﾋﾛｼﾏｹﾝ","cityKana":"ﾌｸﾔﾏｼ","streetKana":"ｶﾓﾁｮｳﾅｶﾉ","prefecture":"広島県","city":"福山市","street":"加茂町中野"},{"zipCode":"7202410","prefectureKana":"ﾋﾛｼﾏｹﾝ","cityKana":"ﾌｸﾔﾏｼ","streetKana":"ｶﾓﾁｮｳﾊﾁｹﾝﾔ","prefecture":"広島県","city":"福山市","street":"加茂町八軒屋"},{"zipCode":"7202414","prefectureKana":"ﾋﾛｼﾏｹﾝ","cityKana":"ﾌｸﾔﾏｼ","streetKana":"ｶﾓﾁｮｳﾓﾓﾀﾞﾆ","prefecture":"広島県","city":"福山市","street":"加茂町百谷"},{"zipCode":"7200822","prefectureKana":"ﾋﾛｼﾏｹﾝ","cityKana":"ﾌｸﾔﾏｼ","streetKana":"ｶﾜｸﾞﾁﾁｮｳ","prefecture":"広島県","city":"福山市","street":"川口町"},{"zipCode":"7202113","prefectureKana":"ﾋﾛｼﾏｹﾝ","cityKana":"ﾌｸﾔﾏｼ","streetKana":"ｶﾝﾅﾍﾞﾁｮｳｱｻﾋｵｶ","prefecture":"広島県","city":"福山市","street":"神辺町旭丘"},{"zipCode":"7202111","prefectureKana":"ﾋﾛｼﾏｹﾝ","cityKana":"ﾌｸﾔﾏｼ","streetKana":"ｶﾝﾅﾍﾞﾁｮｳｶﾐｺﾞﾘｮｳ","prefecture":"広島県","city":"福山市","street":"神辺町上御領"},{"zipCode":"7202114","prefectureKana":"ﾋﾛｼﾏｹﾝ","cityKana":"ﾌｸﾔﾏｼ","streetKana":"ｶﾝﾅﾍﾞﾁｮｳｶﾐﾀｹﾀﾞ","prefecture":"広島県","city":"福山市","street":"神辺町上竹田"},{"zipCode":"7202123","prefectureKana":"ﾋﾛｼﾏｹﾝ","cityKana":"ﾌｸﾔﾏｼ","streetKana":"ｶﾝﾅﾍﾞﾁｮｳｶﾜｷﾀ","prefecture":"広島県","city":"福山市","street":"神辺町川北"},{"zipCode":"7202124","prefectureKana":"ﾋﾛｼﾏｹﾝ","cityKana":"ﾌｸﾔﾏｼ","streetKana":"ｶﾝﾅﾍﾞﾁｮｳｶﾜﾐﾅﾐ","prefecture":"広島県","city":"福山市","street":"神辺町川南"},{"zipCode":"7202117","prefectureKana":"ﾋﾛｼﾏｹﾝ","cityKana":"ﾌｸﾔﾏｼ","streetKana":"ｶﾝﾅﾍﾞﾁｮｳｼﾓｺﾞﾘｮｳ","prefecture":"広島県","city":"福山市","street":"神辺町下御領"},{"zipCode":"7202115","prefectureKana":"ﾋﾛｼﾏｹﾝ","cityKana":"ﾌｸﾔﾏｼ","streetKana":"ｶﾝﾅﾍﾞﾁｮｳｼﾓﾀｹﾀﾞ","prefecture":"広島県","city":"福山市","street":"神辺町下竹田"},{"zipCode":"7202106","prefectureKana":"ﾋﾛｼﾏｹﾝ","cityKana":"ﾌｸﾔﾏｼ","streetKana":"ｶﾝﾅﾍﾞﾁｮｳｼﾞｭｳｸｹﾝﾔ","prefecture":"広島県","city":"福山市","street":"神辺町十九軒屋"},{"zipCode":"7202105","prefectureKana":"ﾋﾛｼﾏｹﾝ","cityKana":"ﾌｸﾔﾏｼ","streetKana":"ｶﾝﾅﾍﾞﾁｮｳｼﾞｭｳｻﾝｹﾞﾝﾔ","prefecture":"広島県","city":"福山市","street":"神辺町十三軒屋"},{"zipCode":"7202108","prefectureKana":"ﾋﾛｼﾏｹﾝ","cityKana":"ﾌｸﾔﾏｼ","streetKana":"ｶﾝﾅﾍﾞﾁｮｳｼﾝｼﾞｭｳｸ","prefecture":"広島県","city":"福山市","street":"神辺町新十九"},{"zipCode":"7202125","prefectureKana":"ﾋﾛｼﾏｹﾝ","cityKana":"ﾌｸﾔﾏｼ","streetKana":"ｶﾝﾅﾍﾞﾁｮｳｼﾝﾄｸﾀﾞ","prefecture":"広島県","city":"福山市","street":"神辺町新徳田"},{"zipCode":"7202107","prefectureKana":"ﾋﾛｼﾏｹﾝ","cityKana":"ﾌｸﾔﾏｼ","streetKana":"ｶﾝﾅﾍﾞﾁｮｳｼﾝﾐﾁﾉｳｴ","prefecture":"広島県","city":"福山市","street":"神辺町新道上"},{"zipCode":"7202122","prefectureKana":"ﾋﾛｼﾏｹﾝ","cityKana":"ﾌｸﾔﾏｼ","streetKana":"ｶﾝﾅﾍﾞﾁｮｳｼﾝﾕﾉ","prefecture":"広島県","city":"福山市","street":"神辺町新湯野"},{"zipCode":"7202126","prefectureKana":"ﾋﾛｼﾏｹﾝ","cityKana":"ﾌｸﾔﾏｼ","streetKana":"ｶﾝﾅﾍﾞﾁｮｳﾄｸﾀﾞ","prefecture":"広島県","city":"福山市","street":"神辺町徳田"},{"zipCode":"7202103","prefectureKana":"ﾋﾛｼﾏｹﾝ","cityKana":"ﾌｸﾔﾏｼ","streetKana":"ｶﾝﾅﾍﾞﾁｮｳﾆｼﾁｭｳｼﾞｮｳ","prefecture":"広島県","city":"福山市","street":"神辺町西中条"},{"zipCode":"7202127","prefectureKana":"ﾋﾛｼﾏｹﾝ","cityKana":"ﾌｸﾔﾏｼ","streetKana":"ｶﾝﾅﾍﾞﾁｮｳﾊｺﾀﾞ","prefecture":"広島県","city":"福山市","street":"神辺町箱田"},{"zipCode":"7202102","prefectureKana":"ﾋﾛｼﾏｹﾝ","cityKana":"ﾌｸﾔﾏｼ","streetKana":"ｶﾝﾅﾍﾞﾁｮｳﾋｶﾞｼﾁｭｳｼﾞｮｳ","prefecture":"広島県","city":"福山市","street":"神辺町東中条"},{"zipCode":"7202116","prefectureKana":"ﾋﾛｼﾏｹﾝ","cityKana":"ﾌｸﾔﾏｼ","streetKana":"ｶﾝﾅﾍﾞﾁｮｳﾋﾗﾉ","prefecture":"広島県","city":"福山市","street":"神辺町平野"},{"zipCode":"7202101","prefectureKana":"ﾋﾛｼﾏｹﾝ","cityKana":"ﾌｸﾔﾏｼ","streetKana":"ｶﾝﾅﾍﾞﾁｮｳﾐﾀﾆ","prefecture":"広島県","city":"福山市","street":"神辺町三谷"},{"zipCode":"7202104","prefectureKana":"ﾋﾛｼﾏｹﾝ","cityKana":"ﾌｸﾔﾏｼ","streetKana":"ｶﾝﾅﾍﾞﾁｮｳﾐﾁﾉｳｴ","prefecture":"広島県","city":"福山市","street":"神辺町道上"},{"zipCode":"7202112","prefectureKana":"ﾋﾛｼﾏｹﾝ","cityKana":"ﾌｸﾔﾏｼ","streetKana":"ｶﾝﾅﾍﾞﾁｮｳﾔﾋﾛ","prefecture":"広島県","city":"福山市","street":"神辺町八尋"},{"zipCode":"7202121","prefectureKana":"ﾋﾛｼﾏｹﾝ","cityKana":"ﾌｸﾔﾏｼ","streetKana":"ｶﾝﾅﾍﾞﾁｮｳﾕﾉ","prefecture":"広島県","city":"福山市","street":"神辺町湯野"},{"zipCode":"7200074","prefectureKana":"ﾋﾛｼﾏｹﾝ","cityKana":"ﾌｸﾔﾏｼ","streetKana":"ｷﾀﾎﾝｼﾞｮｳ","prefecture":"広島県","city":"福山市","street":"北本庄"},{"zipCode":"7200023","prefectureKana":"ﾋﾛｼﾏｹﾝ","cityKana":"ﾌｸﾔﾏｼ","streetKana":"ｷﾀﾐﾀﾞｲ","prefecture":"広島県","city":"福山市","street":"北美台"},{"zipCode":"7200073","prefectureKana":"ﾋﾛｼﾏｹﾝ","cityKana":"ﾌｸﾔﾏｼ","streetKana":"ｷﾀﾖｼﾂﾞﾁｮｳ","prefecture":"広島県","city":"福山市","street":"北吉津町"},{"zipCode":"7200082","prefectureKana":"ﾋﾛｼﾏｹﾝ","cityKana":"ﾌｸﾔﾏｼ","streetKana":"ｷﾉｼｮｳﾁｮｳ","prefecture":"広島県","city":"福山市","street":"木之庄町"},{"zipCode":"7200831","prefectureKana":"ﾋﾛｼﾏｹﾝ","cityKana":"ﾌｸﾔﾏｼ","streetKana":"ｸｻﾄﾞﾁｮｳ","prefecture":"広島県","city":"福山市","street":"草戸町"},{"zipCode":"7200411","prefectureKana":"ﾋﾛｼﾏｹﾝ","cityKana":"ﾌｸﾔﾏｼ","streetKana":"ｸﾏﾉﾁｮｳ","prefecture":"広島県","city":"福山市","street":"熊野町"},{"zipCode":"7200814","prefectureKana":"ﾋﾛｼﾏｹﾝ","cityKana":"ﾌｸﾔﾏｼ","streetKana":"ｺｳﾅﾝﾁｮｳ","prefecture":"広島県","city":"福山市","street":"光南町"},{"zipCode":"7200093","prefectureKana":"ﾋﾛｼﾏｹﾝ","cityKana":"ﾌｸﾔﾏｼ","streetKana":"ｺﾞｳﾌﾞﾝﾁｮｳ","prefecture":"広島県","city":"福山市","street":"郷分町"},{"zipCode":"7200081","prefectureKana":"ﾋﾛｼﾏｹﾝ","cityKana":"ﾌｸﾔﾏｼ","streetKana":"ｺｳﾖｳﾁｮｳ","prefecture":"広島県","city":"福山市","street":"向陽町"},{"zipCode":"7200051","prefectureKana":"ﾋﾛｼﾏｹﾝ","cityKana":"ﾌｸﾔﾏｼ","streetKana":"ｻｸﾗﾊﾞﾊﾞﾁｮｳ","prefecture":"広島県","city":"福山市","street":"桜馬場町"},{"zipCode":"7200835","prefectureKana":"ﾋﾛｼﾏｹﾝ","cityKana":"ﾌｸﾔﾏｼ","streetKana":"ｻﾊﾞﾁｮｳ","prefecture":"広島県","city":"福山市","street":"佐波町"},{"zipCode":"7200066","prefectureKana":"ﾋﾛｼﾏｹﾝ","cityKana":"ﾌｸﾔﾏｼ","streetKana":"ｻﾝﾉﾏﾙﾁｮｳ","prefecture":"広島県","city":"福山市","street":"三之丸町"},{"zipCode":"7200816","prefectureKana":"ﾋﾛｼﾏｹﾝ","cityKana":"ﾌｸﾔﾏｼ","streetKana":"ｼﾞﾌﾞｷﾁｮｳ","prefecture":"広島県","city":"福山市","street":"地吹町"},{"zipCode":"7200025","prefectureKana":"ﾋﾛｼﾏｹﾝ","cityKana":"ﾌｸﾔﾏｼ","streetKana":"ｼﾐｽﾞｶﾞｵｶ","prefecture":"広島県","city":"福山市","street":"清水ケ丘"},{"zipCode":"7200808","prefectureKana":"ﾋﾛｼﾏｹﾝ","cityKana":"ﾌｸﾔﾏｼ","streetKana":"ｼｮｳﾜﾁｮｳ","prefecture":"広島県","city":"福山市","street":"昭和町"},{"zipCode":"7200054","prefectureKana":"ﾋﾛｼﾏｹﾝ","cityKana":"ﾌｸﾔﾏｼ","streetKana":"ｼﾛﾐﾁｮｳ","prefecture":"広島県","city":"福山市","street":"城見町"},{"zipCode":"7200809","prefectureKana":"ﾋﾛｼﾏｹﾝ","cityKana":"ﾌｸﾔﾏｼ","streetKana":"ｽﾐﾖｼﾁｮｳ","prefecture":"広島県","city":"福山市","street":"住吉町"},{"zipCode":"7200838","prefectureKana":"ﾋﾛｼﾏｹﾝ","cityKana":"ﾌｸﾔﾏｼ","streetKana":"ｾﾄﾁｮｳｻﾎﾞｸ","prefecture":"広島県","city":"福山市","street":"瀬戸町山北"},{"zipCode":"7200837","prefectureKana":"ﾋﾛｼﾏｹﾝ","cityKana":"ﾌｸﾔﾏｼ","streetKana":"ｾﾄﾁｮｳｼﾞﾄｳﾌﾞ","prefecture":"広島県","city":"福山市","street":"瀬戸町地頭分"},{"zipCode":"7200836","prefectureKana":"ﾋﾛｼﾏｹﾝ","cityKana":"ﾌｸﾔﾏｼ","streetKana":"ｾﾄﾁｮｳﾅｶﾞﾜ","prefecture":"広島県","city":"福山市","street":"瀬戸町長和"},{"zipCode":"7200017","prefectureKana":"ﾋﾛｼﾏｹﾝ","cityKana":"ﾌｸﾔﾏｼ","streetKana":"ｾﾝﾀﾞﾁｮｳ","prefecture":"広島県","city":"福山市","street":"千田町"},{"zipCode":"7200015","prefectureKana":"ﾋﾛｼﾏｹﾝ","cityKana":"ﾌｸﾔﾏｼ","streetKana":"ｾﾝﾀﾞﾁｮｳｻｶﾀ","prefecture":"広島県","city":"福山市","street":"千田町坂田"},{"zipCode":"7200013","prefectureKana":"ﾋﾛｼﾏｹﾝ","cityKana":"ﾌｸﾔﾏｼ","streetKana":"ｾﾝﾀﾞﾁｮｳｾﾝﾀﾞ","prefecture":"広島県","city":"福山市","street":"千田町千田"},{"zipCode":"7200014","prefectureKana":"ﾋﾛｼﾏｹﾝ","cityKana":"ﾌｸﾔﾏｼ","streetKana":"ｾﾝﾀﾞﾁｮｳﾔﾌﾞﾛ","prefecture":"広島県","city":"福山市","street":"千田町薮路"},{"zipCode":"7200016","prefectureKana":"ﾋﾛｼﾏｹﾝ","cityKana":"ﾌｸﾔﾏｼ","streetKana":"ｾﾝﾀﾞﾁｮｳｻｶﾀｷﾀ","prefecture":"広島県","city":"福山市","street":"千田町坂田北"},{"zipCode":"7200024","prefectureKana":"ﾋﾛｼﾏｹﾝ","cityKana":"ﾌｸﾔﾏｼ","streetKana":"ﾀｶﾐﾀﾞｲ","prefecture":"広島県","city":"福山市","street":"高美台"},{"zipCode":"7200045","prefectureKana":"ﾋﾛｼﾏｹﾝ","cityKana":"ﾌｸﾔﾏｼ","streetKana":"ﾀｶﾗﾏﾁ","prefecture":"広島県","city":"福山市","street":"宝町"},{"zipCode":"7200824","prefectureKana":"ﾋﾛｼﾏｹﾝ","cityKana":"ﾌｸﾔﾏｼ","streetKana":"ﾀｼﾞﾒﾁｮｳ","prefecture":"広島県","city":"福山市","street":"多治米町"},{"zipCode":"7200203","prefectureKana":"ﾋﾛｼﾏｹﾝ","cityKana":"ﾌｸﾔﾏｼ","streetKana":"ﾀｼﾞﾘﾁｮｳ","prefecture":"広島県","city":"福山市","street":"田尻町"},{"zipCode":"7200053","prefectureKana":"ﾋﾛｼﾏｹﾝ","cityKana":"ﾌｸﾔﾏｼ","streetKana":"ﾀﾞｲｺｸﾏﾁ","prefecture":"広島県","city":"福山市","street":"大黒町"},{"zipCode":"7200075","prefectureKana":"ﾋﾛｼﾏｹﾝ","cityKana":"ﾌｸﾔﾏｼ","streetKana":"ﾁｮｳｼﾞｬﾏﾁ","prefecture":"広島県","city":"福山市","street":"長者町"},{"zipCode":"7200823","prefectureKana":"ﾋﾛｼﾏｹﾝ","cityKana":"ﾌｸﾔﾏｼ","streetKana":"ﾁﾖﾀﾞﾁｮｳ","prefecture":"広島県","city":"福山市","street":"千代田町"},{"zipCode":"7200842","prefectureKana":"ﾋﾛｼﾏｹﾝ","cityKana":"ﾌｸﾔﾏｼ","streetKana":"ﾂﾉｺﾞｳﾁｮｳｶﾔ","prefecture":"広島県","city":"福山市","street":"津之郷町加屋"},{"zipCode":"7200841","prefectureKana":"ﾋﾛｼﾏｹﾝ","cityKana":"ﾌｸﾔﾏｼ","streetKana":"ﾂﾉｺﾞｳﾁｮｳﾂﾉｺﾞｳ","prefecture":"広島県","city":"福山市","street":"津之郷町津之郷"},{"zipCode":"7200041","prefectureKana":"ﾋﾛｼﾏｹﾝ","cityKana":"ﾌｸﾔﾏｼ","streetKana":"ﾃﾗﾏﾁ","prefecture":"広島県","city":"福山市","street":"寺町"},{"zipCode":"7200813","prefectureKana":"ﾋﾛｼﾏｹﾝ","cityKana":"ﾌｸﾔﾏｼ","streetKana":"ﾄﾞｳｻﾝﾁｮｳ","prefecture":"広島県","city":"福山市","street":"道三町"},{"zipCode":"7200202","prefectureKana":"ﾋﾛｼﾏｹﾝ","cityKana":"ﾌｸﾔﾏｼ","streetKana":"ﾄﾓﾁｮｳｳｼﾛｼﾞ","prefecture":"広島県","city":"福山市","street":"鞆町後地"},{"zipCode":"7200201","prefectureKana":"ﾋﾛｼﾏｹﾝ","cityKana":"ﾌｸﾔﾏｼ","streetKana":"ﾄﾓﾁｮｳﾄﾓ","prefecture":"広島県","city":"福山市","street":"鞆町鞆"},{"zipCode":"7200022","prefectureKana":"ﾋﾛｼﾏｹﾝ","cityKana":"ﾌｸﾔﾏｼ","streetKana":"ﾅﾗﾂﾞﾁｮｳ","prefecture":"広島県","city":"福山市","street":"奈良津町"},{"zipCode":"7200818","prefectureKana":"ﾋﾛｼﾏｹﾝ","cityKana":"ﾌｸﾔﾏｼ","streetKana":"ﾆｼｻｸﾗﾏﾁ","prefecture":"広島県","city":"福山市","street":"西桜町"},{"zipCode":"7200067","prefectureKana":"ﾋﾛｼﾏｹﾝ","cityKana":"ﾌｸﾔﾏｼ","streetKana":"ﾆｼﾏﾁ","prefecture":"広島県","city":"福山市","street":"西町"},{"zipCode":"7200401","prefectureKana":"ﾋﾛｼﾏｹﾝ","cityKana":"ﾌｸﾔﾏｼ","streetKana":"ﾇﾏｸﾏﾁｮｳｶﾐｻﾝﾅ","prefecture":"広島県","city":"福山市","street":"沼隈町上山南"},{"zipCode":"7200311","prefectureKana":"ﾋﾛｼﾏｹﾝ","cityKana":"ﾌｸﾔﾏｼ","streetKana":"ﾇﾏｸﾏﾁｮｳｸｻﾌﾞｶ","prefecture":"広島県","city":"福山市","street":"沼隈町草深"},{"zipCode":"7200403","prefectureKana":"ﾋﾛｼﾏｹﾝ","cityKana":"ﾌｸﾔﾏｼ","streetKana":"ﾇﾏｸﾏﾁｮｳｼﾓｻﾝﾅ","prefecture":"広島県","city":"福山市","street":"沼隈町下山南"},{"zipCode":"7200313","prefectureKana":"ﾋﾛｼﾏｹﾝ","cityKana":"ﾌｸﾔﾏｼ","streetKana":"ﾇﾏｸﾏﾁｮｳﾂﾈｲｼ","prefecture":"広島県","city":"福山市","street":"沼隈町常石"},{"zipCode":"7200402","prefectureKana":"ﾋﾛｼﾏｹﾝ","cityKana":"ﾌｸﾔﾏｼ","streetKana":"ﾇﾏｸﾏﾁｮｳﾅｶｻﾝﾅ","prefecture":"広島県","city":"福山市","street":"沼隈町中山南"},{"zipCode":"7200312","prefectureKana":"ﾋﾛｼﾏｹﾝ","cityKana":"ﾌｸﾔﾏｼ","streetKana":"ﾇﾏｸﾏﾁｮｳﾉﾄﾊﾗ","prefecture":"広島県","city":"福山市","street":"沼隈町能登原"},{"zipCode":"7200815","prefectureKana":"ﾋﾛｼﾏｹﾝ","cityKana":"ﾌｸﾔﾏｼ","streetKana":"ﾉｶﾞﾐﾁｮｳ","prefecture":"広島県","city":"福山市","street":"野上町"},{"zipCode":"7200064","prefectureKana":"ﾋﾛｼﾏｹﾝ","cityKana":"ﾌｸﾔﾏｼ","streetKana":"ﾉﾌﾞﾋﾛﾁｮｳ","prefecture":"広島県","city":"福山市","street":"延広町"},{"zipCode":"7200204","prefectureKana":"ﾋﾛｼﾏｹﾝ","cityKana":"ﾌｸﾔﾏｼ","streetKana":"ﾊｼﾘｼﾞﾏﾁｮｳ","prefecture":"広島県","city":"福山市","street":"走島町"},{"zipCode":"7200803","prefectureKana":"ﾋﾛｼﾏｹﾝ","cityKana":"ﾌｸﾔﾏｼ","streetKana":"ﾊﾅｿﾞﾉﾁｮｳ","prefecture":"広島県","city":"福山市","street":"花園町"},{"zipCode":"7200821","prefectureKana":"ﾋﾛｼﾏｹﾝ","cityKana":"ﾌｸﾔﾏｼ","streetKana":"ﾋｶﾞｼｶﾜｸﾞﾁﾁｮｳ","prefecture":"広島県","city":"福山市","street":"東川口町"},{"zipCode":"7200065","prefectureKana":"ﾋﾛｼﾏｹﾝ","cityKana":"ﾌｸﾔﾏｼ","streetKana":"ﾋｶﾞｼｻｸﾗﾏﾁ","prefecture":"広島県","city":"福山市","street":"東桜町"},{"zipCode":"7200052","prefectureKana":"ﾋﾛｼﾏｹﾝ","cityKana":"ﾌｸﾔﾏｼ","streetKana":"ﾋｶﾞｼﾏﾁ","prefecture":"広島県","city":"福山市","street":"東町"},{"zipCode":"7200839","prefectureKana":"ﾋﾛｼﾏｹﾝ","cityKana":"ﾌｸﾔﾏｼ","streetKana":"ﾋｶﾞｼﾐｮｳｵｳﾀﾞｲ","prefecture":"広島県","city":"福山市","street":"東明王台"},{"zipCode":"7200071","prefectureKana":"ﾋﾛｼﾏｹﾝ","cityKana":"ﾌｸﾔﾏｼ","streetKana":"ﾋｶﾞｼﾖｼﾂﾞﾁｮｳ","prefecture":"広島県","city":"福山市","street":"東吉津町"},{"zipCode":"7200083","prefectureKana":"ﾋﾛｼﾏｹﾝ","cityKana":"ﾌｸﾔﾏｼ","streetKana":"ﾋｻﾏﾂﾀﾞｲ","prefecture":"広島県","city":"福山市","street":"久松台"},{"zipCode":"7200062","prefectureKana":"ﾋﾛｼﾏｹﾝ","cityKana":"ﾌｸﾔﾏｼ","streetKana":"ﾌｼﾐﾁｮｳ","prefecture":"広島県","city":"福山市","street":"伏見町"},{"zipCode":"7200543","prefectureKana":"ﾋﾛｼﾏｹﾝ","cityKana":"ﾌｸﾔﾏｼ","streetKana":"ﾌｼﾞｴﾁｮｳ","prefecture":"広島県","city":"福山市","street":"藤江町"},{"zipCode":"7200043","prefectureKana":"ﾋﾛｼﾏｹﾝ","cityKana":"ﾌｸﾔﾏｼ","streetKana":"ﾌﾅﾏﾁ","prefecture":"広島県","city":"福山市","street":"船町"},{"zipCode":"7200817","prefectureKana":"ﾋﾛｼﾏｹﾝ","cityKana":"ﾌｸﾔﾏｼ","streetKana":"ﾌﾙﾉｶﾞﾐﾁｮｳ","prefecture":"広島県","city":"福山市","street":"古野上町"},{"zipCode":"7200076","prefectureKana":"ﾋﾛｼﾏｹﾝ","cityKana":"ﾌｸﾔﾏｼ","streetKana":"ﾎﾝｼﾞｮｳﾁｮｳﾅｶ","prefecture":"広島県","city":"福山市","street":"本庄町中"},{"zipCode":"7200056","prefectureKana":"ﾋﾛｼﾏｹﾝ","cityKana":"ﾌｸﾔﾏｼ","streetKana":"ﾎﾝﾏﾁ","prefecture":"広島県","city":"福山市","street":"本町"},{"zipCode":"7200802","prefectureKana":"ﾋﾛｼﾏｹﾝ","cityKana":"ﾌｸﾔﾏｼ","streetKana":"ﾏﾂﾊﾏﾁｮｳ","prefecture":"広島県","city":"福山市","street":"松浜町"},{"zipCode":"7200061","prefectureKana":"ﾋﾛｼﾏｹﾝ","cityKana":"ﾌｸﾔﾏｼ","streetKana":"ﾏﾙﾉｳﾁ","prefecture":"広島県","city":"福山市","street":"丸之内"},{"zipCode":"7200805","prefectureKana":"ﾋﾛｼﾏｹﾝ","cityKana":"ﾌｸﾔﾏｼ","streetKana":"ﾐｶﾄﾞﾁｮｳ","prefecture":"広島県","city":"福山市","street":"御門町"},{"zipCode":"7200804","prefectureKana":"ﾋﾛｼﾏｹﾝ","cityKana":"ﾌｸﾔﾏｼ","streetKana":"ﾐﾄﾞﾘﾏﾁ","prefecture":"広島県","city":"福山市","street":"緑町"},{"zipCode":"7200077","prefectureKana":"ﾋﾛｼﾏｹﾝ","cityKana":"ﾌｸﾔﾏｼ","streetKana":"ﾐﾅﾐﾎﾝｼﾞｮｳ","prefecture":"広島県","city":"福山市","street":"南本庄"},{"zipCode":"7200806","prefectureKana":"ﾋﾛｼﾏｹﾝ","cityKana":"ﾌｸﾔﾏｼ","streetKana":"ﾐﾅﾐﾏﾁ","prefecture":"広島県","city":"福山市","street":"南町"},{"zipCode":"7200832","prefectureKana":"ﾋﾛｼﾏｹﾝ","cityKana":"ﾌｸﾔﾏｼ","streetKana":"ﾐﾉﾐﾁｮｳ","prefecture":"広島県","city":"福山市","street":"水呑町"},{"zipCode":"7200833","prefectureKana":"ﾋﾛｼﾏｹﾝ","cityKana":"ﾌｸﾔﾏｼ","streetKana":"ﾐﾉﾐﾑｶｲｶﾞｵｶ","prefecture":"広島県","city":"福山市","street":"水呑向丘"},{"zipCode":"7200042","prefectureKana":"ﾋﾛｼﾏｹﾝ","cityKana":"ﾌｸﾔﾏｼ","streetKana":"ﾐﾌﾈﾁｮｳ","prefecture":"広島県","city":"福山市","street":"御船町"},{"zipCode":"7200001","prefectureKana":"ﾋﾛｼﾏｹﾝ","cityKana":"ﾌｸﾔﾏｼ","streetKana":"ﾐﾕｷﾁｮｳｶﾐｲﾜﾅﾘ","prefecture":"広島県","city":"福山市","street":"御幸町上岩成"},{"zipCode":"7200002","prefectureKana":"ﾋﾛｼﾏｹﾝ","cityKana":"ﾌｸﾔﾏｼ","streetKana":"ﾐﾕｷﾁｮｳｼﾓｲﾜﾅﾘ","prefecture":"広島県","city":"福山市","street":"御幸町下岩成"},{"zipCode":"7200004","prefectureKana":"ﾋﾛｼﾏｹﾝ","cityKana":"ﾌｸﾔﾏｼ","streetKana":"ﾐﾕｷﾁｮｳﾅｶﾂﾊﾗ","prefecture":"広島県","city":"福山市","street":"御幸町中津原"},{"zipCode":"7200003","prefectureKana":"ﾋﾛｼﾏｹﾝ","cityKana":"ﾌｸﾔﾏｼ","streetKana":"ﾐﾕｷﾁｮｳﾓﾘﾜｹ","prefecture":"広島県","city":"福山市","street":"御幸町森脇"},{"zipCode":"7200834","prefectureKana":"ﾋﾛｼﾏｹﾝ","cityKana":"ﾌｸﾔﾏｼ","streetKana":"ﾐｮｳｵｳﾀﾞｲ","prefecture":"広島県","city":"福山市","street":"明王台"},{"zipCode":"7200031","prefectureKana":"ﾋﾛｼﾏｹﾝ","cityKana":"ﾌｸﾔﾏｼ","streetKana":"ﾐﾖｼﾁｮｳ","prefecture":"広島県","city":"福山市","street":"三吉町"},{"zipCode":"7200032","prefectureKana":"ﾋﾛｼﾏｹﾝ","cityKana":"ﾌｸﾔﾏｼ","streetKana":"ﾐﾖｼﾁｮｳﾐﾅﾐ","prefecture":"広島県","city":"福山市","street":"三吉町南"},{"zipCode":"7200807","prefectureKana":"ﾋﾛｼﾏｹﾝ","cityKana":"ﾌｸﾔﾏｼ","streetKana":"ﾒｲｼﾞﾁｮｳ","prefecture":"広島県","city":"福山市","street":"明治町"},{"zipCode":"7200063","prefectureKana":"ﾋﾛｼﾏｹﾝ","cityKana":"ﾌｸﾔﾏｼ","streetKana":"ﾓﾄﾏﾁ","prefecture":"広島県","city":"福山市","street":"元町"},{"zipCode":"7200811","prefectureKana":"ﾋﾛｼﾏｹﾝ","cityKana":"ﾌｸﾔﾏｼ","streetKana":"ﾓﾐｼﾞﾁｮｳ","prefecture":"広島県","city":"福山市","street":"紅葉町"},{"zipCode":"7200092","prefectureKana":"ﾋﾛｼﾏｹﾝ","cityKana":"ﾌｸﾔﾏｼ","streetKana":"ﾔﾏﾃﾁｮｳ","prefecture":"広島県","city":"福山市","street":"山手町"},{"zipCode":"7202601","prefectureKana":"ﾋﾛｼﾏｹﾝ","cityKana":"ﾌｸﾔﾏｼ","streetKana":"ﾔﾏﾉﾁｮｳﾔｶﾜ","prefecture":"広島県","city":"福山市","street":"山野町矢川"},{"zipCode":"7202602","prefectureKana":"ﾋﾛｼﾏｹﾝ","cityKana":"ﾌｸﾔﾏｼ","streetKana":"ﾔﾏﾉﾁｮｳﾔﾏﾉ","prefecture":"広島県","city":"福山市","street":"山野町山野"},{"zipCode":"7200011","prefectureKana":"ﾋﾛｼﾏｹﾝ","cityKana":"ﾌｸﾔﾏｼ","streetKana":"ﾖｺｵﾁｮｳ","prefecture":"広島県","city":"福山市","street":"横尾町"},{"zipCode":"7200072","prefectureKana":"ﾋﾛｼﾏｹﾝ","cityKana":"ﾌｸﾔﾏｼ","streetKana":"ﾖｼﾂﾞﾁｮｳ","prefecture":"広島県","city":"福山市","street":"吉津町"},{"zipCode":"7200021","prefectureKana":"ﾋﾛｼﾏｹﾝ","cityKana":"ﾌｸﾔﾏｼ","streetKana":"ﾘｮｸﾖｳﾁｮｳ","prefecture":"広島県","city":"福山市","street":"緑陽町"},{"zipCode":"7200034","prefectureKana":"ﾋﾛｼﾏｹﾝ","cityKana":"ﾌｸﾔﾏｼ","streetKana":"ﾜｶﾏﾂﾁｮｳ","prefecture":"広島県","city":"福山市","street":"若松町"},{"zipCode":"7201800","prefectureKana":"ﾋﾛｼﾏｹﾝ","cityKana":"ｼﾞﾝｾｷｸﾞﾝｼﾞﾝｾｷｺｳｹﾞﾝﾁｮｳ","streetKana":"ｲｶﾆｹｲｻｲｶﾞﾅｲﾊﾞｱｲ","prefecture":"広島県","city":"神石郡神石高原町","street":"以下に掲載がない場合"},{"zipCode":"7201521","prefectureKana":"ﾋﾛｼﾏｹﾝ","cityKana":"ｼﾞﾝｾｷｸﾞﾝｼﾞﾝｾｷｺｳｹﾞﾝﾁｮｳ","streetKana":"ｱｹﾞ","prefecture":"広島県","city":"神石郡神石高原町","street":"阿下"},{"zipCode":"7201701","prefectureKana":"ﾋﾛｼﾏｹﾝ","cityKana":"ｼﾞﾝｾｷｸﾞﾝｼﾞﾝｾｷｺｳｹﾞﾝﾁｮｳ","streetKana":"ｱﾙｷﾞ","prefecture":"広島県","city":"神石郡神石高原町","street":"有木"},{"zipCode":"7201602","prefectureKana":"ﾋﾛｼﾏｹﾝ","cityKana":"ｼﾞﾝｾｷｸﾞﾝｼﾞﾝｾｷｺｳｹﾞﾝﾁｮｳ","streetKana":"ｲｾｷ","prefecture":"広島県","city":"神石郡神石高原町","street":"井関"},{"zipCode":"7201624","prefectureKana":"ﾋﾛｼﾏｹﾝ","cityKana":"ｼﾞﾝｾｷｸﾞﾝｼﾞﾝｾｷｺｳｹﾞﾝﾁｮｳ","streetKana":"ｳｴﾉ","prefecture":"広島県","city":"神石郡神石高原町","street":"上野"},{"zipCode":"7201601","prefectureKana":"ﾋﾛｼﾏｹﾝ","cityKana":"ｼﾞﾝｾｷｸﾞﾝｼﾞﾝｾｷｺｳｹﾞﾝﾁｮｳ","streetKana":"ｵｵﾔ","prefecture":"広島県","city":"神石郡神石高原町","street":"大矢"},{"zipCode":"7201901","prefectureKana":"ﾋﾛｼﾏｹﾝ","cityKana":"ｼﾞﾝｾｷｸﾞﾝｼﾞﾝｾｷｺｳｹﾞﾝﾁｮｳ","streetKana":"ｵﾉ","prefecture":"広島県","city":"神石郡神石高原町","street":"小野"},{"zipCode":"7201525","prefectureKana":"ﾋﾛｼﾏｹﾝ","cityKana":"ｼﾞﾝｾｷｸﾞﾝｼﾞﾝｾｷｺｳｹﾞﾝﾁｮｳ","streetKana":"ｶﾐ","prefecture":"広島県","city":"神石郡神石高原町","street":"上"},{"zipCode":"7201702","prefectureKana":"ﾋﾛｼﾏｹﾝ","cityKana":"ｼﾞﾝｾｷｸﾞﾝｼﾞﾝｾｷｺｳｹﾞﾝﾁｮｳ","streetKana":"ｶﾐﾄﾖﾏﾂ","prefecture":"広島県","city":"神石郡神石高原町","street":"上豊松"},{"zipCode":"7201523","prefectureKana":"ﾋﾛｼﾏｹﾝ","cityKana":"ｼﾞﾝｾｷｸﾞﾝｼﾞﾝｾｷｺｳｹﾞﾝﾁｮｳ","streetKana":"ｶﾒｲｼ","prefecture":"広島県","city":"神石郡神石高原町","street":"亀石"},{"zipCode":"7201416","prefectureKana":"ﾋﾛｼﾏｹﾝ","cityKana":"ｼﾞﾝｾｷｸﾞﾝｼﾞﾝｾｷｺｳｹﾞﾝﾁｮｳ","streetKana":"ｷﾂﾜ","prefecture":"広島県","city":"神石郡神石高原町","street":"木津和"},{"zipCode":"7201414","prefectureKana":"ﾋﾛｼﾏｹﾝ","cityKana":"ｼﾞﾝｾｷｸﾞﾝｼﾞﾝｾｷｺｳｹﾞﾝﾁｮｳ","streetKana":"ｸﾜｷﾞ","prefecture":"広島県","city":"神石郡神石高原町","street":"桑木"},{"zipCode":"7201522","prefectureKana":"ﾋﾛｼﾏｹﾝ","cityKana":"ｼﾞﾝｾｷｸﾞﾝｼﾞﾝｾｷｺｳｹﾞﾝﾁｮｳ","streetKana":"ｺﾊﾞﾀｹ","prefecture":"広島県","city":"神石郡神石高原町","street":"小畠"},{"zipCode":"7201604","prefectureKana":"ﾋﾛｼﾏｹﾝ","cityKana":"ｼﾞﾝｾｷｸﾞﾝｼﾞﾝｾｷｺｳｹﾞﾝﾁｮｳ","streetKana":"ｻｶｾｶﾞﾜ","prefecture":"広島県","city":"神石郡神石高原町","street":"坂瀬川"},{"zipCode":"7201703","prefectureKana":"ﾋﾛｼﾏｹﾝ","cityKana":"ｼﾞﾝｾｷｸﾞﾝｼﾞﾝｾｷｺｳｹﾞﾝﾁｮｳ","streetKana":"ｻｻｵ","prefecture":"広島県","city":"神石郡神石高原町","street":"笹尾"},{"zipCode":"7201415","prefectureKana":"ﾋﾛｼﾏｹﾝ","cityKana":"ｼﾞﾝｾｷｸﾞﾝｼﾞﾝｾｷｺｳｹﾞﾝﾁｮｳ","streetKana":"ｼﾅﾐ","prefecture":"広島県","city":"神石郡神石高原町","street":"階見"},{"zipCode":"7201704","prefectureKana":"ﾋﾛｼﾏｹﾝ","cityKana":"ｼﾞﾝｾｷｸﾞﾝｼﾞﾝｾｷｺｳｹﾞﾝﾁｮｳ","streetKana":"ｼﾓﾄﾖﾏﾂ","prefecture":"広島県","city":"神石郡神石高原町","street":"下豊松"},{"zipCode":"7201902","prefectureKana":"ﾋﾛｼﾏｹﾝ","cityKana":"ｼﾞﾝｾｷｸﾞﾝｼﾞﾝｾｷｺｳｹﾞﾝﾁｮｳ","streetKana":"ｼﾝﾒﾝ","prefecture":"広島県","city":"神石郡神石高原町","street":"新免"},{"zipCode":"7201621","prefectureKana":"ﾋﾛｼﾏｹﾝ","cityKana":"ｼﾞﾝｾｷｸﾞﾝｼﾞﾝｾｷｺｳｹﾞﾝﾁｮｳ","streetKana":"ｽﾓﾓ","prefecture":"広島県","city":"神石郡神石高原町","street":"李"},{"zipCode":"7201410","prefectureKana":"ﾋﾛｼﾏｹﾝ","cityKana":"ｼﾞﾝｾｷｸﾞﾝｼﾞﾝｾｷｺｳｹﾞﾝﾁｮｳ","streetKana":"ﾀｶﾌﾀ","prefecture":"広島県","city":"神石郡神石高原町","street":"高蓋"},{"zipCode":"7201622","prefectureKana":"ﾋﾛｼﾏｹﾝ","cityKana":"ｼﾞﾝｾｷｸﾞﾝｼﾞﾝｾｷｺｳｹﾞﾝﾁｮｳ","streetKana":"ﾁｶﾀﾞ","prefecture":"広島県","city":"神石郡神石高原町","street":"近田"},{"zipCode":"7201413","prefectureKana":"ﾋﾛｼﾏｹﾝ","cityKana":"ｼﾞﾝｾｷｸﾞﾝｼﾞﾝｾｷｺｳｹﾞﾝﾁｮｳ","streetKana":"ﾁﾁｷﾉ","prefecture":"広島県","city":"神石郡神石高原町","street":"父木野"},{"zipCode":"7201524","prefectureKana":"ﾋﾛｼﾏｹﾝ","cityKana":"ｼﾞﾝｾｷｸﾞﾝｼﾞﾝｾｷｺｳｹﾞﾝﾁｮｳ","streetKana":"ﾂﾈﾐﾂ","prefecture":"広島県","city":"神石郡神石高原町","street":"常光"},{"zipCode":"7201603","prefectureKana":"ﾋﾛｼﾏｹﾝ","cityKana":"ｼﾞﾝｾｷｸﾞﾝｼﾞﾝｾｷｺｳｹﾞﾝﾁｮｳ","streetKana":"ﾄｷﾔｽ","prefecture":"広島県","city":"神石郡神石高原町","street":"時安"},{"zipCode":"7201705","prefectureKana":"ﾋﾛｼﾏｹﾝ","cityKana":"ｼﾞﾝｾｷｸﾞﾝｼﾞﾝｾｷｺｳｹﾞﾝﾁｮｳ","streetKana":"ﾅｶﾀﾞｲﾗ","prefecture":"広島県","city":"神石郡神石高原町","street":"中平"},{"zipCode":"7201623","prefectureKana":"ﾋﾛｼﾏｹﾝ","cityKana":"ｼﾞﾝｾｷｸﾞﾝｼﾞﾝｾｷｺｳｹﾞﾝﾁｮｳ","streetKana":"ﾊﾅｽﾞﾐ","prefecture":"広島県","city":"神石郡神石高原町","street":"花済"},{"zipCode":"7201412","prefectureKana":"ﾋﾛｼﾏｹﾝ","cityKana":"ｼﾞﾝｾｷｸﾞﾝｼﾞﾝｾｷｺｳｹﾞﾝﾁｮｳ","streetKana":"ﾐﾂｽｴ","prefecture":"広島県","city":"神石郡神石高原町","street":"光末"},{"zipCode":"7201411","prefectureKana":"ﾋﾛｼﾏｹﾝ","cityKana":"ｼﾞﾝｾｷｸﾞﾝｼﾞﾝｾｷｺｳｹﾞﾝﾁｮｳ","streetKana":"ﾐﾂﾉﾌﾞ","prefecture":"広島県","city":"神石郡神石高原町","street":"光信"},{"zipCode":"7201811","prefectureKana":"ﾋﾛｼﾏｹﾝ","cityKana":"ｼﾞﾝｾｷｸﾞﾝｼﾞﾝｾｷｺｳｹﾞﾝﾁｮｳ","streetKana":"ﾔｽﾀﾞ","prefecture":"広島県","city":"神石郡神石高原町","street":"安田"},{"zipCode":"7201812","prefectureKana":"ﾋﾛｼﾏｹﾝ","cityKana":"ｼﾞﾝｾｷｸﾞﾝｼﾞﾝｾｷｺｳｹﾞﾝﾁｮｳ","streetKana":"ﾕｷ","prefecture":"広島県","city":"神石郡神石高原町","street":"油木"}]