[{"zipCode":"7210000","prefectureKana":"ﾋﾛｼﾏｹﾝ","cityKana":"ﾌｸﾔﾏｼ","streetKana":"ｲｶﾆｹｲｻｲｶﾞﾅｲﾊﾞｱｲ","prefecture":"広島県","city":"福山市","street":"以下に掲載がない場合"},{"zipCode":"7210911","prefectureKana":"ﾋﾛｼﾏｹﾝ","cityKana":"ﾌｸﾔﾏｼ","streetKana":"ｱｵﾊﾞﾀﾞｲ","prefecture":"広島県","city":"福山市","street":"青葉台"},{"zipCode":"7210952","prefectureKana":"ﾋﾛｼﾏｹﾝ","cityKana":"ﾌｸﾔﾏｼ","streetKana":"ｱｹﾎﾞﾉﾁｮｳ","prefecture":"広島県","city":"福山市","street":"曙町"},{"zipCode":"7210915","prefectureKana":"ﾋﾛｼﾏｹﾝ","cityKana":"ﾌｸﾔﾏｼ","streetKana":"ｲｾｶﾞｵｶ","prefecture":"広島県","city":"福山市","street":"伊勢丘"},{"zipCode":"7210953","prefectureKana":"ﾋﾛｼﾏｹﾝ","cityKana":"ﾌｸﾔﾏｼ","streetKana":"ｲﾁﾓﾝｼﾞﾁｮｳ","prefecture":"広島県","city":"福山市","street":"一文字町"},{"zipCode":"7210965","prefectureKana":"ﾋﾛｼﾏｹﾝ","cityKana":"ﾌｸﾔﾏｼ","streetKana":"ｵｳｼﾞﾁｮｳ","prefecture":"広島県","city":"福山市","street":"王子町"},{"zipCode":"7210914","prefectureKana":"ﾋﾛｼﾏｹﾝ","cityKana":"ﾌｸﾔﾏｼ","streetKana":"ｵｵﾀﾆﾀﾞｲ","prefecture":"広島県","city":"福山市","street":"大谷台"},{"zipCode":"7210954","prefectureKana":"ﾋﾛｼﾏｹﾝ","cityKana":"ﾌｸﾔﾏｼ","streetKana":"ｵﾛｼﾏﾁ","prefecture":"広島県","city":"福山市","street":"卸町"},{"zipCode":"7210917","prefectureKana":"ﾋﾛｼﾏｹﾝ","cityKana":"ﾌｸﾔﾏｼ","streetKana":"ｶｽｶﾞｲｹ","prefecture":"広島県","city":"福山市","street":"春日池"},{"zipCode":"7210916","prefectureKana":"ﾋﾛｼﾏｹﾝ","cityKana":"ﾌｸﾔﾏｼ","streetKana":"ｶｽｶﾞﾀﾞｲ","prefecture":"広島県","city":"福山市","street":"春日台"},{"zipCode":"7210907","prefectureKana":"ﾋﾛｼﾏｹﾝ","cityKana":"ﾌｸﾔﾏｼ","streetKana":"ｶｽｶﾞﾁｮｳ","prefecture":"広島県","city":"福山市","street":"春日町"},{"zipCode":"7210901","prefectureKana":"ﾋﾛｼﾏｹﾝ","cityKana":"ﾌｸﾔﾏｼ","streetKana":"ｶｽｶﾞﾁｮｳｳﾔﾏ","prefecture":"広島県","city":"福山市","street":"春日町宇山"},{"zipCode":"7210902","prefectureKana":"ﾋﾛｼﾏｹﾝ","cityKana":"ﾌｸﾔﾏｼ","streetKana":"ｶｽｶﾞﾁｮｳｳﾗｶﾐ","prefecture":"広島県","city":"福山市","street":"春日町浦上"},{"zipCode":"7210908","prefectureKana":"ﾋﾛｼﾏｹﾝ","cityKana":"ﾌｸﾔﾏｼ","streetKana":"ｶｽｶﾞﾁｮｳﾖｼﾀﾞ","prefecture":"広島県","city":"福山市","street":"春日町吉田"},{"zipCode":"7210931","prefectureKana":"ﾋﾛｼﾏｹﾝ","cityKana":"ﾌｸﾔﾏｼ","streetKana":"ｺｳｶﾝﾁｮｳ","prefecture":"広島県","city":"福山市","street":"鋼管町"},{"zipCode":"7210971","prefectureKana":"ﾋﾛｼﾏｹﾝ","cityKana":"ﾌｸﾔﾏｼ","streetKana":"ｻﾞｵｳﾁｮｳ","prefecture":"広島県","city":"福山市","street":"蔵王町"},{"zipCode":"7210929","prefectureKana":"ﾋﾛｼﾏｹﾝ","cityKana":"ﾌｸﾔﾏｼ","streetKana":"ｼﾞｮｳｺｳｶﾞｵｶ","prefecture":"広島県","city":"福山市","street":"城興ケ丘"},{"zipCode":"7210955","prefectureKana":"ﾋﾛｼﾏｹﾝ","cityKana":"ﾌｸﾔﾏｼ","streetKana":"ｼﾝｶﾞｲﾁｮｳ","prefecture":"広島県","city":"福山市","street":"新涯町"},{"zipCode":"7210951","prefectureKana":"ﾋﾛｼﾏｹﾝ","cityKana":"ﾌｸﾔﾏｼ","streetKana":"ｼﾝﾊﾏﾁｮｳ","prefecture":"広島県","city":"福山市","street":"新浜町"},{"zipCode":"7210926","prefectureKana":"ﾋﾛｼﾏｹﾝ","cityKana":"ﾌｸﾔﾏｼ","streetKana":"ﾀﾞｲﾓﾝﾁｮｳ","prefecture":"広島県","city":"福山市","street":"大門町"},{"zipCode":"7210924","prefectureKana":"ﾋﾛｼﾏｹﾝ","cityKana":"ﾌｸﾔﾏｼ","streetKana":"ﾀﾞｲﾓﾝﾁｮｳｱｻﾋ","prefecture":"広島県","city":"福山市","street":"大門町旭"},{"zipCode":"7210922","prefectureKana":"ﾋﾛｼﾏｹﾝ","cityKana":"ﾌｸﾔﾏｼ","streetKana":"ﾀﾞｲﾓﾝﾁｮｳﾋﾉﾃﾞｵｶ","prefecture":"広島県","city":"福山市","street":"大門町日之出丘"},{"zipCode":"7210925","prefectureKana":"ﾋﾛｼﾏｹﾝ","cityKana":"ﾌｸﾔﾏｼ","streetKana":"ﾀﾞｲﾓﾝﾁｮｳｻｶﾘ","prefecture":"広島県","city":"福山市","street":"大門町坂里"},{"zipCode":"7210921","prefectureKana":"ﾋﾛｼﾏｹﾝ","cityKana":"ﾌｸﾔﾏｼ","streetKana":"ﾀﾞｲﾓﾝﾁｮｳﾀﾞｲﾓﾝ","prefecture":"広島県","city":"福山市","street":"大門町大門"},{"zipCode":"7210927","prefectureKana":"ﾋﾛｼﾏｹﾝ","cityKana":"ﾌｸﾔﾏｼ","streetKana":"ﾀﾞｲﾓﾝﾁｮｳﾂﾉｼﾀ","prefecture":"広島県","city":"福山市","street":"大門町津之下"},{"zipCode":"7210923","prefectureKana":"ﾋﾛｼﾏｹﾝ","cityKana":"ﾌｸﾔﾏｼ","streetKana":"ﾀﾞｲﾓﾝﾁｮｳﾉﾉﾊﾏ","prefecture":"広島県","city":"福山市","street":"大門町野々浜"},{"zipCode":"7210903","prefectureKana":"ﾋﾛｼﾏｹﾝ","cityKana":"ﾌｸﾔﾏｼ","streetKana":"ﾂﾎﾞｳﾁｮｳ","prefecture":"広島県","city":"福山市","street":"坪生町"},{"zipCode":"7210904","prefectureKana":"ﾋﾛｼﾏｹﾝ","cityKana":"ﾌｸﾔﾏｼ","streetKana":"ﾂﾎﾞｳﾁｮｳﾐﾅﾐ","prefecture":"広島県","city":"福山市","street":"坪生町南"},{"zipCode":"7210966","prefectureKana":"ﾋﾛｼﾏｹﾝ","cityKana":"ﾌｸﾔﾏｼ","streetKana":"ﾃｼﾛﾁｮｳ","prefecture":"広島県","city":"福山市","street":"手城町"},{"zipCode":"7210912","prefectureKana":"ﾋﾛｼﾏｹﾝ","cityKana":"ﾌｸﾔﾏｼ","streetKana":"ﾄｳﾖｳﾀﾞｲ","prefecture":"広島県","city":"福山市","street":"東陽台"},{"zipCode":"7210958","prefectureKana":"ﾋﾛｼﾏｹﾝ","cityKana":"ﾌｸﾔﾏｼ","streetKana":"ﾆｼｼﾝｶﾞｲﾁｮｳ","prefecture":"広島県","city":"福山市","street":"西新涯町"},{"zipCode":"7210975","prefectureKana":"ﾋﾛｼﾏｹﾝ","cityKana":"ﾌｸﾔﾏｼ","streetKana":"ﾆｼﾌｶﾂﾁｮｳ","prefecture":"広島県","city":"福山市","street":"西深津町"},{"zipCode":"7210906","prefectureKana":"ﾋﾛｼﾏｹﾝ","cityKana":"ﾌｸﾔﾏｼ","streetKana":"ﾉｳｼﾞﾏ","prefecture":"広島県","city":"福山市","street":"能島"},{"zipCode":"7210962","prefectureKana":"ﾋﾛｼﾏｹﾝ","cityKana":"ﾌｸﾔﾏｼ","streetKana":"ﾋｶﾞｼﾃｼﾛﾁｮｳ","prefecture":"広島県","city":"福山市","street":"東手城町"},{"zipCode":"7210974","prefectureKana":"ﾋﾛｼﾏｹﾝ","cityKana":"ﾌｸﾔﾏｼ","streetKana":"ﾋｶﾞｼﾌｶﾂﾁｮｳ","prefecture":"広島県","city":"福山市","street":"東深津町"},{"zipCode":"7210942","prefectureKana":"ﾋﾛｼﾏｹﾝ","cityKana":"ﾌｸﾔﾏｼ","streetKana":"ﾋｷﾉﾁｮｳ","prefecture":"広島県","city":"福山市","street":"引野町"},{"zipCode":"7210941","prefectureKana":"ﾋﾛｼﾏｹﾝ","cityKana":"ﾌｸﾔﾏｼ","streetKana":"ﾋｷﾉﾁｮｳｷﾀ","prefecture":"広島県","city":"福山市","street":"引野町北"},{"zipCode":"7210944","prefectureKana":"ﾋﾛｼﾏｹﾝ","cityKana":"ﾌｸﾔﾏｼ","streetKana":"ﾋｷﾉﾁｮｳﾋｶﾞｼ","prefecture":"広島県","city":"福山市","street":"引野町東"},{"zipCode":"7210945","prefectureKana":"ﾋﾛｼﾏｹﾝ","cityKana":"ﾌｸﾔﾏｼ","streetKana":"ﾋｷﾉﾁｮｳﾐﾅﾐ","prefecture":"広島県","city":"福山市","street":"引野町南"},{"zipCode":"7210972","prefectureKana":"ﾋﾛｼﾏｹﾝ","cityKana":"ﾌｸﾔﾏｼ","streetKana":"ﾋﾖｼﾀﾞｲ","prefecture":"広島県","city":"福山市","street":"日吉台"},{"zipCode":"7210943","prefectureKana":"ﾋﾛｼﾏｹﾝ","cityKana":"ﾌｸﾔﾏｼ","streetKana":"ﾍｲｾｲﾀﾞｲ","prefecture":"広島県","city":"福山市","street":"平成台"},{"zipCode":"7210913","prefectureKana":"ﾋﾛｼﾏｹﾝ","cityKana":"ﾌｸﾔﾏｼ","streetKana":"ﾏｸﾔﾏﾀﾞｲ","prefecture":"広島県","city":"福山市","street":"幕山台"},{"zipCode":"7210964","prefectureKana":"ﾋﾛｼﾏｹﾝ","cityKana":"ﾌｸﾔﾏｼ","streetKana":"ﾐﾅﾄﾏﾁ","prefecture":"広島県","city":"福山市","street":"港町"},{"zipCode":"7210973","prefectureKana":"ﾋﾛｼﾏｹﾝ","cityKana":"ﾌｸﾔﾏｼ","streetKana":"ﾐﾅﾐｻﾞｵｳﾁｮｳ","prefecture":"広島県","city":"福山市","street":"南蔵王町"},{"zipCode":"7210963","prefectureKana":"ﾋﾛｼﾏｹﾝ","cityKana":"ﾌｸﾔﾏｼ","streetKana":"ﾐﾅﾐﾃｼﾛﾁｮｳ","prefecture":"広島県","city":"福山市","street":"南手城町"},{"zipCode":"7210956","prefectureKana":"ﾋﾛｼﾏｹﾝ","cityKana":"ﾌｸﾔﾏｼ","streetKana":"ﾐﾉｵｷﾁｮｳ","prefecture":"広島県","city":"福山市","street":"箕沖町"},{"zipCode":"7210957","prefectureKana":"ﾋﾛｼﾏｹﾝ","cityKana":"ﾌｸﾔﾏｼ","streetKana":"ﾐﾉｼﾏﾁｮｳ","prefecture":"広島県","city":"福山市","street":"箕島町"},{"zipCode":"7210961","prefectureKana":"ﾋﾛｼﾏｹﾝ","cityKana":"ﾌｸﾔﾏｼ","streetKana":"ﾐｮｳｼﾞﾝﾁｮｳ","prefecture":"広島県","city":"福山市","street":"明神町"}]