[{"zipCode":"7292313","prefectureKana":"ﾋﾛｼﾏｹﾝ","cityKana":"ﾀｹﾊﾗｼ","streetKana":"ﾀｶｻｷﾁｮｳ","prefecture":"広島県","city":"竹原市","street":"高崎町"},{"zipCode":"7292311","prefectureKana":"ﾋﾛｼﾏｹﾝ","cityKana":"ﾀｹﾊﾗｼ","streetKana":"ﾀﾀﾞﾉｳﾐﾁｮｳ","prefecture":"広島県","city":"竹原市","street":"忠海町"},{"zipCode":"7292314","prefectureKana":"ﾋﾛｼﾏｹﾝ","cityKana":"ﾀｹﾊﾗｼ","streetKana":"ﾀﾀﾞﾉｳﾐﾄｺﾉｳﾗ","prefecture":"広島県","city":"竹原市","street":"忠海床浦"},{"zipCode":"7292315","prefectureKana":"ﾋﾛｼﾏｹﾝ","cityKana":"ﾀｹﾊﾗｼ","streetKana":"ﾀﾀﾞﾉｳﾐﾅｶﾞﾊﾏ","prefecture":"広島県","city":"竹原市","street":"忠海長浜"},{"zipCode":"7292316","prefectureKana":"ﾋﾛｼﾏｹﾝ","cityKana":"ﾀｹﾊﾗｼ","streetKana":"ﾀﾀﾞﾉｳﾐﾅｶﾏﾁ","prefecture":"広島県","city":"竹原市","street":"忠海中町"},{"zipCode":"7292317","prefectureKana":"ﾋﾛｼﾏｹﾝ","cityKana":"ﾀｹﾊﾗｼ","streetKana":"ﾀﾀﾞﾉｳﾐﾋｶﾞｼﾏﾁ","prefecture":"広島県","city":"竹原市","street":"忠海東町"},{"zipCode":"7292312","prefectureKana":"ﾋﾛｼﾏｹﾝ","cityKana":"ﾀｹﾊﾗｼ","streetKana":"ﾌｸﾀﾞﾁｮｳ","prefecture":"広島県","city":"竹原市","street":"福田町"},{"zipCode":"7290324","prefectureKana":"ﾋﾛｼﾏｹﾝ","cityKana":"ﾐﾊﾗｼ","streetKana":"ｲﾄｻｷ","prefecture":"広島県","city":"三原市","street":"糸崎"},{"zipCode":"7290329","prefectureKana":"ﾋﾛｼﾏｹﾝ","cityKana":"ﾐﾊﾗｼ","streetKana":"ｲﾄｻｷﾐﾅﾐ","prefecture":"広島県","city":"三原市","street":"糸崎南"},{"zipCode":"7290322","prefectureKana":"ﾋﾛｼﾏｹﾝ","cityKana":"ﾐﾊﾗｼ","streetKana":"ｵｸﾉﾔﾏﾁｮｳ","prefecture":"広島県","city":"三原市","street":"奥野山町"},{"zipCode":"7290321","prefectureKana":"ﾋﾛｼﾏｹﾝ","cityKana":"ﾐﾊﾗｼ","streetKana":"ｷﾊﾗ","prefecture":"広島県","city":"三原市","street":"木原"},{"zipCode":"7290321","prefectureKana":"ﾋﾛｼﾏｹﾝ","cityKana":"ﾐﾊﾗｼ","streetKana":"ｷﾊﾗﾁｮｳ","prefecture":"広島県","city":"三原市","street":"木原町"},{"zipCode":"7292361","prefectureKana":"ﾋﾛｼﾏｹﾝ","cityKana":"ﾐﾊﾗｼ","streetKana":"ｺｲｽﾞﾐﾁｮｳ","prefecture":"広島県","city":"三原市","street":"小泉町"},{"zipCode":"7292251","prefectureKana":"ﾋﾛｼﾏｹﾝ","cityKana":"ﾐﾊﾗｼ","streetKana":"ｻｲｻﾞｷｸﾜｷ","prefecture":"広島県","city":"三原市","street":"幸崎久和喜"},{"zipCode":"7292252","prefectureKana":"ﾋﾛｼﾏｹﾝ","cityKana":"ﾐﾊﾗｼ","streetKana":"ｻｲｻﾞｷﾉｳｼﾞ","prefecture":"広島県","city":"三原市","street":"幸崎能地"},{"zipCode":"7292253","prefectureKana":"ﾋﾛｼﾏｹﾝ","cityKana":"ﾐﾊﾗｼ","streetKana":"ｻｲｻﾞｷﾜﾀｾ","prefecture":"広島県","city":"三原市","street":"幸崎渡瀬"},{"zipCode":"7292251","prefectureKana":"ﾋﾛｼﾏｹﾝ","cityKana":"ﾐﾊﾗｼ","streetKana":"ｻｲｻﾞｷﾁｮｳｸﾜｷ","prefecture":"広島県","city":"三原市","street":"幸崎町久和喜"},{"zipCode":"7292252","prefectureKana":"ﾋﾛｼﾏｹﾝ","cityKana":"ﾐﾊﾗｼ","streetKana":"ｻｲｻﾞｷﾁｮｳﾉｳｼﾞ","prefecture":"広島県","city":"三原市","street":"幸崎町能地"},{"zipCode":"7292253","prefectureKana":"ﾋﾛｼﾏｹﾝ","cityKana":"ﾐﾊﾗｼ","streetKana":"ｻｲｻﾞｷﾁｮｳﾜﾀｾ","prefecture":"広島県","city":"三原市","street":"幸崎町渡瀬"},{"zipCode":"7290414","prefectureKana":"ﾋﾛｼﾏｹﾝ","cityKana":"ﾐﾊﾗｼ","streetKana":"ｼﾓｷﾀｶﾞﾀ","prefecture":"広島県","city":"三原市","street":"下北方"},{"zipCode":"7291212","prefectureKana":"ﾋﾛｼﾏｹﾝ","cityKana":"ﾐﾊﾗｼ","streetKana":"ﾀﾞｲﾜﾁｮｳｳﾊﾞｶﾞﾊﾗ","prefecture":"広島県","city":"三原市","street":"大和町姥ケ原"},{"zipCode":"7291323","prefectureKana":"ﾋﾛｼﾏｹﾝ","cityKana":"ﾐﾊﾗｼ","streetKana":"ﾀﾞｲﾜﾁｮｳｵｵｸﾞ","prefecture":"広島県","city":"三原市","street":"大和町大具"},{"zipCode":"7291211","prefectureKana":"ﾋﾛｼﾏｹﾝ","cityKana":"ﾐﾊﾗｼ","streetKana":"ﾀﾞｲﾜﾁｮｳｵｵｸﾞｻ","prefecture":"広島県","city":"三原市","street":"大和町大草"},{"zipCode":"7291332","prefectureKana":"ﾋﾛｼﾏｹﾝ","cityKana":"ﾐﾊﾗｼ","streetKana":"ﾀﾞｲﾜﾁｮｳｶﾐｸﾞｻｲ","prefecture":"広島県","city":"三原市","street":"大和町上草井"},{"zipCode":"7291405","prefectureKana":"ﾋﾛｼﾏｹﾝ","cityKana":"ﾐﾊﾗｼ","streetKana":"ﾀﾞｲﾜﾁｮｳｶﾐﾄｸﾗ","prefecture":"広島県","city":"三原市","street":"大和町上徳良"},{"zipCode":"7291401","prefectureKana":"ﾋﾛｼﾏｹﾝ","cityKana":"ﾐﾊﾗｼ","streetKana":"ﾀﾞｲﾜﾁｮｳｸﾗﾑﾈ","prefecture":"広島県","city":"三原市","street":"大和町蔵宗"},{"zipCode":"7291402","prefectureKana":"ﾋﾛｼﾏｹﾝ","cityKana":"ﾐﾊﾗｼ","streetKana":"ﾀﾞｲﾜﾁｮｳｼﾉ","prefecture":"広島県","city":"三原市","street":"大和町篠"},{"zipCode":"7291333","prefectureKana":"ﾋﾛｼﾏｹﾝ","cityKana":"ﾐﾊﾗｼ","streetKana":"ﾀﾞｲﾜﾁｮｳｼﾓｸﾞｻｲ","prefecture":"広島県","city":"三原市","street":"大和町下草井"},{"zipCode":"7291406","prefectureKana":"ﾋﾛｼﾏｹﾝ","cityKana":"ﾐﾊﾗｼ","streetKana":"ﾀﾞｲﾜﾁｮｳｼﾓﾄｸﾗ","prefecture":"広島県","city":"三原市","street":"大和町下徳良"},{"zipCode":"7291403","prefectureKana":"ﾋﾛｼﾏｹﾝ","cityKana":"ﾐﾊﾗｼ","streetKana":"ﾀﾞｲﾜﾁｮｳﾊｲﾊﾞﾗ","prefecture":"広島県","city":"三原市","street":"大和町萩原"},{"zipCode":"7291322","prefectureKana":"ﾋﾛｼﾏｹﾝ","cityKana":"ﾐﾊﾗｼ","streetKana":"ﾀﾞｲﾜﾁｮｳﾊｺｶﾞﾜ","prefecture":"広島県","city":"三原市","street":"大和町箱川"},{"zipCode":"7291213","prefectureKana":"ﾋﾛｼﾏｹﾝ","cityKana":"ﾐﾊﾗｼ","streetKana":"ﾀﾞｲﾜﾁｮｳﾋﾗｻｶ","prefecture":"広島県","city":"三原市","street":"大和町平坂"},{"zipCode":"7291404","prefectureKana":"ﾋﾛｼﾏｹﾝ","cityKana":"ﾐﾊﾗｼ","streetKana":"ﾀﾞｲﾜﾁｮｳﾌｸﾀﾞ","prefecture":"広島県","city":"三原市","street":"大和町福田"},{"zipCode":"7291331","prefectureKana":"ﾋﾛｼﾏｹﾝ","cityKana":"ﾐﾊﾗｼ","streetKana":"ﾀﾞｲﾜﾁｮｳﾑｸﾅｼ","prefecture":"広島県","city":"三原市","street":"大和町椋梨"},{"zipCode":"7291321","prefectureKana":"ﾋﾛｼﾏｹﾝ","cityKana":"ﾐﾊﾗｼ","streetKana":"ﾀﾞｲﾜﾁｮｳﾜｷ","prefecture":"広島県","city":"三原市","street":"大和町和木"},{"zipCode":"7290472","prefectureKana":"ﾋﾛｼﾏｹﾝ","cityKana":"ﾐﾊﾗｼ","streetKana":"ﾀｶｻｶﾁｮｳｼﾝﾗ","prefecture":"広島県","city":"三原市","street":"高坂町真良"},{"zipCode":"7290471","prefectureKana":"ﾋﾛｼﾏｹﾝ","cityKana":"ﾐﾊﾗｼ","streetKana":"ﾀｶｻｶﾁｮｳﾓﾄﾔﾏ","prefecture":"広島県","city":"三原市","street":"高坂町許山"},{"zipCode":"7290473","prefectureKana":"ﾋﾛｼﾏｹﾝ","cityKana":"ﾐﾊﾗｼ","streetKana":"ﾇﾀﾆｼﾁｮｳｵﾊﾞﾗ","prefecture":"広島県","city":"三原市","street":"沼田西町小原"},{"zipCode":"7290474","prefectureKana":"ﾋﾛｼﾏｹﾝ","cityKana":"ﾐﾊﾗｼ","streetKana":"ﾇﾀﾆｼﾁｮｳｿｳｼﾞｮｳ","prefecture":"広島県","city":"三原市","street":"沼田西町惣定"},{"zipCode":"7290475","prefectureKana":"ﾋﾛｼﾏｹﾝ","cityKana":"ﾐﾊﾗｼ","streetKana":"ﾇﾀﾆｼﾁｮｳﾏﾂｴ","prefecture":"広島県","city":"三原市","street":"沼田西町松江"},{"zipCode":"7290323","prefectureKana":"ﾋﾛｼﾏｹﾝ","cityKana":"ﾐﾊﾗｼ","streetKana":"ﾊﾁｶﾞﾐﾈﾁｮｳ","prefecture":"広島県","city":"三原市","street":"鉢ケ峰町"},{"zipCode":"7290418","prefectureKana":"ﾋﾛｼﾏｹﾝ","cityKana":"ﾐﾊﾗｼ","streetKana":"ﾎﾝｺﾞｳｷﾀ","prefecture":"広島県","city":"三原市","street":"本郷北"},{"zipCode":"7290417","prefectureKana":"ﾋﾛｼﾏｹﾝ","cityKana":"ﾐﾊﾗｼ","streetKana":"ﾎﾝｺﾞｳﾐﾅﾐ","prefecture":"広島県","city":"三原市","street":"本郷南"},{"zipCode":"7290415","prefectureKana":"ﾋﾛｼﾏｹﾝ","cityKana":"ﾐﾊﾗｼ","streetKana":"ﾎﾝｺﾞｳﾁｮｳｶﾐｷﾀｶﾞﾀ","prefecture":"広島県","city":"三原市","street":"本郷町上北方"},{"zipCode":"7290414","prefectureKana":"ﾋﾛｼﾏｹﾝ","cityKana":"ﾐﾊﾗｼ","streetKana":"ﾎﾝｺﾞｳﾁｮｳｼﾓｷﾀｶﾞﾀ","prefecture":"広島県","city":"三原市","street":"本郷町下北方"},{"zipCode":"7290416","prefectureKana":"ﾋﾛｼﾏｹﾝ","cityKana":"ﾐﾊﾗｼ","streetKana":"ﾎﾝｺﾞｳﾁｮｳｾﾞﾝﾆｭｳｼﾞ","prefecture":"広島県","city":"三原市","street":"本郷町善入寺"},{"zipCode":"7290411","prefectureKana":"ﾋﾛｼﾏｹﾝ","cityKana":"ﾐﾊﾗｼ","streetKana":"ﾎﾝｺﾞｳﾁｮｳﾌﾅｷ(ｿﾉﾀ)","prefecture":"広島県","city":"三原市","street":"本郷町船木（その他）"},{"zipCode":"7290412","prefectureKana":"ﾋﾛｼﾏｹﾝ","cityKana":"ﾐﾊﾗｼ","streetKana":"ﾎﾝｺﾞｳﾁｮｳﾎﾝｺﾞｳ","prefecture":"広島県","city":"三原市","street":"本郷町本郷"},{"zipCode":"7290413","prefectureKana":"ﾋﾛｼﾏｹﾝ","cityKana":"ﾐﾊﾗｼ","streetKana":"ﾎﾝｺﾞｳﾁｮｳﾐﾅﾐｶﾞﾀ","prefecture":"広島県","city":"三原市","street":"本郷町南方"},{"zipCode":"7290419","prefectureKana":"ﾋﾛｼﾏｹﾝ","cityKana":"ﾐﾊﾗｼ","streetKana":"ﾐﾅﾐｶﾞﾀ","prefecture":"広島県","city":"三原市","street":"南方"},{"zipCode":"7290141","prefectureKana":"ﾋﾛｼﾏｹﾝ","cityKana":"ｵﾉﾐﾁｼ","streetKana":"ﾀｶｽﾁｮｳ","prefecture":"広島県","city":"尾道市","street":"高須町"},{"zipCode":"7290142","prefectureKana":"ﾋﾛｼﾏｹﾝ","cityKana":"ｵﾉﾐﾁｼ","streetKana":"ﾆｼﾌｼﾞﾁｮｳ","prefecture":"広島県","city":"尾道市","street":"西藤町"},{"zipCode":"7290111","prefectureKana":"ﾋﾛｼﾏｹﾝ","cityKana":"ﾌｸﾔﾏｼ","streetKana":"ｲﾏﾂﾞﾁｮｳ","prefecture":"広島県","city":"福山市","street":"今津町"},{"zipCode":"7290112","prefectureKana":"ﾋﾛｼﾏｹﾝ","cityKana":"ﾌｸﾔﾏｼ","streetKana":"ｶﾑﾗﾁｮｳ","prefecture":"広島県","city":"福山市","street":"神村町"},{"zipCode":"7293111","prefectureKana":"ﾋﾛｼﾏｹﾝ","cityKana":"ﾌｸﾔﾏｼ","streetKana":"ｼﾝｲﾁﾁｮｳｶﾈﾏﾙ","prefecture":"広島県","city":"福山市","street":"新市町金丸"},{"zipCode":"7293106","prefectureKana":"ﾋﾛｼﾏｹﾝ","cityKana":"ﾌｸﾔﾏｼ","streetKana":"ｼﾝｲﾁﾁｮｳｶﾐﾔｽｲ","prefecture":"広島県","city":"福山市","street":"新市町上安井"},{"zipCode":"7293102","prefectureKana":"ﾋﾛｼﾏｹﾝ","cityKana":"ﾌｸﾔﾏｼ","streetKana":"ｼﾝｲﾁﾁｮｳｻｶﾞﾀ","prefecture":"広島県","city":"福山市","street":"新市町相方"},{"zipCode":"7293105","prefectureKana":"ﾋﾛｼﾏｹﾝ","cityKana":"ﾌｸﾔﾏｼ","streetKana":"ｼﾝｲﾁﾁｮｳｼﾓﾔｽｲ","prefecture":"広島県","city":"福山市","street":"新市町下安井"},{"zipCode":"7293103","prefectureKana":"ﾋﾛｼﾏｹﾝ","cityKana":"ﾌｸﾔﾏｼ","streetKana":"ｼﾝｲﾁﾁｮｳｼﾝｲﾁ","prefecture":"広島県","city":"福山市","street":"新市町新市"},{"zipCode":"7293107","prefectureKana":"ﾋﾛｼﾏｹﾝ","cityKana":"ﾌｸﾔﾏｼ","streetKana":"ｼﾝｲﾁﾁｮｳﾂﾈ","prefecture":"広島県","city":"福山市","street":"新市町常"},{"zipCode":"7293101","prefectureKana":"ﾋﾛｼﾏｹﾝ","cityKana":"ﾌｸﾔﾏｼ","streetKana":"ｼﾝｲﾁﾁｮｳﾄﾃﾞ","prefecture":"広島県","city":"福山市","street":"新市町戸手"},{"zipCode":"7293112","prefectureKana":"ﾋﾛｼﾏｹﾝ","cityKana":"ﾌｸﾔﾏｼ","streetKana":"ｼﾝｲﾁﾁｮｳﾌｼﾞｵ","prefecture":"広島県","city":"福山市","street":"新市町藤尾"},{"zipCode":"7293104","prefectureKana":"ﾋﾛｼﾏｹﾝ","cityKana":"ﾌｸﾔﾏｼ","streetKana":"ｼﾝｲﾁﾁｮｳﾐﾔｳﾁ","prefecture":"広島県","city":"福山市","street":"新市町宮内"},{"zipCode":"7290106","prefectureKana":"ﾋﾛｼﾏｹﾝ","cityKana":"ﾌｸﾔﾏｼ","streetKana":"ﾀｶﾆｼﾁｮｳ","prefecture":"広島県","city":"福山市","street":"高西町"},{"zipCode":"7290101","prefectureKana":"ﾋﾛｼﾏｹﾝ","cityKana":"ﾌｸﾔﾏｼ","streetKana":"ﾀｶﾆｼﾁｮｳｶﾜｼﾞﾘ","prefecture":"広島県","city":"福山市","street":"高西町川尻"},{"zipCode":"7290102","prefectureKana":"ﾋﾛｼﾏｹﾝ","cityKana":"ﾌｸﾔﾏｼ","streetKana":"ﾀｶﾆｼﾁｮｳｻﾅﾀﾞ","prefecture":"広島県","city":"福山市","street":"高西町真田"},{"zipCode":"7290103","prefectureKana":"ﾋﾛｼﾏｹﾝ","cityKana":"ﾌｸﾔﾏｼ","streetKana":"ﾀｶﾆｼﾁｮｳﾐﾅﾐ","prefecture":"広島県","city":"福山市","street":"高西町南"},{"zipCode":"7290251","prefectureKana":"ﾋﾛｼﾏｹﾝ","cityKana":"ﾌｸﾔﾏｼ","streetKana":"ﾋｶﾞｼﾑﾗﾁｮｳ","prefecture":"広島県","city":"福山市","street":"東村町"},{"zipCode":"7290252","prefectureKana":"ﾋﾛｼﾏｹﾝ","cityKana":"ﾌｸﾔﾏｼ","streetKana":"ﾎﾝｺﾞｳﾁｮｳ","prefecture":"広島県","city":"福山市","street":"本郷町"},{"zipCode":"7290104","prefectureKana":"ﾋﾛｼﾏｹﾝ","cityKana":"ﾌｸﾔﾏｼ","streetKana":"ﾏﾂﾅｶﾞﾁｮｳ","prefecture":"広島県","city":"福山市","street":"松永町"},{"zipCode":"7290115","prefectureKana":"ﾋﾛｼﾏｹﾝ","cityKana":"ﾌｸﾔﾏｼ","streetKana":"ﾐﾅﾐｲﾏﾂﾞﾁｮｳ","prefecture":"広島県","city":"福山市","street":"南今津町"},{"zipCode":"7290105","prefectureKana":"ﾋﾛｼﾏｹﾝ","cityKana":"ﾌｸﾔﾏｼ","streetKana":"ﾐﾅﾐﾏﾂﾅｶﾞﾁｮｳ","prefecture":"広島県","city":"福山市","street":"南松永町"},{"zipCode":"7290113","prefectureKana":"ﾋﾛｼﾏｹﾝ","cityKana":"ﾌｸﾔﾏｼ","streetKana":"ﾐﾔﾏｴﾁｮｳ","prefecture":"広島県","city":"福山市","street":"宮前町"},{"zipCode":"7290114","prefectureKana":"ﾋﾛｼﾏｹﾝ","cityKana":"ﾌｸﾔﾏｼ","streetKana":"ﾔﾅｲﾂﾞﾁｮｳ","prefecture":"広島県","city":"福山市","street":"柳津町"},{"zipCode":"7293212","prefectureKana":"ﾋﾛｼﾏｹﾝ","cityKana":"ﾌﾁｭｳｼ","streetKana":"ｱｼﾞﾁｮｳ","prefecture":"広島県","city":"府中市","street":"阿字町"},{"zipCode":"7293221","prefectureKana":"ﾋﾛｼﾏｹﾝ","cityKana":"ﾌﾁｭｳｼ","streetKana":"ｶﾜｻﾁｮｳ","prefecture":"広島県","city":"府中市","street":"河佐町"},{"zipCode":"7293211","prefectureKana":"ﾋﾛｼﾏｹﾝ","cityKana":"ﾌﾁｭｳｼ","streetKana":"ｷﾉﾔﾏﾁｮｳ","prefecture":"広島県","city":"府中市","street":"木野山町"},{"zipCode":"7293222","prefectureKana":"ﾋﾛｼﾏｹﾝ","cityKana":"ﾌﾁｭｳｼ","streetKana":"ｸｻﾁｮｳ","prefecture":"広島県","city":"府中市","street":"久佐町"},{"zipCode":"7293405","prefectureKana":"ﾋﾛｼﾏｹﾝ","cityKana":"ﾌﾁｭｳｼ","streetKana":"ｼﾞｮｳｹﾞﾁｮｳｱﾘﾌｸ","prefecture":"広島県","city":"府中市","street":"上下町有福"},{"zipCode":"7293411","prefectureKana":"ﾋﾛｼﾏｹﾝ","cityKana":"ﾌﾁｭｳｼ","streetKana":"ｼﾞｮｳｹﾞﾁｮｳｲﾅｶﾞ","prefecture":"広島県","city":"府中市","street":"上下町井永"},{"zipCode":"7293412","prefectureKana":"ﾋﾛｼﾏｹﾝ","cityKana":"ﾌﾁｭｳｼ","streetKana":"ｼﾞｮｳｹﾞﾁｮｳｵｶﾞﾔ","prefecture":"広島県","city":"府中市","street":"上下町岡屋"},{"zipCode":"7293401","prefectureKana":"ﾋﾛｼﾏｹﾝ","cityKana":"ﾌﾁｭｳｼ","streetKana":"ｼﾞｮｳｹﾞﾁｮｳｵﾂﾞｶ","prefecture":"広島県","city":"府中市","street":"上下町小塚"},{"zipCode":"7293422","prefectureKana":"ﾋﾛｼﾏｹﾝ","cityKana":"ﾌﾁｭｳｼ","streetKana":"ｼﾞｮｳｹﾞﾁｮｳｸﾆﾄﾞﾒ","prefecture":"広島県","city":"府中市","street":"上下町国留"},{"zipCode":"7293402","prefectureKana":"ﾋﾛｼﾏｹﾝ","cityKana":"ﾌﾁｭｳｼ","streetKana":"ｼﾞｮｳｹﾞﾁｮｳｺﾎﾘ","prefecture":"広島県","city":"府中市","street":"上下町小堀"},{"zipCode":"7293414","prefectureKana":"ﾋﾛｼﾏｹﾝ","cityKana":"ﾌﾁｭｳｼ","streetKana":"ｼﾞｮｳｹﾞﾁｮｳｻｸﾗ","prefecture":"広島県","city":"府中市","street":"上下町佐倉"},{"zipCode":"7293403","prefectureKana":"ﾋﾛｼﾏｹﾝ","cityKana":"ﾌﾁｭｳｼ","streetKana":"ｼﾞｮｳｹﾞﾁｮｳｼﾅﾐ","prefecture":"広島県","city":"府中市","street":"上下町階見"},{"zipCode":"7293431","prefectureKana":"ﾋﾛｼﾏｹﾝ","cityKana":"ﾌﾁｭｳｼ","streetKana":"ｼﾞｮｳｹﾞﾁｮｳｼﾞｮｳｹﾞ","prefecture":"広島県","city":"府中市","street":"上下町上下"},{"zipCode":"7293421","prefectureKana":"ﾋﾛｼﾏｹﾝ","cityKana":"ﾌﾁｭｳｼ","streetKana":"ｼﾞｮｳｹﾞﾁｮｳﾌｶｴ","prefecture":"広島県","city":"府中市","street":"上下町深江"},{"zipCode":"7293404","prefectureKana":"ﾋﾛｼﾏｹﾝ","cityKana":"ﾌﾁｭｳｼ","streetKana":"ｼﾞｮｳｹﾞﾁｮｳﾌﾀﾓﾘ","prefecture":"広島県","city":"府中市","street":"上下町二森"},{"zipCode":"7293424","prefectureKana":"ﾋﾛｼﾏｹﾝ","cityKana":"ﾌﾁｭｳｼ","streetKana":"ｼﾞｮｳｹﾞﾁｮｳﾏﾂｻｷ","prefecture":"広島県","city":"府中市","street":"上下町松崎"},{"zipCode":"7293413","prefectureKana":"ﾋﾛｼﾏｹﾝ","cityKana":"ﾌﾁｭｳｼ","streetKana":"ｼﾞｮｳｹﾞﾁｮｳﾐｽﾞﾅｶﾞ","prefecture":"広島県","city":"府中市","street":"上下町水永"},{"zipCode":"7293415","prefectureKana":"ﾋﾛｼﾏｹﾝ","cityKana":"ﾌﾁｭｳｼ","streetKana":"ｼﾞｮｳｹﾞﾁｮｳﾔﾀﾀﾞ","prefecture":"広島県","city":"府中市","street":"上下町矢多田"},{"zipCode":"7293423","prefectureKana":"ﾋﾛｼﾏｹﾝ","cityKana":"ﾌﾁｭｳｼ","streetKana":"ｼﾞｮｳｹﾞﾁｮｳﾔﾉ","prefecture":"広島県","city":"府中市","street":"上下町矢野"},{"zipCode":"7293201","prefectureKana":"ﾋﾛｼﾏｹﾝ","cityKana":"ﾌﾁｭｳｼ","streetKana":"ﾄﾏｽﾁｮｳ","prefecture":"広島県","city":"府中市","street":"斗升町"},{"zipCode":"7293202","prefectureKana":"ﾋﾛｼﾏｹﾝ","cityKana":"ﾌﾁｭｳｼ","streetKana":"ﾑｶﾊﾞｷﾁｮｳ","prefecture":"広島県","city":"府中市","street":"行縢町"},{"zipCode":"7296335","prefectureKana":"ﾋﾛｼﾏｹﾝ","cityKana":"ﾐﾖｼｼ","streetKana":"ｱｷﾏﾁ","prefecture":"広島県","city":"三次市","street":"秋町"},{"zipCode":"7296212","prefectureKana":"ﾋﾛｼﾏｹﾝ","cityKana":"ﾐﾖｼｼ","streetKana":"ｲﾄｲﾏﾁ","prefecture":"広島県","city":"三次市","street":"糸井町"},{"zipCode":"7296215","prefectureKana":"ﾋﾛｼﾏｹﾝ","cityKana":"ﾐﾖｼｼ","streetKana":"ｴﾀｶﾜﾉｳﾁﾏﾁ","prefecture":"広島県","city":"三次市","street":"江田川之内町"},{"zipCode":"7296211","prefectureKana":"ﾋﾛｼﾏｹﾝ","cityKana":"ﾐﾖｼｼ","streetKana":"ｵｵﾀﾞｺｳﾏﾁ","prefecture":"広島県","city":"三次市","street":"大田幸町"},{"zipCode":"7296334","prefectureKana":"ﾋﾛｼﾏｹﾝ","cityKana":"ﾐﾖｼｼ","streetKana":"ｶﾐｶﾜﾀﾁﾏﾁ","prefecture":"広島県","city":"三次市","street":"上川立町"},{"zipCode":"7296332","prefectureKana":"ﾋﾛｼﾏｹﾝ","cityKana":"ﾐﾖｼｼ","streetKana":"ｶﾐｼﾜﾁﾏﾁ","prefecture":"広島県","city":"三次市","street":"上志和地町"},{"zipCode":"7294223","prefectureKana":"ﾋﾛｼﾏｹﾝ","cityKana":"ﾐﾖｼｼ","streetKana":"ｷｻﾁｮｳｳﾂﾞｲ","prefecture":"広島県","city":"三次市","street":"吉舎町雲通"},{"zipCode":"7294205","prefectureKana":"ﾋﾛｼﾏｹﾝ","cityKana":"ﾐﾖｼｼ","streetKana":"ｷｻﾁｮｳｶｲﾀﾞﾊﾗ","prefecture":"広島県","city":"三次市","street":"吉舎町海田原"},{"zipCode":"7294202","prefectureKana":"ﾋﾛｼﾏｹﾝ","cityKana":"ﾐﾖｼｼ","streetKana":"ｷｻﾁｮｳｶﾐﾔｽﾀﾞ","prefecture":"広島県","city":"三次市","street":"吉舎町上安田"},{"zipCode":"7294211","prefectureKana":"ﾋﾛｼﾏｹﾝ","cityKana":"ﾐﾖｼｼ","streetKana":"ｷｻﾁｮｳｷｻ","prefecture":"広島県","city":"三次市","street":"吉舎町吉舎"},{"zipCode":"7294226","prefectureKana":"ﾋﾛｼﾏｹﾝ","cityKana":"ﾐﾖｼｼ","streetKana":"ｷｻﾁｮｳｷｻｶﾜﾉｳﾁ","prefecture":"広島県","city":"三次市","street":"吉舎町吉舎川之内"},{"zipCode":"7294221","prefectureKana":"ﾋﾛｼﾏｹﾝ","cityKana":"ﾐﾖｼｼ","streetKana":"ｷｻﾁｮｳｷﾖﾂﾅ","prefecture":"広島県","city":"三次市","street":"吉舎町清綱"},{"zipCode":"7294207","prefectureKana":"ﾋﾛｼﾏｹﾝ","cityKana":"ﾐﾖｼｼ","streetKana":"ｷｻﾁｮｳｼｷｼﾞ","prefecture":"広島県","city":"三次市","street":"吉舎町敷地"},{"zipCode":"7294201","prefectureKana":"ﾋﾛｼﾏｹﾝ","cityKana":"ﾐﾖｼｼ","streetKana":"ｷｻﾁｮｳﾁﾜ","prefecture":"広島県","city":"三次市","street":"吉舎町知和"},{"zipCode":"7294224","prefectureKana":"ﾋﾛｼﾏｹﾝ","cityKana":"ﾐﾖｼｼ","streetKana":"ｷｻﾁｮｳﾂｼﾞ","prefecture":"広島県","city":"三次市","street":"吉舎町辻"},{"zipCode":"7294225","prefectureKana":"ﾋﾛｼﾏｹﾝ","cityKana":"ﾐﾖｼｼ","streetKana":"ｷｻﾁｮｳﾄｸｲﾁ","prefecture":"広島県","city":"三次市","street":"吉舎町徳市"},{"zipCode":"7294227","prefectureKana":"ﾋﾛｼﾏｹﾝ","cityKana":"ﾐﾖｼｼ","streetKana":"ｷｻﾁｮｳﾋﾉｷ","prefecture":"広島県","city":"三次市","street":"吉舎町檜"},{"zipCode":"7294222","prefectureKana":"ﾋﾛｼﾏｹﾝ","cityKana":"ﾐﾖｼｼ","streetKana":"ｷｻﾁｮｳﾏﾙﾀﾞ","prefecture":"広島県","city":"三次市","street":"吉舎町丸田"},{"zipCode":"7294204","prefectureKana":"ﾋﾛｼﾏｹﾝ","cityKana":"ﾐﾖｼｼ","streetKana":"ｷｻﾁｮｳﾐﾀﾏ","prefecture":"広島県","city":"三次市","street":"吉舎町三玉"},{"zipCode":"7294206","prefectureKana":"ﾋﾛｼﾏｹﾝ","cityKana":"ﾐﾖｼｼ","streetKana":"ｷｻﾁｮｳﾔｲ","prefecture":"広島県","city":"三次市","street":"吉舎町矢井"},{"zipCode":"7294203","prefectureKana":"ﾋﾛｼﾏｹﾝ","cityKana":"ﾐﾖｼｼ","streetKana":"ｷｻﾁｮｳﾔｽﾀﾞ","prefecture":"広島県","city":"三次市","street":"吉舎町安田"},{"zipCode":"7294208","prefectureKana":"ﾋﾛｼﾏｹﾝ","cityKana":"ﾐﾖｼｼ","streetKana":"ｷｻﾁｮｳﾔﾉﾁ","prefecture":"広島県","city":"三次市","street":"吉舎町矢野地"},{"zipCode":"7296204","prefectureKana":"ﾋﾛｼﾏｹﾝ","cityKana":"ﾐﾖｼｼ","streetKana":"ｷﾉﾘﾏﾁ","prefecture":"広島県","city":"三次市","street":"木乗町"},{"zipCode":"7294106","prefectureKana":"ﾋﾛｼﾏｹﾝ","cityKana":"ﾐﾖｼｼ","streetKana":"ｺｳﾇﾁｮｳｱﾘﾀﾞ","prefecture":"広島県","city":"三次市","street":"甲奴町有田"},{"zipCode":"7294104","prefectureKana":"ﾋﾛｼﾏｹﾝ","cityKana":"ﾐﾖｼｼ","streetKana":"ｺｳﾇﾁｮｳｳｶﾞ","prefecture":"広島県","city":"三次市","street":"甲奴町宇賀"},{"zipCode":"7294105","prefectureKana":"ﾋﾛｼﾏｹﾝ","cityKana":"ﾐﾖｼｼ","streetKana":"ｺｳﾇﾁｮｳｶｼﾞﾀ","prefecture":"広島県","city":"三次市","street":"甲奴町梶田"},{"zipCode":"7294113","prefectureKana":"ﾋﾛｼﾏｹﾝ","cityKana":"ﾐﾖｼｼ","streetKana":"ｺｳﾇﾁｮｳﾀﾛｳﾏﾙ","prefecture":"広島県","city":"三次市","street":"甲奴町太郎丸"},{"zipCode":"7294102","prefectureKana":"ﾋﾛｼﾏｹﾝ","cityKana":"ﾐﾖｼｼ","streetKana":"ｺｳﾇﾁｮｳﾆｼﾉ","prefecture":"広島県","city":"三次市","street":"甲奴町西野"},{"zipCode":"7294112","prefectureKana":"ﾋﾛｼﾏｹﾝ","cityKana":"ﾐﾖｼｼ","streetKana":"ｺｳﾇﾁｮｳﾇｸﾕ","prefecture":"広島県","city":"三次市","street":"甲奴町抜湯"},{"zipCode":"7294103","prefectureKana":"ﾋﾛｼﾏｹﾝ","cityKana":"ﾐﾖｼｼ","streetKana":"ｺｳﾇﾁｮｳﾋﾁ","prefecture":"広島県","city":"三次市","street":"甲奴町小童"},{"zipCode":"7294111","prefectureKana":"ﾋﾛｼﾏｹﾝ","cityKana":"ﾐﾖｼｼ","streetKana":"ｺｳﾇﾁｮｳﾌｸﾀﾞ","prefecture":"広島県","city":"三次市","street":"甲奴町福田"},{"zipCode":"7294101","prefectureKana":"ﾋﾛｼﾏｹﾝ","cityKana":"ﾐﾖｼｼ","streetKana":"ｺｳﾇﾁｮｳﾎﾝｺﾞｳ","prefecture":"広島県","city":"三次市","street":"甲奴町本郷"},{"zipCode":"7296216","prefectureKana":"ﾋﾛｼﾏｹﾝ","cityKana":"ﾐﾖｼｼ","streetKana":"ｺﾀﾞｺｳﾏﾁ","prefecture":"広島県","city":"三次市","street":"小田幸町"},{"zipCode":"7296205","prefectureKana":"ﾋﾛｼﾏｹﾝ","cityKana":"ﾐﾖｼｼ","streetKana":"ｼｵﾏﾁ","prefecture":"広島県","city":"三次市","street":"塩町"},{"zipCode":"7296203","prefectureKana":"ﾋﾛｼﾏｹﾝ","cityKana":"ﾐﾖｼｼ","streetKana":"ｼｺｳﾏﾁ","prefecture":"広島県","city":"三次市","street":"志幸町"},{"zipCode":"7296333","prefectureKana":"ﾋﾛｼﾏｹﾝ","cityKana":"ﾐﾖｼｼ","streetKana":"ｼﾓｶﾜﾀﾁﾏﾁ","prefecture":"広島県","city":"三次市","street":"下川立町"},{"zipCode":"7296331","prefectureKana":"ﾋﾛｼﾏｹﾝ","cityKana":"ﾐﾖｼｼ","streetKana":"ｼﾓｼﾜﾁﾏﾁ","prefecture":"広島県","city":"三次市","street":"下志和地町"},{"zipCode":"7296214","prefectureKana":"ﾋﾛｼﾏｹﾝ","cityKana":"ﾐﾖｼｼ","streetKana":"ﾀｶｽｷﾞﾏﾁ","prefecture":"広島県","city":"三次市","street":"高杉町"},{"zipCode":"7294306","prefectureKana":"ﾋﾛｼﾏｹﾝ","cityKana":"ﾐﾖｼｼ","streetKana":"ﾐﾗｻｶﾁｮｳｵｶﾀﾞ","prefecture":"広島県","city":"三次市","street":"三良坂町岡田"},{"zipCode":"7294307","prefectureKana":"ﾋﾛｼﾏｹﾝ","cityKana":"ﾐﾖｼｼ","streetKana":"ﾐﾗｻｶﾁｮｳｶｲｾﾞ","prefecture":"広島県","city":"三次市","street":"三良坂町皆瀬"},{"zipCode":"7294308","prefectureKana":"ﾋﾛｼﾏｹﾝ","cityKana":"ﾐﾖｼｼ","streetKana":"ﾐﾗｻｶﾁｮｳﾀﾘ","prefecture":"広島県","city":"三次市","street":"三良坂町田利"},{"zipCode":"7294305","prefectureKana":"ﾋﾛｼﾏｹﾝ","cityKana":"ﾐﾖｼｼ","streetKana":"ﾐﾗｻｶﾁｮｳﾅｶﾞﾀ","prefecture":"広島県","city":"三次市","street":"三良坂町長田"},{"zipCode":"7294302","prefectureKana":"ﾋﾛｼﾏｹﾝ","cityKana":"ﾐﾖｼｼ","streetKana":"ﾐﾗｻｶﾁｮｳﾆｶ","prefecture":"広島県","city":"三次市","street":"三良坂町仁賀"},{"zipCode":"7294303","prefectureKana":"ﾋﾛｼﾏｹﾝ","cityKana":"ﾐﾖｼｼ","streetKana":"ﾐﾗｻｶﾁｮｳﾊｲﾂﾞｶ","prefecture":"広島県","city":"三次市","street":"三良坂町灰塚"},{"zipCode":"7294301","prefectureKana":"ﾋﾛｼﾏｹﾝ","cityKana":"ﾐﾖｼｼ","streetKana":"ﾐﾗｻｶﾁｮｳﾐﾂｷﾖ","prefecture":"広島県","city":"三次市","street":"三良坂町光清"},{"zipCode":"7294304","prefectureKana":"ﾋﾛｼﾏｹﾝ","cityKana":"ﾐﾖｼｼ","streetKana":"ﾐﾗｻｶﾁｮｳﾐﾗｻｶ","prefecture":"広島県","city":"三次市","street":"三良坂町三良坂"},{"zipCode":"7296613","prefectureKana":"ﾋﾛｼﾏｹﾝ","cityKana":"ﾐﾖｼｼ","streetKana":"ﾐﾜﾁｮｳｱﾘﾊﾗ","prefecture":"広島県","city":"三次市","street":"三和町有原"},{"zipCode":"7296701","prefectureKana":"ﾋﾛｼﾏｹﾝ","cityKana":"ﾐﾖｼｼ","streetKana":"ﾐﾜﾁｮｳｲｲﾀﾞ","prefecture":"広島県","city":"三次市","street":"三和町飯田"},{"zipCode":"7296615","prefectureKana":"ﾋﾛｼﾏｹﾝ","cityKana":"ﾐﾖｼｼ","streetKana":"ﾐﾜﾁｮｳｶﾐｲﾀｷ","prefecture":"広島県","city":"三次市","street":"三和町上板木"},{"zipCode":"7296701","prefectureKana":"ﾋﾛｼﾏｹﾝ","cityKana":"ﾐﾖｼｼ","streetKana":"ﾐﾜﾁｮｳｶﾐｲﾁ","prefecture":"広島県","city":"三次市","street":"三和町上壱"},{"zipCode":"7296612","prefectureKana":"ﾋﾛｼﾏｹﾝ","cityKana":"ﾐﾖｼｼ","streetKana":"ﾐﾜﾁｮｳｼｷﾅ(ﾎｺﾉｳﾈ)","prefecture":"広島県","city":"三次市","street":"三和町敷名（鉾畦）"},{"zipCode":"7296702","prefectureKana":"ﾋﾛｼﾏｹﾝ","cityKana":"ﾐﾖｼｼ","streetKana":"ﾐﾜﾁｮｳｼｷﾅ(ｿﾉﾀ)","prefecture":"広島県","city":"三次市","street":"三和町敷名（その他）"},{"zipCode":"7296612","prefectureKana":"ﾋﾛｼﾏｹﾝ","cityKana":"ﾐﾖｼｼ","streetKana":"ﾐﾜﾁｮｳｼﾓｲﾀｷ","prefecture":"広島県","city":"三次市","street":"三和町下板木"},{"zipCode":"7296616","prefectureKana":"ﾋﾛｼﾏｹﾝ","cityKana":"ﾐﾖｼｼ","streetKana":"ﾐﾜﾁｮｳﾀﾞｲﾘｷﾀﾞﾆ","prefecture":"広島県","city":"三次市","street":"三和町大力谷"},{"zipCode":"7296614","prefectureKana":"ﾋﾛｼﾏｹﾝ","cityKana":"ﾐﾖｼｼ","streetKana":"ﾐﾜﾁｮｳﾊﾃﾞﾆﾜ","prefecture":"広島県","city":"三次市","street":"三和町羽出庭"},{"zipCode":"7296611","prefectureKana":"ﾋﾛｼﾏｹﾝ","cityKana":"ﾐﾖｼｼ","streetKana":"ﾐﾜﾁｮｳﾌｸﾀﾞ","prefecture":"広島県","city":"三次市","street":"三和町福田"},{"zipCode":"7296202","prefectureKana":"ﾋﾛｼﾏｹﾝ","cityKana":"ﾐﾖｼｼ","streetKana":"ﾑｺｳｴﾀﾏﾁ","prefecture":"広島県","city":"三次市","street":"向江田町"},{"zipCode":"7296213","prefectureKana":"ﾋﾛｼﾏｹﾝ","cityKana":"ﾐﾖｼｼ","streetKana":"ﾒｸﾞﾘｶﾐﾏﾁ","prefecture":"広島県","city":"三次市","street":"廻神町"},{"zipCode":"7296201","prefectureKana":"ﾋﾛｼﾏｹﾝ","cityKana":"ﾐﾖｼｼ","streetKana":"ﾜﾁﾏﾁ","prefecture":"広島県","city":"三次市","street":"和知町"},{"zipCode":"7296143","prefectureKana":"ﾋﾛｼﾏｹﾝ","cityKana":"ｼｮｳﾊﾞﾗｼ","streetKana":"ｵﾋﾞｷﾁｮｳ","prefecture":"広島県","city":"庄原市","street":"尾引町"},{"zipCode":"7295812","prefectureKana":"ﾋﾛｼﾏｹﾝ","cityKana":"ｼｮｳﾊﾞﾗｼ","streetKana":"ｵﾖｳﾁｮｳ","prefecture":"広島県","city":"庄原市","street":"小用町"},{"zipCode":"7295813","prefectureKana":"ﾋﾛｼﾏｹﾝ","cityKana":"ｼｮｳﾊﾞﾗｼ","streetKana":"ｶﾜﾆｼﾁｮｳ","prefecture":"広島県","city":"庄原市","street":"川西町"},{"zipCode":"7296134","prefectureKana":"ﾋﾛｼﾏｹﾝ","cityKana":"ｼｮｳﾊﾞﾗｼ","streetKana":"ｷﾄﾞﾁｮｳ","prefecture":"広島県","city":"庄原市","street":"木戸町"},{"zipCode":"7296142","prefectureKana":"ﾋﾛｼﾏｹﾝ","cityKana":"ｼｮｳﾊﾞﾗｼ","streetKana":"ｺｳﾓﾁｮｳ","prefecture":"広島県","city":"庄原市","street":"高茂町"},{"zipCode":"7295733","prefectureKana":"ﾋﾛｼﾏｹﾝ","cityKana":"ｼｮｳﾊﾞﾗｼ","streetKana":"ｻｲｼﾞｮｳﾁｮｳｲﾘｴ","prefecture":"広島県","city":"庄原市","street":"西城町入江"},{"zipCode":"7295722","prefectureKana":"ﾋﾛｼﾏｹﾝ","cityKana":"ｼｮｳﾊﾞﾗｼ","streetKana":"ｻｲｼﾞｮｳﾁｮｳｵｵｻ","prefecture":"広島県","city":"庄原市","street":"西城町大佐"},{"zipCode":"7295744","prefectureKana":"ﾋﾛｼﾏｹﾝ","cityKana":"ｼｮｳﾊﾞﾗｼ","streetKana":"ｻｲｼﾞｮｳﾁｮｳｵｵﾔ","prefecture":"広島県","city":"庄原市","street":"西城町大屋"},{"zipCode":"7295603","prefectureKana":"ﾋﾛｼﾏｹﾝ","cityKana":"ｼｮｳﾊﾞﾗｼ","streetKana":"ｻｲｼﾞｮｳﾁｮｳｸﾏﾉ(ｶﾐｶｼﾞﾀﾞﾆ､ｼﾓｶｼﾞﾀﾞﾆ､ｵﾁｱｲ､ﾐｮｳｶﾞ)","prefecture":"広島県","city":"庄原市","street":"西城町熊野（上梶谷、下梶谷、落合、明賀）"},{"zipCode":"7295741","prefectureKana":"ﾋﾛｼﾏｹﾝ","cityKana":"ｼｮｳﾊﾞﾗｼ","streetKana":"ｻｲｼﾞｮｳﾁｮｳｸﾏﾉ(ｿﾉﾀ)","prefecture":"広島県","city":"庄原市","street":"西城町熊野（その他）"},{"zipCode":"7295732","prefectureKana":"ﾋﾛｼﾏｹﾝ","cityKana":"ｼｮｳﾊﾞﾗｼ","streetKana":"ｻｲｼﾞｮｳﾁｮｳｸﾘ","prefecture":"広島県","city":"庄原市","street":"西城町栗"},{"zipCode":"7295612","prefectureKana":"ﾋﾛｼﾏｹﾝ","cityKana":"ｼｮｳﾊﾞﾗｼ","streetKana":"ｻｲｼﾞｮｳﾁｮｳｺｳｵ","prefecture":"広島県","city":"庄原市","street":"西城町高尾"},{"zipCode":"7295731","prefectureKana":"ﾋﾛｼﾏｹﾝ","cityKana":"ｼｮｳﾊﾞﾗｼ","streetKana":"ｻｲｼﾞｮｳﾁｮｳｻｲｼﾞｮｳ","prefecture":"広島県","city":"庄原市","street":"西城町西城"},{"zipCode":"7295743","prefectureKana":"ﾋﾛｼﾏｹﾝ","cityKana":"ｼｮｳﾊﾞﾗｼ","streetKana":"ｻｲｼﾞｮｳﾁｮｳﾅｶｻﾞｺ","prefecture":"広島県","city":"庄原市","street":"西城町中迫"},{"zipCode":"7295742","prefectureKana":"ﾋﾛｼﾏｹﾝ","cityKana":"ｼｮｳﾊﾞﾗｼ","streetKana":"ｻｲｼﾞｮｳﾁｮｳﾅｶﾉ","prefecture":"広島県","city":"庄原市","street":"西城町中野"},{"zipCode":"7295613","prefectureKana":"ﾋﾛｼﾏｹﾝ","cityKana":"ｼｮｳﾊﾞﾗｼ","streetKana":"ｻｲｼﾞｮｳﾁｮｳﾊｯﾄﾘ(ﾐｮｳｶﾞ､ｽｷﾞﾉﾊﾗ､ｵﾁｱｲｴｷﾏｴ､ｲｼﾂﾞｶ､ﾆｼﾞｭｳｻﾞｶ)","prefecture":"広島県","city":"庄原市","street":"西城町八鳥（明賀、杉ノ原、落合駅前、石塚、二重坂）"},{"zipCode":"7295721","prefectureKana":"ﾋﾛｼﾏｹﾝ","cityKana":"ｼｮｳﾊﾞﾗｼ","streetKana":"ｻｲｼﾞｮｳﾁｮｳﾊｯﾄﾘ(ｿﾉﾀ)","prefecture":"広島県","city":"庄原市","street":"西城町八鳥（その他）"},{"zipCode":"7295601","prefectureKana":"ﾋﾛｼﾏｹﾝ","cityKana":"ｼｮｳﾊﾞﾗｼ","streetKana":"ｻｲｼﾞｮｳﾁｮｳﾋﾄﾄﾊﾞﾗ","prefecture":"広島県","city":"庄原市","street":"西城町小鳥原"},{"zipCode":"7295723","prefectureKana":"ﾋﾛｼﾏｹﾝ","cityKana":"ｼｮｳﾊﾞﾗｼ","streetKana":"ｻｲｼﾞｮｳﾁｮｳﾋﾗｺ","prefecture":"広島県","city":"庄原市","street":"西城町平子"},{"zipCode":"7295745","prefectureKana":"ﾋﾛｼﾏｹﾝ","cityKana":"ｼｮｳﾊﾞﾗｼ","streetKana":"ｻｲｼﾞｮｳﾁｮｳﾌｸﾔﾏ","prefecture":"広島県","city":"庄原市","street":"西城町福山"},{"zipCode":"7295611","prefectureKana":"ﾋﾛｼﾏｹﾝ","cityKana":"ｼｮｳﾊﾞﾗｼ","streetKana":"ｻｲｼﾞｮｳﾁｮｳﾐｻｶ","prefecture":"広島県","city":"庄原市","street":"西城町三坂"},{"zipCode":"7295602","prefectureKana":"ﾋﾛｼﾏｹﾝ","cityKana":"ｼｮｳﾊﾞﾗｼ","streetKana":"ｻｲｼﾞｮｳﾁｮｳﾕｷ","prefecture":"広島県","city":"庄原市","street":"西城町油木"},{"zipCode":"7293721","prefectureKana":"ﾋﾛｼﾏｹﾝ","cityKana":"ｼｮｳﾊﾞﾗｼ","streetKana":"ｿｳﾘｮｳﾁｮｳｲﾅｸｻ","prefecture":"広島県","city":"庄原市","street":"総領町稲草"},{"zipCode":"7293712","prefectureKana":"ﾋﾛｼﾏｹﾝ","cityKana":"ｼｮｳﾊﾞﾗｼ","streetKana":"ｿｳﾘｮｳﾁｮｳｶﾐﾘｮｳｹ","prefecture":"広島県","city":"庄原市","street":"総領町上領家"},{"zipCode":"7293702","prefectureKana":"ﾋﾛｼﾏｹﾝ","cityKana":"ｼｮｳﾊﾞﾗｼ","streetKana":"ｿｳﾘｮｳﾁｮｳｶﾒﾀﾞﾆ","prefecture":"広島県","city":"庄原市","street":"総領町亀谷"},{"zipCode":"7293722","prefectureKana":"ﾋﾛｼﾏｹﾝ","cityKana":"ｼｮｳﾊﾞﾗｼ","streetKana":"ｿｳﾘｮｳﾁｮｳｷﾔ","prefecture":"広島県","city":"庄原市","street":"総領町木屋"},{"zipCode":"7293701","prefectureKana":"ﾋﾛｼﾏｹﾝ","cityKana":"ｼｮｳﾊﾞﾗｼ","streetKana":"ｿｳﾘｮｳﾁｮｳｸﾛﾒ","prefecture":"広島県","city":"庄原市","street":"総領町黒目"},{"zipCode":"7293711","prefectureKana":"ﾋﾛｼﾏｹﾝ","cityKana":"ｼｮｳﾊﾞﾗｼ","streetKana":"ｿｳﾘｮｳﾁｮｳｺﾞｶ","prefecture":"広島県","city":"庄原市","street":"総領町五箇"},{"zipCode":"7293703","prefectureKana":"ﾋﾛｼﾏｹﾝ","cityKana":"ｼｮｳﾊﾞﾗｼ","streetKana":"ｿｳﾘｮｳﾁｮｳｼﾓﾘｮｳｹ","prefecture":"広島県","city":"庄原市","street":"総領町下領家"},{"zipCode":"7293713","prefectureKana":"ﾋﾛｼﾏｹﾝ","cityKana":"ｼｮｳﾊﾞﾗｼ","streetKana":"ｿｳﾘｮｳﾁｮｳﾅｶﾘｮｳｹ","prefecture":"広島県","city":"庄原市","street":"総領町中領家"},{"zipCode":"7295811","prefectureKana":"ﾋﾛｼﾏｹﾝ","cityKana":"ｼｮｳﾊﾞﾗｼ","streetKana":"ﾀｶﾏﾁ","prefecture":"広島県","city":"庄原市","street":"高町"},{"zipCode":"7295127","prefectureKana":"ﾋﾛｼﾏｹﾝ","cityKana":"ｼｮｳﾊﾞﾗｼ","streetKana":"ﾄｳｼﾞｮｳﾁｮｳｱﾜﾀ","prefecture":"広島県","city":"庄原市","street":"東城町粟田"},{"zipCode":"7295128","prefectureKana":"ﾋﾛｼﾏｹﾝ","cityKana":"ｼｮｳﾊﾞﾗｼ","streetKana":"ﾄｳｼﾞｮｳﾁｮｳｳｹﾊﾞﾗ(ｵﾝｼﾞ､ﾅｶﾉﾀﾆ)","prefecture":"広島県","city":"庄原市","street":"東城町受原（隠地、中ノ谷）"},{"zipCode":"7295453","prefectureKana":"ﾋﾛｼﾏｹﾝ","cityKana":"ｼｮｳﾊﾞﾗｼ","streetKana":"ﾄｳｼﾞｮｳﾁｮｳｳｹﾊﾞﾗ(ｿﾉﾀ)","prefecture":"広島県","city":"庄原市","street":"東城町受原（その他）"},{"zipCode":"7295502","prefectureKana":"ﾋﾛｼﾏｹﾝ","cityKana":"ｼｮｳﾊﾞﾗｼ","streetKana":"ﾄｳｼﾞｮｳﾁｮｳｳﾂﾎﾞﾘ","prefecture":"広島県","city":"庄原市","street":"東城町内堀"},{"zipCode":"7295504","prefectureKana":"ﾋﾛｼﾏｹﾝ","cityKana":"ｼｮｳﾊﾞﾗｼ","streetKana":"ﾄｳｼﾞｮｳﾁｮｳｵｸﾞｼ","prefecture":"広島県","city":"庄原市","street":"東城町小串"},{"zipCode":"7295501","prefectureKana":"ﾋﾛｼﾏｹﾝ","cityKana":"ｼｮｳﾊﾞﾗｼ","streetKana":"ﾄｳｼﾞｮｳﾁｮｳｵﾇｶ","prefecture":"広島県","city":"庄原市","street":"東城町小奴可"},{"zipCode":"7295506","prefectureKana":"ﾋﾛｼﾏｹﾝ","cityKana":"ｼｮｳﾊﾞﾗｼ","streetKana":"ﾄｳｼﾞｮｳﾁｮｳｶﾀﾞﾆ","prefecture":"広島県","city":"庄原市","street":"東城町加谷"},{"zipCode":"7295454","prefectureKana":"ﾋﾛｼﾏｹﾝ","cityKana":"ｼｮｳﾊﾞﾗｼ","streetKana":"ﾄｳｼﾞｮｳﾁｮｳｶﾜﾄﾘ","prefecture":"広島県","city":"庄原市","street":"東城町川鳥"},{"zipCode":"7295125","prefectureKana":"ﾋﾛｼﾏｹﾝ","cityKana":"ｼｮｳﾊﾞﾗｼ","streetKana":"ﾄｳｼﾞｮｳﾁｮｳｶﾜﾆｼ","prefecture":"広島県","city":"庄原市","street":"東城町川西"},{"zipCode":"7295121","prefectureKana":"ﾋﾛｼﾏｹﾝ","cityKana":"ｼｮｳﾊﾞﾗｼ","streetKana":"ﾄｳｼﾞｮｳﾁｮｳｶﾜﾋｶﾞｼ","prefecture":"広島県","city":"庄原市","street":"東城町川東"},{"zipCode":"7295122","prefectureKana":"ﾋﾛｼﾏｹﾝ","cityKana":"ｼｮｳﾊﾞﾗｼ","streetKana":"ﾄｳｼﾞｮｳﾁｮｳｸｼﾛ","prefecture":"広島県","city":"庄原市","street":"東城町久代"},{"zipCode":"7295505","prefectureKana":"ﾋﾛｼﾏｹﾝ","cityKana":"ｼｮｳﾊﾞﾗｼ","streetKana":"ﾄｳｼﾞｮｳﾁｮｳｼｵﾊﾗ","prefecture":"広島県","city":"庄原市","street":"東城町塩原"},{"zipCode":"7295112","prefectureKana":"ﾋﾛｼﾏｹﾝ","cityKana":"ｼｮｳﾊﾞﾗｼ","streetKana":"ﾄｳｼﾞｮｳﾁｮｳｼﾝﾌｸｼﾛ","prefecture":"広島県","city":"庄原市","street":"東城町新福代"},{"zipCode":"7295131","prefectureKana":"ﾋﾛｼﾏｹﾝ","cityKana":"ｼｮｳﾊﾞﾗｼ","streetKana":"ﾄｳｼﾞｮｳﾁｮｳｼﾝﾒﾝ","prefecture":"広島県","city":"庄原市","street":"東城町新免"},{"zipCode":"7295452","prefectureKana":"ﾋﾛｼﾏｹﾝ","cityKana":"ｼｮｳﾊﾞﾗｼ","streetKana":"ﾄｳｼﾞｮｳﾁｮｳｽｹﾞ","prefecture":"広島県","city":"庄原市","street":"東城町菅"},{"zipCode":"7295241","prefectureKana":"ﾋﾛｼﾏｹﾝ","cityKana":"ｼｮｳﾊﾞﾗｼ","streetKana":"ﾄｳｼﾞｮｳﾁｮｳﾀｲｼｬｸｳﾔﾏ","prefecture":"広島県","city":"庄原市","street":"東城町帝釈宇山"},{"zipCode":"7295243","prefectureKana":"ﾋﾛｼﾏｹﾝ","cityKana":"ｼｮｳﾊﾞﾗｼ","streetKana":"ﾄｳｼﾞｮｳﾁｮｳﾀｲｼｬｸｼｼｭｳ","prefecture":"広島県","city":"庄原市","street":"東城町帝釈始終"},{"zipCode":"7295244","prefectureKana":"ﾋﾛｼﾏｹﾝ","cityKana":"ｼｮｳﾊﾞﾗｼ","streetKana":"ﾄｳｼﾞｮｳﾁｮｳﾀｲｼｬｸﾐﾄﾞ","prefecture":"広島県","city":"庄原市","street":"東城町帝釈未渡"},{"zipCode":"7295242","prefectureKana":"ﾋﾛｼﾏｹﾝ","cityKana":"ｼｮｳﾊﾞﾗｼ","streetKana":"ﾄｳｼﾞｮｳﾁｮｳﾀｲｼｬｸﾔﾏﾅｶ","prefecture":"広島県","city":"庄原市","street":"東城町帝釈山中"},{"zipCode":"7295451","prefectureKana":"ﾋﾛｼﾏｹﾝ","cityKana":"ｼｮｳﾊﾞﾗｼ","streetKana":"ﾄｳｼﾞｮｳﾁｮｳﾀｸﾞﾛ","prefecture":"広島県","city":"庄原市","street":"東城町田黒"},{"zipCode":"7295126","prefectureKana":"ﾋﾛｼﾏｹﾝ","cityKana":"ｼｮｳﾊﾞﾗｼ","streetKana":"ﾄｳｼﾞｮｳﾁｮｳﾀｹﾓﾘ","prefecture":"広島県","city":"庄原市","street":"東城町竹森"},{"zipCode":"7295503","prefectureKana":"ﾋﾛｼﾏｹﾝ","cityKana":"ｼｮｳﾊﾞﾗｼ","streetKana":"ﾄｳｼﾞｮｳﾁｮｳﾁﾄﾞﾘ","prefecture":"広島県","city":"庄原市","street":"東城町千鳥"},{"zipCode":"7295123","prefectureKana":"ﾋﾛｼﾏｹﾝ","cityKana":"ｼｮｳﾊﾞﾗｼ","streetKana":"ﾄｳｼﾞｮｳﾁｮｳﾄｳ","prefecture":"広島県","city":"庄原市","street":"東城町戸宇"},{"zipCode":"7295124","prefectureKana":"ﾋﾛｼﾏｹﾝ","cityKana":"ｼｮｳﾊﾞﾗｼ","streetKana":"ﾄｳｼﾞｮｳﾁｮｳﾄｳｼﾞｮｳ","prefecture":"広島県","city":"庄原市","street":"東城町東城"},{"zipCode":"7295111","prefectureKana":"ﾋﾛｼﾏｹﾝ","cityKana":"ｼｮｳﾊﾞﾗｼ","streetKana":"ﾄｳｼﾞｮｳﾁｮｳﾌｸｼﾛ","prefecture":"広島県","city":"庄原市","street":"東城町福代"},{"zipCode":"7295132","prefectureKana":"ﾋﾛｼﾏｹﾝ","cityKana":"ｼｮｳﾊﾞﾗｼ","streetKana":"ﾄｳｼﾞｮｳﾁｮｳﾐｻｶ","prefecture":"広島県","city":"庄原市","street":"東城町三坂"},{"zipCode":"7295456","prefectureKana":"ﾋﾛｼﾏｹﾝ","cityKana":"ｼｮｳﾊﾞﾗｼ","streetKana":"ﾄｳｼﾞｮｳﾁｮｳﾓﾘ","prefecture":"広島県","city":"庄原市","street":"東城町森"},{"zipCode":"7295455","prefectureKana":"ﾋﾛｼﾏｹﾝ","cityKana":"ｼｮｳﾊﾞﾗｼ","streetKana":"ﾄｳｼﾞｮｳﾁｮｳﾔｽﾀﾞ","prefecture":"広島県","city":"庄原市","street":"東城町保田"},{"zipCode":"7296133","prefectureKana":"ﾋﾛｼﾏｹﾝ","cityKana":"ｼｮｳﾊﾞﾗｼ","streetKana":"ﾄﾉｺﾞｳﾁﾁｮｳ","prefecture":"広島県","city":"庄原市","street":"殿垣内町"},{"zipCode":"7296144","prefectureKana":"ﾋﾛｼﾏｹﾝ","cityKana":"ｼｮｳﾊﾞﾗｼ","streetKana":"ﾍｲﾜﾁｮｳ","prefecture":"広島県","city":"庄原市","street":"平和町"},{"zipCode":"7296132","prefectureKana":"ﾋﾛｼﾏｹﾝ","cityKana":"ｼｮｳﾊﾞﾗｼ","streetKana":"ﾎﾝｺﾞｳﾁｮｳ","prefecture":"広島県","city":"庄原市","street":"本郷町"},{"zipCode":"7296141","prefectureKana":"ﾋﾛｼﾏｹﾝ","cityKana":"ｼｮｳﾊﾞﾗｼ","streetKana":"ﾐｽﾞｺｼﾁｮｳ","prefecture":"広島県","city":"庄原市","street":"水越町"},{"zipCode":"7296131","prefectureKana":"ﾋﾛｼﾏｹﾝ","cityKana":"ｼｮｳﾊﾞﾗｼ","streetKana":"ﾔﾏﾉｳﾁﾁｮｳ","prefecture":"広島県","city":"庄原市","street":"山内町"},{"zipCode":"7293306","prefectureKana":"ﾋﾛｼﾏｹﾝ","cityKana":"ｾﾗｸﾞﾝｾﾗﾁｮｳ","streetKana":"ｱｵﾁｶ","prefecture":"広島県","city":"世羅郡世羅町","street":"青近"},{"zipCode":"7293304","prefectureKana":"ﾋﾛｼﾏｹﾝ","cityKana":"ｾﾗｸﾞﾝｾﾗﾁｮｳ","streetKana":"ｱｶﾔ","prefecture":"広島県","city":"世羅郡世羅町","street":"赤屋"},{"zipCode":"7293307","prefectureKana":"ﾋﾛｼﾏｹﾝ","cityKana":"ｾﾗｸﾞﾝｾﾗﾁｮｳ","streetKana":"ｲｵ","prefecture":"広島県","city":"世羅郡世羅町","street":"伊尾"},{"zipCode":"7293301","prefectureKana":"ﾋﾛｼﾏｹﾝ","cityKana":"ｾﾗｸﾞﾝｾﾗﾁｮｳ","streetKana":"ｵﾀﾆ","prefecture":"広島県","city":"世羅郡世羅町","street":"小谷"},{"zipCode":"7296714","prefectureKana":"ﾋﾛｼﾏｹﾝ","cityKana":"ｾﾗｸﾞﾝｾﾗﾁｮｳ","streetKana":"ｶﾐﾂﾞﾀ","prefecture":"広島県","city":"世羅郡世羅町","street":"上津田"},{"zipCode":"7293302","prefectureKana":"ﾋﾛｼﾏｹﾝ","cityKana":"ｾﾗｸﾞﾝｾﾗﾁｮｳ","streetKana":"ｶﾜｼﾘ","prefecture":"広島県","city":"世羅郡世羅町","street":"川尻"},{"zipCode":"7296711","prefectureKana":"ﾋﾛｼﾏｹﾝ","cityKana":"ｾﾗｸﾞﾝｾﾗﾁｮｳ","streetKana":"ｸﾛｶﾞﾜ","prefecture":"広島県","city":"世羅郡世羅町","street":"黒川"},{"zipCode":"7296715","prefectureKana":"ﾋﾛｼﾏｹﾝ","cityKana":"ｾﾗｸﾞﾝｾﾗﾁｮｳ","streetKana":"ｼﾓﾂﾞﾀ","prefecture":"広島県","city":"世羅郡世羅町","street":"下津田"},{"zipCode":"7296713","prefectureKana":"ﾋﾛｼﾏｹﾝ","cityKana":"ｾﾗｸﾞﾝｾﾗﾁｮｳ","streetKana":"ﾅｶ","prefecture":"広島県","city":"世羅郡世羅町","street":"中"},{"zipCode":"7296716","prefectureKana":"ﾋﾛｼﾏｹﾝ","cityKana":"ｾﾗｸﾞﾝｾﾗﾁｮｳ","streetKana":"ﾅｶﾞﾀ","prefecture":"広島県","city":"世羅郡世羅町","street":"長田"},{"zipCode":"7293303","prefectureKana":"ﾋﾛｼﾏｹﾝ","cityKana":"ｾﾗｸﾞﾝｾﾗﾁｮｳ","streetKana":"ﾋｶﾞｼｳｴﾊﾗ","prefecture":"広島県","city":"世羅郡世羅町","street":"東上原"},{"zipCode":"7293305","prefectureKana":"ﾋﾛｼﾏｹﾝ","cityKana":"ｾﾗｸﾞﾝｾﾗﾁｮｳ","streetKana":"ﾍﾞｯｻｺ","prefecture":"広島県","city":"世羅郡世羅町","street":"別迫"},{"zipCode":"7296712","prefectureKana":"ﾋﾛｼﾏｹﾝ","cityKana":"ｾﾗｸﾞﾝｾﾗﾁｮｳ","streetKana":"ﾖｼﾜﾗ","prefecture":"広島県","city":"世羅郡世羅町","street":"吉原"},{"zipCode":"7293601","prefectureKana":"ﾋﾛｼﾏｹﾝ","cityKana":"ｼﾞﾝｾｷｸﾞﾝｼﾞﾝｾｷｺｳｹﾞﾝﾁｮｳ","streetKana":"ｱｲﾄﾞ","prefecture":"広島県","city":"神石郡神石高原町","street":"相渡"},{"zipCode":"7293512","prefectureKana":"ﾋﾛｼﾏｹﾝ","cityKana":"ｼﾞﾝｾｷｸﾞﾝｼﾞﾝｾｷｺｳｹﾞﾝﾁｮｳ","streetKana":"ｸｻｷﾞ","prefecture":"広島県","city":"神石郡神石高原町","street":"草木"},{"zipCode":"7293511","prefectureKana":"ﾋﾛｼﾏｹﾝ","cityKana":"ｼﾞﾝｾｷｸﾞﾝｼﾞﾝｾｷｺｳｹﾞﾝﾁｮｳ","streetKana":"ﾀｶﾐﾂ","prefecture":"広島県","city":"神石郡神石高原町","street":"高光"},{"zipCode":"7293514","prefectureKana":"ﾋﾛｼﾏｹﾝ","cityKana":"ｼﾞﾝｾｷｸﾞﾝｼﾞﾝｾｷｺｳｹﾞﾝﾁｮｳ","streetKana":"ﾀﾝﾄﾞｳ","prefecture":"広島県","city":"神石郡神石高原町","street":"田頭"},{"zipCode":"7293602","prefectureKana":"ﾋﾛｼﾏｹﾝ","cityKana":"ｼﾞﾝｾｷｸﾞﾝｼﾞﾝｾｷｺｳｹﾞﾝﾁｮｳ","streetKana":"ﾅｶﾞﾉ","prefecture":"広島県","city":"神石郡神石高原町","street":"永野"},{"zipCode":"7293515","prefectureKana":"ﾋﾛｼﾏｹﾝ","cityKana":"ｼﾞﾝｾｷｸﾞﾝｼﾞﾝｾｷｺｳｹﾞﾝﾁｮｳ","streetKana":"ﾌｸﾅｶﾞ","prefecture":"広島県","city":"神石郡神石高原町","street":"福永"},{"zipCode":"7293516","prefectureKana":"ﾋﾛｼﾏｹﾝ","cityKana":"ｼﾞﾝｾｷｸﾞﾝｼﾞﾝｾｷｺｳｹﾞﾝﾁｮｳ","streetKana":"ﾌﾙｶﾜ","prefecture":"広島県","city":"神石郡神石高原町","street":"古川"},{"zipCode":"7293513","prefectureKana":"ﾋﾛｼﾏｹﾝ","cityKana":"ｼﾞﾝｾｷｸﾞﾝｼﾞﾝｾｷｺｳｹﾞﾝﾁｮｳ","streetKana":"ﾏｷ","prefecture":"広島県","city":"神石郡神石高原町","street":"牧"}]