[{"zipCode":"7320000","prefectureKana":"ﾋﾛｼﾏｹﾝ","cityKana":"ﾋﾛｼﾏｼﾋｶﾞｼｸ","streetKana":"ｲｶﾆｹｲｻｲｶﾞﾅｲﾊﾞｱｲ","prefecture":"広島県","city":"広島市東区","street":"以下に掲載がない場合"},{"zipCode":"7320045","prefectureKana":"ﾋﾛｼﾏｹﾝ","cityKana":"ﾋﾛｼﾏｼﾋｶﾞｼｸ","streetKana":"ｱｹﾎﾞﾉ","prefecture":"広島県","city":"広島市東区","street":"曙"},{"zipCode":"7320054","prefectureKana":"ﾋﾛｼﾏｹﾝ","cityKana":"ﾋﾛｼﾏｼﾋｶﾞｼｸ","streetKana":"ｱﾀｺﾞﾏﾁ","prefecture":"広島県","city":"広島市東区","street":"愛宕町"},{"zipCode":"7320067","prefectureKana":"ﾋﾛｼﾏｹﾝ","cityKana":"ﾋﾛｼﾏｼﾋｶﾞｼｸ","streetKana":"ｳｼﾀｱｻﾋ","prefecture":"広島県","city":"広島市東区","street":"牛田旭"},{"zipCode":"7320068","prefectureKana":"ﾋﾛｼﾏｹﾝ","cityKana":"ﾋﾛｼﾏｼﾋｶﾞｼｸ","streetKana":"ｳｼﾀｼﾝﾏﾁ","prefecture":"広島県","city":"広島市東区","street":"牛田新町"},{"zipCode":"7320065","prefectureKana":"ﾋﾛｼﾏｹﾝ","cityKana":"ﾋﾛｼﾏｼﾋｶﾞｼｸ","streetKana":"ｳｼﾀﾅｶ","prefecture":"広島県","city":"広島市東区","street":"牛田中"},{"zipCode":"7320066","prefectureKana":"ﾋﾛｼﾏｹﾝ","cityKana":"ﾋﾛｼﾏｼﾋｶﾞｼｸ","streetKana":"ｳｼﾀﾎﾝﾏﾁ","prefecture":"広島県","city":"広島市東区","street":"牛田本町"},{"zipCode":"7320062","prefectureKana":"ﾋﾛｼﾏｹﾝ","cityKana":"ﾋﾛｼﾏｼﾋｶﾞｼｸ","streetKana":"ｳｼﾀﾜｾﾀﾞ","prefecture":"広島県","city":"広島市東区","street":"牛田早稲田"},{"zipCode":"7320063","prefectureKana":"ﾋﾛｼﾏｹﾝ","cityKana":"ﾋﾛｼﾏｼﾋｶﾞｼｸ","streetKana":"ｳｼﾀﾋｶﾞｼ","prefecture":"広島県","city":"広島市東区","street":"牛田東"},{"zipCode":"7320064","prefectureKana":"ﾋﾛｼﾏｹﾝ","cityKana":"ﾋﾛｼﾏｼﾋｶﾞｼｸ","streetKana":"ｳｼﾀﾐﾅﾐ","prefecture":"広島県","city":"広島市東区","street":"牛田南"},{"zipCode":"7320061","prefectureKana":"ﾋﾛｼﾏｹﾝ","cityKana":"ﾋﾛｼﾏｼﾋｶﾞｼｸ","streetKana":"ｳｼﾀﾔﾏ","prefecture":"広島県","city":"広島市東区","street":"牛田山"},{"zipCode":"7320031","prefectureKana":"ﾋﾛｼﾏｹﾝ","cityKana":"ﾋﾛｼﾏｼﾋｶﾞｼｸ","streetKana":"ｳﾏｷ","prefecture":"広島県","city":"広島市東区","street":"馬木"},{"zipCode":"7320035","prefectureKana":"ﾋﾛｼﾏｹﾝ","cityKana":"ﾋﾛｼﾏｼﾋｶﾞｼｸ","streetKana":"ｳﾏｷﾁｮｳ","prefecture":"広島県","city":"広島市東区","street":"馬木町"},{"zipCode":"7320046","prefectureKana":"ﾋﾛｼﾏｹﾝ","cityKana":"ﾋﾛｼﾏｼﾋｶﾞｼｸ","streetKana":"ｵﾅｶﾞﾋｶﾞｼ","prefecture":"広島県","city":"広島市東区","street":"尾長東"},{"zipCode":"7320047","prefectureKana":"ﾋﾛｼﾏｹﾝ","cityKana":"ﾋﾛｼﾏｼﾋｶﾞｼｸ","streetKana":"ｵﾅｶﾞﾆｼ","prefecture":"広島県","city":"広島市東区","street":"尾長西"},{"zipCode":"7320049","prefectureKana":"ﾋﾛｼﾏｹﾝ","cityKana":"ﾋﾛｼﾏｼﾋｶﾞｼｸ","streetKana":"ｵﾅｶﾞﾏﾁ","prefecture":"広島県","city":"広島市東区","street":"尾長町"},{"zipCode":"7320056","prefectureKana":"ﾋﾛｼﾏｹﾝ","cityKana":"ﾋﾛｼﾏｼﾋｶﾞｼｸ","streetKana":"ｶﾐｵｵｽｶﾞﾁｮｳ","prefecture":"広島県","city":"広島市東区","street":"上大須賀町"},{"zipCode":"7320032","prefectureKana":"ﾋﾛｼﾏｹﾝ","cityKana":"ﾋﾛｼﾏｼﾋｶﾞｼｸ","streetKana":"ｶﾐﾇｸｼﾅ","prefecture":"広島県","city":"広島市東区","street":"上温品"},{"zipCode":"7320022","prefectureKana":"ﾋﾛｼﾏｹﾝ","cityKana":"ﾋﾛｼﾏｼﾋｶﾞｼｸ","streetKana":"ﾅｶﾔﾏｶｶﾞﾐｶﾞｵｶ","prefecture":"広島県","city":"広島市東区","street":"中山鏡が丘"},{"zipCode":"7320027","prefectureKana":"ﾋﾛｼﾏｹﾝ","cityKana":"ﾋﾛｼﾏｼﾋｶﾞｼｸ","streetKana":"ﾅｶﾔﾏｶﾐ","prefecture":"広島県","city":"広島市東区","street":"中山上"},{"zipCode":"7320028","prefectureKana":"ﾋﾛｼﾏｹﾝ","cityKana":"ﾋﾛｼﾏｼﾋｶﾞｼｸ","streetKana":"ﾅｶﾔﾏｷﾀﾏﾁ","prefecture":"広島県","city":"広島市東区","street":"中山北町"},{"zipCode":"7320021","prefectureKana":"ﾋﾛｼﾏｹﾝ","cityKana":"ﾋﾛｼﾏｼﾋｶﾞｼｸ","streetKana":"ﾅｶﾔﾏｼﾝﾏﾁ","prefecture":"広島県","city":"広島市東区","street":"中山新町"},{"zipCode":"7320026","prefectureKana":"ﾋﾛｼﾏｹﾝ","cityKana":"ﾋﾛｼﾏｼﾋｶﾞｼｸ","streetKana":"ﾅｶﾔﾏﾅｶﾏﾁ","prefecture":"広島県","city":"広島市東区","street":"中山中町"},{"zipCode":"7320023","prefectureKana":"ﾋﾛｼﾏｹﾝ","cityKana":"ﾋﾛｼﾏｼﾋｶﾞｼｸ","streetKana":"ﾅｶﾔﾏﾋｶﾞｼ","prefecture":"広島県","city":"広島市東区","street":"中山東"},{"zipCode":"7320025","prefectureKana":"ﾋﾛｼﾏｹﾝ","cityKana":"ﾋﾛｼﾏｼﾋｶﾞｼｸ","streetKana":"ﾅｶﾔﾏﾆｼ","prefecture":"広島県","city":"広島市東区","street":"中山西"},{"zipCode":"7320024","prefectureKana":"ﾋﾛｼﾏｹﾝ","cityKana":"ﾋﾛｼﾏｼﾋｶﾞｼｸ","streetKana":"ﾅｶﾔﾏﾐﾅﾐ","prefecture":"広島県","city":"広島市東区","street":"中山南"},{"zipCode":"7320033","prefectureKana":"ﾋﾛｼﾏｹﾝ","cityKana":"ﾋﾛｼﾏｼﾋｶﾞｼｸ","streetKana":"ﾇｸｼﾅ","prefecture":"広島県","city":"広島市東区","street":"温品"},{"zipCode":"7320034","prefectureKana":"ﾋﾛｼﾏｹﾝ","cityKana":"ﾋﾛｼﾏｼﾋｶﾞｼｸ","streetKana":"ﾇｸｼﾅﾁｮｳ","prefecture":"広島県","city":"広島市東区","street":"温品町"},{"zipCode":"7320051","prefectureKana":"ﾋﾛｼﾏｹﾝ","cityKana":"ﾋﾛｼﾏｼﾋｶﾞｼｸ","streetKana":"ﾋｶﾘｶﾞｵｶ","prefecture":"広島県","city":"広島市東区","street":"光が丘"},{"zipCode":"7320052","prefectureKana":"ﾋﾛｼﾏｹﾝ","cityKana":"ﾋﾛｼﾏｼﾋｶﾞｼｸ","streetKana":"ﾋｶﾘﾏﾁ","prefecture":"広島県","city":"広島市東区","street":"光町"},{"zipCode":"7320055","prefectureKana":"ﾋﾛｼﾏｹﾝ","cityKana":"ﾋﾛｼﾏｼﾋｶﾞｼｸ","streetKana":"ﾋｶﾞｼｶﾆﾔﾁｮｳ","prefecture":"広島県","city":"広島市東区","street":"東蟹屋町"},{"zipCode":"7320043","prefectureKana":"ﾋﾛｼﾏｹﾝ","cityKana":"ﾋﾛｼﾏｼﾋｶﾞｼｸ","streetKana":"ﾋｶﾞｼﾔﾏﾁｮｳ","prefecture":"広島県","city":"広島市東区","street":"東山町"},{"zipCode":"7320029","prefectureKana":"ﾋﾛｼﾏｹﾝ","cityKana":"ﾋﾛｼﾏｼﾋｶﾞｼｸ","streetKana":"ﾌｸﾀﾞ","prefecture":"広島県","city":"広島市東区","street":"福田"},{"zipCode":"7320036","prefectureKana":"ﾋﾛｼﾏｹﾝ","cityKana":"ﾋﾛｼﾏｼﾋｶﾞｼｸ","streetKana":"ﾌｸﾀﾞﾁｮｳ","prefecture":"広島県","city":"広島市東区","street":"福田町"},{"zipCode":"7320057","prefectureKana":"ﾋﾛｼﾏｹﾝ","cityKana":"ﾋﾛｼﾏｼﾋｶﾞｼｸ","streetKana":"ﾌﾀﾊﾞﾉｻﾄ","prefecture":"広島県","city":"広島市東区","street":"二葉の里"},{"zipCode":"7320016","prefectureKana":"ﾋﾛｼﾏｹﾝ","cityKana":"ﾋﾛｼﾏｼﾋｶﾞｼｸ","streetKana":"ﾍｻｶｲﾂﾞｴ","prefecture":"広島県","city":"広島市東区","street":"戸坂出江"},{"zipCode":"7320014","prefectureKana":"ﾋﾛｼﾏｹﾝ","cityKana":"ﾋﾛｼﾏｼﾋｶﾞｼｸ","streetKana":"ﾍｻｶｵｵｱｹﾞ","prefecture":"広島県","city":"広島市東区","street":"戸坂大上"},{"zipCode":"7320017","prefectureKana":"ﾋﾛｼﾏｹﾝ","cityKana":"ﾋﾛｼﾏｼﾋｶﾞｼｸ","streetKana":"ﾍｻｶｶｽﾞｺｳ","prefecture":"広島県","city":"広島市東区","street":"戸坂数甲"},{"zipCode":"7320008","prefectureKana":"ﾋﾛｼﾏｹﾝ","cityKana":"ﾋﾛｼﾏｼﾋｶﾞｼｸ","streetKana":"ﾍｻｶｸﾙﾒｷﾞ","prefecture":"広島県","city":"広島市東区","street":"戸坂くるめ木"},{"zipCode":"7320007","prefectureKana":"ﾋﾛｼﾏｹﾝ","cityKana":"ﾋﾛｼﾏｼﾋｶﾞｼｸ","streetKana":"ﾍｻｶｻｸﾗｳｴﾏﾁ","prefecture":"広島県","city":"広島市東区","street":"戸坂桜上町"},{"zipCode":"7320005","prefectureKana":"ﾋﾛｼﾏｹﾝ","cityKana":"ﾋﾛｼﾏｼﾋｶﾞｼｸ","streetKana":"ﾍｻｶｻｸﾗﾋｶﾞｼﾏﾁ","prefecture":"広島県","city":"広島市東区","street":"戸坂桜東町"},{"zipCode":"7320006","prefectureKana":"ﾋﾛｼﾏｹﾝ","cityKana":"ﾋﾛｼﾏｼﾋｶﾞｼｸ","streetKana":"ﾍｻｶｻｸﾗﾆｼﾏﾁ","prefecture":"広島県","city":"広島市東区","street":"戸坂桜西町"},{"zipCode":"7320015","prefectureKana":"ﾋﾛｼﾏｹﾝ","cityKana":"ﾋﾛｼﾏｼﾋｶﾞｼｸ","streetKana":"ﾍｻｶｼﾛﾔﾏﾁｮｳ","prefecture":"広島県","city":"広島市東区","street":"戸坂城山町"},{"zipCode":"7320012","prefectureKana":"ﾋﾛｼﾏｹﾝ","cityKana":"ﾋﾛｼﾏｼﾋｶﾞｼｸ","streetKana":"ﾍｻｶｼﾝﾏﾁ","prefecture":"広島県","city":"広島市東区","street":"戸坂新町"},{"zipCode":"7320009","prefectureKana":"ﾋﾛｼﾏｹﾝ","cityKana":"ﾋﾛｼﾏｼﾋｶﾞｼｸ","streetKana":"ﾍｻｶｾﾝｿﾞｸ","prefecture":"広島県","city":"広島市東区","street":"戸坂千足"},{"zipCode":"7320001","prefectureKana":"ﾋﾛｼﾏｹﾝ","cityKana":"ﾋﾛｼﾏｼﾋｶﾞｼｸ","streetKana":"ﾍｻｶｿｳﾀﾞ","prefecture":"広島県","city":"広島市東区","street":"戸坂惣田"},{"zipCode":"7320018","prefectureKana":"ﾋﾛｼﾏｹﾝ","cityKana":"ﾋﾛｼﾏｼﾋｶﾞｼｸ","streetKana":"ﾍｻｶﾅｶﾞｵﾀﾞｲ","prefecture":"広島県","city":"広島市東区","street":"戸坂長尾台"},{"zipCode":"7320003","prefectureKana":"ﾋﾛｼﾏｹﾝ","cityKana":"ﾋﾛｼﾏｼﾋｶﾞｼｸ","streetKana":"ﾍｻｶﾅｶﾏﾁ","prefecture":"広島県","city":"広島市東区","street":"戸坂中町"},{"zipCode":"7320004","prefectureKana":"ﾋﾛｼﾏｹﾝ","cityKana":"ﾋﾛｼﾏｼﾋｶﾞｼｸ","streetKana":"ﾍｻｶﾔﾏｻｷﾁｮｳ","prefecture":"広島県","city":"広島市東区","street":"戸坂山崎町"},{"zipCode":"7320002","prefectureKana":"ﾋﾛｼﾏｹﾝ","cityKana":"ﾋﾛｼﾏｼﾋｶﾞｼｸ","streetKana":"ﾍｻｶﾔﾏﾈ","prefecture":"広島県","city":"広島市東区","street":"戸坂山根"},{"zipCode":"7320013","prefectureKana":"ﾋﾛｼﾏｹﾝ","cityKana":"ﾋﾛｼﾏｼﾋｶﾞｼｸ","streetKana":"ﾍｻｶﾐﾅﾐ","prefecture":"広島県","city":"広島市東区","street":"戸坂南"},{"zipCode":"7320011","prefectureKana":"ﾋﾛｼﾏｹﾝ","cityKana":"ﾋﾛｼﾏｼﾋｶﾞｼｸ","streetKana":"ﾍｻｶﾁｮｳ","prefecture":"広島県","city":"広島市東区","street":"戸坂町"},{"zipCode":"7320042","prefectureKana":"ﾋﾛｼﾏｹﾝ","cityKana":"ﾋﾛｼﾏｼﾋｶﾞｼｸ","streetKana":"ﾔｶﾞ","prefecture":"広島県","city":"広島市東区","street":"矢賀"},{"zipCode":"7320044","prefectureKana":"ﾋﾛｼﾏｹﾝ","cityKana":"ﾋﾛｼﾏｼﾋｶﾞｼｸ","streetKana":"ﾔｶﾞｼﾝﾏﾁ","prefecture":"広島県","city":"広島市東区","street":"矢賀新町"},{"zipCode":"7320041","prefectureKana":"ﾋﾛｼﾏｹﾝ","cityKana":"ﾋﾛｼﾏｼﾋｶﾞｼｸ","streetKana":"ﾔｶﾞﾏﾁ","prefecture":"広島県","city":"広島市東区","street":"矢賀町"},{"zipCode":"7320048","prefectureKana":"ﾋﾛｼﾏｹﾝ","cityKana":"ﾋﾛｼﾏｼﾋｶﾞｼｸ","streetKana":"ﾔﾏﾈﾁｮｳ","prefecture":"広島県","city":"広島市東区","street":"山根町"},{"zipCode":"7320053","prefectureKana":"ﾋﾛｼﾏｹﾝ","cityKana":"ﾋﾛｼﾏｼﾋｶﾞｼｸ","streetKana":"ﾜｶｸｻﾁｮｳ","prefecture":"広島県","city":"広島市東区","street":"若草町"},{"zipCode":"7320827","prefectureKana":"ﾋﾛｼﾏｹﾝ","cityKana":"ﾋﾛｼﾏｼﾐﾅﾐｸ","streetKana":"ｲﾅﾘﾏﾁ","prefecture":"広島県","city":"広島市南区","street":"稲荷町"},{"zipCode":"7320823","prefectureKana":"ﾋﾛｼﾏｹﾝ","cityKana":"ﾋﾛｼﾏｼﾐﾅﾐｸ","streetKana":"ｴﾝｺｳﾊﾞｼﾁｮｳ","prefecture":"広島県","city":"広島市南区","street":"猿猴橋町"},{"zipCode":"7320821","prefectureKana":"ﾋﾛｼﾏｹﾝ","cityKana":"ﾋﾛｼﾏｼﾐﾅﾐｸ","streetKana":"ｵｵｽｶﾞﾁｮｳ","prefecture":"広島県","city":"広島市南区","street":"大須賀町"},{"zipCode":"7320802","prefectureKana":"ﾋﾛｼﾏｹﾝ","cityKana":"ﾋﾛｼﾏｼﾐﾅﾐｸ","streetKana":"ｵｵｽﾞ","prefecture":"広島県","city":"広島市南区","street":"大州"},{"zipCode":"7320828","prefectureKana":"ﾋﾛｼﾏｹﾝ","cityKana":"ﾋﾛｼﾏｼﾐﾅﾐｸ","streetKana":"ｷｮｳﾊﾞｼﾁｮｳ","prefecture":"広島県","city":"広島市南区","street":"京橋町"},{"zipCode":"7320825","prefectureKana":"ﾋﾛｼﾏｹﾝ","cityKana":"ﾋﾛｼﾏｼﾐﾅﾐｸ","streetKana":"ｷﾝﾔﾁｮｳ","prefecture":"広島県","city":"広島市南区","street":"金屋町"},{"zipCode":"7320807","prefectureKana":"ﾋﾛｼﾏｹﾝ","cityKana":"ﾋﾛｼﾏｼﾐﾅﾐｸ","streetKana":"ｺｳｼﾞﾝﾏﾁ","prefecture":"広島県","city":"広島市南区","street":"荒神町"},{"zipCode":"7320811","prefectureKana":"ﾋﾛｼﾏｹﾝ","cityKana":"ﾋﾛｼﾏｼﾐﾅﾐｸ","streetKana":"ﾀﾞﾝﾊﾞﾗ","prefecture":"広島県","city":"広島市南区","street":"段原"},{"zipCode":"7320818","prefectureKana":"ﾋﾛｼﾏｹﾝ","cityKana":"ﾋﾛｼﾏｼﾐﾅﾐｸ","streetKana":"ﾀﾞﾝﾊﾞﾗﾋﾉﾃﾞ","prefecture":"広島県","city":"広島市南区","street":"段原日出"},{"zipCode":"7320814","prefectureKana":"ﾋﾛｼﾏｹﾝ","cityKana":"ﾋﾛｼﾏｼﾐﾅﾐｸ","streetKana":"ﾀﾞﾝﾊﾞﾗﾐﾅﾐ","prefecture":"広島県","city":"広島市南区","street":"段原南"},{"zipCode":"7320819","prefectureKana":"ﾋﾛｼﾏｹﾝ","cityKana":"ﾋﾛｼﾏｼﾐﾅﾐｸ","streetKana":"ﾀﾞﾝﾊﾞﾗﾔﾏｻｷ","prefecture":"広島県","city":"広島市南区","street":"段原山崎"},{"zipCode":"7320804","prefectureKana":"ﾋﾛｼﾏｹﾝ","cityKana":"ﾋﾛｼﾏｼﾐﾅﾐｸ","streetKana":"ﾆｼｶﾆﾔ","prefecture":"広島県","city":"広島市南区","street":"西蟹屋"},{"zipCode":"7320806","prefectureKana":"ﾋﾛｼﾏｹﾝ","cityKana":"ﾋﾛｼﾏｼﾐﾅﾐｸ","streetKana":"ﾆｼｺｳｼﾞﾝﾏﾁ","prefecture":"広島県","city":"広島市南区","street":"西荒神町"},{"zipCode":"7320801","prefectureKana":"ﾋﾛｼﾏｹﾝ","cityKana":"ﾋﾛｼﾏｼﾐﾅﾐｸ","streetKana":"ﾋｶﾞｼｴｷﾏﾁ","prefecture":"広島県","city":"広島市南区","street":"東駅町"},{"zipCode":"7320805","prefectureKana":"ﾋﾛｼﾏｹﾝ","cityKana":"ﾋﾛｼﾏｼﾐﾅﾐｸ","streetKana":"ﾋｶﾞｼｺｳｼﾞﾝﾏﾁ","prefecture":"広島県","city":"広島市南区","street":"東荒神町"},{"zipCode":"7320815","prefectureKana":"ﾋﾛｼﾏｹﾝ","cityKana":"ﾋﾛｼﾏｼﾐﾅﾐｸ","streetKana":"ﾋｼﾞﾔﾏｺｳｴﾝ","prefecture":"広島県","city":"広島市南区","street":"比治山公園"},{"zipCode":"7320816","prefectureKana":"ﾋﾛｼﾏｹﾝ","cityKana":"ﾋﾛｼﾏｼﾐﾅﾐｸ","streetKana":"ﾋｼﾞﾔﾏﾎﾝﾏﾁ","prefecture":"広島県","city":"広島市南区","street":"比治山本町"},{"zipCode":"7320817","prefectureKana":"ﾋﾛｼﾏｹﾝ","cityKana":"ﾋﾛｼﾏｼﾐﾅﾐｸ","streetKana":"ﾋｼﾞﾔﾏﾁｮｳ","prefecture":"広島県","city":"広島市南区","street":"比治山町"},{"zipCode":"7320826","prefectureKana":"ﾋﾛｼﾏｹﾝ","cityKana":"ﾋﾛｼﾏｼﾐﾅﾐｸ","streetKana":"ﾏﾂｶﾜﾁｮｳ","prefecture":"広島県","city":"広島市南区","street":"松川町"},{"zipCode":"7320822","prefectureKana":"ﾋﾛｼﾏｹﾝ","cityKana":"ﾋﾛｼﾏｼﾐﾅﾐｸ","streetKana":"ﾏﾂﾊﾞﾗﾁｮｳ","prefecture":"広島県","city":"広島市南区","street":"松原町"},{"zipCode":"7320824","prefectureKana":"ﾋﾛｼﾏｹﾝ","cityKana":"ﾋﾛｼﾏｼﾐﾅﾐｸ","streetKana":"ﾏﾄﾊﾞﾁｮｳ","prefecture":"広島県","city":"広島市南区","street":"的場町"},{"zipCode":"7320803","prefectureKana":"ﾋﾛｼﾏｹﾝ","cityKana":"ﾋﾛｼﾏｼﾐﾅﾐｸ","streetKana":"ﾐﾅﾐｶﾆﾔ","prefecture":"広島県","city":"広島市南区","street":"南蟹屋"}]