[{"zipCode":"7340000","prefectureKana":"ﾋﾛｼﾏｹﾝ","cityKana":"ﾋﾛｼﾏｼﾐﾅﾐｸ","streetKana":"ｲｶﾆｹｲｻｲｶﾞﾅｲﾊﾞｱｲ","prefecture":"広島県","city":"広島市南区","street":"以下に掲載がない場合"},{"zipCode":"7340053","prefectureKana":"ﾋﾛｼﾏｹﾝ","cityKana":"ﾋﾛｼﾏｼﾐﾅﾐｸ","streetKana":"ｱｵｻｷ","prefecture":"広島県","city":"広島市南区","street":"青崎"},{"zipCode":"7340036","prefectureKana":"ﾋﾛｼﾏｹﾝ","cityKana":"ﾋﾛｼﾏｼﾐﾅﾐｸ","streetKana":"ｱｻﾋ","prefecture":"広島県","city":"広島市南区","street":"旭"},{"zipCode":"7340011","prefectureKana":"ﾋﾛｼﾏｹﾝ","cityKana":"ﾋﾛｼﾏｼﾐﾅﾐｸ","streetKana":"ｳｼﾞﾅｶｲｶﾞﾝ","prefecture":"広島県","city":"広島市南区","street":"宇品海岸"},{"zipCode":"7340004","prefectureKana":"ﾋﾛｼﾏｹﾝ","cityKana":"ﾋﾛｼﾏｼﾐﾅﾐｸ","streetKana":"ｳｼﾞﾅｶﾝﾀﾞ","prefecture":"広島県","city":"広島市南区","street":"宇品神田"},{"zipCode":"7340015","prefectureKana":"ﾋﾛｼﾏｹﾝ","cityKana":"ﾋﾛｼﾏｼﾐﾅﾐｸ","streetKana":"ｳｼﾞﾅﾐﾕｷ","prefecture":"広島県","city":"広島市南区","street":"宇品御幸"},{"zipCode":"7340003","prefectureKana":"ﾋﾛｼﾏｹﾝ","cityKana":"ﾋﾛｼﾏｼﾐﾅﾐｸ","streetKana":"ｳｼﾞﾅﾋｶﾞｼ","prefecture":"広島県","city":"広島市南区","street":"宇品東"},{"zipCode":"7340014","prefectureKana":"ﾋﾛｼﾏｹﾝ","cityKana":"ﾋﾛｼﾏｼﾐﾅﾐｸ","streetKana":"ｳｼﾞﾅﾆｼ","prefecture":"広島県","city":"広島市南区","street":"宇品西"},{"zipCode":"7340016","prefectureKana":"ﾋﾛｼﾏｹﾝ","cityKana":"ﾋﾛｼﾏｼﾐﾅﾐｸ","streetKana":"ｳｼﾞﾅﾏﾁ","prefecture":"広島県","city":"広島市南区","street":"宇品町"},{"zipCode":"7340041","prefectureKana":"ﾋﾛｼﾏｹﾝ","cityKana":"ﾋﾛｼﾏｼﾐﾅﾐｸ","streetKana":"ｵｳｺﾞﾝｻﾞﾝﾁｮｳ","prefecture":"広島県","city":"広島市南区","street":"黄金山町"},{"zipCode":"7340037","prefectureKana":"ﾋﾛｼﾏｹﾝ","cityKana":"ﾋﾛｼﾏｼﾐﾅﾐｸ","streetKana":"ｶｽﾐ","prefecture":"広島県","city":"広島市南区","street":"霞"},{"zipCode":"7340021","prefectureKana":"ﾋﾛｼﾏｹﾝ","cityKana":"ﾋﾛｼﾏｼﾐﾅﾐｸ","streetKana":"ｶﾐｼﾉﾉﾒﾁｮｳ","prefecture":"広島県","city":"広島市南区","street":"上東雲町"},{"zipCode":"7340042","prefectureKana":"ﾋﾛｼﾏｹﾝ","cityKana":"ﾋﾛｼﾏｼﾐﾅﾐｸ","streetKana":"ｷﾀｵｵｺｳﾁｮｳ","prefecture":"広島県","city":"広島市南区","street":"北大河町"},{"zipCode":"7340032","prefectureKana":"ﾋﾛｼﾏｹﾝ","cityKana":"ﾋﾛｼﾏｼﾐﾅﾐｸ","streetKana":"ｸｽﾅﾁｮｳ","prefecture":"広島県","city":"広島市南区","street":"楠那町"},{"zipCode":"7340064","prefectureKana":"ﾋﾛｼﾏｹﾝ","cityKana":"ﾋﾛｼﾏｼﾐﾅﾐｸ","streetKana":"ｺｲｿﾁｮｳ","prefecture":"広島県","city":"広島市南区","street":"小磯町"},{"zipCode":"7340022","prefectureKana":"ﾋﾛｼﾏｹﾝ","cityKana":"ﾋﾛｼﾏｼﾐﾅﾐｸ","streetKana":"ｼﾉﾉﾒ","prefecture":"広島県","city":"広島市南区","street":"東雲"},{"zipCode":"7340023","prefectureKana":"ﾋﾛｼﾏｹﾝ","cityKana":"ﾋﾛｼﾏｼﾐﾅﾐｸ","streetKana":"ｼﾉﾉﾒﾎﾝﾏﾁ","prefecture":"広島県","city":"広島市南区","street":"東雲本町"},{"zipCode":"7340033","prefectureKana":"ﾋﾛｼﾏｹﾝ","cityKana":"ﾋﾛｼﾏｼﾐﾅﾐｸ","streetKana":"ﾀﾝﾅｼﾝﾏﾁ","prefecture":"広島県","city":"広島市南区","street":"丹那新町"},{"zipCode":"7340034","prefectureKana":"ﾋﾛｼﾏｹﾝ","cityKana":"ﾋﾛｼﾏｼﾐﾅﾐｸ","streetKana":"ﾀﾝﾅﾁｮｳ","prefecture":"広島県","city":"広島市南区","street":"丹那町"},{"zipCode":"7340054","prefectureKana":"ﾋﾛｼﾏｹﾝ","cityKana":"ﾋﾛｼﾏｼﾐﾅﾐｸ","streetKana":"ﾂｷﾐﾁｮｳ","prefecture":"広島県","city":"広島市南区","street":"月見町"},{"zipCode":"7340001","prefectureKana":"ﾋﾛｼﾏｹﾝ","cityKana":"ﾋﾛｼﾏｼﾐﾅﾐｸ","streetKana":"ﾃﾞｼｵ","prefecture":"広島県","city":"広島市南区","street":"出汐"},{"zipCode":"7340013","prefectureKana":"ﾋﾛｼﾏｹﾝ","cityKana":"ﾋﾛｼﾏｼﾐﾅﾐｸ","streetKana":"ﾃﾞｼﾞﾏ","prefecture":"広島県","city":"広島市南区","street":"出島"},{"zipCode":"7340002","prefectureKana":"ﾋﾛｼﾏｹﾝ","cityKana":"ﾋﾛｼﾏｼﾐﾅﾐｸ","streetKana":"ﾆｼｱｻﾋﾏﾁ","prefecture":"広島県","city":"広島市南区","street":"西旭町"},{"zipCode":"7340044","prefectureKana":"ﾋﾛｼﾏｹﾝ","cityKana":"ﾋﾛｼﾏｼﾐﾅﾐｸ","streetKana":"ﾆｼｶｽﾐﾁｮｳ","prefecture":"広島県","city":"広島市南区","street":"西霞町"},{"zipCode":"7340045","prefectureKana":"ﾋﾛｼﾏｹﾝ","cityKana":"ﾋﾛｼﾏｼﾐﾅﾐｸ","streetKana":"ﾆｼﾎﾝｳﾗﾁｮｳ","prefecture":"広島県","city":"広島市南区","street":"西本浦町"},{"zipCode":"7340006","prefectureKana":"ﾋﾛｼﾏｹﾝ","cityKana":"ﾋﾛｼﾏｼﾐﾅﾐｸ","streetKana":"ﾆｼﾐﾄﾞﾘﾏﾁ","prefecture":"広島県","city":"広島市南区","street":"西翠町"},{"zipCode":"7340017","prefectureKana":"ﾋﾛｼﾏｹﾝ","cityKana":"ﾋﾛｼﾏｼﾐﾅﾐｸ","streetKana":"ﾆﾉｼﾏﾁｮｳ","prefecture":"広島県","city":"広島市南区","street":"似島町"},{"zipCode":"7340026","prefectureKana":"ﾋﾛｼﾏｹﾝ","cityKana":"ﾋﾛｼﾏｼﾐﾅﾐｸ","streetKana":"ﾆﾎ","prefecture":"広島県","city":"広島市南区","street":"仁保"},{"zipCode":"7340057","prefectureKana":"ﾋﾛｼﾏｹﾝ","cityKana":"ﾋﾛｼﾏｼﾐﾅﾐｸ","streetKana":"ﾆﾎｵｷﾏﾁ","prefecture":"広島県","city":"広島市南区","street":"仁保沖町"},{"zipCode":"7340024","prefectureKana":"ﾋﾛｼﾏｹﾝ","cityKana":"ﾋﾛｼﾏｼﾐﾅﾐｸ","streetKana":"ﾆﾎｼﾝﾏﾁ","prefecture":"広島県","city":"広島市南区","street":"仁保新町"},{"zipCode":"7340027","prefectureKana":"ﾋﾛｼﾏｹﾝ","cityKana":"ﾋﾛｼﾏｼﾐﾅﾐｸ","streetKana":"ﾆﾎﾐﾅﾐ","prefecture":"広島県","city":"広島市南区","street":"仁保南"},{"zipCode":"7340031","prefectureKana":"ﾋﾛｼﾏｹﾝ","cityKana":"ﾋﾛｼﾏｼﾐﾅﾐｸ","streetKana":"ﾋｳﾅﾁｮｳ","prefecture":"広島県","city":"広島市南区","street":"日宇那町"},{"zipCode":"7340051","prefectureKana":"ﾋﾛｼﾏｹﾝ","cityKana":"ﾋﾛｼﾏｼﾐﾅﾐｸ","streetKana":"ﾋｶﾞｼｱｵｻｷﾁｮｳ","prefecture":"広島県","city":"広島市南区","street":"東青崎町"},{"zipCode":"7340046","prefectureKana":"ﾋﾛｼﾏｹﾝ","cityKana":"ﾋﾛｼﾏｼﾐﾅﾐｸ","streetKana":"ﾋｶﾞｼｶｽﾐﾁｮｳ","prefecture":"広島県","city":"広島市南区","street":"東霞町"},{"zipCode":"7340025","prefectureKana":"ﾋﾛｼﾏｹﾝ","cityKana":"ﾋﾛｼﾏｼﾐﾅﾐｸ","streetKana":"ﾋｶﾞｼﾎﾝｳﾗﾁｮｳ","prefecture":"広島県","city":"広島市南区","street":"東本浦町"},{"zipCode":"7340052","prefectureKana":"ﾋﾛｼﾏｹﾝ","cityKana":"ﾋﾛｼﾏｼﾐﾅﾐｸ","streetKana":"ﾎﾘｺｼ","prefecture":"広島県","city":"広島市南区","street":"堀越"},{"zipCode":"7340047","prefectureKana":"ﾋﾛｼﾏｹﾝ","cityKana":"ﾋﾛｼﾏｼﾐﾅﾐｸ","streetKana":"ﾎﾝｳﾗﾁｮｳ","prefecture":"広島県","city":"広島市南区","street":"本浦町"},{"zipCode":"7340005","prefectureKana":"ﾋﾛｼﾏｹﾝ","cityKana":"ﾋﾛｼﾏｼﾐﾅﾐｸ","streetKana":"ﾐﾄﾞﾘ","prefecture":"広島県","city":"広島市南区","street":"翠"},{"zipCode":"7340043","prefectureKana":"ﾋﾛｼﾏｹﾝ","cityKana":"ﾋﾛｼﾏｼﾐﾅﾐｸ","streetKana":"ﾐﾅﾐｵｵｺｳﾁｮｳ","prefecture":"広島県","city":"広島市南区","street":"南大河町"},{"zipCode":"7340007","prefectureKana":"ﾋﾛｼﾏｹﾝ","cityKana":"ﾋﾛｼﾏｼﾐﾅﾐｸ","streetKana":"ﾐﾅﾐﾏﾁ","prefecture":"広島県","city":"広島市南区","street":"皆実町"},{"zipCode":"7340063","prefectureKana":"ﾋﾛｼﾏｹﾝ","cityKana":"ﾋﾛｼﾏｼﾐﾅﾐｸ","streetKana":"ﾑｶｲﾅﾀﾞｵｵﾊﾗﾁｮｳ","prefecture":"広島県","city":"広島市南区","street":"向洋大原町"},{"zipCode":"7340056","prefectureKana":"ﾋﾛｼﾏｹﾝ","cityKana":"ﾋﾛｼﾏｼﾐﾅﾐｸ","streetKana":"ﾑｶｲﾅﾀﾞｵｷﾏﾁ","prefecture":"広島県","city":"広島市南区","street":"向洋沖町"},{"zipCode":"7340055","prefectureKana":"ﾋﾛｼﾏｹﾝ","cityKana":"ﾋﾛｼﾏｼﾐﾅﾐｸ","streetKana":"ﾑｶｲﾅﾀﾞｼﾝﾏﾁ","prefecture":"広島県","city":"広島市南区","street":"向洋新町"},{"zipCode":"7340061","prefectureKana":"ﾋﾛｼﾏｹﾝ","cityKana":"ﾋﾛｼﾏｼﾐﾅﾐｸ","streetKana":"ﾑｶｲﾅﾀﾞﾅｶﾏﾁ","prefecture":"広島県","city":"広島市南区","street":"向洋中町"},{"zipCode":"7340062","prefectureKana":"ﾋﾛｼﾏｹﾝ","cityKana":"ﾋﾛｼﾏｼﾐﾅﾐｸ","streetKana":"ﾑｶｲﾅﾀﾞﾎﾝﾏﾁ","prefecture":"広島県","city":"広島市南区","street":"向洋本町"},{"zipCode":"7340012","prefectureKana":"ﾋﾛｼﾏｹﾝ","cityKana":"ﾋﾛｼﾏｼﾐﾅﾐｸ","streetKana":"ﾓﾄｳｼﾞﾅﾏﾁ","prefecture":"広島県","city":"広島市南区","street":"元宇品町"},{"zipCode":"7340035","prefectureKana":"ﾋﾛｼﾏｹﾝ","cityKana":"ﾋﾛｼﾏｼﾐﾅﾐｸ","streetKana":"ﾔﾏｼﾛﾁｮｳ","prefecture":"広島県","city":"広島市南区","street":"山城町"},{"zipCode":"7340103","prefectureKana":"ﾋﾛｼﾏｹﾝ","cityKana":"ｸﾚｼ","streetKana":"ﾄﾖﾊﾏﾁｮｳｲﾂｷｼﾏ","prefecture":"広島県","city":"呉市","street":"豊浜町斎島"},{"zipCode":"7340102","prefectureKana":"ﾋﾛｼﾏｹﾝ","cityKana":"ｸﾚｼ","streetKana":"ﾄﾖﾊﾏﾁｮｳｵｵﾊﾏ","prefecture":"広島県","city":"呉市","street":"豊浜町大浜"},{"zipCode":"7340101","prefectureKana":"ﾋﾛｼﾏｹﾝ","cityKana":"ｸﾚｼ","streetKana":"ﾄﾖﾊﾏﾁｮｳﾄﾖｼﾏ","prefecture":"広島県","city":"呉市","street":"豊浜町豊島"},{"zipCode":"7340301","prefectureKana":"ﾋﾛｼﾏｹﾝ","cityKana":"ｸﾚｼ","streetKana":"ﾕﾀｶﾏﾁｵｵﾁｮｳ","prefecture":"広島県","city":"呉市","street":"豊町大長"},{"zipCode":"7340303","prefectureKana":"ﾋﾛｼﾏｹﾝ","cityKana":"ｸﾚｼ","streetKana":"ﾕﾀｶﾏﾁｵｷﾄﾓ","prefecture":"広島県","city":"呉市","street":"豊町沖友"},{"zipCode":"7340304","prefectureKana":"ﾋﾛｼﾏｹﾝ","cityKana":"ｸﾚｼ","streetKana":"ﾕﾀｶﾏﾁｸﾋﾞ","prefecture":"広島県","city":"呉市","street":"豊町久比"},{"zipCode":"7340302","prefectureKana":"ﾋﾛｼﾏｹﾝ","cityKana":"ｸﾚｼ","streetKana":"ﾕﾀｶﾏﾁﾐﾀﾗｲ","prefecture":"広島県","city":"呉市","street":"豊町御手洗"}]