[{"zipCode":"7430000","prefectureKana":"ﾔﾏｸﾞﾁｹﾝ","cityKana":"ﾋｶﾘｼ","streetKana":"ｲｶﾆｹｲｻｲｶﾞﾅｲﾊﾞｱｲ","prefecture":"山口県","city":"光市","street":"以下に掲載がない場合"},{"zipCode":"7430021","prefectureKana":"ﾔﾏｸﾞﾁｹﾝ","cityKana":"ﾋｶﾘｼ","streetKana":"ｱｻｴ","prefecture":"山口県","city":"光市","street":"浅江"},{"zipCode":"7430051","prefectureKana":"ﾔﾏｸﾞﾁｹﾝ","cityKana":"ﾋｶﾘｼ","streetKana":"ｲﾜｶﾞﾘ","prefecture":"山口県","city":"光市","street":"岩狩"},{"zipCode":"7430103","prefectureKana":"ﾔﾏｸﾞﾁｹﾝ","cityKana":"ﾋｶﾘｼ","streetKana":"ｲﾜﾀ","prefecture":"山口県","city":"光市","street":"岩田"},{"zipCode":"7430104","prefectureKana":"ﾔﾏｸﾞﾁｹﾝ","cityKana":"ﾋｶﾘｼ","streetKana":"ｲﾜﾀﾀﾃﾉ","prefecture":"山口県","city":"光市","street":"岩田立野"},{"zipCode":"7430003","prefectureKana":"ﾔﾏｸﾞﾁｹﾝ","cityKana":"ﾋｶﾘｼ","streetKana":"ｳｼﾏ","prefecture":"山口県","city":"光市","street":"牛島"},{"zipCode":"7430065","prefectureKana":"ﾔﾏｸﾞﾁｹﾝ","cityKana":"ﾋｶﾘｼ","streetKana":"ｶﾐｼﾏﾀ","prefecture":"山口県","city":"光市","street":"上島田"},{"zipCode":"7430046","prefectureKana":"ﾔﾏｸﾞﾁｹﾝ","cityKana":"ﾋｶﾘｼ","streetKana":"ｷｿﾞﾉ","prefecture":"山口県","city":"光市","street":"木園"},{"zipCode":"7430043","prefectureKana":"ﾔﾏｸﾞﾁｹﾝ","cityKana":"ﾋｶﾘｼ","streetKana":"ｷｮｳﾜﾁｮｳ","prefecture":"山口県","city":"光市","street":"協和町"},{"zipCode":"7430061","prefectureKana":"ﾔﾏｸﾞﾁｹﾝ","cityKana":"ﾋｶﾘｼ","streetKana":"ｺｽﾞｵｳ","prefecture":"山口県","city":"光市","street":"小周防"},{"zipCode":"7430101","prefectureKana":"ﾔﾏｸﾞﾁｹﾝ","cityKana":"ﾋｶﾘｼ","streetKana":"ｼｵﾀ","prefecture":"山口県","city":"光市","street":"塩田"},{"zipCode":"7430063","prefectureKana":"ﾔﾏｸﾞﾁｹﾝ","cityKana":"ﾋｶﾘｼ","streetKana":"ｼﾏﾀ","prefecture":"山口県","city":"光市","street":"島田"},{"zipCode":"7430012","prefectureKana":"ﾔﾏｸﾞﾁｹﾝ","cityKana":"ﾋｶﾘｼ","streetKana":"ｾﾝﾎﾞｳﾀﾞｲ","prefecture":"山口県","city":"光市","street":"千坊台"},{"zipCode":"7430042","prefectureKana":"ﾔﾏｸﾞﾁｹﾝ","cityKana":"ﾋｶﾘｼ","streetKana":"ﾀｶﾗﾏﾁ","prefecture":"山口県","city":"光市","street":"宝町"},{"zipCode":"7430062","prefectureKana":"ﾔﾏｸﾞﾁｹﾝ","cityKana":"ﾋｶﾘｼ","streetKana":"ﾀﾃﾉ","prefecture":"山口県","city":"光市","street":"立野"},{"zipCode":"7430013","prefectureKana":"ﾔﾏｸﾞﾁｹﾝ","cityKana":"ﾋｶﾘｼ","streetKana":"ﾁｭｳｵｳ","prefecture":"山口県","city":"光市","street":"中央"},{"zipCode":"7430105","prefectureKana":"ﾔﾏｸﾞﾁｹﾝ","cityKana":"ﾋｶﾘｼ","streetKana":"ﾂｶﾘ","prefecture":"山口県","city":"光市","street":"束荷"},{"zipCode":"7430064","prefectureKana":"ﾔﾏｸﾞﾁｹﾝ","cityKana":"ﾋｶﾘｼ","streetKana":"ﾅｶｼﾏﾀ","prefecture":"山口県","city":"光市","street":"中島田"},{"zipCode":"7430048","prefectureKana":"ﾔﾏｸﾞﾁｹﾝ","cityKana":"ﾋｶﾘｼ","streetKana":"ﾅｶﾑﾗﾁｮｳ","prefecture":"山口県","city":"光市","street":"中村町"},{"zipCode":"7430031","prefectureKana":"ﾔﾏｸﾞﾁｹﾝ","cityKana":"ﾋｶﾘｼ","streetKana":"ﾆｼﾞｶﾞｵｶ","prefecture":"山口県","city":"光市","street":"虹ケ丘"},{"zipCode":"7430022","prefectureKana":"ﾔﾏｸﾞﾁｹﾝ","cityKana":"ﾋｶﾘｼ","streetKana":"ﾆｼﾞｶﾞﾊﾏ","prefecture":"山口県","city":"光市","street":"虹ケ浜"},{"zipCode":"7430047","prefectureKana":"ﾔﾏｸﾞﾁｹﾝ","cityKana":"ﾋｶﾘｼ","streetKana":"ﾊﾅｿﾞﾉ","prefecture":"山口県","city":"光市","street":"花園"},{"zipCode":"7430023","prefectureKana":"ﾔﾏｸﾞﾁｹﾝ","cityKana":"ﾋｶﾘｼ","streetKana":"ﾋｶﾘｶﾞｵｶ","prefecture":"山口県","city":"光市","street":"光ケ丘"},{"zipCode":"7430041","prefectureKana":"ﾔﾏｸﾞﾁｹﾝ","cityKana":"ﾋｶﾘｼ","streetKana":"ﾏﾙﾔﾏﾁｮｳ","prefecture":"山口県","city":"光市","street":"丸山町"},{"zipCode":"7430052","prefectureKana":"ﾔﾏｸﾞﾁｹﾝ","cityKana":"ﾋｶﾘｼ","streetKana":"ﾐｲ","prefecture":"山口県","city":"光市","street":"三井"},{"zipCode":"7430011","prefectureKana":"ﾔﾏｸﾞﾁｹﾝ","cityKana":"ﾋｶﾘｼ","streetKana":"ﾐﾂｲ","prefecture":"山口県","city":"光市","street":"光井"},{"zipCode":"7430045","prefectureKana":"ﾔﾏｸﾞﾁｹﾝ","cityKana":"ﾋｶﾘｼ","streetKana":"ﾐﾔﾉｼﾀﾁｮｳ","prefecture":"山口県","city":"光市","street":"宮ノ下町"},{"zipCode":"7430102","prefectureKana":"ﾔﾏｸﾞﾁｹﾝ","cityKana":"ﾋｶﾘｼ","streetKana":"ﾐﾜ","prefecture":"山口県","city":"光市","street":"三輪"},{"zipCode":"7430007","prefectureKana":"ﾔﾏｸﾞﾁｹﾝ","cityKana":"ﾋｶﾘｼ","streetKana":"ﾑﾛﾂﾞﾐ","prefecture":"山口県","city":"光市","street":"室積"},{"zipCode":"7430004","prefectureKana":"ﾔﾏｸﾞﾁｹﾝ","cityKana":"ﾋｶﾘｼ","streetKana":"ﾑﾛﾂﾞﾐｲﾁﾉﾍﾞ","prefecture":"山口県","city":"光市","street":"室積市延"},{"zipCode":"7430002","prefectureKana":"ﾔﾏｸﾞﾁｹﾝ","cityKana":"ﾋｶﾘｼ","streetKana":"ﾑﾛﾂﾞﾐｳﾗ","prefecture":"山口県","city":"光市","street":"室積浦"},{"zipCode":"7430072","prefectureKana":"ﾔﾏｸﾞﾁｹﾝ","cityKana":"ﾋｶﾘｼ","streetKana":"ﾑﾛﾂﾞﾐｵｵﾏﾁ","prefecture":"山口県","city":"光市","street":"室積大町"},{"zipCode":"7430075","prefectureKana":"ﾔﾏｸﾞﾁｹﾝ","cityKana":"ﾋｶﾘｼ","streetKana":"ﾑﾛﾂﾞﾐｵｷﾀ","prefecture":"山口県","city":"光市","street":"室積沖田"},{"zipCode":"7430071","prefectureKana":"ﾔﾏｸﾞﾁｹﾝ","cityKana":"ﾋｶﾘｼ","streetKana":"ﾑﾛﾂﾞﾐｼﾝｶｲ","prefecture":"山口県","city":"光市","street":"室積新開"},{"zipCode":"7430006","prefectureKana":"ﾔﾏｸﾞﾁｹﾝ","cityKana":"ﾋｶﾘｼ","streetKana":"ﾑﾛﾂﾞﾐｼﾞﾝﾃﾞﾝ","prefecture":"山口県","city":"光市","street":"室積神田"},{"zipCode":"7430008","prefectureKana":"ﾔﾏｸﾞﾁｹﾝ","cityKana":"ﾋｶﾘｼ","streetKana":"ﾑﾛﾂﾞﾐﾁｭｳｵｳﾁｮｳ","prefecture":"山口県","city":"光市","street":"室積中央町"},{"zipCode":"7430074","prefectureKana":"ﾔﾏｸﾞﾁｹﾝ","cityKana":"ﾋｶﾘｼ","streetKana":"ﾑﾛﾂﾞﾐﾆｼﾉｼｮｳ","prefecture":"山口県","city":"光市","street":"室積西ノ庄"},{"zipCode":"7430005","prefectureKana":"ﾔﾏｸﾞﾁｹﾝ","cityKana":"ﾋｶﾘｼ","streetKana":"ﾑﾛﾂﾞﾐﾋｶﾞｼﾉｼｮｳ","prefecture":"山口県","city":"光市","street":"室積東ノ庄"},{"zipCode":"7430073","prefectureKana":"ﾔﾏｸﾞﾁｹﾝ","cityKana":"ﾋｶﾘｼ","streetKana":"ﾑﾛﾂﾞﾐﾏｻｷ","prefecture":"山口県","city":"光市","street":"室積正木"},{"zipCode":"7430009","prefectureKana":"ﾔﾏｸﾞﾁｹﾝ","cityKana":"ﾋｶﾘｼ","streetKana":"ﾑﾛﾂﾞﾐﾏﾂﾊﾞﾗ","prefecture":"山口県","city":"光市","street":"室積松原"},{"zipCode":"7430001","prefectureKana":"ﾔﾏｸﾞﾁｹﾝ","cityKana":"ﾋｶﾘｼ","streetKana":"ﾑﾛﾂﾞﾐﾑﾗ","prefecture":"山口県","city":"光市","street":"室積村"},{"zipCode":"7430044","prefectureKana":"ﾔﾏｸﾞﾁｹﾝ","cityKana":"ﾋｶﾘｼ","streetKana":"ﾜﾀﾞﾁｮｳ","prefecture":"山口県","city":"光市","street":"和田町"}]