[{"zipCode":"7460105","prefectureKana":"ﾔﾏｸﾞﾁｹﾝ","cityKana":"ｼｭｳﾅﾝｼ","streetKana":"ｳﾏｶﾞﾐ","prefecture":"山口県","city":"周南市","street":"馬神"},{"zipCode":"7460027","prefectureKana":"ﾔﾏｸﾞﾁｹﾝ","cityKana":"ｼｭｳﾅﾝｼ","streetKana":"ｵｶﾞﾜﾔﾁｮｳ","prefecture":"山口県","city":"周南市","street":"小川屋町"},{"zipCode":"7460013","prefectureKana":"ﾔﾏｸﾞﾁｹﾝ","cityKana":"ｼｭｳﾅﾝｼ","streetKana":"ｵｹｶﾞﾜﾁｮｳ","prefecture":"山口県","city":"周南市","street":"桶川町"},{"zipCode":"7460083","prefectureKana":"ﾔﾏｸﾞﾁｹﾝ","cityKana":"ｼｭｳﾅﾝｼ","streetKana":"ｵﾊﾞﾀ","prefecture":"山口県","city":"周南市","street":"小畑"},{"zipCode":"7460051","prefectureKana":"ﾔﾏｸﾞﾁｹﾝ","cityKana":"ｼｭｳﾅﾝｼ","streetKana":"ｵﾋﾒﾁｮｳ","prefecture":"山口県","city":"周南市","street":"御姫町"},{"zipCode":"7460036","prefectureKana":"ﾔﾏｸﾞﾁｹﾝ","cityKana":"ｼｭｳﾅﾝｼ","streetKana":"ｵﾝﾀﾞ","prefecture":"山口県","city":"周南市","street":"温田"},{"zipCode":"7460006","prefectureKana":"ﾔﾏｸﾞﾁｹﾝ","cityKana":"ｼｭｳﾅﾝｼ","streetKana":"ｶｲｾｲﾁｮｳ","prefecture":"山口県","city":"周南市","street":"開成町"},{"zipCode":"7460055","prefectureKana":"ﾔﾏｸﾞﾁｹﾝ","cityKana":"ｼｭｳﾅﾝｼ","streetKana":"ｶｾｶﾞﾜﾗﾁｮｳ","prefecture":"山口県","city":"周南市","street":"かせ河原町"},{"zipCode":"7460065","prefectureKana":"ﾔﾏｸﾞﾁｹﾝ","cityKana":"ｼｭｳﾅﾝｼ","streetKana":"ｶﾐｻｺﾁｮｳ","prefecture":"山口県","city":"周南市","street":"上迫町"},{"zipCode":"7460001","prefectureKana":"ﾔﾏｸﾞﾁｹﾝ","cityKana":"ｼｭｳﾅﾝｼ","streetKana":"ｶﾜｻｷ","prefecture":"山口県","city":"周南市","street":"川崎"},{"zipCode":"7460009","prefectureKana":"ﾔﾏｸﾞﾁｹﾝ","cityKana":"ｼｭｳﾅﾝｼ","streetKana":"ｶﾜﾃ","prefecture":"山口県","city":"周南市","street":"川手"},{"zipCode":"7460024","prefectureKana":"ﾔﾏｸﾞﾁｹﾝ","cityKana":"ｼｭｳﾅﾝｼ","streetKana":"ｺｲｽﾞﾐ","prefecture":"山口県","city":"周南市","street":"古泉"},{"zipCode":"7460032","prefectureKana":"ﾔﾏｸﾞﾁｹﾝ","cityKana":"ｼｭｳﾅﾝｼ","streetKana":"ｺｳﾁﾁｮｳ","prefecture":"山口県","city":"周南市","street":"河内町"},{"zipCode":"7460031","prefectureKana":"ﾔﾏｸﾞﾁｹﾝ","cityKana":"ｼｭｳﾅﾝｼ","streetKana":"ｻｶﾈﾁｮｳ","prefecture":"山口県","city":"周南市","street":"坂根町"},{"zipCode":"7460061","prefectureKana":"ﾔﾏｸﾞﾁｹﾝ","cityKana":"ｼｭｳﾅﾝｼ","streetKana":"ｻﾗﾔﾏﾁｮｳ","prefecture":"山口県","city":"周南市","street":"皿山町"},{"zipCode":"7460008","prefectureKana":"ﾔﾏｸﾞﾁｹﾝ","cityKana":"ｼｭｳﾅﾝｼ","streetKana":"ｼｲｷﾞﾁｮｳ","prefecture":"山口県","city":"周南市","street":"椎木町"},{"zipCode":"7460081","prefectureKana":"ﾔﾏｸﾞﾁｹﾝ","cityKana":"ｼｭｳﾅﾝｼ","streetKana":"ｼｸﾏ","prefecture":"山口県","city":"周南市","street":"四熊"},{"zipCode":"7460015","prefectureKana":"ﾔﾏｸﾞﾁｹﾝ","cityKana":"ｼｭｳﾅﾝｼ","streetKana":"ｼﾐｽﾞ","prefecture":"山口県","city":"周南市","street":"清水"},{"zipCode":"7460082","prefectureKana":"ﾔﾏｸﾞﾁｹﾝ","cityKana":"ｼｭｳﾅﾝｼ","streetKana":"ｼﾓｶﾐ","prefecture":"山口県","city":"周南市","street":"下上"},{"zipCode":"7460041","prefectureKana":"ﾔﾏｸﾞﾁｹﾝ","cityKana":"ｼｭｳﾅﾝｼ","streetKana":"ｼｬﾁﾁｮｳ","prefecture":"山口県","city":"周南市","street":"社地町"},{"zipCode":"7460045","prefectureKana":"ﾔﾏｸﾞﾁｹﾝ","cityKana":"ｼｭｳﾅﾝｼ","streetKana":"ｼﾝﾁﾁｮｳ","prefecture":"山口県","city":"周南市","street":"新地町"},{"zipCode":"7460033","prefectureKana":"ﾔﾏｸﾞﾁｹﾝ","cityKana":"ｼｭｳﾅﾝｼ","streetKana":"ｼﾝﾂﾞﾂﾐﾁｮｳ","prefecture":"山口県","city":"周南市","street":"新堤町"},{"zipCode":"7460043","prefectureKana":"ﾔﾏｸﾞﾁｹﾝ","cityKana":"ｼｭｳﾅﾝｼ","streetKana":"ｼﾝﾃﾞﾝ","prefecture":"山口県","city":"周南市","street":"新田"},{"zipCode":"7460018","prefectureKana":"ﾔﾏｸﾞﾁｹﾝ","cityKana":"ｼｭｳﾅﾝｼ","streetKana":"ﾀﾞｲｼﾞﾝ","prefecture":"山口県","city":"周南市","street":"大神"},{"zipCode":"7460103","prefectureKana":"ﾔﾏｸﾞﾁｹﾝ","cityKana":"ｼｭｳﾅﾝｼ","streetKana":"ﾀｵ","prefecture":"山口県","city":"周南市","street":"垰"},{"zipCode":"7460101","prefectureKana":"ﾔﾏｸﾞﾁｹﾝ","cityKana":"ｼｭｳﾅﾝｼ","streetKana":"ﾀｶｾ","prefecture":"山口県","city":"周南市","street":"高瀬"},{"zipCode":"7460007","prefectureKana":"ﾔﾏｸﾞﾁｹﾝ","cityKana":"ｼｭｳﾅﾝｼ","streetKana":"ﾀｹｼﾏﾁｮｳ","prefecture":"山口県","city":"周南市","street":"竹島町"},{"zipCode":"7460016","prefectureKana":"ﾔﾏｸﾞﾁｹﾝ","cityKana":"ｼｭｳﾅﾝｼ","streetKana":"ﾁｭｳｵｳﾁｮｳ","prefecture":"山口県","city":"周南市","street":"中央町"},{"zipCode":"7460011","prefectureKana":"ﾔﾏｸﾞﾁｹﾝ","cityKana":"ｼｭｳﾅﾝｼ","streetKana":"ﾄﾞｲ","prefecture":"山口県","city":"周南市","street":"土井"},{"zipCode":"7460003","prefectureKana":"ﾔﾏｸﾞﾁｹﾝ","cityKana":"ｼｭｳﾅﾝｼ","streetKana":"ﾄﾞｳｹﾞﾝﾁｮｳ","prefecture":"山口県","city":"周南市","street":"道源町"},{"zipCode":"7460034","prefectureKana":"ﾔﾏｸﾞﾁｹﾝ","cityKana":"ｼｭｳﾅﾝｼ","streetKana":"ﾄﾝﾀﾞ","prefecture":"山口県","city":"周南市","street":"富田"},{"zipCode":"7460054","prefectureKana":"ﾔﾏｸﾞﾁｹﾝ","cityKana":"ｼｭｳﾅﾝｼ","streetKana":"ﾅｶﾞﾀﾁｮｳ","prefecture":"山口県","city":"周南市","street":"長田町"},{"zipCode":"7460052","prefectureKana":"ﾔﾏｸﾞﾁｹﾝ","cityKana":"ｼｭｳﾅﾝｼ","streetKana":"ﾅｶﾅﾜﾃﾁｮｳ","prefecture":"山口県","city":"周南市","street":"中畷町"},{"zipCode":"7460005","prefectureKana":"ﾔﾏｸﾞﾁｹﾝ","cityKana":"ｼｭｳﾅﾝｼ","streetKana":"ﾅｷﾞｻﾁｮｳ","prefecture":"山口県","city":"周南市","street":"渚町"},{"zipCode":"7460102","prefectureKana":"ﾔﾏｸﾞﾁｹﾝ","cityKana":"ｼｭｳﾅﾝｼ","streetKana":"ﾅﾂｷﾘ","prefecture":"山口県","city":"周南市","street":"夏切"},{"zipCode":"7460002","prefectureKana":"ﾔﾏｸﾞﾁｹﾝ","cityKana":"ｼｭｳﾅﾝｼ","streetKana":"ﾆｼﾁﾖﾀﾞﾁｮｳ","prefecture":"山口県","city":"周南市","street":"西千代田町"},{"zipCode":"7460044","prefectureKana":"ﾔﾏｸﾞﾁｹﾝ","cityKana":"ｼｭｳﾅﾝｼ","streetKana":"ﾆｼﾏｽﾁｮｳ","prefecture":"山口県","city":"周南市","street":"西桝町"},{"zipCode":"7460022","prefectureKana":"ﾔﾏｸﾞﾁｹﾝ","cityKana":"ｼｭｳﾅﾝｼ","streetKana":"ﾉﾑﾗ","prefecture":"山口県","city":"周南市","street":"野村"},{"zipCode":"7460023","prefectureKana":"ﾔﾏｸﾞﾁｹﾝ","cityKana":"ｼｭｳﾅﾝｼ","streetKana":"ﾉﾑﾗﾐﾅﾐﾏﾁ","prefecture":"山口県","city":"周南市","street":"野村南町"},{"zipCode":"7460056","prefectureKana":"ﾔﾏｸﾞﾁｹﾝ","cityKana":"ｼｭｳﾅﾝｼ","streetKana":"ﾊｼﾞﾏ","prefecture":"山口県","city":"周南市","street":"羽島"},{"zipCode":"7460021","prefectureKana":"ﾔﾏｸﾞﾁｹﾝ","cityKana":"ｼｭｳﾅﾝｼ","streetKana":"ﾊﾅｿﾞﾉﾁｮｳ","prefecture":"山口県","city":"周南市","street":"花園町"},{"zipCode":"7460026","prefectureKana":"ﾔﾏｸﾞﾁｹﾝ","cityKana":"ｼｭｳﾅﾝｼ","streetKana":"ﾊﾏﾀﾞ","prefecture":"山口県","city":"周南市","street":"浜田"},{"zipCode":"7460035","prefectureKana":"ﾔﾏｸﾞﾁｹﾝ","cityKana":"ｼｭｳﾅﾝｼ","streetKana":"ﾋｼﾞﾁｮｳ","prefecture":"山口県","city":"周南市","street":"日地町"},{"zipCode":"7460029","prefectureKana":"ﾔﾏｸﾞﾁｹﾝ","cityKana":"ｼｭｳﾅﾝｼ","streetKana":"ﾋﾗﾉ","prefecture":"山口県","city":"周南市","street":"平野"},{"zipCode":"7460038","prefectureKana":"ﾔﾏｸﾞﾁｹﾝ","cityKana":"ｼｭｳﾅﾝｼ","streetKana":"ﾌｸｶﾞﾜ","prefecture":"山口県","city":"周南市","street":"福川"},{"zipCode":"7460062","prefectureKana":"ﾔﾏｸﾞﾁｹﾝ","cityKana":"ｼｭｳﾅﾝｼ","streetKana":"ﾌｸｶﾞﾜﾅｶｲﾁﾁｮｳ","prefecture":"山口県","city":"周南市","street":"福川中市町"},{"zipCode":"7460042","prefectureKana":"ﾔﾏｸﾞﾁｹﾝ","cityKana":"ｼｭｳﾅﾝｼ","streetKana":"ﾌｸｶﾞﾜﾐﾅﾐﾏﾁ","prefecture":"山口県","city":"周南市","street":"福川南町"},{"zipCode":"7460025","prefectureKana":"ﾔﾏｸﾞﾁｹﾝ","cityKana":"ｼｭｳﾅﾝｼ","streetKana":"ﾌﾙｲﾁ","prefecture":"山口県","city":"周南市","street":"古市"},{"zipCode":"7460014","prefectureKana":"ﾔﾏｸﾞﾁｹﾝ","cityKana":"ｼｭｳﾅﾝｼ","streetKana":"ﾌﾙｶﾜﾁｮｳ","prefecture":"山口県","city":"周南市","street":"古川町"},{"zipCode":"7460063","prefectureKana":"ﾔﾏｸﾞﾁｹﾝ","cityKana":"ｼｭｳﾅﾝｼ","streetKana":"ﾎﾝｼﾞﾝﾁｮｳ","prefecture":"山口県","city":"周南市","street":"本陣町"},{"zipCode":"7460012","prefectureKana":"ﾔﾏｸﾞﾁｹﾝ","cityKana":"ｼｭｳﾅﾝｼ","streetKana":"ﾏﾄﾞｺﾛ","prefecture":"山口県","city":"周南市","street":"政所"},{"zipCode":"7460037","prefectureKana":"ﾔﾏｸﾞﾁｹﾝ","cityKana":"ｼｭｳﾅﾝｼ","streetKana":"ﾏﾙﾔﾏﾁｮｳ","prefecture":"山口県","city":"周南市","street":"丸山町"},{"zipCode":"7460004","prefectureKana":"ﾔﾏｸﾞﾁｹﾝ","cityKana":"ｼｭｳﾅﾝｼ","streetKana":"ﾐｻｻﾁｮｳ","prefecture":"山口県","city":"周南市","street":"三笹町"},{"zipCode":"7460028","prefectureKana":"ﾔﾏｸﾞﾁｹﾝ","cityKana":"ｼｭｳﾅﾝｼ","streetKana":"ﾐﾅﾄﾏﾁ","prefecture":"山口県","city":"周南市","street":"港町"},{"zipCode":"7460017","prefectureKana":"ﾔﾏｸﾞﾁｹﾝ","cityKana":"ｼｭｳﾅﾝｼ","streetKana":"ﾐﾔﾉﾏｴ","prefecture":"山口県","city":"周南市","street":"宮の前"},{"zipCode":"7460053","prefectureKana":"ﾔﾏｸﾞﾁｹﾝ","cityKana":"ｼｭｳﾅﾝｼ","streetKana":"ﾑﾛｵ","prefecture":"山口県","city":"周南市","street":"室尾"},{"zipCode":"7460084","prefectureKana":"ﾔﾏｸﾞﾁｹﾝ","cityKana":"ｼｭｳﾅﾝｼ","streetKana":"ﾔｼﾞ","prefecture":"山口県","city":"周南市","street":"夜市"},{"zipCode":"7460104","prefectureKana":"ﾔﾏｸﾞﾁｹﾝ","cityKana":"ｼｭｳﾅﾝｼ","streetKana":"ﾖﾈﾐﾂ","prefecture":"山口県","city":"周南市","street":"米光"},{"zipCode":"7460019","prefectureKana":"ﾔﾏｸﾞﾁｹﾝ","cityKana":"ｼｭｳﾅﾝｼ","streetKana":"ﾘﾝｶｲﾁｮｳ","prefecture":"山口県","city":"周南市","street":"臨海町"},{"zipCode":"7460064","prefectureKana":"ﾔﾏｸﾞﾁｹﾝ","cityKana":"ｼｭｳﾅﾝｼ","streetKana":"ﾜｶﾔﾏ","prefecture":"山口県","city":"周南市","street":"若山"}]