[{"zipCode":"7510846","prefectureKana":"ﾔﾏｸﾞﾁｹﾝ","cityKana":"ｼﾓﾉｾｷｼ","streetKana":"ｱｶﾀﾞ","prefecture":"山口県","city":"下関市","street":"垢田"},{"zipCode":"7510841","prefectureKana":"ﾔﾏｸﾞﾁｹﾝ","cityKana":"ｼﾓﾉｾｷｼ","streetKana":"ｱｶﾀﾞﾁｮｳ","prefecture":"山口県","city":"下関市","street":"垢田町"},{"zipCode":"7510871","prefectureKana":"ﾔﾏｸﾞﾁｹﾝ","cityKana":"ｼﾓﾉｾｷｼ","streetKana":"ｱｷﾈ","prefecture":"山口県","city":"下関市","street":"秋根"},{"zipCode":"7510878","prefectureKana":"ﾔﾏｸﾞﾁｹﾝ","cityKana":"ｼﾓﾉｾｷｼ","streetKana":"ｱｷﾈｶﾐﾏﾁ","prefecture":"山口県","city":"下関市","street":"秋根上町"},{"zipCode":"7510874","prefectureKana":"ﾔﾏｸﾞﾁｹﾝ","cityKana":"ｼﾓﾉｾｷｼ","streetKana":"ｱｷﾈｼﾝﾏﾁ","prefecture":"山口県","city":"下関市","street":"秋根新町"},{"zipCode":"7510877","prefectureKana":"ﾔﾏｸﾞﾁｹﾝ","cityKana":"ｼﾓﾉｾｷｼ","streetKana":"ｱｷﾈﾋｶﾞｼﾏﾁ","prefecture":"山口県","city":"下関市","street":"秋根東町"},{"zipCode":"7510873","prefectureKana":"ﾔﾏｸﾞﾁｹﾝ","cityKana":"ｼﾓﾉｾｷｼ","streetKana":"ｱｷﾈﾆｼﾏﾁ","prefecture":"山口県","city":"下関市","street":"秋根西町"},{"zipCode":"7510872","prefectureKana":"ﾔﾏｸﾞﾁｹﾝ","cityKana":"ｼﾓﾉｾｷｼ","streetKana":"ｱｷﾈﾐﾅﾐﾏﾁ","prefecture":"山口県","city":"下関市","street":"秋根南町"},{"zipCode":"7510876","prefectureKana":"ﾔﾏｸﾞﾁｹﾝ","cityKana":"ｼﾓﾉｾｷｼ","streetKana":"ｱｷﾈｷﾀﾏﾁ","prefecture":"山口県","city":"下関市","street":"秋根北町"},{"zipCode":"7510875","prefectureKana":"ﾔﾏｸﾞﾁｹﾝ","cityKana":"ｼﾓﾉｾｷｼ","streetKana":"ｱｷﾈﾎﾝﾏﾁ","prefecture":"山口県","city":"下関市","street":"秋根本町"},{"zipCode":"7510866","prefectureKana":"ﾔﾏｸﾞﾁｹﾝ","cityKana":"ｼﾓﾉｾｷｼ","streetKana":"ｱﾔﾗｷﾞ","prefecture":"山口県","city":"下関市","street":"綾羅木"},{"zipCode":"7510865","prefectureKana":"ﾔﾏｸﾞﾁｹﾝ","cityKana":"ｼﾓﾉｾｷｼ","streetKana":"ｱﾔﾗｷﾞｼﾝﾏﾁ","prefecture":"山口県","city":"下関市","street":"綾羅木新町"},{"zipCode":"7510849","prefectureKana":"ﾔﾏｸﾞﾁｹﾝ","cityKana":"ｼﾓﾉｾｷｼ","streetKana":"ｱﾔﾗｷﾞﾎﾝﾏﾁ","prefecture":"山口県","city":"下関市","street":"綾羅木本町"},{"zipCode":"7510848","prefectureKana":"ﾔﾏｸﾞﾁｹﾝ","cityKana":"ｼﾓﾉｾｷｼ","streetKana":"ｱﾔﾗｷﾞﾐﾅﾐﾏﾁ","prefecture":"山口県","city":"下関市","street":"綾羅木南町"},{"zipCode":"7510868","prefectureKana":"ﾔﾏｸﾞﾁｹﾝ","cityKana":"ｼﾓﾉｾｷｼ","streetKana":"ｱﾘﾄﾞﾐ","prefecture":"山口県","city":"下関市","street":"有冨"},{"zipCode":"7510832","prefectureKana":"ﾔﾏｸﾞﾁｹﾝ","cityKana":"ｼﾓﾉｾｷｼ","streetKana":"ｲｸﾉﾁｮｳ","prefecture":"山口県","city":"下関市","street":"生野町"},{"zipCode":"7510862","prefectureKana":"ﾔﾏｸﾞﾁｹﾝ","cityKana":"ｼﾓﾉｾｷｼ","streetKana":"ｲｸﾗ","prefecture":"山口県","city":"下関市","street":"伊倉"},{"zipCode":"7510869","prefectureKana":"ﾔﾏｸﾞﾁｹﾝ","cityKana":"ｼﾓﾉｾｷｼ","streetKana":"ｲｸﾗｼﾝﾏﾁ","prefecture":"山口県","city":"下関市","street":"伊倉新町"},{"zipCode":"7510861","prefectureKana":"ﾔﾏｸﾞﾁｹﾝ","cityKana":"ｼﾓﾉｾｷｼ","streetKana":"ｲｸﾗﾋｶﾞｼﾏﾁ","prefecture":"山口県","city":"下関市","street":"伊倉東町"},{"zipCode":"7510863","prefectureKana":"ﾔﾏｸﾞﾁｹﾝ","cityKana":"ｼﾓﾉｾｷｼ","streetKana":"ｲｸﾗﾎﾝﾏﾁ","prefecture":"山口県","city":"下関市","street":"伊倉本町"},{"zipCode":"7510864","prefectureKana":"ﾔﾏｸﾞﾁｹﾝ","cityKana":"ｼﾓﾉｾｷｼ","streetKana":"ｲｸﾗﾁｮｳ","prefecture":"山口県","city":"下関市","street":"伊倉町"},{"zipCode":"7510825","prefectureKana":"ﾔﾏｸﾞﾁｹﾝ","cityKana":"ｼﾓﾉｾｷｼ","streetKana":"ｲｼｶﾞﾐﾁｮｳ","prefecture":"山口県","city":"下関市","street":"石神町"},{"zipCode":"7510886","prefectureKana":"ﾔﾏｸﾞﾁｹﾝ","cityKana":"ｼﾓﾉｾｷｼ","streetKana":"ｲｼﾊﾗ","prefecture":"山口県","city":"下関市","street":"石原"},{"zipCode":"7510881","prefectureKana":"ﾔﾏｸﾞﾁｹﾝ","cityKana":"ｼﾓﾉｾｷｼ","streetKana":"ｲﾀﾞ","prefecture":"山口県","city":"下関市","street":"井田"},{"zipCode":"7510817","prefectureKana":"ﾔﾏｸﾞﾁｹﾝ","cityKana":"ｼﾓﾉｾｷｼ","streetKana":"ｲﾁﾉﾐﾔｵﾛｼﾎﾝﾏﾁ","prefecture":"山口県","city":"下関市","street":"一の宮卸本町"},{"zipCode":"7510807","prefectureKana":"ﾔﾏｸﾞﾁｹﾝ","cityKana":"ｼﾓﾉｾｷｼ","streetKana":"ｲﾁﾉﾐﾔｶﾞｸｴﾝﾁｮｳ","prefecture":"山口県","city":"下関市","street":"一の宮学園町"},{"zipCode":"7510805","prefectureKana":"ﾔﾏｸﾞﾁｹﾝ","cityKana":"ｼﾓﾉｾｷｼ","streetKana":"ｲﾁﾉﾐﾔｽﾐﾖｼ","prefecture":"山口県","city":"下関市","street":"一の宮住吉"},{"zipCode":"7510809","prefectureKana":"ﾔﾏｸﾞﾁｹﾝ","cityKana":"ｼﾓﾉｾｷｼ","streetKana":"ｲﾁﾉﾐﾔﾋｶﾞｼﾏﾁ","prefecture":"山口県","city":"下関市","street":"一の宮東町"},{"zipCode":"7510808","prefectureKana":"ﾔﾏｸﾞﾁｹﾝ","cityKana":"ｼﾓﾉｾｷｼ","streetKana":"ｲﾁﾉﾐﾔﾎﾝﾏﾁ","prefecture":"山口県","city":"下関市","street":"一の宮本町"},{"zipCode":"7510806","prefectureKana":"ﾔﾏｸﾞﾁｹﾝ","cityKana":"ｼﾓﾉｾｷｼ","streetKana":"ｲﾁﾉﾐﾔﾁｮｳ","prefecture":"山口県","city":"下関市","street":"一の宮町"},{"zipCode":"7510826","prefectureKana":"ﾔﾏｸﾞﾁｹﾝ","cityKana":"ｼﾓﾉｾｷｼ","streetKana":"ｳｼﾛﾀﾞﾁｮｳ","prefecture":"山口県","city":"下関市","street":"後田町"},{"zipCode":"7510887","prefectureKana":"ﾔﾏｸﾞﾁｹﾝ","cityKana":"ｼﾓﾉｾｷｼ","streetKana":"ｵﾉ","prefecture":"山口県","city":"下関市","street":"小野"},{"zipCode":"7510818","prefectureKana":"ﾔﾏｸﾞﾁｹﾝ","cityKana":"ｼﾓﾉｾｷｼ","streetKana":"ｵﾛｼｼﾝﾏﾁ","prefecture":"山口県","city":"下関市","street":"卸新町"},{"zipCode":"7510884","prefectureKana":"ﾔﾏｸﾞﾁｹﾝ","cityKana":"ｼﾓﾉｾｷｼ","streetKana":"ｶﾀﾁﾔﾏ","prefecture":"山口県","city":"下関市","street":"形山"},{"zipCode":"7510888","prefectureKana":"ﾔﾏｸﾞﾁｹﾝ","cityKana":"ｼﾓﾉｾｷｼ","streetKana":"ｶﾀﾁﾔﾏﾁｮｳ","prefecture":"山口県","city":"下関市","street":"形山町"},{"zipCode":"7510885","prefectureKana":"ﾔﾏｸﾞﾁｹﾝ","cityKana":"ｼﾓﾉｾｷｼ","streetKana":"ｶﾀﾁﾔﾏﾐﾄﾞﾘﾏﾁ","prefecture":"山口県","city":"下関市","street":"形山みどり町"},{"zipCode":"7510859","prefectureKana":"ﾔﾏｸﾞﾁｹﾝ","cityKana":"ｼﾓﾉｾｷｼ","streetKana":"ｶﾜﾅｶﾎﾝﾏﾁ","prefecture":"山口県","city":"下関市","street":"川中本町"},{"zipCode":"7510853","prefectureKana":"ﾔﾏｸﾞﾁｹﾝ","cityKana":"ｼﾓﾉｾｷｼ","streetKana":"ｶﾜﾅｶﾕﾀｶﾏﾁ","prefecture":"山口県","city":"下関市","street":"川中豊町"},{"zipCode":"7510823","prefectureKana":"ﾔﾏｸﾞﾁｹﾝ","cityKana":"ｼﾓﾉｾｷｼ","streetKana":"ｷﾌﾞﾈﾏﾁ","prefecture":"山口県","city":"下関市","street":"貴船町"},{"zipCode":"7510804","prefectureKana":"ﾔﾏｸﾞﾁｹﾝ","cityKana":"ｼﾓﾉｾｷｼ","streetKana":"ｸｽﾉ","prefecture":"山口県","city":"下関市","street":"楠乃"},{"zipCode":"7510852","prefectureKana":"ﾔﾏｸﾞﾁｹﾝ","cityKana":"ｼﾓﾉｾｷｼ","streetKana":"ｸﾏﾉﾁｮｳ","prefecture":"山口県","city":"下関市","street":"熊野町"},{"zipCode":"7510851","prefectureKana":"ﾔﾏｸﾞﾁｹﾝ","cityKana":"ｼﾓﾉｾｷｼ","streetKana":"ｸﾏﾉﾆｼﾏﾁ","prefecture":"山口県","city":"下関市","street":"熊野西町"},{"zipCode":"7510801","prefectureKana":"ﾔﾏｸﾞﾁｹﾝ","cityKana":"ｼﾓﾉｾｷｼ","streetKana":"ｼｮｳﾔ","prefecture":"山口県","city":"下関市","street":"勝谷"},{"zipCode":"7510802","prefectureKana":"ﾔﾏｸﾞﾁｹﾝ","cityKana":"ｼﾓﾉｾｷｼ","streetKana":"ｼｮｳﾔｼﾝﾏﾁ","prefecture":"山口県","city":"下関市","street":"勝谷新町"},{"zipCode":"7510843","prefectureKana":"ﾔﾏｸﾞﾁｹﾝ","cityKana":"ｼﾓﾉｾｷｼ","streetKana":"ｼﾝｱｶﾀﾞﾋｶﾞｼﾏﾁ","prefecture":"山口県","city":"下関市","street":"新垢田東町"},{"zipCode":"7510844","prefectureKana":"ﾔﾏｸﾞﾁｹﾝ","cityKana":"ｼﾓﾉｾｷｼ","streetKana":"ｼﾝｱｶﾀﾞﾆｼﾏﾁ","prefecture":"山口県","city":"下関市","street":"新垢田西町"},{"zipCode":"7510842","prefectureKana":"ﾔﾏｸﾞﾁｹﾝ","cityKana":"ｼﾓﾉｾｷｼ","streetKana":"ｼﾝｱｶﾀﾞﾐﾅﾐﾏﾁ","prefecture":"山口県","city":"下関市","street":"新垢田南町"},{"zipCode":"7510845","prefectureKana":"ﾔﾏｸﾞﾁｹﾝ","cityKana":"ｼﾓﾉｾｷｼ","streetKana":"ｼﾝｱｶﾀﾞｷﾀﾏﾁ","prefecture":"山口県","city":"下関市","street":"新垢田北町"},{"zipCode":"7510820","prefectureKana":"ﾔﾏｸﾞﾁｹﾝ","cityKana":"ｼﾓﾉｾｷｼ","streetKana":"ｼﾝﾑｸﾉ","prefecture":"山口県","city":"下関市","street":"新椋野"},{"zipCode":"7510822","prefectureKana":"ﾔﾏｸﾞﾁｹﾝ","cityKana":"ｼﾓﾉｾｷｼ","streetKana":"ﾀｶﾗﾏﾁ","prefecture":"山口県","city":"下関市","street":"宝町"},{"zipCode":"7510883","prefectureKana":"ﾔﾏｸﾞﾁｹﾝ","cityKana":"ｼﾓﾉｾｷｼ","streetKana":"ﾀｸﾗ","prefecture":"山口県","city":"下関市","street":"田倉"},{"zipCode":"7510882","prefectureKana":"ﾔﾏｸﾞﾁｹﾝ","cityKana":"ｼﾓﾉｾｷｼ","streetKana":"ﾀｸﾗｺﾞﾃﾝﾏﾁ","prefecture":"山口県","city":"下関市","street":"田倉御殿町"},{"zipCode":"7510833","prefectureKana":"ﾔﾏｸﾞﾁｹﾝ","cityKana":"ｼﾓﾉｾｷｼ","streetKana":"ﾀｹﾋｻﾁｮｳ","prefecture":"山口県","city":"下関市","street":"武久町"},{"zipCode":"7510819","prefectureKana":"ﾔﾏｸﾞﾁｹﾝ","cityKana":"ｼﾓﾉｾｷｼ","streetKana":"ﾀｹﾋｻﾆｼﾊﾗﾀﾞｲ","prefecture":"山口県","city":"下関市","street":"武久西原台"},{"zipCode":"7510831","prefectureKana":"ﾔﾏｸﾞﾁｹﾝ","cityKana":"ｼﾓﾉｾｷｼ","streetKana":"ﾀﾞｲｶﾞｸﾁｮｳ","prefecture":"山口県","city":"下関市","street":"大学町"},{"zipCode":"7510814","prefectureKana":"ﾔﾏｸﾞﾁｹﾝ","cityKana":"ｼﾓﾉｾｷｼ","streetKana":"ﾀﾞﾝﾉｳﾗﾁｮｳ","prefecture":"山口県","city":"下関市","street":"壇之浦町"},{"zipCode":"7510840","prefectureKana":"ﾔﾏｸﾞﾁｹﾝ","cityKana":"ｼﾓﾉｾｷｼ","streetKana":"ﾁｮｳｼｭｳﾃﾞｼﾞﾏ","prefecture":"山口県","city":"下関市","street":"長州出島"},{"zipCode":"7510867","prefectureKana":"ﾔﾏｸﾞﾁｹﾝ","cityKana":"ｼﾓﾉｾｷｼ","streetKana":"ﾉﾌﾞﾕｷ","prefecture":"山口県","city":"下関市","street":"延行"},{"zipCode":"7510830","prefectureKana":"ﾔﾏｸﾞﾁｹﾝ","cityKana":"ｼﾓﾉｾｷｼ","streetKana":"ﾊﾀﾌﾞｼﾝﾏﾁ","prefecture":"山口県","city":"下関市","street":"幡生新町"},{"zipCode":"7510827","prefectureKana":"ﾔﾏｸﾞﾁｹﾝ","cityKana":"ｼﾓﾉｾｷｼ","streetKana":"ﾊﾀﾌﾞﾎﾝﾏﾁ","prefecture":"山口県","city":"下関市","street":"幡生本町"},{"zipCode":"7510829","prefectureKana":"ﾔﾏｸﾞﾁｹﾝ","cityKana":"ｼﾓﾉｾｷｼ","streetKana":"ﾊﾀﾌﾞﾐﾔﾉｼﾀﾁｮｳ","prefecture":"山口県","city":"下関市","street":"幡生宮の下町"},{"zipCode":"7510828","prefectureKana":"ﾔﾏｸﾞﾁｹﾝ","cityKana":"ｼﾓﾉｾｷｼ","streetKana":"ﾊﾀﾌﾞﾁｮｳ","prefecture":"山口県","city":"下関市","street":"幡生町"},{"zipCode":"7510856","prefectureKana":"ﾔﾏｸﾞﾁｹﾝ","cityKana":"ｼﾓﾉｾｷｼ","streetKana":"ﾋｴﾀﾞﾅｶﾏﾁ","prefecture":"山口県","city":"下関市","street":"稗田中町"},{"zipCode":"7510855","prefectureKana":"ﾔﾏｸﾞﾁｹﾝ","cityKana":"ｼﾓﾉｾｷｼ","streetKana":"ﾋｴﾀﾞﾆｼﾏﾁ","prefecture":"山口県","city":"下関市","street":"稗田西町"},{"zipCode":"7510854","prefectureKana":"ﾔﾏｸﾞﾁｹﾝ","cityKana":"ｼﾓﾉｾｷｼ","streetKana":"ﾋｴﾀﾞﾐﾅﾐﾏﾁ","prefecture":"山口県","city":"下関市","street":"稗田南町"},{"zipCode":"7510857","prefectureKana":"ﾔﾏｸﾞﾁｹﾝ","cityKana":"ｼﾓﾉｾｷｼ","streetKana":"ﾋｴﾀﾞｷﾀﾏﾁ","prefecture":"山口県","city":"下関市","street":"稗田北町"},{"zipCode":"7510858","prefectureKana":"ﾔﾏｸﾞﾁｹﾝ","cityKana":"ｼﾓﾉｾｷｼ","streetKana":"ﾋｴﾀﾞﾁｮｳ","prefecture":"山口県","city":"下関市","street":"稗田町"},{"zipCode":"7510879","prefectureKana":"ﾔﾏｸﾞﾁｹﾝ","cityKana":"ｼﾓﾉｾｷｼ","streetKana":"ﾋｶﾞｼｼｮｳﾔ","prefecture":"山口県","city":"下関市","street":"東勝谷"},{"zipCode":"7510811","prefectureKana":"ﾔﾏｸﾞﾁｹﾝ","cityKana":"ｼﾓﾉｾｷｼ","streetKana":"ﾌｼﾞｶﾞﾀﾆﾁｮｳ","prefecture":"山口県","city":"下関市","street":"藤ケ谷町"},{"zipCode":"7510847","prefectureKana":"ﾔﾏｸﾞﾁｹﾝ","cityKana":"ｼﾓﾉｾｷｼ","streetKana":"ﾌﾙﾔﾁｮｳ","prefecture":"山口県","city":"下関市","street":"古屋町"},{"zipCode":"7510815","prefectureKana":"ﾔﾏｸﾞﾁｹﾝ","cityKana":"ｼﾓﾉｾｷｼ","streetKana":"ﾎﾝﾏﾁ","prefecture":"山口県","city":"下関市","street":"本町"},{"zipCode":"7510803","prefectureKana":"ﾔﾏｸﾞﾁｹﾝ","cityKana":"ｼﾓﾉｾｷｼ","streetKana":"ﾏｴｼｮｳﾔﾁｮｳ","prefecture":"山口県","city":"下関市","street":"前勝谷町"},{"zipCode":"7510821","prefectureKana":"ﾔﾏｸﾞﾁｹﾝ","cityKana":"ｼﾓﾉｾｷｼ","streetKana":"ﾐｶﾜﾁｮｳ","prefecture":"山口県","city":"下関市","street":"三河町"},{"zipCode":"7510813","prefectureKana":"ﾔﾏｸﾞﾁｹﾝ","cityKana":"ｼﾓﾉｾｷｼ","streetKana":"ﾐﾓｽｿｶﾞﾜﾁｮｳ","prefecture":"山口県","city":"下関市","street":"みもすそ川町"},{"zipCode":"7510812","prefectureKana":"ﾔﾏｸﾞﾁｹﾝ","cityKana":"ｼﾓﾉｾｷｼ","streetKana":"ﾑｸﾉｶﾐﾏﾁ","prefecture":"山口県","city":"下関市","street":"椋野上町"},{"zipCode":"7510816","prefectureKana":"ﾔﾏｸﾞﾁｹﾝ","cityKana":"ｼﾓﾉｾｷｼ","streetKana":"ﾑｸﾉﾁｮｳ","prefecture":"山口県","city":"下関市","street":"椋野町"},{"zipCode":"7510824","prefectureKana":"ﾔﾏｸﾞﾁｹﾝ","cityKana":"ｼﾓﾉｾｷｼ","streetKana":"ﾔﾏﾉｸﾁﾁｮｳ","prefecture":"山口県","city":"下関市","street":"山の口町"},{"zipCode":"7510837","prefectureKana":"ﾔﾏｸﾞﾁｹﾝ","cityKana":"ｼﾓﾉｾｷｼ","streetKana":"ﾔﾏﾉﾀﾁｭｳｵｳﾁｮｳ","prefecture":"山口県","city":"下関市","street":"山の田中央町"},{"zipCode":"7510834","prefectureKana":"ﾔﾏｸﾞﾁｹﾝ","cityKana":"ｼﾓﾉｾｷｼ","streetKana":"ﾔﾏﾉﾀﾋｶﾞｼﾏﾁ","prefecture":"山口県","city":"下関市","street":"山の田東町"},{"zipCode":"7510836","prefectureKana":"ﾔﾏｸﾞﾁｹﾝ","cityKana":"ｼﾓﾉｾｷｼ","streetKana":"ﾔﾏﾉﾀﾆｼﾏﾁ","prefecture":"山口県","city":"下関市","street":"山の田西町"},{"zipCode":"7510835","prefectureKana":"ﾔﾏｸﾞﾁｹﾝ","cityKana":"ｼﾓﾉｾｷｼ","streetKana":"ﾔﾏﾉﾀﾐﾅﾐﾏﾁ","prefecture":"山口県","city":"下関市","street":"山の田南町"},{"zipCode":"7510839","prefectureKana":"ﾔﾏｸﾞﾁｹﾝ","cityKana":"ｼﾓﾉｾｷｼ","streetKana":"ﾔﾏﾉﾀｷﾀﾏﾁ","prefecture":"山口県","city":"下関市","street":"山の田北町"},{"zipCode":"7510838","prefectureKana":"ﾔﾏｸﾞﾁｹﾝ","cityKana":"ｼﾓﾉｾｷｼ","streetKana":"ﾔﾏﾉﾀﾎﾝﾏﾁ","prefecture":"山口県","city":"下関市","street":"山の田本町"}]