[{"zipCode":"7520902","prefectureKana":"ﾔﾏｸﾞﾁｹﾝ","cityKana":"ｼﾓﾉｾｷｼ","streetKana":"ｱｶｲｹﾁｮｳ","prefecture":"山口県","city":"下関市","street":"赤池町"},{"zipCode":"7520923","prefectureKana":"ﾔﾏｸﾞﾁｹﾝ","cityKana":"ｼﾓﾉｾｷｼ","streetKana":"ｳﾍﾞ","prefecture":"山口県","city":"下関市","street":"宇部"},{"zipCode":"7520916","prefectureKana":"ﾔﾏｸﾞﾁｹﾝ","cityKana":"ｼﾓﾉｾｷｼ","streetKana":"ｵｳｼﾞｶﾐﾏﾁ","prefecture":"山口県","city":"下関市","street":"王司上町"},{"zipCode":"7520912","prefectureKana":"ﾔﾏｸﾞﾁｹﾝ","cityKana":"ｼﾓﾉｾｷｼ","streetKana":"ｵｳｼﾞｶﾜﾊﾞﾀ","prefecture":"山口県","city":"下関市","street":"王司川端"},{"zipCode":"7520911","prefectureKana":"ﾔﾏｸﾞﾁｹﾝ","cityKana":"ｼﾓﾉｾｷｼ","streetKana":"ｵｳｼﾞｶﾝﾀﾞ","prefecture":"山口県","city":"下関市","street":"王司神田"},{"zipCode":"7520915","prefectureKana":"ﾔﾏｸﾞﾁｹﾝ","cityKana":"ｼﾓﾉｾｷｼ","streetKana":"ｵｳｼﾞﾎﾝﾏﾁ","prefecture":"山口県","city":"下関市","street":"王司本町"},{"zipCode":"7520924","prefectureKana":"ﾔﾏｸﾞﾁｹﾝ","cityKana":"ｼﾓﾉｾｷｼ","streetKana":"ｵｳｼﾞﾐﾅﾐﾏﾁ","prefecture":"山口県","city":"下関市","street":"王司南町"},{"zipCode":"7520904","prefectureKana":"ﾔﾏｸﾞﾁｹﾝ","cityKana":"ｼﾓﾉｾｷｼ","streetKana":"ｶｽﾞﾐﾂ","prefecture":"山口県","city":"下関市","street":"員光"},{"zipCode":"7520903","prefectureKana":"ﾔﾏｸﾞﾁｹﾝ","cityKana":"ｼﾓﾉｾｷｼ","streetKana":"ｶｽﾞﾐﾂﾁｮｳ","prefecture":"山口県","city":"下関市","street":"員光町"},{"zipCode":"7520925","prefectureKana":"ﾔﾏｸﾞﾁｹﾝ","cityKana":"ｼﾓﾉｾｷｼ","streetKana":"ｶﾒﾊﾏﾁｮｳ","prefecture":"山口県","city":"下関市","street":"亀浜町"},{"zipCode":"7520907","prefectureKana":"ﾔﾏｸﾞﾁｹﾝ","cityKana":"ｼﾓﾉｾｷｼ","streetKana":"ｶﾝﾀﾞ","prefecture":"山口県","city":"下関市","street":"神田"},{"zipCode":"7520921","prefectureKana":"ﾔﾏｸﾞﾁｹﾝ","cityKana":"ｼﾓﾉｾｷｼ","streetKana":"ｻｲｶﾞﾜ","prefecture":"山口県","city":"下関市","street":"才川"},{"zipCode":"7520991","prefectureKana":"ﾔﾏｸﾞﾁｹﾝ","cityKana":"ｼﾓﾉｾｷｼ","streetKana":"ﾀｶﾊﾀ","prefecture":"山口県","city":"下関市","street":"高畑"},{"zipCode":"7520922","prefectureKana":"ﾔﾏｸﾞﾁｹﾝ","cityKana":"ｼﾓﾉｾｷｼ","streetKana":"ﾁﾄﾞﾘｶﾞｵｶﾁｮｳ","prefecture":"山口県","city":"下関市","street":"千鳥ケ丘町"},{"zipCode":"7520914","prefectureKana":"ﾔﾏｸﾞﾁｹﾝ","cityKana":"ｼﾓﾉｾｷｼ","streetKana":"ﾁﾄﾞﾘﾊﾏﾁｮｳ","prefecture":"山口県","city":"下関市","street":"千鳥浜町"},{"zipCode":"7520962","prefectureKana":"ﾔﾏｸﾞﾁｹﾝ","cityKana":"ｼﾓﾉｾｷｼ","streetKana":"ﾁｮｳﾌｱﾝﾖｳｼﾞ","prefecture":"山口県","city":"下関市","street":"長府安養寺"},{"zipCode":"7520957","prefectureKana":"ﾔﾏｸﾞﾁｹﾝ","cityKana":"ｼﾓﾉｾｷｼ","streetKana":"ﾁｮｳﾌｲﾝﾅｲﾁｮｳ","prefecture":"山口県","city":"下関市","street":"長府印内町"},{"zipCode":"7520952","prefectureKana":"ﾔﾏｸﾞﾁｹﾝ","cityKana":"ｼﾓﾉｾｷｼ","streetKana":"ﾁｮｳﾌｴｹﾞﾏﾁ","prefecture":"山口県","city":"下関市","street":"長府江下町"},{"zipCode":"7520971","prefectureKana":"ﾔﾏｸﾞﾁｹﾝ","cityKana":"ｼﾓﾉｾｷｼ","streetKana":"ﾁｮｳﾌｵｳｻｶﾁｮｳ","prefecture":"山口県","city":"下関市","street":"長府逢坂町"},{"zipCode":"7520927","prefectureKana":"ﾔﾏｸﾞﾁｹﾝ","cityKana":"ｼﾓﾉｾｷｼ","streetKana":"ﾁｮｳﾌｵｵｷﾞﾏﾁ","prefecture":"山口県","city":"下関市","street":"長府扇町"},{"zipCode":"7520959","prefectureKana":"ﾔﾏｸﾞﾁｹﾝ","cityKana":"ｼﾓﾉｾｷｼ","streetKana":"ﾁｮｳﾌｶﾅﾔﾁｮｳ","prefecture":"山口県","city":"下関市","street":"長府金屋町"},{"zipCode":"7520958","prefectureKana":"ﾔﾏｸﾞﾁｹﾝ","cityKana":"ｼﾓﾉｾｷｼ","streetKana":"ﾁｮｳﾌｶﾅﾔﾊﾏﾁｮｳ","prefecture":"山口県","city":"下関市","street":"長府金屋浜町"},{"zipCode":"7520966","prefectureKana":"ﾔﾏｸﾞﾁｹﾝ","cityKana":"ｼﾓﾉｾｷｼ","streetKana":"ﾁｮｳﾌｶﾒﾉｺｳ","prefecture":"山口県","city":"下関市","street":"長府亀の甲"},{"zipCode":"7520979","prefectureKana":"ﾔﾏｸﾞﾁｹﾝ","cityKana":"ｼﾓﾉｾｷｼ","streetKana":"ﾁｮｳﾌｶﾜﾊﾞﾀ","prefecture":"山口県","city":"下関市","street":"長府川端"},{"zipCode":"7520980","prefectureKana":"ﾔﾏｸﾞﾁｹﾝ","cityKana":"ｼﾓﾉｾｷｼ","streetKana":"ﾁｮｳﾌｸﾛﾓﾝﾁｮｳ","prefecture":"山口県","city":"下関市","street":"長府黒門町"},{"zipCode":"7520986","prefectureKana":"ﾔﾏｸﾞﾁｹﾝ","cityKana":"ｼﾓﾉｾｷｼ","streetKana":"ﾁｮｳﾌｸﾛﾓﾝﾋｶﾞｼﾏﾁ","prefecture":"山口県","city":"下関市","street":"長府黒門東町"},{"zipCode":"7520989","prefectureKana":"ﾔﾏｸﾞﾁｹﾝ","cityKana":"ｼﾓﾉｾｷｼ","streetKana":"ﾁｮｳﾌｸﾛﾓﾝﾐﾅﾐﾏﾁ","prefecture":"山口県","city":"下関市","street":"長府黒門南町"},{"zipCode":"7520954","prefectureKana":"ﾔﾏｸﾞﾁｹﾝ","cityKana":"ｼﾓﾉｾｷｼ","streetKana":"ﾁｮｳﾌｺｼﾞｮｳﾁｮｳ","prefecture":"山口県","city":"下関市","street":"長府古城町"},{"zipCode":"7520968","prefectureKana":"ﾔﾏｸﾞﾁｹﾝ","cityKana":"ｼﾓﾉｾｷｼ","streetKana":"ﾁｮｳﾌｺﾝﾔﾁｮｳ","prefecture":"山口県","city":"下関市","street":"長府紺屋町"},{"zipCode":"7520928","prefectureKana":"ﾔﾏｸﾞﾁｹﾝ","cityKana":"ｼﾓﾉｾｷｼ","streetKana":"ﾁｮｳﾌｻｲｶﾞﾜ","prefecture":"山口県","city":"下関市","street":"長府才川"},{"zipCode":"7520978","prefectureKana":"ﾔﾏｸﾞﾁｹﾝ","cityKana":"ｼﾓﾉｾｷｼ","streetKana":"ﾁｮｳﾌｻﾑﾗｲﾏﾁ","prefecture":"山口県","city":"下関市","street":"長府侍町"},{"zipCode":"7520942","prefectureKana":"ﾔﾏｸﾞﾁｹﾝ","cityKana":"ｼﾓﾉｾｷｼ","streetKana":"ﾁｮｳﾌｼｵｳｼﾞﾁｮｳ","prefecture":"山口県","city":"下関市","street":"長府四王司町"},{"zipCode":"7520941","prefectureKana":"ﾔﾏｸﾞﾁｹﾝ","cityKana":"ｼﾓﾉｾｷｼ","streetKana":"ﾁｮｳﾌｼﾝｼｵｳｼﾞﾁｮｳ","prefecture":"山口県","city":"下関市","street":"長府新四王司町"},{"zipCode":"7520982","prefectureKana":"ﾔﾏｸﾞﾁｹﾝ","cityKana":"ｼﾓﾉｾｷｼ","streetKana":"ﾁｮｳﾌｼﾝﾏﾂﾊﾞﾗﾁｮｳ","prefecture":"山口県","city":"下関市","street":"長府新松原町"},{"zipCode":"7520970","prefectureKana":"ﾔﾏｸﾞﾁｹﾝ","cityKana":"ｼﾓﾉｾｷｼ","streetKana":"ﾁｮｳﾌｿｳｼｬﾏﾁ","prefecture":"山口県","city":"下関市","street":"長府惣社町"},{"zipCode":"7520985","prefectureKana":"ﾔﾏｸﾞﾁｹﾝ","cityKana":"ｼﾓﾉｾｷｼ","streetKana":"ﾁｮｳﾌｿﾄｳﾗﾁｮｳ","prefecture":"山口県","city":"下関市","street":"長府外浦町"},{"zipCode":"7520994","prefectureKana":"ﾔﾏｸﾞﾁｹﾝ","cityKana":"ｼﾓﾉｾｷｼ","streetKana":"ﾁｮｳﾌﾀｶﾊﾞﾁｮｳ","prefecture":"山口県","city":"下関市","street":"長府高場町"},{"zipCode":"7520961","prefectureKana":"ﾔﾏｸﾞﾁｹﾝ","cityKana":"ｼﾓﾉｾｷｼ","streetKana":"ﾁｮｳﾌﾀﾏﾉｳﾗﾁｮｳ","prefecture":"山口県","city":"下関市","street":"長府珠の浦町"},{"zipCode":"7520945","prefectureKana":"ﾔﾏｸﾞﾁｹﾝ","cityKana":"ｼﾓﾉｾｷｼ","streetKana":"ﾁｮｳﾌﾄﾖﾗﾁｮｳ","prefecture":"山口県","city":"下関市","street":"長府豊浦町"},{"zipCode":"7520974","prefectureKana":"ﾔﾏｸﾞﾁｹﾝ","cityKana":"ｼﾓﾉｾｷｼ","streetKana":"ﾁｮｳﾌﾄﾞｲﾉｳﾁﾁｮｳ","prefecture":"山口県","city":"下関市","street":"長府土居の内町"},{"zipCode":"7520946","prefectureKana":"ﾔﾏｸﾞﾁｹﾝ","cityKana":"ｼﾓﾉｾｷｼ","streetKana":"ﾁｮｳﾌﾅｶｵﾁｮｳ","prefecture":"山口県","city":"下関市","street":"長府中尾町"},{"zipCode":"7520963","prefectureKana":"ﾔﾏｸﾞﾁｹﾝ","cityKana":"ｼﾓﾉｾｷｼ","streetKana":"ﾁｮｳﾌﾅｶﾄﾞｲｷﾀﾏﾁ","prefecture":"山口県","city":"下関市","street":"長府中土居北町"},{"zipCode":"7520964","prefectureKana":"ﾔﾏｸﾞﾁｹﾝ","cityKana":"ｼﾓﾉｾｷｼ","streetKana":"ﾁｮｳﾌﾅｶﾄﾞｲﾎﾝﾏﾁ","prefecture":"山口県","city":"下関市","street":"長府中土居本町"},{"zipCode":"7520973","prefectureKana":"ﾔﾏｸﾞﾁｹﾝ","cityKana":"ｼﾓﾉｾｷｼ","streetKana":"ﾁｮｳﾌﾅｶﾉﾁｮｳ","prefecture":"山口県","city":"下関市","street":"長府中之町"},{"zipCode":"7520975","prefectureKana":"ﾔﾏｸﾞﾁｹﾝ","cityKana":"ｼﾓﾉｾｷｼ","streetKana":"ﾁｮｳﾌﾅｶﾊﾏﾁｮｳ","prefecture":"山口県","city":"下関市","street":"長府中浜町"},{"zipCode":"7520944","prefectureKana":"ﾔﾏｸﾞﾁｹﾝ","cityKana":"ｼﾓﾉｾｷｼ","streetKana":"ﾁｮｳﾌﾅｶﾛｯﾊﾟﾁｮｳ","prefecture":"山口県","city":"下関市","street":"長府中六波町"},{"zipCode":"7520992","prefectureKana":"ﾔﾏｸﾞﾁｹﾝ","cityKana":"ｼﾓﾉｾｷｼ","streetKana":"ﾁｮｳﾌﾉｸﾞﾙﾒﾁｮｳ","prefecture":"山口県","city":"下関市","street":"長府野久留米町"},{"zipCode":"7520987","prefectureKana":"ﾔﾏｸﾞﾁｹﾝ","cityKana":"ｼﾓﾉｾｷｼ","streetKana":"ﾁｮｳﾌﾊｺﾞﾛﾓﾁｮｳ","prefecture":"山口県","city":"下関市","street":"長府羽衣町"},{"zipCode":"7520988","prefectureKana":"ﾔﾏｸﾞﾁｹﾝ","cityKana":"ｼﾓﾉｾｷｼ","streetKana":"ﾁｮｳﾌﾊｺﾞﾛﾓﾐﾅﾐﾏﾁ","prefecture":"山口県","city":"下関市","street":"長府羽衣南町"},{"zipCode":"7520993","prefectureKana":"ﾔﾏｸﾞﾁｹﾝ","cityKana":"ｼﾓﾉｾｷｼ","streetKana":"ﾁｮｳﾌﾊﾏｳﾗﾁｮｳ","prefecture":"山口県","city":"下関市","street":"長府浜浦町"},{"zipCode":"7520998","prefectureKana":"ﾔﾏｸﾞﾁｹﾝ","cityKana":"ｼﾓﾉｾｷｼ","streetKana":"ﾁｮｳﾌﾊﾏｳﾗﾆｼﾏﾁ","prefecture":"山口県","city":"下関市","street":"長府浜浦西町"},{"zipCode":"7520995","prefectureKana":"ﾔﾏｸﾞﾁｹﾝ","cityKana":"ｼﾓﾉｾｷｼ","streetKana":"ﾁｮｳﾌﾊﾏｳﾗﾐﾅﾐﾏﾁ","prefecture":"山口県","city":"下関市","street":"長府浜浦南町"},{"zipCode":"7520977","prefectureKana":"ﾔﾏｸﾞﾁｹﾝ","cityKana":"ｼﾓﾉｾｷｼ","streetKana":"ﾁｮｳﾌﾋｶﾞｼｻﾑﾗｲﾏﾁ","prefecture":"山口県","city":"下関市","street":"長府東侍町"},{"zipCode":"7520951","prefectureKana":"ﾔﾏｸﾞﾁｹﾝ","cityKana":"ｼﾓﾉｾｷｼ","streetKana":"ﾁｮｳﾌﾋﾉﾃﾞﾁｮｳ","prefecture":"山口県","city":"下関市","street":"長府日の出町"},{"zipCode":"7520972","prefectureKana":"ﾔﾏｸﾞﾁｹﾝ","cityKana":"ｼﾓﾉｾｷｼ","streetKana":"ﾁｮｳﾌﾌﾙｴｼｮｳｼﾞﾁｮｳ","prefecture":"山口県","city":"下関市","street":"長府古江小路町"},{"zipCode":"7520943","prefectureKana":"ﾔﾏｸﾞﾁｹﾝ","cityKana":"ｼﾓﾉｾｷｼ","streetKana":"ﾁｮｳﾌﾎｳｼﾞｮｳﾁｮｳ","prefecture":"山口県","city":"下関市","street":"長府豊城町"},{"zipCode":"7520956","prefectureKana":"ﾔﾏｸﾞﾁｹﾝ","cityKana":"ｼﾓﾉｾｷｼ","streetKana":"ﾁｮｳﾌﾏｴﾔﾊﾀﾁｮｳ","prefecture":"山口県","city":"下関市","street":"長府前八幡町"},{"zipCode":"7520935","prefectureKana":"ﾔﾏｸﾞﾁｹﾝ","cityKana":"ｼﾓﾉｾｷｼ","streetKana":"ﾁｮｳﾌﾏﾂｵﾀﾞﾅｶﾏﾁ","prefecture":"山口県","city":"下関市","street":"長府松小田中町"},{"zipCode":"7520934","prefectureKana":"ﾔﾏｸﾞﾁｹﾝ","cityKana":"ｼﾓﾉｾｷｼ","streetKana":"ﾁｮｳﾌﾏﾂｵﾀﾞﾋｶﾞｼﾏﾁ","prefecture":"山口県","city":"下関市","street":"長府松小田東町"},{"zipCode":"7520937","prefectureKana":"ﾔﾏｸﾞﾁｹﾝ","cityKana":"ｼﾓﾉｾｷｼ","streetKana":"ﾁｮｳﾌﾏﾂｵﾀﾞﾆｼﾏﾁ","prefecture":"山口県","city":"下関市","street":"長府松小田西町"},{"zipCode":"7520936","prefectureKana":"ﾔﾏｸﾞﾁｹﾝ","cityKana":"ｼﾓﾉｾｷｼ","streetKana":"ﾁｮｳﾌﾏﾂｵﾀﾞﾐﾅﾐﾏﾁ","prefecture":"山口県","city":"下関市","street":"長府松小田南町"},{"zipCode":"7520932","prefectureKana":"ﾔﾏｸﾞﾁｹﾝ","cityKana":"ｼﾓﾉｾｷｼ","streetKana":"ﾁｮｳﾌﾏﾂｵﾀﾞｷﾀﾏﾁ","prefecture":"山口県","city":"下関市","street":"長府松小田北町"},{"zipCode":"7520933","prefectureKana":"ﾔﾏｸﾞﾁｹﾝ","cityKana":"ｼﾓﾉｾｷｼ","streetKana":"ﾁｮｳﾌﾏﾂｵﾀﾞﾎﾝﾏﾁ","prefecture":"山口県","city":"下関市","street":"長府松小田本町"},{"zipCode":"7520983","prefectureKana":"ﾔﾏｸﾞﾁｹﾝ","cityKana":"ｼﾓﾉｾｷｼ","streetKana":"ﾁｮｳﾌﾏﾂﾊﾞﾗﾁｮｳ","prefecture":"山口県","city":"下関市","street":"長府松原町"},{"zipCode":"7520948","prefectureKana":"ﾔﾏｸﾞﾁｹﾝ","cityKana":"ｼﾓﾉｾｷｼ","streetKana":"ﾁｮｳﾌﾏﾝｼﾞｭｼﾝﾏﾁ","prefecture":"山口県","city":"下関市","street":"長府満珠新町"},{"zipCode":"7520947","prefectureKana":"ﾔﾏｸﾞﾁｹﾝ","cityKana":"ｼﾓﾉｾｷｼ","streetKana":"ﾁｮｳﾌﾏﾝｼﾞｭﾁｮｳ","prefecture":"山口県","city":"下関市","street":"長府満珠町"},{"zipCode":"7520965","prefectureKana":"ﾔﾏｸﾞﾁｹﾝ","cityKana":"ｼﾓﾉｾｷｼ","streetKana":"ﾁｮｳﾌﾐｼﾏﾁｮｳ","prefecture":"山口県","city":"下関市","street":"長府三島町"},{"zipCode":"7520953","prefectureKana":"ﾔﾏｸﾞﾁｹﾝ","cityKana":"ｼﾓﾉｾｷｼ","streetKana":"ﾁｮｳﾌﾐﾅﾄﾏﾁ","prefecture":"山口県","city":"下関市","street":"長府港町"},{"zipCode":"7520976","prefectureKana":"ﾔﾏｸﾞﾁｹﾝ","cityKana":"ｼﾓﾉｾｷｼ","streetKana":"ﾁｮｳﾌﾐﾅﾐﾉﾁｮｳ","prefecture":"山口県","city":"下関市","street":"長府南之町"},{"zipCode":"7520984","prefectureKana":"ﾔﾏｸﾞﾁｹﾝ","cityKana":"ｼﾓﾉｾｷｼ","streetKana":"ﾁｮｳﾌﾐﾔｻﾞｷﾁｮｳ","prefecture":"山口県","city":"下関市","street":"長府宮崎町"},{"zipCode":"7520967","prefectureKana":"ﾔﾏｸﾞﾁｹﾝ","cityKana":"ｼﾓﾉｾｷｼ","streetKana":"ﾁｮｳﾌﾐﾔﾉｳﾁﾁｮｳ","prefecture":"山口県","city":"下関市","street":"長府宮の内町"},{"zipCode":"7520996","prefectureKana":"ﾔﾏｸﾞﾁｹﾝ","cityKana":"ｼﾓﾉｾｷｼ","streetKana":"ﾁｮｳﾌﾑｶｲﾀﾞﾁｮｳ","prefecture":"山口県","city":"下関市","street":"長府向田町"},{"zipCode":"7520955","prefectureKana":"ﾔﾏｸﾞﾁｹﾝ","cityKana":"ｼﾓﾉｾｷｼ","streetKana":"ﾁｮｳﾌﾔﾊﾀﾁｮｳ","prefecture":"山口県","city":"下関市","street":"長府八幡町"},{"zipCode":"7520981","prefectureKana":"ﾔﾏｸﾞﾁｹﾝ","cityKana":"ｼﾓﾉｾｷｼ","streetKana":"ﾄﾖｳﾗﾑﾗ","prefecture":"山口県","city":"下関市","street":"豊浦村"},{"zipCode":"7520905","prefectureKana":"ﾔﾏｸﾞﾁｹﾝ","cityKana":"ｼﾓﾉｾｷｼ","streetKana":"ﾆｼｶﾝﾉﾝﾁｮｳ","prefecture":"山口県","city":"下関市","street":"西観音町"},{"zipCode":"7520913","prefectureKana":"ﾔﾏｸﾞﾁｹﾝ","cityKana":"ｼﾓﾉｾｷｼ","streetKana":"ﾉｷﾞﾊﾏ","prefecture":"山口県","city":"下関市","street":"乃木浜"},{"zipCode":"7520906","prefectureKana":"ﾔﾏｸﾞﾁｹﾝ","cityKana":"ｼﾓﾉｾｷｼ","streetKana":"ﾋｶﾞｼｶﾝﾉﾝﾁｮｳ","prefecture":"山口県","city":"下関市","street":"東観音町"},{"zipCode":"7520997","prefectureKana":"ﾔﾏｸﾞﾁｹﾝ","cityKana":"ｼﾓﾉｾｷｼ","streetKana":"ﾏｴﾀﾞ","prefecture":"山口県","city":"下関市","street":"前田"},{"zipCode":"7520931","prefectureKana":"ﾔﾏｸﾞﾁｹﾝ","cityKana":"ｼﾓﾉｾｷｼ","streetKana":"ﾏﾂｵﾀﾞ","prefecture":"山口県","city":"下関市","street":"松小田"},{"zipCode":"7520901","prefectureKana":"ﾔﾏｸﾞﾁｹﾝ","cityKana":"ｼﾓﾉｾｷｼ","streetKana":"ﾔﾏﾀﾞ","prefecture":"山口県","city":"下関市","street":"山田"},{"zipCode":"7520926","prefectureKana":"ﾔﾏｸﾞﾁｹﾝ","cityKana":"ｼﾓﾉｾｷｼ","streetKana":"ﾕﾒﾀｳﾝ","prefecture":"山口県","city":"下関市","street":"ゆめタウン"}]