[{"zipCode":"7560000","prefectureKana":"ﾔﾏｸﾞﾁｹﾝ","cityKana":"ｻﾝﾖｳｵﾉﾀﾞｼ","streetKana":"ｲｶﾆｹｲｻｲｶﾞﾅｲﾊﾞｱｲ","prefecture":"山口県","city":"山陽小野田市","street":"以下に掲載がない場合"},{"zipCode":"7560030","prefectureKana":"ﾔﾏｸﾞﾁｹﾝ","cityKana":"ｻﾝﾖｳｵﾉﾀﾞｼ","streetKana":"ｱｵﾊﾞﾀﾞｲ","prefecture":"山口県","city":"山陽小野田市","street":"青葉台"},{"zipCode":"7560841","prefectureKana":"ﾔﾏｸﾞﾁｹﾝ","cityKana":"ｻﾝﾖｳｵﾉﾀﾞｼ","streetKana":"ｱｶｻｷ","prefecture":"山口県","city":"山陽小野田市","street":"赤崎"},{"zipCode":"7560871","prefectureKana":"ﾔﾏｸﾞﾁｹﾝ","cityKana":"ｻﾝﾖｳｵﾉﾀﾞｼ","streetKana":"ｱｻﾋｶﾞｵｶ","prefecture":"山口県","city":"山陽小野田市","street":"あさひが丘"},{"zipCode":"7560808","prefectureKana":"ﾔﾏｸﾞﾁｹﾝ","cityKana":"ｻﾝﾖｳｵﾉﾀﾞｼ","streetKana":"ｱｻﾋﾏﾁ","prefecture":"山口県","city":"山陽小野田市","street":"旭町"},{"zipCode":"7560038","prefectureKana":"ﾔﾏｸﾞﾁｹﾝ","cityKana":"ｻﾝﾖｳｵﾉﾀﾞｼ","streetKana":"ｱﾘﾎ","prefecture":"山口県","city":"山陽小野田市","street":"有帆"},{"zipCode":"7560009","prefectureKana":"ﾔﾏｸﾞﾁｹﾝ","cityKana":"ｻﾝﾖｳｵﾉﾀﾞｼ","streetKana":"ｱﾘﾎｳｴﾏﾁ","prefecture":"山口県","city":"山陽小野田市","street":"有帆上町"},{"zipCode":"7560003","prefectureKana":"ﾔﾏｸﾞﾁｹﾝ","cityKana":"ｻﾝﾖｳｵﾉﾀﾞｼ","streetKana":"ｱﾘﾎｼﾝﾏﾁ","prefecture":"山口県","city":"山陽小野田市","street":"有帆新町"},{"zipCode":"7560063","prefectureKana":"ﾔﾏｸﾞﾁｹﾝ","cityKana":"ｻﾝﾖｳｵﾉﾀﾞｼ","streetKana":"ｲｼｲﾃﾞ","prefecture":"山口県","city":"山陽小野田市","street":"石井手"},{"zipCode":"7560811","prefectureKana":"ﾔﾏｸﾞﾁｹﾝ","cityKana":"ｻﾝﾖｳｵﾉﾀﾞｼ","streetKana":"ｲﾅﾘﾏﾁ","prefecture":"山口県","city":"山陽小野田市","street":"稲荷町"},{"zipCode":"7560863","prefectureKana":"ﾔﾏｸﾞﾁｹﾝ","cityKana":"ｻﾝﾖｳｵﾉﾀﾞｼ","streetKana":"ｳｴﾉﾀﾞｲ","prefecture":"山口県","city":"山陽小野田市","street":"上の台"},{"zipCode":"7560049","prefectureKana":"ﾔﾏｸﾞﾁｹﾝ","cityKana":"ｻﾝﾖｳｵﾉﾀﾞｼ","streetKana":"ｳｼﾛｶﾞﾀｶﾐ","prefecture":"山口県","city":"山陽小野田市","street":"後潟上"},{"zipCode":"7560048","prefectureKana":"ﾔﾏｸﾞﾁｹﾝ","cityKana":"ｻﾝﾖｳｵﾉﾀﾞｼ","streetKana":"ｳｼﾛｶﾞﾀｼﾓ","prefecture":"山口県","city":"山陽小野田市","street":"後潟下"},{"zipCode":"7560855","prefectureKana":"ﾔﾏｸﾞﾁｹﾝ","cityKana":"ｻﾝﾖｳｵﾉﾀﾞｼ","streetKana":"ｴﾋﾞｽﾁｮｳ","prefecture":"山口県","city":"山陽小野田市","street":"えびす町"},{"zipCode":"7560025","prefectureKana":"ﾔﾏｸﾞﾁｹﾝ","cityKana":"ｻﾝﾖｳｵﾉﾀﾞｼ","streetKana":"ｴﾎﾞｼｲﾜ","prefecture":"山口県","city":"山陽小野田市","street":"烏帽子岩"},{"zipCode":"7560026","prefectureKana":"ﾔﾏｸﾞﾁｹﾝ","cityKana":"ｻﾝﾖｳｵﾉﾀﾞｼ","streetKana":"ｴﾎﾞｼｲﾜﾀﾞﾝﾁ","prefecture":"山口県","city":"山陽小野田市","street":"烏帽子岩団地"},{"zipCode":"7560027","prefectureKana":"ﾔﾏｸﾞﾁｹﾝ","cityKana":"ｻﾝﾖｳｵﾉﾀﾞｼ","streetKana":"ｴﾎﾞｼｲﾜﾏｴ","prefecture":"山口県","city":"山陽小野田市","street":"烏帽子岩前"},{"zipCode":"7560873","prefectureKana":"ﾔﾏｸﾞﾁｹﾝ","cityKana":"ｻﾝﾖｳｵﾉﾀﾞｼ","streetKana":"ｵｵｽﾞｴ","prefecture":"山口県","city":"山陽小野田市","street":"大須恵"},{"zipCode":"7560042","prefectureKana":"ﾔﾏｸﾞﾁｹﾝ","cityKana":"ｻﾝﾖｳｵﾉﾀﾞｼ","streetKana":"ｵｵﾂｶ","prefecture":"山口県","city":"山陽小野田市","street":"大塚"},{"zipCode":"7560036","prefectureKana":"ﾔﾏｸﾞﾁｹﾝ","cityKana":"ｻﾝﾖｳｵﾉﾀﾞｼ","streetKana":"ｵｵﾂｶﾀﾞﾝﾁ","prefecture":"山口県","city":"山陽小野田市","street":"大塚団地"},{"zipCode":"7560866","prefectureKana":"ﾔﾏｸﾞﾁｹﾝ","cityKana":"ｻﾝﾖｳｵﾉﾀﾞｼ","streetKana":"ｵｵﾊﾏ","prefecture":"山口県","city":"山陽小野田市","street":"大浜"},{"zipCode":"7560852","prefectureKana":"ﾔﾏｸﾞﾁｹﾝ","cityKana":"ｻﾝﾖｳｵﾉﾀﾞｼ","streetKana":"ｵｸﾜｶﾔﾏ","prefecture":"山口県","city":"山陽小野田市","street":"奥若山"},{"zipCode":"7560817","prefectureKana":"ﾔﾏｸﾞﾁｹﾝ","cityKana":"ｻﾝﾖｳｵﾉﾀﾞｼ","streetKana":"ｵﾉﾀﾞ","prefecture":"山口県","city":"山陽小野田市","street":"小野田"},{"zipCode":"7560812","prefectureKana":"ﾔﾏｸﾞﾁｹﾝ","cityKana":"ｻﾝﾖｳｵﾉﾀﾞｼ","streetKana":"ｵﾉﾔﾏ","prefecture":"山口県","city":"山陽小野田市","street":"小野山"},{"zipCode":"7560067","prefectureKana":"ﾔﾏｸﾞﾁｹﾝ","cityKana":"ｻﾝﾖｳｵﾉﾀﾞｼ","streetKana":"ｶｷﾉｷｻﾞｶ","prefecture":"山口県","city":"山陽小野田市","street":"柿の木坂"},{"zipCode":"7560013","prefectureKana":"ﾔﾏｸﾞﾁｹﾝ","cityKana":"ｻﾝﾖｳｵﾉﾀﾞｼ","streetKana":"ｶﾀﾔﾏ","prefecture":"山口県","city":"山陽小野田市","street":"片山"},{"zipCode":"7560012","prefectureKana":"ﾔﾏｸﾞﾁｹﾝ","cityKana":"ｻﾝﾖｳｵﾉﾀﾞｼ","streetKana":"ｶﾄﾞｲｼ","prefecture":"山口県","city":"山陽小野田市","street":"角石"},{"zipCode":"7560854","prefectureKana":"ﾔﾏｸﾞﾁｹﾝ","cityKana":"ｻﾝﾖｳｵﾉﾀﾞｼ","streetKana":"ｶﾉｳﾏﾂ","prefecture":"山口県","city":"山陽小野田市","street":"叶松"},{"zipCode":"7560056","prefectureKana":"ﾔﾏｸﾞﾁｹﾝ","cityKana":"ｻﾝﾖｳｵﾉﾀﾞｼ","streetKana":"ｶﾐｺﾞﾔ","prefecture":"山口県","city":"山陽小野田市","street":"上木屋"},{"zipCode":"7560041","prefectureKana":"ﾔﾏｸﾞﾁｹﾝ","cityKana":"ｻﾝﾖｳｵﾉﾀﾞｼ","streetKana":"ｶﾐﾉｺﾞｳ","prefecture":"山口県","city":"山陽小野田市","street":"上の郷"},{"zipCode":"7560086","prefectureKana":"ﾔﾏｸﾞﾁｹﾝ","cityKana":"ｻﾝﾖｳｵﾉﾀﾞｼ","streetKana":"ｶﾐﾎﾁｮｳ","prefecture":"山口県","city":"山陽小野田市","street":"神帆町"},{"zipCode":"7560075","prefectureKana":"ﾔﾏｸﾞﾁｹﾝ","cityKana":"ｻﾝﾖｳｵﾉﾀﾞｼ","streetKana":"ｶﾒﾉｺｳ","prefecture":"山口県","city":"山陽小野田市","street":"亀の甲"},{"zipCode":"7560843","prefectureKana":"ﾔﾏｸﾞﾁｹﾝ","cityKana":"ｻﾝﾖｳｵﾉﾀﾞｼ","streetKana":"ｶﾘﾔｶﾐｼﾞｮｳ","prefecture":"山口県","city":"山陽小野田市","street":"刈屋上条"},{"zipCode":"7560842","prefectureKana":"ﾔﾏｸﾞﾁｹﾝ","cityKana":"ｻﾝﾖｳｵﾉﾀﾞｼ","streetKana":"ｶﾘﾔﾅｶﾑﾗ","prefecture":"山口県","city":"山陽小野田市","street":"刈屋中村"},{"zipCode":"7560848","prefectureKana":"ﾔﾏｸﾞﾁｹﾝ","cityKana":"ｻﾝﾖｳｵﾉﾀﾞｼ","streetKana":"ｶﾘﾔﾆｼｼﾞｮｳ","prefecture":"山口県","city":"山陽小野田市","street":"刈屋西条"},{"zipCode":"7560051","prefectureKana":"ﾔﾏｸﾞﾁｹﾝ","cityKana":"ｻﾝﾖｳｵﾉﾀﾞｼ","streetKana":"ｷｽﾞｷ","prefecture":"山口県","city":"山陽小野田市","street":"杵築"},{"zipCode":"7560801","prefectureKana":"ﾔﾏｸﾞﾁｹﾝ","cityKana":"ｻﾝﾖｳｵﾉﾀﾞｼ","streetKana":"ｷﾀｻｶｴﾏﾁ","prefecture":"山口県","city":"山陽小野田市","street":"北栄町"},{"zipCode":"7560007","prefectureKana":"ﾔﾏｸﾞﾁｹﾝ","cityKana":"ｻﾝﾖｳｵﾉﾀﾞｼ","streetKana":"ｷﾀﾏﾂﾁｺﾞｳ","prefecture":"山口県","city":"山陽小野田市","street":"北真土郷"},{"zipCode":"7560833","prefectureKana":"ﾔﾏｸﾞﾁｹﾝ","cityKana":"ｻﾝﾖｳｵﾉﾀﾞｼ","streetKana":"ｷﾀﾘｭｳｵｳﾁｮｳ","prefecture":"山口県","city":"山陽小野田市","street":"北竜王町"},{"zipCode":"7560822","prefectureKana":"ﾔﾏｸﾞﾁｹﾝ","cityKana":"ｻﾝﾖｳｵﾉﾀﾞｼ","streetKana":"ｷﾀﾜｶﾔﾏ","prefecture":"山口県","city":"山陽小野田市","street":"北若山"},{"zipCode":"7560844","prefectureKana":"ﾔﾏｸﾞﾁｹﾝ","cityKana":"ｻﾝﾖｳｵﾉﾀﾞｼ","streetKana":"ｷﾄﾞｵｵﾊﾞﾅ","prefecture":"山口県","city":"山陽小野田市","street":"木戸大鼻"},{"zipCode":"7560846","prefectureKana":"ﾔﾏｸﾞﾁｹﾝ","cityKana":"ｻﾝﾖｳｵﾉﾀﾞｼ","streetKana":"ｷﾄﾞｼﾝﾏﾁ","prefecture":"山口県","city":"山陽小野田市","street":"木戸新町"},{"zipCode":"7560845","prefectureKana":"ﾔﾏｸﾞﾁｹﾝ","cityKana":"ｻﾝﾖｳｵﾉﾀﾞｼ","streetKana":"ｷﾄﾞﾅｶﾉﾁｮｳ","prefecture":"山口県","city":"山陽小野田市","street":"木戸中ノ町"},{"zipCode":"7560011","prefectureKana":"ﾔﾏｸﾞﾁｹﾝ","cityKana":"ｻﾝﾖｳｵﾉﾀﾞｼ","streetKana":"ｷｮｳﾜﾀﾞｲ","prefecture":"山口県","city":"山陽小野田市","street":"共和台"},{"zipCode":"7560028","prefectureKana":"ﾔﾏｸﾞﾁｹﾝ","cityKana":"ｻﾝﾖｳｵﾉﾀﾞｼ","streetKana":"ｷｮｳﾜﾁｮｳ","prefecture":"山口県","city":"山陽小野田市","street":"共和町"},{"zipCode":"7560080","prefectureKana":"ﾔﾏｸﾞﾁｹﾝ","cityKana":"ｻﾝﾖｳｵﾉﾀﾞｼ","streetKana":"ｸｼﾔﾏ","prefecture":"山口県","city":"山陽小野田市","street":"くし山"},{"zipCode":"7560044","prefectureKana":"ﾔﾏｸﾞﾁｹﾝ","cityKana":"ｻﾝﾖｳｵﾉﾀﾞｼ","streetKana":"ｺﾞｳ","prefecture":"山口県","city":"山陽小野田市","street":"郷"},{"zipCode":"7560815","prefectureKana":"ﾔﾏｸﾞﾁｹﾝ","cityKana":"ｻﾝﾖｳｵﾉﾀﾞｼ","streetKana":"ｺｳｴｲ","prefecture":"山口県","city":"山陽小野田市","street":"高栄"},{"zipCode":"7560037","prefectureKana":"ﾔﾏｸﾞﾁｹﾝ","cityKana":"ｻﾝﾖｳｵﾉﾀﾞｼ","streetKana":"ｺﾏﾂｵ","prefecture":"山口県","city":"山陽小野田市","street":"小松尾"},{"zipCode":"7560802","prefectureKana":"ﾔﾏｸﾞﾁｹﾝ","cityKana":"ｻﾝﾖｳｵﾉﾀﾞｼ","streetKana":"ｻｶｴﾏﾁ","prefecture":"山口県","city":"山陽小野田市","street":"栄町"},{"zipCode":"7560851","prefectureKana":"ﾔﾏｸﾞﾁｹﾝ","cityKana":"ｻﾝﾖｳｵﾉﾀﾞｼ","streetKana":"ｻｸﾗｶﾞｵｶ","prefecture":"山口県","city":"山陽小野田市","street":"桜が丘"},{"zipCode":"7560888","prefectureKana":"ﾔﾏｸﾞﾁｹﾝ","cityKana":"ｻﾝﾖｳｵﾉﾀﾞｼ","streetKana":"ｻｻｵﾆｼ","prefecture":"山口県","city":"山陽小野田市","street":"笹尾西"},{"zipCode":"7560881","prefectureKana":"ﾔﾏｸﾞﾁｹﾝ","cityKana":"ｻﾝﾖｳｵﾉﾀﾞｼ","streetKana":"ｻｻｵﾋｶﾞｼ","prefecture":"山口県","city":"山陽小野田市","street":"笹尾東"},{"zipCode":"7560053","prefectureKana":"ﾔﾏｸﾞﾁｹﾝ","cityKana":"ｻﾝﾖｳｵﾉﾀﾞｼ","streetKana":"ｼﾓｺﾞﾔ","prefecture":"山口県","city":"山陽小野田市","street":"下木屋"},{"zipCode":"7560805","prefectureKana":"ﾔﾏｸﾞﾁｹﾝ","cityKana":"ｻﾝﾖｳｵﾉﾀﾞｼ","streetKana":"ｼﾞﾕｳｶﾞｵｶ","prefecture":"山口県","city":"山陽小野田市","street":"自由ヶ丘"},{"zipCode":"7560094","prefectureKana":"ﾔﾏｸﾞﾁｹﾝ","cityKana":"ｻﾝﾖｳｵﾉﾀﾞｼ","streetKana":"ｼﾘﾂﾋﾞｮｳｲﾝ","prefecture":"山口県","city":"山陽小野田市","street":"市立病院"},{"zipCode":"7560010","prefectureKana":"ﾔﾏｸﾞﾁｹﾝ","cityKana":"ｻﾝﾖｳｵﾉﾀﾞｼ","streetKana":"ｼﾝｱﾘﾎﾁｮｳ","prefecture":"山口県","city":"山陽小野田市","street":"新有帆町"},{"zipCode":"7560847","prefectureKana":"ﾔﾏｸﾞﾁｹﾝ","cityKana":"ｻﾝﾖｳｵﾉﾀﾞｼ","streetKana":"ｼﾝｵｷ","prefecture":"山口県","city":"山陽小野田市","street":"新沖"},{"zipCode":"7560092","prefectureKana":"ﾔﾏｸﾞﾁｹﾝ","cityKana":"ｻﾝﾖｳｵﾉﾀﾞｼ","streetKana":"ｼﾝｾｲ","prefecture":"山口県","city":"山陽小野田市","street":"新生"},{"zipCode":"7560823","prefectureKana":"ﾔﾏｸﾞﾁｹﾝ","cityKana":"ｻﾝﾖｳｵﾉﾀﾞｼ","streetKana":"ｼﾝﾜｴﾝ","prefecture":"山口県","city":"山陽小野田市","street":"心和園"},{"zipCode":"7560836","prefectureKana":"ﾔﾏｸﾞﾁｹﾝ","cityKana":"ｻﾝﾖｳｵﾉﾀﾞｼ","streetKana":"ｽｴ","prefecture":"山口県","city":"山陽小野田市","street":"須恵"},{"zipCode":"7560862","prefectureKana":"ﾔﾏｸﾞﾁｹﾝ","cityKana":"ｻﾝﾖｳｵﾉﾀﾞｼ","streetKana":"ｽｴﾆｼ","prefecture":"山口県","city":"山陽小野田市","street":"須恵西"},{"zipCode":"7560889","prefectureKana":"ﾔﾏｸﾞﾁｹﾝ","cityKana":"ｻﾝﾖｳｵﾉﾀﾞｼ","streetKana":"ｽｴﾋｶﾞｼ","prefecture":"山口県","city":"山陽小野田市","street":"須恵東"},{"zipCode":"7560882","prefectureKana":"ﾔﾏｸﾞﾁｹﾝ","cityKana":"ｻﾝﾖｳｵﾉﾀﾞｼ","streetKana":"ｽﾀﾞﾉｷ","prefecture":"山口県","city":"山陽小野田市","street":"須田ノ木"},{"zipCode":"7560813","prefectureKana":"ﾔﾏｸﾞﾁｹﾝ","cityKana":"ｻﾝﾖｳｵﾉﾀﾞｼ","streetKana":"ｽﾐﾖｼﾎﾝﾏﾁ","prefecture":"山口県","city":"山陽小野田市","street":"住吉本町"},{"zipCode":"7560835","prefectureKana":"ﾔﾏｸﾞﾁｹﾝ","cityKana":"ｻﾝﾖｳｵﾉﾀﾞｼ","streetKana":"ｾﾒﾝﾄﾏﾁ","prefecture":"山口県","city":"山陽小野田市","street":"セメント町"},{"zipCode":"7560884","prefectureKana":"ﾔﾏｸﾞﾁｹﾝ","cityKana":"ｻﾝﾖｳｵﾉﾀﾞｼ","streetKana":"ﾀﾞｲｶﾞｸﾄﾞｵﾘ","prefecture":"山口県","city":"山陽小野田市","street":"大学通"},{"zipCode":"7560001","prefectureKana":"ﾔﾏｸﾞﾁｹﾝ","cityKana":"ｻﾝﾖｳｵﾉﾀﾞｼ","streetKana":"ﾀｲｷｭｳ","prefecture":"山口県","city":"山陽小野田市","street":"大休"},{"zipCode":"7560008","prefectureKana":"ﾔﾏｸﾞﾁｹﾝ","cityKana":"ｻﾝﾖｳｵﾉﾀﾞｼ","streetKana":"ﾀｲｷｭｳﾀﾞﾝﾁ","prefecture":"山口県","city":"山陽小野田市","street":"大休団地"},{"zipCode":"7560087","prefectureKana":"ﾔﾏｸﾞﾁｹﾝ","cityKana":"ｻﾝﾖｳｵﾉﾀﾞｼ","streetKana":"ﾀｶｽ","prefecture":"山口県","city":"山陽小野田市","street":"高須"},{"zipCode":"7560060","prefectureKana":"ﾔﾏｸﾞﾁｹﾝ","cityKana":"ｻﾝﾖｳｵﾉﾀﾞｼ","streetKana":"ﾀｶﾁﾎ","prefecture":"山口県","city":"山陽小野田市","street":"高千帆"},{"zipCode":"7560021","prefectureKana":"ﾔﾏｸﾞﾁｹﾝ","cityKana":"ｻﾝﾖｳｵﾉﾀﾞｼ","streetKana":"ﾀｶﾊﾀ","prefecture":"山口県","city":"山陽小野田市","street":"高畑"},{"zipCode":"7560047","prefectureKana":"ﾔﾏｸﾞﾁｹﾝ","cityKana":"ｻﾝﾖｳｵﾉﾀﾞｼ","streetKana":"ﾀｶﾊﾏ","prefecture":"山口県","city":"山陽小野田市","street":"高浜"},{"zipCode":"7560865","prefectureKana":"ﾔﾏｸﾞﾁｹﾝ","cityKana":"ｻﾝﾖｳｵﾉﾀﾞｼ","streetKana":"ﾀﾉｼﾘ","prefecture":"山口県","city":"山陽小野田市","street":"田の尻"},{"zipCode":"7560055","prefectureKana":"ﾔﾏｸﾞﾁｹﾝ","cityKana":"ｻﾝﾖｳｵﾉﾀﾞｼ","streetKana":"ﾀﾞﾝﾆｼ","prefecture":"山口県","city":"山陽小野田市","street":"旦西"},{"zipCode":"7560054","prefectureKana":"ﾔﾏｸﾞﾁｹﾝ","cityKana":"ｻﾝﾖｳｵﾉﾀﾞｼ","streetKana":"ﾀﾞﾝﾋｶﾞｼ","prefecture":"山口県","city":"山陽小野田市","street":"旦東"},{"zipCode":"7560039","prefectureKana":"ﾔﾏｸﾞﾁｹﾝ","cityKana":"ｻﾝﾖｳｵﾉﾀﾞｼ","streetKana":"ﾁｻﾞｷ","prefecture":"山口県","city":"山陽小野田市","street":"千崎"},{"zipCode":"7560022","prefectureKana":"ﾔﾏｸﾞﾁｹﾝ","cityKana":"ｻﾝﾖｳｵﾉﾀﾞｼ","streetKana":"ﾁｻﾞｷﾆｼ","prefecture":"山口県","city":"山陽小野田市","street":"千崎西"},{"zipCode":"7560023","prefectureKana":"ﾔﾏｸﾞﾁｹﾝ","cityKana":"ｻﾝﾖｳｵﾉﾀﾞｼ","streetKana":"ﾁｻﾞｷﾋｶﾞｼ","prefecture":"山口県","city":"山陽小野田市","street":"千崎東"},{"zipCode":"7560824","prefectureKana":"ﾔﾏｸﾞﾁｹﾝ","cityKana":"ｻﾝﾖｳｵﾉﾀﾞｼ","streetKana":"ﾁｭｳｵｳ","prefecture":"山口県","city":"山陽小野田市","street":"中央"},{"zipCode":"7560804","prefectureKana":"ﾔﾏｸﾞﾁｹﾝ","cityKana":"ｻﾝﾖｳｵﾉﾀﾞｼ","streetKana":"ﾁｮｳｼﾞｭｴﾝ","prefecture":"山口県","city":"山陽小野田市","street":"長寿園"},{"zipCode":"7560814","prefectureKana":"ﾔﾏｸﾞﾁｹﾝ","cityKana":"ｻﾝﾖｳｵﾉﾀﾞｼ","streetKana":"ﾁﾖﾏﾁ","prefecture":"山口県","city":"山陽小野田市","street":"千代町"},{"zipCode":"7560806","prefectureKana":"ﾔﾏｸﾞﾁｹﾝ","cityKana":"ｻﾝﾖｳｵﾉﾀﾞｼ","streetKana":"ﾅｶｶﾞﾜ","prefecture":"山口県","city":"山陽小野田市","street":"中川"},{"zipCode":"7560004","prefectureKana":"ﾔﾏｸﾞﾁｹﾝ","cityKana":"ｻﾝﾖｳｵﾉﾀﾞｼ","streetKana":"ﾅｶｻﾞﾄ","prefecture":"山口県","city":"山陽小野田市","street":"中里"},{"zipCode":"7560005","prefectureKana":"ﾔﾏｸﾞﾁｹﾝ","cityKana":"ｻﾝﾖｳｵﾉﾀﾞｼ","streetKana":"ﾅｶﾑﾗ","prefecture":"山口県","city":"山陽小野田市","street":"中村"},{"zipCode":"7560886","prefectureKana":"ﾔﾏｸﾞﾁｹﾝ","cityKana":"ｻﾝﾖｳｵﾉﾀﾞｼ","streetKana":"ﾅﾂﾒ","prefecture":"山口県","city":"山陽小野田市","street":"夏目"},{"zipCode":"7560016","prefectureKana":"ﾔﾏｸﾞﾁｹﾝ","cityKana":"ｻﾝﾖｳｵﾉﾀﾞｼ","streetKana":"ﾅﾝﾍﾟｲﾀﾞｲ","prefecture":"山口県","city":"山陽小野田市","street":"南平台"},{"zipCode":"7560885","prefectureKana":"ﾔﾏｸﾞﾁｹﾝ","cityKana":"ｻﾝﾖｳｵﾉﾀﾞｼ","streetKana":"ﾆｼｵｷ","prefecture":"山口県","city":"山陽小野田市","street":"西沖"},{"zipCode":"7560864","prefectureKana":"ﾔﾏｸﾞﾁｹﾝ","cityKana":"ｻﾝﾖｳｵﾉﾀﾞｼ","streetKana":"ﾆｼｶﾞｻｺ","prefecture":"山口県","city":"山陽小野田市","street":"西が迫"},{"zipCode":"7560816","prefectureKana":"ﾔﾏｸﾞﾁｹﾝ","cityKana":"ｻﾝﾖｳｵﾉﾀﾞｼ","streetKana":"ﾆｼｽﾐﾖｼﾁｮｳ","prefecture":"山口県","city":"山陽小野田市","street":"西住吉町"},{"zipCode":"7560057","prefectureKana":"ﾔﾏｸﾞﾁｹﾝ","cityKana":"ｻﾝﾖｳｵﾉﾀﾞｼ","streetKana":"ﾆｼﾀｶﾄﾞﾏﾘ","prefecture":"山口県","city":"山陽小野田市","street":"西高泊"},{"zipCode":"7560046","prefectureKana":"ﾔﾏｸﾞﾁｹﾝ","cityKana":"ｻﾝﾖｳｵﾉﾀﾞｼ","streetKana":"ﾆｼﾉｺﾞｳ","prefecture":"山口県","city":"山陽小野田市","street":"西の郷"},{"zipCode":"7560093","prefectureKana":"ﾔﾏｸﾞﾁｹﾝ","cityKana":"ｻﾝﾖｳｵﾉﾀﾞｼ","streetKana":"ﾆｯｻﾝ","prefecture":"山口県","city":"山陽小野田市","street":"日産"},{"zipCode":"7560017","prefectureKana":"ﾔﾏｸﾞﾁｹﾝ","cityKana":"ｻﾝﾖｳｵﾉﾀﾞｼ","streetKana":"ﾆﾎﾉｳｴ","prefecture":"山口県","city":"山陽小野田市","street":"仁保の上"},{"zipCode":"7560853","prefectureKana":"ﾔﾏｸﾞﾁｹﾝ","cityKana":"ｻﾝﾖｳｵﾉﾀﾞｼ","streetKana":"ﾉｸﾞﾙﾐ","prefecture":"山口県","city":"山陽小野田市","street":"野来見"},{"zipCode":"7560024","prefectureKana":"ﾔﾏｸﾞﾁｹﾝ","cityKana":"ｻﾝﾖｳｵﾉﾀﾞｼ","streetKana":"ﾊｷﾞﾓﾘ","prefecture":"山口県","city":"山陽小野田市","street":"萩森"},{"zipCode":"7560861","prefectureKana":"ﾔﾏｸﾞﾁｹﾝ","cityKana":"ｻﾝﾖｳｵﾉﾀﾞｼ","streetKana":"ﾊｾﾞ","prefecture":"山口県","city":"山陽小野田市","street":"波瀬"},{"zipCode":"7560043","prefectureKana":"ﾔﾏｸﾞﾁｹﾝ","cityKana":"ｻﾝﾖｳｵﾉﾀﾞｼ","streetKana":"ﾊﾏ","prefecture":"山口県","city":"山陽小野田市","street":"浜"},{"zipCode":"7560872","prefectureKana":"ﾔﾏｸﾞﾁｹﾝ","cityKana":"ｻﾝﾖｳｵﾉﾀﾞｼ","streetKana":"ﾊﾏｺﾞｳﾁ","prefecture":"山口県","city":"山陽小野田市","street":"浜河内"},{"zipCode":"7560052","prefectureKana":"ﾔﾏｸﾞﾁｹﾝ","cityKana":"ｻﾝﾖｳｵﾉﾀﾞｼ","streetKana":"ﾊﾏﾀﾞﾁｮｳ","prefecture":"山口県","city":"山陽小野田市","street":"浜田町"},{"zipCode":"7560883","prefectureKana":"ﾔﾏｸﾞﾁｹﾝ","cityKana":"ｻﾝﾖｳｵﾉﾀﾞｼ","streetKana":"ﾋｶﾞｼｽﾀﾞﾉｷ","prefecture":"山口県","city":"山陽小野田市","street":"東須田の木"},{"zipCode":"7560825","prefectureKana":"ﾔﾏｸﾞﾁｹﾝ","cityKana":"ｻﾝﾖｳｵﾉﾀﾞｼ","streetKana":"ﾋｶﾞｼｽﾐﾖｼﾁｮｳ","prefecture":"山口県","city":"山陽小野田市","street":"東住吉町"},{"zipCode":"7560088","prefectureKana":"ﾔﾏｸﾞﾁｹﾝ","cityKana":"ｻﾝﾖｳｵﾉﾀﾞｼ","streetKana":"ﾋｶﾞｼﾀｶﾄﾞﾏﾘ","prefecture":"山口県","city":"山陽小野田市","street":"東高泊"},{"zipCode":"7560018","prefectureKana":"ﾔﾏｸﾞﾁｹﾝ","cityKana":"ｻﾝﾖｳｵﾉﾀﾞｼ","streetKana":"ﾋｶﾞｼﾏﾁ","prefecture":"山口県","city":"山陽小野田市","street":"東町"},{"zipCode":"7560014","prefectureKana":"ﾔﾏｸﾞﾁｹﾝ","cityKana":"ｻﾝﾖｳｵﾉﾀﾞｼ","streetKana":"ﾋｶﾞﾝﾀﾞ","prefecture":"山口県","city":"山陽小野田市","street":"彼岸田"},{"zipCode":"7560015","prefectureKana":"ﾔﾏｸﾞﾁｹﾝ","cityKana":"ｻﾝﾖｳｵﾉﾀﾞｼ","streetKana":"ﾋｶﾞﾝﾀﾞﾀﾞﾝﾁ","prefecture":"山口県","city":"山陽小野田市","street":"ひがんだ団地"},{"zipCode":"7560091","prefectureKana":"ﾔﾏｸﾞﾁｹﾝ","cityKana":"ｻﾝﾖｳｵﾉﾀﾞｼ","streetKana":"ﾋﾉﾃﾞ","prefecture":"山口県","city":"山陽小野田市","street":"日の出"},{"zipCode":"7560032","prefectureKana":"ﾔﾏｸﾞﾁｹﾝ","cityKana":"ｻﾝﾖｳｵﾉﾀﾞｼ","streetKana":"ﾋﾗｵﾁｮｳ","prefecture":"山口県","city":"山陽小野田市","street":"平生町"},{"zipCode":"7560035","prefectureKana":"ﾔﾏｸﾞﾁｹﾝ","cityKana":"ｻﾝﾖｳｵﾉﾀﾞｼ","streetKana":"ﾋﾗﾊﾞﾗ","prefecture":"山口県","city":"山陽小野田市","street":"平原"},{"zipCode":"7560029","prefectureKana":"ﾔﾏｸﾞﾁｹﾝ","cityKana":"ｻﾝﾖｳｵﾉﾀﾞｼ","streetKana":"ﾌﾅｺｼ","prefecture":"山口県","city":"山陽小野田市","street":"船越"},{"zipCode":"7560856","prefectureKana":"ﾔﾏｸﾞﾁｹﾝ","cityKana":"ｻﾝﾖｳｵﾉﾀﾞｼ","streetKana":"ﾌﾙｶﾞｲｻｸ","prefecture":"山口県","city":"山陽小野田市","street":"古開作"},{"zipCode":"7560857","prefectureKana":"ﾔﾏｸﾞﾁｹﾝ","cityKana":"ｻﾝﾖｳｵﾉﾀﾞｼ","streetKana":"ﾌﾙｶﾞｲｻｸﾀﾞﾝﾁ","prefecture":"山口県","city":"山陽小野田市","street":"古開作団地"},{"zipCode":"7560837","prefectureKana":"ﾔﾏｸﾞﾁｹﾝ","cityKana":"ｻﾝﾖｳｵﾉﾀﾞｼ","streetKana":"ﾍｲｾｲﾁｮｳ","prefecture":"山口県","city":"山陽小野田市","street":"平成町"},{"zipCode":"7560031","prefectureKana":"ﾔﾏｸﾞﾁｹﾝ","cityKana":"ｻﾝﾖｳｵﾉﾀﾞｼ","streetKana":"ﾍｲﾜﾁｮｳ","prefecture":"山口県","city":"山陽小野田市","street":"平和町"},{"zipCode":"7560887","prefectureKana":"ﾔﾏｸﾞﾁｹﾝ","cityKana":"ｻﾝﾖｳｵﾉﾀﾞｼ","streetKana":"ﾏﾂｶｸ","prefecture":"山口県","city":"山陽小野田市","street":"松角"},{"zipCode":"7560877","prefectureKana":"ﾔﾏｸﾞﾁｹﾝ","cityKana":"ｻﾝﾖｳｵﾉﾀﾞｼ","streetKana":"ﾏﾂﾊﾏ","prefecture":"山口県","city":"山陽小野田市","street":"松浜"},{"zipCode":"7560878","prefectureKana":"ﾔﾏｸﾞﾁｹﾝ","cityKana":"ｻﾝﾖｳｵﾉﾀﾞｼ","streetKana":"ﾏﾂﾊﾏﾀﾞﾝﾁ","prefecture":"山口県","city":"山陽小野田市","street":"松浜団地"},{"zipCode":"7560821","prefectureKana":"ﾔﾏｸﾞﾁｹﾝ","cityKana":"ｻﾝﾖｳｵﾉﾀﾞｼ","streetKana":"ﾏﾙｺﾞｳﾁ","prefecture":"山口県","city":"山陽小野田市","street":"丸河内"},{"zipCode":"7560034","prefectureKana":"ﾔﾏｸﾞﾁｹﾝ","cityKana":"ｻﾝﾖｳｵﾉﾀﾞｼ","streetKana":"ﾐﾄﾞﾘｶﾞｵｶ","prefecture":"山口県","city":"山陽小野田市","street":"緑が丘"},{"zipCode":"7560834","prefectureKana":"ﾔﾏｸﾞﾁｹﾝ","cityKana":"ｻﾝﾖｳｵﾉﾀﾞｼ","streetKana":"ﾐﾅﾄﾏﾁ","prefecture":"山口県","city":"山陽小野田市","street":"港町"},{"zipCode":"7560045","prefectureKana":"ﾔﾏｸﾞﾁｹﾝ","cityKana":"ｻﾝﾖｳｵﾉﾀﾞｼ","streetKana":"ﾐﾅﾐﾀｶﾄﾏﾘ","prefecture":"山口県","city":"山陽小野田市","street":"南高泊"},{"zipCode":"7560803","prefectureKana":"ﾔﾏｸﾞﾁｹﾝ","cityKana":"ｻﾝﾖｳｵﾉﾀﾞｼ","streetKana":"ﾐﾅﾐﾅｶｶﾞﾜﾏﾁ","prefecture":"山口県","city":"山陽小野田市","street":"南中川町"},{"zipCode":"7560019","prefectureKana":"ﾔﾏｸﾞﾁｹﾝ","cityKana":"ｻﾝﾖｳｵﾉﾀﾞｼ","streetKana":"ﾐﾅﾐﾏﾂﾁｺﾞｳ","prefecture":"山口県","city":"山陽小野田市","street":"南真土郷"},{"zipCode":"7560875","prefectureKana":"ﾔﾏｸﾞﾁｹﾝ","cityKana":"ｻﾝﾖｳｵﾉﾀﾞｼ","streetKana":"ﾐﾅﾐﾏﾂﾊﾏ","prefecture":"山口県","city":"山陽小野田市","street":"南松浜"},{"zipCode":"7560832","prefectureKana":"ﾔﾏｸﾞﾁｹﾝ","cityKana":"ｻﾝﾖｳｵﾉﾀﾞｼ","streetKana":"ﾐﾅﾐﾘｭｳｵｳﾁｮｳ","prefecture":"山口県","city":"山陽小野田市","street":"南竜王町"},{"zipCode":"7560831","prefectureKana":"ﾔﾏｸﾞﾁｹﾝ","cityKana":"ｻﾝﾖｳｵﾉﾀﾞｼ","streetKana":"ﾐﾅﾐﾜｶﾔﾏ","prefecture":"山口県","city":"山陽小野田市","street":"南若山"},{"zipCode":"7560076","prefectureKana":"ﾔﾏｸﾞﾁｹﾝ","cityKana":"ｻﾝﾖｳｵﾉﾀﾞｼ","streetKana":"ﾒﾃﾞ","prefecture":"山口県","city":"山陽小野田市","street":"目出"},{"zipCode":"7560074","prefectureKana":"ﾔﾏｸﾞﾁｹﾝ","cityKana":"ｻﾝﾖｳｵﾉﾀﾞｼ","streetKana":"ﾒﾃﾞｺﾊﾝﾁｮｳ","prefecture":"山口県","city":"山陽小野田市","street":"目出湖畔町"},{"zipCode":"7560073","prefectureKana":"ﾔﾏｸﾞﾁｹﾝ","cityKana":"ｻﾝﾖｳｵﾉﾀﾞｼ","streetKana":"ﾒﾃﾞｻｲﾜｲﾏﾁ","prefecture":"山口県","city":"山陽小野田市","street":"目出幸町"},{"zipCode":"7560077","prefectureKana":"ﾔﾏｸﾞﾁｹﾝ","cityKana":"ｻﾝﾖｳｵﾉﾀﾞｼ","streetKana":"ﾒﾃﾞｼﾝﾏﾁ","prefecture":"山口県","city":"山陽小野田市","street":"目出新町"},{"zipCode":"7560071","prefectureKana":"ﾔﾏｸﾞﾁｹﾝ","cityKana":"ｻﾝﾖｳｵﾉﾀﾞｼ","streetKana":"ﾒﾃﾞﾌﾞﾝｶﾁｮｳ","prefecture":"山口県","city":"山陽小野田市","street":"目出文化町"},{"zipCode":"7560072","prefectureKana":"ﾔﾏｸﾞﾁｹﾝ","cityKana":"ｻﾝﾖｳｵﾉﾀﾞｼ","streetKana":"ﾒﾃﾞﾐﾄﾞﾘﾏﾁ","prefecture":"山口県","city":"山陽小野田市","street":"目出緑町"},{"zipCode":"7560876","prefectureKana":"ﾔﾏｸﾞﾁｹﾝ","cityKana":"ｻﾝﾖｳｵﾉﾀﾞｼ","streetKana":"ﾓﾄﾔﾏﾀﾞﾝﾁ","prefecture":"山口県","city":"山陽小野田市","street":"本山団地"},{"zipCode":"7560874","prefectureKana":"ﾔﾏｸﾞﾁｹﾝ","cityKana":"ｻﾝﾖｳｵﾉﾀﾞｼ","streetKana":"ﾓﾄﾔﾏﾁｮｳ","prefecture":"山口県","city":"山陽小野田市","street":"本山町"},{"zipCode":"7560809","prefectureKana":"ﾔﾏｸﾞﾁｹﾝ","cityKana":"ｻﾝﾖｳｵﾉﾀﾞｼ","streetKana":"ﾖｺﾄﾞﾃ","prefecture":"山口県","city":"山陽小野田市","street":"横土手"},{"zipCode":"7560807","prefectureKana":"ﾔﾏｸﾞﾁｹﾝ","cityKana":"ｻﾝﾖｳｵﾉﾀﾞｼ","streetKana":"ﾘｭｳｻﾝﾏﾁ","prefecture":"山口県","city":"山陽小野田市","street":"硫酸町"},{"zipCode":"7560095","prefectureKana":"ﾔﾏｸﾞﾁｹﾝ","cityKana":"ｻﾝﾖｳｵﾉﾀﾞｼ","streetKana":"ﾛｳｻｲﾋﾞｮｳｲﾝ","prefecture":"山口県","city":"山陽小野田市","street":"労災病院"},{"zipCode":"7560033","prefectureKana":"ﾔﾏｸﾞﾁｹﾝ","cityKana":"ｻﾝﾖｳｵﾉﾀﾞｼ","streetKana":"ﾜｶｸｻﾁｮｳ","prefecture":"山口県","city":"山陽小野田市","street":"若草町"}]