[{"zipCode":"7620084","prefectureKana":"ｶｶﾞﾜｹﾝ","cityKana":"ﾏﾙｶﾞﾒｼ","streetKana":"ﾊﾝｻﾞﾝﾁｮｳｶﾐﾎｳｸﾞﾝｼﾞ","prefecture":"香川県","city":"丸亀市","street":"飯山町上法軍寺"},{"zipCode":"7620082","prefectureKana":"ｶｶﾞﾜｹﾝ","cityKana":"ﾏﾙｶﾞﾒｼ","streetKana":"ﾊﾝｻﾞﾝﾁｮｳｶﾜﾊﾗ","prefecture":"香川県","city":"丸亀市","street":"飯山町川原"},{"zipCode":"7620086","prefectureKana":"ｶｶﾞﾜｹﾝ","cityKana":"ﾏﾙｶﾞﾒｼ","streetKana":"ﾊﾝｻﾞﾝﾁｮｳｻﾝﾄｷ","prefecture":"香川県","city":"丸亀市","street":"飯山町真時"},{"zipCode":"7620083","prefectureKana":"ｶｶﾞﾜｹﾝ","cityKana":"ﾏﾙｶﾞﾒｼ","streetKana":"ﾊﾝｻﾞﾝﾁｮｳｼﾓﾎｳｸﾞﾝｼﾞ","prefecture":"香川県","city":"丸亀市","street":"飯山町下法軍寺"},{"zipCode":"7620087","prefectureKana":"ｶｶﾞﾜｹﾝ","cityKana":"ﾏﾙｶﾞﾒｼ","streetKana":"ﾊﾝｻﾞﾝﾁｮｳﾆｼｻｶﾓﾄ","prefecture":"香川県","city":"丸亀市","street":"飯山町西坂元"},{"zipCode":"7620085","prefectureKana":"ｶｶﾞﾜｹﾝ","cityKana":"ﾏﾙｶﾞﾒｼ","streetKana":"ﾊﾝｻﾞﾝﾁｮｳﾋｶﾞｼｵｶﾞﾜ","prefecture":"香川県","city":"丸亀市","street":"飯山町東小川"},{"zipCode":"7620081","prefectureKana":"ｶｶﾞﾜｹﾝ","cityKana":"ﾏﾙｶﾞﾒｼ","streetKana":"ﾊﾝｻﾞﾝﾁｮｳﾋｶﾞｼｻｶﾓﾄ","prefecture":"香川県","city":"丸亀市","street":"飯山町東坂元"},{"zipCode":"7620000","prefectureKana":"ｶｶﾞﾜｹﾝ","cityKana":"ｻｶｲﾃﾞｼ","streetKana":"ｲｶﾆｹｲｻｲｶﾞﾅｲﾊﾞｱｲ","prefecture":"香川県","city":"坂出市","street":"以下に掲載がない場合"},{"zipCode":"7620037","prefectureKana":"ｶｶﾞﾜｹﾝ","cityKana":"ｻｶｲﾃﾞｼ","streetKana":"ｱｵﾊﾞﾁｮｳ","prefecture":"香川県","city":"坂出市","street":"青葉町"},{"zipCode":"7620006","prefectureKana":"ｶｶﾞﾜｹﾝ","cityKana":"ｻｶｲﾃﾞｼ","streetKana":"ｱｻﾋﾁｮｳ","prefecture":"香川県","city":"坂出市","street":"旭町"},{"zipCode":"7620035","prefectureKana":"ｶｶﾞﾜｹﾝ","cityKana":"ｻｶｲﾃﾞｼ","streetKana":"ｲｹｿﾞﾉﾁｮｳ","prefecture":"香川県","city":"坂出市","street":"池園町"},{"zipCode":"7620002","prefectureKana":"ｶｶﾞﾜｹﾝ","cityKana":"ｻｶｲﾃﾞｼ","streetKana":"ｲﾘﾌﾈﾁｮｳ","prefecture":"香川県","city":"坂出市","street":"入船町"},{"zipCode":"7620072","prefectureKana":"ｶｶﾞﾜｹﾝ","cityKana":"ｻｶｲﾃﾞｼ","streetKana":"ｲﾜｸﾛ","prefecture":"香川県","city":"坂出市","street":"岩黒"},{"zipCode":"7620011","prefectureKana":"ｶｶﾞﾜｹﾝ","cityKana":"ｻｶｲﾃﾞｼ","streetKana":"ｴｼﾞﾘﾁｮｳ","prefecture":"香川県","city":"坂出市","street":"江尻町"},{"zipCode":"7620014","prefectureKana":"ｶｶﾞﾜｹﾝ","cityKana":"ｻｶｲﾃﾞｼ","streetKana":"ｵｳｺﾞｼﾁｮｳｷｻﾜ","prefecture":"香川県","city":"坂出市","street":"王越町木沢"},{"zipCode":"7620013","prefectureKana":"ｶｶﾞﾜｹﾝ","cityKana":"ｻｶｲﾃﾞｼ","streetKana":"ｵｳｺﾞｼﾁｮｳﾉｳ","prefecture":"香川県","city":"坂出市","street":"王越町乃生"},{"zipCode":"7620016","prefectureKana":"ｶｶﾞﾜｹﾝ","cityKana":"ｻｶｲﾃﾞｼ","streetKana":"ｵｳﾐﾁｮｳ","prefecture":"香川県","city":"坂出市","street":"青海町"},{"zipCode":"7620027","prefectureKana":"ｶｶﾞﾜｹﾝ","cityKana":"ｻｶｲﾃﾞｼ","streetKana":"ｵｵｲｹﾁｮｳ","prefecture":"香川県","city":"坂出市","street":"大池町"},{"zipCode":"7620015","prefectureKana":"ｶｶﾞﾜｹﾝ","cityKana":"ｻｶｲﾃﾞｼ","streetKana":"ｵｵﾔﾌﾞﾁｮｳ","prefecture":"香川県","city":"坂出市","street":"大屋冨町"},{"zipCode":"7620052","prefectureKana":"ｶｶﾞﾜｹﾝ","cityKana":"ｻｶｲﾃﾞｼ","streetKana":"ｵｷﾉﾊﾏ","prefecture":"香川県","city":"坂出市","street":"沖の浜"},{"zipCode":"7620038","prefectureKana":"ｶｶﾞﾜｹﾝ","cityKana":"ｻｶｲﾃﾞｼ","streetKana":"ｶｻﾞｼﾁｮｳ","prefecture":"香川県","city":"坂出市","street":"笠指町"},{"zipCode":"7620022","prefectureKana":"ｶｶﾞﾜｹﾝ","cityKana":"ｻｶｲﾃﾞｼ","streetKana":"ｶﾓﾁｮｳｺｳ(ｳｼﾞﾍﾞ)","prefecture":"香川県","city":"坂出市","street":"加茂町甲（氏部）"},{"zipCode":"7620023","prefectureKana":"ｶｶﾞﾜｹﾝ","cityKana":"ｻｶｲﾃﾞｼ","streetKana":"ｶﾓﾁｮｳ(ｿﾉﾀ)","prefecture":"香川県","city":"坂出市","street":"加茂町（その他）"},{"zipCode":"7620062","prefectureKana":"ｶｶﾞﾜｹﾝ","cityKana":"ｻｶｲﾃﾞｼ","streetKana":"ｶﾜｻｷﾁｮｳ","prefecture":"香川県","city":"坂出市","street":"川崎町"},{"zipCode":"7620025","prefectureKana":"ｶｶﾞﾜｹﾝ","cityKana":"ｻｶｲﾃﾞｼ","streetKana":"ｶﾜﾂﾁｮｳ","prefecture":"香川県","city":"坂出市","street":"川津町"},{"zipCode":"7620018","prefectureKana":"ｶｶﾞﾜｹﾝ","cityKana":"ｻｶｲﾃﾞｼ","streetKana":"ｶﾝﾀﾞﾆﾁｮｳ","prefecture":"香川県","city":"坂出市","street":"神谷町"},{"zipCode":"7620001","prefectureKana":"ｶｶﾞﾜｹﾝ","cityKana":"ｻｶｲﾃﾞｼ","streetKana":"ｷｮｳﾏﾁ","prefecture":"香川県","city":"坂出市","street":"京町"},{"zipCode":"7620003","prefectureKana":"ｶｶﾞﾜｹﾝ","cityKana":"ｻｶｲﾃﾞｼ","streetKana":"ｸﾒﾁｮｳ","prefecture":"香川県","city":"坂出市","street":"久米町"},{"zipCode":"7620043","prefectureKana":"ｶｶﾞﾜｹﾝ","cityKana":"ｻｶｲﾃﾞｼ","streetKana":"ｺﾄﾌﾞｷﾁｮｳ","prefecture":"香川県","city":"坂出市","street":"寿町"},{"zipCode":"7620051","prefectureKana":"ｶｶﾞﾜｹﾝ","cityKana":"ｻｶｲﾃﾞｼ","streetKana":"ｺﾞﾌﾞｼｮﾁｮｳ","prefecture":"香川県","city":"坂出市","street":"御供所町"},{"zipCode":"7620032","prefectureKana":"ｶｶﾞﾜｹﾝ","cityKana":"ｻｶｲﾃﾞｼ","streetKana":"ｺﾏﾄﾞﾒﾁｮｳ","prefecture":"香川県","city":"坂出市","street":"駒止町"},{"zipCode":"7620026","prefectureKana":"ｶｶﾞﾜｹﾝ","cityKana":"ｻｶｲﾃﾞｼ","streetKana":"ｺﾔﾏﾁｮｳ","prefecture":"香川県","city":"坂出市","street":"小山町"},{"zipCode":"7620061","prefectureKana":"ｶｶﾞﾜｹﾝ","cityKana":"ｻｶｲﾃﾞｼ","streetKana":"ｻｶｲﾃﾞﾁｮｳ","prefecture":"香川県","city":"坂出市","street":"坂出町"},{"zipCode":"7620066","prefectureKana":"ｶｶﾞﾜｹﾝ","cityKana":"ｻｶｲﾃﾞｼ","streetKana":"ｼｬﾐｼﾞﾏ","prefecture":"香川県","city":"坂出市","street":"沙弥島"},{"zipCode":"7620004","prefectureKana":"ｶｶﾞﾜｹﾝ","cityKana":"ｻｶｲﾃﾞｼ","streetKana":"ｼｮｳﾜﾁｮｳ","prefecture":"香川県","city":"坂出市","street":"昭和町"},{"zipCode":"7620042","prefectureKana":"ｶｶﾞﾜｹﾝ","cityKana":"ｻｶｲﾃﾞｼ","streetKana":"ｼﾛｶﾞﾈﾁｮｳ","prefecture":"香川県","city":"坂出市","street":"白金町"},{"zipCode":"7620047","prefectureKana":"ｶｶﾞﾜｹﾝ","cityKana":"ｻｶｲﾃﾞｼ","streetKana":"ｼﾝﾊﾏﾁｮｳ","prefecture":"香川県","city":"坂出市","street":"新浜町"},{"zipCode":"7620067","prefectureKana":"ｶｶﾞﾜｹﾝ","cityKana":"ｻｶｲﾃﾞｼ","streetKana":"ｾｲﾁｮｳ","prefecture":"香川県","city":"坂出市","street":"瀬居町"},{"zipCode":"7620017","prefectureKana":"ｶｶﾞﾜｹﾝ","cityKana":"ｻｶｲﾃﾞｼ","streetKana":"ﾀｶﾔﾁｮｳ","prefecture":"香川県","city":"坂出市","street":"高屋町"},{"zipCode":"7620033","prefectureKana":"ｶｶﾞﾜｹﾝ","cityKana":"ｻｶｲﾃﾞｼ","streetKana":"ﾀﾆﾏﾁ","prefecture":"香川県","city":"坂出市","street":"谷町"},{"zipCode":"7620055","prefectureKana":"ｶｶﾞﾜｹﾝ","cityKana":"ｻｶｲﾃﾞｼ","streetKana":"ﾁｯｺｳﾁｮｳ","prefecture":"香川県","city":"坂出市","street":"築港町"},{"zipCode":"7620056","prefectureKana":"ｶｶﾞﾜｹﾝ","cityKana":"ｻｶｲﾃﾞｼ","streetKana":"ﾁｭｳｵｳﾁｮｳ","prefecture":"香川県","city":"坂出市","street":"中央町"},{"zipCode":"7620058","prefectureKana":"ｶｶﾞﾜｹﾝ","cityKana":"ｻｶｲﾃﾞｼ","streetKana":"ﾄｷﾜﾁｮｳ","prefecture":"香川県","city":"坂出市","street":"常盤町"},{"zipCode":"7620054","prefectureKana":"ｶｶﾞﾜｹﾝ","cityKana":"ｻｶｲﾃﾞｼ","streetKana":"ﾆｼｵｵﾊﾏﾐﾅﾐ","prefecture":"香川県","city":"坂出市","street":"西大浜南"},{"zipCode":"7620053","prefectureKana":"ｶｶﾞﾜｹﾝ","cityKana":"ｻｶｲﾃﾞｼ","streetKana":"ﾆｼｵｵﾊﾏｷﾀ","prefecture":"香川県","city":"坂出市","street":"西大浜北"},{"zipCode":"7620021","prefectureKana":"ｶｶﾞﾜｹﾝ","cityKana":"ｻｶｲﾃﾞｼ","streetKana":"ﾆｼﾉｼｮｳﾁｮｳ","prefecture":"香川県","city":"坂出市","street":"西庄町"},{"zipCode":"7620041","prefectureKana":"ｶｶﾞﾜｹﾝ","cityKana":"ｻｶｲﾃﾞｼ","streetKana":"ﾊﾁﾏﾝﾁｮｳ","prefecture":"香川県","city":"坂出市","street":"八幡町"},{"zipCode":"7620036","prefectureKana":"ｶｶﾞﾜｹﾝ","cityKana":"ｻｶｲﾃﾞｼ","streetKana":"ﾊﾅﾏﾁ","prefecture":"香川県","city":"坂出市","street":"花町"},{"zipCode":"7620012","prefectureKana":"ｶｶﾞﾜｹﾝ","cityKana":"ｻｶｲﾃﾞｼ","streetKana":"ﾊﾔｼﾀﾞﾁｮｳ","prefecture":"香川県","city":"坂出市","street":"林田町"},{"zipCode":"7620063","prefectureKana":"ｶｶﾞﾜｹﾝ","cityKana":"ｻｶｲﾃﾞｼ","streetKana":"ﾊﾞﾝﾉｽｺｳｴﾝ","prefecture":"香川県","city":"坂出市","street":"番の州公園"},{"zipCode":"7620064","prefectureKana":"ｶｶﾞﾜｹﾝ","cityKana":"ｻｶｲﾃﾞｼ","streetKana":"ﾊﾞﾝﾉｽﾁｮｳ","prefecture":"香川県","city":"坂出市","street":"番の州町"},{"zipCode":"7620065","prefectureKana":"ｶｶﾞﾜｹﾝ","cityKana":"ｻｶｲﾃﾞｼ","streetKana":"ﾊﾞﾝﾉｽﾐﾄﾞﾘﾁｮｳ","prefecture":"香川県","city":"坂出市","street":"番の州緑町"},{"zipCode":"7620073","prefectureKana":"ｶｶﾞﾜｹﾝ","cityKana":"ｻｶｲﾃﾞｼ","streetKana":"ﾋﾂｲｼ","prefecture":"香川県","city":"坂出市","street":"櫃石"},{"zipCode":"7620034","prefectureKana":"ｶｶﾞﾜｹﾝ","cityKana":"ｻｶｲﾃﾞｼ","streetKana":"ﾌｸｴﾁｮｳ","prefecture":"香川県","city":"坂出市","street":"福江町"},{"zipCode":"7620046","prefectureKana":"ｶｶﾞﾜｹﾝ","cityKana":"ｻｶｲﾃﾞｼ","streetKana":"ﾌｼﾞﾐﾁｮｳ","prefecture":"香川県","city":"坂出市","street":"富士見町"},{"zipCode":"7620024","prefectureKana":"ｶｶﾞﾜｹﾝ","cityKana":"ｻｶｲﾃﾞｼ","streetKana":"ﾌﾁｭｳﾁｮｳ","prefecture":"香川県","city":"坂出市","street":"府中町"},{"zipCode":"7620031","prefectureKana":"ｶｶﾞﾜｹﾝ","cityKana":"ｻｶｲﾃﾞｼ","streetKana":"ﾌﾞﾝｷｮｳﾁｮｳ","prefecture":"香川県","city":"坂出市","street":"文京町"},{"zipCode":"7620044","prefectureKana":"ｶｶﾞﾜｹﾝ","cityKana":"ｻｶｲﾃﾞｼ","streetKana":"ﾎﾝﾏﾁ","prefecture":"香川県","city":"坂出市","street":"本町"},{"zipCode":"7620057","prefectureKana":"ｶｶﾞﾜｹﾝ","cityKana":"ｻｶｲﾃﾞｼ","streetKana":"ﾐﾔｼﾀﾁｮｳ","prefecture":"香川県","city":"坂出市","street":"宮下町"},{"zipCode":"7620007","prefectureKana":"ｶｶﾞﾜｹﾝ","cityKana":"ｻｶｲﾃﾞｼ","streetKana":"ﾑﾛﾏﾁ","prefecture":"香川県","city":"坂出市","street":"室町"},{"zipCode":"7620045","prefectureKana":"ｶｶﾞﾜｹﾝ","cityKana":"ｻｶｲﾃﾞｼ","streetKana":"ﾓﾄﾏﾁ","prefecture":"香川県","city":"坂出市","street":"元町"},{"zipCode":"7620005","prefectureKana":"ｶｶﾞﾜｹﾝ","cityKana":"ｻｶｲﾃﾞｼ","streetKana":"ﾖｺﾂﾞﾁｮｳ","prefecture":"香川県","city":"坂出市","street":"横津町"},{"zipCode":"7620071","prefectureKana":"ｶｶﾞﾜｹﾝ","cityKana":"ｻｶｲﾃﾞｼ","streetKana":"ﾖｼﾏﾁｮｳ","prefecture":"香川県","city":"坂出市","street":"与島町"}]