[{"zipCode":"7720000","prefectureKana":"ﾄｸｼﾏｹﾝ","cityKana":"ﾅﾙﾄｼ","streetKana":"ｲｶﾆｹｲｻｲｶﾞﾅｲﾊﾞｱｲ","prefecture":"徳島県","city":"鳴門市","street":"以下に掲載がない場合"},{"zipCode":"7720041","prefectureKana":"ﾄｸｼﾏｹﾝ","cityKana":"ﾅﾙﾄｼ","streetKana":"ｵｵﾂﾁｮｳｵｵｼﾛ","prefecture":"徳島県","city":"鳴門市","street":"大津町大代"},{"zipCode":"7720031","prefectureKana":"ﾄｸｼﾏｹﾝ","cityKana":"ﾅﾙﾄｼ","streetKana":"ｵｵﾂﾁｮｳｷﾂﾞﾉ","prefecture":"徳島県","city":"鳴門市","street":"大津町木津野"},{"zipCode":"7720044","prefectureKana":"ﾄｸｼﾏｹﾝ","cityKana":"ﾅﾙﾄｼ","streetKana":"ｵｵﾂﾁｮｳﾀﾞｲｺｳ","prefecture":"徳島県","city":"鳴門市","street":"大津町大幸"},{"zipCode":"7720043","prefectureKana":"ﾄｸｼﾏｹﾝ","cityKana":"ﾅﾙﾄｼ","streetKana":"ｵｵﾂﾁｮｳﾀﾞﾝｾﾞｷ","prefecture":"徳島県","city":"鳴門市","street":"大津町段関"},{"zipCode":"7720034","prefectureKana":"ﾄｸｼﾏｹﾝ","cityKana":"ﾅﾙﾄｼ","streetKana":"ｵｵﾂﾁｮｳﾄｸﾅｶﾞ","prefecture":"徳島県","city":"鳴門市","street":"大津町徳長"},{"zipCode":"7720033","prefectureKana":"ﾄｸｼﾏｹﾝ","cityKana":"ﾅﾙﾄｼ","streetKana":"ｵｵﾂﾁｮｳﾅｶﾞｴ","prefecture":"徳島県","city":"鳴門市","street":"大津町長江"},{"zipCode":"7720042","prefectureKana":"ﾄｸｼﾏｹﾝ","cityKana":"ﾅﾙﾄｼ","streetKana":"ｵｵﾂﾁｮｳﾋﾞｾﾞﾝｼﾞﾏ","prefecture":"徳島県","city":"鳴門市","street":"大津町備前島"},{"zipCode":"7720035","prefectureKana":"ﾄｸｼﾏｹﾝ","cityKana":"ﾅﾙﾄｼ","streetKana":"ｵｵﾂﾁｮｳﾔｸﾞﾗ","prefecture":"徳島県","city":"鳴門市","street":"大津町矢倉"},{"zipCode":"7720032","prefectureKana":"ﾄｸｼﾏｹﾝ","cityKana":"ﾅﾙﾄｼ","streetKana":"ｵｵﾂﾁｮｳﾖｼﾅｶﾞ","prefecture":"徳島県","city":"鳴門市","street":"大津町吉永"},{"zipCode":"7720022","prefectureKana":"ﾄｸｼﾏｹﾝ","cityKana":"ﾅﾙﾄｼ","streetKana":"ｻﾄｳﾗﾁｮｳｱﾜﾂﾞ","prefecture":"徳島県","city":"鳴門市","street":"里浦町粟津"},{"zipCode":"7720021","prefectureKana":"ﾄｸｼﾏｹﾝ","cityKana":"ﾅﾙﾄｼ","streetKana":"ｻﾄｳﾗﾁｮｳｻﾄｳﾗ","prefecture":"徳島県","city":"鳴門市","street":"里浦町里浦"},{"zipCode":"7720060","prefectureKana":"ﾄｸｼﾏｹﾝ","cityKana":"ﾅﾙﾄｼ","streetKana":"ｾﾄﾁｮｳｱｷﾉｶﾐ(ｸｽﾉｷﾀﾞﾆ､ﾆｹﾝﾔ､ﾐｽﾞｸﾐﾀﾞﾆ)","prefecture":"徳島県","city":"鳴門市","street":"瀬戸町明神（楠谷、弐軒家、水汲谷）"},{"zipCode":"7720051","prefectureKana":"ﾄｸｼﾏｹﾝ","cityKana":"ﾅﾙﾄｼ","streetKana":"ﾅﾙﾄﾁｮｳﾀｶｼﾏ","prefecture":"徳島県","city":"鳴門市","street":"鳴門町高島"},{"zipCode":"7720053","prefectureKana":"ﾄｸｼﾏｹﾝ","cityKana":"ﾅﾙﾄｼ","streetKana":"ﾅﾙﾄﾁｮｳﾄｻﾄﾞﾏﾘｳﾗ","prefecture":"徳島県","city":"鳴門市","street":"鳴門町土佐泊浦"},{"zipCode":"7720052","prefectureKana":"ﾄｸｼﾏｹﾝ","cityKana":"ﾅﾙﾄｼ","streetKana":"ﾅﾙﾄﾁｮｳﾐﾂｲｼ","prefecture":"徳島県","city":"鳴門市","street":"鳴門町三ツ石"},{"zipCode":"7720011","prefectureKana":"ﾄｸｼﾏｹﾝ","cityKana":"ﾅﾙﾄｼ","streetKana":"ﾑﾔﾁｮｳｵｵｸﾜｼﾞﾏ","prefecture":"徳島県","city":"鳴門市","street":"撫養町大桑島"},{"zipCode":"7720012","prefectureKana":"ﾄｸｼﾏｹﾝ","cityKana":"ﾅﾙﾄｼ","streetKana":"ﾑﾔﾁｮｳｺｸﾜｼﾞﾏ","prefecture":"徳島県","city":"鳴門市","street":"撫養町小桑島"},{"zipCode":"7720013","prefectureKana":"ﾄｸｼﾏｹﾝ","cityKana":"ﾅﾙﾄｼ","streetKana":"ﾑﾔﾁｮｳｵｶｻﾞｷ","prefecture":"徳島県","city":"鳴門市","street":"撫養町岡崎"},{"zipCode":"7720004","prefectureKana":"ﾄｸｼﾏｹﾝ","cityKana":"ﾅﾙﾄｼ","streetKana":"ﾑﾔﾁｮｳｷﾂﾞ","prefecture":"徳島県","city":"鳴門市","street":"撫養町木津"},{"zipCode":"7720001","prefectureKana":"ﾄｸｼﾏｹﾝ","cityKana":"ﾅﾙﾄｼ","streetKana":"ﾑﾔﾁｮｳｸﾛｻｷ","prefecture":"徳島県","city":"鳴門市","street":"撫養町黒崎"},{"zipCode":"7720002","prefectureKana":"ﾄｸｼﾏｹﾝ","cityKana":"ﾅﾙﾄｼ","streetKana":"ﾑﾔﾁｮｳｻｲﾀ","prefecture":"徳島県","city":"鳴門市","street":"撫養町斎田"},{"zipCode":"7720017","prefectureKana":"ﾄｸｼﾏｹﾝ","cityKana":"ﾅﾙﾄｼ","streetKana":"ﾑﾔﾁｮｳﾀﾃｲﾜ","prefecture":"徳島県","city":"鳴門市","street":"撫養町立岩"},{"zipCode":"7720016","prefectureKana":"ﾄｸｼﾏｹﾝ","cityKana":"ﾅﾙﾄｼ","streetKana":"ﾑﾔﾁｮｳﾊﾔｻｷ","prefecture":"徳島県","city":"鳴門市","street":"撫養町林崎"},{"zipCode":"7720014","prefectureKana":"ﾄｸｼﾏｹﾝ","cityKana":"ﾅﾙﾄｼ","streetKana":"ﾑﾔﾁｮｳﾍﾞｻﾞｲﾃﾝ","prefecture":"徳島県","city":"鳴門市","street":"撫養町弁財天"},{"zipCode":"7720003","prefectureKana":"ﾄｸｼﾏｹﾝ","cityKana":"ﾅﾙﾄｼ","streetKana":"ﾑﾔﾁｮｳﾐﾅﾐﾊﾏ","prefecture":"徳島県","city":"鳴門市","street":"撫養町南浜"},{"zipCode":"7720015","prefectureKana":"ﾄｸｼﾏｹﾝ","cityKana":"ﾅﾙﾄｼ","streetKana":"ﾑﾔﾁｮｳｷﾀﾊﾏ","prefecture":"徳島県","city":"鳴門市","street":"撫養町北浜"}]