[{"zipCode":"7730070","prefectureKana":"ﾄｸｼﾏｹﾝ","cityKana":"ﾄｸｼﾏｼ","streetKana":"ｵｵﾊﾞﾗﾁｮｳ(ｺﾐｺ､ｺﾐｺﾔﾏ)","prefecture":"徳島県","city":"徳島市","street":"大原町（小神子、小神子山）"},{"zipCode":"7730000","prefectureKana":"ﾄｸｼﾏｹﾝ","cityKana":"ｺﾏﾂｼﾏｼ","streetKana":"ｲｶﾆｹｲｻｲｶﾞﾅｲﾊﾞｱｲ","prefecture":"徳島県","city":"小松島市","street":"以下に掲載がない場合"},{"zipCode":"7730024","prefectureKana":"ﾄｸｼﾏｹﾝ","cityKana":"ｺﾏﾂｼﾏｼ","streetKana":"ｱｲｼﾝﾃﾞﾝﾁｮｳ","prefecture":"徳島県","city":"小松島市","street":"間新田町"},{"zipCode":"7730021","prefectureKana":"ﾄｸｼﾏｹﾝ","cityKana":"ｺﾏﾂｼﾏｼ","streetKana":"ｱｶｲｼﾁｮｳ","prefecture":"徳島県","city":"小松島市","street":"赤石町"},{"zipCode":"7730014","prefectureKana":"ﾄｸｼﾏｹﾝ","cityKana":"ｺﾏﾂｼﾏｼ","streetKana":"ｴﾀﾞﾁｮｳ","prefecture":"徳島県","city":"小松島市","street":"江田町"},{"zipCode":"7730022","prefectureKana":"ﾄｸｼﾏｹﾝ","cityKana":"ｺﾏﾂｼﾏｼ","streetKana":"ｵｵﾊﾔｼﾁｮｳ","prefecture":"徳島県","city":"小松島市","street":"大林町"},{"zipCode":"7730007","prefectureKana":"ﾄｸｼﾏｹﾝ","cityKana":"ｺﾏﾂｼﾏｼ","streetKana":"ｶﾅｲｿﾁｮｳ","prefecture":"徳島県","city":"小松島市","street":"金磯町"},{"zipCode":"7730002","prefectureKana":"ﾄｸｼﾏｹﾝ","cityKana":"ｺﾏﾂｼﾏｼ","streetKana":"ｶﾝﾀﾞｾﾁｮｳ","prefecture":"徳島県","city":"小松島市","street":"神田瀬町"},{"zipCode":"7730018","prefectureKana":"ﾄｸｼﾏｹﾝ","cityKana":"ｺﾏﾂｼﾏｼ","streetKana":"ｸｼﾌﾞﾁﾁｮｳ","prefecture":"徳島県","city":"小松島市","street":"櫛淵町"},{"zipCode":"7730001","prefectureKana":"ﾄｸｼﾏｹﾝ","cityKana":"ｺﾏﾂｼﾏｼ","streetKana":"ｺﾏﾂｼﾏﾁｮｳ","prefecture":"徳島県","city":"小松島市","street":"小松島町"},{"zipCode":"7730023","prefectureKana":"ﾄｸｼﾏｹﾝ","cityKana":"ｺﾏﾂｼﾏｼ","streetKana":"ｻｶﾉﾁｮｳ","prefecture":"徳島県","city":"小松島市","street":"坂野町"},{"zipCode":"7730009","prefectureKana":"ﾄｸｼﾏｹﾝ","cityKana":"ｺﾏﾂｼﾏｼ","streetKana":"ｼﾎﾞｳﾁｮｳ","prefecture":"徳島県","city":"小松島市","street":"芝生町"},{"zipCode":"7730012","prefectureKana":"ﾄｸｼﾏｹﾝ","cityKana":"ｺﾏﾂｼﾏｼ","streetKana":"ﾀｳﾗﾁｮｳ","prefecture":"徳島県","city":"小松島市","street":"田浦町"},{"zipCode":"7730017","prefectureKana":"ﾄｸｼﾏｹﾝ","cityKana":"ｺﾏﾂｼﾏｼ","streetKana":"ﾀﾂｴﾁｮｳ","prefecture":"徳島県","city":"小松島市","street":"立江町"},{"zipCode":"7730008","prefectureKana":"ﾄｸｼﾏｹﾝ","cityKana":"ｺﾏﾂｼﾏｼ","streetKana":"ﾀﾉﾁｮｳ","prefecture":"徳島県","city":"小松島市","street":"田野町"},{"zipCode":"7730015","prefectureKana":"ﾄｸｼﾏｹﾝ","cityKana":"ｺﾏﾂｼﾏｼ","streetKana":"ﾁｭｳﾃﾞﾝﾁｮｳ","prefecture":"徳島県","city":"小松島市","street":"中田町"},{"zipCode":"7730019","prefectureKana":"ﾄｸｼﾏｹﾝ","cityKana":"ｺﾏﾂｼﾏｼ","streetKana":"ﾄﾖｳﾗﾁｮｳ","prefecture":"徳島県","city":"小松島市","street":"豊浦町"},{"zipCode":"7730016","prefectureKana":"ﾄｸｼﾏｹﾝ","cityKana":"ｺﾏﾂｼﾏｼ","streetKana":"ﾅｶﾉｺﾞｳﾁｮｳ","prefecture":"徳島県","city":"小松島市","street":"中郷町"},{"zipCode":"7730011","prefectureKana":"ﾄｸｼﾏｹﾝ","cityKana":"ｺﾏﾂｼﾏｼ","streetKana":"ﾆｲﾐﾁｮｳ","prefecture":"徳島県","city":"小松島市","street":"新居見町"},{"zipCode":"7730010","prefectureKana":"ﾄｸｼﾏｹﾝ","cityKana":"ｺﾏﾂｼﾏｼ","streetKana":"ﾋｶﾞｲﾉﾁｮｳ","prefecture":"徳島県","city":"小松島市","street":"日開野町"},{"zipCode":"7730004","prefectureKana":"ﾄｸｼﾏｹﾝ","cityKana":"ｺﾏﾂｼﾏｼ","streetKana":"ﾎﾘｶﾜﾁｮｳ","prefecture":"徳島県","city":"小松島市","street":"堀川町"},{"zipCode":"7730013","prefectureKana":"ﾄｸｼﾏｹﾝ","cityKana":"ｺﾏﾂｼﾏｼ","streetKana":"ﾏｴﾊﾞﾗﾁｮｳ","prefecture":"徳島県","city":"小松島市","street":"前原町"},{"zipCode":"7730003","prefectureKana":"ﾄｸｼﾏｹﾝ","cityKana":"ｺﾏﾂｼﾏｼ","streetKana":"ﾏﾂｼﾏﾁｮｳ","prefecture":"徳島県","city":"小松島市","street":"松島町"},{"zipCode":"7730005","prefectureKana":"ﾄｸｼﾏｹﾝ","cityKana":"ｺﾏﾂｼﾏｼ","streetKana":"ﾐﾅﾐｺﾏﾂｼﾏﾁｮｳ","prefecture":"徳島県","city":"小松島市","street":"南小松島町"},{"zipCode":"7730006","prefectureKana":"ﾄｸｼﾏｹﾝ","cityKana":"ｺﾏﾂｼﾏｼ","streetKana":"ﾖｺｽﾁｮｳ","prefecture":"徳島県","city":"小松島市","street":"横須町"},{"zipCode":"7730031","prefectureKana":"ﾄｸｼﾏｹﾝ","cityKana":"ｺﾏﾂｼﾏｼ","streetKana":"ﾜﾀﾞｼﾞﾏﾁｮｳ(ﾏﾂﾀﾞｼﾝﾃﾞﾝ)","prefecture":"徳島県","city":"小松島市","street":"和田島町（松田新田）"},{"zipCode":"7730025","prefectureKana":"ﾄｸｼﾏｹﾝ","cityKana":"ｺﾏﾂｼﾏｼ","streetKana":"ﾜﾀﾞｼﾞﾏﾁｮｳ(ｿﾉﾀ)","prefecture":"徳島県","city":"小松島市","street":"和田島町（その他）"},{"zipCode":"7730020","prefectureKana":"ﾄｸｼﾏｹﾝ","cityKana":"ｺﾏﾂｼﾏｼ","streetKana":"ﾜﾀﾞﾂﾋﾞﾗｷﾁｮｳ","prefecture":"徳島県","city":"小松島市","street":"和田津開町"}]