[{"zipCode":"7770005","prefectureKana":"ﾄｸｼﾏｹﾝ","cityKana":"ﾐﾏｼ","streetKana":"ｱﾅﾌﾞｷﾁｮｳｱﾅﾌﾞｷ","prefecture":"徳島県","city":"美馬市","street":"穴吹町穴吹"},{"zipCode":"7770006","prefectureKana":"ﾄｸｼﾏｹﾝ","cityKana":"ﾐﾏｼ","streetKana":"ｱﾅﾌﾞｷﾁｮｳｸﾁﾔﾏ","prefecture":"徳島県","city":"美馬市","street":"穴吹町口山"},{"zipCode":"7770007","prefectureKana":"ﾄｸｼﾏｹﾝ","cityKana":"ﾐﾏｼ","streetKana":"ｱﾅﾌﾞｷﾁｮｳﾌﾙﾐﾔ","prefecture":"徳島県","city":"美馬市","street":"穴吹町古宮"},{"zipCode":"7770004","prefectureKana":"ﾄｸｼﾏｹﾝ","cityKana":"ﾐﾏｼ","streetKana":"ｱﾅﾌﾞｷﾁｮｳﾐｼﾏ(ｵｵｼｹﾞ)","prefecture":"徳島県","city":"美馬市","street":"穴吹町三島（大重）"},{"zipCode":"7770001","prefectureKana":"ﾄｸｼﾏｹﾝ","cityKana":"ﾐﾏｼ","streetKana":"ｱﾅﾌﾞｷﾁｮｳﾐｼﾏ(ｵｼﾏ)","prefecture":"徳島県","city":"美馬市","street":"穴吹町三島（小島）"},{"zipCode":"7770002","prefectureKana":"ﾄｸｼﾏｹﾝ","cityKana":"ﾐﾏｼ","streetKana":"ｱﾅﾌﾞｷﾁｮｳﾐｼﾏ(ﾏｲﾅｶｼﾏ)","prefecture":"徳島県","city":"美馬市","street":"穴吹町三島（舞中島）"},{"zipCode":"7770003","prefectureKana":"ﾄｸｼﾏｹﾝ","cityKana":"ﾐﾏｼ","streetKana":"ｱﾅﾌﾞｷﾁｮｳﾐｼﾏ(ﾐﾀﾆ)","prefecture":"徳島県","city":"美馬市","street":"穴吹町三島（三谷）"},{"zipCode":"7770302","prefectureKana":"ﾄｸｼﾏｹﾝ","cityKana":"ﾐﾏｼ","streetKana":"ｺﾔﾀﾞｲﾗ(ｱｻｷﾞﾇ､ｵｵｷﾀ､ｶﾜｲ､ｼﾓﾐｮｳ､ﾀｹｵ､ﾁﾁﾉｷﾞ)","prefecture":"徳島県","city":"美馬市","street":"木屋平（麻衣、大北、川井、下名、竹尾、櫟木）"},{"zipCode":"7770301","prefectureKana":"ﾄｸｼﾏｹﾝ","cityKana":"ﾐﾏｼ","streetKana":"ｺﾔﾀﾞｲﾗ(ｲﾁﾊﾅ､ｲﾏﾏﾙ､ｵﾔﾏ､ｶｺﾞﾐ､ｶｼﾜﾗ､ｷﾅｶ､ｸﾜｶﾞﾗ､ｹﾔｷﾋﾗ､ｺﾋﾞｳﾗ､","prefecture":"徳島県","city":"美馬市","street":"木屋平（市初、今丸、尾山、カゴミ、樫原、木中、桑柄、ケヤキヒラ、小日浦、"},{"zipCode":"7770301","prefectureKana":"ﾄｸｼﾏｹﾝ","cityKana":"ﾐﾏｼ","streetKana":"ｼﾞｼﾞﾝﾀﾞｷ､ｽｹﾞｿﾞｳ､ﾂｴﾀﾞﾆ､ﾂﾂﾞﾛｳ､ﾊｼﾞｺﾉ､ﾋﾞﾔｶﾞｲﾁ､ﾌﾀﾄﾞ､ﾐﾂｷﾞ､ﾐﾂｸﾞ､","prefecture":"徳島県","city":"美馬市","street":"地神滝、菅蔵、杖谷、葛尾、ハジコノ、ビヤガイチ、二戸、三ツ木、貢、"},{"zipCode":"7770301","prefectureKana":"ﾄｸｼﾏｹﾝ","cityKana":"ﾐﾏｼ","streetKana":"ﾐﾅﾐﾊﾞﾘ､ﾑｺｳｶｼﾜﾗ)","prefecture":"徳島県","city":"美馬市","street":"南張、向樫原）"},{"zipCode":"7770303","prefectureKana":"ﾄｸｼﾏｹﾝ","cityKana":"ﾐﾏｼ","streetKana":"ｺﾔﾀﾞｲﾗ(ｶﾜｶﾐ､ｶﾜｶﾐｶｹ､ﾀｲｺﾞｳ､ﾀｲｺﾞｳｶｹ､ﾀﾆｸﾞﾁ､ﾀﾆｸﾞﾁｶｹ､ﾓﾘﾄｵ､ﾔﾜﾀ､ﾕﾄﾞｳ)","prefecture":"徳島県","city":"美馬市","street":"木屋平（川上、川上カケ、太合、太合カケ、谷口、谷口カケ、森遠、八幡、弓道）"}]