[{"zipCode":"7780000","prefectureKana":"ﾄｸｼﾏｹﾝ","cityKana":"ﾐﾖｼｼ","streetKana":"ｲｶﾆｹｲｻｲｶﾞﾅｲﾊﾞｱｲ","prefecture":"徳島県","city":"三好市","street":"以下に掲載がない場合"},{"zipCode":"7780012","prefectureKana":"ﾄｸｼﾏｹﾝ","cityKana":"ﾐﾖｼｼ","streetKana":"ｲｹﾀﾞﾁｮｳｲｹﾐﾅﾐ","prefecture":"徳島県","city":"三好市","street":"池田町イケミナミ"},{"zipCode":"7780014","prefectureKana":"ﾄｸｼﾏｹﾝ","cityKana":"ﾐﾖｼｼ","streetKana":"ｲｹﾀﾞﾁｮｳｲﾀﾉ","prefecture":"徳島県","city":"三好市","street":"池田町イタノ"},{"zipCode":"7780001","prefectureKana":"ﾄｸｼﾏｹﾝ","cityKana":"ﾐﾖｼｼ","streetKana":"ｲｹﾀﾞﾁｮｳｳｴﾉ","prefecture":"徳島県","city":"三好市","street":"池田町ウエノ"},{"zipCode":"7780010","prefectureKana":"ﾄｸｼﾏｹﾝ","cityKana":"ﾐﾖｼｼ","streetKana":"ｲｹﾀﾞﾁｮｳｳｴﾏﾂ","prefecture":"徳島県","city":"三好市","street":"池田町ウエマツ"},{"zipCode":"7785252","prefectureKana":"ﾄｸｼﾏｹﾝ","cityKana":"ﾐﾖｼｼ","streetKana":"ｲｹﾀﾞﾁｮｳｳﾏｼﾞ","prefecture":"徳島県","city":"三好市","street":"池田町馬路"},{"zipCode":"7780008","prefectureKana":"ﾄｸｼﾏｹﾝ","cityKana":"ﾐﾖｼｼ","streetKana":"ｲｹﾀﾞﾁｮｳｸﾔｳｼﾞ","prefecture":"徳島県","city":"三好市","street":"池田町クヤウジ"},{"zipCode":"7785253","prefectureKana":"ﾄｸｼﾏｹﾝ","cityKana":"ﾐﾖｼｼ","streetKana":"ｲｹﾀﾞﾁｮｳｻﾉ","prefecture":"徳島県","city":"三好市","street":"池田町佐野"},{"zipCode":"7780003","prefectureKana":"ﾄｸｼﾏｹﾝ","cityKana":"ﾐﾖｼｼ","streetKana":"ｲｹﾀﾞﾁｮｳｻﾗﾀﾞ","prefecture":"徳島県","city":"三好市","street":"池田町サラダ"},{"zipCode":"7780005","prefectureKana":"ﾄｸｼﾏｹﾝ","cityKana":"ﾐﾖｼｼ","streetKana":"ｲｹﾀﾞﾁｮｳｼﾏ","prefecture":"徳島県","city":"三好市","street":"池田町シマ"},{"zipCode":"7780020","prefectureKana":"ﾄｸｼﾏｹﾝ","cityKana":"ﾐﾖｼｼ","streetKana":"ｲｹﾀﾞﾁｮｳｼｭｳﾂﾞ","prefecture":"徳島県","city":"三好市","street":"池田町州津"},{"zipCode":"7780004","prefectureKana":"ﾄｸｼﾏｹﾝ","cityKana":"ﾐﾖｼｼ","streetKana":"ｲｹﾀﾞﾁｮｳｼﾝﾏﾁ","prefecture":"徳島県","city":"三好市","street":"池田町シンマチ"},{"zipCode":"7780013","prefectureKana":"ﾄｸｼﾏｹﾝ","cityKana":"ﾐﾖｼｼ","streetKana":"ｲｹﾀﾞﾁｮｳｼﾝﾔﾏ","prefecture":"徳島県","city":"三好市","street":"池田町シンヤマ"},{"zipCode":"7780006","prefectureKana":"ﾄｸｼﾏｹﾝ","cityKana":"ﾐﾖｼｼ","streetKana":"ｲｹﾀﾞﾁｮｳﾄｳｹﾞ","prefecture":"徳島県","city":"三好市","street":"池田町トウゲ"},{"zipCode":"7780031","prefectureKana":"ﾄｸｼﾏｹﾝ","cityKana":"ﾐﾖｼｼ","streetKana":"ｲｹﾀﾞﾁｮｳﾆｼﾔﾏ(ｳﾜｸﾎﾞ)","prefecture":"徳島県","city":"三好市","street":"池田町西山（上久保）"},{"zipCode":"7780031","prefectureKana":"ﾄｸｼﾏｹﾝ","cityKana":"ﾐﾖｼｼ","streetKana":"ｲｹﾀﾞﾁｮｳﾆｼﾔﾏ(ｵﾁ)","prefecture":"徳島県","city":"三好市","street":"池田町西山（落）"},{"zipCode":"7780032","prefectureKana":"ﾄｸｼﾏｹﾝ","cityKana":"ﾐﾖｼｼ","streetKana":"ｲｹﾀﾞﾁｮｳﾆｼﾔﾏ(ｶｹﾞ)","prefecture":"徳島県","city":"三好市","street":"池田町西山（蔭）"},{"zipCode":"7780032","prefectureKana":"ﾄｸｼﾏｹﾝ","cityKana":"ﾐﾖｼｼ","streetKana":"ｲｹﾀﾞﾁｮｳﾆｼﾔﾏ(ｶｼﾉｼﾀ)","prefecture":"徳島県","city":"三好市","street":"池田町西山（樫ノ下）"},{"zipCode":"7780031","prefectureKana":"ﾄｸｼﾏｹﾝ","cityKana":"ﾐﾖｼｼ","streetKana":"ｲｹﾀﾞﾁｮｳﾆｼﾔﾏ(ｶﾐﾅｶｵ)","prefecture":"徳島県","city":"三好市","street":"池田町西山（上中尾）"},{"zipCode":"7780032","prefectureKana":"ﾄｸｼﾏｹﾝ","cityKana":"ﾐﾖｼｼ","streetKana":"ｲｹﾀﾞﾁｮｳﾆｼﾔﾏ(ｷｼﾉｳｴ)","prefecture":"徳島県","city":"三好市","street":"池田町西山（岸ノ上）"},{"zipCode":"7780032","prefectureKana":"ﾄｸｼﾏｹﾝ","cityKana":"ﾐﾖｼｼ","streetKana":"ｲｹﾀﾞﾁｮｳﾆｼﾔﾏ(ｺﾐﾉ)","prefecture":"徳島県","city":"三好市","street":"池田町西山（込野）"},{"zipCode":"7780032","prefectureKana":"ﾄｸｼﾏｹﾝ","cityKana":"ﾐﾖｼｼ","streetKana":"ｲｹﾀﾞﾁｮｳﾆｼﾔﾏ(ｼﾓﾉｳﾗ)","prefecture":"徳島県","city":"三好市","street":"池田町西山（下ノ浦）"},{"zipCode":"7780031","prefectureKana":"ﾄｸｼﾏｹﾝ","cityKana":"ﾐﾖｼｼ","streetKana":"ｲｹﾀﾞﾁｮｳﾆｼﾔﾏ(ﾀﾆｳﾗ)","prefecture":"徳島県","city":"三好市","street":"池田町西山（谷浦）"},{"zipCode":"7780032","prefectureKana":"ﾄｸｼﾏｹﾝ","cityKana":"ﾐﾖｼｼ","streetKana":"ｲｹﾀﾞﾁｮｳﾆｼﾔﾏ(ﾁﾁﾉｷ)","prefecture":"徳島県","city":"三好市","street":"池田町西山（乳ノ木）"},{"zipCode":"7780032","prefectureKana":"ﾄｸｼﾏｹﾝ","cityKana":"ﾐﾖｼｼ","streetKana":"ｲｹﾀﾞﾁｮｳﾆｼﾔﾏ(ﾁﾁﾉｷﾐﾁｷﾀ)","prefecture":"徳島県","city":"三好市","street":"池田町西山（乳ノ木道北）"},{"zipCode":"7780031","prefectureKana":"ﾄｸｼﾏｹﾝ","cityKana":"ﾐﾖｼｼ","streetKana":"ｲｹﾀﾞﾁｮｳﾆｼﾔﾏ(ﾂﾃﾞﾗ)","prefecture":"徳島県","city":"三好市","street":"池田町西山（津寺）"},{"zipCode":"7780031","prefectureKana":"ﾄｸｼﾏｹﾝ","cityKana":"ﾐﾖｼｼ","streetKana":"ｲｹﾀﾞﾁｮｳﾆｼﾔﾏ(ﾂﾎﾞｼﾞﾘ)","prefecture":"徳島県","city":"三好市","street":"池田町西山（坪尻）"},{"zipCode":"7780031","prefectureKana":"ﾄｸｼﾏｹﾝ","cityKana":"ﾐﾖｼｼ","streetKana":"ｲｹﾀﾞﾁｮｳﾆｼﾔﾏ(ﾅｶｵ)","prefecture":"徳島県","city":"三好市","street":"池田町西山（中尾）"},{"zipCode":"7780032","prefectureKana":"ﾄｸｼﾏｹﾝ","cityKana":"ﾐﾖｼｼ","streetKana":"ｲｹﾀﾞﾁｮｳﾆｼﾔﾏ(ﾅｶﾂｶ)","prefecture":"徳島県","city":"三好市","street":"池田町西山（中塚）"},{"zipCode":"7780032","prefectureKana":"ﾄｸｼﾏｹﾝ","cityKana":"ﾐﾖｼｼ","streetKana":"ｲｹﾀﾞﾁｮｳﾆｼﾔﾏ(ﾆｼﾀﾆ)","prefecture":"徳島県","city":"三好市","street":"池田町西山（西谷）"},{"zipCode":"7780031","prefectureKana":"ﾄｸｼﾏｹﾝ","cityKana":"ﾐﾖｼｼ","streetKana":"ｲｹﾀﾞﾁｮｳﾆｼﾔﾏ(ﾆｼﾉｵｶ)","prefecture":"徳島県","city":"三好市","street":"池田町西山（西ノ岡）"},{"zipCode":"7780032","prefectureKana":"ﾄｸｼﾏｹﾝ","cityKana":"ﾐﾖｼｼ","streetKana":"ｲｹﾀﾞﾁｮｳﾆｼﾔﾏ(ﾉﾎﾞﾘｵ)","prefecture":"徳島県","city":"三好市","street":"池田町西山（登リ尾）"},{"zipCode":"7780031","prefectureKana":"ﾄｸｼﾏｹﾝ","cityKana":"ﾐﾖｼｼ","streetKana":"ｲｹﾀﾞﾁｮｳﾆｼﾔﾏ(ﾌﾅﾊﾞﾗ)","prefecture":"徳島県","city":"三好市","street":"池田町西山（船原）"},{"zipCode":"7780032","prefectureKana":"ﾄｸｼﾏｹﾝ","cityKana":"ﾐﾖｼｼ","streetKana":"ｲｹﾀﾞﾁｮｳﾆｼﾔﾏ(ﾐﾔﾉﾆｼ)","prefecture":"徳島県","city":"三好市","street":"池田町西山（宮ノ西）"},{"zipCode":"7780032","prefectureKana":"ﾄｸｼﾏｹﾝ","cityKana":"ﾐﾖｼｼ","streetKana":"ｲｹﾀﾞﾁｮｳﾆｼﾔﾏ(ﾐﾔﾉﾋｶﾞｼ)","prefecture":"徳島県","city":"三好市","street":"池田町西山（宮ノ東）"},{"zipCode":"7780031","prefectureKana":"ﾄｸｼﾏｹﾝ","cityKana":"ﾐﾖｼｼ","streetKana":"ｲｹﾀﾞﾁｮｳﾆｼﾔﾏ(ﾖｺｻｺ)","prefecture":"徳島県","city":"三好市","street":"池田町西山（横佐古）"},{"zipCode":"7780040","prefectureKana":"ﾄｸｼﾏｹﾝ","cityKana":"ﾐﾖｼｼ","streetKana":"ｲｹﾀﾞﾁｮｳﾆｼﾔﾏ(ｿﾉﾀ)","prefecture":"徳島県","city":"三好市","street":"池田町西山（その他）"},{"zipCode":"7785251","prefectureKana":"ﾄｸｼﾏｹﾝ","cityKana":"ﾐﾖｼｼ","streetKana":"ｲｹﾀﾞﾁｮｳﾊｸﾁ","prefecture":"徳島県","city":"三好市","street":"池田町白地"},{"zipCode":"7780011","prefectureKana":"ﾄｸｼﾏｹﾝ","cityKana":"ﾐﾖｼｼ","streetKana":"ｲｹﾀﾞﾁｮｳﾊﾔｼ","prefecture":"徳島県","city":"三好市","street":"池田町ハヤシ"},{"zipCode":"7780002","prefectureKana":"ﾄｸｼﾏｹﾝ","cityKana":"ﾐﾖｼｼ","streetKana":"ｲｹﾀﾞﾁｮｳﾏﾁ","prefecture":"徳島県","city":"三好市","street":"池田町マチ"},{"zipCode":"7780165","prefectureKana":"ﾄｸｼﾏｹﾝ","cityKana":"ﾐﾖｼｼ","streetKana":"ｲｹﾀﾞﾁｮｳﾏﾂｵ(ｲﾔｵﾝｾﾝ､ﾏﾂﾓﾄ367-2ﾊﾞﾝﾁ)","prefecture":"徳島県","city":"三好市","street":"池田町松尾（祖谷温泉、松本３６７－２番地）"},{"zipCode":"7780009","prefectureKana":"ﾄｸｼﾏｹﾝ","cityKana":"ﾐﾖｼｼ","streetKana":"ｲｹﾀﾞﾁｮｳﾔｻﾝ","prefecture":"徳島県","city":"三好市","street":"池田町ヤサン"},{"zipCode":"7780007","prefectureKana":"ﾄｸｼﾏｹﾝ","cityKana":"ﾐﾖｼｼ","streetKana":"ｲｹﾀﾞﾁｮｳﾔﾏﾀﾞ","prefecture":"徳島県","city":"三好市","street":"池田町ヤマダ"},{"zipCode":"7780104","prefectureKana":"ﾄｸｼﾏｹﾝ","cityKana":"ﾐﾖｼｼ","streetKana":"ﾆｼｲﾔﾔﾏﾑﾗｱﾊｼ","prefecture":"徳島県","city":"三好市","street":"西祖谷山村吾橋"},{"zipCode":"7780103","prefectureKana":"ﾄｸｼﾏｹﾝ","cityKana":"ﾐﾖｼｼ","streetKana":"ﾆｼｲﾔﾔﾏﾑﾗｱﾙｾ","prefecture":"徳島県","city":"三好市","street":"西祖谷山村有瀬"},{"zipCode":"7780101","prefectureKana":"ﾄｸｼﾏｹﾝ","cityKana":"ﾐﾖｼｼ","streetKana":"ﾆｼｲﾔﾔﾏﾑﾗｲﾁｳ","prefecture":"徳島県","city":"三好市","street":"西祖谷山村一宇"},{"zipCode":"7780102","prefectureKana":"ﾄｸｼﾏｹﾝ","cityKana":"ﾐﾖｼｼ","streetKana":"ﾆｼｲﾔﾔﾏﾑﾗｲﾏｸﾎﾞ","prefecture":"徳島県","city":"三好市","street":"西祖谷山村今久保"},{"zipCode":"7780105","prefectureKana":"ﾄｸｼﾏｹﾝ","cityKana":"ﾐﾖｼｼ","streetKana":"ﾆｼｲﾔﾔﾏﾑﾗｳｼﾛﾔﾏ","prefecture":"徳島県","city":"三好市","street":"西祖谷山村後山"},{"zipCode":"7780105","prefectureKana":"ﾄｸｼﾏｹﾝ","cityKana":"ﾐﾖｼｼ","streetKana":"ﾆｼｲﾔﾔﾏﾑﾗｳｼﾛﾔﾏﾆｼ","prefecture":"徳島県","city":"三好市","street":"西祖谷山村後山西"},{"zipCode":"7780105","prefectureKana":"ﾄｸｼﾏｹﾝ","cityKana":"ﾐﾖｼｼ","streetKana":"ﾆｼｲﾔﾔﾏﾑﾗｳｼﾛﾔﾏﾑｶｲ","prefecture":"徳島県","city":"三好市","street":"西祖谷山村後山向"},{"zipCode":"7780104","prefectureKana":"ﾄｸｼﾏｹﾝ","cityKana":"ﾐﾖｼｼ","streetKana":"ﾆｼｲﾔﾔﾏﾑﾗｴﾉｷ","prefecture":"徳島県","city":"三好市","street":"西祖谷山村榎"},{"zipCode":"7780101","prefectureKana":"ﾄｸｼﾏｹﾝ","cityKana":"ﾐﾖｼｼ","streetKana":"ﾆｼｲﾔﾔﾏﾑﾗｵｲﾉｳﾁ","prefecture":"徳島県","city":"三好市","street":"西祖谷山村尾井ノ内"},{"zipCode":"7780104","prefectureKana":"ﾄｸｼﾏｹﾝ","cityKana":"ﾐﾖｼｼ","streetKana":"ﾆｼｲﾔﾔﾏﾑﾗｶﾐｱﾊｼ","prefecture":"徳島県","city":"三好市","street":"西祖谷山村上吾橋"},{"zipCode":"7780102","prefectureKana":"ﾄｸｼﾏｹﾝ","cityKana":"ﾐﾖｼｼ","streetKana":"ﾆｼｲﾔﾔﾏﾑﾗｶﾝｼﾞｮｳ","prefecture":"徳島県","city":"三好市","street":"西祖谷山村閑定"},{"zipCode":"7780101","prefectureKana":"ﾄｸｼﾏｹﾝ","cityKana":"ﾐﾖｼｼ","streetKana":"ﾆｼｲﾔﾔﾏﾑﾗｼｹﾞｽｴ","prefecture":"徳島県","city":"三好市","street":"西祖谷山村重末"},{"zipCode":"7780104","prefectureKana":"ﾄｸｼﾏｹﾝ","cityKana":"ﾐﾖｼｼ","streetKana":"ﾆｼｲﾔﾔﾏﾑﾗｼﾓｱﾊｼ","prefecture":"徳島県","city":"三好市","street":"西祖谷山村下吾橋"},{"zipCode":"7780102","prefectureKana":"ﾄｸｼﾏｹﾝ","cityKana":"ﾐﾖｼｼ","streetKana":"ﾆｼｲﾔﾔﾏﾑﾗｾﾞﾝﾄｸ","prefecture":"徳島県","city":"三好市","street":"西祖谷山村善徳"},{"zipCode":"7780101","prefectureKana":"ﾄｸｼﾏｹﾝ","cityKana":"ﾐﾖｼｼ","streetKana":"ﾆｼｲﾔﾔﾏﾑﾗﾀﾉｳﾁ","prefecture":"徳島県","city":"三好市","street":"西祖谷山村田ノ内"},{"zipCode":"7780104","prefectureKana":"ﾄｸｼﾏｹﾝ","cityKana":"ﾐﾖｼｼ","streetKana":"ﾆｼｲﾔﾔﾏﾑﾗﾂﾁﾋｳﾗ","prefecture":"徳島県","city":"三好市","street":"西祖谷山村土日浦"},{"zipCode":"7780105","prefectureKana":"ﾄｸｼﾏｹﾝ","cityKana":"ﾐﾖｼｼ","streetKana":"ﾆｼｲﾔﾔﾏﾑﾗﾄｸｾﾞﾝ","prefecture":"徳島県","city":"三好市","street":"西祖谷山村徳善"},{"zipCode":"7780105","prefectureKana":"ﾄｸｼﾏｹﾝ","cityKana":"ﾐﾖｼｼ","streetKana":"ﾆｼｲﾔﾔﾏﾑﾗﾄｸｾﾞﾝｷﾀ","prefecture":"徳島県","city":"三好市","street":"西祖谷山村徳善北"},{"zipCode":"7780105","prefectureKana":"ﾄｸｼﾏｹﾝ","cityKana":"ﾐﾖｼｼ","streetKana":"ﾆｼｲﾔﾔﾏﾑﾗﾄｸｾﾞﾝﾆｼ","prefecture":"徳島県","city":"三好市","street":"西祖谷山村徳善西"},{"zipCode":"7780101","prefectureKana":"ﾄｸｼﾏｹﾝ","cityKana":"ﾐﾖｼｼ","streetKana":"ﾆｼｲﾔﾔﾏﾑﾗﾄﾉﾀﾆ","prefecture":"徳島県","city":"三好市","street":"西祖谷山村戸ノ谷"},{"zipCode":"7780102","prefectureKana":"ﾄｸｼﾏｹﾝ","cityKana":"ﾐﾖｼｼ","streetKana":"ﾆｼｲﾔﾔﾏﾑﾗﾅｶｵ","prefecture":"徳島県","city":"三好市","street":"西祖谷山村中尾"},{"zipCode":"7780105","prefectureKana":"ﾄｸｼﾏｹﾝ","cityKana":"ﾐﾖｼｼ","streetKana":"ﾆｼｲﾔﾔﾏﾑﾗﾆｼｵｶ","prefecture":"徳島県","city":"三好市","street":"西祖谷山村西岡"},{"zipCode":"7780101","prefectureKana":"ﾄｸｼﾏｹﾝ","cityKana":"ﾐﾖｼｼ","streetKana":"ﾆｼｲﾔﾔﾏﾑﾗﾈﾑﾘﾀﾞﾆ","prefecture":"徳島県","city":"三好市","street":"西祖谷山村眠谷"},{"zipCode":"7780105","prefectureKana":"ﾄｸｼﾏｹﾝ","cityKana":"ﾐﾖｼｼ","streetKana":"ﾆｼｲﾔﾔﾏﾑﾗﾋｶﾞｼﾆｼｵｶ","prefecture":"徳島県","city":"三好市","street":"西祖谷山村東西岡"},{"zipCode":"7780104","prefectureKana":"ﾄｸｼﾏｹﾝ","cityKana":"ﾐﾖｼｼ","streetKana":"ﾆｼｲﾔﾔﾏﾑﾗﾋｶﾞｼﾔﾏ","prefecture":"徳島県","city":"三好市","street":"西祖谷山村東山"},{"zipCode":"7780104","prefectureKana":"ﾄｸｼﾏｹﾝ","cityKana":"ﾐﾖｼｼ","streetKana":"ﾆｼｲﾔﾔﾏﾑﾗﾐﾅﾐﾔﾏ","prefecture":"徳島県","city":"三好市","street":"西祖谷山村南山"},{"zipCode":"7780101","prefectureKana":"ﾄｸｼﾏｹﾝ","cityKana":"ﾐﾖｼｼ","streetKana":"ﾆｼｲﾔﾔﾏﾑﾗﾐｮｳｼﾞ","prefecture":"徳島県","city":"三好市","street":"西祖谷山村冥地"},{"zipCode":"7780205","prefectureKana":"ﾄｸｼﾏｹﾝ","cityKana":"ﾐﾖｼｼ","streetKana":"ﾋｶﾞｼｲﾔｱｻ","prefecture":"徳島県","city":"三好市","street":"東祖谷阿佐"},{"zipCode":"7780206","prefectureKana":"ﾄｸｼﾏｹﾝ","cityKana":"ﾐﾖｼｼ","streetKana":"ﾋｶﾞｼｲﾔｲﾏｲ","prefecture":"徳島県","city":"三好市","street":"東祖谷今井"},{"zipCode":"7780204","prefectureKana":"ﾄｸｼﾏｹﾝ","cityKana":"ﾐﾖｼｼ","streetKana":"ﾋｶﾞｼｲﾔｵｵｴﾀﾞ","prefecture":"徳島県","city":"三好市","street":"東祖谷大枝"},{"zipCode":"7780204","prefectureKana":"ﾄｸｼﾏｹﾝ","cityKana":"ﾐﾖｼｼ","streetKana":"ﾋｶﾞｼｲﾔｵｵﾆｼ","prefecture":"徳島県","city":"三好市","street":"東祖谷大西"},{"zipCode":"7780205","prefectureKana":"ﾄｸｼﾏｹﾝ","cityKana":"ﾐﾖｼｼ","streetKana":"ﾋｶﾞｼｲﾔｵｶﾞﾜ","prefecture":"徳島県","city":"三好市","street":"東祖谷小川"},{"zipCode":"7780203","prefectureKana":"ﾄｸｼﾏｹﾝ","cityKana":"ﾐﾖｼｼ","streetKana":"ﾋｶﾞｼｲﾔｵｸﾉｲ","prefecture":"徳島県","city":"三好市","street":"東祖谷奥の井"},{"zipCode":"7780206","prefectureKana":"ﾄｸｼﾏｹﾝ","cityKana":"ﾐﾖｼｼ","streetKana":"ﾋｶﾞｼｲﾔｵｼﾏ","prefecture":"徳島県","city":"三好市","street":"東祖谷小島"},{"zipCode":"7780202","prefectureKana":"ﾄｸｼﾏｹﾝ","cityKana":"ﾐﾖｼｼ","streetKana":"ﾋｶﾞｼｲﾔｵﾁｱｲ","prefecture":"徳島県","city":"三好市","street":"東祖谷落合"},{"zipCode":"7780205","prefectureKana":"ﾄｸｼﾏｹﾝ","cityKana":"ﾐﾖｼｼ","streetKana":"ﾋｶﾞｼｲﾔｶｼｵ","prefecture":"徳島県","city":"三好市","street":"東祖谷樫尾"},{"zipCode":"7780203","prefectureKana":"ﾄｸｼﾏｹﾝ","cityKana":"ﾐﾖｼｼ","streetKana":"ﾋｶﾞｼｲﾔｶﾏｶﾞﾀﾆ","prefecture":"徳島県","city":"三好市","street":"東祖谷釜ケ谷"},{"zipCode":"7780204","prefectureKana":"ﾄｸｼﾏｹﾝ","cityKana":"ﾐﾖｼｼ","streetKana":"ﾋｶﾞｼｲﾔｷｮｳｼﾞｮｳ","prefecture":"徳島県","city":"三好市","street":"東祖谷京上"},{"zipCode":"7780203","prefectureKana":"ﾄｸｼﾏｹﾝ","cityKana":"ﾐﾖｼｼ","streetKana":"ﾋｶﾞｼｲﾔｸｷ","prefecture":"徳島県","city":"三好市","street":"東祖谷九鬼"},{"zipCode":"7780202","prefectureKana":"ﾄｸｼﾏｹﾝ","cityKana":"ﾐﾖｼｼ","streetKana":"ﾋｶﾞｼｲﾔｸﾎﾞ","prefecture":"徳島県","city":"三好市","street":"東祖谷久保"},{"zipCode":"7780203","prefectureKana":"ﾄｸｼﾏｹﾝ","cityKana":"ﾐﾖｼｼ","streetKana":"ﾋｶﾞｼｲﾔｸﾘｽﾄﾞ","prefecture":"徳島県","city":"三好市","street":"東祖谷栗枝渡"},{"zipCode":"7780205","prefectureKana":"ﾄｸｼﾏｹﾝ","cityKana":"ﾐﾖｼｼ","streetKana":"ﾋｶﾞｼｲﾔｺﾐ","prefecture":"徳島県","city":"三好市","street":"東祖谷古味"},{"zipCode":"7780206","prefectureKana":"ﾄｸｼﾏｹﾝ","cityKana":"ﾐﾖｼｼ","streetKana":"ﾋｶﾞｼｲﾔｻﾉ","prefecture":"徳島県","city":"三好市","street":"東祖谷佐野"},{"zipCode":"7780203","prefectureKana":"ﾄｸｼﾏｹﾝ","cityKana":"ﾐﾖｼｼ","streetKana":"ﾋｶﾞｼｲﾔｼﾓｾ","prefecture":"徳島県","city":"三好市","street":"東祖谷下瀬"},{"zipCode":"7780201","prefectureKana":"ﾄｸｼﾏｹﾝ","cityKana":"ﾐﾖｼｼ","streetKana":"ﾋｶﾞｼｲﾔｽｹﾞｵｲ","prefecture":"徳島県","city":"三好市","street":"東祖谷菅生"},{"zipCode":"7780206","prefectureKana":"ﾄｸｼﾏｹﾝ","cityKana":"ﾐﾖｼｼ","streetKana":"ﾋｶﾞｼｲﾔﾀｶﾉ","prefecture":"徳島県","city":"三好市","street":"東祖谷高野"},{"zipCode":"7780206","prefectureKana":"ﾄｸｼﾏｹﾝ","cityKana":"ﾐﾖｼｼ","streetKana":"ﾋｶﾞｼｲﾔﾂﾙｲ","prefecture":"徳島県","city":"三好市","street":"東祖谷釣井"},{"zipCode":"7780203","prefectureKana":"ﾄｸｼﾏｹﾝ","cityKana":"ﾐﾖｼｼ","streetKana":"ﾋｶﾞｼｲﾔﾅｶｳｴ","prefecture":"徳島県","city":"三好市","street":"東祖谷中上"},{"zipCode":"7780205","prefectureKana":"ﾄｸｼﾏｹﾝ","cityKana":"ﾐﾖｼｼ","streetKana":"ﾋｶﾞｼｲﾔﾆｲﾔ","prefecture":"徳島県","city":"三好市","street":"東祖谷新居屋"},{"zipCode":"7780203","prefectureKana":"ﾄｸｼﾏｹﾝ","cityKana":"ﾐﾖｼｼ","streetKana":"ﾋｶﾞｼｲﾔﾆｼﾔﾏ","prefecture":"徳島県","city":"三好市","street":"東祖谷西山"},{"zipCode":"7780203","prefectureKana":"ﾄｸｼﾏｹﾝ","cityKana":"ﾐﾖｼｼ","streetKana":"ﾋｶﾞｼｲﾔﾊﾔｼ","prefecture":"徳島県","city":"三好市","street":"東祖谷林"},{"zipCode":"7780201","prefectureKana":"ﾄｸｼﾏｹﾝ","cityKana":"ﾐﾖｼｼ","streetKana":"ﾋｶﾞｼｲﾔﾐﾉｺｼ","prefecture":"徳島県","city":"三好市","street":"東祖谷見ノ越"},{"zipCode":"7780205","prefectureKana":"ﾄｸｼﾏｹﾝ","cityKana":"ﾐﾖｼｼ","streetKana":"ﾋｶﾞｼｲﾔﾑｼﾞｭｳﾄ","prefecture":"徳島県","city":"三好市","street":"東祖谷麦生土"},{"zipCode":"7780205","prefectureKana":"ﾄｸｼﾏｹﾝ","cityKana":"ﾐﾖｼｼ","streetKana":"ﾋｶﾞｼｲﾔﾓｯﾄｲ","prefecture":"徳島県","city":"三好市","street":"東祖谷元井"},{"zipCode":"7780204","prefectureKana":"ﾄｸｼﾏｹﾝ","cityKana":"ﾐﾖｼｼ","streetKana":"ﾋｶﾞｼｲﾔﾜｶﾊﾞﾔｼ","prefecture":"徳島県","city":"三好市","street":"東祖谷若林"},{"zipCode":"7780206","prefectureKana":"ﾄｸｼﾏｹﾝ","cityKana":"ﾐﾖｼｼ","streetKana":"ﾋｶﾞｼｲﾔﾜﾀﾞ","prefecture":"徳島県","city":"三好市","street":"東祖谷和田"},{"zipCode":"7785254","prefectureKana":"ﾄｸｼﾏｹﾝ","cityKana":"ﾐﾖｼｼ","streetKana":"ﾔﾏｼﾛﾁｮｳｻﾚ(ﾐﾈﾊﾞﾀ)","prefecture":"徳島県","city":"三好市","street":"山城町佐連（ミネ畑）"}]