[{"zipCode":"7800000","prefectureKana":"ｺｳﾁｹﾝ","cityKana":"ｺｳﾁｼ","streetKana":"ｲｶﾆｹｲｻｲｶﾞﾅｲﾊﾞｱｲ","prefecture":"高知県","city":"高知市","street":"以下に掲載がない場合"},{"zipCode":"7800054","prefectureKana":"ｺｳﾁｹﾝ","cityKana":"ｺｳﾁｼ","streetKana":"ｱｲｵｲﾁｮｳ","prefecture":"高知県","city":"高知市","street":"相生町"},{"zipCode":"7800936","prefectureKana":"ｺｳﾁｹﾝ","cityKana":"ｺｳﾁｼ","streetKana":"ｱｶｲｼﾁｮｳ","prefecture":"高知県","city":"高知市","street":"赤石町"},{"zipCode":"7808072","prefectureKana":"ｺｳﾁｹﾝ","cityKana":"ｺｳﾁｼ","streetKana":"ｱｹﾎﾞﾉﾁｮｳ","prefecture":"高知県","city":"高知市","street":"曙町"},{"zipCode":"7808061","prefectureKana":"ｺｳﾁｹﾝ","cityKana":"ｺｳﾁｼ","streetKana":"ｱｻｸﾗｺｳ","prefecture":"高知県","city":"高知市","street":"朝倉甲"},{"zipCode":"7808062","prefectureKana":"ｺｳﾁｹﾝ","cityKana":"ｺｳﾁｼ","streetKana":"ｱｻｸﾗｵﾂ","prefecture":"高知県","city":"高知市","street":"朝倉乙"},{"zipCode":"7808063","prefectureKana":"ｺｳﾁｹﾝ","cityKana":"ｺｳﾁｼ","streetKana":"ｱｻｸﾗﾍｲ","prefecture":"高知県","city":"高知市","street":"朝倉丙"},{"zipCode":"7808064","prefectureKana":"ｺｳﾁｹﾝ","cityKana":"ｺｳﾁｼ","streetKana":"ｱｻｸﾗﾃｲ","prefecture":"高知県","city":"高知市","street":"朝倉丁"},{"zipCode":"7808065","prefectureKana":"ｺｳﾁｹﾝ","cityKana":"ｺｳﾁｼ","streetKana":"ｱｻｸﾗﾎﾞ","prefecture":"高知県","city":"高知市","street":"朝倉戊"},{"zipCode":"7808066","prefectureKana":"ｺｳﾁｹﾝ","cityKana":"ｺｳﾁｼ","streetKana":"ｱｻｸﾗｷ","prefecture":"高知県","city":"高知市","street":"朝倉己"},{"zipCode":"7808077","prefectureKana":"ｺｳﾁｹﾝ","cityKana":"ｺｳﾁｼ","streetKana":"ｱｻｸﾗﾆｼﾏﾁ","prefecture":"高知県","city":"高知市","street":"朝倉西町"},{"zipCode":"7808076","prefectureKana":"ｺｳﾁｹﾝ","cityKana":"ｺｳﾁｼ","streetKana":"ｱｻｸﾗﾋｶﾞｼﾏﾁ","prefecture":"高知県","city":"高知市","street":"朝倉東町"},{"zipCode":"7808075","prefectureKana":"ｺｳﾁｹﾝ","cityKana":"ｺｳﾁｼ","streetKana":"ｱｻｸﾗﾐﾅﾐﾏﾁ","prefecture":"高知県","city":"高知市","street":"朝倉南町"},{"zipCode":"7808074","prefectureKana":"ｺｳﾁｹﾝ","cityKana":"ｺｳﾁｼ","streetKana":"ｱｻｸﾗﾖｺﾏﾁ","prefecture":"高知県","city":"高知市","street":"朝倉横町"},{"zipCode":"7808073","prefectureKana":"ｺｳﾁｹﾝ","cityKana":"ｺｳﾁｼ","streetKana":"ｱｻｸﾗﾎﾝﾏﾁ","prefecture":"高知県","city":"高知市","street":"朝倉本町"},{"zipCode":"7800938","prefectureKana":"ｺｳﾁｹﾝ","cityKana":"ｺｳﾁｼ","streetKana":"ｱｻﾋｴｷﾏｴﾁｮｳ","prefecture":"高知県","city":"高知市","street":"旭駅前町"},{"zipCode":"7800943","prefectureKana":"ｺｳﾁｹﾝ","cityKana":"ｺｳﾁｼ","streetKana":"ｱｻﾋｶﾐﾏﾁ","prefecture":"高知県","city":"高知市","street":"旭上町"},{"zipCode":"7800955","prefectureKana":"ｺｳﾁｹﾝ","cityKana":"ｺｳﾁｼ","streetKana":"ｱｻﾋﾃﾝｼﾞﾝﾁｮｳ","prefecture":"高知県","city":"高知市","street":"旭天神町"},{"zipCode":"7800935","prefectureKana":"ｺｳﾁｹﾝ","cityKana":"ｺｳﾁｼ","streetKana":"ｱｻﾋﾏﾁ","prefecture":"高知県","city":"高知市","street":"旭町"},{"zipCode":"7800051","prefectureKana":"ｺｳﾁｹﾝ","cityKana":"ｺｳﾁｼ","streetKana":"ｱﾀｺﾞﾏﾁ","prefecture":"高知県","city":"高知市","street":"愛宕町"},{"zipCode":"7800025","prefectureKana":"ｺｳﾁｹﾝ","cityKana":"ｺｳﾁｼ","streetKana":"ｱﾀｺﾞﾔﾏ","prefecture":"高知県","city":"高知市","street":"愛宕山"},{"zipCode":"7800027","prefectureKana":"ｺｳﾁｹﾝ","cityKana":"ｺｳﾁｼ","streetKana":"ｱﾀｺﾞﾔﾏﾐﾅﾐﾏﾁ","prefecture":"高知県","city":"高知市","street":"愛宕山南町"},{"zipCode":"7800921","prefectureKana":"ｺｳﾁｹﾝ","cityKana":"ｺｳﾁｼ","streetKana":"ｲｸﾞﾁﾁｮｳ","prefecture":"高知県","city":"高知市","street":"井口町"},{"zipCode":"7808038","prefectureKana":"ｺｳﾁｹﾝ","cityKana":"ｺｳﾁｼ","streetKana":"ｲｼﾀﾃﾁｮｳ","prefecture":"高知県","city":"高知市","street":"石立町"},{"zipCode":"7800064","prefectureKana":"ｺｳﾁｹﾝ","cityKana":"ｺｳﾁｼ","streetKana":"ｲｽﾞﾐﾁｮｳ","prefecture":"高知県","city":"高知市","street":"和泉町"},{"zipCode":"7800046","prefectureKana":"ｺｳﾁｹﾝ","cityKana":"ｺｳﾁｼ","streetKana":"ｲｾｻﾞｷﾁｮｳ","prefecture":"高知県","city":"高知市","street":"伊勢崎町"},{"zipCode":"7800041","prefectureKana":"ｺｳﾁｹﾝ","cityKana":"ｺｳﾁｼ","streetKana":"ｲﾘｱｹﾁｮｳ","prefecture":"高知県","city":"高知市","street":"入明町"},{"zipCode":"7800948","prefectureKana":"ｺｳﾁｹﾝ","cityKana":"ｺｳﾁｼ","streetKana":"ｲﾜｶﾞﾌﾞﾁ","prefecture":"高知県","city":"高知市","street":"岩ケ淵"},{"zipCode":"7808083","prefectureKana":"ｺｳﾁｹﾝ","cityKana":"ｺｳﾁｼ","streetKana":"ｳｸﾞﾙｽ","prefecture":"高知県","city":"高知市","street":"鵜来巣"},{"zipCode":"7800031","prefectureKana":"ｺｳﾁｹﾝ","cityKana":"ｺｳﾁｼ","streetKana":"ｳﾂﾉ","prefecture":"高知県","city":"高知市","street":"宇津野"},{"zipCode":"7808011","prefectureKana":"ｺｳﾁｹﾝ","cityKana":"ｺｳﾁｼ","streetKana":"ｳﾒﾉﾂｼﾞ","prefecture":"高知県","city":"高知市","street":"梅ノ辻"},{"zipCode":"7800844","prefectureKana":"ｺｳﾁｹﾝ","cityKana":"ｺｳﾁｼ","streetKana":"ｴｲｺｸｼﾞﾁｮｳ","prefecture":"高知県","city":"高知市","street":"永国寺町"},{"zipCode":"7800053","prefectureKana":"ｺｳﾁｹﾝ","cityKana":"ｺｳﾁｼ","streetKana":"ｴｷﾏｴﾁｮｳ","prefecture":"高知県","city":"高知市","street":"駅前町"},{"zipCode":"7800928","prefectureKana":"ｺｳﾁｹﾝ","cityKana":"ｺｳﾁｼ","streetKana":"ｴﾁｾﾞﾝﾏﾁ","prefecture":"高知県","city":"高知市","street":"越前町"},{"zipCode":"7800974","prefectureKana":"ｺｳﾁｹﾝ","cityKana":"ｺｳﾁｼ","streetKana":"ｴﾝｷﾞｮｳｼﾞ","prefecture":"高知県","city":"高知市","street":"円行寺"},{"zipCode":"7800842","prefectureKana":"ｺｳﾁｹﾝ","cityKana":"ｺｳﾁｼ","streetKana":"ｵｳﾃｽｼﾞ","prefecture":"高知県","city":"高知市","street":"追手筋"},{"zipCode":"7800052","prefectureKana":"ｺｳﾁｹﾝ","cityKana":"ｺｳﾁｼ","streetKana":"ｵｵｶﾜｽｼﾞ","prefecture":"高知県","city":"高知市","street":"大川筋"},{"zipCode":"7800947","prefectureKana":"ｺｳﾁｹﾝ","cityKana":"ｺｳﾁｼ","streetKana":"ｵｵﾀﾆ","prefecture":"高知県","city":"高知市","street":"大谷"},{"zipCode":"7808085","prefectureKana":"ｺｳﾁｹﾝ","cityKana":"ｺｳﾁｼ","streetKana":"ｵｵﾀﾆｺｳｴﾝﾁｮｳ","prefecture":"高知県","city":"高知市","street":"大谷公園町"},{"zipCode":"7808031","prefectureKana":"ｺｳﾁｹﾝ","cityKana":"ｺｳﾁｼ","streetKana":"ｵｵﾊﾗﾁｮｳ","prefecture":"高知県","city":"高知市","street":"大原町"},{"zipCode":"7800915","prefectureKana":"ｺｳﾁｹﾝ","cityKana":"ｺｳﾁｼ","streetKana":"ｵﾂﾞﾁｮｳ","prefecture":"高知県","city":"高知市","street":"小津町"},{"zipCode":"7800841","prefectureKana":"ｺｳﾁｹﾝ","cityKana":"ｺｳﾁｼ","streetKana":"ｵﾋﾞﾔﾏﾁ","prefecture":"高知県","city":"高知市","street":"帯屋町"},{"zipCode":"7800032","prefectureKana":"ｺｳﾁｹﾝ","cityKana":"ｺｳﾁｼ","streetKana":"ｶｶﾞﾉｲ","prefecture":"高知県","city":"高知市","street":"加賀野井"},{"zipCode":"7800933","prefectureKana":"ｺｳﾁｹﾝ","cityKana":"ｺｳﾁｼ","streetKana":"ｶｶﾞﾐｶﾞﾜﾁｮｳ","prefecture":"高知県","city":"高知市","street":"鏡川町"},{"zipCode":"7800946","prefectureKana":"ｺｳﾁｹﾝ","cityKana":"ｺｳﾁｼ","streetKana":"ｶﾐﾎﾝｸﾞｳﾁｮｳ","prefecture":"高知県","city":"高知市","street":"上本宮町"},{"zipCode":"7800901","prefectureKana":"ｺｳﾁｹﾝ","cityKana":"ｺｳﾁｼ","streetKana":"ｶﾐﾏﾁ","prefecture":"高知県","city":"高知市","street":"上町"},{"zipCode":"7808052","prefectureKana":"ｺｳﾁｹﾝ","cityKana":"ｺｳﾁｼ","streetKana":"ｶﾓﾍﾞ(ﾁｮｳﾒ)","prefecture":"高知県","city":"高知市","street":"鴨部（丁目）"},{"zipCode":"7808050","prefectureKana":"ｺｳﾁｹﾝ","cityKana":"ｺｳﾁｼ","streetKana":"ｶﾓﾍﾞ(ｿﾉﾀ)","prefecture":"高知県","city":"高知市","street":"鴨部（その他）"},{"zipCode":"7808051","prefectureKana":"ｺｳﾁｹﾝ","cityKana":"ｺｳﾁｼ","streetKana":"ｶﾓﾍﾞｶﾐﾏﾁ","prefecture":"高知県","city":"高知市","street":"鴨部上町"},{"zipCode":"7808071","prefectureKana":"ｺｳﾁｹﾝ","cityKana":"ｺｳﾁｼ","streetKana":"ｶﾓﾍﾞﾀｶﾏﾁ","prefecture":"高知県","city":"高知市","street":"鴨部高町"},{"zipCode":"7800994","prefectureKana":"ｺｳﾁｹﾝ","cityKana":"ｺｳﾁｼ","streetKana":"ｶﾗｲﾜ","prefecture":"高知県","city":"高知市","street":"唐岩"},{"zipCode":"7800022","prefectureKana":"ｺｳﾁｹﾝ","cityKana":"ｺｳﾁｼ","streetKana":"ｷﾀｼﾞﾝｾﾞﾝｼﾞ","prefecture":"高知県","city":"高知市","street":"北秦泉寺"},{"zipCode":"7808028","prefectureKana":"ｺｳﾁｹﾝ","cityKana":"ｺｳﾁｼ","streetKana":"ｷﾀﾀｶﾐﾁｮｳ","prefecture":"高知県","city":"高知市","street":"北高見町"},{"zipCode":"7808019","prefectureKana":"ｺｳﾁｹﾝ","cityKana":"ｺｳﾁｼ","streetKana":"ｷﾀﾀｹｼﾏﾁｮｳ","prefecture":"高知県","city":"高知市","street":"北竹島町"},{"zipCode":"7808026","prefectureKana":"ｺｳﾁｹﾝ","cityKana":"ｺｳﾁｼ","streetKana":"ｷﾀﾅｶﾔﾏ","prefecture":"高知県","city":"高知市","street":"北中山"},{"zipCode":"7800913","prefectureKana":"ｺｳﾁｹﾝ","cityKana":"ｺｳﾁｼ","streetKana":"ｷﾀﾊｯﾀﾝﾁｮｳ","prefecture":"高知県","city":"高知市","street":"北八反町"},{"zipCode":"7800956","prefectureKana":"ｺｳﾁｹﾝ","cityKana":"ｺｳﾁｼ","streetKana":"ｷﾀﾊﾞﾀﾁｮｳ","prefecture":"高知県","city":"高知市","street":"北端町"},{"zipCode":"7800056","prefectureKana":"ｺｳﾁｹﾝ","cityKana":"ｺｳﾁｼ","streetKana":"ｷﾀﾎﾝﾏﾁ","prefecture":"高知県","city":"高知市","street":"北本町"},{"zipCode":"7800963","prefectureKana":"ｺｳﾁｹﾝ","cityKana":"ｺｳﾁｼ","streetKana":"ｸﾁﾎｿﾔﾏ","prefecture":"高知県","city":"高知市","street":"口細山"},{"zipCode":"7800001","prefectureKana":"ｺｳﾁｹﾝ","cityKana":"ｺｳﾁｼ","streetKana":"ｸﾚﾉ","prefecture":"高知県","city":"高知市","street":"久礼野"},{"zipCode":"7808032","prefectureKana":"ｺｳﾁｹﾝ","cityKana":"ｺｳﾁｼ","streetKana":"ｺｲｼｷﾞﾁｮｳ","prefecture":"高知県","city":"高知市","street":"小石木町"},{"zipCode":"7808033","prefectureKana":"ｺｳﾁｹﾝ","cityKana":"ｺｳﾁｼ","streetKana":"ｺｳｻﾞｷ","prefecture":"高知県","city":"高知市","street":"幸崎"},{"zipCode":"7808040","prefectureKana":"ｺｳﾁｹﾝ","cityKana":"ｺｳﾁｼ","streetKana":"ｺｳﾀﾞ","prefecture":"高知県","city":"高知市","street":"神田"},{"zipCode":"7808035","prefectureKana":"ｺｳﾁｹﾝ","cityKana":"ｺｳﾁｼ","streetKana":"ｺﾞｳﾉｾﾁｮｳ","prefecture":"高知県","city":"高知市","street":"河ノ瀬町"},{"zipCode":"7800055","prefectureKana":"ｺｳﾁｹﾝ","cityKana":"ｺｳﾁｼ","streetKana":"ｺｳﾖｳﾁｮｳ","prefecture":"高知県","city":"高知市","street":"江陽町"},{"zipCode":"7800043","prefectureKana":"ｺｳﾁｹﾝ","cityKana":"ｺｳﾁｼ","streetKana":"ｺﾄﾌﾞｷﾁｮｳ","prefecture":"高知県","city":"高知市","street":"寿町"},{"zipCode":"7800045","prefectureKana":"ｺｳﾁｹﾝ","cityKana":"ｺｳﾁｼ","streetKana":"ｻｲﾜｲﾁｮｳ","prefecture":"高知県","city":"高知市","street":"幸町"},{"zipCode":"7800823","prefectureKana":"ｺｳﾁｹﾝ","cityKana":"ｺｳﾁｼ","streetKana":"ｻｴﾝﾊﾞﾁｮｳ","prefecture":"高知県","city":"高知市","street":"菜園場町"},{"zipCode":"7800834","prefectureKana":"ｺｳﾁｹﾝ","cityKana":"ｺｳﾁｼ","streetKana":"ｻｶｲﾏﾁ","prefecture":"高知県","city":"高知市","street":"堺町"},{"zipCode":"7800061","prefectureKana":"ｺｳﾁｹﾝ","cityKana":"ｺｳﾁｼ","streetKana":"ｻｶｴﾀﾞﾁｮｳ","prefecture":"高知県","city":"高知市","street":"栄田町"},{"zipCode":"7800047","prefectureKana":"ｺｳﾁｹﾝ","cityKana":"ｺｳﾁｼ","streetKana":"ｻｶﾞﾐﾁｮｳ","prefecture":"高知県","city":"高知市","street":"相模町"},{"zipCode":"7800821","prefectureKana":"ｺｳﾁｹﾝ","cityKana":"ｺｳﾁｼ","streetKana":"ｻｸﾗｲﾁｮｳ","prefecture":"高知県","city":"高知市","street":"桜井町"},{"zipCode":"7800929","prefectureKana":"ｺｳﾁｹﾝ","cityKana":"ｺｳﾁｼ","streetKana":"ｻｸﾗﾊﾞﾊﾞ","prefecture":"高知県","city":"高知市","street":"桜馬場"},{"zipCode":"7800954","prefectureKana":"ｺｳﾁｹﾝ","cityKana":"ｺｳﾁｼ","streetKana":"ｻｻｷﾁｮｳ","prefecture":"高知県","city":"高知市","street":"佐々木町"},{"zipCode":"7800923","prefectureKana":"ｺｳﾁｹﾝ","cityKana":"ｺｳﾁｼ","streetKana":"ｻﾝﾉﾏﾙ","prefecture":"高知県","city":"高知市","street":"三ノ丸"},{"zipCode":"7800065","prefectureKana":"ｺｳﾁｹﾝ","cityKana":"ｺｳﾁｼ","streetKana":"ｼｵﾀﾁｮｳ","prefecture":"高知県","city":"高知市","street":"塩田町"},{"zipCode":"7808014","prefectureKana":"ｺｳﾁｹﾝ","cityKana":"ｺｳﾁｼ","streetKana":"ｼｵﾔｻﾞｷﾏﾁ","prefecture":"高知県","city":"高知市","street":"塩屋崎町"},{"zipCode":"7800002","prefectureKana":"ｺｳﾁｹﾝ","cityKana":"ｺｳﾁｼ","streetKana":"ｼｹﾞｸﾗ","prefecture":"高知県","city":"高知市","street":"重倉"},{"zipCode":"7800975","prefectureKana":"ｺｳﾁｹﾝ","cityKana":"ｺｳﾁｼ","streetKana":"ｼﾊﾞﾏｷ","prefecture":"高知県","city":"高知市","street":"柴巻"},{"zipCode":"7800934","prefectureKana":"ｺｳﾁｹﾝ","cityKana":"ｺｳﾁｼ","streetKana":"ｼﾓｼﾞﾏﾁｮｳ","prefecture":"高知県","city":"高知市","street":"下島町"},{"zipCode":"7800916","prefectureKana":"ｺｳﾁｹﾝ","cityKana":"ｺｳﾁｼ","streetKana":"ｼﾞｮｳﾎｸﾁｮｳ","prefecture":"高知県","city":"高知市","street":"城北町"},{"zipCode":"7808037","prefectureKana":"ｺｳﾁｹﾝ","cityKana":"ｺｳﾁｼ","streetKana":"ｼﾞｮｳﾔﾏﾁｮｳ","prefecture":"高知県","city":"高知市","street":"城山町"},{"zipCode":"7800996","prefectureKana":"ｺｳﾁｹﾝ","cityKana":"ｺｳﾁｼ","streetKana":"ｼﾞｮｳﾘ","prefecture":"高知県","city":"高知市","street":"上里"},{"zipCode":"7800063","prefectureKana":"ｺｳﾁｹﾝ","cityKana":"ｺｳﾁｼ","streetKana":"ｼｮｳﾜﾏﾁ","prefecture":"高知県","city":"高知市","street":"昭和町"},{"zipCode":"7800824","prefectureKana":"ｺｳﾁｹﾝ","cityKana":"ｺｳﾁｼ","streetKana":"ｼﾛﾐﾁｮｳ","prefecture":"高知県","city":"高知市","street":"城見町"},{"zipCode":"7800062","prefectureKana":"ｺｳﾁｹﾝ","cityKana":"ｺｳﾁｼ","streetKana":"ｼﾝﾎﾝﾏﾁ","prefecture":"高知県","city":"高知市","street":"新本町"},{"zipCode":"7800911","prefectureKana":"ｺｳﾁｹﾝ","cityKana":"ｺｳﾁｼ","streetKana":"ｼﾝﾔｼｷ","prefecture":"高知県","city":"高知市","street":"新屋敷"},{"zipCode":"7800944","prefectureKana":"ｺｳﾁｹﾝ","cityKana":"ｺｳﾁｼ","streetKana":"ｽｲｹﾞﾝﾁｮｳ","prefecture":"高知県","city":"高知市","street":"水源町"},{"zipCode":"7800903","prefectureKana":"ｺｳﾁｹﾝ","cityKana":"ｺｳﾁｼ","streetKana":"ｽｲﾄﾞｳﾁｮｳ","prefecture":"高知県","city":"高知市","street":"水通町"},{"zipCode":"7800072","prefectureKana":"ｺｳﾁｹﾝ","cityKana":"ｺｳﾁｼ","streetKana":"ｽｷﾞｲﾙ","prefecture":"高知県","city":"高知市","street":"杉井流"},{"zipCode":"7800991","prefectureKana":"ｺｳﾁｹﾝ","cityKana":"ｺｳﾁｼ","streetKana":"ｿｳｱﾝｼﾞ","prefecture":"高知県","city":"高知市","street":"宗安寺"},{"zipCode":"7800926","prefectureKana":"ｺｳﾁｹﾝ","cityKana":"ｺｳﾁｼ","streetKana":"ﾀﾞｲｾﾞﾝﾁｮｳ","prefecture":"高知県","city":"高知市","street":"大膳町"},{"zipCode":"7800862","prefectureKana":"ｺｳﾁｹﾝ","cityKana":"ｺｳﾁｼ","streetKana":"ﾀｶｼﾞｮｳﾏﾁ","prefecture":"高知県","city":"高知市","street":"鷹匠町"},{"zipCode":"7800071","prefectureKana":"ｺｳﾁｹﾝ","cityKana":"ｺｳﾁｼ","streetKana":"ﾀｶｿﾈ","prefecture":"高知県","city":"高知市","street":"高そね"},{"zipCode":"7808027","prefectureKana":"ｺｳﾁｹﾝ","cityKana":"ｺｳﾁｼ","streetKana":"ﾀｶﾐﾁｮｳ","prefecture":"高知県","city":"高知市","street":"高見町"},{"zipCode":"7800914","prefectureKana":"ｺｳﾁｹﾝ","cityKana":"ｺｳﾁｼ","streetKana":"ﾀｶﾗﾏﾁ","prefecture":"高知県","city":"高知市","street":"宝町"},{"zipCode":"7808018","prefectureKana":"ｺｳﾁｹﾝ","cityKana":"ｺｳﾁｼ","streetKana":"ﾀｹｼﾏﾁｮｳ","prefecture":"高知県","city":"高知市","street":"竹島町"},{"zipCode":"7800931","prefectureKana":"ｺｳﾁｹﾝ","cityKana":"ｺｳﾁｼ","streetKana":"ﾀﾏﾐｽﾞﾁｮｳ","prefecture":"高知県","city":"高知市","street":"玉水町"},{"zipCode":"7800952","prefectureKana":"ｺｳﾁｹﾝ","cityKana":"ｺｳﾁｼ","streetKana":"ﾂｶﾉﾊﾗ","prefecture":"高知県","city":"高知市","street":"塚ノ原"},{"zipCode":"7808012","prefectureKana":"ｺｳﾁｹﾝ","cityKana":"ｺｳﾁｼ","streetKana":"ﾃﾝｼﾞﾝﾁｮｳ","prefecture":"高知県","city":"高知市","street":"天神町"},{"zipCode":"7800864","prefectureKana":"ｺｳﾁｹﾝ","cityKana":"ｺｳﾁｼ","streetKana":"ﾄｳｼﾞﾝﾏﾁ","prefecture":"高知県","city":"高知市","street":"唐人町"},{"zipCode":"7800904","prefectureKana":"ｺｳﾁｹﾝ","cityKana":"ｺｳﾁｼ","streetKana":"ﾄｵﾘﾁｮｳ","prefecture":"高知県","city":"高知市","street":"通町"},{"zipCode":"7800949","prefectureKana":"ｺｳﾁｹﾝ","cityKana":"ｺｳﾁｼ","streetKana":"ﾄﾘｺﾞｴ","prefecture":"高知県","city":"高知市","street":"鳥越"},{"zipCode":"7800983","prefectureKana":"ｺｳﾁｹﾝ","cityKana":"ｺｳﾁｼ","streetKana":"ﾅｶｸﾏ","prefecture":"高知県","city":"高知市","street":"中久万"},{"zipCode":"7800021","prefectureKana":"ｺｳﾁｹﾝ","cityKana":"ｺｳﾁｼ","streetKana":"ﾅｶｼﾞﾝｾﾞﾝｼﾞ","prefecture":"高知県","city":"高知市","street":"中秦泉寺"},{"zipCode":"7800044","prefectureKana":"ｺｳﾁｹﾝ","cityKana":"ｺｳﾁｼ","streetKana":"ﾅｶｽｲﾄﾞｳ","prefecture":"高知県","city":"高知市","street":"中水道"},{"zipCode":"7800937","prefectureKana":"ｺｳﾁｹﾝ","cityKana":"ｺｳﾁｼ","streetKana":"ﾅｶｽｶﾁｮｳ","prefecture":"高知県","city":"高知市","street":"中須賀町"},{"zipCode":"7800817","prefectureKana":"ｺｳﾁｹﾝ","cityKana":"ｺｳﾁｼ","streetKana":"ﾅｶﾎｳｴｲﾁｮｳ","prefecture":"高知県","city":"高知市","street":"中宝永町"},{"zipCode":"7800972","prefectureKana":"ｺｳﾁｹﾝ","cityKana":"ｺｳﾁｼ","streetKana":"ﾅｶﾏﾏ","prefecture":"高知県","city":"高知市","street":"中万々"},{"zipCode":"7800953","prefectureKana":"ｺｳﾁｹﾝ","cityKana":"ｺｳﾁｼ","streetKana":"ﾅｶﾞｵﾔﾏﾁｮｳ","prefecture":"高知県","city":"高知市","street":"長尾山町"},{"zipCode":"7800003","prefectureKana":"ｺｳﾁｹﾝ","cityKana":"ｺｳﾁｼ","streetKana":"ﾅﾅﾂﾌﾞﾁ","prefecture":"高知県","city":"高知市","street":"七ツ淵"},{"zipCode":"7800992","prefectureKana":"ｺｳﾁｹﾝ","cityKana":"ｺｳﾁｼ","streetKana":"ﾅﾒｶﾞﾜ","prefecture":"高知県","city":"高知市","street":"行川"},{"zipCode":"7800932","prefectureKana":"ｺｳﾁｹﾝ","cityKana":"ｺｳﾁｼ","streetKana":"ﾅﾜﾃﾁｮｳ","prefecture":"高知県","city":"高知市","street":"縄手町"},{"zipCode":"7800984","prefectureKana":"ｺｳﾁｹﾝ","cityKana":"ｺｳﾁｼ","streetKana":"ﾆｼｸﾏ","prefecture":"高知県","city":"高知市","street":"西久万"},{"zipCode":"7800033","prefectureKana":"ｺｳﾁｹﾝ","cityKana":"ｺｳﾁｼ","streetKana":"ﾆｼｼﾞﾝｾﾞﾝｼﾞ","prefecture":"高知県","city":"高知市","street":"西秦泉寺"},{"zipCode":"7800951","prefectureKana":"ｺｳﾁｹﾝ","cityKana":"ｺｳﾁｼ","streetKana":"ﾆｼﾂｶﾉﾊﾗ","prefecture":"高知県","city":"高知市","street":"西塚ノ原"},{"zipCode":"7800925","prefectureKana":"ｺｳﾁｹﾝ","cityKana":"ｺｳﾁｼ","streetKana":"ﾆｼﾏﾁ","prefecture":"高知県","city":"高知市","street":"西町"},{"zipCode":"7800843","prefectureKana":"ｺｳﾁｹﾝ","cityKana":"ｺｳﾁｼ","streetKana":"ﾆｼﾞｭｳﾀﾞｲﾏﾁ","prefecture":"高知県","city":"高知市","street":"廿代町"},{"zipCode":"7800825","prefectureKana":"ｺｳﾁｹﾝ","cityKana":"ｺｳﾁｼ","streetKana":"ﾉｳﾆﾝﾏﾁ","prefecture":"高知県","city":"高知市","street":"農人町"},{"zipCode":"7800026","prefectureKana":"ｺｳﾁｹﾝ","cityKana":"ｺｳﾁｼ","streetKana":"ﾊﾀﾞﾐﾅﾐﾏﾁ","prefecture":"高知県","city":"高知市","street":"秦南町"},{"zipCode":"7800912","prefectureKana":"ｺｳﾁｹﾝ","cityKana":"ｺｳﾁｼ","streetKana":"ﾊｯﾀﾝﾁｮｳ","prefecture":"高知県","city":"高知市","street":"八反町"},{"zipCode":"7808021","prefectureKana":"ｺｳﾁｹﾝ","cityKana":"ｺｳﾁｼ","streetKana":"ﾊﾗﾐﾋｶﾞｼﾏﾁ","prefecture":"高知県","city":"高知市","street":"孕東町"},{"zipCode":"7808022","prefectureKana":"ｺｳﾁｹﾝ","cityKana":"ｺｳﾁｼ","streetKana":"ﾊﾗﾐﾆｼﾏﾁ","prefecture":"高知県","city":"高知市","street":"孕西町"},{"zipCode":"7808087","prefectureKana":"ｺｳﾁｹﾝ","cityKana":"ｺｳﾁｼ","streetKana":"ﾊﾘｷﾞｷﾀ","prefecture":"高知県","city":"高知市","street":"針木北"},{"zipCode":"7808090","prefectureKana":"ｺｳﾁｹﾝ","cityKana":"ｺｳﾁｼ","streetKana":"ﾊﾘｷﾞﾆｼ","prefecture":"高知県","city":"高知市","street":"針木西"},{"zipCode":"7808086","prefectureKana":"ｺｳﾁｹﾝ","cityKana":"ｺｳﾁｼ","streetKana":"ﾊﾘｷﾞﾋｶﾞｼﾏﾁ","prefecture":"高知県","city":"高知市","street":"針木東町"},{"zipCode":"7808088","prefectureKana":"ｺｳﾁｹﾝ","cityKana":"ｺｳﾁｼ","streetKana":"ﾊﾘｷﾞﾎﾝﾏﾁ","prefecture":"高知県","city":"高知市","street":"針木本町"},{"zipCode":"7808089","prefectureKana":"ｺｳﾁｹﾝ","cityKana":"ｺｳﾁｼ","streetKana":"ﾊﾘｷﾞﾐﾅﾐ","prefecture":"高知県","city":"高知市","street":"針木南"},{"zipCode":"7800993","prefectureKana":"ｺｳﾁｹﾝ","cityKana":"ｺｳﾁｼ","streetKana":"ﾊﾘﾊﾗ","prefecture":"高知県","city":"高知市","street":"針原"},{"zipCode":"7800822","prefectureKana":"ｺｳﾁｹﾝ","cityKana":"ｺｳﾁｼ","streetKana":"ﾊﾘﾏﾔﾁｮｳ","prefecture":"高知県","city":"高知市","street":"はりまや町"},{"zipCode":"7808039","prefectureKana":"ｺｳﾁｹﾝ","cityKana":"ｺｳﾁｼ","streetKana":"ﾋｶﾞｼｲｼﾀﾃﾁｮｳ","prefecture":"高知県","city":"高知市","street":"東石立町"},{"zipCode":"7800982","prefectureKana":"ｺｳﾁｹﾝ","cityKana":"ｺｳﾁｼ","streetKana":"ﾋｶﾞｼｸﾏ","prefecture":"高知県","city":"高知市","street":"東久万"},{"zipCode":"7808036","prefectureKana":"ｺｳﾁｹﾝ","cityKana":"ｺｳﾁｼ","streetKana":"ﾋｶﾞｼｼﾞｮｳﾔﾏﾁｮｳ","prefecture":"高知県","city":"高知市","street":"東城山町"},{"zipCode":"7800023","prefectureKana":"ｺｳﾁｹﾝ","cityKana":"ｺｳﾁｼ","streetKana":"ﾋｶﾞｼｼﾞﾝｾﾞﾝｼﾞ","prefecture":"高知県","city":"高知市","street":"東秦泉寺"},{"zipCode":"7800962","prefectureKana":"ｺｳﾁｹﾝ","cityKana":"ｺｳﾁｼ","streetKana":"ﾋｼﾞ","prefecture":"高知県","city":"高知市","street":"尾立"},{"zipCode":"7800066","prefectureKana":"ｺｳﾁｹﾝ","cityKana":"ｺｳﾁｼ","streetKana":"ﾋｼﾞﾏﾁｮｳ","prefecture":"高知県","city":"高知市","street":"比島町"},{"zipCode":"7808013","prefectureKana":"ｺｳﾁｹﾝ","cityKana":"ｺｳﾁｼ","streetKana":"ﾋﾂｻﾞﾝﾁｮｳ","prefecture":"高知県","city":"高知市","street":"筆山町"},{"zipCode":"7800981","prefectureKana":"ｺｳﾁｹﾝ","cityKana":"ｺｳﾁｼ","streetKana":"ﾋﾄﾂﾊﾞｼﾁｮｳ","prefecture":"高知県","city":"高知市","street":"一ツ橋町"},{"zipCode":"7808015","prefectureKana":"ｺｳﾁｹﾝ","cityKana":"ｺｳﾁｼ","streetKana":"ﾋｬｯｺｸﾁｮｳ","prefecture":"高知県","city":"高知市","street":"百石町"},{"zipCode":"7808024","prefectureKana":"ｺｳﾁｹﾝ","cityKana":"ｺｳﾁｼ","streetKana":"ﾌｶﾀﾞﾆﾁｮｳ","prefecture":"高知県","city":"高知市","street":"深谷町"},{"zipCode":"7800966","prefectureKana":"ｺｳﾁｹﾝ","cityKana":"ｺｳﾁｼ","streetKana":"ﾌｸｲｵｳｷﾞﾏﾁ","prefecture":"高知県","city":"高知市","street":"福井扇町"},{"zipCode":"7800965","prefectureKana":"ｺｳﾁｹﾝ","cityKana":"ｺｳﾁｼ","streetKana":"ﾌｸｲﾁｮｳ","prefecture":"高知県","city":"高知市","street":"福井町"},{"zipCode":"7800967","prefectureKana":"ｺｳﾁｹﾝ","cityKana":"ｺｳﾁｼ","streetKana":"ﾌｸｲﾋｶﾞｼﾏﾁ","prefecture":"高知県","city":"高知市","street":"福井東町"},{"zipCode":"7800922","prefectureKana":"ｺｳﾁｹﾝ","cityKana":"ｺｳﾁｼ","streetKana":"ﾍｲﾜﾁｮｳ","prefecture":"高知県","city":"高知市","street":"平和町"},{"zipCode":"7800818","prefectureKana":"ｺｳﾁｹﾝ","cityKana":"ｺｳﾁｼ","streetKana":"ﾎｳｴｲﾁｮｳ","prefecture":"高知県","city":"高知市","street":"宝永町"},{"zipCode":"7800042","prefectureKana":"ｺｳﾁｹﾝ","cityKana":"ｺｳﾁｼ","streetKana":"ﾎﾗｶﾞｼﾞﾏﾁｮｳ","prefecture":"高知県","city":"高知市","street":"洞ケ島町"},{"zipCode":"7800945","prefectureKana":"ｺｳﾁｹﾝ","cityKana":"ｺｳﾁｼ","streetKana":"ﾎﾝｸﾞｳﾁｮｳ","prefecture":"高知県","city":"高知市","street":"本宮町"},{"zipCode":"7800902","prefectureKana":"ｺｳﾁｹﾝ","cityKana":"ｺｳﾁｼ","streetKana":"ﾎﾝﾁｮｳｽｼﾞ","prefecture":"高知県","city":"高知市","street":"本丁筋"},{"zipCode":"7800870","prefectureKana":"ｺｳﾁｹﾝ","cityKana":"ｺｳﾁｼ","streetKana":"ﾎﾝﾏﾁ","prefecture":"高知県","city":"高知市","street":"本町"},{"zipCode":"7800024","prefectureKana":"ｺｳﾁｹﾝ","cityKana":"ｺｳﾁｼ","streetKana":"ﾏｴｻﾞﾄ","prefecture":"高知県","city":"高知市","street":"前里"},{"zipCode":"7808084","prefectureKana":"ｺｳﾁｹﾝ","cityKana":"ｺｳﾁｼ","streetKana":"ﾏｷﾔﾏﾁｮｳ","prefecture":"高知県","city":"高知市","street":"槇山町"},{"zipCode":"7800861","prefectureKana":"ｺｳﾁｹﾝ","cityKana":"ｺｳﾁｼ","streetKana":"ﾏｽｶﾞﾀ","prefecture":"高知県","city":"高知市","street":"升形"},{"zipCode":"7800973","prefectureKana":"ｺｳﾁｹﾝ","cityKana":"ｺｳﾁｼ","streetKana":"ﾏﾏ","prefecture":"高知県","city":"高知市","street":"万々"},{"zipCode":"7800850","prefectureKana":"ｺｳﾁｹﾝ","cityKana":"ｺｳﾁｼ","streetKana":"ﾏﾙﾉｳﾁ","prefecture":"高知県","city":"高知市","street":"丸ノ内"},{"zipCode":"7800034","prefectureKana":"ｺｳﾁｹﾝ","cityKana":"ｺｳﾁｼ","streetKana":"ﾐｿﾉﾁｮｳ","prefecture":"高知県","city":"高知市","street":"三園町"},{"zipCode":"7800004","prefectureKana":"ｺｳﾁｹﾝ","cityKana":"ｺｳﾁｼ","streetKana":"ﾐﾀﾆ","prefecture":"高知県","city":"高知市","street":"三谷"},{"zipCode":"7800976","prefectureKana":"ｺｳﾁｹﾝ","cityKana":"ｺｳﾁｼ","streetKana":"ﾐﾂﾞｷ","prefecture":"高知県","city":"高知市","street":"みづき"},{"zipCode":"7800977","prefectureKana":"ｺｳﾁｹﾝ","cityKana":"ｺｳﾁｼ","streetKana":"ﾐﾂﾞｷﾔﾏ","prefecture":"高知県","city":"高知市","street":"みづき山"},{"zipCode":"7800985","prefectureKana":"ｺｳﾁｹﾝ","cityKana":"ｺｳﾁｼ","streetKana":"ﾐﾅﾐｸﾏ","prefecture":"高知県","city":"高知市","street":"南久万"},{"zipCode":"7808034","prefectureKana":"ｺｳﾁｹﾝ","cityKana":"ｺｳﾁｼ","streetKana":"ﾐﾅﾐｺﾞｳﾉｾﾁｮｳ","prefecture":"高知県","city":"高知市","street":"南河ノ瀬町"},{"zipCode":"7808017","prefectureKana":"ｺｳﾁｹﾝ","cityKana":"ｺｳﾁｼ","streetKana":"ﾐﾅﾐﾀｹｼﾏﾁｮｳ","prefecture":"高知県","city":"高知市","street":"南竹島町"},{"zipCode":"7808025","prefectureKana":"ｺｳﾁｹﾝ","cityKana":"ｺｳﾁｼ","streetKana":"ﾐﾅﾐﾅｶﾔﾏ","prefecture":"高知県","city":"高知市","street":"南中山"},{"zipCode":"7800833","prefectureKana":"ｺｳﾁｹﾝ","cityKana":"ｺｳﾁｼ","streetKana":"ﾐﾅﾐﾊﾘﾏﾔﾁｮｳ","prefecture":"高知県","city":"高知市","street":"南はりまや町"},{"zipCode":"7800816","prefectureKana":"ｺｳﾁｹﾝ","cityKana":"ｺｳﾁｼ","streetKana":"ﾐﾅﾐﾎｳｴｲﾁｮｳ","prefecture":"高知県","city":"高知市","street":"南宝永町"},{"zipCode":"7800971","prefectureKana":"ｺｳﾁｹﾝ","cityKana":"ｺｳﾁｼ","streetKana":"ﾐﾅﾐﾏﾏ","prefecture":"高知県","city":"高知市","street":"南万々"},{"zipCode":"7800942","prefectureKana":"ｺｳﾁｹﾝ","cityKana":"ｺｳﾁｼ","streetKana":"ﾐﾅﾐﾓﾄﾏﾁ","prefecture":"高知県","city":"高知市","street":"南元町"},{"zipCode":"7800924","prefectureKana":"ｺｳﾁｹﾝ","cityKana":"ｺｳﾁｼ","streetKana":"ﾐﾔﾏｴﾁｮｳ","prefecture":"高知県","city":"高知市","street":"宮前町"},{"zipCode":"7800941","prefectureKana":"ｺｳﾁｹﾝ","cityKana":"ｺｳﾁｼ","streetKana":"ﾓﾄﾏﾁ","prefecture":"高知県","city":"高知市","street":"元町"},{"zipCode":"7800957","prefectureKana":"ｺｳﾁｹﾝ","cityKana":"ｺｳﾁｼ","streetKana":"ﾔﾏﾃﾁｮｳ","prefecture":"高知県","city":"高知市","street":"山手町"},{"zipCode":"7800927","prefectureKana":"ｺｳﾁｹﾝ","cityKana":"ｺｳﾁｼ","streetKana":"ﾔﾏﾉﾊﾅﾁｮｳ","prefecture":"高知県","city":"高知市","street":"山ノ端町"},{"zipCode":"7800964","prefectureKana":"ｺｳﾁｹﾝ","cityKana":"ｺｳﾁｼ","streetKana":"ﾖｺｳﾁ","prefecture":"高知県","city":"高知市","street":"横内"},{"zipCode":"7800048","prefectureKana":"ｺｳﾁｹﾝ","cityKana":"ｺｳﾁｼ","streetKana":"ﾖｼﾀﾞﾁｮｳ","prefecture":"高知県","city":"高知市","street":"吉田町"},{"zipCode":"7800863","prefectureKana":"ｺｳﾁｹﾝ","cityKana":"ｺｳﾁｼ","streetKana":"ﾖﾘｷﾏﾁ","prefecture":"高知県","city":"高知市","street":"与力町"},{"zipCode":"7800995","prefectureKana":"ｺｳﾁｹﾝ","cityKana":"ｺｳﾁｼ","streetKana":"ﾘｮｳｹ","prefecture":"高知県","city":"高知市","street":"領家"},{"zipCode":"7800961","prefectureKana":"ｺｳﾁｹﾝ","cityKana":"ｺｳﾁｼ","streetKana":"ﾚﾝﾀﾞｲ","prefecture":"高知県","city":"高知市","street":"蓮台"},{"zipCode":"7808023","prefectureKana":"ｺｳﾁｹﾝ","cityKana":"ｺｳﾁｼ","streetKana":"ﾛｸｾﾝｼﾞﾁｮｳ","prefecture":"高知県","city":"高知市","street":"六泉寺町"},{"zipCode":"7808081","prefectureKana":"ｺｳﾁｹﾝ","cityKana":"ｺｳﾁｼ","streetKana":"ﾜｶｸｻﾁｮｳ","prefecture":"高知県","city":"高知市","street":"若草町"},{"zipCode":"7808082","prefectureKana":"ｺｳﾁｹﾝ","cityKana":"ｺｳﾁｼ","streetKana":"ﾜｶｸｻﾐﾅﾐﾏﾁ","prefecture":"高知県","city":"高知市","street":"若草南町"}]