[{"zipCode":"7830000","prefectureKana":"ｺｳﾁｹﾝ","cityKana":"ﾅﾝｺｸｼ","streetKana":"ｲｶﾆｹｲｻｲｶﾞﾅｲﾊﾞｱｲ","prefecture":"高知県","city":"南国市","street":"以下に掲載がない場合"},{"zipCode":"7830074","prefectureKana":"ｺｳﾁｹﾝ","cityKana":"ﾅﾝｺｸｼ","streetKana":"ｱｹﾞｸﾗ","prefecture":"高知県","city":"南国市","street":"上倉"},{"zipCode":"7830008","prefectureKana":"ｺｳﾁｹﾝ","cityKana":"ﾅﾝｺｸｼ","streetKana":"ｲﾀﾁﾉ","prefecture":"高知県","city":"南国市","street":"伊達野"},{"zipCode":"7830084","prefectureKana":"ｺｳﾁｹﾝ","cityKana":"ﾅﾝｺｸｼ","streetKana":"ｲﾅﾌﾞ","prefecture":"高知県","city":"南国市","street":"稲生"},{"zipCode":"7830063","prefectureKana":"ｺｳﾁｹﾝ","cityKana":"ﾅﾝｺｸｼ","streetKana":"ｳｴﾀ","prefecture":"高知県","city":"南国市","street":"植田"},{"zipCode":"7830061","prefectureKana":"ｺｳﾁｹﾝ","cityKana":"ﾅﾝｺｸｼ","streetKana":"ｳｴﾉ","prefecture":"高知県","city":"南国市","street":"植野"},{"zipCode":"7830002","prefectureKana":"ｺｳﾁｹﾝ","cityKana":"ﾅﾝｺｸｼ","streetKana":"ｴｷﾏｴﾁｮｳ","prefecture":"高知県","city":"南国市","street":"駅前町"},{"zipCode":"7830077","prefectureKana":"ｺｳﾁｹﾝ","cityKana":"ﾅﾝｺｸｼ","streetKana":"ｵｵｶﾞｲﾉ","prefecture":"高知県","city":"南国市","street":"大改野"},{"zipCode":"7830004","prefectureKana":"ｺｳﾁｹﾝ","cityKana":"ﾅﾝｺｸｼ","streetKana":"ｵｵｿﾈｺｳ","prefecture":"高知県","city":"南国市","street":"大そね甲"},{"zipCode":"7830005","prefectureKana":"ｺｳﾁｹﾝ","cityKana":"ﾅﾝｺｸｼ","streetKana":"ｵｵｿﾈｵﾂ","prefecture":"高知県","city":"南国市","street":"大そね乙"},{"zipCode":"7830046","prefectureKana":"ｺｳﾁｹﾝ","cityKana":"ﾅﾝｺｸｼ","streetKana":"ｵｺｳﾁｮｳｴﾑﾗ","prefecture":"高知県","city":"南国市","street":"岡豊町江村"},{"zipCode":"7830051","prefectureKana":"ｺｳﾁｹﾝ","cityKana":"ﾅﾝｺｸｼ","streetKana":"ｵｺｳﾁｮｳｶｻﾉｶﾜ","prefecture":"高知県","city":"南国市","street":"岡豊町笠ノ川"},{"zipCode":"7830042","prefectureKana":"ｺｳﾁｹﾝ","cityKana":"ﾅﾝｺｸｼ","streetKana":"ｵｺｳﾁｮｳｶﾓﾊﾗ","prefecture":"高知県","city":"南国市","street":"岡豊町蒲原"},{"zipCode":"7830048","prefectureKana":"ｺｳﾁｹﾝ","cityKana":"ﾅﾝｺｸｼ","streetKana":"ｵｺｳﾁｮｳｺｺﾞﾒ","prefecture":"高知県","city":"南国市","street":"岡豊町小篭"},{"zipCode":"7830043","prefectureKana":"ｺｳﾁｹﾝ","cityKana":"ﾅﾝｺｸｼ","streetKana":"ｵｺｳﾁｮｳｺﾊｽ","prefecture":"高知県","city":"南国市","street":"岡豊町小蓮"},{"zipCode":"7830047","prefectureKana":"ｺｳﾁｹﾝ","cityKana":"ﾅﾝｺｸｼ","streetKana":"ｵｺｳﾁｮｳｼﾞｮｳﾂｳｼﾞｼﾏ","prefecture":"高知県","city":"南国市","street":"岡豊町常通寺島"},{"zipCode":"7830041","prefectureKana":"ｺｳﾁｹﾝ","cityKana":"ﾅﾝｺｸｼ","streetKana":"ｵｺｳﾁｮｳｼﾞｮｳﾘﾝｼﾞ","prefecture":"高知県","city":"南国市","street":"岡豊町定林寺"},{"zipCode":"7830040","prefectureKana":"ｺｳﾁｹﾝ","cityKana":"ﾅﾝｺｸｼ","streetKana":"ｵｺｳﾁｮｳﾀｷﾓﾄ","prefecture":"高知県","city":"南国市","street":"岡豊町滝本"},{"zipCode":"7830049","prefectureKana":"ｺｳﾁｹﾝ","cityKana":"ﾅﾝｺｸｼ","streetKana":"ｵｺｳﾁｮｳﾅｶｼﾞﾏ","prefecture":"高知県","city":"南国市","street":"岡豊町中島"},{"zipCode":"7830044","prefectureKana":"ｺｳﾁｹﾝ","cityKana":"ﾅﾝｺｸｼ","streetKana":"ｵｺｳﾁｮｳﾔﾊﾀ","prefecture":"高知県","city":"南国市","street":"岡豊町八幡"},{"zipCode":"7830045","prefectureKana":"ｺｳﾁｹﾝ","cityKana":"ﾅﾝｺｸｼ","streetKana":"ｵｺｳﾁｮｳﾖｼﾀﾞ","prefecture":"高知県","city":"南国市","street":"岡豊町吉田"},{"zipCode":"7830081","prefectureKana":"ｺｳﾁｹﾝ","cityKana":"ﾅﾝｺｸｼ","streetKana":"ｶﾀﾔﾏ","prefecture":"高知県","city":"南国市","street":"片山"},{"zipCode":"7830035","prefectureKana":"ｺｳﾁｹﾝ","cityKana":"ﾅﾝｺｸｼ","streetKana":"ｶﾅｼﾞ","prefecture":"高知県","city":"南国市","street":"金地"},{"zipCode":"7830033","prefectureKana":"ｺｳﾁｹﾝ","cityKana":"ﾅﾝｺｸｼ","streetKana":"ｶﾉｽｴ","prefecture":"高知県","city":"南国市","street":"包末"},{"zipCode":"7830026","prefectureKana":"ｺｳﾁｹﾝ","cityKana":"ﾅﾝｺｸｼ","streetKana":"ｶﾐｽｴﾏﾂ","prefecture":"高知県","city":"南国市","street":"上末松"},{"zipCode":"7830032","prefectureKana":"ｺｳﾁｹﾝ","cityKana":"ﾅﾝｺｸｼ","streetKana":"ｶﾐﾉﾀﾞ","prefecture":"高知県","city":"南国市","street":"上野田"},{"zipCode":"7830071","prefectureKana":"ｺｳﾁｹﾝ","cityKana":"ﾅﾝｺｸｼ","streetKana":"ｶﾒｲﾜ","prefecture":"高知県","city":"南国市","street":"亀岩"},{"zipCode":"7830062","prefectureKana":"ｺｳﾁｹﾝ","cityKana":"ﾅﾝｺｸｼ","streetKana":"ｸﾚﾀﾞ","prefecture":"高知県","city":"南国市","street":"久礼田"},{"zipCode":"7830076","prefectureKana":"ｺｳﾁｹﾝ","cityKana":"ﾅﾝｺｸｼ","streetKana":"ｸﾛﾀｷ","prefecture":"高知県","city":"南国市","street":"黒滝"},{"zipCode":"7830075","prefectureKana":"ｺｳﾁｹﾝ","cityKana":"ﾅﾝｺｸｼ","streetKana":"ｸﾜﾉｶﾜ","prefecture":"高知県","city":"南国市","street":"桑ノ川"},{"zipCode":"7830053","prefectureKana":"ｺｳﾁｹﾝ","cityKana":"ﾅﾝｺｸｼ","streetKana":"ｺｸﾌﾞ","prefecture":"高知県","city":"南国市","street":"国分"},{"zipCode":"7830022","prefectureKana":"ｺｳﾁｹﾝ","cityKana":"ﾅﾝｺｸｼ","streetKana":"ｺｺﾞﾒ","prefecture":"高知県","city":"南国市","street":"小籠"},{"zipCode":"7830011","prefectureKana":"ｺｳﾁｹﾝ","cityKana":"ﾅﾝｺｸｼ","streetKana":"ｺﾞﾒﾝﾏﾁ","prefecture":"高知県","city":"南国市","street":"後免町"},{"zipCode":"7830068","prefectureKana":"ｺｳﾁｹﾝ","cityKana":"ﾅﾝｺｸｼ","streetKana":"ｻｲﾀﾞﾆ","prefecture":"高知県","city":"南国市","street":"才谷"},{"zipCode":"7830013","prefectureKana":"ｺｳﾁｹﾝ","cityKana":"ﾅﾝｺｸｼ","streetKana":"ｻｲﾜｲﾁｮｳ","prefecture":"高知県","city":"南国市","street":"幸町"},{"zipCode":"7830082","prefectureKana":"ｺｳﾁｹﾝ","cityKana":"ﾅﾝｺｸｼ","streetKana":"ｻﾄｶｲﾀﾞ","prefecture":"高知県","city":"南国市","street":"里改田"},{"zipCode":"7830027","prefectureKana":"ｺｳﾁｹﾝ","cityKana":"ﾅﾝｺｸｼ","streetKana":"ｻﾝﾊﾞｸ","prefecture":"高知県","city":"南国市","street":"三畠"},{"zipCode":"7830064","prefectureKana":"ｺｳﾁｹﾝ","cityKana":"ﾅﾝｺｸｼ","streetKana":"ｼｼｻﾞｷ","prefecture":"高知県","city":"南国市","street":"宍崎"},{"zipCode":"7830006","prefectureKana":"ｺｳﾁｹﾝ","cityKana":"ﾅﾝｺｸｼ","streetKana":"ｼﾉﾊﾗ","prefecture":"高知県","city":"南国市","street":"篠原"},{"zipCode":"7830095","prefectureKana":"ｺｳﾁｹﾝ","cityKana":"ﾅﾝｺｸｼ","streetKana":"ｼﾓｼﾞﾏ","prefecture":"高知県","city":"南国市","street":"下島"},{"zipCode":"7830025","prefectureKana":"ｺｳﾁｹﾝ","cityKana":"ﾅﾝｺｸｼ","streetKana":"ｼﾓｽｴﾏﾂ","prefecture":"高知県","city":"南国市","street":"下末松"},{"zipCode":"7830031","prefectureKana":"ｺｳﾁｹﾝ","cityKana":"ﾅﾝｺｸｼ","streetKana":"ｼﾓﾉﾀﾞ","prefecture":"高知県","city":"南国市","street":"下野田"},{"zipCode":"7830058","prefectureKana":"ｺｳﾁｹﾝ","cityKana":"ﾅﾝｺｸｼ","streetKana":"ｼﾗｷﾀﾞﾆ","prefecture":"高知県","city":"南国市","street":"白木谷"},{"zipCode":"7830028","prefectureKana":"ｺｳﾁｹﾝ","cityKana":"ﾅﾝｺｸｼ","streetKana":"ｼﾞﾝﾔﾏ","prefecture":"高知県","city":"南国市","street":"陣山"},{"zipCode":"7830052","prefectureKana":"ｺｳﾁｹﾝ","cityKana":"ﾅﾝｺｸｼ","streetKana":"ｿﾔﾏ","prefecture":"高知県","city":"南国市","street":"左右山"},{"zipCode":"7830037","prefectureKana":"ｺｳﾁｹﾝ","cityKana":"ﾅﾝｺｸｼ","streetKana":"ｿﾞｳﾌｸｼﾞｼﾞﾏ","prefecture":"高知県","city":"南国市","street":"蔵福寺島"},{"zipCode":"7830091","prefectureKana":"ｺｳﾁｹﾝ","cityKana":"ﾅﾝｺｸｼ","streetKana":"ﾀﾃﾀﾞ","prefecture":"高知県","city":"南国市","street":"立田"},{"zipCode":"7830092","prefectureKana":"ｺｳﾁｹﾝ","cityKana":"ﾅﾝｺｸｼ","streetKana":"ﾀﾑﾗ","prefecture":"高知県","city":"南国市","street":"田村"},{"zipCode":"7830067","prefectureKana":"ｺｳﾁｹﾝ","cityKana":"ﾅﾝｺｸｼ","streetKana":"ﾃﾝｷﾞｮｳｼﾞ","prefecture":"高知県","city":"南国市","street":"天行寺"},{"zipCode":"7830085","prefectureKana":"ｺｳﾁｹﾝ","cityKana":"ﾅﾝｺｸｼ","streetKana":"ﾄｵﾁ","prefecture":"高知県","city":"南国市","street":"十市"},{"zipCode":"7830065","prefectureKana":"ｺｳﾁｹﾝ","cityKana":"ﾅﾝｺｸｼ","streetKana":"ﾄﾔﾏ","prefecture":"高知県","city":"南国市","street":"外山"},{"zipCode":"7830073","prefectureKana":"ｺｳﾁｹﾝ","cityKana":"ﾅﾝｺｸｼ","streetKana":"ﾅｶﾀﾞﾆ","prefecture":"高知県","city":"南国市","street":"中谷"},{"zipCode":"7830078","prefectureKana":"ｺｳﾁｹﾝ","cityKana":"ﾅﾝｺｸｼ","streetKana":"ﾅｶﾉｶﾜ","prefecture":"高知県","city":"南国市","street":"中ノ川"},{"zipCode":"7830066","prefectureKana":"ｺｳﾁｹﾝ","cityKana":"ﾅﾝｺｸｼ","streetKana":"ﾅﾚｱｲ","prefecture":"高知県","city":"南国市","street":"成合"},{"zipCode":"7830072","prefectureKana":"ｺｳﾁｹﾝ","cityKana":"ﾅﾝｺｸｼ","streetKana":"ﾅﾛ","prefecture":"高知県","city":"南国市","street":"奈路"},{"zipCode":"7830003","prefectureKana":"ｺｳﾁｹﾝ","cityKana":"ﾅﾝｺｸｼ","streetKana":"ﾆｼﾉﾀﾞﾁｮｳ","prefecture":"高知県","city":"南国市","street":"西野田町"},{"zipCode":"7830029","prefectureKana":"ｺｳﾁｹﾝ","cityKana":"ﾅﾝｺｸｼ","streetKana":"ﾆｼﾔﾏ","prefecture":"高知県","city":"南国市","street":"西山"},{"zipCode":"7830097","prefectureKana":"ｺｳﾁｹﾝ","cityKana":"ﾅﾝｺｸｼ","streetKana":"ﾆｯｼｮｳｱｹﾎﾞﾉ","prefecture":"高知県","city":"南国市","street":"日章あけぼの"},{"zipCode":"7830021","prefectureKana":"ｺｳﾁｹﾝ","cityKana":"ﾅﾝｺｸｼ","streetKana":"ﾉﾅｶ","prefecture":"高知県","city":"南国市","street":"野中"},{"zipCode":"7830023","prefectureKana":"ｺｳﾁｹﾝ","cityKana":"ﾅﾝｺｸｼ","streetKana":"ﾊﾀｴﾀﾞ","prefecture":"高知県","city":"南国市","street":"廿枝"},{"zipCode":"7830083","prefectureKana":"ｺｳﾁｹﾝ","cityKana":"ﾅﾝｺｸｼ","streetKana":"ﾊﾏｶｲﾀﾞ","prefecture":"高知県","city":"南国市","street":"浜改田"},{"zipCode":"7830054","prefectureKana":"ｺｳﾁｹﾝ","cityKana":"ﾅﾝｺｸｼ","streetKana":"ﾋｴ","prefecture":"高知県","city":"南国市","street":"比江"},{"zipCode":"7830024","prefectureKana":"ｺｳﾁｹﾝ","cityKana":"ﾅﾝｺｸｼ","streetKana":"ﾋｶﾞｼｻﾞｷ","prefecture":"高知県","city":"南国市","street":"東崎"},{"zipCode":"7830012","prefectureKana":"ｺｳﾁｹﾝ","cityKana":"ﾅﾝｺｸｼ","streetKana":"ﾋｶﾞｼﾔﾏﾏﾁ","prefecture":"高知県","city":"南国市","street":"東山町"},{"zipCode":"7830096","prefectureKana":"ｺｳﾁｹﾝ","cityKana":"ﾅﾝｺｸｼ","streetKana":"ﾋｻｴﾀﾞ","prefecture":"高知県","city":"南国市","street":"久枝"},{"zipCode":"7830001","prefectureKana":"ｺｳﾁｹﾝ","cityKana":"ﾅﾝｺｸｼ","streetKana":"ﾋﾖｼﾁｮｳ","prefecture":"高知県","city":"南国市","street":"日吉町"},{"zipCode":"7830036","prefectureKana":"ｺｳﾁｹﾝ","cityKana":"ﾅﾝｺｸｼ","streetKana":"ﾌｸﾌﾞﾈ","prefecture":"高知県","city":"南国市","street":"福船"},{"zipCode":"7830055","prefectureKana":"ｺｳﾁｹﾝ","cityKana":"ﾅﾝｺｸｼ","streetKana":"ﾌﾀﾊﾞﾀﾞｲ","prefecture":"高知県","city":"南国市","street":"双葉台"},{"zipCode":"7830060","prefectureKana":"ｺｳﾁｹﾝ","cityKana":"ﾅﾝｺｸｼ","streetKana":"ﾎﾀﾙｶﾞｵｶ","prefecture":"高知県","city":"南国市","street":"蛍が丘"},{"zipCode":"7830034","prefectureKana":"ｺｳﾁｹﾝ","cityKana":"ﾅﾝｺｸｼ","streetKana":"ﾎﾘﾉｳﾁ","prefecture":"高知県","city":"南国市","street":"堀ノ内"},{"zipCode":"7830094","prefectureKana":"ｺｳﾁｹﾝ","cityKana":"ﾅﾝｺｸｼ","streetKana":"ﾏｴﾊﾏ","prefecture":"高知県","city":"南国市","street":"前浜"},{"zipCode":"7830086","prefectureKana":"ｺｳﾁｹﾝ","cityKana":"ﾅﾝｺｸｼ","streetKana":"ﾐﾄﾞﾘｶﾞｵｶ","prefecture":"高知県","city":"南国市","street":"緑ケ丘"},{"zipCode":"7830007","prefectureKana":"ｺｳﾁｹﾝ","cityKana":"ﾅﾝｺｸｼ","streetKana":"ﾐｮｳｹﾝ","prefecture":"高知県","city":"南国市","street":"明見"},{"zipCode":"7830087","prefectureKana":"ｺｳﾁｹﾝ","cityKana":"ﾅﾝｺｸｼ","streetKana":"ﾐﾜｺﾄﾋﾗ","prefecture":"高知県","city":"南国市","street":"三和琴平"},{"zipCode":"7830014","prefectureKana":"ｺｳﾁｹﾝ","cityKana":"ﾅﾝｺｸｼ","streetKana":"ﾓﾄﾏﾁ","prefecture":"高知県","city":"南国市","street":"元町"},{"zipCode":"7830093","prefectureKana":"ｺｳﾁｹﾝ","cityKana":"ﾅﾝｺｸｼ","streetKana":"ﾓﾉﾍﾞ","prefecture":"高知県","city":"南国市","street":"物部"},{"zipCode":"7830057","prefectureKana":"ｺｳﾁｹﾝ","cityKana":"ﾅﾝｺｸｼ","streetKana":"ﾔｷｮｳ","prefecture":"高知県","city":"南国市","street":"八京"},{"zipCode":"7830056","prefectureKana":"ｺｳﾁｹﾝ","cityKana":"ﾅﾝｺｸｼ","streetKana":"ﾘｮｳｾｷ","prefecture":"高知県","city":"南国市","street":"領石"}]