[{"zipCode":"7840000","prefectureKana":"ｺｳﾁｹﾝ","cityKana":"ｱｷｼ","streetKana":"ｲｶﾆｹｲｻｲｶﾞﾅｲﾊﾞｱｲ","prefecture":"高知県","city":"安芸市","street":"以下に掲載がない場合"},{"zipCode":"7840033","prefectureKana":"ｺｳﾁｹﾝ","cityKana":"ｱｷｼ","streetKana":"ｱｶﾉｺｳ","prefecture":"高知県","city":"安芸市","street":"赤野甲"},{"zipCode":"7840034","prefectureKana":"ｺｳﾁｹﾝ","cityKana":"ｱｷｼ","streetKana":"ｱｶﾉｵﾂ","prefecture":"高知県","city":"安芸市","street":"赤野乙"},{"zipCode":"7840057","prefectureKana":"ｺｳﾁｹﾝ","cityKana":"ｱｷｼ","streetKana":"ｱｷﾉｶﾜｺｳ","prefecture":"高知県","city":"安芸市","street":"安芸ノ川甲"},{"zipCode":"7840058","prefectureKana":"ｺｳﾁｹﾝ","cityKana":"ｱｷｼ","streetKana":"ｱｷﾉｶﾜｵﾂ","prefecture":"高知県","city":"安芸市","street":"安芸ノ川乙"},{"zipCode":"7840031","prefectureKana":"ｺｳﾁｹﾝ","cityKana":"ｱｷｼ","streetKana":"ｱﾅﾅｲｺｳ","prefecture":"高知県","city":"安芸市","street":"穴内甲"},{"zipCode":"7840032","prefectureKana":"ｺｳﾁｹﾝ","cityKana":"ｱｷｼ","streetKana":"ｱﾅﾅｲｵﾂ","prefecture":"高知県","city":"安芸市","street":"穴内乙"},{"zipCode":"7840045","prefectureKana":"ｺｳﾁｹﾝ","cityKana":"ｱｷｼ","streetKana":"ｲｵｷ","prefecture":"高知県","city":"安芸市","street":"伊尾木"},{"zipCode":"7840051","prefectureKana":"ｺｳﾁｹﾝ","cityKana":"ｱｷｼ","streetKana":"ｲﾉｸﾁｺｳ","prefecture":"高知県","city":"安芸市","street":"井ノ口甲"},{"zipCode":"7840052","prefectureKana":"ｺｳﾁｹﾝ","cityKana":"ｱｷｼ","streetKana":"ｲﾉｸﾁｵﾂ","prefecture":"高知県","city":"安芸市","street":"井ノ口乙"},{"zipCode":"7840029","prefectureKana":"ｺｳﾁｹﾝ","cityKana":"ｱｷｼ","streetKana":"ｳｴﾉ","prefecture":"高知県","city":"安芸市","street":"植野"},{"zipCode":"7840274","prefectureKana":"ｺｳﾁｹﾝ","cityKana":"ｱｷｼ","streetKana":"ｵｵｲｺｳ","prefecture":"高知県","city":"安芸市","street":"大井甲"},{"zipCode":"7840275","prefectureKana":"ｺｳﾁｹﾝ","cityKana":"ｱｷｼ","streetKana":"ｵｵｲｵﾂ","prefecture":"高知県","city":"安芸市","street":"大井乙"},{"zipCode":"7840055","prefectureKana":"ｺｳﾁｹﾝ","cityKana":"ｱｷｼ","streetKana":"ｵｶﾞﾜｺｳ","prefecture":"高知県","city":"安芸市","street":"尾川甲"},{"zipCode":"7840056","prefectureKana":"ｺｳﾁｹﾝ","cityKana":"ｱｷｼ","streetKana":"ｵｶﾞﾜｵﾂ","prefecture":"高知県","city":"安芸市","street":"尾川乙"},{"zipCode":"7840053","prefectureKana":"ｺｳﾁｹﾝ","cityKana":"ｱｷｼ","streetKana":"ｵﾀﾞﾆ","prefecture":"高知県","city":"安芸市","street":"小谷"},{"zipCode":"7840043","prefectureKana":"ｺｳﾁｹﾝ","cityKana":"ｱｷｼ","streetKana":"ｶﾜｷﾀｺｳ","prefecture":"高知県","city":"安芸市","street":"川北甲"},{"zipCode":"7840044","prefectureKana":"ｺｳﾁｹﾝ","cityKana":"ｱｷｼ","streetKana":"ｶﾜｷﾀｵﾂ","prefecture":"高知県","city":"安芸市","street":"川北乙"},{"zipCode":"7840003","prefectureKana":"ｺｳﾁｹﾝ","cityKana":"ｱｷｼ","streetKana":"ｸｾﾁｮｳ","prefecture":"高知県","city":"安芸市","street":"久世町"},{"zipCode":"7840273","prefectureKana":"ｺｳﾁｹﾝ","cityKana":"ｱｷｼ","streetKana":"ｸﾛｾ","prefecture":"高知県","city":"安芸市","street":"黒瀬"},{"zipCode":"7840028","prefectureKana":"ｺｳﾁｹﾝ","cityKana":"ｱｷｼ","streetKana":"ｸﾛﾄﾞﾘ","prefecture":"高知県","city":"安芸市","street":"黒鳥"},{"zipCode":"7840276","prefectureKana":"ｺｳﾁｹﾝ","cityKana":"ｱｷｼ","streetKana":"ｺｲ","prefecture":"高知県","city":"安芸市","street":"古井"},{"zipCode":"7840007","prefectureKana":"ｺｳﾁｹﾝ","cityKana":"ｱｷｼ","streetKana":"ｺﾄﾌﾞｷﾁｮｳ","prefecture":"高知県","city":"安芸市","street":"寿町"},{"zipCode":"7840021","prefectureKana":"ｺｳﾁｹﾝ","cityKana":"ｱｷｼ","streetKana":"ｻｲﾜｲﾁｮｳ","prefecture":"高知県","city":"安芸市","street":"幸町"},{"zipCode":"7840026","prefectureKana":"ｺｳﾁｹﾝ","cityKana":"ｱｷｼ","streetKana":"ｻｸﾗｶﾞｵｶﾁｮｳ","prefecture":"高知県","city":"安芸市","street":"桜ケ丘町"},{"zipCode":"7840277","prefectureKana":"ｺｳﾁｹﾝ","cityKana":"ｱｷｼ","streetKana":"ｼﾏ","prefecture":"高知県","city":"安芸市","street":"島"},{"zipCode":"7840046","prefectureKana":"ｺｳﾁｹﾝ","cityKana":"ｱｷｼ","streetKana":"ｼﾓﾔﾏ","prefecture":"高知県","city":"安芸市","street":"下山"},{"zipCode":"7840022","prefectureKana":"ｺｳﾁｹﾝ","cityKana":"ｱｷｼ","streetKana":"ｼｮｳﾉｼﾊﾞﾁｮｳ","prefecture":"高知県","city":"安芸市","street":"庄之芝町"},{"zipCode":"7840008","prefectureKana":"ｺｳﾁｹﾝ","cityKana":"ｱｷｼ","streetKana":"ｾｲﾜﾁｮｳ","prefecture":"高知県","city":"安芸市","street":"清和町"},{"zipCode":"7840041","prefectureKana":"ｺｳﾁｹﾝ","cityKana":"ｱｷｼ","streetKana":"ｿｳﾂﾞ","prefecture":"高知県","city":"安芸市","street":"僧津"},{"zipCode":"7840023","prefectureKana":"ｺｳﾁｹﾝ","cityKana":"ｱｷｼ","streetKana":"ｿﾒｲﾁｮｳ","prefecture":"高知県","city":"安芸市","street":"染井町"},{"zipCode":"7840024","prefectureKana":"ｺｳﾁｹﾝ","cityKana":"ｱｷｼ","streetKana":"ﾁﾄｾﾁｮｳ","prefecture":"高知県","city":"安芸市","street":"千歳町"},{"zipCode":"7840025","prefectureKana":"ｺｳﾁｹﾝ","cityKana":"ｱｷｼ","streetKana":"ﾂｸﾓﾁｮｳ","prefecture":"高知県","city":"安芸市","street":"津久茂町"},{"zipCode":"7840042","prefectureKana":"ｺｳﾁｹﾝ","cityKana":"ｱｷｼ","streetKana":"ﾄﾞｲ","prefecture":"高知県","city":"安芸市","street":"土居"},{"zipCode":"7840054","prefectureKana":"ｺｳﾁｹﾝ","cityKana":"ｱｷｼ","streetKana":"ﾄﾁﾉｷ","prefecture":"高知県","city":"安芸市","street":"栃ノ木"},{"zipCode":"7840271","prefectureKana":"ｺｳﾁｹﾝ","cityKana":"ｱｷｼ","streetKana":"ﾅﾋﾞｶ","prefecture":"高知県","city":"安芸市","street":"奈比賀"},{"zipCode":"7840020","prefectureKana":"ｺｳﾁｹﾝ","cityKana":"ｱｷｼ","streetKana":"ﾆｼﾊﾏ","prefecture":"高知県","city":"安芸市","street":"西浜"},{"zipCode":"7840272","prefectureKana":"ｺｳﾁｹﾝ","cityKana":"ｱｷｼ","streetKana":"ﾆｭｳｶﾞｳﾁ","prefecture":"高知県","city":"安芸市","street":"入河内"},{"zipCode":"7840061","prefectureKana":"ｺｳﾁｹﾝ","cityKana":"ｱｷｼ","streetKana":"ﾊﾀﾔﾏｺｳ","prefecture":"高知県","city":"安芸市","street":"畑山甲"},{"zipCode":"7840062","prefectureKana":"ｺｳﾁｹﾝ","cityKana":"ｱｷｼ","streetKana":"ﾊﾀﾔﾏｵﾂ","prefecture":"高知県","city":"安芸市","street":"畑山乙"},{"zipCode":"7840063","prefectureKana":"ｺｳﾁｹﾝ","cityKana":"ｱｷｼ","streetKana":"ﾊﾀﾔﾏﾍｲ","prefecture":"高知県","city":"安芸市","street":"畑山丙"},{"zipCode":"7840002","prefectureKana":"ｺｳﾁｹﾝ","cityKana":"ｱｷｼ","streetKana":"ﾊﾅｿﾞﾉﾁｮｳ","prefecture":"高知県","city":"安芸市","street":"花園町"},{"zipCode":"7840010","prefectureKana":"ｺｳﾁｹﾝ","cityKana":"ｱｷｼ","streetKana":"ﾋｶﾞｼﾊﾏ","prefecture":"高知県","city":"安芸市","street":"東浜"},{"zipCode":"7840006","prefectureKana":"ｺｳﾁｹﾝ","cityKana":"ｱｷｼ","streetKana":"ﾋﾉﾃﾞﾁｮｳ","prefecture":"高知県","city":"安芸市","street":"日ノ出町"},{"zipCode":"7840278","prefectureKana":"ｺｳﾁｹﾝ","cityKana":"ｱｷｼ","streetKana":"ﾍﾞｯﾁｬｸ","prefecture":"高知県","city":"安芸市","street":"別役"},{"zipCode":"7840027","prefectureKana":"ｺｳﾁｹﾝ","cityKana":"ｱｷｼ","streetKana":"ﾎｳｴｲﾁｮｳ","prefecture":"高知県","city":"安芸市","street":"宝永町"},{"zipCode":"7840004","prefectureKana":"ｺｳﾁｹﾝ","cityKana":"ｱｷｼ","streetKana":"ﾎﾝﾏﾁ","prefecture":"高知県","city":"安芸市","street":"本町"},{"zipCode":"7840064","prefectureKana":"ｺｳﾁｹﾝ","cityKana":"ｱｷｼ","streetKana":"ﾏｲｶﾜ","prefecture":"高知県","city":"安芸市","street":"舞川"},{"zipCode":"7840005","prefectureKana":"ｺｳﾁｹﾝ","cityKana":"ｱｷｼ","streetKana":"ﾐﾅﾄﾏﾁ","prefecture":"高知県","city":"安芸市","street":"港町"},{"zipCode":"7840001","prefectureKana":"ｺｳﾁｹﾝ","cityKana":"ｱｷｼ","streetKana":"ﾔﾉﾏﾙ","prefecture":"高知県","city":"安芸市","street":"矢ノ丸"},{"zipCode":"7840065","prefectureKana":"ｺｳﾁｹﾝ","cityKana":"ｶﾐｼ","streetKana":"ﾓﾉﾍﾞﾁｮｳﾅｶﾂｵ","prefecture":"高知県","city":"香美市","street":"物部町中津尾"}]