[{"zipCode":"7850000","prefectureKana":"ｺｳﾁｹﾝ","cityKana":"ｽｻｷｼ","streetKana":"ｲｶﾆｹｲｻｲｶﾞﾅｲﾊﾞｱｲ","prefecture":"高知県","city":"須崎市","street":"以下に掲載がない場合"},{"zipCode":"7850047","prefectureKana":"ｺｳﾁｹﾝ","cityKana":"ｽｻｷｼ","streetKana":"ｱｲﾉｺﾞｳｺｳ","prefecture":"高知県","city":"須崎市","street":"吾井郷甲"},{"zipCode":"7850044","prefectureKana":"ｺｳﾁｹﾝ","cityKana":"ｽｻｷｼ","streetKana":"ｱｲﾉｺﾞｳｵﾂ","prefecture":"高知県","city":"須崎市","street":"吾井郷乙"},{"zipCode":"7850004","prefectureKana":"ｺｳﾁｹﾝ","cityKana":"ｽｻｷｼ","streetKana":"ｱｵｷﾏﾁ","prefecture":"高知県","city":"須崎市","street":"青木町"},{"zipCode":"7850037","prefectureKana":"ｺｳﾁｹﾝ","cityKana":"ｽｻｷｼ","streetKana":"ｱｶｻﾞｷﾏﾁ","prefecture":"高知県","city":"須崎市","street":"赤崎町"},{"zipCode":"7850024","prefectureKana":"ｺｳﾁｹﾝ","cityKana":"ｽｻｷｼ","streetKana":"ｱﾜ","prefecture":"高知県","city":"須崎市","street":"安和"},{"zipCode":"7850021","prefectureKana":"ｺｳﾁｹﾝ","cityKana":"ｽｻｷｼ","streetKana":"ｲｹﾉｳﾁ","prefecture":"高知県","city":"須崎市","street":"池ノ内"},{"zipCode":"7850017","prefectureKana":"ｺｳﾁｹﾝ","cityKana":"ｽｻｷｼ","streetKana":"ｲｽﾞﾐﾏﾁ","prefecture":"高知県","city":"須崎市","street":"泉町"},{"zipCode":"7850165","prefectureKana":"ｺｳﾁｹﾝ","cityKana":"ｽｻｷｼ","streetKana":"ｳﾗﾉｳﾁｲｽﾞﾐ","prefecture":"高知県","city":"須崎市","street":"浦ノ内出見"},{"zipCode":"7850173","prefectureKana":"ｺｳﾁｹﾝ","cityKana":"ｽｻｷｼ","streetKana":"ｳﾗﾉｳﾁｺﾝｶﾞﾜｳﾁ","prefecture":"高知県","city":"須崎市","street":"浦ノ内今川内"},{"zipCode":"7850174","prefectureKana":"ｺｳﾁｹﾝ","cityKana":"ｽｻｷｼ","streetKana":"ｳﾗﾉｳﾁｼﾓﾅｶﾔﾏ","prefecture":"高知県","city":"須崎市","street":"浦ノ内下中山"},{"zipCode":"7850166","prefectureKana":"ｺｳﾁｹﾝ","cityKana":"ｽｻｷｼ","streetKana":"ｳﾗﾉｳﾁｼﾜｲ","prefecture":"高知県","city":"須崎市","street":"浦ノ内塩間"},{"zipCode":"7850171","prefectureKana":"ｺｳﾁｹﾝ","cityKana":"ｽｻｷｼ","streetKana":"ｳﾗﾉｳﾁｽﾉｳﾗ","prefecture":"高知県","city":"須崎市","street":"浦ノ内須ノ浦"},{"zipCode":"7850164","prefectureKana":"ｺｳﾁｹﾝ","cityKana":"ｽｻｷｼ","streetKana":"ｳﾗﾉｳﾁﾀﾁﾒｽﾙｷﾞ","prefecture":"高知県","city":"須崎市","street":"浦ノ内立目摺木"},{"zipCode":"7850161","prefectureKana":"ｺｳﾁｹﾝ","cityKana":"ｽｻｷｼ","streetKana":"ｳﾗﾉｳﾁﾆｼﾌﾞﾝ","prefecture":"高知県","city":"須崎市","street":"浦ノ内西分"},{"zipCode":"7850167","prefectureKana":"ｺｳﾁｹﾝ","cityKana":"ｽｻｷｼ","streetKana":"ｳﾗﾉｳﾁﾊｲｶﾞﾀ","prefecture":"高知県","city":"須崎市","street":"浦ノ内灰方"},{"zipCode":"7850163","prefectureKana":"ｺｳﾁｹﾝ","cityKana":"ｽｻｷｼ","streetKana":"ｳﾗﾉｳﾁﾋｶﾞｼﾌﾞﾝ(ｵﾄﾅｼ･ｻｶｳﾁ)","prefecture":"高知県","city":"須崎市","street":"浦ノ内東分（鳴無・坂内）"},{"zipCode":"7850162","prefectureKana":"ｺｳﾁｹﾝ","cityKana":"ｽｻｷｼ","streetKana":"ｳﾗﾉｳﾁﾋｶﾞｼﾌﾞﾝ(ｿﾉﾀ)","prefecture":"高知県","city":"須崎市","street":"浦ノ内東分（その他）"},{"zipCode":"7850172","prefectureKana":"ｺｳﾁｹﾝ","cityKana":"ｽｻｷｼ","streetKana":"ｳﾗﾉｳﾁﾌｸﾗ","prefecture":"高知県","city":"須崎市","street":"浦ノ内福良"},{"zipCode":"7850055","prefectureKana":"ｺｳﾁｹﾝ","cityKana":"ｽｻｷｼ","streetKana":"ｵｵﾀﾆ","prefecture":"高知県","city":"須崎市","street":"大谷"},{"zipCode":"7850030","prefectureKana":"ｺｳﾁｹﾝ","cityKana":"ｽｻｷｼ","streetKana":"ｵｵﾉｺﾞｳｺｳ","prefecture":"高知県","city":"須崎市","street":"多ノ郷甲"},{"zipCode":"7850054","prefectureKana":"ｺｳﾁｹﾝ","cityKana":"ｽｻｷｼ","streetKana":"ｵｵﾉｺﾞｳｵﾂ","prefecture":"高知県","city":"須崎市","street":"多ノ郷乙"},{"zipCode":"7850035","prefectureKana":"ｺｳﾁｹﾝ","cityKana":"ｽｻｷｼ","streetKana":"ｵｵﾏﾋｶﾞｼﾏﾁ","prefecture":"高知県","city":"須崎市","street":"大間東町"},{"zipCode":"7850033","prefectureKana":"ｺｳﾁｹﾝ","cityKana":"ｽｻｷｼ","streetKana":"ｵｵﾏﾆｼﾏﾁ","prefecture":"高知県","city":"須崎市","street":"大間西町"},{"zipCode":"7850034","prefectureKana":"ｺｳﾁｹﾝ","cityKana":"ｽｻｷｼ","streetKana":"ｵｵﾏﾎﾝﾏﾁ","prefecture":"高知県","city":"須崎市","street":"大間本町"},{"zipCode":"7850052","prefectureKana":"ｺｳﾁｹﾝ","cityKana":"ｽｻｷｼ","streetKana":"ｵｼｵｶ","prefecture":"高知県","city":"須崎市","street":"押岡"},{"zipCode":"7850010","prefectureKana":"ｺｳﾁｹﾝ","cityKana":"ｽｻｷｼ","streetKana":"ｶｼﾞﾏﾁ","prefecture":"高知県","city":"須崎市","street":"鍛冶町"},{"zipCode":"7850026","prefectureKana":"ｺｳﾁｹﾝ","cityKana":"ｽｻｷｼ","streetKana":"ｶﾐﾌﾞﾝｺｳ","prefecture":"高知県","city":"須崎市","street":"上分甲"},{"zipCode":"7850027","prefectureKana":"ｺｳﾁｹﾝ","cityKana":"ｽｻｷｼ","streetKana":"ｶﾐﾌﾞﾝｵﾂ","prefecture":"高知県","city":"須崎市","street":"上分乙"},{"zipCode":"7850028","prefectureKana":"ｺｳﾁｹﾝ","cityKana":"ｽｻｷｼ","streetKana":"ｶﾐﾌﾞﾝﾍｲ","prefecture":"高知県","city":"須崎市","street":"上分丙"},{"zipCode":"7850059","prefectureKana":"ｺｳﾁｹﾝ","cityKana":"ｽｻｷｼ","streetKana":"ｷﾘﾏﾆｼ","prefecture":"高知県","city":"須崎市","street":"桐間西"},{"zipCode":"7850057","prefectureKana":"ｺｳﾁｹﾝ","cityKana":"ｽｻｷｼ","streetKana":"ｷﾘﾏﾋｶﾞｼ","prefecture":"高知県","city":"須崎市","street":"桐間東"},{"zipCode":"7850058","prefectureKana":"ｺｳﾁｹﾝ","cityKana":"ｽｻｷｼ","streetKana":"ｷﾘﾏﾐﾅﾐ","prefecture":"高知県","city":"須崎市","street":"桐間南"},{"zipCode":"7850053","prefectureKana":"ｺｳﾁｹﾝ","cityKana":"ｽｻｷｼ","streetKana":"ｸﾂｳ","prefecture":"高知県","city":"須崎市","street":"久通"},{"zipCode":"7850051","prefectureKana":"ｺｳﾁｹﾝ","cityKana":"ｽｻｷｼ","streetKana":"ｺｳﾀﾞ","prefecture":"高知県","city":"須崎市","street":"神田"},{"zipCode":"7850015","prefectureKana":"ｺｳﾁｹﾝ","cityKana":"ｽｻｷｼ","streetKana":"ｻｲﾜｲﾏﾁ","prefecture":"高知県","city":"須崎市","street":"幸町"},{"zipCode":"7850016","prefectureKana":"ｺｳﾁｹﾝ","cityKana":"ｽｻｷｼ","streetKana":"ｻｶｴﾏﾁ","prefecture":"高知県","city":"須崎市","street":"栄町"},{"zipCode":"7850032","prefectureKana":"ｺｳﾁｹﾝ","cityKana":"ｽｻｷｼ","streetKana":"ｼｵﾀﾏﾁ","prefecture":"高知県","city":"須崎市","street":"潮田町"},{"zipCode":"7850025","prefectureKana":"ｺｳﾁｹﾝ","cityKana":"ｽｻｷｼ","streetKana":"ｼﾓｺﾞｳ","prefecture":"高知県","city":"須崎市","street":"下郷"},{"zipCode":"7850022","prefectureKana":"ｺｳﾁｹﾝ","cityKana":"ｽｻｷｼ","streetKana":"ｼﾓﾌﾞﾝｺｳ","prefecture":"高知県","city":"須崎市","street":"下分甲"},{"zipCode":"7850023","prefectureKana":"ｺｳﾁｹﾝ","cityKana":"ｽｻｷｼ","streetKana":"ｼﾓﾌﾞﾝｵﾂ","prefecture":"高知県","city":"須崎市","street":"下分乙"},{"zipCode":"7850003","prefectureKana":"ｺｳﾁｹﾝ","cityKana":"ｽｻｷｼ","streetKana":"ｼﾝﾏﾁ","prefecture":"高知県","city":"須崎市","street":"新町"},{"zipCode":"7850018","prefectureKana":"ｺｳﾁｹﾝ","cityKana":"ｽｻｷｼ","streetKana":"ｽｻｷ","prefecture":"高知県","city":"須崎市","street":"須崎"},{"zipCode":"7850046","prefectureKana":"ｺｳﾁｹﾝ","cityKana":"ｽｻｷｼ","streetKana":"ｿｳﾀﾞﾔﾏｺｳ","prefecture":"高知県","city":"須崎市","street":"桑田山甲"},{"zipCode":"7850045","prefectureKana":"ｺｳﾁｹﾝ","cityKana":"ｽｻｷｼ","streetKana":"ｿｳﾀﾞﾔﾏｵﾂ","prefecture":"高知県","city":"須崎市","street":"桑田山乙"},{"zipCode":"7850043","prefectureKana":"ｺｳﾁｹﾝ","cityKana":"ｽｻｷｼ","streetKana":"ﾂﾁｻﾞｷﾏﾁ","prefecture":"高知県","city":"須崎市","street":"土崎町"},{"zipCode":"7850008","prefectureKana":"ｺｳﾁｹﾝ","cityKana":"ｽｻｷｼ","streetKana":"ﾅｶﾏﾁ","prefecture":"高知県","city":"須崎市","street":"中町"},{"zipCode":"7850041","prefectureKana":"ｺｳﾁｹﾝ","cityKana":"ｽｻｷｼ","streetKana":"ﾆｼｻﾞｷﾏﾁ","prefecture":"高知県","city":"須崎市","street":"西崎町"},{"zipCode":"7850012","prefectureKana":"ｺｳﾁｹﾝ","cityKana":"ｽｻｷｼ","streetKana":"ﾆｼﾀﾀﾞｽﾏﾁ","prefecture":"高知県","city":"須崎市","street":"西糺町"},{"zipCode":"7850013","prefectureKana":"ｺｳﾁｹﾝ","cityKana":"ｽｻｷｼ","streetKana":"ﾆｼﾌﾙｲﾁﾏﾁ","prefecture":"高知県","city":"須崎市","street":"西古市町"},{"zipCode":"7850009","prefectureKana":"ｺｳﾁｹﾝ","cityKana":"ｽｻｷｼ","streetKana":"ﾆｼﾏﾁ","prefecture":"高知県","city":"須崎市","street":"西町"},{"zipCode":"7850056","prefectureKana":"ｺｳﾁｹﾝ","cityKana":"ｽｻｷｼ","streetKana":"ﾉﾐ","prefecture":"高知県","city":"須崎市","street":"野見"},{"zipCode":"7850006","prefectureKana":"ｺｳﾁｹﾝ","cityKana":"ｽｻｷｼ","streetKana":"ﾊﾏﾏﾁ","prefecture":"高知県","city":"須崎市","street":"浜町"},{"zipCode":"7850001","prefectureKana":"ｺｳﾁｹﾝ","cityKana":"ｽｻｷｼ","streetKana":"ﾊﾗﾏﾁ","prefecture":"高知県","city":"須崎市","street":"原町"},{"zipCode":"7850011","prefectureKana":"ｺｳﾁｹﾝ","cityKana":"ｽｻｷｼ","streetKana":"ﾋｶﾞｼﾀﾀﾞｽﾏﾁ","prefecture":"高知県","city":"須崎市","street":"東糺町"},{"zipCode":"7850005","prefectureKana":"ｺｳﾁｹﾝ","cityKana":"ｽｻｷｼ","streetKana":"ﾋｶﾞｼﾌﾙｲﾁﾏﾁ","prefecture":"高知県","city":"須崎市","street":"東古市町"},{"zipCode":"7850036","prefectureKana":"ｺｳﾁｹﾝ","cityKana":"ｽｻｷｼ","streetKana":"ﾐﾄﾞﾘﾏﾁ","prefecture":"高知県","city":"須崎市","street":"緑町"},{"zipCode":"7850002","prefectureKana":"ｺｳﾁｹﾝ","cityKana":"ｽｻｷｼ","streetKana":"ﾐﾅﾄﾏﾁ","prefecture":"高知県","city":"須崎市","street":"港町"},{"zipCode":"7850007","prefectureKana":"ｺｳﾁｹﾝ","cityKana":"ｽｻｷｼ","streetKana":"ﾐﾅﾐﾌﾙｲﾁﾏﾁ","prefecture":"高知県","city":"須崎市","street":"南古市町"},{"zipCode":"7850042","prefectureKana":"ｺｳﾁｹﾝ","cityKana":"ｽｻｷｼ","streetKana":"ﾐｮｳｹﾝﾏﾁ","prefecture":"高知県","city":"須崎市","street":"妙見町"},{"zipCode":"7850031","prefectureKana":"ｺｳﾁｹﾝ","cityKana":"ｽｻｷｼ","streetKana":"ﾔﾏﾃﾏﾁ","prefecture":"高知県","city":"須崎市","street":"山手町"},{"zipCode":"7850014","prefectureKana":"ｺｳﾁｹﾝ","cityKana":"ｽｻｷｼ","streetKana":"ﾖｺﾏﾁ","prefecture":"高知県","city":"須崎市","street":"横町"},{"zipCode":"7850600","prefectureKana":"ｺｳﾁｹﾝ","cityKana":"ﾀｶｵｶｸﾞﾝﾕｽﾊﾗﾁｮｳ","streetKana":"ｲｶﾆｹｲｻｲｶﾞﾅｲﾊﾞｱｲ","prefecture":"高知県","city":"高岡郡檮原町","street":"以下に掲載がない場合"},{"zipCode":"7850611","prefectureKana":"ｺｳﾁｹﾝ","cityKana":"ﾀｶｵｶｸﾞﾝﾕｽﾊﾗﾁｮｳ","streetKana":"ｲｲﾎﾞ","prefecture":"高知県","city":"高岡郡檮原町","street":"飯母"},{"zipCode":"7850666","prefectureKana":"ｺｳﾁｹﾝ","cityKana":"ﾀｶｵｶｸﾞﾝﾕｽﾊﾗﾁｮｳ","streetKana":"ｲｺｳ","prefecture":"高知県","city":"高岡郡檮原町","street":"井高"},{"zipCode":"7850602","prefectureKana":"ｺｳﾁｹﾝ","cityKana":"ﾀｶｵｶｸﾞﾝﾕｽﾊﾗﾁｮｳ","streetKana":"ｲﾉﾀﾆ","prefecture":"高知県","city":"高岡郡檮原町","street":"井の谷"},{"zipCode":"7850641","prefectureKana":"ｺｳﾁｹﾝ","cityKana":"ﾀｶｵｶｸﾞﾝﾕｽﾊﾗﾁｮｳ","streetKana":"ｳﾜﾅﾛ","prefecture":"高知県","city":"高岡郡檮原町","street":"上成"},{"zipCode":"7850603","prefectureKana":"ｺｳﾁｹﾝ","cityKana":"ﾀｶｵｶｸﾞﾝﾕｽﾊﾗﾁｮｳ","streetKana":"ｵｵﾀﾄﾞ","prefecture":"高知県","city":"高岡郡檮原町","street":"太田戸"},{"zipCode":"7850626","prefectureKana":"ｺｳﾁｹﾝ","cityKana":"ﾀｶｵｶｸﾞﾝﾕｽﾊﾗﾁｮｳ","streetKana":"ｵｵﾉｼﾞ","prefecture":"高知県","city":"高岡郡檮原町","street":"大野地"},{"zipCode":"7850771","prefectureKana":"ｺｳﾁｹﾝ","cityKana":"ﾀｶｵｶｸﾞﾝﾕｽﾊﾗﾁｮｳ","streetKana":"ｵｵﾑｶｲ","prefecture":"高知県","city":"高岡郡檮原町","street":"大向"},{"zipCode":"7850613","prefectureKana":"ｺｳﾁｹﾝ","cityKana":"ﾀｶｵｶｸﾞﾝﾕｽﾊﾗﾁｮｳ","streetKana":"ｵｿﾞｳﾀﾆ","prefecture":"高知県","city":"高岡郡檮原町","street":"大蔵谷"},{"zipCode":"7850652","prefectureKana":"ｺｳﾁｹﾝ","cityKana":"ﾀｶｵｶｸﾞﾝﾕｽﾊﾗﾁｮｳ","streetKana":"ｵﾓﾀﾞﾆ","prefecture":"高知県","city":"高岡郡檮原町","street":"本も谷"},{"zipCode":"7850627","prefectureKana":"ｺｳﾁｹﾝ","cityKana":"ﾀｶｵｶｸﾞﾝﾕｽﾊﾗﾁｮｳ","streetKana":"ｶｹﾞﾉｼﾞ","prefecture":"高知県","city":"高岡郡檮原町","street":"影野地"},{"zipCode":"7850625","prefectureKana":"ｺｳﾁｹﾝ","cityKana":"ﾀｶｵｶｸﾞﾝﾕｽﾊﾗﾁｮｳ","streetKana":"ｶﾐｵﾘﾜﾀﾘ","prefecture":"高知県","city":"高岡郡檮原町","street":"上折渡"},{"zipCode":"7850654","prefectureKana":"ｺｳﾁｹﾝ","cityKana":"ﾀｶｵｶｸﾞﾝﾕｽﾊﾗﾁｮｳ","streetKana":"ｶﾐｸﾞﾐ","prefecture":"高知県","city":"高岡郡檮原町","street":"上組"},{"zipCode":"7850646","prefectureKana":"ｺｳﾁｹﾝ","cityKana":"ﾀｶｵｶｸﾞﾝﾕｽﾊﾗﾁｮｳ","streetKana":"ｶﾐﾆｼﾉｶﾜ","prefecture":"高知県","city":"高岡郡檮原町","street":"上西の川"},{"zipCode":"7850664","prefectureKana":"ｺｳﾁｹﾝ","cityKana":"ﾀｶｵｶｸﾞﾝﾕｽﾊﾗﾁｮｳ","streetKana":"ｶﾐﾉﾔﾏ","prefecture":"高知県","city":"高岡郡檮原町","street":"神の山"},{"zipCode":"7850606","prefectureKana":"ｺｳﾁｹﾝ","cityKana":"ﾀｶｵｶｸﾞﾝﾕｽﾊﾗﾁｮｳ","streetKana":"ｶﾐﾎﾝﾑﾗ","prefecture":"高知県","city":"高岡郡檮原町","street":"上本村"},{"zipCode":"7850776","prefectureKana":"ｺｳﾁｹﾝ","cityKana":"ﾀｶｵｶｸﾞﾝﾕｽﾊﾗﾁｮｳ","streetKana":"ｶﾛｳﾄ","prefecture":"高知県","city":"高岡郡檮原町","street":"家籠戸"},{"zipCode":"7850635","prefectureKana":"ｺｳﾁｹﾝ","cityKana":"ﾀｶｵｶｸﾞﾝﾕｽﾊﾗﾁｮｳ","streetKana":"ｶﾜｲ","prefecture":"高知県","city":"高岡郡檮原町","street":"川井"},{"zipCode":"7850636","prefectureKana":"ｺｳﾁｹﾝ","cityKana":"ﾀｶｵｶｸﾞﾝﾕｽﾊﾗﾁｮｳ","streetKana":"ｶﾜｸﾞﾁ","prefecture":"高知県","city":"高岡郡檮原町","street":"川口"},{"zipCode":"7850612","prefectureKana":"ｺｳﾁｹﾝ","cityKana":"ﾀｶｵｶｸﾞﾝﾕｽﾊﾗﾁｮｳ","streetKana":"ｶﾜﾆｼｼﾞ","prefecture":"高知県","city":"高岡郡檮原町","street":"川西路"},{"zipCode":"7850622","prefectureKana":"ｺｳﾁｹﾝ","cityKana":"ﾀｶｵｶｸﾞﾝﾕｽﾊﾗﾁｮｳ","streetKana":"ｶﾝｻﾞｲｺ","prefecture":"高知県","city":"高岡郡檮原町","street":"神在居"},{"zipCode":"7850774","prefectureKana":"ｺｳﾁｹﾝ","cityKana":"ﾀｶｵｶｸﾞﾝﾕｽﾊﾗﾁｮｳ","streetKana":"ｸﾎﾞﾀﾆ","prefecture":"高知県","city":"高岡郡檮原町","street":"久保谷"},{"zipCode":"7850657","prefectureKana":"ｺｳﾁｹﾝ","cityKana":"ﾀｶｵｶｸﾞﾝﾕｽﾊﾗﾁｮｳ","streetKana":"ｺﾁﾑｷ","prefecture":"高知県","city":"高岡郡檮原町","street":"東向"},{"zipCode":"7850608","prefectureKana":"ｺｳﾁｹﾝ","cityKana":"ﾀｶｵｶｸﾞﾝﾕｽﾊﾗﾁｮｳ","streetKana":"ｺﾞﾍﾞｯﾄｳ","prefecture":"高知県","city":"高岡郡檮原町","street":"後別当"},{"zipCode":"7850662","prefectureKana":"ｺｳﾁｹﾝ","cityKana":"ﾀｶｵｶｸﾞﾝﾕｽﾊﾗﾁｮｳ","streetKana":"ｻｶﾓﾄｶﾞﾜ","prefecture":"高知県","city":"高岡郡檮原町","street":"坂本川"},{"zipCode":"7850631","prefectureKana":"ｺｳﾁｹﾝ","cityKana":"ﾀｶｵｶｸﾞﾝﾕｽﾊﾗﾁｮｳ","streetKana":"ｻﾜﾀﾘ","prefecture":"高知県","city":"高岡郡檮原町","street":"佐渡"},{"zipCode":"7850775","prefectureKana":"ｺｳﾁｹﾝ","cityKana":"ﾀｶｵｶｸﾞﾝﾕｽﾊﾗﾁｮｳ","streetKana":"ｼﾏｼﾞｭｳ","prefecture":"高知県","city":"高岡郡檮原町","street":"島中"},{"zipCode":"7850624","prefectureKana":"ｺｳﾁｹﾝ","cityKana":"ﾀｶｵｶｸﾞﾝﾕｽﾊﾗﾁｮｳ","streetKana":"ｼﾓｵﾘﾜﾀﾘ","prefecture":"高知県","city":"高岡郡檮原町","street":"下折渡"},{"zipCode":"7850655","prefectureKana":"ｺｳﾁｹﾝ","cityKana":"ﾀｶｵｶｸﾞﾝﾕｽﾊﾗﾁｮｳ","streetKana":"ｼﾓｸﾞﾐ","prefecture":"高知県","city":"高岡郡檮原町","street":"下組"},{"zipCode":"7850647","prefectureKana":"ｺｳﾁｹﾝ","cityKana":"ﾀｶｵｶｸﾞﾝﾕｽﾊﾗﾁｮｳ","streetKana":"ｼﾓﾆｼﾉｶﾜ","prefecture":"高知県","city":"高岡郡檮原町","street":"下西の川"},{"zipCode":"7850605","prefectureKana":"ｺｳﾁｹﾝ","cityKana":"ﾀｶｵｶｸﾞﾝﾕｽﾊﾗﾁｮｳ","streetKana":"ｼﾓﾎﾝﾑﾗ","prefecture":"高知県","city":"高岡郡檮原町","street":"下本村"},{"zipCode":"7850645","prefectureKana":"ｺｳﾁｹﾝ","cityKana":"ﾀｶｵｶｸﾞﾝﾕｽﾊﾗﾁｮｳ","streetKana":"ﾀｹﾉﾔﾌﾞ","prefecture":"高知県","city":"高岡郡檮原町","street":"竹の薮"},{"zipCode":"7850607","prefectureKana":"ｺｳﾁｹﾝ","cityKana":"ﾀｶｵｶｸﾞﾝﾕｽﾊﾗﾁｮｳ","streetKana":"ﾀﾉﾉ","prefecture":"高知県","city":"高岡郡檮原町","street":"田野々"},{"zipCode":"7850621","prefectureKana":"ｺｳﾁｹﾝ","cityKana":"ﾀｶｵｶｸﾞﾝﾕｽﾊﾗﾁｮｳ","streetKana":"ﾀﾛｳｶﾞﾜ","prefecture":"高知県","city":"高岡郡檮原町","street":"太郎川"},{"zipCode":"7850651","prefectureKana":"ｺｳﾁｹﾝ","cityKana":"ﾀｶｵｶｸﾞﾝﾕｽﾊﾗﾁｮｳ","streetKana":"ﾁｬﾔﾀﾞﾆ","prefecture":"高知県","city":"高岡郡檮原町","street":"茶や谷"},{"zipCode":"7850665","prefectureKana":"ｺｳﾁｹﾝ","cityKana":"ﾀｶｵｶｸﾞﾝﾕｽﾊﾗﾁｮｳ","streetKana":"ﾂﾎﾞﾉﾀ","prefecture":"高知県","city":"高岡郡檮原町","street":"坪野田"},{"zipCode":"7850658","prefectureKana":"ｺｳﾁｹﾝ","cityKana":"ﾀｶｵｶｸﾞﾝﾕｽﾊﾗﾁｮｳ","streetKana":"ﾄﾐﾅｶﾞ","prefecture":"高知県","city":"高岡郡檮原町","street":"富永"},{"zipCode":"7850633","prefectureKana":"ｺｳﾁｹﾝ","cityKana":"ﾀｶｵｶｸﾞﾝﾕｽﾊﾗﾁｮｳ","streetKana":"ﾄﾖﾊﾗ","prefecture":"高知県","city":"高岡郡檮原町","street":"豊原"},{"zipCode":"7850648","prefectureKana":"ｺｳﾁｹﾝ","cityKana":"ﾀｶｵｶｸﾞﾝﾕｽﾊﾗﾁｮｳ","streetKana":"ﾅｶｲﾀﾞ","prefecture":"高知県","city":"高岡郡檮原町","street":"仲間"},{"zipCode":"7850634","prefectureKana":"ｺｳﾁｹﾝ","cityKana":"ﾀｶｵｶｸﾞﾝﾕｽﾊﾗﾁｮｳ","streetKana":"ﾅｶｸﾎﾞ","prefecture":"高知県","city":"高岡郡檮原町","street":"仲久保"},{"zipCode":"7850623","prefectureKana":"ｺｳﾁｹﾝ","cityKana":"ﾀｶｵｶｸﾞﾝﾕｽﾊﾗﾁｮｳ","streetKana":"ﾅｶﾄｳ","prefecture":"高知県","city":"高岡郡檮原町","street":"仲洞"},{"zipCode":"7850653","prefectureKana":"ｺｳﾁｹﾝ","cityKana":"ﾀｶｵｶｸﾞﾝﾕｽﾊﾗﾁｮｳ","streetKana":"ﾅｶﾉｶﾜ","prefecture":"高知県","city":"高岡郡檮原町","street":"中の川"},{"zipCode":"7850772","prefectureKana":"ｺｳﾁｹﾝ","cityKana":"ﾀｶｵｶｸﾞﾝﾕｽﾊﾗﾁｮｳ","streetKana":"ﾅｶﾋﾗ","prefecture":"高知県","city":"高岡郡檮原町","street":"中平"},{"zipCode":"7850601","prefectureKana":"ｺｳﾁｹﾝ","cityKana":"ﾀｶｵｶｸﾞﾝﾕｽﾊﾗﾁｮｳ","streetKana":"ﾅｶﾞﾉ","prefecture":"高知県","city":"高岡郡檮原町","street":"永野"},{"zipCode":"7850632","prefectureKana":"ｺｳﾁｹﾝ","cityKana":"ﾀｶｵｶｸﾞﾝﾕｽﾊﾗﾁｮｳ","streetKana":"ﾊﾂｾﾎﾝﾑﾗ","prefecture":"高知県","city":"高岡郡檮原町","street":"初瀬本村"},{"zipCode":"7850656","prefectureKana":"ｺｳﾁｹﾝ","cityKana":"ﾀｶｵｶｸﾞﾝﾕｽﾊﾗﾁｮｳ","streetKana":"ﾋｶﾞｼｶﾞﾜ","prefecture":"高知県","city":"高岡郡檮原町","street":"東川"},{"zipCode":"7850644","prefectureKana":"ｺｳﾁｹﾝ","cityKana":"ﾀｶｵｶｸﾞﾝﾕｽﾊﾗﾁｮｳ","streetKana":"ﾋﾛﾉ","prefecture":"高知県","city":"高岡郡檮原町","street":"広野"},{"zipCode":"7850663","prefectureKana":"ｺｳﾁｹﾝ","cityKana":"ﾀｶｵｶｸﾞﾝﾕｽﾊﾗﾁｮｳ","streetKana":"ﾌﾞﾝﾏﾙ","prefecture":"高知県","city":"高岡郡檮原町","street":"文丸"},{"zipCode":"7850642","prefectureKana":"ｺｳﾁｹﾝ","cityKana":"ﾀｶｵｶｸﾞﾝﾕｽﾊﾗﾁｮｳ","streetKana":"ﾏﾂﾀﾞﾆ","prefecture":"高知県","city":"高岡郡檮原町","street":"松谷"},{"zipCode":"7850773","prefectureKana":"ｺｳﾁｹﾝ","cityKana":"ﾀｶｵｶｸﾞﾝﾕｽﾊﾗﾁｮｳ","streetKana":"ﾏﾂﾊﾞﾗ","prefecture":"高知県","city":"高岡郡檮原町","street":"松原"},{"zipCode":"7850643","prefectureKana":"ｺｳﾁｹﾝ","cityKana":"ﾀｶｵｶｸﾞﾝﾕｽﾊﾗﾁｮｳ","streetKana":"ﾐﾔﾉﾉ","prefecture":"高知県","city":"高岡郡檮原町","street":"宮野々"},{"zipCode":"7850610","prefectureKana":"ｺｳﾁｹﾝ","cityKana":"ﾀｶｵｶｸﾞﾝﾕｽﾊﾗﾁｮｳ","streetKana":"ﾕｽﾊﾗ","prefecture":"高知県","city":"高岡郡檮原町","street":"檮原"},{"zipCode":"7850604","prefectureKana":"ｺｳﾁｹﾝ","cityKana":"ﾀｶｵｶｸﾞﾝﾕｽﾊﾗﾁｮｳ","streetKana":"ﾖｺｶﾞｲ","prefecture":"高知県","city":"高岡郡檮原町","street":"横貝"},{"zipCode":"7850661","prefectureKana":"ｺｳﾁｹﾝ","cityKana":"ﾀｶｵｶｸﾞﾝﾕｽﾊﾗﾁｮｳ","streetKana":"ﾛｸﾁｮｳ","prefecture":"高知県","city":"高岡郡檮原町","street":"六丁"},{"zipCode":"7850200","prefectureKana":"ｺｳﾁｹﾝ","cityKana":"ﾀｶｵｶｸﾞﾝﾂﾉﾁｮｳ","streetKana":"ｲｶﾆｹｲｻｲｶﾞﾅｲﾊﾞｱｲ","prefecture":"高知県","city":"高岡郡津野町","street":"以下に掲載がない場合"},{"zipCode":"7850219","prefectureKana":"ｺｳﾁｹﾝ","cityKana":"ﾀｶｵｶｸﾞﾝﾂﾉﾁｮｳ","streetKana":"ｱｶｷﾞ","prefecture":"高知県","city":"高岡郡津野町","street":"赤木"},{"zipCode":"7850218","prefectureKana":"ｺｳﾁｹﾝ","cityKana":"ﾀｶｵｶｸﾞﾝﾂﾉﾁｮｳ","streetKana":"ｵｵﾉ","prefecture":"高知県","city":"高岡郡津野町","street":"大野"},{"zipCode":"7850203","prefectureKana":"ｺｳﾁｹﾝ","cityKana":"ﾀｶｵｶｸﾞﾝﾂﾉﾁｮｳ","streetKana":"ｶｲﾉｶﾜ","prefecture":"高知県","city":"高岡郡津野町","street":"貝ノ川"},{"zipCode":"7850210","prefectureKana":"ｺｳﾁｹﾝ","cityKana":"ﾀｶｵｶｸﾞﾝﾂﾉﾁｮｳ","streetKana":"ｶｲﾉｶﾜﾄｺﾅﾍﾞ","prefecture":"高知県","city":"高岡郡津野町","street":"貝ノ川床鍋"},{"zipCode":"7850206","prefectureKana":"ｺｳﾁｹﾝ","cityKana":"ﾀｶｵｶｸﾞﾝﾂﾉﾁｮｳ","streetKana":"ｶﾊﾞﾉｶﾜ","prefecture":"高知県","city":"高岡郡津野町","street":"樺の川"},{"zipCode":"7850413","prefectureKana":"ｺｳﾁｹﾝ","cityKana":"ﾀｶｵｶｸﾞﾝﾂﾉﾁｮｳ","streetKana":"ｶﾗｽﾃﾞｶﾞﾜ","prefecture":"高知県","city":"高岡郡津野町","street":"烏出川"},{"zipCode":"7850502","prefectureKana":"ｺｳﾁｹﾝ","cityKana":"ﾀｶｵｶｸﾞﾝﾂﾉﾁｮｳ","streetKana":"ｷﾀｶﾞﾜ","prefecture":"高知県","city":"高岡郡津野町","street":"北川"},{"zipCode":"7850204","prefectureKana":"ｺｳﾁｹﾝ","cityKana":"ﾀｶｵｶｸﾞﾝﾂﾉﾁｮｳ","streetKana":"ｸﾎﾞｶﾜ","prefecture":"高知県","city":"高岡郡津野町","street":"久保川"},{"zipCode":"7850217","prefectureKana":"ｺｳﾁｹﾝ","cityKana":"ﾀｶｵｶｸﾞﾝﾂﾉﾁｮｳ","streetKana":"ｸﾛｶﾜ","prefecture":"高知県","city":"高岡郡津野町","street":"黒川"},{"zipCode":"7850412","prefectureKana":"ｺｳﾁｹﾝ","cityKana":"ﾀｶｵｶｸﾞﾝﾂﾉﾁｮｳ","streetKana":"ｸﾜｶﾞｲﾁ","prefecture":"高知県","city":"高岡郡津野町","street":"桑ケ市"},{"zipCode":"7850212","prefectureKana":"ｺｳﾁｹﾝ","cityKana":"ﾀｶｵｶｸﾞﾝﾂﾉﾁｮｳ","streetKana":"ｼﾗｲｼｵﾂ","prefecture":"高知県","city":"高岡郡津野町","street":"白石乙"},{"zipCode":"7850211","prefectureKana":"ｺｳﾁｹﾝ","cityKana":"ﾀｶｵｶｸﾞﾝﾂﾉﾁｮｳ","streetKana":"ｼﾗｲｼｺｳ","prefecture":"高知県","city":"高岡郡津野町","street":"白石甲"},{"zipCode":"7850213","prefectureKana":"ｺｳﾁｹﾝ","cityKana":"ﾀｶｵｶｸﾞﾝﾂﾉﾁｮｳ","streetKana":"ｼﾗｲｼﾍｲ","prefecture":"高知県","city":"高岡郡津野町","street":"白石丙"},{"zipCode":"7850207","prefectureKana":"ｺｳﾁｹﾝ","cityKana":"ﾀｶｵｶｸﾞﾝﾂﾉﾁｮｳ","streetKana":"ｼﾝﾄﾞｲ","prefecture":"高知県","city":"高岡郡津野町","street":"新土居"},{"zipCode":"7850215","prefectureKana":"ｺｳﾁｹﾝ","cityKana":"ﾀｶｵｶｸﾞﾝﾂﾉﾁｮｳ","streetKana":"ｽｷﾞﾉｶﾜｵﾂ","prefecture":"高知県","city":"高岡郡津野町","street":"杉ノ川乙"},{"zipCode":"7850214","prefectureKana":"ｺｳﾁｹﾝ","cityKana":"ﾀｶｵｶｸﾞﾝﾂﾉﾁｮｳ","streetKana":"ｽｷﾞﾉｶﾜｺｳ","prefecture":"高知県","city":"高岡郡津野町","street":"杉ノ川甲"},{"zipCode":"7850216","prefectureKana":"ｺｳﾁｹﾝ","cityKana":"ﾀｶｵｶｸﾞﾝﾂﾉﾁｮｳ","streetKana":"ｽｷﾞﾉｶﾜﾍｲ","prefecture":"高知県","city":"高岡郡津野町","street":"杉ノ川丙"},{"zipCode":"7850501","prefectureKana":"ｺｳﾁｹﾝ","cityKana":"ﾀｶｵｶｸﾞﾝﾂﾉﾁｮｳ","streetKana":"ﾁｶﾗｲｼ","prefecture":"高知県","city":"高岡郡津野町","street":"力石"},{"zipCode":"7850201","prefectureKana":"ｺｳﾁｹﾝ","cityKana":"ﾀｶｵｶｸﾞﾝﾂﾉﾁｮｳ","streetKana":"ﾅｶﾞﾉ","prefecture":"高知県","city":"高岡郡津野町","street":"永野"},{"zipCode":"7850209","prefectureKana":"ｺｳﾁｹﾝ","cityKana":"ﾀｶｵｶｸﾞﾝﾂﾉﾁｮｳ","streetKana":"ﾆｼﾀﾞﾆｵﾂ","prefecture":"高知県","city":"高岡郡津野町","street":"西谷乙"},{"zipCode":"7850205","prefectureKana":"ｺｳﾁｹﾝ","cityKana":"ﾀｶｵｶｸﾞﾝﾂﾉﾁｮｳ","streetKana":"ﾆｼﾀﾞﾆｺｳ","prefecture":"高知県","city":"高岡郡津野町","street":"西谷甲"},{"zipCode":"7850202","prefectureKana":"ｺｳﾁｹﾝ","cityKana":"ﾀｶｵｶｸﾞﾝﾂﾉﾁｮｳ","streetKana":"ﾋﾒﾉﾉ","prefecture":"高知県","city":"高岡郡津野町","street":"姫野々"},{"zipCode":"7850411","prefectureKana":"ｺｳﾁｹﾝ","cityKana":"ﾀｶｵｶｸﾞﾝﾂﾉﾁｮｳ","streetKana":"ﾌﾅﾄ","prefecture":"高知県","city":"高岡郡津野町","street":"船戸"},{"zipCode":"7850208","prefectureKana":"ｺｳﾁｹﾝ","cityKana":"ﾀｶｵｶｸﾞﾝﾂﾉﾁｮｳ","streetKana":"ﾐﾏﾉｶﾜ","prefecture":"高知県","city":"高岡郡津野町","street":"三間川"},{"zipCode":"7850504","prefectureKana":"ｺｳﾁｹﾝ","cityKana":"ﾀｶｵｶｸﾞﾝﾂﾉﾁｮｳ","streetKana":"ﾖｼｳﾉｵﾂ","prefecture":"高知県","city":"高岡郡津野町","street":"芳生野乙"},{"zipCode":"7850503","prefectureKana":"ｺｳﾁｹﾝ","cityKana":"ﾀｶｵｶｸﾞﾝﾂﾉﾁｮｳ","streetKana":"ﾖｼｳﾉｺｳ","prefecture":"高知県","city":"高岡郡津野町","street":"芳生野甲"},{"zipCode":"7850505","prefectureKana":"ｺｳﾁｹﾝ","cityKana":"ﾀｶｵｶｸﾞﾝﾂﾉﾁｮｳ","streetKana":"ﾖｼｳﾉﾍｲ","prefecture":"高知県","city":"高岡郡津野町","street":"芳生野丙"}]