[{"zipCode":"7870300","prefectureKana":"ｺｳﾁｹﾝ","cityKana":"ﾄｻｼﾐｽﾞｼ","streetKana":"ｲｶﾆｹｲｻｲｶﾞﾅｲﾊﾞｱｲ","prefecture":"高知県","city":"土佐清水市","street":"以下に掲載がない場合"},{"zipCode":"7870303","prefectureKana":"ｺｳﾁｹﾝ","cityKana":"ﾄｻｼﾐｽﾞｼ","streetKana":"ｱｻﾋﾏﾁ","prefecture":"高知県","city":"土佐清水市","street":"旭町"},{"zipCode":"7870315","prefectureKana":"ｺｳﾁｹﾝ","cityKana":"ﾄｻｼﾐｽﾞｼ","streetKana":"ｱｼｽﾞﾘﾐｻｷ","prefecture":"高知県","city":"土佐清水市","street":"足摺岬"},{"zipCode":"7870556","prefectureKana":"ｺｳﾁｹﾝ","cityKana":"ﾄｻｼﾐｽﾞｼ","streetKana":"ｱﾘﾅｶﾞ","prefecture":"高知県","city":"土佐清水市","street":"有永"},{"zipCode":"7870327","prefectureKana":"ｺｳﾁｹﾝ","cityKana":"ﾄｻｼﾐｽﾞｼ","streetKana":"ｲﾁﾊﾞﾁｮｳ","prefecture":"高知県","city":"土佐清水市","street":"市場町"},{"zipCode":"7870302","prefectureKana":"ｺｳﾁｹﾝ","cityKana":"ﾄｻｼﾐｽﾞｼ","streetKana":"ｲﾌﾞﾘ","prefecture":"高知県","city":"土佐清水市","street":"以布利"},{"zipCode":"7870447","prefectureKana":"ｺｳﾁｹﾝ","cityKana":"ﾄｻｼﾐｽﾞｼ","streetKana":"ｳｴﾉ","prefecture":"高知県","city":"土佐清水市","street":"上野"},{"zipCode":"7870310","prefectureKana":"ｺｳﾁｹﾝ","cityKana":"ﾄｻｼﾐｽﾞｼ","streetKana":"ｳﾗｼﾞﾘ","prefecture":"高知県","city":"土佐清水市","street":"浦尻"},{"zipCode":"7870331","prefectureKana":"ｺｳﾁｹﾝ","cityKana":"ﾄｻｼﾐｽﾞｼ","streetKana":"ｴﾁｾﾞﾝﾁｮｳ","prefecture":"高知県","city":"土佐清水市","street":"越前町"},{"zipCode":"7870328","prefectureKana":"ｺｳﾁｹﾝ","cityKana":"ﾄｻｼﾐｽﾞｼ","streetKana":"ｴﾋﾞｽﾁｮｳ","prefecture":"高知県","city":"土佐清水市","street":"戎町"},{"zipCode":"7870301","prefectureKana":"ｺｳﾁｹﾝ","cityKana":"ﾄｻｼﾐｽﾞｼ","streetKana":"ｵｵｷ","prefecture":"高知県","city":"土佐清水市","street":"大岐"},{"zipCode":"7870314","prefectureKana":"ｺｳﾁｹﾝ","cityKana":"ﾄｻｼﾐｽﾞｼ","streetKana":"ｵｵﾀﾆ","prefecture":"高知県","city":"土佐清水市","street":"大谷"},{"zipCode":"7870562","prefectureKana":"ｺｳﾁｹﾝ","cityKana":"ﾄｻｼﾐｽﾞｼ","streetKana":"ｵｵﾂ","prefecture":"高知県","city":"土佐清水市","street":"大津"},{"zipCode":"7870317","prefectureKana":"ｺｳﾁｹﾝ","cityKana":"ﾄｻｼﾐｽﾞｼ","streetKana":"ｵｵﾊﾏ","prefecture":"高知県","city":"土佐清水市","street":"大浜"},{"zipCode":"7870446","prefectureKana":"ｺｳﾁｹﾝ","cityKana":"ﾄｻｼﾐｽﾞｼ","streetKana":"ｵﾉｽﾞﾐ","prefecture":"高知県","city":"土佐清水市","street":"斧積"},{"zipCode":"7870243","prefectureKana":"ｺｳﾁｹﾝ","cityKana":"ﾄｻｼﾐｽﾞｼ","streetKana":"ｶｲｶｹ","prefecture":"高知県","city":"土佐清水市","street":"鍵掛"},{"zipCode":"7870561","prefectureKana":"ｺｳﾁｹﾝ","cityKana":"ﾄｻｼﾐｽﾞｼ","streetKana":"ｶｲﾉｶﾜ","prefecture":"高知県","city":"土佐清水市","street":"貝ノ川"},{"zipCode":"7870334","prefectureKana":"ｺｳﾁｹﾝ","cityKana":"ﾄｻｼﾐｽﾞｼ","streetKana":"ｶｸﾞﾐｲﾘｻﾜﾁｮｳ","prefecture":"高知県","city":"土佐清水市","street":"加久見入沢町"},{"zipCode":"7870335","prefectureKana":"ｺｳﾁｹﾝ","cityKana":"ﾄｻｼﾐｽﾞｼ","streetKana":"ｶｸﾞﾐｼﾝﾏﾁ","prefecture":"高知県","city":"土佐清水市","street":"加久見新町"},{"zipCode":"7870338","prefectureKana":"ｺｳﾁｹﾝ","cityKana":"ﾄｻｼﾐｽﾞｼ","streetKana":"ｶｸﾞﾐ(ﾏﾂｻﾞｷ)","prefecture":"高知県","city":"土佐清水市","street":"加久見（松崎）"},{"zipCode":"7870336","prefectureKana":"ｺｳﾁｹﾝ","cityKana":"ﾄｻｼﾐｽﾞｼ","streetKana":"ｶｸﾞﾐ(ｿﾉﾀ)","prefecture":"高知県","city":"土佐清水市","street":"加久見（その他）"},{"zipCode":"7870560","prefectureKana":"ｺｳﾁｹﾝ","cityKana":"ﾄｻｼﾐｽﾞｼ","streetKana":"ｶﾀｶｽ","prefecture":"高知県","city":"土佐清水市","street":"片粕"},{"zipCode":"7870312","prefectureKana":"ｺｳﾁｹﾝ","cityKana":"ﾄｻｼﾐｽﾞｼ","streetKana":"ｸﾎﾞﾂ","prefecture":"高知県","city":"土佐清水市","street":"窪津"},{"zipCode":"7870244","prefectureKana":"ｺｳﾁｹﾝ","cityKana":"ﾄｻｼﾐｽﾞｼ","streetKana":"ｸﾓﾓ","prefecture":"高知県","city":"土佐清水市","street":"久百々"},{"zipCode":"7870311","prefectureKana":"ｺｳﾁｹﾝ","cityKana":"ﾄｻｼﾐｽﾞｼ","streetKana":"ｸﾞﾘｰﾝﾊｲﾂ","prefecture":"高知県","city":"土佐清水市","street":"グリーンハイツ"},{"zipCode":"7870308","prefectureKana":"ｺｳﾁｹﾝ","cityKana":"ﾄｻｼﾐｽﾞｼ","streetKana":"ｺｳｾｲﾁｮｳ","prefecture":"高知県","city":"土佐清水市","street":"厚生町"},{"zipCode":"7870322","prefectureKana":"ｺｳﾁｹﾝ","cityKana":"ﾄｻｼﾐｽﾞｼ","streetKana":"ｺｴﾁｮｳ","prefecture":"高知県","city":"土佐清水市","street":"小江町"},{"zipCode":"7870323","prefectureKana":"ｺｳﾁｹﾝ","cityKana":"ﾄｻｼﾐｽﾞｼ","streetKana":"ｺﾄﾌﾞｷﾁｮｳ","prefecture":"高知県","city":"土佐清水市","street":"寿町"},{"zipCode":"7870306","prefectureKana":"ｺｳﾁｹﾝ","cityKana":"ﾄｻｼﾐｽﾞｼ","streetKana":"ｻｲﾜｲﾁｮｳ","prefecture":"高知県","city":"土佐清水市","street":"幸町"},{"zipCode":"7870325","prefectureKana":"ｺｳﾁｹﾝ","cityKana":"ﾄｻｼﾐｽﾞｼ","streetKana":"ｻｶｴﾏﾁ","prefecture":"高知県","city":"土佐清水市","street":"栄町"},{"zipCode":"7870332","prefectureKana":"ｺｳﾁｹﾝ","cityKana":"ﾄｻｼﾐｽﾞｼ","streetKana":"ｼｵﾐﾁｮｳ","prefecture":"高知県","city":"土佐清水市","street":"汐見町"},{"zipCode":"7870320","prefectureKana":"ｺｳﾁｹﾝ","cityKana":"ﾄｻｼﾐｽﾞｼ","streetKana":"ｼﾐｽﾞ","prefecture":"高知県","city":"土佐清水市","street":"清水"},{"zipCode":"7870330","prefectureKana":"ｺｳﾁｹﾝ","cityKana":"ﾄｻｼﾐｽﾞｼ","streetKana":"ｼﾐｽﾞｶﾞｵｶ","prefecture":"高知県","city":"土佐清水市","street":"清水ヶ丘"},{"zipCode":"7870559","prefectureKana":"ｺｳﾁｹﾝ","cityKana":"ﾄｻｼﾐｽﾞｼ","streetKana":"ｼﾓｶﾜｸﾞﾁ","prefecture":"高知県","city":"土佐清水市","street":"下川口"},{"zipCode":"7870242","prefectureKana":"ｺｳﾁｹﾝ","cityKana":"ﾄｻｼﾐｽﾞｼ","streetKana":"ｼﾓﾉｶｴ","prefecture":"高知県","city":"土佐清水市","street":"下ノ加江"},{"zipCode":"7870445","prefectureKana":"ｺｳﾁｹﾝ","cityKana":"ﾄｻｼﾐｽﾞｼ","streetKana":"ｼﾓﾏｼﾉ","prefecture":"高知県","city":"土佐清水市","street":"下益野"},{"zipCode":"7870563","prefectureKana":"ｺｳﾁｹﾝ","cityKana":"ﾄｻｼﾐｽﾞｼ","streetKana":"ｿｳﾛｺｳ","prefecture":"高知県","city":"土佐清水市","street":"宗呂甲"},{"zipCode":"7870557","prefectureKana":"ｺｳﾁｹﾝ","cityKana":"ﾄｻｼﾐｽﾞｼ","streetKana":"ｿｳﾛｵﾂ","prefecture":"高知県","city":"土佐清水市","street":"宗呂乙"},{"zipCode":"7870558","prefectureKana":"ｺｳﾁｹﾝ","cityKana":"ﾄｻｼﾐｽﾞｼ","streetKana":"ｿｳﾛﾍｲ","prefecture":"高知県","city":"土佐清水市","street":"宗呂丙"},{"zipCode":"7870452","prefectureKana":"ｺｳﾁｹﾝ","cityKana":"ﾄｻｼﾐｽﾞｼ","streetKana":"ﾀﾂｸｼ","prefecture":"高知県","city":"土佐清水市","street":"竜串"},{"zipCode":"7870240","prefectureKana":"ｺｳﾁｹﾝ","cityKana":"ﾄｻｼﾐｽﾞｼ","streetKana":"ﾀﾃｲｼ","prefecture":"高知県","city":"土佐清水市","street":"立石"},{"zipCode":"7870324","prefectureKana":"ｺｳﾁｹﾝ","cityKana":"ﾄｻｼﾐｽﾞｼ","streetKana":"ﾁｭｳｵｳﾁｮｳ","prefecture":"高知県","city":"土佐清水市","street":"中央町"},{"zipCode":"7870453","prefectureKana":"ｺｳﾁｹﾝ","cityKana":"ﾄｻｼﾐｽﾞｼ","streetKana":"ﾂﾏｼﾞﾛ","prefecture":"高知県","city":"土佐清水市","street":"爪白"},{"zipCode":"7870313","prefectureKana":"ｺｳﾁｹﾝ","cityKana":"ﾄｻｼﾐｽﾞｼ","streetKana":"ﾂﾛ","prefecture":"高知県","city":"土佐清水市","street":"津呂"},{"zipCode":"7870305","prefectureKana":"ｺｳﾁｹﾝ","cityKana":"ﾄｻｼﾐｽﾞｼ","streetKana":"ﾃﾝｼﾞﾝﾏﾁ","prefecture":"高知県","city":"土佐清水市","street":"天神町"},{"zipCode":"7870318","prefectureKana":"ｺｳﾁｹﾝ","cityKana":"ﾄｻｼﾐｽﾞｼ","streetKana":"ﾅｶﾉﾊﾏ","prefecture":"高知県","city":"土佐清水市","street":"中浜"},{"zipCode":"7870333","prefectureKana":"ｺｳﾁｹﾝ","cityKana":"ﾄｻｼﾐｽﾞｼ","streetKana":"ﾆｼﾏﾁ","prefecture":"高知県","city":"土佐清水市","street":"西町"},{"zipCode":"7870241","prefectureKana":"ｺｳﾁｹﾝ","cityKana":"ﾄｻｼﾐｽﾞｼ","streetKana":"ﾇﾉ","prefecture":"高知県","city":"土佐清水市","street":"布"},{"zipCode":"7870321","prefectureKana":"ｺｳﾁｹﾝ","cityKana":"ﾄｻｼﾐｽﾞｼ","streetKana":"ﾊﾏﾏﾁ","prefecture":"高知県","city":"土佐清水市","street":"浜町"},{"zipCode":"7870326","prefectureKana":"ｺｳﾁｹﾝ","cityKana":"ﾄｻｼﾐｽﾞｼ","streetKana":"ﾎﾝﾏﾁ","prefecture":"高知県","city":"土佐清水市","street":"本町"},{"zipCode":"7870316","prefectureKana":"ｺｳﾁｹﾝ","cityKana":"ﾄｻｼﾐｽﾞｼ","streetKana":"ﾏﾂｵ","prefecture":"高知県","city":"土佐清水市","street":"松尾"},{"zipCode":"7870450","prefectureKana":"ｺｳﾁｹﾝ","cityKana":"ﾄｻｼﾐｽﾞｼ","streetKana":"ﾐｻｷ","prefecture":"高知県","city":"土佐清水市","street":"三崎"},{"zipCode":"7870451","prefectureKana":"ｺｳﾁｹﾝ","cityKana":"ﾄｻｼﾐｽﾞｼ","streetKana":"ﾐｻｷｳﾗ","prefecture":"高知県","city":"土佐清水市","street":"三崎浦"},{"zipCode":"7870307","prefectureKana":"ｺｳﾁｹﾝ","cityKana":"ﾄｻｼﾐｽﾞｼ","streetKana":"ﾐﾄﾞﾘｶﾞｵｶ","prefecture":"高知県","city":"土佐清水市","street":"緑ケ丘"},{"zipCode":"7870304","prefectureKana":"ｺｳﾁｹﾝ","cityKana":"ﾄｻｼﾐｽﾞｼ","streetKana":"ﾓﾄﾏﾁ","prefecture":"高知県","city":"土佐清水市","street":"元町"},{"zipCode":"7870337","prefectureKana":"ｺｳﾁｹﾝ","cityKana":"ﾄｻｼﾐｽﾞｼ","streetKana":"ﾖｳﾛｳ","prefecture":"高知県","city":"土佐清水市","street":"養老"},{"zipCode":"7870339","prefectureKana":"ｺｳﾁｹﾝ","cityKana":"ﾄｻｼﾐｽﾞｼ","streetKana":"ﾖｺﾐﾁ","prefecture":"高知県","city":"土佐清水市","street":"横道"},{"zipCode":"7870000","prefectureKana":"ｺｳﾁｹﾝ","cityKana":"ｼﾏﾝﾄｼ","streetKana":"ｲｶﾆｹｲｻｲｶﾞﾅｲﾊﾞｱｲ","prefecture":"高知県","city":"四万十市","street":"以下に掲載がない場合"},{"zipCode":"7870007","prefectureKana":"ｺｳﾁｹﾝ","cityKana":"ｼﾏﾝﾄｼ","streetKana":"ｱｲﾀﾞ","prefecture":"高知県","city":"四万十市","street":"秋田"},{"zipCode":"7870052","prefectureKana":"ｺｳﾁｹﾝ","cityKana":"ｼﾏﾝﾄｼ","streetKana":"ｱｶﾏﾂﾁｮｳ","prefecture":"高知県","city":"四万十市","street":"赤松町"},{"zipCode":"7870006","prefectureKana":"ｺｳﾁｹﾝ","cityKana":"ｼﾏﾝﾄｼ","streetKana":"ｱｿｳ","prefecture":"高知県","city":"四万十市","street":"麻生"},{"zipCode":"7870668","prefectureKana":"ｺｳﾁｹﾝ","cityKana":"ｼﾏﾝﾄｼ","streetKana":"ｱﾗｶﾜ","prefecture":"高知県","city":"四万十市","street":"荒川"},{"zipCode":"7870771","prefectureKana":"ｺｳﾁｹﾝ","cityKana":"ｼﾏﾝﾄｼ","streetKana":"ｱﾘｵｶ","prefecture":"高知県","city":"四万十市","street":"有岡"},{"zipCode":"7871441","prefectureKana":"ｺｳﾁｹﾝ","cityKana":"ｼﾏﾝﾄｼ","streetKana":"ｲｻｲﾊﾞﾗ","prefecture":"高知県","city":"四万十市","street":"伊才原"},{"zipCode":"7870150","prefectureKana":"ｺｳﾁｹﾝ","cityKana":"ｼﾏﾝﾄｼ","streetKana":"ｲｻﾜ","prefecture":"高知県","city":"四万十市","street":"井沢"},{"zipCode":"7870773","prefectureKana":"ｺｳﾁｹﾝ","cityKana":"ｼﾏﾝﾄｼ","streetKana":"ｲｿﾉｶﾜ","prefecture":"高知県","city":"四万十市","street":"磯ノ川"},{"zipCode":"7871103","prefectureKana":"ｺｳﾁｹﾝ","cityKana":"ｼﾏﾝﾄｼ","streetKana":"ｲﾀﾉｶﾜ","prefecture":"高知県","city":"四万十市","street":"板ノ川"},{"zipCode":"7871107","prefectureKana":"ｺｳﾁｹﾝ","cityKana":"ｼﾏﾝﾄｼ","streetKana":"ｲﾜﾀ","prefecture":"高知県","city":"四万十市","street":"岩田"},{"zipCode":"7871226","prefectureKana":"ｺｳﾁｹﾝ","cityKana":"ｼﾏﾝﾄｼ","streetKana":"ｳﾉｴ","prefecture":"高知県","city":"四万十市","street":"鵜ノ江"},{"zipCode":"7870015","prefectureKana":"ｺｳﾁｹﾝ","cityKana":"ｼﾏﾝﾄｼ","streetKana":"ｳﾔﾏ","prefecture":"高知県","city":"四万十市","street":"右山"},{"zipCode":"7870012","prefectureKana":"ｺｳﾁｹﾝ","cityKana":"ｼﾏﾝﾄｼ","streetKana":"ｳﾔﾏｻﾂｷﾁｮｳ","prefecture":"高知県","city":"四万十市","street":"右山五月町"},{"zipCode":"7870013","prefectureKana":"ｺｳﾁｹﾝ","cityKana":"ｼﾏﾝﾄｼ","streetKana":"ｳﾔﾏﾃﾝｼﾞﾝﾁｮｳ","prefecture":"高知県","city":"四万十市","street":"右山天神町"},{"zipCode":"7870011","prefectureKana":"ｺｳﾁｹﾝ","cityKana":"ｼﾏﾝﾄｼ","streetKana":"ｳﾔﾏﾓﾄﾏﾁ","prefecture":"高知県","city":"四万十市","street":"右山元町"},{"zipCode":"7870014","prefectureKana":"ｺｳﾁｹﾝ","cityKana":"ｼﾏﾝﾄｼ","streetKana":"ｴｷﾏｴﾁｮｳ","prefecture":"高知県","city":"四万十市","street":"駅前町"},{"zipCode":"7870669","prefectureKana":"ｺｳﾁｹﾝ","cityKana":"ｼﾏﾝﾄｼ","streetKana":"ｴﾉﾑﾗ","prefecture":"高知県","city":"四万十市","street":"江ノ村"},{"zipCode":"7870774","prefectureKana":"ｺｳﾁｹﾝ","cityKana":"ｼﾏﾝﾄｼ","streetKana":"ｵｲﾉｶﾜ","prefecture":"高知県","city":"四万十市","street":"生ノ川"},{"zipCode":"7871557","prefectureKana":"ｺｳﾁｹﾝ","cityKana":"ｼﾏﾝﾄｼ","streetKana":"ｵｵﾆｼﾉｶﾜ","prefecture":"高知県","city":"四万十市","street":"大西ノ川"},{"zipCode":"7871553","prefectureKana":"ｺｳﾁｹﾝ","cityKana":"ｼﾏﾝﾄｼ","streetKana":"ｵｵﾔｼｷ","prefecture":"高知県","city":"四万十市","street":"大屋敷"},{"zipCode":"7871550","prefectureKana":"ｺｳﾁｹﾝ","cityKana":"ｼﾏﾝﾄｼ","streetKana":"ｵｵﾕｳ","prefecture":"高知県","city":"四万十市","street":"大用"},{"zipCode":"7871101","prefectureKana":"ｺｳﾁｹﾝ","cityKana":"ｼﾏﾝﾄｼ","streetKana":"ｵｸｶﾓｶﾞﾜ","prefecture":"高知県","city":"四万十市","street":"奥鴨川"},{"zipCode":"7871552","prefectureKana":"ｺｳﾁｹﾝ","cityKana":"ｼﾏﾝﾄｼ","streetKana":"ｶﾀｳｵ","prefecture":"高知県","city":"四万十市","street":"片魚"},{"zipCode":"7871223","prefectureKana":"ｺｳﾁｹﾝ","cityKana":"ｼﾏﾝﾄｼ","streetKana":"ｶﾂﾏ(ｶﾂﾏｶﾞﾜ)","prefecture":"高知県","city":"四万十市","street":"勝間（勝間川）"},{"zipCode":"7871224","prefectureKana":"ｺｳﾁｹﾝ","cityKana":"ｼﾏﾝﾄｼ","streetKana":"ｶﾂﾏ(ｿﾉﾀ)","prefecture":"高知県","city":"四万十市","street":"勝間（その他）"},{"zipCode":"7870776","prefectureKana":"ｺｳﾁｹﾝ","cityKana":"ｼﾏﾝﾄｼ","streetKana":"ｶﾐﾉﾄﾞｲ","prefecture":"高知県","city":"四万十市","street":"上ノ土居"},{"zipCode":"7871220","prefectureKana":"ｺｳﾁｹﾝ","cityKana":"ｼﾏﾝﾄｼ","streetKana":"ｶﾜﾉﾎﾞﾘ","prefecture":"高知県","city":"四万十市","street":"川登"},{"zipCode":"7870775","prefectureKana":"ｺｳﾁｹﾝ","cityKana":"ｼﾏﾝﾄｼ","streetKana":"ｸｼﾞｭｳ","prefecture":"高知県","city":"四万十市","street":"九樹"},{"zipCode":"7871227","prefectureKana":"ｺｳﾁｹﾝ","cityKana":"ｼﾏﾝﾄｼ","streetKana":"ｸｽ","prefecture":"高知県","city":"四万十市","street":"楠"},{"zipCode":"7870666","prefectureKana":"ｺｳﾁｹﾝ","cityKana":"ｼﾏﾝﾄｼ","streetKana":"ｸｽｼﾏ","prefecture":"高知県","city":"四万十市","street":"楠島"},{"zipCode":"7871102","prefectureKana":"ｺｳﾁｹﾝ","cityKana":"ｼﾏﾝﾄｼ","streetKana":"ｸﾁｶﾓｶﾞﾜ","prefecture":"高知県","city":"四万十市","street":"口鴨川"},{"zipCode":"7870019","prefectureKana":"ｺｳﾁｹﾝ","cityKana":"ｼﾏﾝﾄｼ","streetKana":"ｸﾞﾄﾞｳ","prefecture":"高知県","city":"四万十市","street":"具同"},{"zipCode":"7870051","prefectureKana":"ｺｳﾁｹﾝ","cityKana":"ｼﾏﾝﾄｼ","streetKana":"ｸﾞﾄﾞｳﾀｸﾞﾛ","prefecture":"高知県","city":"四万十市","street":"具同田黒"},{"zipCode":"7870667","prefectureKana":"ｺｳﾁｹﾝ","cityKana":"ｼﾏﾝﾄｼ","streetKana":"ｸﾆﾐ","prefecture":"高知県","city":"四万十市","street":"国見"},{"zipCode":"7871225","prefectureKana":"ｺｳﾁｹﾝ","cityKana":"ｼﾏﾝﾄｼ","streetKana":"ｸﾎﾞｶﾜ","prefecture":"高知県","city":"四万十市","street":"久保川"},{"zipCode":"7870010","prefectureKana":"ｺｳﾁｹﾝ","cityKana":"ｼﾏﾝﾄｼ","streetKana":"ｺﾂｶ","prefecture":"高知県","city":"四万十市","street":"古津賀"},{"zipCode":"7871556","prefectureKana":"ｺｳﾁｹﾝ","cityKana":"ｼﾏﾝﾄｼ","streetKana":"ｺﾆｼﾉｶﾜ","prefecture":"高知県","city":"四万十市","street":"小西ノ川"},{"zipCode":"7871558","prefectureKana":"ｺｳﾁｹﾝ","cityKana":"ｼﾏﾝﾄｼ","streetKana":"ｺﾋﾞ","prefecture":"高知県","city":"四万十市","street":"古尾"},{"zipCode":"7870009","prefectureKana":"ｺｳﾁｹﾝ","cityKana":"ｼﾏﾝﾄｼ","streetKana":"ｻｵｶ","prefecture":"高知県","city":"四万十市","street":"佐岡"},{"zipCode":"7870156","prefectureKana":"ｺｳﾁｹﾝ","cityKana":"ｼﾏﾝﾄｼ","streetKana":"ｻｶﾓﾄ","prefecture":"高知県","city":"四万十市","street":"坂本"},{"zipCode":"7871106","prefectureKana":"ｺｳﾁｹﾝ","cityKana":"ｼﾏﾝﾄｼ","streetKana":"ｻﾀﾞ","prefecture":"高知県","city":"四万十市","street":"佐田"},{"zipCode":"7870158","prefectureKana":"ｺｳﾁｹﾝ","cityKana":"ｼﾏﾝﾄｼ","streetKana":"ｻﾝｻﾞｷ","prefecture":"高知県","city":"四万十市","street":"実崎"},{"zipCode":"7871108","prefectureKana":"ｺｳﾁｹﾝ","cityKana":"ｼﾏﾝﾄｼ","streetKana":"ｼｷｼﾞ","prefecture":"高知県","city":"四万十市","street":"敷地"},{"zipCode":"7870155","prefectureKana":"ｺｳﾁｹﾝ","cityKana":"ｼﾏﾝﾄｼ","streetKana":"ｼﾓﾀﾞ","prefecture":"高知県","city":"四万十市","street":"下田"},{"zipCode":"7871551","prefectureKana":"ｺｳﾁｹﾝ","cityKana":"ｼﾏﾝﾄｼ","streetKana":"ｼﾞｭｳｼﾞﾛｳ","prefecture":"高知県","city":"四万十市","street":"住次郎"},{"zipCode":"7871554","prefectureKana":"ｺｳﾁｹﾝ","cityKana":"ｼﾏﾝﾄｼ","streetKana":"ｼﾞｮｳﾛｸ","prefecture":"高知県","city":"四万十市","street":"常六"},{"zipCode":"7871228","prefectureKana":"ｺｳﾁｹﾝ","cityKana":"ｼﾏﾝﾄｼ","streetKana":"ﾀｶｾ","prefecture":"高知県","city":"四万十市","street":"高瀬"},{"zipCode":"7870151","prefectureKana":"ｺｳﾁｹﾝ","cityKana":"ｼﾏﾝﾄｼ","streetKana":"ﾀｹｼﾏ","prefecture":"高知県","city":"四万十市","street":"竹島"},{"zipCode":"7871559","prefectureKana":"ｺｳﾁｹﾝ","cityKana":"ｼﾏﾝﾄｼ","streetKana":"ﾀｹﾔｼｷ","prefecture":"高知県","city":"四万十市","street":"竹屋敷"},{"zipCode":"7871229","prefectureKana":"ｺｳﾁｹﾝ","cityKana":"ｼﾏﾝﾄｼ","streetKana":"ﾀﾃﾞﾉｶﾜ","prefecture":"高知県","city":"四万十市","street":"田出ノ川"},{"zipCode":"7871109","prefectureKana":"ｺｳﾁｹﾝ","cityKana":"ｼﾏﾝﾄｼ","streetKana":"ﾀﾉｶﾜ","prefecture":"高知県","city":"四万十市","street":"田野川"},{"zipCode":"7871222","prefectureKana":"ｺｳﾁｹﾝ","cityKana":"ｼﾏﾝﾄｼ","streetKana":"ﾀﾗｲｶﾞﾜ","prefecture":"高知県","city":"四万十市","street":"手洗川"},{"zipCode":"7870161","prefectureKana":"ｺｳﾁｹﾝ","cityKana":"ｼﾏﾝﾄｼ","streetKana":"ﾂｸﾗﾌﾞﾁ","prefecture":"高知県","city":"四万十市","street":"津蔵渕"},{"zipCode":"7870016","prefectureKana":"ｺｳﾁｹﾝ","cityKana":"ｼﾏﾝﾄｼ","streetKana":"ﾂﾉｻｷ","prefecture":"高知県","city":"四万十市","street":"角崎"},{"zipCode":"7871105","prefectureKana":"ｺｳﾁｹﾝ","cityKana":"ｼﾏﾝﾄｼ","streetKana":"ﾄｼｵｶ","prefecture":"高知県","city":"四万十市","street":"利岡"},{"zipCode":"7870026","prefectureKana":"ｺｳﾁｹﾝ","cityKana":"ｼﾏﾝﾄｼ","streetKana":"ﾅｶﾑﾗｱﾀｺﾞﾏﾁ","prefecture":"高知県","city":"四万十市","street":"中村愛宕町"},{"zipCode":"7870025","prefectureKana":"ｺｳﾁｹﾝ","cityKana":"ｼﾏﾝﾄｼ","streetKana":"ﾅｶﾑﾗｲﾁｼﾞｮｳﾄﾞｵﾘ","prefecture":"高知県","city":"四万十市","street":"中村一条通"},{"zipCode":"7870036","prefectureKana":"ｺｳﾁｹﾝ","cityKana":"ｼﾏﾝﾄｼ","streetKana":"ﾅｶﾑﾗｲﾜｻｷﾁｮｳ","prefecture":"高知県","city":"四万十市","street":"中村岩崎町"},{"zipCode":"7870033","prefectureKana":"ｺｳﾁｹﾝ","cityKana":"ｼﾏﾝﾄｼ","streetKana":"ﾅｶﾑﾗｵｵﾊｼﾄﾞｵﾘ","prefecture":"高知県","city":"四万十市","street":"中村大橋通"},{"zipCode":"7870024","prefectureKana":"ｺｳﾁｹﾝ","cityKana":"ｼﾏﾝﾄｼ","streetKana":"ﾅｶﾑﾗｵﾋｶﾞｼﾁｮｳ","prefecture":"高知県","city":"四万十市","street":"中村於東町"},{"zipCode":"7870030","prefectureKana":"ｺｳﾁｹﾝ","cityKana":"ｼﾏﾝﾄｼ","streetKana":"ﾅｶﾑﾗｶﾐｺｼｮｳﾏﾁ","prefecture":"高知県","city":"四万十市","street":"中村上小姓町"},{"zipCode":"7870021","prefectureKana":"ｺｳﾁｹﾝ","cityKana":"ｼﾏﾝﾄｼ","streetKana":"ﾅｶﾑﾗｷｮｳﾏﾁ","prefecture":"高知県","city":"四万十市","street":"中村京町"},{"zipCode":"7870029","prefectureKana":"ｺｳﾁｹﾝ","cityKana":"ｼﾏﾝﾄｼ","streetKana":"ﾅｶﾑﾗｺｼｮｳﾏﾁ","prefecture":"高知県","city":"四万十市","street":"中村小姓町"},{"zipCode":"7870032","prefectureKana":"ｺｳﾁｹﾝ","cityKana":"ｼﾏﾝﾄｼ","streetKana":"ﾅｶﾑﾗｻｶｴﾏﾁ","prefecture":"高知県","city":"四万十市","street":"中村栄町"},{"zipCode":"7870002","prefectureKana":"ｺｳﾁｹﾝ","cityKana":"ｼﾏﾝﾄｼ","streetKana":"ﾅｶﾑﾗｻｸﾗﾏﾁ","prefecture":"高知県","city":"四万十市","street":"中村桜町"},{"zipCode":"7870037","prefectureKana":"ｺｳﾁｹﾝ","cityKana":"ｼﾏﾝﾄｼ","streetKana":"ﾅｶﾑﾗｼﾏﾝﾄﾁｮｳ","prefecture":"高知県","city":"四万十市","street":"中村四万十町"},{"zipCode":"7870022","prefectureKana":"ｺｳﾁｹﾝ","cityKana":"ｼﾏﾝﾄｼ","streetKana":"ﾅｶﾑﾗｼﾝﾏﾁ","prefecture":"高知県","city":"四万十市","street":"中村新町"},{"zipCode":"7870027","prefectureKana":"ｺｳﾁｹﾝ","cityKana":"ｼﾏﾝﾄｼ","streetKana":"ﾅｶﾑﾗﾃﾝｼﾞﾝﾊﾞｼ","prefecture":"高知県","city":"四万十市","street":"中村天神橋"},{"zipCode":"7870038","prefectureKana":"ｺｳﾁｹﾝ","cityKana":"ｼﾏﾝﾄｼ","streetKana":"ﾅｶﾑﾗﾄﾞｳﾒｷﾁｮｳ","prefecture":"高知県","city":"四万十市","street":"中村百笑町"},{"zipCode":"7870035","prefectureKana":"ｺｳﾁｹﾝ","cityKana":"ｼﾏﾝﾄｼ","streetKana":"ﾅｶﾑﾗﾊﾌﾞｼｮｳｼﾞ","prefecture":"高知県","city":"四万十市","street":"中村羽生小路"},{"zipCode":"7870031","prefectureKana":"ｺｳﾁｹﾝ","cityKana":"ｼﾏﾝﾄｼ","streetKana":"ﾅｶﾑﾗﾋｶﾞｼｼﾓﾏﾁ","prefecture":"高知県","city":"四万十市","street":"中村東下町"},{"zipCode":"7870023","prefectureKana":"ｺｳﾁｹﾝ","cityKana":"ｼﾏﾝﾄｼ","streetKana":"ﾅｶﾑﾗﾋｶﾞｼﾏﾁ","prefecture":"高知県","city":"四万十市","street":"中村東町"},{"zipCode":"7870001","prefectureKana":"ｺｳﾁｹﾝ","cityKana":"ｼﾏﾝﾄｼ","streetKana":"ﾅｶﾑﾗﾎﾝﾏﾁ","prefecture":"高知県","city":"四万十市","street":"中村本町"},{"zipCode":"7870004","prefectureKana":"ｺｳﾁｹﾝ","cityKana":"ｼﾏﾝﾄｼ","streetKana":"ﾅｶﾑﾗﾏﾙﾉｳﾁ(ﾏﾙﾉｳﾁﾊｲﾗﾝﾄﾞ)","prefecture":"高知県","city":"四万十市","street":"中村丸の内（丸の内ハイランド）"},{"zipCode":"7870003","prefectureKana":"ｺｳﾁｹﾝ","cityKana":"ｼﾏﾝﾄｼ","streetKana":"ﾅｶﾑﾗﾏﾙﾉｳﾁ(ｿﾉﾀ)","prefecture":"高知県","city":"四万十市","street":"中村丸の内（その他）"},{"zipCode":"7870028","prefectureKana":"ｺｳﾁｹﾝ","cityKana":"ｼﾏﾝﾄｼ","streetKana":"ﾅｶﾑﾗﾔﾏﾃﾄﾞｵﾘ","prefecture":"高知県","city":"四万十市","street":"中村山手通"},{"zipCode":"7870034","prefectureKana":"ｺｳﾁｹﾝ","cityKana":"ｼﾏﾝﾄｼ","streetKana":"ﾅｶﾑﾗﾔﾖｲﾁｮｳ","prefecture":"高知県","city":"四万十市","street":"中村弥生町"},{"zipCode":"7870005","prefectureKana":"ｺｳﾁｹﾝ","cityKana":"ｼﾏﾝﾄｼ","streetKana":"ﾅｶﾑﾗ(ｶﾂﾗﾔﾏﾀﾞﾝﾁ)","prefecture":"高知県","city":"四万十市","street":"中村（桂山団地）"},{"zipCode":"7871107","prefectureKana":"ｺｳﾁｹﾝ","cityKana":"ｼﾏﾝﾄｼ","streetKana":"ﾅｶﾑﾗ(ﾀﾞｲﾖｳｼﾞ)","prefecture":"高知県","city":"四万十市","street":"中村（大用寺）"},{"zipCode":"7870163","prefectureKana":"ｺｳﾁｹﾝ","cityKana":"ｼﾏﾝﾄｼ","streetKana":"ﾅｼｼ","prefecture":"高知県","city":"四万十市","street":"名鹿"},{"zipCode":"7870152","prefectureKana":"ｺｳﾁｹﾝ","cityKana":"ｼﾏﾝﾄｼ","streetKana":"ﾅﾍﾞｼﾏ","prefecture":"高知県","city":"四万十市","street":"鍋島"},{"zipCode":"7871321","prefectureKana":"ｺｳﾁｹﾝ","cityKana":"ｼﾏﾝﾄｼ","streetKana":"ﾆｼﾄｻｲﾜﾏ","prefecture":"高知県","city":"四万十市","street":"西土佐岩間"},{"zipCode":"7871607","prefectureKana":"ｺｳﾁｹﾝ","cityKana":"ｼﾏﾝﾄｼ","streetKana":"ﾆｼﾄｻｴｶﾜ","prefecture":"高知県","city":"四万十市","street":"西土佐江川"},{"zipCode":"7871601","prefectureKana":"ｺｳﾁｹﾝ","cityKana":"ｼﾏﾝﾄｼ","streetKana":"ﾆｼﾄｻｴｶﾜｻｷ","prefecture":"高知県","city":"四万十市","street":"西土佐江川崎"},{"zipCode":"7871615","prefectureKana":"ｺｳﾁｹﾝ","cityKana":"ｼﾏﾝﾄｼ","streetKana":"ﾆｼﾄｻｵｵﾐﾔ","prefecture":"高知県","city":"四万十市","street":"西土佐大宮"},{"zipCode":"7871326","prefectureKana":"ｺｳﾁｹﾝ","cityKana":"ｼﾏﾝﾄｼ","streetKana":"ﾆｼﾄｻｵｸﾔﾅｲ","prefecture":"高知県","city":"四万十市","street":"西土佐奥屋内"},{"zipCode":"7871322","prefectureKana":"ｺｳﾁｹﾝ","cityKana":"ｼﾏﾝﾄｼ","streetKana":"ﾆｼﾄｻｶﾖｳ","prefecture":"高知県","city":"四万十市","street":"西土佐茅生"},{"zipCode":"7871325","prefectureKana":"ｺｳﾁｹﾝ","cityKana":"ｼﾏﾝﾄｼ","streetKana":"ﾆｼﾄｻｸｷ","prefecture":"高知県","city":"四万十市","street":"西土佐玖木"},{"zipCode":"7871324","prefectureKana":"ｺｳﾁｹﾝ","cityKana":"ｼﾏﾝﾄｼ","streetKana":"ﾆｼﾄｻｸﾁﾔﾅｲ","prefecture":"高知県","city":"四万十市","street":"西土佐口屋内"},{"zipCode":"7871617","prefectureKana":"ｺｳﾁｹﾝ","cityKana":"ｼﾏﾝﾄｼ","streetKana":"ﾆｼﾄｻｼﾓｲｴｼﾞ","prefecture":"高知県","city":"四万十市","street":"西土佐下家地"},{"zipCode":"7871616","prefectureKana":"ｺｳﾁｹﾝ","cityKana":"ｼﾏﾝﾄｼ","streetKana":"ﾆｼﾄｻｽｻｷ","prefecture":"高知県","city":"四万十市","street":"西土佐須崎"},{"zipCode":"7871611","prefectureKana":"ｺｳﾁｹﾝ","cityKana":"ｼﾏﾝﾄｼ","streetKana":"ﾆｼﾄｻﾀﾁﾊﾞﾅ","prefecture":"高知県","city":"四万十市","street":"西土佐橘"},{"zipCode":"7871613","prefectureKana":"ｺｳﾁｹﾝ","cityKana":"ｼﾏﾝﾄｼ","streetKana":"ﾆｼﾄｻﾂｶﾞ","prefecture":"高知県","city":"四万十市","street":"西土佐津賀"},{"zipCode":"7871612","prefectureKana":"ｺｳﾁｹﾝ","cityKana":"ｼﾏﾝﾄｼ","streetKana":"ﾆｼﾄｻﾂﾉｶﾜ","prefecture":"高知県","city":"四万十市","street":"西土佐津野川"},{"zipCode":"7871618","prefectureKana":"ｺｳﾁｹﾝ","cityKana":"ｼﾏﾝﾄｼ","streetKana":"ﾆｼﾄｻﾅｶｲｴｼﾞ","prefecture":"高知県","city":"四万十市","street":"西土佐中家地"},{"zipCode":"7871605","prefectureKana":"ｺｳﾁｹﾝ","cityKana":"ｼﾏﾝﾄｼ","streetKana":"ﾆｼﾄｻﾅｶﾞｵｲ","prefecture":"高知県","city":"四万十市","street":"西土佐長生"},{"zipCode":"7871323","prefectureKana":"ｺｳﾁｹﾝ","cityKana":"ｼﾏﾝﾄｼ","streetKana":"ﾆｼﾄｻﾅｶﾊﾞ","prefecture":"高知県","city":"四万十市","street":"西土佐中半"},{"zipCode":"7871602","prefectureKana":"ｺｳﾁｹﾝ","cityKana":"ｼﾏﾝﾄｼ","streetKana":"ﾆｼﾄｻﾆｼｶﾞﾎｳ","prefecture":"高知県","city":"四万十市","street":"西土佐西ケ方"},{"zipCode":"7871606","prefectureKana":"ｺｳﾁｹﾝ","cityKana":"ｼﾏﾝﾄｼ","streetKana":"ﾆｼﾄｻﾊｹﾞ","prefecture":"高知県","city":"四万十市","street":"西土佐半家"},{"zipCode":"7871604","prefectureKana":"ｺｳﾁｹﾝ","cityKana":"ｼﾏﾝﾄｼ","streetKana":"ﾆｼﾄｻﾌｼﾞﾉｶﾜ","prefecture":"高知県","city":"四万十市","street":"西土佐藤ノ川"},{"zipCode":"7871603","prefectureKana":"ｺｳﾁｹﾝ","cityKana":"ｼﾏﾝﾄｼ","streetKana":"ﾆｼﾄｻﾓﾁｲ","prefecture":"高知県","city":"四万十市","street":"西土佐用井"},{"zipCode":"7871614","prefectureKana":"ｺｳﾁｹﾝ","cityKana":"ｼﾏﾝﾄｼ","streetKana":"ﾆｼﾄｻﾔﾌﾞｶﾞｲﾁ","prefecture":"高知県","city":"四万十市","street":"西土佐薮ケ市"},{"zipCode":"7870020","prefectureKana":"ｺｳﾁｹﾝ","cityKana":"ｼﾏﾝﾄｼ","streetKana":"ﾆｭｳﾀ","prefecture":"高知県","city":"四万十市","street":"入田"},{"zipCode":"7870162","prefectureKana":"ｺｳﾁｹﾝ","cityKana":"ｼﾏﾝﾄｼ","streetKana":"ﾊﾂｻﾞｷ","prefecture":"高知県","city":"四万十市","street":"初崎"},{"zipCode":"7870154","prefectureKana":"ｺｳﾁｹﾝ","cityKana":"ｼﾏﾝﾄｼ","streetKana":"ﾋﾗﾉ","prefecture":"高知県","city":"四万十市","street":"平野"},{"zipCode":"7870159","prefectureKana":"ｺｳﾁｹﾝ","cityKana":"ｼﾏﾝﾄｼ","streetKana":"ﾌｶｷ","prefecture":"高知県","city":"四万十市","street":"深木"},{"zipCode":"7871444","prefectureKana":"ｺｳﾁｹﾝ","cityKana":"ｼﾏﾝﾄｼ","streetKana":"ﾌｼﾞ","prefecture":"高知県","city":"四万十市","street":"藤"},{"zipCode":"7870153","prefectureKana":"ｺｳﾁｹﾝ","cityKana":"ｼﾏﾝﾄｼ","streetKana":"ﾌﾀﾐ","prefecture":"高知県","city":"四万十市","street":"双海"},{"zipCode":"7870017","prefectureKana":"ｺｳﾁｹﾝ","cityKana":"ｼﾏﾝﾄｼ","streetKana":"ﾌﾊﾞ","prefecture":"高知県","city":"四万十市","street":"不破"},{"zipCode":"7870018","prefectureKana":"ｺｳﾁｹﾝ","cityKana":"ｼﾏﾝﾄｼ","streetKana":"ﾌﾊﾞｶﾐﾏﾁ","prefecture":"高知県","city":"四万十市","street":"不破上町"},{"zipCode":"7870160","prefectureKana":"ｺｳﾁｹﾝ","cityKana":"ｼﾏﾝﾄｼ","streetKana":"ﾏｻｷ","prefecture":"高知県","city":"四万十市","street":"間崎"},{"zipCode":"7871221","prefectureKana":"ｺｳﾁｹﾝ","cityKana":"ｼﾏﾝﾄｼ","streetKana":"ﾐｻﾄ","prefecture":"高知県","city":"四万十市","street":"三里"},{"zipCode":"7871555","prefectureKana":"ｺｳﾁｹﾝ","cityKana":"ｼﾏﾝﾄｼ","streetKana":"ﾐﾂﾏﾀ","prefecture":"高知県","city":"四万十市","street":"三ツ又"},{"zipCode":"7870665","prefectureKana":"ｺｳﾁｹﾝ","cityKana":"ｼﾏﾝﾄｼ","streetKana":"ﾓﾘｻﾜ","prefecture":"高知県","city":"四万十市","street":"森沢"},{"zipCode":"7870008","prefectureKana":"ｺｳﾁｹﾝ","cityKana":"ｼﾏﾝﾄｼ","streetKana":"ﾔｽﾅﾐ","prefecture":"高知県","city":"四万十市","street":"安並"},{"zipCode":"7870157","prefectureKana":"ｺｳﾁｹﾝ","cityKana":"ｼﾏﾝﾄｼ","streetKana":"ﾔﾏﾁ","prefecture":"高知県","city":"四万十市","street":"山路"},{"zipCode":"7870772","prefectureKana":"ｺｳﾁｹﾝ","cityKana":"ｼﾏﾝﾄｼ","streetKana":"ﾖｺｾﾞ","prefecture":"高知県","city":"四万十市","street":"横瀬"},{"zipCode":"7871104","prefectureKana":"ｺｳﾁｹﾝ","cityKana":"ｼﾏﾝﾄｼ","streetKana":"ﾜｶﾌｼﾞ","prefecture":"高知県","city":"四万十市","street":"若藤"},{"zipCode":"7870050","prefectureKana":"ｺｳﾁｹﾝ","cityKana":"ｼﾏﾝﾄｼ","streetKana":"ﾜﾀﾘｶﾞﾜ","prefecture":"高知県","city":"四万十市","street":"渡川"},{"zipCode":"7871443","prefectureKana":"ｺｳﾁｹﾝ","cityKana":"ｼﾏﾝﾄｼ","streetKana":"ﾜﾗﾋﾞｵｶｵﾂ","prefecture":"高知県","city":"四万十市","street":"蕨岡乙"},{"zipCode":"7871442","prefectureKana":"ｺｳﾁｹﾝ","cityKana":"ｼﾏﾝﾄｼ","streetKana":"ﾜﾗﾋﾞｵｶｺｳ","prefecture":"高知県","city":"四万十市","street":"蕨岡甲"},{"zipCode":"7870800","prefectureKana":"ｺｳﾁｹﾝ","cityKana":"ﾊﾀｸﾞﾝﾐﾊﾗﾑﾗ","streetKana":"ｲｶﾆｹｲｻｲｶﾞﾅｲﾊﾞｱｲ","prefecture":"高知県","city":"幡多郡三原村","street":"以下に掲載がない場合"},{"zipCode":"7870806","prefectureKana":"ｺｳﾁｹﾝ","cityKana":"ﾊﾀｸﾞﾝﾐﾊﾗﾑﾗ","streetKana":"ｵｵｶﾐｳﾁ","prefecture":"高知県","city":"幡多郡三原村","street":"狼内"},{"zipCode":"7870804","prefectureKana":"ｺｳﾁｹﾝ","cityKana":"ﾊﾀｸﾞﾝﾐﾊﾗﾑﾗ","streetKana":"ｶﾐｼﾓﾅｶﾞﾀﾆ","prefecture":"高知県","city":"幡多郡三原村","street":"上下長谷"},{"zipCode":"7870805","prefectureKana":"ｺｳﾁｹﾝ","cityKana":"ﾊﾀｸﾞﾝﾐﾊﾗﾑﾗ","streetKana":"ｶﾐﾅｶﾞﾀﾆ","prefecture":"高知県","city":"幡多郡三原村","street":"上長谷"},{"zipCode":"7870815","prefectureKana":"ｺｳﾁｹﾝ","cityKana":"ﾊﾀｸﾞﾝﾐﾊﾗﾑﾗ","streetKana":"ｶﾒﾉｶﾜ","prefecture":"高知県","city":"幡多郡三原村","street":"亀ノ川"},{"zipCode":"7870803","prefectureKana":"ｺｳﾁｹﾝ","cityKana":"ﾊﾀｸﾞﾝﾐﾊﾗﾑﾗ","streetKana":"ｸﾙｽﾉ","prefecture":"高知県","city":"幡多郡三原村","street":"来栖野"},{"zipCode":"7870816","prefectureKana":"ｺｳﾁｹﾝ","cityKana":"ﾊﾀｸﾞﾝﾐﾊﾗﾑﾗ","streetKana":"ｼﾀｷﾞﾘ","prefecture":"高知県","city":"幡多郡三原村","street":"下切"},{"zipCode":"7870812","prefectureKana":"ｺｳﾁｹﾝ","cityKana":"ﾊﾀｸﾞﾝﾐﾊﾗﾑﾗ","streetKana":"ｼﾓﾅｶﾞﾀﾆ","prefecture":"高知県","city":"幡多郡三原村","street":"下長谷"},{"zipCode":"7870807","prefectureKana":"ｺｳﾁｹﾝ","cityKana":"ﾊﾀｸﾞﾝﾐﾊﾗﾑﾗ","streetKana":"ﾅﾙﾔﾏ","prefecture":"高知県","city":"幡多郡三原村","street":"成山"},{"zipCode":"7870814","prefectureKana":"ｺｳﾁｹﾝ","cityKana":"ﾊﾀｸﾞﾝﾐﾊﾗﾑﾗ","streetKana":"ﾋﾛﾉ","prefecture":"高知県","city":"幡多郡三原村","street":"広野"},{"zipCode":"7870813","prefectureKana":"ｺｳﾁｹﾝ","cityKana":"ﾊﾀｸﾞﾝﾐﾊﾗﾑﾗ","streetKana":"ﾐﾅｵ","prefecture":"高知県","city":"幡多郡三原村","street":"皆尾"},{"zipCode":"7870802","prefectureKana":"ｺｳﾁｹﾝ","cityKana":"ﾊﾀｸﾞﾝﾐﾊﾗﾑﾗ","streetKana":"ﾐﾔﾉｶﾜ","prefecture":"高知県","city":"幡多郡三原村","street":"宮ノ川"},{"zipCode":"7870801","prefectureKana":"ｺｳﾁｹﾝ","cityKana":"ﾊﾀｸﾞﾝﾐﾊﾗﾑﾗ","streetKana":"ﾕﾉｷ","prefecture":"高知県","city":"幡多郡三原村","street":"柚ノ木"},{"zipCode":"7870811","prefectureKana":"ｺｳﾁｹﾝ","cityKana":"ﾊﾀｸﾞﾝﾐﾊﾗﾑﾗ","streetKana":"ﾖｼｲ","prefecture":"高知県","city":"幡多郡三原村","street":"芳井"}]