[{"zipCode":"7890582","prefectureKana":"ｺｳﾁｹﾝ","cityKana":"ｶﾐｼ","streetKana":"ﾄｻﾔﾏﾀﾞﾁｮｳｶｸﾓﾀﾞﾆ","prefecture":"高知県","city":"香美市","street":"土佐山田町角茂谷"},{"zipCode":"7890586","prefectureKana":"ｺｳﾁｹﾝ","cityKana":"ｶﾐｼ","streetKana":"ﾄｻﾔﾏﾀﾞﾁｮｳｶｼﾉﾀﾆ","prefecture":"高知県","city":"香美市","street":"土佐山田町樫谷"},{"zipCode":"7890587","prefectureKana":"ｺｳﾁｹﾝ","cityKana":"ｶﾐｼ","streetKana":"ﾄｻﾔﾏﾀﾞﾁｮｳｶﾐｱﾅﾅｲ","prefecture":"高知県","city":"香美市","street":"土佐山田町上穴内"},{"zipCode":"7890584","prefectureKana":"ｺｳﾁｹﾝ","cityKana":"ｶﾐｼ","streetKana":"ﾄｻﾔﾏﾀﾞﾁｮｳｷﾀﾀｷﾓﾄ","prefecture":"高知県","city":"香美市","street":"土佐山田町北滝本"},{"zipCode":"7890585","prefectureKana":"ｺｳﾁｹﾝ","cityKana":"ｶﾐｼ","streetKana":"ﾄｻﾔﾏﾀﾞﾁｮｳｼｹﾞﾄｳ","prefecture":"高知県","city":"香美市","street":"土佐山田町繁藤"},{"zipCode":"7890581","prefectureKana":"ｺｳﾁｹﾝ","cityKana":"ｶﾐｼ","streetKana":"ﾄｻﾔﾏﾀﾞﾁｮｳﾆｼﾏﾀ","prefecture":"高知県","city":"香美市","street":"土佐山田町西又"},{"zipCode":"7890583","prefectureKana":"ｺｳﾁｹﾝ","cityKana":"ｶﾐｼ","streetKana":"ﾄｻﾔﾏﾀﾞﾁｮｳﾋﾗﾔﾏ(ｵｶﾀﾞﾏﾙ､ﾌﾀｺﾞｲﾜ､ﾑｶｲﾀﾞ)","prefecture":"高知県","city":"香美市","street":"土佐山田町平山（岡田丸、双子岩、向田）"},{"zipCode":"7890300","prefectureKana":"ｺｳﾁｹﾝ","cityKana":"ﾅｶﾞｵｶｸﾞﾝｵｵﾄﾖﾁｮｳ","streetKana":"ｲｶﾆｹｲｻｲｶﾞﾅｲﾊﾞｱｲ","prefecture":"高知県","city":"長岡郡大豊町","street":"以下に掲載がない場合"},{"zipCode":"7890167","prefectureKana":"ｺｳﾁｹﾝ","cityKana":"ﾅｶﾞｵｶｸﾞﾝｵｵﾄﾖﾁｮｳ","streetKana":"ｱｵｳ","prefecture":"高知県","city":"長岡郡大豊町","street":"粟生"},{"zipCode":"7890307","prefectureKana":"ｺｳﾁｹﾝ","cityKana":"ﾅｶﾞｵｶｸﾞﾝｵｵﾄﾖﾁｮｳ","streetKana":"ｱﾅﾅｲ","prefecture":"高知県","city":"長岡郡大豊町","street":"穴内"},{"zipCode":"7890237","prefectureKana":"ｺｳﾁｹﾝ","cityKana":"ﾅｶﾞｵｶｸﾞﾝｵｵﾄﾖﾁｮｳ","streetKana":"ｲｵﾉﾀﾆ","prefecture":"高知県","city":"長岡郡大豊町","street":"庵谷"},{"zipCode":"7890157","prefectureKana":"ｺｳﾁｹﾝ","cityKana":"ﾅｶﾞｵｶｸﾞﾝｵｵﾄﾖﾁｮｳ","streetKana":"ｲｶﾀﾞｷﾞ","prefecture":"高知県","city":"長岡郡大豊町","street":"筏木"},{"zipCode":"7890233","prefectureKana":"ｺｳﾁｹﾝ","cityKana":"ﾅｶﾞｵｶｸﾞﾝｵｵﾄﾖﾁｮｳ","streetKana":"ｲｿﾀﾞﾆ","prefecture":"高知県","city":"長岡郡大豊町","street":"磯谷"},{"zipCode":"7890158","prefectureKana":"ｺｳﾁｹﾝ","cityKana":"ﾅｶﾞｵｶｸﾞﾝｵｵﾄﾖﾁｮｳ","streetKana":"ｲﾜﾊﾗ","prefecture":"高知県","city":"長岡郡大豊町","street":"岩原"},{"zipCode":"7890323","prefectureKana":"ｺｳﾁｹﾝ","cityKana":"ﾅｶﾞｵｶｸﾞﾝｵｵﾄﾖﾁｮｳ","streetKana":"ｳﾏｾﾞ","prefecture":"高知県","city":"長岡郡大豊町","street":"馬瀬"},{"zipCode":"7890306","prefectureKana":"ｺｳﾁｹﾝ","cityKana":"ﾅｶﾞｵｶｸﾞﾝｵｵﾄﾖﾁｮｳ","streetKana":"ｵｳ","prefecture":"高知県","city":"長岡郡大豊町","street":"尾生"},{"zipCode":"7890248","prefectureKana":"ｺｳﾁｹﾝ","cityKana":"ﾅｶﾞｵｶｸﾞﾝｵｵﾄﾖﾁｮｳ","streetKana":"ｵｵｸﾎﾞ","prefecture":"高知県","city":"長岡郡大豊町","street":"大久保"},{"zipCode":"7890247","prefectureKana":"ｺｳﾁｹﾝ","cityKana":"ﾅｶﾞｵｶｸﾞﾝｵｵﾄﾖﾁｮｳ","streetKana":"ｵｵｽﾅｺﾞ","prefecture":"高知県","city":"長岡郡大豊町","street":"大砂子"},{"zipCode":"7890173","prefectureKana":"ｺｳﾁｹﾝ","cityKana":"ﾅｶﾞｵｶｸﾞﾝｵｵﾄﾖﾁｮｳ","streetKana":"ｵｵﾀﾞｲﾗ(ﾀｶﾊﾗ)","prefecture":"高知県","city":"長岡郡大豊町","street":"大平（高原）"},{"zipCode":"7890169","prefectureKana":"ｺｳﾁｹﾝ","cityKana":"ﾅｶﾞｵｶｸﾞﾝｵｵﾄﾖﾁｮｳ","streetKana":"ｵｵﾀﾞｲﾗ(ｿﾉﾀ)","prefecture":"高知県","city":"長岡郡大豊町","street":"大平（その他）"},{"zipCode":"7890170","prefectureKana":"ｺｳﾁｹﾝ","cityKana":"ﾅｶﾞｵｶｸﾞﾝｵｵﾄﾖﾁｮｳ","streetKana":"ｵｵﾀﾞｷ(ｵﾁｱｲ)","prefecture":"高知県","city":"長岡郡大豊町","street":"大滝（落合）"},{"zipCode":"7890171","prefectureKana":"ｺｳﾁｹﾝ","cityKana":"ﾅｶﾞｵｶｸﾞﾝｵｵﾄﾖﾁｮｳ","streetKana":"ｵｵﾀﾞｷ(ｿﾉﾀ)","prefecture":"高知県","city":"長岡郡大豊町","street":"大滝（その他）"},{"zipCode":"7890316","prefectureKana":"ｺｳﾁｹﾝ","cityKana":"ﾅｶﾞｵｶｸﾞﾝｵｵﾄﾖﾁｮｳ","streetKana":"ｵｶﾞﾜ","prefecture":"高知県","city":"長岡郡大豊町","street":"小川"},{"zipCode":"7890231","prefectureKana":"ｺｳﾁｹﾝ","cityKana":"ﾅｶﾞｵｶｸﾞﾝｵｵﾄﾖﾁｮｳ","streetKana":"ｵｸｵｵﾀ","prefecture":"高知県","city":"長岡郡大豊町","street":"奥大田"},{"zipCode":"7890321","prefectureKana":"ｺｳﾁｹﾝ","cityKana":"ﾅｶﾞｵｶｸﾞﾝｵｵﾄﾖﾁｮｳ","streetKana":"ｶｸﾓﾀﾞﾆ","prefecture":"高知県","city":"長岡郡大豊町","street":"角茂谷"},{"zipCode":"7890232","prefectureKana":"ｺｳﾁｹﾝ","cityKana":"ﾅｶﾞｵｶｸﾞﾝｵｵﾄﾖﾁｮｳ","streetKana":"ｶｼﾞｶﾞｳﾁ(ｲｼﾄﾞｳ､ｻｶﾞｲ)","prefecture":"高知県","city":"長岡郡大豊町","street":"梶ケ内（石堂、佐賀井）"},{"zipCode":"7890428","prefectureKana":"ｺｳﾁｹﾝ","cityKana":"ﾅｶﾞｵｶｸﾞﾝｵｵﾄﾖﾁｮｳ","streetKana":"ｶｽﾞﾗﾜﾗ(ﾁﾉﾉ)","prefecture":"高知県","city":"長岡郡大豊町","street":"葛原（千野々）"},{"zipCode":"7890302","prefectureKana":"ｺｳﾁｹﾝ","cityKana":"ﾅｶﾞｵｶｸﾞﾝｵｵﾄﾖﾁｮｳ","streetKana":"ｶｽﾞﾗﾜﾗ(ｿﾉﾀ)","prefecture":"高知県","city":"長岡郡大豊町","street":"葛原（その他）"},{"zipCode":"7890252","prefectureKana":"ｺｳﾁｹﾝ","cityKana":"ﾅｶﾞｵｶｸﾞﾝｵｵﾄﾖﾁｮｳ","streetKana":"ｶﾐﾋｶﾞｼ","prefecture":"高知県","city":"長岡郡大豊町","street":"上東"},{"zipCode":"7890172","prefectureKana":"ｺｳﾁｹﾝ","cityKana":"ﾅｶﾞｵｶｸﾞﾝｵｵﾄﾖﾁｮｳ","streetKana":"ｶﾜｲ","prefecture":"高知県","city":"長岡郡大豊町","street":"川井"},{"zipCode":"7890303","prefectureKana":"ｺｳﾁｹﾝ","cityKana":"ﾅｶﾞｵｶｸﾞﾝｵｵﾄﾖﾁｮｳ","streetKana":"ｶﾜｸﾞﾁ","prefecture":"高知県","city":"長岡郡大豊町","street":"川口"},{"zipCode":"7890313","prefectureKana":"ｺｳﾁｹﾝ","cityKana":"ﾅｶﾞｵｶｸﾞﾝｵｵﾄﾖﾁｮｳ","streetKana":"ｶﾜｸﾞﾁﾐﾅﾐ","prefecture":"高知県","city":"長岡郡大豊町","street":"川口南"},{"zipCode":"7890241","prefectureKana":"ｺｳﾁｹﾝ","cityKana":"ﾅｶﾞｵｶｸﾞﾝｵｵﾄﾖﾁｮｳ","streetKana":"ｶﾜﾄﾞ","prefecture":"高知県","city":"長岡郡大豊町","street":"川戸"},{"zipCode":"7890325","prefectureKana":"ｺｳﾁｹﾝ","cityKana":"ﾅｶﾞｵｶｸﾞﾝｵｵﾄﾖﾁｮｳ","streetKana":"ｷﾀｶﾞﾜ","prefecture":"高知県","city":"長岡郡大豊町","street":"北川"},{"zipCode":"7890324","prefectureKana":"ｺｳﾁｹﾝ","cityKana":"ﾅｶﾞｵｶｸﾞﾝｵｵﾄﾖﾁｮｳ","streetKana":"ｸｽﾉｷ","prefecture":"高知県","city":"長岡郡大豊町","street":"久寿軒"},{"zipCode":"7890250","prefectureKana":"ｺｳﾁｹﾝ","cityKana":"ﾅｶﾞｵｶｸﾞﾝｵｵﾄﾖﾁｮｳ","streetKana":"ｸﾛｲｼ","prefecture":"高知県","city":"長岡郡大豊町","street":"黒石"},{"zipCode":"7890255","prefectureKana":"ｺｳﾁｹﾝ","cityKana":"ﾅｶﾞｵｶｸﾞﾝｵｵﾄﾖﾁｮｳ","streetKana":"ｻｶﾞﾔﾏ","prefecture":"高知県","city":"長岡郡大豊町","street":"佐賀山"},{"zipCode":"7890305","prefectureKana":"ｺｳﾁｹﾝ","cityKana":"ﾅｶﾞｵｶｸﾞﾝｵｵﾄﾖﾁｮｳ","streetKana":"ｼｷﾉｲﾜ","prefecture":"高知県","city":"長岡郡大豊町","street":"式岩"},{"zipCode":"7890311","prefectureKana":"ｺｳﾁｹﾝ","cityKana":"ﾅｶﾞｵｶｸﾞﾝｵｵﾄﾖﾁｮｳ","streetKana":"ｽｷﾞ","prefecture":"高知県","city":"長岡郡大豊町","street":"杉"},{"zipCode":"7890312","prefectureKana":"ｺｳﾁｹﾝ","cityKana":"ﾅｶﾞｵｶｸﾞﾝｵｵﾄﾖﾁｮｳ","streetKana":"ﾀｶｽﾞ","prefecture":"高知県","city":"長岡郡大豊町","street":"高須"},{"zipCode":"7890426","prefectureKana":"ｺｳﾁｹﾝ","cityKana":"ﾅｶﾞｵｶｸﾞﾝｵｵﾄﾖﾁｮｳ","streetKana":"ﾀｼﾞｶﾜｶﾐﾐｮｳ","prefecture":"高知県","city":"長岡郡大豊町","street":"立川上名"},{"zipCode":"7890427","prefectureKana":"ｺｳﾁｹﾝ","cityKana":"ﾅｶﾞｵｶｸﾞﾝｵｵﾄﾖﾁｮｳ","streetKana":"ﾀｼﾞｶﾜｼﾓﾐｮｳ","prefecture":"高知県","city":"長岡郡大豊町","street":"立川下名"},{"zipCode":"7890168","prefectureKana":"ｺｳﾁｹﾝ","cityKana":"ﾅｶﾞｵｶｸﾞﾝｵｵﾄﾖﾁｮｳ","streetKana":"ﾀﾂﾉ","prefecture":"高知県","city":"長岡郡大豊町","street":"立野"},{"zipCode":"7890304","prefectureKana":"ｺｳﾁｹﾝ","cityKana":"ﾅｶﾞｵｶｸﾞﾝｵｵﾄﾖﾁｮｳ","streetKana":"ﾀﾆ","prefecture":"高知県","city":"長岡郡大豊町","street":"谷"},{"zipCode":"7890301","prefectureKana":"ｺｳﾁｹﾝ","cityKana":"ﾅｶﾞｵｶｸﾞﾝｵｵﾄﾖﾁｮｳ","streetKana":"ﾂｹﾞ(ﾋﾉｷｵ)","prefecture":"高知県","city":"長岡郡大豊町","street":"津家（桧生）"},{"zipCode":"7890242","prefectureKana":"ｺｳﾁｹﾝ","cityKana":"ﾅｶﾞｵｶｸﾞﾝｵｵﾄﾖﾁｮｳ","streetKana":"ﾂﾚﾋﾞ","prefecture":"高知県","city":"長岡郡大豊町","street":"連火"},{"zipCode":"7890234","prefectureKana":"ｺｳﾁｹﾝ","cityKana":"ﾅｶﾞｵｶｸﾞﾝｵｵﾄﾖﾁｮｳ","streetKana":"ﾃﾗｳﾁ(ｵｵﾀｸﾞﾁ)","prefecture":"高知県","city":"長岡郡大豊町","street":"寺内（大田口）"},{"zipCode":"7890322","prefectureKana":"ｺｳﾁｹﾝ","cityKana":"ﾅｶﾞｵｶｸﾞﾝｵｵﾄﾖﾁｮｳ","streetKana":"ﾄﾃﾞﾉ","prefecture":"高知県","city":"長岡郡大豊町","street":"戸手野"},{"zipCode":"7890174","prefectureKana":"ｺｳﾁｹﾝ","cityKana":"ﾅｶﾞｵｶｸﾞﾝｵｵﾄﾖﾁｮｳ","streetKana":"ﾅｶｳﾁ","prefecture":"高知県","city":"長岡郡大豊町","street":"中内"},{"zipCode":"7890315","prefectureKana":"ｺｳﾁｹﾝ","cityKana":"ﾅｶﾞｵｶｸﾞﾝｵｵﾄﾖﾁｮｳ","streetKana":"ﾅｶﾑﾗﾀﾞｲｵｳ","prefecture":"高知県","city":"長岡郡大豊町","street":"中村大王"},{"zipCode":"7890251","prefectureKana":"ｺｳﾁｹﾝ","cityKana":"ﾅｶﾞｵｶｸﾞﾝｵｵﾄﾖﾁｮｳ","streetKana":"ﾅｶﾔ","prefecture":"高知県","city":"長岡郡大豊町","street":"中屋"},{"zipCode":"7890245","prefectureKana":"ｺｳﾁｹﾝ","cityKana":"ﾅｶﾞｵｶｸﾞﾝｵｵﾄﾖﾁｮｳ","streetKana":"ﾅｶﾞﾌﾁ","prefecture":"高知県","city":"長岡郡大豊町","street":"永淵"},{"zipCode":"7890165","prefectureKana":"ｺｳﾁｹﾝ","cityKana":"ﾅｶﾞｵｶｸﾞﾝｵｵﾄﾖﾁｮｳ","streetKana":"ﾆｼｶﾞﾜ","prefecture":"高知県","city":"長岡郡大豊町","street":"西川"},{"zipCode":"7890243","prefectureKana":"ｺｳﾁｹﾝ","cityKana":"ﾅｶﾞｵｶｸﾞﾝｵｵﾄﾖﾁｮｳ","streetKana":"ﾆｼｸﾎﾞ","prefecture":"高知県","city":"長岡郡大豊町","street":"西久保"},{"zipCode":"7890254","prefectureKana":"ｺｳﾁｹﾝ","cityKana":"ﾅｶﾞｵｶｸﾞﾝｵｵﾄﾖﾁｮｳ","streetKana":"ﾆｼﾄﾞｲ","prefecture":"高知県","city":"長岡郡大豊町","street":"西土居"},{"zipCode":"7890159","prefectureKana":"ｺｳﾁｹﾝ","cityKana":"ﾅｶﾞｵｶｸﾞﾝｵｵﾄﾖﾁｮｳ","streetKana":"ﾆｼﾐﾈ(ﾐﾀﾆ)","prefecture":"高知県","city":"長岡郡大豊町","street":"西峰（三谷）"},{"zipCode":"7890160","prefectureKana":"ｺｳﾁｹﾝ","cityKana":"ﾅｶﾞｵｶｸﾞﾝｵｵﾄﾖﾁｮｳ","streetKana":"ﾆｼﾐﾈ(ｿﾉﾀ)","prefecture":"高知県","city":"長岡郡大豊町","street":"西峰（その他）"},{"zipCode":"7890162","prefectureKana":"ｺｳﾁｹﾝ","cityKana":"ﾅｶﾞｵｶｸﾞﾝｵｵﾄﾖﾁｮｳ","streetKana":"ﾇﾀ","prefecture":"高知県","city":"長岡郡大豊町","street":"怒田"},{"zipCode":"7890314","prefectureKana":"ｺｳﾁｹﾝ","cityKana":"ﾅｶﾞｵｶｸﾞﾝｵｵﾄﾖﾁｮｳ","streetKana":"ﾋｳﾗ","prefecture":"高知県","city":"長岡郡大豊町","street":"日浦"},{"zipCode":"7890166","prefectureKana":"ｺｳﾁｹﾝ","cityKana":"ﾅｶﾞｵｶｸﾞﾝｵｵﾄﾖﾁｮｳ","streetKana":"ﾋｶﾞｼﾄﾞｲ","prefecture":"高知県","city":"長岡郡大豊町","street":"東土居"},{"zipCode":"7890235","prefectureKana":"ｺｳﾁｹﾝ","cityKana":"ﾅｶﾞｵｶｸﾞﾝｵｵﾄﾖﾁｮｳ","streetKana":"ﾌﾅﾄ","prefecture":"高知県","city":"長岡郡大豊町","street":"船戸"},{"zipCode":"7890163","prefectureKana":"ｺｳﾁｹﾝ","cityKana":"ﾅｶﾞｵｶｸﾞﾝｵｵﾄﾖﾁｮｳ","streetKana":"ﾐﾅﾐﾀﾞｲｵｳ","prefecture":"高知県","city":"長岡郡大豊町","street":"南大王"},{"zipCode":"7890244","prefectureKana":"ｺｳﾁｹﾝ","cityKana":"ﾅｶﾞｵｶｸﾞﾝｵｵﾄﾖﾁｮｳ","streetKana":"ﾓﾓﾊﾗ","prefecture":"高知県","city":"長岡郡大豊町","street":"桃原"},{"zipCode":"7890156","prefectureKana":"ｺｳﾁｹﾝ","cityKana":"ﾅｶﾞｵｶｸﾞﾝｵｵﾄﾖﾁｮｳ","streetKana":"ﾔｶﾜ","prefecture":"高知県","city":"長岡郡大豊町","street":"八川"},{"zipCode":"7890253","prefectureKana":"ｺｳﾁｹﾝ","cityKana":"ﾅｶﾞｵｶｸﾞﾝｵｵﾄﾖﾁｮｳ","streetKana":"ﾔｽﾉﾉ","prefecture":"高知県","city":"長岡郡大豊町","street":"安野々"},{"zipCode":"7890246","prefectureKana":"ｺｳﾁｹﾝ","cityKana":"ﾅｶﾞｵｶｸﾞﾝｵｵﾄﾖﾁｮｳ","streetKana":"ﾔﾅｷﾞﾉ","prefecture":"高知県","city":"長岡郡大豊町","street":"柳野"},{"zipCode":"7890161","prefectureKana":"ｺｳﾁｹﾝ","cityKana":"ﾅｶﾞｵｶｸﾞﾝｵｵﾄﾖﾁｮｳ","streetKana":"ﾕﾉｷ","prefecture":"高知県","city":"長岡郡大豊町","street":"柚木"},{"zipCode":"7890164","prefectureKana":"ｺｳﾁｹﾝ","cityKana":"ﾅｶﾞｵｶｸﾞﾝｵｵﾄﾖﾁｮｳ","streetKana":"ﾖｳﾈ","prefecture":"高知県","city":"長岡郡大豊町","street":"八畝"},{"zipCode":"7890236","prefectureKana":"ｺｳﾁｹﾝ","cityKana":"ﾅｶﾞｵｶｸﾞﾝｵｵﾄﾖﾁｮｳ","streetKana":"ﾜﾀﾞ(ﾒﾂｹ)","prefecture":"高知県","city":"長岡郡大豊町","street":"和田（目付）"},{"zipCode":"7891300","prefectureKana":"ｺｳﾁｹﾝ","cityKana":"ﾀｶｵｶｸﾞﾝﾅｶﾄｻﾁｮｳ","streetKana":"ｲｶﾆｹｲｻｲｶﾞﾅｲﾊﾞｱｲ","prefecture":"高知県","city":"高岡郡中土佐町","street":"以下に掲載がない場合"},{"zipCode":"7891413","prefectureKana":"ｺｳﾁｹﾝ","cityKana":"ﾀｶｵｶｸﾞﾝﾅｶﾄｻﾁｮｳ","streetKana":"ｵｵﾉﾐｱﾗｾ","prefecture":"高知県","city":"高岡郡中土佐町","street":"大野見荒瀬"},{"zipCode":"7891414","prefectureKana":"ｺｳﾁｹﾝ","cityKana":"ﾀｶｵｶｸﾞﾝﾅｶﾄｻﾁｮｳ","streetKana":"ｵｵﾉﾐｲｹﾞﾉ","prefecture":"高知県","city":"高岡郡中土佐町","street":"大野見神母野"},{"zipCode":"7891405","prefectureKana":"ｺｳﾁｹﾝ","cityKana":"ﾀｶｵｶｸﾞﾝﾅｶﾄｻﾁｮｳ","streetKana":"ｵｵﾉﾐｲｾｶﾞﾜ","prefecture":"高知県","city":"高岡郡中土佐町","street":"大野見伊勢川"},{"zipCode":"7891418","prefectureKana":"ｺｳﾁｹﾝ","cityKana":"ﾀｶｵｶｸﾞﾝﾅｶﾄｻﾁｮｳ","streetKana":"ｵｵﾉﾐｵｵﾏﾀ","prefecture":"高知県","city":"高岡郡中土佐町","street":"大野見大股"},{"zipCode":"7891412","prefectureKana":"ｺｳﾁｹﾝ","cityKana":"ﾀｶｵｶｸﾞﾝﾅｶﾄｻﾁｮｳ","streetKana":"ｵｵﾉﾐｶﾜｵｸ","prefecture":"高知県","city":"高岡郡中土佐町","street":"大野見川奥"},{"zipCode":"7891416","prefectureKana":"ｺｳﾁｹﾝ","cityKana":"ﾀｶｵｶｸﾞﾝﾅｶﾄｻﾁｮｳ","streetKana":"ｵｵﾉﾐｸﾀﾞﾙｶﾜ","prefecture":"高知県","city":"高岡郡中土佐町","street":"大野見下ル川"},{"zipCode":"7891403","prefectureKana":"ｺｳﾁｹﾝ","cityKana":"ﾀｶｵｶｸﾞﾝﾅｶﾄｻﾁｮｳ","streetKana":"ｵｵﾉﾐｸﾏｱｷ","prefecture":"高知県","city":"高岡郡中土佐町","street":"大野見久万秋"},{"zipCode":"7891419","prefectureKana":"ｺｳﾁｹﾝ","cityKana":"ﾀｶｵｶｸﾞﾝﾅｶﾄｻﾁｮｳ","streetKana":"ｵｵﾉﾐｼﾏﾉｶﾞﾜ","prefecture":"高知県","city":"高岡郡中土佐町","street":"大野見島ノ川"},{"zipCode":"7891409","prefectureKana":"ｺｳﾁｹﾝ","cityKana":"ﾀｶｵｶｸﾞﾝﾅｶﾄｻﾁｮｳ","streetKana":"ｵｵﾉﾐﾀｹﾊﾗ","prefecture":"高知県","city":"高岡郡中土佐町","street":"大野見竹原"},{"zipCode":"7891410","prefectureKana":"ｺｳﾁｹﾝ","cityKana":"ﾀｶｵｶｸﾞﾝﾅｶﾄｻﾁｮｳ","streetKana":"ｵｵﾉﾐﾂｶﾞﾉｶﾜ","prefecture":"高知県","city":"高岡郡中土佐町","street":"大野見栂ノ川"},{"zipCode":"7891415","prefectureKana":"ｺｳﾁｹﾝ","cityKana":"ﾀｶｵｶｸﾞﾝﾅｶﾄｻﾁｮｳ","streetKana":"ｵｵﾉﾐﾃﾗﾉ","prefecture":"高知県","city":"高岡郡中土佐町","street":"大野見寺野"},{"zipCode":"7891411","prefectureKana":"ｺｳﾁｹﾝ","cityKana":"ﾀｶｵｶｸﾞﾝﾅｶﾄｻﾁｮｳ","streetKana":"ｵｵﾉﾐﾄｺﾛﾉ","prefecture":"高知県","city":"高岡郡中土佐町","street":"大野見野老野"},{"zipCode":"7891408","prefectureKana":"ｺｳﾁｹﾝ","cityKana":"ﾀｶｵｶｸﾞﾝﾅｶﾄｻﾁｮｳ","streetKana":"ｵｵﾉﾐﾅｶﾞﾉ","prefecture":"高知県","city":"高岡郡中土佐町","street":"大野見長野"},{"zipCode":"7891404","prefectureKana":"ｺｳﾁｹﾝ","cityKana":"ﾀｶｵｶｸﾞﾝﾅｶﾄｻﾁｮｳ","streetKana":"ｵｵﾉﾐﾅﾛ","prefecture":"高知県","city":"高岡郡中土佐町","street":"大野見奈路"},{"zipCode":"7891417","prefectureKana":"ｺｳﾁｹﾝ","cityKana":"ﾀｶｵｶｸﾞﾝﾅｶﾄｻﾁｮｳ","streetKana":"ｵｵﾉﾐﾊｷﾞﾅｶ","prefecture":"高知県","city":"高岡郡中土佐町","street":"大野見萩中"},{"zipCode":"7891402","prefectureKana":"ｺｳﾁｹﾝ","cityKana":"ﾀｶｵｶｸﾞﾝﾅｶﾄｻﾁｮｳ","streetKana":"ｵｵﾉﾐﾊｼﾀﾞﾆ","prefecture":"高知県","city":"高岡郡中土佐町","street":"大野見橋谷"},{"zipCode":"7891406","prefectureKana":"ｺｳﾁｹﾝ","cityKana":"ﾀｶｵｶｸﾞﾝﾅｶﾄｻﾁｮｳ","streetKana":"ｵｵﾉﾐﾏｷﾉﾉ","prefecture":"高知県","city":"高岡郡中土佐町","street":"大野見槇野々"},{"zipCode":"7891407","prefectureKana":"ｺｳﾁｹﾝ","cityKana":"ﾀｶｵｶｸﾞﾝﾅｶﾄｻﾁｮｳ","streetKana":"ｵｵﾉﾐﾐﾂﾏﾀ","prefecture":"高知県","city":"高岡郡中土佐町","street":"大野見三ツ又"},{"zipCode":"7891401","prefectureKana":"ｺｳﾁｹﾝ","cityKana":"ﾀｶｵｶｸﾞﾝﾅｶﾄｻﾁｮｳ","streetKana":"ｵｵﾉﾐﾖｼﾉ","prefecture":"高知県","city":"高岡郡中土佐町","street":"大野見吉野"},{"zipCode":"7891302","prefectureKana":"ｺｳﾁｹﾝ","cityKana":"ﾀｶｵｶｸﾞﾝﾅｶﾄｻﾁｮｳ","streetKana":"ｶﾐﾉｶｴ","prefecture":"高知県","city":"高岡郡中土佐町","street":"上ノ加江"},{"zipCode":"7891301","prefectureKana":"ｺｳﾁｹﾝ","cityKana":"ﾀｶｵｶｸﾞﾝﾅｶﾄｻﾁｮｳ","streetKana":"ｸﾚ","prefecture":"高知県","city":"高岡郡中土佐町","street":"久礼"},{"zipCode":"7891304","prefectureKana":"ｺｳﾁｹﾝ","cityKana":"ﾀｶｵｶｸﾞﾝﾅｶﾄｻﾁｮｳ","streetKana":"ﾔｲｶｵﾂ","prefecture":"高知県","city":"高岡郡中土佐町","street":"矢井賀乙"},{"zipCode":"7891303","prefectureKana":"ｺｳﾁｹﾝ","cityKana":"ﾀｶｵｶｸﾞﾝﾅｶﾄｻﾁｮｳ","streetKana":"ﾔｲｶｺｳ","prefecture":"高知県","city":"高岡郡中土佐町","street":"矢井賀甲"},{"zipCode":"7891200","prefectureKana":"ｺｳﾁｹﾝ","cityKana":"ﾀｶｵｶｸﾞﾝｻｶﾜﾁｮｳ","streetKana":"ｲｶﾆｹｲｻｲｶﾞﾅｲﾊﾞｱｲ","prefecture":"高知県","city":"高岡郡佐川町","street":"以下に掲載がない場合"},{"zipCode":"7891217","prefectureKana":"ｺｳﾁｹﾝ","cityKana":"ﾀｶｵｶｸﾞﾝｻｶﾜﾁｮｳ","streetKana":"ｵｵﾀｶﾜ","prefecture":"高知県","city":"高岡郡佐川町","street":"大田川"},{"zipCode":"7891202","prefectureKana":"ｺｳﾁｹﾝ","cityKana":"ﾀｶｵｶｸﾞﾝｻｶﾜﾁｮｳ","streetKana":"ｵﾂ","prefecture":"高知県","city":"高岡郡佐川町","street":"乙"},{"zipCode":"7891204","prefectureKana":"ｺｳﾁｹﾝ","cityKana":"ﾀｶｵｶｸﾞﾝｻｶﾜﾁｮｳ","streetKana":"ｶﾓ","prefecture":"高知県","city":"高岡郡佐川町","street":"加茂"},{"zipCode":"7891235","prefectureKana":"ｺｳﾁｹﾝ","cityKana":"ﾀｶｵｶｸﾞﾝｻｶﾜﾁｮｳ","streetKana":"ｶﾜﾉｳﾁｸﾞﾐ","prefecture":"高知県","city":"高岡郡佐川町","street":"川ノ内組"},{"zipCode":"7891211","prefectureKana":"ｺｳﾁｹﾝ","cityKana":"ﾀｶｵｶｸﾞﾝｻｶﾜﾁｮｳ","streetKana":"ｸﾛﾊﾗ","prefecture":"高知県","city":"高岡郡佐川町","street":"黒原"},{"zipCode":"7891201","prefectureKana":"ｺｳﾁｹﾝ","cityKana":"ﾀｶｵｶｸﾞﾝｻｶﾜﾁｮｳ","streetKana":"ｺｳ","prefecture":"高知県","city":"高岡郡佐川町","street":"甲"},{"zipCode":"7891216","prefectureKana":"ｺｳﾁｹﾝ","cityKana":"ﾀｶｵｶｸﾞﾝｻｶﾜﾁｮｳ","streetKana":"ｼｮｳﾀﾞ","prefecture":"高知県","city":"高岡郡佐川町","street":"庄田"},{"zipCode":"7891215","prefectureKana":"ｺｳﾁｹﾝ","cityKana":"ﾀｶｵｶｸﾞﾝｻｶﾜﾁｮｳ","streetKana":"ｽﾞｲｵｳ","prefecture":"高知県","city":"高岡郡佐川町","street":"瑞応"},{"zipCode":"7891233","prefectureKana":"ｺｳﾁｹﾝ","cityKana":"ﾀｶｵｶｸﾞﾝｻｶﾜﾁｮｳ","streetKana":"ﾅｶｸﾞﾐ","prefecture":"高知県","city":"高岡郡佐川町","street":"中組"},{"zipCode":"7891214","prefectureKana":"ｺｳﾁｹﾝ","cityKana":"ﾀｶｵｶｸﾞﾝｻｶﾜﾁｮｳ","streetKana":"ﾅｶﾉ","prefecture":"高知県","city":"高岡郡佐川町","street":"中野"},{"zipCode":"7891231","prefectureKana":"ｺｳﾁｹﾝ","cityKana":"ﾀｶｵｶｸﾞﾝｻｶﾜﾁｮｳ","streetKana":"ﾅｶﾞﾉ","prefecture":"高知県","city":"高岡郡佐川町","street":"永野"},{"zipCode":"7891234","prefectureKana":"ｺｳﾁｹﾝ","cityKana":"ﾀｶｵｶｸﾞﾝｻｶﾜﾁｮｳ","streetKana":"ﾆｼｸﾞﾐ","prefecture":"高知県","city":"高岡郡佐川町","street":"西組"},{"zipCode":"7891222","prefectureKana":"ｺｳﾁｹﾝ","cityKana":"ﾀｶｵｶｸﾞﾝｻｶﾜﾁｮｳ","streetKana":"ﾆｼﾔﾏｸﾞﾐ","prefecture":"高知県","city":"高岡郡佐川町","street":"西山組"},{"zipCode":"7891223","prefectureKana":"ｺｳﾁｹﾝ","cityKana":"ﾀｶｵｶｸﾞﾝｻｶﾜﾁｮｳ","streetKana":"ﾆｼﾔﾏｺｳ","prefecture":"高知県","city":"高岡郡佐川町","street":"西山耕"},{"zipCode":"7891232","prefectureKana":"ｺｳﾁｹﾝ","cityKana":"ﾀｶｵｶｸﾞﾝｻｶﾜﾁｮｳ","streetKana":"ﾋｶﾞｼｸﾞﾐ","prefecture":"高知県","city":"高岡郡佐川町","street":"東組"},{"zipCode":"7891218","prefectureKana":"ｺｳﾁｹﾝ","cityKana":"ﾀｶｵｶｸﾞﾝｻｶﾜﾁｮｳ","streetKana":"ﾋﾗﾉ","prefecture":"高知県","city":"高岡郡佐川町","street":"平野"},{"zipCode":"7891213","prefectureKana":"ｺｳﾁｹﾝ","cityKana":"ﾀｶｵｶｸﾞﾝｻｶﾜﾁｮｳ","streetKana":"ﾌﾀﾂﾉ","prefecture":"高知県","city":"高岡郡佐川町","street":"二ツ野"},{"zipCode":"7891224","prefectureKana":"ｺｳﾁｹﾝ","cityKana":"ﾀｶｵｶｸﾞﾝｻｶﾜﾁｮｳ","streetKana":"ﾌﾙﾊﾀｺｳ","prefecture":"高知県","city":"高岡郡佐川町","street":"古畑耕"},{"zipCode":"7891203","prefectureKana":"ｺｳﾁｹﾝ","cityKana":"ﾀｶｵｶｸﾞﾝｻｶﾜﾁｮｳ","streetKana":"ﾍｲ","prefecture":"高知県","city":"高岡郡佐川町","street":"丙"},{"zipCode":"7891221","prefectureKana":"ｺｳﾁｹﾝ","cityKana":"ﾀｶｵｶｸﾞﾝｻｶﾜﾁｮｳ","streetKana":"ﾎﾝｺﾞｳｺｳ","prefecture":"高知県","city":"高岡郡佐川町","street":"本郷耕"},{"zipCode":"7891225","prefectureKana":"ｺｳﾁｹﾝ","cityKana":"ﾀｶｵｶｸﾞﾝｻｶﾜﾁｮｳ","streetKana":"ﾐﾈｺｳ","prefecture":"高知県","city":"高岡郡佐川町","street":"峰耕"},{"zipCode":"7891205","prefectureKana":"ｺｳﾁｹﾝ","cityKana":"ﾀｶｵｶｸﾞﾝｻｶﾜﾁｮｳ","streetKana":"ﾑﾛﾊﾗ","prefecture":"高知県","city":"高岡郡佐川町","street":"室原"},{"zipCode":"7891212","prefectureKana":"ｺｳﾁｹﾝ","cityKana":"ﾀｶｵｶｸﾞﾝｻｶﾜﾁｮｳ","streetKana":"ﾖﾂｼﾞﾛ","prefecture":"高知県","city":"高岡郡佐川町","street":"四ツ白"},{"zipCode":"7891900","prefectureKana":"ｺｳﾁｹﾝ","cityKana":"ﾊﾀｸﾞﾝｸﾛｼｵﾁｮｳ","streetKana":"ｲｶﾆｹｲｻｲｶﾞﾅｲﾊﾞｱｲ","prefecture":"高知県","city":"幡多郡黒潮町","street":"以下に掲載がない場合"},{"zipCode":"7891903","prefectureKana":"ｺｳﾁｹﾝ","cityKana":"ﾊﾀｸﾞﾝｸﾛｼｵﾁｮｳ","streetKana":"ｱﾘｲｶﾞﾜ","prefecture":"高知県","city":"幡多郡黒潮町","street":"有井川"},{"zipCode":"7891904","prefectureKana":"ｺｳﾁｹﾝ","cityKana":"ﾊﾀｸﾞﾝｸﾛｼｵﾁｮｳ","streetKana":"ｲﾀﾞ","prefecture":"高知県","city":"幡多郡黒潮町","street":"伊田"},{"zipCode":"7891701","prefectureKana":"ｺｳﾁｹﾝ","cityKana":"ﾊﾀｸﾞﾝｸﾛｼｵﾁｮｳ","streetKana":"ｲﾁﾉｾ","prefecture":"高知県","city":"幡多郡黒潮町","street":"市野瀬"},{"zipCode":"7891711","prefectureKana":"ｺｳﾁｹﾝ","cityKana":"ﾊﾀｸﾞﾝｸﾛｼｵﾁｮｳ","streetKana":"ｲﾁﾉﾉｶﾞﾜ","prefecture":"高知県","city":"幡多郡黒潮町","street":"市野々川"},{"zipCode":"7891934","prefectureKana":"ｺｳﾁｹﾝ","cityKana":"ﾊﾀｸﾞﾝｸﾛｼｵﾁｮｳ","streetKana":"ｲﾃﾞｸﾞﾁ","prefecture":"高知県","city":"幡多郡黒潮町","street":"出口"},{"zipCode":"7891713","prefectureKana":"ｺｳﾁｹﾝ","cityKana":"ﾊﾀｸﾞﾝｸﾛｼｵﾁｮｳ","streetKana":"ｲﾖｷ","prefecture":"高知県","city":"幡多郡黒潮町","street":"伊与喜"},{"zipCode":"7891931","prefectureKana":"ｺｳﾁｹﾝ","cityKana":"ﾊﾀｸﾞﾝｸﾛｼｵﾁｮｳ","streetKana":"ｲﾘﾉ","prefecture":"高知県","city":"幡多郡黒潮町","street":"入野"},{"zipCode":"7891911","prefectureKana":"ｺｳﾁｹﾝ","cityKana":"ﾊﾀｸﾞﾝｸﾛｼｵﾁｮｳ","streetKana":"ｳｷﾌﾞﾁ","prefecture":"高知県","city":"幡多郡黒潮町","street":"浮鞭"},{"zipCode":"7891924","prefectureKana":"ｺｳﾁｹﾝ","cityKana":"ﾊﾀｸﾞﾝｸﾛｼｵﾁｮｳ","streetKana":"ｳﾏﾆ","prefecture":"高知県","city":"幡多郡黒潮町","street":"馬荷"},{"zipCode":"7891923","prefectureKana":"ｺｳﾁｹﾝ","cityKana":"ﾊﾀｸﾞﾝｸﾛｼｵﾁｮｳ","streetKana":"ｵｵｲｶﾞﾜ","prefecture":"高知県","city":"幡多郡黒潮町","street":"大井川"},{"zipCode":"7891925","prefectureKana":"ｺｳﾁｹﾝ","cityKana":"ﾊﾀｸﾞﾝｸﾛｼｵﾁｮｳ","streetKana":"ｵｵｶﾞﾀﾀﾁﾊﾞﾅｶﾞﾜ","prefecture":"高知県","city":"幡多郡黒潮町","street":"大方橘川"},{"zipCode":"7891913","prefectureKana":"ｺｳﾁｹﾝ","cityKana":"ﾊﾀｸﾞﾝｸﾛｼｵﾁｮｳ","streetKana":"ｵｸﾐﾅﾄｶﾞﾜ","prefecture":"高知県","city":"幡多郡黒潮町","street":"奥湊川"},{"zipCode":"7891936","prefectureKana":"ｺｳﾁｹﾝ","cityKana":"ﾊﾀｸﾞﾝｸﾛｼｵﾁｮｳ","streetKana":"ｵﾝﾎﾞｳﾊﾞﾀ","prefecture":"高知県","city":"幡多郡黒潮町","street":"御坊畑"},{"zipCode":"7891705","prefectureKana":"ｺｳﾁｹﾝ","cityKana":"ﾊﾀｸﾞﾝｸﾛｼｵﾁｮｳ","streetKana":"ｶｲﾅ","prefecture":"高知県","city":"幡多郡黒潮町","street":"荷稲"},{"zipCode":"7891901","prefectureKana":"ｺｳﾁｹﾝ","cityKana":"ﾊﾀｸﾞﾝｸﾛｼｵﾁｮｳ","streetKana":"ｶﾐｶﾜｸﾞﾁ","prefecture":"高知県","city":"幡多郡黒潮町","street":"上川口"},{"zipCode":"7891935","prefectureKana":"ｺｳﾁｹﾝ","cityKana":"ﾊﾀｸﾞﾝｸﾛｼｵﾁｮｳ","streetKana":"ｶﾐﾀﾉｸﾁ","prefecture":"高知県","city":"幡多郡黒潮町","street":"上田の口"},{"zipCode":"7891921","prefectureKana":"ｺｳﾁｹﾝ","cityKana":"ﾊﾀｸﾞﾝｸﾛｼｵﾁｮｳ","streetKana":"ｶﾓﾁ","prefecture":"高知県","city":"幡多郡黒潮町","street":"加持"},{"zipCode":"7891922","prefectureKana":"ｺｳﾁｹﾝ","cityKana":"ﾊﾀｸﾞﾝｸﾛｼｵﾁｮｳ","streetKana":"ｶﾓﾁｶﾞﾜ","prefecture":"高知県","city":"幡多郡黒潮町","street":"加持川"},{"zipCode":"7891704","prefectureKana":"ｺｳﾁｹﾝ","cityKana":"ﾊﾀｸﾞﾝｸﾛｼｵﾁｮｳ","streetKana":"ｶﾜｵｸ","prefecture":"高知県","city":"幡多郡黒潮町","street":"川奥"},{"zipCode":"7891912","prefectureKana":"ｺｳﾁｹﾝ","cityKana":"ﾊﾀｸﾞﾝｸﾛｼｵﾁｮｳ","streetKana":"ｸﾁﾐﾅﾄｶﾞﾜ","prefecture":"高知県","city":"幡多郡黒潮町","street":"口湊川"},{"zipCode":"7891715","prefectureKana":"ｺｳﾁｹﾝ","cityKana":"ﾊﾀｸﾞﾝｸﾛｼｵﾁｮｳ","streetKana":"ｸﾏｲ","prefecture":"高知県","city":"幡多郡黒潮町","street":"熊井"},{"zipCode":"7891716","prefectureKana":"ｺｳﾁｹﾝ","cityKana":"ﾊﾀｸﾞﾝｸﾛｼｵﾁｮｳ","streetKana":"ｸﾏﾉｳﾗ","prefecture":"高知県","city":"幡多郡黒潮町","street":"熊野浦"},{"zipCode":"7891706","prefectureKana":"ｺｳﾁｹﾝ","cityKana":"ﾊﾀｸﾞﾝｸﾛｼｵﾁｮｳ","streetKana":"ｺｸﾞﾛﾉｶﾜ","prefecture":"高知県","city":"幡多郡黒潮町","street":"小黒ノ川"},{"zipCode":"7891703","prefectureKana":"ｺｳﾁｹﾝ","cityKana":"ﾊﾀｸﾞﾝｸﾛｼｵﾁｮｳ","streetKana":"ｺﾌﾞｼﾉｶﾜ","prefecture":"高知県","city":"幡多郡黒潮町","street":"拳ノ川"},{"zipCode":"7891723","prefectureKana":"ｺｳﾁｹﾝ","cityKana":"ﾊﾀｸﾞﾝｸﾛｼｵﾁｮｳ","streetKana":"ｻｶﾞ(ｳﾏｼﾞ)","prefecture":"高知県","city":"幡多郡黒潮町","street":"佐賀（馬地）"},{"zipCode":"7891722","prefectureKana":"ｺｳﾁｹﾝ","cityKana":"ﾊﾀｸﾞﾝｸﾛｼｵﾁｮｳ","streetKana":"ｻｶﾞ(ｻｶｵﾘ)","prefecture":"高知県","city":"幡多郡黒潮町","street":"佐賀（坂折）"},{"zipCode":"7891721","prefectureKana":"ｺｳﾁｹﾝ","cityKana":"ﾊﾀｸﾞﾝｸﾛｼｵﾁｮｳ","streetKana":"ｻｶﾞ(ﾅｶｶﾄﾞ)","prefecture":"高知県","city":"幡多郡黒潮町","street":"佐賀（中角）"},{"zipCode":"7891724","prefectureKana":"ｺｳﾁｹﾝ","cityKana":"ﾊﾀｸﾞﾝｸﾛｼｵﾁｮｳ","streetKana":"ｻｶﾞ(ﾖｺﾊﾏ)","prefecture":"高知県","city":"幡多郡黒潮町","street":"佐賀（横浜）"},{"zipCode":"7891720","prefectureKana":"ｺｳﾁｹﾝ","cityKana":"ﾊﾀｸﾞﾝｸﾛｼｵﾁｮｳ","streetKana":"ｻｶﾞ(ｿﾉﾀ)","prefecture":"高知県","city":"幡多郡黒潮町","street":"佐賀（その他）"},{"zipCode":"7891702","prefectureKana":"ｺｳﾁｹﾝ","cityKana":"ﾊﾀｸﾞﾝｸﾛｼｵﾁｮｳ","streetKana":"ｻｶﾞﾀﾁﾊﾞﾅｶﾞﾜ","prefecture":"高知県","city":"幡多郡黒潮町","street":"佐賀橘川"},{"zipCode":"7891932","prefectureKana":"ｺｳﾁｹﾝ","cityKana":"ﾊﾀｸﾞﾝｸﾛｼｵﾁｮｳ","streetKana":"ｼﾓﾀﾉｸﾁ","prefecture":"高知県","city":"幡多郡黒潮町","street":"下田の口"},{"zipCode":"7891725","prefectureKana":"ｺｳﾁｹﾝ","cityKana":"ﾊﾀｸﾞﾝｸﾛｼｵﾁｮｳ","streetKana":"ｼﾗﾊﾏ","prefecture":"高知県","city":"幡多郡黒潮町","street":"白浜"},{"zipCode":"7891708","prefectureKana":"ｺｳﾁｹﾝ","cityKana":"ﾊﾀｸﾞﾝｸﾛｼｵﾁｮｳ","streetKana":"ｽｽﾞ","prefecture":"高知県","city":"幡多郡黒潮町","street":"鈴"},{"zipCode":"7891933","prefectureKana":"ｺｳﾁｹﾝ","cityKana":"ﾊﾀｸﾞﾝｸﾛｼｵﾁｮｳ","streetKana":"ﾀﾉｳﾗ","prefecture":"高知県","city":"幡多郡黒潮町","street":"田野浦"},{"zipCode":"7891707","prefectureKana":"ｺｳﾁｹﾝ","cityKana":"ﾊﾀｸﾞﾝｸﾛｼｵﾁｮｳ","streetKana":"ﾅｶﾉｶﾜ","prefecture":"高知県","city":"幡多郡黒潮町","street":"中ノ川"},{"zipCode":"7891905","prefectureKana":"ｺｳﾁｹﾝ","cityKana":"ﾊﾀｸﾞﾝｸﾛｼｵﾁｮｳ","streetKana":"ﾅﾀﾞ","prefecture":"高知県","city":"幡多郡黒潮町","street":"灘"},{"zipCode":"7891714","prefectureKana":"ｺｳﾁｹﾝ","cityKana":"ﾊﾀｸﾞﾝｸﾛｼｵﾁｮｳ","streetKana":"ﾌｼﾞﾅﾜ","prefecture":"高知県","city":"幡多郡黒潮町","street":"藤縄"},{"zipCode":"7891712","prefectureKana":"ｺｳﾁｹﾝ","cityKana":"ﾊﾀｸﾞﾝｸﾛｼｵﾁｮｳ","streetKana":"ﾌﾊﾞﾊﾗ","prefecture":"高知県","city":"幡多郡黒潮町","street":"不破原"},{"zipCode":"7891902","prefectureKana":"ｺｳﾁｹﾝ","cityKana":"ﾊﾀｸﾞﾝｸﾛｼｵﾁｮｳ","streetKana":"ﾐﾅｶﾞﾜ","prefecture":"高知県","city":"幡多郡黒潮町","street":"蜷川"}]