[{"zipCode":"7910000","prefectureKana":"ｴﾋﾒｹﾝ","cityKana":"ﾏﾂﾔﾏｼ","streetKana":"ｲｶﾆｹｲｻｲｶﾞﾅｲﾊﾞｱｲ","prefecture":"愛媛県","city":"松山市","street":"以下に掲載がない場合"},{"zipCode":"7918076","prefectureKana":"ｴﾋﾒｹﾝ","cityKana":"ﾏﾂﾔﾏｼ","streetKana":"ｱｲﾂﾞﾏﾁ","prefecture":"愛媛県","city":"松山市","street":"会津町"},{"zipCode":"7910124","prefectureKana":"ｴﾋﾒｹﾝ","cityKana":"ﾏﾂﾔﾏｼ","streetKana":"ｱｵﾅﾐﾏﾁ","prefecture":"愛媛県","city":"松山市","street":"青波町"},{"zipCode":"7918019","prefectureKana":"ｴﾋﾒｹﾝ","cityKana":"ﾏﾂﾔﾏｼ","streetKana":"ｱｵﾊﾞﾀﾞｲ","prefecture":"愛媛県","city":"松山市","street":"青葉台"},{"zipCode":"7918024","prefectureKana":"ｴﾋﾒｹﾝ","cityKana":"ﾏﾂﾔﾏｼ","streetKana":"ｱｻﾋｶﾞｵｶ","prefecture":"愛媛県","city":"松山市","street":"朝日ケ丘"},{"zipCode":"7918023","prefectureKana":"ｴﾋﾒｹﾝ","cityKana":"ﾏﾂﾔﾏｼ","streetKana":"ｱｻﾐ","prefecture":"愛媛県","city":"松山市","street":"朝美"},{"zipCode":"7918006","prefectureKana":"ｴﾋﾒｹﾝ","cityKana":"ﾏﾂﾔﾏｼ","streetKana":"ｱﾝｼﾞｮｳｼﾞﾏﾁ","prefecture":"愛媛県","city":"松山市","street":"安城寺町"},{"zipCode":"7918084","prefectureKana":"ｴﾋﾒｹﾝ","cityKana":"ﾏﾂﾔﾏｼ","streetKana":"ｲｼﾌﾛﾏﾁ","prefecture":"愛媛県","city":"松山市","street":"石風呂町"},{"zipCode":"7911114","prefectureKana":"ｴﾋﾒｹﾝ","cityKana":"ﾏﾂﾔﾏｼ","streetKana":"ｲﾄﾞﾏﾁ","prefecture":"愛媛県","city":"松山市","street":"井門町"},{"zipCode":"7911106","prefectureKana":"ｴﾋﾒｹﾝ","cityKana":"ﾏﾂﾔﾏｼ","streetKana":"ｲﾏｻﾞｲｹ","prefecture":"愛媛県","city":"松山市","street":"今在家"},{"zipCode":"7911103","prefectureKana":"ｴﾋﾒｹﾝ","cityKana":"ﾏﾂﾔﾏｼ","streetKana":"ｲﾏｻﾞｲｹﾏﾁ","prefecture":"愛媛県","city":"松山市","street":"今在家町"},{"zipCode":"7911136","prefectureKana":"ｴﾋﾒｹﾝ","cityKana":"ﾏﾂﾔﾏｼ","streetKana":"ｳｴﾉﾏﾁ","prefecture":"愛媛県","city":"松山市","street":"上野町"},{"zipCode":"7918077","prefectureKana":"ｴﾋﾒｹﾝ","cityKana":"ﾏﾂﾔﾏｼ","streetKana":"ｳﾁﾊﾏﾁｮｳ","prefecture":"愛媛県","city":"松山市","street":"内浜町"},{"zipCode":"7918051","prefectureKana":"ｴﾋﾒｹﾝ","cityKana":"ﾏﾂﾔﾏｼ","streetKana":"ｳﾒﾀﾞﾏﾁ","prefecture":"愛媛県","city":"松山市","street":"梅田町"},{"zipCode":"7914506","prefectureKana":"ｴﾋﾒｹﾝ","cityKana":"ﾏﾂﾔﾏｼ","streetKana":"ｳﾜﾏ","prefecture":"愛媛県","city":"松山市","street":"宇和間"},{"zipCode":"7911134","prefectureKana":"ｴﾋﾒｹﾝ","cityKana":"ﾏﾂﾔﾏｼ","streetKana":"ｴﾊﾞﾗﾏﾁ","prefecture":"愛媛県","city":"松山市","street":"恵原町"},{"zipCode":"7910134","prefectureKana":"ｴﾋﾒｹﾝ","cityKana":"ﾏﾂﾔﾏｼ","streetKana":"ｵｵｲﾉﾏﾁ","prefecture":"愛媛県","city":"松山市","street":"大井野町"},{"zipCode":"7918057","prefectureKana":"ｴﾋﾒｹﾝ","cityKana":"ﾏﾂﾔﾏｼ","streetKana":"ｵｵｶｶﾞ","prefecture":"愛媛県","city":"松山市","street":"大可賀"},{"zipCode":"7911126","prefectureKana":"ｴﾋﾒｹﾝ","cityKana":"ﾏﾂﾔﾏｼ","streetKana":"ｵｵﾊｼﾏﾁ","prefecture":"愛媛県","city":"松山市","street":"大橋町"},{"zipCode":"7910241","prefectureKana":"ｴﾋﾒｹﾝ","cityKana":"ﾏﾂﾔﾏｼ","streetKana":"ｵﾉﾏﾁ","prefecture":"愛媛県","city":"松山市","street":"小野町"},{"zipCode":"7914502","prefectureKana":"ｴﾋﾒｹﾝ","cityKana":"ﾏﾂﾔﾏｼ","streetKana":"ｵﾊﾞﾏ","prefecture":"愛媛県","city":"松山市","street":"小浜"},{"zipCode":"7918058","prefectureKana":"ｴﾋﾒｹﾝ","cityKana":"ﾏﾂﾔﾏｼ","streetKana":"ｶｲｶﾞﾝﾄﾞｵﾘ","prefecture":"愛媛県","city":"松山市","street":"海岸通"},{"zipCode":"7918091","prefectureKana":"ｴﾋﾒｹﾝ","cityKana":"ﾏﾂﾔﾏｼ","streetKana":"ｶﾄﾞﾀﾏﾁ","prefecture":"愛媛県","city":"松山市","street":"門田町"},{"zipCode":"7910111","prefectureKana":"ｴﾋﾒｹﾝ","cityKana":"ﾏﾂﾔﾏｼ","streetKana":"ｶﾐｲﾀﾞｲﾏﾁ","prefecture":"愛媛県","city":"松山市","street":"上伊台町"},{"zipCode":"7911124","prefectureKana":"ｴﾋﾒｹﾝ","cityKana":"ﾏﾂﾔﾏｼ","streetKana":"ｶﾐｶﾞﾜﾗﾏﾁ","prefecture":"愛媛県","city":"松山市","street":"上川原町"},{"zipCode":"7910103","prefectureKana":"ｴﾋﾒｹﾝ","cityKana":"ﾏﾂﾔﾏｼ","streetKana":"ｶﾐﾀｶﾉﾏﾁ","prefecture":"愛媛県","city":"松山市","street":"上高野町"},{"zipCode":"7914322","prefectureKana":"ｴﾋﾒｹﾝ","cityKana":"ﾏﾂﾔﾏｼ","streetKana":"ｶﾐﾇﾜ","prefecture":"愛媛県","city":"松山市","street":"上怒和"},{"zipCode":"7918004","prefectureKana":"ｴﾋﾒｹﾝ","cityKana":"ﾏﾂﾔﾏｼ","streetKana":"ｶﾓｶﾞﾜ","prefecture":"愛媛県","city":"松山市","street":"鴨川"},{"zipCode":"7910132","prefectureKana":"ｴﾋﾒｹﾝ","cityKana":"ﾏﾂﾔﾏｼ","streetKana":"ｶﾜﾅｶﾏﾁ","prefecture":"愛媛県","city":"松山市","street":"河中町"},{"zipCode":"7910129","prefectureKana":"ｴﾋﾒｹﾝ","cityKana":"ﾏﾂﾔﾏｼ","streetKana":"ｶﾜﾉｺﾞｳﾏﾁ","prefecture":"愛媛県","city":"松山市","street":"川の郷町"},{"zipCode":"7918063","prefectureKana":"ｴﾋﾒｹﾝ","cityKana":"ﾏﾂﾔﾏｼ","streetKana":"ｶﾝﾀﾞﾏﾁ","prefecture":"愛媛県","city":"松山市","street":"神田町"},{"zipCode":"7911102","prefectureKana":"ｴﾋﾒｹﾝ","cityKana":"ﾏﾂﾔﾏｼ","streetKana":"ｷｼﾏﾁ","prefecture":"愛媛県","city":"松山市","street":"来住町"},{"zipCode":"7911105","prefectureKana":"ｴﾋﾒｹﾝ","cityKana":"ﾏﾂﾔﾏｼ","streetKana":"ｷﾀｲﾄﾞ","prefecture":"愛媛県","city":"松山市","street":"北井門"},{"zipCode":"7910242","prefectureKana":"ｴﾋﾒｹﾝ","cityKana":"ﾏﾂﾔﾏｼ","streetKana":"ｷﾀｳﾒﾓﾄﾏﾁ","prefecture":"愛媛県","city":"松山市","street":"北梅本町"},{"zipCode":"7918031","prefectureKana":"ｴﾋﾒｹﾝ","cityKana":"ﾏﾂﾔﾏｼ","streetKana":"ｷﾀｻﾔﾁｮｳ","prefecture":"愛媛県","city":"松山市","street":"北斎院町"},{"zipCode":"7911104","prefectureKana":"ｴﾋﾒｹﾝ","cityKana":"ﾏﾂﾔﾏｼ","streetKana":"ｷﾀﾄﾞｲ","prefecture":"愛媛県","city":"松山市","street":"北土居"},{"zipCode":"7918041","prefectureKana":"ｴﾋﾒｹﾝ","cityKana":"ﾏﾂﾔﾏｼ","streetKana":"ｷﾀﾖｼﾀﾞﾏﾁ","prefecture":"愛媛県","city":"松山市","street":"北吉田町"},{"zipCode":"7918025","prefectureKana":"ｴﾋﾒｹﾝ","cityKana":"ﾏﾂﾔﾏｼ","streetKana":"ｷﾇﾔﾏ","prefecture":"愛媛県","city":"松山市","street":"衣山"},{"zipCode":"7918055","prefectureKana":"ｴﾋﾒｹﾝ","cityKana":"ﾏﾂﾔﾏｼ","streetKana":"ｷﾖｽﾐ","prefecture":"愛媛県","city":"松山市","street":"清住"},{"zipCode":"7910054","prefectureKana":"ｴﾋﾒｹﾝ","cityKana":"ﾏﾂﾔﾏｼ","streetKana":"ｸｳｺｳﾄﾞｵﾘ(3-7ﾁｮｳﾒ)","prefecture":"愛媛県","city":"松山市","street":"空港通（３～７丁目）"},{"zipCode":"7910150","prefectureKana":"ｴﾋﾒｹﾝ","cityKana":"ﾏﾂﾔﾏｼ","streetKana":"ｸｶﾞﾜ","prefecture":"愛媛県","city":"松山市","street":"九川"},{"zipCode":"7911132","prefectureKana":"ｴﾋﾒｹﾝ","cityKana":"ﾏﾂﾔﾏｼ","streetKana":"ｸﾀﾆﾏﾁ","prefecture":"愛媛県","city":"松山市","street":"久谷町"},{"zipCode":"7918035","prefectureKana":"ｴﾋﾒｹﾝ","cityKana":"ﾏﾂﾔﾏｼ","streetKana":"ｸﾎﾞﾀﾏﾁ","prefecture":"愛媛県","city":"松山市","street":"久保田町"},{"zipCode":"7911131","prefectureKana":"ｴﾋﾒｹﾝ","cityKana":"ﾏﾂﾔﾏｼ","streetKana":"ｸﾎﾞﾉﾏﾁ","prefecture":"愛媛県","city":"松山市","street":"窪野町"},{"zipCode":"7914507","prefectureKana":"ｴﾋﾒｹﾝ","cityKana":"ﾏﾂﾔﾏｼ","streetKana":"ｸﾏﾀ","prefecture":"愛媛県","city":"松山市","street":"熊田"},{"zipCode":"7918016","prefectureKana":"ｴﾋﾒｹﾝ","cityKana":"ﾏﾂﾔﾏｼ","streetKana":"ｸﾏﾉﾀﾞｲ","prefecture":"愛媛県","city":"松山市","street":"久万ノ台"},{"zipCode":"7911101","prefectureKana":"ｴﾋﾒｹﾝ","cityKana":"ﾏﾂﾔﾏｼ","streetKana":"ｸﾒｸﾎﾞﾀﾏﾁ","prefecture":"愛媛県","city":"松山市","street":"久米窪田町"},{"zipCode":"7914505","prefectureKana":"ｴﾋﾒｹﾝ","cityKana":"ﾏﾂﾔﾏｼ","streetKana":"ｺｳﾉｳﾗ","prefecture":"愛媛県","city":"松山市","street":"神浦"},{"zipCode":"7911125","prefectureKana":"ｴﾋﾒｹﾝ","cityKana":"ﾏﾂﾔﾏｼ","streetKana":"ｺﾑﾗﾏﾁ","prefecture":"愛媛県","city":"松山市","street":"小村町"},{"zipCode":"7910135","prefectureKana":"ｴﾋﾒｹﾝ","cityKana":"ﾏﾂﾔﾏｼ","streetKana":"ｺﾒﾉﾏﾁ","prefecture":"愛媛県","city":"松山市","street":"米野町"},{"zipCode":"7918072","prefectureKana":"ｴﾋﾒｹﾝ","cityKana":"ﾏﾂﾔﾏｼ","streetKana":"ｻｸﾗｶﾞｵｶ","prefecture":"愛媛県","city":"松山市","street":"桜ケ丘"},{"zipCode":"7910104","prefectureKana":"ｴﾋﾒｹﾝ","cityKana":"ﾏﾂﾔﾏｼ","streetKana":"ｼﾞｷﾊﾞﾏﾁ","prefecture":"愛媛県","city":"松山市","street":"食場町"},{"zipCode":"7918003","prefectureKana":"ｴﾋﾒｹﾝ","cityKana":"ﾏﾂﾔﾏｼ","streetKana":"ｼﾂｶﾜﾏﾁ","prefecture":"愛媛県","city":"松山市","street":"志津川町"},{"zipCode":"7910112","prefectureKana":"ｴﾋﾒｹﾝ","cityKana":"ﾏﾂﾔﾏｼ","streetKana":"ｼﾓｲﾀﾞｲﾏﾁ","prefecture":"愛媛県","city":"松山市","street":"下伊台町"},{"zipCode":"7910123","prefectureKana":"ｴﾋﾒｹﾝ","cityKana":"ﾏﾂﾔﾏｼ","streetKana":"ｼｭｸﾉﾏﾁ","prefecture":"愛媛県","city":"松山市","street":"宿野町"},{"zipCode":"7911133","prefectureKana":"ｴﾋﾒｹﾝ","cityKana":"ﾏﾂﾔﾏｼ","streetKana":"ｼﾞｮｳﾙﾘﾏﾁ","prefecture":"愛媛県","city":"松山市","street":"浄瑠璃町"},{"zipCode":"7918083","prefectureKana":"ｴﾋﾒｹﾝ","cityKana":"ﾏﾂﾔﾏｼ","streetKana":"ｼﾝﾊﾏﾏﾁ","prefecture":"愛媛県","city":"松山市","street":"新浜町"},{"zipCode":"7910122","prefectureKana":"ｴﾋﾒｹﾝ","cityKana":"ﾏﾂﾔﾏｼ","streetKana":"ｽｴﾏﾁ","prefecture":"愛媛県","city":"松山市","street":"末町"},{"zipCode":"7918052","prefectureKana":"ｴﾋﾒｹﾝ","cityKana":"ﾏﾂﾔﾏｼ","streetKana":"ｽｶﾞﾏﾁ","prefecture":"愛媛県","city":"松山市","street":"須賀町"},{"zipCode":"7910105","prefectureKana":"ｴﾋﾒｹﾝ","cityKana":"ﾏﾂﾔﾏｼ","streetKana":"ｽｷﾞﾀﾃﾏﾁ","prefecture":"愛媛県","city":"松山市","street":"杉立町"},{"zipCode":"7918062","prefectureKana":"ｴﾋﾒｹﾝ","cityKana":"ﾏﾂﾔﾏｼ","streetKana":"ｽﾐﾖｼ","prefecture":"愛媛県","city":"松山市","street":"住吉"},{"zipCode":"7911111","prefectureKana":"ｴﾋﾒｹﾝ","cityKana":"ﾏﾂﾔﾏｼ","streetKana":"ﾀｶｲﾏﾁ","prefecture":"愛媛県","city":"松山市","street":"高井町"},{"zipCode":"7918036","prefectureKana":"ｴﾋﾒｹﾝ","cityKana":"ﾏﾂﾔﾏｼ","streetKana":"ﾀｶｵｶﾏﾁ","prefecture":"愛媛県","city":"松山市","street":"高岡町"},{"zipCode":"7918007","prefectureKana":"ｴﾋﾒｹﾝ","cityKana":"ﾏﾂﾔﾏｼ","streetKana":"ﾀｶｷﾞﾁｮｳ","prefecture":"愛媛県","city":"松山市","street":"高木町"},{"zipCode":"7910102","prefectureKana":"ｴﾋﾒｹﾝ","cityKana":"ﾏﾂﾔﾏｼ","streetKana":"ﾀｶﾉﾏﾁ","prefecture":"愛媛県","city":"松山市","street":"高野町"},{"zipCode":"7918081","prefectureKana":"ｴﾋﾒｹﾝ","cityKana":"ﾏﾂﾔﾏｼ","streetKana":"ﾀｶﾊﾏﾏﾁ","prefecture":"愛媛県","city":"松山市","street":"高浜町"},{"zipCode":"7918079","prefectureKana":"ｴﾋﾒｹﾝ","cityKana":"ﾏﾂﾔﾏｼ","streetKana":"ﾀｶﾔﾏﾁｮｳ","prefecture":"愛媛県","city":"松山市","street":"高山町"},{"zipCode":"7918086","prefectureKana":"ｴﾋﾒｹﾝ","cityKana":"ﾏﾂﾔﾏｼ","streetKana":"ﾀﾂﾐﾁｮｳ","prefecture":"愛媛県","city":"松山市","street":"辰巳町"},{"zipCode":"7918002","prefectureKana":"ｴﾋﾒｹﾝ","cityKana":"ﾏﾂﾔﾏｼ","streetKana":"ﾀﾆﾏﾁ","prefecture":"愛媛県","city":"松山市","street":"谷町"},{"zipCode":"7910126","prefectureKana":"ｴﾋﾒｹﾝ","cityKana":"ﾏﾂﾔﾏｼ","streetKana":"ﾀﾏﾀﾆﾏﾁ","prefecture":"愛媛県","city":"松山市","street":"玉谷町"},{"zipCode":"7918015","prefectureKana":"ｴﾋﾒｹﾝ","cityKana":"ﾏﾂﾔﾏｼ","streetKana":"ﾁｭｳｵｳ","prefecture":"愛媛県","city":"松山市","street":"中央"},{"zipCode":"7911122","prefectureKana":"ｴﾋﾒｹﾝ","cityKana":"ﾏﾂﾔﾏｼ","streetKana":"ﾂﾖｼﾏﾁ","prefecture":"愛媛県","city":"松山市","street":"津吉町"},{"zipCode":"7914324","prefectureKana":"ｴﾋﾒｹﾝ","cityKana":"ﾏﾂﾔﾏｼ","streetKana":"ﾂﾜｼﾞ","prefecture":"愛媛県","city":"松山市","street":"津和地"},{"zipCode":"7911115","prefectureKana":"ｴﾋﾒｹﾝ","cityKana":"ﾏﾂﾔﾏｼ","streetKana":"ﾄﾞｲﾏﾁ","prefecture":"愛媛県","city":"松山市","street":"土居町"},{"zipCode":"7918018","prefectureKana":"ｴﾋﾒｹﾝ","cityKana":"ﾏﾂﾔﾏｼ","streetKana":"ﾄｲﾔﾁｮｳ","prefecture":"愛媛県","city":"松山市","street":"問屋町"},{"zipCode":"7918093","prefectureKana":"ｴﾋﾒｹﾝ","cityKana":"ﾏﾂﾔﾏｼ","streetKana":"ﾄﾏﾘﾏﾁ","prefecture":"愛媛県","city":"松山市","street":"泊町"},{"zipCode":"7918034","prefectureKana":"ｴﾋﾒｹﾝ","cityKana":"ﾏﾂﾔﾏｼ","streetKana":"ﾄﾐﾋｻﾏﾁ","prefecture":"愛媛県","city":"松山市","street":"富久町"},{"zipCode":"7918078","prefectureKana":"ｴﾋﾒｹﾝ","cityKana":"ﾏﾂﾔﾏｼ","streetKana":"ﾅｶｽｶﾞ","prefecture":"愛媛県","city":"松山市","street":"中須賀"},{"zipCode":"7911121","prefectureKana":"ｴﾋﾒｹﾝ","cityKana":"ﾏﾂﾔﾏｼ","streetKana":"ﾅｶﾉﾏﾁ","prefecture":"愛媛県","city":"松山市","street":"中野町"},{"zipCode":"7914503","prefectureKana":"ｴﾋﾒｹﾝ","cityKana":"ﾏﾂﾔﾏｼ","streetKana":"ﾅｶﾞｼ","prefecture":"愛媛県","city":"松山市","street":"長師"},{"zipCode":"7914511","prefectureKana":"ｴﾋﾒｹﾝ","cityKana":"ﾏﾂﾔﾏｼ","streetKana":"ﾅｶｼﾞﾏｱﾜｲ","prefecture":"愛媛県","city":"松山市","street":"中島粟井"},{"zipCode":"7914501","prefectureKana":"ｴﾋﾒｹﾝ","cityKana":"ﾏﾂﾔﾏｼ","streetKana":"ﾅｶｼﾞﾏｵｵｳﾗ","prefecture":"愛媛県","city":"松山市","street":"中島大浦"},{"zipCode":"7918017","prefectureKana":"ｴﾋﾒｹﾝ","cityKana":"ﾏﾂﾔﾏｼ","streetKana":"ﾆｼﾅｶﾞﾄﾁｮｳ","prefecture":"愛媛県","city":"松山市","street":"西長戸町"},{"zipCode":"7911135","prefectureKana":"ｴﾋﾒｹﾝ","cityKana":"ﾏﾂﾔﾏｼ","streetKana":"ﾆｼﾉﾏﾁ","prefecture":"愛媛県","city":"松山市","street":"西野町"},{"zipCode":"7918044","prefectureKana":"ｴﾋﾒｹﾝ","cityKana":"ﾏﾂﾔﾏｼ","streetKana":"ﾆｼﾊﾌﾞﾏﾁ","prefecture":"愛媛県","city":"松山市","street":"西垣生町"},{"zipCode":"7914509","prefectureKana":"ｴﾋﾒｹﾝ","cityKana":"ﾏﾂﾔﾏｼ","streetKana":"ﾆｮｳ","prefecture":"愛媛県","city":"松山市","street":"饒"},{"zipCode":"7914432","prefectureKana":"ｴﾋﾒｹﾝ","cityKana":"ﾏﾂﾔﾏｼ","streetKana":"ﾉｸﾞﾂﾅ","prefecture":"愛媛県","city":"松山市","street":"野忽那"},{"zipCode":"7918082","prefectureKana":"ｴﾋﾒｹﾝ","cityKana":"ﾏﾂﾔﾏｼ","streetKana":"ﾊﾞｲｼﾝｼﾞﾏﾁ","prefecture":"愛媛県","city":"松山市","street":"梅津寺町"},{"zipCode":"7910113","prefectureKana":"ｴﾋﾒｹﾝ","cityKana":"ﾏﾂﾔﾏｼ","streetKana":"ﾊｸｽｲﾀﾞｲ","prefecture":"愛媛県","city":"松山市","street":"白水台"},{"zipCode":"7914510","prefectureKana":"ｴﾋﾒｹﾝ","cityKana":"ﾏﾂﾔﾏｼ","streetKana":"ﾊﾀﾘ","prefecture":"愛媛県","city":"松山市","street":"畑里"},{"zipCode":"7918066","prefectureKana":"ｴﾋﾒｹﾝ","cityKana":"ﾏﾂﾔﾏｼ","streetKana":"ﾊﾗｲｶﾜ","prefecture":"愛媛県","city":"松山市","street":"祓川"},{"zipCode":"7918087","prefectureKana":"ｴﾋﾒｹﾝ","cityKana":"ﾏﾂﾔﾏｼ","streetKana":"ﾊﾙﾐﾁｮｳ","prefecture":"愛媛県","city":"松山市","street":"春美町"},{"zipCode":"7911123","prefectureKana":"ｴﾋﾒｹﾝ","cityKana":"ﾏﾂﾔﾏｼ","streetKana":"ﾋｶﾞｼｶﾞﾀﾏﾁ","prefecture":"愛媛県","city":"松山市","street":"東方町"},{"zipCode":"7910133","prefectureKana":"ｴﾋﾒｹﾝ","cityKana":"ﾏﾂﾔﾏｼ","streetKana":"ﾋｶﾞｼｶﾞﾜﾏﾁ","prefecture":"愛媛県","city":"松山市","street":"東川町"},{"zipCode":"7918005","prefectureKana":"ｴﾋﾒｹﾝ","cityKana":"ﾏﾂﾔﾏｼ","streetKana":"ﾋｶﾞｼﾅｶﾞﾄ","prefecture":"愛媛県","city":"松山市","street":"東長戸"},{"zipCode":"7918043","prefectureKana":"ｴﾋﾒｹﾝ","cityKana":"ﾏﾂﾔﾏｼ","streetKana":"ﾋｶﾞｼﾊﾌﾞﾏﾁ","prefecture":"愛媛県","city":"松山市","street":"東垣生町"},{"zipCode":"7918074","prefectureKana":"ｴﾋﾒｹﾝ","cityKana":"ﾏﾂﾔﾏｼ","streetKana":"ﾋｶﾞｼﾔﾏﾏﾁ","prefecture":"愛媛県","city":"松山市","street":"東山町"},{"zipCode":"7918075","prefectureKana":"ｴﾋﾒｹﾝ","cityKana":"ﾏﾂﾔﾏｼ","streetKana":"ﾋﾊﾞﾘｶﾞｵｶ","prefecture":"愛媛県","city":"松山市","street":"ひばりケ丘"},{"zipCode":"7918012","prefectureKana":"ｴﾋﾒｹﾝ","cityKana":"ﾏﾂﾔﾏｼ","streetKana":"ﾋﾒﾊﾞﾗ","prefecture":"愛媛県","city":"松山市","street":"姫原"},{"zipCode":"7910243","prefectureKana":"ｴﾋﾒｹﾝ","cityKana":"ﾏﾂﾔﾏｼ","streetKana":"ﾋﾗｲﾏﾁ","prefecture":"愛媛県","city":"松山市","street":"平井町"},{"zipCode":"7918001","prefectureKana":"ｴﾋﾒｹﾝ","cityKana":"ﾏﾂﾔﾏｼ","streetKana":"ﾋﾗﾀﾏﾁ","prefecture":"愛媛県","city":"松山市","street":"平田町"},{"zipCode":"7910128","prefectureKana":"ｴﾋﾒｹﾝ","cityKana":"ﾏﾂﾔﾏｼ","streetKana":"ﾌｸﾐｶﾞﾜﾏﾁ","prefecture":"愛媛県","city":"松山市","street":"福見川町"},{"zipCode":"7910127","prefectureKana":"ｴﾋﾒｹﾝ","cityKana":"ﾏﾂﾔﾏｼ","streetKana":"ﾌｼﾞﾉﾏﾁ","prefecture":"愛媛県","city":"松山市","street":"藤野町"},{"zipCode":"7914323","prefectureKana":"ｴﾋﾒｹﾝ","cityKana":"ﾏﾂﾔﾏｼ","streetKana":"ﾌﾀｶﾞﾐ","prefecture":"愛媛県","city":"松山市","street":"二神"},{"zipCode":"7918073","prefectureKana":"ｴﾋﾒｹﾝ","cityKana":"ﾏﾂﾔﾏｼ","streetKana":"ﾌﾈｶﾞﾀﾆﾁｮｳ","prefecture":"愛媛県","city":"松山市","street":"船ケ谷町"},{"zipCode":"7918067","prefectureKana":"ｴﾋﾒｹﾝ","cityKana":"ﾏﾂﾔﾏｼ","streetKana":"ﾌﾙﾐﾂ","prefecture":"愛媛県","city":"松山市","street":"古三津"},{"zipCode":"7918067","prefectureKana":"ｴﾋﾒｹﾝ","cityKana":"ﾏﾂﾔﾏｼ","streetKana":"ﾌﾙﾐﾂﾏﾁ","prefecture":"愛媛県","city":"松山市","street":"古三津町"},{"zipCode":"7918056","prefectureKana":"ｴﾋﾒｹﾝ","cityKana":"ﾏﾂﾔﾏｼ","streetKana":"ﾍﾞﾌﾁｮｳ","prefecture":"愛媛県","city":"松山市","street":"別府町"},{"zipCode":"7918054","prefectureKana":"ｴﾋﾒｹﾝ","cityKana":"ﾏﾂﾔﾏｼ","streetKana":"ﾏﾂｴﾁｮｳ","prefecture":"愛媛県","city":"松山市","street":"松江町"},{"zipCode":"7918071","prefectureKana":"ｴﾋﾒｹﾝ","cityKana":"ﾏﾂﾔﾏｼ","streetKana":"ﾏﾂﾉｷ","prefecture":"愛媛県","city":"松山市","street":"松ノ木"},{"zipCode":"7918022","prefectureKana":"ｴﾋﾒｹﾝ","cityKana":"ﾏﾂﾔﾏｼ","streetKana":"ﾐｻﾜ","prefecture":"愛媛県","city":"松山市","street":"美沢"},{"zipCode":"7918065","prefectureKana":"ｴﾋﾒｹﾝ","cityKana":"ﾏﾂﾔﾏｼ","streetKana":"ﾐｽｷﾞﾏﾁ","prefecture":"愛媛県","city":"松山市","street":"三杉町"},{"zipCode":"7910101","prefectureKana":"ｴﾋﾒｹﾝ","cityKana":"ﾏﾂﾔﾏｼ","streetKana":"ﾐｿﾞﾉﾍﾞﾏﾁ","prefecture":"愛媛県","city":"松山市","street":"溝辺町"},{"zipCode":"7918061","prefectureKana":"ｴﾋﾒｹﾝ","cityKana":"ﾏﾂﾔﾏｼ","streetKana":"ﾐﾂ","prefecture":"愛媛県","city":"松山市","street":"三津"},{"zipCode":"7918060","prefectureKana":"ｴﾋﾒｹﾝ","cityKana":"ﾏﾂﾔﾏｼ","streetKana":"ﾐﾂﾌﾄｳ","prefecture":"愛媛県","city":"松山市","street":"三津ふ頭"},{"zipCode":"7918068","prefectureKana":"ｴﾋﾒｹﾝ","cityKana":"ﾏﾂﾔﾏｼ","streetKana":"ﾐﾄﾞﾘｶﾞｵｶ","prefecture":"愛媛県","city":"松山市","street":"みどりケ丘"},{"zipCode":"7910244","prefectureKana":"ｴﾋﾒｹﾝ","cityKana":"ﾏﾂﾔﾏｼ","streetKana":"ﾐﾄﾞﾛﾏﾁ","prefecture":"愛媛県","city":"松山市","street":"水泥町"},{"zipCode":"7910131","prefectureKana":"ｴﾋﾒｹﾝ","cityKana":"ﾏﾂﾔﾏｼ","streetKana":"ﾐﾅｸﾁﾏﾁ","prefecture":"愛媛県","city":"松山市","street":"水口町"},{"zipCode":"7918085","prefectureKana":"ｴﾋﾒｹﾝ","cityKana":"ﾏﾂﾔﾏｼ","streetKana":"ﾐﾅﾄﾔﾏﾏﾁ","prefecture":"愛媛県","city":"松山市","street":"港山町"},{"zipCode":"7910245","prefectureKana":"ｴﾋﾒｹﾝ","cityKana":"ﾏﾂﾔﾏｼ","streetKana":"ﾐﾅﾐｳﾒﾓﾄﾏﾁ","prefecture":"愛媛県","city":"松山市","street":"南梅本町"},{"zipCode":"7918032","prefectureKana":"ｴﾋﾒｹﾝ","cityKana":"ﾏﾂﾔﾏｼ","streetKana":"ﾐﾅﾐｻﾔﾁｮｳ","prefecture":"愛媛県","city":"松山市","street":"南斎院町"},{"zipCode":"7911112","prefectureKana":"ｴﾋﾒｹﾝ","cityKana":"ﾏﾂﾔﾏｼ","streetKana":"ﾐﾅﾐﾀｶｲﾏﾁ","prefecture":"愛媛県","city":"松山市","street":"南高井町"},{"zipCode":"7911116","prefectureKana":"ｴﾋﾒｹﾝ","cityKana":"ﾏﾂﾔﾏｼ","streetKana":"ﾐﾅﾐﾄﾞｲﾏﾁ","prefecture":"愛媛県","city":"松山市","street":"南土居町"},{"zipCode":"7910114","prefectureKana":"ｴﾋﾒｹﾝ","cityKana":"ﾏﾂﾔﾏｼ","streetKana":"ﾐﾅﾐﾊｸｽｲ","prefecture":"愛媛県","city":"松山市","street":"南白水"},{"zipCode":"7918042","prefectureKana":"ｴﾋﾒｹﾝ","cityKana":"ﾏﾂﾔﾏｼ","streetKana":"ﾐﾅﾐﾖｼﾀﾞﾏﾁ","prefecture":"愛媛県","city":"松山市","street":"南吉田町"},{"zipCode":"7914504","prefectureKana":"ｴﾋﾒｹﾝ","cityKana":"ﾏﾂﾔﾏｼ","streetKana":"ﾐﾔﾉ","prefecture":"愛媛県","city":"松山市","street":"宮野"},{"zipCode":"7918027","prefectureKana":"ｴﾋﾒｹﾝ","cityKana":"ﾏﾂﾔﾏｼ","streetKana":"ﾐｮｳｼﾞﾝｵｶ","prefecture":"愛媛県","city":"松山市","street":"明神丘"},{"zipCode":"7914431","prefectureKana":"ｴﾋﾒｹﾝ","cityKana":"ﾏﾂﾔﾏｼ","streetKana":"ﾑﾂﾞｷ","prefecture":"愛媛県","city":"松山市","street":"睦月"},{"zipCode":"7914321","prefectureKana":"ｴﾋﾒｹﾝ","cityKana":"ﾏﾂﾔﾏｼ","streetKana":"ﾓﾄﾇﾜ","prefecture":"愛媛県","city":"松山市","street":"元怒和"},{"zipCode":"7918064","prefectureKana":"ｴﾋﾒｹﾝ","cityKana":"ﾏﾂﾔﾏｼ","streetKana":"ﾓﾄﾏﾁ","prefecture":"愛媛県","city":"松山市","street":"元町"},{"zipCode":"7911113","prefectureKana":"ｴﾋﾒｹﾝ","cityKana":"ﾏﾂﾔﾏｼ","streetKana":"ﾓﾘﾏﾂﾏﾁ","prefecture":"愛媛県","city":"松山市","street":"森松町"},{"zipCode":"7918013","prefectureKana":"ｴﾋﾒｹﾝ","cityKana":"ﾏﾂﾔﾏｼ","streetKana":"ﾔﾏｺﾞｴ(ﾁｮｳﾒ)","prefecture":"愛媛県","city":"松山市","street":"山越（丁目）"},{"zipCode":"7918014","prefectureKana":"ｴﾋﾒｹﾝ","cityKana":"ﾏﾂﾔﾏｼ","streetKana":"ﾔﾏｺﾞｴﾏﾁ","prefecture":"愛媛県","city":"松山市","street":"山越町"},{"zipCode":"7918026","prefectureKana":"ｴﾋﾒｹﾝ","cityKana":"ﾏﾂﾔﾏｼ","streetKana":"ﾔﾏﾆｼﾁｮｳ","prefecture":"愛媛県","city":"松山市","street":"山西町"},{"zipCode":"7910121","prefectureKana":"ｴﾋﾒｹﾝ","cityKana":"ﾏﾂﾔﾏｼ","streetKana":"ﾕﾉﾔﾏ","prefecture":"愛媛県","city":"松山市","street":"湯の山"},{"zipCode":"7910120","prefectureKana":"ｴﾋﾒｹﾝ","cityKana":"ﾏﾂﾔﾏｼ","streetKana":"ﾕﾉﾔﾏﾋｶﾞｼ","prefecture":"愛媛県","city":"松山市","street":"湯の山東"},{"zipCode":"7910125","prefectureKana":"ｴﾋﾒｹﾝ","cityKana":"ﾏﾂﾔﾏｼ","streetKana":"ﾕﾔﾏﾔﾅｷﾞ","prefecture":"愛媛県","city":"松山市","street":"湯山柳"},{"zipCode":"7918092","prefectureKana":"ｴﾋﾒｹﾝ","cityKana":"ﾏﾂﾔﾏｼ","streetKana":"ﾕﾗﾏﾁ","prefecture":"愛媛県","city":"松山市","street":"由良町"},{"zipCode":"7914508","prefectureKana":"ｴﾋﾒｹﾝ","cityKana":"ﾏﾂﾔﾏｼ","streetKana":"ﾖｼｷ","prefecture":"愛媛県","city":"松山市","street":"吉木"},{"zipCode":"7918069","prefectureKana":"ｴﾋﾒｹﾝ","cityKana":"ﾏﾂﾔﾏｼ","streetKana":"ﾖｼﾉﾁｮｳ","prefecture":"愛媛県","city":"松山市","street":"吉野町"},{"zipCode":"7918011","prefectureKana":"ｴﾋﾒｹﾝ","cityKana":"ﾏﾂﾔﾏｼ","streetKana":"ﾖｼﾌｼﾞ","prefecture":"愛媛県","city":"松山市","street":"吉藤"},{"zipCode":"7918021","prefectureKana":"ｴﾋﾒｹﾝ","cityKana":"ﾏﾂﾔﾏｼ","streetKana":"ﾛｯｹﾝﾔﾁｮｳ","prefecture":"愛媛県","city":"松山市","street":"六軒家町"},{"zipCode":"7918053","prefectureKana":"ｴﾋﾒｹﾝ","cityKana":"ﾏﾂﾔﾏｼ","streetKana":"ﾜｶﾊﾞﾁｮｳ","prefecture":"愛媛県","city":"松山市","street":"若葉町"},{"zipCode":"7910562","prefectureKana":"ｴﾋﾒｹﾝ","cityKana":"ｻｲｼﾞｮｳｼ","streetKana":"ｺﾏﾂﾁｮｳｲｼﾂﾞﾁ(ｶﾐﾄｲｼ)","prefecture":"愛媛県","city":"西条市","street":"小松町石鎚（上戸石）"},{"zipCode":"7910533","prefectureKana":"ｴﾋﾒｹﾝ","cityKana":"ｻｲｼﾞｮｳｼ","streetKana":"ﾀﾝﾊﾞﾗﾁｮｳｱｶｵ","prefecture":"愛媛県","city":"西条市","street":"丹原町明穂"},{"zipCode":"7910508","prefectureKana":"ｴﾋﾒｹﾝ","cityKana":"ｻｲｼﾞｮｳｼ","streetKana":"ﾀﾝﾊﾞﾗﾁｮｳｲｹﾀﾞ","prefecture":"愛媛県","city":"西条市","street":"丹原町池田"},{"zipCode":"7910532","prefectureKana":"ｴﾋﾒｹﾝ","cityKana":"ｻｲｼﾞｮｳｼ","streetKana":"ﾀﾝﾊﾞﾗﾁｮｳｲｼｷｮｳ","prefecture":"愛媛県","city":"西条市","street":"丹原町石経"},{"zipCode":"7910503","prefectureKana":"ｴﾋﾒｹﾝ","cityKana":"ｻｲｼﾞｮｳｼ","streetKana":"ﾀﾝﾊﾞﾗﾁｮｳｲﾏｲ","prefecture":"愛媛県","city":"西条市","street":"丹原町今井"},{"zipCode":"7910537","prefectureKana":"ｴﾋﾒｹﾝ","cityKana":"ｻｲｼﾞｮｳｼ","streetKana":"ﾀﾝﾊﾞﾗﾁｮｳｳｽｻﾞｶ","prefecture":"愛媛県","city":"西条市","street":"丹原町臼坂"},{"zipCode":"7910525","prefectureKana":"ｴﾋﾒｹﾝ","cityKana":"ｻｲｼﾞｮｳｼ","streetKana":"ﾀﾝﾊﾞﾗﾁｮｳｶﾜﾈ","prefecture":"愛媛県","city":"西条市","street":"丹原町川根"},{"zipCode":"7910502","prefectureKana":"ｴﾋﾒｹﾝ","cityKana":"ｻｲｼﾞｮｳｼ","streetKana":"ﾀﾝﾊﾞﾗﾁｮｳｶﾞﾝﾚﾝｼﾞ","prefecture":"愛媛県","city":"西条市","street":"丹原町願連寺"},{"zipCode":"7910523","prefectureKana":"ｴﾋﾒｹﾝ","cityKana":"ｻｲｼﾞｮｳｼ","streetKana":"ﾀﾝﾊﾞﾗﾁｮｳｷﾀﾀﾉ","prefecture":"愛媛県","city":"西条市","street":"丹原町北田野"},{"zipCode":"7910542","prefectureKana":"ｴﾋﾒｹﾝ","cityKana":"ｻｲｼﾞｮｳｼ","streetKana":"ﾀﾝﾊﾞﾗﾁｮｳｸｽｸﾎﾞ","prefecture":"愛媛県","city":"西条市","street":"丹原町楠窪"},{"zipCode":"7910504","prefectureKana":"ｴﾋﾒｹﾝ","cityKana":"ｻｲｼﾞｮｳｼ","streetKana":"ﾀﾝﾊﾞﾗﾁｮｳｸﾐｮｳｼﾞ","prefecture":"愛媛県","city":"西条市","street":"丹原町久妙寺"},{"zipCode":"7910541","prefectureKana":"ｴﾋﾒｹﾝ","cityKana":"ｻｲｼﾞｮｳｼ","streetKana":"ﾀﾝﾊﾞﾗﾁｮｳｸﾗｾ","prefecture":"愛媛県","city":"西条市","street":"丹原町鞍瀬"},{"zipCode":"7910531","prefectureKana":"ｴﾋﾒｹﾝ","cityKana":"ｻｲｼﾞｮｳｼ","streetKana":"ﾀﾝﾊﾞﾗﾁｮｳｸﾙﾐ","prefecture":"愛媛県","city":"西条市","street":"丹原町来見"},{"zipCode":"7910507","prefectureKana":"ｴﾋﾒｹﾝ","cityKana":"ｻｲｼﾞｮｳｼ","streetKana":"ﾀﾝﾊﾞﾗﾁｮｳｺｳﾁ","prefecture":"愛媛県","city":"西条市","street":"丹原町高知"},{"zipCode":"7910505","prefectureKana":"ｴﾋﾒｹﾝ","cityKana":"ｻｲｼﾞｮｳｼ","streetKana":"ﾀﾝﾊﾞﾗﾁｮｳｺﾀ","prefecture":"愛媛県","city":"西条市","street":"丹原町古田"},{"zipCode":"7910535","prefectureKana":"ｴﾋﾒｹﾝ","cityKana":"ｻｲｼﾞｮｳｼ","streetKana":"ﾀﾝﾊﾞﾗﾁｮｳｼｶﾜ","prefecture":"愛媛県","city":"西条市","street":"丹原町志川"},{"zipCode":"7910527","prefectureKana":"ｴﾋﾒｹﾝ","cityKana":"ｻｲｼﾞｮｳｼ","streetKana":"ﾀﾝﾊﾞﾗﾁｮｳｾｷﾔ","prefecture":"愛媛県","city":"西条市","street":"丹原町関屋"},{"zipCode":"7910524","prefectureKana":"ｴﾋﾒｹﾝ","cityKana":"ｻｲｼﾞｮｳｼ","streetKana":"ﾀﾝﾊﾞﾗﾁｮｳﾀｶﾏﾂ","prefecture":"愛媛県","city":"西条市","street":"丹原町高松"},{"zipCode":"7910526","prefectureKana":"ｴﾋﾒｹﾝ","cityKana":"ｻｲｼﾞｮｳｼ","streetKana":"ﾀﾝﾊﾞﾗﾁｮｳﾀﾀｷ","prefecture":"愛媛県","city":"西条市","street":"丹原町田滝"},{"zipCode":"7910522","prefectureKana":"ｴﾋﾒｹﾝ","cityKana":"ｻｲｼﾞｮｳｼ","streetKana":"ﾀﾝﾊﾞﾗﾁｮｳﾀﾉｳﾜｶﾞﾀ","prefecture":"愛媛県","city":"西条市","street":"丹原町田野上方"},{"zipCode":"7910510","prefectureKana":"ｴﾋﾒｹﾝ","cityKana":"ｻｲｼﾞｮｳｼ","streetKana":"ﾀﾝﾊﾞﾗﾁｮｳﾀﾝﾊﾞﾗ","prefecture":"愛媛県","city":"西条市","street":"丹原町丹原"},{"zipCode":"7910538","prefectureKana":"ｴﾋﾒｹﾝ","cityKana":"ｻｲｼﾞｮｳｼ","streetKana":"ﾀﾝﾊﾞﾗﾁｮｳﾁﾊﾗ","prefecture":"愛媛県","city":"西条市","street":"丹原町千原"},{"zipCode":"7910534","prefectureKana":"ｴﾋﾒｹﾝ","cityKana":"ｻｲｼﾞｮｳｼ","streetKana":"ﾀﾝﾊﾞﾗﾁｮｳﾃﾗｵ","prefecture":"愛媛県","city":"西条市","street":"丹原町寺尾"},{"zipCode":"7910506","prefectureKana":"ｴﾋﾒｹﾝ","cityKana":"ｻｲｼﾞｮｳｼ","streetKana":"ﾀﾝﾊﾞﾗﾁｮｳﾄｸﾉｳ","prefecture":"愛媛県","city":"西条市","street":"丹原町徳能"},{"zipCode":"7910501","prefectureKana":"ｴﾋﾒｹﾝ","cityKana":"ｻｲｼﾞｮｳｼ","streetKana":"ﾀﾝﾊﾞﾗﾁｮｳﾄｸﾉﾃﾞｻｸ","prefecture":"愛媛県","city":"西条市","street":"丹原町徳能出作"},{"zipCode":"7910521","prefectureKana":"ｴﾋﾒｹﾝ","cityKana":"ｻｲｼﾞｮｳｼ","streetKana":"ﾀﾝﾊﾞﾗﾁｮｳﾅｶﾞﾉ","prefecture":"愛媛県","city":"西条市","street":"丹原町長野"},{"zipCode":"7910543","prefectureKana":"ｴﾋﾒｹﾝ","cityKana":"ｻｲｼﾞｮｳｼ","streetKana":"ﾀﾝﾊﾞﾗﾁｮｳﾐｮｳｶﾞ","prefecture":"愛媛県","city":"西条市","street":"丹原町明河"},{"zipCode":"7910536","prefectureKana":"ｴﾋﾒｹﾝ","cityKana":"ｻｲｼﾞｮｳｼ","streetKana":"ﾀﾝﾊﾞﾗﾁｮｳﾕﾔｸﾞﾁ","prefecture":"愛媛県","city":"西条市","street":"丹原町湯谷口"},{"zipCode":"7913203","prefectureKana":"ｴﾋﾒｹﾝ","cityKana":"ｲﾖｼ","streetKana":"ﾅｶﾔﾏﾁｮｳｲｽﾞﾌﾞﾁ(ﾄﾖｵｶ･ﾋｶﾞｼﾏﾁ)","prefecture":"愛媛県","city":"伊予市","street":"中山町出渕（豊岡・東町）"},{"zipCode":"7913204","prefectureKana":"ｴﾋﾒｹﾝ","cityKana":"ｲﾖｼ","streetKana":"ﾅｶﾔﾏﾁｮｳｲｽﾞﾌﾞﾁ(ｿﾉﾀ)","prefecture":"愛媛県","city":"伊予市","street":"中山町出渕（その他）"},{"zipCode":"7913202","prefectureKana":"ｴﾋﾒｹﾝ","cityKana":"ｲﾖｼ","streetKana":"ﾅｶﾔﾏﾁｮｳｸﾘﾀﾞ","prefecture":"愛媛県","city":"伊予市","street":"中山町栗田"},{"zipCode":"7913201","prefectureKana":"ｴﾋﾒｹﾝ","cityKana":"ｲﾖｼ","streetKana":"ﾅｶﾔﾏﾁｮｳｻﾚﾀﾆ","prefecture":"愛媛県","city":"伊予市","street":"中山町佐礼谷"},{"zipCode":"7913205","prefectureKana":"ｴﾋﾒｹﾝ","cityKana":"ｲﾖｼ","streetKana":"ﾅｶﾔﾏﾁｮｳﾅｶﾔﾏ(ｲｽﾞﾐﾏﾁ)","prefecture":"愛媛県","city":"伊予市","street":"中山町中山（泉町）"},{"zipCode":"7913206","prefectureKana":"ｴﾋﾒｹﾝ","cityKana":"ｲﾖｼ","streetKana":"ﾅｶﾔﾏﾁｮｳﾅｶﾔﾏ(ｿﾉﾀ)","prefecture":"愛媛県","city":"伊予市","street":"中山町中山（その他）"},{"zipCode":"7910200","prefectureKana":"ｴﾋﾒｹﾝ","cityKana":"ﾄｳｵﾝｼ","streetKana":"ｲｶﾆｹｲｻｲｶﾞﾅｲﾊﾞｱｲ","prefecture":"愛媛県","city":"東温市","street":"以下に掲載がない場合"},{"zipCode":"7910315","prefectureKana":"ｴﾋﾒｹﾝ","cityKana":"ﾄｳｵﾝｼ","streetKana":"ｲｳﾁ","prefecture":"愛媛県","city":"東温市","street":"井内"},{"zipCode":"7910221","prefectureKana":"ｴﾋﾒｹﾝ","cityKana":"ﾄｳｵﾝｼ","streetKana":"ｳｴﾑﾗ","prefecture":"愛媛県","city":"東温市","street":"上村"},{"zipCode":"7910213","prefectureKana":"ｴﾋﾒｹﾝ","cityKana":"ﾄｳｵﾝｼ","streetKana":"ｳｼﾌﾞﾁ","prefecture":"愛媛県","city":"東温市","street":"牛渕"},{"zipCode":"7910223","prefectureKana":"ｴﾋﾒｹﾝ","cityKana":"ﾄｳｵﾝｼ","streetKana":"ｶﾐﾊﾞﾔｼ","prefecture":"愛媛県","city":"東温市","street":"上林"},{"zipCode":"7910321","prefectureKana":"ｴﾋﾒｹﾝ","cityKana":"ﾄｳｵﾝｼ","streetKana":"ｶﾜﾉｳﾁ","prefecture":"愛媛県","city":"東温市","street":"河之内"},{"zipCode":"7910303","prefectureKana":"ｴﾋﾒｹﾝ","cityKana":"ﾄｳｵﾝｼ","streetKana":"ｷﾀｶﾞﾀ","prefecture":"愛媛県","city":"東温市","street":"北方"},{"zipCode":"7910215","prefectureKana":"ｴﾋﾒｹﾝ","cityKana":"ﾄｳｵﾝｼ","streetKana":"ｷﾀﾉﾀﾞ","prefecture":"愛媛県","city":"東温市","street":"北野田"},{"zipCode":"7910204","prefectureKana":"ｴﾋﾒｹﾝ","cityKana":"ﾄｳｵﾝｼ","streetKana":"ｼﾂｶﾜ","prefecture":"愛媛県","city":"東温市","street":"志津川"},{"zipCode":"7910206","prefectureKana":"ｴﾋﾒｹﾝ","cityKana":"ﾄｳｵﾝｼ","streetKana":"ｼﾂｶﾜﾐﾅﾐ","prefecture":"愛媛県","city":"東温市","street":"志津川南"},{"zipCode":"7910222","prefectureKana":"ｴﾋﾒｹﾝ","cityKana":"ﾄｳｵﾝｼ","streetKana":"ｼﾓﾊﾞﾔｼ","prefecture":"愛媛県","city":"東温市","street":"下林"},{"zipCode":"7910311","prefectureKana":"ｴﾋﾒｹﾝ","cityKana":"ﾄｳｵﾝｼ","streetKana":"ｽﾉｳﾁｺｳ","prefecture":"愛媛県","city":"東温市","street":"則之内甲"},{"zipCode":"7910312","prefectureKana":"ｴﾋﾒｹﾝ","cityKana":"ﾄｳｵﾝｼ","streetKana":"ｽﾉｳﾁｵﾂ","prefecture":"愛媛県","city":"東温市","street":"則之内乙"},{"zipCode":"7910313","prefectureKana":"ｴﾋﾒｹﾝ","cityKana":"ﾄｳｵﾝｼ","streetKana":"ｽﾉｳﾁﾍｲ","prefecture":"愛媛県","city":"東温市","street":"則之内丙"},{"zipCode":"7910212","prefectureKana":"ｴﾋﾒｹﾝ","cityKana":"ﾄｳｵﾝｼ","streetKana":"ﾀﾉｸﾎﾞ","prefecture":"愛媛県","city":"東温市","street":"田窪"},{"zipCode":"7910322","prefectureKana":"ｴﾋﾒｹﾝ","cityKana":"ﾄｳｵﾝｼ","streetKana":"ﾅﾒｶﾞﾜ","prefecture":"愛媛県","city":"東温市","street":"滑川"},{"zipCode":"7910205","prefectureKana":"ｴﾋﾒｹﾝ","cityKana":"ﾄｳｵﾝｼ","streetKana":"ﾆｼｵｶ","prefecture":"愛媛県","city":"東温市","street":"西岡"},{"zipCode":"7910216","prefectureKana":"ｴﾋﾒｹﾝ","cityKana":"ﾄｳｵﾝｼ","streetKana":"ﾉﾀﾞ","prefecture":"愛媛県","city":"東温市","street":"野田"},{"zipCode":"7910202","prefectureKana":"ｴﾋﾒｹﾝ","cityKana":"ﾄｳｵﾝｼ","streetKana":"ﾋﾉｸﾁ","prefecture":"愛媛県","city":"東温市","street":"樋口"},{"zipCode":"7910314","prefectureKana":"ｴﾋﾒｹﾝ","cityKana":"ﾄｳｵﾝｼ","streetKana":"ﾏｾｶﾜ","prefecture":"愛媛県","city":"東温市","street":"松瀬川"},{"zipCode":"7910301","prefectureKana":"ｴﾋﾒｹﾝ","cityKana":"ﾄｳｵﾝｼ","streetKana":"ﾐﾅﾐｶﾞﾀ","prefecture":"愛媛県","city":"東温市","street":"南方"},{"zipCode":"7910214","prefectureKana":"ｴﾋﾒｹﾝ","cityKana":"ﾄｳｵﾝｼ","streetKana":"ﾐﾅﾐﾉﾀﾞ","prefecture":"愛媛県","city":"東温市","street":"南野田"},{"zipCode":"7910211","prefectureKana":"ｴﾋﾒｹﾝ","cityKana":"ﾄｳｵﾝｼ","streetKana":"ﾐﾅﾗ","prefecture":"愛媛県","city":"東温市","street":"見奈良"},{"zipCode":"7910323","prefectureKana":"ｴﾋﾒｹﾝ","cityKana":"ﾄｳｵﾝｼ","streetKana":"ﾐｮｳｶﾞ","prefecture":"愛媛県","city":"東温市","street":"明河"},{"zipCode":"7910201","prefectureKana":"ｴﾋﾒｹﾝ","cityKana":"ﾄｳｵﾝｼ","streetKana":"ﾔﾏﾉｳﾁ","prefecture":"愛媛県","city":"東温市","street":"山之内"},{"zipCode":"7910203","prefectureKana":"ｴﾋﾒｹﾝ","cityKana":"ﾄｳｵﾝｼ","streetKana":"ﾖｺｶﾞﾜﾗ","prefecture":"愛媛県","city":"東温市","street":"横河原"},{"zipCode":"7910302","prefectureKana":"ｴﾋﾒｹﾝ","cityKana":"ﾄｳｵﾝｼ","streetKana":"ﾖｼﾋｻ","prefecture":"愛媛県","city":"東温市","street":"吉久"},{"zipCode":"7911200","prefectureKana":"ｴﾋﾒｹﾝ","cityKana":"ｶﾐｳｹﾅｸﾞﾝｸﾏｺｳｹﾞﾝﾁｮｳ","streetKana":"ｲｶﾆｹｲｻｲｶﾞﾅｲﾊﾞｱｲ","prefecture":"愛媛県","city":"上浮穴郡久万高原町","street":"以下に掲載がない場合"},{"zipCode":"7911709","prefectureKana":"ｴﾋﾒｹﾝ","cityKana":"ｶﾐｳｹﾅｸﾞﾝｸﾏｺｳｹﾞﾝﾁｮｳ","streetKana":"ｱｲﾉｷ","prefecture":"愛媛県","city":"上浮穴郡久万高原町","street":"相の木"},{"zipCode":"7911705","prefectureKana":"ｴﾋﾒｹﾝ","cityKana":"ｶﾐｳｹﾅｸﾞﾝｸﾏｺｳｹﾞﾝﾁｮｳ","streetKana":"ｱｲﾉﾐﾈ","prefecture":"愛媛県","city":"上浮穴郡久万高原町","street":"相の峰"},{"zipCode":"7911505","prefectureKana":"ｴﾋﾒｹﾝ","cityKana":"ｶﾐｳｹﾅｸﾞﾝｸﾏｺｳｹﾞﾝﾁｮｳ","streetKana":"ｱﾘｴﾀﾞ","prefecture":"愛媛県","city":"上浮穴郡久万高原町","street":"有枝"},{"zipCode":"7911202","prefectureKana":"ｴﾋﾒｹﾝ","cityKana":"ｶﾐｳｹﾅｸﾞﾝｸﾏｺｳｹﾞﾝﾁｮｳ","streetKana":"ｲﾘﾉ","prefecture":"愛媛県","city":"上浮穴郡久万高原町","street":"入野"},{"zipCode":"7911504","prefectureKana":"ｴﾋﾒｹﾝ","cityKana":"ｶﾐｳｹﾅｸﾞﾝｸﾏｺｳｹﾞﾝﾁｮｳ","streetKana":"ｵｵｶﾞﾜ","prefecture":"愛媛県","city":"上浮穴郡久万高原町","street":"大川"},{"zipCode":"7911702","prefectureKana":"ｴﾋﾒｹﾝ","cityKana":"ｶﾐｳｹﾅｸﾞﾝｸﾏｺｳｹﾞﾝﾁｮｳ","streetKana":"ｵｵﾅﾙ","prefecture":"愛媛県","city":"上浮穴郡久万高原町","street":"大成"},{"zipCode":"7911703","prefectureKana":"ｴﾋﾒｹﾝ","cityKana":"ｶﾐｳｹﾅｸﾞﾝｸﾏｺｳｹﾞﾝﾁｮｳ","streetKana":"ｶｻｶﾞﾀ","prefecture":"愛媛県","city":"上浮穴郡久万高原町","street":"笠方"},{"zipCode":"7911501","prefectureKana":"ｴﾋﾒｹﾝ","cityKana":"ｶﾐｳｹﾅｸﾞﾝｸﾏｺｳｹﾞﾝﾁｮｳ","streetKana":"ｶﾐｸﾛｲﾜ","prefecture":"愛媛県","city":"上浮穴郡久万高原町","street":"上黒岩"},{"zipCode":"7911206","prefectureKana":"ｴﾋﾒｹﾝ","cityKana":"ｶﾐｳｹﾅｸﾞﾝｸﾏｺｳｹﾞﾝﾁｮｳ","streetKana":"ｶﾐﾉｼﾞﾘ","prefecture":"愛媛県","city":"上浮穴郡久万高原町","street":"上野尻"},{"zipCode":"7911211","prefectureKana":"ｴﾋﾒｹﾝ","cityKana":"ｶﾐｳｹﾅｸﾞﾝｸﾏｺｳｹﾞﾝﾁｮｳ","streetKana":"ｶﾐﾊﾀﾉｶﾜ","prefecture":"愛媛県","city":"上浮穴郡久万高原町","street":"上畑野川"},{"zipCode":"7911201","prefectureKana":"ｴﾋﾒｹﾝ","cityKana":"ｶﾐｳｹﾅｸﾞﾝｸﾏｺｳｹﾞﾝﾁｮｳ","streetKana":"ｸﾏ","prefecture":"愛媛県","city":"上浮穴郡久万高原町","street":"久万"},{"zipCode":"7911515","prefectureKana":"ｴﾋﾒｹﾝ","cityKana":"ｶﾐｳｹﾅｸﾞﾝｸﾏｺｳｹﾞﾝﾁｮｳ","streetKana":"ｸﾛﾌｼﾞｶﾞﾜ","prefecture":"愛媛県","city":"上浮穴郡久万高原町","street":"黒藤川"},{"zipCode":"7911708","prefectureKana":"ｴﾋﾒｹﾝ","cityKana":"ｶﾐｳｹﾅｸﾞﾝｸﾏｺｳｹﾞﾝﾁｮｳ","streetKana":"ｺｳﾉｺ","prefecture":"愛媛県","city":"上浮穴郡久万高原町","street":"河の子"},{"zipCode":"7911514","prefectureKana":"ｴﾋﾒｹﾝ","cityKana":"ｶﾐｳｹﾅｸﾞﾝｸﾏｺｳｹﾞﾝﾁｮｳ","streetKana":"ｻﾜﾀﾘ","prefecture":"愛媛県","city":"上浮穴郡久万高原町","street":"沢渡"},{"zipCode":"7911513","prefectureKana":"ｴﾋﾒｹﾝ","cityKana":"ｶﾐｳｹﾅｸﾞﾝｸﾏｺｳｹﾞﾝﾁｮｳ","streetKana":"ｼﾃﾞ","prefecture":"愛媛県","city":"上浮穴郡久万高原町","street":"仕出"},{"zipCode":"7911701","prefectureKana":"ｴﾋﾒｹﾝ","cityKana":"ｶﾐｳｹﾅｸﾞﾝｸﾏｺｳｹﾞﾝﾁｮｳ","streetKana":"ｼﾌﾞｸｻ","prefecture":"愛媛県","city":"上浮穴郡久万高原町","street":"渋草"},{"zipCode":"7911207","prefectureKana":"ｴﾋﾒｹﾝ","cityKana":"ｶﾐｳｹﾅｸﾞﾝｸﾏｺｳｹﾞﾝﾁｮｳ","streetKana":"ｼﾓﾉｼﾞﾘ","prefecture":"愛媛県","city":"上浮穴郡久万高原町","street":"下野尻"},{"zipCode":"7911212","prefectureKana":"ｴﾋﾒｹﾝ","cityKana":"ｶﾐｳｹﾅｸﾞﾝｸﾏｺｳｹﾞﾝﾁｮｳ","streetKana":"ｼﾓﾊﾀﾉｶﾜ","prefecture":"愛媛県","city":"上浮穴郡久万高原町","street":"下畑野川"},{"zipCode":"7911205","prefectureKana":"ｴﾋﾒｹﾝ","cityKana":"ｶﾐｳｹﾅｸﾞﾝｸﾏｺｳｹﾞﾝﾁｮｳ","streetKana":"ｽｺﾞｳ","prefecture":"愛媛県","city":"上浮穴郡久万高原町","street":"菅生"},{"zipCode":"7911223","prefectureKana":"ｴﾋﾒｹﾝ","cityKana":"ｶﾐｳｹﾅｸﾞﾝｸﾏｺｳｹﾞﾝﾁｮｳ","streetKana":"ﾁﾁﾉｶﾜ","prefecture":"愛媛県","city":"上浮穴郡久万高原町","street":"父野川"},{"zipCode":"7911221","prefectureKana":"ｴﾋﾒｹﾝ","cityKana":"ｶﾐｳｹﾅｸﾞﾝｸﾏｺｳｹﾞﾝﾁｮｳ","streetKana":"ﾂﾕﾐﾈ","prefecture":"愛媛県","city":"上浮穴郡久万高原町","street":"露峰"},{"zipCode":"7911213","prefectureKana":"ｴﾋﾒｹﾝ","cityKana":"ｶﾐｳｹﾅｸﾞﾝｸﾏｺｳｹﾞﾝﾁｮｳ","streetKana":"ﾅｵｾ","prefecture":"愛媛県","city":"上浮穴郡久万高原町","street":"直瀬"},{"zipCode":"7911707","prefectureKana":"ｴﾋﾒｹﾝ","cityKana":"ｶﾐｳｹﾅｸﾞﾝｸﾏｺｳｹﾞﾝﾁｮｳ","streetKana":"ﾅｶｸﾞﾐ","prefecture":"愛媛県","city":"上浮穴郡久万高原町","street":"中組"},{"zipCode":"7911502","prefectureKana":"ｴﾋﾒｹﾝ","cityKana":"ｶﾐｳｹﾅｸﾞﾝｸﾏｺｳｹﾞﾝﾁｮｳ","streetKana":"ﾅｶｸﾛｲﾜ","prefecture":"愛媛県","city":"上浮穴郡久万高原町","street":"中黒岩"},{"zipCode":"7911803","prefectureKana":"ｴﾋﾒｹﾝ","cityKana":"ｶﾐｳｹﾅｸﾞﾝｸﾏｺｳｹﾞﾝﾁｮｳ","streetKana":"ﾅｶﾂ","prefecture":"愛媛県","city":"上浮穴郡久万高原町","street":"中津"},{"zipCode":"7911511","prefectureKana":"ｴﾋﾒｹﾝ","cityKana":"ｶﾐｳｹﾅｸﾞﾝｸﾏｺｳｹﾞﾝﾁｮｳ","streetKana":"ﾅﾅﾄﾘ","prefecture":"愛媛県","city":"上浮穴郡久万高原町","street":"七鳥"},{"zipCode":"7911802","prefectureKana":"ｴﾋﾒｹﾝ","cityKana":"ｶﾐｳｹﾅｸﾞﾝｸﾏｺｳｹﾞﾝﾁｮｳ","streetKana":"ﾆｼﾀﾞﾆ","prefecture":"愛媛県","city":"上浮穴郡久万高原町","street":"西谷"},{"zipCode":"7911203","prefectureKana":"ｴﾋﾒｹﾝ","cityKana":"ｶﾐｳｹﾅｸﾞﾝｸﾏｺｳｹﾞﾝﾁｮｳ","streetKana":"ﾆｼﾐｮｳｼﾞﾝ","prefecture":"愛媛県","city":"上浮穴郡久万高原町","street":"西明神"},{"zipCode":"7911222","prefectureKana":"ｴﾋﾒｹﾝ","cityKana":"ｶﾐｳｹﾅｸﾞﾝｸﾏｺｳｹﾞﾝﾁｮｳ","streetKana":"ﾆﾐｮｳ","prefecture":"愛媛県","city":"上浮穴郡久万高原町","street":"二名"},{"zipCode":"7911512","prefectureKana":"ｴﾋﾒｹﾝ","cityKana":"ｶﾐｳｹﾅｸﾞﾝｸﾏｺｳｹﾞﾝﾁｮｳ","streetKana":"ﾋｶﾞｼｶﾞﾜ","prefecture":"愛媛県","city":"上浮穴郡久万高原町","street":"東川"},{"zipCode":"7911204","prefectureKana":"ｴﾋﾒｹﾝ","cityKana":"ｶﾐｳｹﾅｸﾞﾝｸﾏｺｳｹﾞﾝﾁｮｳ","streetKana":"ﾋｶﾞｼﾐｮｳｼﾞﾝ","prefecture":"愛媛県","city":"上浮穴郡久万高原町","street":"東明神"},{"zipCode":"7911503","prefectureKana":"ｴﾋﾒｹﾝ","cityKana":"ｶﾐｳｹﾅｸﾞﾝｸﾏｺｳｹﾞﾝﾁｮｳ","streetKana":"ﾋﾉｳﾗ","prefecture":"愛媛県","city":"上浮穴郡久万高原町","street":"日野浦"},{"zipCode":"7911706","prefectureKana":"ｴﾋﾒｹﾝ","cityKana":"ｶﾐｳｹﾅｸﾞﾝｸﾏｺｳｹﾞﾝﾁｮｳ","streetKana":"ﾎﾝｸﾞﾐ","prefecture":"愛媛県","city":"上浮穴郡久万高原町","street":"本組"},{"zipCode":"7911704","prefectureKana":"ｴﾋﾒｹﾝ","cityKana":"ｶﾐｳｹﾅｸﾞﾝｸﾏｺｳｹﾞﾝﾁｮｳ","streetKana":"ﾏｴｸﾞﾐ","prefecture":"愛媛県","city":"上浮穴郡久万高原町","street":"前組"},{"zipCode":"7911801","prefectureKana":"ｴﾋﾒｹﾝ","cityKana":"ｶﾐｳｹﾅｸﾞﾝｸﾏｺｳｹﾞﾝﾁｮｳ","streetKana":"ﾔﾅｲｶﾞﾜ","prefecture":"愛媛県","city":"上浮穴郡久万高原町","street":"柳井川"},{"zipCode":"7911710","prefectureKana":"ｴﾋﾒｹﾝ","cityKana":"ｶﾐｳｹﾅｸﾞﾝｸﾏｺｳｹﾞﾝﾁｮｳ","streetKana":"ﾜｶﾔﾏ","prefecture":"愛媛県","city":"上浮穴郡久万高原町","street":"若山"},{"zipCode":"7913100","prefectureKana":"ｴﾋﾒｹﾝ","cityKana":"ｲﾖｸﾞﾝﾏｻｷﾁｮｳ","streetKana":"ｲｶﾆｹｲｻｲｶﾞﾅｲﾊﾞｱｲ","prefecture":"愛媛県","city":"伊予郡松前町","street":"以下に掲載がない場合"},{"zipCode":"7913141","prefectureKana":"ｴﾋﾒｹﾝ","cityKana":"ｲﾖｸﾞﾝﾏｻｷﾁｮｳ","streetKana":"ｴｸﾋﾞ","prefecture":"愛媛県","city":"伊予郡松前町","street":"恵久美"},{"zipCode":"7913153","prefectureKana":"ｴﾋﾒｹﾝ","cityKana":"ｲﾖｸﾞﾝﾏｻｷﾁｮｳ","streetKana":"ｵｵﾐｿﾞ","prefecture":"愛媛県","city":"伊予郡松前町","street":"大溝"},{"zipCode":"7913142","prefectureKana":"ｴﾋﾒｹﾝ","cityKana":"ｲﾖｸﾞﾝﾏｻｷﾁｮｳ","streetKana":"ｶﾐﾀｶﾔﾅｷﾞ","prefecture":"愛媛県","city":"伊予郡松前町","street":"上高柳"},{"zipCode":"7913161","prefectureKana":"ｴﾋﾒｹﾝ","cityKana":"ｲﾖｸﾞﾝﾏｻｷﾁｮｳ","streetKana":"ｶﾝｻﾞｷ","prefecture":"愛媛県","city":"伊予郡松前町","street":"神崎"},{"zipCode":"7913131","prefectureKana":"ｴﾋﾒｹﾝ","cityKana":"ｲﾖｸﾞﾝﾏｻｷﾁｮｳ","streetKana":"ｷﾀｶﾞﾜﾗ","prefecture":"愛媛県","city":"伊予郡松前町","street":"北川原"},{"zipCode":"7913102","prefectureKana":"ｴﾋﾒｹﾝ","cityKana":"ｲﾖｸﾞﾝﾏｻｷﾁｮｳ","streetKana":"ｷﾀｸﾛﾀﾞ","prefecture":"愛媛県","city":"伊予郡松前町","street":"北黒田"},{"zipCode":"7913162","prefectureKana":"ｴﾋﾒｹﾝ","cityKana":"ｲﾖｸﾞﾝﾏｻｷﾁｮｳ","streetKana":"ｼｭﾂｻｸ","prefecture":"愛媛県","city":"伊予郡松前町","street":"出作"},{"zipCode":"7913133","prefectureKana":"ｴﾋﾒｹﾝ","cityKana":"ｲﾖｸﾞﾝﾏｻｷﾁｮｳ","streetKana":"ｼｮｳﾉｳﾁ","prefecture":"愛媛県","city":"伊予郡松前町","street":"昌農内"},{"zipCode":"7913143","prefectureKana":"ｴﾋﾒｹﾝ","cityKana":"ｲﾖｸﾞﾝﾏｻｷﾁｮｳ","streetKana":"ﾀﾞｲﾏ","prefecture":"愛媛県","city":"伊予郡松前町","street":"大間"},{"zipCode":"7913120","prefectureKana":"ｴﾋﾒｹﾝ","cityKana":"ｲﾖｸﾞﾝﾏｻｷﾁｮｳ","streetKana":"ﾂﾂｲ","prefecture":"愛媛県","city":"伊予郡松前町","street":"筒井"},{"zipCode":"7913155","prefectureKana":"ｴﾋﾒｹﾝ","cityKana":"ｲﾖｸﾞﾝﾏｻｷﾁｮｳ","streetKana":"ﾂﾙﾖｼ","prefecture":"愛媛県","city":"伊予郡松前町","street":"鶴吉"},{"zipCode":"7913163","prefectureKana":"ｴﾋﾒｹﾝ","cityKana":"ｲﾖｸﾞﾝﾏｻｷﾁｮｳ","streetKana":"ﾄｸﾏﾙ","prefecture":"愛媛県","city":"伊予郡松前町","street":"徳丸"},{"zipCode":"7913164","prefectureKana":"ｴﾋﾒｹﾝ","cityKana":"ｲﾖｸﾞﾝﾏｻｷﾁｮｳ","streetKana":"ﾅｶｶﾞﾜﾗ","prefecture":"愛媛県","city":"伊予郡松前町","street":"中川原"},{"zipCode":"7913152","prefectureKana":"ｴﾋﾒｹﾝ","cityKana":"ｲﾖｸﾞﾝﾏｻｷﾁｮｳ","streetKana":"ﾅｶﾞﾀ","prefecture":"愛媛県","city":"伊予郡松前町","street":"永田"},{"zipCode":"7913134","prefectureKana":"ｴﾋﾒｹﾝ","cityKana":"ｲﾖｸﾞﾝﾏｻｷﾁｮｳ","streetKana":"ﾆｼｺｲｽﾞﾐ","prefecture":"愛媛県","city":"伊予郡松前町","street":"西古泉"},{"zipCode":"7913132","prefectureKana":"ｴﾋﾒｹﾝ","cityKana":"ｲﾖｸﾞﾝﾏｻｷﾁｮｳ","streetKana":"ﾆｼﾀｶﾔﾅｷﾞ","prefecture":"愛媛県","city":"伊予郡松前町","street":"西高柳"},{"zipCode":"7913110","prefectureKana":"ｴﾋﾒｹﾝ","cityKana":"ｲﾖｸﾞﾝﾏｻｷﾁｮｳ","streetKana":"ﾊﾏ","prefecture":"愛媛県","city":"伊予郡松前町","street":"浜"},{"zipCode":"7913151","prefectureKana":"ｴﾋﾒｹﾝ","cityKana":"ｲﾖｸﾞﾝﾏｻｷﾁｮｳ","streetKana":"ﾋｶﾞｼｺｲｽﾞﾐ","prefecture":"愛媛県","city":"伊予郡松前町","street":"東古泉"},{"zipCode":"7913101","prefectureKana":"ｴﾋﾒｹﾝ","cityKana":"ｲﾖｸﾞﾝﾏｻｷﾁｮｳ","streetKana":"ﾐﾅﾐｸﾛﾀﾞ","prefecture":"愛媛県","city":"伊予郡松前町","street":"南黒田"},{"zipCode":"7913154","prefectureKana":"ｴﾋﾒｹﾝ","cityKana":"ｲﾖｸﾞﾝﾏｻｷﾁｮｳ","streetKana":"ﾖｺﾀ","prefecture":"愛媛県","city":"伊予郡松前町","street":"横田"},{"zipCode":"7912100","prefectureKana":"ｴﾋﾒｹﾝ","cityKana":"ｲﾖｸﾞﾝﾄﾍﾞﾁｮｳ","streetKana":"ｲｶﾆｹｲｻｲｶﾞﾅｲﾊﾞｱｲ","prefecture":"愛媛県","city":"伊予郡砥部町","street":"以下に掲載がない場合"},{"zipCode":"7912114","prefectureKana":"ｴﾋﾒｹﾝ","cityKana":"ｲﾖｸﾞﾝﾄﾍﾞﾁｮｳ","streetKana":"ｱｿｳ","prefecture":"愛媛県","city":"伊予郡砥部町","street":"麻生"},{"zipCode":"7912142","prefectureKana":"ｴﾋﾒｹﾝ","cityKana":"ｲﾖｸﾞﾝﾄﾍﾞﾁｮｳ","streetKana":"ｲﾜﾔ","prefecture":"愛媛県","city":"伊予郡砥部町","street":"岩谷"},{"zipCode":"7912141","prefectureKana":"ｴﾋﾒｹﾝ","cityKana":"ｲﾖｸﾞﾝﾄﾍﾞﾁｮｳ","streetKana":"ｲﾜﾔｸﾞﾁ","prefecture":"愛媛県","city":"伊予郡砥部町","street":"岩谷口"},{"zipCode":"7912135","prefectureKana":"ｴﾋﾒｹﾝ","cityKana":"ｲﾖｸﾞﾝﾄﾍﾞﾁｮｳ","streetKana":"ｳﾉｻｷ","prefecture":"愛媛県","city":"伊予郡砥部町","street":"鵜ノ崎"},{"zipCode":"7912206","prefectureKana":"ｴﾋﾒｹﾝ","cityKana":"ｲﾖｸﾞﾝﾄﾍﾞﾁｮｳ","streetKana":"ｵｵｲﾀﾞﾆ","prefecture":"愛媛県","city":"伊予郡砥部町","street":"多居谷"},{"zipCode":"7912126","prefectureKana":"ｴﾋﾒｹﾝ","cityKana":"ｲﾖｸﾞﾝﾄﾍﾞﾁｮｳ","streetKana":"ｵｵｶｸﾗ","prefecture":"愛媛県","city":"伊予郡砥部町","street":"大角蔵"},{"zipCode":"7912145","prefectureKana":"ｴﾋﾒｹﾝ","cityKana":"ｲﾖｸﾞﾝﾄﾍﾞﾁｮｳ","streetKana":"ｵｵﾋﾗ","prefecture":"愛媛県","city":"伊予郡砥部町","street":"大平"},{"zipCode":"7912132","prefectureKana":"ｴﾋﾒｹﾝ","cityKana":"ｲﾖｸﾞﾝﾄﾍﾞﾁｮｳ","streetKana":"ｵｵﾐﾅﾐ","prefecture":"愛媛県","city":"伊予郡砥部町","street":"大南"},{"zipCode":"7912117","prefectureKana":"ｴﾋﾒｹﾝ","cityKana":"ｲﾖｸﾞﾝﾄﾍﾞﾁｮｳ","streetKana":"ｶﾐﾊﾗﾏﾁ","prefecture":"愛媛県","city":"伊予郡砥部町","street":"上原町"},{"zipCode":"7912123","prefectureKana":"ｴﾋﾒｹﾝ","cityKana":"ｲﾖｸﾞﾝﾄﾍﾞﾁｮｳ","streetKana":"ｶﾜｲ","prefecture":"愛媛県","city":"伊予郡砥部町","street":"川井"},{"zipCode":"7912143","prefectureKana":"ｴﾋﾒｹﾝ","cityKana":"ｲﾖｸﾞﾝﾄﾍﾞﾁｮｳ","streetKana":"ｶﾜﾉﾎﾞﾘ","prefecture":"愛媛県","city":"伊予郡砥部町","street":"川登"},{"zipCode":"7912131","prefectureKana":"ｴﾋﾒｹﾝ","cityKana":"ｲﾖｸﾞﾝﾄﾍﾞﾁｮｳ","streetKana":"ｷﾀｶﾜｹﾞ","prefecture":"愛媛県","city":"伊予郡砥部町","street":"北川毛"},{"zipCode":"7912133","prefectureKana":"ｴﾋﾒｹﾝ","cityKana":"ｲﾖｸﾞﾝﾄﾍﾞﾁｮｳ","streetKana":"ｺﾞﾎﾝﾏﾂ","prefecture":"愛媛県","city":"伊予郡砥部町","street":"五本松"},{"zipCode":"7912112","prefectureKana":"ｴﾋﾒｹﾝ","cityKana":"ｲﾖｸﾞﾝﾄﾍﾞﾁｮｳ","streetKana":"ｼｹﾞﾐﾂ","prefecture":"愛媛県","city":"伊予郡砥部町","street":"重光"},{"zipCode":"7912113","prefectureKana":"ｴﾋﾒｹﾝ","cityKana":"ｲﾖｸﾞﾝﾄﾍﾞﾁｮｳ","streetKana":"ｼﾞﾂﾁｮｳ","prefecture":"愛媛県","city":"伊予郡砥部町","street":"拾町"},{"zipCode":"7912122","prefectureKana":"ｴﾋﾒｹﾝ","cityKana":"ｲﾖｸﾞﾝﾄﾍﾞﾁｮｳ","streetKana":"ｾﾝｿﾞｸ","prefecture":"愛媛県","city":"伊予郡砥部町","street":"千足"},{"zipCode":"7912207","prefectureKana":"ｴﾋﾒｹﾝ","cityKana":"ｲﾖｸﾞﾝﾄﾍﾞﾁｮｳ","streetKana":"ｾﾝﾊﾞ","prefecture":"愛媛県","city":"伊予郡砥部町","street":"仙波"},{"zipCode":"7912205","prefectureKana":"ｴﾋﾒｹﾝ","cityKana":"ｲﾖｸﾞﾝﾄﾍﾞﾁｮｳ","streetKana":"ｿｳﾂﾞ","prefecture":"愛媛県","city":"伊予郡砥部町","street":"総津"},{"zipCode":"7912204","prefectureKana":"ｴﾋﾒｹﾝ","cityKana":"ｲﾖｸﾞﾝﾄﾍﾞﾁｮｳ","streetKana":"ﾀｶｲﾁ","prefecture":"愛媛県","city":"伊予郡砥部町","street":"高市"},{"zipCode":"7912103","prefectureKana":"ｴﾋﾒｹﾝ","cityKana":"ｲﾖｸﾞﾝﾄﾍﾞﾁｮｳ","streetKana":"ﾀｺｵﾀﾞ(ｳｴﾉﾀﾞﾝﾁ)","prefecture":"愛媛県","city":"伊予郡砥部町","street":"高尾田（上野団地）"},{"zipCode":"7912102","prefectureKana":"ｴﾋﾒｹﾝ","cityKana":"ｲﾖｸﾞﾝﾄﾍﾞﾁｮｳ","streetKana":"ﾀｺｵﾀﾞ(ﾄﾍﾞﾀﾞﾝﾁ)","prefecture":"愛媛県","city":"伊予郡砥部町","street":"高尾田（砥部団地）"},{"zipCode":"7912101","prefectureKana":"ｴﾋﾒｹﾝ","cityKana":"ｲﾖｸﾞﾝﾄﾍﾞﾁｮｳ","streetKana":"ﾀｺｵﾀﾞ(ｿﾉﾀ)","prefecture":"愛媛県","city":"伊予郡砥部町","street":"高尾田（その他）"},{"zipCode":"7912124","prefectureKana":"ｴﾋﾒｹﾝ","cityKana":"ｲﾖｸﾞﾝﾄﾍﾞﾁｮｳ","streetKana":"ﾀﾉｳﾗ","prefecture":"愛媛県","city":"伊予郡砥部町","street":"田ノ浦"},{"zipCode":"7912202","prefectureKana":"ｴﾋﾒｹﾝ","cityKana":"ｲﾖｸﾞﾝﾄﾍﾞﾁｮｳ","streetKana":"ﾀﾏﾀﾆ","prefecture":"愛媛県","city":"伊予郡砥部町","street":"玉谷"},{"zipCode":"7912134","prefectureKana":"ｴﾋﾒｹﾝ","cityKana":"ｲﾖｸﾞﾝﾄﾍﾞﾁｮｳ","streetKana":"ﾄﾔﾏ","prefecture":"愛媛県","city":"伊予郡砥部町","street":"外山"},{"zipCode":"7912203","prefectureKana":"ｴﾋﾒｹﾝ","cityKana":"ｲﾖｸﾞﾝﾄﾍﾞﾁｮｳ","streetKana":"ﾅｶﾉｶﾜ","prefecture":"愛媛県","city":"伊予郡砥部町","street":"中野川"},{"zipCode":"7912125","prefectureKana":"ｴﾋﾒｹﾝ","cityKana":"ｲﾖｸﾞﾝﾄﾍﾞﾁｮｳ","streetKana":"ﾅﾅｵﾚ","prefecture":"愛媛県","city":"伊予郡砥部町","street":"七折"},{"zipCode":"7912116","prefectureKana":"ｴﾋﾒｹﾝ","cityKana":"ｲﾖｸﾞﾝﾄﾍﾞﾁｮｳ","streetKana":"ﾊﾗﾏﾁ","prefecture":"愛媛県","city":"伊予郡砥部町","street":"原町"},{"zipCode":"7912144","prefectureKana":"ｴﾋﾒｹﾝ","cityKana":"ｲﾖｸﾞﾝﾄﾍﾞﾁｮｳ","streetKana":"ﾏﾝﾈﾝ","prefecture":"愛媛県","city":"伊予郡砥部町","street":"万年"},{"zipCode":"7912201","prefectureKana":"ｴﾋﾒｹﾝ","cityKana":"ｲﾖｸﾞﾝﾄﾍﾞﾁｮｳ","streetKana":"ﾐﾂﾎ","prefecture":"愛媛県","city":"伊予郡砥部町","street":"満穂"},{"zipCode":"7912121","prefectureKana":"ｴﾋﾒｹﾝ","cityKana":"ｲﾖｸﾞﾝﾄﾍﾞﾁｮｳ","streetKana":"ﾐﾔｳﾁ(ﾔﾏﾅﾐ)","prefecture":"愛媛県","city":"伊予郡砥部町","street":"宮内（山並）"},{"zipCode":"7912120","prefectureKana":"ｴﾋﾒｹﾝ","cityKana":"ｲﾖｸﾞﾝﾄﾍﾞﾁｮｳ","streetKana":"ﾐﾔｳﾁ(ｿﾉﾀ)","prefecture":"愛媛県","city":"伊予郡砥部町","street":"宮内（その他）"},{"zipCode":"7912115","prefectureKana":"ｴﾋﾒｹﾝ","cityKana":"ｲﾖｸﾞﾝﾄﾍﾞﾁｮｳ","streetKana":"ﾐｮｳｶ","prefecture":"愛媛県","city":"伊予郡砥部町","street":"三角"},{"zipCode":"7912111","prefectureKana":"ｴﾋﾒｹﾝ","cityKana":"ｲﾖｸﾞﾝﾄﾍﾞﾁｮｳ","streetKana":"ﾔｸﾗ","prefecture":"愛媛県","city":"伊予郡砥部町","street":"八倉"},{"zipCode":"7913300","prefectureKana":"ｴﾋﾒｹﾝ","cityKana":"ｷﾀｸﾞﾝｳﾁｺﾁｮｳ","streetKana":"ｲｶﾆｹｲｻｲｶﾞﾅｲﾊﾞｱｲ","prefecture":"愛媛県","city":"喜多郡内子町","street":"以下に掲載がない場合"},{"zipCode":"7913343","prefectureKana":"ｴﾋﾒｹﾝ","cityKana":"ｷﾀｸﾞﾝｳﾁｺﾁｮｳ","streetKana":"ｲｼﾀﾞﾀﾐ","prefecture":"愛媛県","city":"喜多郡内子町","street":"石畳"},{"zipCode":"7913351","prefectureKana":"ｴﾋﾒｹﾝ","cityKana":"ｷﾀｸﾞﾝｳﾁｺﾁｮｳ","streetKana":"ｲﾖｷ","prefecture":"愛媛県","city":"喜多郡内子町","street":"五百木"},{"zipCode":"7913514","prefectureKana":"ｴﾋﾒｹﾝ","cityKana":"ｷﾀｸﾞﾝｳﾁｺﾁｮｳ","streetKana":"ｳｽｷ","prefecture":"愛媛県","city":"喜多郡内子町","street":"臼杵"},{"zipCode":"7913301","prefectureKana":"ｴﾋﾒｹﾝ","cityKana":"ｷﾀｸﾞﾝｳﾁｺﾁｮｳ","streetKana":"ｳﾁｺ","prefecture":"愛媛県","city":"喜多郡内子町","street":"内子"},{"zipCode":"7913360","prefectureKana":"ｴﾋﾒｹﾝ","cityKana":"ｷﾀｸﾞﾝｳﾁｺﾁｮｳ","streetKana":"ｵｵｾ","prefecture":"愛媛県","city":"喜多郡内子町","street":"大瀬"},{"zipCode":"7913363","prefectureKana":"ｴﾋﾒｹﾝ","cityKana":"ｷﾀｸﾞﾝｳﾁｺﾁｮｳ","streetKana":"ｵｵｾﾋｶﾞｼ","prefecture":"愛媛県","city":"喜多郡内子町","street":"大瀬東"},{"zipCode":"7913364","prefectureKana":"ｴﾋﾒｹﾝ","cityKana":"ｷﾀｸﾞﾝｳﾁｺﾁｮｳ","streetKana":"ｵｵｾﾐﾅﾐ","prefecture":"愛媛県","city":"喜多郡内子町","street":"大瀬南"},{"zipCode":"7913362","prefectureKana":"ｴﾋﾒｹﾝ","cityKana":"ｷﾀｸﾞﾝｳﾁｺﾁｮｳ","streetKana":"ｵｵｾｷﾀ(ｵﾂｶｹﾞﾔﾏ､ｸﾏﾉﾀｷ､ｺｳｶﾞｹﾔﾏ､ﾎﾄﾞｳﾁ)","prefecture":"愛媛県","city":"喜多郡内子町","street":"大瀬北（乙影山、熊の滝、甲影山、程内）"},{"zipCode":"7913361","prefectureKana":"ｴﾋﾒｹﾝ","cityKana":"ｷﾀｸﾞﾝｳﾁｺﾁｮｳ","streetKana":"ｵｵｾﾁｭｳｵｳ(ｳｶﾜ､ｵｵｸﾎﾞ､ｵﾂﾅﾘ､ﾅｶﾉ､ﾎﾝﾏﾁ1-3)","prefecture":"愛媛県","city":"喜多郡内子町","street":"大瀬中央（鵜川、大久保、乙成、中野、本町１～３）"},{"zipCode":"7913504","prefectureKana":"ｴﾋﾒｹﾝ","cityKana":"ｷﾀｸﾞﾝｳﾁｺﾁｮｳ","streetKana":"ｵｵﾋﾗ","prefecture":"愛媛県","city":"喜多郡内子町","street":"大平"},{"zipCode":"7913501","prefectureKana":"ｴﾋﾒｹﾝ","cityKana":"ｷﾀｸﾞﾝｳﾁｺﾁｮｳ","streetKana":"ｵﾀﾞ","prefecture":"愛媛県","city":"喜多郡内子町","street":"小田"},{"zipCode":"7913524","prefectureKana":"ｴﾋﾒｹﾝ","cityKana":"ｷﾀｸﾞﾝｳﾁｺﾁｮｳ","streetKana":"ｵﾀﾞﾐﾔﾏ","prefecture":"愛媛県","city":"喜多郡内子町","street":"小田深山"},{"zipCode":"7913523","prefectureKana":"ｴﾋﾒｹﾝ","cityKana":"ｷﾀｸﾞﾝｳﾁｺﾁｮｳ","streetKana":"ｶﾐｶﾞﾜ","prefecture":"愛媛県","city":"喜多郡内子町","street":"上川"},{"zipCode":"7913513","prefectureKana":"ｴﾋﾒｹﾝ","cityKana":"ｷﾀｸﾞﾝｳﾁｺﾁｮｳ","streetKana":"ｶﾐﾀﾄﾞ","prefecture":"愛媛県","city":"喜多郡内子町","street":"上田渡"},{"zipCode":"7913321","prefectureKana":"ｴﾋﾒｹﾝ","cityKana":"ｷﾀｸﾞﾝｳﾁｺﾁｮｳ","streetKana":"ｶﾜﾅｶ","prefecture":"愛媛県","city":"喜多郡内子町","street":"川中"},{"zipCode":"7913342","prefectureKana":"ｴﾋﾒｹﾝ","cityKana":"ｷﾀｸﾞﾝｳﾁｺﾁｮｳ","streetKana":"ｶﾜﾉｳﾁ","prefecture":"愛媛県","city":"喜多郡内子町","street":"河内"},{"zipCode":"7913310","prefectureKana":"ｴﾋﾒｹﾝ","cityKana":"ｷﾀｸﾞﾝｳﾁｺﾁｮｳ","streetKana":"ｼﾛﾏﾜﾘ","prefecture":"愛媛県","city":"喜多郡内子町","street":"城廻"},{"zipCode":"7913331","prefectureKana":"ｴﾋﾒｹﾝ","cityKana":"ｷﾀｸﾞﾝｳﾁｺﾁｮｳ","streetKana":"ﾀﾁﾔﾏ","prefecture":"愛媛県","city":"喜多郡内子町","street":"立山"},{"zipCode":"7913505","prefectureKana":"ｴﾋﾒｹﾝ","cityKana":"ｷﾀｸﾞﾝｳﾁｺﾁｮｳ","streetKana":"ﾀﾃｲｼ","prefecture":"愛媛県","city":"喜多郡内子町","street":"立石"},{"zipCode":"7913322","prefectureKana":"ｴﾋﾒｹﾝ","cityKana":"ｷﾀｸﾞﾝｳﾁｺﾁｮｳ","streetKana":"ﾁｾｲ","prefecture":"愛媛県","city":"喜多郡内子町","street":"知清"},{"zipCode":"7913502","prefectureKana":"ｴﾋﾒｹﾝ","cityKana":"ｷﾀｸﾞﾝｳﾁｺﾁｮｳ","streetKana":"ﾃﾗﾑﾗ","prefecture":"愛媛県","city":"喜多郡内子町","street":"寺村"},{"zipCode":"7913522","prefectureKana":"ｴﾋﾒｹﾝ","cityKana":"ｷﾀｸﾞﾝｳﾁｺﾁｮｳ","streetKana":"ﾅｶｶﾞﾜ","prefecture":"愛媛県","city":"喜多郡内子町","street":"中川"},{"zipCode":"7913512","prefectureKana":"ｴﾋﾒｹﾝ","cityKana":"ｷﾀｸﾞﾝｳﾁｺﾁｮｳ","streetKana":"ﾅｶﾀﾄﾞ","prefecture":"愛媛県","city":"喜多郡内子町","street":"中田渡"},{"zipCode":"7913503","prefectureKana":"ｴﾋﾒｹﾝ","cityKana":"ｷﾀｸﾞﾝｳﾁｺﾁｮｳ","streetKana":"ﾋﾉｶﾜ","prefecture":"愛媛県","city":"喜多郡内子町","street":"日野川"},{"zipCode":"7913332","prefectureKana":"ｴﾋﾒｹﾝ","cityKana":"ｷﾀｸﾞﾝｳﾁｺﾁｮｳ","streetKana":"ﾌﾛｸ","prefecture":"愛媛県","city":"喜多郡内子町","street":"袋口"},{"zipCode":"7913521","prefectureKana":"ｴﾋﾒｹﾝ","cityKana":"ｷﾀｸﾞﾝｳﾁｺﾁｮｳ","streetKana":"ﾎﾝｶﾞﾜ","prefecture":"愛媛県","city":"喜多郡内子町","street":"本川"},{"zipCode":"7913506","prefectureKana":"ｴﾋﾒｹﾝ","cityKana":"ｷﾀｸﾞﾝｳﾁｺﾁｮｳ","streetKana":"ﾐﾅﾐﾔﾏ","prefecture":"愛媛県","city":"喜多郡内子町","street":"南山"},{"zipCode":"7913352","prefectureKana":"ｴﾋﾒｹﾝ","cityKana":"ｷﾀｸﾞﾝｳﾁｺﾁｮｳ","streetKana":"ﾑﾗｻｷ","prefecture":"愛媛県","city":"喜多郡内子町","street":"村前"},{"zipCode":"7913511","prefectureKana":"ｴﾋﾒｹﾝ","cityKana":"ｷﾀｸﾞﾝｳﾁｺﾁｮｳ","streetKana":"ﾖｼﾉｶﾜ","prefecture":"愛媛県","city":"喜多郡内子町","street":"吉野川"},{"zipCode":"7913341","prefectureKana":"ｴﾋﾒｹﾝ","cityKana":"ｷﾀｸﾞﾝｳﾁｺﾁｮｳ","streetKana":"ﾛﾝﾃﾞﾝ","prefecture":"愛媛県","city":"喜多郡内子町","street":"論田"}]