[{"zipCode":"7920080","prefectureKana":"ｴﾋﾒｹﾝ","cityKana":"ｲﾏﾊﾞﾘｼ","streetKana":"ﾐﾔｸﾎﾞﾁｮｳｼｻｶｼﾞﾏ","prefecture":"愛媛県","city":"今治市","street":"宮窪町四阪島"},{"zipCode":"7920000","prefectureKana":"ｴﾋﾒｹﾝ","cityKana":"ﾆｲﾊﾏｼ","streetKana":"ｲｶﾆｹｲｻｲｶﾞﾅｲﾊﾞｱｲ","prefecture":"愛媛県","city":"新居浜市","street":"以下に掲載がない場合"},{"zipCode":"7920897","prefectureKana":"ｴﾋﾒｹﾝ","cityKana":"ﾆｲﾊﾏｼ","streetKana":"ｱｼﾏｵﾂ","prefecture":"愛媛県","city":"新居浜市","street":"阿島乙"},{"zipCode":"7920896","prefectureKana":"ｴﾋﾒｹﾝ","cityKana":"ﾆｲﾊﾏｼ","streetKana":"ｱｼﾏ(ｿﾉﾀ)","prefecture":"愛媛県","city":"新居浜市","street":"阿島（その他）"},{"zipCode":"7920013","prefectureKana":"ｴﾋﾒｹﾝ","cityKana":"ﾆｲﾊﾏｼ","streetKana":"ｲｽﾞﾐｲｹﾁｮｳ","prefecture":"愛媛県","city":"新居浜市","street":"泉池町"},{"zipCode":"7920021","prefectureKana":"ｴﾋﾒｹﾝ","cityKana":"ﾆｲﾊﾏｼ","streetKana":"ｲｽﾞﾐﾐﾔﾁｮｳ","prefecture":"愛媛県","city":"新居浜市","street":"泉宮町"},{"zipCode":"7920002","prefectureKana":"ｴﾋﾒｹﾝ","cityKana":"ﾆｲﾊﾏｼ","streetKana":"ｲｿｳﾗﾁｮｳ","prefecture":"愛媛県","city":"新居浜市","street":"磯浦町"},{"zipCode":"7920025","prefectureKana":"ｴﾋﾒｹﾝ","cityKana":"ﾆｲﾊﾏｼ","streetKana":"ｲｯｸﾁｮｳ","prefecture":"愛媛県","city":"新居浜市","street":"一宮町"},{"zipCode":"7920866","prefectureKana":"ｴﾋﾒｹﾝ","cityKana":"ﾆｲﾊﾏｼ","streetKana":"ｳﾀﾞｶﾁｮｳ","prefecture":"愛媛県","city":"新居浜市","street":"宇高町"},{"zipCode":"7920046","prefectureKana":"ｴﾋﾒｹﾝ","cityKana":"ﾆｲﾊﾏｼ","streetKana":"ｳﾜﾊﾞﾗ","prefecture":"愛媛県","city":"新居浜市","street":"上原"},{"zipCode":"7920005","prefectureKana":"ｴﾋﾒｹﾝ","cityKana":"ﾆｲﾊﾏｼ","streetKana":"ｴｸﾞﾁﾁｮｳ","prefecture":"愛媛県","city":"新居浜市","street":"江口町"},{"zipCode":"7920008","prefectureKana":"ｴﾋﾒｹﾝ","cityKana":"ﾆｲﾊﾏｼ","streetKana":"ｵｳｼﾞﾁｮｳ","prefecture":"愛媛県","city":"新居浜市","street":"王子町"},{"zipCode":"7920015","prefectureKana":"ｴﾋﾒｹﾝ","cityKana":"ﾆｲﾊﾏｼ","streetKana":"ｵｵｴﾁｮｳ","prefecture":"愛媛県","city":"新居浜市","street":"大江町"},{"zipCode":"7920891","prefectureKana":"ｴﾋﾒｹﾝ","cityKana":"ﾆｲﾊﾏｼ","streetKana":"ｵｵｼﾏ","prefecture":"愛媛県","city":"新居浜市","street":"大島"},{"zipCode":"7920060","prefectureKana":"ｴﾋﾒｹﾝ","cityKana":"ﾆｲﾊﾏｼ","streetKana":"ｵｵｼﾞｮｳｲﾝ","prefecture":"愛媛県","city":"新居浜市","street":"大生院"},{"zipCode":"7920047","prefectureKana":"ｴﾋﾒｹﾝ","cityKana":"ﾆｲﾊﾏｼ","streetKana":"ｵｸﾗﾁｮｳ","prefecture":"愛媛県","city":"新居浜市","street":"御蔵町"},{"zipCode":"7920883","prefectureKana":"ｴﾋﾒｹﾝ","cityKana":"ﾆｲﾊﾏｼ","streetKana":"ｵﾁｶﾞﾐﾁｮｳ","prefecture":"愛媛県","city":"新居浜市","street":"落神町"},{"zipCode":"7920071","prefectureKana":"ｴﾋﾒｹﾝ","cityKana":"ﾆｲﾊﾏｼ","streetKana":"ｶﾈｺﾍｲ","prefecture":"愛媛県","city":"新居浜市","street":"金子丙"},{"zipCode":"7920824","prefectureKana":"ｴﾋﾒｹﾝ","cityKana":"ﾆｲﾊﾏｼ","streetKana":"ｶﾐｲｽﾞﾐﾁｮｳ","prefecture":"愛媛県","city":"新居浜市","street":"上泉町"},{"zipCode":"7920851","prefectureKana":"ｴﾋﾒｹﾝ","cityKana":"ﾆｲﾊﾏｼ","streetKana":"ｶﾝﾉﾝﾊﾞﾗﾁｮｳ","prefecture":"愛媛県","city":"新居浜市","street":"観音原町"},{"zipCode":"7920801","prefectureKana":"ｴﾋﾒｹﾝ","cityKana":"ﾆｲﾊﾏｼ","streetKana":"ｷｸﾓﾄﾁｮｳ","prefecture":"愛媛県","city":"新居浜市","street":"菊本町"},{"zipCode":"7920826","prefectureKana":"ｴﾋﾒｹﾝ","cityKana":"ﾆｲﾊﾏｼ","streetKana":"ｷｺｳｼﾞﾁｮｳ","prefecture":"愛媛県","city":"新居浜市","street":"喜光地町"},{"zipCode":"7920815","prefectureKana":"ｴﾋﾒｹﾝ","cityKana":"ﾆｲﾊﾏｼ","streetKana":"ｷｼﾉｳｴﾁｮｳ","prefecture":"愛媛県","city":"新居浜市","street":"岸の上町"},{"zipCode":"7920842","prefectureKana":"ｴﾋﾒｹﾝ","cityKana":"ﾆｲﾊﾏｼ","streetKana":"ｷﾀｳﾁﾁｮｳ","prefecture":"愛媛県","city":"新居浜市","street":"北内町"},{"zipCode":"7920004","prefectureKana":"ｴﾋﾒｹﾝ","cityKana":"ﾆｲﾊﾏｼ","streetKana":"ｷﾀｼﾝﾏﾁ","prefecture":"愛媛県","city":"新居浜市","street":"北新町"},{"zipCode":"7920885","prefectureKana":"ｴﾋﾒｹﾝ","cityKana":"ﾆｲﾊﾏｼ","streetKana":"ｷﾖｽﾞﾐﾁｮｳ","prefecture":"愛媛県","city":"新居浜市","street":"清住町"},{"zipCode":"7920890","prefectureKana":"ｴﾋﾒｹﾝ","cityKana":"ﾆｲﾊﾏｼ","streetKana":"ｸｯｻｷ","prefecture":"愛媛県","city":"新居浜市","street":"楠崎"},{"zipCode":"7920026","prefectureKana":"ｴﾋﾒｹﾝ","cityKana":"ﾆｲﾊﾏｼ","streetKana":"ｸﾎﾞﾀﾁｮｳ","prefecture":"愛媛県","city":"新居浜市","street":"久保田町"},{"zipCode":"7920892","prefectureKana":"ｴﾋﾒｹﾝ","cityKana":"ﾆｲﾊﾏｼ","streetKana":"ｸﾛｼﾏ","prefecture":"愛媛県","city":"新居浜市","street":"黒島"},{"zipCode":"7920884","prefectureKana":"ｴﾋﾒｹﾝ","cityKana":"ﾆｲﾊﾏｼ","streetKana":"ｺｳｻﾞﾄ","prefecture":"愛媛県","city":"新居浜市","street":"神郷"},{"zipCode":"7920006","prefectureKana":"ｴﾋﾒｹﾝ","cityKana":"ﾆｲﾊﾏｼ","streetKana":"ｺｳﾁﾁｮｳ","prefecture":"愛媛県","city":"新居浜市","street":"河内町"},{"zipCode":"7920853","prefectureKana":"ｴﾋﾒｹﾝ","cityKana":"ﾆｲﾊﾏｼ","streetKana":"ｺｳﾐｮｳｼﾞ","prefecture":"愛媛県","city":"新居浜市","street":"光明寺"},{"zipCode":"7920854","prefectureKana":"ｴﾋﾒｹﾝ","cityKana":"ﾆｲﾊﾏｼ","streetKana":"ｺｸﾘｮｳ","prefecture":"愛媛県","city":"新居浜市","street":"国領"},{"zipCode":"7920822","prefectureKana":"ｴﾋﾒｹﾝ","cityKana":"ﾆｲﾊﾏｼ","streetKana":"ｺﾄﾌﾞｷﾁｮｳ","prefecture":"愛媛県","city":"新居浜市","street":"寿町"},{"zipCode":"7920886","prefectureKana":"ｴﾋﾒｹﾝ","cityKana":"ﾆｲﾊﾏｼ","streetKana":"ｺﾞｳ(ﾁｮｳﾒ)","prefecture":"愛媛県","city":"新居浜市","street":"郷（丁目）"},{"zipCode":"7920895","prefectureKana":"ｴﾋﾒｹﾝ","cityKana":"ﾆｲﾊﾏｼ","streetKana":"ｺﾞｳｵﾂ","prefecture":"愛媛県","city":"新居浜市","street":"郷乙"},{"zipCode":"7920894","prefectureKana":"ｴﾋﾒｹﾝ","cityKana":"ﾆｲﾊﾏｼ","streetKana":"ｺﾞｳ(ｿﾉﾀ)","prefecture":"愛媛県","city":"新居浜市","street":"郷（その他）"},{"zipCode":"7920831","prefectureKana":"ｴﾋﾒｹﾝ","cityKana":"ﾆｲﾊﾏｼ","streetKana":"ｻｲﾚﾝｼﾞﾁｮｳ","prefecture":"愛媛県","city":"新居浜市","street":"西連寺町"},{"zipCode":"7920812","prefectureKana":"ｴﾋﾒｹﾝ","cityKana":"ﾆｲﾊﾏｼ","streetKana":"ｻｶｲﾁｮｳ","prefecture":"愛媛県","city":"新居浜市","street":"坂井町"},{"zipCode":"7920865","prefectureKana":"ｴﾋﾒｹﾝ","cityKana":"ﾆｲﾊﾏｼ","streetKana":"ｻｸﾗｷﾞﾁｮｳ","prefecture":"愛媛県","city":"新居浜市","street":"桜木町"},{"zipCode":"7920862","prefectureKana":"ｴﾋﾒｹﾝ","cityKana":"ﾆｲﾊﾏｼ","streetKana":"ｻﾜﾂﾞﾁｮｳ","prefecture":"愛媛県","city":"新居浜市","street":"沢津町"},{"zipCode":"7920023","prefectureKana":"ｴﾋﾒｹﾝ","cityKana":"ﾆｲﾊﾏｼ","streetKana":"ｼｹﾞﾓﾄﾁｮｳ","prefecture":"愛媛県","city":"新居浜市","street":"繁本町"},{"zipCode":"7920855","prefectureKana":"ｴﾋﾒｹﾝ","cityKana":"ﾆｲﾊﾏｼ","streetKana":"ｼｯﾎﾟｳﾀﾞｲﾁｮｳ","prefecture":"愛媛県","city":"新居浜市","street":"七宝台町"},{"zipCode":"7920864","prefectureKana":"ｴﾋﾒｹﾝ","cityKana":"ﾆｲﾊﾏｼ","streetKana":"ｼﾉﾉﾒﾁｮｳ","prefecture":"愛媛県","city":"新居浜市","street":"東雲町"},{"zipCode":"7920836","prefectureKana":"ｴﾋﾒｹﾝ","cityKana":"ﾆｲﾊﾏｼ","streetKana":"ｼﾉﾊﾞﾁｮｳ","prefecture":"愛媛県","city":"新居浜市","street":"篠場町"},{"zipCode":"7920861","prefectureKana":"ｴﾋﾒｹﾝ","cityKana":"ﾆｲﾊﾏｼ","streetKana":"ｼﾐｽﾞﾁｮｳ","prefecture":"愛媛県","city":"新居浜市","street":"清水町"},{"zipCode":"7920813","prefectureKana":"ｴﾋﾒｹﾝ","cityKana":"ﾆｲﾊﾏｼ","streetKana":"ｼﾓｲｽﾞﾐﾁｮｳ","prefecture":"愛媛県","city":"新居浜市","street":"下泉町"},{"zipCode":"7920811","prefectureKana":"ｴﾋﾒｹﾝ","cityKana":"ﾆｲﾊﾏｼ","streetKana":"ｼｮｳﾅｲﾁｮｳ","prefecture":"愛媛県","city":"新居浜市","street":"庄内町"},{"zipCode":"7920814","prefectureKana":"ｴﾋﾒｹﾝ","cityKana":"ﾆｲﾊﾏｼ","streetKana":"ｼﾛｼﾀﾁｮｳ","prefecture":"愛媛県","city":"新居浜市","street":"城下町"},{"zipCode":"7920802","prefectureKana":"ｴﾋﾒｹﾝ","cityKana":"ﾆｲﾊﾏｼ","streetKana":"ｼﾝｽｶﾁｮｳ","prefecture":"愛媛県","city":"新居浜市","street":"新須賀町"},{"zipCode":"7920003","prefectureKana":"ｴﾋﾒｹﾝ","cityKana":"ﾆｲﾊﾏｼ","streetKana":"ｼﾝﾃﾞﾝﾁｮｳ","prefecture":"愛媛県","city":"新居浜市","street":"新田町"},{"zipCode":"7920857","prefectureKana":"ｴﾋﾒｹﾝ","cityKana":"ﾆｲﾊﾏｼ","streetKana":"ｽﾐﾉ","prefecture":"愛媛県","city":"新居浜市","street":"角野"},{"zipCode":"7920844","prefectureKana":"ｴﾋﾒｹﾝ","cityKana":"ﾆｲﾊﾏｼ","streetKana":"ｽﾐﾉｼﾝﾃﾞﾝﾁｮｳ","prefecture":"愛媛県","city":"新居浜市","street":"角野新田町"},{"zipCode":"7920821","prefectureKana":"ｴﾋﾒｹﾝ","cityKana":"ﾆｲﾊﾏｼ","streetKana":"ｾﾄﾁｮｳ","prefecture":"愛媛県","city":"新居浜市","street":"瀬戸町"},{"zipCode":"7920001","prefectureKana":"ｴﾋﾒｹﾝ","cityKana":"ﾆｲﾊﾏｼ","streetKana":"ｿｳﾋﾞﾗｷﾁｮｳ","prefecture":"愛媛県","city":"新居浜市","street":"惣開町"},{"zipCode":"7920847","prefectureKana":"ｴﾋﾒｹﾝ","cityKana":"ﾆｲﾊﾏｼ","streetKana":"ﾀﾞｲｴｲﾔﾏ","prefecture":"愛媛県","city":"新居浜市","street":"大永山"},{"zipCode":"7920031","prefectureKana":"ｴﾋﾒｹﾝ","cityKana":"ﾆｲﾊﾏｼ","streetKana":"ﾀｶｷﾞﾁｮｳ","prefecture":"愛媛県","city":"新居浜市","street":"高木町"},{"zipCode":"7920887","prefectureKana":"ｴﾋﾒｹﾝ","cityKana":"ﾆｲﾊﾏｼ","streetKana":"ﾀｶﾀ","prefecture":"愛媛県","city":"新居浜市","street":"高田"},{"zipCode":"7920867","prefectureKana":"ｴﾋﾒｹﾝ","cityKana":"ﾆｲﾊﾏｼ","streetKana":"ﾀｶﾂﾁｮｳ","prefecture":"愛媛県","city":"新居浜市","street":"高津町"},{"zipCode":"7920034","prefectureKana":"ｴﾋﾒｹﾝ","cityKana":"ﾆｲﾊﾏｼ","streetKana":"ﾀｷﾉﾐﾔﾁｮｳ","prefecture":"愛媛県","city":"新居浜市","street":"滝の宮町"},{"zipCode":"7920893","prefectureKana":"ｴﾋﾒｹﾝ","cityKana":"ﾆｲﾊﾏｼ","streetKana":"ﾀｷﾊﾏ","prefecture":"愛媛県","city":"新居浜市","street":"多喜浜"},{"zipCode":"7920846","prefectureKana":"ｴﾋﾒｹﾝ","cityKana":"ﾆｲﾊﾏｼ","streetKana":"ﾀﾂｶﾜﾁｮｳ(ﾀﾂｶﾜﾔﾏｦﾌｸﾑ)","prefecture":"愛媛県","city":"新居浜市","street":"立川町（立川山を含む）"},{"zipCode":"7920804","prefectureKana":"ｴﾋﾒｹﾝ","cityKana":"ﾆｲﾊﾏｼ","streetKana":"ﾀﾄﾞｺﾛﾁｮｳ","prefecture":"愛媛県","city":"新居浜市","street":"田所町"},{"zipCode":"7920845","prefectureKana":"ｴﾋﾒｹﾝ","cityKana":"ﾆｲﾊﾏｼ","streetKana":"ﾀﾈｶﾞﾜﾁｮｳ","prefecture":"愛媛県","city":"新居浜市","street":"種子川町"},{"zipCode":"7920848","prefectureKana":"ｴﾋﾒｹﾝ","cityKana":"ﾆｲﾊﾏｼ","streetKana":"ﾀﾈｶﾞﾜﾔﾏ","prefecture":"愛媛県","city":"新居浜市","street":"種子川山"},{"zipCode":"7920888","prefectureKana":"ｴﾋﾒｹﾝ","cityKana":"ﾆｲﾊﾏｼ","streetKana":"ﾀﾉｳｴ","prefecture":"愛媛県","city":"新居浜市","street":"田の上"},{"zipCode":"7920043","prefectureKana":"ｴﾋﾒｹﾝ","cityKana":"ﾆｲﾊﾏｼ","streetKana":"ﾂﾁﾊｼ","prefecture":"愛媛県","city":"新居浜市","street":"土橋"},{"zipCode":"7920852","prefectureKana":"ｴﾋﾒｹﾝ","cityKana":"ﾆｲﾊﾏｼ","streetKana":"ﾄｳﾀﾞ","prefecture":"愛媛県","city":"新居浜市","street":"東田"},{"zipCode":"7920022","prefectureKana":"ｴﾋﾒｹﾝ","cityKana":"ﾆｲﾊﾏｼ","streetKana":"ﾄｸﾂﾈﾁｮｳ","prefecture":"愛媛県","city":"新居浜市","street":"徳常町"},{"zipCode":"7920823","prefectureKana":"ｴﾋﾒｹﾝ","cityKana":"ﾆｲﾊﾏｼ","streetKana":"ﾄﾔﾏﾁｮｳ","prefecture":"愛媛県","city":"新居浜市","street":"外山町"},{"zipCode":"7920012","prefectureKana":"ｴﾋﾒｹﾝ","cityKana":"ﾆｲﾊﾏｼ","streetKana":"ﾅｶｽｶﾁｮｳ","prefecture":"愛媛県","city":"新居浜市","street":"中須賀町"},{"zipCode":"7920841","prefectureKana":"ｴﾋﾒｹﾝ","cityKana":"ﾆｲﾊﾏｼ","streetKana":"ﾅｶｽｼﾞﾁｮｳ","prefecture":"愛媛県","city":"新居浜市","street":"中筋町"},{"zipCode":"7920834","prefectureKana":"ｴﾋﾒｹﾝ","cityKana":"ﾆｲﾊﾏｼ","streetKana":"ﾅｶﾆｼﾁｮｳ","prefecture":"愛媛県","city":"新居浜市","street":"中西町"},{"zipCode":"7920045","prefectureKana":"ｴﾋﾒｹﾝ","cityKana":"ﾆｲﾊﾏｼ","streetKana":"ﾅｶﾊｷﾞﾁｮｳ","prefecture":"愛媛県","city":"新居浜市","street":"中萩町"},{"zipCode":"7920044","prefectureKana":"ｴﾋﾒｹﾝ","cityKana":"ﾆｲﾊﾏｼ","streetKana":"ﾅｶﾑﾗ","prefecture":"愛媛県","city":"新居浜市","street":"中村"},{"zipCode":"7920041","prefectureKana":"ｴﾋﾒｹﾝ","cityKana":"ﾆｲﾊﾏｼ","streetKana":"ﾅｶﾑﾗﾏﾂｷﾞ","prefecture":"愛媛県","city":"新居浜市","street":"中村松木"},{"zipCode":"7920874","prefectureKana":"ｴﾋﾒｹﾝ","cityKana":"ﾆｲﾊﾏｼ","streetKana":"ﾅｶﾞｲﾜﾁｮｳ","prefecture":"愛媛県","city":"新居浜市","street":"長岩町"},{"zipCode":"7920072","prefectureKana":"ｴﾋﾒｹﾝ","cityKana":"ﾆｲﾊﾏｼ","streetKana":"ﾆｲﾊﾏｵﾂ","prefecture":"愛媛県","city":"新居浜市","street":"新居浜乙"},{"zipCode":"7920832","prefectureKana":"ｴﾋﾒｹﾝ","cityKana":"ﾆｲﾊﾏｼ","streetKana":"ﾆｼｲｽﾞﾐﾁｮｳ","prefecture":"愛媛県","city":"新居浜市","street":"西泉町"},{"zipCode":"7920827","prefectureKana":"ｴﾋﾒｹﾝ","cityKana":"ﾆｲﾊﾏｼ","streetKana":"ﾆｼｷｺｳｼﾞﾁｮｳ","prefecture":"愛媛県","city":"新居浜市","street":"西喜光地町"},{"zipCode":"7920035","prefectureKana":"ｴﾋﾒｹﾝ","cityKana":"ﾆｲﾊﾏｼ","streetKana":"ﾆｼﾉﾄﾞｲﾁｮｳ","prefecture":"愛媛県","city":"新居浜市","street":"西の土居町"},{"zipCode":"7920011","prefectureKana":"ｴﾋﾒｹﾝ","cityKana":"ﾆｲﾊﾏｼ","streetKana":"ﾆｼﾊﾞﾗﾁｮｳ","prefecture":"愛媛県","city":"新居浜市","street":"西原町"},{"zipCode":"7920014","prefectureKana":"ｴﾋﾒｹﾝ","cityKana":"ﾆｲﾊﾏｼ","streetKana":"ﾆｼﾏﾁ","prefecture":"愛媛県","city":"新居浜市","street":"西町"},{"zipCode":"7920898","prefectureKana":"ｴﾋﾒｹﾝ","cityKana":"ﾆｲﾊﾏｼ","streetKana":"ﾆﾅｲﾁｮｳ","prefecture":"愛媛県","city":"新居浜市","street":"荷内町"},{"zipCode":"7920050","prefectureKana":"ｴﾋﾒｹﾝ","cityKana":"ﾆｲﾊﾏｼ","streetKana":"ﾊｷﾞｭｳ","prefecture":"愛媛県","city":"新居浜市","street":"萩生"},{"zipCode":"7920871","prefectureKana":"ｴﾋﾒｹﾝ","cityKana":"ﾆｲﾊﾏｼ","streetKana":"ﾊﾁﾏﾝ","prefecture":"愛媛県","city":"新居浜市","street":"八幡"},{"zipCode":"7920872","prefectureKana":"ｴﾋﾒｹﾝ","cityKana":"ﾆｲﾊﾏｼ","streetKana":"ﾊﾌﾞ(ﾁｮｳﾒ)","prefecture":"愛媛県","city":"新居浜市","street":"垣生（丁目）"},{"zipCode":"7920873","prefectureKana":"ｴﾋﾒｹﾝ","cityKana":"ﾆｲﾊﾏｼ","streetKana":"ﾊﾌﾞ(ﾊﾞﾝﾁ)","prefecture":"愛媛県","city":"新居浜市","street":"垣生（番地）"},{"zipCode":"7920803","prefectureKana":"ｴﾋﾒｹﾝ","cityKana":"ﾆｲﾊﾏｼ","streetKana":"ﾋﾗｶﾀﾁｮｳ","prefecture":"愛媛県","city":"新居浜市","street":"平形町"},{"zipCode":"7920856","prefectureKana":"ｴﾋﾒｹﾝ","cityKana":"ﾆｲﾊﾏｼ","streetKana":"ﾌﾅｷ","prefecture":"愛媛県","city":"新居浜市","street":"船木"},{"zipCode":"7920009","prefectureKana":"ｴﾋﾒｹﾝ","cityKana":"ﾆｲﾊﾏｼ","streetKana":"ﾎｼｺﾞｴﾁｮｳ","prefecture":"愛媛県","city":"新居浜市","street":"星越町"},{"zipCode":"7920825","prefectureKana":"ｴﾋﾒｹﾝ","cityKana":"ﾆｲﾊﾏｼ","streetKana":"ﾎｼﾊﾞﾗﾁｮｳ","prefecture":"愛媛県","city":"新居浜市","street":"星原町"},{"zipCode":"7920042","prefectureKana":"ｴﾋﾒｹﾝ","cityKana":"ﾆｲﾊﾏｼ","streetKana":"ﾎﾝｺﾞｳ","prefecture":"愛媛県","city":"新居浜市","street":"本郷"},{"zipCode":"7920007","prefectureKana":"ｴﾋﾒｹﾝ","cityKana":"ﾆｲﾊﾏｼ","streetKana":"ﾏｴﾀﾞﾁｮｳ","prefecture":"愛媛県","city":"新居浜市","street":"前田町"},{"zipCode":"7920032","prefectureKana":"ｴﾋﾒｹﾝ","cityKana":"ﾆｲﾊﾏｼ","streetKana":"ﾏｻｴﾀﾞﾁｮｳ","prefecture":"愛媛県","city":"新居浜市","street":"政枝町"},{"zipCode":"7920882","prefectureKana":"ｴﾋﾒｹﾝ","cityKana":"ﾆｲﾊﾏｼ","streetKana":"ﾏﾀﾉ","prefecture":"愛媛県","city":"新居浜市","street":"又野"},{"zipCode":"7920829","prefectureKana":"ｴﾋﾒｹﾝ","cityKana":"ﾆｲﾊﾏｼ","streetKana":"ﾏﾂｷﾞﾁｮｳ","prefecture":"愛媛県","city":"新居浜市","street":"松木町"},{"zipCode":"7920868","prefectureKana":"ｴﾋﾒｹﾝ","cityKana":"ﾆｲﾊﾏｼ","streetKana":"ﾏﾂﾉｷﾁｮｳ","prefecture":"愛媛県","city":"新居浜市","street":"松の木町"},{"zipCode":"7920828","prefectureKana":"ｴﾋﾒｹﾝ","cityKana":"ﾆｲﾊﾏｼ","streetKana":"ﾏﾂﾊﾞﾗﾁｮｳ","prefecture":"愛媛県","city":"新居浜市","street":"松原町"},{"zipCode":"7920881","prefectureKana":"ｴﾋﾒｹﾝ","cityKana":"ﾆｲﾊﾏｼ","streetKana":"ﾏﾂﾐｺ","prefecture":"愛媛県","city":"新居浜市","street":"松神子"},{"zipCode":"7920016","prefectureKana":"ｴﾋﾒｹﾝ","cityKana":"ﾆｲﾊﾏｼ","streetKana":"ﾐﾅﾄﾏﾁ","prefecture":"愛媛県","city":"新居浜市","street":"港町"},{"zipCode":"7920863","prefectureKana":"ｴﾋﾒｹﾝ","cityKana":"ﾆｲﾊﾏｼ","streetKana":"ﾐﾅﾐｺﾏﾂﾊﾞﾗﾁｮｳ","prefecture":"愛媛県","city":"新居浜市","street":"南小松原町"},{"zipCode":"7920024","prefectureKana":"ｴﾋﾒｹﾝ","cityKana":"ﾆｲﾊﾏｼ","streetKana":"ﾐﾔﾆｼﾁｮｳ","prefecture":"愛媛県","city":"新居浜市","street":"宮西町"},{"zipCode":"7920833","prefectureKana":"ｴﾋﾒｹﾝ","cityKana":"ﾆｲﾊﾏｼ","streetKana":"ﾐﾔﾊﾞﾗﾁｮｳ","prefecture":"愛媛県","city":"新居浜市","street":"宮原町"},{"zipCode":"7920805","prefectureKana":"ｴﾋﾒｹﾝ","cityKana":"ﾆｲﾊﾏｼ","streetKana":"ﾔｸﾞﾓﾁｮｳ","prefecture":"愛媛県","city":"新居浜市","street":"八雲町"},{"zipCode":"7920837","prefectureKana":"ｴﾋﾒｹﾝ","cityKana":"ﾆｲﾊﾏｼ","streetKana":"ﾔﾏﾀﾞﾁｮｳ","prefecture":"愛媛県","city":"新居浜市","street":"山田町"},{"zipCode":"7920835","prefectureKana":"ｴﾋﾒｹﾝ","cityKana":"ﾆｲﾊﾏｼ","streetKana":"ﾔﾏﾈﾁｮｳ","prefecture":"愛媛県","city":"新居浜市","street":"山根町"},{"zipCode":"7920033","prefectureKana":"ｴﾋﾒｹﾝ","cityKana":"ﾆｲﾊﾏｼ","streetKana":"ﾖｺｽﾞｲﾁｮｳ","prefecture":"愛媛県","city":"新居浜市","street":"横水町"},{"zipCode":"7920843","prefectureKana":"ｴﾋﾒｹﾝ","cityKana":"ﾆｲﾊﾏｼ","streetKana":"ﾖｼｵｶﾁｮｳ","prefecture":"愛媛県","city":"新居浜市","street":"吉岡町"},{"zipCode":"7920017","prefectureKana":"ｴﾋﾒｹﾝ","cityKana":"ﾆｲﾊﾏｼ","streetKana":"ﾜｶﾐｽﾞﾁｮｳ","prefecture":"愛媛県","city":"新居浜市","street":"若水町"}]