[{"zipCode":"7950000","prefectureKana":"ｴﾋﾒｹﾝ","cityKana":"ｵｵｽﾞｼ","streetKana":"ｲｶﾆｹｲｻｲｶﾞﾅｲﾊﾞｱｲ","prefecture":"愛媛県","city":"大洲市","street":"以下に掲載がない場合"},{"zipCode":"7950025","prefectureKana":"ｴﾋﾒｹﾝ","cityKana":"ｵｵｽﾞｼ","streetKana":"ｱｿﾞｳ","prefecture":"愛媛県","city":"大洲市","street":"阿蔵"},{"zipCode":"7950062","prefectureKana":"ｴﾋﾒｹﾝ","cityKana":"ｵｵｽﾞｼ","streetKana":"ｲﾁｷﾞ","prefecture":"愛媛県","city":"大洲市","street":"市木"},{"zipCode":"7950007","prefectureKana":"ｴﾋﾒｹﾝ","cityKana":"ｵｵｽﾞｼ","streetKana":"ｲﾅｽﾞﾐ","prefecture":"愛媛県","city":"大洲市","street":"稲積"},{"zipCode":"7950003","prefectureKana":"ｴﾋﾒｹﾝ","cityKana":"ｵｵｽﾞｼ","streetKana":"ｳﾒｶﾞﾜ","prefecture":"愛媛県","city":"大洲市","street":"梅川"},{"zipCode":"7950088","prefectureKana":"ｴﾋﾒｹﾝ","cityKana":"ｵｵｽﾞｼ","streetKana":"ｳﾜｶﾞﾜ","prefecture":"愛媛県","city":"大洲市","street":"宇和川"},{"zipCode":"7950012","prefectureKana":"ｴﾋﾒｹﾝ","cityKana":"ｵｵｽﾞｼ","streetKana":"ｵｵｽﾞ","prefecture":"愛媛県","city":"大洲市","street":"大洲"},{"zipCode":"7950032","prefectureKana":"ｴﾋﾒｹﾝ","cityKana":"ｵｵｽﾞｼ","streetKana":"ｶﾐｽｶﾞｲ","prefecture":"愛媛県","city":"大洲市","street":"上須戒"},{"zipCode":"7950009","prefectureKana":"ｴﾋﾒｹﾝ","cityKana":"ｵｵｽﾞｼ","streetKana":"ｷﾀｳﾗ","prefecture":"愛媛県","city":"大洲市","street":"北裏"},{"zipCode":"7950001","prefectureKana":"ｴﾋﾒｹﾝ","cityKana":"ｵｵｽﾞｼ","streetKana":"ｷﾀﾀﾀﾞ","prefecture":"愛媛県","city":"大洲市","street":"北只"},{"zipCode":"7950075","prefectureKana":"ｴﾋﾒｹﾝ","cityKana":"ｵｵｽﾞｼ","streetKana":"ｷﾀﾔﾏ","prefecture":"愛媛県","city":"大洲市","street":"喜多山"},{"zipCode":"7950089","prefectureKana":"ｴﾋﾒｹﾝ","cityKana":"ｵｵｽﾞｼ","streetKana":"ｸﾗｶﾜ","prefecture":"愛媛県","city":"大洲市","street":"蔵川"},{"zipCode":"7950008","prefectureKana":"ｴﾋﾒｹﾝ","cityKana":"ｵｵｽﾞｼ","streetKana":"ｸﾛｷﾞ","prefecture":"愛媛県","city":"大洲市","street":"黒木"},{"zipCode":"7950074","prefectureKana":"ｴﾋﾒｹﾝ","cityKana":"ｵｵｽﾞｼ","streetKana":"ｺｲﾉｷ","prefecture":"愛媛県","city":"大洲市","street":"恋木"},{"zipCode":"7950051","prefectureKana":"ｴﾋﾒｹﾝ","cityKana":"ｵｵｽﾞｼ","streetKana":"ｺﾞﾛｳ","prefecture":"愛媛県","city":"大洲市","street":"五郎"},{"zipCode":"7950084","prefectureKana":"ｴﾋﾒｹﾝ","cityKana":"ｵｵｽﾞｼ","streetKana":"ｽｹﾞﾀﾁｮｳｳｽﾞｺｳ","prefecture":"愛媛県","city":"大洲市","street":"菅田町宇津甲"},{"zipCode":"7950085","prefectureKana":"ｴﾋﾒｹﾝ","cityKana":"ｵｵｽﾞｼ","streetKana":"ｽｹﾞﾀﾁｮｳｳｽﾞｵﾂ","prefecture":"愛媛県","city":"大洲市","street":"菅田町宇津乙"},{"zipCode":"7950083","prefectureKana":"ｴﾋﾒｹﾝ","cityKana":"ｵｵｽﾞｼ","streetKana":"ｽｹﾞﾀﾁｮｳｵｵﾀﾞｹ","prefecture":"愛媛県","city":"大洲市","street":"菅田町大竹"},{"zipCode":"7950081","prefectureKana":"ｴﾋﾒｹﾝ","cityKana":"ｵｵｽﾞｼ","streetKana":"ｽｹﾞﾀﾁｮｳｽｹﾞﾀｺｳ","prefecture":"愛媛県","city":"大洲市","street":"菅田町菅田甲"},{"zipCode":"7950082","prefectureKana":"ｴﾋﾒｹﾝ","cityKana":"ｵｵｽﾞｼ","streetKana":"ｽｹﾞﾀﾁｮｳｽｹﾞﾀｵﾂ","prefecture":"愛媛県","city":"大洲市","street":"菅田町菅田乙"},{"zipCode":"7950081","prefectureKana":"ｴﾋﾒｹﾝ","cityKana":"ｵｵｽﾞｼ","streetKana":"ｽｹﾞﾀﾁｮｳｽｹﾞﾀﾍｲ","prefecture":"愛媛県","city":"大洲市","street":"菅田町菅田丙"},{"zipCode":"7950024","prefectureKana":"ｴﾋﾒｹﾝ","cityKana":"ｵｵｽﾞｼ","streetKana":"ﾀｶﾔﾏ","prefecture":"愛媛県","city":"大洲市","street":"高山"},{"zipCode":"7950031","prefectureKana":"ｴﾋﾒｹﾝ","cityKana":"ｵｵｽﾞｼ","streetKana":"ﾀﾀﾞ","prefecture":"愛媛県","city":"大洲市","street":"多田"},{"zipCode":"7950078","prefectureKana":"ｴﾋﾒｹﾝ","cityKana":"ｵｵｽﾞｼ","streetKana":"ﾀﾄﾞｺﾛ","prefecture":"愛媛県","city":"大洲市","street":"田処"},{"zipCode":"7950063","prefectureKana":"ｴﾋﾒｹﾝ","cityKana":"ｵｵｽﾞｼ","streetKana":"ﾀﾉｸﾁ","prefecture":"愛媛県","city":"大洲市","street":"田口"},{"zipCode":"7950044","prefectureKana":"ｴﾋﾒｹﾝ","cityKana":"ｵｵｽﾞｼ","streetKana":"ﾃﾅﾙ","prefecture":"愛媛県","city":"大洲市","street":"手成"},{"zipCode":"7950053","prefectureKana":"ｴﾋﾒｹﾝ","cityKana":"ｵｵｽﾞｼ","streetKana":"ﾄｷﾜﾏﾁ","prefecture":"愛媛県","city":"大洲市","street":"常磐町"},{"zipCode":"7950061","prefectureKana":"ｴﾋﾒｹﾝ","cityKana":"ｵｵｽﾞｼ","streetKana":"ﾄｸﾉﾓﾘ","prefecture":"愛媛県","city":"大洲市","street":"徳森"},{"zipCode":"7950004","prefectureKana":"ｴﾋﾒｹﾝ","cityKana":"ｵｵｽﾞｼ","streetKana":"ﾅｶﾞﾀﾆ","prefecture":"愛媛県","city":"大洲市","street":"長谷"},{"zipCode":"7950054","prefectureKana":"ｴﾋﾒｹﾝ","cityKana":"ｵｵｽﾞｼ","streetKana":"ﾅｶﾑﾗ","prefecture":"愛媛県","city":"大洲市","street":"中村"},{"zipCode":"7950086","prefectureKana":"ｴﾋﾒｹﾝ","cityKana":"ｵｵｽﾞｼ","streetKana":"ﾅﾙﾉｳ","prefecture":"愛媛県","city":"大洲市","street":"成能"},{"zipCode":"7950069","prefectureKana":"ｴﾋﾒｹﾝ","cityKana":"ｵｵｽﾞｼ","streetKana":"ﾆｲﾔ","prefecture":"愛媛県","city":"大洲市","street":"新谷"},{"zipCode":"7950072","prefectureKana":"ｴﾋﾒｹﾝ","cityKana":"ｵｵｽﾞｼ","streetKana":"ﾆｲﾔｺｳ","prefecture":"愛媛県","city":"大洲市","street":"新谷甲"},{"zipCode":"7950071","prefectureKana":"ｴﾋﾒｹﾝ","cityKana":"ｵｵｽﾞｼ","streetKana":"ﾆｲﾔｵﾂ","prefecture":"愛媛県","city":"大洲市","street":"新谷乙"},{"zipCode":"7950070","prefectureKana":"ｴﾋﾒｹﾝ","cityKana":"ｵｵｽﾞｼ","streetKana":"ﾆｲﾔﾍｲ","prefecture":"愛媛県","city":"大洲市","street":"新谷丙"},{"zipCode":"7950073","prefectureKana":"ｴﾋﾒｹﾝ","cityKana":"ｵｵｽﾞｼ","streetKana":"ﾆｲﾔﾏﾁ","prefecture":"愛媛県","city":"大洲市","street":"新谷町"},{"zipCode":"7950013","prefectureKana":"ｴﾋﾒｹﾝ","cityKana":"ｵｵｽﾞｼ","streetKana":"ﾆｼｵｵｽﾞ","prefecture":"愛媛県","city":"大洲市","street":"西大洲"},{"zipCode":"7950041","prefectureKana":"ｴﾋﾒｹﾝ","cityKana":"ｵｵｽﾞｼ","streetKana":"ﾊﾀｷﾁｮｳ","prefecture":"愛媛県","city":"大洲市","street":"八多喜町"},{"zipCode":"7950046","prefectureKana":"ｴﾋﾒｹﾝ","cityKana":"ｵｵｽﾞｼ","streetKana":"ﾊﾙｶ","prefecture":"愛媛県","city":"大洲市","street":"春賀"},{"zipCode":"7950045","prefectureKana":"ｴﾋﾒｹﾝ","cityKana":"ｵｵｽﾞｼ","streetKana":"ﾋｶﾞｼｳﾔﾏ","prefecture":"愛媛県","city":"大洲市","street":"東宇山"},{"zipCode":"7950064","prefectureKana":"ｴﾋﾒｹﾝ","cityKana":"ｵｵｽﾞｼ","streetKana":"ﾋｶﾞｼｵｵｽﾞ","prefecture":"愛媛県","city":"大洲市","street":"東大洲"},{"zipCode":"7950065","prefectureKana":"ｴﾋﾒｹﾝ","cityKana":"ｵｵｽﾞｼ","streetKana":"ﾋｶﾞｼﾜｶﾐﾔ","prefecture":"愛媛県","city":"大洲市","street":"東若宮"},{"zipCode":"7950021","prefectureKana":"ｴﾋﾒｹﾝ","cityKana":"ｵｵｽﾞｼ","streetKana":"ﾋﾗﾉﾁｮｳﾉﾀﾞ","prefecture":"愛媛県","city":"大洲市","street":"平野町野田"},{"zipCode":"7950023","prefectureKana":"ｴﾋﾒｹﾝ","cityKana":"ｵｵｽﾞｼ","streetKana":"ﾋﾗﾉﾁｮｳﾋﾗｼﾞ(ﾖｺﾉ)","prefecture":"愛媛県","city":"大洲市","street":"平野町平地（横野）"},{"zipCode":"7950022","prefectureKana":"ｴﾋﾒｹﾝ","cityKana":"ｵｵｽﾞｼ","streetKana":"ﾋﾗﾉﾁｮｳﾋﾗｼﾞ(ｿﾉﾀ)","prefecture":"愛媛県","city":"大洲市","street":"平野町平地（その他）"},{"zipCode":"7950076","prefectureKana":"ｴﾋﾒｹﾝ","cityKana":"ｵｵｽﾞｼ","streetKana":"ﾌｼﾞﾅﾜ","prefecture":"愛媛県","city":"大洲市","street":"藤縄"},{"zipCode":"7950002","prefectureKana":"ｴﾋﾒｹﾝ","cityKana":"ｵｵｽﾞｼ","streetKana":"ﾏﾂｵ","prefecture":"愛媛県","city":"大洲市","street":"松尾"},{"zipCode":"7950087","prefectureKana":"ｴﾋﾒｹﾝ","cityKana":"ｵｵｽﾞｼ","streetKana":"ﾓﾘﾔﾏ","prefecture":"愛媛県","city":"大洲市","street":"森山"},{"zipCode":"7950006","prefectureKana":"ｴﾋﾒｹﾝ","cityKana":"ｵｵｽﾞｼ","streetKana":"ﾔｻﾗｲ","prefecture":"愛媛県","city":"大洲市","street":"野佐来"},{"zipCode":"7950077","prefectureKana":"ｴﾋﾒｹﾝ","cityKana":"ｵｵｽﾞｼ","streetKana":"ﾔﾅｷﾞｻﾜ","prefecture":"愛媛県","city":"大洲市","street":"柳沢"},{"zipCode":"7950011","prefectureKana":"ｴﾋﾒｹﾝ","cityKana":"ｵｵｽﾞｼ","streetKana":"ﾕﾉｷ","prefecture":"愛媛県","city":"大洲市","street":"柚木"},{"zipCode":"7950005","prefectureKana":"ｴﾋﾒｹﾝ","cityKana":"ｵｵｽﾞｼ","streetKana":"ﾖｺﾉ(ｸﾎﾞ)","prefecture":"愛媛県","city":"大洲市","street":"横野（久保）"},{"zipCode":"7950042","prefectureKana":"ｴﾋﾒｹﾝ","cityKana":"ｵｵｽﾞｼ","streetKana":"ﾖﾅﾂﾞ","prefecture":"愛媛県","city":"大洲市","street":"米津"},{"zipCode":"7950043","prefectureKana":"ｴﾋﾒｹﾝ","cityKana":"ｵｵｽﾞｼ","streetKana":"ﾖﾅﾂﾞ(ｺｳ)","prefecture":"愛媛県","city":"大洲市","street":"米津（甲）"},{"zipCode":"7950052","prefectureKana":"ｴﾋﾒｹﾝ","cityKana":"ｵｵｽﾞｼ","streetKana":"ﾜｶﾐﾔ","prefecture":"愛媛県","city":"大洲市","street":"若宮"},{"zipCode":"7950301","prefectureKana":"ｴﾋﾒｹﾝ","cityKana":"ｷﾀｸﾞﾝｳﾁｺﾁｮｳ","streetKana":"ｲｶｻﾞｷ","prefecture":"愛媛県","city":"喜多郡内子町","street":"五十崎"},{"zipCode":"7950302","prefectureKana":"ｴﾋﾒｹﾝ","cityKana":"ｷﾀｸﾞﾝｳﾁｺﾁｮｳ","streetKana":"ｵｵｸﾞｷ","prefecture":"愛媛県","city":"喜多郡内子町","street":"大久喜"},{"zipCode":"7950307","prefectureKana":"ｴﾋﾒｹﾝ","cityKana":"ｷﾀｸﾞﾝｳﾁｺﾁｮｳ","streetKana":"ｷﾀｵﾓﾃ","prefecture":"愛媛県","city":"喜多郡内子町","street":"北表"},{"zipCode":"7950304","prefectureKana":"ｴﾋﾒｹﾝ","cityKana":"ｷﾀｸﾞﾝｳﾁｺﾁｮｳ","streetKana":"ｼｹﾞﾏﾂ","prefecture":"愛媛県","city":"喜多郡内子町","street":"重松"},{"zipCode":"7950305","prefectureKana":"ｴﾋﾒｹﾝ","cityKana":"ｷﾀｸﾞﾝｳﾁｺﾁｮｳ","streetKana":"ｼｭｸﾏ","prefecture":"愛媛県","city":"喜多郡内子町","street":"宿間"},{"zipCode":"7950309","prefectureKana":"ｴﾋﾒｹﾝ","cityKana":"ｷﾀｸﾞﾝｳﾁｺﾁｮｳ","streetKana":"ﾀﾀﾞﾉｳﾐ","prefecture":"愛媛県","city":"喜多郡内子町","street":"只海"},{"zipCode":"7950303","prefectureKana":"ｴﾋﾒｹﾝ","cityKana":"ｷﾀｸﾞﾝｳﾁｺﾁｮｳ","streetKana":"ﾋﾗｵｶ","prefecture":"愛媛県","city":"喜多郡内子町","street":"平岡"},{"zipCode":"7950306","prefectureKana":"ｴﾋﾒｹﾝ","cityKana":"ｷﾀｸﾞﾝｳﾁｺﾁｮｳ","streetKana":"ﾌｸｵｶ","prefecture":"愛媛県","city":"喜多郡内子町","street":"福岡"},{"zipCode":"7950308","prefectureKana":"ｴﾋﾒｹﾝ","cityKana":"ｷﾀｸﾞﾝｳﾁｺﾁｮｳ","streetKana":"ﾔﾏﾄｻｶ","prefecture":"愛媛県","city":"喜多郡内子町","street":"山鳥坂"}]