[{"zipCode":"7960000","prefectureKana":"ｴﾋﾒｹﾝ","cityKana":"ﾔﾜﾀﾊﾏｼ","streetKana":"ｲｶﾆｹｲｻｲｶﾞﾅｲﾊﾞｱｲ","prefecture":"愛媛県","city":"八幡浜市","street":"以下に掲載がない場合"},{"zipCode":"7960088","prefectureKana":"ｴﾋﾒｹﾝ","cityKana":"ﾔﾜﾀﾊﾏｼ","streetKana":"ﾔﾜﾀﾊﾏｼﾉﾂｷﾞﾆﾊﾞﾝﾁｶﾞｸﾙﾊﾞｱｲ","prefecture":"愛媛県","city":"八幡浜市","street":"八幡浜市の次に番地がくる場合"},{"zipCode":"7960081","prefectureKana":"ｴﾋﾒｹﾝ","cityKana":"ﾔﾜﾀﾊﾏｼ","streetKana":"ｱｻｼｵﾊﾞｼ","prefecture":"愛媛県","city":"八幡浜市","street":"朝潮橋"},{"zipCode":"7960086","prefectureKana":"ｴﾋﾒｹﾝ","cityKana":"ﾔﾜﾀﾊﾏｼ","streetKana":"ｱｻﾋﾏﾁ","prefecture":"愛媛県","city":"八幡浜市","street":"旭町"},{"zipCode":"7960056","prefectureKana":"ｴﾋﾒｹﾝ","cityKana":"ﾔﾜﾀﾊﾏｼ","streetKana":"ｱﾀｺﾞ","prefecture":"愛媛県","city":"八幡浜市","street":"愛宕"},{"zipCode":"7960057","prefectureKana":"ｴﾋﾒｹﾝ","cityKana":"ﾔﾜﾀﾊﾏｼ","streetKana":"ｱﾀｺﾞﾔﾏﾀﾞﾝﾁ","prefecture":"愛媛県","city":"八幡浜市","street":"愛宕山団地"},{"zipCode":"7968054","prefectureKana":"ｴﾋﾒｹﾝ","cityKana":"ﾔﾜﾀﾊﾏｼ","streetKana":"ｱﾅｲ","prefecture":"愛媛県","city":"八幡浜市","street":"穴井"},{"zipCode":"7960022","prefectureKana":"ｴﾋﾒｹﾝ","cityKana":"ﾔﾜﾀﾊﾏｼ","streetKana":"ｴｷﾏｴ","prefecture":"愛媛県","city":"八幡浜市","street":"駅前"},{"zipCode":"7960031","prefectureKana":"ｴﾋﾒｹﾝ","cityKana":"ﾔﾜﾀﾊﾏｼ","streetKana":"ｴﾄﾞｵｶ","prefecture":"愛媛県","city":"八幡浜市","street":"江戸岡"},{"zipCode":"7960061","prefectureKana":"ｴﾋﾒｹﾝ","cityKana":"ﾔﾜﾀﾊﾏｼ","streetKana":"ｴﾋﾞｻｷ","prefecture":"愛媛県","city":"八幡浜市","street":"海老崎"},{"zipCode":"7960073","prefectureKana":"ｴﾋﾒｹﾝ","cityKana":"ﾔﾜﾀﾊﾏｼ","streetKana":"ｴﾋﾞｽﾏﾁ","prefecture":"愛媛県","city":"八幡浜市","street":"戎町"},{"zipCode":"7968060","prefectureKana":"ｴﾋﾒｹﾝ","cityKana":"ﾔﾜﾀﾊﾏｼ","streetKana":"ｵｵｼﾏ","prefecture":"愛媛県","city":"八幡浜市","street":"大島"},{"zipCode":"7968001","prefectureKana":"ｴﾋﾒｹﾝ","cityKana":"ﾔﾜﾀﾊﾏｼ","streetKana":"ｵｵﾀﾆｸﾞﾁ","prefecture":"愛媛県","city":"八幡浜市","street":"大谷口"},{"zipCode":"7960004","prefectureKana":"ｴﾋﾒｹﾝ","cityKana":"ﾔﾜﾀﾊﾏｼ","streetKana":"ｵｵﾋﾗ(ﾂﾊﾞｲ)","prefecture":"愛媛県","city":"八幡浜市","street":"大平（津羽井）"},{"zipCode":"7960002","prefectureKana":"ｴﾋﾒｹﾝ","cityKana":"ﾔﾜﾀﾊﾏｼ","streetKana":"ｵｵﾋﾗ(ﾊﾅｿﾞﾉﾁｮｳ)","prefecture":"愛媛県","city":"八幡浜市","street":"大平（花園町）"},{"zipCode":"7960003","prefectureKana":"ｴﾋﾒｹﾝ","cityKana":"ﾔﾜﾀﾊﾏｼ","streetKana":"ｵｵﾋﾗ(ｿﾉﾀ)","prefecture":"愛媛県","city":"八幡浜市","street":"大平（その他）"},{"zipCode":"7960087","prefectureKana":"ｴﾋﾒｹﾝ","cityKana":"ﾔﾜﾀﾊﾏｼ","streetKana":"ｵｷｼﾝﾃﾞﾝ","prefecture":"愛媛県","city":"八幡浜市","street":"沖新田"},{"zipCode":"7960053","prefectureKana":"ｴﾋﾒｹﾝ","cityKana":"ﾔﾜﾀﾊﾏｼ","streetKana":"ｶｲﾎﾞｳｴﾝ","prefecture":"愛媛県","city":"八幡浜市","street":"海望園"},{"zipCode":"7960065","prefectureKana":"ｴﾋﾒｹﾝ","cityKana":"ﾔﾜﾀﾊﾏｼ","streetKana":"ｶﾀﾔﾏﾁｮｳ","prefecture":"愛媛県","city":"八幡浜市","street":"片山町"},{"zipCode":"7968036","prefectureKana":"ｴﾋﾒｹﾝ","cityKana":"ﾔﾜﾀﾊﾏｼ","streetKana":"ｶﾏﾉｸﾗ","prefecture":"愛媛県","city":"八幡浜市","street":"釜倉"},{"zipCode":"7968051","prefectureKana":"ｴﾋﾒｹﾝ","cityKana":"ﾔﾜﾀﾊﾏｼ","streetKana":"ｶﾜｶﾐﾁｮｳｶﾐﾄﾞﾏﾘ","prefecture":"愛媛県","city":"八幡浜市","street":"川上町上泊"},{"zipCode":"7968050","prefectureKana":"ｴﾋﾒｹﾝ","cityKana":"ﾔﾜﾀﾊﾏｼ","streetKana":"ｶﾜｶﾐﾁｮｳｶﾜﾅﾂﾞ","prefecture":"愛媛県","city":"八幡浜市","street":"川上町川名津"},{"zipCode":"7968052","prefectureKana":"ｴﾋﾒｹﾝ","cityKana":"ﾔﾜﾀﾊﾏｼ","streetKana":"ｶﾜｶﾐﾁｮｳｼﾗｲｼ","prefecture":"愛媛県","city":"八幡浜市","street":"川上町白石"},{"zipCode":"7968025","prefectureKana":"ｴﾋﾒｹﾝ","cityKana":"ﾔﾜﾀﾊﾏｼ","streetKana":"ｶﾜﾉｳﾁ","prefecture":"愛媛県","city":"八幡浜市","street":"川之内"},{"zipCode":"7960082","prefectureKana":"ｴﾋﾒｹﾝ","cityKana":"ﾔﾜﾀﾊﾏｼ","streetKana":"ｷﾀﾀﾞｲｺｸﾏﾁ","prefecture":"愛媛県","city":"八幡浜市","street":"北大黒町"},{"zipCode":"7960048","prefectureKana":"ｴﾋﾒｹﾝ","cityKana":"ﾔﾜﾀﾊﾏｼ","streetKana":"ｷﾀﾊﾏ","prefecture":"愛媛県","city":"八幡浜市","street":"北浜"},{"zipCode":"7960011","prefectureKana":"ｴﾋﾒｹﾝ","cityKana":"ﾔﾜﾀﾊﾏｼ","streetKana":"ｷﾀﾏﾁ","prefecture":"愛媛県","city":"八幡浜市","street":"木多町"},{"zipCode":"7960042","prefectureKana":"ｴﾋﾒｹﾝ","cityKana":"ﾔﾜﾀﾊﾏｼ","streetKana":"ｷﾀﾏﾁ","prefecture":"愛媛県","city":"八幡浜市","street":"喜多町"},{"zipCode":"7960046","prefectureKana":"ｴﾋﾒｹﾝ","cityKana":"ﾔﾜﾀﾊﾏｼ","streetKana":"ｷｭｳﾐﾅﾄ","prefecture":"愛媛県","city":"八幡浜市","street":"旧港"},{"zipCode":"7960077","prefectureKana":"ｴﾋﾒｹﾝ","cityKana":"ﾔﾜﾀﾊﾏｼ","streetKana":"ｷｭｳﾔｸﾊﾞﾏｴﾄﾞｵﾘ","prefecture":"愛媛県","city":"八幡浜市","street":"旧役場前通"},{"zipCode":"7968015","prefectureKana":"ｴﾋﾒｹﾝ","cityKana":"ﾔﾜﾀﾊﾏｼ","streetKana":"ｸﾆｷﾞ","prefecture":"愛媛県","city":"八幡浜市","street":"国木"},{"zipCode":"7968008","prefectureKana":"ｴﾋﾒｹﾝ","cityKana":"ﾔﾜﾀﾊﾏｼ","streetKana":"ｸﾘﾉｳﾗ","prefecture":"愛媛県","city":"八幡浜市","street":"栗野浦"},{"zipCode":"7968020","prefectureKana":"ｴﾋﾒｹﾝ","cityKana":"ﾔﾜﾀﾊﾏｼ","streetKana":"ｺﾞｳ","prefecture":"愛媛県","city":"八幡浜市","street":"郷"},{"zipCode":"7968041","prefectureKana":"ｴﾋﾒｹﾝ","cityKana":"ﾔﾜﾀﾊﾏｼ","streetKana":"ｺﾞｳﾀﾞ","prefecture":"愛媛県","city":"八幡浜市","street":"合田"},{"zipCode":"7968010","prefectureKana":"ｴﾋﾒｹﾝ","cityKana":"ﾔﾜﾀﾊﾏｼ","streetKana":"ｺﾞﾀﾝﾀﾞ","prefecture":"愛媛県","city":"八幡浜市","street":"五反田"},{"zipCode":"7960054","prefectureKana":"ｴﾋﾒｹﾝ","cityKana":"ﾔﾜﾀﾊﾏｼ","streetKana":"ｺﾄﾋﾗﾁｮｳ","prefecture":"愛媛県","city":"八幡浜市","street":"琴平町"},{"zipCode":"7960041","prefectureKana":"ｴﾋﾒｹﾝ","cityKana":"ﾔﾜﾀﾊﾏｼ","streetKana":"ｻｲﾊﾞﾝｼｮﾄﾞｵﾘ","prefecture":"愛媛県","city":"八幡浜市","street":"裁判所通"},{"zipCode":"7960051","prefectureKana":"ｴﾋﾒｹﾝ","cityKana":"ﾔﾜﾀﾊﾏｼ","streetKana":"ｻｲﾜｲﾏﾁ","prefecture":"愛媛県","city":"八幡浜市","street":"幸町"},{"zipCode":"7968004","prefectureKana":"ｴﾋﾒｹﾝ","cityKana":"ﾔﾜﾀﾊﾏｼ","streetKana":"ｻﾝｷﾞｮｳﾄﾞｵﾘ","prefecture":"愛媛県","city":"八幡浜市","street":"産業通"},{"zipCode":"7968040","prefectureKana":"ｴﾋﾒｹﾝ","cityKana":"ﾔﾜﾀﾊﾏｼ","streetKana":"ｼﾀﾏ","prefecture":"愛媛県","city":"八幡浜市","street":"舌間"},{"zipCode":"7960069","prefectureKana":"ｴﾋﾒｹﾝ","cityKana":"ﾔﾜﾀﾊﾏｼ","streetKana":"ｼﾀﾐﾁ","prefecture":"愛媛県","city":"八幡浜市","street":"下道"},{"zipCode":"7960028","prefectureKana":"ｴﾋﾒｹﾝ","cityKana":"ﾔﾜﾀﾊﾏｼ","streetKana":"ｼﾐｽﾞﾏﾁ","prefecture":"愛媛県","city":"八幡浜市","street":"清水町"},{"zipCode":"7960038","prefectureKana":"ｴﾋﾒｹﾝ","cityKana":"ﾔﾜﾀﾊﾏｼ","streetKana":"ｼﾐｽﾞﾏﾁﾊﾅｺｳｼﾞ","prefecture":"愛媛県","city":"八幡浜市","street":"清水町花小路"},{"zipCode":"7960037","prefectureKana":"ｴﾋﾒｹﾝ","cityKana":"ﾔﾜﾀﾊﾏｼ","streetKana":"ｼｮｳﾜﾄﾞｵﾘ","prefecture":"愛媛県","city":"八幡浜市","street":"昭和通"},{"zipCode":"7960047","prefectureKana":"ｴﾋﾒｹﾝ","cityKana":"ﾔﾜﾀﾊﾏｼ","streetKana":"ｼﾛﾊﾏﾄﾞｵﾘ","prefecture":"愛媛県","city":"八幡浜市","street":"白浜通"},{"zipCode":"7960062","prefectureKana":"ｴﾋﾒｹﾝ","cityKana":"ﾔﾜﾀﾊﾏｼ","streetKana":"ｼﾝｴｲﾁｮｳ","prefecture":"愛媛県","city":"八幡浜市","street":"新栄町"},{"zipCode":"7960036","prefectureKana":"ｴﾋﾒｹﾝ","cityKana":"ﾔﾜﾀﾊﾏｼ","streetKana":"ｼﾝｶﾜ","prefecture":"愛媛県","city":"八幡浜市","street":"新川"},{"zipCode":"7960020","prefectureKana":"ｴﾋﾒｹﾝ","cityKana":"ﾔﾜﾀﾊﾏｼ","streetKana":"ｼﾞﾝｸﾞｳ","prefecture":"愛媛県","city":"八幡浜市","street":"神宮"},{"zipCode":"7960024","prefectureKana":"ｴﾋﾒｹﾝ","cityKana":"ﾔﾜﾀﾊﾏｼ","streetKana":"ｼﾞﾝｸﾞｳﾄﾞｵﾘ","prefecture":"愛媛県","city":"八幡浜市","street":"神宮通"},{"zipCode":"7960023","prefectureKana":"ｴﾋﾒｹﾝ","cityKana":"ﾔﾜﾀﾊﾏｼ","streetKana":"ｼﾞﾝｸﾞｳﾏｴ","prefecture":"愛媛県","city":"八幡浜市","street":"神宮前"},{"zipCode":"7960071","prefectureKana":"ｴﾋﾒｹﾝ","cityKana":"ﾔﾜﾀﾊﾏｼ","streetKana":"ｼﾝﾏﾁ","prefecture":"愛媛県","city":"八幡浜市","street":"新町"},{"zipCode":"7960074","prefectureKana":"ｴﾋﾒｹﾝ","cityKana":"ﾔﾜﾀﾊﾏｼ","streetKana":"ｼﾝﾐﾅﾄ","prefecture":"愛媛県","city":"八幡浜市","street":"新港"},{"zipCode":"7960079","prefectureKana":"ｴﾋﾒｹﾝ","cityKana":"ﾔﾜﾀﾊﾏｼ","streetKana":"ｼﾝﾐﾅﾄｴﾋﾞｽﾏﾁ","prefecture":"愛媛県","city":"八幡浜市","street":"新港戎町"},{"zipCode":"7960014","prefectureKana":"ｴﾋﾒｹﾝ","cityKana":"ﾔﾜﾀﾊﾏｼ","streetKana":"ｼﾝﾜﾀﾞﾏﾁ","prefecture":"愛媛県","city":"八幡浜市","street":"新和田町"},{"zipCode":"7960035","prefectureKana":"ｴﾋﾒｹﾝ","cityKana":"ﾔﾜﾀﾊﾏｼ","streetKana":"ｽｻｷ","prefecture":"愛媛県","city":"八幡浜市","street":"須崎"},{"zipCode":"7960064","prefectureKana":"ｴﾋﾒｹﾝ","cityKana":"ﾔﾜﾀﾊﾏｼ","streetKana":"ｾﾝﾊﾞﾄﾞｵﾘ","prefecture":"愛媛県","city":"八幡浜市","street":"船場通"},{"zipCode":"7960083","prefectureKana":"ｴﾋﾒｹﾝ","cityKana":"ﾔﾜﾀﾊﾏｼ","streetKana":"ﾀﾞｲｺｸﾏﾁ","prefecture":"愛媛県","city":"八幡浜市","street":"大黒町"},{"zipCode":"7960033","prefectureKana":"ｴﾋﾒｹﾝ","cityKana":"ﾔﾜﾀﾊﾏｼ","streetKana":"ﾀｲｼｮｳﾏﾁ","prefecture":"愛媛県","city":"八幡浜市","street":"大正町"},{"zipCode":"7960055","prefectureKana":"ｴﾋﾒｹﾝ","cityKana":"ﾔﾜﾀﾊﾏｼ","streetKana":"ﾀﾞｲﾓﾝ","prefecture":"愛媛県","city":"八幡浜市","street":"大門"},{"zipCode":"7960005","prefectureKana":"ｴﾋﾒｹﾝ","cityKana":"ﾔﾜﾀﾊﾏｼ","streetKana":"ﾀｶﾉｼﾞ","prefecture":"愛媛県","city":"八幡浜市","street":"高野地"},{"zipCode":"7968037","prefectureKana":"ｴﾋﾒｹﾝ","cityKana":"ﾔﾜﾀﾊﾏｼ","streetKana":"ﾀﾆ","prefecture":"愛媛県","city":"八幡浜市","street":"谷"},{"zipCode":"7960067","prefectureKana":"ｴﾋﾒｹﾝ","cityKana":"ﾔﾜﾀﾊﾏｼ","streetKana":"ﾁｭｳｵｳ","prefecture":"愛媛県","city":"八幡浜市","street":"中央"},{"zipCode":"7960076","prefectureKana":"ｴﾋﾒｹﾝ","cityKana":"ﾔﾜﾀﾊﾏｼ","streetKana":"ﾁﾖﾀﾞﾏﾁ","prefecture":"愛媛県","city":"八幡浜市","street":"千代田町"},{"zipCode":"7960089","prefectureKana":"ｴﾋﾒｹﾝ","cityKana":"ﾔﾜﾀﾊﾏｼ","streetKana":"ﾃﾞｼﾞﾏ","prefecture":"愛媛県","city":"八幡浜市","street":"出島"},{"zipCode":"7960085","prefectureKana":"ｴﾋﾒｹﾝ","cityKana":"ﾔﾜﾀﾊﾏｼ","streetKana":"ﾃﾝｼﾞﾝﾄﾞｵﾘ","prefecture":"愛媛県","city":"八幡浜市","street":"天神通"},{"zipCode":"7968030","prefectureKana":"ｴﾋﾒｹﾝ","cityKana":"ﾔﾜﾀﾊﾏｼ","streetKana":"ﾅｶﾂｶﾜ","prefecture":"愛媛県","city":"八幡浜市","street":"中津川"},{"zipCode":"7960075","prefectureKana":"ｴﾋﾒｹﾝ","cityKana":"ﾔﾜﾀﾊﾏｼ","streetKana":"ﾅｶﾉﾏﾁ","prefecture":"愛媛県","city":"八幡浜市","street":"仲之町"},{"zipCode":"7960044","prefectureKana":"ｴﾋﾒｹﾝ","cityKana":"ﾔﾜﾀﾊﾏｼ","streetKana":"ﾆｼｵｳﾐﾔﾁｮｳ","prefecture":"愛媛県","city":"八幡浜市","street":"西近江屋町"},{"zipCode":"7960045","prefectureKana":"ｴﾋﾒｹﾝ","cityKana":"ﾔﾜﾀﾊﾏｼ","streetKana":"ﾆｼｵｳﾐﾔﾁｮｳﾊﾏﾄﾞｵﾘ","prefecture":"愛媛県","city":"八幡浜市","street":"西近江屋町浜通"},{"zipCode":"7960029","prefectureKana":"ｴﾋﾒｹﾝ","cityKana":"ﾔﾜﾀﾊﾏｼ","streetKana":"ﾊﾅｺｳｼﾞ","prefecture":"愛媛県","city":"八幡浜市","street":"花小路"},{"zipCode":"7960034","prefectureKana":"ｴﾋﾒｹﾝ","cityKana":"ﾔﾜﾀﾊﾏｼ","streetKana":"ﾊﾏﾀﾞﾏﾁ","prefecture":"愛媛県","city":"八幡浜市","street":"浜田町"},{"zipCode":"7960068","prefectureKana":"ｴﾋﾒｹﾝ","cityKana":"ﾔﾜﾀﾊﾏｼ","streetKana":"ﾊﾏﾉﾏﾁ","prefecture":"愛媛県","city":"八幡浜市","street":"浜之町"},{"zipCode":"7960043","prefectureKana":"ｴﾋﾒｹﾝ","cityKana":"ﾔﾜﾀﾊﾏｼ","streetKana":"ﾋｶﾞｼｵｳﾐﾔﾁｮｳ","prefecture":"愛媛県","city":"八幡浜市","street":"東近江屋町"},{"zipCode":"7960032","prefectureKana":"ｴﾋﾒｹﾝ","cityKana":"ﾔﾜﾀﾊﾏｼ","streetKana":"ﾋｶﾞｼｼﾝｶﾜ","prefecture":"愛媛県","city":"八幡浜市","street":"東新川"},{"zipCode":"7960025","prefectureKana":"ｴﾋﾒｹﾝ","cityKana":"ﾔﾜﾀﾊﾏｼ","streetKana":"ﾋｶﾞｼﾔﾉﾏﾁ","prefecture":"愛媛県","city":"八幡浜市","street":"東矢野町"},{"zipCode":"7960170","prefectureKana":"ｴﾋﾒｹﾝ","cityKana":"ﾔﾜﾀﾊﾏｼ","streetKana":"ﾋﾂﾞﾁﾁｮｳ","prefecture":"愛媛県","city":"八幡浜市","street":"日土町"},{"zipCode":"7960021","prefectureKana":"ｴﾋﾒｹﾝ","cityKana":"ﾔﾜﾀﾊﾏｼ","streetKana":"ﾋﾉｷﾀﾞﾆ","prefecture":"愛媛県","city":"八幡浜市","street":"桧谷"},{"zipCode":"7968002","prefectureKana":"ｴﾋﾒｹﾝ","cityKana":"ﾔﾜﾀﾊﾏｼ","streetKana":"ﾋﾛｾ","prefecture":"愛媛県","city":"八幡浜市","street":"広瀬"},{"zipCode":"7968039","prefectureKana":"ｴﾋﾒｹﾝ","cityKana":"ﾔﾜﾀﾊﾏｼ","streetKana":"ﾌｷﾉｶﾜ","prefecture":"愛媛県","city":"八幡浜市","street":"布喜川"},{"zipCode":"7968003","prefectureKana":"ｴﾋﾒｹﾝ","cityKana":"ﾔﾜﾀﾊﾏｼ","streetKana":"ﾌﾙﾏﾁ","prefecture":"愛媛県","city":"八幡浜市","street":"古町"},{"zipCode":"7960203","prefectureKana":"ｴﾋﾒｹﾝ","cityKana":"ﾔﾜﾀﾊﾏｼ","streetKana":"ﾎﾅｲﾁｮｳｲｻｷ","prefecture":"愛媛県","city":"八幡浜市","street":"保内町磯崎"},{"zipCode":"7960201","prefectureKana":"ｴﾋﾒｹﾝ","cityKana":"ﾔﾜﾀﾊﾏｼ","streetKana":"ﾎﾅｲﾁｮｳｶﾜﾉｲｼ","prefecture":"愛媛県","city":"八幡浜市","street":"保内町川之石"},{"zipCode":"7960111","prefectureKana":"ｴﾋﾒｹﾝ","cityKana":"ﾔﾜﾀﾊﾏｼ","streetKana":"ﾎﾅｲﾁｮｳｷｷ","prefecture":"愛媛県","city":"八幡浜市","street":"保内町喜木"},{"zipCode":"7960204","prefectureKana":"ｴﾋﾒｹﾝ","cityKana":"ﾔﾜﾀﾊﾏｼ","streetKana":"ﾎﾅｲﾁｮｳｷｷﾂ","prefecture":"愛媛県","city":"八幡浜市","street":"保内町喜木津"},{"zipCode":"7960112","prefectureKana":"ｴﾋﾒｹﾝ","cityKana":"ﾔﾜﾀﾊﾏｼ","streetKana":"ﾎﾅｲﾁｮｳｽｶﾞﾜ","prefecture":"愛媛県","city":"八幡浜市","street":"保内町須川"},{"zipCode":"7960205","prefectureKana":"ｴﾋﾒｹﾝ","cityKana":"ﾔﾜﾀﾊﾏｼ","streetKana":"ﾎﾅｲﾁｮｳﾋﾛﾊﾔ","prefecture":"愛媛県","city":"八幡浜市","street":"保内町広早"},{"zipCode":"7960202","prefectureKana":"ｴﾋﾒｹﾝ","cityKana":"ﾔﾜﾀﾊﾏｼ","streetKana":"ﾎﾅｲﾁｮｳﾐﾔｳﾁ","prefecture":"愛媛県","city":"八幡浜市","street":"保内町宮内"},{"zipCode":"7960066","prefectureKana":"ｴﾋﾒｹﾝ","cityKana":"ﾔﾜﾀﾊﾏｼ","streetKana":"ﾎﾝﾏﾁ","prefecture":"愛媛県","city":"八幡浜市","street":"本町"},{"zipCode":"7968053","prefectureKana":"ｴﾋﾒｹﾝ","cityKana":"ﾔﾜﾀﾊﾏｼ","streetKana":"ﾏｱｼﾞﾛ","prefecture":"愛媛県","city":"八幡浜市","street":"真網代"},{"zipCode":"7960027","prefectureKana":"ｴﾋﾒｹﾝ","cityKana":"ﾔﾜﾀﾊﾏｼ","streetKana":"ﾏﾂｶｹﾞﾁｮｳ","prefecture":"愛媛県","city":"八幡浜市","street":"松蔭町"},{"zipCode":"7960010","prefectureKana":"ｴﾋﾒｹﾝ","cityKana":"ﾔﾜﾀﾊﾏｼ","streetKana":"ﾏﾂｶﾔ","prefecture":"愛媛県","city":"八幡浜市","street":"松柏"},{"zipCode":"7960052","prefectureKana":"ｴﾋﾒｹﾝ","cityKana":"ﾔﾜﾀﾊﾏｼ","streetKana":"ﾏﾂﾓﾄﾁｮｳ","prefecture":"愛媛県","city":"八幡浜市","street":"松本町"},{"zipCode":"7960072","prefectureKana":"ｴﾋﾒｹﾝ","cityKana":"ﾔﾜﾀﾊﾏｼ","streetKana":"ﾐﾅﾄﾏﾁ","prefecture":"愛媛県","city":"八幡浜市","street":"港町"},{"zipCode":"7960012","prefectureKana":"ｴﾋﾒｹﾝ","cityKana":"ﾔﾜﾀﾊﾏｼ","streetKana":"ﾐﾅﾐｶﾞﾔ","prefecture":"愛媛県","city":"八幡浜市","street":"南柏"},{"zipCode":"7960084","prefectureKana":"ｴﾋﾒｹﾝ","cityKana":"ﾔﾜﾀﾊﾏｼ","streetKana":"ﾐﾅﾐﾀﾞｲｺｸﾏﾁ","prefecture":"愛媛県","city":"八幡浜市","street":"南大黒町"},{"zipCode":"7960001","prefectureKana":"ｴﾋﾒｹﾝ","cityKana":"ﾔﾜﾀﾊﾏｼ","streetKana":"ﾑｶｲﾅﾀﾞ","prefecture":"愛媛県","city":"八幡浜市","street":"向灘"},{"zipCode":"7968011","prefectureKana":"ｴﾋﾒｹﾝ","cityKana":"ﾔﾜﾀﾊﾏｼ","streetKana":"ﾓﾄｼﾞｮｳﾀﾞﾝﾁ","prefecture":"愛媛県","city":"八幡浜市","street":"元城団地"},{"zipCode":"7968006","prefectureKana":"ｴﾋﾒｹﾝ","cityKana":"ﾔﾜﾀﾊﾏｼ","streetKana":"ﾔｼﾛ(ﾁｮｳﾒ)","prefecture":"愛媛県","city":"八幡浜市","street":"八代（丁目）"},{"zipCode":"7968007","prefectureKana":"ｴﾋﾒｹﾝ","cityKana":"ﾔﾜﾀﾊﾏｼ","streetKana":"ﾔｼﾛ(ﾊﾞﾝﾁ)","prefecture":"愛媛県","city":"八幡浜市","street":"八代（番地）"},{"zipCode":"7968005","prefectureKana":"ｴﾋﾒｹﾝ","cityKana":"ﾔﾜﾀﾊﾏｼ","streetKana":"ﾔﾉﾏﾁ(ﾄｸｳﾝﾎﾞｳ)","prefecture":"愛媛県","city":"八幡浜市","street":"矢野町（徳雲坊）"},{"zipCode":"7960026","prefectureKana":"ｴﾋﾒｹﾝ","cityKana":"ﾔﾜﾀﾊﾏｼ","streetKana":"ﾔﾉﾏﾁ(ｿﾉﾀ)","prefecture":"愛媛県","city":"八幡浜市","street":"矢野町（その他）"},{"zipCode":"7960013","prefectureKana":"ｴﾋﾒｹﾝ","cityKana":"ﾔﾜﾀﾊﾏｼ","streetKana":"ﾔﾏｸﾞｲ","prefecture":"愛媛県","city":"八幡浜市","street":"山越"},{"zipCode":"7968038","prefectureKana":"ｴﾋﾒｹﾝ","cityKana":"ﾔﾜﾀﾊﾏｼ","streetKana":"ﾖｺﾋﾗ","prefecture":"愛媛県","city":"八幡浜市","street":"横平"},{"zipCode":"7960063","prefectureKana":"ｴﾋﾒｹﾝ","cityKana":"ﾔﾜﾀﾊﾏｼ","streetKana":"ﾖｺﾏﾁ","prefecture":"愛媛県","city":"八幡浜市","street":"横町"},{"zipCode":"7968035","prefectureKana":"ｴﾋﾒｹﾝ","cityKana":"ﾔﾜﾀﾊﾏｼ","streetKana":"ﾜｶﾔﾏ","prefecture":"愛媛県","city":"八幡浜市","street":"若山"},{"zipCode":"7960907","prefectureKana":"ｴﾋﾒｹﾝ","cityKana":"ｾｲﾖｼ","streetKana":"ﾐｶﾒﾁｮｳｱｻﾀﾞﾂ","prefecture":"愛媛県","city":"西予市","street":"三瓶町朝立"},{"zipCode":"7960909","prefectureKana":"ｴﾋﾒｹﾝ","cityKana":"ｾｲﾖｼ","streetKana":"ﾐｶﾒﾁｮｳｱﾂﾞﾁ","prefecture":"愛媛県","city":"西予市","street":"三瓶町安土"},{"zipCode":"7960910","prefectureKana":"ｴﾋﾒｹﾝ","cityKana":"ｾｲﾖｼ","streetKana":"ﾐｶﾒﾁｮｳｱﾗｼﾞﾛ","prefecture":"愛媛県","city":"西予市","street":"三瓶町有網代"},{"zipCode":"7960911","prefectureKana":"ｴﾋﾒｹﾝ","cityKana":"ｾｲﾖｼ","streetKana":"ﾐｶﾒﾁｮｳｱﾗﾀﾁ","prefecture":"愛媛県","city":"西予市","street":"三瓶町有太刀"},{"zipCode":"7960906","prefectureKana":"ｴﾋﾒｹﾝ","cityKana":"ｾｲﾖｼ","streetKana":"ﾐｶﾒﾁｮｳｲｽﾞﾐ","prefecture":"愛媛県","city":"西予市","street":"三瓶町和泉"},{"zipCode":"7960913","prefectureKana":"ｴﾋﾒｹﾝ","cityKana":"ｾｲﾖｼ","streetKana":"ﾐｶﾒﾁｮｳｸﾗﾇｷ","prefecture":"愛媛県","city":"西予市","street":"三瓶町蔵貫"},{"zipCode":"7960912","prefectureKana":"ｴﾋﾒｹﾝ","cityKana":"ｾｲﾖｼ","streetKana":"ﾐｶﾒﾁｮｳｸﾗﾇｷｳﾗ","prefecture":"愛媛県","city":"西予市","street":"三瓶町蔵貫浦"},{"zipCode":"7960905","prefectureKana":"ｴﾋﾒｹﾝ","cityKana":"ｾｲﾖｼ","streetKana":"ﾐｶﾒﾁｮｳｼｷﾞﾔﾏ","prefecture":"愛媛県","city":"西予市","street":"三瓶町鴫山"},{"zipCode":"7960915","prefectureKana":"ｴﾋﾒｹﾝ","cityKana":"ｾｲﾖｼ","streetKana":"ﾐｶﾒﾁｮｳｼﾓﾄﾞﾏﾘ","prefecture":"愛媛県","city":"西予市","street":"三瓶町下泊"},{"zipCode":"7960901","prefectureKana":"ｴﾋﾒｹﾝ","cityKana":"ｾｲﾖｼ","streetKana":"ﾐｶﾒﾁｮｳｼｭｳｷ","prefecture":"愛媛県","city":"西予市","street":"三瓶町周木"},{"zipCode":"7960908","prefectureKana":"ｴﾋﾒｹﾝ","cityKana":"ｾｲﾖｼ","streetKana":"ﾐｶﾒﾁｮｳﾂﾌﾞﾘ","prefecture":"愛媛県","city":"西予市","street":"三瓶町津布理"},{"zipCode":"7960902","prefectureKana":"ｴﾋﾒｹﾝ","cityKana":"ｾｲﾖｼ","streetKana":"ﾐｶﾒﾁｮｳﾅｶﾞﾊﾔ","prefecture":"愛媛県","city":"西予市","street":"三瓶町長早"},{"zipCode":"7960903","prefectureKana":"ｴﾋﾒｹﾝ","cityKana":"ｾｲﾖｼ","streetKana":"ﾐｶﾒﾁｮｳﾆｷﾞｭｳ","prefecture":"愛媛県","city":"西予市","street":"三瓶町二及"},{"zipCode":"7960904","prefectureKana":"ｴﾋﾒｹﾝ","cityKana":"ｾｲﾖｼ","streetKana":"ﾐｶﾒﾁｮｳﾊﾌﾞ","prefecture":"愛媛県","city":"西予市","street":"三瓶町垣生"},{"zipCode":"7960914","prefectureKana":"ｴﾋﾒｹﾝ","cityKana":"ｾｲﾖｼ","streetKana":"ﾐｶﾒﾁｮｳﾐﾅｴ","prefecture":"愛媛県","city":"西予市","street":"三瓶町皆江"},{"zipCode":"7960300","prefectureKana":"ｴﾋﾒｹﾝ","cityKana":"ﾆｼｳﾜｸﾞﾝｲｶﾀﾁｮｳ","streetKana":"ｲｶﾆｹｲｻｲｶﾞﾅｲﾊﾞｱｲ","prefecture":"愛媛県","city":"西宇和郡伊方町","street":"以下に掲載がない場合"},{"zipCode":"7960501","prefectureKana":"ｴﾋﾒｹﾝ","cityKana":"ﾆｼｳﾜｸﾞﾝｲｶﾀﾁｮｳ","streetKana":"ｱｼﾅﾙ","prefecture":"愛媛県","city":"西宇和郡伊方町","street":"足成"},{"zipCode":"7960304","prefectureKana":"ｴﾋﾒｹﾝ","cityKana":"ﾆｼｳﾜｸﾞﾝｲｶﾀﾁｮｳ","streetKana":"ｲｶﾀｺﾞｼ","prefecture":"愛媛県","city":"西宇和郡伊方町","street":"伊方越"},{"zipCode":"7960805","prefectureKana":"ｴﾋﾒｹﾝ","cityKana":"ﾆｼｳﾜｸﾞﾝｲｶﾀﾁｮｳ","streetKana":"ｲﾉｳﾗ","prefecture":"愛媛県","city":"西宇和郡伊方町","street":"井野浦"},{"zipCode":"7960503","prefectureKana":"ｴﾋﾒｹﾝ","cityKana":"ﾆｼｳﾜｸﾞﾝｲｶﾀﾁｮｳ","streetKana":"ｵｵｴ","prefecture":"愛媛県","city":"西宇和郡伊方町","street":"大江"},{"zipCode":"7960612","prefectureKana":"ｴﾋﾒｹﾝ","cityKana":"ﾆｼｳﾜｸﾞﾝｲｶﾀﾁｮｳ","streetKana":"ｵｵｸ","prefecture":"愛媛県","city":"西宇和郡伊方町","street":"大久"},{"zipCode":"7960804","prefectureKana":"ｴﾋﾒｹﾝ","cityKana":"ﾆｼｳﾜｸﾞﾝｲｶﾀﾁｮｳ","streetKana":"ｵｵｻﾀﾞ","prefecture":"愛媛県","city":"西宇和郡伊方町","street":"大佐田"},{"zipCode":"7960308","prefectureKana":"ｴﾋﾒｹﾝ","cityKana":"ﾆｼｳﾜｸﾞﾝｲｶﾀﾁｮｳ","streetKana":"ｵｵﾊﾏ","prefecture":"愛媛県","city":"西宇和郡伊方町","street":"大浜"},{"zipCode":"7960815","prefectureKana":"ｴﾋﾒｹﾝ","cityKana":"ﾆｼｳﾜｸﾞﾝｲｶﾀﾁｮｳ","streetKana":"ｶﾏｷﾞ","prefecture":"愛媛県","city":"西宇和郡伊方町","street":"釜木"},{"zipCode":"7960303","prefectureKana":"ｴﾋﾒｹﾝ","cityKana":"ﾆｼｳﾜｸﾞﾝｲｶﾀﾁｮｳ","streetKana":"ｶﾒｳﾗ","prefecture":"愛媛県","city":"西宇和郡伊方町","street":"亀浦"},{"zipCode":"7960305","prefectureKana":"ｴﾋﾒｹﾝ","cityKana":"ﾆｼｳﾜｸﾞﾝｲｶﾀﾁｮｳ","streetKana":"ｶﾜｳﾁ","prefecture":"愛媛県","city":"西宇和郡伊方町","street":"河内"},{"zipCode":"7960312","prefectureKana":"ｴﾋﾒｹﾝ","cityKana":"ﾆｼｳﾜｸﾞﾝｲｶﾀﾁｮｳ","streetKana":"ｶﾜﾅｶﾞﾀ","prefecture":"愛媛県","city":"西宇和郡伊方町","street":"川永田"},{"zipCode":"7960611","prefectureKana":"ｴﾋﾒｹﾝ","cityKana":"ﾆｼｳﾜｸﾞﾝｲｶﾀﾁｮｳ","streetKana":"ｶﾜﾉﾊﾏ","prefecture":"愛媛県","city":"西宇和郡伊方町","street":"川之浜"},{"zipCode":"7960822","prefectureKana":"ｴﾋﾒｹﾝ","cityKana":"ﾆｼｳﾜｸﾞﾝｲｶﾀﾁｮｳ","streetKana":"ｸｼ","prefecture":"愛媛県","city":"西宇和郡伊方町","street":"串"},{"zipCode":"7960421","prefectureKana":"ｴﾋﾒｹﾝ","cityKana":"ﾆｼｳﾜｸﾞﾝｲｶﾀﾁｮｳ","streetKana":"ｸﾁｮｳ","prefecture":"愛媛県","city":"西宇和郡伊方町","street":"九町"},{"zipCode":"7960613","prefectureKana":"ｴﾋﾒｹﾝ","cityKana":"ﾆｼｳﾜｸﾞﾝｲｶﾀﾁｮｳ","streetKana":"ｺｳｻﾞｷ","prefecture":"愛媛県","city":"西宇和郡伊方町","street":"神崎"},{"zipCode":"7960615","prefectureKana":"ｴﾋﾒｹﾝ","cityKana":"ﾆｼｳﾜｸﾞﾝｲｶﾀﾁｮｳ","streetKana":"ｺｳﾓ","prefecture":"愛媛県","city":"西宇和郡伊方町","street":"高茂"},{"zipCode":"7960505","prefectureKana":"ｴﾋﾒｹﾝ","cityKana":"ﾆｼｳﾜｸﾞﾝｲｶﾀﾁｮｳ","streetKana":"ｺｼﾞﾏ","prefecture":"愛媛県","city":"西宇和郡伊方町","street":"小島"},{"zipCode":"7960302","prefectureKana":"ｴﾋﾒｹﾝ","cityKana":"ﾆｼｳﾜｸﾞﾝｲｶﾀﾁｮｳ","streetKana":"ｺﾅｶｳﾗ","prefecture":"愛媛県","city":"西宇和郡伊方町","street":"小中浦"},{"zipCode":"7960803","prefectureKana":"ｴﾋﾒｹﾝ","cityKana":"ﾆｼｳﾜｸﾞﾝｲｶﾀﾁｮｳ","streetKana":"ｻﾀﾞ","prefecture":"愛媛県","city":"西宇和郡伊方町","street":"佐田"},{"zipCode":"7960506","prefectureKana":"ｴﾋﾒｹﾝ","cityKana":"ﾆｼｳﾜｸﾞﾝｲｶﾀﾁｮｳ","streetKana":"ｼｵﾅｼ","prefecture":"愛媛県","city":"西宇和郡伊方町","street":"塩成"},{"zipCode":"7960504","prefectureKana":"ｴﾋﾒｹﾝ","cityKana":"ﾆｼｳﾜｸﾞﾝｲｶﾀﾁｮｳ","streetKana":"ｼﾂ","prefecture":"愛媛県","city":"西宇和郡伊方町","street":"志津"},{"zipCode":"7960823","prefectureKana":"ｴﾋﾒｹﾝ","cityKana":"ﾆｼｳﾜｸﾞﾝｲｶﾀﾁｮｳ","streetKana":"ｼｮｳﾉ","prefecture":"愛媛県","city":"西宇和郡伊方町","street":"正野"},{"zipCode":"7960802","prefectureKana":"ｴﾋﾒｹﾝ","cityKana":"ﾆｼｳﾜｸﾞﾝｲｶﾀﾁｮｳ","streetKana":"ﾀｶｳﾗ","prefecture":"愛媛県","city":"西宇和郡伊方町","street":"高浦"},{"zipCode":"7960614","prefectureKana":"ｴﾋﾒｹﾝ","cityKana":"ﾆｼｳﾜｸﾞﾝｲｶﾀﾁｮｳ","streetKana":"ﾀﾌﾞ","prefecture":"愛媛県","city":"西宇和郡伊方町","street":"田部"},{"zipCode":"7960313","prefectureKana":"ｴﾋﾒｹﾝ","cityKana":"ﾆｼｳﾜｸﾞﾝｲｶﾀﾁｮｳ","streetKana":"ﾄﾖﾉｳﾗ","prefecture":"愛媛県","city":"西宇和郡伊方町","street":"豊之浦"},{"zipCode":"7960311","prefectureKana":"ｴﾋﾒｹﾝ","cityKana":"ﾆｼｳﾜｸﾞﾝｲｶﾀﾁｮｳ","streetKana":"ﾅｶｳﾗ","prefecture":"愛媛県","city":"西宇和郡伊方町","street":"中浦"},{"zipCode":"7960307","prefectureKana":"ｴﾋﾒｹﾝ","cityKana":"ﾆｼｳﾜｸﾞﾝｲｶﾀﾁｮｳ","streetKana":"ﾅｶﾉﾊﾏ","prefecture":"愛媛県","city":"西宇和郡伊方町","street":"中之浜"},{"zipCode":"7960816","prefectureKana":"ｴﾋﾒｹﾝ","cityKana":"ﾆｼｳﾜｸﾞﾝｲｶﾀﾁｮｳ","streetKana":"ﾅﾄﾘ","prefecture":"愛媛県","city":"西宇和郡伊方町","street":"名取"},{"zipCode":"7960306","prefectureKana":"ｴﾋﾒｹﾝ","cityKana":"ﾆｼｳﾜｸﾞﾝｲｶﾀﾁｮｳ","streetKana":"ﾆﾀﾉﾊﾏ","prefecture":"愛媛県","city":"西宇和郡伊方町","street":"仁田之浜"},{"zipCode":"7960814","prefectureKana":"ｴﾋﾒｹﾝ","cityKana":"ﾆｼｳﾜｸﾞﾝｲｶﾀﾁｮｳ","streetKana":"ﾋﾗｲｿ","prefecture":"愛媛県","city":"西宇和郡伊方町","street":"平礒"},{"zipCode":"7960813","prefectureKana":"ｴﾋﾒｹﾝ","cityKana":"ﾆｼｳﾜｸﾞﾝｲｶﾀﾁｮｳ","streetKana":"ﾌﾀﾅﾂﾞ","prefecture":"愛媛県","city":"西宇和郡伊方町","street":"二名津"},{"zipCode":"7960422","prefectureKana":"ｴﾋﾒｹﾝ","cityKana":"ﾆｼｳﾜｸﾞﾝｲｶﾀﾁｮｳ","streetKana":"ﾌﾀﾐ","prefecture":"愛媛県","city":"西宇和郡伊方町","street":"二見"},{"zipCode":"7960811","prefectureKana":"ｴﾋﾒｹﾝ","cityKana":"ﾆｼｳﾜｸﾞﾝｲｶﾀﾁｮｳ","streetKana":"ﾏﾂ","prefecture":"愛媛県","city":"西宇和郡伊方町","street":"松"},{"zipCode":"7960801","prefectureKana":"ｴﾋﾒｹﾝ","cityKana":"ﾆｼｳﾜｸﾞﾝｲｶﾀﾁｮｳ","streetKana":"ﾐｻｷ","prefecture":"愛媛県","city":"西宇和郡伊方町","street":"三崎"},{"zipCode":"7960502","prefectureKana":"ｴﾋﾒｹﾝ","cityKana":"ﾆｼｳﾜｸﾞﾝｲｶﾀﾁｮｳ","streetKana":"ﾐﾂｸｴ","prefecture":"愛媛県","city":"西宇和郡伊方町","street":"三机"},{"zipCode":"7960301","prefectureKana":"ｴﾋﾒｹﾝ","cityKana":"ﾆｼｳﾜｸﾞﾝｲｶﾀﾁｮｳ","streetKana":"ﾐﾅﾄｳﾗ","prefecture":"愛媛県","city":"西宇和郡伊方町","street":"湊浦"},{"zipCode":"7960812","prefectureKana":"ｴﾋﾒｹﾝ","cityKana":"ﾆｼｳﾜｸﾞﾝｲｶﾀﾁｮｳ","streetKana":"ﾐｮｳｼﾞﾝ","prefecture":"愛媛県","city":"西宇和郡伊方町","street":"明神"},{"zipCode":"7960821","prefectureKana":"ｴﾋﾒｹﾝ","cityKana":"ﾆｼｳﾜｸﾞﾝｲｶﾀﾁｮｳ","streetKana":"ﾖﾎﾞｺﾘ","prefecture":"愛媛県","city":"西宇和郡伊方町","street":"与侈"}]