[{"zipCode":"7971601","prefectureKana":"ｴﾋﾒｹﾝ","cityKana":"ｵｵｽﾞｼ","streetKana":"ｶﾜﾍﾞﾁｮｳｳｴﾏﾂ","prefecture":"愛媛県","city":"大洲市","street":"河辺町植松"},{"zipCode":"7971607","prefectureKana":"ｴﾋﾒｹﾝ","cityKana":"ｵｵｽﾞｼ","streetKana":"ｶﾜﾍﾞﾁｮｳｶﾜｶﾐ","prefecture":"愛媛県","city":"大洲市","street":"河辺町川上"},{"zipCode":"7971604","prefectureKana":"ｴﾋﾒｹﾝ","cityKana":"ｵｵｽﾞｼ","streetKana":"ｶﾜﾍﾞﾁｮｳｶﾜｻｷ","prefecture":"愛媛県","city":"大洲市","street":"河辺町川崎"},{"zipCode":"7971605","prefectureKana":"ｴﾋﾒｹﾝ","cityKana":"ｵｵｽﾞｼ","streetKana":"ｶﾜﾍﾞﾁｮｳｶﾜﾄ","prefecture":"愛媛県","city":"大洲市","street":"河辺町河都"},{"zipCode":"7971608","prefectureKana":"ｴﾋﾒｹﾝ","cityKana":"ｵｵｽﾞｼ","streetKana":"ｶﾜﾍﾞﾁｮｳｷﾀﾋﾗ","prefecture":"愛媛県","city":"大洲市","street":"河辺町北平"},{"zipCode":"7971606","prefectureKana":"ｴﾋﾒｹﾝ","cityKana":"ｵｵｽﾞｼ","streetKana":"ｶﾜﾍﾞﾁｮｳﾐｼﾏ","prefecture":"愛媛県","city":"大洲市","street":"河辺町三嶋"},{"zipCode":"7971602","prefectureKana":"ｴﾋﾒｹﾝ","cityKana":"ｵｵｽﾞｼ","streetKana":"ｶﾜﾍﾞﾁｮｳﾔﾏﾄｻｶ","prefecture":"愛媛県","city":"大洲市","street":"河辺町山鳥坂"},{"zipCode":"7971603","prefectureKana":"ｴﾋﾒｹﾝ","cityKana":"ｵｵｽﾞｼ","streetKana":"ｶﾜﾍﾞﾁｮｳﾖｺﾔﾏ","prefecture":"愛媛県","city":"大洲市","street":"河辺町横山"},{"zipCode":"7971503","prefectureKana":"ｴﾋﾒｹﾝ","cityKana":"ｵｵｽﾞｼ","streetKana":"ﾋｼﾞｶﾜﾁｮｳｳﾜｶﾞﾜ","prefecture":"愛媛県","city":"大洲市","street":"肱川町宇和川"},{"zipCode":"7971507","prefectureKana":"ｴﾋﾒｹﾝ","cityKana":"ｵｵｽﾞｼ","streetKana":"ﾋｼﾞｶﾜﾁｮｳｵｵﾀﾆ","prefecture":"愛媛県","city":"大洲市","street":"肱川町大谷"},{"zipCode":"7971501","prefectureKana":"ｴﾋﾒｹﾝ","cityKana":"ｵｵｽﾞｼ","streetKana":"ﾋｼﾞｶﾜﾁｮｳﾅｶｲﾀﾞﾆ","prefecture":"愛媛県","city":"大洲市","street":"肱川町中居谷"},{"zipCode":"7971506","prefectureKana":"ｴﾋﾒｹﾝ","cityKana":"ｵｵｽﾞｼ","streetKana":"ﾋｼﾞｶﾜﾁｮｳﾅｶﾂ","prefecture":"愛媛県","city":"大洲市","street":"肱川町中津"},{"zipCode":"7971508","prefectureKana":"ｴﾋﾒｹﾝ","cityKana":"ｵｵｽﾞｼ","streetKana":"ﾋｼﾞｶﾜﾁｮｳﾆｼ","prefecture":"愛媛県","city":"大洲市","street":"肱川町西"},{"zipCode":"7971502","prefectureKana":"ｴﾋﾒｹﾝ","cityKana":"ｵｵｽﾞｼ","streetKana":"ﾋｼﾞｶﾜﾁｮｳﾐｮｳｶﾞﾀﾞﾆ","prefecture":"愛媛県","city":"大洲市","street":"肱川町名荷谷"},{"zipCode":"7971504","prefectureKana":"ｴﾋﾒｹﾝ","cityKana":"ｵｵｽﾞｼ","streetKana":"ﾋｼﾞｶﾜﾁｮｳﾔﾏﾄｻｶ","prefecture":"愛媛県","city":"大洲市","street":"肱川町山鳥坂"},{"zipCode":"7971505","prefectureKana":"ｴﾋﾒｹﾝ","cityKana":"ｵｵｽﾞｼ","streetKana":"ﾋｼﾞｶﾜﾁｮｳﾖｺﾊﾔｼ","prefecture":"愛媛県","city":"大洲市","street":"肱川町予子林"},{"zipCode":"7970000","prefectureKana":"ｴﾋﾒｹﾝ","cityKana":"ｾｲﾖｼ","streetKana":"ｲｶﾆｹｲｻｲｶﾞﾅｲﾊﾞｱｲ","prefecture":"愛媛県","city":"西予市","street":"以下に掲載がない場合"},{"zipCode":"7970113","prefectureKana":"ｴﾋﾒｹﾝ","cityKana":"ｾｲﾖｼ","streetKana":"ｱｹﾊﾏﾁｮｳｶﾘﾊﾏ","prefecture":"愛媛県","city":"西予市","street":"明浜町狩浜"},{"zipCode":"7970201","prefectureKana":"ｴﾋﾒｹﾝ","cityKana":"ｾｲﾖｼ","streetKana":"ｱｹﾊﾏﾁｮｳﾀｶﾔﾏ","prefecture":"愛媛県","city":"西予市","street":"明浜町高山"},{"zipCode":"7970203","prefectureKana":"ｴﾋﾒｹﾝ","cityKana":"ｾｲﾖｼ","streetKana":"ｱｹﾊﾏﾁｮｳﾀﾉﾊﾏ","prefecture":"愛媛県","city":"西予市","street":"明浜町田之浜"},{"zipCode":"7970111","prefectureKana":"ｴﾋﾒｹﾝ","cityKana":"ｾｲﾖｼ","streetKana":"ｱｹﾊﾏﾁｮｳﾀﾜﾗﾂﾞ","prefecture":"愛媛県","city":"西予市","street":"明浜町俵津"},{"zipCode":"7970112","prefectureKana":"ｴﾋﾒｹﾝ","cityKana":"ｾｲﾖｼ","streetKana":"ｱｹﾊﾏﾁｮｳﾄﾉｴ","prefecture":"愛媛県","city":"西予市","street":"明浜町渡江"},{"zipCode":"7970202","prefectureKana":"ｴﾋﾒｹﾝ","cityKana":"ｾｲﾖｼ","streetKana":"ｱｹﾊﾏﾁｮｳﾐﾔﾉｳﾗ","prefecture":"愛媛県","city":"西予市","street":"明浜町宮野浦"},{"zipCode":"7970010","prefectureKana":"ｴﾋﾒｹﾝ","cityKana":"ｾｲﾖｼ","streetKana":"ｳﾜﾁｮｳｱｶﾝﾏ","prefecture":"愛媛県","city":"西予市","street":"宇和町明間"},{"zipCode":"7970007","prefectureKana":"ｴﾋﾒｹﾝ","cityKana":"ｾｲﾖｼ","streetKana":"ｳﾜﾁｮｳｱｹﾞｲｼ","prefecture":"愛媛県","city":"西予市","street":"宇和町明石"},{"zipCode":"7970014","prefectureKana":"ｴﾋﾒｹﾝ","cityKana":"ｾｲﾖｼ","streetKana":"ｳﾜﾁｮｳｲｶﾞｼﾞｮｳ","prefecture":"愛媛県","city":"西予市","street":"宇和町伊賀上"},{"zipCode":"7970004","prefectureKana":"ｴﾋﾒｹﾝ","cityKana":"ｾｲﾖｼ","streetKana":"ｳﾜﾁｮｳｲｻｷ","prefecture":"愛媛県","city":"西予市","street":"宇和町伊崎"},{"zipCode":"7970013","prefectureKana":"ｴﾋﾒｹﾝ","cityKana":"ｾｲﾖｼ","streetKana":"ｳﾜﾁｮｳｲﾉｳ","prefecture":"愛媛県","city":"西予市","street":"宇和町稲生"},{"zipCode":"7970034","prefectureKana":"ｴﾋﾒｹﾝ","cityKana":"ｾｲﾖｼ","streetKana":"ｳﾜﾁｮｳｲﾉﾍﾞ","prefecture":"愛媛県","city":"西予市","street":"宇和町伊延"},{"zipCode":"7970026","prefectureKana":"ｴﾋﾒｹﾝ","cityKana":"ｾｲﾖｼ","streetKana":"ｳﾜﾁｮｳｲﾜｷ","prefecture":"愛媛県","city":"西予市","street":"宇和町岩木"},{"zipCode":"7970015","prefectureKana":"ｴﾋﾒｹﾝ","cityKana":"ｾｲﾖｼ","streetKana":"ｳﾜﾁｮｳｳﾉﾏﾁ","prefecture":"愛媛県","city":"西予市","street":"宇和町卯之町"},{"zipCode":"7970043","prefectureKana":"ｴﾋﾒｹﾝ","cityKana":"ｾｲﾖｼ","streetKana":"ｳﾜﾁｮｳｵｵｴ","prefecture":"愛媛県","city":"西予市","street":"宇和町大江"},{"zipCode":"7970033","prefectureKana":"ｴﾋﾒｹﾝ","cityKana":"ｾｲﾖｼ","streetKana":"ｳﾜﾁｮｳｵｶﾔﾏ","prefecture":"愛媛県","city":"西予市","street":"宇和町岡山"},{"zipCode":"7970022","prefectureKana":"ｴﾋﾒｹﾝ","cityKana":"ｾｲﾖｼ","streetKana":"ｳﾜﾁｮｳｵﾉﾀﾞ","prefecture":"愛媛県","city":"西予市","street":"宇和町小野田"},{"zipCode":"7970027","prefectureKana":"ｴﾋﾒｹﾝ","cityKana":"ｾｲﾖｼ","streetKana":"ｳﾜﾁｮｳｵﾊﾞﾗ","prefecture":"愛媛県","city":"西予市","street":"宇和町小原"},{"zipCode":"7970012","prefectureKana":"ｴﾋﾒｹﾝ","cityKana":"ｾｲﾖｼ","streetKana":"ｳﾜﾁｮｳｶｲﾀﾞ","prefecture":"愛媛県","city":"西予市","street":"宇和町皆田"},{"zipCode":"7970046","prefectureKana":"ｴﾋﾒｹﾝ","cityKana":"ｾｲﾖｼ","streetKana":"ｳﾜﾁｮｳｶﾐﾏﾂﾊﾞ","prefecture":"愛媛県","city":"西予市","street":"宇和町上松葉"},{"zipCode":"7970044","prefectureKana":"ｴﾋﾒｹﾝ","cityKana":"ｾｲﾖｼ","streetKana":"ｳﾜﾁｮｳｶﾓ","prefecture":"愛媛県","city":"西予市","street":"宇和町加茂"},{"zipCode":"7970035","prefectureKana":"ｴﾋﾒｹﾝ","cityKana":"ｾｲﾖｼ","streetKana":"ｳﾜﾁｮｳｶﾜﾁ","prefecture":"愛媛県","city":"西予市","street":"宇和町河内"},{"zipCode":"7970030","prefectureKana":"ｴﾋﾒｹﾝ","cityKana":"ｾｲﾖｼ","streetKana":"ｳﾜﾁｮｳｷﾖｻﾜ","prefecture":"愛媛県","city":"西予市","street":"宇和町清沢"},{"zipCode":"7970036","prefectureKana":"ｴﾋﾒｹﾝ","cityKana":"ｾｲﾖｼ","streetKana":"ｳﾜﾁｮｳｸﾎﾞ","prefecture":"愛媛県","city":"西予市","street":"宇和町久保"},{"zipCode":"7970003","prefectureKana":"ｴﾋﾒｹﾝ","cityKana":"ｾｲﾖｼ","streetKana":"ｳﾜﾁｮｳｸﾎﾞ","prefecture":"愛媛県","city":"西予市","street":"宇和町窪"},{"zipCode":"7970025","prefectureKana":"ｴﾋﾒｹﾝ","cityKana":"ｾｲﾖｼ","streetKana":"ｳﾜﾁｮｳｺﾞｳﾅｲ","prefecture":"愛媛県","city":"西予市","street":"宇和町郷内"},{"zipCode":"7970045","prefectureKana":"ｴﾋﾒｹﾝ","cityKana":"ｾｲﾖｼ","streetKana":"ｳﾜﾁｮｳｻｶﾄﾞ","prefecture":"愛媛県","city":"西予市","street":"宇和町坂戸"},{"zipCode":"7970008","prefectureKana":"ｴﾋﾒｹﾝ","cityKana":"ｾｲﾖｼ","streetKana":"ｳﾜﾁｮｳｻｸﾗ","prefecture":"愛媛県","city":"西予市","street":"宇和町さくら"},{"zipCode":"7970018","prefectureKana":"ｴﾋﾒｹﾝ","cityKana":"ｾｲﾖｼ","streetKana":"ｳﾜﾁｮｳｼﾓﾏﾂﾊﾞ","prefecture":"愛媛県","city":"西予市","street":"宇和町下松葉"},{"zipCode":"7970005","prefectureKana":"ｴﾋﾒｹﾝ","cityKana":"ｾｲﾖｼ","streetKana":"ｳﾜﾁｮｳｼﾞｮｳｼﾞｮｳｼﾞ","prefecture":"愛媛県","city":"西予市","street":"宇和町常定寺"},{"zipCode":"7970006","prefectureKana":"ｴﾋﾒｹﾝ","cityKana":"ｾｲﾖｼ","streetKana":"ｳﾜﾁｮｳｼﾝｼﾞｮｳ","prefecture":"愛媛県","city":"西予市","street":"宇和町新城"},{"zipCode":"7970016","prefectureKana":"ｴﾋﾒｹﾝ","cityKana":"ｾｲﾖｼ","streetKana":"ｳﾜﾁｮｳｼﾞﾝﾘｮｳ","prefecture":"愛媛県","city":"西予市","street":"宇和町神領"},{"zipCode":"7970042","prefectureKana":"ｴﾋﾒｹﾝ","cityKana":"ｾｲﾖｼ","streetKana":"ｳﾜﾁｮｳｾﾄ","prefecture":"愛媛県","city":"西予市","street":"宇和町瀬戸"},{"zipCode":"7970032","prefectureKana":"ｴﾋﾒｹﾝ","cityKana":"ｾｲﾖｼ","streetKana":"ｳﾜﾁｮｳﾀﾅｴﾏﾂﾁ","prefecture":"愛媛県","city":"西予市","street":"宇和町田苗真土"},{"zipCode":"7970001","prefectureKana":"ｴﾋﾒｹﾝ","cityKana":"ｾｲﾖｼ","streetKana":"ｳﾜﾁｮｳﾀﾉﾅｶ","prefecture":"愛媛県","city":"西予市","street":"宇和町田野中"},{"zipCode":"7970029","prefectureKana":"ｴﾋﾒｹﾝ","cityKana":"ｾｲﾖｼ","streetKana":"ｳﾜﾁｮｳﾅｶﾞｵｻ","prefecture":"愛媛県","city":"西予市","street":"宇和町永長"},{"zipCode":"7970024","prefectureKana":"ｴﾋﾒｹﾝ","cityKana":"ｾｲﾖｼ","streetKana":"ｳﾜﾁｮｳﾆｼﾔﾏﾀﾞ","prefecture":"愛媛県","city":"西予市","street":"宇和町西山田"},{"zipCode":"7970021","prefectureKana":"ｴﾋﾒｹﾝ","cityKana":"ｾｲﾖｼ","streetKana":"ｳﾜﾁｮｳﾉﾀﾞ","prefecture":"愛媛県","city":"西予市","street":"宇和町野田"},{"zipCode":"7970037","prefectureKana":"ｴﾋﾒｹﾝ","cityKana":"ｾｲﾖｼ","streetKana":"ｳﾜﾁｮｳﾉﾌﾞｻﾄ","prefecture":"愛媛県","city":"西予市","street":"宇和町信里"},{"zipCode":"7970041","prefectureKana":"ｴﾋﾒｹﾝ","cityKana":"ｾｲﾖｼ","streetKana":"ｳﾜﾁｮｳﾋｶﾞｼﾀﾀﾞ","prefecture":"愛媛県","city":"西予市","street":"宇和町東多田"},{"zipCode":"7970020","prefectureKana":"ｴﾋﾒｹﾝ","cityKana":"ｾｲﾖｼ","streetKana":"ｳﾜﾁｮｳﾋｻｴﾀﾞ","prefecture":"愛媛県","city":"西予市","street":"宇和町久枝"},{"zipCode":"7970011","prefectureKana":"ｴﾋﾒｹﾝ","cityKana":"ｾｲﾖｼ","streetKana":"ｳﾜﾁｮｳﾋﾄｳｶﾞﾜ","prefecture":"愛媛県","city":"西予市","street":"宇和町下川"},{"zipCode":"7970017","prefectureKana":"ｴﾋﾒｹﾝ","cityKana":"ｾｲﾖｼ","streetKana":"ｳﾜﾁｮｳﾋﾏﾜﾘ","prefecture":"愛媛県","city":"西予市","street":"宇和町ひまわり"},{"zipCode":"7970002","prefectureKana":"ｴﾋﾒｹﾝ","cityKana":"ｾｲﾖｼ","streetKana":"ｳﾜﾁｮｳﾋﾗﾉ","prefecture":"愛媛県","city":"西予市","street":"宇和町平野"},{"zipCode":"7970031","prefectureKana":"ｴﾋﾒｹﾝ","cityKana":"ｾｲﾖｼ","streetKana":"ｳﾜﾁｮｳﾓｸｼｮ","prefecture":"愛媛県","city":"西予市","street":"宇和町杢所"},{"zipCode":"7970023","prefectureKana":"ｴﾋﾒｹﾝ","cityKana":"ｾｲﾖｼ","streetKana":"ｳﾜﾁｮｳﾔﾏﾀﾞ","prefecture":"愛媛県","city":"西予市","street":"宇和町山田"},{"zipCode":"7970028","prefectureKana":"ｴﾋﾒｹﾝ","cityKana":"ｾｲﾖｼ","streetKana":"ｳﾜﾁｮｳﾚﾝｹﾞ","prefecture":"愛媛県","city":"西予市","street":"宇和町れんげ"},{"zipCode":"7971716","prefectureKana":"ｴﾋﾒｹﾝ","cityKana":"ｾｲﾖｼ","streetKana":"ｼﾛｶﾜﾁｮｳｳｵﾅｼ","prefecture":"愛媛県","city":"西予市","street":"城川町魚成"},{"zipCode":"7971717","prefectureKana":"ｴﾋﾒｹﾝ","cityKana":"ｾｲﾖｼ","streetKana":"ｼﾛｶﾜﾁｮｳｵﾘｱｲ","prefecture":"愛媛県","city":"西予市","street":"城川町下相"},{"zipCode":"7971714","prefectureKana":"ｴﾋﾒｹﾝ","cityKana":"ｾｲﾖｼ","streetKana":"ｼﾛｶﾜﾁｮｳｵﾝｶﾞﾜﾁ","prefecture":"愛媛県","city":"西予市","street":"城川町男河内"},{"zipCode":"7971713","prefectureKana":"ｴﾋﾒｹﾝ","cityKana":"ｾｲﾖｼ","streetKana":"ｼﾛｶﾜﾁｮｳｶｷﾞｵ","prefecture":"愛媛県","city":"西予市","street":"城川町嘉喜尾"},{"zipCode":"7971704","prefectureKana":"ｴﾋﾒｹﾝ","cityKana":"ｾｲﾖｼ","streetKana":"ｼﾛｶﾜﾁｮｳｶﾜﾂﾞﾐﾅﾐ","prefecture":"愛媛県","city":"西予市","street":"城川町川津南"},{"zipCode":"7971703","prefectureKana":"ｴﾋﾒｹﾝ","cityKana":"ｾｲﾖｼ","streetKana":"ｼﾛｶﾜﾁｮｳｸﾎﾞﾉ","prefecture":"愛媛県","city":"西予市","street":"城川町窪野"},{"zipCode":"7971715","prefectureKana":"ｴﾋﾒｹﾝ","cityKana":"ｾｲﾖｼ","streetKana":"ｼﾛｶﾜﾁｮｳﾀｵ","prefecture":"愛媛県","city":"西予市","street":"城川町田穂"},{"zipCode":"7971705","prefectureKana":"ｴﾋﾒｹﾝ","cityKana":"ｾｲﾖｼ","streetKana":"ｼﾛｶﾜﾁｮｳﾀｶﾉｺ","prefecture":"愛媛県","city":"西予市","street":"城川町高野子"},{"zipCode":"7971701","prefectureKana":"ｴﾋﾒｹﾝ","cityKana":"ｾｲﾖｼ","streetKana":"ｼﾛｶﾜﾁｮｳﾄﾞｲ","prefecture":"愛媛県","city":"西予市","street":"城川町土居"},{"zipCode":"7971711","prefectureKana":"ｴﾋﾒｹﾝ","cityKana":"ｾｲﾖｼ","streetKana":"ｼﾛｶﾜﾁｮｳﾉｲｶﾞﾜ","prefecture":"愛媛県","city":"西予市","street":"城川町野井川"},{"zipCode":"7971702","prefectureKana":"ｴﾋﾒｹﾝ","cityKana":"ｾｲﾖｼ","streetKana":"ｼﾛｶﾜﾁｮｳﾌﾙｲﾁ","prefecture":"愛媛県","city":"西予市","street":"城川町古市"},{"zipCode":"7971712","prefectureKana":"ｴﾋﾒｹﾝ","cityKana":"ｾｲﾖｼ","streetKana":"ｼﾛｶﾜﾁｮｳﾕｽﾀﾆ","prefecture":"愛媛県","city":"西予市","street":"城川町遊子谷"},{"zipCode":"7971211","prefectureKana":"ｴﾋﾒｹﾝ","cityKana":"ｾｲﾖｼ","streetKana":"ﾉﾑﾗﾁｮｳｱｹﾞ","prefecture":"愛媛県","city":"西予市","street":"野村町阿下"},{"zipCode":"7971106","prefectureKana":"ｴﾋﾒｹﾝ","cityKana":"ｾｲﾖｼ","streetKana":"ﾉﾑﾗﾁｮｳｱｻﾋ","prefecture":"愛媛県","city":"西予市","street":"野村町旭"},{"zipCode":"7971324","prefectureKana":"ｴﾋﾒｹﾝ","cityKana":"ｾｲﾖｼ","streetKana":"ﾉﾑﾗﾁｮｳｵｵﾆｼ","prefecture":"愛媛県","city":"西予市","street":"野村町大西"},{"zipCode":"7971434","prefectureKana":"ｴﾋﾒｹﾝ","cityKana":"ｾｲﾖｼ","streetKana":"ﾉﾑﾗﾁｮｳｵｵﾉｶﾞﾊﾗ","prefecture":"愛媛県","city":"西予市","street":"野村町大野ケ原"},{"zipCode":"7971213","prefectureKana":"ｴﾋﾒｹﾝ","cityKana":"ｾｲﾖｼ","streetKana":"ﾉﾑﾗﾁｮｳｶﾀｶﾜ","prefecture":"愛媛県","city":"西予市","street":"野村町片川"},{"zipCode":"7971323","prefectureKana":"ｴﾋﾒｹﾝ","cityKana":"ｾｲﾖｼ","streetKana":"ﾉﾑﾗﾁｮｳｶﾏｶﾞﾜ","prefecture":"愛媛県","city":"西予市","street":"野村町釜川"},{"zipCode":"7971326","prefectureKana":"ｴﾋﾒｹﾝ","cityKana":"ｾｲﾖｼ","streetKana":"ﾉﾑﾗﾁｮｳｶﾏﾝﾀ","prefecture":"愛媛県","city":"西予市","street":"野村町鎌田"},{"zipCode":"7971104","prefectureKana":"ｴﾋﾒｹﾝ","cityKana":"ｾｲﾖｼ","streetKana":"ﾉﾑﾗﾁｮｳｶﾜｻｲ","prefecture":"愛媛県","city":"西予市","street":"野村町河西"},{"zipCode":"7971216","prefectureKana":"ｴﾋﾒｹﾝ","cityKana":"ｾｲﾖｼ","streetKana":"ﾉﾑﾗﾁｮｳｸﾗﾗ","prefecture":"愛媛県","city":"西予市","street":"野村町蔵良"},{"zipCode":"7971327","prefectureKana":"ｴﾋﾒｹﾝ","cityKana":"ｾｲﾖｼ","streetKana":"ﾉﾑﾗﾁｮｳｸﾘﾉｷ","prefecture":"愛媛県","city":"西予市","street":"野村町栗木"},{"zipCode":"7971433","prefectureKana":"ｴﾋﾒｹﾝ","cityKana":"ｾｲﾖｼ","streetKana":"ﾉﾑﾗﾁｮｳｺﾏﾂ","prefecture":"愛媛県","city":"西予市","street":"野村町小松"},{"zipCode":"7971322","prefectureKana":"ｴﾋﾒｹﾝ","cityKana":"ｾｲﾖｼ","streetKana":"ﾉﾑﾗﾁｮｳｻｶｲｼ","prefecture":"愛媛県","city":"西予市","street":"野村町坂石"},{"zipCode":"7971101","prefectureKana":"ｴﾋﾒｹﾝ","cityKana":"ｾｲﾖｼ","streetKana":"ﾉﾑﾗﾁｮｳｼﾗﾋｹﾞ","prefecture":"愛媛県","city":"西予市","street":"野村町白髭"},{"zipCode":"7971103","prefectureKana":"ｴﾋﾒｹﾝ","cityKana":"ｾｲﾖｼ","streetKana":"ﾉﾑﾗﾁｮｳｼﾛｳﾀﾆ","prefecture":"愛媛県","city":"西予市","street":"野村町四郎谷"},{"zipCode":"7971432","prefectureKana":"ｴﾋﾒｹﾝ","cityKana":"ｾｲﾖｼ","streetKana":"ﾉﾑﾗﾁｮｳｿｳｶﾞﾜ","prefecture":"愛媛県","city":"西予市","street":"野村町惣川"},{"zipCode":"7971215","prefectureKana":"ｴﾋﾒｹﾝ","cityKana":"ｾｲﾖｼ","streetKana":"ﾉﾑﾗﾁｮｳﾀｶｾ","prefecture":"愛媛県","city":"西予市","street":"野村町高瀬"},{"zipCode":"7971107","prefectureKana":"ｴﾋﾒｹﾝ","cityKana":"ｾｲﾖｼ","streetKana":"ﾉﾑﾗﾁｮｳﾄｼﾞｶﾞﾉ","prefecture":"愛媛県","city":"西予市","street":"野村町鳥鹿野"},{"zipCode":"7971214","prefectureKana":"ｴﾋﾒｹﾝ","cityKana":"ｾｲﾖｼ","streetKana":"ﾉﾑﾗﾁｮｳﾄﾐﾉｶﾜ","prefecture":"愛媛県","city":"西予市","street":"野村町富野川"},{"zipCode":"7971105","prefectureKana":"ｴﾋﾒｹﾝ","cityKana":"ｾｲﾖｼ","streetKana":"ﾉﾑﾗﾁｮｳﾅｶﾞﾀﾆ","prefecture":"愛媛県","city":"西予市","street":"野村町長谷"},{"zipCode":"7971325","prefectureKana":"ｴﾋﾒｹﾝ","cityKana":"ｾｲﾖｼ","streetKana":"ﾉﾑﾗﾁｮｳﾅｶﾄｵｶﾞﾜ","prefecture":"愛媛県","city":"西予市","street":"野村町中通川"},{"zipCode":"7971328","prefectureKana":"ｴﾋﾒｹﾝ","cityKana":"ｾｲﾖｼ","streetKana":"ﾉﾑﾗﾁｮｳﾆｼ","prefecture":"愛媛県","city":"西予市","street":"野村町西"},{"zipCode":"7971212","prefectureKana":"ｴﾋﾒｹﾝ","cityKana":"ｾｲﾖｼ","streetKana":"ﾉﾑﾗﾁｮｳﾉﾑﾗ","prefecture":"愛媛県","city":"西予市","street":"野村町野村"},{"zipCode":"7971217","prefectureKana":"ｴﾋﾒｹﾝ","cityKana":"ｾｲﾖｼ","streetKana":"ﾉﾑﾗﾁｮｳﾋﾗﾉ","prefecture":"愛媛県","city":"西予市","street":"野村町平野"},{"zipCode":"7971431","prefectureKana":"ｴﾋﾒｹﾝ","cityKana":"ｾｲﾖｼ","streetKana":"ﾉﾑﾗﾁｮｳﾌﾅﾄ","prefecture":"愛媛県","city":"西予市","street":"野村町舟戸"},{"zipCode":"7971102","prefectureKana":"ｴﾋﾒｹﾝ","cityKana":"ｾｲﾖｼ","streetKana":"ﾉﾑﾗﾁｮｳﾏﾂﾀﾆ","prefecture":"愛媛県","city":"西予市","street":"野村町松渓"},{"zipCode":"7971321","prefectureKana":"ｴﾋﾒｹﾝ","cityKana":"ｾｲﾖｼ","streetKana":"ﾉﾑﾗﾁｮｳﾖｺﾊﾞﾔｼ","prefecture":"愛媛県","city":"西予市","street":"野村町予子林"}]