[{"zipCode":"7980000","prefectureKana":"ｴﾋﾒｹﾝ","cityKana":"ｳﾜｼﾞﾏｼ","streetKana":"ｲｶﾆｹｲｻｲｶﾞﾅｲﾊﾞｱｲ","prefecture":"愛媛県","city":"宇和島市","street":"以下に掲載がない場合"},{"zipCode":"7980030","prefectureKana":"ｴﾋﾒｹﾝ","cityKana":"ｳﾜｼﾞﾏｼ","streetKana":"ｱｹﾎﾞﾉﾁｮｳ","prefecture":"愛媛県","city":"宇和島市","street":"曙町"},{"zipCode":"7980004","prefectureKana":"ｴﾋﾒｹﾝ","cityKana":"ｳﾜｼﾞﾏｼ","streetKana":"ｱｻﾋﾏﾁ","prefecture":"愛媛県","city":"宇和島市","street":"朝日町"},{"zipCode":"7980042","prefectureKana":"ｴﾋﾒｹﾝ","cityKana":"ｳﾜｼﾞﾏｼ","streetKana":"ｱﾀｺﾞﾁｮｳ","prefecture":"愛媛県","city":"宇和島市","street":"愛宕町"},{"zipCode":"7980026","prefectureKana":"ｴﾋﾒｹﾝ","cityKana":"ｳﾜｼﾞﾏｼ","streetKana":"ｲｽﾞﾐﾏﾁ","prefecture":"愛媛県","city":"宇和島市","street":"泉町"},{"zipCode":"7980023","prefectureKana":"ｴﾋﾒｹﾝ","cityKana":"ｳﾜｼﾞﾏｼ","streetKana":"ｲﾌﾞｷﾁｮｳ(ｷﾀｳﾜｼﾞﾏﾁｮｳ)","prefecture":"愛媛県","city":"宇和島市","street":"伊吹町（北宇和島町）"},{"zipCode":"7980024","prefectureKana":"ｴﾋﾒｹﾝ","cityKana":"ｳﾜｼﾞﾏｼ","streetKana":"ｲﾌﾞｷﾁｮｳ(ｷﾀﾄﾞｵﾘ)","prefecture":"愛媛県","city":"宇和島市","street":"伊吹町（北通）"},{"zipCode":"7980025","prefectureKana":"ｴﾋﾒｹﾝ","cityKana":"ｳﾜｼﾞﾏｼ","streetKana":"ｲﾌﾞｷﾁｮｳ(ﾋｶﾞｼﾄﾞｵﾘ)","prefecture":"愛媛県","city":"宇和島市","street":"伊吹町（東通）"},{"zipCode":"7980022","prefectureKana":"ｴﾋﾒｹﾝ","cityKana":"ｳﾜｼﾞﾏｼ","streetKana":"ｲﾌﾞｷﾁｮｳ(ｿﾉﾀ)","prefecture":"愛媛県","city":"宇和島市","street":"伊吹町（その他）"},{"zipCode":"7980078","prefectureKana":"ｴﾋﾒｹﾝ","cityKana":"ｳﾜｼﾞﾏｼ","streetKana":"ｲﾜｲﾉﾓﾘ","prefecture":"愛媛県","city":"宇和島市","street":"祝森"},{"zipCode":"7980043","prefectureKana":"ｴﾋﾒｹﾝ","cityKana":"ｳﾜｼﾞﾏｼ","streetKana":"ｳﾜﾂﾁｮｳ","prefecture":"愛媛県","city":"宇和島市","street":"宇和津町"},{"zipCode":"7980032","prefectureKana":"ｴﾋﾒｹﾝ","cityKana":"ｳﾜｼﾞﾏｼ","streetKana":"ｴﾋﾞｽﾏﾁ","prefecture":"愛媛県","city":"宇和島市","street":"恵美須町"},{"zipCode":"7980001","prefectureKana":"ｴﾋﾒｹﾝ","cityKana":"ｳﾜｼﾞﾏｼ","streetKana":"ｵｵｳﾗ(ｱｶﾏﾂ)","prefecture":"愛媛県","city":"宇和島市","street":"大浦（赤松）"},{"zipCode":"7980002","prefectureKana":"ｴﾋﾒｹﾝ","cityKana":"ｳﾜｼﾞﾏｼ","streetKana":"ｵｵｳﾗ(ｿﾉﾀ)","prefecture":"愛媛県","city":"宇和島市","street":"大浦（その他）"},{"zipCode":"7980039","prefectureKana":"ｴﾋﾒｹﾝ","cityKana":"ｳﾜｼﾞﾏｼ","streetKana":"ｵｵﾐﾔﾁｮｳ","prefecture":"愛媛県","city":"宇和島市","street":"大宮町"},{"zipCode":"7980063","prefectureKana":"ｴﾋﾒｹﾝ","cityKana":"ｳﾜｼﾞﾏｼ","streetKana":"ｵｶﾁﾏﾁ","prefecture":"愛媛県","city":"宇和島市","street":"御徒町"},{"zipCode":"7980027","prefectureKana":"ｴﾋﾒｹﾝ","cityKana":"ｳﾜｼﾞﾏｼ","streetKana":"ｶｷﾊﾗ","prefecture":"愛媛県","city":"宇和島市","street":"柿原"},{"zipCode":"7980053","prefectureKana":"ｴﾋﾒｹﾝ","cityKana":"ｳﾜｼﾞﾏｼ","streetKana":"ｶｺﾁｮｳ","prefecture":"愛媛県","city":"宇和島市","street":"賀古町"},{"zipCode":"7980076","prefectureKana":"ｴﾋﾒｹﾝ","cityKana":"ｳﾜｼﾞﾏｼ","streetKana":"ｶﾜﾁ(ﾔｸｼﾀﾞﾆ)","prefecture":"愛媛県","city":"宇和島市","street":"川内（薬師谷）"},{"zipCode":"7980075","prefectureKana":"ｴﾋﾒｹﾝ","cityKana":"ｳﾜｼﾞﾏｼ","streetKana":"ｶﾜﾁ(ｿﾉﾀ)","prefecture":"愛媛県","city":"宇和島市","street":"川内（その他）"},{"zipCode":"7980010","prefectureKana":"ｴﾋﾒｹﾝ","cityKana":"ｳﾜｼﾞﾏｼ","streetKana":"ｷﾀｼﾝﾏﾁ","prefecture":"愛媛県","city":"宇和島市","street":"北新町"},{"zipCode":"7980052","prefectureKana":"ｴﾋﾒｹﾝ","cityKana":"ｳﾜｼﾞﾏｼ","streetKana":"ｷｮｳﾏﾁ","prefecture":"愛媛県","city":"宇和島市","street":"京町"},{"zipCode":"7980093","prefectureKana":"ｴﾋﾒｹﾝ","cityKana":"ｳﾜｼﾞﾏｼ","streetKana":"ｺｲｹ","prefecture":"愛媛県","city":"宇和島市","street":"小池"},{"zipCode":"7980091","prefectureKana":"ｴﾋﾒｹﾝ","cityKana":"ｳﾜｼﾞﾏｼ","streetKana":"ｺｸﾎﾞ","prefecture":"愛媛県","city":"宇和島市","street":"石応"},{"zipCode":"7980061","prefectureKana":"ｴﾋﾒｹﾝ","cityKana":"ｳﾜｼﾞﾏｼ","streetKana":"ｺﾞﾃﾝﾏﾁ","prefecture":"愛媛県","city":"宇和島市","street":"御殿町"},{"zipCode":"7980007","prefectureKana":"ｴﾋﾒｹﾝ","cityKana":"ｳﾜｼﾞﾏｼ","streetKana":"ｺﾄﾌﾞｷﾁｮｳ","prefecture":"愛媛県","city":"宇和島市","street":"寿町"},{"zipCode":"7980092","prefectureKana":"ｴﾋﾒｹﾝ","cityKana":"ｳﾜｼﾞﾏｼ","streetKana":"ｺﾊﾏ","prefecture":"愛媛県","city":"宇和島市","street":"小浜"},{"zipCode":"7980211","prefectureKana":"ｴﾋﾒｹﾝ","cityKana":"ｳﾜｼﾞﾏｼ","streetKana":"ｺﾓﾌﾞﾁ","prefecture":"愛媛県","city":"宇和島市","street":"蒋渕"},{"zipCode":"7980064","prefectureKana":"ｴﾋﾒｹﾝ","cityKana":"ｳﾜｼﾞﾏｼ","streetKana":"ｻｲｷﾏﾁ","prefecture":"愛媛県","city":"宇和島市","street":"佐伯町"},{"zipCode":"7980031","prefectureKana":"ｴﾋﾒｹﾝ","cityKana":"ｳﾜｼﾞﾏｼ","streetKana":"ｻｶｴﾏﾁﾐﾅﾄ","prefecture":"愛媛県","city":"宇和島市","street":"栄町港"},{"zipCode":"7980087","prefectureKana":"ｴﾋﾒｹﾝ","cityKana":"ｳﾜｼﾞﾏｼ","streetKana":"ｻｶｼﾂﾞ","prefecture":"愛媛県","city":"宇和島市","street":"坂下津"},{"zipCode":"7980062","prefectureKana":"ｴﾋﾒｹﾝ","cityKana":"ｳﾜｼﾞﾏｼ","streetKana":"ｻｸﾗﾏﾁ","prefecture":"愛媛県","city":"宇和島市","street":"桜町"},{"zipCode":"7980054","prefectureKana":"ｴﾋﾒｹﾝ","cityKana":"ｳﾜｼﾞﾏｼ","streetKana":"ｻｻﾏﾁ","prefecture":"愛媛県","city":"宇和島市","street":"笹町"},{"zipCode":"7980104","prefectureKana":"ｴﾋﾒｹﾝ","cityKana":"ｳﾜｼﾞﾏｼ","streetKana":"ｼﾀﾊﾞ","prefecture":"愛媛県","city":"宇和島市","street":"下波"},{"zipCode":"7980090","prefectureKana":"ｴﾋﾒｹﾝ","cityKana":"ｳﾜｼﾞﾏｼ","streetKana":"ｼﾗﾊﾏ","prefecture":"愛媛県","city":"宇和島市","street":"白浜"},{"zipCode":"7980070","prefectureKana":"ｴﾋﾒｹﾝ","cityKana":"ｳﾜｼﾞﾏｼ","streetKana":"ｼﾞﾝﾃﾞﾝｶﾞﾜﾗ","prefecture":"愛媛県","city":"宇和島市","street":"神田川原"},{"zipCode":"7980080","prefectureKana":"ｴﾋﾒｹﾝ","cityKana":"ｳﾜｼﾞﾏｼ","streetKana":"ｼﾝﾃﾞﾝﾁｮｳ","prefecture":"愛媛県","city":"宇和島市","street":"新田町"},{"zipCode":"7980035","prefectureKana":"ｴﾋﾒｹﾝ","cityKana":"ｳﾜｼﾞﾏｼ","streetKana":"ｼﾝﾏﾁ","prefecture":"愛媛県","city":"宇和島市","street":"新町"},{"zipCode":"7980011","prefectureKana":"ｴﾋﾒｹﾝ","cityKana":"ｳﾜｼﾞﾏｼ","streetKana":"ｽｶﾄﾞｵﾘ","prefecture":"愛媛県","city":"宇和島市","street":"須賀通"},{"zipCode":"7980003","prefectureKana":"ｴﾋﾒｹﾝ","cityKana":"ｳﾜｼﾞﾏｼ","streetKana":"ｽﾐﾖｼﾁｮｳ","prefecture":"愛媛県","city":"宇和島市","street":"住吉町"},{"zipCode":"7980045","prefectureKana":"ｴﾋﾒｹﾝ","cityKana":"ｳﾜｼﾞﾏｼ","streetKana":"ﾀﾞｲﾁｮｳｼﾞｵｸ","prefecture":"愛媛県","city":"宇和島市","street":"大超寺奥"},{"zipCode":"7980020","prefectureKana":"ｴﾋﾒｹﾝ","cityKana":"ｳﾜｼﾞﾏｼ","streetKana":"ﾀｶｸﾞｼ","prefecture":"愛媛県","city":"宇和島市","street":"高串"},{"zipCode":"7980040","prefectureKana":"ｴﾋﾒｹﾝ","cityKana":"ｳﾜｼﾞﾏｼ","streetKana":"ﾁｭｳｵｳﾁｮｳ","prefecture":"愛媛県","city":"宇和島市","street":"中央町"},{"zipCode":"7980005","prefectureKana":"ｴﾋﾒｹﾝ","cityKana":"ｳﾜｼﾞﾏｼ","streetKana":"ﾂｷｼﾞﾁｮｳ","prefecture":"愛媛県","city":"宇和島市","street":"築地町"},{"zipCode":"7983344","prefectureKana":"ｴﾋﾒｹﾝ","cityKana":"ｳﾜｼﾞﾏｼ","streetKana":"ﾂｼﾏﾁｮｳｱﾗｼ","prefecture":"愛媛県","city":"宇和島市","street":"津島町嵐"},{"zipCode":"7983311","prefectureKana":"ｴﾋﾒｹﾝ","cityKana":"ｳﾜｼﾞﾏｼ","streetKana":"ﾂｼﾏﾁｮｳｲﾜﾌﾞﾁ","prefecture":"愛媛県","city":"宇和島市","street":"津島町岩渕"},{"zipCode":"7983301","prefectureKana":"ｴﾋﾒｹﾝ","cityKana":"ｳﾜｼﾞﾏｼ","streetKana":"ﾂｼﾏﾁｮｳｲﾜﾏﾂ","prefecture":"愛媛県","city":"宇和島市","street":"津島町岩松"},{"zipCode":"7983331","prefectureKana":"ｴﾋﾒｹﾝ","cityKana":"ｳﾜｼﾞﾏｼ","streetKana":"ﾂｼﾏﾁｮｳｳｼﾛ","prefecture":"愛媛県","city":"宇和島市","street":"津島町後"},{"zipCode":"7983342","prefectureKana":"ｴﾋﾒｹﾝ","cityKana":"ｳﾜｼﾞﾏｼ","streetKana":"ﾂｼﾏﾁｮｳｳﾗｼﾘ","prefecture":"愛媛県","city":"宇和島市","street":"津島町浦知"},{"zipCode":"7983341","prefectureKana":"ｴﾋﾒｹﾝ","cityKana":"ｳﾜｼﾞﾏｼ","streetKana":"ﾂｼﾏﾁｮｳｴﾝｼﾞｮｳ","prefecture":"愛媛県","city":"宇和島市","street":"津島町塩定"},{"zipCode":"7983337","prefectureKana":"ｴﾋﾒｹﾝ","cityKana":"ｳﾜｼﾞﾏｼ","streetKana":"ﾂｼﾏﾁｮｳｵｵｳﾗ","prefecture":"愛媛県","city":"宇和島市","street":"津島町大浦"},{"zipCode":"7983338","prefectureKana":"ｴﾋﾒｹﾝ","cityKana":"ｳﾜｼﾞﾏｼ","streetKana":"ﾂｼﾏﾁｮｳｶｷﾉｳﾗ","prefecture":"愛媛県","city":"宇和島市","street":"津島町柿之浦"},{"zipCode":"7983323","prefectureKana":"ｴﾋﾒｹﾝ","cityKana":"ｳﾜｼﾞﾏｼ","streetKana":"ﾂｼﾏﾁｮｳｶﾐﾊﾀｼﾞ","prefecture":"愛媛県","city":"宇和島市","street":"津島町上畑地"},{"zipCode":"7983362","prefectureKana":"ｴﾋﾒｹﾝ","cityKana":"ｳﾜｼﾞﾏｼ","streetKana":"ﾂｼﾏﾁｮｳｷﾀﾅﾀﾞｵﾂ","prefecture":"愛媛県","city":"宇和島市","street":"津島町北灘乙"},{"zipCode":"7983361","prefectureKana":"ｴﾋﾒｹﾝ","cityKana":"ｳﾜｼﾞﾏｼ","streetKana":"ﾂｼﾏﾁｮｳｷﾀﾅﾀﾞｺｳ","prefecture":"愛媛県","city":"宇和島市","street":"津島町北灘甲"},{"zipCode":"7983363","prefectureKana":"ｴﾋﾒｹﾝ","cityKana":"ｳﾜｼﾞﾏｼ","streetKana":"ﾂｼﾏﾁｮｳｷﾀﾅﾀﾞﾍｲ","prefecture":"愛媛県","city":"宇和島市","street":"津島町北灘丙"},{"zipCode":"7983364","prefectureKana":"ｴﾋﾒｹﾝ","cityKana":"ｳﾜｼﾞﾏｼ","streetKana":"ﾂｼﾏﾁｮｳｷﾀﾅﾀﾞﾃｲ(ｵｵﾋｻｹﾞ､ｺﾋｻｹﾞ)","prefecture":"愛媛県","city":"宇和島市","street":"津島町北灘丁（大日提、小日提）"},{"zipCode":"7983312","prefectureKana":"ｴﾋﾒｹﾝ","cityKana":"ｳﾜｼﾞﾏｼ","streetKana":"ﾂｼﾏﾁｮｳｻﾝｻﾞｲ","prefecture":"愛媛県","city":"宇和島市","street":"津島町山財"},{"zipCode":"7983322","prefectureKana":"ｴﾋﾒｹﾝ","cityKana":"ｳﾜｼﾞﾏｼ","streetKana":"ﾂｼﾏﾁｮｳｼﾓﾊﾀｼﾞｵﾂ(ｶﾐﾏｷ)","prefecture":"愛媛県","city":"宇和島市","street":"津島町下畑地乙（上槇）"},{"zipCode":"7983321","prefectureKana":"ｴﾋﾒｹﾝ","cityKana":"ｳﾜｼﾞﾏｼ","streetKana":"ﾂｼﾏﾁｮｳｼﾓﾊﾀｼﾞ(ｵﾂｦﾉｿﾞｸ)","prefecture":"愛媛県","city":"宇和島市","street":"津島町下畑地（乙を除く）"},{"zipCode":"7983332","prefectureKana":"ｴﾋﾒｹﾝ","cityKana":"ｳﾜｼﾞﾏｼ","streetKana":"ﾂｼﾏﾁｮｳｽｹﾞ","prefecture":"愛媛県","city":"宇和島市","street":"津島町須下"},{"zipCode":"7983356","prefectureKana":"ｴﾋﾒｹﾝ","cityKana":"ｳﾜｼﾞﾏｼ","streetKana":"ﾂｼﾏﾁｮｳｿﾈ","prefecture":"愛媛県","city":"宇和島市","street":"津島町曽根"},{"zipCode":"7983354","prefectureKana":"ｴﾋﾒｹﾝ","cityKana":"ｳﾜｼﾞﾏｼ","streetKana":"ﾂｼﾏﾁｮｳﾀｵﾛｼ","prefecture":"愛媛県","city":"宇和島市","street":"津島町田颪"},{"zipCode":"7983302","prefectureKana":"ｴﾋﾒｹﾝ","cityKana":"ｳﾜｼﾞﾏｼ","streetKana":"ﾂｼﾏﾁｮｳﾀｶﾀ","prefecture":"愛媛県","city":"宇和島市","street":"津島町高田"},{"zipCode":"7983358","prefectureKana":"ｴﾋﾒｹﾝ","cityKana":"ｳﾜｼﾞﾏｼ","streetKana":"ﾂｼﾏﾁｮｳﾀｹｶﾞｼﾏ","prefecture":"愛媛県","city":"宇和島市","street":"津島町竹ケ島"},{"zipCode":"7983357","prefectureKana":"ｴﾋﾒｹﾝ","cityKana":"ｳﾜｼﾞﾏｼ","streetKana":"ﾂｼﾏﾁｮｳﾀﾉﾊﾏ","prefecture":"愛媛県","city":"宇和島市","street":"津島町田之浜"},{"zipCode":"7983303","prefectureKana":"ｴﾋﾒｹﾝ","cityKana":"ｳﾜｼﾞﾏｼ","streetKana":"ﾂｼﾏﾁｮｳﾁｶｲｴ","prefecture":"愛媛県","city":"宇和島市","street":"津島町近家"},{"zipCode":"7983352","prefectureKana":"ｴﾋﾒｹﾝ","cityKana":"ｳﾜｼﾞﾏｼ","streetKana":"ﾂｼﾏﾁｮｳﾂﾎﾞｲ","prefecture":"愛媛県","city":"宇和島市","street":"津島町坪井"},{"zipCode":"7983353","prefectureKana":"ｴﾋﾒｹﾝ","cityKana":"ｳﾜｼﾞﾏｼ","streetKana":"ﾂｼﾏﾁｮｳﾄﾞﾛﾒｽﾞ","prefecture":"愛媛県","city":"宇和島市","street":"津島町泥目水"},{"zipCode":"7983333","prefectureKana":"ｴﾋﾒｹﾝ","cityKana":"ｳﾜｼﾞﾏｼ","streetKana":"ﾂｼﾏﾁｮｳﾅﾙ","prefecture":"愛媛県","city":"宇和島市","street":"津島町成"},{"zipCode":"7983346","prefectureKana":"ｴﾋﾒｹﾝ","cityKana":"ｳﾜｼﾞﾏｼ","streetKana":"ﾂｼﾏﾁｮｳﾈｽﾞﾅｷ","prefecture":"愛媛県","city":"宇和島市","street":"津島町鼡鳴"},{"zipCode":"7983343","prefectureKana":"ｴﾋﾒｹﾝ","cityKana":"ｳﾜｼﾞﾏｼ","streetKana":"ﾂｼﾏﾁｮｳﾊﾘｷﾞ","prefecture":"愛媛県","city":"宇和島市","street":"津島町針木"},{"zipCode":"7983335","prefectureKana":"ｴﾋﾒｹﾝ","cityKana":"ｳﾜｼﾞﾏｼ","streetKana":"ﾂｼﾏﾁｮｳﾋﾗｲ","prefecture":"愛媛県","city":"宇和島市","street":"津島町平井"},{"zipCode":"7983336","prefectureKana":"ｴﾋﾒｹﾝ","cityKana":"ｳﾜｼﾞﾏｼ","streetKana":"ﾂｼﾏﾁｮｳﾏｶﾞﾗｽ","prefecture":"愛媛県","city":"宇和島市","street":"津島町曲烏"},{"zipCode":"7983272","prefectureKana":"ｴﾋﾒｹﾝ","cityKana":"ｳﾜｼﾞﾏｼ","streetKana":"ﾂｼﾏﾁｮｳﾏｷｶﾞﾜ","prefecture":"愛媛県","city":"宇和島市","street":"津島町槇川"},{"zipCode":"7983313","prefectureKana":"ｴﾋﾒｹﾝ","cityKana":"ｳﾜｼﾞﾏｼ","streetKana":"ﾂｼﾏﾁｮｳﾏｽﾎ","prefecture":"愛媛県","city":"宇和島市","street":"津島町増穂"},{"zipCode":"7983271","prefectureKana":"ｴﾋﾒｹﾝ","cityKana":"ｳﾜｼﾞﾏｼ","streetKana":"ﾂｼﾏﾁｮｳﾐｳﾁ","prefecture":"愛媛県","city":"宇和島市","street":"津島町御内"},{"zipCode":"7983351","prefectureKana":"ｴﾋﾒｹﾝ","cityKana":"ｳﾜｼﾞﾏｼ","streetKana":"ﾂｼﾏﾁｮｳﾕﾀﾞﾁ","prefecture":"愛媛県","city":"宇和島市","street":"津島町弓立"},{"zipCode":"7983345","prefectureKana":"ｴﾋﾒｹﾝ","cityKana":"ｳﾜｼﾞﾏｼ","streetKana":"ﾂｼﾏﾁｮｳﾖｺｳﾗ","prefecture":"愛媛県","city":"宇和島市","street":"津島町横浦"},{"zipCode":"7983334","prefectureKana":"ｴﾋﾒｹﾝ","cityKana":"ｳﾜｼﾞﾏｼ","streetKana":"ﾂｼﾏﾁｮｳﾘｮｳｹ","prefecture":"愛媛県","city":"宇和島市","street":"津島町漁家"},{"zipCode":"7983355","prefectureKana":"ｴﾋﾒｹﾝ","cityKana":"ｳﾜｼﾞﾏｼ","streetKana":"ﾂｼﾏﾁｮｳﾜｷ","prefecture":"愛媛県","city":"宇和島市","street":"津島町脇"},{"zipCode":"7980033","prefectureKana":"ｴﾋﾒｹﾝ","cityKana":"ｳﾜｼﾞﾏｼ","streetKana":"ﾂﾙｼﾏﾁｮｳ","prefecture":"愛媛県","city":"宇和島市","street":"鶴島町"},{"zipCode":"7980065","prefectureKana":"ｴﾋﾒｹﾝ","cityKana":"ｳﾜｼﾞﾏｼ","streetKana":"ﾃﾝｼｬｺｳｴﾝ","prefecture":"愛媛県","city":"宇和島市","street":"天赦公園"},{"zipCode":"7980036","prefectureKana":"ｴﾋﾒｹﾝ","cityKana":"ｳﾜｼﾞﾏｼ","streetKana":"ﾃﾝｼﾞﾝﾏﾁ","prefecture":"愛媛県","city":"宇和島市","street":"天神町"},{"zipCode":"7980212","prefectureKana":"ｴﾋﾒｹﾝ","cityKana":"ｳﾜｼﾞﾏｼ","streetKana":"ﾄｼﾞﾏ","prefecture":"愛媛県","city":"宇和島市","street":"戸島"},{"zipCode":"7980081","prefectureKana":"ｴﾋﾒｹﾝ","cityKana":"ｳﾜｼﾞﾏｼ","streetKana":"ﾅｶｻﾞﾜﾁｮｳ","prefecture":"愛媛県","city":"宇和島市","street":"中沢町"},{"zipCode":"7980082","prefectureKana":"ｴﾋﾒｹﾝ","cityKana":"ｳﾜｼﾞﾏｼ","streetKana":"ﾅｶﾞﾎﾘ","prefecture":"愛媛県","city":"宇和島市","street":"長堀"},{"zipCode":"7980083","prefectureKana":"ｴﾋﾒｹﾝ","cityKana":"ｳﾜｼﾞﾏｼ","streetKana":"ﾅﾂﾒﾁｮｳ","prefecture":"愛媛県","city":"宇和島市","street":"夏目町"},{"zipCode":"7980074","prefectureKana":"ｴﾋﾒｹﾝ","cityKana":"ｳﾜｼﾞﾏｼ","streetKana":"ﾅﾐﾏﾂ","prefecture":"愛媛県","city":"宇和島市","street":"並松"},{"zipCode":"7980034","prefectureKana":"ｴﾋﾒｹﾝ","cityKana":"ｳﾜｼﾞﾏｼ","streetKana":"ﾆｼｷﾏﾁ","prefecture":"愛媛県","city":"宇和島市","street":"錦町"},{"zipCode":"7982146","prefectureKana":"ｴﾋﾒｹﾝ","cityKana":"ｳﾜｼﾞﾏｼ","streetKana":"ﾉｶﾞﾜ(ﾅﾒﾄｺ)","prefecture":"愛媛県","city":"宇和島市","street":"野川（滑床）"},{"zipCode":"7980044","prefectureKana":"ｴﾋﾒｹﾝ","cityKana":"ｳﾜｼﾞﾏｼ","streetKana":"ﾉｶﾞﾜ(ｿﾉﾀ)","prefecture":"愛媛県","city":"宇和島市","street":"野川（その他）"},{"zipCode":"7980098","prefectureKana":"ｴﾋﾒｹﾝ","cityKana":"ｳﾜｼﾞﾏｼ","streetKana":"ﾊﾏｸﾞﾘ","prefecture":"愛媛県","city":"宇和島市","street":"蛤"},{"zipCode":"7980099","prefectureKana":"ｴﾋﾒｹﾝ","cityKana":"ｳﾜｼﾞﾏｼ","streetKana":"ﾋﾌﾞﾘｼﾏ","prefecture":"愛媛県","city":"宇和島市","street":"日振島"},{"zipCode":"7980097","prefectureKana":"ｴﾋﾒｹﾝ","cityKana":"ｳﾜｼﾞﾏｼ","streetKana":"ﾋｬｸﾉｳﾗ","prefecture":"愛媛県","city":"宇和島市","street":"百之浦"},{"zipCode":"7980095","prefectureKana":"ｴﾋﾒｹﾝ","cityKana":"ｳﾜｼﾞﾏｼ","streetKana":"ﾋﾗｳﾗ","prefecture":"愛媛県","city":"宇和島市","street":"平浦"},{"zipCode":"7980051","prefectureKana":"ｴﾋﾒｹﾝ","cityKana":"ｳﾜｼﾞﾏｼ","streetKana":"ﾋﾛｺｳｼﾞ","prefecture":"愛媛県","city":"宇和島市","street":"広小路"},{"zipCode":"7980010","prefectureKana":"ｴﾋﾒｹﾝ","cityKana":"ｳﾜｼﾞﾏｼ","streetKana":"ﾌｼﾞｴ","prefecture":"愛媛県","city":"宇和島市","street":"藤江"},{"zipCode":"7980066","prefectureKana":"ｴﾋﾒｹﾝ","cityKana":"ｳﾜｼﾞﾏｼ","streetKana":"ﾌﾞﾝｷｮｳﾁｮｳ","prefecture":"愛媛県","city":"宇和島市","street":"文京町"},{"zipCode":"7980086","prefectureKana":"ｴﾋﾒｹﾝ","cityKana":"ｳﾜｼﾞﾏｼ","streetKana":"ﾍﾞﾂﾄｳ","prefecture":"愛媛県","city":"宇和島市","street":"別当"},{"zipCode":"7980006","prefectureKana":"ｴﾋﾒｹﾝ","cityKana":"ｳﾜｼﾞﾏｼ","streetKana":"ﾍﾞﾝﾃﾝﾁｮｳ","prefecture":"愛媛県","city":"宇和島市","street":"弁天町"},{"zipCode":"7980088","prefectureKana":"ｴﾋﾒｹﾝ","cityKana":"ｳﾜｼﾞﾏｼ","streetKana":"ﾎﾃﾞ","prefecture":"愛媛県","city":"宇和島市","street":"保手"},{"zipCode":"7980050","prefectureKana":"ｴﾋﾒｹﾝ","cityKana":"ｳﾜｼﾞﾏｼ","streetKana":"ﾎﾘﾊﾞﾀﾁｮｳ","prefecture":"愛媛県","city":"宇和島市","street":"堀端町"},{"zipCode":"7980096","prefectureKana":"ｴﾋﾒｹﾝ","cityKana":"ｳﾜｼﾞﾏｼ","streetKana":"ﾎﾝｸｼﾏ","prefecture":"愛媛県","city":"宇和島市","street":"本九島"},{"zipCode":"7980041","prefectureKana":"ｴﾋﾒｹﾝ","cityKana":"ｳﾜｼﾞﾏｼ","streetKana":"ﾎﾝﾏﾁｵｳﾃ","prefecture":"愛媛県","city":"宇和島市","street":"本町追手"},{"zipCode":"7980067","prefectureKana":"ｴﾋﾒｹﾝ","cityKana":"ｳﾜｼﾞﾏｼ","streetKana":"ﾏｽｶﾞﾀﾁｮｳ","prefecture":"愛媛県","city":"宇和島市","street":"桝形町"},{"zipCode":"7980037","prefectureKana":"ｴﾋﾒｹﾝ","cityKana":"ｳﾜｼﾞﾏｼ","streetKana":"ﾏﾙｵﾁｮｳ(ﾁｮｳﾒ)","prefecture":"愛媛県","city":"宇和島市","street":"丸穂町（丁目）"},{"zipCode":"7980038","prefectureKana":"ｴﾋﾒｹﾝ","cityKana":"ｳﾜｼﾞﾏｼ","streetKana":"ﾏﾙｵ(ﾊﾞﾝﾁ)","prefecture":"愛媛県","city":"宇和島市","street":"丸穂（番地）"},{"zipCode":"7980060","prefectureKana":"ｴﾋﾒｹﾝ","cityKana":"ｳﾜｼﾞﾏｼ","streetKana":"ﾏﾙﾉｳﾁ","prefecture":"愛媛県","city":"宇和島市","street":"丸之内"},{"zipCode":"7980101","prefectureKana":"ｴﾋﾒｹﾝ","cityKana":"ｳﾜｼﾞﾏｼ","streetKana":"ﾐｳﾗﾋｶﾞｼ","prefecture":"愛媛県","city":"宇和島市","street":"三浦東"},{"zipCode":"7980102","prefectureKana":"ｴﾋﾒｹﾝ","cityKana":"ｳﾜｼﾞﾏｼ","streetKana":"ﾐｳﾗﾆｼ","prefecture":"愛媛県","city":"宇和島市","street":"三浦西"},{"zipCode":"7980021","prefectureKana":"ｴﾋﾒｹﾝ","cityKana":"ｳﾜｼﾞﾏｼ","streetKana":"ﾐﾂﾏ","prefecture":"愛媛県","city":"宇和島市","street":"光満"},{"zipCode":"7981136","prefectureKana":"ｴﾋﾒｹﾝ","cityKana":"ｳﾜｼﾞﾏｼ","streetKana":"ﾐﾏﾁｮｳｵｵｳﾁ","prefecture":"愛媛県","city":"宇和島市","street":"三間町大内"},{"zipCode":"7981101","prefectureKana":"ｴﾋﾒｹﾝ","cityKana":"ｳﾜｼﾞﾏｼ","streetKana":"ﾐﾏﾁｮｳｵｵﾌｼﾞ","prefecture":"愛媛県","city":"宇和島市","street":"三間町大藤"},{"zipCode":"7981141","prefectureKana":"ｴﾋﾒｹﾝ","cityKana":"ｳﾜｼﾞﾏｼ","streetKana":"ﾐﾏﾁｮｳｵﾝｼﾞ","prefecture":"愛媛県","city":"宇和島市","street":"三間町音地"},{"zipCode":"7981134","prefectureKana":"ｴﾋﾒｹﾝ","cityKana":"ｳﾜｼﾞﾏｼ","streetKana":"ﾐﾏﾁｮｳｶﾅﾄﾞｳ","prefecture":"愛媛県","city":"宇和島市","street":"三間町金銅"},{"zipCode":"7981137","prefectureKana":"ｴﾋﾒｹﾝ","cityKana":"ｳﾜｼﾞﾏｼ","streetKana":"ﾐﾏﾁｮｳｶﾈﾁｶ","prefecture":"愛媛県","city":"宇和島市","street":"三間町兼近"},{"zipCode":"7981121","prefectureKana":"ｴﾋﾒｹﾝ","cityKana":"ｳﾜｼﾞﾏｼ","streetKana":"ﾐﾏﾁｮｳｶﾜﾉｳﾁ","prefecture":"愛媛県","city":"宇和島市","street":"三間町川之内"},{"zipCode":"7981111","prefectureKana":"ｴﾋﾒｹﾝ","cityKana":"ｳﾜｼﾞﾏｼ","streetKana":"ﾐﾏﾁｮｳｷﾀﾏｽｵ","prefecture":"愛媛県","city":"宇和島市","street":"三間町北増穂"},{"zipCode":"7981116","prefectureKana":"ｴﾋﾒｹﾝ","cityKana":"ｳﾜｼﾞﾏｼ","streetKana":"ﾐﾏﾁｮｳｸﾛｲｼﾞ","prefecture":"愛媛県","city":"宇和島市","street":"三間町黒井地"},{"zipCode":"7981143","prefectureKana":"ｴﾋﾒｹﾝ","cityKana":"ｳﾜｼﾞﾏｼ","streetKana":"ﾐﾏﾁｮｳｸﾛｶﾜ","prefecture":"愛媛県","city":"宇和島市","street":"三間町黒川"},{"zipCode":"7981122","prefectureKana":"ｴﾋﾒｹﾝ","cityKana":"ｳﾜｼﾞﾏｼ","streetKana":"ﾐﾏﾁｮｳｺｿｳｶﾞﾜ","prefecture":"愛媛県","city":"宇和島市","street":"三間町小沢川"},{"zipCode":"7981135","prefectureKana":"ｴﾋﾒｹﾝ","cityKana":"ｳﾜｼﾞﾏｼ","streetKana":"ﾐﾏﾁｮｳｺﾄｳﾀﾞ","prefecture":"愛媛県","city":"宇和島市","street":"三間町古藤田"},{"zipCode":"7981139","prefectureKana":"ｴﾋﾒｹﾝ","cityKana":"ｳﾜｼﾞﾏｼ","streetKana":"ﾐﾏﾁｮｳｺﾚﾉﾌﾞ","prefecture":"愛媛県","city":"宇和島市","street":"三間町是延"},{"zipCode":"7981105","prefectureKana":"ｴﾋﾒｹﾝ","cityKana":"ｳﾜｼﾞﾏｼ","streetKana":"ﾐﾏﾁｮｳｺﾚﾖｼ","prefecture":"愛媛県","city":"宇和島市","street":"三間町是能"},{"zipCode":"7981102","prefectureKana":"ｴﾋﾒｹﾝ","cityKana":"ｳﾜｼﾞﾏｼ","streetKana":"ﾐﾏﾁｮｳｽﾅﾜﾁ","prefecture":"愛媛県","city":"宇和島市","street":"三間町則"},{"zipCode":"7981104","prefectureKana":"ｴﾋﾒｹﾝ","cityKana":"ｳﾜｼﾞﾏｼ","streetKana":"ﾐﾏﾁｮｳｿﾈ","prefecture":"愛媛県","city":"宇和島市","street":"三間町曽根"},{"zipCode":"7981131","prefectureKana":"ｴﾋﾒｹﾝ","cityKana":"ｳﾜｼﾞﾏｼ","streetKana":"ﾐﾏﾁｮｳﾀｶﾞﾜ","prefecture":"愛媛県","city":"宇和島市","street":"三間町田川"},{"zipCode":"7981138","prefectureKana":"ｴﾋﾒｹﾝ","cityKana":"ｳﾜｼﾞﾏｼ","streetKana":"ﾐﾏﾁｮｳﾄﾞｲｶｷｳﾁ","prefecture":"愛媛県","city":"宇和島市","street":"三間町土居垣内"},{"zipCode":"7981125","prefectureKana":"ｴﾋﾒｹﾝ","cityKana":"ｳﾜｼﾞﾏｼ","streetKana":"ﾐﾏﾁｮｳﾄﾞｲﾅｶ","prefecture":"愛媛県","city":"宇和島市","street":"三間町土居中"},{"zipCode":"7981115","prefectureKana":"ｴﾋﾒｹﾝ","cityKana":"ｳﾜｼﾞﾏｼ","streetKana":"ﾐﾏﾁｮｳﾄｶﾞﾘ","prefecture":"愛媛県","city":"宇和島市","street":"三間町戸雁"},{"zipCode":"7981133","prefectureKana":"ｴﾋﾒｹﾝ","cityKana":"ｳﾜｼﾞﾏｼ","streetKana":"ﾐﾏﾁｮｳﾅｶﾉﾅｶ","prefecture":"愛媛県","city":"宇和島市","street":"三間町中野中"},{"zipCode":"7981132","prefectureKana":"ｴﾋﾒｹﾝ","cityKana":"ｳﾜｼﾞﾏｼ","streetKana":"ﾐﾏﾁｮｳﾅﾐｵｶ","prefecture":"愛媛県","city":"宇和島市","street":"三間町波岡"},{"zipCode":"7981103","prefectureKana":"ｴﾋﾒｹﾝ","cityKana":"ｳﾜｼﾞﾏｼ","streetKana":"ﾐﾏﾁｮｳﾅﾙｲｴ","prefecture":"愛媛県","city":"宇和島市","street":"三間町成家"},{"zipCode":"7981113","prefectureKana":"ｴﾋﾒｹﾝ","cityKana":"ｳﾜｼﾞﾏｼ","streetKana":"ﾐﾏﾁｮｳﾊｻﾞﾒ","prefecture":"愛媛県","city":"宇和島市","street":"三間町迫目"},{"zipCode":"7981124","prefectureKana":"ｴﾋﾒｹﾝ","cityKana":"ｳﾜｼﾞﾏｼ","streetKana":"ﾐﾏﾁｮｳﾏｽﾀﾞ","prefecture":"愛媛県","city":"宇和島市","street":"三間町増田"},{"zipCode":"7981142","prefectureKana":"ｴﾋﾒｹﾝ","cityKana":"ｳﾜｼﾞﾏｼ","streetKana":"ﾐﾏﾁｮｳﾐﾏﾅｶｲﾀﾞ","prefecture":"愛媛県","city":"宇和島市","street":"三間町三間中間"},{"zipCode":"7981112","prefectureKana":"ｴﾋﾒｹﾝ","cityKana":"ｳﾜｼﾞﾏｼ","streetKana":"ﾐﾏﾁｮｳﾐﾔﾉｼﾀ","prefecture":"愛媛県","city":"宇和島市","street":"三間町宮野下"},{"zipCode":"7981114","prefectureKana":"ｴﾋﾒｹﾝ","cityKana":"ｳﾜｼﾞﾏｼ","streetKana":"ﾐﾏﾁｮｳﾑﾃﾞﾝ","prefecture":"愛媛県","city":"宇和島市","street":"三間町務田"},{"zipCode":"7981123","prefectureKana":"ｴﾋﾒｹﾝ","cityKana":"ｳﾜｼﾞﾏｼ","streetKana":"ﾐﾏﾁｮｳﾓﾄﾑﾈ","prefecture":"愛媛県","city":"宇和島市","street":"三間町元宗"},{"zipCode":"7980085","prefectureKana":"ｴﾋﾒｹﾝ","cityKana":"ｳﾜｼﾞﾏｼ","streetKana":"ﾐﾔｼﾀ","prefecture":"愛媛県","city":"宇和島市","street":"宮下"},{"zipCode":"7980013","prefectureKana":"ｴﾋﾒｹﾝ","cityKana":"ｳﾜｼﾞﾏｼ","streetKana":"ﾐﾕｷﾏﾁ","prefecture":"愛媛県","city":"宇和島市","street":"御幸町"},{"zipCode":"7980071","prefectureKana":"ｴﾋﾒｹﾝ","cityKana":"ｳﾜｼﾞﾏｼ","streetKana":"ﾐｮｳﾃﾞﾝｼﾞﾏｴ","prefecture":"愛媛県","city":"宇和島市","street":"妙典寺前"},{"zipCode":"7980068","prefectureKana":"ｴﾋﾒｹﾝ","cityKana":"ｳﾜｼﾞﾏｼ","streetKana":"ﾒｲﾘﾝﾁｮｳ","prefecture":"愛媛県","city":"宇和島市","street":"明倫町"},{"zipCode":"7980072","prefectureKana":"ｴﾋﾒｹﾝ","cityKana":"ｳﾜｼﾞﾏｼ","streetKana":"ﾓﾄﾕｲｷﾞ","prefecture":"愛媛県","city":"宇和島市","street":"元結掛"},{"zipCode":"7980077","prefectureKana":"ｴﾋﾒｹﾝ","cityKana":"ｳﾜｼﾞﾏｼ","streetKana":"ﾔｽﾀﾞ","prefecture":"愛媛県","city":"宇和島市","street":"保田"},{"zipCode":"7980073","prefectureKana":"ｴﾋﾒｹﾝ","cityKana":"ｳﾜｼﾞﾏｼ","streetKana":"ﾔﾏｷﾞﾜ","prefecture":"愛媛県","city":"宇和島市","street":"山際"},{"zipCode":"7980103","prefectureKana":"ｴﾋﾒｹﾝ","cityKana":"ｳﾜｼﾞﾏｼ","streetKana":"ﾕｽ","prefecture":"愛媛県","city":"宇和島市","street":"遊子"},{"zipCode":"7980084","prefectureKana":"ｴﾋﾒｹﾝ","cityKana":"ｳﾜｼﾞﾏｼ","streetKana":"ﾖﾘﾏﾂ","prefecture":"愛媛県","city":"宇和島市","street":"寄松"},{"zipCode":"7980094","prefectureKana":"ｴﾋﾒｹﾝ","cityKana":"ｳﾜｼﾞﾏｼ","streetKana":"ﾜﾗﾋﾞ","prefecture":"愛媛県","city":"宇和島市","street":"蕨"},{"zipCode":"7980014","prefectureKana":"ｴﾋﾒｹﾝ","cityKana":"ｳﾜｼﾞﾏｼ","streetKana":"ﾜﾚｲｺｳｴﾝ","prefecture":"愛媛県","city":"宇和島市","street":"和霊公園"},{"zipCode":"7980016","prefectureKana":"ｴﾋﾒｹﾝ","cityKana":"ｳﾜｼﾞﾏｼ","streetKana":"ﾜﾚｲﾅｶﾏﾁ","prefecture":"愛媛県","city":"宇和島市","street":"和霊中町"},{"zipCode":"7980017","prefectureKana":"ｴﾋﾒｹﾝ","cityKana":"ｳﾜｼﾞﾏｼ","streetKana":"ﾜﾚｲﾋｶﾞｼﾏﾁ","prefecture":"愛媛県","city":"宇和島市","street":"和霊東町"},{"zipCode":"7980015","prefectureKana":"ｴﾋﾒｹﾝ","cityKana":"ｳﾜｼﾞﾏｼ","streetKana":"ﾜﾚｲﾓﾄﾏﾁ","prefecture":"愛媛県","city":"宇和島市","street":"和霊元町"},{"zipCode":"7980012","prefectureKana":"ｴﾋﾒｹﾝ","cityKana":"ｳﾜｼﾞﾏｼ","streetKana":"ﾜﾚｲﾁｮｳ","prefecture":"愛媛県","city":"宇和島市","street":"和霊町"},{"zipCode":"7982100","prefectureKana":"ｴﾋﾒｹﾝ","cityKana":"ｷﾀｳﾜｸﾞﾝﾏﾂﾉﾁｮｳ","streetKana":"ｲｶﾆｹｲｻｲｶﾞﾅｲﾊﾞｱｲ","prefecture":"愛媛県","city":"北宇和郡松野町","street":"以下に掲載がない場合"},{"zipCode":"7982113","prefectureKana":"ｴﾋﾒｹﾝ","cityKana":"ｷﾀｳﾜｸﾞﾝﾏﾂﾉﾁｮｳ","streetKana":"ｵｸﾉｶﾜ","prefecture":"愛媛県","city":"北宇和郡松野町","street":"奥野川"},{"zipCode":"7982105","prefectureKana":"ｴﾋﾒｹﾝ","cityKana":"ｷﾀｳﾜｸﾞﾝﾏﾂﾉﾁｮｳ","streetKana":"ｶﾐｲｴｼﾞ","prefecture":"愛媛県","city":"北宇和郡松野町","street":"上家地"},{"zipCode":"7982104","prefectureKana":"ｴﾋﾒｹﾝ","cityKana":"ｷﾀｳﾜｸﾞﾝﾏﾂﾉﾁｮｳ","streetKana":"ﾄﾐｵｶ","prefecture":"愛媛県","city":"北宇和郡松野町","street":"富岡"},{"zipCode":"7982103","prefectureKana":"ｴﾋﾒｹﾝ","cityKana":"ｷﾀｳﾜｸﾞﾝﾏﾂﾉﾁｮｳ","streetKana":"ﾄﾖｵｶ","prefecture":"愛媛県","city":"北宇和郡松野町","street":"豊岡"},{"zipCode":"7982102","prefectureKana":"ｴﾋﾒｹﾝ","cityKana":"ｷﾀｳﾜｸﾞﾝﾏﾂﾉﾁｮｳ","streetKana":"ﾉﾋﾞﾉﾉ","prefecture":"愛媛県","city":"北宇和郡松野町","street":"延野々"},{"zipCode":"7982101","prefectureKana":"ｴﾋﾒｹﾝ","cityKana":"ｷﾀｳﾜｸﾞﾝﾏﾂﾉﾁｮｳ","streetKana":"ﾏﾂﾏﾙ","prefecture":"愛媛県","city":"北宇和郡松野町","street":"松丸"},{"zipCode":"7982106","prefectureKana":"ｴﾋﾒｹﾝ","cityKana":"ｷﾀｳﾜｸﾞﾝﾏﾂﾉﾁｮｳ","streetKana":"ﾒｸﾞﾛ","prefecture":"愛媛県","city":"北宇和郡松野町","street":"目黒"},{"zipCode":"7982111","prefectureKana":"ｴﾋﾒｹﾝ","cityKana":"ｷﾀｳﾜｸﾞﾝﾏﾂﾉﾁｮｳ","streetKana":"ﾖｼﾉ","prefecture":"愛媛県","city":"北宇和郡松野町","street":"吉野"},{"zipCode":"7982112","prefectureKana":"ｴﾋﾒｹﾝ","cityKana":"ｷﾀｳﾜｸﾞﾝﾏﾂﾉﾁｮｳ","streetKana":"ﾜﾗﾋﾞｮｳ","prefecture":"愛媛県","city":"北宇和郡松野町","street":"蕨生"},{"zipCode":"7981300","prefectureKana":"ｴﾋﾒｹﾝ","cityKana":"ｷﾀｳﾜｸﾞﾝｷﾎｸﾁｮｳ","streetKana":"ｲｶﾆｹｲｻｲｶﾞﾅｲﾊﾞｱｲ","prefecture":"愛媛県","city":"北宇和郡鬼北町","street":"以下に掲載がない場合"},{"zipCode":"7981375","prefectureKana":"ｴﾋﾒｹﾝ","cityKana":"ｷﾀｳﾜｸﾞﾝｷﾎｸﾁｮｳ","streetKana":"ｱｾﾞﾔ","prefecture":"愛媛県","city":"北宇和郡鬼北町","street":"畔屋"},{"zipCode":"7981371","prefectureKana":"ｴﾋﾒｹﾝ","cityKana":"ｷﾀｳﾜｸﾞﾝｷﾎｸﾁｮｳ","streetKana":"ｲｸﾀ","prefecture":"愛媛県","city":"北宇和郡鬼北町","street":"生田"},{"zipCode":"7981332","prefectureKana":"ｴﾋﾒｹﾝ","cityKana":"ｷﾀｳﾜｸﾞﾝｷﾎｸﾁｮｳ","streetKana":"ｲｽﾞﾒ","prefecture":"愛媛県","city":"北宇和郡鬼北町","street":"出目"},{"zipCode":"7981323","prefectureKana":"ｴﾋﾒｹﾝ","cityKana":"ｷﾀｳﾜｸﾞﾝｷﾎｸﾁｮｳ","streetKana":"ｲﾜﾔ","prefecture":"愛媛県","city":"北宇和郡鬼北町","street":"岩谷"},{"zipCode":"7981363","prefectureKana":"ｴﾋﾒｹﾝ","cityKana":"ｷﾀｳﾜｸﾞﾝｷﾎｸﾁｮｳ","streetKana":"ｳﾁﾌｶﾀ","prefecture":"愛媛県","city":"北宇和郡鬼北町","street":"内深田"},{"zipCode":"7981301","prefectureKana":"ｴﾋﾒｹﾝ","cityKana":"ｷﾀｳﾜｸﾞﾝｷﾎｸﾁｮｳ","streetKana":"ｵｵｼﾞｸ","prefecture":"愛媛県","city":"北宇和郡鬼北町","street":"大宿"},{"zipCode":"7981331","prefectureKana":"ｴﾋﾒｹﾝ","cityKana":"ｷﾀｳﾜｸﾞﾝｷﾎｸﾁｮｳ","streetKana":"ｵｷﾉﾉ","prefecture":"愛媛県","city":"北宇和郡鬼北町","street":"興野々"},{"zipCode":"7981321","prefectureKana":"ｴﾋﾒｹﾝ","cityKana":"ｷﾀｳﾜｸﾞﾝｷﾎｸﾁｮｳ","streetKana":"ｵｸﾞﾜ","prefecture":"愛媛県","city":"北宇和郡鬼北町","street":"小倉"},{"zipCode":"7981503","prefectureKana":"ｴﾋﾒｹﾝ","cityKana":"ｷﾀｳﾜｸﾞﾝｷﾎｸﾁｮｳ","streetKana":"ｶﾐｵｵﾉ","prefecture":"愛媛県","city":"北宇和郡鬼北町","street":"上大野"},{"zipCode":"7981501","prefectureKana":"ｴﾋﾒｹﾝ","cityKana":"ｷﾀｳﾜｸﾞﾝｷﾎｸﾁｮｳ","streetKana":"ｶﾐｶｷﾞﾔﾏ","prefecture":"愛媛県","city":"北宇和郡鬼北町","street":"上鍵山"},{"zipCode":"7981322","prefectureKana":"ｴﾋﾒｹﾝ","cityKana":"ｷﾀｳﾜｸﾞﾝｷﾎｸﾁｮｳ","streetKana":"ｶﾐｶﾜ","prefecture":"愛媛県","city":"北宇和郡鬼北町","street":"上川"},{"zipCode":"7981312","prefectureKana":"ｴﾋﾒｹﾝ","cityKana":"ｷﾀｳﾜｸﾞﾝｷﾎｸﾁｮｳ","streetKana":"ｶﾜｶﾐ","prefecture":"愛媛県","city":"北宇和郡鬼北町","street":"川上"},{"zipCode":"7981354","prefectureKana":"ｴﾋﾒｹﾝ","cityKana":"ｷﾀｳﾜｸﾞﾝｷﾎｸﾁｮｳ","streetKana":"ｷﾀｶﾞﾜ","prefecture":"愛媛県","city":"北宇和郡鬼北町","street":"北川"},{"zipCode":"7981362","prefectureKana":"ｴﾋﾒｹﾝ","cityKana":"ｷﾀｳﾜｸﾞﾝｷﾎｸﾁｮｳ","streetKana":"ｷﾖﾉﾌﾞ","prefecture":"愛媛県","city":"北宇和郡鬼北町","street":"清延"},{"zipCode":"7981361","prefectureKana":"ｴﾋﾒｹﾝ","cityKana":"ｷﾀｳﾜｸﾞﾝｷﾎｸﾁｮｳ","streetKana":"ｸﾆﾄｵ","prefecture":"愛媛県","city":"北宇和郡鬼北町","street":"国遠"},{"zipCode":"7981314","prefectureKana":"ｴﾋﾒｹﾝ","cityKana":"ｷﾀｳﾜｸﾞﾝｷﾎｸﾁｮｳ","streetKana":"ｸﾎﾞ","prefecture":"愛媛県","city":"北宇和郡鬼北町","street":"久保"},{"zipCode":"7981324","prefectureKana":"ｴﾋﾒｹﾝ","cityKana":"ｷﾀｳﾜｸﾞﾝｷﾎｸﾁｮｳ","streetKana":"ｺﾆｼﾉﾉ","prefecture":"愛媛県","city":"北宇和郡鬼北町","street":"小西野々"},{"zipCode":"7981311","prefectureKana":"ｴﾋﾒｹﾝ","cityKana":"ｷﾀｳﾜｸﾞﾝｷﾎｸﾁｮｳ","streetKana":"ｺﾏﾂ","prefecture":"愛媛県","city":"北宇和郡鬼北町","street":"小松"},{"zipCode":"7981367","prefectureKana":"ｴﾋﾒｹﾝ","cityKana":"ｷﾀｳﾜｸﾞﾝｷﾎｸﾁｮｳ","streetKana":"ｻﾜﾏﾂ","prefecture":"愛媛県","city":"北宇和郡鬼北町","street":"沢松"},{"zipCode":"7981355","prefectureKana":"ｴﾋﾒｹﾝ","cityKana":"ｷﾀｳﾜｸﾞﾝｷﾎｸﾁｮｳ","streetKana":"ｼﾊﾞ","prefecture":"愛媛県","city":"北宇和郡鬼北町","street":"芝"},{"zipCode":"7981302","prefectureKana":"ｴﾋﾒｹﾝ","cityKana":"ｷﾀｳﾜｸﾞﾝｷﾎｸﾁｮｳ","streetKana":"ｼﾓｵｵﾉ","prefecture":"愛媛県","city":"北宇和郡鬼北町","street":"下大野"},{"zipCode":"7981502","prefectureKana":"ｴﾋﾒｹﾝ","cityKana":"ｷﾀｳﾜｸﾞﾝｷﾎｸﾁｮｳ","streetKana":"ｼﾓｶｷﾞﾔﾏ","prefecture":"愛媛県","city":"北宇和郡鬼北町","street":"下鍵山"},{"zipCode":"7981373","prefectureKana":"ｴﾋﾒｹﾝ","cityKana":"ｷﾀｳﾜｸﾞﾝｷﾎｸﾁｮｳ","streetKana":"ｾｲｽﾞｲ","prefecture":"愛媛県","city":"北宇和郡鬼北町","street":"清水"},{"zipCode":"7981341","prefectureKana":"ｴﾋﾒｹﾝ","cityKana":"ｷﾀｳﾜｸﾞﾝｷﾎｸﾁｮｳ","streetKana":"ﾁｶﾅｶﾞ(ｱｻﾋﾏﾁ)","prefecture":"愛媛県","city":"北宇和郡鬼北町","street":"近永（旭町）"},{"zipCode":"7981342","prefectureKana":"ｴﾋﾒｹﾝ","cityKana":"ｷﾀｳﾜｸﾞﾝｷﾎｸﾁｮｳ","streetKana":"ﾁｶﾅｶﾞ(ｻｶｴﾏﾁ)","prefecture":"愛媛県","city":"北宇和郡鬼北町","street":"近永（栄町）"},{"zipCode":"7981343","prefectureKana":"ｴﾋﾒｹﾝ","cityKana":"ｷﾀｳﾜｸﾞﾝｷﾎｸﾁｮｳ","streetKana":"ﾁｶﾅｶﾞ(ｼﾝﾏﾁ)","prefecture":"愛媛県","city":"北宇和郡鬼北町","street":"近永（新町）"},{"zipCode":"7981344","prefectureKana":"ｴﾋﾒｹﾝ","cityKana":"ｷﾀｳﾜｸﾞﾝｷﾎｸﾁｮｳ","streetKana":"ﾁｶﾅｶﾞ(ﾎﾝﾏﾁ)","prefecture":"愛媛県","city":"北宇和郡鬼北町","street":"近永（本町）"},{"zipCode":"7981345","prefectureKana":"ｴﾋﾒｹﾝ","cityKana":"ｷﾀｳﾜｸﾞﾝｷﾎｸﾁｮｳ","streetKana":"ﾁｶﾅｶﾞ(ﾐﾅﾐﾏﾁ)","prefecture":"愛媛県","city":"北宇和郡鬼北町","street":"近永（南町）"},{"zipCode":"7981505","prefectureKana":"ｴﾋﾒｹﾝ","cityKana":"ｷﾀｳﾜｸﾞﾝｷﾎｸﾁｮｳ","streetKana":"ﾁﾁﾉｶﾜｶﾐ","prefecture":"愛媛県","city":"北宇和郡鬼北町","street":"父野川上"},{"zipCode":"7981506","prefectureKana":"ｴﾋﾒｹﾝ","cityKana":"ｷﾀｳﾜｸﾞﾝｷﾎｸﾁｮｳ","streetKana":"ﾁﾁﾉｶﾜﾅｶ","prefecture":"愛媛県","city":"北宇和郡鬼北町","street":"父野川中"},{"zipCode":"7981507","prefectureKana":"ｴﾋﾒｹﾝ","cityKana":"ｷﾀｳﾜｸﾞﾝｷﾎｸﾁｮｳ","streetKana":"ﾁﾁﾉｶﾜｼﾓ","prefecture":"愛媛県","city":"北宇和郡鬼北町","street":"父野川下"},{"zipCode":"7981333","prefectureKana":"ｴﾋﾒｹﾝ","cityKana":"ｷﾀｳﾜｸﾞﾝｷﾎｸﾁｮｳ","streetKana":"ﾅｶﾞﾉｲﾁ","prefecture":"愛媛県","city":"北宇和郡鬼北町","street":"永野市"},{"zipCode":"7981356","prefectureKana":"ｴﾋﾒｹﾝ","cityKana":"ｷﾀｳﾜｸﾞﾝｷﾎｸﾁｮｳ","streetKana":"ﾅｶﾉｶﾜ","prefecture":"愛媛県","city":"北宇和郡鬼北町","street":"中野川"},{"zipCode":"7981352","prefectureKana":"ｴﾋﾒｹﾝ","cityKana":"ｷﾀｳﾜｸﾞﾝｷﾎｸﾁｮｳ","streetKana":"ﾅﾗ(ﾅﾙｶﾜ)","prefecture":"愛媛県","city":"北宇和郡鬼北町","street":"奈良（成川）"},{"zipCode":"7981353","prefectureKana":"ｴﾋﾒｹﾝ","cityKana":"ｷﾀｳﾜｸﾞﾝｷﾎｸﾁｮｳ","streetKana":"ﾅﾗ(ﾐｽﾞﾜｶﾚ)","prefecture":"愛媛県","city":"北宇和郡鬼北町","street":"奈良（水分）"},{"zipCode":"7981351","prefectureKana":"ｴﾋﾒｹﾝ","cityKana":"ｷﾀｳﾜｸﾞﾝｷﾎｸﾁｮｳ","streetKana":"ﾅﾗ(ｿﾉﾀ)","prefecture":"愛媛県","city":"北宇和郡鬼北町","street":"奈良（その他）"},{"zipCode":"7981374","prefectureKana":"ｴﾋﾒｹﾝ","cityKana":"ｷﾀｳﾜｸﾞﾝｷﾎｸﾁｮｳ","streetKana":"ﾅﾘﾌｼﾞ","prefecture":"愛媛県","city":"北宇和郡鬼北町","street":"成藤"},{"zipCode":"7981365","prefectureKana":"ｴﾋﾒｹﾝ","cityKana":"ｷﾀｳﾜｸﾞﾝｷﾎｸﾁｮｳ","streetKana":"ﾆｼﾅｶ","prefecture":"愛媛県","city":"北宇和郡鬼北町","street":"西仲"},{"zipCode":"7981372","prefectureKana":"ｴﾋﾒｹﾝ","cityKana":"ｷﾀｳﾜｸﾞﾝｷﾎｸﾁｮｳ","streetKana":"ﾆｼﾉﾉ","prefecture":"愛媛県","city":"北宇和郡鬼北町","street":"西野々"},{"zipCode":"7981313","prefectureKana":"ｴﾋﾒｹﾝ","cityKana":"ｷﾀｳﾜｸﾞﾝｷﾎｸﾁｮｳ","streetKana":"ﾉﾌﾞｶﾜ","prefecture":"愛媛県","city":"北宇和郡鬼北町","street":"延川"},{"zipCode":"7981366","prefectureKana":"ｴﾋﾒｹﾝ","cityKana":"ｷﾀｳﾜｸﾞﾝｷﾎｸﾁｮｳ","streetKana":"ﾋｶﾞｼﾅｶ","prefecture":"愛媛県","city":"北宇和郡鬼北町","street":"東仲"},{"zipCode":"7981504","prefectureKana":"ｴﾋﾒｹﾝ","cityKana":"ｷﾀｳﾜｸﾞﾝｷﾎｸﾁｮｳ","streetKana":"ﾋｭｳｶﾞｲ","prefecture":"愛媛県","city":"北宇和郡鬼北町","street":"日向谷"},{"zipCode":"7981303","prefectureKana":"ｴﾋﾒｹﾝ","cityKana":"ｷﾀｳﾜｸﾞﾝｷﾎｸﾁｮｳ","streetKana":"ﾋﾛﾐ","prefecture":"愛媛県","city":"北宇和郡鬼北町","street":"広見"},{"zipCode":"7981364","prefectureKana":"ｴﾋﾒｹﾝ","cityKana":"ｷﾀｳﾜｸﾞﾝｷﾎｸﾁｮｳ","streetKana":"ﾖｼﾅﾐ","prefecture":"愛媛県","city":"北宇和郡鬼北町","street":"吉波"},{"zipCode":"7984100","prefectureKana":"ｴﾋﾒｹﾝ","cityKana":"ﾐﾅﾐｳﾜｸﾞﾝｱｲﾅﾝﾁｮｳ","streetKana":"ｲｶﾆｹｲｻｲｶﾞﾅｲﾊﾞｱｲ","prefecture":"愛媛県","city":"南宇和郡愛南町","street":"以下に掲載がない場合"},{"zipCode":"7984123","prefectureKana":"ｴﾋﾒｹﾝ","cityKana":"ﾐﾅﾐｳﾜｸﾞﾝｱｲﾅﾝﾁｮｳ","streetKana":"ｱｶﾐｽﾞ","prefecture":"愛媛県","city":"南宇和郡愛南町","street":"赤水"},{"zipCode":"7983708","prefectureKana":"ｴﾋﾒｹﾝ","cityKana":"ﾐﾅﾐｳﾜｸﾞﾝｱｲﾅﾝﾁｮｳ","streetKana":"ｱｼﾞﾛ","prefecture":"愛媛県","city":"南宇和郡愛南町","street":"網代"},{"zipCode":"7984345","prefectureKana":"ｴﾋﾒｹﾝ","cityKana":"ﾐﾅﾐｳﾜｸﾞﾝｱｲﾅﾝﾁｮｳ","streetKana":"ｱﾂﾓﾘ","prefecture":"愛媛県","city":"南宇和郡愛南町","street":"敦盛"},{"zipCode":"7983705","prefectureKana":"ｴﾋﾒｹﾝ","cityKana":"ﾐﾅﾐｳﾜｸﾞﾝｱｲﾅﾝﾁｮｳ","streetKana":"ｲｴｸｼ","prefecture":"愛媛県","city":"南宇和郡愛南町","street":"家串"},{"zipCode":"7984408","prefectureKana":"ｴﾋﾒｹﾝ","cityKana":"ﾐﾅﾐｳﾜｸﾞﾝｱｲﾅﾝﾁｮｳ","streetKana":"ｲｯﾎﾟﾝﾏﾂ","prefecture":"愛媛県","city":"南宇和郡愛南町","street":"一本松"},{"zipCode":"7984351","prefectureKana":"ｴﾋﾒｹﾝ","cityKana":"ﾐﾅﾐｳﾜｸﾞﾝｱｲﾅﾝﾁｮｳ","streetKana":"ｲﾙｶｺﾞｴ","prefecture":"愛媛県","city":"南宇和郡愛南町","street":"鯆越"},{"zipCode":"7984344","prefectureKana":"ｴﾋﾒｹﾝ","cityKana":"ﾐﾅﾐｳﾜｸﾞﾝｱｲﾅﾝﾁｮｳ","streetKana":"ｲﾜﾐｽﾞ","prefecture":"愛媛県","city":"南宇和郡愛南町","street":"岩水"},{"zipCode":"7984206","prefectureKana":"ｴﾋﾒｹﾝ","cityKana":"ﾐﾅﾐｳﾜｸﾞﾝｱｲﾅﾝﾁｮｳ","streetKana":"ｳﾁﾄﾞﾏﾘ","prefecture":"愛媛県","city":"南宇和郡愛南町","street":"内泊"},{"zipCode":"7984407","prefectureKana":"ｴﾋﾒｹﾝ","cityKana":"ﾐﾅﾐｳﾜｸﾞﾝｱｲﾅﾝﾁｮｳ","streetKana":"ｳﾜｵｵﾄﾞｳ","prefecture":"愛媛県","city":"南宇和郡愛南町","street":"上大道"},{"zipCode":"7984214","prefectureKana":"ｴﾋﾒｹﾝ","cityKana":"ﾐﾅﾐｳﾜｸﾞﾝｱｲﾅﾝﾁｮｳ","streetKana":"ｵｵﾅﾙｶﾜ","prefecture":"愛媛県","city":"南宇和郡愛南町","street":"大成川"},{"zipCode":"7984347","prefectureKana":"ｴﾋﾒｹﾝ","cityKana":"ﾐﾅﾐｳﾜｸﾞﾝｱｲﾅﾝﾁｮｳ","streetKana":"ｵｵﾊﾏ","prefecture":"愛媛県","city":"南宇和郡愛南町","street":"大浜"},{"zipCode":"7984343","prefectureKana":"ｴﾋﾒｹﾝ","cityKana":"ﾐﾅﾐｳﾜｸﾞﾝｱｲﾅﾝﾁｮｳ","streetKana":"ｶｷｳﾁ","prefecture":"愛媛県","city":"南宇和郡愛南町","street":"垣内"},{"zipCode":"7984346","prefectureKana":"ｴﾋﾒｹﾝ","cityKana":"ﾐﾅﾐｳﾜｸﾞﾝｱｲﾅﾝﾁｮｳ","streetKana":"ｶｷﾉｳﾗ","prefecture":"愛媛県","city":"南宇和郡愛南町","street":"柿ノ浦"},{"zipCode":"7984204","prefectureKana":"ｴﾋﾒｹﾝ","cityKana":"ﾐﾅﾐｳﾜｸﾞﾝｱｲﾅﾝﾁｮｳ","streetKana":"ｶｼﾂﾞｸ","prefecture":"愛媛県","city":"南宇和郡愛南町","street":"樫月"},{"zipCode":"7984209","prefectureKana":"ｴﾋﾒｹﾝ","cityKana":"ﾐﾅﾐｳﾜｸﾞﾝｱｲﾅﾝﾁｮｳ","streetKana":"ｶｼﾏ","prefecture":"愛媛県","city":"南宇和郡愛南町","street":"鹿島"},{"zipCode":"7983701","prefectureKana":"ｴﾋﾒｹﾝ","cityKana":"ﾐﾅﾐｳﾜｸﾞﾝｱｲﾅﾝﾁｮｳ","streetKana":"ｶｼﾜ","prefecture":"愛媛県","city":"南宇和郡愛南町","street":"柏"},{"zipCode":"7983702","prefectureKana":"ｴﾋﾒｹﾝ","cityKana":"ﾐﾅﾐｳﾜｸﾞﾝｱｲﾅﾝﾁｮｳ","streetKana":"ｶｼﾜｻﾞｷ","prefecture":"愛媛県","city":"南宇和郡愛南町","street":"柏崎"},{"zipCode":"7984219","prefectureKana":"ｴﾋﾒｹﾝ","cityKana":"ﾐﾅﾐｳﾜｸﾞﾝｱｲﾅﾝﾁｮｳ","streetKana":"ｺｳﾓ","prefecture":"愛媛県","city":"南宇和郡愛南町","street":"高茂"},{"zipCode":"7984203","prefectureKana":"ｴﾋﾒｹﾝ","cityKana":"ﾐﾅﾐｳﾜｸﾞﾝｱｲﾅﾝﾁｮｳ","streetKana":"ｺｳﾗ","prefecture":"愛媛県","city":"南宇和郡愛南町","street":"小浦"},{"zipCode":"7984201","prefectureKana":"ｴﾋﾒｹﾝ","cityKana":"ﾐﾅﾐｳﾜｸﾞﾝｱｲﾅﾝﾁｮｳ","streetKana":"ｺｼﾀﾞ","prefecture":"愛媛県","city":"南宇和郡愛南町","street":"越田"},{"zipCode":"7984215","prefectureKana":"ｴﾋﾒｹﾝ","cityKana":"ﾐﾅﾐｳﾜｸﾞﾝｱｲﾅﾝﾁｮｳ","streetKana":"ｺﾅﾙｶﾜ","prefecture":"愛媛県","city":"南宇和郡愛南町","street":"小成川"},{"zipCode":"7984403","prefectureKana":"ｴﾋﾒｹﾝ","cityKana":"ﾐﾅﾐｳﾜｸﾞﾝｱｲﾅﾝﾁｮｳ","streetKana":"ｺﾔﾏ","prefecture":"愛媛県","city":"南宇和郡愛南町","street":"小山"},{"zipCode":"7984126","prefectureKana":"ｴﾋﾒｹﾝ","cityKana":"ﾐﾅﾐｳﾜｸﾞﾝｱｲﾅﾝﾁｮｳ","streetKana":"ｻﾙﾅｷﾞ","prefecture":"愛媛県","city":"南宇和郡愛南町","street":"猿鳴"},{"zipCode":"7984212","prefectureKana":"ｴﾋﾒｹﾝ","cityKana":"ﾐﾅﾐｳﾜｸﾞﾝｱｲﾅﾝﾁｮｳ","streetKana":"ｼﾓﾋｻｹﾞ","prefecture":"愛媛県","city":"南宇和郡愛南町","street":"下久家"},{"zipCode":"7984131","prefectureKana":"ｴﾋﾒｹﾝ","cityKana":"ﾐﾅﾐｳﾜｸﾞﾝｱｲﾅﾝﾁｮｳ","streetKana":"ｼﾞｮｳﾍﾝｺｳ","prefecture":"愛媛県","city":"南宇和郡愛南町","street":"城辺甲"},{"zipCode":"7984132","prefectureKana":"ｴﾋﾒｹﾝ","cityKana":"ﾐﾅﾐｳﾜｸﾞﾝｱｲﾅﾝﾁｮｳ","streetKana":"ｼﾞｮｳﾍﾝｵﾂ","prefecture":"愛媛県","city":"南宇和郡愛南町","street":"城辺乙"},{"zipCode":"7983703","prefectureKana":"ｴﾋﾒｹﾝ","cityKana":"ﾐﾅﾐｳﾜｸﾞﾝｱｲﾅﾝﾁｮｳ","streetKana":"ｽﾉｶﾜ","prefecture":"愛媛県","city":"南宇和郡愛南町","street":"須ノ川"},{"zipCode":"7984136","prefectureKana":"ｴﾋﾒｹﾝ","cityKana":"ﾐﾅﾐｳﾜｸﾞﾝｱｲﾅﾝﾁｮｳ","streetKana":"ｿｳﾂﾞ","prefecture":"愛媛県","city":"南宇和郡愛南町","street":"僧都"},{"zipCode":"7984208","prefectureKana":"ｴﾋﾒｹﾝ","cityKana":"ﾐﾅﾐｳﾜｸﾞﾝｱｲﾅﾝﾁｮｳ","streetKana":"ｿﾄﾄﾞﾏﾘ","prefecture":"愛媛県","city":"南宇和郡愛南町","street":"外泊"},{"zipCode":"7984124","prefectureKana":"ｴﾋﾒｹﾝ","cityKana":"ﾐﾅﾐｳﾜｸﾞﾝｱｲﾅﾝﾁｮｳ","streetKana":"ﾀｶﾊﾀ","prefecture":"愛媛県","city":"南宇和郡愛南町","street":"高畑"},{"zipCode":"7984213","prefectureKana":"ｴﾋﾒｹﾝ","cityKana":"ﾐﾅﾐｳﾜｸﾞﾝｱｲﾅﾝﾁｮｳ","streetKana":"ﾀﾙﾐ","prefecture":"愛媛県","city":"南宇和郡愛南町","street":"樽見"},{"zipCode":"7984125","prefectureKana":"ｴﾋﾒｹﾝ","cityKana":"ﾐﾅﾐｳﾜｸﾞﾝｱｲﾅﾝﾁｮｳ","streetKana":"ﾅｶｳﾗ","prefecture":"愛媛県","city":"南宇和郡愛南町","street":"中浦"},{"zipCode":"7984348","prefectureKana":"ｴﾋﾒｹﾝ","cityKana":"ﾐﾅﾐｳﾜｸﾞﾝｱｲﾅﾝﾁｮｳ","streetKana":"ﾅｶﾀﾏ","prefecture":"愛媛県","city":"南宇和郡愛南町","street":"中玉"},{"zipCode":"7984207","prefectureKana":"ｴﾋﾒｹﾝ","cityKana":"ﾐﾅﾐｳﾜｸﾞﾝｱｲﾅﾝﾁｮｳ","streetKana":"ﾅｶﾄﾞﾏﾘ","prefecture":"愛媛県","city":"南宇和郡愛南町","street":"中泊"},{"zipCode":"7984404","prefectureKana":"ｴﾋﾒｹﾝ","cityKana":"ﾐﾅﾐｳﾜｸﾞﾝｱｲﾅﾝﾁｮｳ","streetKana":"ﾅｶﾉｶﾜ","prefecture":"愛媛県","city":"南宇和郡愛南町","street":"中川"},{"zipCode":"7983707","prefectureKana":"ｴﾋﾒｹﾝ","cityKana":"ﾐﾅﾐｳﾜｸﾞﾝｱｲﾅﾝﾁｮｳ","streetKana":"ﾅｶﾞﾐﾔﾏ","prefecture":"愛媛県","city":"南宇和郡愛南町","street":"魚神山"},{"zipCode":"7984211","prefectureKana":"ｴﾋﾒｹﾝ","cityKana":"ﾐﾅﾐｳﾜｸﾞﾝｱｲﾅﾝﾁｮｳ","streetKana":"ﾋｻｹﾞ","prefecture":"愛媛県","city":"南宇和郡愛南町","street":"久家"},{"zipCode":"7984353","prefectureKana":"ｴﾋﾒｹﾝ","cityKana":"ﾐﾅﾐｳﾜｸﾞﾝｱｲﾅﾝﾁｮｳ","streetKana":"ﾋｻﾖｼ","prefecture":"愛媛県","city":"南宇和郡愛南町","street":"久良"},{"zipCode":"7983704","prefectureKana":"ｴﾋﾒｹﾝ","cityKana":"ﾐﾅﾐｳﾜｸﾞﾝｱｲﾅﾝﾁｮｳ","streetKana":"ﾋﾗﾊﾞｴ","prefecture":"愛媛県","city":"南宇和郡愛南町","street":"平碆"},{"zipCode":"7984406","prefectureKana":"ｴﾋﾒｹﾝ","cityKana":"ﾐﾅﾐｳﾜｸﾞﾝｱｲﾅﾝﾁｮｳ","streetKana":"ﾋﾛﾐ","prefecture":"愛媛県","city":"南宇和郡愛南町","street":"広見"},{"zipCode":"7984342","prefectureKana":"ｴﾋﾒｹﾝ","cityKana":"ﾐﾅﾐｳﾜｸﾞﾝｱｲﾅﾝﾁｮｳ","streetKana":"ﾌｶｳﾗ","prefecture":"愛媛県","city":"南宇和郡愛南町","street":"深浦"},{"zipCode":"7984216","prefectureKana":"ｴﾋﾒｹﾝ","cityKana":"ﾐﾅﾐｳﾜｸﾞﾝｱｲﾅﾝﾁｮｳ","streetKana":"ﾌｸｳﾗ","prefecture":"愛媛県","city":"南宇和郡愛南町","street":"福浦"},{"zipCode":"7984205","prefectureKana":"ｴﾋﾒｹﾝ","cityKana":"ﾐﾅﾐｳﾜｸﾞﾝｱｲﾅﾝﾁｮｳ","streetKana":"ﾌﾅｺｼ","prefecture":"愛媛県","city":"南宇和郡愛南町","street":"船越"},{"zipCode":"7984352","prefectureKana":"ｴﾋﾒｹﾝ","cityKana":"ﾐﾅﾐｳﾜｸﾞﾝｱｲﾅﾝﾁｮｳ","streetKana":"ﾌﾙﾂｷ","prefecture":"愛媛県","city":"南宇和郡愛南町","street":"古月"},{"zipCode":"7984122","prefectureKana":"ｴﾋﾒｹﾝ","cityKana":"ﾐﾅﾐｳﾜｸﾞﾝｱｲﾅﾝﾁｮｳ","streetKana":"ﾎﾞｳｼﾞｮｳﾅﾙｶﾜ","prefecture":"愛媛県","city":"南宇和郡愛南町","street":"防城成川"},{"zipCode":"7984401","prefectureKana":"ｴﾋﾒｹﾝ","cityKana":"ﾐﾅﾐｳﾜｸﾞﾝｱｲﾅﾝﾁｮｳ","streetKana":"ﾏｻｷ","prefecture":"愛媛県","city":"南宇和郡愛南町","street":"正木"},{"zipCode":"7984402","prefectureKana":"ｴﾋﾒｹﾝ","cityKana":"ﾐﾅﾐｳﾜｸﾞﾝｱｲﾅﾝﾁｮｳ","streetKana":"ﾏｽﾀﾞ","prefecture":"愛媛県","city":"南宇和郡愛南町","street":"増田"},{"zipCode":"7984101","prefectureKana":"ｴﾋﾒｹﾝ","cityKana":"ﾐﾅﾐｳﾜｸﾞﾝｱｲﾅﾝﾁｮｳ","streetKana":"ﾐｼｮｳｷｸｶﾞﾜ","prefecture":"愛媛県","city":"南宇和郡愛南町","street":"御荘菊川"},{"zipCode":"7984103","prefectureKana":"ｴﾋﾒｹﾝ","cityKana":"ﾐﾅﾐｳﾜｸﾞﾝｱｲﾅﾝﾁｮｳ","streetKana":"ﾐｼｮｳﾅｶﾞｽ","prefecture":"愛媛県","city":"南宇和郡愛南町","street":"御荘長洲"},{"zipCode":"7984105","prefectureKana":"ｴﾋﾒｹﾝ","cityKana":"ﾐﾅﾐｳﾜｸﾞﾝｱｲﾅﾝﾁｮｳ","streetKana":"ﾐｼｮｳﾅｶﾞﾂｷ","prefecture":"愛媛県","city":"南宇和郡愛南町","street":"御荘長月"},{"zipCode":"7984110","prefectureKana":"ｴﾋﾒｹﾝ","cityKana":"ﾐﾅﾐｳﾜｸﾞﾝｱｲﾅﾝﾁｮｳ","streetKana":"ﾐｼｮｳﾋﾗｼﾞｮｳ","prefecture":"愛媛県","city":"南宇和郡愛南町","street":"御荘平城"},{"zipCode":"7984102","prefectureKana":"ｴﾋﾒｹﾝ","cityKana":"ﾐﾅﾐｳﾜｸﾞﾝｱｲﾅﾝﾁｮｳ","streetKana":"ﾐｼｮｳﾋﾗﾔﾏ","prefecture":"愛媛県","city":"南宇和郡愛南町","street":"御荘平山"},{"zipCode":"7984121","prefectureKana":"ｴﾋﾒｹﾝ","cityKana":"ﾐﾅﾐｳﾜｸﾞﾝｱｲﾅﾝﾁｮｳ","streetKana":"ﾐｼｮｳﾐﾄﾞﾛ","prefecture":"愛媛県","city":"南宇和郡愛南町","street":"御荘深泥"},{"zipCode":"7984104","prefectureKana":"ｴﾋﾒｹﾝ","cityKana":"ﾐﾅﾐｳﾜｸﾞﾝｱｲﾅﾝﾁｮｳ","streetKana":"ﾐｼｮｳﾜｸﾞﾁ","prefecture":"愛媛県","city":"南宇和郡愛南町","street":"御荘和口"},{"zipCode":"7984405","prefectureKana":"ｴﾋﾒｹﾝ","cityKana":"ﾐﾅﾐｳﾜｸﾞﾝｱｲﾅﾝﾁｮｳ","streetKana":"ﾐﾁｸﾗ","prefecture":"愛媛県","city":"南宇和郡愛南町","street":"満倉"},{"zipCode":"7984134","prefectureKana":"ｴﾋﾒｹﾝ","cityKana":"ﾐﾅﾐｳﾜｸﾞﾝｱｲﾅﾝﾁｮｳ","streetKana":"ﾐﾄﾞﾘｺｳ","prefecture":"愛媛県","city":"南宇和郡愛南町","street":"緑甲"},{"zipCode":"7984133","prefectureKana":"ｴﾋﾒｹﾝ","cityKana":"ﾐﾅﾐｳﾜｸﾞﾝｱｲﾅﾝﾁｮｳ","streetKana":"ﾐﾄﾞﾘｵﾂ","prefecture":"愛媛県","city":"南宇和郡愛南町","street":"緑乙"},{"zipCode":"7984135","prefectureKana":"ｴﾋﾒｹﾝ","cityKana":"ﾐﾅﾐｳﾜｸﾞﾝｱｲﾅﾝﾁｮｳ","streetKana":"ﾐﾄﾞﾘﾍｲ","prefecture":"愛媛県","city":"南宇和郡愛南町","street":"緑丙"},{"zipCode":"7984217","prefectureKana":"ｴﾋﾒｹﾝ","cityKana":"ﾐﾅﾐｳﾜｸﾞﾝｱｲﾅﾝﾁｮｳ","streetKana":"ﾑｷﾞｶﾞｳﾗ","prefecture":"愛媛県","city":"南宇和郡愛南町","street":"麦ケ浦"},{"zipCode":"7984218","prefectureKana":"ｴﾋﾒｹﾝ","cityKana":"ﾐﾅﾐｳﾜｸﾞﾝｱｲﾅﾝﾁｮｳ","streetKana":"ﾑｼｬﾄﾞﾏﾘ","prefecture":"愛媛県","city":"南宇和郡愛南町","street":"武者泊"},{"zipCode":"7983706","prefectureKana":"ｴﾋﾒｹﾝ","cityKana":"ﾐﾅﾐｳﾜｸﾞﾝｱｲﾅﾝﾁｮｳ","streetKana":"ﾕﾀｲ","prefecture":"愛媛県","city":"南宇和郡愛南町","street":"油袋"},{"zipCode":"7984202","prefectureKana":"ｴﾋﾒｹﾝ","cityKana":"ﾐﾅﾐｳﾜｸﾞﾝｱｲﾅﾝﾁｮｳ","streetKana":"ﾕﾀﾞﾁ","prefecture":"愛媛県","city":"南宇和郡愛南町","street":"弓立"},{"zipCode":"7984341","prefectureKana":"ｴﾋﾒｹﾝ","cityKana":"ﾐﾅﾐｳﾜｸﾞﾝｱｲﾅﾝﾁｮｳ","streetKana":"ﾚﾝｼﾞｮｳｼﾞ","prefecture":"愛媛県","city":"南宇和郡愛南町","street":"蓮乗寺"},{"zipCode":"7984349","prefectureKana":"ｴﾋﾒｹﾝ","cityKana":"ﾐﾅﾐｳﾜｸﾞﾝｱｲﾅﾝﾁｮｳ","streetKana":"ﾜｷﾓﾄ","prefecture":"愛媛県","city":"南宇和郡愛南町","street":"脇本"}]