[{"zipCode":"8050000","prefectureKana":"ﾌｸｵｶｹﾝ","cityKana":"ｷﾀｷｭｳｼｭｳｼﾔﾊﾀﾋｶﾞｼｸ","streetKana":"ｲｶﾆｹｲｻｲｶﾞﾅｲﾊﾞｱｲ","prefecture":"福岡県","city":"北九州市八幡東区","street":"以下に掲載がない場合"},{"zipCode":"8050001","prefectureKana":"ﾌｸｵｶｹﾝ","cityKana":"ｷﾀｷｭｳｼｭｳｼﾔﾊﾀﾋｶﾞｼｸ","streetKana":"ｱﾗﾃ","prefecture":"福岡県","city":"北九州市八幡東区","street":"荒手"},{"zipCode":"8050015","prefectureKana":"ﾌｸｵｶｹﾝ","cityKana":"ｷﾀｷｭｳｼｭｳｼﾔﾊﾀﾋｶﾞｼｸ","streetKana":"ｱﾛｳﾀﾞ","prefecture":"福岡県","city":"北九州市八幡東区","street":"荒生田"},{"zipCode":"8050021","prefectureKana":"ﾌｸｵｶｹﾝ","cityKana":"ｷﾀｷｭｳｼｭｳｼﾔﾊﾀﾋｶﾞｼｸ","streetKana":"ｲｼﾂﾎﾞﾏﾁ","prefecture":"福岡県","city":"北九州市八幡東区","street":"石坪町"},{"zipCode":"8050037","prefectureKana":"ﾌｸｵｶｹﾝ","cityKana":"ｷﾀｷｭｳｼｭｳｼﾔﾊﾀﾋｶﾞｼｸ","streetKana":"ｲﾉｸﾗﾏﾁ","prefecture":"福岡県","city":"北九州市八幡東区","street":"猪倉町"},{"zipCode":"8050041","prefectureKana":"ﾌｸｵｶｹﾝ","cityKana":"ｷﾀｷｭｳｼｭｳｼﾔﾊﾀﾋｶﾞｼｸ","streetKana":"ｲﾜｲﾏﾁ","prefecture":"福岡県","city":"北九州市八幡東区","street":"祝町"},{"zipCode":"8050002","prefectureKana":"ﾌｸｵｶｹﾝ","cityKana":"ｷﾀｷｭｳｼｭｳｼﾔﾊﾀﾋｶﾞｼｸ","streetKana":"ｴﾀﾞﾐﾂ","prefecture":"福岡県","city":"北九州市八幡東区","street":"枝光"},{"zipCode":"8050008","prefectureKana":"ﾌｸｵｶｹﾝ","cityKana":"ｷﾀｷｭｳｼｭｳｼﾔﾊﾀﾋｶﾞｼｸ","streetKana":"ｴﾀﾞﾐﾂﾎﾝﾏﾁ","prefecture":"福岡県","city":"北九州市八幡東区","street":"枝光本町"},{"zipCode":"8050048","prefectureKana":"ﾌｸｵｶｹﾝ","cityKana":"ｷﾀｷｭｳｼｭｳｼﾔﾊﾀﾋｶﾞｼｸ","streetKana":"ｵｵｸﾗ","prefecture":"福岡県","city":"北九州市八幡東区","street":"大蔵"},{"zipCode":"8050053","prefectureKana":"ﾌｸｵｶｹﾝ","cityKana":"ｷﾀｷｭｳｼｭｳｼﾔﾊﾀﾋｶﾞｼｸ","streetKana":"ｵｵﾀﾆ","prefecture":"福岡県","city":"北九州市八幡東区","street":"大谷"},{"zipCode":"8050038","prefectureKana":"ﾌｸｵｶｹﾝ","cityKana":"ｷﾀｷｭｳｼｭｳｼﾔﾊﾀﾋｶﾞｼｸ","streetKana":"ｵｵﾋﾗﾏﾁ","prefecture":"福岡県","city":"北九州市八幡東区","street":"大平町"},{"zipCode":"8050003","prefectureKana":"ﾌｸｵｶｹﾝ","cityKana":"ｷﾀｷｭｳｼｭｳｼﾔﾊﾀﾋｶﾞｼｸ","streetKana":"ｵｵﾐﾔﾏﾁ","prefecture":"福岡県","city":"北九州市八幡東区","street":"大宮町"},{"zipCode":"8050057","prefectureKana":"ﾌｸｵｶｹﾝ","cityKana":"ｷﾀｷｭｳｼｭｳｼﾔﾊﾀﾋｶﾞｼｸ","streetKana":"ｵｸﾞﾗ(ｵｵｱｻﾞ)","prefecture":"福岡県","city":"北九州市八幡東区","street":"尾倉（大字）"},{"zipCode":"8050059","prefectureKana":"ﾌｸｵｶｹﾝ","cityKana":"ｷﾀｷｭｳｼｭｳｼﾔﾊﾀﾋｶﾞｼｸ","streetKana":"ｵｸﾞﾗ(ﾁｮｳﾒ)","prefecture":"福岡県","city":"北九州市八幡東区","street":"尾倉（丁目）"},{"zipCode":"8050043","prefectureKana":"ﾌｸｵｶｹﾝ","cityKana":"ｷﾀｷｭｳｼｭｳｼﾔﾊﾀﾋｶﾞｼｸ","streetKana":"ｶﾂﾔﾏ","prefecture":"福岡県","city":"北九州市八幡東区","street":"勝山"},{"zipCode":"8050018","prefectureKana":"ﾌｸｵｶｹﾝ","cityKana":"ｷﾀｷｭｳｼｭｳｼﾔﾊﾀﾋｶﾞｼｸ","streetKana":"ｶﾐﾎﾝﾏﾁ","prefecture":"福岡県","city":"北九州市八幡東区","street":"上本町"},{"zipCode":"8050055","prefectureKana":"ﾌｸｵｶｹﾝ","cityKana":"ｷﾀｷｭｳｼｭｳｼﾔﾊﾀﾋｶﾞｼｸ","streetKana":"ｶﾐﾔﾏﾏﾁ","prefecture":"福岡県","city":"北九州市八幡東区","street":"神山町"},{"zipCode":"8050045","prefectureKana":"ﾌｸｵｶｹﾝ","cityKana":"ｷﾀｷｭｳｼｭｳｼﾔﾊﾀﾋｶﾞｼｸ","streetKana":"ｶﾜﾁ","prefecture":"福岡県","city":"北九州市八幡東区","street":"河内"},{"zipCode":"8050012","prefectureKana":"ﾌｸｵｶｹﾝ","cityKana":"ｷﾀｷｭｳｼｭｳｼﾔﾊﾀﾋｶﾞｼｸ","streetKana":"ｶﾜﾌﾞﾁﾏﾁ","prefecture":"福岡県","city":"北九州市八幡東区","street":"川淵町"},{"zipCode":"8050067","prefectureKana":"ﾌｸｵｶｹﾝ","cityKana":"ｷﾀｷｭｳｼｭｳｼﾔﾊﾀﾋｶﾞｼｸ","streetKana":"ｷﾞｵﾝ","prefecture":"福岡県","city":"北九州市八幡東区","street":"祇園"},{"zipCode":"8050066","prefectureKana":"ﾌｸｵｶｹﾝ","cityKana":"ｷﾀｷｭｳｼｭｳｼﾔﾊﾀﾋｶﾞｼｸ","streetKana":"ｷﾞｵﾝﾊﾞﾗﾏﾁ","prefecture":"福岡県","city":"北九州市八幡東区","street":"祇園原町"},{"zipCode":"8050034","prefectureKana":"ﾌｸｵｶｹﾝ","cityKana":"ｷﾀｷｭｳｼｭｳｼﾔﾊﾀﾋｶﾞｼｸ","streetKana":"ｷﾖﾀ","prefecture":"福岡県","city":"北九州市八幡東区","street":"清田"},{"zipCode":"8050047","prefectureKana":"ﾌｸｵｶｹﾝ","cityKana":"ｷﾀｷｭｳｼｭｳｼﾔﾊﾀﾋｶﾞｼｸ","streetKana":"ｹｲｼｮｳﾏﾁ","prefecture":"福岡県","city":"北九州市八幡東区","street":"景勝町"},{"zipCode":"8050036","prefectureKana":"ﾌｸｵｶｹﾝ","cityKana":"ｷﾀｷｭｳｼｭｳｼﾔﾊﾀﾋｶﾞｼｸ","streetKana":"ｺｸﾞﾏﾉ","prefecture":"福岡県","city":"北九州市八幡東区","street":"小熊野"},{"zipCode":"8050035","prefectureKana":"ﾌｸｵｶｹﾝ","cityKana":"ｷﾀｷｭｳｼｭｳｼﾔﾊﾀﾋｶﾞｼｸ","streetKana":"ｻﾝｼﾞ","prefecture":"福岡県","city":"北九州市八幡東区","street":"山路"},{"zipCode":"8050033","prefectureKana":"ﾌｸｵｶｹﾝ","cityKana":"ｷﾀｷｭｳｼｭｳｼﾔﾊﾀﾋｶﾞｼｸ","streetKana":"ｻﾝｼﾞﾏﾂｵﾏﾁ","prefecture":"福岡県","city":"北九州市八幡東区","street":"山路松尾町"},{"zipCode":"8050017","prefectureKana":"ﾌｸｵｶｹﾝ","cityKana":"ｷﾀｷｭｳｼｭｳｼﾔﾊﾀﾋｶﾞｼｸ","streetKana":"ｻﾝﾉｳ","prefecture":"福岡県","city":"北九州市八幡東区","street":"山王"},{"zipCode":"8050013","prefectureKana":"ﾌｸｵｶｹﾝ","cityKana":"ｷﾀｷｭｳｼｭｳｼﾔﾊﾀﾋｶﾞｼｸ","streetKana":"ｼｮｳﾜ","prefecture":"福岡県","city":"北九州市八幡東区","street":"昭和"},{"zipCode":"8050007","prefectureKana":"ﾌｸｵｶｹﾝ","cityKana":"ｷﾀｷｭｳｼｭｳｼﾔﾊﾀﾋｶﾞｼｸ","streetKana":"ｼﾗｶﾜﾏﾁ","prefecture":"福岡県","city":"北九州市八幡東区","street":"白川町"},{"zipCode":"8050049","prefectureKana":"ﾌｸｵｶｹﾝ","cityKana":"ｷﾀｷｭｳｼｭｳｼﾔﾊﾀﾋｶﾞｼｸ","streetKana":"ｽｴﾋﾛﾏﾁ","prefecture":"福岡県","city":"北九州市八幡東区","street":"末広町"},{"zipCode":"8050006","prefectureKana":"ﾌｸｵｶｹﾝ","cityKana":"ｷﾀｷｭｳｼｭｳｼﾔﾊﾀﾋｶﾞｼｸ","streetKana":"ｽﾜ","prefecture":"福岡県","city":"北九州市八幡東区","street":"諏訪"},{"zipCode":"8050016","prefectureKana":"ﾌｸｵｶｹﾝ","cityKana":"ｷﾀｷｭｳｼｭｳｼﾔﾊﾀﾋｶﾞｼｸ","streetKana":"ﾀｶﾐ","prefecture":"福岡県","city":"北九州市八幡東区","street":"高見"},{"zipCode":"8050022","prefectureKana":"ﾌｸｵｶｹﾝ","cityKana":"ｷﾀｷｭｳｼｭｳｼﾔﾊﾀﾋｶﾞｼｸ","streetKana":"ﾀｹｼﾀﾏﾁ","prefecture":"福岡県","city":"北九州市八幡東区","street":"竹下町"},{"zipCode":"8050046","prefectureKana":"ﾌｸｵｶｹﾝ","cityKana":"ｷﾀｷｭｳｼｭｳｼﾔﾊﾀﾋｶﾞｼｸ","streetKana":"ﾀｼﾛ","prefecture":"福岡県","city":"北九州市八幡東区","street":"田代"},{"zipCode":"8050014","prefectureKana":"ﾌｸｵｶｹﾝ","cityKana":"ｷﾀｷｭｳｼｭｳｼﾔﾊﾀﾋｶﾞｼｸ","streetKana":"ﾁｬﾔﾏﾁ","prefecture":"福岡県","city":"北九州市八幡東区","street":"茶屋町"},{"zipCode":"8050019","prefectureKana":"ﾌｸｵｶｹﾝ","cityKana":"ｷﾀｷｭｳｼｭｳｼﾔﾊﾀﾋｶﾞｼｸ","streetKana":"ﾁｭｳｵｳ","prefecture":"福岡県","city":"北九州市八幡東区","street":"中央"},{"zipCode":"8050031","prefectureKana":"ﾌｸｵｶｹﾝ","cityKana":"ｷﾀｷｭｳｼｭｳｼﾔﾊﾀﾋｶﾞｼｸ","streetKana":"ﾂｷﾀﾞ","prefecture":"福岡県","city":"北九州市八幡東区","street":"槻田"},{"zipCode":"8050054","prefectureKana":"ﾌｸｵｶｹﾝ","cityKana":"ｷﾀｷｭｳｼｭｳｼﾔﾊﾀﾋｶﾞｼｸ","streetKana":"ﾃﾝｼﾞﾝﾏﾁ","prefecture":"福岡県","city":"北九州市八幡東区","street":"天神町"},{"zipCode":"8050025","prefectureKana":"ﾌｸｵｶｹﾝ","cityKana":"ｷﾀｷｭｳｼｭｳｼﾔﾊﾀﾋｶﾞｼｸ","streetKana":"ﾅｶｵ","prefecture":"福岡県","city":"北九州市八幡東区","street":"中尾"},{"zipCode":"8050024","prefectureKana":"ﾌｸｵｶｹﾝ","cityKana":"ｷﾀｷｭｳｼｭｳｼﾔﾊﾀﾋｶﾞｼｸ","streetKana":"ﾅｶﾊﾀ","prefecture":"福岡県","city":"北九州市八幡東区","street":"中畑"},{"zipCode":"8050064","prefectureKana":"ﾌｸｵｶｹﾝ","cityKana":"ｷﾀｷｭｳｼｭｳｼﾔﾊﾀﾋｶﾞｼｸ","streetKana":"ﾆｼﾀﾞｲﾗﾏﾁ","prefecture":"福岡県","city":"北九州市八幡東区","street":"西台良町"},{"zipCode":"8050061","prefectureKana":"ﾌｸｵｶｹﾝ","cityKana":"ｷﾀｷｭｳｼｭｳｼﾔﾊﾀﾋｶﾞｼｸ","streetKana":"ﾆｼﾎﾝﾏﾁ","prefecture":"福岡県","city":"北九州市八幡東区","street":"西本町"},{"zipCode":"8050052","prefectureKana":"ﾌｸｵｶｹﾝ","cityKana":"ｷﾀｷｭｳｼｭｳｼﾔﾊﾀﾋｶﾞｼｸ","streetKana":"ﾆｼﾏﾙﾔﾏﾏﾁ","prefecture":"福岡県","city":"北九州市八幡東区","street":"西丸山町"},{"zipCode":"8050042","prefectureKana":"ﾌｸｵｶｹﾝ","cityKana":"ｷﾀｷｭｳｼｭｳｼﾔﾊﾀﾋｶﾞｼｸ","streetKana":"ﾊｺﾞﾛﾓﾏﾁ","prefecture":"福岡県","city":"北九州市八幡東区","street":"羽衣町"},{"zipCode":"8050011","prefectureKana":"ﾌｸｵｶｹﾝ","cityKana":"ｷﾀｷｭｳｼｭｳｼﾔﾊﾀﾋｶﾞｼｸ","streetKana":"ﾊﾁｵｳｼﾞﾏﾁ","prefecture":"福岡県","city":"北九州市八幡東区","street":"八王寺町"},{"zipCode":"8050065","prefectureKana":"ﾌｸｵｶｹﾝ","cityKana":"ｷﾀｷｭｳｼｭｳｼﾔﾊﾀﾋｶﾞｼｸ","streetKana":"ﾊﾅｵﾏﾁ","prefecture":"福岡県","city":"北九州市八幡東区","street":"花尾町"},{"zipCode":"8050050","prefectureKana":"ﾌｸｵｶｹﾝ","cityKana":"ｷﾀｷｭｳｼｭｳｼﾔﾊﾀﾋｶﾞｼｸ","streetKana":"ﾊﾙﾉﾏﾁ","prefecture":"福岡県","city":"北九州市八幡東区","street":"春の町"},{"zipCode":"8050071","prefectureKana":"ﾌｸｵｶｹﾝ","cityKana":"ｷﾀｷｭｳｼｭｳｼﾔﾊﾀﾋｶﾞｼｸ","streetKana":"ﾋｶﾞｼﾀﾞ","prefecture":"福岡県","city":"北九州市八幡東区","street":"東田"},{"zipCode":"8050063","prefectureKana":"ﾌｸｵｶｹﾝ","cityKana":"ｷﾀｷｭｳｼｭｳｼﾔﾊﾀﾋｶﾞｼｸ","streetKana":"ﾋｶﾞｼﾀﾞｲﾗﾏﾁ","prefecture":"福岡県","city":"北九州市八幡東区","street":"東台良町"},{"zipCode":"8050027","prefectureKana":"ﾌｸｵｶｹﾝ","cityKana":"ｷﾀｷｭｳｼｭｳｼﾔﾊﾀﾋｶﾞｼｸ","streetKana":"ﾋｶﾞｼﾃﾂﾏﾁ","prefecture":"福岡県","city":"北九州市八幡東区","street":"東鉄町"},{"zipCode":"8050051","prefectureKana":"ﾌｸｵｶｹﾝ","cityKana":"ｷﾀｷｭｳｼｭｳｼﾔﾊﾀﾋｶﾞｼｸ","streetKana":"ﾋｶﾞｼﾏﾙﾔﾏﾏﾁ","prefecture":"福岡県","city":"北九州市八幡東区","street":"東丸山町"},{"zipCode":"8050026","prefectureKana":"ﾌｸｵｶｹﾝ","cityKana":"ｷﾀｷｭｳｼｭｳｼﾔﾊﾀﾋｶﾞｼｸ","streetKana":"ﾋｶﾞｼﾔﾏ","prefecture":"福岡県","city":"北九州市八幡東区","street":"東山"},{"zipCode":"8050004","prefectureKana":"ﾌｸｵｶｹﾝ","cityKana":"ｷﾀｷｭｳｼｭｳｼﾔﾊﾀﾋｶﾞｼｸ","streetKana":"ﾋﾉﾃﾞ","prefecture":"福岡県","city":"北九州市八幡東区","street":"日の出"},{"zipCode":"8050062","prefectureKana":"ﾌｸｵｶｹﾝ","cityKana":"ｷﾀｷｭｳｼｭｳｼﾔﾊﾀﾋｶﾞｼｸ","streetKana":"ﾋﾗﾉ","prefecture":"福岡県","city":"北九州市八幡東区","street":"平野"},{"zipCode":"8050005","prefectureKana":"ﾌｸｵｶｹﾝ","cityKana":"ｷﾀｷｭｳｼｭｳｼﾔﾊﾀﾋｶﾞｼｸ","streetKana":"ﾌｼﾞﾐﾏﾁ","prefecture":"福岡県","city":"北九州市八幡東区","street":"藤見町"},{"zipCode":"8050056","prefectureKana":"ﾌｸｵｶｹﾝ","cityKana":"ｷﾀｷｭｳｼｭｳｼﾔﾊﾀﾋｶﾞｼｸ","streetKana":"ﾎﾊﾞｼﾗ","prefecture":"福岡県","city":"北九州市八幡東区","street":"帆柱"},{"zipCode":"8050058","prefectureKana":"ﾌｸｵｶｹﾝ","cityKana":"ｷﾀｷｭｳｼｭｳｼﾔﾊﾀﾋｶﾞｼｸ","streetKana":"ﾏｴﾀﾞ(ｵｵｱｻﾞ)","prefecture":"福岡県","city":"北九州市八幡東区","street":"前田（大字）"},{"zipCode":"8050069","prefectureKana":"ﾌｸｵｶｹﾝ","cityKana":"ｷﾀｷｭｳｼｭｳｼﾔﾊﾀﾋｶﾞｼｸ","streetKana":"ﾏｴﾀﾞ(ﾁｮｳﾒ)","prefecture":"福岡県","city":"北九州市八幡東区","street":"前田（丁目）"},{"zipCode":"8050032","prefectureKana":"ﾌｸｵｶｹﾝ","cityKana":"ｷﾀｷｭｳｼｭｳｼﾔﾊﾀﾋｶﾞｼｸ","streetKana":"ﾏﾂｵﾏﾁ","prefecture":"福岡県","city":"北九州市八幡東区","street":"松尾町"},{"zipCode":"8050009","prefectureKana":"ﾌｸｵｶｹﾝ","cityKana":"ｷﾀｷｭｳｼｭｳｼﾔﾊﾀﾋｶﾞｼｸ","streetKana":"ﾐﾔﾀﾏﾁ","prefecture":"福岡県","city":"北九州市八幡東区","street":"宮田町"},{"zipCode":"8050023","prefectureKana":"ﾌｸｵｶｹﾝ","cityKana":"ｷﾀｷｭｳｼｭｳｼﾔﾊﾀﾋｶﾞｼｸ","streetKana":"ﾐﾔﾉﾏﾁ","prefecture":"福岡県","city":"北九州市八幡東区","street":"宮の町"},{"zipCode":"8050068","prefectureKana":"ﾌｸｵｶｹﾝ","cityKana":"ｷﾀｷｭｳｼｭｳｼﾔﾊﾀﾋｶﾞｼｸ","streetKana":"ﾓﾓｿﾞﾉ","prefecture":"福岡県","city":"北九州市八幡東区","street":"桃園"},{"zipCode":"8050044","prefectureKana":"ﾌｸｵｶｹﾝ","cityKana":"ｷﾀｷｭｳｼｭｳｼﾔﾊﾀﾋｶﾞｼｸ","streetKana":"ﾕﾀｶﾏﾁ","prefecture":"福岡県","city":"北九州市八幡東区","street":"豊町"}]