[{"zipCode":"8070872","prefectureKana":"ﾌｸｵｶｹﾝ","cityKana":"ｷﾀｷｭｳｼｭｳｼﾔﾊﾀﾆｼｸ","streetKana":"ｱｻｶﾜ(ﾁｮｳﾒ)","prefecture":"福岡県","city":"北九州市八幡西区","street":"浅川（丁目）"},{"zipCode":"8070877","prefectureKana":"ﾌｸｵｶｹﾝ","cityKana":"ｷﾀｷｭｳｼｭｳｼﾔﾊﾀﾆｼｸ","streetKana":"ｱｻｶﾜ(ﾊﾞﾝﾁ)","prefecture":"福岡県","city":"北九州市八幡西区","street":"浅川（番地）"},{"zipCode":"8070871","prefectureKana":"ﾌｸｵｶｹﾝ","cityKana":"ｷﾀｷｭｳｼｭｳｼﾔﾊﾀﾆｼｸ","streetKana":"ｱｻｶﾜｶﾞｸｴﾝﾀﾞｲ","prefecture":"福岡県","city":"北九州市八幡西区","street":"浅川学園台"},{"zipCode":"8070875","prefectureKana":"ﾌｸｵｶｹﾝ","cityKana":"ｷﾀｷｭｳｼｭｳｼﾔﾊﾀﾆｼｸ","streetKana":"ｱｻｶﾜﾀﾞｲ","prefecture":"福岡県","city":"北九州市八幡西区","street":"浅川台"},{"zipCode":"8070876","prefectureKana":"ﾌｸｵｶｹﾝ","cityKana":"ｷﾀｷｭｳｼｭｳｼﾔﾊﾀﾆｼｸ","streetKana":"ｱｻｶﾜﾋﾉﾐﾈ","prefecture":"福岡県","city":"北九州市八幡西区","street":"浅川日の峯"},{"zipCode":"8070879","prefectureKana":"ﾌｸｵｶｹﾝ","cityKana":"ｷﾀｷｭｳｼｭｳｼﾔﾊﾀﾆｼｸ","streetKana":"ｱｻｶﾜﾏﾁ","prefecture":"福岡県","city":"北九州市八幡西区","street":"浅川町"},{"zipCode":"8071125","prefectureKana":"ﾌｸｵｶｹﾝ","cityKana":"ｷﾀｷｭｳｼｭｳｼﾔﾊﾀﾆｼｸ","streetKana":"ｲｹﾀﾞ","prefecture":"福岡県","city":"北九州市八幡西区","street":"池田"},{"zipCode":"8071121","prefectureKana":"ﾌｸｵｶｹﾝ","cityKana":"ｷﾀｷｭｳｼｭｳｼﾔﾊﾀﾆｼｸ","streetKana":"ｲｼｻｶ","prefecture":"福岡県","city":"北九州市八幡西区","street":"石坂"},{"zipCode":"8070854","prefectureKana":"ﾌｸｵｶｹﾝ","cityKana":"ｷﾀｷｭｳｼｭｳｼﾔﾊﾀﾆｼｸ","streetKana":"ｲｽﾞﾐｶﾞｳﾗ","prefecture":"福岡県","city":"北九州市八幡西区","street":"泉ケ浦"},{"zipCode":"8070804","prefectureKana":"ﾌｸｵｶｹﾝ","cityKana":"ｷﾀｷｭｳｼｭｳｼﾔﾊﾀﾆｼｸ","streetKana":"ｲｾｲｶﾞｵｶ","prefecture":"福岡県","city":"北九州市八幡西区","street":"医生ケ丘"},{"zipCode":"8071153","prefectureKana":"ﾌｸｵｶｹﾝ","cityKana":"ｷﾀｷｭｳｼｭｳｼﾔﾊﾀﾆｼｸ","streetKana":"ｲﾜｻｷ","prefecture":"福岡県","city":"北九州市八幡西区","street":"岩崎"},{"zipCode":"8070071","prefectureKana":"ﾌｸｵｶｹﾝ","cityKana":"ｷﾀｷｭｳｼｭｳｼﾔﾊﾀﾆｼｸ","streetKana":"ｳｴﾉﾊﾙ","prefecture":"福岡県","city":"北九州市八幡西区","street":"上の原"},{"zipCode":"8070851","prefectureKana":"ﾌｸｵｶｹﾝ","cityKana":"ｷﾀｷｭｳｼｭｳｼﾔﾊﾀﾆｼｸ","streetKana":"ｴｲﾉﾏﾙ","prefecture":"福岡県","city":"北九州市八幡西区","street":"永犬丸"},{"zipCode":"8070842","prefectureKana":"ﾌｸｵｶｹﾝ","cityKana":"ｷﾀｷｭｳｼｭｳｼﾔﾊﾀﾆｼｸ","streetKana":"ｴｲﾉﾏﾙﾋｶﾞｼﾏﾁ","prefecture":"福岡県","city":"北九州市八幡西区","street":"永犬丸東町"},{"zipCode":"8070852","prefectureKana":"ﾌｸｵｶｹﾝ","cityKana":"ｷﾀｷｭｳｼｭｳｼﾔﾊﾀﾆｼｸ","streetKana":"ｴｲﾉﾏﾙﾆｼﾏﾁ","prefecture":"福岡県","city":"北九州市八幡西区","street":"永犬丸西町"},{"zipCode":"8070845","prefectureKana":"ﾌｸｵｶｹﾝ","cityKana":"ｷﾀｷｭｳｼｭｳｼﾔﾊﾀﾆｼｸ","streetKana":"ｴｲﾉﾏﾙﾐﾅﾐﾏﾁ","prefecture":"福岡県","city":"北九州市八幡西区","street":"永犬丸南町"},{"zipCode":"8070874","prefectureKana":"ﾌｸｵｶｹﾝ","cityKana":"ｷﾀｷｭｳｼｭｳｼﾔﾊﾀﾆｼｸ","streetKana":"ｵｵｳﾗ","prefecture":"福岡県","city":"北九州市八幡西区","street":"大浦"},{"zipCode":"8070083","prefectureKana":"ﾌｸｵｶｹﾝ","cityKana":"ｷﾀｷｭｳｼｭｳｼﾔﾊﾀﾆｼｸ","streetKana":"ｵｵﾋﾗ","prefecture":"福岡県","city":"北九州市八幡西区","street":"大平"},{"zipCode":"8070084","prefectureKana":"ﾌｸｵｶｹﾝ","cityKana":"ｷﾀｷｭｳｼｭｳｼﾔﾊﾀﾆｼｸ","streetKana":"ｵｵﾋﾗﾀﾞｲ","prefecture":"福岡県","city":"北九州市八幡西区","street":"大平台"},{"zipCode":"8070077","prefectureKana":"ﾌｸｵｶｹﾝ","cityKana":"ｷﾀｷｭｳｼｭｳｼﾔﾊﾀﾆｼｸ","streetKana":"ｵｷﾀ","prefecture":"福岡県","city":"北九州市八幡西区","street":"沖田"},{"zipCode":"8070806","prefectureKana":"ﾌｸｵｶｹﾝ","cityKana":"ｷﾀｷｭｳｼｭｳｼﾔﾊﾀﾆｼｸ","streetKana":"ｵﾋﾗｷ","prefecture":"福岡県","city":"北九州市八幡西区","street":"御開"},{"zipCode":"8070825","prefectureKana":"ﾌｸｵｶｹﾝ","cityKana":"ｷﾀｷｭｳｼｭｳｼﾔﾊﾀﾆｼｸ","streetKana":"ｵﾘｵ(ﾁｮｳﾒ)","prefecture":"福岡県","city":"北九州市八幡西区","street":"折尾（丁目）"},{"zipCode":"8070864","prefectureKana":"ﾌｸｵｶｹﾝ","cityKana":"ｷﾀｷｭｳｼｭｳｼﾔﾊﾀﾆｼｸ","streetKana":"ｵﾘｵ(ﾊﾞﾝﾁ)","prefecture":"福岡県","city":"北九州市八幡西区","street":"折尾（番地）"},{"zipCode":"8070844","prefectureKana":"ﾌｸｵｶｹﾝ","cityKana":"ｷﾀｷｭｳｼｭｳｼﾔﾊﾀﾆｼｸ","streetKana":"ｶｽｶﾞﾀﾞｲ","prefecture":"福岡県","city":"北九州市八幡西区","street":"春日台"},{"zipCode":"8071102","prefectureKana":"ﾌｸｵｶｹﾝ","cityKana":"ｷﾀｷｭｳｼｭｳｼﾔﾊﾀﾆｼｸ","streetKana":"ｶﾂｷﾁｭｳｵｳ","prefecture":"福岡県","city":"北九州市八幡西区","street":"香月中央"},{"zipCode":"8071103","prefectureKana":"ﾌｸｵｶｹﾝ","cityKana":"ｷﾀｷｭｳｼｭｳｼﾔﾊﾀﾆｼｸ","streetKana":"ｶﾂｷﾆｼ","prefecture":"福岡県","city":"北九州市八幡西区","street":"香月西"},{"zipCode":"8071101","prefectureKana":"ﾌｸｵｶｹﾝ","cityKana":"ｷﾀｷｭｳｼｭｳｼﾔﾊﾀﾆｼｸ","streetKana":"ｶﾐｶﾂｷ","prefecture":"福岡県","city":"北九州市八幡西区","street":"上香月"},{"zipCode":"8070072","prefectureKana":"ﾌｸｵｶｹﾝ","cityKana":"ｷﾀｷｭｳｼｭｳｼﾔﾊﾀﾆｼｸ","streetKana":"ｶﾐｺｳｼﾞｬｸ","prefecture":"福岡県","city":"北九州市八幡西区","street":"上上津役"},{"zipCode":"8070834","prefectureKana":"ﾌｸｵｶｹﾝ","cityKana":"ｷﾀｷｭｳｼｭｳｼﾔﾊﾀﾆｼｸ","streetKana":"ｷﾀﾀｶﾐﾏﾁ","prefecture":"福岡県","city":"北九州市八幡西区","street":"北鷹見町"},{"zipCode":"8071114","prefectureKana":"ﾌｸｵｶｹﾝ","cityKana":"ｷﾀｷｭｳｼｭｳｼﾔﾊﾀﾆｼｸ","streetKana":"ｷｯｼｮｳｼﾞﾏﾁ","prefecture":"福岡県","city":"北九州市八幡西区","street":"吉祥寺町"},{"zipCode":"8070814","prefectureKana":"ﾌｸｵｶｹﾝ","cityKana":"ｷﾀｷｭｳｼｭｳｼﾔﾊﾀﾆｼｸ","streetKana":"ｷﾌﾈﾀﾞｲ","prefecture":"福岡県","city":"北九州市八幡西区","street":"貴船台"},{"zipCode":"8070812","prefectureKana":"ﾌｸｵｶｹﾝ","cityKana":"ｷﾀｷｭｳｼｭｳｼﾔﾊﾀﾆｼｸ","streetKana":"ｸｷﾅﾐﾏﾁ","prefecture":"福岡県","city":"北九州市八幡西区","street":"洞南町"},{"zipCode":"8071154","prefectureKana":"ﾌｸｵｶｹﾝ","cityKana":"ｷﾀｷｭｳｼｭｳｼﾔﾊﾀﾆｼｸ","streetKana":"ｸｽｷﾀ","prefecture":"福岡県","city":"北九州市八幡西区","street":"楠北"},{"zipCode":"8070827","prefectureKana":"ﾌｸｵｶｹﾝ","cityKana":"ｷﾀｷｭｳｼｭｳｼﾔﾊﾀﾆｼｸ","streetKana":"ｸｽﾉｷ","prefecture":"福岡県","city":"北九州市八幡西区","street":"楠木"},{"zipCode":"8071151","prefectureKana":"ﾌｸｵｶｹﾝ","cityKana":"ｷﾀｷｭｳｼｭｳｼﾔﾊﾀﾆｼｸ","streetKana":"ｸｽﾊﾞｼ","prefecture":"福岡県","city":"北九州市八幡西区","street":"楠橋"},{"zipCode":"8071141","prefectureKana":"ﾌｸｵｶｹﾝ","cityKana":"ｷﾀｷｭｳｼｭｳｼﾔﾊﾀﾆｼｸ","streetKana":"ｸｽﾊﾞｼｶﾐｶﾀ","prefecture":"福岡県","city":"北九州市八幡西区","street":"楠橋上方"},{"zipCode":"8071146","prefectureKana":"ﾌｸｵｶｹﾝ","cityKana":"ｷﾀｷｭｳｼｭｳｼﾔﾊﾀﾆｼｸ","streetKana":"ｸｽﾊﾞｼｼﾓｶﾀ","prefecture":"福岡県","city":"北九州市八幡西区","street":"楠橋下方"},{"zipCode":"8071142","prefectureKana":"ﾌｸｵｶｹﾝ","cityKana":"ｷﾀｷｭｳｼｭｳｼﾔﾊﾀﾆｼｸ","streetKana":"ｸｽﾊﾞｼﾋｶﾞｼ","prefecture":"福岡県","city":"北九州市八幡西区","street":"楠橋東"},{"zipCode":"8071145","prefectureKana":"ﾌｸｵｶｹﾝ","cityKana":"ｷﾀｷｭｳｼｭｳｼﾔﾊﾀﾆｼｸ","streetKana":"ｸｽﾊﾞｼﾆｼ","prefecture":"福岡県","city":"北九州市八幡西区","street":"楠橋西"},{"zipCode":"8071143","prefectureKana":"ﾌｸｵｶｹﾝ","cityKana":"ｷﾀｷｭｳｼｭｳｼﾔﾊﾀﾆｼｸ","streetKana":"ｸｽﾊﾞｼﾐﾅﾐ","prefecture":"福岡県","city":"北九州市八幡西区","street":"楠橋南"},{"zipCode":"8070824","prefectureKana":"ﾌｸｵｶｹﾝ","cityKana":"ｷﾀｷｭｳｼｭｳｼﾔﾊﾀﾆｼｸ","streetKana":"ｺｳﾐｮｳ","prefecture":"福岡県","city":"北九州市八幡西区","street":"光明"},{"zipCode":"8070081","prefectureKana":"ﾌｸｵｶｹﾝ","cityKana":"ｷﾀｷｭｳｼｭｳｼﾔﾊﾀﾆｼｸ","streetKana":"ｺﾐﾈ","prefecture":"福岡県","city":"北九州市八幡西区","street":"小嶺"},{"zipCode":"8070082","prefectureKana":"ﾌｸｵｶｹﾝ","cityKana":"ｷﾀｷｭｳｼｭｳｼﾔﾊﾀﾆｼｸ","streetKana":"ｺﾐﾈﾀﾞｲ","prefecture":"福岡県","city":"北九州市八幡西区","street":"小嶺台"},{"zipCode":"8071261","prefectureKana":"ﾌｸｵｶｹﾝ","cityKana":"ｷﾀｷｭｳｼｭｳｼﾔﾊﾀﾆｼｸ","streetKana":"ｺﾔﾉｾ","prefecture":"福岡県","city":"北九州市八幡西区","street":"木屋瀬"},{"zipCode":"8071266","prefectureKana":"ﾌｸｵｶｹﾝ","cityKana":"ｷﾀｷｭｳｼｭｳｼﾔﾊﾀﾆｼｸ","streetKana":"ｺﾔﾉｾﾋｶﾞｼ","prefecture":"福岡県","city":"北九州市八幡西区","street":"木屋瀬東"},{"zipCode":"8071263","prefectureKana":"ﾌｸｵｶｹﾝ","cityKana":"ｷﾀｷｭｳｼｭｳｼﾔﾊﾀﾆｼｸ","streetKana":"ｺﾝｺﾞｳ","prefecture":"福岡県","city":"北九州市八幡西区","street":"金剛"},{"zipCode":"8071265","prefectureKana":"ﾌｸｵｶｹﾝ","cityKana":"ｷﾀｷｭｳｼｭｳｼﾔﾊﾀﾆｼｸ","streetKana":"ｻｻﾀﾞ","prefecture":"福岡県","city":"北九州市八幡西区","street":"笹田"},{"zipCode":"8070868","prefectureKana":"ﾌｸｵｶｹﾝ","cityKana":"ｷﾀｷｭｳｼｭｳｼﾔﾊﾀﾆｼｸ","streetKana":"ｻﾂｷﾀﾞｲ","prefecture":"福岡県","city":"北九州市八幡西区","street":"さつき台"},{"zipCode":"8070846","prefectureKana":"ﾌｸｵｶｹﾝ","cityKana":"ｷﾀｷｭｳｼｭｳｼﾔﾊﾀﾆｼｸ","streetKana":"ｻﾄﾅｶ","prefecture":"福岡県","city":"北九州市八幡西区","street":"里中"},{"zipCode":"8070843","prefectureKana":"ﾌｸｵｶｹﾝ","cityKana":"ｷﾀｷｭｳｼｭｳｼﾔﾊﾀﾆｼｸ","streetKana":"ｻﾝｶﾞﾓﾘ","prefecture":"福岡県","city":"北九州市八幡西区","street":"三ケ森"},{"zipCode":"8070075","prefectureKana":"ﾌｸｵｶｹﾝ","cityKana":"ｷﾀｷｭｳｼｭｳｼﾔﾊﾀﾆｼｸ","streetKana":"ｼﾓｺｳｼﾞｬｸ","prefecture":"福岡県","city":"北九州市八幡西区","street":"下上津役"},{"zipCode":"8070076","prefectureKana":"ﾌｸｵｶｹﾝ","cityKana":"ｷﾀｷｭｳｼｭｳｼﾔﾊﾀﾆｼｸ","streetKana":"ｼﾓｺｳｼﾞｬｸﾓﾄﾏﾁ","prefecture":"福岡県","city":"北九州市八幡西区","street":"下上津役元町"},{"zipCode":"8071123","prefectureKana":"ﾌｸｵｶｹﾝ","cityKana":"ｷﾀｷｭｳｼｭｳｼﾔﾊﾀﾆｼｸ","streetKana":"ｼﾓﾊﾀﾏﾁ","prefecture":"福岡県","city":"北九州市八幡西区","street":"下畑町"},{"zipCode":"8070867","prefectureKana":"ﾌｸｵｶｹﾝ","cityKana":"ｷﾀｷｭｳｼｭｳｼﾔﾊﾀﾆｼｸ","streetKana":"ｼﾞﾕｳｶﾞｵｶ","prefecture":"福岡県","city":"北九州市八幡西区","street":"自由ケ丘"},{"zipCode":"8070855","prefectureKana":"ﾌｸｵｶｹﾝ","cityKana":"ｷﾀｷｭｳｼｭｳｼﾔﾊﾀﾆｼｸ","streetKana":"ｼｮｳｼﾞｭｻﾝ","prefecture":"福岡県","city":"北九州市八幡西区","street":"松寿山"},{"zipCode":"8071113","prefectureKana":"ﾌｸｵｶｹﾝ","cityKana":"ｷﾀｷｭｳｼｭｳｼﾔﾊﾀﾆｼｸ","streetKana":"ｼﾗｲﾜﾏﾁ","prefecture":"福岡県","city":"北九州市八幡西区","street":"白岩町"},{"zipCode":"8070821","prefectureKana":"ﾌｸｵｶｹﾝ","cityKana":"ｷﾀｷｭｳｼｭｳｼﾔﾊﾀﾆｼｸ","streetKana":"ｼﾞﾝﾉﾊﾙ","prefecture":"福岡県","city":"北九州市八幡西区","street":"陣原"},{"zipCode":"8070822","prefectureKana":"ﾌｸｵｶｹﾝ","cityKana":"ｷﾀｷｭｳｼｭｳｼﾔﾊﾀﾆｼｸ","streetKana":"ｾｲﾀ","prefecture":"福岡県","city":"北九州市八幡西区","street":"瀬板"},{"zipCode":"8070829","prefectureKana":"ﾌｸｵｶｹﾝ","cityKana":"ｷﾀｷｭｳｼｭｳｼﾔﾊﾀﾆｼｸ","streetKana":"ｾｲﾜﾏﾁ","prefecture":"福岡県","city":"北九州市八幡西区","street":"星和町"},{"zipCode":"8070863","prefectureKana":"ﾌｸｵｶｹﾝ","cityKana":"ｷﾀｷｭｳｼｭｳｼﾔﾊﾀﾆｼｸ","streetKana":"ﾀﾞｲｾﾞﾝ","prefecture":"福岡県","city":"北九州市八幡西区","street":"大膳"},{"zipCode":"8071152","prefectureKana":"ﾌｸｵｶｹﾝ","cityKana":"ｷﾀｷｭｳｼｭｳｼﾔﾊﾀﾆｼｸ","streetKana":"ﾀｶｴ","prefecture":"福岡県","city":"北九州市八幡西区","street":"高江"},{"zipCode":"8070853","prefectureKana":"ﾌｸｵｶｹﾝ","cityKana":"ｷﾀｷｭｳｼｭｳｼﾔﾊﾀﾆｼｸ","streetKana":"ﾀｶﾐﾀﾞｲ","prefecture":"福岡県","city":"北九州市八幡西区","street":"鷹見台"},{"zipCode":"8071134","prefectureKana":"ﾌｸｵｶｹﾝ","cityKana":"ｷﾀｷｭｳｼｭｳｼﾔﾊﾀﾆｼｸ","streetKana":"ﾁｬﾔﾉﾊﾙ","prefecture":"福岡県","city":"北九州市八幡西区","street":"茶屋の原"},{"zipCode":"8071112","prefectureKana":"ﾌｸｵｶｹﾝ","cityKana":"ｷﾀｷｭｳｼｭｳｼﾔﾊﾀﾆｼｸ","streetKana":"ﾁﾖ","prefecture":"福岡県","city":"北九州市八幡西区","street":"千代"},{"zipCode":"8070803","prefectureKana":"ﾌｸｵｶｹﾝ","cityKana":"ｷﾀｷｭｳｼｭｳｼﾔﾊﾀﾆｼｸ","streetKana":"ﾁﾖｶﾞｻｷ","prefecture":"福岡県","city":"北九州市八幡西区","street":"千代ケ崎"},{"zipCode":"8070832","prefectureKana":"ﾌｸｵｶｹﾝ","cityKana":"ｷﾀｷｭｳｼｭｳｼﾔﾊﾀﾆｼｸ","streetKana":"ﾄｳﾁｸ","prefecture":"福岡県","city":"北九州市八幡西区","street":"東筑"},{"zipCode":"8070085","prefectureKana":"ﾌｸｵｶｹﾝ","cityKana":"ｷﾀｷｭｳｼｭｳｼﾔﾊﾀﾆｼｸ","streetKana":"ﾄｳﾉ","prefecture":"福岡県","city":"北九州市八幡西区","street":"塔野"},{"zipCode":"8070811","prefectureKana":"ﾌｸｵｶｹﾝ","cityKana":"ｷﾀｷｭｳｼｭｳｼﾔﾊﾀﾆｼｸ","streetKana":"ﾄﾞｳﾎｸﾏﾁ","prefecture":"福岡県","city":"北九州市八幡西区","street":"洞北町"},{"zipCode":"8070828","prefectureKana":"ﾌｸｵｶｹﾝ","cityKana":"ｷﾀｷｭｳｼｭｳｼﾔﾊﾀﾆｼｸ","streetKana":"ﾄﾓﾀﾞ","prefecture":"福岡県","city":"北九州市八幡西区","street":"友田"},{"zipCode":"8070823","prefectureKana":"ﾌｸｵｶｹﾝ","cityKana":"ｷﾀｷｭｳｼｭｳｼﾔﾊﾀﾆｼｸ","streetKana":"ﾅｶｽ","prefecture":"福岡県","city":"北九州市八幡西区","street":"中須"},{"zipCode":"8070078","prefectureKana":"ﾌｸｵｶｹﾝ","cityKana":"ｷﾀｷｭｳｼｭｳｼﾔﾊﾀﾆｼｸ","streetKana":"ﾅｶﾉﾊﾙ","prefecture":"福岡県","city":"北九州市八幡西区","street":"中の原"},{"zipCode":"8070836","prefectureKana":"ﾌｸｵｶｹﾝ","cityKana":"ｷﾀｷｭｳｼｭｳｼﾔﾊﾀﾆｼｸ","streetKana":"ﾅｶﾞｻｷﾏﾁ","prefecture":"福岡県","city":"北九州市八幡西区","street":"長崎町"},{"zipCode":"8070862","prefectureKana":"ﾌｸｵｶｹﾝ","cityKana":"ｷﾀｷｭｳｼｭｳｼﾔﾊﾀﾆｼｸ","streetKana":"ﾆｼｵﾘｵﾏﾁ","prefecture":"福岡県","city":"北九州市八幡西区","street":"西折尾町"},{"zipCode":"8071262","prefectureKana":"ﾌｸｵｶｹﾝ","cityKana":"ｷﾀｷｭｳｼｭｳｼﾔﾊﾀﾆｼｸ","streetKana":"ﾉﾌﾞ","prefecture":"福岡県","city":"北九州市八幡西区","street":"野面"},{"zipCode":"8070831","prefectureKana":"ﾌｸｵｶｹﾝ","cityKana":"ｷﾀｷｭｳｼｭｳｼﾔﾊﾀﾆｼｸ","streetKana":"ﾉﾘﾏﾂ","prefecture":"福岡県","city":"北九州市八幡西区","street":"則松"},{"zipCode":"8070837","prefectureKana":"ﾌｸｵｶｹﾝ","cityKana":"ｷﾀｷｭｳｼｭｳｼﾔﾊﾀﾆｼｸ","streetKana":"ﾉﾘﾏﾂﾋｶﾞｼ","prefecture":"福岡県","city":"北九州市八幡西区","street":"則松東"},{"zipCode":"8071124","prefectureKana":"ﾌｸｵｶｹﾝ","cityKana":"ｷﾀｷｭｳｼｭｳｼﾔﾊﾀﾆｼｸ","streetKana":"ﾊﾀ","prefecture":"福岡県","city":"北九州市八幡西区","street":"畑"},{"zipCode":"8071136","prefectureKana":"ﾌｸｵｶｹﾝ","cityKana":"ｷﾀｷｭｳｼｭｳｼﾔﾊﾀﾆｼｸ","streetKana":"ﾊﾞﾊﾞﾔﾏ","prefecture":"福岡県","city":"北九州市八幡西区","street":"馬場山"},{"zipCode":"8071135","prefectureKana":"ﾌｸｵｶｹﾝ","cityKana":"ｷﾀｷｭｳｼｭｳｼﾔﾊﾀﾆｼｸ","streetKana":"ﾊﾞﾊﾞﾔﾏﾊﾗ","prefecture":"福岡県","city":"北九州市八幡西区","street":"馬場山原"},{"zipCode":"8071131","prefectureKana":"ﾌｸｵｶｹﾝ","cityKana":"ｷﾀｷｭｳｼｭｳｼﾔﾊﾀﾆｼｸ","streetKana":"ﾊﾞﾊﾞﾔﾏﾋｶﾞｼ","prefecture":"福岡県","city":"北九州市八幡西区","street":"馬場山東"},{"zipCode":"8071132","prefectureKana":"ﾌｸｵｶｹﾝ","cityKana":"ｷﾀｷｭｳｼｭｳｼﾔﾊﾀﾆｼｸ","streetKana":"ﾊﾞﾊﾞﾔﾏﾆｼ","prefecture":"福岡県","city":"北九州市八幡西区","street":"馬場山西"},{"zipCode":"8071133","prefectureKana":"ﾌｸｵｶｹﾝ","cityKana":"ｷﾀｷｭｳｼｭｳｼﾔﾊﾀﾆｼｸ","streetKana":"ﾊﾞﾊﾞﾔﾏﾐﾄﾞﾘ","prefecture":"福岡県","city":"北九州市八幡西区","street":"馬場山緑"},{"zipCode":"8071122","prefectureKana":"ﾌｸｵｶｹﾝ","cityKana":"ｷﾀｷｭｳｼｭｳｼﾔﾊﾀﾆｼｸ","streetKana":"ﾋｶﾞｼｲｼｻﾞｶﾏﾁ","prefecture":"福岡県","city":"北九州市八幡西区","street":"東石坂町"},{"zipCode":"8070835","prefectureKana":"ﾌｸｵｶｹﾝ","cityKana":"ｷﾀｷｭｳｼｭｳｼﾔﾊﾀﾆｼｸ","streetKana":"ﾋｶﾞｼｵﾘｵﾏﾁ","prefecture":"福岡県","city":"北九州市八幡西区","street":"東折尾町"},{"zipCode":"8070866","prefectureKana":"ﾌｸｵｶｹﾝ","cityKana":"ｷﾀｷｭｳｼｭｳｼﾔﾊﾀﾆｼｸ","streetKana":"ﾋﾖｼﾀﾞｲ","prefecture":"福岡県","city":"北九州市八幡西区","street":"日吉台"},{"zipCode":"8070873","prefectureKana":"ﾌｸｵｶｹﾝ","cityKana":"ｷﾀｷｭｳｼｭｳｼﾔﾊﾀﾆｼｸ","streetKana":"ﾌｼﾞﾜﾗ","prefecture":"福岡県","city":"北九州市八幡西区","street":"藤原"},{"zipCode":"8071111","prefectureKana":"ﾌｸｵｶｹﾝ","cityKana":"ｷﾀｷｭｳｼｭｳｼﾔﾊﾀﾆｼｸ","streetKana":"ﾌﾅｺｼ","prefecture":"福岡県","city":"北九州市八幡西区","street":"船越"},{"zipCode":"8070857","prefectureKana":"ﾌｸｵｶｹﾝ","cityKana":"ｷﾀｷｭｳｼｭｳｼﾔﾊﾀﾆｼｸ","streetKana":"ﾎｸﾁｸ","prefecture":"福岡県","city":"北九州市八幡西区","street":"北筑"},{"zipCode":"8071264","prefectureKana":"ﾌｸｵｶｹﾝ","cityKana":"ｷﾀｷｭｳｼｭｳｼﾔﾊﾀﾆｼｸ","streetKana":"ﾎｼｶﾞｵｶ","prefecture":"福岡県","city":"北九州市八幡西区","street":"星ケ丘"},{"zipCode":"8070861","prefectureKana":"ﾌｸｵｶｹﾝ","cityKana":"ｷﾀｷｭｳｼｭｳｼﾔﾊﾀﾆｼｸ","streetKana":"ﾎﾘｶﾜﾏﾁ","prefecture":"福岡県","city":"北九州市八幡西区","street":"堀川町"},{"zipCode":"8070801","prefectureKana":"ﾌｸｵｶｹﾝ","cityKana":"ｷﾀｷｭｳｼｭｳｼﾔﾊﾀﾆｼｸ","streetKana":"ﾎﾝｼﾞｮｳ","prefecture":"福岡県","city":"北九州市八幡西区","street":"本城"},{"zipCode":"8070807","prefectureKana":"ﾌｸｵｶｹﾝ","cityKana":"ｷﾀｷｭｳｼｭｳｼﾔﾊﾀﾆｼｸ","streetKana":"ﾎﾝｼﾞｮｳｶﾞｯｹﾝﾀﾞｲ","prefecture":"福岡県","city":"北九州市八幡西区","street":"本城学研台"},{"zipCode":"8070815","prefectureKana":"ﾌｸｵｶｹﾝ","cityKana":"ｷﾀｷｭｳｼｭｳｼﾔﾊﾀﾆｼｸ","streetKana":"ﾎﾝｼﾞｮｳﾋｶﾞｼ","prefecture":"福岡県","city":"北九州市八幡西区","street":"本城東"},{"zipCode":"8070073","prefectureKana":"ﾌｸｵｶｹﾝ","cityKana":"ｷﾀｷｭｳｼｭｳｼﾔﾊﾀﾆｼｸ","streetKana":"ﾏﾁｺｳｼﾞｬｸﾋｶﾞｼ","prefecture":"福岡県","city":"北九州市八幡西区","street":"町上津役東"},{"zipCode":"8070074","prefectureKana":"ﾌｸｵｶｹﾝ","cityKana":"ｷﾀｷｭｳｼｭｳｼﾔﾊﾀﾆｼｸ","streetKana":"ﾏﾁｺｳｼﾞｬｸﾆｼ","prefecture":"福岡県","city":"北九州市八幡西区","street":"町上津役西"},{"zipCode":"8070841","prefectureKana":"ﾌｸｵｶｹﾝ","cityKana":"ｷﾀｷｭｳｼｭｳｼﾔﾊﾀﾆｼｸ","streetKana":"ﾏﾄﾊﾞﾏﾁ","prefecture":"福岡県","city":"北九州市八幡西区","street":"的場町"},{"zipCode":"8071144","prefectureKana":"ﾌｸｵｶｹﾝ","cityKana":"ｷﾀｷｭｳｼｭｳｼﾔﾊﾀﾆｼｸ","streetKana":"ﾏﾅｺﾞ","prefecture":"福岡県","city":"北九州市八幡西区","street":"真名子"},{"zipCode":"8070826","prefectureKana":"ﾌｸｵｶｹﾝ","cityKana":"ｷﾀｷｭｳｼｭｳｼﾔﾊﾀﾆｼｸ","streetKana":"ﾏﾙｵﾏﾁ","prefecture":"福岡県","city":"北九州市八幡西区","street":"丸尾町"},{"zipCode":"8070878","prefectureKana":"ﾌｸｵｶｹﾝ","cityKana":"ｷﾀｷｭｳｼｭｳｼﾔﾊﾀﾆｼｸ","streetKana":"ﾐﾂｶﾞｼﾗ","prefecture":"福岡県","city":"北九州市八幡西区","street":"三ツ頭"},{"zipCode":"8070805","prefectureKana":"ﾌｸｵｶｹﾝ","cityKana":"ｷﾀｷｭｳｼｭｳｼﾔﾊﾀﾆｼｸ","streetKana":"ﾐﾂｻﾀﾞﾀﾞｲ","prefecture":"福岡県","city":"北九州市八幡西区","street":"光貞台"},{"zipCode":"8070833","prefectureKana":"ﾌｸｵｶｹﾝ","cityKana":"ｷﾀｷｭｳｼｭｳｼﾔﾊﾀﾆｼｸ","streetKana":"ﾐﾅﾐﾀｶﾐﾏﾁ","prefecture":"福岡県","city":"北九州市八幡西区","street":"南鷹見町"},{"zipCode":"8070847","prefectureKana":"ﾌｸｵｶｹﾝ","cityKana":"ｷﾀｷｭｳｼｭｳｼﾔﾊﾀﾆｼｸ","streetKana":"ﾐﾊﾗﾏﾁ","prefecture":"福岡県","city":"北九州市八幡西区","street":"美原町"},{"zipCode":"8070865","prefectureKana":"ﾌｸｵｶｹﾝ","cityKana":"ｷﾀｷｭｳｼｭｳｼﾔﾊﾀﾆｼｸ","streetKana":"ﾐﾖｼﾉﾏﾁ","prefecture":"福岡県","city":"北九州市八幡西区","street":"美吉野町"},{"zipCode":"8071115","prefectureKana":"ﾌｸｵｶｹﾝ","cityKana":"ｷﾀｷｭｳｼｭｳｼﾔﾊﾀﾆｼｸ","streetKana":"ﾑｸｴﾀﾞ","prefecture":"福岡県","city":"北九州市八幡西区","street":"椋枝"},{"zipCode":"8070856","prefectureKana":"ﾌｸｵｶｹﾝ","cityKana":"ｷﾀｷｭｳｼｭｳｼﾔﾊﾀﾆｼｸ","streetKana":"ﾔﾂｴ","prefecture":"福岡県","city":"北九州市八幡西区","street":"八枝"},{"zipCode":"8070813","prefectureKana":"ﾌｸｵｶｹﾝ","cityKana":"ｷﾀｷｭｳｼｭｳｼﾔﾊﾀﾆｼｸ","streetKana":"ﾕｳﾊﾞﾙﾏﾁ","prefecture":"福岡県","city":"北九州市八幡西区","street":"夕原町"},{"zipCode":"8070802","prefectureKana":"ﾌｸｵｶｹﾝ","cityKana":"ｷﾀｷｭｳｼｭｳｼﾔﾊﾀﾆｼｸ","streetKana":"ﾘｷﾏﾙﾏﾁ","prefecture":"福岡県","city":"北九州市八幡西区","street":"力丸町"},{"zipCode":"8070100","prefectureKana":"ﾌｸｵｶｹﾝ","cityKana":"ｵﾝｶﾞｸﾞﾝｱｼﾔﾏﾁ","streetKana":"ｲｶﾆｹｲｻｲｶﾞﾅｲﾊﾞｱｲ","prefecture":"福岡県","city":"遠賀郡芦屋町","street":"以下に掲載がない場合"},{"zipCode":"8070133","prefectureKana":"ﾌｸｵｶｹﾝ","cityKana":"ｵﾝｶﾞｸﾞﾝｱｼﾔﾏﾁ","streetKana":"ｱｼﾔ","prefecture":"福岡県","city":"遠賀郡芦屋町","street":"芦屋"},{"zipCode":"8070142","prefectureKana":"ﾌｸｵｶｹﾝ","cityKana":"ｵﾝｶﾞｸﾞﾝｱｼﾔﾏﾁ","streetKana":"ｴｶﾞﾜﾀﾞｲ","prefecture":"福岡県","city":"遠賀郡芦屋町","street":"江川台"},{"zipCode":"8070123","prefectureKana":"ﾌｸｵｶｹﾝ","cityKana":"ｵﾝｶﾞｸﾞﾝｱｼﾔﾏﾁ","streetKana":"ｷﾞｵﾝﾏﾁ","prefecture":"福岡県","city":"遠賀郡芦屋町","street":"祇園町"},{"zipCode":"8070101","prefectureKana":"ﾌｸｵｶｹﾝ","cityKana":"ｵﾝｶﾞｸﾞﾝｱｼﾔﾏﾁ","streetKana":"ｻｲﾜｲﾏﾁ","prefecture":"福岡県","city":"遠賀郡芦屋町","street":"幸町"},{"zipCode":"8070111","prefectureKana":"ﾌｸｵｶｹﾝ","cityKana":"ｵﾝｶﾞｸﾞﾝｱｼﾔﾏﾁ","streetKana":"ｼﾗﾊﾏﾏﾁ","prefecture":"福岡県","city":"遠賀郡芦屋町","street":"白浜町"},{"zipCode":"8070112","prefectureKana":"ﾌｸｵｶｹﾝ","cityKana":"ｵﾝｶﾞｸﾞﾝｱｼﾔﾏﾁ","streetKana":"ｾｲﾓﾝﾏﾁ","prefecture":"福岡県","city":"遠賀郡芦屋町","street":"正門町"},{"zipCode":"8070121","prefectureKana":"ﾌｸｵｶｹﾝ","cityKana":"ｵﾝｶﾞｸﾞﾝｱｼﾔﾏﾁ","streetKana":"ｾﾝﾄﾞｳﾏﾁ","prefecture":"福岡県","city":"遠賀郡芦屋町","street":"船頭町"},{"zipCode":"8070122","prefectureKana":"ﾌｸｵｶｹﾝ","cityKana":"ｵﾝｶﾞｸﾞﾝｱｼﾔﾏﾁ","streetKana":"ﾀｶﾊﾏﾏﾁ","prefecture":"福岡県","city":"遠賀郡芦屋町","street":"高浜町"},{"zipCode":"8070113","prefectureKana":"ﾌｸｵｶｹﾝ","cityKana":"ｵﾝｶﾞｸﾞﾝｱｼﾔﾏﾁ","streetKana":"ﾅｶﾉﾊﾏ","prefecture":"福岡県","city":"遠賀郡芦屋町","street":"中ノ浜"},{"zipCode":"8070102","prefectureKana":"ﾌｸｵｶｹﾝ","cityKana":"ｵﾝｶﾞｸﾞﾝｱｼﾔﾏﾁ","streetKana":"ﾆｼﾊﾏﾏﾁ","prefecture":"福岡県","city":"遠賀郡芦屋町","street":"西浜町"},{"zipCode":"8070143","prefectureKana":"ﾌｸｵｶｹﾝ","cityKana":"ｵﾝｶﾞｸﾞﾝｱｼﾔﾏﾁ","streetKana":"ﾊﾅﾐｻﾞｶ","prefecture":"福岡県","city":"遠賀郡芦屋町","street":"花美坂"},{"zipCode":"8070132","prefectureKana":"ﾌｸｵｶｹﾝ","cityKana":"ｵﾝｶﾞｸﾞﾝｱｼﾔﾏﾁ","streetKana":"ﾊﾏｸﾞﾁﾏﾁ","prefecture":"福岡県","city":"遠賀郡芦屋町","street":"浜口町"},{"zipCode":"8070131","prefectureKana":"ﾌｸｵｶｹﾝ","cityKana":"ｵﾝｶﾞｸﾞﾝｱｼﾔﾏﾁ","streetKana":"ﾐﾄﾞﾘｶﾞｵｶ","prefecture":"福岡県","city":"遠賀郡芦屋町","street":"緑ケ丘"},{"zipCode":"8070141","prefectureKana":"ﾌｸｵｶｹﾝ","cityKana":"ｵﾝｶﾞｸﾞﾝｱｼﾔﾏﾁ","streetKana":"ﾔﾏｶﾞ","prefecture":"福岡県","city":"遠賀郡芦屋町","street":"山鹿"},{"zipCode":"8070000","prefectureKana":"ﾌｸｵｶｹﾝ","cityKana":"ｵﾝｶﾞｸﾞﾝﾐｽﾞﾏｷﾏﾁ","streetKana":"ｲｶﾆｹｲｻｲｶﾞﾅｲﾊﾞｱｲ","prefecture":"福岡県","city":"遠賀郡水巻町","street":"以下に掲載がない場合"},{"zipCode":"8070056","prefectureKana":"ﾌｸｵｶｹﾝ","cityKana":"ｵﾝｶﾞｸﾞﾝﾐｽﾞﾏｷﾏﾁ","streetKana":"ｲｻｻﾞ","prefecture":"福岡県","city":"遠賀郡水巻町","street":"伊左座"},{"zipCode":"8070001","prefectureKana":"ﾌｸｵｶｹﾝ","cityKana":"ｵﾝｶﾞｸﾞﾝﾐｽﾞﾏｷﾏﾁ","streetKana":"ｲﾉｸﾏ","prefecture":"福岡県","city":"遠賀郡水巻町","street":"猪熊"},{"zipCode":"8070006","prefectureKana":"ﾌｸｵｶｹﾝ","cityKana":"ｵﾝｶﾞｸﾞﾝﾐｽﾞﾏｷﾏﾁ","streetKana":"ｳﾒﾉｷﾀﾞﾝﾁ","prefecture":"福岡県","city":"遠賀郡水巻町","street":"梅ノ木団地"},{"zipCode":"8070031","prefectureKana":"ﾌｸｵｶｹﾝ","cityKana":"ｵﾝｶﾞｸﾞﾝﾐｽﾞﾏｷﾏﾁ","streetKana":"ｴﾌﾞﾘ","prefecture":"福岡県","city":"遠賀郡水巻町","street":"えぶり"},{"zipCode":"8070003","prefectureKana":"ﾌｸｵｶｹﾝ","cityKana":"ｵﾝｶﾞｸﾞﾝﾐｽﾞﾏｷﾏﾁ","streetKana":"ｵｶﾉﾀﾞｲ","prefecture":"福岡県","city":"遠賀郡水巻町","street":"おかの台"},{"zipCode":"8070047","prefectureKana":"ﾌｸｵｶｹﾝ","cityKana":"ｵﾝｶﾞｸﾞﾝﾐｽﾞﾏｷﾏﾁ","streetKana":"ｺｲｸﾞﾁ","prefecture":"福岡県","city":"遠賀郡水巻町","street":"鯉口"},{"zipCode":"8070012","prefectureKana":"ﾌｸｵｶｹﾝ","cityKana":"ｵﾝｶﾞｸﾞﾝﾐｽﾞﾏｷﾏﾁ","streetKana":"ｺｶﾞ","prefecture":"福岡県","city":"遠賀郡水巻町","street":"古賀"},{"zipCode":"8070021","prefectureKana":"ﾌｸｵｶｹﾝ","cityKana":"ｵﾝｶﾞｸﾞﾝﾐｽﾞﾏｷﾏﾁ","streetKana":"ｺﾛｽｴ","prefecture":"福岡県","city":"遠賀郡水巻町","street":"頃末"},{"zipCode":"8070022","prefectureKana":"ﾌｸｵｶｹﾝ","cityKana":"ｵﾝｶﾞｸﾞﾝﾐｽﾞﾏｷﾏﾁ","streetKana":"ｺﾛｽｴｷﾀ","prefecture":"福岡県","city":"遠賀郡水巻町","street":"頃末北"},{"zipCode":"8070025","prefectureKana":"ﾌｸｵｶｹﾝ","cityKana":"ｵﾝｶﾞｸﾞﾝﾐｽﾞﾏｷﾏﾁ","streetKana":"ｺﾛｽｴﾐﾅﾐ","prefecture":"福岡県","city":"遠賀郡水巻町","street":"頃末南"},{"zipCode":"8070043","prefectureKana":"ﾌｸｵｶｹﾝ","cityKana":"ｵﾝｶﾞｸﾞﾝﾐｽﾞﾏｷﾏﾁ","streetKana":"ｼﾓﾌﾀ","prefecture":"福岡県","city":"遠賀郡水巻町","street":"下二"},{"zipCode":"8070053","prefectureKana":"ﾌｸｵｶｹﾝ","cityKana":"ｵﾝｶﾞｸﾞﾝﾐｽﾞﾏｷﾏﾁ","streetKana":"ｼﾓﾌﾀﾋｶﾞｼ","prefecture":"福岡県","city":"遠賀郡水巻町","street":"下二東"},{"zipCode":"8070052","prefectureKana":"ﾌｸｵｶｹﾝ","cityKana":"ｵﾝｶﾞｸﾞﾝﾐｽﾞﾏｷﾏﾁ","streetKana":"ｼﾓﾌﾀﾆｼ","prefecture":"福岡県","city":"遠賀郡水巻町","street":"下二西"},{"zipCode":"8070024","prefectureKana":"ﾌｸｵｶｹﾝ","cityKana":"ｵﾝｶﾞｸﾞﾝﾐｽﾞﾏｷﾏﾁ","streetKana":"ﾀｶｵ","prefecture":"福岡県","city":"遠賀郡水巻町","street":"高尾"},{"zipCode":"8070005","prefectureKana":"ﾌｸｵｶｹﾝ","cityKana":"ｵﾝｶﾞｸﾞﾝﾐｽﾞﾏｷﾏﾁ","streetKana":"ﾀｶﾏﾂ","prefecture":"福岡県","city":"遠賀郡水巻町","street":"高松"},{"zipCode":"8070051","prefectureKana":"ﾌｸｵｶｹﾝ","cityKana":"ｵﾝｶﾞｸﾞﾝﾐｽﾞﾏｷﾏﾁ","streetKana":"ﾀﾃﾔｼｷ","prefecture":"福岡県","city":"遠賀郡水巻町","street":"立屋敷"},{"zipCode":"8070023","prefectureKana":"ﾌｸｵｶｹﾝ","cityKana":"ｵﾝｶﾞｸﾞﾝﾐｽﾞﾏｷﾏﾁ","streetKana":"ﾁｭｳｵｳ","prefecture":"福岡県","city":"遠賀郡水巻町","street":"中央"},{"zipCode":"8070002","prefectureKana":"ﾌｸｵｶｹﾝ","cityKana":"ｵﾝｶﾞｸﾞﾝﾐｽﾞﾏｷﾏﾁ","streetKana":"ﾋｸﾞﾁ","prefecture":"福岡県","city":"遠賀郡水巻町","street":"樋口"},{"zipCode":"8070004","prefectureKana":"ﾌｸｵｶｹﾝ","cityKana":"ｵﾝｶﾞｸﾞﾝﾐｽﾞﾏｷﾏﾁ","streetKana":"ﾋｸﾞﾁﾋｶﾞｼ","prefecture":"福岡県","city":"遠賀郡水巻町","street":"樋口東"},{"zipCode":"8070054","prefectureKana":"ﾌｸｵｶｹﾝ","cityKana":"ｵﾝｶﾞｸﾞﾝﾐｽﾞﾏｷﾏﾁ","streetKana":"ﾌﾀﾋｶﾞｼ","prefecture":"福岡県","city":"遠賀郡水巻町","street":"二東"},{"zipCode":"8070055","prefectureKana":"ﾌｸｵｶｹﾝ","cityKana":"ｵﾝｶﾞｸﾞﾝﾐｽﾞﾏｷﾏﾁ","streetKana":"ﾌﾀﾆｼ","prefecture":"福岡県","city":"遠賀郡水巻町","street":"二西"},{"zipCode":"8070011","prefectureKana":"ﾌｸｵｶｹﾝ","cityKana":"ｵﾝｶﾞｸﾞﾝﾐｽﾞﾏｷﾏﾁ","streetKana":"ﾐﾄﾞﾘｶﾞｵｶ","prefecture":"福岡県","city":"遠賀郡水巻町","street":"緑ケ丘"},{"zipCode":"8070041","prefectureKana":"ﾌｸｵｶｹﾝ","cityKana":"ｵﾝｶﾞｸﾞﾝﾐｽﾞﾏｷﾏﾁ","streetKana":"ﾐﾔｵﾀﾞｲ","prefecture":"福岡県","city":"遠賀郡水巻町","street":"宮尾台"},{"zipCode":"8070044","prefectureKana":"ﾌｸｵｶｹﾝ","cityKana":"ｵﾝｶﾞｸﾞﾝﾐｽﾞﾏｷﾏﾁ","streetKana":"ﾐﾖｼﾉ","prefecture":"福岡県","city":"遠賀郡水巻町","street":"美吉野"},{"zipCode":"8070007","prefectureKana":"ﾌｸｵｶｹﾝ","cityKana":"ｵﾝｶﾞｸﾞﾝﾐｽﾞﾏｷﾏﾁ","streetKana":"ﾑﾀ","prefecture":"福岡県","city":"遠賀郡水巻町","street":"牟田"},{"zipCode":"8070042","prefectureKana":"ﾌｸｵｶｹﾝ","cityKana":"ｵﾝｶﾞｸﾞﾝﾐｽﾞﾏｷﾏﾁ","streetKana":"ﾖｼﾀﾞ","prefecture":"福岡県","city":"遠賀郡水巻町","street":"吉田"},{"zipCode":"8070042","prefectureKana":"ﾌｸｵｶｹﾝ","cityKana":"ｵﾝｶﾞｸﾞﾝﾐｽﾞﾏｷﾏﾁ","streetKana":"ﾖｼﾀﾞﾀﾞﾝﾁ","prefecture":"福岡県","city":"遠賀郡水巻町","street":"吉田団地"},{"zipCode":"8070046","prefectureKana":"ﾌｸｵｶｹﾝ","cityKana":"ｵﾝｶﾞｸﾞﾝﾐｽﾞﾏｷﾏﾁ","streetKana":"ﾖｼﾀﾞﾆｼ","prefecture":"福岡県","city":"遠賀郡水巻町","street":"吉田西"},{"zipCode":"8070045","prefectureKana":"ﾌｸｵｶｹﾝ","cityKana":"ｵﾝｶﾞｸﾞﾝﾐｽﾞﾏｷﾏﾁ","streetKana":"ﾖｼﾀﾞﾋｶﾞｼ","prefecture":"福岡県","city":"遠賀郡水巻町","street":"吉田東"},{"zipCode":"8070048","prefectureKana":"ﾌｸｵｶｹﾝ","cityKana":"ｵﾝｶﾞｸﾞﾝﾐｽﾞﾏｷﾏﾁ","streetKana":"ﾖｼﾀﾞﾐﾅﾐ","prefecture":"福岡県","city":"遠賀郡水巻町","street":"吉田南"},{"zipCode":"8071300","prefectureKana":"ﾌｸｵｶｹﾝ","cityKana":"ｸﾗﾃｸﾞﾝｸﾗﾃﾏﾁ","streetKana":"ｲｶﾆｹｲｻｲｶﾞﾅｲﾊﾞｱｲ","prefecture":"福岡県","city":"鞍手郡鞍手町","street":"以下に掲載がない場合"},{"zipCode":"8071301","prefectureKana":"ﾌｸｵｶｹﾝ","cityKana":"ｸﾗﾃｸﾞﾝｸﾗﾃﾏﾁ","streetKana":"ｲﾉｸﾗ","prefecture":"福岡県","city":"鞍手郡鞍手町","street":"猪倉"},{"zipCode":"8071311","prefectureKana":"ﾌｸｵｶｹﾝ","cityKana":"ｸﾗﾃｸﾞﾝｸﾗﾃﾏﾁ","streetKana":"ｵﾏｷ","prefecture":"福岡県","city":"鞍手郡鞍手町","street":"小牧"},{"zipCode":"8071302","prefectureKana":"ﾌｸｵｶｹﾝ","cityKana":"ｸﾗﾃｸﾞﾝｸﾗﾃﾏﾁ","streetKana":"ｶﾐｷﾂﾞｷ","prefecture":"福岡県","city":"鞍手郡鞍手町","street":"上木月"},{"zipCode":"8071303","prefectureKana":"ﾌｸｵｶｹﾝ","cityKana":"ｸﾗﾃｸﾞﾝｸﾗﾃﾏﾁ","streetKana":"ｷﾂﾞｷ","prefecture":"福岡県","city":"鞍手郡鞍手町","street":"木月"},{"zipCode":"8071312","prefectureKana":"ﾌｸｵｶｹﾝ","cityKana":"ｸﾗﾃｸﾞﾝｸﾗﾃﾏﾁ","streetKana":"ﾅｶﾔﾏ","prefecture":"福岡県","city":"鞍手郡鞍手町","street":"中山"},{"zipCode":"8071304","prefectureKana":"ﾌｸｵｶｹﾝ","cityKana":"ｸﾗﾃｸﾞﾝｸﾗﾃﾏﾁ","streetKana":"ﾅｶﾞﾀﾆ","prefecture":"福岡県","city":"鞍手郡鞍手町","street":"永谷"},{"zipCode":"8071313","prefectureKana":"ﾌｸｵｶｹﾝ","cityKana":"ｸﾗﾃｸﾞﾝｸﾗﾃﾏﾁ","streetKana":"ﾆｷﾞﾀ","prefecture":"福岡県","city":"鞍手郡鞍手町","street":"新北"},{"zipCode":"8071305","prefectureKana":"ﾌｸｵｶｹﾝ","cityKana":"ｸﾗﾃｸﾞﾝｸﾗﾃﾏﾁ","streetKana":"ﾆﾉﾌﾞ","prefecture":"福岡県","city":"鞍手郡鞍手町","street":"新延"},{"zipCode":"8071314","prefectureKana":"ﾌｸｵｶｹﾝ","cityKana":"ｸﾗﾃｸﾞﾝｸﾗﾃﾏﾁ","streetKana":"ﾊｾ","prefecture":"福岡県","city":"鞍手郡鞍手町","street":"長谷"},{"zipCode":"8071306","prefectureKana":"ﾌｸｵｶｹﾝ","cityKana":"ｸﾗﾃｸﾞﾝｸﾗﾃﾏﾁ","streetKana":"ﾌﾙﾓﾝ","prefecture":"福岡県","city":"鞍手郡鞍手町","street":"古門"},{"zipCode":"8071307","prefectureKana":"ﾌｸｵｶｹﾝ","cityKana":"ｸﾗﾃｸﾞﾝｸﾗﾃﾏﾁ","streetKana":"ﾑﾛｷ","prefecture":"福岡県","city":"鞍手郡鞍手町","street":"室木"},{"zipCode":"8071308","prefectureKana":"ﾌｸｵｶｹﾝ","cityKana":"ｸﾗﾃｸﾞﾝｸﾗﾃﾏﾁ","streetKana":"ﾔﾋﾛ","prefecture":"福岡県","city":"鞍手郡鞍手町","street":"八尋"},{"zipCode":"8071315","prefectureKana":"ﾌｸｵｶｹﾝ","cityKana":"ｸﾗﾃｸﾞﾝｸﾗﾃﾏﾁ","streetKana":"ﾔﾖｲ","prefecture":"福岡県","city":"鞍手郡鞍手町","street":"弥生"}]