[{"zipCode":"8100801","prefectureKana":"ﾌｸｵｶｹﾝ","cityKana":"ﾌｸｵｶｼﾊｶﾀｸ","streetKana":"ﾅｶｽ","prefecture":"福岡県","city":"福岡市博多区","street":"中洲"},{"zipCode":"8100802","prefectureKana":"ﾌｸｵｶｹﾝ","cityKana":"ﾌｸｵｶｼﾊｶﾀｸ","streetKana":"ﾅｶｽﾅｶｼﾏﾏﾁ","prefecture":"福岡県","city":"福岡市博多区","street":"中洲中島町"},{"zipCode":"8100000","prefectureKana":"ﾌｸｵｶｹﾝ","cityKana":"ﾌｸｵｶｼﾁｭｳｵｳｸ","streetKana":"ｲｶﾆｹｲｻｲｶﾞﾅｲﾊﾞｱｲ","prefecture":"福岡県","city":"福岡市中央区","street":"以下に掲載がない場合"},{"zipCode":"8100042","prefectureKana":"ﾌｸｵｶｹﾝ","cityKana":"ﾌｸｵｶｼﾁｭｳｵｳｸ","streetKana":"ｱｶｻｶ","prefecture":"福岡県","city":"福岡市中央区","street":"赤坂"},{"zipCode":"8100076","prefectureKana":"ﾌｸｵｶｹﾝ","cityKana":"ﾌｸｵｶｼﾁｭｳｵｳｸ","streetKana":"ｱﾗﾂ","prefecture":"福岡県","city":"福岡市中央区","street":"荒津"},{"zipCode":"8100062","prefectureKana":"ﾌｸｵｶｹﾝ","cityKana":"ﾌｸｵｶｼﾁｭｳｵｳｸ","streetKana":"ｱﾗﾄ","prefecture":"福岡県","city":"福岡市中央区","street":"荒戸"},{"zipCode":"8100067","prefectureKana":"ﾌｸｵｶｹﾝ","cityKana":"ﾌｸｵｶｼﾁｭｳｵｳｸ","streetKana":"ｲｻﾞｷ","prefecture":"福岡県","city":"福岡市中央区","street":"伊崎"},{"zipCode":"8100021","prefectureKana":"ﾌｸｵｶｹﾝ","cityKana":"ﾌｸｵｶｼﾁｭｳｵｳｸ","streetKana":"ｲﾏｲｽﾞﾐ","prefecture":"福岡県","city":"福岡市中央区","street":"今泉"},{"zipCode":"8100054","prefectureKana":"ﾌｸｵｶｹﾝ","cityKana":"ﾌｸｵｶｼﾁｭｳｵｳｸ","streetKana":"ｲﾏｶﾞﾜ","prefecture":"福岡県","city":"福岡市中央区","street":"今川"},{"zipCode":"8100074","prefectureKana":"ﾌｸｵｶｹﾝ","cityKana":"ﾌｸｵｶｼﾁｭｳｵｳｸ","streetKana":"ｵｵﾃﾓﾝ","prefecture":"福岡県","city":"福岡市中央区","street":"大手門"},{"zipCode":"8100052","prefectureKana":"ﾌｸｵｶｹﾝ","cityKana":"ﾌｸｵｶｼﾁｭｳｵｳｸ","streetKana":"ｵｵﾎﾘ","prefecture":"福岡県","city":"福岡市中央区","street":"大濠"},{"zipCode":"8100051","prefectureKana":"ﾌｸｵｶｹﾝ","cityKana":"ﾌｸｵｶｼﾁｭｳｵｳｸ","streetKana":"ｵｵﾎﾘｺｳｴﾝ","prefecture":"福岡県","city":"福岡市中央区","street":"大濠公園"},{"zipCode":"8100013","prefectureKana":"ﾌｸｵｶｹﾝ","cityKana":"ﾌｸｵｶｼﾁｭｳｵｳｸ","streetKana":"ｵｵﾐﾔ","prefecture":"福岡県","city":"福岡市中央区","street":"大宮"},{"zipCode":"8100033","prefectureKana":"ﾌｸｵｶｹﾝ","cityKana":"ﾌｸｵｶｼﾁｭｳｵｳｸ","streetKana":"ｵｻﾞｻ","prefecture":"福岡県","city":"福岡市中央区","street":"小笹"},{"zipCode":"8100005","prefectureKana":"ﾌｸｵｶｹﾝ","cityKana":"ﾌｸｵｶｼﾁｭｳｵｳｸ","streetKana":"ｷﾖｶﾜ","prefecture":"福岡県","city":"福岡市中央区","street":"清川"},{"zipCode":"8100045","prefectureKana":"ﾌｸｵｶｹﾝ","cityKana":"ﾌｸｵｶｼﾁｭｳｵｳｸ","streetKana":"ｸｻｶﾞｴ","prefecture":"福岡県","city":"福岡市中央区","street":"草香江"},{"zipCode":"8100055","prefectureKana":"ﾌｸｵｶｹﾝ","cityKana":"ﾌｸｵｶｼﾁｭｳｵｳｸ","streetKana":"ｸﾛﾓﾝ","prefecture":"福岡県","city":"福岡市中央区","street":"黒門"},{"zipCode":"8100023","prefectureKana":"ﾌｸｵｶｹﾝ","cityKana":"ﾌｸｵｶｼﾁｭｳｵｳｸ","streetKana":"ｹｺﾞ","prefecture":"福岡県","city":"福岡市中央区","street":"警固"},{"zipCode":"8100027","prefectureKana":"ﾌｸｵｶｹﾝ","cityKana":"ﾌｸｵｶｼﾁｭｳｵｳｸ","streetKana":"ｺﾞｼｮｶﾞﾀﾞﾆ","prefecture":"福岡県","city":"福岡市中央区","street":"御所ケ谷"},{"zipCode":"8100024","prefectureKana":"ﾌｸｵｶｹﾝ","cityKana":"ﾌｸｵｶｼﾁｭｳｵｳｸ","streetKana":"ｻｸﾗｻﾞｶ","prefecture":"福岡県","city":"福岡市中央区","street":"桜坂"},{"zipCode":"8100034","prefectureKana":"ﾌｸｵｶｹﾝ","cityKana":"ﾌｸｵｶｼﾁｭｳｵｳｸ","streetKana":"ｻｻｵｶ","prefecture":"福岡県","city":"福岡市中央区","street":"笹丘"},{"zipCode":"8100018","prefectureKana":"ﾌｸｵｶｹﾝ","cityKana":"ﾌｸｵｶｼﾁｭｳｵｳｸ","streetKana":"ｻﾝｿｳﾄﾞｵﾘ","prefecture":"福岡県","city":"福岡市中央区","street":"山荘通"},{"zipCode":"8100028","prefectureKana":"ﾌｸｵｶｹﾝ","cityKana":"ﾌｸｵｶｼﾁｭｳｵｳｸ","streetKana":"ｼﾞｮｳｽｲﾄﾞｵﾘ","prefecture":"福岡県","city":"福岡市中央区","street":"浄水通"},{"zipCode":"8100043","prefectureKana":"ﾌｸｵｶｹﾝ","cityKana":"ﾌｸｵｶｼﾁｭｳｵｳｸ","streetKana":"ｼﾞｮｳﾅｲ","prefecture":"福岡県","city":"福岡市中央区","street":"城内"},{"zipCode":"8100012","prefectureKana":"ﾌｸｵｶｹﾝ","cityKana":"ﾌｸｵｶｼﾁｭｳｵｳｸ","streetKana":"ｼﾛｶﾞﾈ","prefecture":"福岡県","city":"福岡市中央区","street":"白金"},{"zipCode":"8100064","prefectureKana":"ﾌｸｵｶｹﾝ","cityKana":"ﾌｸｵｶｼﾁｭｳｵｳｸ","streetKana":"ｼﾞｷﾞｮｳ","prefecture":"福岡県","city":"福岡市中央区","street":"地行"},{"zipCode":"8100065","prefectureKana":"ﾌｸｵｶｹﾝ","cityKana":"ﾌｸｵｶｼﾁｭｳｵｳｸ","streetKana":"ｼﾞｷﾞｮｳﾊﾏ","prefecture":"福岡県","city":"福岡市中央区","street":"地行浜"},{"zipCode":"8100041","prefectureKana":"ﾌｸｵｶｹﾝ","cityKana":"ﾌｸｵｶｼﾁｭｳｵｳｸ","streetKana":"ﾀﾞｲﾐｮｳ","prefecture":"福岡県","city":"福岡市中央区","street":"大名"},{"zipCode":"8100011","prefectureKana":"ﾌｸｵｶｹﾝ","cityKana":"ﾌｸｵｶｼﾁｭｳｵｳｸ","streetKana":"ﾀｶｻｺﾞ","prefecture":"福岡県","city":"福岡市中央区","street":"高砂"},{"zipCode":"8100031","prefectureKana":"ﾌｸｵｶｹﾝ","cityKana":"ﾌｸｵｶｼﾁｭｳｵｳｸ","streetKana":"ﾀﾆ","prefecture":"福岡県","city":"福岡市中央区","street":"谷"},{"zipCode":"8100032","prefectureKana":"ﾌｸｵｶｹﾝ","cityKana":"ﾌｸｵｶｼﾁｭｳｵｳｸ","streetKana":"ﾃﾙｸﾆ","prefecture":"福岡県","city":"福岡市中央区","street":"輝国"},{"zipCode":"8100001","prefectureKana":"ﾌｸｵｶｹﾝ","cityKana":"ﾌｸｵｶｼﾁｭｳｵｳｸ","streetKana":"ﾃﾝｼﾞﾝ","prefecture":"福岡県","city":"福岡市中央区","street":"天神"},{"zipCode":"8100063","prefectureKana":"ﾌｸｵｶｹﾝ","cityKana":"ﾌｸｵｶｼﾁｭｳｵｳｸ","streetKana":"ﾄｳｼﾞﾝﾏﾁ","prefecture":"福岡県","city":"福岡市中央区","street":"唐人町"},{"zipCode":"8100053","prefectureKana":"ﾌｸｵｶｹﾝ","cityKana":"ﾌｸｵｶｼﾁｭｳｵｳｸ","streetKana":"ﾄﾘｶｲ","prefecture":"福岡県","city":"福岡市中央区","street":"鳥飼"},{"zipCode":"8100072","prefectureKana":"ﾌｸｵｶｹﾝ","cityKana":"ﾌｸｵｶｼﾁｭｳｵｳｸ","streetKana":"ﾅｶﾞﾊﾏ","prefecture":"福岡県","city":"福岡市中央区","street":"長浜"},{"zipCode":"8100015","prefectureKana":"ﾌｸｵｶｹﾝ","cityKana":"ﾌｸｵｶｼﾁｭｳｵｳｸ","streetKana":"ﾅﾉｶﾜ","prefecture":"福岡県","city":"福岡市中央区","street":"那の川"},{"zipCode":"8100071","prefectureKana":"ﾌｸｵｶｹﾝ","cityKana":"ﾌｸｵｶｼﾁｭｳｵｳｸ","streetKana":"ﾅﾉﾂ","prefecture":"福岡県","city":"福岡市中央区","street":"那の津"},{"zipCode":"8100061","prefectureKana":"ﾌｸｵｶｹﾝ","cityKana":"ﾌｸｵｶｼﾁｭｳｵｳｸ","streetKana":"ﾆｼｺｳｴﾝ","prefecture":"福岡県","city":"福岡市中央区","street":"西公園"},{"zipCode":"8100002","prefectureKana":"ﾌｸｵｶｹﾝ","cityKana":"ﾌｸｵｶｼﾁｭｳｵｳｸ","streetKana":"ﾆｼﾅｶｽ","prefecture":"福岡県","city":"福岡市中央区","street":"西中洲"},{"zipCode":"8100035","prefectureKana":"ﾌｸｵｶｹﾝ","cityKana":"ﾌｸｵｶｼﾁｭｳｵｳｸ","streetKana":"ﾊﾞｲｺｳｴﾝ","prefecture":"福岡県","city":"福岡市中央区","street":"梅光園"},{"zipCode":"8100036","prefectureKana":"ﾌｸｵｶｹﾝ","cityKana":"ﾌｸｵｶｼﾁｭｳｵｳｸ","streetKana":"ﾊﾞｲｺｳｴﾝﾀﾞﾝﾁ","prefecture":"福岡県","city":"福岡市中央区","street":"梅光園団地"},{"zipCode":"8100003","prefectureKana":"ﾌｸｵｶｹﾝ","cityKana":"ﾌｸｵｶｼﾁｭｳｵｳｸ","streetKana":"ﾊﾙﾖｼ","prefecture":"福岡県","city":"福岡市中央区","street":"春吉"},{"zipCode":"8100014","prefectureKana":"ﾌｸｵｶｹﾝ","cityKana":"ﾌｸｵｶｼﾁｭｳｵｳｸ","streetKana":"ﾋﾗｵ","prefecture":"福岡県","city":"福岡市中央区","street":"平尾"},{"zipCode":"8100017","prefectureKana":"ﾌｸｵｶｹﾝ","cityKana":"ﾌｸｵｶｼﾁｭｳｵｳｸ","streetKana":"ﾋﾗｵｶﾏﾁ","prefecture":"福岡県","city":"福岡市中央区","street":"平丘町"},{"zipCode":"8100029","prefectureKana":"ﾌｸｵｶｹﾝ","cityKana":"ﾌｸｵｶｼﾁｭｳｵｳｸ","streetKana":"ﾋﾗｵｼﾞｮｳｽｲﾏﾁ","prefecture":"福岡県","city":"福岡市中央区","street":"平尾浄水町"},{"zipCode":"8100066","prefectureKana":"ﾌｸｵｶｹﾝ","cityKana":"ﾌｸｵｶｼﾁｭｳｵｳｸ","streetKana":"ﾌｸﾊﾏ","prefecture":"福岡県","city":"福岡市中央区","street":"福浜"},{"zipCode":"8100026","prefectureKana":"ﾌｸｵｶｹﾝ","cityKana":"ﾌｸｵｶｼﾁｭｳｵｳｸ","streetKana":"ﾌﾙｺｶﾞﾗｽﾏﾁ","prefecture":"福岡県","city":"福岡市中央区","street":"古小烏町"},{"zipCode":"8100016","prefectureKana":"ﾌｸｵｶｹﾝ","cityKana":"ﾌｸｵｶｼﾁｭｳｵｳｸ","streetKana":"ﾍｲﾜ","prefecture":"福岡県","city":"福岡市中央区","street":"平和"},{"zipCode":"8100073","prefectureKana":"ﾌｸｵｶｹﾝ","cityKana":"ﾌｸｵｶｼﾁｭｳｵｳｸ","streetKana":"ﾏｲﾂﾞﾙ","prefecture":"福岡県","city":"福岡市中央区","street":"舞鶴"},{"zipCode":"8100075","prefectureKana":"ﾌｸｵｶｹﾝ","cityKana":"ﾌｸｵｶｼﾁｭｳｵｳｸ","streetKana":"ﾐﾅﾄ","prefecture":"福岡県","city":"福岡市中央区","street":"港"},{"zipCode":"8100037","prefectureKana":"ﾌｸｵｶｹﾝ","cityKana":"ﾌｸｵｶｼﾁｭｳｵｳｸ","streetKana":"ﾐﾅﾐｺｳｴﾝ","prefecture":"福岡県","city":"福岡市中央区","street":"南公園"},{"zipCode":"8100022","prefectureKana":"ﾌｸｵｶｹﾝ","cityKana":"ﾌｸｵｶｼﾁｭｳｵｳｸ","streetKana":"ﾔｸｲﾝ","prefecture":"福岡県","city":"福岡市中央区","street":"薬院"},{"zipCode":"8100025","prefectureKana":"ﾌｸｵｶｹﾝ","cityKana":"ﾌｸｵｶｼﾁｭｳｵｳｸ","streetKana":"ﾔｸｲﾝｲﾌｸﾏﾁ","prefecture":"福岡県","city":"福岡市中央区","street":"薬院伊福町"},{"zipCode":"8100044","prefectureKana":"ﾌｸｵｶｹﾝ","cityKana":"ﾌｸｵｶｼﾁｭｳｵｳｸ","streetKana":"ﾛｯﾎﾟﾝﾏﾂ","prefecture":"福岡県","city":"福岡市中央区","street":"六本松"},{"zipCode":"8100004","prefectureKana":"ﾌｸｵｶｹﾝ","cityKana":"ﾌｸｵｶｼﾁｭｳｵｳｸ","streetKana":"ﾜﾀﾅﾍﾞﾄﾞｵﾘ","prefecture":"福岡県","city":"福岡市中央区","street":"渡辺通"}]