[{"zipCode":"8110322","prefectureKana":"ﾌｸｵｶｹﾝ","cityKana":"ﾌｸｵｶｼﾋｶﾞｼｸ","streetKana":"ｵｵﾀｹ","prefecture":"福岡県","city":"福岡市東区","street":"大岳"},{"zipCode":"8110325","prefectureKana":"ﾌｸｵｶｹﾝ","cityKana":"ﾌｸｵｶｼﾋｶﾞｼｸ","streetKana":"ｶﾂﾏ","prefecture":"福岡県","city":"福岡市東区","street":"勝馬"},{"zipCode":"8110216","prefectureKana":"ﾌｸｵｶｹﾝ","cityKana":"ﾌｸｵｶｼﾋｶﾞｼｸ","streetKana":"ｶﾐﾜｼﾞﾛ","prefecture":"福岡県","city":"福岡市東区","street":"上和白"},{"zipCode":"8110206","prefectureKana":"ﾌｸｵｶｹﾝ","cityKana":"ﾌｸｵｶｼﾋｶﾞｼｸ","streetKana":"ｶﾞﾝﾉｽ","prefecture":"福岡県","city":"福岡市東区","street":"雁の巣"},{"zipCode":"8110321","prefectureKana":"ﾌｸｵｶｹﾝ","cityKana":"ﾌｸｵｶｼﾋｶﾞｼｸ","streetKana":"ｻｲﾄｻﾞｷ","prefecture":"福岡県","city":"福岡市東区","street":"西戸崎"},{"zipCode":"8110203","prefectureKana":"ﾌｸｵｶｹﾝ","cityKana":"ﾌｸｵｶｼﾋｶﾞｼｸ","streetKana":"ｼｵﾊﾏ","prefecture":"福岡県","city":"福岡市東区","street":"塩浜"},{"zipCode":"8110323","prefectureKana":"ﾌｸｵｶｹﾝ","cityKana":"ﾌｸｵｶｼﾋｶﾞｼｸ","streetKana":"ｼｶｼﾏ","prefecture":"福岡県","city":"福岡市東区","street":"志賀島"},{"zipCode":"8110215","prefectureKana":"ﾌｸｵｶｹﾝ","cityKana":"ﾌｸｵｶｼﾋｶﾞｼｸ","streetKana":"ﾀｶﾐﾀﾞｲ","prefecture":"福岡県","city":"福岡市東区","street":"高美台"},{"zipCode":"8110204","prefectureKana":"ﾌｸｵｶｹﾝ","cityKana":"ﾌｸｵｶｼﾋｶﾞｼｸ","streetKana":"ﾅﾀ","prefecture":"福岡県","city":"福岡市東区","street":"奈多"},{"zipCode":"8110205","prefectureKana":"ﾌｸｵｶｹﾝ","cityKana":"ﾌｸｵｶｼﾋｶﾞｼｸ","streetKana":"ﾅﾀﾀﾞﾝﾁ","prefecture":"福岡県","city":"福岡市東区","street":"奈多団地"},{"zipCode":"8110324","prefectureKana":"ﾌｸｵｶｹﾝ","cityKana":"ﾌｸｵｶｼﾋｶﾞｼｸ","streetKana":"ﾋﾛ","prefecture":"福岡県","city":"福岡市東区","street":"弘"},{"zipCode":"8110201","prefectureKana":"ﾌｸｵｶｹﾝ","cityKana":"ﾌｸｵｶｼﾋｶﾞｼｸ","streetKana":"ﾐﾄﾏ","prefecture":"福岡県","city":"福岡市東区","street":"三苫"},{"zipCode":"8110212","prefectureKana":"ﾌｸｵｶｹﾝ","cityKana":"ﾌｸｵｶｼﾋｶﾞｼｸ","streetKana":"ﾐﾜﾀﾞｲ","prefecture":"福岡県","city":"福岡市東区","street":"美和台"},{"zipCode":"8110211","prefectureKana":"ﾌｸｵｶｹﾝ","cityKana":"ﾌｸｵｶｼﾋｶﾞｼｸ","streetKana":"ﾐﾜﾀﾞｲｼﾝﾏﾁ","prefecture":"福岡県","city":"福岡市東区","street":"美和台新町"},{"zipCode":"8110202","prefectureKana":"ﾌｸｵｶｹﾝ","cityKana":"ﾌｸｵｶｼﾋｶﾞｼｸ","streetKana":"ﾜｼﾞﾛ","prefecture":"福岡県","city":"福岡市東区","street":"和白"},{"zipCode":"8110213","prefectureKana":"ﾌｸｵｶｹﾝ","cityKana":"ﾌｸｵｶｼﾋｶﾞｼｸ","streetKana":"ﾜｼﾞﾛｶﾞｵｶ","prefecture":"福岡県","city":"福岡市東区","street":"和白丘"},{"zipCode":"8110214","prefectureKana":"ﾌｸｵｶｹﾝ","cityKana":"ﾌｸｵｶｼﾋｶﾞｼｸ","streetKana":"ﾜｼﾞﾛﾋｶﾞｼ","prefecture":"福岡県","city":"福岡市東区","street":"和白東"},{"zipCode":"8111302","prefectureKana":"ﾌｸｵｶｹﾝ","cityKana":"ﾌｸｵｶｼﾐﾅﾐｸ","streetKana":"ｲｼﾞﾘ","prefecture":"福岡県","city":"福岡市南区","street":"井尻"},{"zipCode":"8111313","prefectureKana":"ﾌｸｵｶｹﾝ","cityKana":"ﾌｸｵｶｼﾐﾅﾐｸ","streetKana":"ｵｻ","prefecture":"福岡県","city":"福岡市南区","street":"曰佐"},{"zipCode":"8111303","prefectureKana":"ﾌｸｵｶｹﾝ","cityKana":"ﾌｸｵｶｼﾐﾅﾐｸ","streetKana":"ｵﾘﾀﾃﾏﾁ","prefecture":"福岡県","city":"福岡市南区","street":"折立町"},{"zipCode":"8111353","prefectureKana":"ﾌｸｵｶｹﾝ","cityKana":"ﾌｸｵｶｼﾐﾅﾐｸ","streetKana":"ｶｼﾜﾗ","prefecture":"福岡県","city":"福岡市南区","street":"柏原"},{"zipCode":"8111324","prefectureKana":"ﾌｸｵｶｹﾝ","cityKana":"ﾌｸｵｶｼﾐﾅﾐｸ","streetKana":"ｹﾔｺﾞｳ","prefecture":"福岡県","city":"福岡市南区","street":"警弥郷"},{"zipCode":"8111365","prefectureKana":"ﾌｸｵｶｹﾝ","cityKana":"ﾌｸｵｶｼﾐﾅﾐｸ","streetKana":"ｻﾗﾔﾏ","prefecture":"福岡県","city":"福岡市南区","street":"皿山"},{"zipCode":"8111354","prefectureKana":"ﾌｸｵｶｹﾝ","cityKana":"ﾌｸｵｶｼﾐﾅﾐｸ","streetKana":"ﾀｲﾍｲｼﾞ","prefecture":"福岡県","city":"福岡市南区","street":"大平寺"},{"zipCode":"8111352","prefectureKana":"ﾌｸｵｶｹﾝ","cityKana":"ﾌｸｵｶｼﾐﾅﾐｸ","streetKana":"ﾂﾙﾀ","prefecture":"福岡県","city":"福岡市南区","street":"鶴田"},{"zipCode":"8111364","prefectureKana":"ﾌｸｵｶｹﾝ","cityKana":"ﾌｸｵｶｼﾐﾅﾐｸ","streetKana":"ﾅｶｵ","prefecture":"福岡県","city":"福岡市南区","street":"中尾"},{"zipCode":"8111362","prefectureKana":"ﾌｸｵｶｹﾝ","cityKana":"ﾌｸｵｶｼﾐﾅﾐｸ","streetKana":"ﾅｶﾞｽﾞﾐ","prefecture":"福岡県","city":"福岡市南区","street":"長住"},{"zipCode":"8111361","prefectureKana":"ﾌｸｵｶｹﾝ","cityKana":"ﾌｸｵｶｼﾐﾅﾐｸ","streetKana":"ﾆｼﾅｶﾞｽﾞﾐ","prefecture":"福岡県","city":"福岡市南区","street":"西長住"},{"zipCode":"8111347","prefectureKana":"ﾌｸｵｶｹﾝ","cityKana":"ﾌｸｵｶｼﾐﾅﾐｸ","streetKana":"ﾉﾀﾒ","prefecture":"福岡県","city":"福岡市南区","street":"野多目"},{"zipCode":"8111356","prefectureKana":"ﾌｸｵｶｹﾝ","cityKana":"ﾌｸｵｶｼﾐﾅﾐｸ","streetKana":"ﾊﾅﾊﾀ","prefecture":"福岡県","city":"福岡市南区","street":"花畑"},{"zipCode":"8111355","prefectureKana":"ﾌｸｵｶｹﾝ","cityKana":"ﾌｸｵｶｼﾐﾅﾐｸ","streetKana":"ﾋﾊﾞﾙ","prefecture":"福岡県","city":"福岡市南区","street":"桧原"},{"zipCode":"8111314","prefectureKana":"ﾌｸｵｶｹﾝ","cityKana":"ﾌｸｵｶｼﾐﾅﾐｸ","streetKana":"ﾏﾄﾊﾞ","prefecture":"福岡県","city":"福岡市南区","street":"的場"},{"zipCode":"8111344","prefectureKana":"ﾌｸｵｶｹﾝ","cityKana":"ﾌｸｵｶｼﾐﾅﾐｸ","streetKana":"ﾐﾔｹ","prefecture":"福岡県","city":"福岡市南区","street":"三宅"},{"zipCode":"8111345","prefectureKana":"ﾌｸｵｶｹﾝ","cityKana":"ﾌｸｵｶｼﾐﾅﾐｸ","streetKana":"ﾑｶｲｼﾝﾏﾁ","prefecture":"福岡県","city":"福岡市南区","street":"向新町"},{"zipCode":"8111351","prefectureKana":"ﾌｸｵｶｹﾝ","cityKana":"ﾌｸｵｶｼﾐﾅﾐｸ","streetKana":"ﾔｶﾀﾊﾞﾙ","prefecture":"福岡県","city":"福岡市南区","street":"屋形原"},{"zipCode":"8111323","prefectureKana":"ﾌｸｵｶｹﾝ","cityKana":"ﾌｸｵｶｼﾐﾅﾐｸ","streetKana":"ﾔﾅｶﾞ","prefecture":"福岡県","city":"福岡市南区","street":"弥永"},{"zipCode":"8111322","prefectureKana":"ﾌｸｵｶｹﾝ","cityKana":"ﾌｸｵｶｼﾐﾅﾐｸ","streetKana":"ﾔﾅｶﾞﾀﾞﾝﾁ","prefecture":"福岡県","city":"福岡市南区","street":"弥永団地"},{"zipCode":"8111321","prefectureKana":"ﾌｸｵｶｹﾝ","cityKana":"ﾌｸｵｶｼﾐﾅﾐｸ","streetKana":"ﾔﾅｾ","prefecture":"福岡県","city":"福岡市南区","street":"柳瀬"},{"zipCode":"8111311","prefectureKana":"ﾌｸｵｶｹﾝ","cityKana":"ﾌｸｵｶｼﾐﾅﾐｸ","streetKana":"ﾖｺﾃ","prefecture":"福岡県","city":"福岡市南区","street":"横手"},{"zipCode":"8111312","prefectureKana":"ﾌｸｵｶｹﾝ","cityKana":"ﾌｸｵｶｼﾐﾅﾐｸ","streetKana":"ﾖｺﾃﾐﾅﾐﾏﾁ","prefecture":"福岡県","city":"福岡市南区","street":"横手南町"},{"zipCode":"8111346","prefectureKana":"ﾌｸｵｶｹﾝ","cityKana":"ﾌｸｵｶｼﾐﾅﾐｸ","streetKana":"ﾛｳｼﾞ","prefecture":"福岡県","city":"福岡市南区","street":"老司"},{"zipCode":"8111343","prefectureKana":"ﾌｸｵｶｹﾝ","cityKana":"ﾌｸｵｶｼﾐﾅﾐｸ","streetKana":"ﾜﾀﾞ","prefecture":"福岡県","city":"福岡市南区","street":"和田"},{"zipCode":"8111134","prefectureKana":"ﾌｸｵｶｹﾝ","cityKana":"ﾌｸｵｶｼｻﾜﾗｸ","streetKana":"ｲｲﾊﾞ","prefecture":"福岡県","city":"福岡市早良区","street":"飯場"},{"zipCode":"8111132","prefectureKana":"ﾌｸｵｶｹﾝ","cityKana":"ﾌｸｵｶｼｻﾜﾗｸ","streetKana":"ｲｼｶﾞﾏ","prefecture":"福岡県","city":"福岡市早良区","street":"石釜"},{"zipCode":"8111113","prefectureKana":"ﾌｸｵｶｹﾝ","cityKana":"ﾌｸｵｶｼｻﾜﾗｸ","streetKana":"ｲﾀﾔ","prefecture":"福岡県","city":"福岡市早良区","street":"板屋"},{"zipCode":"8111123","prefectureKana":"ﾌｸｵｶｹﾝ","cityKana":"ﾌｸｵｶｼｻﾜﾗｸ","streetKana":"ｳﾁﾉ","prefecture":"福岡県","city":"福岡市早良区","street":"内野"},{"zipCode":"8111112","prefectureKana":"ﾌｸｵｶｹﾝ","cityKana":"ﾌｸｵｶｼｻﾜﾗｸ","streetKana":"ｵｶｻｷﾞ","prefecture":"福岡県","city":"福岡市早良区","street":"小笠木"},{"zipCode":"8111124","prefectureKana":"ﾌｸｵｶｹﾝ","cityKana":"ﾌｸｵｶｼｻﾜﾗｸ","streetKana":"ｶﾅﾀｹ","prefecture":"福岡県","city":"福岡市早良区","street":"金武"},{"zipCode":"8111122","prefectureKana":"ﾌｸｵｶｹﾝ","cityKana":"ﾌｸｵｶｼｻﾜﾗｸ","streetKana":"ｻﾜﾗ","prefecture":"福岡県","city":"福岡市早良区","street":"早良"},{"zipCode":"8111114","prefectureKana":"ﾌｸｵｶｹﾝ","cityKana":"ﾌｸｵｶｼｻﾜﾗｸ","streetKana":"ｼｲﾊﾞ","prefecture":"福岡県","city":"福岡市早良区","street":"椎原"},{"zipCode":"8111103","prefectureKana":"ﾌｸｵｶｹﾝ","cityKana":"ﾌｸｵｶｼｻﾜﾗｸ","streetKana":"ｼｶ","prefecture":"福岡県","city":"福岡市早良区","street":"四箇"},{"zipCode":"8111101","prefectureKana":"ﾌｸｵｶｹﾝ","cityKana":"ﾌｸｵｶｼｻﾜﾗｸ","streetKana":"ｼｹﾞﾄﾞﾒ","prefecture":"福岡県","city":"福岡市早良区","street":"重留"},{"zipCode":"8111131","prefectureKana":"ﾌｸｵｶｹﾝ","cityKana":"ﾌｸｵｶｼｻﾜﾗｸ","streetKana":"ﾆｼ","prefecture":"福岡県","city":"福岡市早良区","street":"西"},{"zipCode":"8111121","prefectureKana":"ﾌｸｵｶｹﾝ","cityKana":"ﾌｸｵｶｼｻﾜﾗｸ","streetKana":"ﾆｼｲﾙﾍﾞ","prefecture":"福岡県","city":"福岡市早良区","street":"西入部"},{"zipCode":"8111102","prefectureKana":"ﾌｸｵｶｹﾝ","cityKana":"ﾌｸｵｶｼｻﾜﾗｸ","streetKana":"ﾋｶﾞｼｲﾙﾍﾞ","prefecture":"福岡県","city":"福岡市早良区","street":"東入部"},{"zipCode":"8111133","prefectureKana":"ﾌｸｵｶｹﾝ","cityKana":"ﾌｸｵｶｼｻﾜﾗｸ","streetKana":"ﾏｶﾞﾘﾌﾞﾁ","prefecture":"福岡県","city":"福岡市早良区","street":"曲渕"},{"zipCode":"8111111","prefectureKana":"ﾌｸｵｶｹﾝ","cityKana":"ﾌｸｵｶｼｻﾜﾗｸ","streetKana":"ﾜｷﾔﾏ","prefecture":"福岡県","city":"福岡市早良区","street":"脇山"},{"zipCode":"8113400","prefectureKana":"ﾌｸｵｶｹﾝ","cityKana":"ﾑﾅｶﾀｼ","streetKana":"ｲｶﾆｹｲｻｲｶﾞﾅｲﾊﾞｱｲ","prefecture":"福岡県","city":"宗像市","street":"以下に掲載がない場合"},{"zipCode":"8114162","prefectureKana":"ﾌｸｵｶｹﾝ","cityKana":"ﾑﾅｶﾀｼ","streetKana":"ｱｵﾊﾞﾀﾞｲ","prefecture":"福岡県","city":"宗像市","street":"青葉台"},{"zipCode":"8114146","prefectureKana":"ﾌｸｵｶｹﾝ","cityKana":"ﾑﾅｶﾀｼ","streetKana":"ｱｶﾏ","prefecture":"福岡県","city":"宗像市","street":"赤間"},{"zipCode":"8114185","prefectureKana":"ﾌｸｵｶｹﾝ","cityKana":"ﾑﾅｶﾀｼ","streetKana":"ｱｶﾏｴｷﾏｴ","prefecture":"福岡県","city":"宗像市","street":"赤間駅前"},{"zipCode":"8114176","prefectureKana":"ﾌｸｵｶｹﾝ","cityKana":"ﾑﾅｶﾀｼ","streetKana":"ｱｶﾏｶﾞｵｶ","prefecture":"福岡県","city":"宗像市","street":"赤間ケ丘"},{"zipCode":"8114148","prefectureKana":"ﾌｸｵｶｹﾝ","cityKana":"ﾑﾅｶﾀｼ","streetKana":"ｱｶﾏﾌﾞﾝｷｮｳﾏﾁ","prefecture":"福岡県","city":"宗像市","street":"赤間文教町"},{"zipCode":"8113415","prefectureKana":"ﾌｸｵｶｹﾝ","cityKana":"ﾑﾅｶﾀｼ","streetKana":"ｱｻﾉ","prefecture":"福岡県","city":"宗像市","street":"朝野"},{"zipCode":"8114161","prefectureKana":"ﾌｸｵｶｹﾝ","cityKana":"ﾑﾅｶﾀｼ","streetKana":"ｱｻﾏﾁ","prefecture":"福岡県","city":"宗像市","street":"朝町"},{"zipCode":"8114157","prefectureKana":"ﾌｸｵｶｹﾝ","cityKana":"ﾑﾅｶﾀｼ","streetKana":"ｱｽﾃｨ","prefecture":"福岡県","city":"宗像市","street":"アスティ"},{"zipCode":"8113401","prefectureKana":"ﾌｸｵｶｹﾝ","cityKana":"ﾑﾅｶﾀｼ","streetKana":"ｲｹｳﾗ","prefecture":"福岡県","city":"宗像市","street":"池浦"},{"zipCode":"8113515","prefectureKana":"ﾌｸｵｶｹﾝ","cityKana":"ﾑﾅｶﾀｼ","streetKana":"ｲｹﾀﾞ","prefecture":"福岡県","city":"宗像市","street":"池田"},{"zipCode":"8114147","prefectureKana":"ﾌｸｵｶｹﾝ","cityKana":"ﾑﾅｶﾀｼ","streetKana":"ｲｼﾏﾙ","prefecture":"福岡県","city":"宗像市","street":"石丸"},{"zipCode":"8114142","prefectureKana":"ﾌｸｵｶｹﾝ","cityKana":"ﾑﾅｶﾀｼ","streetKana":"ｲｽﾞﾐｶﾞｵｶ","prefecture":"福岡県","city":"宗像市","street":"泉ケ丘"},{"zipCode":"8113406","prefectureKana":"ﾌｸｵｶｹﾝ","cityKana":"ﾑﾅｶﾀｼ","streetKana":"ｲﾅﾓﾄ","prefecture":"福岡県","city":"宗像市","street":"稲元"},{"zipCode":"8113502","prefectureKana":"ﾌｸｵｶｹﾝ","cityKana":"ﾑﾅｶﾀｼ","streetKana":"ｴｸﾞﾁ","prefecture":"福岡県","city":"宗像市","street":"江口"},{"zipCode":"8114177","prefectureKana":"ﾌｸｵｶｹﾝ","cityKana":"ﾑﾅｶﾀｼ","streetKana":"ｵｳﾋﾞﾀﾞｲ","prefecture":"福岡県","city":"宗像市","street":"桜美台"},{"zipCode":"8113422","prefectureKana":"ﾌｸｵｶｹﾝ","cityKana":"ﾑﾅｶﾀｼ","streetKana":"ｵｳﾏﾙ","prefecture":"福岡県","city":"宗像市","street":"王丸"},{"zipCode":"8113432","prefectureKana":"ﾌｸｵｶｹﾝ","cityKana":"ﾑﾅｶﾀｼ","streetKana":"ｵｵｲ","prefecture":"福岡県","city":"宗像市","street":"大井"},{"zipCode":"8113433","prefectureKana":"ﾌｸｵｶｹﾝ","cityKana":"ﾑﾅｶﾀｼ","streetKana":"ｵｵｲﾀﾞｲ","prefecture":"福岡県","city":"宗像市","street":"大井台"},{"zipCode":"8113440","prefectureKana":"ﾌｸｵｶｹﾝ","cityKana":"ﾑﾅｶﾀｼ","streetKana":"ｵｵｲﾐﾅﾐ","prefecture":"福岡県","city":"宗像市","street":"大井南"},{"zipCode":"8113701","prefectureKana":"ﾌｸｵｶｹﾝ","cityKana":"ﾑﾅｶﾀｼ","streetKana":"ｵｵｼﾏ","prefecture":"福岡県","city":"宗像市","street":"大島"},{"zipCode":"8114141","prefectureKana":"ﾌｸｵｶｹﾝ","cityKana":"ﾑﾅｶﾀｼ","streetKana":"ｵｵﾀﾆ","prefecture":"福岡県","city":"宗像市","street":"大谷"},{"zipCode":"8113421","prefectureKana":"ﾌｸｵｶｹﾝ","cityKana":"ﾑﾅｶﾀｼ","streetKana":"ｵｵﾌﾞ","prefecture":"福岡県","city":"宗像市","street":"大穂"},{"zipCode":"8113402","prefectureKana":"ﾌｸｵｶｹﾝ","cityKana":"ﾑﾅｶﾀｼ","streetKana":"ｶﾄｳ","prefecture":"福岡県","city":"宗像市","street":"河東"},{"zipCode":"8113512","prefectureKana":"ﾌｸｵｶｹﾝ","cityKana":"ﾑﾅｶﾀｼ","streetKana":"ｶﾈｻﾞｷ","prefecture":"福岡県","city":"宗像市","street":"鐘崎"},{"zipCode":"8113437","prefectureKana":"ﾌｸｵｶｹﾝ","cityKana":"ﾑﾅｶﾀｼ","streetKana":"ｸﾊﾞﾗ","prefecture":"福岡県","city":"宗像市","street":"久原"},{"zipCode":"8114184","prefectureKana":"ﾌｸｵｶｹﾝ","cityKana":"ﾑﾅｶﾀｼ","streetKana":"ｸﾘｴｲﾄ","prefecture":"福岡県","city":"宗像市","street":"くりえいと"},{"zipCode":"8113516","prefectureKana":"ﾌｸｵｶｹﾝ","cityKana":"ﾑﾅｶﾀｼ","streetKana":"ｺｳｴﾝﾄﾞｵﾘ","prefecture":"福岡県","city":"宗像市","street":"公園通り"},{"zipCode":"8113513","prefectureKana":"ﾌｸｵｶｹﾝ","cityKana":"ﾑﾅｶﾀｼ","streetKana":"ｺｳｼﾞｮｳ","prefecture":"福岡県","city":"宗像市","street":"上八"},{"zipCode":"8113501","prefectureKana":"ﾌｸｵｶｹﾝ","cityKana":"ﾑﾅｶﾀｼ","streetKana":"ｺｳﾉﾐﾅﾄ","prefecture":"福岡県","city":"宗像市","street":"神湊"},{"zipCode":"8114165","prefectureKana":"ﾌｸｵｶｹﾝ","cityKana":"ﾑﾅｶﾀｼ","streetKana":"ｺｳﾘｮｳﾀﾞｲ","prefecture":"福岡県","city":"宗像市","street":"広陵台"},{"zipCode":"8114173","prefectureKana":"ﾌｸｵｶｹﾝ","cityKana":"ﾑﾅｶﾀｼ","streetKana":"ｻｶｴﾏﾁ","prefecture":"福岡県","city":"宗像市","street":"栄町"},{"zipCode":"8114166","prefectureKana":"ﾌｸｵｶｹﾝ","cityKana":"ﾑﾅｶﾀｼ","streetKana":"ｻｸﾗ","prefecture":"福岡県","city":"宗像市","street":"桜"},{"zipCode":"8114143","prefectureKana":"ﾌｸｵｶｹﾝ","cityKana":"ﾑﾅｶﾀｼ","streetKana":"ｻﾌﾞﾛｳﾏﾙ","prefecture":"福岡県","city":"宗像市","street":"三郎丸"},{"zipCode":"8113511","prefectureKana":"ﾌｸｵｶｹﾝ","cityKana":"ﾑﾅｶﾀｼ","streetKana":"ｼﾞﾉｼﾏ","prefecture":"福岡県","city":"宗像市","street":"地島"},{"zipCode":"8114163","prefectureKana":"ﾌｸｵｶｹﾝ","cityKana":"ﾑﾅｶﾀｼ","streetKana":"ｼﾞﾕｳｶﾞｵｶ","prefecture":"福岡県","city":"宗像市","street":"自由ケ丘"},{"zipCode":"8114174","prefectureKana":"ﾌｸｵｶｹﾝ","cityKana":"ﾑﾅｶﾀｼ","streetKana":"ｼﾞﾕｳｶﾞｵｶﾆｼﾏﾁ","prefecture":"福岡県","city":"宗像市","street":"自由ケ丘西町"},{"zipCode":"8114156","prefectureKana":"ﾌｸｵｶｹﾝ","cityKana":"ﾑﾅｶﾀｼ","streetKana":"ｼﾞﾕｳｶﾞｵｶﾐﾅﾐ","prefecture":"福岡県","city":"宗像市","street":"自由ケ丘南"},{"zipCode":"8114182","prefectureKana":"ﾌｸｵｶｹﾝ","cityKana":"ﾑﾅｶﾀｼ","streetKana":"ｼﾞｮｳｶﾞﾀﾆ","prefecture":"福岡県","city":"宗像市","street":"城ケ谷"},{"zipCode":"8113404","prefectureKana":"ﾌｸｵｶｹﾝ","cityKana":"ﾑﾅｶﾀｼ","streetKana":"ｼﾞｮｳｾｲｶﾞｵｶ","prefecture":"福岡県","city":"宗像市","street":"城西ケ丘"},{"zipCode":"8114151","prefectureKana":"ﾌｸｵｶｹﾝ","cityKana":"ﾑﾅｶﾀｼ","streetKana":"ｼﾞｮｳﾅﾝｶﾞｵｶ","prefecture":"福岡県","city":"宗像市","street":"城南ケ丘"},{"zipCode":"8114181","prefectureKana":"ﾌｸｵｶｹﾝ","cityKana":"ﾑﾅｶﾀｼ","streetKana":"ｼﾞｮｳﾔﾏﾆｭｰﾀｳﾝ","prefecture":"福岡県","city":"宗像市","street":"城山ニュータウン"},{"zipCode":"8113408","prefectureKana":"ﾌｸｵｶｹﾝ","cityKana":"ﾑﾅｶﾀｼ","streetKana":"ｼｮｳﾖｳﾀﾞｲ","prefecture":"福岡県","city":"宗像市","street":"樟陽台"},{"zipCode":"8113405","prefectureKana":"ﾌｸｵｶｹﾝ","cityKana":"ﾑﾅｶﾀｼ","streetKana":"ｽｴ","prefecture":"福岡県","city":"宗像市","street":"須恵"},{"zipCode":"8114175","prefectureKana":"ﾌｸｵｶｹﾝ","cityKana":"ﾑﾅｶﾀｼ","streetKana":"ﾀｸ","prefecture":"福岡県","city":"宗像市","street":"田久"},{"zipCode":"8113431","prefectureKana":"ﾌｸｵｶｹﾝ","cityKana":"ﾑﾅｶﾀｼ","streetKana":"ﾀｸﾞﾏ","prefecture":"福岡県","city":"宗像市","street":"田熊"},{"zipCode":"8114152","prefectureKana":"ﾌｸｵｶｹﾝ","cityKana":"ﾑﾅｶﾀｼ","streetKana":"ﾀｹﾏﾙ","prefecture":"福岡県","city":"宗像市","street":"武丸"},{"zipCode":"8113505","prefectureKana":"ﾌｸｵｶｹﾝ","cityKana":"ﾑﾅｶﾀｼ","streetKana":"ﾀｼﾏ","prefecture":"福岡県","city":"宗像市","street":"田島"},{"zipCode":"8113514","prefectureKana":"ﾌｸｵｶｹﾝ","cityKana":"ﾑﾅｶﾀｼ","streetKana":"ﾀﾉ","prefecture":"福岡県","city":"宗像市","street":"田野"},{"zipCode":"8113507","prefectureKana":"ﾌｸｵｶｹﾝ","cityKana":"ﾑﾅｶﾀｼ","streetKana":"ﾀﾚ","prefecture":"福岡県","city":"宗像市","street":"多禮"},{"zipCode":"8114183","prefectureKana":"ﾌｸｵｶｹﾝ","cityKana":"ﾑﾅｶﾀｼ","streetKana":"ﾂﾁｱﾅ","prefecture":"福岡県","city":"宗像市","street":"土穴"},{"zipCode":"8113407","prefectureKana":"ﾌｸｵｶｹﾝ","cityKana":"ﾑﾅｶﾀｼ","streetKana":"ﾃﾝﾋﾟｮｳﾀﾞｲ","prefecture":"福岡県","city":"宗像市","street":"天平台"},{"zipCode":"8113436","prefectureKana":"ﾌｸｵｶｹﾝ","cityKana":"ﾑﾅｶﾀｼ","streetKana":"ﾄｳｺﾞｳ","prefecture":"福岡県","city":"宗像市","street":"東郷"},{"zipCode":"8114164","prefectureKana":"ﾌｸｵｶｹﾝ","cityKana":"ﾑﾅｶﾀｼ","streetKana":"ﾄｸｼｹﾞ","prefecture":"福岡県","city":"宗像市","street":"徳重"},{"zipCode":"8114155","prefectureKana":"ﾌｸｵｶｹﾝ","cityKana":"ﾑﾅｶﾀｼ","streetKana":"ﾅｺﾞﾘ","prefecture":"福岡県","city":"宗像市","street":"名残"},{"zipCode":"8113423","prefectureKana":"ﾌｸｵｶｹﾝ","cityKana":"ﾑﾅｶﾀｼ","streetKana":"ﾉｻｶ","prefecture":"福岡県","city":"宗像市","street":"野坂"},{"zipCode":"8114171","prefectureKana":"ﾌｸｵｶｹﾝ","cityKana":"ﾑﾅｶﾀｼ","streetKana":"ﾊﾔﾏ","prefecture":"福岡県","city":"宗像市","street":"葉山"},{"zipCode":"8113424","prefectureKana":"ﾌｸｵｶｹﾝ","cityKana":"ﾑﾅｶﾀｼ","streetKana":"ﾊﾙﾏﾁ","prefecture":"福岡県","city":"宗像市","street":"原町"},{"zipCode":"8113403","prefectureKana":"ﾌｸｵｶｹﾝ","cityKana":"ﾑﾅｶﾀｼ","streetKana":"ﾋｶﾘｶﾞｵｶ","prefecture":"福岡県","city":"宗像市","street":"ひかりケ丘"},{"zipCode":"8113425","prefectureKana":"ﾌｸｵｶｹﾝ","cityKana":"ﾑﾅｶﾀｼ","streetKana":"ﾋﾉｻﾄ","prefecture":"福岡県","city":"宗像市","street":"日の里"},{"zipCode":"8113412","prefectureKana":"ﾌｸｵｶｹﾝ","cityKana":"ﾑﾅｶﾀｼ","streetKana":"ﾋﾞｮｳﾄﾞｳｼﾞ","prefecture":"福岡県","city":"宗像市","street":"平等寺"},{"zipCode":"8113430","prefectureKana":"ﾌｸｵｶｹﾝ","cityKana":"ﾑﾅｶﾀｼ","streetKana":"ﾋﾗｲ","prefecture":"福岡県","city":"宗像市","street":"平井"},{"zipCode":"8113504","prefectureKana":"ﾌｸｵｶｹﾝ","cityKana":"ﾑﾅｶﾀｼ","streetKana":"ﾌｶﾀ","prefecture":"福岡県","city":"宗像市","street":"深田"},{"zipCode":"8114154","prefectureKana":"ﾌｸｵｶｹﾝ","cityKana":"ﾑﾅｶﾀｼ","streetKana":"ﾌｼﾞﾜﾗ","prefecture":"福岡県","city":"宗像市","street":"冨地原"},{"zipCode":"8114113","prefectureKana":"ﾌｸｵｶｹﾝ","cityKana":"ﾑﾅｶﾀｼ","streetKana":"ﾏｶﾞﾘ(25､35)","prefecture":"福岡県","city":"宗像市","street":"曲（２５、３５）"},{"zipCode":"8113413","prefectureKana":"ﾌｸｵｶｹﾝ","cityKana":"ﾑﾅｶﾀｼ","streetKana":"ﾏｶﾞﾘ(ｿﾉﾀ)","prefecture":"福岡県","city":"宗像市","street":"曲（その他）"},{"zipCode":"8113439","prefectureKana":"ﾌｸｵｶｹﾝ","cityKana":"ﾑﾅｶﾀｼ","streetKana":"ﾐｸﾗ","prefecture":"福岡県","city":"宗像市","street":"三倉"},{"zipCode":"8113414","prefectureKana":"ﾌｸｵｶｹﾝ","cityKana":"ﾑﾅｶﾀｼ","streetKana":"ﾐﾂｵｶ","prefecture":"福岡県","city":"宗像市","street":"光岡"},{"zipCode":"8114172","prefectureKana":"ﾌｸｵｶｹﾝ","cityKana":"ﾑﾅｶﾀｼ","streetKana":"ﾐﾄﾞﾘﾏﾁ","prefecture":"福岡県","city":"宗像市","street":"緑町"},{"zipCode":"8113416","prefectureKana":"ﾌｸｵｶｹﾝ","cityKana":"ﾑﾅｶﾀｼ","streetKana":"ﾐﾔﾀ","prefecture":"福岡県","city":"宗像市","street":"宮田"},{"zipCode":"8113503","prefectureKana":"ﾌｸｵｶｹﾝ","cityKana":"ﾑﾅｶﾀｼ","streetKana":"ﾑﾀｼﾞﾘ","prefecture":"福岡県","city":"宗像市","street":"牟田尻"},{"zipCode":"8113434","prefectureKana":"ﾌｸｵｶｹﾝ","cityKana":"ﾑﾅｶﾀｼ","streetKana":"ﾑﾗﾔﾏﾀﾞ","prefecture":"福岡県","city":"宗像市","street":"村山田"},{"zipCode":"8113435","prefectureKana":"ﾌｸｵｶｹﾝ","cityKana":"ﾑﾅｶﾀｼ","streetKana":"ﾓﾁﾔﾏ","prefecture":"福岡県","city":"宗像市","street":"用山"},{"zipCode":"8113411","prefectureKana":"ﾌｸｵｶｹﾝ","cityKana":"ﾑﾅｶﾀｼ","streetKana":"ﾔﾏﾀﾞ","prefecture":"福岡県","city":"宗像市","street":"山田"},{"zipCode":"8113506","prefectureKana":"ﾌｸｵｶｹﾝ","cityKana":"ﾑﾅｶﾀｼ","streetKana":"ﾖｼﾀﾞ","prefecture":"福岡県","city":"宗像市","street":"吉田"},{"zipCode":"8114153","prefectureKana":"ﾌｸｵｶｹﾝ","cityKana":"ﾑﾅｶﾀｼ","streetKana":"ﾖｼﾄﾞﾒ","prefecture":"福岡県","city":"宗像市","street":"吉留"},{"zipCode":"8114145","prefectureKana":"ﾌｸｵｶｹﾝ","cityKana":"ﾑﾅｶﾀｼ","streetKana":"ﾘｮｳｹﾞﾝｼﾞ","prefecture":"福岡県","city":"宗像市","street":"陵厳寺"},{"zipCode":"8113438","prefectureKana":"ﾌｸｵｶｹﾝ","cityKana":"ﾑﾅｶﾀｼ","streetKana":"ﾜｶﾐﾀﾞｲ","prefecture":"福岡県","city":"宗像市","street":"和歌美台"},{"zipCode":"8113100","prefectureKana":"ﾌｸｵｶｹﾝ","cityKana":"ｺｶﾞｼ","streetKana":"ｲｶﾆｹｲｻｲｶﾞﾅｲﾊﾞｱｲ","prefecture":"福岡県","city":"古賀市","street":"以下に掲載がない場合"},{"zipCode":"8113134","prefectureKana":"ﾌｸｵｶｹﾝ","cityKana":"ｺｶﾞｼ","streetKana":"ｱｵﾔｷﾞ","prefecture":"福岡県","city":"古賀市","street":"青柳"},{"zipCode":"8113133","prefectureKana":"ﾌｸｵｶｹﾝ","cityKana":"ｺｶﾞｼ","streetKana":"ｱｵﾔｷﾞﾏﾁ","prefecture":"福岡県","city":"古賀市","street":"青柳町"},{"zipCode":"8113136","prefectureKana":"ﾌｸｵｶｹﾝ","cityKana":"ｺｶﾞｼ","streetKana":"ｲﾄｶﾞｳﾗ","prefecture":"福岡県","city":"古賀市","street":"糸ケ浦"},{"zipCode":"8113131","prefectureKana":"ﾌｸｵｶｹﾝ","cityKana":"ｺｶﾞｼ","streetKana":"ｲﾏｻﾞｲｹ","prefecture":"福岡県","city":"古賀市","street":"今在家"},{"zipCode":"8113117","prefectureKana":"ﾌｸｵｶｹﾝ","cityKana":"ｺｶﾞｼ","streetKana":"ｲﾏﾉｼｮｳ","prefecture":"福岡県","city":"古賀市","street":"今の庄"},{"zipCode":"8113102","prefectureKana":"ﾌｸｵｶｹﾝ","cityKana":"ｺｶﾞｼ","streetKana":"ｴｷﾋｶﾞｼ","prefecture":"福岡県","city":"古賀市","street":"駅東"},{"zipCode":"8113135","prefectureKana":"ﾌｸｵｶｹﾝ","cityKana":"ｺｶﾞｼ","streetKana":"ｵﾀﾞｹ","prefecture":"福岡県","city":"古賀市","street":"小竹"},{"zipCode":"8113126","prefectureKana":"ﾌｸｵｶｹﾝ","cityKana":"ｺｶﾞｼ","streetKana":"ｵﾔﾏﾀﾞ","prefecture":"福岡県","city":"古賀市","street":"小山田"},{"zipCode":"8113104","prefectureKana":"ﾌｸｵｶｹﾝ","cityKana":"ｺｶﾞｼ","streetKana":"ｶﾂﾞﾙｶﾞｵｶ","prefecture":"福岡県","city":"古賀市","street":"花鶴丘"},{"zipCode":"8113132","prefectureKana":"ﾌｸｵｶｹﾝ","cityKana":"ｺｶﾞｼ","streetKana":"ｶﾜﾊﾞﾙ","prefecture":"福岡県","city":"古賀市","street":"川原"},{"zipCode":"8113115","prefectureKana":"ﾌｸｵｶｹﾝ","cityKana":"ｺｶﾞｼ","streetKana":"ｸﾎﾞ","prefecture":"福岡県","city":"古賀市","street":"久保"},{"zipCode":"8113128","prefectureKana":"ﾌｸｵｶｹﾝ","cityKana":"ｺｶﾞｼ","streetKana":"ｹﾞﾝﾎﾞｳｴﾝ","prefecture":"福岡県","city":"古賀市","street":"玄望園"},{"zipCode":"8113137","prefectureKana":"ﾌｸｵｶｹﾝ","cityKana":"ｺｶﾞｼ","streetKana":"ｺｶﾞ","prefecture":"福岡県","city":"古賀市","street":"古賀"},{"zipCode":"8113122","prefectureKana":"ﾌｸｵｶｹﾝ","cityKana":"ｺｶﾞｼ","streetKana":"ｺﾓﾉ","prefecture":"福岡県","city":"古賀市","street":"薦野"},{"zipCode":"8113105","prefectureKana":"ﾌｸｵｶｹﾝ","cityKana":"ｺｶﾞｼ","streetKana":"ｼｼﾌﾞ","prefecture":"福岡県","city":"古賀市","street":"鹿部"},{"zipCode":"8113116","prefectureKana":"ﾌｸｵｶｹﾝ","cityKana":"ｺｶﾞｼ","streetKana":"ｼｮｳ","prefecture":"福岡県","city":"古賀市","street":"庄"},{"zipCode":"8113118","prefectureKana":"ﾌｸｵｶｹﾝ","cityKana":"ｺｶﾞｼ","streetKana":"ｼﾝｸﾎﾞ","prefecture":"福岡県","city":"古賀市","street":"新久保"},{"zipCode":"8113127","prefectureKana":"ﾌｸｵｶｹﾝ","cityKana":"ｺｶﾞｼ","streetKana":"ｼﾝﾊﾞﾙ","prefecture":"福岡県","city":"古賀市","street":"新原"},{"zipCode":"8113125","prefectureKana":"ﾌｸｵｶｹﾝ","cityKana":"ｺｶﾞｼ","streetKana":"ﾀﾆﾔﾏ","prefecture":"福岡県","city":"古賀市","street":"谷山"},{"zipCode":"8113113","prefectureKana":"ﾌｸｵｶｹﾝ","cityKana":"ｺｶﾞｼ","streetKana":"ﾁﾄﾞﾘ","prefecture":"福岡県","city":"古賀市","street":"千鳥"},{"zipCode":"8113103","prefectureKana":"ﾌｸｵｶｹﾝ","cityKana":"ｺｶﾞｼ","streetKana":"ﾁｭｳｵｳ","prefecture":"福岡県","city":"古賀市","street":"中央"},{"zipCode":"8113101","prefectureKana":"ﾌｸｵｶｹﾝ","cityKana":"ｺｶﾞｼ","streetKana":"ﾃﾝｼﾞﾝ","prefecture":"福岡県","city":"古賀市","street":"天神"},{"zipCode":"8113123","prefectureKana":"ﾌｸｵｶｹﾝ","cityKana":"ｺｶﾞｼ","streetKana":"ﾈﾀﾋﾞ","prefecture":"福岡県","city":"古賀市","street":"米多比"},{"zipCode":"8113112","prefectureKana":"ﾌｸｵｶｹﾝ","cityKana":"ｺｶﾞｼ","streetKana":"ﾊﾅﾐﾋｶﾞｼ","prefecture":"福岡県","city":"古賀市","street":"花見東"},{"zipCode":"8113111","prefectureKana":"ﾌｸｵｶｹﾝ","cityKana":"ｺｶﾞｼ","streetKana":"ﾊﾅﾐﾐﾅﾐ","prefecture":"福岡県","city":"古賀市","street":"花見南"},{"zipCode":"8113106","prefectureKana":"ﾌｸｵｶｹﾝ","cityKana":"ｺｶﾞｼ","streetKana":"ﾋﾖｼ","prefecture":"福岡県","city":"古賀市","street":"日吉"},{"zipCode":"8113114","prefectureKana":"ﾌｸｵｶｹﾝ","cityKana":"ｺｶﾞｼ","streetKana":"ﾏｲﾉｻﾄ","prefecture":"福岡県","city":"古賀市","street":"舞の里"},{"zipCode":"8113107","prefectureKana":"ﾌｸｵｶｹﾝ","cityKana":"ｺｶﾞｼ","streetKana":"ﾐｱｹ","prefecture":"福岡県","city":"古賀市","street":"美明"},{"zipCode":"8113119","prefectureKana":"ﾌｸｵｶｹﾝ","cityKana":"ｺｶﾞｼ","streetKana":"ﾐｻﾄ","prefecture":"福岡県","city":"古賀市","street":"美郷"},{"zipCode":"8113121","prefectureKana":"ﾌｸｵｶｹﾝ","cityKana":"ｺｶﾞｼ","streetKana":"ﾑｼﾛｳﾁ","prefecture":"福岡県","city":"古賀市","street":"筵内"},{"zipCode":"8113124","prefectureKana":"ﾌｸｵｶｹﾝ","cityKana":"ｺｶﾞｼ","streetKana":"ﾔｸｵｳｼﾞ","prefecture":"福岡県","city":"古賀市","street":"薬王寺"},{"zipCode":"8113200","prefectureKana":"ﾌｸｵｶｹﾝ","cityKana":"ﾌｸﾂｼ","streetKana":"ｲｶﾆｹｲｻｲｶﾞﾅｲﾊﾞｱｲ","prefecture":"福岡県","city":"福津市","street":"以下に掲載がない場合"},{"zipCode":"8113213","prefectureKana":"ﾌｸｵｶｹﾝ","cityKana":"ﾌｸﾂｼ","streetKana":"ﾌｸﾂｼﾉﾂｷﾞﾆﾊﾞﾝﾁｶﾞｸﾙﾊﾞｱｲ","prefecture":"福岡県","city":"福津市","street":"福津市の次に番地がくる場合"},{"zipCode":"8113220","prefectureKana":"ﾌｸｵｶｹﾝ","cityKana":"ﾌｸﾂｼ","streetKana":"ｱｹﾎﾞﾉ","prefecture":"福岡県","city":"福津市","street":"あけぼの"},{"zipCode":"8113202","prefectureKana":"ﾌｸｵｶｹﾝ","cityKana":"ﾌｸﾂｼ","streetKana":"ｱｾﾞﾏﾁ","prefecture":"福岡県","city":"福津市","street":"畦町"},{"zipCode":"8113301","prefectureKana":"ﾌｸｵｶｹﾝ","cityKana":"ﾌｸﾂｼ","streetKana":"ｱﾗｼﾞ","prefecture":"福岡県","city":"福津市","street":"在自"},{"zipCode":"8113205","prefectureKana":"ﾌｸｵｶｹﾝ","cityKana":"ﾌｸﾂｼ","streetKana":"ｳﾁﾄﾞﾉ","prefecture":"福岡県","city":"福津市","street":"内殿"},{"zipCode":"8113302","prefectureKana":"ﾌｸｵｶｹﾝ","cityKana":"ﾌｸﾂｼ","streetKana":"ｵｵｲｼ","prefecture":"福岡県","city":"福津市","street":"大石"},{"zipCode":"8113226","prefectureKana":"ﾌｸｵｶｹﾝ","cityKana":"ﾌｸﾂｼ","streetKana":"ｵﾀﾞｹ","prefecture":"福岡県","city":"福津市","street":"小竹"},{"zipCode":"8113521","prefectureKana":"ﾌｸｵｶｹﾝ","cityKana":"ﾌｸﾂｼ","streetKana":"ｶﾂｳﾗ","prefecture":"福岡県","city":"福津市","street":"勝浦"},{"zipCode":"8113207","prefectureKana":"ﾌｸｵｶｹﾝ","cityKana":"ﾌｸﾂｼ","streetKana":"ｶﾐｻｲｺﾞｳ","prefecture":"福岡県","city":"福津市","street":"上西郷"},{"zipCode":"8113223","prefectureKana":"ﾌｸｵｶｹﾝ","cityKana":"ﾌｸﾂｼ","streetKana":"ｺｳﾖｳﾀﾞｲ","prefecture":"福岡県","city":"福津市","street":"光陽台"},{"zipCode":"8113228","prefectureKana":"ﾌｸｵｶｹﾝ","cityKana":"ﾌｸﾂｼ","streetKana":"ｺｳﾖｳﾀﾞｲﾐﾅﾐ","prefecture":"福岡県","city":"福津市","street":"光陽台南"},{"zipCode":"8113229","prefectureKana":"ﾌｸｵｶｹﾝ","cityKana":"ﾌｸﾂｼ","streetKana":"ｻｸﾗｶﾞﾜ","prefecture":"福岡県","city":"福津市","street":"桜川"},{"zipCode":"8113204","prefectureKana":"ﾌｸｵｶｹﾝ","cityKana":"ﾌｸﾂｼ","streetKana":"ｼｬﾘｸﾗ","prefecture":"福岡県","city":"福津市","street":"舎利蔵"},{"zipCode":"8113303","prefectureKana":"ﾌｸｵｶｹﾝ","cityKana":"ﾌｸﾂｼ","streetKana":"ｽﾀﾞﾀ","prefecture":"福岡県","city":"福津市","street":"須多田"},{"zipCode":"8113227","prefectureKana":"ﾌｸｵｶｹﾝ","cityKana":"ﾌｸﾂｼ","streetKana":"ﾀｶﾋﾗ","prefecture":"福岡県","city":"福津市","street":"高平"},{"zipCode":"8113217","prefectureKana":"ﾌｸｵｶｹﾝ","cityKana":"ﾌｸﾂｼ","streetKana":"ﾁｭｳｵｳ","prefecture":"福岡県","city":"福津市","street":"中央"},{"zipCode":"8113222","prefectureKana":"ﾌｸｵｶｹﾝ","cityKana":"ﾌｸﾂｼ","streetKana":"ﾂﾏﾙ","prefecture":"福岡県","city":"福津市","street":"津丸"},{"zipCode":"8113304","prefectureKana":"ﾌｸｵｶｹﾝ","cityKana":"ﾌｸﾂｼ","streetKana":"ﾂﾔｻﾞｷ","prefecture":"福岡県","city":"福津市","street":"津屋崎"},{"zipCode":"8113224","prefectureKana":"ﾌｸｵｶｹﾝ","cityKana":"ﾌｸﾂｼ","streetKana":"ﾃﾋﾞｶ","prefecture":"福岡県","city":"福津市","street":"手光"},{"zipCode":"8113218","prefectureKana":"ﾌｸｵｶｹﾝ","cityKana":"ﾌｸﾂｼ","streetKana":"ﾃﾋﾞｶﾐﾅﾐ","prefecture":"福岡県","city":"福津市","street":"手光南"},{"zipCode":"8113219","prefectureKana":"ﾌｸｵｶｹﾝ","cityKana":"ﾌｸﾂｼ","streetKana":"ﾆｼﾌｸﾏ","prefecture":"福岡県","city":"福津市","street":"西福間"},{"zipCode":"8113522","prefectureKana":"ﾌｸｵｶｹﾝ","cityKana":"ﾌｸﾂｼ","streetKana":"ﾇﾔﾏ","prefecture":"福岡県","city":"福津市","street":"奴山"},{"zipCode":"8113214","prefectureKana":"ﾌｸｵｶｹﾝ","cityKana":"ﾌｸﾂｼ","streetKana":"ﾊﾅﾐｶﾞｵｶ","prefecture":"福岡県","city":"福津市","street":"花見が丘"},{"zipCode":"8113216","prefectureKana":"ﾌｸｵｶｹﾝ","cityKana":"ﾌｸﾂｼ","streetKana":"ﾊﾅﾐｶﾞﾊﾏ","prefecture":"福岡県","city":"福津市","street":"花見が浜"},{"zipCode":"8113215","prefectureKana":"ﾌｸｵｶｹﾝ","cityKana":"ﾌｸﾂｼ","streetKana":"ﾊﾅﾐﾉｻﾄ","prefecture":"福岡県","city":"福津市","street":"花見の里"},{"zipCode":"8113225","prefectureKana":"ﾌｸｵｶｹﾝ","cityKana":"ﾌｸﾂｼ","streetKana":"ﾋｶﾞｼﾌｸﾏ","prefecture":"福岡県","city":"福津市","street":"東福間"},{"zipCode":"8113206","prefectureKana":"ﾌｸｵｶｹﾝ","cityKana":"ﾌｸﾂｼ","streetKana":"ﾋｻｽｴ","prefecture":"福岡県","city":"福津市","street":"久末"},{"zipCode":"8113209","prefectureKana":"ﾌｸｵｶｹﾝ","cityKana":"ﾌｸﾂｼ","streetKana":"ﾋﾏｷﾉ","prefecture":"福岡県","city":"福津市","street":"日蒔野"},{"zipCode":"8113208","prefectureKana":"ﾌｸｵｶｹﾝ","cityKana":"ﾌｸﾂｼ","streetKana":"ﾌｸﾏｴｷﾋｶﾞｼ","prefecture":"福岡県","city":"福津市","street":"福間駅東"},{"zipCode":"8113212","prefectureKana":"ﾌｸｵｶｹﾝ","cityKana":"ﾌｸﾂｼ","streetKana":"ﾌｸﾏﾐﾅﾐ","prefecture":"福岡県","city":"福津市","street":"福間南"},{"zipCode":"8113308","prefectureKana":"ﾌｸｵｶｹﾝ","cityKana":"ﾌｸﾂｼ","streetKana":"ﾎｼｶﾞｵｶ","prefecture":"福岡県","city":"福津市","street":"星ケ丘"},{"zipCode":"8113305","prefectureKana":"ﾌｸｵｶｹﾝ","cityKana":"ﾌｸﾂｼ","streetKana":"ﾐﾔｼﾞ","prefecture":"福岡県","city":"福津市","street":"宮司"},{"zipCode":"8113312","prefectureKana":"ﾌｸｵｶｹﾝ","cityKana":"ﾌｸﾂｼ","streetKana":"ﾐﾔｼﾞｶﾞｵｶ","prefecture":"福岡県","city":"福津市","street":"宮司ヶ丘"},{"zipCode":"8113311","prefectureKana":"ﾌｸｵｶｹﾝ","cityKana":"ﾌｸﾂｼ","streetKana":"ﾐﾔｼﾞﾊﾏ","prefecture":"福岡県","city":"福津市","street":"宮司浜"},{"zipCode":"8113309","prefectureKana":"ﾌｸｵｶｹﾝ","cityKana":"ﾌｸﾂｼ","streetKana":"ﾐﾔｼﾞﾓﾄﾏﾁ","prefecture":"福岡県","city":"福津市","street":"宮司元町"},{"zipCode":"8113203","prefectureKana":"ﾌｸｵｶｹﾝ","cityKana":"ﾌｸﾂｼ","streetKana":"ﾓﾄｷﾞ","prefecture":"福岡県","city":"福津市","street":"本木"},{"zipCode":"8113201","prefectureKana":"ﾌｸｵｶｹﾝ","cityKana":"ﾌｸﾂｼ","streetKana":"ﾔﾂﾅﾐ","prefecture":"福岡県","city":"福津市","street":"八並"},{"zipCode":"8113306","prefectureKana":"ﾌｸｵｶｹﾝ","cityKana":"ﾌｸﾂｼ","streetKana":"ﾕｸｴ","prefecture":"福岡県","city":"福津市","street":"生家"},{"zipCode":"8113211","prefectureKana":"ﾌｸｵｶｹﾝ","cityKana":"ﾌｸﾂｼ","streetKana":"ﾕﾐﾉｻﾄ","prefecture":"福岡県","city":"福津市","street":"有弥の里"},{"zipCode":"8113221","prefectureKana":"ﾌｸｵｶｹﾝ","cityKana":"ﾌｸﾂｼ","streetKana":"ﾜｶｷﾞﾀﾞｲ","prefecture":"福岡県","city":"福津市","street":"若木台"},{"zipCode":"8113307","prefectureKana":"ﾌｸｵｶｹﾝ","cityKana":"ﾌｸﾂｼ","streetKana":"ﾜﾀﾘ","prefecture":"福岡県","city":"福津市","street":"渡"},{"zipCode":"8111200","prefectureKana":"ﾌｸｵｶｹﾝ","cityKana":"ﾅｶｶﾞﾜｼ","streetKana":"ｲｶﾆｹｲｻｲｶﾞﾅｲﾊﾞｱｲ","prefecture":"福岡県","city":"那珂川市","street":"以下に掲載がない場合"},{"zipCode":"8111224","prefectureKana":"ﾌｸｵｶｹﾝ","cityKana":"ﾅｶｶﾞﾜｼ","streetKana":"ｱﾝﾄｸ","prefecture":"福岡県","city":"那珂川市","street":"安徳"},{"zipCode":"8111233","prefectureKana":"ﾌｸｵｶｹﾝ","cityKana":"ﾅｶｶﾞﾜｼ","streetKana":"ｲﾁﾉｾ","prefecture":"福岡県","city":"那珂川市","street":"市ノ瀬"},{"zipCode":"8111211","prefectureKana":"ﾌｸｵｶｹﾝ","cityKana":"ﾅｶｶﾞﾜｼ","streetKana":"ｲﾏﾐﾂ","prefecture":"福岡県","city":"那珂川市","street":"今光"},{"zipCode":"8111241","prefectureKana":"ﾌｸｵｶｹﾝ","cityKana":"ﾅｶｶﾞﾜｼ","streetKana":"ｳｼﾛﾉ","prefecture":"福岡県","city":"那珂川市","street":"後野"},{"zipCode":"8111232","prefectureKana":"ﾌｸｵｶｹﾝ","cityKana":"ﾅｶｶﾞﾜｼ","streetKana":"ｳﾒｶﾞﾈ","prefecture":"福岡県","city":"那珂川市","street":"埋金"},{"zipCode":"8111255","prefectureKana":"ﾌｸｵｶｹﾝ","cityKana":"ﾅｶｶﾞﾜｼ","streetKana":"ｴｺ","prefecture":"福岡県","city":"那珂川市","street":"恵子"},{"zipCode":"8111221","prefectureKana":"ﾌｸｵｶｹﾝ","cityKana":"ﾅｶｶﾞﾜｼ","streetKana":"ｵｳﾂｶﾀﾞｲ","prefecture":"福岡県","city":"那珂川市","street":"王塚台"},{"zipCode":"8111201","prefectureKana":"ﾌｸｵｶｹﾝ","cityKana":"ﾅｶｶﾞﾜｼ","streetKana":"ｶﾀﾅﾜ","prefecture":"福岡県","city":"那珂川市","street":"片縄"},{"zipCode":"8111203","prefectureKana":"ﾌｸｵｶｹﾝ","cityKana":"ﾅｶｶﾞﾜｼ","streetKana":"ｶﾀﾅﾜｷﾀ","prefecture":"福岡県","city":"那珂川市","street":"片縄北"},{"zipCode":"8111202","prefectureKana":"ﾌｸｵｶｹﾝ","cityKana":"ﾅｶｶﾞﾜｼ","streetKana":"ｶﾀﾅﾜﾆｼ","prefecture":"福岡県","city":"那珂川市","street":"片縄西"},{"zipCode":"8111204","prefectureKana":"ﾌｸｵｶｹﾝ","cityKana":"ﾅｶｶﾞﾜｼ","streetKana":"ｶﾀﾅﾜﾋｶﾞｼ","prefecture":"福岡県","city":"那珂川市","street":"片縄東"},{"zipCode":"8111223","prefectureKana":"ﾌｸｵｶｹﾝ","cityKana":"ﾅｶｶﾞﾜｼ","streetKana":"ｶﾐｶｼﾞﾜﾗ","prefecture":"福岡県","city":"那珂川市","street":"上梶原"},{"zipCode":"8111234","prefectureKana":"ﾌｸｵｶｹﾝ","cityKana":"ﾅｶｶﾞﾜｼ","streetKana":"ｺﾞｶﾔﾏ","prefecture":"福岡県","city":"那珂川市","street":"五ケ山"},{"zipCode":"8111252","prefectureKana":"ﾌｸｵｶｹﾝ","cityKana":"ﾅｶｶﾞﾜｼ","streetKana":"ｺﾞﾛｳﾏﾙ","prefecture":"福岡県","city":"那珂川市","street":"五郎丸"},{"zipCode":"8111222","prefectureKana":"ﾌｸｵｶｹﾝ","cityKana":"ﾅｶｶﾞﾜｼ","streetKana":"ｼﾓｶｼﾞﾜﾗ","prefecture":"福岡県","city":"那珂川市","street":"下梶原"},{"zipCode":"8111253","prefectureKana":"ﾌｸｵｶｹﾝ","cityKana":"ﾅｶｶﾞﾜｼ","streetKana":"ﾁｭｳ","prefecture":"福岡県","city":"那珂川市","street":"仲"},{"zipCode":"8111256","prefectureKana":"ﾌｸｵｶｹﾝ","cityKana":"ﾅｶｶﾞﾜｼ","streetKana":"ﾁｭｳﾏﾙ","prefecture":"福岡県","city":"那珂川市","street":"仲丸"},{"zipCode":"8111254","prefectureKana":"ﾌｸｵｶｹﾝ","cityKana":"ﾅｶｶﾞﾜｼ","streetKana":"ﾄﾞｳｾﾞﾝ","prefecture":"福岡県","city":"那珂川市","street":"道善"},{"zipCode":"8111213","prefectureKana":"ﾌｸｵｶｹﾝ","cityKana":"ﾅｶｶﾞﾜｼ","streetKana":"ﾅｶﾊﾞﾙ","prefecture":"福岡県","city":"那珂川市","street":"中原"},{"zipCode":"8111214","prefectureKana":"ﾌｸｵｶｹﾝ","cityKana":"ﾅｶｶﾞﾜｼ","streetKana":"ﾅｶﾊﾞﾙﾋｶﾞｼ","prefecture":"福岡県","city":"那珂川市","street":"中原東"},{"zipCode":"8111236","prefectureKana":"ﾌｸｵｶｹﾝ","cityKana":"ﾅｶｶﾞﾜｼ","streetKana":"ﾅﾒﾘ","prefecture":"福岡県","city":"那珂川市","street":"南面里"},{"zipCode":"8111235","prefectureKana":"ﾌｸｵｶｹﾝ","cityKana":"ﾅｶｶﾞﾜｼ","streetKana":"ﾅﾙﾀｹ","prefecture":"福岡県","city":"那珂川市","street":"成竹"},{"zipCode":"8111242","prefectureKana":"ﾌｸｵｶｹﾝ","cityKana":"ﾅｶｶﾞﾜｼ","streetKana":"ﾆｼｸﾞﾏ","prefecture":"福岡県","city":"那珂川市","street":"西隈"},{"zipCode":"8111246","prefectureKana":"ﾌｸｵｶｹﾝ","cityKana":"ﾅｶｶﾞﾜｼ","streetKana":"ﾆｼﾊﾀ","prefecture":"福岡県","city":"那珂川市","street":"西畑"},{"zipCode":"8111243","prefectureKana":"ﾌｸｵｶｹﾝ","cityKana":"ﾅｶｶﾞﾜｼ","streetKana":"ﾋｶﾞｼｸﾞﾏ","prefecture":"福岡県","city":"那珂川市","street":"東隈"},{"zipCode":"8111231","prefectureKana":"ﾌｸｵｶｹﾝ","cityKana":"ﾅｶｶﾞﾜｼ","streetKana":"ﾌﾆｭｳﾄﾞｳ","prefecture":"福岡県","city":"那珂川市","street":"不入道"},{"zipCode":"8111245","prefectureKana":"ﾌｸｵｶｹﾝ","cityKana":"ﾅｶｶﾞﾜｼ","streetKana":"ﾍﾞｯｼｮ","prefecture":"福岡県","city":"那珂川市","street":"別所"},{"zipCode":"8111251","prefectureKana":"ﾌｸｵｶｹﾝ","cityKana":"ﾅｶｶﾞﾜｼ","streetKana":"ﾏﾂﾉｷ","prefecture":"福岡県","city":"那珂川市","street":"松木"},{"zipCode":"8111215","prefectureKana":"ﾌｸｵｶｹﾝ","cityKana":"ﾅｶｶﾞﾜｼ","streetKana":"ﾏﾂﾊﾞﾙ","prefecture":"福岡県","city":"那珂川市","street":"松原"},{"zipCode":"8111216","prefectureKana":"ﾌｸｵｶｹﾝ","cityKana":"ﾅｶｶﾞﾜｼ","streetKana":"ﾐﾊﾙｶﾞｵｶ","prefecture":"福岡県","city":"那珂川市","street":"観晴が丘"},{"zipCode":"8111244","prefectureKana":"ﾌｸｵｶｹﾝ","cityKana":"ﾅｶｶﾞﾜｼ","streetKana":"ﾔﾏﾀﾞ","prefecture":"福岡県","city":"那珂川市","street":"山田"},{"zipCode":"8112100","prefectureKana":"ﾌｸｵｶｹﾝ","cityKana":"ｶｽﾔｸﾞﾝｳﾐﾏﾁ","streetKana":"ｲｶﾆｹｲｻｲｶﾞﾅｲﾊﾞｱｲ","prefecture":"福岡県","city":"糟屋郡宇美町","street":"以下に掲載がない場合"},{"zipCode":"8112104","prefectureKana":"ﾌｸｵｶｹﾝ","cityKana":"ｶｽﾔｸﾞﾝｳﾐﾏﾁ","streetKana":"ｲﾉ","prefecture":"福岡県","city":"糟屋郡宇美町","street":"井野"},{"zipCode":"8112101","prefectureKana":"ﾌｸｵｶｹﾝ","cityKana":"ｶｽﾔｸﾞﾝｳﾐﾏﾁ","streetKana":"ｳﾐ","prefecture":"福岡県","city":"糟屋郡宇美町","street":"宇美"},{"zipCode":"8112128","prefectureKana":"ﾌｸｵｶｹﾝ","cityKana":"ｶｽﾔｸﾞﾝｳﾐﾏﾁ","streetKana":"ｳﾐﾁｭｳｵｳ","prefecture":"福岡県","city":"糟屋郡宇美町","street":"宇美中央"},{"zipCode":"8112125","prefectureKana":"ﾌｸｵｶｹﾝ","cityKana":"ｶｽﾔｸﾞﾝｳﾐﾏﾁ","streetKana":"ｳﾐﾋｶﾞｼ","prefecture":"福岡県","city":"糟屋郡宇美町","street":"宇美東"},{"zipCode":"8112131","prefectureKana":"ﾌｸｵｶｹﾝ","cityKana":"ｶｽﾔｸﾞﾝｳﾐﾏﾁ","streetKana":"ｷﾌﾈ","prefecture":"福岡県","city":"糟屋郡宇美町","street":"貴船"},{"zipCode":"8112123","prefectureKana":"ﾌｸｵｶｹﾝ","cityKana":"ｶｽﾔｸﾞﾝｳﾐﾏﾁ","streetKana":"ｺｳｼｮｳｼﾞ","prefecture":"福岡県","city":"糟屋郡宇美町","street":"光正寺"},{"zipCode":"8112109","prefectureKana":"ﾌｸｵｶｹﾝ","cityKana":"ｶｽﾔｸﾞﾝｳﾐﾏﾁ","streetKana":"ｻｸﾗﾊﾞﾙ","prefecture":"福岡県","city":"糟屋郡宇美町","street":"桜原"},{"zipCode":"8112105","prefectureKana":"ﾌｸｵｶｹﾝ","cityKana":"ｶｽﾔｸﾞﾝｳﾐﾏﾁ","streetKana":"ｼｵｳｼﾞ","prefecture":"福岡県","city":"糟屋郡宇美町","street":"四王寺"},{"zipCode":"8112103","prefectureKana":"ﾌｸｵｶｹﾝ","cityKana":"ｶｽﾔｸﾞﾝｳﾐﾏﾁ","streetKana":"ｼｵｳｼﾞｻﾞｶ","prefecture":"福岡県","city":"糟屋郡宇美町","street":"四王寺坂"},{"zipCode":"8112127","prefectureKana":"ﾌｸｵｶｹﾝ","cityKana":"ｶｽﾔｸﾞﾝｳﾐﾏﾁ","streetKana":"ｼｮｳｼﾞﾀﾞｹ","prefecture":"福岡県","city":"糟屋郡宇美町","street":"障子岳"},{"zipCode":"8112126","prefectureKana":"ﾌｸｵｶｹﾝ","cityKana":"ｶｽﾔｸﾞﾝｳﾐﾏﾁ","streetKana":"ｼｮｳｼﾞﾀﾞｹﾐﾅﾐ","prefecture":"福岡県","city":"糟屋郡宇美町","street":"障子岳南"},{"zipCode":"8112129","prefectureKana":"ﾌｸｵｶｹﾝ","cityKana":"ｶｽﾔｸﾞﾝｳﾐﾏﾁ","streetKana":"ｼﾞﾝﾑﾊﾞﾙ","prefecture":"福岡県","city":"糟屋郡宇美町","street":"神武原"},{"zipCode":"8112102","prefectureKana":"ﾌｸｵｶｹﾝ","cityKana":"ｶｽﾔｸﾞﾝｳﾐﾏﾁ","streetKana":"ｽﾐﾔｷ","prefecture":"福岡県","city":"糟屋郡宇美町","street":"炭焼"},{"zipCode":"8112107","prefectureKana":"ﾌｸｵｶｹﾝ","cityKana":"ｶｽﾔｸﾞﾝｳﾐﾏﾁ","streetKana":"ﾄﾋﾞﾀｹ","prefecture":"福岡県","city":"糟屋郡宇美町","street":"とびたけ"},{"zipCode":"8112132","prefectureKana":"ﾌｸｵｶｹﾝ","cityKana":"ｶｽﾔｸﾞﾝｳﾐﾏﾁ","streetKana":"ﾊﾙﾀﾞ","prefecture":"福岡県","city":"糟屋郡宇美町","street":"原田"},{"zipCode":"8112106","prefectureKana":"ﾌｸｵｶｹﾝ","cityKana":"ｶｽﾔｸﾞﾝｳﾐﾏﾁ","streetKana":"ﾋﾊﾞﾘｶﾞｵｶ","prefecture":"福岡県","city":"糟屋郡宇美町","street":"ひばりが丘"},{"zipCode":"8112121","prefectureKana":"ﾌｸｵｶｹﾝ","cityKana":"ｶｽﾔｸﾞﾝｳﾐﾏﾁ","streetKana":"ﾍｲﾜ","prefecture":"福岡県","city":"糟屋郡宇美町","street":"平和"},{"zipCode":"8112122","prefectureKana":"ﾌｸｵｶｹﾝ","cityKana":"ｶｽﾔｸﾞﾝｳﾐﾏﾁ","streetKana":"ﾐｮｳｼﾞﾝｻﾞｶ","prefecture":"福岡県","city":"糟屋郡宇美町","street":"明神坂"},{"zipCode":"8112108","prefectureKana":"ﾌｸｵｶｹﾝ","cityKana":"ｶｽﾔｸﾞﾝｳﾐﾏﾁ","streetKana":"ﾕﾘｶﾞｵｶ","prefecture":"福岡県","city":"糟屋郡宇美町","street":"ゆりが丘"},{"zipCode":"8112124","prefectureKana":"ﾌｸｵｶｹﾝ","cityKana":"ｶｽﾔｸﾞﾝｳﾐﾏﾁ","streetKana":"ﾜｶｸｻ","prefecture":"福岡県","city":"糟屋郡宇美町","street":"若草"},{"zipCode":"8112400","prefectureKana":"ﾌｸｵｶｹﾝ","cityKana":"ｶｽﾔｸﾞﾝｻｻｸﾞﾘﾏﾁ","streetKana":"ｲｶﾆｹｲｻｲｶﾞﾅｲﾊﾞｱｲ","prefecture":"福岡県","city":"糟屋郡篠栗町","street":"以下に掲載がない場合"},{"zipCode":"8112418","prefectureKana":"ﾌｸｵｶｹﾝ","cityKana":"ｶｽﾔｸﾞﾝｻｻｸﾞﾘﾏﾁ","streetKana":"ｲﾛﾄﾞﾘﾀﾞｲ","prefecture":"福岡県","city":"糟屋郡篠栗町","street":"彩り台"},{"zipCode":"8112412","prefectureKana":"ﾌｸｵｶｹﾝ","cityKana":"ｶｽﾔｸﾞﾝｻｻｸﾞﾘﾏﾁ","streetKana":"ｵﾄｲﾇ","prefecture":"福岡県","city":"糟屋郡篠栗町","street":"乙犬"},{"zipCode":"8112413","prefectureKana":"ﾌｸｵｶｹﾝ","cityKana":"ｶｽﾔｸﾞﾝｻｻｸﾞﾘﾏﾁ","streetKana":"ｵﾅｶ","prefecture":"福岡県","city":"糟屋郡篠栗町","street":"尾仲"},{"zipCode":"8112402","prefectureKana":"ﾌｸｵｶｹﾝ","cityKana":"ｶｽﾔｸﾞﾝｻｻｸﾞﾘﾏﾁ","streetKana":"ｶﾅｲﾃﾞ","prefecture":"福岡県","city":"糟屋郡篠栗町","street":"金出"},{"zipCode":"8112405","prefectureKana":"ﾌｸｵｶｹﾝ","cityKana":"ｶｽﾔｸﾞﾝｻｻｸﾞﾘﾏﾁ","streetKana":"ｻｻｸﾞﾘ","prefecture":"福岡県","city":"糟屋郡篠栗町","street":"篠栗"},{"zipCode":"8112401","prefectureKana":"ﾌｸｵｶｹﾝ","cityKana":"ｶｽﾔｸﾞﾝｻｻｸﾞﾘﾏﾁ","streetKana":"ﾀｶﾀ","prefecture":"福岡県","city":"糟屋郡篠栗町","street":"高田"},{"zipCode":"8112416","prefectureKana":"ﾌｸｵｶｹﾝ","cityKana":"ｶｽﾔｸﾞﾝｻｻｸﾞﾘﾏﾁ","streetKana":"ﾀﾅｶ","prefecture":"福岡県","city":"糟屋郡篠栗町","street":"田中"},{"zipCode":"8112417","prefectureKana":"ﾌｸｵｶｹﾝ","cityKana":"ｶｽﾔｸﾞﾝｻｻｸﾞﾘﾏﾁ","streetKana":"ﾁｭｳｵｳ","prefecture":"福岡県","city":"糟屋郡篠栗町","street":"中央"},{"zipCode":"8112415","prefectureKana":"ﾌｸｵｶｹﾝ","cityKana":"ｶｽﾔｸﾞﾝｻｻｸﾞﾘﾏﾁ","streetKana":"ﾂﾊﾞｸﾛ","prefecture":"福岡県","city":"糟屋郡篠栗町","street":"津波黒"},{"zipCode":"8112404","prefectureKana":"ﾌｸｵｶｹﾝ","cityKana":"ｶｽﾔｸﾞﾝｻｻｸﾞﾘﾏﾁ","streetKana":"ﾅｲｼﾞｭｳ","prefecture":"福岡県","city":"糟屋郡篠栗町","street":"内住"},{"zipCode":"8112403","prefectureKana":"ﾌｸｵｶｹﾝ","cityKana":"ｶｽﾔｸﾞﾝｻｻｸﾞﾘﾏﾁ","streetKana":"ﾊｷﾞﾉｳ","prefecture":"福岡県","city":"糟屋郡篠栗町","street":"萩尾"},{"zipCode":"8112411","prefectureKana":"ﾌｸｵｶｹﾝ","cityKana":"ｶｽﾔｸﾞﾝｻｻｸﾞﾘﾏﾁ","streetKana":"ﾜｶｽｷﾞ","prefecture":"福岡県","city":"糟屋郡篠栗町","street":"若杉"},{"zipCode":"8112414","prefectureKana":"ﾌｸｵｶｹﾝ","cityKana":"ｶｽﾔｸﾞﾝｻｻｸﾞﾘﾏﾁ","streetKana":"ﾜﾀﾞ","prefecture":"福岡県","city":"糟屋郡篠栗町","street":"和田"},{"zipCode":"8112200","prefectureKana":"ﾌｸｵｶｹﾝ","cityKana":"ｶｽﾔｸﾞﾝｼﾒﾏﾁ","streetKana":"ｲｶﾆｹｲｻｲｶﾞﾅｲﾊﾞｱｲ","prefecture":"福岡県","city":"糟屋郡志免町","street":"以下に掲載がない場合"},{"zipCode":"8112203","prefectureKana":"ﾌｸｵｶｹﾝ","cityKana":"ｶｽﾔｸﾞﾝｼﾒﾏﾁ","streetKana":"ｲｼﾊﾞｼﾀﾞｲ","prefecture":"福岡県","city":"糟屋郡志免町","street":"石橋台"},{"zipCode":"8112209","prefectureKana":"ﾌｸｵｶｹﾝ","cityKana":"ｶｽﾔｸﾞﾝｼﾒﾏﾁ","streetKana":"ｵｳｼﾞ","prefecture":"福岡県","city":"糟屋郡志免町","street":"王子"},{"zipCode":"8112245","prefectureKana":"ﾌｸｵｶｹﾝ","cityKana":"ｶｽﾔｸﾞﾝｼﾒﾏﾁ","streetKana":"ｶﾀﾐﾈ","prefecture":"福岡県","city":"糟屋郡志免町","street":"片峰"},{"zipCode":"8112246","prefectureKana":"ﾌｸｵｶｹﾝ","cityKana":"ｶｽﾔｸﾞﾝｼﾒﾏﾁ","streetKana":"ｶﾀﾐﾈﾁｭｳｵｳ","prefecture":"福岡県","city":"糟屋郡志免町","street":"片峰中央"},{"zipCode":"8112248","prefectureKana":"ﾌｸｵｶｹﾝ","cityKana":"ｶｽﾔｸﾞﾝｼﾒﾏﾁ","streetKana":"ｻｶｾ","prefecture":"福岡県","city":"糟屋郡志免町","street":"坂瀬"},{"zipCode":"8112201","prefectureKana":"ﾌｸｵｶｹﾝ","cityKana":"ｶｽﾔｸﾞﾝｼﾒﾏﾁ","streetKana":"ｻｸﾗｶﾞｵｶ","prefecture":"福岡県","city":"糟屋郡志免町","street":"桜丘"},{"zipCode":"8112202","prefectureKana":"ﾌｸｵｶｹﾝ","cityKana":"ｶｽﾔｸﾞﾝｼﾒﾏﾁ","streetKana":"ｼﾒ","prefecture":"福岡県","city":"糟屋郡志免町","street":"志免"},{"zipCode":"8112244","prefectureKana":"ﾌｸｵｶｹﾝ","cityKana":"ｶｽﾔｸﾞﾝｼﾒﾏﾁ","streetKana":"ｼﾒﾁｭｳｵｳ","prefecture":"福岡県","city":"糟屋郡志免町","street":"志免中央"},{"zipCode":"8112243","prefectureKana":"ﾌｸｵｶｹﾝ","cityKana":"ｶｽﾔｸﾞﾝｼﾒﾏﾁ","streetKana":"ｼﾒﾋｶﾞｼ","prefecture":"福岡県","city":"糟屋郡志免町","street":"志免東"},{"zipCode":"8112204","prefectureKana":"ﾌｸｵｶｹﾝ","cityKana":"ｶｽﾔｸﾞﾝｼﾒﾏﾁ","streetKana":"ﾀﾄﾞﾐ","prefecture":"福岡県","city":"糟屋郡志免町","street":"田富"},{"zipCode":"8112241","prefectureKana":"ﾌｸｵｶｹﾝ","cityKana":"ｶｽﾔｸﾞﾝｼﾒﾏﾁ","streetKana":"ﾋｶﾞｼｺｳｴﾝﾀﾞｲ","prefecture":"福岡県","city":"糟屋郡志免町","street":"東公園台"},{"zipCode":"8112205","prefectureKana":"ﾌｸｵｶｹﾝ","cityKana":"ｶｽﾔｸﾞﾝｼﾒﾏﾁ","streetKana":"ﾍﾞﾌ","prefecture":"福岡県","city":"糟屋郡志免町","street":"別府"},{"zipCode":"8112233","prefectureKana":"ﾌｸｵｶｹﾝ","cityKana":"ｶｽﾔｸﾞﾝｼﾒﾏﾁ","streetKana":"ﾍﾞﾌｷﾀ","prefecture":"福岡県","city":"糟屋郡志免町","street":"別府北"},{"zipCode":"8112232","prefectureKana":"ﾌｸｵｶｹﾝ","cityKana":"ｶｽﾔｸﾞﾝｼﾒﾏﾁ","streetKana":"ﾍﾞﾌﾆｼ","prefecture":"福岡県","city":"糟屋郡志免町","street":"別府西"},{"zipCode":"8112231","prefectureKana":"ﾌｸｵｶｹﾝ","cityKana":"ｶｽﾔｸﾞﾝｼﾒﾏﾁ","streetKana":"ﾍﾞﾌﾋｶﾞｼ","prefecture":"福岡県","city":"糟屋郡志免町","street":"別府東"},{"zipCode":"8112242","prefectureKana":"ﾌｸｵｶｹﾝ","cityKana":"ｶｽﾔｸﾞﾝｼﾒﾏﾁ","streetKana":"ﾏﾂｶﾞｵｶ","prefecture":"福岡県","city":"糟屋郡志免町","street":"松ケ丘"},{"zipCode":"8112206","prefectureKana":"ﾌｸｵｶｹﾝ","cityKana":"ｶｽﾔｸﾞﾝｼﾒﾏﾁ","streetKana":"ﾐﾀﾗｲ","prefecture":"福岡県","city":"糟屋郡志免町","street":"御手洗"},{"zipCode":"8112207","prefectureKana":"ﾌｸｵｶｹﾝ","cityKana":"ｶｽﾔｸﾞﾝｼﾒﾏﾁ","streetKana":"ﾐﾅﾐｻﾞﾄ","prefecture":"福岡県","city":"糟屋郡志免町","street":"南里"},{"zipCode":"8112247","prefectureKana":"ﾌｸｵｶｹﾝ","cityKana":"ｶｽﾔｸﾞﾝｼﾒﾏﾁ","streetKana":"ﾑｶｲｶﾞｵｶ","prefecture":"福岡県","city":"糟屋郡志免町","street":"向ケ丘"},{"zipCode":"8112208","prefectureKana":"ﾌｸｵｶｹﾝ","cityKana":"ｶｽﾔｸﾞﾝｼﾒﾏﾁ","streetKana":"ﾖｼﾊﾗ","prefecture":"福岡県","city":"糟屋郡志免町","street":"吉原"},{"zipCode":"8112100","prefectureKana":"ﾌｸｵｶｹﾝ","cityKana":"ｶｽﾔｸﾞﾝｽｴﾏﾁ","streetKana":"ｲｶﾆｹｲｻｲｶﾞﾅｲﾊﾞｱｲ","prefecture":"福岡県","city":"糟屋郡須惠町","street":"以下に掲載がない場合"},{"zipCode":"8112112","prefectureKana":"ﾌｸｵｶｹﾝ","cityKana":"ｶｽﾔｸﾞﾝｽｴﾏﾁ","streetKana":"ｳｴｷ","prefecture":"福岡県","city":"糟屋郡須惠町","street":"植木"},{"zipCode":"8112114","prefectureKana":"ﾌｸｵｶｹﾝ","cityKana":"ｶｽﾔｸﾞﾝｽｴﾏﾁ","streetKana":"ｶﾐｽｴ","prefecture":"福岡県","city":"糟屋郡須惠町","street":"上須惠"},{"zipCode":"8112115","prefectureKana":"ﾌｸｵｶｹﾝ","cityKana":"ｶｽﾔｸﾞﾝｽｴﾏﾁ","streetKana":"ｻﾀﾆ","prefecture":"福岡県","city":"糟屋郡須惠町","street":"佐谷"},{"zipCode":"8112111","prefectureKana":"ﾌｸｵｶｹﾝ","cityKana":"ｶｽﾔｸﾞﾝｽｴﾏﾁ","streetKana":"ｼﾝﾊﾞﾙ","prefecture":"福岡県","city":"糟屋郡須惠町","street":"新原"},{"zipCode":"8112113","prefectureKana":"ﾌｸｵｶｹﾝ","cityKana":"ｶｽﾔｸﾞﾝｽｴﾏﾁ","streetKana":"ｽｴ","prefecture":"福岡県","city":"糟屋郡須惠町","street":"須惠"},{"zipCode":"8112221","prefectureKana":"ﾌｸｵｶｹﾝ","cityKana":"ｶｽﾔｸﾞﾝｽｴﾏﾁ","streetKana":"ﾀﾋﾞｲｼ","prefecture":"福岡県","city":"糟屋郡須惠町","street":"旅石"},{"zipCode":"8110100","prefectureKana":"ﾌｸｵｶｹﾝ","cityKana":"ｶｽﾔｸﾞﾝｼﾝｸﾞｳﾏﾁ","streetKana":"ｲｶﾆｹｲｻｲｶﾞﾅｲﾊﾞｱｲ","prefecture":"福岡県","city":"糟屋郡新宮町","street":"以下に掲載がない場合"},{"zipCode":"8110118","prefectureKana":"ﾌｸｵｶｹﾝ","cityKana":"ｶｽﾔｸﾞﾝｼﾝｸﾞｳﾏﾁ","streetKana":"ｱｲﾉｼﾏ","prefecture":"福岡県","city":"糟屋郡新宮町","street":"相島"},{"zipCode":"8110117","prefectureKana":"ﾌｸｵｶｹﾝ","cityKana":"ｶｽﾔｸﾞﾝｼﾝｸﾞｳﾏﾁ","streetKana":"ｶﾐﾉﾌ","prefecture":"福岡県","city":"糟屋郡新宮町","street":"上府"},{"zipCode":"8110123","prefectureKana":"ﾌｸｵｶｹﾝ","cityKana":"ｶｽﾔｸﾞﾝｼﾝｸﾞｳﾏﾁ","streetKana":"ｶﾐﾉﾌｷﾀ","prefecture":"福岡県","city":"糟屋郡新宮町","street":"上府北"},{"zipCode":"8110113","prefectureKana":"ﾌｸｵｶｹﾝ","cityKana":"ｶｽﾔｸﾞﾝｼﾝｸﾞｳﾏﾁ","streetKana":"ｻｸﾗﾔﾏﾃ","prefecture":"福岡県","city":"糟屋郡新宮町","street":"桜山手"},{"zipCode":"8110112","prefectureKana":"ﾌｸｵｶｹﾝ","cityKana":"ｶｽﾔｸﾞﾝｼﾝｸﾞｳﾏﾁ","streetKana":"ｼﾓﾉﾌ","prefecture":"福岡県","city":"糟屋郡新宮町","street":"下府"},{"zipCode":"8110115","prefectureKana":"ﾌｸｵｶｹﾝ","cityKana":"ｶｽﾔｸﾞﾝｼﾝｸﾞｳﾏﾁ","streetKana":"ｼﾝｸﾞｳ","prefecture":"福岡県","city":"糟屋郡新宮町","street":"新宮"},{"zipCode":"8110124","prefectureKana":"ﾌｸｵｶｹﾝ","cityKana":"ｶｽﾔｸﾞﾝｼﾝｸﾞｳﾏﾁ","streetKana":"ｼﾝｸﾞｳﾋｶﾞｼ","prefecture":"福岡県","city":"糟屋郡新宮町","street":"新宮東"},{"zipCode":"8110102","prefectureKana":"ﾌｸｵｶｹﾝ","cityKana":"ｶｽﾔｸﾞﾝｼﾝｸﾞｳﾏﾁ","streetKana":"ﾀﾁﾊﾞﾅｸﾞﾁ","prefecture":"福岡県","city":"糟屋郡新宮町","street":"立花口"},{"zipCode":"8110120","prefectureKana":"ﾌｸｵｶｹﾝ","cityKana":"ｶｽﾔｸﾞﾝｼﾝｸﾞｳﾏﾁ","streetKana":"ﾁｭｳｵｳｴｷﾏｴ","prefecture":"福岡県","city":"糟屋郡新宮町","street":"中央駅前"},{"zipCode":"8110103","prefectureKana":"ﾌｸｵｶｹﾝ","cityKana":"ｶｽﾔｸﾞﾝｼﾝｸﾞｳﾏﾁ","streetKana":"ﾊﾅﾀﾁﾊﾞﾅ","prefecture":"福岡県","city":"糟屋郡新宮町","street":"花立花"},{"zipCode":"8110101","prefectureKana":"ﾌｸｵｶｹﾝ","cityKana":"ｶｽﾔｸﾞﾝｼﾝｸﾞｳﾏﾁ","streetKana":"ﾊﾙｶﾞﾐ","prefecture":"福岡県","city":"糟屋郡新宮町","street":"原上"},{"zipCode":"8110104","prefectureKana":"ﾌｸｵｶｹﾝ","cityKana":"ｶｽﾔｸﾞﾝｼﾝｸﾞｳﾏﾁ","streetKana":"ﾏﾄﾉ","prefecture":"福岡県","city":"糟屋郡新宮町","street":"的野"},{"zipCode":"8110121","prefectureKana":"ﾌｸｵｶｹﾝ","cityKana":"ｶｽﾔｸﾞﾝｼﾝｸﾞｳﾏﾁ","streetKana":"ﾐｻｷ","prefecture":"福岡県","city":"糟屋郡新宮町","street":"美咲"},{"zipCode":"8110111","prefectureKana":"ﾌｸｵｶｹﾝ","cityKana":"ｶｽﾔｸﾞﾝｼﾝｸﾞｳﾏﾁ","streetKana":"ﾐｼﾛ","prefecture":"福岡県","city":"糟屋郡新宮町","street":"三代"},{"zipCode":"8110125","prefectureKana":"ﾌｸｵｶｹﾝ","cityKana":"ｶｽﾔｸﾞﾝｼﾝｸﾞｳﾏﾁ","streetKana":"ﾐｼﾛﾆｼ","prefecture":"福岡県","city":"糟屋郡新宮町","street":"三代西"},{"zipCode":"8110119","prefectureKana":"ﾌｸｵｶｹﾝ","cityKana":"ｶｽﾔｸﾞﾝｼﾝｸﾞｳﾏﾁ","streetKana":"ﾐﾄﾞﾘｶﾞﾊﾏ","prefecture":"福岡県","city":"糟屋郡新宮町","street":"緑ケ浜"},{"zipCode":"8110116","prefectureKana":"ﾌｸｵｶｹﾝ","cityKana":"ｶｽﾔｸﾞﾝｼﾝｸﾞｳﾏﾁ","streetKana":"ﾐﾅﾄ","prefecture":"福岡県","city":"糟屋郡新宮町","street":"湊"},{"zipCode":"8110114","prefectureKana":"ﾌｸｵｶｹﾝ","cityKana":"ｶｽﾔｸﾞﾝｼﾝｸﾞｳﾏﾁ","streetKana":"ﾐﾅﾄｻﾞｶ","prefecture":"福岡県","city":"糟屋郡新宮町","street":"湊坂"},{"zipCode":"8110122","prefectureKana":"ﾌｸｵｶｹﾝ","cityKana":"ｶｽﾔｸﾞﾝｼﾝｸﾞｳﾏﾁ","streetKana":"ﾓﾘﾉﾐﾔ","prefecture":"福岡県","city":"糟屋郡新宮町","street":"杜の宮"},{"zipCode":"8110110","prefectureKana":"ﾌｸｵｶｹﾝ","cityKana":"ｶｽﾔｸﾞﾝｼﾝｸﾞｳﾏﾁ","streetKana":"ﾕｳｽ","prefecture":"福岡県","city":"糟屋郡新宮町","street":"夜臼"},{"zipCode":"8112500","prefectureKana":"ﾌｸｵｶｹﾝ","cityKana":"ｶｽﾔｸﾞﾝﾋｻﾔﾏﾏﾁ","streetKana":"ｲｶﾆｹｲｻｲｶﾞﾅｲﾊﾞｱｲ","prefecture":"福岡県","city":"糟屋郡久山町","street":"以下に掲載がない場合"},{"zipCode":"8112503","prefectureKana":"ﾌｸｵｶｹﾝ","cityKana":"ｶｽﾔｸﾞﾝﾋｻﾔﾏﾏﾁ","streetKana":"ｲﾉ","prefecture":"福岡県","city":"糟屋郡久山町","street":"猪野"},{"zipCode":"8112501","prefectureKana":"ﾌｸｵｶｹﾝ","cityKana":"ｶｽﾔｸﾞﾝﾋｻﾔﾏﾏﾁ","streetKana":"ｸﾊﾞﾗ","prefecture":"福岡県","city":"糟屋郡久山町","street":"久原"},{"zipCode":"8112502","prefectureKana":"ﾌｸｵｶｹﾝ","cityKana":"ｶｽﾔｸﾞﾝﾋｻﾔﾏﾏﾁ","streetKana":"ﾔﾏﾀﾞ","prefecture":"福岡県","city":"糟屋郡久山町","street":"山田"},{"zipCode":"8112300","prefectureKana":"ﾌｸｵｶｹﾝ","cityKana":"ｶｽﾔｸﾞﾝｶｽﾔﾏﾁ","streetKana":"ｲｶﾆｹｲｻｲｶﾞﾅｲﾊﾞｱｲ","prefecture":"福岡県","city":"糟屋郡粕屋町","street":"以下に掲載がない場合"},{"zipCode":"8112306","prefectureKana":"ﾌｸｵｶｹﾝ","cityKana":"ｶｽﾔｸﾞﾝｶｽﾔﾏﾁ","streetKana":"ｱｴ","prefecture":"福岡県","city":"糟屋郡粕屋町","street":"阿恵"},{"zipCode":"8112308","prefectureKana":"ﾌｸｵｶｹﾝ","cityKana":"ｶｽﾔｸﾞﾝｶｽﾔﾏﾁ","streetKana":"ｳﾁﾊｼ","prefecture":"福岡県","city":"糟屋郡粕屋町","street":"内橋"},{"zipCode":"8112321","prefectureKana":"ﾌｸｵｶｹﾝ","cityKana":"ｶｽﾔｸﾞﾝｶｽﾔﾏﾁ","streetKana":"ｳﾁﾊｼﾆｼ(ｿﾉﾀ)","prefecture":"福岡県","city":"糟屋郡粕屋町","street":"内橋西（その他）"},{"zipCode":"8112320","prefectureKana":"ﾌｸｵｶｹﾝ","cityKana":"ｶｽﾔｸﾞﾝｶｽﾔﾏﾁ","streetKana":"ｳﾁﾊｼﾋｶﾞｼ","prefecture":"福岡県","city":"糟屋郡粕屋町","street":"内橋東"},{"zipCode":"8112313","prefectureKana":"ﾌｸｵｶｹﾝ","cityKana":"ｶｽﾔｸﾞﾝｶｽﾔﾏﾁ","streetKana":"ｴﾂｼﾞ","prefecture":"福岡県","city":"糟屋郡粕屋町","street":"江辻"},{"zipCode":"8112302","prefectureKana":"ﾌｸｵｶｹﾝ","cityKana":"ｶｽﾔｸﾞﾝｶｽﾔﾏﾁ","streetKana":"ｵｵｸﾏ","prefecture":"福岡県","city":"糟屋郡粕屋町","street":"大隈"},{"zipCode":"8112301","prefectureKana":"ﾌｸｵｶｹﾝ","cityKana":"ｶｽﾔｸﾞﾝｶｽﾔﾏﾁ","streetKana":"ｶﾐｵｵｸﾏ","prefecture":"福岡県","city":"糟屋郡粕屋町","street":"上大隈"},{"zipCode":"8112309","prefectureKana":"ﾌｸｵｶｹﾝ","cityKana":"ｶｽﾔｸﾞﾝｶｽﾔﾏﾁ","streetKana":"ｶﾖｲﾁｮｳ","prefecture":"福岡県","city":"糟屋郡粕屋町","street":"駕与丁"},{"zipCode":"8112315","prefectureKana":"ﾌｸｵｶｹﾝ","cityKana":"ｶｽﾔｸﾞﾝｶｽﾔﾏﾁ","streetKana":"ｺｳﾅｶﾊﾞﾙ","prefecture":"福岡県","city":"糟屋郡粕屋町","street":"甲仲原"},{"zipCode":"8112303","prefectureKana":"ﾌｸｵｶｹﾝ","cityKana":"ｶｽﾔｸﾞﾝｶｽﾔﾏﾁ","streetKana":"ｻｶﾄﾞ","prefecture":"福岡県","city":"糟屋郡粕屋町","street":"酒殿"},{"zipCode":"8112311","prefectureKana":"ﾌｸｵｶｹﾝ","cityKana":"ｶｽﾔｸﾞﾝｶｽﾔﾏﾁ","streetKana":"ﾁｮｳｼﾞｬﾊﾞﾙ","prefecture":"福岡県","city":"糟屋郡粕屋町","street":"長者原"},{"zipCode":"8112316","prefectureKana":"ﾌｸｵｶｹﾝ","cityKana":"ｶｽﾔｸﾞﾝｶｽﾔﾏﾁ","streetKana":"ﾁｮｳｼﾞｬﾊﾞﾙﾆｼ","prefecture":"福岡県","city":"糟屋郡粕屋町","street":"長者原西"},{"zipCode":"8112317","prefectureKana":"ﾌｸｵｶｹﾝ","cityKana":"ｶｽﾔｸﾞﾝｶｽﾔﾏﾁ","streetKana":"ﾁｮｳｼﾞｬﾊﾞﾙﾋｶﾞｼ","prefecture":"福岡県","city":"糟屋郡粕屋町","street":"長者原東"},{"zipCode":"8112312","prefectureKana":"ﾌｸｵｶｹﾝ","cityKana":"ｶｽﾔｸﾞﾝｶｽﾔﾏﾁ","streetKana":"ﾄﾊﾞﾗ","prefecture":"福岡県","city":"糟屋郡粕屋町","street":"戸原"},{"zipCode":"8112319","prefectureKana":"ﾌｸｵｶｹﾝ","cityKana":"ｶｽﾔｸﾞﾝｶｽﾔﾏﾁ","streetKana":"ﾄﾊﾞﾗﾆｼ","prefecture":"福岡県","city":"糟屋郡粕屋町","street":"戸原西"},{"zipCode":"8112318","prefectureKana":"ﾌｸｵｶｹﾝ","cityKana":"ｶｽﾔｸﾞﾝｶｽﾔﾏﾁ","streetKana":"ﾄﾊﾞﾗﾋｶﾞｼ","prefecture":"福岡県","city":"糟屋郡粕屋町","street":"戸原東"},{"zipCode":"8112304","prefectureKana":"ﾌｸｵｶｹﾝ","cityKana":"ｶｽﾔｸﾞﾝｶｽﾔﾏﾁ","streetKana":"ﾅｶﾊﾞﾙ","prefecture":"福岡県","city":"糟屋郡粕屋町","street":"仲原"},{"zipCode":"8112310","prefectureKana":"ﾌｸｵｶｹﾝ","cityKana":"ｶｽﾔｸﾞﾝｶｽﾔﾏﾁ","streetKana":"ﾊﾅｶﾞｳﾗ","prefecture":"福岡県","city":"糟屋郡粕屋町","street":"花ヶ浦"},{"zipCode":"8112307","prefectureKana":"ﾌｸｵｶｹﾝ","cityKana":"ｶｽﾔｸﾞﾝｶｽﾔﾏﾁ","streetKana":"ﾊﾙﾏﾁ","prefecture":"福岡県","city":"糟屋郡粕屋町","street":"原町"},{"zipCode":"8112305","prefectureKana":"ﾌｸｵｶｹﾝ","cityKana":"ｶｽﾔｸﾞﾝｶｽﾔﾏﾁ","streetKana":"ﾕｽ","prefecture":"福岡県","city":"糟屋郡粕屋町","street":"柚須"},{"zipCode":"8112314","prefectureKana":"ﾌｸｵｶｹﾝ","cityKana":"ｶｽﾔｸﾞﾝｶｽﾔﾏﾁ","streetKana":"ﾜｶﾐﾔ","prefecture":"福岡県","city":"糟屋郡粕屋町","street":"若宮"},{"zipCode":"8114200","prefectureKana":"ﾌｸｵｶｹﾝ","cityKana":"ｵﾝｶﾞｸﾞﾝｵｶｶﾞｷﾏﾁ","streetKana":"ｲｶﾆｹｲｻｲｶﾞﾅｲﾊﾞｱｲ","prefecture":"福岡県","city":"遠賀郡岡垣町","street":"以下に掲載がない場合"},{"zipCode":"8114215","prefectureKana":"ﾌｸｵｶｹﾝ","cityKana":"ｵﾝｶﾞｸﾞﾝｵｶｶﾞｷﾏﾁ","streetKana":"ｱｻﾋﾀﾞｲ","prefecture":"福岡県","city":"遠賀郡岡垣町","street":"旭台"},{"zipCode":"8114216","prefectureKana":"ﾌｸｵｶｹﾝ","cityKana":"ｵﾝｶﾞｸﾞﾝｵｶｶﾞｷﾏﾁ","streetKana":"ｱｻﾋﾐﾅﾐ","prefecture":"福岡県","city":"遠賀郡岡垣町","street":"旭南"},{"zipCode":"8114203","prefectureKana":"ﾌｸｵｶｹﾝ","cityKana":"ｵﾝｶﾞｸﾞﾝｵｶｶﾞｷﾏﾁ","streetKana":"ｳﾂﾗ","prefecture":"福岡県","city":"遠賀郡岡垣町","street":"内浦"},{"zipCode":"8114231","prefectureKana":"ﾌｸｵｶｹﾝ","cityKana":"ｵﾝｶﾞｸﾞﾝｵｶｶﾞｷﾏﾁ","streetKana":"ｴﾋﾞﾂ","prefecture":"福岡県","city":"遠賀郡岡垣町","street":"海老津"},{"zipCode":"8114236","prefectureKana":"ﾌｸｵｶｹﾝ","cityKana":"ｵﾝｶﾞｸﾞﾝｵｶｶﾞｷﾏﾁ","streetKana":"ｴﾋﾞﾂｴｷﾏｴ","prefecture":"福岡県","city":"遠賀郡岡垣町","street":"海老津駅前"},{"zipCode":"8114238","prefectureKana":"ﾌｸｵｶｹﾝ","cityKana":"ｵﾝｶﾞｸﾞﾝｵｶｶﾞｷﾏﾁ","streetKana":"ｴﾋﾞﾂｴｷﾐﾅﾐ","prefecture":"福岡県","city":"遠賀郡岡垣町","street":"海老津駅南"},{"zipCode":"8114212","prefectureKana":"ﾌｸｵｶｹﾝ","cityKana":"ｵﾝｶﾞｸﾞﾝｵｶｶﾞｷﾏﾁ","streetKana":"ｸﾛﾔﾏ","prefecture":"福岡県","city":"遠賀郡岡垣町","street":"黒山"},{"zipCode":"8114235","prefectureKana":"ﾌｸｵｶｹﾝ","cityKana":"ｵﾝｶﾞｸﾞﾝｵｶｶﾞｷﾏﾁ","streetKana":"ｺｳｴﾝﾄﾞｵﾘ","prefecture":"福岡県","city":"遠賀郡岡垣町","street":"公園通り"},{"zipCode":"8114227","prefectureKana":"ﾌｸｵｶｹﾝ","cityKana":"ｵﾝｶﾞｸﾞﾝｵｶｶﾞｷﾏﾁ","streetKana":"ｺｳﾖｳﾀﾞｲ","prefecture":"福岡県","city":"遠賀郡岡垣町","street":"高陽台"},{"zipCode":"8114217","prefectureKana":"ﾌｸｵｶｹﾝ","cityKana":"ｵﾝｶﾞｸﾞﾝｵｶｶﾞｷﾏﾁ","streetKana":"ｻｸﾗﾀﾞｲ","prefecture":"福岡県","city":"遠賀郡岡垣町","street":"桜台"},{"zipCode":"8114232","prefectureKana":"ﾌｸｵｶｹﾝ","cityKana":"ｵﾝｶﾞｸﾞﾝｵｶｶﾞｷﾏﾁ","streetKana":"ｼﾞｮｳﾊﾀ","prefecture":"福岡県","city":"遠賀郡岡垣町","street":"上畑"},{"zipCode":"8114234","prefectureKana":"ﾌｸｵｶｹﾝ","cityKana":"ｵﾝｶﾞｸﾞﾝｵｶｶﾞｷﾏﾁ","streetKana":"ﾀｶｸﾗ","prefecture":"福岡県","city":"遠賀郡岡垣町","street":"高倉"},{"zipCode":"8114218","prefectureKana":"ﾌｸｵｶｹﾝ","cityKana":"ｵﾝｶﾞｸﾞﾝｵｶｶﾞｷﾏﾁ","streetKana":"ﾁｭｳｵｳﾀﾞｲ","prefecture":"福岡県","city":"遠賀郡岡垣町","street":"中央台"},{"zipCode":"8114204","prefectureKana":"ﾌｸｵｶｹﾝ","cityKana":"ｵﾝｶﾞｸﾞﾝｵｶｶﾞｷﾏﾁ","streetKana":"ﾃﾉ","prefecture":"福岡県","city":"遠賀郡岡垣町","street":"手野"},{"zipCode":"8114222","prefectureKana":"ﾌｸｵｶｹﾝ","cityKana":"ｵﾝｶﾞｸﾞﾝｵｶｶﾞｷﾏﾁ","streetKana":"ﾄｷﾞﾘ","prefecture":"福岡県","city":"遠賀郡岡垣町","street":"戸切"},{"zipCode":"8114224","prefectureKana":"ﾌｸｵｶｹﾝ","cityKana":"ｵﾝｶﾞｸﾞﾝｵｶｶﾞｷﾏﾁ","streetKana":"ﾅﾍﾞﾀ","prefecture":"福岡県","city":"遠賀郡岡垣町","street":"鍋田"},{"zipCode":"8114213","prefectureKana":"ﾌｸｵｶｹﾝ","cityKana":"ｵﾝｶﾞｸﾞﾝｵｶｶﾞｷﾏﾁ","streetKana":"ﾇｶﾂﾞｶ","prefecture":"福岡県","city":"遠賀郡岡垣町","street":"糠塚"},{"zipCode":"8114233","prefectureKana":"ﾌｸｵｶｹﾝ","cityKana":"ｵﾝｶﾞｸﾞﾝｵｶｶﾞｷﾏﾁ","streetKana":"ﾉﾏ","prefecture":"福岡県","city":"遠賀郡岡垣町","street":"野間"},{"zipCode":"8114239","prefectureKana":"ﾌｸｵｶｹﾝ","cityKana":"ｵﾝｶﾞｸﾞﾝｵｶｶﾞｷﾏﾁ","streetKana":"ﾉﾏﾐﾅﾐ","prefecture":"福岡県","city":"遠賀郡岡垣町","street":"野間南"},{"zipCode":"8114201","prefectureKana":"ﾌｸｵｶｹﾝ","cityKana":"ｵﾝｶﾞｸﾞﾝｵｶｶﾞｷﾏﾁ","streetKana":"ﾊﾂ","prefecture":"福岡県","city":"遠賀郡岡垣町","street":"波津"},{"zipCode":"8114202","prefectureKana":"ﾌｸｵｶｹﾝ","cityKana":"ｵﾝｶﾞｸﾞﾝｵｶｶﾞｷﾏﾁ","streetKana":"ﾊﾗ","prefecture":"福岡県","city":"遠賀郡岡垣町","street":"原"},{"zipCode":"8114225","prefectureKana":"ﾌｸｵｶｹﾝ","cityKana":"ｵﾝｶﾞｸﾞﾝｵｶｶﾞｷﾏﾁ","streetKana":"ﾋｶﾞｼｺｳﾖｳ","prefecture":"福岡県","city":"遠賀郡岡垣町","street":"東高陽"},{"zipCode":"8114237","prefectureKana":"ﾌｸｵｶｹﾝ","cityKana":"ｵﾝｶﾞｸﾞﾝｵｶｶﾞｷﾏﾁ","streetKana":"ﾋｶﾞｼﾀｶｸﾗ","prefecture":"福岡県","city":"遠賀郡岡垣町","street":"東高倉"},{"zipCode":"8114228","prefectureKana":"ﾌｸｵｶｹﾝ","cityKana":"ｵﾝｶﾞｸﾞﾝｵｶｶﾞｷﾏﾁ","streetKana":"ﾋｶﾞｼﾏﾂﾊﾞﾗ","prefecture":"福岡県","city":"遠賀郡岡垣町","street":"東松原"},{"zipCode":"8114220","prefectureKana":"ﾌｸｵｶｹﾝ","cityKana":"ｵﾝｶﾞｸﾞﾝｵｶｶﾞｷﾏﾁ","streetKana":"ﾋｶﾞｼﾔﾏﾀﾞ","prefecture":"福岡県","city":"遠賀郡岡垣町","street":"東山田"},{"zipCode":"8114214","prefectureKana":"ﾌｸｵｶｹﾝ","cityKana":"ｵﾝｶﾞｸﾞﾝｵｶｶﾞｷﾏﾁ","streetKana":"ﾏﾂｶﾞﾀﾞｲ","prefecture":"福岡県","city":"遠賀郡岡垣町","street":"松ケ台"},{"zipCode":"8114226","prefectureKana":"ﾌｸｵｶｹﾝ","cityKana":"ｵﾝｶﾞｸﾞﾝｵｶｶﾞｷﾏﾁ","streetKana":"ﾐﾅﾐｺｳﾖｳ","prefecture":"福岡県","city":"遠賀郡岡垣町","street":"南高陽"},{"zipCode":"8114205","prefectureKana":"ﾌｸｵｶｹﾝ","cityKana":"ｵﾝｶﾞｸﾞﾝｵｶｶﾞｷﾏﾁ","streetKana":"ﾐﾖｼ","prefecture":"福岡県","city":"遠賀郡岡垣町","street":"三吉"},{"zipCode":"8114221","prefectureKana":"ﾌｸｵｶｹﾝ","cityKana":"ｵﾝｶﾞｸﾞﾝｵｶｶﾞｷﾏﾁ","streetKana":"ﾔﾏﾀﾞ","prefecture":"福岡県","city":"遠賀郡岡垣町","street":"山田"},{"zipCode":"8114223","prefectureKana":"ﾌｸｵｶｹﾝ","cityKana":"ｵﾝｶﾞｸﾞﾝｵｶｶﾞｷﾏﾁ","streetKana":"ﾔﾏﾀﾞﾄｳｹﾞ","prefecture":"福岡県","city":"遠賀郡岡垣町","street":"山田峠"},{"zipCode":"8114229","prefectureKana":"ﾌｸｵｶｹﾝ","cityKana":"ｵﾝｶﾞｸﾞﾝｵｶｶﾞｷﾏﾁ","streetKana":"ﾕﾘｶﾞｵｶ","prefecture":"福岡県","city":"遠賀郡岡垣町","street":"百合ケ丘"},{"zipCode":"8114211","prefectureKana":"ﾌｸｵｶｹﾝ","cityKana":"ｵﾝｶﾞｸﾞﾝｵｶｶﾞｷﾏﾁ","streetKana":"ﾖｼｷ","prefecture":"福岡県","city":"遠賀郡岡垣町","street":"吉木"},{"zipCode":"8114242","prefectureKana":"ﾌｸｵｶｹﾝ","cityKana":"ｵﾝｶﾞｸﾞﾝｵｶｶﾞｷﾏﾁ","streetKana":"ﾖｼｷﾆｼ","prefecture":"福岡県","city":"遠賀郡岡垣町","street":"吉木西"},{"zipCode":"8114241","prefectureKana":"ﾌｸｵｶｹﾝ","cityKana":"ｵﾝｶﾞｸﾞﾝｵｶｶﾞｷﾏﾁ","streetKana":"ﾖｼｷﾋｶﾞｼ","prefecture":"福岡県","city":"遠賀郡岡垣町","street":"吉木東"},{"zipCode":"8114300","prefectureKana":"ﾌｸｵｶｹﾝ","cityKana":"ｵﾝｶﾞｸﾞﾝｵﾝｶﾞﾁｮｳ","streetKana":"ｲｶﾆｹｲｻｲｶﾞﾅｲﾊﾞｱｲ","prefecture":"福岡県","city":"遠賀郡遠賀町","street":"以下に掲載がない場合"},{"zipCode":"8114312","prefectureKana":"ﾌｸｵｶｹﾝ","cityKana":"ｵﾝｶﾞｸﾞﾝｵﾝｶﾞﾁｮｳ","streetKana":"ｱｻｷﾞ","prefecture":"福岡県","city":"遠賀郡遠賀町","street":"浅木"},{"zipCode":"8114303","prefectureKana":"ﾌｸｵｶｹﾝ","cityKana":"ｵﾝｶﾞｸﾞﾝｵﾝｶﾞﾁｮｳ","streetKana":"ｲﾏｺｶﾞ","prefecture":"福岡県","city":"遠賀郡遠賀町","street":"今古賀"},{"zipCode":"8114311","prefectureKana":"ﾌｸｵｶｹﾝ","cityKana":"ｵﾝｶﾞｸﾞﾝｵﾝｶﾞﾁｮｳ","streetKana":"ｵｲﾗ","prefecture":"福岡県","city":"遠賀郡遠賀町","street":"老良"},{"zipCode":"8114342","prefectureKana":"ﾌｸｵｶｹﾝ","cityKana":"ｵﾝｶﾞｸﾞﾝｵﾝｶﾞﾁｮｳ","streetKana":"ｵｻﾞｷ","prefecture":"福岡県","city":"遠賀郡遠賀町","street":"尾崎"},{"zipCode":"8114341","prefectureKana":"ﾌｸｵｶｹﾝ","cityKana":"ｵﾝｶﾞｸﾞﾝｵﾝｶﾞﾁｮｳ","streetKana":"ｵﾆﾂﾞ","prefecture":"福岡県","city":"遠賀郡遠賀町","street":"鬼津"},{"zipCode":"8114307","prefectureKana":"ﾌｸｵｶｹﾝ","cityKana":"ｵﾝｶﾞｸﾞﾝｵﾝｶﾞﾁｮｳ","streetKana":"ｵﾝｶﾞｶﾞﾜ","prefecture":"福岡県","city":"遠賀郡遠賀町","street":"遠賀川"},{"zipCode":"8114332","prefectureKana":"ﾌｸｵｶｹﾝ","cityKana":"ｵﾝｶﾞｸﾞﾝｵﾝｶﾞﾁｮｳ","streetKana":"ｶﾐﾍﾞﾌ","prefecture":"福岡県","city":"遠賀郡遠賀町","street":"上別府"},{"zipCode":"8114313","prefectureKana":"ﾌｸｵｶｹﾝ","cityKana":"ｵﾝｶﾞｸﾞﾝｵﾝｶﾞﾁｮｳ","streetKana":"ｷﾓﾘ","prefecture":"福岡県","city":"遠賀郡遠賀町","street":"木守"},{"zipCode":"8114306","prefectureKana":"ﾌｸｵｶｹﾝ","cityKana":"ｵﾝｶﾞｸﾞﾝｵﾝｶﾞﾁｮｳ","streetKana":"ｷｭｳﾃｲ","prefecture":"福岡県","city":"遠賀郡遠賀町","street":"旧停"},{"zipCode":"8114301","prefectureKana":"ﾌｸｵｶｹﾝ","cityKana":"ｵﾝｶﾞｸﾞﾝｵﾝｶﾞﾁｮｳ","streetKana":"ｼﾏﾂﾞ","prefecture":"福岡県","city":"遠賀郡遠賀町","street":"島津"},{"zipCode":"8114333","prefectureKana":"ﾌｸｵｶｹﾝ","cityKana":"ｵﾝｶﾞｸﾞﾝｵﾝｶﾞﾁｮｳ","streetKana":"ｼﾏﾄﾞ","prefecture":"福岡県","city":"遠賀郡遠賀町","street":"島門"},{"zipCode":"8114343","prefectureKana":"ﾌｸｵｶｹﾝ","cityKana":"ｵﾝｶﾞｸﾞﾝｵﾝｶﾞﾁｮｳ","streetKana":"ﾃﾞﾝｴﾝ","prefecture":"福岡県","city":"遠賀郡遠賀町","street":"田園"},{"zipCode":"8114302","prefectureKana":"ﾌｸｵｶｹﾝ","cityKana":"ｵﾝｶﾞｸﾞﾝｵﾝｶﾞﾁｮｳ","streetKana":"ﾋﾛﾜﾀﾘ","prefecture":"福岡県","city":"遠賀郡遠賀町","street":"広渡"},{"zipCode":"8114322","prefectureKana":"ﾌｸｵｶｹﾝ","cityKana":"ｵﾝｶﾞｸﾞﾝｵﾝｶﾞﾁｮｳ","streetKana":"ﾌﾖｳ","prefecture":"福岡県","city":"遠賀郡遠賀町","street":"芙蓉"},{"zipCode":"8114331","prefectureKana":"ﾌｸｵｶｹﾝ","cityKana":"ｵﾝｶﾞｸﾞﾝｵﾝｶﾞﾁｮｳ","streetKana":"ﾍﾞﾌ","prefecture":"福岡県","city":"遠賀郡遠賀町","street":"別府"},{"zipCode":"8114305","prefectureKana":"ﾌｸｵｶｹﾝ","cityKana":"ｵﾝｶﾞｸﾞﾝｵﾝｶﾞﾁｮｳ","streetKana":"ﾏﾂﾉﾓﾄ","prefecture":"福岡県","city":"遠賀郡遠賀町","street":"松の本"},{"zipCode":"8114321","prefectureKana":"ﾌｸｵｶｹﾝ","cityKana":"ｵﾝｶﾞｸﾞﾝｵﾝｶﾞﾁｮｳ","streetKana":"ﾑｼｮｳﾂﾞ","prefecture":"福岡県","city":"遠賀郡遠賀町","street":"虫生津"},{"zipCode":"8114324","prefectureKana":"ﾌｸｵｶｹﾝ","cityKana":"ｵﾝｶﾞｸﾞﾝｵﾝｶﾞﾁｮｳ","streetKana":"ﾑｼｮｳﾂﾞﾐﾅﾐ","prefecture":"福岡県","city":"遠賀郡遠賀町","street":"虫生津南"},{"zipCode":"8114334","prefectureKana":"ﾌｸｵｶｹﾝ","cityKana":"ｵﾝｶﾞｸﾞﾝｵﾝｶﾞﾁｮｳ","streetKana":"ﾚﾝｶﾞｸ","prefecture":"福岡県","city":"遠賀郡遠賀町","street":"蓮角"},{"zipCode":"8114323","prefectureKana":"ﾌｸｵｶｹﾝ","cityKana":"ｵﾝｶﾞｸﾞﾝｵﾝｶﾞﾁｮｳ","streetKana":"ﾜｶﾊﾞﾀﾞｲ","prefecture":"福岡県","city":"遠賀郡遠賀町","street":"若葉台"},{"zipCode":"8114304","prefectureKana":"ﾌｸｵｶｹﾝ","cityKana":"ｵﾝｶﾞｸﾞﾝｵﾝｶﾞﾁｮｳ","streetKana":"ﾜｶﾏﾂ","prefecture":"福岡県","city":"遠賀郡遠賀町","street":"若松"},{"zipCode":"8115100","prefectureKana":"ﾅｶﾞｻｷｹﾝ","cityKana":"ｲｷｼ","streetKana":"ｲｶﾆｹｲｻｲｶﾞﾅｲﾊﾞｱｲ","prefecture":"長崎県","city":"壱岐市","street":"以下に掲載がない場合"},{"zipCode":"8115301","prefectureKana":"ﾅｶﾞｻｷｹﾝ","cityKana":"ｲｷｼ","streetKana":"ｱｼﾍﾞﾁｮｳｱｼﾍﾞｳﾗ","prefecture":"長崎県","city":"壱岐市","street":"芦辺町芦辺浦"},{"zipCode":"8115733","prefectureKana":"ﾅｶﾞｻｷｹﾝ","cityKana":"ｲｷｼ","streetKana":"ｱｼﾍﾞﾁｮｳｺｸﾌﾞｶﾜﾑｶｴﾌﾚ","prefecture":"長崎県","city":"壱岐市","street":"芦辺町国分川迎触"},{"zipCode":"8115731","prefectureKana":"ﾅｶﾞｻｷｹﾝ","cityKana":"ｲｷｼ","streetKana":"ｱｼﾍﾞﾁｮｳｺｸﾌﾞﾄｳﾀﾞﾌﾚ","prefecture":"長崎県","city":"壱岐市","street":"芦辺町国分当田触"},{"zipCode":"8115732","prefectureKana":"ﾅｶﾞｻｷｹﾝ","cityKana":"ｲｷｼ","streetKana":"ｱｼﾍﾞﾁｮｳｺｸﾌﾞﾋｶﾞｼﾌﾚ","prefecture":"長崎県","city":"壱岐市","street":"芦辺町国分東触"},{"zipCode":"8115734","prefectureKana":"ﾅｶﾞｻｷｹﾝ","cityKana":"ｲｷｼ","streetKana":"ｱｼﾍﾞﾁｮｳｺｸﾌﾞﾎﾝﾑﾗﾌﾚ","prefecture":"長崎県","city":"壱岐市","street":"芦辺町国分本村触"},{"zipCode":"8115744","prefectureKana":"ﾅｶﾞｻｷｹﾝ","cityKana":"ｲｷｼ","streetKana":"ｱｼﾍﾞﾁｮｳｽﾐﾖｼｳｼﾛﾌﾚ","prefecture":"長崎県","city":"壱岐市","street":"芦辺町住吉後触"},{"zipCode":"8115742","prefectureKana":"ﾅｶﾞｻｷｹﾝ","cityKana":"ｲｷｼ","streetKana":"ｱｼﾍﾞﾁｮｳｽﾐﾖｼﾋｶﾞｼﾌﾚ","prefecture":"長崎県","city":"壱岐市","street":"芦辺町住吉東触"},{"zipCode":"8115743","prefectureKana":"ﾅｶﾞｻｷｹﾝ","cityKana":"ｲｷｼ","streetKana":"ｱｼﾍﾞﾁｮｳｽﾐﾖｼﾏｴﾌﾚ","prefecture":"長崎県","city":"壱岐市","street":"芦辺町住吉前触"},{"zipCode":"8115741","prefectureKana":"ﾅｶﾞｻｷｹﾝ","cityKana":"ｲｷｼ","streetKana":"ｱｼﾍﾞﾁｮｳｽﾐﾖｼﾔﾏﾉﾌﾞﾌﾚ","prefecture":"長崎県","city":"壱岐市","street":"芦辺町住吉山信触"},{"zipCode":"8115461","prefectureKana":"ﾅｶﾞｻｷｹﾝ","cityKana":"ｲｷｼ","streetKana":"ｱｼﾍﾞﾁｮｳｾﾄｳﾗ","prefecture":"長崎県","city":"壱岐市","street":"芦辺町瀬戸浦"},{"zipCode":"8115751","prefectureKana":"ﾅｶﾞｻｷｹﾝ","cityKana":"ｲｷｼ","streetKana":"ｱｼﾍﾞﾁｮｳﾅｶﾉｺﾞｳﾅｶﾌﾚ","prefecture":"長崎県","city":"壱岐市","street":"芦辺町中野郷仲触"},{"zipCode":"8115757","prefectureKana":"ﾅｶﾞｻｷｹﾝ","cityKana":"ｲｷｼ","streetKana":"ｱｼﾍﾞﾁｮｳﾅｶﾉｺﾞｳﾆｼﾌﾚ","prefecture":"長崎県","city":"壱岐市","street":"芦辺町中野郷西触"},{"zipCode":"8115752","prefectureKana":"ﾅｶﾞｻｷｹﾝ","cityKana":"ｲｷｼ","streetKana":"ｱｼﾍﾞﾁｮｳﾅｶﾉｺﾞｳﾋｶﾞｼﾌﾚ","prefecture":"長崎県","city":"壱岐市","street":"芦辺町中野郷東触"},{"zipCode":"8115756","prefectureKana":"ﾅｶﾞｻｷｹﾝ","cityKana":"ｲｷｼ","streetKana":"ｱｼﾍﾞﾁｮｳﾅｶﾉｺﾞｳﾎﾝﾑﾗﾌﾚ","prefecture":"長崎県","city":"壱岐市","street":"芦辺町中野郷本村触"},{"zipCode":"8115467","prefectureKana":"ﾅｶﾞｻｷｹﾝ","cityKana":"ｲｷｼ","streetKana":"ｱｼﾍﾞﾁｮｳﾊｺｻﾞｷｴｽﾐﾌﾚ","prefecture":"長崎県","city":"壱岐市","street":"芦辺町箱崎江角触"},{"zipCode":"8115465","prefectureKana":"ﾅｶﾞｻｷｹﾝ","cityKana":"ｲｷｼ","streetKana":"ｱｼﾍﾞﾁｮｳﾊｺｻﾞｷｸｷﾞﾉｵﾌﾚ","prefecture":"長崎県","city":"壱岐市","street":"芦辺町箱崎釘ノ尾触"},{"zipCode":"8115462","prefectureKana":"ﾅｶﾞｻｷｹﾝ","cityKana":"ｲｷｼ","streetKana":"ｱｼﾍﾞﾁｮｳﾊｺｻﾞｷﾀｲｿｳﾌﾚ","prefecture":"長崎県","city":"壱岐市","street":"芦辺町箱崎大左右触"},{"zipCode":"8115464","prefectureKana":"ﾅｶﾞｻｷｹﾝ","cityKana":"ｲｷｼ","streetKana":"ｱｼﾍﾞﾁｮｳﾊｺｻﾞｷﾀﾆｴﾌﾚ","prefecture":"長崎県","city":"壱岐市","street":"芦辺町箱崎谷江触"},{"zipCode":"8115463","prefectureKana":"ﾅｶﾞｻｷｹﾝ","cityKana":"ｲｷｼ","streetKana":"ｱｼﾍﾞﾁｮｳﾊｺｻﾞｷﾅｶﾔﾏﾌﾚ","prefecture":"長崎県","city":"壱岐市","street":"芦辺町箱崎中山触"},{"zipCode":"8115466","prefectureKana":"ﾅｶﾞｻｷｹﾝ","cityKana":"ｲｷｼ","streetKana":"ｱｼﾍﾞﾁｮｳﾊｺｻﾞｷﾎﾝﾑﾗﾌﾚ","prefecture":"長崎県","city":"壱岐市","street":"芦辺町箱崎本村触"},{"zipCode":"8115468","prefectureKana":"ﾅｶﾞｻｷｹﾝ","cityKana":"ｲｷｼ","streetKana":"ｱｼﾍﾞﾁｮｳﾊｺｻﾞｷﾓﾛﾂﾌﾚ","prefecture":"長崎県","city":"壱岐市","street":"芦辺町箱崎諸津触"},{"zipCode":"8115321","prefectureKana":"ﾅｶﾞｻｷｹﾝ","cityKana":"ｲｷｼ","streetKana":"ｱｼﾍﾞﾁｮｳﾌｶｴｻｶｴﾌﾚ","prefecture":"長崎県","city":"壱岐市","street":"芦辺町深江栄触"},{"zipCode":"8115322","prefectureKana":"ﾅｶﾞｻｷｹﾝ","cityKana":"ｲｷｼ","streetKana":"ｱｼﾍﾞﾁｮｳﾌｶｴﾂﾙｷﾌﾚ","prefecture":"長崎県","city":"壱岐市","street":"芦辺町深江鶴亀触"},{"zipCode":"8115324","prefectureKana":"ﾅｶﾞｻｷｹﾝ","cityKana":"ｲｷｼ","streetKana":"ｱｼﾍﾞﾁｮｳﾌｶｴﾋｶﾞｼﾌﾚ","prefecture":"長崎県","city":"壱岐市","street":"芦辺町深江東触"},{"zipCode":"8115323","prefectureKana":"ﾅｶﾞｻｷｹﾝ","cityKana":"ｲｷｼ","streetKana":"ｱｼﾍﾞﾁｮｳﾌｶｴﾋﾗﾌﾚ","prefecture":"長崎県","city":"壱岐市","street":"芦辺町深江平触"},{"zipCode":"8115326","prefectureKana":"ﾅｶﾞｻｷｹﾝ","cityKana":"ｲｷｼ","streetKana":"ｱｼﾍﾞﾁｮｳﾌｶｴﾎﾝﾑﾗﾌﾚ","prefecture":"長崎県","city":"壱岐市","street":"芦辺町深江本村触"},{"zipCode":"8115325","prefectureKana":"ﾅｶﾞｻｷｹﾝ","cityKana":"ｲｷｼ","streetKana":"ｱｼﾍﾞﾁｮｳﾌｶｴﾐﾅﾐﾌﾚ","prefecture":"長崎県","city":"壱岐市","street":"芦辺町深江南触"},{"zipCode":"8115316","prefectureKana":"ﾅｶﾞｻｷｹﾝ","cityKana":"ｲｷｼ","streetKana":"ｱｼﾍﾞﾁｮｳﾓﾛﾖｼｵｵｲｼﾌﾚ","prefecture":"長崎県","city":"壱岐市","street":"芦辺町諸吉大石触"},{"zipCode":"8115313","prefectureKana":"ﾅｶﾞｻｷｹﾝ","cityKana":"ｲｷｼ","streetKana":"ｱｼﾍﾞﾁｮｳﾓﾛﾖｼﾅｶﾌﾚ","prefecture":"長崎県","city":"壱岐市","street":"芦辺町諸吉仲触"},{"zipCode":"8115314","prefectureKana":"ﾅｶﾞｻｷｹﾝ","cityKana":"ｲｷｼ","streetKana":"ｱｼﾍﾞﾁｮｳﾓﾛﾖｼﾋｶﾞｼﾌﾚ","prefecture":"長崎県","city":"壱岐市","street":"芦辺町諸吉東触"},{"zipCode":"8115315","prefectureKana":"ﾅｶﾞｻｷｹﾝ","cityKana":"ｲｷｼ","streetKana":"ｱｼﾍﾞﾁｮｳﾓﾛﾖｼﾌﾀﾏﾀﾌﾚ","prefecture":"長崎県","city":"壱岐市","street":"芦辺町諸吉二亦触"},{"zipCode":"8115311","prefectureKana":"ﾅｶﾞｻｷｹﾝ","cityKana":"ｲｷｼ","streetKana":"ｱｼﾍﾞﾁｮｳﾓﾛﾖｼﾎﾝﾑﾗﾌﾚ","prefecture":"長崎県","city":"壱岐市","street":"芦辺町諸吉本村触"},{"zipCode":"8115312","prefectureKana":"ﾅｶﾞｻｷｹﾝ","cityKana":"ｲｷｼ","streetKana":"ｱｼﾍﾞﾁｮｳﾓﾛﾖｼﾐﾅﾐﾌﾚ","prefecture":"長崎県","city":"壱岐市","street":"芦辺町諸吉南触"},{"zipCode":"8115755","prefectureKana":"ﾅｶﾞｻｷｹﾝ","cityKana":"ｲｷｼ","streetKana":"ｱｼﾍﾞﾁｮｳﾕﾀｹｺｳﾌﾚ","prefecture":"長崎県","city":"壱岐市","street":"芦辺町湯岳興触"},{"zipCode":"8115754","prefectureKana":"ﾅｶﾞｻｷｹﾝ","cityKana":"ｲｷｼ","streetKana":"ｱｼﾍﾞﾁｮｳﾕﾀｹｺﾝｻﾞｶﾌﾚ","prefecture":"長崎県","city":"壱岐市","street":"芦辺町湯岳今坂触"},{"zipCode":"8115753","prefectureKana":"ﾅｶﾞｻｷｹﾝ","cityKana":"ｲｷｼ","streetKana":"ｱｼﾍﾞﾁｮｳﾕﾀｹﾎﾝﾑﾗﾌﾚ","prefecture":"長崎県","city":"壱岐市","street":"芦辺町湯岳本村触"},{"zipCode":"8115222","prefectureKana":"ﾅｶﾞｻｷｹﾝ","cityKana":"ｲｷｼ","streetKana":"ｲｼﾀﾞﾁｮｳｲｹﾀﾞﾅｶﾌﾚ","prefecture":"長崎県","city":"壱岐市","street":"石田町池田仲触"},{"zipCode":"8115224","prefectureKana":"ﾅｶﾞｻｷｹﾝ","cityKana":"ｲｷｼ","streetKana":"ｲｼﾀﾞﾁｮｳｲｹﾀﾞﾆｼﾌﾚ","prefecture":"長崎県","city":"壱岐市","street":"石田町池田西触"},{"zipCode":"8115221","prefectureKana":"ﾅｶﾞｻｷｹﾝ","cityKana":"ｲｷｼ","streetKana":"ｲｼﾀﾞﾁｮｳｲｹﾀﾞﾋｶﾞｼﾌﾚ","prefecture":"長崎県","city":"壱岐市","street":"石田町池田東触"},{"zipCode":"8115215","prefectureKana":"ﾅｶﾞｻｷｹﾝ","cityKana":"ｲｷｼ","streetKana":"ｲｼﾀﾞﾁｮｳｲｼﾀﾞﾆｼﾌﾚ","prefecture":"長崎県","city":"壱岐市","street":"石田町石田西触"},{"zipCode":"8115211","prefectureKana":"ﾅｶﾞｻｷｹﾝ","cityKana":"ｲｷｼ","streetKana":"ｲｼﾀﾞﾁｮｳｲｼﾀﾞﾋｶﾞｼﾌﾚ","prefecture":"長崎県","city":"壱岐市","street":"石田町石田東触"},{"zipCode":"8115214","prefectureKana":"ﾅｶﾞｻｷｹﾝ","cityKana":"ｲｷｼ","streetKana":"ｲｼﾀﾞﾁｮｳｲﾝﾄﾞｵｼﾞｳﾗ","prefecture":"長崎県","city":"壱岐市","street":"石田町印通寺浦"},{"zipCode":"8115223","prefectureKana":"ﾅｶﾞｻｷｹﾝ","cityKana":"ｲｷｼ","streetKana":"ｲｼﾀﾞﾁｮｳｸｷﾌﾚ","prefecture":"長崎県","city":"壱岐市","street":"石田町久喜触"},{"zipCode":"8115202","prefectureKana":"ﾅｶﾞｻｷｹﾝ","cityKana":"ｲｷｼ","streetKana":"ｲｼﾀﾞﾁｮｳﾂﾂｷﾅｶﾌﾚ","prefecture":"長崎県","city":"壱岐市","street":"石田町筒城仲触"},{"zipCode":"8115204","prefectureKana":"ﾅｶﾞｻｷｹﾝ","cityKana":"ｲｷｼ","streetKana":"ｲｼﾀﾞﾁｮｳﾂﾂｷﾆｼﾌﾚ","prefecture":"長崎県","city":"壱岐市","street":"石田町筒城西触"},{"zipCode":"8115203","prefectureKana":"ﾅｶﾞｻｷｹﾝ","cityKana":"ｲｷｼ","streetKana":"ｲｼﾀﾞﾁｮｳﾂﾂｷﾋｶﾞｼﾌﾚ","prefecture":"長崎県","city":"壱岐市","street":"石田町筒城東触"},{"zipCode":"8115212","prefectureKana":"ﾅｶﾞｻｷｹﾝ","cityKana":"ｲｷｼ","streetKana":"ｲｼﾀﾞﾁｮｳﾎﾝﾑﾗﾌﾚ","prefecture":"長崎県","city":"壱岐市","street":"石田町本村触"},{"zipCode":"8115213","prefectureKana":"ﾅｶﾞｻｷｹﾝ","cityKana":"ｲｷｼ","streetKana":"ｲｼﾀﾞﾁｮｳﾐﾅﾐﾌﾚ","prefecture":"長崎県","city":"壱岐市","street":"石田町南触"},{"zipCode":"8115201","prefectureKana":"ﾅｶﾞｻｷｹﾝ","cityKana":"ｲｷｼ","streetKana":"ｲｼﾀﾞﾁｮｳﾔﾏｻｷﾌﾚ","prefecture":"長崎県","city":"壱岐市","street":"石田町山崎触"},{"zipCode":"8115226","prefectureKana":"ﾅｶﾞｻｷｹﾝ","cityKana":"ｲｷｼ","streetKana":"ｲｼﾀﾞﾁｮｳﾕﾀｹｲﾃﾖｼﾌﾚ","prefecture":"長崎県","city":"壱岐市","street":"石田町湯岳射手吉触"},{"zipCode":"8115225","prefectureKana":"ﾅｶﾞｻｷｹﾝ","cityKana":"ｲｷｼ","streetKana":"ｲｼﾀﾞﾁｮｳﾕﾀｹｺｳﾌﾚ","prefecture":"長崎県","city":"壱岐市","street":"石田町湯岳興触"},{"zipCode":"8115543","prefectureKana":"ﾅｶﾞｻｷｹﾝ","cityKana":"ｲｷｼ","streetKana":"ｶﾂﾓﾄﾁｮｳｳﾜﾊﾞﾌﾚ","prefecture":"長崎県","city":"壱岐市","street":"勝本町上場触"},{"zipCode":"8115532","prefectureKana":"ﾅｶﾞｻｷｹﾝ","cityKana":"ｲｷｼ","streetKana":"ｶﾂﾓﾄﾁｮｳｵｵｸﾎﾞﾌﾚ","prefecture":"長崎県","city":"壱岐市","street":"勝本町大久保触"},{"zipCode":"8115523","prefectureKana":"ﾅｶﾞｻｷｹﾝ","cityKana":"ｲｷｼ","streetKana":"ｶﾂﾓﾄﾁｮｳｶﾀﾔﾏﾌﾚ","prefecture":"長崎県","city":"壱岐市","street":"勝本町片山触"},{"zipCode":"8115501","prefectureKana":"ﾅｶﾞｻｷｹﾝ","cityKana":"ｲｷｼ","streetKana":"ｶﾂﾓﾄﾁｮｳｶﾂﾓﾄｳﾗ","prefecture":"長崎県","city":"壱岐市","street":"勝本町勝本浦"},{"zipCode":"8115513","prefectureKana":"ﾅｶﾞｻｷｹﾝ","cityKana":"ｲｷｼ","streetKana":"ｶﾂﾓﾄﾁｮｳｷﾀﾌﾚ","prefecture":"長崎県","city":"壱岐市","street":"勝本町北触"},{"zipCode":"8115521","prefectureKana":"ﾅｶﾞｻｷｹﾝ","cityKana":"ｲｷｼ","streetKana":"ｶﾂﾓﾄﾁｮｳｻｲﾄﾞﾌﾚ","prefecture":"長崎県","city":"壱岐市","street":"勝本町西戸触"},{"zipCode":"8115531","prefectureKana":"ﾅｶﾞｻｷｹﾝ","cityKana":"ｲｷｼ","streetKana":"ｶﾂﾓﾄﾁｮｳｻｶﾓﾄﾌﾚ","prefecture":"長崎県","city":"壱岐市","street":"勝本町坂本触"},{"zipCode":"8115533","prefectureKana":"ﾅｶﾞｻｷｹﾝ","cityKana":"ｲｷｼ","streetKana":"ｶﾂﾓﾄﾁｮｳｼﾝｼﾞｮｳﾆｼﾌﾚ","prefecture":"長崎県","city":"壱岐市","street":"勝本町新城西触"},{"zipCode":"8115522","prefectureKana":"ﾅｶﾞｻｷｹﾝ","cityKana":"ｲｷｼ","streetKana":"ｶﾂﾓﾄﾁｮｳｼﾝｼﾞｮｳﾋｶﾞｼﾌﾚ","prefecture":"長崎県","city":"壱岐市","street":"勝本町新城東触"},{"zipCode":"8115554","prefectureKana":"ﾅｶﾞｻｷｹﾝ","cityKana":"ｲｷｼ","streetKana":"ｶﾂﾓﾄﾁｮｳﾀﾃｲｼﾅｶﾌﾚ","prefecture":"長崎県","city":"壱岐市","street":"勝本町立石仲触"},{"zipCode":"8115556","prefectureKana":"ﾅｶﾞｻｷｹﾝ","cityKana":"ｲｷｼ","streetKana":"ｶﾂﾓﾄﾁｮｳﾀﾃｲｼﾆｼﾌﾚ","prefecture":"長崎県","city":"壱岐市","street":"勝本町立石西触"},{"zipCode":"8115553","prefectureKana":"ﾅｶﾞｻｷｹﾝ","cityKana":"ｲｷｼ","streetKana":"ｶﾂﾓﾄﾁｮｳﾀﾃｲｼﾋｶﾞｼﾌﾚ","prefecture":"長崎県","city":"壱岐市","street":"勝本町立石東触"},{"zipCode":"8115555","prefectureKana":"ﾅｶﾞｻｷｹﾝ","cityKana":"ｲｷｼ","streetKana":"ｶﾂﾓﾄﾁｮｳﾀﾃｲｼﾐﾅﾐﾌﾚ","prefecture":"長崎県","city":"壱岐市","street":"勝本町立石南触"},{"zipCode":"8115511","prefectureKana":"ﾅｶﾞｻｷｹﾝ","cityKana":"ｲｷｼ","streetKana":"ｶﾂﾓﾄﾁｮｳﾅｶﾌﾚ","prefecture":"長崎県","city":"壱岐市","street":"勝本町仲触"},{"zipCode":"8115512","prefectureKana":"ﾅｶﾞｻｷｹﾝ","cityKana":"ｲｷｼ","streetKana":"ｶﾂﾓﾄﾁｮｳﾋｶﾞｼﾌﾚ","prefecture":"長崎県","city":"壱岐市","street":"勝本町東触"},{"zipCode":"8115544","prefectureKana":"ﾅｶﾞｻｷｹﾝ","cityKana":"ｲｷｼ","streetKana":"ｶﾂﾓﾄﾁｮｳﾌｹﾌﾚ","prefecture":"長崎県","city":"壱岐市","street":"勝本町布気触"},{"zipCode":"8115546","prefectureKana":"ﾅｶﾞｻｷｹﾝ","cityKana":"ｲｷｼ","streetKana":"ｶﾂﾓﾄﾁｮｳﾎﾝｸﾞｳﾅｶﾌﾚ","prefecture":"長崎県","city":"壱岐市","street":"勝本町本宮仲触"},{"zipCode":"8115541","prefectureKana":"ﾅｶﾞｻｷｹﾝ","cityKana":"ｲｷｼ","streetKana":"ｶﾂﾓﾄﾁｮｳﾎﾝｸﾞｳﾆｼﾌﾚ","prefecture":"長崎県","city":"壱岐市","street":"勝本町本宮西触"},{"zipCode":"8115542","prefectureKana":"ﾅｶﾞｻｷｹﾝ","cityKana":"ｲｷｼ","streetKana":"ｶﾂﾓﾄﾁｮｳﾎﾝｸﾞｳﾋｶﾞｼﾌﾚ","prefecture":"長崎県","city":"壱岐市","street":"勝本町本宮東触"},{"zipCode":"8115545","prefectureKana":"ﾅｶﾞｻｷｹﾝ","cityKana":"ｲｷｼ","streetKana":"ｶﾂﾓﾄﾁｮｳﾎﾝｸﾞｳﾐﾅﾐﾌﾚ","prefecture":"長崎県","city":"壱岐市","street":"勝本町本宮南触"},{"zipCode":"8115551","prefectureKana":"ﾅｶﾞｻｷｹﾝ","cityKana":"ｲｷｼ","streetKana":"ｶﾂﾓﾄﾁｮｳﾕﾉﾓﾄｳﾗ","prefecture":"長崎県","city":"壱岐市","street":"勝本町湯本浦"},{"zipCode":"8115552","prefectureKana":"ﾅｶﾞｻｷｹﾝ","cityKana":"ｲｷｼ","streetKana":"ｶﾂﾓﾄﾁｮｳﾕﾘﾊﾀﾌﾚ","prefecture":"長崎県","city":"壱岐市","street":"勝本町百合畑触"},{"zipCode":"8115107","prefectureKana":"ﾅｶﾞｻｷｹﾝ","cityKana":"ｲｷｼ","streetKana":"ｺﾞｳﾉｳﾗﾁｮｳｱﾘﾔｽﾌﾚ","prefecture":"長崎県","city":"壱岐市","street":"郷ノ浦町有安触"},{"zipCode":"8115113","prefectureKana":"ﾅｶﾞｻｷｹﾝ","cityKana":"ｲｷｼ","streetKana":"ｺﾞｳﾉｳﾗﾁｮｳｳｼｶﾀﾌﾚ","prefecture":"長崎県","city":"壱岐市","street":"郷ノ浦町牛方触"},{"zipCode":"8115112","prefectureKana":"ﾅｶﾞｻｷｹﾝ","cityKana":"ｲｷｼ","streetKana":"ｺﾞｳﾉｳﾗﾁｮｳｵｵｳﾗﾌﾚ","prefecture":"長崎県","city":"壱岐市","street":"郷ノ浦町大浦触"},{"zipCode":"8115161","prefectureKana":"ﾅｶﾞｻｷｹﾝ","cityKana":"ｲｷｼ","streetKana":"ｺﾞｳﾉｳﾗﾁｮｳｵｵｼﾏ","prefecture":"長崎県","city":"壱岐市","street":"郷ノ浦町大島"},{"zipCode":"8115136","prefectureKana":"ﾅｶﾞｻｷｹﾝ","cityKana":"ｲｷｼ","streetKana":"ｺﾞｳﾉｳﾗﾁｮｳｶﾀﾊﾞﾙﾌﾚ","prefecture":"長崎県","city":"壱岐市","street":"郷ノ浦町片原触"},{"zipCode":"8115115","prefectureKana":"ﾅｶﾞｻｷｹﾝ","cityKana":"ｲｷｼ","streetKana":"ｺﾞｳﾉｳﾗﾁｮｳｷﾀﾞﾌﾚ","prefecture":"長崎県","city":"壱岐市","street":"郷ノ浦町木田触"},{"zipCode":"8115123","prefectureKana":"ﾅｶﾞｻｷｹﾝ","cityKana":"ｲｷｼ","streetKana":"ｺﾞｳﾉｳﾗﾁｮｳｸｷﾞﾔﾏﾌﾚ","prefecture":"長崎県","city":"壱岐市","street":"郷ノ浦町釘山触"},{"zipCode":"8115135","prefectureKana":"ﾅｶﾞｻｷｹﾝ","cityKana":"ｲｷｼ","streetKana":"ｺﾞｳﾉｳﾗﾁｮｳｺﾞｳﾉｳﾗ","prefecture":"長崎県","city":"壱岐市","street":"郷ノ浦町郷ノ浦"},{"zipCode":"8115105","prefectureKana":"ﾅｶﾞｻｷｹﾝ","cityKana":"ｲｷｼ","streetKana":"ｺﾞｳﾉｳﾗﾁｮｳｺﾏｷﾆｼﾌﾚ","prefecture":"長崎県","city":"壱岐市","street":"郷ノ浦町小牧西触"},{"zipCode":"8115106","prefectureKana":"ﾅｶﾞｻｷｹﾝ","cityKana":"ｲｷｼ","streetKana":"ｺﾞｳﾉｳﾗﾁｮｳｺﾏｷﾋｶﾞｼﾌﾚ","prefecture":"長崎県","city":"壱岐市","street":"郷ノ浦町小牧東触"},{"zipCode":"8115104","prefectureKana":"ﾅｶﾞｻｷｹﾝ","cityKana":"ｲｷｼ","streetKana":"ｺﾞｳﾉｳﾗﾁｮｳｻﾄﾌﾚ","prefecture":"長崎県","city":"壱岐市","street":"郷ノ浦町里触"},{"zipCode":"8115125","prefectureKana":"ﾅｶﾞｻｷｹﾝ","cityKana":"ｲｷｼ","streetKana":"ｺﾞｳﾉｳﾗﾁｮｳｼﾊﾗﾆｼﾌﾚ","prefecture":"長崎県","city":"壱岐市","street":"郷ノ浦町志原西触"},{"zipCode":"8115124","prefectureKana":"ﾅｶﾞｻｷｹﾝ","cityKana":"ｲｷｼ","streetKana":"ｺﾞｳﾉｳﾗﾁｮｳｼﾊﾗﾐﾅﾐﾌﾚ","prefecture":"長崎県","city":"壱岐市","street":"郷ノ浦町志原南触"},{"zipCode":"8115134","prefectureKana":"ﾅｶﾞｻｷｹﾝ","cityKana":"ｲｷｼ","streetKana":"ｺﾞｳﾉｳﾗﾁｮｳｼｮｳﾌﾚ","prefecture":"長崎県","city":"壱岐市","street":"郷ノ浦町庄触"},{"zipCode":"8115103","prefectureKana":"ﾅｶﾞｻｷｹﾝ","cityKana":"ｲｷｼ","streetKana":"ｺﾞｳﾉｳﾗﾁｮｳｼﾝﾃﾞﾝﾌﾚ","prefecture":"長崎県","city":"壱岐市","street":"郷ノ浦町新田触"},{"zipCode":"8115122","prefectureKana":"ﾅｶﾞｻｷｹﾝ","cityKana":"ｲｷｼ","streetKana":"ｺﾞｳﾉｳﾗﾁｮｳﾀｲﾊﾞﾙﾌﾚ","prefecture":"長崎県","city":"壱岐市","street":"郷ノ浦町大原触"},{"zipCode":"8115117","prefectureKana":"ﾅｶﾞｻｷｹﾝ","cityKana":"ｲｷｼ","streetKana":"ｺﾞｳﾉｳﾗﾁｮｳﾀﾅｶﾌﾚ","prefecture":"長崎県","city":"壱岐市","street":"郷ノ浦町田中触"},{"zipCode":"8115142","prefectureKana":"ﾅｶﾞｻｷｹﾝ","cityKana":"ｲｷｼ","streetKana":"ｺﾞｳﾉｳﾗﾁｮｳﾂﾎﾞﾌﾚ","prefecture":"長崎県","city":"壱岐市","street":"郷ノ浦町坪触"},{"zipCode":"8115162","prefectureKana":"ﾅｶﾞｻｷｹﾝ","cityKana":"ｲｷｼ","streetKana":"ｺﾞｳﾉｳﾗﾁｮｳﾅｶﾞｼﾏ","prefecture":"長崎県","city":"壱岐市","street":"郷ノ浦町長島"},{"zipCode":"8115131","prefectureKana":"ﾅｶﾞｻｷｹﾝ","cityKana":"ｲｷｼ","streetKana":"ｺﾞｳﾉｳﾗﾁｮｳﾅｶﾞﾀﾌﾚ","prefecture":"長崎県","city":"壱岐市","street":"郷ノ浦町永田触"},{"zipCode":"8115102","prefectureKana":"ﾅｶﾞｻｷｹﾝ","cityKana":"ｲｷｼ","streetKana":"ｺﾞｳﾉｳﾗﾁｮｳﾅｶﾞﾐﾈﾋｶﾞｼﾌﾚ","prefecture":"長崎県","city":"壱岐市","street":"郷ノ浦町長峰東触"},{"zipCode":"8115101","prefectureKana":"ﾅｶﾞｻｷｹﾝ","cityKana":"ｲｷｼ","streetKana":"ｺﾞｳﾉｳﾗﾁｮｳﾅｶﾞﾐﾈﾎﾝﾑﾗﾌﾚ","prefecture":"長崎県","city":"壱岐市","street":"郷ノ浦町長峰本村触"},{"zipCode":"8115143","prefectureKana":"ﾅｶﾞｻｷｹﾝ","cityKana":"ｲｷｼ","streetKana":"ｺﾞｳﾉｳﾗﾁｮｳﾊﾂﾔﾏﾆｼﾌﾚ","prefecture":"長崎県","city":"壱岐市","street":"郷ノ浦町初山西触"},{"zipCode":"8115144","prefectureKana":"ﾅｶﾞｻｷｹﾝ","cityKana":"ｲｷｼ","streetKana":"ｺﾞｳﾉｳﾗﾁｮｳﾊﾂﾔﾏﾋｶﾞｼﾌﾚ","prefecture":"長崎県","city":"壱岐市","street":"郷ノ浦町初山東触"},{"zipCode":"8115163","prefectureKana":"ﾅｶﾞｻｷｹﾝ","cityKana":"ｲｷｼ","streetKana":"ｺﾞｳﾉｳﾗﾁｮｳﾊﾙｼﾏ","prefecture":"長崎県","city":"壱岐市","street":"郷ノ浦町原島"},{"zipCode":"8115111","prefectureKana":"ﾅｶﾞｻｷｹﾝ","cityKana":"ｲｷｼ","streetKana":"ｺﾞｳﾉｳﾗﾁｮｳﾊﾝｾｲﾎﾝﾑﾗﾌﾚ","prefecture":"長崎県","city":"壱岐市","street":"郷ノ浦町半城本村触"},{"zipCode":"8115132","prefectureKana":"ﾅｶﾞｻｷｹﾝ","cityKana":"ｲｷｼ","streetKana":"ｺﾞｳﾉｳﾗﾁｮｳﾋｶﾞｼﾌﾚ","prefecture":"長崎県","city":"壱岐市","street":"郷ノ浦町東触"},{"zipCode":"8115121","prefectureKana":"ﾅｶﾞｻｷｹﾝ","cityKana":"ｲｷｼ","streetKana":"ｺﾞｳﾉｳﾗﾁｮｳﾋﾛｳﾄﾌﾚ","prefecture":"長崎県","city":"壱岐市","street":"郷ノ浦町平人触"},{"zipCode":"8115133","prefectureKana":"ﾅｶﾞｻｷｹﾝ","cityKana":"ｲｷｼ","streetKana":"ｺﾞｳﾉｳﾗﾁｮｳﾎﾝﾑﾗﾌﾚ","prefecture":"長崎県","city":"壱岐市","street":"郷ノ浦町本村触"},{"zipCode":"8115155","prefectureKana":"ﾅｶﾞｻｷｹﾝ","cityKana":"ｲｷｼ","streetKana":"ｺﾞｳﾉｳﾗﾁｮｳﾑｷﾞﾔﾌﾚ","prefecture":"長崎県","city":"壱岐市","street":"郷ノ浦町麦谷触"},{"zipCode":"8115116","prefectureKana":"ﾅｶﾞｻｷｹﾝ","cityKana":"ｲｷｼ","streetKana":"ｺﾞｳﾉｳﾗﾁｮｳﾓﾉﾍﾞﾎﾝﾑﾗﾌﾚ","prefecture":"長崎県","city":"壱岐市","street":"郷ノ浦町物部本村触"},{"zipCode":"8115114","prefectureKana":"ﾅｶﾞｻｷｹﾝ","cityKana":"ｲｷｼ","streetKana":"ｺﾞｳﾉｳﾗﾁｮｳﾔﾅｷﾞﾀﾞﾌﾚ","prefecture":"長崎県","city":"壱岐市","street":"郷ノ浦町柳田触"},{"zipCode":"8115141","prefectureKana":"ﾅｶﾞｻｷｹﾝ","cityKana":"ｲｷｼ","streetKana":"ｺﾞｳﾉｳﾗﾁｮｳﾜｶﾏﾂﾌﾚ","prefecture":"長崎県","city":"壱岐市","street":"郷ノ浦町若松触"},{"zipCode":"8115151","prefectureKana":"ﾅｶﾞｻｷｹﾝ","cityKana":"ｲｷｼ","streetKana":"ｺﾞｳﾉｳﾗﾁｮｳﾜﾀﾗｳﾗ","prefecture":"長崎県","city":"壱岐市","street":"郷ノ浦町渡良浦"},{"zipCode":"8115153","prefectureKana":"ﾅｶﾞｻｷｹﾝ","cityKana":"ｲｷｼ","streetKana":"ｺﾞｳﾉｳﾗﾁｮｳﾜﾀﾗﾆｼﾌﾚ","prefecture":"長崎県","city":"壱岐市","street":"郷ノ浦町渡良西触"},{"zipCode":"8115154","prefectureKana":"ﾅｶﾞｻｷｹﾝ","cityKana":"ｲｷｼ","streetKana":"ｺﾞｳﾉｳﾗﾁｮｳﾜﾀﾗﾋｶﾞｼﾌﾚ","prefecture":"長崎県","city":"壱岐市","street":"郷ノ浦町渡良東触"},{"zipCode":"8115152","prefectureKana":"ﾅｶﾞｻｷｹﾝ","cityKana":"ｲｷｼ","streetKana":"ｺﾞｳﾉｳﾗﾁｮｳﾜﾀﾗﾐﾅﾐﾌﾚ","prefecture":"長崎県","city":"壱岐市","street":"郷ノ浦町渡良南触"}]