[{"zipCode":"8120052","prefectureKana":"ﾌｸｵｶｹﾝ","cityKana":"ﾌｸｵｶｼﾋｶﾞｼｸ","streetKana":"ｶｲﾂﾞｶﾀﾞﾝﾁ","prefecture":"福岡県","city":"福岡市東区","street":"貝塚団地"},{"zipCode":"8120069","prefectureKana":"ﾌｸｵｶｹﾝ","cityKana":"ﾌｸｵｶｼﾋｶﾞｼｸ","streetKana":"ｺﾞｳｸﾞﾁﾏﾁ","prefecture":"福岡県","city":"福岡市東区","street":"郷口町"},{"zipCode":"8120068","prefectureKana":"ﾌｸｵｶｹﾝ","cityKana":"ﾌｸｵｶｼﾋｶﾞｼｸ","streetKana":"ｼｬﾘｮｳ","prefecture":"福岡県","city":"福岡市東区","street":"社領"},{"zipCode":"8120053","prefectureKana":"ﾌｸｵｶｹﾝ","cityKana":"ﾌｸｵｶｼﾋｶﾞｼｸ","streetKana":"ﾊｺｻﾞｷ","prefecture":"福岡県","city":"福岡市東区","street":"箱崎"},{"zipCode":"8120051","prefectureKana":"ﾌｸｵｶｹﾝ","cityKana":"ﾌｸｵｶｼﾋｶﾞｼｸ","streetKana":"ﾊｺｻﾞｷﾌﾄｳ","prefecture":"福岡県","city":"福岡市東区","street":"箱崎ふ頭"},{"zipCode":"8120061","prefectureKana":"ﾌｸｵｶｹﾝ","cityKana":"ﾌｸｵｶｼﾋｶﾞｼｸ","streetKana":"ﾊｺﾏﾂ","prefecture":"福岡県","city":"福岡市東区","street":"筥松"},{"zipCode":"8120067","prefectureKana":"ﾌｸｵｶｹﾝ","cityKana":"ﾌｸｵｶｼﾋｶﾞｼｸ","streetKana":"ﾊｺﾏﾂｼﾝﾏﾁ","prefecture":"福岡県","city":"福岡市東区","street":"筥松新町"},{"zipCode":"8120063","prefectureKana":"ﾌｸｵｶｹﾝ","cityKana":"ﾌｸｵｶｼﾋｶﾞｼｸ","streetKana":"ﾊﾗﾀﾞ","prefecture":"福岡県","city":"福岡市東区","street":"原田"},{"zipCode":"8120055","prefectureKana":"ﾌｸｵｶｹﾝ","cityKana":"ﾌｸｵｶｼﾋｶﾞｼｸ","streetKana":"ﾋｶﾞｼﾊﾏ","prefecture":"福岡県","city":"福岡市東区","street":"東浜"},{"zipCode":"8120066","prefectureKana":"ﾌｸｵｶｹﾝ","cityKana":"ﾌｸｵｶｼﾋｶﾞｼｸ","streetKana":"ﾌﾀﾏﾀｾ","prefecture":"福岡県","city":"福岡市東区","street":"二又瀬"},{"zipCode":"8120065","prefectureKana":"ﾌｸｵｶｹﾝ","cityKana":"ﾌｸｵｶｼﾋｶﾞｼｸ","streetKana":"ﾌﾀﾏﾀｾｼﾝﾏﾁ","prefecture":"福岡県","city":"福岡市東区","street":"二又瀬新町"},{"zipCode":"8120054","prefectureKana":"ﾌｸｵｶｹﾝ","cityKana":"ﾌｸｵｶｼﾋｶﾞｼｸ","streetKana":"ﾏｲﾀﾞｼ","prefecture":"福岡県","city":"福岡市東区","street":"馬出"},{"zipCode":"8120062","prefectureKana":"ﾌｸｵｶｹﾝ","cityKana":"ﾌｸｵｶｼﾋｶﾞｼｸ","streetKana":"ﾏﾂｼﾏ(1､2ﾁｮｳﾒ)","prefecture":"福岡県","city":"福岡市東区","street":"松島（１、２丁目）"},{"zipCode":"8120064","prefectureKana":"ﾌｸｵｶｹﾝ","cityKana":"ﾌｸｵｶｼﾋｶﾞｼｸ","streetKana":"ﾏﾂﾀﾞ","prefecture":"福岡県","city":"福岡市東区","street":"松田"},{"zipCode":"8120000","prefectureKana":"ﾌｸｵｶｹﾝ","cityKana":"ﾌｸｵｶｼﾊｶﾀｸ","streetKana":"ｲｶﾆｹｲｻｲｶﾞﾅｲﾊﾞｱｲ","prefecture":"福岡県","city":"福岡市博多区","street":"以下に掲載がない場合"},{"zipCode":"8120885","prefectureKana":"ﾌｸｵｶｹﾝ","cityKana":"ﾌｸｵｶｼﾊｶﾀｸ","streetKana":"ｱｲｵｲﾏﾁ","prefecture":"福岡県","city":"福岡市博多区","street":"相生町"},{"zipCode":"8120851","prefectureKana":"ﾌｸｵｶｹﾝ","cityKana":"ﾌｸｵｶｼﾊｶﾀｸ","streetKana":"ｱｵｷ","prefecture":"福岡県","city":"福岡市博多区","street":"青木"},{"zipCode":"8120881","prefectureKana":"ﾌｸｵｶｹﾝ","cityKana":"ﾌｸｵｶｼﾊｶﾀｸ","streetKana":"ｲｿｳﾀﾞ","prefecture":"福岡県","city":"福岡市博多区","street":"井相田"},{"zipCode":"8120888","prefectureKana":"ﾌｸｵｶｹﾝ","cityKana":"ﾌｸｵｶｼﾊｶﾀｸ","streetKana":"ｲﾀﾂﾞｹ","prefecture":"福岡県","city":"福岡市博多区","street":"板付"},{"zipCode":"8120861","prefectureKana":"ﾌｸｵｶｹﾝ","cityKana":"ﾌｸｵｶｼﾊｶﾀｸ","streetKana":"ｳﾗﾀ","prefecture":"福岡県","city":"福岡市博多区","street":"浦田"},{"zipCode":"8120004","prefectureKana":"ﾌｸｵｶｹﾝ","cityKana":"ﾌｸｵｶｼﾊｶﾀｸ","streetKana":"ｴﾉｷﾀﾞ","prefecture":"福岡県","city":"福岡市博多区","street":"榎田"},{"zipCode":"8120001","prefectureKana":"ﾌｸｵｶｹﾝ","cityKana":"ﾌｸｵｶｼﾊｶﾀｸ","streetKana":"ｵｵｲ","prefecture":"福岡県","city":"福岡市博多区","street":"大井"},{"zipCode":"8120031","prefectureKana":"ﾌｸｵｶｹﾝ","cityKana":"ﾌｸｵｶｼﾊｶﾀｸ","streetKana":"ｵｷﾊﾏﾏﾁ","prefecture":"福岡県","city":"福岡市博多区","street":"沖浜町"},{"zipCode":"8120043","prefectureKana":"ﾌｸｵｶｹﾝ","cityKana":"ﾌｸｵｶｼﾊｶﾀｸ","streetKana":"ｶﾀｶｽ","prefecture":"福岡県","city":"福岡市博多区","street":"堅粕"},{"zipCode":"8120863","prefectureKana":"ﾌｸｵｶｹﾝ","cityKana":"ﾌｸｵｶｼﾊｶﾀｸ","streetKana":"ｶﾈﾉｸﾏ","prefecture":"福岡県","city":"福岡市博多区","street":"金の隈"},{"zipCode":"8120005","prefectureKana":"ﾌｸｵｶｹﾝ","cityKana":"ﾌｸｵｶｼﾊｶﾀｸ","streetKana":"ｶﾐｳｽｲ","prefecture":"福岡県","city":"福岡市博多区","street":"上臼井"},{"zipCode":"8120026","prefectureKana":"ﾌｸｵｶｹﾝ","cityKana":"ﾌｸｵｶｼﾊｶﾀｸ","streetKana":"ｶﾐｶﾜﾊﾞﾀﾏﾁ","prefecture":"福岡県","city":"福岡市博多区","street":"上川端町"},{"zipCode":"8120036","prefectureKana":"ﾌｸｵｶｹﾝ","cityKana":"ﾌｸｵｶｼﾊｶﾀｸ","streetKana":"ｶﾐｺﾞﾌｸﾏﾁ","prefecture":"福岡県","city":"福岡市博多区","street":"上呉服町"},{"zipCode":"8120006","prefectureKana":"ﾌｸｵｶｹﾝ","cityKana":"ﾌｸｵｶｼﾊｶﾀｸ","streetKana":"ｶﾐﾑﾀ","prefecture":"福岡県","city":"福岡市博多区","street":"上牟田"},{"zipCode":"8120022","prefectureKana":"ﾌｸｵｶｹﾝ","cityKana":"ﾌｸｵｶｼﾊｶﾀｸ","streetKana":"ｶﾐﾔﾏﾁ","prefecture":"福岡県","city":"福岡市博多区","street":"神屋町"},{"zipCode":"8120038","prefectureKana":"ﾌｸｵｶｹﾝ","cityKana":"ﾌｸｵｶｼﾊｶﾀｸ","streetKana":"ｷﾞｵﾝﾏﾁ","prefecture":"福岡県","city":"福岡市博多区","street":"祇園町"},{"zipCode":"8120879","prefectureKana":"ﾌｸｵｶｹﾝ","cityKana":"ﾌｸｵｶｼﾊｶﾀｸ","streetKana":"ｷﾞﾝﾃﾝﾏﾁ","prefecture":"福岡県","city":"福岡市博多区","street":"銀天町"},{"zipCode":"8120002","prefectureKana":"ﾌｸｵｶｹﾝ","cityKana":"ﾌｸｵｶｼﾊｶﾀｸ","streetKana":"ｸｳｺｳﾏｴ","prefecture":"福岡県","city":"福岡市博多区","street":"空港前"},{"zipCode":"8120037","prefectureKana":"ﾌｸｵｶｹﾝ","cityKana":"ﾌｸｵｶｼﾊｶﾀｸ","streetKana":"ｺﾞｸｼｮﾏﾁ","prefecture":"福岡県","city":"福岡市博多区","street":"御供所町"},{"zipCode":"8120884","prefectureKana":"ﾌｸｵｶｹﾝ","cityKana":"ﾌｸｵｶｼﾊｶﾀｸ","streetKana":"ｺﾄﾌﾞｷﾏﾁ","prefecture":"福岡県","city":"福岡市博多区","street":"寿町"},{"zipCode":"8120029","prefectureKana":"ﾌｸｵｶｹﾝ","cityKana":"ﾌｸｵｶｼﾊｶﾀｸ","streetKana":"ｺﾓﾝﾄﾞﾏﾁ","prefecture":"福岡県","city":"福岡市博多区","street":"古門戸町"},{"zipCode":"8120891","prefectureKana":"ﾌｸｵｶｹﾝ","cityKana":"ﾌｸｵｶｼﾊｶﾀｸ","streetKana":"ｻｻｲ","prefecture":"福岡県","city":"福岡市博多区","street":"雀居"},{"zipCode":"8120887","prefectureKana":"ﾌｸｵｶｹﾝ","cityKana":"ﾌｸｵｶｼﾊｶﾀｸ","streetKana":"ｻﾝﾁｸ","prefecture":"福岡県","city":"福岡市博多区","street":"三筑"},{"zipCode":"8120015","prefectureKana":"ﾌｸｵｶｹﾝ","cityKana":"ﾌｸｵｶｼﾊｶﾀｸ","streetKana":"ｻﾝﾉｳ","prefecture":"福岡県","city":"福岡市博多区","street":"山王"},{"zipCode":"8120871","prefectureKana":"ﾌｸｵｶｹﾝ","cityKana":"ﾌｸｵｶｼﾊｶﾀｸ","streetKana":"ｼﾉﾉﾒﾏﾁ","prefecture":"福岡県","city":"福岡市博多区","street":"東雲町"},{"zipCode":"8120003","prefectureKana":"ﾌｸｵｶｹﾝ","cityKana":"ﾌｸｵｶｼﾊｶﾀｸ","streetKana":"ｼﾓｳｽｲ","prefecture":"福岡県","city":"福岡市博多区","street":"下臼井"},{"zipCode":"8120027","prefectureKana":"ﾌｸｵｶｹﾝ","cityKana":"ﾌｸｵｶｼﾊｶﾀｸ","streetKana":"ｼﾓｶﾜﾊﾞﾀﾏﾁ","prefecture":"福岡県","city":"福岡市博多区","street":"下川端町"},{"zipCode":"8120034","prefectureKana":"ﾌｸｵｶｹﾝ","cityKana":"ﾌｸｵｶｼﾊｶﾀｸ","streetKana":"ｼﾓｺﾞﾌｸﾏﾁ","prefecture":"福岡県","city":"福岡市博多区","street":"下呉服町"},{"zipCode":"8120855","prefectureKana":"ﾌｸｵｶｹﾝ","cityKana":"ﾌｸｵｶｼﾊｶﾀｸ","streetKana":"ｼﾓﾂｷｸﾞﾏ","prefecture":"福岡県","city":"福岡市博多区","street":"下月隈"},{"zipCode":"8120876","prefectureKana":"ﾌｸｵｶｹﾝ","cityKana":"ﾌｸｵｶｼﾊｶﾀｸ","streetKana":"ｼｮｳﾅﾝﾏﾁ","prefecture":"福岡県","city":"福岡市博多区","street":"昭南町"},{"zipCode":"8120875","prefectureKana":"ﾌｸｵｶｹﾝ","cityKana":"ﾌｸｵｶｼﾊｶﾀｸ","streetKana":"ｼﾝﾜﾏﾁ","prefecture":"福岡県","city":"福岡市博多区","street":"新和町"},{"zipCode":"8120028","prefectureKana":"ﾌｸｵｶｹﾝ","cityKana":"ﾌｸｵｶｼﾊｶﾀｸ","streetKana":"ｽｻｷﾏﾁ","prefecture":"福岡県","city":"福岡市博多区","street":"須崎町"},{"zipCode":"8120018","prefectureKana":"ﾌｸｵｶｹﾝ","cityKana":"ﾌｸｵｶｼﾊｶﾀｸ","streetKana":"ｽﾐﾖｼ","prefecture":"福岡県","city":"福岡市博多区","street":"住吉"},{"zipCode":"8120032","prefectureKana":"ﾌｸｵｶｹﾝ","cityKana":"ﾌｸｵｶｼﾊｶﾀｸ","streetKana":"ｾｷｼﾞｮｳﾏﾁ","prefecture":"福岡県","city":"福岡市博多区","street":"石城町"},{"zipCode":"8120033","prefectureKana":"ﾌｸｵｶｹﾝ","cityKana":"ﾌｸｵｶｼﾊｶﾀｸ","streetKana":"ﾀｲﾊｸﾏﾁ","prefecture":"福岡県","city":"福岡市博多区","street":"大博町"},{"zipCode":"8120878","prefectureKana":"ﾌｸｵｶｹﾝ","cityKana":"ﾌｸｵｶｼﾊｶﾀｸ","streetKana":"ﾀｹｵｶﾏﾁ","prefecture":"福岡県","city":"福岡市博多区","street":"竹丘町"},{"zipCode":"8120895","prefectureKana":"ﾌｸｵｶｹﾝ","cityKana":"ﾌｸｵｶｼﾊｶﾀｸ","streetKana":"ﾀｹｼﾀ","prefecture":"福岡県","city":"福岡市博多区","street":"竹下"},{"zipCode":"8120021","prefectureKana":"ﾌｸｵｶｹﾝ","cityKana":"ﾌｸｵｶｼﾊｶﾀｸ","streetKana":"ﾁｯｺｳﾎﾝﾏﾁ","prefecture":"福岡県","city":"福岡市博多区","street":"築港本町"},{"zipCode":"8120044","prefectureKana":"ﾌｸｵｶｹﾝ","cityKana":"ﾌｸｵｶｼﾊｶﾀｸ","streetKana":"ﾁﾖ","prefecture":"福岡県","city":"福岡市博多区","street":"千代"},{"zipCode":"8120858","prefectureKana":"ﾌｸｵｶｹﾝ","cityKana":"ﾌｸｵｶｼﾊｶﾀｸ","streetKana":"ﾂｷｸﾞﾏ","prefecture":"福岡県","city":"福岡市博多区","street":"月隈"},{"zipCode":"8120024","prefectureKana":"ﾌｸｵｶｹﾝ","cityKana":"ﾌｸｵｶｼﾊｶﾀｸ","streetKana":"ﾂﾅﾊﾞﾏﾁ","prefecture":"福岡県","city":"福岡市博多区","street":"綱場町"},{"zipCode":"8120020","prefectureKana":"ﾌｸｵｶｹﾝ","cityKana":"ﾌｸｵｶｼﾊｶﾀｸ","streetKana":"ﾂﾏｼｮｳｼﾞ","prefecture":"福岡県","city":"福岡市博多区","street":"対馬小路"},{"zipCode":"8120025","prefectureKana":"ﾌｸｵｶｹﾝ","cityKana":"ﾌｸｵｶｼﾊｶﾀｸ","streetKana":"ﾃﾝﾔﾏﾁ","prefecture":"福岡県","city":"福岡市博多区","street":"店屋町"},{"zipCode":"8120008","prefectureKana":"ﾌｸｵｶｹﾝ","cityKana":"ﾌｸｵｶｼﾊｶﾀｸ","streetKana":"ﾄｳｺｳ","prefecture":"福岡県","city":"福岡市博多区","street":"東光"},{"zipCode":"8120896","prefectureKana":"ﾌｸｵｶｹﾝ","cityKana":"ﾌｸｵｶｼﾊｶﾀｸ","streetKana":"ﾄｳｺｳｼﾞﾏﾁ","prefecture":"福岡県","city":"福岡市博多区","street":"東光寺町"},{"zipCode":"8120893","prefectureKana":"ﾌｸｵｶｹﾝ","cityKana":"ﾌｸｵｶｼﾊｶﾀｸ","streetKana":"ﾅｶ","prefecture":"福岡県","city":"福岡市博多区","street":"那珂"},{"zipCode":"8120035","prefectureKana":"ﾌｸｵｶｹﾝ","cityKana":"ﾌｸｵｶｼﾊｶﾀｸ","streetKana":"ﾅｶｺﾞﾌｸﾏﾁ","prefecture":"福岡県","city":"福岡市博多区","street":"中呉服町"},{"zipCode":"8120023","prefectureKana":"ﾌｸｵｶｹﾝ","cityKana":"ﾌｸｵｶｼﾊｶﾀｸ","streetKana":"ﾅﾗﾔﾏﾁ","prefecture":"福岡県","city":"福岡市博多区","street":"奈良屋町"},{"zipCode":"8120857","prefectureKana":"ﾌｸｵｶｹﾝ","cityKana":"ﾌｸｵｶｼﾊｶﾀｸ","streetKana":"ﾆｼﾂｷｸﾞﾏ","prefecture":"福岡県","city":"福岡市博多区","street":"西月隈"},{"zipCode":"8120873","prefectureKana":"ﾌｸｵｶｹﾝ","cityKana":"ﾌｸｵｶｼﾊｶﾀｸ","streetKana":"ﾆｼﾊﾙﾏﾁ","prefecture":"福岡県","city":"福岡市博多区","street":"西春町"},{"zipCode":"8120012","prefectureKana":"ﾌｸｵｶｹﾝ","cityKana":"ﾌｸｵｶｼﾊｶﾀｸ","streetKana":"ﾊｶﾀｴｷﾁｭｳｵｳｶﾞｲ","prefecture":"福岡県","city":"福岡市博多区","street":"博多駅中央街"},{"zipCode":"8120011","prefectureKana":"ﾌｸｵｶｹﾝ","cityKana":"ﾌｸｵｶｼﾊｶﾀｸ","streetKana":"ﾊｶﾀｴｷﾏｴ","prefecture":"福岡県","city":"福岡市博多区","street":"博多駅前"},{"zipCode":"8120013","prefectureKana":"ﾌｸｵｶｹﾝ","cityKana":"ﾌｸｵｶｼﾊｶﾀｸ","streetKana":"ﾊｶﾀｴｷﾋｶﾞｼ","prefecture":"福岡県","city":"福岡市博多区","street":"博多駅東"},{"zipCode":"8120016","prefectureKana":"ﾌｸｵｶｹﾝ","cityKana":"ﾌｸｵｶｼﾊｶﾀｸ","streetKana":"ﾊｶﾀｴｷﾐﾅﾐ","prefecture":"福岡県","city":"福岡市博多区","street":"博多駅南"},{"zipCode":"8120872","prefectureKana":"ﾌｸｵｶｹﾝ","cityKana":"ﾌｸｵｶｼﾊｶﾀｸ","streetKana":"ﾊﾙﾏﾁ","prefecture":"福岡県","city":"福岡市博多区","street":"春町"},{"zipCode":"8120897","prefectureKana":"ﾌｸｵｶｹﾝ","cityKana":"ﾌｸｵｶｼﾊｶﾀｸ","streetKana":"ﾊﾝﾐﾁﾊﾞｼ","prefecture":"福岡県","city":"福岡市博多区","street":"半道橋"},{"zipCode":"8120014","prefectureKana":"ﾌｸｵｶｹﾝ","cityKana":"ﾌｸｵｶｼﾊｶﾀｸ","streetKana":"ﾋｴﾏﾁ","prefecture":"福岡県","city":"福岡市博多区","street":"比恵町"},{"zipCode":"8120874","prefectureKana":"ﾌｸｵｶｹﾝ","cityKana":"ﾌｸｵｶｼﾊｶﾀｸ","streetKana":"ﾋｶﾘｶﾞｵｶﾏﾁ","prefecture":"福岡県","city":"福岡市博多区","street":"光丘町"},{"zipCode":"8120045","prefectureKana":"ﾌｸｵｶｹﾝ","cityKana":"ﾌｸｵｶｼﾊｶﾀｸ","streetKana":"ﾋｶﾞｼｺｳｴﾝ","prefecture":"福岡県","city":"福岡市博多区","street":"東公園"},{"zipCode":"8120854","prefectureKana":"ﾌｸｵｶｹﾝ","cityKana":"ﾌｸｵｶｼﾊｶﾀｸ","streetKana":"ﾋｶﾞｼﾂｷｸﾞﾏ","prefecture":"福岡県","city":"福岡市博多区","street":"東月隈"},{"zipCode":"8120892","prefectureKana":"ﾌｸｵｶｹﾝ","cityKana":"ﾌｸｵｶｼﾊｶﾀｸ","streetKana":"ﾋｶﾞｼﾅｶ","prefecture":"福岡県","city":"福岡市博多区","street":"東那珂"},{"zipCode":"8120007","prefectureKana":"ﾌｸｵｶｹﾝ","cityKana":"ﾌｸｵｶｼﾊｶﾀｸ","streetKana":"ﾋｶﾞｼﾋｴ","prefecture":"福岡県","city":"福岡市博多区","street":"東比恵"},{"zipCode":"8120853","prefectureKana":"ﾌｸｵｶｹﾝ","cityKana":"ﾌｸｵｶｼﾊｶﾀｸ","streetKana":"ﾋｶﾞｼﾋﾗｵ","prefecture":"福岡県","city":"福岡市博多区","street":"東平尾"},{"zipCode":"8120852","prefectureKana":"ﾌｸｵｶｹﾝ","cityKana":"ﾌｸｵｶｼﾊｶﾀｸ","streetKana":"ﾋｶﾞｼﾋﾗｵｺｳｴﾝ","prefecture":"福岡県","city":"福岡市博多区","street":"東平尾公園"},{"zipCode":"8120886","prefectureKana":"ﾌｸｵｶｹﾝ","cityKana":"ﾌｸｵｶｼﾊｶﾀｸ","streetKana":"ﾐﾅﾐﾊﾁﾏﾝﾏﾁ","prefecture":"福岡県","city":"福岡市博多区","street":"南八幡町"},{"zipCode":"8120883","prefectureKana":"ﾌｸｵｶｹﾝ","cityKana":"ﾌｸｵｶｼﾊｶﾀｸ","streetKana":"ﾐﾅﾐﾎﾝﾏﾁ","prefecture":"福岡県","city":"福岡市博多区","street":"南本町"},{"zipCode":"8120017","prefectureKana":"ﾌｸｵｶｹﾝ","cityKana":"ﾌｸｵｶｼﾊｶﾀｸ","streetKana":"ﾐﾉｼﾏ","prefecture":"福岡県","city":"福岡市博多区","street":"美野島"},{"zipCode":"8120882","prefectureKana":"ﾌｸｵｶｹﾝ","cityKana":"ﾌｸｵｶｼﾊｶﾀｸ","streetKana":"ﾑｷﾞﾉ","prefecture":"福岡県","city":"福岡市博多区","street":"麦野"},{"zipCode":"8120877","prefectureKana":"ﾌｸｵｶｹﾝ","cityKana":"ﾌｸｵｶｼﾊｶﾀｸ","streetKana":"ﾓﾄﾏﾁ","prefecture":"福岡県","city":"福岡市博多区","street":"元町"},{"zipCode":"8120894","prefectureKana":"ﾌｸｵｶｹﾝ","cityKana":"ﾌｸｵｶｼﾊｶﾀｸ","streetKana":"ﾓﾛｵｶ","prefecture":"福岡県","city":"福岡市博多区","street":"諸岡"},{"zipCode":"8120042","prefectureKana":"ﾌｸｵｶｹﾝ","cityKana":"ﾌｸｵｶｼﾊｶﾀｸ","streetKana":"ﾕﾀｶ","prefecture":"福岡県","city":"福岡市博多区","street":"豊"},{"zipCode":"8120041","prefectureKana":"ﾌｸｵｶｹﾝ","cityKana":"ﾌｸｵｶｼﾊｶﾀｸ","streetKana":"ﾖｼﾂﾞｶ","prefecture":"福岡県","city":"福岡市博多区","street":"吉塚"},{"zipCode":"8120046","prefectureKana":"ﾌｸｵｶｹﾝ","cityKana":"ﾌｸｵｶｼﾊｶﾀｸ","streetKana":"ﾖｼﾂﾞｶﾎﾝﾏﾁ","prefecture":"福岡県","city":"福岡市博多区","street":"吉塚本町"},{"zipCode":"8120862","prefectureKana":"ﾌｸｵｶｹﾝ","cityKana":"ﾌｸｵｶｼﾊｶﾀｸ","streetKana":"ﾘｭｳｹﾞｼﾞ","prefecture":"福岡県","city":"福岡市博多区","street":"立花寺"},{"zipCode":"8120039","prefectureKana":"ﾌｸｵｶｹﾝ","cityKana":"ﾌｸｵｶｼﾊｶﾀｸ","streetKana":"ﾚｲｾﾝﾏﾁ","prefecture":"福岡県","city":"福岡市博多区","street":"冷泉町"}]