[{"zipCode":"8130000","prefectureKana":"ﾌｸｵｶｹﾝ","cityKana":"ﾌｸｵｶｼﾋｶﾞｼｸ","streetKana":"ｲｶﾆｹｲｻｲｶﾞﾅｲﾊﾞｱｲ","prefecture":"福岡県","city":"福岡市東区","street":"以下に掲載がない場合"},{"zipCode":"8130025","prefectureKana":"ﾌｸｵｶｹﾝ","cityKana":"ﾌｸｵｶｼﾋｶﾞｼｸ","streetKana":"ｱｵﾊﾞ","prefecture":"福岡県","city":"福岡市東区","street":"青葉"},{"zipCode":"8130011","prefectureKana":"ﾌｸｵｶｹﾝ","cityKana":"ﾌｸｵｶｼﾋｶﾞｼｸ","streetKana":"ｶｼｲ","prefecture":"福岡県","city":"福岡市東区","street":"香椎"},{"zipCode":"8130013","prefectureKana":"ﾌｸｵｶｹﾝ","cityKana":"ﾌｸｵｶｼﾋｶﾞｼｸ","streetKana":"ｶｼｲｴｷﾏｴ","prefecture":"福岡県","city":"福岡市東区","street":"香椎駅前"},{"zipCode":"8130012","prefectureKana":"ﾌｸｵｶｹﾝ","cityKana":"ﾌｸｵｶｼﾋｶﾞｼｸ","streetKana":"ｶｼｲｴｷﾋｶﾞｼ","prefecture":"福岡県","city":"福岡市東区","street":"香椎駅東"},{"zipCode":"8130014","prefectureKana":"ﾌｸｵｶｹﾝ","cityKana":"ﾌｸｵｶｼﾋｶﾞｼｸ","streetKana":"ｶｼｲﾀﾞｲ","prefecture":"福岡県","city":"福岡市東区","street":"香椎台"},{"zipCode":"8130015","prefectureKana":"ﾌｸｵｶｹﾝ","cityKana":"ﾌｸｵｶｼﾋｶﾞｼｸ","streetKana":"ｶｼｲﾀﾞﾝﾁ","prefecture":"福岡県","city":"福岡市東区","street":"香椎団地"},{"zipCode":"8130017","prefectureKana":"ﾌｸｵｶｹﾝ","cityKana":"ﾌｸｵｶｼﾋｶﾞｼｸ","streetKana":"ｶｼｲﾃﾘﾊ","prefecture":"福岡県","city":"福岡市東区","street":"香椎照葉"},{"zipCode":"8130016","prefectureKana":"ﾌｸｵｶｹﾝ","cityKana":"ﾌｸｵｶｼﾋｶﾞｼｸ","streetKana":"ｶｼｲﾊﾏ","prefecture":"福岡県","city":"福岡市東区","street":"香椎浜"},{"zipCode":"8130018","prefectureKana":"ﾌｸｵｶｹﾝ","cityKana":"ﾌｸｵｶｼﾋｶﾞｼｸ","streetKana":"ｶｼｲﾊﾏﾌﾄｳ","prefecture":"福岡県","city":"福岡市東区","street":"香椎浜ふ頭"},{"zipCode":"8130003","prefectureKana":"ﾌｸｵｶｹﾝ","cityKana":"ﾌｸｵｶｼﾋｶﾞｼｸ","streetKana":"ｶｽﾐｶﾞｵｶ","prefecture":"福岡県","city":"福岡市東区","street":"香住ヶ丘"},{"zipCode":"8130023","prefectureKana":"ﾌｸｵｶｹﾝ","cityKana":"ﾌｸｵｶｼﾋｶﾞｼｸ","streetKana":"ｶﾏﾀ","prefecture":"福岡県","city":"福岡市東区","street":"蒲田"},{"zipCode":"8130002","prefectureKana":"ﾌｸｵｶｹﾝ","cityKana":"ﾌｸｵｶｼﾋｶﾞｼｸ","streetKana":"ｼﾓﾊﾞﾙ","prefecture":"福岡県","city":"福岡市東区","street":"下原"},{"zipCode":"8130045","prefectureKana":"ﾌｸｵｶｹﾝ","cityKana":"ﾌｸｵｶｼﾋｶﾞｼｸ","streetKana":"ｼﾛﾊﾏﾀﾞﾝﾁ","prefecture":"福岡県","city":"福岡市東区","street":"城浜団地"},{"zipCode":"8130033","prefectureKana":"ﾌｸｵｶｹﾝ","cityKana":"ﾌｸｵｶｼﾋｶﾞｼｸ","streetKana":"ﾀﾀﾗ","prefecture":"福岡県","city":"福岡市東区","street":"多々良"},{"zipCode":"8130034","prefectureKana":"ﾌｸｵｶｹﾝ","cityKana":"ﾌｸｵｶｼﾋｶﾞｼｸ","streetKana":"ﾀﾉﾂ","prefecture":"福岡県","city":"福岡市東区","street":"多の津"},{"zipCode":"8130044","prefectureKana":"ﾌｸｵｶｹﾝ","cityKana":"ﾌｸｵｶｼﾋｶﾞｼｸ","streetKana":"ﾁﾊﾔ","prefecture":"福岡県","city":"福岡市東区","street":"千早"},{"zipCode":"8130032","prefectureKana":"ﾌｸｵｶｹﾝ","cityKana":"ﾌｸｵｶｼﾋｶﾞｼｸ","streetKana":"ﾄﾞｲ","prefecture":"福岡県","city":"福岡市東区","street":"土井"},{"zipCode":"8130001","prefectureKana":"ﾌｸｵｶｹﾝ","cityKana":"ﾌｸｵｶｼﾋｶﾞｼｸ","streetKana":"ﾄｳﾉﾊﾙ","prefecture":"福岡県","city":"福岡市東区","street":"唐原"},{"zipCode":"8130024","prefectureKana":"ﾌｸｵｶｹﾝ","cityKana":"ﾌｸｵｶｼﾋｶﾞｼｸ","streetKana":"ﾅｺﾞ","prefecture":"福岡県","city":"福岡市東区","street":"名子"},{"zipCode":"8130043","prefectureKana":"ﾌｸｵｶｹﾝ","cityKana":"ﾌｸｵｶｼﾋｶﾞｼｸ","streetKana":"ﾅｼﾞﾏ","prefecture":"福岡県","city":"福岡市東区","street":"名島"},{"zipCode":"8130031","prefectureKana":"ﾌｸｵｶｹﾝ","cityKana":"ﾌｸｵｶｼﾋｶﾞｼｸ","streetKana":"ﾊｯﾀ","prefecture":"福岡県","city":"福岡市東区","street":"八田"},{"zipCode":"8130042","prefectureKana":"ﾌｸｵｶｹﾝ","cityKana":"ﾌｸｵｶｼﾋｶﾞｼｸ","streetKana":"ﾏｲﾏﾂﾊﾞﾗ","prefecture":"福岡県","city":"福岡市東区","street":"舞松原"},{"zipCode":"8130004","prefectureKana":"ﾌｸｵｶｹﾝ","cityKana":"ﾌｸｵｶｼﾋｶﾞｼｸ","streetKana":"ﾏﾂｶﾀﾞｲ","prefecture":"福岡県","city":"福岡市東区","street":"松香台"},{"zipCode":"8130035","prefectureKana":"ﾌｸｵｶｹﾝ","cityKana":"ﾌｸｵｶｼﾋｶﾞｼｸ","streetKana":"ﾏﾂｻﾞｷ","prefecture":"福岡県","city":"福岡市東区","street":"松崎"},{"zipCode":"8130062","prefectureKana":"ﾌｸｵｶｹﾝ","cityKana":"ﾌｸｵｶｼﾋｶﾞｼｸ","streetKana":"ﾏﾂｼﾏ(3-6ﾁｮｳﾒ)","prefecture":"福岡県","city":"福岡市東区","street":"松島（３～６丁目）"},{"zipCode":"8130005","prefectureKana":"ﾌｸｵｶｹﾝ","cityKana":"ﾌｸｵｶｼﾋｶﾞｼｸ","streetKana":"ﾐｼﾏｻﾞｷ","prefecture":"福岡県","city":"福岡市東区","street":"御島崎"},{"zipCode":"8130041","prefectureKana":"ﾌｸｵｶｹﾝ","cityKana":"ﾌｸｵｶｼﾋｶﾞｼｸ","streetKana":"ﾐｽﾞﾀﾆ","prefecture":"福岡県","city":"福岡市東区","street":"水谷"},{"zipCode":"8130021","prefectureKana":"ﾌｸｵｶｹﾝ","cityKana":"ﾌｸｵｶｼﾋｶﾞｼｸ","streetKana":"ﾐﾄﾞﾘｶﾞｵｶ","prefecture":"福岡県","city":"福岡市東区","street":"みどりが丘"},{"zipCode":"8130019","prefectureKana":"ﾌｸｵｶｹﾝ","cityKana":"ﾌｸｵｶｼﾋｶﾞｼｸ","streetKana":"ﾐﾅﾄｶｼｲ","prefecture":"福岡県","city":"福岡市東区","street":"みなと香椎"},{"zipCode":"8130036","prefectureKana":"ﾌｸｵｶｹﾝ","cityKana":"ﾌｸｵｶｼﾋｶﾞｼｸ","streetKana":"ﾜｶﾐﾔ","prefecture":"福岡県","city":"福岡市東区","street":"若宮"},{"zipCode":"8130008","prefectureKana":"ﾌｸｵｶｹﾝ","cityKana":"ｶｽﾔｸﾞﾝｶｽﾔﾏﾁ","streetKana":"ｳﾁﾊｼﾆｼ(3ﾁｮｳﾒ11ﾊﾞﾝ5-8ｺﾞｳﾀﾉﾂﾀﾞﾝﾁ)","prefecture":"福岡県","city":"糟屋郡粕屋町","street":"内橋西（３丁目１１番５～８号「多の津団地」）"}]