[{"zipCode":"8140100","prefectureKana":"ﾌｸｵｶｹﾝ","cityKana":"ﾌｸｵｶｼｼﾞｮｳﾅﾝｸ","streetKana":"ｲｶﾆｹｲｻｲｶﾞﾅｲﾊﾞｱｲ","prefecture":"福岡県","city":"福岡市城南区","street":"以下に掲載がない場合"},{"zipCode":"8140101","prefectureKana":"ﾌｸｵｶｹﾝ","cityKana":"ﾌｸｵｶｼｼﾞｮｳﾅﾝｸ","streetKana":"ｱﾗｴ","prefecture":"福岡県","city":"福岡市城南区","street":"荒江"},{"zipCode":"8140102","prefectureKana":"ﾌｸｵｶｹﾝ","cityKana":"ﾌｸｵｶｼｼﾞｮｳﾅﾝｸ","streetKana":"ｱﾗｴﾀﾞﾝﾁ","prefecture":"福岡県","city":"福岡市城南区","street":"荒江団地"},{"zipCode":"8140134","prefectureKana":"ﾌｸｵｶｹﾝ","cityKana":"ﾌｸｵｶｼｼﾞｮｳﾅﾝｸ","streetKana":"ｲｲｸﾗ","prefecture":"福岡県","city":"福岡市城南区","street":"飯倉"},{"zipCode":"8140144","prefectureKana":"ﾌｸｵｶｹﾝ","cityKana":"ﾌｸｵｶｼｼﾞｮｳﾅﾝｸ","streetKana":"ｳﾒﾊﾞﾔｼ","prefecture":"福岡県","city":"福岡市城南区","street":"梅林"},{"zipCode":"8140142","prefectureKana":"ﾌｸｵｶｹﾝ","cityKana":"ﾌｸｵｶｼｼﾞｮｳﾅﾝｸ","streetKana":"ｶﾀｴ","prefecture":"福岡県","city":"福岡市城南区","street":"片江"},{"zipCode":"8140114","prefectureKana":"ﾌｸｵｶｹﾝ","cityKana":"ﾌｸｵｶｼｼﾞｮｳﾅﾝｸ","streetKana":"ｶﾅﾔﾏﾀﾞﾝﾁ","prefecture":"福岡県","city":"福岡市城南区","street":"金山団地"},{"zipCode":"8140105","prefectureKana":"ﾌｸｵｶｹﾝ","cityKana":"ﾌｸｵｶｼｼﾞｮｳﾅﾝｸ","streetKana":"ｼﾞｮｳｾｲﾀﾞﾝﾁ","prefecture":"福岡県","city":"福岡市城南区","street":"城西団地"},{"zipCode":"8140121","prefectureKana":"ﾌｸｵｶｹﾝ","cityKana":"ﾌｸｵｶｼｼﾞｮｳﾅﾝｸ","streetKana":"ｼﾝｼｮｳｼﾞ","prefecture":"福岡県","city":"福岡市城南区","street":"神松寺"},{"zipCode":"8140154","prefectureKana":"ﾌｸｵｶｹﾝ","cityKana":"ﾌｸｵｶｼｼﾞｮｳﾅﾝｸ","streetKana":"ﾀｶﾗﾀﾞｲﾀﾞﾝﾁ","prefecture":"福岡県","city":"福岡市城南区","street":"宝台団地"},{"zipCode":"8140113","prefectureKana":"ﾌｸｵｶｹﾝ","cityKana":"ﾌｸｵｶｼｼﾞｮｳﾅﾝｸ","streetKana":"ﾀｼﾏ","prefecture":"福岡県","city":"福岡市城南区","street":"田島"},{"zipCode":"8140111","prefectureKana":"ﾌｸｵｶｹﾝ","cityKana":"ﾌｸｵｶｼｼﾞｮｳﾅﾝｸ","streetKana":"ﾁｬﾔﾏ","prefecture":"福岡県","city":"福岡市城南区","street":"茶山"},{"zipCode":"8140151","prefectureKana":"ﾌｸｵｶｹﾝ","cityKana":"ﾌｸｵｶｼｼﾞｮｳﾅﾝｸ","streetKana":"ﾂﾂﾐ","prefecture":"福岡県","city":"福岡市城南区","street":"堤"},{"zipCode":"8140152","prefectureKana":"ﾌｸｵｶｹﾝ","cityKana":"ﾌｸｵｶｼｼﾞｮｳﾅﾝｸ","streetKana":"ﾂﾂﾐﾀﾞﾝﾁ","prefecture":"福岡県","city":"福岡市城南区","street":"堤団地"},{"zipCode":"8140112","prefectureKana":"ﾌｸｵｶｹﾝ","cityKana":"ﾌｸｵｶｼｼﾞｮｳﾅﾝｸ","streetKana":"ﾄﾓｵｶ","prefecture":"福岡県","city":"福岡市城南区","street":"友丘"},{"zipCode":"8140103","prefectureKana":"ﾌｸｵｶｹﾝ","cityKana":"ﾌｸｵｶｼｼﾞｮｳﾅﾝｸ","streetKana":"ﾄﾘｶｲ","prefecture":"福岡県","city":"福岡市城南区","street":"鳥飼"},{"zipCode":"8140123","prefectureKana":"ﾌｸｵｶｹﾝ","cityKana":"ﾌｸｵｶｼｼﾞｮｳﾅﾝｸ","streetKana":"ﾅｶﾞｵ","prefecture":"福岡県","city":"福岡市城南区","street":"長尾"},{"zipCode":"8140133","prefectureKana":"ﾌｸｵｶｹﾝ","cityKana":"ﾌｸｵｶｼｼﾞｮｳﾅﾝｸ","streetKana":"ﾅﾅｸﾏ","prefecture":"福岡県","city":"福岡市城南区","street":"七隈"},{"zipCode":"8140141","prefectureKana":"ﾌｸｵｶｹﾝ","cityKana":"ﾌｸｵｶｼｼﾞｮｳﾅﾝｸ","streetKana":"ﾆｼｶﾀｴ","prefecture":"福岡県","city":"福岡市城南区","street":"西片江"},{"zipCode":"8140153","prefectureKana":"ﾌｸｵｶｹﾝ","cityKana":"ﾌｸｵｶｼｼﾞｮｳﾅﾝｸ","streetKana":"ﾋｲｶﾜ","prefecture":"福岡県","city":"福岡市城南区","street":"樋井川"},{"zipCode":"8140155","prefectureKana":"ﾌｸｵｶｹﾝ","cityKana":"ﾌｸｵｶｼｼﾞｮｳﾅﾝｸ","streetKana":"ﾋｶﾞｼｱﾌﾞﾗﾔﾏ","prefecture":"福岡県","city":"福岡市城南区","street":"東油山"},{"zipCode":"8140104","prefectureKana":"ﾌｸｵｶｹﾝ","cityKana":"ﾌｸｵｶｼｼﾞｮｳﾅﾝｸ","streetKana":"ﾍﾞﾌ","prefecture":"福岡県","city":"福岡市城南区","street":"別府"},{"zipCode":"8140106","prefectureKana":"ﾌｸｵｶｹﾝ","cityKana":"ﾌｸｵｶｼｼﾞｮｳﾅﾝｸ","streetKana":"ﾍﾞﾌﾀﾞﾝﾁ","prefecture":"福岡県","city":"福岡市城南区","street":"別府団地"},{"zipCode":"8140132","prefectureKana":"ﾌｸｵｶｹﾝ","cityKana":"ﾌｸｵｶｼｼﾞｮｳﾅﾝｸ","streetKana":"ﾎｼｸﾏ","prefecture":"福岡県","city":"福岡市城南区","street":"干隈"},{"zipCode":"8140131","prefectureKana":"ﾌｸｵｶｹﾝ","cityKana":"ﾌｸｵｶｼｼﾞｮｳﾅﾝｸ","streetKana":"ﾏﾂﾔﾏ","prefecture":"福岡県","city":"福岡市城南区","street":"松山"},{"zipCode":"8140143","prefectureKana":"ﾌｸｵｶｹﾝ","cityKana":"ﾌｸｵｶｼｼﾞｮｳﾅﾝｸ","streetKana":"ﾐﾅﾐｶﾀｴ","prefecture":"福岡県","city":"福岡市城南区","street":"南片江"},{"zipCode":"8140122","prefectureKana":"ﾌｸｵｶｹﾝ","cityKana":"ﾌｸｵｶｼｼﾞｮｳﾅﾝｸ","streetKana":"ﾕｳｾﾝﾃｲ","prefecture":"福岡県","city":"福岡市城南区","street":"友泉亭"},{"zipCode":"8140000","prefectureKana":"ﾌｸｵｶｹﾝ","cityKana":"ﾌｸｵｶｼｻﾜﾗｸ","streetKana":"ｲｶﾆｹｲｻｲｶﾞﾅｲﾊﾞｱｲ","prefecture":"福岡県","city":"福岡市早良区","street":"以下に掲載がない場合"},{"zipCode":"8140004","prefectureKana":"ﾌｸｵｶｹﾝ","cityKana":"ﾌｸｵｶｼｻﾜﾗｸ","streetKana":"ｱｹﾎﾞﾉ","prefecture":"福岡県","city":"福岡市早良区","street":"曙"},{"zipCode":"8140021","prefectureKana":"ﾌｸｵｶｹﾝ","cityKana":"ﾌｸｵｶｼｻﾜﾗｸ","streetKana":"ｱﾗｴ","prefecture":"福岡県","city":"福岡市早良区","street":"荒江"},{"zipCode":"8140033","prefectureKana":"ﾌｸｵｶｹﾝ","cityKana":"ﾌｸｵｶｼｻﾜﾗｸ","streetKana":"ｱﾘﾀ","prefecture":"福岡県","city":"福岡市早良区","street":"有田"},{"zipCode":"8140034","prefectureKana":"ﾌｸｵｶｹﾝ","cityKana":"ﾌｸｵｶｼｻﾜﾗｸ","streetKana":"ｱﾘﾀﾀﾞﾝﾁ","prefecture":"福岡県","city":"福岡市早良区","street":"有田団地"},{"zipCode":"8140161","prefectureKana":"ﾌｸｵｶｹﾝ","cityKana":"ﾌｸｵｶｼｻﾜﾗｸ","streetKana":"ｲｲｸﾗ","prefecture":"福岡県","city":"福岡市早良区","street":"飯倉"},{"zipCode":"8140172","prefectureKana":"ﾌｸｵｶｹﾝ","cityKana":"ﾌｸｵｶｼｻﾜﾗｸ","streetKana":"ｳﾒﾊﾞﾔｼ","prefecture":"福岡県","city":"福岡市早良区","street":"梅林"},{"zipCode":"8140164","prefectureKana":"ﾌｸｵｶｹﾝ","cityKana":"ﾌｸｵｶｼｻﾜﾗｸ","streetKana":"ｶﾓ","prefecture":"福岡県","city":"福岡市早良区","street":"賀茂"},{"zipCode":"8140032","prefectureKana":"ﾌｸｵｶｹﾝ","cityKana":"ﾌｸｵｶｼｻﾜﾗｸ","streetKana":"ｺﾀﾍﾞ","prefecture":"福岡県","city":"福岡市早良区","street":"小田部"},{"zipCode":"8140176","prefectureKana":"ﾌｸｵｶｹﾝ","cityKana":"ﾌｸｵｶｼｻﾜﾗｸ","streetKana":"ｼｶﾀﾀﾞﾝﾁ","prefecture":"福岡県","city":"福岡市早良区","street":"四箇田団地"},{"zipCode":"8140003","prefectureKana":"ﾌｸｵｶｹﾝ","cityKana":"ﾌｸｵｶｼｻﾜﾗｸ","streetKana":"ｼﾞｮｳｾｲ","prefecture":"福岡県","city":"福岡市早良区","street":"城西"},{"zipCode":"8140012","prefectureKana":"ﾌｸｵｶｹﾝ","cityKana":"ﾌｸｵｶｼｻﾜﾗｸ","streetKana":"ｼｮｳﾀﾞｲ","prefecture":"福岡県","city":"福岡市早良区","street":"昭代"},{"zipCode":"8140165","prefectureKana":"ﾌｸｵｶｹﾝ","cityKana":"ﾌｸｵｶｼｻﾜﾗｸ","streetKana":"ｼﾞﾛｳﾏﾙ","prefecture":"福岡県","city":"福岡市早良区","street":"次郎丸"},{"zipCode":"8140005","prefectureKana":"ﾌｸｵｶｹﾝ","cityKana":"ﾌｸｵｶｼｻﾜﾗｸ","streetKana":"ｿﾊﾗ","prefecture":"福岡県","city":"福岡市早良区","street":"祖原"},{"zipCode":"8140177","prefectureKana":"ﾌｸｵｶｹﾝ","cityKana":"ﾌｸｵｶｼｻﾜﾗｸ","streetKana":"ﾀ","prefecture":"福岡県","city":"福岡市早良区","street":"田"},{"zipCode":"8140011","prefectureKana":"ﾌｸｵｶｹﾝ","cityKana":"ﾌｸｵｶｼｻﾜﾗｸ","streetKana":"ﾀｶﾄﾘ","prefecture":"福岡県","city":"福岡市早良区","street":"高取"},{"zipCode":"8140174","prefectureKana":"ﾌｸｵｶｹﾝ","cityKana":"ﾌｸｵｶｼｻﾜﾗｸ","streetKana":"ﾀｸﾞﾏ","prefecture":"福岡県","city":"福岡市早良区","street":"田隈"},{"zipCode":"8140175","prefectureKana":"ﾌｸｵｶｹﾝ","cityKana":"ﾌｸｵｶｼｻﾜﾗｸ","streetKana":"ﾀﾑﾗ","prefecture":"福岡県","city":"福岡市早良区","street":"田村"},{"zipCode":"8140173","prefectureKana":"ﾌｸｵｶｹﾝ","cityKana":"ﾌｸｵｶｼｻﾜﾗｸ","streetKana":"ﾆｼｱﾌﾞﾗﾔﾏ","prefecture":"福岡県","city":"福岡市早良区","street":"西油山"},{"zipCode":"8140002","prefectureKana":"ﾌｸｵｶｹﾝ","cityKana":"ﾌｸｵｶｼｻﾜﾗｸ","streetKana":"ﾆｼｼﾞﾝ","prefecture":"福岡県","city":"福岡市早良区","street":"西新"},{"zipCode":"8140171","prefectureKana":"ﾌｸｵｶｹﾝ","cityKana":"ﾌｸｵｶｼｻﾜﾗｸ","streetKana":"ﾉｹ","prefecture":"福岡県","city":"福岡市早良区","street":"野芥"},{"zipCode":"8140022","prefectureKana":"ﾌｸｵｶｹﾝ","cityKana":"ﾌｸｵｶｼｻﾜﾗｸ","streetKana":"ﾊﾗ","prefecture":"福岡県","city":"福岡市早良区","street":"原"},{"zipCode":"8140023","prefectureKana":"ﾌｸｵｶｹﾝ","cityKana":"ﾌｸｵｶｼｻﾜﾗｸ","streetKana":"ﾊﾗﾀﾞﾝﾁ","prefecture":"福岡県","city":"福岡市早良区","street":"原団地"},{"zipCode":"8140013","prefectureKana":"ﾌｸｵｶｹﾝ","cityKana":"ﾌｸｵｶｼｻﾜﾗｸ","streetKana":"ﾌｼﾞｻｷ","prefecture":"福岡県","city":"福岡市早良区","street":"藤崎"},{"zipCode":"8140163","prefectureKana":"ﾌｸｵｶｹﾝ","cityKana":"ﾌｸｵｶｼｻﾜﾗｸ","streetKana":"ﾎｼｸﾏ","prefecture":"福岡県","city":"福岡市早良区","street":"干隈"},{"zipCode":"8140162","prefectureKana":"ﾌｸｵｶｹﾝ","cityKana":"ﾌｸｵｶｼｻﾜﾗｸ","streetKana":"ﾎｼﾉﾊﾗﾀﾞﾝﾁ","prefecture":"福岡県","city":"福岡市早良区","street":"星の原団地"},{"zipCode":"8140031","prefectureKana":"ﾌｸｵｶｹﾝ","cityKana":"ﾌｸｵｶｼｻﾜﾗｸ","streetKana":"ﾐﾅﾐｼｮｳ","prefecture":"福岡県","city":"福岡市早良区","street":"南庄"},{"zipCode":"8140035","prefectureKana":"ﾌｸｵｶｹﾝ","cityKana":"ﾌｸｵｶｼｻﾜﾗｸ","streetKana":"ﾑﾛｽﾞﾐﾀﾞﾝﾁ","prefecture":"福岡県","city":"福岡市早良区","street":"室住団地"},{"zipCode":"8140015","prefectureKana":"ﾌｸｵｶｹﾝ","cityKana":"ﾌｸｵｶｼｻﾜﾗｸ","streetKana":"ﾑﾛﾐ","prefecture":"福岡県","city":"福岡市早良区","street":"室見"},{"zipCode":"8140006","prefectureKana":"ﾌｸｵｶｹﾝ","cityKana":"ﾌｸｵｶｼｻﾜﾗｸ","streetKana":"ﾓﾓﾁ","prefecture":"福岡県","city":"福岡市早良区","street":"百道"},{"zipCode":"8140001","prefectureKana":"ﾌｸｵｶｹﾝ","cityKana":"ﾌｸｵｶｼｻﾜﾗｸ","streetKana":"ﾓﾓﾁﾊﾏ","prefecture":"福岡県","city":"福岡市早良区","street":"百道浜"},{"zipCode":"8140014","prefectureKana":"ﾌｸｵｶｹﾝ","cityKana":"ﾌｸｵｶｼｻﾜﾗｸ","streetKana":"ﾔﾖｲ","prefecture":"福岡県","city":"福岡市早良区","street":"弥生"}]