[{"zipCode":"8160000","prefectureKana":"ﾌｸｵｶｹﾝ","cityKana":"ｶｽｶﾞｼ","streetKana":"ｲｶﾆｹｲｻｲｶﾞﾅｲﾊﾞｱｲ","prefecture":"福岡県","city":"春日市","street":"以下に掲載がない場合"},{"zipCode":"8160853","prefectureKana":"ﾌｸｵｶｹﾝ","cityKana":"ｶｽｶﾞｼ","streetKana":"ｲｽﾞﾐ","prefecture":"福岡県","city":"春日市","street":"泉"},{"zipCode":"8160852","prefectureKana":"ﾌｸｵｶｹﾝ","cityKana":"ｶｽｶﾞｼ","streetKana":"ｲﾁﾉﾀﾆ","prefecture":"福岡県","city":"春日市","street":"一の谷"},{"zipCode":"8160831","prefectureKana":"ﾌｸｵｶｹﾝ","cityKana":"ｶｽｶﾞｼ","streetKana":"ｵｵﾀﾆ","prefecture":"福岡県","city":"春日市","street":"大谷"},{"zipCode":"8160847","prefectureKana":"ﾌｸｵｶｹﾝ","cityKana":"ｶｽｶﾞｼ","streetKana":"ｵｵﾄﾞｲ","prefecture":"福岡県","city":"春日市","street":"大土居"},{"zipCode":"8160861","prefectureKana":"ﾌｸｵｶｹﾝ","cityKana":"ｶｽｶﾞｼ","streetKana":"ｵｶﾓﾄ","prefecture":"福岡県","city":"春日市","street":"岡本"},{"zipCode":"8160814","prefectureKana":"ﾌｸｵｶｹﾝ","cityKana":"ｶｽｶﾞｼ","streetKana":"ｶｽｶﾞ","prefecture":"福岡県","city":"春日市","street":"春日"},{"zipCode":"8160811","prefectureKana":"ﾌｸｵｶｹﾝ","cityKana":"ｶｽｶﾞｼ","streetKana":"ｶｽｶﾞｺｳｴﾝ","prefecture":"福岡県","city":"春日市","street":"春日公園"},{"zipCode":"8160801","prefectureKana":"ﾌｸｵｶｹﾝ","cityKana":"ｶｽｶﾞｼ","streetKana":"ｶｽｶﾞﾊﾞﾙﾋｶﾞｼﾏﾁ","prefecture":"福岡県","city":"春日市","street":"春日原東町"},{"zipCode":"8160803","prefectureKana":"ﾌｸｵｶｹﾝ","cityKana":"ｶｽｶﾞｼ","streetKana":"ｶｽｶﾞﾊﾞﾙﾐﾅﾐﾏﾁ","prefecture":"福岡県","city":"春日市","street":"春日原南町"},{"zipCode":"8160802","prefectureKana":"ﾌｸｵｶｹﾝ","cityKana":"ｶｽｶﾞｼ","streetKana":"ｶｽｶﾞﾊﾞﾙｷﾀﾏﾁ","prefecture":"福岡県","city":"春日市","street":"春日原北町"},{"zipCode":"8160844","prefectureKana":"ﾌｸｵｶｹﾝ","cityKana":"ｶｽｶﾞｼ","streetKana":"ｶﾐｼﾛｳｽﾞ","prefecture":"福岡県","city":"春日市","street":"上白水"},{"zipCode":"8160824","prefectureKana":"ﾌｸｵｶｹﾝ","cityKana":"ｶｽｶﾞｼ","streetKana":"ｺｸﾗ","prefecture":"福岡県","city":"春日市","street":"小倉"},{"zipCode":"8160826","prefectureKana":"ﾌｸｵｶｹﾝ","cityKana":"ｶｽｶﾞｼ","streetKana":"ｺｸﾗﾋｶﾞｼ","prefecture":"福岡県","city":"春日市","street":"小倉東"},{"zipCode":"8160872","prefectureKana":"ﾌｸｵｶｹﾝ","cityKana":"ｶｽｶﾞｼ","streetKana":"ｻｸﾗｶﾞｵｶ","prefecture":"福岡県","city":"春日市","street":"桜ケ丘"},{"zipCode":"8160842","prefectureKana":"ﾌｸｵｶｹﾝ","cityKana":"ｶｽｶﾞｼ","streetKana":"ｼﾓｼﾛｳｽﾞ","prefecture":"福岡県","city":"春日市","street":"下白水"},{"zipCode":"8160854","prefectureKana":"ﾌｸｵｶｹﾝ","cityKana":"ｶｽｶﾞｼ","streetKana":"ｼﾓｼﾛｳｽﾞｷﾀ","prefecture":"福岡県","city":"春日市","street":"下白水北"},{"zipCode":"8160846","prefectureKana":"ﾌｸｵｶｹﾝ","cityKana":"ｶｽｶﾞｼ","streetKana":"ｼﾓｼﾛｳｽﾞﾐﾅﾐ","prefecture":"福岡県","city":"春日市","street":"下白水南"},{"zipCode":"8160848","prefectureKana":"ﾌｸｵｶｹﾝ","cityKana":"ｶｽｶﾞｼ","streetKana":"ｼﾛｳｽﾞｲｹ","prefecture":"福岡県","city":"春日市","street":"白水池"},{"zipCode":"8160845","prefectureKana":"ﾌｸｵｶｹﾝ","cityKana":"ｶｽｶﾞｼ","streetKana":"ｼﾛｳｽﾞｶﾞｵｶ","prefecture":"福岡県","city":"春日市","street":"白水ケ丘"},{"zipCode":"8160871","prefectureKana":"ﾌｸｵｶｹﾝ","cityKana":"ｶｽｶﾞｼ","streetKana":"ｽｸﾞ","prefecture":"福岡県","city":"春日市","street":"須玖"},{"zipCode":"8160863","prefectureKana":"ﾌｸｵｶｹﾝ","cityKana":"ｶｽｶﾞｼ","streetKana":"ｽｸﾞﾐﾅﾐ","prefecture":"福岡県","city":"春日市","street":"須玖南"},{"zipCode":"8160864","prefectureKana":"ﾌｸｵｶｹﾝ","cityKana":"ｶｽｶﾞｼ","streetKana":"ｽｸﾞｷﾀ","prefecture":"福岡県","city":"春日市","street":"須玖北"},{"zipCode":"8160813","prefectureKana":"ﾌｸｵｶｹﾝ","cityKana":"ｶｽｶﾞｼ","streetKana":"ｿｳﾘ","prefecture":"福岡県","city":"春日市","street":"惣利"},{"zipCode":"8160807","prefectureKana":"ﾌｸｵｶｹﾝ","cityKana":"ｶｽｶﾞｼ","streetKana":"ﾀｶﾗﾏﾁ","prefecture":"福岡県","city":"春日市","street":"宝町"},{"zipCode":"8160822","prefectureKana":"ﾌｸｵｶｹﾝ","cityKana":"ｶｽｶﾞｼ","streetKana":"ﾁｸｼﾀﾞｲ","prefecture":"福岡県","city":"春日市","street":"ちくし台"},{"zipCode":"8160805","prefectureKana":"ﾌｸｵｶｹﾝ","cityKana":"ｶｽｶﾞｼ","streetKana":"ﾁﾄｾﾏﾁ","prefecture":"福岡県","city":"春日市","street":"千歳町"},{"zipCode":"8160841","prefectureKana":"ﾌｸｵｶｹﾝ","cityKana":"ｶｽｶﾞｼ","streetKana":"ﾂｶﾊﾗﾀﾞｲ","prefecture":"福岡県","city":"春日市","street":"塚原台"},{"zipCode":"8160855","prefectureKana":"ﾌｸｵｶｹﾝ","cityKana":"ｶｽｶﾞｼ","streetKana":"ﾃﾝｼﾞﾝﾔﾏ","prefecture":"福岡県","city":"春日市","street":"天神山"},{"zipCode":"8160851","prefectureKana":"ﾌｸｵｶｹﾝ","cityKana":"ｶｽｶﾞｼ","streetKana":"ﾉﾎﾞﾘﾏﾁ","prefecture":"福岡県","city":"春日市","street":"昇町"},{"zipCode":"8160825","prefectureKana":"ﾌｸｵｶｹﾝ","cityKana":"ｶｽｶﾞｼ","streetKana":"ﾊｸｹﾞﾝﾁｮｳ","prefecture":"福岡県","city":"春日市","street":"伯玄町"},{"zipCode":"8160804","prefectureKana":"ﾌｸｵｶｹﾝ","cityKana":"ｶｽｶﾞｼ","streetKana":"ﾊﾗﾏﾁ","prefecture":"福岡県","city":"春日市","street":"原町"},{"zipCode":"8160806","prefectureKana":"ﾌｸｵｶｹﾝ","cityKana":"ｶｽｶﾞｼ","streetKana":"ﾋｶﾘﾏﾁ","prefecture":"福岡県","city":"春日市","street":"光町"},{"zipCode":"8160873","prefectureKana":"ﾌｸｵｶｹﾝ","cityKana":"ｶｽｶﾞｼ","streetKana":"ﾋﾉﾃﾞﾏﾁ","prefecture":"福岡県","city":"春日市","street":"日の出町"},{"zipCode":"8160812","prefectureKana":"ﾌｸｵｶｹﾝ","cityKana":"ｶｽｶﾞｼ","streetKana":"ﾋﾗﾀﾀﾞｲ","prefecture":"福岡県","city":"春日市","street":"平田台"},{"zipCode":"8160849","prefectureKana":"ﾌｸｵｶｹﾝ","cityKana":"ｶｽｶﾞｼ","streetKana":"ﾎｼﾐｶﾞｵｶ","prefecture":"福岡県","city":"春日市","street":"星見ヶ丘"},{"zipCode":"8160843","prefectureKana":"ﾌｸｵｶｹﾝ","cityKana":"ｶｽｶﾞｼ","streetKana":"ﾏﾂｶﾞｵｶ","prefecture":"福岡県","city":"春日市","street":"松ケ丘"},{"zipCode":"8160833","prefectureKana":"ﾌｸｵｶｹﾝ","cityKana":"ｶｽｶﾞｼ","streetKana":"ﾓﾐｼﾞｶﾞｵｶﾋｶﾞｼ","prefecture":"福岡県","city":"春日市","street":"紅葉ケ丘東"},{"zipCode":"8160832","prefectureKana":"ﾌｸｵｶｹﾝ","cityKana":"ｶｽｶﾞｼ","streetKana":"ﾓﾐｼﾞｶﾞｵｶﾆｼ","prefecture":"福岡県","city":"春日市","street":"紅葉ケ丘西"},{"zipCode":"8160874","prefectureKana":"ﾌｸｵｶｹﾝ","cityKana":"ｶｽｶﾞｼ","streetKana":"ﾔﾏﾄﾏﾁ","prefecture":"福岡県","city":"春日市","street":"大和町"},{"zipCode":"8160862","prefectureKana":"ﾌｸｵｶｹﾝ","cityKana":"ｶｽｶﾞｼ","streetKana":"ﾔﾖｲ","prefecture":"福岡県","city":"春日市","street":"弥生"},{"zipCode":"8160821","prefectureKana":"ﾌｸｵｶｹﾝ","cityKana":"ｶｽｶﾞｼ","streetKana":"ﾜｶﾊﾞﾀﾞｲﾋｶﾞｼ","prefecture":"福岡県","city":"春日市","street":"若葉台東"},{"zipCode":"8160823","prefectureKana":"ﾌｸｵｶｹﾝ","cityKana":"ｶｽｶﾞｼ","streetKana":"ﾜｶﾊﾞﾀﾞｲﾆｼ","prefecture":"福岡県","city":"春日市","street":"若葉台西"},{"zipCode":"8160000","prefectureKana":"ﾌｸｵｶｹﾝ","cityKana":"ｵｵﾉｼﾞｮｳｼ","streetKana":"ｲｶﾆｹｲｻｲｶﾞﾅｲﾊﾞｱｲ","prefecture":"福岡県","city":"大野城市","street":"以下に掲載がない場合"},{"zipCode":"8160934","prefectureKana":"ﾌｸｵｶｹﾝ","cityKana":"ｵｵﾉｼﾞｮｳｼ","streetKana":"ｱｹﾎﾞﾉﾏﾁ","prefecture":"福岡県","city":"大野城市","street":"曙町"},{"zipCode":"8160953","prefectureKana":"ﾌｸｵｶｹﾝ","cityKana":"ｵｵﾉｼﾞｮｳｼ","streetKana":"ｱｻﾋｶﾞｵｶ","prefecture":"福岡県","city":"大野城市","street":"旭ケ丘"},{"zipCode":"8160971","prefectureKana":"ﾌｸｵｶｹﾝ","cityKana":"ｵｵﾉｼﾞｮｳｼ","streetKana":"ｳｼｸﾋﾞ","prefecture":"福岡県","city":"大野城市","street":"牛頸"},{"zipCode":"8160904","prefectureKana":"ﾌｸｵｶｹﾝ","cityKana":"ｵｵﾉｼﾞｮｳｼ","streetKana":"ｵｵｲｹ","prefecture":"福岡県","city":"大野城市","street":"大池"},{"zipCode":"8160911","prefectureKana":"ﾌｸｵｶｹﾝ","cityKana":"ｵｵﾉｼﾞｮｳｼ","streetKana":"ｵｵｷ","prefecture":"福岡県","city":"大野城市","street":"大城"},{"zipCode":"8160902","prefectureKana":"ﾌｸｵｶｹﾝ","cityKana":"ｵｵﾉｼﾞｮｳｼ","streetKana":"ｵﾄｶﾞﾅ","prefecture":"福岡県","city":"大野城市","street":"乙金"},{"zipCode":"8160903","prefectureKana":"ﾌｸｵｶｹﾝ","cityKana":"ｵｵﾉｼﾞｮｳｼ","streetKana":"ｵﾄｶﾞﾅﾀﾞｲ","prefecture":"福岡県","city":"大野城市","street":"乙金台"},{"zipCode":"8160901","prefectureKana":"ﾌｸｵｶｹﾝ","cityKana":"ｵｵﾉｼﾞｮｳｼ","streetKana":"ｵﾄｶﾞﾅﾋｶﾞｼ","prefecture":"福岡県","city":"大野城市","street":"乙金東"},{"zipCode":"8160955","prefectureKana":"ﾌｸｵｶｹﾝ","cityKana":"ｵｵﾉｼﾞｮｳｼ","streetKana":"ｶﾐｵｵﾘ","prefecture":"福岡県","city":"大野城市","street":"上大利"},{"zipCode":"8160905","prefectureKana":"ﾌｸｵｶｹﾝ","cityKana":"ｵｵﾉｼﾞｮｳｼ","streetKana":"ｶﾜｸﾎﾞ","prefecture":"福岡県","city":"大野城市","street":"川久保"},{"zipCode":"8160932","prefectureKana":"ﾌｸｵｶｹﾝ","cityKana":"ｵｵﾉｼﾞｮｳｼ","streetKana":"ｶﾜﾗﾀﾞ","prefecture":"福岡県","city":"大野城市","street":"瓦田"},{"zipCode":"8160924","prefectureKana":"ﾌｸｵｶｹﾝ","cityKana":"ｵｵﾉｼﾞｮｳｼ","streetKana":"ｻｶｴﾏﾁ","prefecture":"福岡県","city":"大野城市","street":"栄町"},{"zipCode":"8160923","prefectureKana":"ﾌｸｵｶｹﾝ","cityKana":"ｵｵﾉｼﾞｮｳｼ","streetKana":"ｻﾞﾂｼｮﾉｸﾏﾏﾁ","prefecture":"福岡県","city":"大野城市","street":"雑餉隈町"},{"zipCode":"8160952","prefectureKana":"ﾌｸｵｶｹﾝ","cityKana":"ｵｵﾉｼﾞｮｳｼ","streetKana":"ｼﾓｵｵﾘ","prefecture":"福岡県","city":"大野城市","street":"下大利"},{"zipCode":"8160951","prefectureKana":"ﾌｸｵｶｹﾝ","cityKana":"ｵｵﾉｼﾞｮｳｼ","streetKana":"ｼﾓｵｵﾘﾀﾞﾝﾁ","prefecture":"福岡県","city":"大野城市","street":"下大利団地"},{"zipCode":"8160943","prefectureKana":"ﾌｸｵｶｹﾝ","cityKana":"ｵｵﾉｼﾞｮｳｼ","streetKana":"ｼﾗｷﾊﾞﾙ","prefecture":"福岡県","city":"大野城市","street":"白木原"},{"zipCode":"8160942","prefectureKana":"ﾌｸｵｶｹﾝ","cityKana":"ｵｵﾉｼﾞｮｳｼ","streetKana":"ﾁｭｳｵｳ","prefecture":"福岡県","city":"大野城市","street":"中央"},{"zipCode":"8160983","prefectureKana":"ﾌｸｵｶｹﾝ","cityKana":"ｵｵﾉｼﾞｮｳｼ","streetKana":"ﾂｷﾉｳﾗ","prefecture":"福岡県","city":"大野城市","street":"月の浦"},{"zipCode":"8160931","prefectureKana":"ﾌｸｵｶｹﾝ","cityKana":"ｵｵﾉｼﾞｮｳｼ","streetKana":"ﾂﾂｲ","prefecture":"福岡県","city":"大野城市","street":"筒井"},{"zipCode":"8160962","prefectureKana":"ﾌｸｵｶｹﾝ","cityKana":"ｵｵﾉｼﾞｮｳｼ","streetKana":"ﾂﾂｼﾞｶﾞｵｶ","prefecture":"福岡県","city":"大野城市","street":"つつじケ丘"},{"zipCode":"8160906","prefectureKana":"ﾌｸｵｶｹﾝ","cityKana":"ｵｵﾉｼﾞｮｳｼ","streetKana":"ﾅｶ","prefecture":"福岡県","city":"大野城市","street":"中"},{"zipCode":"8160921","prefectureKana":"ﾌｸｵｶｹﾝ","cityKana":"ｵｵﾉｼﾞｮｳｼ","streetKana":"ﾅｶﾊﾀ","prefecture":"福岡県","city":"大野城市","street":"仲畑"},{"zipCode":"8160935","prefectureKana":"ﾌｸｵｶｹﾝ","cityKana":"ｵｵﾉｼﾞｮｳｼ","streetKana":"ﾆｼｷﾏﾁ","prefecture":"福岡県","city":"大野城市","street":"錦町"},{"zipCode":"8160982","prefectureKana":"ﾌｸｵｶｹﾝ","cityKana":"ｵｵﾉｼﾞｮｳｼ","streetKana":"ﾊﾀｶﾞｻｶ","prefecture":"福岡県","city":"大野城市","street":"畑ケ坂"},{"zipCode":"8160941","prefectureKana":"ﾌｸｵｶｹﾝ","cityKana":"ｵｵﾉｼﾞｮｳｼ","streetKana":"ﾋｶﾞｼｵｵﾘ","prefecture":"福岡県","city":"大野城市","street":"東大利"},{"zipCode":"8160972","prefectureKana":"ﾌｸｵｶｹﾝ","cityKana":"ｵｵﾉｼﾞｮｳｼ","streetKana":"ﾋﾗﾉﾀﾞｲ","prefecture":"福岡県","city":"大野城市","street":"平野台"},{"zipCode":"8160912","prefectureKana":"ﾌｸｵｶｹﾝ","cityKana":"ｵｵﾉｼﾞｮｳｼ","streetKana":"ﾐｶｻｶﾞﾜ","prefecture":"福岡県","city":"大野城市","street":"御笠川"},{"zipCode":"8160933","prefectureKana":"ﾌｸｵｶｹﾝ","cityKana":"ｵｵﾉｼﾞｮｳｼ","streetKana":"ﾐｽﾞﾎﾏﾁ","prefecture":"福岡県","city":"大野城市","street":"瑞穂町"},{"zipCode":"8160961","prefectureKana":"ﾌｸｵｶｹﾝ","cityKana":"ｵｵﾉｼﾞｮｳｼ","streetKana":"ﾐﾄﾞﾘｶﾞｵｶ","prefecture":"福岡県","city":"大野城市","street":"緑ケ丘"},{"zipCode":"8160956","prefectureKana":"ﾌｸｵｶｹﾝ","cityKana":"ｵｵﾉｼﾞｮｳｼ","streetKana":"ﾐﾅﾐｵｵﾘ","prefecture":"福岡県","city":"大野城市","street":"南大利"},{"zipCode":"8160964","prefectureKana":"ﾌｸｵｶｹﾝ","cityKana":"ｵｵﾉｼﾞｮｳｼ","streetKana":"ﾐﾅﾐｶﾞｵｶ","prefecture":"福岡県","city":"大野城市","street":"南ケ丘"},{"zipCode":"8160963","prefectureKana":"ﾌｸｵｶｹﾝ","cityKana":"ｵｵﾉｼﾞｮｳｼ","streetKana":"ﾐﾔﾉﾀﾞｲ","prefecture":"福岡県","city":"大野城市","street":"宮野台"},{"zipCode":"8160954","prefectureKana":"ﾌｸｵｶｹﾝ","cityKana":"ｵｵﾉｼﾞｮｳｼ","streetKana":"ﾑﾗｻｷﾀﾞｲ","prefecture":"福岡県","city":"大野城市","street":"紫台"},{"zipCode":"8160922","prefectureKana":"ﾌｸｵｶｹﾝ","cityKana":"ｵｵﾉｼﾞｮｳｼ","streetKana":"ﾔﾏﾀﾞ","prefecture":"福岡県","city":"大野城市","street":"山田"},{"zipCode":"8160973","prefectureKana":"ﾌｸｵｶｹﾝ","cityKana":"ｵｵﾉｼﾞｮｳｼ","streetKana":"ﾖｺﾐﾈ","prefecture":"福岡県","city":"大野城市","street":"横峰"},{"zipCode":"8160981","prefectureKana":"ﾌｸｵｶｹﾝ","cityKana":"ｵｵﾉｼﾞｮｳｼ","streetKana":"ﾜｶｸｻ","prefecture":"福岡県","city":"大野城市","street":"若草"}]