[{"zipCode":"8180000","prefectureKana":"ﾌｸｵｶｹﾝ","cityKana":"ﾁｸｼﾉｼ","streetKana":"ｲｶﾆｹｲｻｲｶﾞﾅｲﾊﾞｱｲ","prefecture":"福岡県","city":"筑紫野市","street":"以下に掲載がない場合"},{"zipCode":"8180011","prefectureKana":"ﾌｸｵｶｹﾝ","cityKana":"ﾁｸｼﾉｼ","streetKana":"ｱｼｷ","prefecture":"福岡県","city":"筑紫野市","street":"阿志岐"},{"zipCode":"8180012","prefectureKana":"ﾌｸｵｶｹﾝ","cityKana":"ﾁｸｼﾉｼ","streetKana":"ｱﾏﾔﾏ","prefecture":"福岡県","city":"筑紫野市","street":"天山"},{"zipCode":"8180068","prefectureKana":"ﾌｸｵｶｹﾝ","cityKana":"ﾁｸｼﾉｼ","streetKana":"ｲｼｻﾞｷ","prefecture":"福岡県","city":"筑紫野市","street":"石崎"},{"zipCode":"8180014","prefectureKana":"ﾌｸｵｶｹﾝ","cityKana":"ﾁｸｼﾉｼ","streetKana":"ｳｼｼﾞﾏ","prefecture":"福岡県","city":"筑紫野市","street":"牛島"},{"zipCode":"8180034","prefectureKana":"ﾌｸｵｶｹﾝ","cityKana":"ﾁｸｼﾉｼ","streetKana":"ｳﾂｸｼｶﾞｵｶﾐﾅﾐ","prefecture":"福岡県","city":"筑紫野市","street":"美しが丘南"},{"zipCode":"8180035","prefectureKana":"ﾌｸｵｶｹﾝ","cityKana":"ﾁｸｼﾉｼ","streetKana":"ｳﾂｸｼｶﾞｵｶｷﾀ","prefecture":"福岡県","city":"筑紫野市","street":"美しが丘北"},{"zipCode":"8180006","prefectureKana":"ﾌｸｵｶｹﾝ","cityKana":"ﾁｸｼﾉｼ","streetKana":"ｵｵｲｼ","prefecture":"福岡県","city":"筑紫野市","street":"大石"},{"zipCode":"8180013","prefectureKana":"ﾌｸｵｶｹﾝ","cityKana":"ﾁｸｼﾉｼ","streetKana":"ｵｶﾀﾞ","prefecture":"福岡県","city":"筑紫野市","street":"岡田"},{"zipCode":"8180041","prefectureKana":"ﾌｸｵｶｹﾝ","cityKana":"ﾁｸｼﾉｼ","streetKana":"ｶﾐｺｶﾞ","prefecture":"福岡県","city":"筑紫野市","street":"上古賀"},{"zipCode":"8180031","prefectureKana":"ﾌｸｵｶｹﾝ","cityKana":"ﾁｸｼﾉｼ","streetKana":"ｸﾏ","prefecture":"福岡県","city":"筑紫野市","street":"隈"},{"zipCode":"8180002","prefectureKana":"ﾌｸｵｶｹﾝ","cityKana":"ﾁｸｼﾉｼ","streetKana":"ｺｳｿﾞﾉ","prefecture":"福岡県","city":"筑紫野市","street":"香園"},{"zipCode":"8180047","prefectureKana":"ﾌｸｵｶｹﾝ","cityKana":"ﾁｸｼﾉｼ","streetKana":"ｺｶﾞ","prefecture":"福岡県","city":"筑紫野市","street":"古賀"},{"zipCode":"8180063","prefectureKana":"ﾌｸｵｶｹﾝ","cityKana":"ﾁｸｼﾉｼ","streetKana":"ｻｸﾗﾀﾞｲ","prefecture":"福岡県","city":"筑紫野市","street":"桜台"},{"zipCode":"8180021","prefectureKana":"ﾌｸｵｶｹﾝ","cityKana":"ﾁｸｼﾉｼ","streetKana":"ｼﾀﾐ","prefecture":"福岡県","city":"筑紫野市","street":"下見"},{"zipCode":"8180054","prefectureKana":"ﾌｸｵｶｹﾝ","cityKana":"ﾁｸｼﾉｼ","streetKana":"ｽｷﾞﾂﾞｶ","prefecture":"福岡県","city":"筑紫野市","street":"杉塚"},{"zipCode":"8180067","prefectureKana":"ﾌｸｵｶｹﾝ","cityKana":"ﾁｸｼﾉｼ","streetKana":"ｿﾞｸﾐｮｳｲﾝ","prefecture":"福岡県","city":"筑紫野市","street":"俗明院"},{"zipCode":"8180025","prefectureKana":"ﾌｸｵｶｹﾝ","cityKana":"ﾁｸｼﾉｼ","streetKana":"ﾁｸｼ","prefecture":"福岡県","city":"筑紫野市","street":"筑紫"},{"zipCode":"8180022","prefectureKana":"ﾌｸｵｶｹﾝ","cityKana":"ﾁｸｼﾉｼ","streetKana":"ﾁｸｼｴｷﾏｴﾄﾞｵﾘ","prefecture":"福岡県","city":"筑紫野市","street":"筑紫駅前通"},{"zipCode":"8180064","prefectureKana":"ﾌｸｵｶｹﾝ","cityKana":"ﾁｸｼﾉｼ","streetKana":"ﾂﾈﾏﾂ","prefecture":"福岡県","city":"筑紫野市","street":"常松"},{"zipCode":"8180053","prefectureKana":"ﾌｸｵｶｹﾝ","cityKana":"ﾁｸｼﾉｼ","streetKana":"ﾃﾝﾊﾟｲｻﾞｶ","prefecture":"福岡県","city":"筑紫野市","street":"天拝坂"},{"zipCode":"8180059","prefectureKana":"ﾌｸｵｶｹﾝ","cityKana":"ﾁｸｼﾉｼ","streetKana":"ﾄｳﾉﾊﾙﾋｶﾞｼ","prefecture":"福岡県","city":"筑紫野市","street":"塔原東"},{"zipCode":"8180073","prefectureKana":"ﾌｸｵｶｹﾝ","cityKana":"ﾁｸｼﾉｼ","streetKana":"ﾄｳﾉﾊﾙﾆｼ","prefecture":"福岡県","city":"筑紫野市","street":"塔原西"},{"zipCode":"8180074","prefectureKana":"ﾌｸｵｶｹﾝ","cityKana":"ﾁｸｼﾉｼ","streetKana":"ﾄｳﾉﾊﾙﾐﾅﾐ","prefecture":"福岡県","city":"筑紫野市","street":"塔原南"},{"zipCode":"8180066","prefectureKana":"ﾌｸｵｶｹﾝ","cityKana":"ﾁｸｼﾉｼ","streetKana":"ﾅｶﾞｵｶ","prefecture":"福岡県","city":"筑紫野市","street":"永岡"},{"zipCode":"8180032","prefectureKana":"ﾌｸｵｶｹﾝ","cityKana":"ﾁｸｼﾉｼ","streetKana":"ﾆｼｵﾀﾞ","prefecture":"福岡県","city":"筑紫野市","street":"西小田"},{"zipCode":"8180044","prefectureKana":"ﾌｸｵｶｹﾝ","cityKana":"ﾁｸｼﾉｼ","streetKana":"ﾊｷﾞﾜﾗ","prefecture":"福岡県","city":"筑紫野市","street":"萩原"},{"zipCode":"8180085","prefectureKana":"ﾌｸｵｶｹﾝ","cityKana":"ﾁｸｼﾉｼ","streetKana":"ﾊﾘｽﾘｷﾀ","prefecture":"福岡県","city":"筑紫野市","street":"針摺北"},{"zipCode":"8180083","prefectureKana":"ﾌｸｵｶｹﾝ","cityKana":"ﾁｸｼﾉｼ","streetKana":"ﾊﾘｽﾘﾁｭｳｵｳ","prefecture":"福岡県","city":"筑紫野市","street":"針摺中央"},{"zipCode":"8180084","prefectureKana":"ﾌｸｵｶｹﾝ","cityKana":"ﾁｸｼﾉｼ","streetKana":"ﾊﾘｽﾘﾆｼ","prefecture":"福岡県","city":"筑紫野市","street":"針摺西"},{"zipCode":"8180081","prefectureKana":"ﾌｸｵｶｹﾝ","cityKana":"ﾁｸｼﾉｼ","streetKana":"ﾊﾘｽﾘﾋｶﾞｼ","prefecture":"福岡県","city":"筑紫野市","street":"針摺東"},{"zipCode":"8180082","prefectureKana":"ﾌｸｵｶｹﾝ","cityKana":"ﾁｸｼﾉｼ","streetKana":"ﾊﾘｽﾘﾐﾅﾐ","prefecture":"福岡県","city":"筑紫野市","street":"針摺南"},{"zipCode":"8180005","prefectureKana":"ﾌｸｵｶｹﾝ","cityKana":"ﾁｸｼﾉｼ","streetKana":"ﾊﾙ","prefecture":"福岡県","city":"筑紫野市","street":"原"},{"zipCode":"8180024","prefectureKana":"ﾌｸｵｶｹﾝ","cityKana":"ﾁｸｼﾉｼ","streetKana":"ﾊﾙﾀﾞ","prefecture":"福岡県","city":"筑紫野市","street":"原田"},{"zipCode":"8180036","prefectureKana":"ﾌｸｵｶｹﾝ","cityKana":"ﾁｸｼﾉｼ","streetKana":"ﾋｶﾘｶﾞｵｶ","prefecture":"福岡県","city":"筑紫野市","street":"光が丘"},{"zipCode":"8180045","prefectureKana":"ﾌｸｵｶｹﾝ","cityKana":"ﾁｸｼﾉｼ","streetKana":"ﾋﾞｮｳﾄﾞｳｼﾞ","prefecture":"福岡県","city":"筑紫野市","street":"平等寺"},{"zipCode":"8180056","prefectureKana":"ﾌｸｵｶｹﾝ","cityKana":"ﾁｸｼﾉｼ","streetKana":"ﾌﾂｶｲﾁｷﾀ","prefecture":"福岡県","city":"筑紫野市","street":"二日市北"},{"zipCode":"8180072","prefectureKana":"ﾌｸｵｶｹﾝ","cityKana":"ﾁｸｼﾉｼ","streetKana":"ﾌﾂｶｲﾁﾁｭｳｵｳ","prefecture":"福岡県","city":"筑紫野市","street":"二日市中央"},{"zipCode":"8180071","prefectureKana":"ﾌｸｵｶｹﾝ","cityKana":"ﾁｸｼﾉｼ","streetKana":"ﾌﾂｶｲﾁﾆｼ","prefecture":"福岡県","city":"筑紫野市","street":"二日市西"},{"zipCode":"8180057","prefectureKana":"ﾌｸｵｶｹﾝ","cityKana":"ﾁｸｼﾉｼ","streetKana":"ﾌﾂｶｲﾁﾐﾅﾐ","prefecture":"福岡県","city":"筑紫野市","street":"二日市南"},{"zipCode":"8180007","prefectureKana":"ﾌｸｵｶｹﾝ","cityKana":"ﾁｸｼﾉｼ","streetKana":"ﾎﾝﾄﾞｳｼﾞ","prefecture":"福岡県","city":"筑紫野市","street":"本道寺"},{"zipCode":"8180026","prefectureKana":"ﾌｸｵｶｹﾝ","cityKana":"ﾁｸｼﾉｼ","streetKana":"ﾐｻｷ","prefecture":"福岡県","city":"筑紫野市","street":"美咲"},{"zipCode":"8180052","prefectureKana":"ﾌｸｵｶｹﾝ","cityKana":"ﾁｸｼﾉｼ","streetKana":"ﾑｻｼ","prefecture":"福岡県","city":"筑紫野市","street":"武藏"},{"zipCode":"8180043","prefectureKana":"ﾌｸｵｶｹﾝ","cityKana":"ﾁｸｼﾉｼ","streetKana":"ﾑｻｼｶﾞｵｶ","prefecture":"福岡県","city":"筑紫野市","street":"むさしケ丘"},{"zipCode":"8180061","prefectureKana":"ﾌｸｵｶｹﾝ","cityKana":"ﾁｸｼﾉｼ","streetKana":"ﾑﾗｻｷ","prefecture":"福岡県","city":"筑紫野市","street":"紫"},{"zipCode":"8180065","prefectureKana":"ﾌｸｵｶｹﾝ","cityKana":"ﾁｸｼﾉｼ","streetKana":"ﾓﾛﾀ","prefecture":"福岡県","city":"筑紫野市","street":"諸田"},{"zipCode":"8180003","prefectureKana":"ﾌｸｵｶｹﾝ","cityKana":"ﾁｸｼﾉｼ","streetKana":"ﾔﾏｴ","prefecture":"福岡県","city":"筑紫野市","street":"山家"},{"zipCode":"8180046","prefectureKana":"ﾌｸｵｶｹﾝ","cityKana":"ﾁｸｼﾉｼ","streetKana":"ﾔﾏｸﾞﾁ","prefecture":"福岡県","city":"筑紫野市","street":"山口"},{"zipCode":"8180001","prefectureKana":"ﾌｸｵｶｹﾝ","cityKana":"ﾁｸｼﾉｼ","streetKana":"ﾕｽﾊﾞﾙ","prefecture":"福岡県","city":"筑紫野市","street":"柚須原"},{"zipCode":"8180058","prefectureKana":"ﾌｸｵｶｹﾝ","cityKana":"ﾁｸｼﾉｼ","streetKana":"ﾕﾏﾁ","prefecture":"福岡県","city":"筑紫野市","street":"湯町"},{"zipCode":"8180004","prefectureKana":"ﾌｸｵｶｹﾝ","cityKana":"ﾁｸｼﾉｼ","streetKana":"ﾖｼｷ","prefecture":"福岡県","city":"筑紫野市","street":"吉木"},{"zipCode":"8180042","prefectureKana":"ﾌｸｵｶｹﾝ","cityKana":"ﾁｸｼﾉｼ","streetKana":"ﾘｭｳﾐｮｳｼﾞ","prefecture":"福岡県","city":"筑紫野市","street":"立明寺"},{"zipCode":"8180023","prefectureKana":"ﾌｸｵｶｹﾝ","cityKana":"ﾁｸｼﾉｼ","streetKana":"ﾜｶｴ","prefecture":"福岡県","city":"筑紫野市","street":"若江"},{"zipCode":"8180100","prefectureKana":"ﾌｸｵｶｹﾝ","cityKana":"ﾀﾞｻﾞｲﾌｼ","streetKana":"ｲｶﾆｹｲｻｲｶﾞﾅｲﾊﾞｱｲ","prefecture":"福岡県","city":"太宰府市","street":"以下に掲載がない場合"},{"zipCode":"8180137","prefectureKana":"ﾌｸｵｶｹﾝ","cityKana":"ﾀﾞｻﾞｲﾌｼ","streetKana":"ｱｵﾊﾞﾀﾞｲ","prefecture":"福岡県","city":"太宰府市","street":"青葉台"},{"zipCode":"8180121","prefectureKana":"ﾌｸｵｶｹﾝ","cityKana":"ﾀﾞｻﾞｲﾌｼ","streetKana":"ｱｵﾔﾏ","prefecture":"福岡県","city":"太宰府市","street":"青山"},{"zipCode":"8180118","prefectureKana":"ﾌｸｵｶｹﾝ","cityKana":"ﾀﾞｻﾞｲﾌｼ","streetKana":"ｲｼｻﾞｶ","prefecture":"福岡県","city":"太宰府市","street":"石坂"},{"zipCode":"8180115","prefectureKana":"ﾌｸｵｶｹﾝ","cityKana":"ﾀﾞｻﾞｲﾌｼ","streetKana":"ｳﾁﾔﾏ","prefecture":"福岡県","city":"太宰府市","street":"内山"},{"zipCode":"8180123","prefectureKana":"ﾌｸｵｶｹﾝ","cityKana":"ﾀﾞｻﾞｲﾌｼ","streetKana":"ｳﾒｶﾞｵｶ","prefecture":"福岡県","city":"太宰府市","street":"梅ケ丘"},{"zipCode":"8180134","prefectureKana":"ﾌｸｵｶｹﾝ","cityKana":"ﾀﾞｻﾞｲﾌｼ","streetKana":"ｵｵｻﾞﾉ","prefecture":"福岡県","city":"太宰府市","street":"大佐野"},{"zipCode":"8180101","prefectureKana":"ﾌｸｵｶｹﾝ","cityKana":"ﾀﾞｻﾞｲﾌｼ","streetKana":"ｶﾝｾﾞｵﾝｼﾞ","prefecture":"福岡県","city":"太宰府市","street":"観世音寺"},{"zipCode":"8180114","prefectureKana":"ﾌｸｵｶｹﾝ","cityKana":"ﾀﾞｻﾞｲﾌｼ","streetKana":"ｷﾀﾀﾞﾆ","prefecture":"福岡県","city":"太宰府市","street":"北谷"},{"zipCode":"8180132","prefectureKana":"ﾌｸｵｶｹﾝ","cityKana":"ﾀﾞｻﾞｲﾌｼ","streetKana":"ｺｸﾌﾞ","prefecture":"福岡県","city":"太宰府市","street":"国分"},{"zipCode":"8180125","prefectureKana":"ﾌｸｵｶｹﾝ","cityKana":"ﾀﾞｻﾞｲﾌｼ","streetKana":"ｺﾞｼﾞｮｳ","prefecture":"福岡県","city":"太宰府市","street":"五条"},{"zipCode":"8180139","prefectureKana":"ﾌｸｵｶｹﾝ","cityKana":"ﾀﾞｻﾞｲﾌｼ","streetKana":"ｻｲﾄ","prefecture":"福岡県","city":"太宰府市","street":"宰都"},{"zipCode":"8180117","prefectureKana":"ﾌｸｵｶｹﾝ","cityKana":"ﾀﾞｻﾞｲﾌｼ","streetKana":"ｻｲﾌ","prefecture":"福岡県","city":"太宰府市","street":"宰府"},{"zipCode":"8180133","prefectureKana":"ﾌｸｵｶｹﾝ","cityKana":"ﾀﾞｻﾞｲﾌｼ","streetKana":"ｻｶﾓﾄ","prefecture":"福岡県","city":"太宰府市","street":"坂本"},{"zipCode":"8180111","prefectureKana":"ﾌｸｵｶｹﾝ","cityKana":"ﾀﾞｻﾞｲﾌｼ","streetKana":"ｻﾝｼﾞｮｳ","prefecture":"福岡県","city":"太宰府市","street":"三条"},{"zipCode":"8180102","prefectureKana":"ﾌｸｵｶｹﾝ","cityKana":"ﾀﾞｻﾞｲﾌｼ","streetKana":"ｼﾗｶﾜ","prefecture":"福岡県","city":"太宰府市","street":"白川"},{"zipCode":"8180103","prefectureKana":"ﾌｸｵｶｹﾝ","cityKana":"ﾀﾞｻﾞｲﾌｼ","streetKana":"ｽｻﾞｸ","prefecture":"福岡県","city":"太宰府市","street":"朱雀"},{"zipCode":"8180122","prefectureKana":"ﾌｸｵｶｹﾝ","cityKana":"ﾀﾞｻﾞｲﾌｼ","streetKana":"ﾀｶｵ","prefecture":"福岡県","city":"太宰府市","street":"高雄"},{"zipCode":"8180104","prefectureKana":"ﾌｸｵｶｹﾝ","cityKana":"ﾀﾞｻﾞｲﾌｼ","streetKana":"ﾄｵﾉｺｶﾞ","prefecture":"福岡県","city":"太宰府市","street":"通古賀"},{"zipCode":"8180105","prefectureKana":"ﾌｸｵｶｹﾝ","cityKana":"ﾀﾞｻﾞｲﾌｼ","streetKana":"ﾄﾌﾛｳﾐﾅﾐ","prefecture":"福岡県","city":"太宰府市","street":"都府楼南"},{"zipCode":"8180136","prefectureKana":"ﾌｸｵｶｹﾝ","cityKana":"ﾀﾞｻﾞｲﾌｼ","streetKana":"ﾅｶﾞｳﾗﾀﾞｲ","prefecture":"福岡県","city":"太宰府市","street":"長浦台"},{"zipCode":"8180124","prefectureKana":"ﾌｸｵｶｹﾝ","cityKana":"ﾀﾞｻﾞｲﾌｼ","streetKana":"ﾊﾞｲｺｳｴﾝ","prefecture":"福岡県","city":"太宰府市","street":"梅香苑"},{"zipCode":"8180110","prefectureKana":"ﾌｸｵｶｹﾝ","cityKana":"ﾀﾞｻﾞｲﾌｼ","streetKana":"ﾐｶｻ","prefecture":"福岡県","city":"太宰府市","street":"御笠"},{"zipCode":"8180131","prefectureKana":"ﾌｸｵｶｹﾝ","cityKana":"ﾀﾞｻﾞｲﾌｼ","streetKana":"ﾐｽﾞｷ","prefecture":"福岡県","city":"太宰府市","street":"水城"},{"zipCode":"8180135","prefectureKana":"ﾌｸｵｶｹﾝ","cityKana":"ﾀﾞｻﾞｲﾌｼ","streetKana":"ﾑｶｲｻﾞﾉ","prefecture":"福岡県","city":"太宰府市","street":"向佐野"},{"zipCode":"8180138","prefectureKana":"ﾌｸｵｶｹﾝ","cityKana":"ﾀﾞｻﾞｲﾌｼ","streetKana":"ﾖｼﾏﾂ","prefecture":"福岡県","city":"太宰府市","street":"吉松"},{"zipCode":"8180119","prefectureKana":"ﾌｸｵｶｹﾝ","cityKana":"ﾀﾞｻﾞｲﾌｼ","streetKana":"ﾚﾝｶﾞﾔ","prefecture":"福岡県","city":"太宰府市","street":"連歌屋"}]