[{"zipCode":"8380100","prefectureKana":"ﾌｸｵｶｹﾝ","cityKana":"ｵｺﾞｵﾘｼ","streetKana":"ｲｶﾆｹｲｻｲｶﾞﾅｲﾊﾞｱｲ","prefecture":"福岡県","city":"小郡市","street":"以下に掲載がない場合"},{"zipCode":"8380135","prefectureKana":"ﾌｸｵｶｹﾝ","cityKana":"ｵｺﾞｵﾘｼ","streetKana":"ｱｶｶﾞﾜ","prefecture":"福岡県","city":"小郡市","street":"赤川"},{"zipCode":"8380109","prefectureKana":"ﾌｸｵｶｹﾝ","cityKana":"ｵｺﾞｵﾘｼ","streetKana":"ｱｽﾐ","prefecture":"福岡県","city":"小郡市","street":"あすみ"},{"zipCode":"8380128","prefectureKana":"ﾌｸｵｶｹﾝ","cityKana":"ｵｺﾞｵﾘｼ","streetKana":"ｲﾅﾖｼ","prefecture":"福岡県","city":"小郡市","street":"稲吉"},{"zipCode":"8380114","prefectureKana":"ﾌｸｵｶｹﾝ","cityKana":"ｵｺﾞｵﾘｼ","streetKana":"ｲﾉｳｴ","prefecture":"福岡県","city":"小郡市","street":"井上"},{"zipCode":"8380142","prefectureKana":"ﾌｸｵｶｹﾝ","cityKana":"ｵｺﾞｵﾘｼ","streetKana":"ｵｵｲﾀｲ","prefecture":"福岡県","city":"小郡市","street":"大板井"},{"zipCode":"8380127","prefectureKana":"ﾌｸｵｶｹﾝ","cityKana":"ｵｺﾞｵﾘｼ","streetKana":"ｵｵｻﾞｷ","prefecture":"福岡県","city":"小郡市","street":"大崎"},{"zipCode":"8380115","prefectureKana":"ﾌｸｵｶｹﾝ","cityKana":"ｵｺﾞｵﾘｼ","streetKana":"ｵｵﾎ","prefecture":"福岡県","city":"小郡市","street":"大保"},{"zipCode":"8380141","prefectureKana":"ﾌｸｵｶｹﾝ","cityKana":"ｵｺﾞｵﾘｼ","streetKana":"ｵｺﾞｵﾘ","prefecture":"福岡県","city":"小郡市","street":"小郡"},{"zipCode":"8380104","prefectureKana":"ﾌｸｵｶｹﾝ","cityKana":"ｵｺﾞｵﾘｼ","streetKana":"ｵﾄｸﾞﾏ","prefecture":"福岡県","city":"小郡市","street":"乙隈"},{"zipCode":"8380121","prefectureKana":"ﾌｸｵｶｹﾝ","cityKana":"ｵｺﾞｵﾘｼ","streetKana":"ｶﾐｲﾜﾀ","prefecture":"福岡県","city":"小郡市","street":"上岩田"},{"zipCode":"8380136","prefectureKana":"ﾌｸｵｶｹﾝ","cityKana":"ｵｺﾞｵﾘｼ","streetKana":"ｶﾐﾆｼｱｼﾞｻｶ","prefecture":"福岡県","city":"小郡市","street":"上西鰺坂"},{"zipCode":"8380144","prefectureKana":"ﾌｸｵｶｹﾝ","cityKana":"ｵｺﾞｵﾘｼ","streetKana":"ｷﾞｵﾝ","prefecture":"福岡県","city":"小郡市","street":"祇園"},{"zipCode":"8380143","prefectureKana":"ﾌｸｵｶｹﾝ","cityKana":"ｵｺﾞｵﾘｼ","streetKana":"ｺｲﾀｲ","prefecture":"福岡県","city":"小郡市","street":"小板井"},{"zipCode":"8380123","prefectureKana":"ﾌｸｵｶｹﾝ","cityKana":"ｵｺﾞｵﾘｼ","streetKana":"ｼﾓｲﾜﾀ","prefecture":"福岡県","city":"小郡市","street":"下岩田"},{"zipCode":"8380134","prefectureKana":"ﾌｸｵｶｹﾝ","cityKana":"ｵｺﾞｵﾘｼ","streetKana":"ｼﾓﾆｼｱｼﾞｻｶ","prefecture":"福岡県","city":"小郡市","street":"下西鰺坂"},{"zipCode":"8380102","prefectureKana":"ﾌｸｵｶｹﾝ","cityKana":"ｵｺﾞｵﾘｼ","streetKana":"ﾂｺ","prefecture":"福岡県","city":"小郡市","street":"津古"},{"zipCode":"8380138","prefectureKana":"ﾌｸｵｶｹﾝ","cityKana":"ｵｺﾞｵﾘｼ","streetKana":"ﾃﾗﾌｸﾄﾞｳ","prefecture":"福岡県","city":"小郡市","street":"寺福童"},{"zipCode":"8380107","prefectureKana":"ﾌｸｵｶｹﾝ","cityKana":"ｵｺﾞｵﾘｼ","streetKana":"ﾉｿﾞﾐｶﾞｵｶ","prefecture":"福岡県","city":"小郡市","street":"希みが丘"},{"zipCode":"8380112","prefectureKana":"ﾌｸｵｶｹﾝ","cityKana":"ｵｺﾞｵﾘｼ","streetKana":"ﾋｶﾀ","prefecture":"福岡県","city":"小郡市","street":"干潟"},{"zipCode":"8380131","prefectureKana":"ﾌｸｵｶｹﾝ","cityKana":"ｵｺﾞｵﾘｼ","streetKana":"ﾋﾗｶﾀ","prefecture":"福岡県","city":"小郡市","street":"平方"},{"zipCode":"8380111","prefectureKana":"ﾌｸｵｶｹﾝ","cityKana":"ｵｺﾞｵﾘｼ","streetKana":"ﾌｷｱｹﾞ","prefecture":"福岡県","city":"小郡市","street":"吹上"},{"zipCode":"8380137","prefectureKana":"ﾌｸｵｶｹﾝ","cityKana":"ｵｺﾞｵﾘｼ","streetKana":"ﾌｸﾄﾞｳ","prefecture":"福岡県","city":"小郡市","street":"福童"},{"zipCode":"8380125","prefectureKana":"ﾌｸｵｶｹﾝ","cityKana":"ｵｺﾞｵﾘｼ","streetKana":"ﾌﾀ","prefecture":"福岡県","city":"小郡市","street":"二タ"},{"zipCode":"8380126","prefectureKana":"ﾌｸｵｶｹﾝ","cityKana":"ｵｺﾞｵﾘｼ","streetKana":"ﾌﾀﾓﾘ","prefecture":"福岡県","city":"小郡市","street":"二森"},{"zipCode":"8380124","prefectureKana":"ﾌｸｵｶｹﾝ","cityKana":"ｵｺﾞｵﾘｼ","streetKana":"ﾌﾙｴ","prefecture":"福岡県","city":"小郡市","street":"古飯"},{"zipCode":"8380122","prefectureKana":"ﾌｸｵｶｹﾝ","cityKana":"ｵｺﾞｵﾘｼ","streetKana":"ﾏﾂｻﾞｷ","prefecture":"福岡県","city":"小郡市","street":"松崎"},{"zipCode":"8380103","prefectureKana":"ﾌｸｵｶｹﾝ","cityKana":"ｵｺﾞｵﾘｼ","streetKana":"ﾐｸﾆｶﾞｵｶ","prefecture":"福岡県","city":"小郡市","street":"三国が丘"},{"zipCode":"8380101","prefectureKana":"ﾌｸｵｶｹﾝ","cityKana":"ｵｺﾞｵﾘｼ","streetKana":"ﾐｽｽﾞｶﾞｵｶ","prefecture":"福岡県","city":"小郡市","street":"美鈴が丘"},{"zipCode":"8380108","prefectureKana":"ﾌｸｵｶｹﾝ","cityKana":"ｵｺﾞｵﾘｼ","streetKana":"ﾐｽｽﾞﾉﾓﾘ","prefecture":"福岡県","city":"小郡市","street":"美鈴の杜"},{"zipCode":"8380106","prefectureKana":"ﾌｸｵｶｹﾝ","cityKana":"ｵｺﾞｵﾘｼ","streetKana":"ﾐﾂｻﾜ","prefecture":"福岡県","city":"小郡市","street":"三沢"},{"zipCode":"8380132","prefectureKana":"ﾌｸｵｶｹﾝ","cityKana":"ｵｺﾞｵﾘｼ","streetKana":"ﾐﾂﾕｷ","prefecture":"福岡県","city":"小郡市","street":"光行"},{"zipCode":"8380133","prefectureKana":"ﾌｸｵｶｹﾝ","cityKana":"ｵｺﾞｵﾘｼ","streetKana":"ﾔｻｶ","prefecture":"福岡県","city":"小郡市","street":"八坂"},{"zipCode":"8380113","prefectureKana":"ﾌｸｵｶｹﾝ","cityKana":"ｵｺﾞｵﾘｼ","streetKana":"ﾔﾏｸﾞﾏ","prefecture":"福岡県","city":"小郡市","street":"山隈"},{"zipCode":"8380105","prefectureKana":"ﾌｸｵｶｹﾝ","cityKana":"ｵｺﾞｵﾘｼ","streetKana":"ﾖｺｸﾞﾏ","prefecture":"福岡県","city":"小郡市","street":"横隈"},{"zipCode":"8380116","prefectureKana":"ﾌｸｵｶｹﾝ","cityKana":"ｵｺﾞｵﾘｼ","streetKana":"ﾘｷﾀｹ","prefecture":"福岡県","city":"小郡市","street":"力武"},{"zipCode":"8380000","prefectureKana":"ﾌｸｵｶｹﾝ","cityKana":"ｱｻｸﾗｼ","streetKana":"ｲｶﾆｹｲｻｲｶﾞﾅｲﾊﾞｱｲ","prefecture":"福岡県","city":"朝倉市","street":"以下に掲載がない場合"},{"zipCode":"8380025","prefectureKana":"ﾌｸｵｶｹﾝ","cityKana":"ｱｻｸﾗｼ","streetKana":"ｱｲﾉｸﾎﾞ","prefecture":"福岡県","city":"朝倉市","street":"相窪"},{"zipCode":"8380001","prefectureKana":"ﾌｸｵｶｹﾝ","cityKana":"ｱｻｸﾗｼ","streetKana":"ｱｷﾂﾞｷ","prefecture":"福岡県","city":"朝倉市","street":"秋月"},{"zipCode":"8380011","prefectureKana":"ﾌｸｵｶｹﾝ","cityKana":"ｱｻｸﾗｼ","streetKana":"ｱｷﾂﾞｷﾉﾄﾘ","prefecture":"福岡県","city":"朝倉市","street":"秋月野鳥"},{"zipCode":"8380068","prefectureKana":"ﾌｸｵｶｹﾝ","cityKana":"ｱｻｸﾗｼ","streetKana":"ｱﾏｷﾞ","prefecture":"福岡県","city":"朝倉市","street":"甘木"},{"zipCode":"8380005","prefectureKana":"ﾌｸｵｶｹﾝ","cityKana":"ｱｻｸﾗｼ","streetKana":"ｱﾓｳｽﾞ","prefecture":"福岡県","city":"朝倉市","street":"甘水"},{"zipCode":"8381317","prefectureKana":"ﾌｸｵｶｹﾝ","cityKana":"ｱｻｸﾗｼ","streetKana":"ｲｼﾅﾘ","prefecture":"福岡県","city":"朝倉市","street":"石成"},{"zipCode":"8380027","prefectureKana":"ﾌｸｵｶｹﾝ","cityKana":"ｱｻｸﾗｼ","streetKana":"ｲﾀﾔ","prefecture":"福岡県","city":"朝倉市","street":"板屋"},{"zipCode":"8380029","prefectureKana":"ﾌｸｵｶｹﾝ","cityKana":"ｱｻｸﾗｼ","streetKana":"ｲﾅｲﾊﾞﾙ","prefecture":"福岡県","city":"朝倉市","street":"荷原"},{"zipCode":"8381315","prefectureKana":"ﾌｸｵｶｹﾝ","cityKana":"ｱｻｸﾗｼ","streetKana":"ｲﾘｼﾞ","prefecture":"福岡県","city":"朝倉市","street":"入地"},{"zipCode":"8380042","prefectureKana":"ﾌｸｵｶｹﾝ","cityKana":"ｱｻｸﾗｼ","streetKana":"ｳｴﾊﾀ","prefecture":"福岡県","city":"朝倉市","street":"上畑"},{"zipCode":"8380067","prefectureKana":"ﾌｸｵｶｹﾝ","cityKana":"ｱｻｸﾗｼ","streetKana":"ｳｼｷﾞ","prefecture":"福岡県","city":"朝倉市","street":"牛木"},{"zipCode":"8380024","prefectureKana":"ﾌｸｵｶｹﾝ","cityKana":"ｱｻｸﾗｼ","streetKana":"ｳｼﾂﾞﾙ","prefecture":"福岡県","city":"朝倉市","street":"牛鶴"},{"zipCode":"8381301","prefectureKana":"ﾌｸｵｶｹﾝ","cityKana":"ｱｻｸﾗｼ","streetKana":"ｳｽﾉｲﾝ","prefecture":"福岡県","city":"朝倉市","street":"烏集院"},{"zipCode":"8380038","prefectureKana":"ﾌｸｵｶｹﾝ","cityKana":"ｱｻｸﾗｼ","streetKana":"ｳﾉｷ","prefecture":"福岡県","city":"朝倉市","street":"鵜木"},{"zipCode":"8380012","prefectureKana":"ﾌｸｵｶｹﾝ","cityKana":"ｱｻｸﾗｼ","streetKana":"ｴｶﾞﾜ","prefecture":"福岡県","city":"朝倉市","street":"江川"},{"zipCode":"8381316","prefectureKana":"ﾌｸｵｶｹﾝ","cityKana":"ｱｻｸﾗｼ","streetKana":"ｵｵﾊﾞ","prefecture":"福岡県","city":"朝倉市","street":"大庭"},{"zipCode":"8380052","prefectureKana":"ﾌｸｵｶｹﾝ","cityKana":"ｱｻｸﾗｼ","streetKana":"ｵｸﾞﾏ","prefecture":"福岡県","city":"朝倉市","street":"小隈"},{"zipCode":"8380051","prefectureKana":"ﾌｸｵｶｹﾝ","cityKana":"ｱｻｸﾗｼ","streetKana":"ｵﾀ","prefecture":"福岡県","city":"朝倉市","street":"小田"},{"zipCode":"8380026","prefectureKana":"ﾌｸｵｶｹﾝ","cityKana":"ｱｻｸﾗｼ","streetKana":"ｶｷﾊﾞﾙ","prefecture":"福岡県","city":"朝倉市","street":"柿原"},{"zipCode":"8380036","prefectureKana":"ﾌｸｵｶｹﾝ","cityKana":"ｱｻｸﾗｼ","streetKana":"ｶﾀﾉﾌﾞ","prefecture":"福岡県","city":"朝倉市","street":"片延"},{"zipCode":"8380048","prefectureKana":"ﾌｸｵｶｹﾝ","cityKana":"ｱｻｸﾗｼ","streetKana":"ｶﾅﾏﾙ","prefecture":"福岡県","city":"朝倉市","street":"金丸"},{"zipCode":"8380041","prefectureKana":"ﾌｸｵｶｹﾝ","cityKana":"ｱｻｸﾗｼ","streetKana":"ｶﾏｻｷ","prefecture":"福岡県","city":"朝倉市","street":"鎌崎"},{"zipCode":"8380019","prefectureKana":"ﾌｸｵｶｹﾝ","cityKana":"ｱｻｸﾗｼ","streetKana":"ｶﾐｱｷﾂﾞｷ","prefecture":"福岡県","city":"朝倉市","street":"上秋月"},{"zipCode":"8380057","prefectureKana":"ﾌｸｵｶｹﾝ","cityKana":"ｱｻｸﾗｼ","streetKana":"ｶﾐｳﾗ","prefecture":"福岡県","city":"朝倉市","street":"上浦"},{"zipCode":"8381313","prefectureKana":"ﾌｸｵｶｹﾝ","cityKana":"ｱｻｸﾗｼ","streetKana":"ｶﾐﾃﾞﾗ","prefecture":"福岡県","city":"朝倉市","street":"上寺"},{"zipCode":"8380004","prefectureKana":"ﾌｸｵｶｹﾝ","cityKana":"ｱｻｸﾗｼ","streetKana":"ｸﾏｴ","prefecture":"福岡県","city":"朝倉市","street":"隈江"},{"zipCode":"8380046","prefectureKana":"ﾌｸｵｶｹﾝ","cityKana":"ｱｻｸﾗｼ","streetKana":"ｸﾗﾖｼ","prefecture":"福岡県","city":"朝倉市","street":"倉吉"},{"zipCode":"8380072","prefectureKana":"ﾌｸｵｶｹﾝ","cityKana":"ｱｻｸﾗｼ","streetKana":"ｸﾛｶﾞﾜ","prefecture":"福岡県","city":"朝倉市","street":"黒川"},{"zipCode":"8380039","prefectureKana":"ﾌｸｵｶｹﾝ","cityKana":"ｱｻｸﾗｼ","streetKana":"ｸﾜﾊﾞﾗ","prefecture":"福岡県","city":"朝倉市","street":"桑原"},{"zipCode":"8380063","prefectureKana":"ﾌｸｵｶｹﾝ","cityKana":"ｱｻｸﾗｼ","streetKana":"ｺｶﾞ","prefecture":"福岡県","city":"朝倉市","street":"古賀"},{"zipCode":"8381307","prefectureKana":"ﾌｸｵｶｹﾝ","cityKana":"ｱｻｸﾗｼ","streetKana":"ｺﾓ","prefecture":"福岡県","city":"朝倉市","street":"古毛"},{"zipCode":"8380071","prefectureKana":"ﾌｸｵｶｹﾝ","cityKana":"ｱｻｸﾗｼ","streetKana":"ｻﾀﾞ","prefecture":"福岡県","city":"朝倉市","street":"佐田"},{"zipCode":"8380016","prefectureKana":"ﾌｸｵｶｹﾝ","cityKana":"ｱｻｸﾗｼ","streetKana":"ｼﾀﾌﾁ","prefecture":"福岡県","city":"朝倉市","street":"下渕"},{"zipCode":"8380055","prefectureKana":"ﾌｸｵｶｹﾝ","cityKana":"ｱｻｸﾗｼ","streetKana":"ｼﾓｳﾗ","prefecture":"福岡県","city":"朝倉市","street":"下浦"},{"zipCode":"8380045","prefectureKana":"ﾌｸｵｶｹﾝ","cityKana":"ｱｻｸﾗｼ","streetKana":"ｼﾗﾄﾘ","prefecture":"福岡県","city":"朝倉市","street":"白鳥"},{"zipCode":"8380022","prefectureKana":"ﾌｸｵｶｹﾝ","cityKana":"ｱｻｸﾗｼ","streetKana":"ｼﾛ","prefecture":"福岡県","city":"朝倉市","street":"城"},{"zipCode":"8381304","prefectureKana":"ﾌｸｵｶｹﾝ","cityKana":"ｱｻｸﾗｼ","streetKana":"ｽｶﾞﾜ","prefecture":"福岡県","city":"朝倉市","street":"須川"},{"zipCode":"8380017","prefectureKana":"ﾌｸｵｶｹﾝ","cityKana":"ｱｻｸﾗｼ","streetKana":"ｾﾝｽﾞ","prefecture":"福岡県","city":"朝倉市","street":"千手"},{"zipCode":"8380054","prefectureKana":"ﾌｸｵｶｹﾝ","cityKana":"ｱｻｸﾗｼ","streetKana":"ｿｳｽﾞ","prefecture":"福岡県","city":"朝倉市","street":"草水"},{"zipCode":"8380033","prefectureKana":"ﾌｸｵｶｹﾝ","cityKana":"ｱｻｸﾗｼ","streetKana":"ﾀｼﾏ","prefecture":"福岡県","city":"朝倉市","street":"田島"},{"zipCode":"8380013","prefectureKana":"ﾌｸｵｶｹﾝ","cityKana":"ｱｻｸﾗｼ","streetKana":"ﾀｼﾛ","prefecture":"福岡県","city":"朝倉市","street":"田代"},{"zipCode":"8381311","prefectureKana":"ﾌｸｵｶｹﾝ","cityKana":"ｱｻｸﾗｼ","streetKana":"ﾀﾀﾞﾚ","prefecture":"福岡県","city":"朝倉市","street":"多々連"},{"zipCode":"8381312","prefectureKana":"ﾌｸｵｶｹﾝ","cityKana":"ｱｻｸﾗｼ","streetKana":"ﾀﾅｶ","prefecture":"福岡県","city":"朝倉市","street":"田中"},{"zipCode":"8380066","prefectureKana":"ﾌｸｵｶｹﾝ","cityKana":"ｱｻｸﾗｼ","streetKana":"ﾁﾖﾏﾙ","prefecture":"福岡県","city":"朝倉市","street":"千代丸"},{"zipCode":"8380062","prefectureKana":"ﾌｸｵｶｹﾝ","cityKana":"ｱｻｸﾗｼ","streetKana":"ﾂﾂﾐ","prefecture":"福岡県","city":"朝倉市","street":"堤"},{"zipCode":"8380047","prefectureKana":"ﾌｸｵｶｹﾝ","cityKana":"ｱｻｸﾗｼ","streetKana":"ﾄｸﾉﾌﾁ","prefecture":"福岡県","city":"朝倉市","street":"徳渕"},{"zipCode":"8380064","prefectureKana":"ﾌｸｵｶｹﾝ","cityKana":"ｱｻｸﾗｼ","streetKana":"ﾄﾝﾀ","prefecture":"福岡県","city":"朝倉市","street":"頓田"},{"zipCode":"8380035","prefectureKana":"ﾌｸｵｶｹﾝ","cityKana":"ｱｻｸﾗｼ","streetKana":"ﾅｶ","prefecture":"福岡県","city":"朝倉市","street":"中"},{"zipCode":"8380032","prefectureKana":"ﾌｸｵｶｹﾝ","cityKana":"ｱｻｸﾗｼ","streetKana":"ﾅｶｼﾏﾀﾞ","prefecture":"福岡県","city":"朝倉市","street":"中島田"},{"zipCode":"8380053","prefectureKana":"ﾌｸｵｶｹﾝ","cityKana":"ｱｻｸﾗｼ","streetKana":"ﾅｶｿｳｽﾞ","prefecture":"福岡県","city":"朝倉市","street":"中寒水"},{"zipCode":"8380043","prefectureKana":"ﾌｸｵｶｹﾝ","cityKana":"ｱｻｸﾗｼ","streetKana":"ﾅｶﾞﾀ","prefecture":"福岡県","city":"朝倉市","street":"長田"},{"zipCode":"8380056","prefectureKana":"ﾌｸｵｶｹﾝ","cityKana":"ｱｻｸﾗｼ","streetKana":"ﾅｶﾊﾞﾙ","prefecture":"福岡県","city":"朝倉市","street":"中原"},{"zipCode":"8381314","prefectureKana":"ﾌｸｵｶｹﾝ","cityKana":"ｱｻｸﾗｼ","streetKana":"ﾅｶﾞﾌﾁ","prefecture":"福岡県","city":"朝倉市","street":"長渕"},{"zipCode":"8380003","prefectureKana":"ﾌｸｵｶｹﾝ","cityKana":"ｱｻｸﾗｼ","streetKana":"ﾅﾗﾊﾗ","prefecture":"福岡県","city":"朝倉市","street":"楢原"},{"zipCode":"8381501","prefectureKana":"ﾌｸｵｶｹﾝ","cityKana":"ｱｻｸﾗｼ","streetKana":"ﾊｷｱｶﾀﾞﾆ","prefecture":"福岡県","city":"朝倉市","street":"杷木赤谷"},{"zipCode":"8381511","prefectureKana":"ﾌｸｵｶｹﾝ","cityKana":"ｱｻｸﾗｼ","streetKana":"ﾊｷｲｹﾀﾞ","prefecture":"福岡県","city":"朝倉市","street":"杷木池田"},{"zipCode":"8381503","prefectureKana":"ﾌｸｵｶｹﾝ","cityKana":"ｱｻｸﾗｼ","streetKana":"ﾊｷｵｵﾔﾏ","prefecture":"福岡県","city":"朝倉市","street":"杷木大山"},{"zipCode":"8381514","prefectureKana":"ﾌｸｵｶｹﾝ","cityKana":"ｱｻｸﾗｼ","streetKana":"ﾊｷｸｸﾞﾐﾔ","prefecture":"福岡県","city":"朝倉市","street":"杷木久喜宮"},{"zipCode":"8381513","prefectureKana":"ﾌｸｵｶｹﾝ","cityKana":"ｱｻｸﾗｼ","streetKana":"ﾊｷｺｶﾞ","prefecture":"福岡県","city":"朝倉市","street":"杷木古賀"},{"zipCode":"8381507","prefectureKana":"ﾌｸｵｶｹﾝ","cityKana":"ｱｻｸﾗｼ","streetKana":"ﾊｷｼﾗｷ","prefecture":"福岡県","city":"朝倉市","street":"杷木白木"},{"zipCode":"8381521","prefectureKana":"ﾌｸｵｶｹﾝ","cityKana":"ｱｻｸﾗｼ","streetKana":"ﾊｷｼﾜ","prefecture":"福岡県","city":"朝倉市","street":"杷木志波"},{"zipCode":"8381512","prefectureKana":"ﾌｸｵｶｹﾝ","cityKana":"ｱｻｸﾗｼ","streetKana":"ﾊｷｿｳｽﾞ","prefecture":"福岡県","city":"朝倉市","street":"杷木寒水"},{"zipCode":"8381506","prefectureKana":"ﾌｸｵｶｹﾝ","cityKana":"ｱｻｸﾗｼ","streetKana":"ﾊｷﾊﾔｼﾀﾞ","prefecture":"福岡県","city":"朝倉市","street":"杷木林田"},{"zipCode":"8381505","prefectureKana":"ﾌｸｵｶｹﾝ","cityKana":"ｱｻｸﾗｼ","streetKana":"ﾊｷﾎｻｶ","prefecture":"福岡県","city":"朝倉市","street":"杷木穂坂"},{"zipCode":"8381504","prefectureKana":"ﾌｸｵｶｹﾝ","cityKana":"ｱｻｸﾗｼ","streetKana":"ﾊｷﾎｼﾏﾙ","prefecture":"福岡県","city":"朝倉市","street":"杷木星丸"},{"zipCode":"8381502","prefectureKana":"ﾌｸｵｶｹﾝ","cityKana":"ｱｻｸﾗｼ","streetKana":"ﾊｷﾏｽｴ","prefecture":"福岡県","city":"朝倉市","street":"杷木松末"},{"zipCode":"8381515","prefectureKana":"ﾌｸｵｶｹﾝ","cityKana":"ｱｻｸﾗｼ","streetKana":"ﾊｷﾜｶｲﾁ","prefecture":"福岡県","city":"朝倉市","street":"杷木若市"},{"zipCode":"8380002","prefectureKana":"ﾌｸｵｶｹﾝ","cityKana":"ｱｻｸﾗｼ","streetKana":"ﾊｾﾔﾏ","prefecture":"福岡県","city":"朝倉市","street":"長谷山"},{"zipCode":"8380037","prefectureKana":"ﾌｸｵｶｹﾝ","cityKana":"ｱｻｸﾗｼ","streetKana":"ﾊﾔｼﾀﾞ","prefecture":"福岡県","city":"朝倉市","street":"林田"},{"zipCode":"8381305","prefectureKana":"ﾌｸｵｶｹﾝ","cityKana":"ｱｻｸﾗｼ","streetKana":"ﾋｼﾉ","prefecture":"福岡県","city":"朝倉市","street":"菱野"},{"zipCode":"8380065","prefectureKana":"ﾌｸｵｶｹﾝ","cityKana":"ｱｻｸﾗｼ","streetKana":"ﾋﾄﾂｷﾞ","prefecture":"福岡県","city":"朝倉市","street":"一木"},{"zipCode":"8380018","prefectureKana":"ﾌｸｵｶｹﾝ","cityKana":"ｱｻｸﾗｼ","streetKana":"ﾋｭｳｶﾞｲｼ","prefecture":"福岡県","city":"朝倉市","street":"日向石"},{"zipCode":"8380059","prefectureKana":"ﾌｸｵｶｹﾝ","cityKana":"ｱｻｸﾗｼ","streetKana":"ﾋﾗﾂﾞｶ","prefecture":"福岡県","city":"朝倉市","street":"平塚"},{"zipCode":"8381303","prefectureKana":"ﾌｸｵｶｹﾝ","cityKana":"ｱｻｸﾗｼ","streetKana":"ﾋﾗﾏﾂ","prefecture":"福岡県","city":"朝倉市","street":"比良松"},{"zipCode":"8380034","prefectureKana":"ﾌｸｵｶｹﾝ","cityKana":"ｱｻｸﾗｼ","streetKana":"ﾌｸﾐﾂ","prefecture":"福岡県","city":"朝倉市","street":"福光"},{"zipCode":"8380061","prefectureKana":"ﾌｸｵｶｹﾝ","cityKana":"ｱｻｸﾗｼ","streetKana":"ﾎﾞﾀﾞｲｼﾞ","prefecture":"福岡県","city":"朝倉市","street":"菩提寺"},{"zipCode":"8380058","prefectureKana":"ﾌｸｵｶｹﾝ","cityKana":"ｱｻｸﾗｼ","streetKana":"ﾏﾀﾞ","prefecture":"福岡県","city":"朝倉市","street":"馬田"},{"zipCode":"8380023","prefectureKana":"ﾌｸｵｶｹﾝ","cityKana":"ｱｻｸﾗｼ","streetKana":"ﾐﾅｷﾞ","prefecture":"福岡県","city":"朝倉市","street":"三奈木"},{"zipCode":"8380020","prefectureKana":"ﾌｸｵｶｹﾝ","cityKana":"ｱｻｸﾗｼ","streetKana":"ﾐﾅｷﾞﾉﾓﾘ","prefecture":"福岡県","city":"朝倉市","street":"美奈宜の杜"},{"zipCode":"8381302","prefectureKana":"ﾌｸｵｶｹﾝ","cityKana":"ｱｻｸﾗｼ","streetKana":"ﾐﾔﾉ","prefecture":"福岡県","city":"朝倉市","street":"宮野"},{"zipCode":"8380015","prefectureKana":"ﾌｸｵｶｹﾝ","cityKana":"ｱｻｸﾗｼ","streetKana":"ﾓﾁﾏﾙ","prefecture":"福岡県","city":"朝倉市","street":"持丸"},{"zipCode":"8380044","prefectureKana":"ﾌｸｵｶｹﾝ","cityKana":"ｱｻｸﾗｼ","streetKana":"ﾔｴﾂﾞ","prefecture":"福岡県","city":"朝倉市","street":"八重津"},{"zipCode":"8380028","prefectureKana":"ﾌｸｵｶｹﾝ","cityKana":"ｱｻｸﾗｼ","streetKana":"ﾔｶﾀﾊﾞﾙ","prefecture":"福岡県","city":"朝倉市","street":"屋形原"},{"zipCode":"8380031","prefectureKana":"ﾌｸｵｶｹﾝ","cityKana":"ｱｻｸﾗｼ","streetKana":"ﾔﾅｶﾞ","prefecture":"福岡県","city":"朝倉市","street":"屋永"},{"zipCode":"8380021","prefectureKana":"ﾌｸｵｶｹﾝ","cityKana":"ｱｻｸﾗｼ","streetKana":"ﾔﾉﾀｹ","prefecture":"福岡県","city":"朝倉市","street":"矢野竹"},{"zipCode":"8381306","prefectureKana":"ﾌｸｵｶｹﾝ","cityKana":"ｱｻｸﾗｼ","streetKana":"ﾔﾏﾀﾞ","prefecture":"福岡県","city":"朝倉市","street":"山田"},{"zipCode":"8380014","prefectureKana":"ﾌｸｵｶｹﾝ","cityKana":"ｱｻｸﾗｼ","streetKana":"ﾔﾏﾐ","prefecture":"福岡県","city":"朝倉市","street":"山見"},{"zipCode":"8380069","prefectureKana":"ﾌｸｵｶｹﾝ","cityKana":"ｱｻｸﾗｼ","streetKana":"ﾗｲﾊ","prefecture":"福岡県","city":"朝倉市","street":"来春"},{"zipCode":"8380000","prefectureKana":"ﾌｸｵｶｹﾝ","cityKana":"ｱｻｸﾗｸﾞﾝﾁｸｾﾞﾝﾏﾁ","streetKana":"ｲｶﾆｹｲｻｲｶﾞﾅｲﾊﾞｱｲ","prefecture":"福岡県","city":"朝倉郡筑前町","street":"以下に掲載がない場合"},{"zipCode":"8380222","prefectureKana":"ﾌｸｵｶｹﾝ","cityKana":"ｱｻｸﾗｸﾞﾝﾁｸｾﾞﾝﾏﾁ","streetKana":"ｱｶｻｶ","prefecture":"福岡県","city":"朝倉郡筑前町","street":"赤坂"},{"zipCode":"8380227","prefectureKana":"ﾌｸｵｶｹﾝ","cityKana":"ｱｻｸﾗｸﾞﾝﾁｸｾﾞﾝﾏﾁ","streetKana":"ｱｻﾋ","prefecture":"福岡県","city":"朝倉郡筑前町","street":"朝日"},{"zipCode":"8380817","prefectureKana":"ﾌｸｵｶｹﾝ","cityKana":"ｱｻｸﾗｸﾞﾝﾁｸｾﾞﾝﾏﾁ","streetKana":"ｱｻｿﾞﾉ","prefecture":"福岡県","city":"朝倉郡筑前町","street":"朝園"},{"zipCode":"8380825","prefectureKana":"ﾌｸｵｶｹﾝ","cityKana":"ｱｻｸﾗｸﾞﾝﾁｸｾﾞﾝﾏﾁ","streetKana":"ｵｵｸﾎﾞ","prefecture":"福岡県","city":"朝倉郡筑前町","street":"大久保"},{"zipCode":"8380225","prefectureKana":"ﾌｸｵｶｹﾝ","cityKana":"ｱｻｸﾗｸﾞﾝﾁｸｾﾞﾝﾏﾁ","streetKana":"ｲｼﾋﾞﾂ","prefecture":"福岡県","city":"朝倉郡筑前町","street":"石櫃"},{"zipCode":"8380811","prefectureKana":"ﾌｸｵｶｹﾝ","cityKana":"ｱｻｸﾗｸﾞﾝﾁｸｾﾞﾝﾏﾁ","streetKana":"ｲﾔﾅｶﾞ","prefecture":"福岡県","city":"朝倉郡筑前町","street":"弥永"},{"zipCode":"8380812","prefectureKana":"ﾌｸｵｶｹﾝ","cityKana":"ｱｻｸﾗｸﾞﾝﾁｸｾﾞﾝﾏﾁ","streetKana":"ｵｵﾂﾞｶ","prefecture":"福岡県","city":"朝倉郡筑前町","street":"大塚"},{"zipCode":"8380821","prefectureKana":"ﾌｸｵｶｹﾝ","cityKana":"ｱｻｸﾗｸﾞﾝﾁｸｾﾞﾝﾏﾁ","streetKana":"ｶﾐﾀｶﾊﾞ","prefecture":"福岡県","city":"朝倉郡筑前町","street":"上高場"},{"zipCode":"8380201","prefectureKana":"ﾌｸｵｶｹﾝ","cityKana":"ｱｻｸﾗｸﾞﾝﾁｸｾﾞﾝﾏﾁ","streetKana":"ｸｼｷﾞ","prefecture":"福岡県","city":"朝倉郡筑前町","street":"櫛木"},{"zipCode":"8380801","prefectureKana":"ﾌｸｵｶｹﾝ","cityKana":"ｱｻｸﾗｸﾞﾝﾁｸｾﾞﾝﾏﾁ","streetKana":"ｸﾘﾀﾞ","prefecture":"福岡県","city":"朝倉郡筑前町","street":"栗田"},{"zipCode":"8380202","prefectureKana":"ﾌｸｵｶｹﾝ","cityKana":"ｱｻｸﾗｸﾞﾝﾁｸｾﾞﾝﾏﾁ","streetKana":"ｻﾝｶﾞﾔﾏ","prefecture":"福岡県","city":"朝倉郡筑前町","street":"三箇山"},{"zipCode":"8380212","prefectureKana":"ﾌｸｵｶｹﾝ","cityKana":"ｱｻｸﾗｸﾞﾝﾁｸｾﾞﾝﾏﾁ","streetKana":"ｼｿｼﾞﾏ","prefecture":"福岡県","city":"朝倉郡筑前町","street":"四三嶋"},{"zipCode":"8380215","prefectureKana":"ﾌｸｵｶｹﾝ","cityKana":"ｱｻｸﾗｸﾞﾝﾁｸｾﾞﾝﾏﾁ","streetKana":"ｼﾉｸﾏ","prefecture":"福岡県","city":"朝倉郡筑前町","street":"篠隈"},{"zipCode":"8380211","prefectureKana":"ﾌｸｵｶｹﾝ","cityKana":"ｱｻｸﾗｸﾞﾝﾁｸｾﾞﾝﾏﾁ","streetKana":"ｼﾓﾀｶﾊﾞ","prefecture":"福岡県","city":"朝倉郡筑前町","street":"下高場"},{"zipCode":"8380816","prefectureKana":"ﾌｸｵｶｹﾝ","cityKana":"ｱｻｸﾗｸﾞﾝﾁｸｾﾞﾝﾏﾁ","streetKana":"ｼﾝﾏﾁ","prefecture":"福岡県","city":"朝倉郡筑前町","street":"新町"},{"zipCode":"8380206","prefectureKana":"ﾌｸｵｶｹﾝ","cityKana":"ｱｻｸﾗｸﾞﾝﾁｸｾﾞﾝﾏﾁ","streetKana":"ｿﾈﾀﾞ","prefecture":"福岡県","city":"朝倉郡筑前町","street":"曽根田"},{"zipCode":"8380814","prefectureKana":"ﾌｸｵｶｹﾝ","cityKana":"ｱｻｸﾗｸﾞﾝﾁｸｾﾞﾝﾏﾁ","streetKana":"ﾀｶﾀ","prefecture":"福岡県","city":"朝倉郡筑前町","street":"高田"},{"zipCode":"8380822","prefectureKana":"ﾌｸｵｶｹﾝ","cityKana":"ｱｻｸﾗｸﾞﾝﾁｸｾﾞﾝﾏﾁ","streetKana":"ﾀｺｴ","prefecture":"福岡県","city":"朝倉郡筑前町","street":"高上"},{"zipCode":"8380204","prefectureKana":"ﾌｸｵｶｹﾝ","cityKana":"ｱｻｸﾗｸﾞﾝﾁｸｾﾞﾝﾏﾁ","streetKana":"ﾁｮｳｼﾞｬﾏﾁ","prefecture":"福岡県","city":"朝倉郡筑前町","street":"長者町"},{"zipCode":"8380803","prefectureKana":"ﾌｸｵｶｹﾝ","cityKana":"ｱｻｸﾗｸﾞﾝﾁｸｾﾞﾝﾏﾁ","streetKana":"ﾄｳｼｮ","prefecture":"福岡県","city":"朝倉郡筑前町","street":"当所"},{"zipCode":"8380223","prefectureKana":"ﾌｸｵｶｹﾝ","cityKana":"ｱｻｸﾗｸﾞﾝﾁｸｾﾞﾝﾏﾁ","streetKana":"ﾄｶﾐ","prefecture":"福岡県","city":"朝倉郡筑前町","street":"砥上"},{"zipCode":"8380226","prefectureKana":"ﾌｸｵｶｹﾝ","cityKana":"ｱｻｸﾗｸﾞﾝﾁｸｾﾞﾝﾏﾁ","streetKana":"ﾅｶﾑﾀ","prefecture":"福岡県","city":"朝倉郡筑前町","street":"中牟田"},{"zipCode":"8380815","prefectureKana":"ﾌｸｵｶｹﾝ","cityKana":"ｱｻｸﾗｸﾞﾝﾁｸｾﾞﾝﾏﾁ","streetKana":"ﾉﾏﾁ","prefecture":"福岡県","city":"朝倉郡筑前町","street":"野町"},{"zipCode":"8380203","prefectureKana":"ﾌｸｵｶｹﾝ","cityKana":"ｱｻｸﾗｸﾞﾝﾁｸｾﾞﾝﾏﾁ","streetKana":"ﾊﾀｼﾞﾏ","prefecture":"福岡県","city":"朝倉郡筑前町","street":"畑嶋"},{"zipCode":"8380824","prefectureKana":"ﾌｸｵｶｹﾝ","cityKana":"ｱｻｸﾗｸﾞﾝﾁｸｾﾞﾝﾏﾁ","streetKana":"ﾊﾗｼﾞｿﾞｳ","prefecture":"福岡県","city":"朝倉郡筑前町","street":"原地蔵"},{"zipCode":"8380214","prefectureKana":"ﾌｸｵｶｹﾝ","cityKana":"ｱｻｸﾗｸﾞﾝﾁｸｾﾞﾝﾏﾁ","streetKana":"ﾋｶﾞｼｵﾀﾞ","prefecture":"福岡県","city":"朝倉郡筑前町","street":"東小田"},{"zipCode":"8380802","prefectureKana":"ﾌｸｵｶｹﾝ","cityKana":"ｱｻｸﾗｸﾞﾝﾁｸｾﾞﾝﾏﾁ","streetKana":"ﾋｻﾐﾂ","prefecture":"福岡県","city":"朝倉郡筑前町","street":"久光"},{"zipCode":"8380221","prefectureKana":"ﾌｸｵｶｹﾝ","cityKana":"ｱｻｸﾗｸﾞﾝﾁｸｾﾞﾝﾏﾁ","streetKana":"ﾌｷﾀﾞ","prefecture":"福岡県","city":"朝倉郡筑前町","street":"吹田"},{"zipCode":"8380228","prefectureKana":"ﾌｸｵｶｹﾝ","cityKana":"ｱｻｸﾗｸﾞﾝﾁｸｾﾞﾝﾏﾁ","streetKana":"ﾌﾀ","prefecture":"福岡県","city":"朝倉郡筑前町","street":"二"},{"zipCode":"8380224","prefectureKana":"ﾌｸｵｶｹﾝ","cityKana":"ｱｻｸﾗｸﾞﾝﾁｸｾﾞﾝﾏﾁ","streetKana":"ﾏﾂﾉﾌﾞ","prefecture":"福岡県","city":"朝倉郡筑前町","street":"松延"},{"zipCode":"8380205","prefectureKana":"ﾌｸｵｶｹﾝ","cityKana":"ｱｻｸﾗｸﾞﾝﾁｸｾﾞﾝﾏﾁ","streetKana":"ﾐﾅﾐ","prefecture":"福岡県","city":"朝倉郡筑前町","street":"三並"},{"zipCode":"8380207","prefectureKana":"ﾌｸｵｶｹﾝ","cityKana":"ｱｻｸﾗｸﾞﾝﾁｸｾﾞﾝﾏﾁ","streetKana":"ﾐﾑﾀ","prefecture":"福岡県","city":"朝倉郡筑前町","street":"三牟田"},{"zipCode":"8380804","prefectureKana":"ﾌｸｵｶｹﾝ","cityKana":"ｱｻｸﾗｸﾞﾝﾁｸｾﾞﾝﾏﾁ","streetKana":"ﾓﾘﾔﾏ","prefecture":"福岡県","city":"朝倉郡筑前町","street":"森山"},{"zipCode":"8380213","prefectureKana":"ﾌｸｵｶｹﾝ","cityKana":"ｱｻｸﾗｸﾞﾝﾁｸｾﾞﾝﾏﾁ","streetKana":"ﾔｽﾉ","prefecture":"福岡県","city":"朝倉郡筑前町","street":"安野"},{"zipCode":"8380823","prefectureKana":"ﾌｸｵｶｹﾝ","cityKana":"ｱｻｸﾗｸﾞﾝﾁｸｾﾞﾝﾏﾁ","streetKana":"ﾔﾏｸﾞﾏ","prefecture":"福岡県","city":"朝倉郡筑前町","street":"山隈"},{"zipCode":"8380813","prefectureKana":"ﾌｸｵｶｹﾝ","cityKana":"ｱｻｸﾗｸﾞﾝﾁｸｾﾞﾝﾏﾁ","streetKana":"ﾖﾘｲ","prefecture":"福岡県","city":"朝倉郡筑前町","street":"依井"},{"zipCode":"8381700","prefectureKana":"ﾌｸｵｶｹﾝ","cityKana":"ｱｻｸﾗｸﾞﾝﾄｳﾎｳﾑﾗ","streetKana":"ｲｶﾆｹｲｻｲｶﾞﾅｲﾊﾞｱｲ","prefecture":"福岡県","city":"朝倉郡東峰村","street":"以下に掲載がない場合"},{"zipCode":"8381601","prefectureKana":"ﾌｸｵｶｹﾝ","cityKana":"ｱｻｸﾗｸﾞﾝﾄｳﾎｳﾑﾗ","streetKana":"ｺｲｼﾜﾗ","prefecture":"福岡県","city":"朝倉郡東峰村","street":"小石原"},{"zipCode":"8381602","prefectureKana":"ﾌｸｵｶｹﾝ","cityKana":"ｱｻｸﾗｸﾞﾝﾄｳﾎｳﾑﾗ","streetKana":"ｺｲｼﾜﾗﾂﾂﾞﾐ","prefecture":"福岡県","city":"朝倉郡東峰村","street":"小石原鼓"},{"zipCode":"8381702","prefectureKana":"ﾌｸｵｶｹﾝ","cityKana":"ｱｻｸﾗｸﾞﾝﾄｳﾎｳﾑﾗ","streetKana":"ﾌｸｲ","prefecture":"福岡県","city":"朝倉郡東峰村","street":"福井"},{"zipCode":"8381701","prefectureKana":"ﾌｸｵｶｹﾝ","cityKana":"ｱｻｸﾗｸﾞﾝﾄｳﾎｳﾑﾗ","streetKana":"ﾎｳｼｭﾔﾏ","prefecture":"福岡県","city":"朝倉郡東峰村","street":"宝珠山"}]