[{"zipCode":"8470000","prefectureKana":"ｻｶﾞｹﾝ","cityKana":"ｶﾗﾂｼ","streetKana":"ｲｶﾆｹｲｻｲｶﾞﾅｲﾊﾞｱｲ","prefecture":"佐賀県","city":"唐津市","street":"以下に掲載がない場合"},{"zipCode":"8470823","prefectureKana":"ｻｶﾞｹﾝ","cityKana":"ｶﾗﾂｼ","streetKana":"ｱｻﾋｶﾞｵｶ","prefecture":"佐賀県","city":"唐津市","street":"旭が丘"},{"zipCode":"8470841","prefectureKana":"ｻｶﾞｹﾝ","cityKana":"ｶﾗﾂｼ","streetKana":"ｱｻﾋﾏﾁ","prefecture":"佐賀県","city":"唐津市","street":"朝日町"},{"zipCode":"8470832","prefectureKana":"ｻｶﾞｹﾝ","cityKana":"ｶﾗﾂｼ","streetKana":"ｲｼｼ","prefecture":"佐賀県","city":"唐津市","street":"石志"},{"zipCode":"8470042","prefectureKana":"ｻｶﾞｹﾝ","cityKana":"ｶﾗﾂｼ","streetKana":"ｳｵﾔﾏﾁ","prefecture":"佐賀県","city":"唐津市","street":"魚屋町"},{"zipCode":"8470025","prefectureKana":"ｻｶﾞｹﾝ","cityKana":"ｶﾗﾂｼ","streetKana":"ｳｷ","prefecture":"佐賀県","city":"唐津市","street":"宇木"},{"zipCode":"8470804","prefectureKana":"ｻｶﾞｹﾝ","cityKana":"ｶﾗﾂｼ","streetKana":"ｳｼﾛｶﾞﾜﾁ","prefecture":"佐賀県","city":"唐津市","street":"後川内"},{"zipCode":"8470124","prefectureKana":"ｻｶﾞｹﾝ","cityKana":"ｶﾗﾂｼ","streetKana":"ｳﾗ","prefecture":"佐賀県","city":"唐津市","street":"浦"},{"zipCode":"8470853","prefectureKana":"ｻｶﾞｹﾝ","cityKana":"ｶﾗﾂｼ","streetKana":"ｴｶﾞﾜﾏﾁ","prefecture":"佐賀県","city":"唐津市","street":"江川町"},{"zipCode":"8470123","prefectureKana":"ｻｶﾞｹﾝ","cityKana":"ｶﾗﾂｼ","streetKana":"ｴｻﾞﾙｷ","prefecture":"佐賀県","city":"唐津市","street":"枝去木"},{"zipCode":"8470132","prefectureKana":"ｻｶﾞｹﾝ","cityKana":"ｶﾗﾂｼ","streetKana":"ｵｳｶ","prefecture":"佐賀県","city":"唐津市","street":"相賀"},{"zipCode":"8470066","prefectureKana":"ｻｶﾞｹﾝ","cityKana":"ｶﾗﾂｼ","streetKana":"ｵｵｲｼﾏﾁ","prefecture":"佐賀県","city":"唐津市","street":"大石町"},{"zipCode":"8470873","prefectureKana":"ｻｶﾞｹﾝ","cityKana":"ｶﾗﾂｼ","streetKana":"ｶｲｶﾞﾝﾄﾞｵﾘ","prefecture":"佐賀県","city":"唐津市","street":"海岸通"},{"zipCode":"8470022","prefectureKana":"ｻｶﾞｹﾝ","cityKana":"ｶﾗﾂｼ","streetKana":"ｶｶﾞﾐ","prefecture":"佐賀県","city":"唐津市","street":"鏡"},{"zipCode":"8470028","prefectureKana":"ｻｶﾞｹﾝ","cityKana":"ｶﾗﾂｼ","streetKana":"ｶｶﾞﾐｼﾝｶｲ","prefecture":"佐賀県","city":"唐津市","street":"鏡新開"},{"zipCode":"8470065","prefectureKana":"ｻｶﾞｹﾝ","cityKana":"ｶﾗﾂｼ","streetKana":"ｶｺﾏﾁ","prefecture":"佐賀県","city":"唐津市","street":"水主町"},{"zipCode":"8470026","prefectureKana":"ｻｶﾞｹﾝ","cityKana":"ｶﾗﾂｼ","streetKana":"ｶｼﾜｻﾞｷ","prefecture":"佐賀県","city":"唐津市","street":"柏崎"},{"zipCode":"8470131","prefectureKana":"ｻｶﾞｹﾝ","cityKana":"ｶﾗﾂｼ","streetKana":"ｶｼﾜｼﾞﾏ","prefecture":"佐賀県","city":"唐津市","street":"神集島"},{"zipCode":"8470055","prefectureKana":"ｻｶﾞｹﾝ","cityKana":"ｶﾗﾂｼ","streetKana":"ｶﾀﾅﾏﾁ","prefecture":"佐賀県","city":"唐津市","street":"刀町"},{"zipCode":"8470015","prefectureKana":"ｻｶﾞｹﾝ","cityKana":"ｶﾗﾂｼ","streetKana":"ｷﾀｼﾞｮｳﾅｲ","prefecture":"佐賀県","city":"唐津市","street":"北城内"},{"zipCode":"8471212","prefectureKana":"ｻｶﾞｹﾝ","cityKana":"ｶﾗﾂｼ","streetKana":"ｷﾀﾊﾀｵｵｽｷﾞ","prefecture":"佐賀県","city":"唐津市","street":"北波多大杉"},{"zipCode":"8471221","prefectureKana":"ｻｶﾞｹﾝ","cityKana":"ｶﾗﾂｼ","streetKana":"ｷﾀﾊﾀｶﾐﾋﾗﾉ","prefecture":"佐賀県","city":"唐津市","street":"北波多上平野"},{"zipCode":"8471211","prefectureKana":"ｻｶﾞｹﾝ","cityKana":"ｶﾗﾂｼ","streetKana":"ｷﾀﾊﾀｷｼﾔﾏ","prefecture":"佐賀県","city":"唐津市","street":"北波多岸山"},{"zipCode":"8471225","prefectureKana":"ｻｶﾞｹﾝ","cityKana":"ｶﾗﾂｼ","streetKana":"ｷﾀﾊﾀｼｹﾞ","prefecture":"佐賀県","city":"唐津市","street":"北波多志気"},{"zipCode":"8471223","prefectureKana":"ｻｶﾞｹﾝ","cityKana":"ｶﾗﾂｼ","streetKana":"ｷﾀﾊﾀｼﾓﾋﾗﾉ","prefecture":"佐賀県","city":"唐津市","street":"北波多下平野"},{"zipCode":"8471213","prefectureKana":"ｻｶﾞｹﾝ","cityKana":"ｶﾗﾂｼ","streetKana":"ｷﾀﾊﾀﾀｹｱﾘ","prefecture":"佐賀県","city":"唐津市","street":"北波多竹有"},{"zipCode":"8471202","prefectureKana":"ｻｶﾞｹﾝ","cityKana":"ｶﾗﾂｼ","streetKana":"ｷﾀﾊﾀﾀﾅｶ","prefecture":"佐賀県","city":"唐津市","street":"北波多田中"},{"zipCode":"8471201","prefectureKana":"ｻｶﾞｹﾝ","cityKana":"ｶﾗﾂｼ","streetKana":"ｷﾀﾊﾀﾄｸｽｴ","prefecture":"佐賀県","city":"唐津市","street":"北波多徳須恵"},{"zipCode":"8471222","prefectureKana":"ｻｶﾞｹﾝ","cityKana":"ｶﾗﾂｼ","streetKana":"ｷﾀﾊﾀﾅﾙﾌﾁ","prefecture":"佐賀県","city":"唐津市","street":"北波多成渕"},{"zipCode":"8471214","prefectureKana":"ｻｶﾞｹﾝ","cityKana":"ｶﾗﾂｼ","streetKana":"ｷﾀﾊﾀﾋｴﾀﾞ","prefecture":"佐賀県","city":"唐津市","street":"北波多稗田"},{"zipCode":"8471203","prefectureKana":"ｻｶﾞｹﾝ","cityKana":"ｶﾗﾂｼ","streetKana":"ｷﾀﾊﾀﾔﾏﾋｺ","prefecture":"佐賀県","city":"唐津市","street":"北波多山彦"},{"zipCode":"8471224","prefectureKana":"ｻｶﾞｹﾝ","cityKana":"ｶﾗﾂｼ","streetKana":"ｷﾀﾊﾀﾕｷｱｲﾉ","prefecture":"佐賀県","city":"唐津市","street":"北波多行合野"},{"zipCode":"8470045","prefectureKana":"ｻｶﾞｹﾝ","cityKana":"ｶﾗﾂｼ","streetKana":"ｷｮｳﾏﾁ","prefecture":"佐賀県","city":"唐津市","street":"京町"},{"zipCode":"8470044","prefectureKana":"ｻｶﾞｹﾝ","cityKana":"ｶﾗﾂｼ","streetKana":"ｷﾜﾀﾏﾁ","prefecture":"佐賀県","city":"唐津市","street":"木綿町"},{"zipCode":"8470817","prefectureKana":"ｻｶﾞｹﾝ","cityKana":"ｶﾗﾂｼ","streetKana":"ｸﾏﾉﾊﾗﾏﾁ","prefecture":"佐賀県","city":"唐津市","street":"熊原町"},{"zipCode":"8470884","prefectureKana":"ｻｶﾞｹﾝ","cityKana":"ｶﾗﾂｼ","streetKana":"ｸﾏﾉﾐﾈ","prefecture":"佐賀県","city":"唐津市","street":"熊ノ峰"},{"zipCode":"8470033","prefectureKana":"ｻｶﾞｹﾝ","cityKana":"ｶﾗﾂｼ","streetKana":"ｸﾘ","prefecture":"佐賀県","city":"唐津市","street":"久里"},{"zipCode":"8470824","prefectureKana":"ｻｶﾞｹﾝ","cityKana":"ｶﾗﾂｼ","streetKana":"ｺｳﾀﾞ","prefecture":"佐賀県","city":"唐津市","street":"神田"},{"zipCode":"8470052","prefectureKana":"ｻｶﾞｹﾝ","cityKana":"ｶﾗﾂｼ","streetKana":"ｺﾞﾌｸﾏﾁ","prefecture":"佐賀県","city":"唐津市","street":"呉服町"},{"zipCode":"8470054","prefectureKana":"ｻｶﾞｹﾝ","cityKana":"ｶﾗﾂｼ","streetKana":"ｺﾒﾔﾏﾁ","prefecture":"佐賀県","city":"唐津市","street":"米屋町"},{"zipCode":"8470053","prefectureKana":"ｻｶﾞｹﾝ","cityKana":"ｶﾗﾂｼ","streetKana":"ｺﾝﾔﾏﾁ","prefecture":"佐賀県","city":"唐津市","street":"紺屋町"},{"zipCode":"8470061","prefectureKana":"ｻｶﾞｹﾝ","cityKana":"ｶﾗﾂｼ","streetKana":"ｻﾞｲﾓｸﾏﾁ","prefecture":"佐賀県","city":"唐津市","street":"材木町"},{"zipCode":"8470011","prefectureKana":"ｻｶﾞｹﾝ","cityKana":"ｶﾗﾂｼ","streetKana":"ｻｶｴﾏﾁ","prefecture":"佐賀県","city":"唐津市","street":"栄町"},{"zipCode":"8470843","prefectureKana":"ｻｶﾞｹﾝ","cityKana":"ｶﾗﾂｼ","streetKana":"ｻｸﾗﾉﾊﾞﾊﾞ","prefecture":"佐賀県","city":"唐津市","street":"桜馬場"},{"zipCode":"8470104","prefectureKana":"ｻｶﾞｹﾝ","cityKana":"ｶﾗﾂｼ","streetKana":"ｻｸﾗﾏﾁ","prefecture":"佐賀県","city":"唐津市","street":"桜町"},{"zipCode":"8470111","prefectureKana":"ｻｶﾞｹﾝ","cityKana":"ｶﾗﾂｼ","streetKana":"ｻｼ","prefecture":"佐賀県","city":"唐津市","street":"佐志"},{"zipCode":"8470113","prefectureKana":"ｻｶﾞｹﾝ","cityKana":"ｶﾗﾂｼ","streetKana":"ｻｼﾅｶｻﾞﾄ","prefecture":"佐賀県","city":"唐津市","street":"佐志中里"},{"zipCode":"8470114","prefectureKana":"ｻｶﾞｹﾝ","cityKana":"ｶﾗﾂｼ","streetKana":"ｻｼﾅｶﾄﾞｵﾘ","prefecture":"佐賀県","city":"唐津市","street":"佐志中通"},{"zipCode":"8470115","prefectureKana":"ｻｶﾞｹﾝ","cityKana":"ｶﾗﾂｼ","streetKana":"ｻｼﾊﾏﾏﾁ","prefecture":"佐賀県","city":"唐津市","street":"佐志浜町"},{"zipCode":"8470112","prefectureKana":"ｻｶﾞｹﾝ","cityKana":"ｶﾗﾂｼ","streetKana":"ｻｼﾐﾅﾐ","prefecture":"佐賀県","city":"唐津市","street":"佐志南"},{"zipCode":"8470883","prefectureKana":"ｻｶﾞｹﾝ","cityKana":"ｶﾗﾂｼ","streetKana":"ｼｹﾞｶﾜﾁ","prefecture":"佐賀県","city":"唐津市","street":"重河内"},{"zipCode":"8470067","prefectureKana":"ｻｶﾞｹﾝ","cityKana":"ｶﾗﾂｼ","streetKana":"ｼﾞｭｳﾆﾝﾏﾁ","prefecture":"佐賀県","city":"唐津市","street":"十人町"},{"zipCode":"8470021","prefectureKana":"ｻｶﾞｹﾝ","cityKana":"ｶﾗﾂｼ","streetKana":"ｼｮｳﾅﾝﾁｮｳ","prefecture":"佐賀県","city":"唐津市","street":"松南町"},{"zipCode":"8470043","prefectureKana":"ｻｶﾞｹﾝ","cityKana":"ｶﾗﾂｼ","streetKana":"ｼﾝｺｳﾏﾁ(ﾋｶﾞｼｼﾝｺｳﾏﾁ)","prefecture":"佐賀県","city":"唐津市","street":"新興町（東新興町）"},{"zipCode":"8470816","prefectureKana":"ｻｶﾞｹﾝ","cityKana":"ｶﾗﾂｼ","streetKana":"ｼﾝｺｳﾏﾁ(ﾆｼｼﾝｺｳﾏﾁ)","prefecture":"佐賀県","city":"唐津市","street":"新興町（西新興町）"},{"zipCode":"8470813","prefectureKana":"ｻｶﾞｹﾝ","cityKana":"ｶﾗﾂｼ","streetKana":"ｼﾝﾏﾁ","prefecture":"佐賀県","city":"唐津市","street":"新町"},{"zipCode":"8470882","prefectureKana":"ｻｶﾞｹﾝ","cityKana":"ｶﾗﾂｼ","streetKana":"ｽｶﾞﾑﾀ","prefecture":"佐賀県","city":"唐津市","street":"菅牟田"},{"zipCode":"8470001","prefectureKana":"ｻｶﾞｹﾝ","cityKana":"ｶﾗﾂｼ","streetKana":"ｿｳｽﾞｲ","prefecture":"佐賀県","city":"唐津市","street":"双水"},{"zipCode":"8470012","prefectureKana":"ｻｶﾞｹﾝ","cityKana":"ｶﾗﾂｼ","streetKana":"ﾀﾞｲﾐｮｳｺｳｼﾞ","prefecture":"佐賀県","city":"唐津市","street":"大名小路"},{"zipCode":"8470803","prefectureKana":"ｻｶﾞｹﾝ","cityKana":"ｶﾗﾂｼ","streetKana":"ﾀﾞｲﾗ","prefecture":"佐賀県","city":"唐津市","street":"大良"},{"zipCode":"8470046","prefectureKana":"ｻｶﾞｹﾝ","cityKana":"ｶﾗﾂｼ","streetKana":"ﾀｶｻｺﾞﾏﾁ","prefecture":"佐賀県","city":"唐津市","street":"高砂町"},{"zipCode":"8470027","prefectureKana":"ｻｶﾞｹﾝ","cityKana":"ｶﾗﾂｼ","streetKana":"ﾀｶｼﾏ","prefecture":"佐賀県","city":"唐津市","street":"高島"},{"zipCode":"8470881","prefectureKana":"ｻｶﾞｹﾝ","cityKana":"ｶﾗﾂｼ","streetKana":"ﾀｹｺﾊﾞ","prefecture":"佐賀県","city":"唐津市","street":"竹木場"},{"zipCode":"8470831","prefectureKana":"ｻｶﾞｹﾝ","cityKana":"ｶﾗﾂｼ","streetKana":"ﾁﾁｶ","prefecture":"佐賀県","city":"唐津市","street":"千々賀"},{"zipCode":"8470821","prefectureKana":"ｻｶﾞｹﾝ","cityKana":"ｶﾗﾂｼ","streetKana":"ﾁｮｳﾀﾞ","prefecture":"佐賀県","city":"唐津市","street":"町田"},{"zipCode":"8470041","prefectureKana":"ｻｶﾞｹﾝ","cityKana":"ｶﾗﾂｼ","streetKana":"ﾁﾖﾀﾞﾏﾁ","prefecture":"佐賀県","city":"唐津市","street":"千代田町"},{"zipCode":"8470312","prefectureKana":"ｻｶﾞｹﾝ","cityKana":"ｶﾗﾂｼ","streetKana":"ﾁﾝｾﾞｲﾏﾁｱｶｷﾞ","prefecture":"佐賀県","city":"唐津市","street":"鎮西町赤木"},{"zipCode":"8470327","prefectureKana":"ｻｶﾞｹﾝ","cityKana":"ｶﾗﾂｼ","streetKana":"ﾁﾝｾﾞｲﾏﾁｲｼﾑﾛ","prefecture":"佐賀県","city":"唐津市","street":"鎮西町石室"},{"zipCode":"8470323","prefectureKana":"ｻｶﾞｹﾝ","cityKana":"ｶﾗﾂｼ","streetKana":"ﾁﾝｾﾞｲﾏﾁｲﾜﾉ","prefecture":"佐賀県","city":"唐津市","street":"鎮西町岩野"},{"zipCode":"8470322","prefectureKana":"ｻｶﾞｹﾝ","cityKana":"ｶﾗﾂｼ","streetKana":"ﾁﾝｾﾞｲﾏﾁｳﾁｱｹﾞ","prefecture":"佐賀県","city":"唐津市","street":"鎮西町打上"},{"zipCode":"8470317","prefectureKana":"ｻｶﾞｹﾝ","cityKana":"ｶﾗﾂｼ","streetKana":"ﾁﾝｾﾞｲﾏﾁｶｶﾗｼﾏ","prefecture":"佐賀県","city":"唐津市","street":"鎮西町加唐島"},{"zipCode":"8470325","prefectureKana":"ｻｶﾞｹﾝ","cityKana":"ｶﾗﾂｼ","streetKana":"ﾁﾝｾﾞｲﾏﾁｶｸﾗ","prefecture":"佐賀県","city":"唐津市","street":"鎮西町加倉"},{"zipCode":"8470403","prefectureKana":"ｻｶﾞｹﾝ","cityKana":"ｶﾗﾂｼ","streetKana":"ﾁﾝｾﾞｲﾏﾁｸｼ","prefecture":"佐賀県","city":"唐津市","street":"鎮西町串"},{"zipCode":"8470324","prefectureKana":"ｻｶﾞｹﾝ","cityKana":"ｶﾗﾂｼ","streetKana":"ﾁﾝｾﾞｲﾏﾁｺｳﾉ","prefecture":"佐賀県","city":"唐津市","street":"鎮西町高野"},{"zipCode":"8470313","prefectureKana":"ｻｶﾞｹﾝ","cityKana":"ｶﾗﾂｼ","streetKana":"ﾁﾝｾﾞｲﾏﾁｼｵﾂﾞﾙ","prefecture":"佐賀県","city":"唐津市","street":"鎮西町塩鶴"},{"zipCode":"8470314","prefectureKana":"ｻｶﾞｹﾝ","cityKana":"ｶﾗﾂｼ","streetKana":"ﾁﾝｾﾞｲﾏﾁｼｮｳﾌﾞ","prefecture":"佐賀県","city":"唐津市","street":"鎮西町菖蒲"},{"zipCode":"8470316","prefectureKana":"ｻｶﾞｹﾝ","cityKana":"ｶﾗﾂｼ","streetKana":"ﾁﾝｾﾞｲﾏﾁﾅｶﾉ","prefecture":"佐賀県","city":"唐津市","street":"鎮西町中野"},{"zipCode":"8470401","prefectureKana":"ｻｶﾞｹﾝ","cityKana":"ｶﾗﾂｼ","streetKana":"ﾁﾝｾﾞｲﾏﾁﾅｺﾞﾔ","prefecture":"佐賀県","city":"唐津市","street":"鎮西町名護屋"},{"zipCode":"8470402","prefectureKana":"ｻｶﾞｹﾝ","cityKana":"ｶﾗﾂｼ","streetKana":"ﾁﾝｾﾞｲﾏﾁﾉﾓﾄ","prefecture":"佐賀県","city":"唐津市","street":"鎮西町野元"},{"zipCode":"8470404","prefectureKana":"ｻｶﾞｹﾝ","cityKana":"ｶﾗﾂｼ","streetKana":"ﾁﾝｾﾞｲﾏﾁﾊﾄﾞ","prefecture":"佐賀県","city":"唐津市","street":"鎮西町波戸"},{"zipCode":"8470326","prefectureKana":"ｻｶﾞｹﾝ","cityKana":"ｶﾗﾂｼ","streetKana":"ﾁﾝｾﾞｲﾏﾁﾊﾔﾀ","prefecture":"佐賀県","city":"唐津市","street":"鎮西町早田"},{"zipCode":"8470405","prefectureKana":"ｻｶﾞｹﾝ","cityKana":"ｶﾗﾂｼ","streetKana":"ﾁﾝｾﾞｲﾏﾁﾏﾀﾞﾗｼﾏ","prefecture":"佐賀県","city":"唐津市","street":"鎮西町馬渡島"},{"zipCode":"8470406","prefectureKana":"ｻｶﾞｹﾝ","cityKana":"ｶﾗﾂｼ","streetKana":"ﾁﾝｾﾞｲﾏﾁﾏﾂｼﾏ","prefecture":"佐賀県","city":"唐津市","street":"鎮西町松島"},{"zipCode":"8470311","prefectureKana":"ｻｶﾞｹﾝ","cityKana":"ｶﾗﾂｼ","streetKana":"ﾁﾝｾﾞｲﾏﾁﾏﾙﾀﾞ","prefecture":"佐賀県","city":"唐津市","street":"鎮西町丸田"},{"zipCode":"8470315","prefectureKana":"ｻｶﾞｹﾝ","cityKana":"ｶﾗﾂｼ","streetKana":"ﾁﾝｾﾞｲﾏﾁﾔﾄｺ","prefecture":"佐賀県","city":"唐津市","street":"鎮西町八床"},{"zipCode":"8470321","prefectureKana":"ｻｶﾞｹﾝ","cityKana":"ｶﾗﾂｼ","streetKana":"ﾁﾝｾﾞｲﾏﾁﾖｺﾀｹ","prefecture":"佐賀県","city":"唐津市","street":"鎮西町横竹"},{"zipCode":"8470885","prefectureKana":"ｻｶﾞｹﾝ","cityKana":"ｶﾗﾂｼ","streetKana":"ﾄｳﾉｶﾜ","prefecture":"佐賀県","city":"唐津市","street":"唐川"},{"zipCode":"8470122","prefectureKana":"ｻｶﾞｹﾝ","cityKana":"ｶﾗﾂｼ","streetKana":"ﾄｳﾎﾞｳ","prefecture":"佐賀県","city":"唐津市","street":"唐房"},{"zipCode":"8470134","prefectureKana":"ｻｶﾞｹﾝ","cityKana":"ｶﾗﾂｼ","streetKana":"ﾅｶｻﾞﾄ","prefecture":"佐賀県","city":"唐津市","street":"中里"},{"zipCode":"8470101","prefectureKana":"ｻｶﾞｹﾝ","cityKana":"ｶﾗﾂｼ","streetKana":"ﾅｶﾉｾﾄﾞｵﾘ","prefecture":"佐賀県","city":"唐津市","street":"中瀬通"},{"zipCode":"8470034","prefectureKana":"ｻｶﾞｹﾝ","cityKana":"ｶﾗﾂｼ","streetKana":"ﾅｶﾊﾞﾙ","prefecture":"佐賀県","city":"唐津市","street":"中原"},{"zipCode":"8470051","prefectureKana":"ｻｶﾞｹﾝ","cityKana":"ｶﾗﾂｼ","streetKana":"ﾅｶﾏﾁ","prefecture":"佐賀県","city":"唐津市","street":"中町"},{"zipCode":"8470862","prefectureKana":"ｻｶﾞｹﾝ","cityKana":"ｶﾗﾂｼ","streetKana":"ﾅｶﾔﾏﾏﾁ","prefecture":"佐賀県","city":"唐津市","street":"中山町"},{"zipCode":"8470822","prefectureKana":"ｻｶﾞｹﾝ","cityKana":"ｶﾗﾂｼ","streetKana":"ﾅｶﾞﾀﾆ","prefecture":"佐賀県","city":"唐津市","street":"長谷"},{"zipCode":"8470802","prefectureKana":"ｻｶﾞｹﾝ","cityKana":"ｶﾗﾂｼ","streetKana":"ﾅｼｶﾞﾜﾁ","prefecture":"佐賀県","city":"唐津市","street":"梨川内"},{"zipCode":"8471101","prefectureKana":"ｻｶﾞｹﾝ","cityKana":"ｶﾗﾂｼ","streetKana":"ﾅﾅﾔﾏｱﾗｶﾜ","prefecture":"佐賀県","city":"唐津市","street":"七山荒川"},{"zipCode":"8471103","prefectureKana":"ｻｶﾞｹﾝ","cityKana":"ｶﾗﾂｼ","streetKana":"ﾅﾅﾔﾏｲｹﾊﾞﾙ","prefecture":"佐賀県","city":"唐津市","street":"七山池原"},{"zipCode":"8471104","prefectureKana":"ｻｶﾞｹﾝ","cityKana":"ｶﾗﾂｼ","streetKana":"ﾅﾅﾔﾏｷｳﾗ","prefecture":"佐賀県","city":"唐津市","street":"七山木浦"},{"zipCode":"8471108","prefectureKana":"ｻｶﾞｹﾝ","cityKana":"ｶﾗﾂｼ","streetKana":"ﾅﾅﾔﾏｼﾗｷ","prefecture":"佐賀県","city":"唐津市","street":"七山白木"},{"zipCode":"8471106","prefectureKana":"ｻｶﾞｹﾝ","cityKana":"ｶﾗﾂｼ","streetKana":"ﾅﾅﾔﾏﾀｷｶﾞﾜ","prefecture":"佐賀県","city":"唐津市","street":"七山滝川"},{"zipCode":"8471105","prefectureKana":"ｻｶﾞｹﾝ","cityKana":"ｶﾗﾂｼ","streetKana":"ﾅﾅﾔﾏﾆﾌﾞ","prefecture":"佐賀県","city":"唐津市","street":"七山仁部"},{"zipCode":"8471107","prefectureKana":"ｻｶﾞｹﾝ","cityKana":"ｶﾗﾂｼ","streetKana":"ﾅﾅﾔﾏﾌｼﾞｶﾜ","prefecture":"佐賀県","city":"唐津市","street":"七山藤川"},{"zipCode":"8471102","prefectureKana":"ｻｶﾞｹﾝ","cityKana":"ｶﾗﾂｼ","streetKana":"ﾅﾅﾔﾏﾏﾉｶﾜ","prefecture":"佐賀県","city":"唐津市","street":"七山馬川"},{"zipCode":"8470844","prefectureKana":"ｻｶﾞｹﾝ","cityKana":"ｶﾗﾂｼ","streetKana":"ﾅﾊﾞﾀｹ","prefecture":"佐賀県","city":"唐津市","street":"菜畑"},{"zipCode":"8470872","prefectureKana":"ｻｶﾞｹﾝ","cityKana":"ｶﾗﾂｼ","streetKana":"ﾆｼｵｵｼﾏﾏﾁ","prefecture":"佐賀県","city":"唐津市","street":"西大島町"},{"zipCode":"8470875","prefectureKana":"ｻｶﾞｹﾝ","cityKana":"ｶﾗﾂｼ","streetKana":"ﾆｼｶﾗﾂ","prefecture":"佐賀県","city":"唐津市","street":"西唐津"},{"zipCode":"8470014","prefectureKana":"ｻｶﾞｹﾝ","cityKana":"ｶﾗﾂｼ","streetKana":"ﾆｼｼﾞｮｳﾅｲ","prefecture":"佐賀県","city":"唐津市","street":"西城内"},{"zipCode":"8470815","prefectureKana":"ｻｶﾞｹﾝ","cityKana":"ｶﾗﾂｼ","streetKana":"ﾆｼﾃﾞﾗﾏﾁ","prefecture":"佐賀県","city":"唐津市","street":"西寺町"},{"zipCode":"8470855","prefectureKana":"ｻｶﾞｹﾝ","cityKana":"ｶﾗﾂｼ","streetKana":"ﾆｼﾊﾏﾏﾁ","prefecture":"佐賀県","city":"唐津市","street":"西浜町"},{"zipCode":"8470854","prefectureKana":"ｻｶﾞｹﾝ","cityKana":"ｶﾗﾂｼ","streetKana":"ﾆｼﾊﾀﾏﾁ","prefecture":"佐賀県","city":"唐津市","street":"西旗町"},{"zipCode":"8470003","prefectureKana":"ｻｶﾞｹﾝ","cityKana":"ｶﾗﾂｼ","streetKana":"ﾊｼﾓﾄ","prefecture":"佐賀県","city":"唐津市","street":"橋本"},{"zipCode":"8470103","prefectureKana":"ｻｶﾞｹﾝ","cityKana":"ｶﾗﾂｼ","streetKana":"ﾊｼﾓﾄﾏﾁ","prefecture":"佐賀県","city":"唐津市","street":"橋本町"},{"zipCode":"8470833","prefectureKana":"ｻｶﾞｹﾝ","cityKana":"ｶﾗﾂｼ","streetKana":"ﾊﾀｼﾏ","prefecture":"佐賀県","city":"唐津市","street":"畑島"},{"zipCode":"8470023","prefectureKana":"ｻｶﾞｹﾝ","cityKana":"ｶﾗﾂｼ","streetKana":"ﾊﾀﾞ","prefecture":"佐賀県","city":"唐津市","street":"半田"},{"zipCode":"8470121","prefectureKana":"ｻｶﾞｹﾝ","cityKana":"ｶﾗﾂｼ","streetKana":"ﾊﾄｶﾞﾜ","prefecture":"佐賀県","city":"唐津市","street":"鳩川"},{"zipCode":"8470031","prefectureKana":"ｻｶﾞｹﾝ","cityKana":"ｶﾗﾂｼ","streetKana":"ﾊﾙ","prefecture":"佐賀県","city":"唐津市","street":"原"},{"zipCode":"8470024","prefectureKana":"ｻｶﾞｹﾝ","cityKana":"ｶﾗﾂｼ","streetKana":"ﾋｶﾞｼｳｷ","prefecture":"佐賀県","city":"唐津市","street":"東宇木"},{"zipCode":"8470871","prefectureKana":"ｻｶﾞｹﾝ","cityKana":"ｶﾗﾂｼ","streetKana":"ﾋｶﾞｼｵｵｼﾏﾏﾁ","prefecture":"佐賀県","city":"唐津市","street":"東大島町"},{"zipCode":"8470017","prefectureKana":"ｻｶﾞｹﾝ","cityKana":"ｶﾗﾂｼ","streetKana":"ﾋｶﾞｼｶﾗﾂ","prefecture":"佐賀県","city":"唐津市","street":"東唐津"},{"zipCode":"8470016","prefectureKana":"ｻｶﾞｹﾝ","cityKana":"ｶﾗﾂｼ","streetKana":"ﾋｶﾞｼｼﾞｮｳﾅｲ","prefecture":"佐賀県","city":"唐津市","street":"東城内"},{"zipCode":"8470063","prefectureKana":"ｻｶﾞｹﾝ","cityKana":"ｶﾗﾂｼ","streetKana":"ﾋｶﾞｼﾏﾁ","prefecture":"佐賀県","city":"唐津市","street":"東町"},{"zipCode":"8470801","prefectureKana":"ｻｶﾞｹﾝ","cityKana":"ｶﾗﾂｼ","streetKana":"ﾋｶﾞｼﾔﾏ","prefecture":"佐賀県","city":"唐津市","street":"東山"},{"zipCode":"8471502","prefectureKana":"ｻｶﾞｹﾝ","cityKana":"ｶﾗﾂｼ","streetKana":"ﾋｾﾞﾝﾏﾁｱｶｻｶ","prefecture":"佐賀県","city":"唐津市","street":"肥前町赤坂"},{"zipCode":"8471517","prefectureKana":"ｻｶﾞｹﾝ","cityKana":"ｶﾗﾂｼ","streetKana":"ﾋｾﾞﾝﾏﾁｱｹﾞｸﾗ","prefecture":"佐賀県","city":"唐津市","street":"肥前町上ケ倉"},{"zipCode":"8471522","prefectureKana":"ｻｶﾞｹﾝ","cityKana":"ｶﾗﾂｼ","streetKana":"ﾋｾﾞﾝﾏﾁｲﾇｶﾞｼﾗ","prefecture":"佐賀県","city":"唐津市","street":"肥前町犬頭"},{"zipCode":"8471526","prefectureKana":"ｻｶﾞｹﾝ","cityKana":"ｶﾗﾂｼ","streetKana":"ﾋｾﾞﾝﾏﾁｲﾘﾉ","prefecture":"佐賀県","city":"唐津市","street":"肥前町入野"},{"zipCode":"8471512","prefectureKana":"ｻｶﾞｹﾝ","cityKana":"ｶﾗﾂｼ","streetKana":"ﾋｾﾞﾝﾏﾁｳﾒｻﾞｷ","prefecture":"佐賀県","city":"唐津市","street":"肥前町梅崎"},{"zipCode":"8471516","prefectureKana":"ｻｶﾞｹﾝ","cityKana":"ｶﾗﾂｼ","streetKana":"ﾋｾﾞﾝﾏﾁｳﾘｶﾞｻｶ","prefecture":"佐賀県","city":"唐津市","street":"肥前町瓜ケ坂"},{"zipCode":"8471506","prefectureKana":"ｻｶﾞｹﾝ","cityKana":"ｶﾗﾂｼ","streetKana":"ﾋｾﾞﾝﾏﾁｵｵｳﾗ","prefecture":"佐賀県","city":"唐津市","street":"肥前町大浦"},{"zipCode":"8471501","prefectureKana":"ｻｶﾞｹﾝ","cityKana":"ｶﾗﾂｼ","streetKana":"ﾋｾﾞﾝﾏﾁｷﾘｺﾞ","prefecture":"佐賀県","city":"唐津市","street":"肥前町切木"},{"zipCode":"8471505","prefectureKana":"ｻｶﾞｹﾝ","cityKana":"ｶﾗﾂｼ","streetKana":"ﾋｾﾞﾝﾏﾁｽｷﾞﾉｳﾗ","prefecture":"佐賀県","city":"唐津市","street":"肥前町杉野浦"},{"zipCode":"8471521","prefectureKana":"ｻｶﾞｹﾝ","cityKana":"ｶﾗﾂｼ","streetKana":"ﾋｾﾞﾝﾏﾁﾀﾉ","prefecture":"佐賀県","city":"唐津市","street":"肥前町田野"},{"zipCode":"8471527","prefectureKana":"ｻｶﾞｹﾝ","cityKana":"ｶﾗﾂｼ","streetKana":"ﾋｾﾞﾝﾏﾁﾂﾙﾏｷ","prefecture":"佐賀県","city":"唐津市","street":"肥前町鶴牧"},{"zipCode":"8471513","prefectureKana":"ｻｶﾞｹﾝ","cityKana":"ｶﾗﾂｼ","streetKana":"ﾋｾﾞﾝﾏﾁﾃﾗｳﾗ","prefecture":"佐賀県","city":"唐津市","street":"肥前町寺浦"},{"zipCode":"8471504","prefectureKana":"ｻｶﾞｹﾝ","cityKana":"ｶﾗﾂｼ","streetKana":"ﾋｾﾞﾝﾏﾁﾅｶｳﾗ","prefecture":"佐賀県","city":"唐津市","street":"肥前町中浦"},{"zipCode":"8471511","prefectureKana":"ｻｶﾞｹﾝ","cityKana":"ｶﾗﾂｼ","streetKana":"ﾋｾﾞﾝﾏﾁﾆｲｺﾊﾞ","prefecture":"佐賀県","city":"唐津市","street":"肥前町新木場"},{"zipCode":"8471514","prefectureKana":"ｻｶﾞｹﾝ","cityKana":"ｶﾗﾂｼ","streetKana":"ﾋｾﾞﾝﾏﾁﾆﾀﾉｵ","prefecture":"佐賀県","city":"唐津市","street":"肥前町仁田野尾"},{"zipCode":"8471525","prefectureKana":"ｻｶﾞｹﾝ","cityKana":"ｶﾗﾂｼ","streetKana":"ﾋｾﾞﾝﾏﾁﾉｳｻ","prefecture":"佐賀県","city":"唐津市","street":"肥前町納所"},{"zipCode":"8471523","prefectureKana":"ｻｶﾞｹﾝ","cityKana":"ｶﾗﾂｼ","streetKana":"ﾋｾﾞﾝﾏﾁﾎｼｶ","prefecture":"佐賀県","city":"唐津市","street":"肥前町星賀"},{"zipCode":"8471515","prefectureKana":"ｻｶﾞｹﾝ","cityKana":"ｶﾗﾂｼ","streetKana":"ﾋｾﾞﾝﾏﾁﾏｶﾞﾘｶﾜ","prefecture":"佐賀県","city":"唐津市","street":"肥前町万賀里川"},{"zipCode":"8471507","prefectureKana":"ｻｶﾞｹﾝ","cityKana":"ｶﾗﾂｼ","streetKana":"ﾋｾﾞﾝﾏﾁﾐﾂｺｼ","prefecture":"佐賀県","city":"唐津市","street":"肥前町満越"},{"zipCode":"8471524","prefectureKana":"ｻｶﾞｹﾝ","cityKana":"ｶﾗﾂｼ","streetKana":"ﾋｾﾞﾝﾏﾁﾑｸｼﾏ","prefecture":"佐賀県","city":"唐津市","street":"肥前町向島"},{"zipCode":"8471503","prefectureKana":"ｻｶﾞｹﾝ","cityKana":"ｶﾗﾂｼ","streetKana":"ﾋｾﾞﾝﾏﾁﾕﾉｳﾗ","prefecture":"佐賀県","city":"唐津市","street":"肥前町湯野浦"},{"zipCode":"8470812","prefectureKana":"ｻｶﾞｹﾝ","cityKana":"ｶﾗﾂｼ","streetKana":"ﾋﾗﾉﾏﾁ","prefecture":"佐賀県","city":"唐津市","street":"平野町"},{"zipCode":"8470874","prefectureKana":"ｻｶﾞｹﾝ","cityKana":"ｶﾗﾂｼ","streetKana":"ﾌｼﾞｻｷﾄﾞｵﾘ","prefecture":"佐賀県","city":"唐津市","street":"藤崎通"},{"zipCode":"8470851","prefectureKana":"ｻｶﾞｹﾝ","cityKana":"ｶﾗﾂｼ","streetKana":"ﾌｼﾞﾐﾏﾁ","prefecture":"佐賀県","city":"唐津市","street":"富士見町"},{"zipCode":"8470861","prefectureKana":"ｻｶﾞｹﾝ","cityKana":"ｶﾗﾂｼ","streetKana":"ﾌﾀｺﾞ","prefecture":"佐賀県","city":"唐津市","street":"二タ子"},{"zipCode":"8470062","prefectureKana":"ｻｶﾞｹﾝ","cityKana":"ｶﾗﾂｼ","streetKana":"ﾌﾅﾐﾔﾏﾁ","prefecture":"佐賀県","city":"唐津市","street":"船宮町"},{"zipCode":"8470056","prefectureKana":"ｻｶﾞｹﾝ","cityKana":"ｶﾗﾂｼ","streetKana":"ﾎﾞｳｽﾞﾏﾁ","prefecture":"佐賀県","city":"唐津市","street":"坊主町"},{"zipCode":"8470047","prefectureKana":"ｻｶﾞｹﾝ","cityKana":"ｶﾗﾂｼ","streetKana":"ﾎﾝﾏﾁ","prefecture":"佐賀県","city":"唐津市","street":"本町"},{"zipCode":"8470133","prefectureKana":"ｻｶﾞｹﾝ","cityKana":"ｶﾗﾂｼ","streetKana":"ﾐﾅﾄﾏﾁ","prefecture":"佐賀県","city":"唐津市","street":"湊町"},{"zipCode":"8470013","prefectureKana":"ｻｶﾞｹﾝ","cityKana":"ｶﾗﾂｼ","streetKana":"ﾐﾅﾐｼﾞｮｳﾅｲ","prefecture":"佐賀県","city":"唐津市","street":"南城内"},{"zipCode":"8470876","prefectureKana":"ｻｶﾞｹﾝ","cityKana":"ｶﾗﾂｼ","streetKana":"ﾐﾅﾐﾌｼﾞﾐﾁｮｳ","prefecture":"佐賀県","city":"唐津市","street":"南富士見町"},{"zipCode":"8470863","prefectureKana":"ｻｶﾞｹﾝ","cityKana":"ｶﾗﾂｼ","streetKana":"ﾐｮｳｹﾝﾏﾁ","prefecture":"佐賀県","city":"唐津市","street":"妙見町"},{"zipCode":"8470825","prefectureKana":"ｻｶﾞｹﾝ","cityKana":"ｶﾗﾂｼ","streetKana":"ﾐﾙｶｼ","prefecture":"佐賀県","city":"唐津市","street":"見借"},{"zipCode":"8470064","prefectureKana":"ｻｶﾞｹﾝ","cityKana":"ｶﾗﾂｼ","streetKana":"ﾓﾄｲｼﾏﾁ","prefecture":"佐賀県","city":"唐津市","street":"元石町"},{"zipCode":"8470852","prefectureKana":"ｻｶﾞｹﾝ","cityKana":"ｶﾗﾂｼ","streetKana":"ﾓﾄﾊﾀﾏﾁ","prefecture":"佐賀県","city":"唐津市","street":"元旗町"},{"zipCode":"8470811","prefectureKana":"ｻｶﾞｹﾝ","cityKana":"ｶﾗﾂｼ","streetKana":"ﾔｵﾔﾏﾁ","prefecture":"佐賀県","city":"唐津市","street":"八百屋町"},{"zipCode":"8470135","prefectureKana":"ｻｶﾞｹﾝ","cityKana":"ｶﾗﾂｼ","streetKana":"ﾔｶﾀｲｼ","prefecture":"佐賀県","city":"唐津市","street":"屋形石"},{"zipCode":"8470102","prefectureKana":"ｻｶﾞｹﾝ","cityKana":"ｶﾗﾂｼ","streetKana":"ﾔﾊﾀﾏﾁ","prefecture":"佐賀県","city":"唐津市","street":"八幡町"},{"zipCode":"8470004","prefectureKana":"ｻｶﾞｹﾝ","cityKana":"ｶﾗﾂｼ","streetKana":"ﾔﾌﾞﾀ","prefecture":"佐賀県","city":"唐津市","street":"養母田"},{"zipCode":"8470005","prefectureKana":"ｻｶﾞｹﾝ","cityKana":"ｶﾗﾂｼ","streetKana":"ﾔﾌﾞﾀｵﾆﾂﾞｶ","prefecture":"佐賀県","city":"唐津市","street":"養母田鬼塚"},{"zipCode":"8470842","prefectureKana":"ｻｶﾞｹﾝ","cityKana":"ｶﾗﾂｼ","streetKana":"ﾔﾏｼﾀﾏﾁ","prefecture":"佐賀県","city":"唐津市","street":"山下町"},{"zipCode":"8470834","prefectureKana":"ｻｶﾞｹﾝ","cityKana":"ｶﾗﾂｼ","streetKana":"ﾔﾏﾀﾞ","prefecture":"佐賀県","city":"唐津市","street":"山田"},{"zipCode":"8470002","prefectureKana":"ｻｶﾞｹﾝ","cityKana":"ｶﾗﾂｼ","streetKana":"ﾔﾏﾓﾄ","prefecture":"佐賀県","city":"唐津市","street":"山本"},{"zipCode":"8470032","prefectureKana":"ｻｶﾞｹﾝ","cityKana":"ｶﾗﾂｼ","streetKana":"ﾕｳﾋ","prefecture":"佐賀県","city":"唐津市","street":"夕日"},{"zipCode":"8470814","prefectureKana":"ｻｶﾞｹﾝ","cityKana":"ｶﾗﾂｼ","streetKana":"ﾕﾐﾀｶﾏﾁ","prefecture":"佐賀県","city":"唐津市","street":"弓鷹町"},{"zipCode":"8470136","prefectureKana":"ｻｶﾞｹﾝ","cityKana":"ｶﾗﾂｼ","streetKana":"ﾖｺﾉ","prefecture":"佐賀県","city":"唐津市","street":"横野"},{"zipCode":"8470301","prefectureKana":"ｻｶﾞｹﾝ","cityKana":"ｶﾗﾂｼ","streetKana":"ﾖﾌﾞｺﾁｮｳｵｵﾄﾞﾓ","prefecture":"佐賀県","city":"唐津市","street":"呼子町大友"},{"zipCode":"8470306","prefectureKana":"ｻｶﾞｹﾝ","cityKana":"ｶﾗﾂｼ","streetKana":"ﾖﾌﾞｺﾁｮｳｵｶﾞﾜｼﾏ","prefecture":"佐賀県","city":"唐津市","street":"呼子町小川島"},{"zipCode":"8470305","prefectureKana":"ｻｶﾞｹﾝ","cityKana":"ｶﾗﾂｼ","streetKana":"ﾖﾌﾞｺﾁｮｳｶﾍﾞｼﾏ","prefecture":"佐賀県","city":"唐津市","street":"呼子町加部島"},{"zipCode":"8470302","prefectureKana":"ｻｶﾞｹﾝ","cityKana":"ｶﾗﾂｼ","streetKana":"ﾖﾌﾞｺﾁｮｳｺﾄﾞﾓ","prefecture":"佐賀県","city":"唐津市","street":"呼子町小友"},{"zipCode":"8470304","prefectureKana":"ｻｶﾞｹﾝ","cityKana":"ｶﾗﾂｼ","streetKana":"ﾖﾌﾞｺﾁｮｳﾄﾉﾉｳﾗ","prefecture":"佐賀県","city":"唐津市","street":"呼子町殿ノ浦"},{"zipCode":"8470303","prefectureKana":"ｻｶﾞｹﾝ","cityKana":"ｶﾗﾂｼ","streetKana":"ﾖﾌﾞｺﾁｮｳﾖﾌﾞｺ","prefecture":"佐賀県","city":"唐津市","street":"呼子町呼子"},{"zipCode":"8470071","prefectureKana":"ｻｶﾞｹﾝ","cityKana":"ｶﾗﾂｼ","streetKana":"ﾜﾀﾀﾞｱﾏﾏﾁ","prefecture":"佐賀県","city":"唐津市","street":"和多田海士町"},{"zipCode":"8470083","prefectureKana":"ｻｶﾞｹﾝ","cityKana":"ｶﾗﾂｼ","streetKana":"ﾜﾀﾀﾞｵｵﾄﾞｲ","prefecture":"佐賀県","city":"唐津市","street":"和多田大土井"},{"zipCode":"8470074","prefectureKana":"ｻｶﾞｹﾝ","cityKana":"ｶﾗﾂｼ","streetKana":"ﾜﾀﾀﾞｻｷｲｼ","prefecture":"佐賀県","city":"唐津市","street":"和多田先石"},{"zipCode":"8470082","prefectureKana":"ｻｶﾞｹﾝ","cityKana":"ｶﾗﾂｼ","streetKana":"ﾜﾀﾀﾞﾃﾝﾏﾝﾁｮｳ","prefecture":"佐賀県","city":"唐津市","street":"和多田天満町"},{"zipCode":"8470084","prefectureKana":"ｻｶﾞｹﾝ","cityKana":"ｶﾗﾂｼ","streetKana":"ﾜﾀﾀﾞﾆｼﾔﾏ","prefecture":"佐賀県","city":"唐津市","street":"和多田西山"},{"zipCode":"8470073","prefectureKana":"ｻｶﾞｹﾝ","cityKana":"ｶﾗﾂｼ","streetKana":"ﾜﾀﾀﾞﾋｶﾞｼﾋｬｸﾆﾝﾏﾁ","prefecture":"佐賀県","city":"唐津市","street":"和多田東百人町"},{"zipCode":"8470072","prefectureKana":"ｻｶﾞｹﾝ","cityKana":"ｶﾗﾂｼ","streetKana":"ﾜﾀﾀﾞﾋｬｸﾆﾝﾏﾁ","prefecture":"佐賀県","city":"唐津市","street":"和多田百人町"},{"zipCode":"8470085","prefectureKana":"ｻｶﾞｹﾝ","cityKana":"ｶﾗﾂｼ","streetKana":"ﾜﾀﾀﾞﾎﾝﾑﾗ","prefecture":"佐賀県","city":"唐津市","street":"和多田本村"},{"zipCode":"8470081","prefectureKana":"ｻｶﾞｹﾝ","cityKana":"ｶﾗﾂｼ","streetKana":"ﾜﾀﾀﾞﾐﾅﾐｻｷｲｼ","prefecture":"佐賀県","city":"唐津市","street":"和多田南先石"},{"zipCode":"8470075","prefectureKana":"ｻｶﾞｹﾝ","cityKana":"ｶﾗﾂｼ","streetKana":"ﾜﾀﾀﾞﾖｳｼﾞｬｸ","prefecture":"佐賀県","city":"唐津市","street":"和多田用尺"},{"zipCode":"8471400","prefectureKana":"ｻｶﾞｹﾝ","cityKana":"ﾋｶﾞｼﾏﾂｳﾗｸﾞﾝｹﾞﾝｶｲﾁｮｳ","streetKana":"ｲｶﾆｹｲｻｲｶﾞﾅｲﾊﾞｱｲ","prefecture":"佐賀県","city":"東松浦郡玄海町","street":"以下に掲載がない場合"},{"zipCode":"8471403","prefectureKana":"ｻｶﾞｹﾝ","cityKana":"ﾋｶﾞｼﾏﾂｳﾗｸﾞﾝｹﾞﾝｶｲﾁｮｳ","streetKana":"ｱﾘｳﾗｶﾐ","prefecture":"佐賀県","city":"東松浦郡玄海町","street":"有浦上"},{"zipCode":"8471402","prefectureKana":"ｻｶﾞｹﾝ","cityKana":"ﾋｶﾞｼﾏﾂｳﾗｸﾞﾝｹﾞﾝｶｲﾁｮｳ","streetKana":"ｱﾘｳﾗｼﾓ","prefecture":"佐賀県","city":"東松浦郡玄海町","street":"有浦下"},{"zipCode":"8471423","prefectureKana":"ｻｶﾞｹﾝ","cityKana":"ﾋｶﾞｼﾏﾂｳﾗｸﾞﾝｹﾞﾝｶｲﾁｮｳ","streetKana":"ｲｼﾀﾞ","prefecture":"佐賀県","city":"東松浦郡玄海町","street":"石田"},{"zipCode":"8471441","prefectureKana":"ｻｶﾞｹﾝ","cityKana":"ﾋｶﾞｼﾏﾂｳﾗｸﾞﾝｹﾞﾝｶｲﾁｮｳ","streetKana":"ｲﾏﾑﾗ","prefecture":"佐賀県","city":"東松浦郡玄海町","street":"今村"},{"zipCode":"8471434","prefectureKana":"ｻｶﾞｹﾝ","cityKana":"ﾋｶﾞｼﾏﾂｳﾗｸﾞﾝｹﾞﾝｶｲﾁｮｳ","streetKana":"ｵｵｿﾞﾉ","prefecture":"佐賀県","city":"東松浦郡玄海町","street":"大薗"},{"zipCode":"8471413","prefectureKana":"ｻｶﾞｹﾝ","cityKana":"ﾋｶﾞｼﾏﾂｳﾗｸﾞﾝｹﾞﾝｶｲﾁｮｳ","streetKana":"ｵｵﾄﾘ","prefecture":"佐賀県","city":"東松浦郡玄海町","street":"大鳥"},{"zipCode":"8471443","prefectureKana":"ｻｶﾞｹﾝ","cityKana":"ﾋｶﾞｼﾏﾂｳﾗｸﾞﾝｹﾞﾝｶｲﾁｮｳ","streetKana":"ｶﾘﾀﾞﾁ","prefecture":"佐賀県","city":"東松浦郡玄海町","street":"仮立"},{"zipCode":"8471435","prefectureKana":"ｻｶﾞｹﾝ","cityKana":"ﾋｶﾞｼﾏﾂｳﾗｸﾞﾝｹﾞﾝｶｲﾁｮｳ","streetKana":"ｶﾘﾔ","prefecture":"佐賀県","city":"東松浦郡玄海町","street":"仮屋"},{"zipCode":"8471401","prefectureKana":"ｻｶﾞｹﾝ","cityKana":"ﾋｶﾞｼﾏﾂｳﾗｸﾞﾝｹﾞﾝｶｲﾁｮｳ","streetKana":"ｺｶﾞｸﾗ","prefecture":"佐賀県","city":"東松浦郡玄海町","street":"小加倉"},{"zipCode":"8471424","prefectureKana":"ｻｶﾞｹﾝ","cityKana":"ﾋｶﾞｼﾏﾂｳﾗｸﾞﾝｹﾞﾝｶｲﾁｮｳ","streetKana":"ｻｶｴ","prefecture":"佐賀県","city":"東松浦郡玄海町","street":"栄"},{"zipCode":"8471445","prefectureKana":"ｻｶﾞｹﾝ","cityKana":"ﾋｶﾞｼﾏﾂｳﾗｸﾞﾝｹﾞﾝｶｲﾁｮｳ","streetKana":"ｼﾓﾐﾔ","prefecture":"佐賀県","city":"東松浦郡玄海町","street":"下宮"},{"zipCode":"8471422","prefectureKana":"ｻｶﾞｹﾝ","cityKana":"ﾋｶﾞｼﾏﾂｳﾗｸﾞﾝｹﾞﾝｶｲﾁｮｳ","streetKana":"ｼﾝﾃﾞﾝ","prefecture":"佐賀県","city":"東松浦郡玄海町","street":"新田"},{"zipCode":"8471415","prefectureKana":"ｻｶﾞｹﾝ","cityKana":"ﾋｶﾞｼﾏﾂｳﾗｸﾞﾝｹﾞﾝｶｲﾁｮｳ","streetKana":"ｿｿﾛｶﾞﾜﾁ","prefecture":"佐賀県","city":"東松浦郡玄海町","street":"座川内"},{"zipCode":"8471412","prefectureKana":"ｻｶﾞｹﾝ","cityKana":"ﾋｶﾞｼﾏﾂｳﾗｸﾞﾝｹﾞﾝｶｲﾁｮｳ","streetKana":"ﾀｼﾛ","prefecture":"佐賀県","city":"東松浦郡玄海町","street":"田代"},{"zipCode":"8471442","prefectureKana":"ｻｶﾞｹﾝ","cityKana":"ﾋｶﾞｼﾏﾂｳﾗｸﾞﾝｹﾞﾝｶｲﾁｮｳ","streetKana":"ﾁｶｶﾞﾜﾁ","prefecture":"佐賀県","city":"東松浦郡玄海町","street":"値賀川内"},{"zipCode":"8471411","prefectureKana":"ｻｶﾞｹﾝ","cityKana":"ﾋｶﾞｼﾏﾂｳﾗｸﾞﾝｹﾞﾝｶｲﾁｮｳ","streetKana":"ﾄﾄﾞﾛｷ","prefecture":"佐賀県","city":"東松浦郡玄海町","street":"轟木"},{"zipCode":"8471444","prefectureKana":"ｻｶﾞｹﾝ","cityKana":"ﾋｶﾞｼﾏﾂｳﾗｸﾞﾝｹﾞﾝｶｲﾁｮｳ","streetKana":"ﾅｶﾄﾞｵﾘ","prefecture":"佐賀県","city":"東松浦郡玄海町","street":"中通"},{"zipCode":"8471404","prefectureKana":"ｻｶﾞｹﾝ","cityKana":"ﾋｶﾞｼﾏﾂｳﾗｸﾞﾝｹﾞﾝｶｲﾁｮｳ","streetKana":"ﾅｶﾞｸﾗ","prefecture":"佐賀県","city":"東松浦郡玄海町","street":"長倉"},{"zipCode":"8471425","prefectureKana":"ｻｶﾞｹﾝ","cityKana":"ﾋｶﾞｼﾏﾂｳﾗｸﾞﾝｹﾞﾝｶｲﾁｮｳ","streetKana":"ﾊﾅﾉｷ","prefecture":"佐賀県","city":"東松浦郡玄海町","street":"花の木"},{"zipCode":"8471433","prefectureKana":"ｻｶﾞｹﾝ","cityKana":"ﾋｶﾞｼﾏﾂｳﾗｸﾞﾝｹﾞﾝｶｲﾁｮｳ","streetKana":"ﾊﾏﾉｳﾗ","prefecture":"佐賀県","city":"東松浦郡玄海町","street":"浜野浦"},{"zipCode":"8471432","prefectureKana":"ｻｶﾞｹﾝ","cityKana":"ﾋｶﾞｼﾏﾂｳﾗｸﾞﾝｹﾞﾝｶｲﾁｮｳ","streetKana":"ﾋﾗｵ","prefecture":"佐賀県","city":"東松浦郡玄海町","street":"平尾"},{"zipCode":"8471431","prefectureKana":"ｻｶﾞｹﾝ","cityKana":"ﾋｶﾞｼﾏﾂｳﾗｸﾞﾝｹﾞﾝｶｲﾁｮｳ","streetKana":"ﾌｵﾝｼﾞ","prefecture":"佐賀県","city":"東松浦郡玄海町","street":"普恩寺"},{"zipCode":"8471405","prefectureKana":"ｻｶﾞｹﾝ","cityKana":"ﾋｶﾞｼﾏﾂｳﾗｸﾞﾝｹﾞﾝｶｲﾁｮｳ","streetKana":"ﾌｼﾞﾋﾗ","prefecture":"佐賀県","city":"東松浦郡玄海町","street":"藤平"},{"zipCode":"8471446","prefectureKana":"ｻｶﾞｹﾝ","cityKana":"ﾋｶﾞｼﾏﾂｳﾗｸﾞﾝｹﾞﾝｶｲﾁｮｳ","streetKana":"ﾎｶﾜﾂﾞ","prefecture":"佐賀県","city":"東松浦郡玄海町","street":"外津"},{"zipCode":"8471416","prefectureKana":"ｻｶﾞｹﾝ","cityKana":"ﾋｶﾞｼﾏﾂｳﾗｸﾞﾝｹﾞﾝｶｲﾁｮｳ","streetKana":"ﾑｶﾀ","prefecture":"佐賀県","city":"東松浦郡玄海町","street":"牟形"},{"zipCode":"8471421","prefectureKana":"ｻｶﾞｹﾝ","cityKana":"ﾋｶﾞｼﾏﾂｳﾗｸﾞﾝｹﾞﾝｶｲﾁｮｳ","streetKana":"ﾓﾛｳﾗ","prefecture":"佐賀県","city":"東松浦郡玄海町","street":"諸浦"},{"zipCode":"8471414","prefectureKana":"ｻｶﾞｹﾝ","cityKana":"ﾋｶﾞｼﾏﾂｳﾗｸﾞﾝｹﾞﾝｶｲﾁｮｳ","streetKana":"ﾕﾉｵ","prefecture":"佐賀県","city":"東松浦郡玄海町","street":"湯野尾"}]