[{"zipCode":"8490000","prefectureKana":"ｻｶﾞｹﾝ","cityKana":"ｻｶﾞｼ","streetKana":"ｲｶﾆｹｲｻｲｶﾞﾅｲﾊﾞｱｲ","prefecture":"佐賀県","city":"佐賀市","street":"以下に掲載がない場合"},{"zipCode":"8490933","prefectureKana":"ｻｶﾞｹﾝ","cityKana":"ｻｶﾞｼ","streetKana":"ｵﾛｼﾎﾝﾏﾁ","prefecture":"佐賀県","city":"佐賀市","street":"卸本町"},{"zipCode":"8490934","prefectureKana":"ｻｶﾞｹﾝ","cityKana":"ｻｶﾞｼ","streetKana":"ｶｲｾｲ","prefecture":"佐賀県","city":"佐賀市","street":"開成"},{"zipCode":"8490906","prefectureKana":"ｻｶﾞｹﾝ","cityKana":"ｻｶﾞｼ","streetKana":"ｷﾝﾘｭｳﾏﾁｷﾝﾘｭｳ","prefecture":"佐賀県","city":"佐賀市","street":"金立町金立"},{"zipCode":"8490905","prefectureKana":"ｻｶﾞｹﾝ","cityKana":"ｻｶﾞｼ","streetKana":"ｷﾝﾘｭｳﾏﾁﾁﾌ","prefecture":"佐賀県","city":"佐賀市","street":"金立町千布"},{"zipCode":"8490904","prefectureKana":"ｻｶﾞｹﾝ","cityKana":"ｻｶﾞｼ","streetKana":"ｷﾝﾘｭｳﾏﾁﾔｸｼﾏﾙ","prefecture":"佐賀県","city":"佐賀市","street":"金立町薬師丸"},{"zipCode":"8490902","prefectureKana":"ｻｶﾞｹﾝ","cityKana":"ｻｶﾞｼ","streetKana":"ｸﾎﾞｲｽﾞﾐﾏﾁｶﾐｲｽﾞﾐ","prefecture":"佐賀県","city":"佐賀市","street":"久保泉町上和泉"},{"zipCode":"8490901","prefectureKana":"ｻｶﾞｹﾝ","cityKana":"ｻｶﾞｼ","streetKana":"ｸﾎﾞｲｽﾞﾐﾏﾁｶﾜｸﾎﾞ","prefecture":"佐賀県","city":"佐賀市","street":"久保泉町川久保"},{"zipCode":"8490903","prefectureKana":"ｻｶﾞｹﾝ","cityKana":"ｻｶﾞｼ","streetKana":"ｸﾎﾞｲｽﾞﾐﾏﾁｼﾓｲｽﾞﾐ","prefecture":"佐賀県","city":"佐賀市","street":"久保泉町下和泉"},{"zipCode":"8490205","prefectureKana":"ｻｶﾞｹﾝ","cityKana":"ｻｶﾞｼ","streetKana":"ｸﾎﾞﾀﾁｮｳｴﾄﾞ","prefecture":"佐賀県","city":"佐賀市","street":"久保田町江戸"},{"zipCode":"8490204","prefectureKana":"ｻｶﾞｹﾝ","cityKana":"ｻｶﾞｼ","streetKana":"ｸﾎﾞﾀﾁｮｳｸﾎﾞﾀ","prefecture":"佐賀県","city":"佐賀市","street":"久保田町久保田"},{"zipCode":"8490203","prefectureKana":"ｻｶﾞｹﾝ","cityKana":"ｻｶﾞｼ","streetKana":"ｸﾎﾞﾀﾁｮｳｼﾝﾃﾞﾝ","prefecture":"佐賀県","city":"佐賀市","street":"久保田町新田"},{"zipCode":"8490201","prefectureKana":"ｻｶﾞｹﾝ","cityKana":"ｻｶﾞｼ","streetKana":"ｸﾎﾞﾀﾁｮｳﾄｸﾏﾝ","prefecture":"佐賀県","city":"佐賀市","street":"久保田町徳万"},{"zipCode":"8490202","prefectureKana":"ｻｶﾞｹﾝ","cityKana":"ｻｶﾞｼ","streetKana":"ｸﾎﾞﾀﾁｮｳﾋｻﾄﾞﾐ","prefecture":"佐賀県","city":"佐賀市","street":"久保田町久富"},{"zipCode":"8490924","prefectureKana":"ｻｶﾞｹﾝ","cityKana":"ｻｶﾞｼ","streetKana":"ｼﾝﾅｶﾏﾁ","prefecture":"佐賀県","city":"佐賀市","street":"新中町"},{"zipCode":"8490927","prefectureKana":"ｻｶﾞｹﾝ","cityKana":"ｻｶﾞｼ","streetKana":"ﾀｶｷｾﾀﾞﾝﾁ","prefecture":"佐賀県","city":"佐賀市","street":"高木瀬団地"},{"zipCode":"8490922","prefectureKana":"ｻｶﾞｹﾝ","cityKana":"ｻｶﾞｼ","streetKana":"ﾀｶｷｾﾋｶﾞｼ","prefecture":"佐賀県","city":"佐賀市","street":"高木瀬東"},{"zipCode":"8490921","prefectureKana":"ｻｶﾞｹﾝ","cityKana":"ｻｶﾞｼ","streetKana":"ﾀｶｷｾﾆｼ","prefecture":"佐賀県","city":"佐賀市","street":"高木瀬西"},{"zipCode":"8490917","prefectureKana":"ｻｶﾞｹﾝ","cityKana":"ｻｶﾞｼ","streetKana":"ﾀｶｷｾﾏﾁﾅｶﾞｾ","prefecture":"佐賀県","city":"佐賀市","street":"高木瀬町長瀬"},{"zipCode":"8490916","prefectureKana":"ｻｶﾞｹﾝ","cityKana":"ｻｶﾞｼ","streetKana":"ﾀｶｷｾﾏﾁﾋｶﾞｼﾀｶｷﾞ","prefecture":"佐賀県","city":"佐賀市","street":"高木瀬町東高木"},{"zipCode":"8490937","prefectureKana":"ｻｶﾞｹﾝ","cityKana":"ｻｶﾞｼ","streetKana":"ﾅﾍﾞｼﾏ","prefecture":"佐賀県","city":"佐賀市","street":"鍋島"},{"zipCode":"8490931","prefectureKana":"ｻｶﾞｹﾝ","cityKana":"ｻｶﾞｼ","streetKana":"ﾅﾍﾞｼﾏﾏﾁｶｷﾋｻ","prefecture":"佐賀県","city":"佐賀市","street":"鍋島町蛎久"},{"zipCode":"8490938","prefectureKana":"ｻｶﾞｹﾝ","cityKana":"ｻｶﾞｼ","streetKana":"ﾅﾍﾞｼﾏﾏﾁﾅﾍﾞｼﾏ","prefecture":"佐賀県","city":"佐賀市","street":"鍋島町鍋島"},{"zipCode":"8490936","prefectureKana":"ｻｶﾞｹﾝ","cityKana":"ｻｶﾞｼ","streetKana":"ﾅﾍﾞｼﾏﾏﾁﾓﾘﾀ","prefecture":"佐賀県","city":"佐賀市","street":"鍋島町森田"},{"zipCode":"8490932","prefectureKana":"ｻｶﾞｹﾝ","cityKana":"ｻｶﾞｼ","streetKana":"ﾅﾍﾞｼﾏﾏﾁﾔｴﾐｿﾞ","prefecture":"佐賀県","city":"佐賀市","street":"鍋島町八戸溝"},{"zipCode":"8490925","prefectureKana":"ｻｶﾞｹﾝ","cityKana":"ｻｶﾞｼ","streetKana":"ﾊｯﾁｮｳﾅﾜﾃﾏﾁ","prefecture":"佐賀県","city":"佐賀市","street":"八丁畷町"},{"zipCode":"8490923","prefectureKana":"ｻｶﾞｹﾝ","cityKana":"ｻｶﾞｼ","streetKana":"ﾋﾉﾃﾞ","prefecture":"佐賀県","city":"佐賀市","street":"日の出"},{"zipCode":"8490912","prefectureKana":"ｻｶﾞｹﾝ","cityKana":"ｻｶﾞｼ","streetKana":"ﾋｮｳｺﾞﾏﾁｶﾜﾗﾏﾁ","prefecture":"佐賀県","city":"佐賀市","street":"兵庫町瓦町"},{"zipCode":"8490915","prefectureKana":"ｻｶﾞｹﾝ","cityKana":"ｻｶﾞｼ","streetKana":"ﾋｮｳｺﾞﾏﾁﾌｼﾞﾉｷ","prefecture":"佐賀県","city":"佐賀市","street":"兵庫町藤木"},{"zipCode":"8490914","prefectureKana":"ｻｶﾞｹﾝ","cityKana":"ｻｶﾞｼ","streetKana":"ﾋｮｳｺﾞﾏﾁﾆｼﾌﾞﾁ","prefecture":"佐賀県","city":"佐賀市","street":"兵庫町西渕"},{"zipCode":"8490913","prefectureKana":"ｻｶﾞｹﾝ","cityKana":"ｻｶﾞｼ","streetKana":"ﾋｮｳｺﾞﾏﾁﾌﾁ","prefecture":"佐賀県","city":"佐賀市","street":"兵庫町渕"},{"zipCode":"8490911","prefectureKana":"ｻｶﾞｹﾝ","cityKana":"ｻｶﾞｼ","streetKana":"ﾋｮｳｺﾞﾏﾁﾜｶﾐﾔ","prefecture":"佐賀県","city":"佐賀市","street":"兵庫町若宮"},{"zipCode":"8490919","prefectureKana":"ｻｶﾞｹﾝ","cityKana":"ｻｶﾞｼ","streetKana":"ﾋｮｳｺﾞｷﾀ","prefecture":"佐賀県","city":"佐賀市","street":"兵庫北"},{"zipCode":"8490918","prefectureKana":"ｻｶﾞｹﾝ","cityKana":"ｻｶﾞｼ","streetKana":"ﾋｮｳｺﾞﾐﾅﾐ","prefecture":"佐賀県","city":"佐賀市","street":"兵庫南"},{"zipCode":"8490935","prefectureKana":"ｻｶﾞｹﾝ","cityKana":"ｻｶﾞｼ","streetKana":"ﾔｴﾐｿﾞ","prefecture":"佐賀県","city":"佐賀市","street":"八戸溝"},{"zipCode":"8490928","prefectureKana":"ｻｶﾞｹﾝ","cityKana":"ｻｶﾞｼ","streetKana":"ﾜｶｸｽ","prefecture":"佐賀県","city":"佐賀市","street":"若楠"},{"zipCode":"8490926","prefectureKana":"ｻｶﾞｹﾝ","cityKana":"ｻｶﾞｼ","streetKana":"ﾜｶﾐﾔ","prefecture":"佐賀県","city":"佐賀市","street":"若宮"},{"zipCode":"8493223","prefectureKana":"ｻｶﾞｹﾝ","cityKana":"ｶﾗﾂｼ","streetKana":"ｵｳﾁﾁｮｳｲｷｻ","prefecture":"佐賀県","city":"唐津市","street":"相知町伊岐佐"},{"zipCode":"8493201","prefectureKana":"ｻｶﾞｹﾝ","cityKana":"ｶﾗﾂｼ","streetKana":"ｵｳﾁﾁｮｳｵｳﾁ","prefecture":"佐賀県","city":"唐津市","street":"相知町相知"},{"zipCode":"8493221","prefectureKana":"ｻｶﾞｹﾝ","cityKana":"ｶﾗﾂｼ","streetKana":"ｵｳﾁﾁｮｳｵｵﾉ","prefecture":"佐賀県","city":"唐津市","street":"相知町大野"},{"zipCode":"8493215","prefectureKana":"ｻｶﾞｹﾝ","cityKana":"ｶﾗﾂｼ","streetKana":"ｵｳﾁﾁｮｳｸｽ","prefecture":"佐賀県","city":"唐津市","street":"相知町楠"},{"zipCode":"8493232","prefectureKana":"ｻｶﾞｹﾝ","cityKana":"ｶﾗﾂｼ","streetKana":"ｵｳﾁﾁｮｳｸﾎﾞ","prefecture":"佐賀県","city":"唐津市","street":"相知町久保"},{"zipCode":"8493222","prefectureKana":"ｻｶﾞｹﾝ","cityKana":"ｶﾗﾂｼ","streetKana":"ｵｳﾁﾁｮｳｸﾛｲﾜ","prefecture":"佐賀県","city":"唐津市","street":"相知町黒岩"},{"zipCode":"8493233","prefectureKana":"ｻｶﾞｹﾝ","cityKana":"ｶﾗﾂｼ","streetKana":"ｵｳﾁﾁｮｳｻﾘ","prefecture":"佐賀県","city":"唐津市","street":"相知町佐里"},{"zipCode":"8493211","prefectureKana":"ｻｶﾞｹﾝ","cityKana":"ｶﾗﾂｼ","streetKana":"ｵｳﾁﾁｮｳｾﾝｿﾞｸ","prefecture":"佐賀県","city":"唐津市","street":"相知町千束"},{"zipCode":"8493214","prefectureKana":"ｻｶﾞｹﾝ","cityKana":"ｶﾗﾂｼ","streetKana":"ｵｳﾁﾁｮｳﾀｶﾞｼﾗ","prefecture":"佐賀県","city":"唐津市","street":"相知町田頭"},{"zipCode":"8493219","prefectureKana":"ｻｶﾞｹﾝ","cityKana":"ｶﾗﾂｼ","streetKana":"ｵｳﾁﾁｮｳﾀｶﾄﾘ","prefecture":"佐賀県","city":"唐津市","street":"相知町鷹取"},{"zipCode":"8493216","prefectureKana":"ｻｶﾞｹﾝ","cityKana":"ｶﾗﾂｼ","streetKana":"ｵｳﾁﾁｮｳﾁｮｳｷﾞﾘ","prefecture":"佐賀県","city":"唐津市","street":"相知町町切"},{"zipCode":"8493217","prefectureKana":"ｻｶﾞｹﾝ","cityKana":"ｶﾗﾂｼ","streetKana":"ｵｳﾁﾁｮｳﾅｶﾞﾍﾀ","prefecture":"佐賀県","city":"唐津市","street":"相知町長部田"},{"zipCode":"8493218","prefectureKana":"ｻｶﾞｹﾝ","cityKana":"ｶﾗﾂｼ","streetKana":"ｵｳﾁﾁｮｳﾅｶﾔﾏ","prefecture":"佐賀県","city":"唐津市","street":"相知町中山"},{"zipCode":"8493203","prefectureKana":"ｻｶﾞｹﾝ","cityKana":"ｶﾗﾂｼ","streetKana":"ｵｳﾁﾁｮｳﾋﾗﾔﾏｶﾐ","prefecture":"佐賀県","city":"唐津市","street":"相知町平山上"},{"zipCode":"8493202","prefectureKana":"ｻｶﾞｹﾝ","cityKana":"ｶﾗﾂｼ","streetKana":"ｵｳﾁﾁｮｳﾋﾗﾔﾏｼﾓ","prefecture":"佐賀県","city":"唐津市","street":"相知町平山下"},{"zipCode":"8493231","prefectureKana":"ｻｶﾞｹﾝ","cityKana":"ｶﾗﾂｼ","streetKana":"ｵｳﾁﾁｮｳﾑﾀﾍﾞ","prefecture":"佐賀県","city":"唐津市","street":"相知町牟田部"},{"zipCode":"8493224","prefectureKana":"ｻｶﾞｹﾝ","cityKana":"ｶﾗﾂｼ","streetKana":"ｵｳﾁﾁｮｳﾔﾏｻｷ","prefecture":"佐賀県","city":"唐津市","street":"相知町山崎"},{"zipCode":"8493213","prefectureKana":"ｻｶﾞｹﾝ","cityKana":"ｶﾗﾂｼ","streetKana":"ｵｳﾁﾁｮｳﾕﾔ","prefecture":"佐賀県","city":"唐津市","street":"相知町湯屋"},{"zipCode":"8493212","prefectureKana":"ｻｶﾞｹﾝ","cityKana":"ｶﾗﾂｼ","streetKana":"ｵｳﾁﾁｮｳﾖｺﾏｸﾗ","prefecture":"佐賀県","city":"唐津市","street":"相知町横枕"},{"zipCode":"8493101","prefectureKana":"ｻｶﾞｹﾝ","cityKana":"ｶﾗﾂｼ","streetKana":"ｷｭｳﾗｷﾞﾏﾁｱﾏｶﾞﾜ","prefecture":"佐賀県","city":"唐津市","street":"厳木町天川"},{"zipCode":"8493123","prefectureKana":"ｻｶﾞｹﾝ","cityKana":"ｶﾗﾂｼ","streetKana":"ｷｭｳﾗｷﾞﾏﾁｲﾜﾔ","prefecture":"佐賀県","city":"唐津市","street":"厳木町岩屋"},{"zipCode":"8493132","prefectureKana":"ｻｶﾞｹﾝ","cityKana":"ｶﾗﾂｼ","streetKana":"ｷｭｳﾗｷﾞﾏﾁｳﾂﾎﾞｷ","prefecture":"佐賀県","city":"唐津市","street":"厳木町うつぼ木"},{"zipCode":"8493114","prefectureKana":"ｻｶﾞｹﾝ","cityKana":"ｶﾗﾂｼ","streetKana":"ｷｭｳﾗｷﾞﾏﾁｳﾗｶﾞﾜﾁ","prefecture":"佐賀県","city":"唐津市","street":"厳木町浦川内"},{"zipCode":"8493131","prefectureKana":"ｻｶﾞｹﾝ","cityKana":"ｶﾗﾂｼ","streetKana":"ｷｭｳﾗｷﾞﾏﾁｷｭｳﾗｷﾞ","prefecture":"佐賀県","city":"唐津市","street":"厳木町厳木"},{"zipCode":"8493121","prefectureKana":"ｻｶﾞｹﾝ","cityKana":"ｶﾗﾂｼ","streetKana":"ｷｭｳﾗｷﾞﾏﾁｾﾄｺﾊﾞ","prefecture":"佐賀県","city":"唐津市","street":"厳木町瀬戸木場"},{"zipCode":"8493102","prefectureKana":"ｻｶﾞｹﾝ","cityKana":"ｶﾗﾂｼ","streetKana":"ｷｭｳﾗｷﾞﾏﾁﾄﾘｺﾞｴ","prefecture":"佐賀県","city":"唐津市","street":"厳木町鳥越"},{"zipCode":"8493112","prefectureKana":"ｻｶﾞｹﾝ","cityKana":"ｶﾗﾂｼ","streetKana":"ｷｭｳﾗｷﾞﾏﾁﾅｶｼﾏ","prefecture":"佐賀県","city":"唐津市","street":"厳木町中島"},{"zipCode":"8493122","prefectureKana":"ｻｶﾞｹﾝ","cityKana":"ｶﾗﾂｼ","streetKana":"ｷｭｳﾗｷﾞﾏﾁﾅﾐｾ","prefecture":"佐賀県","city":"唐津市","street":"厳木町浪瀬"},{"zipCode":"8493115","prefectureKana":"ｻｶﾞｹﾝ","cityKana":"ｶﾗﾂｼ","streetKana":"ｷｭｳﾗｷﾞﾏﾁﾋﾗﾉ","prefecture":"佐賀県","city":"唐津市","street":"厳木町平之"},{"zipCode":"8493103","prefectureKana":"ｻｶﾞｹﾝ","cityKana":"ｶﾗﾂｼ","streetKana":"ｷｭｳﾗｷﾞﾏﾁﾋﾛｶﾜ","prefecture":"佐賀県","city":"唐津市","street":"厳木町広川"},{"zipCode":"8493111","prefectureKana":"ｻｶﾞｹﾝ","cityKana":"ｶﾗﾂｼ","streetKana":"ｷｭｳﾗｷﾞﾏﾁﾋﾛｾ","prefecture":"佐賀県","city":"唐津市","street":"厳木町広瀬"},{"zipCode":"8493104","prefectureKana":"ｻｶﾞｹﾝ","cityKana":"ｶﾗﾂｼ","streetKana":"ｷｭｳﾗｷﾞﾏﾁﾎｼﾘｮｳ","prefecture":"佐賀県","city":"唐津市","street":"厳木町星領"},{"zipCode":"8493113","prefectureKana":"ｻｶﾞｹﾝ","cityKana":"ｶﾗﾂｼ","streetKana":"ｷｭｳﾗｷﾞﾏﾁﾏｷｾ","prefecture":"佐賀県","city":"唐津市","street":"厳木町牧瀬"},{"zipCode":"8493133","prefectureKana":"ｻｶﾞｹﾝ","cityKana":"ｶﾗﾂｼ","streetKana":"ｷｭｳﾗｷﾞﾏﾁﾓﾄﾔﾏ","prefecture":"佐賀県","city":"唐津市","street":"厳木町本山"},{"zipCode":"8495103","prefectureKana":"ｻｶﾞｹﾝ","cityKana":"ｶﾗﾂｼ","streetKana":"ﾊﾏﾀﾏﾏﾁｵｵｴ","prefecture":"佐賀県","city":"唐津市","street":"浜玉町大江"},{"zipCode":"8495101","prefectureKana":"ｻｶﾞｹﾝ","cityKana":"ｶﾗﾂｼ","streetKana":"ﾊﾏﾀﾏﾏﾁｵｶｸﾞﾁ","prefecture":"佐賀県","city":"唐津市","street":"浜玉町岡口"},{"zipCode":"8495102","prefectureKana":"ｻｶﾞｹﾝ","cityKana":"ｶﾗﾂｼ","streetKana":"ﾊﾏﾀﾏﾏﾁｺﾞﾀﾝﾀﾞ","prefecture":"佐賀県","city":"唐津市","street":"浜玉町五反田"},{"zipCode":"8495105","prefectureKana":"ｻｶﾞｹﾝ","cityKana":"ｶﾗﾂｼ","streetKana":"ﾊﾏﾀﾏﾏﾁﾀﾆｸﾞﾁ","prefecture":"佐賀県","city":"唐津市","street":"浜玉町谷口"},{"zipCode":"8495113","prefectureKana":"ｻｶﾞｹﾝ","cityKana":"ｶﾗﾂｼ","streetKana":"ﾊﾏﾀﾏﾏﾁﾄﾘｽ","prefecture":"佐賀県","city":"唐津市","street":"浜玉町鳥巣"},{"zipCode":"8495131","prefectureKana":"ｻｶﾞｹﾝ","cityKana":"ｶﾗﾂｼ","streetKana":"ﾊﾏﾀﾏﾏﾁﾊﾏｻｷ","prefecture":"佐賀県","city":"唐津市","street":"浜玉町浜崎"},{"zipCode":"8495123","prefectureKana":"ｻｶﾞｹﾝ","cityKana":"ｶﾗﾂｼ","streetKana":"ﾊﾏﾀﾏﾏﾁﾋｶﾞｼﾔﾏﾀﾞ","prefecture":"佐賀県","city":"唐津市","street":"浜玉町東山田"},{"zipCode":"8495112","prefectureKana":"ｻｶﾞｹﾝ","cityKana":"ｶﾗﾂｼ","streetKana":"ﾊﾏﾀﾏﾏﾁﾋﾗﾊﾞﾙ","prefecture":"佐賀県","city":"唐津市","street":"浜玉町平原"},{"zipCode":"8495104","prefectureKana":"ｻｶﾞｹﾝ","cityKana":"ｶﾗﾂｼ","streetKana":"ﾊﾏﾀﾏﾏﾁﾌﾁﾉｳｴ","prefecture":"佐賀県","city":"唐津市","street":"浜玉町渕上"},{"zipCode":"8495111","prefectureKana":"ｻｶﾞｹﾝ","cityKana":"ｶﾗﾂｼ","streetKana":"ﾊﾏﾀﾏﾏﾁﾐﾅﾐﾔﾏ","prefecture":"佐賀県","city":"唐津市","street":"浜玉町南山"},{"zipCode":"8495124","prefectureKana":"ｻｶﾞｹﾝ","cityKana":"ｶﾗﾂｼ","streetKana":"ﾊﾏﾀﾏﾏﾁﾔﾏｾ","prefecture":"佐賀県","city":"唐津市","street":"浜玉町山瀬"},{"zipCode":"8495121","prefectureKana":"ｻｶﾞｹﾝ","cityKana":"ｶﾗﾂｼ","streetKana":"ﾊﾏﾀﾏﾏﾁﾖｺﾀｶﾐ","prefecture":"佐賀県","city":"唐津市","street":"浜玉町横田上"},{"zipCode":"8495122","prefectureKana":"ｻｶﾞｹﾝ","cityKana":"ｶﾗﾂｼ","streetKana":"ﾊﾏﾀﾏﾏﾁﾖｺﾀｼﾓ","prefecture":"佐賀県","city":"唐津市","street":"浜玉町横田下"},{"zipCode":"8495251","prefectureKana":"ｻｶﾞｹﾝ","cityKana":"ｲﾏﾘｼ","streetKana":"ｵｵｶﾜﾁｮｳｵｵｶﾜﾉ","prefecture":"佐賀県","city":"伊万里市","street":"大川町大川野"},{"zipCode":"8495257","prefectureKana":"ｻｶﾞｹﾝ","cityKana":"ｲﾏﾘｼ","streetKana":"ｵｵｶﾜﾁｮｳｶﾜﾊﾞﾙ","prefecture":"佐賀県","city":"伊万里市","street":"大川町川原"},{"zipCode":"8495252","prefectureKana":"ｻｶﾞｹﾝ","cityKana":"ｲﾏﾘｼ","streetKana":"ｵｵｶﾜﾁｮｳｶﾜﾆｼ","prefecture":"佐賀県","city":"伊万里市","street":"大川町川西"},{"zipCode":"8495253","prefectureKana":"ｻｶﾞｹﾝ","cityKana":"ｲﾏﾘｼ","streetKana":"ｵｵｶﾜﾁｮｳｺﾏﾅｷ","prefecture":"佐賀県","city":"伊万里市","street":"大川町駒鳴"},{"zipCode":"8495254","prefectureKana":"ｻｶﾞｹﾝ","cityKana":"ｲﾏﾘｼ","streetKana":"ｵｵｶﾜﾁｮｳﾀﾂｶﾞﾜ","prefecture":"佐賀県","city":"伊万里市","street":"大川町立川"},{"zipCode":"8495256","prefectureKana":"ｻｶﾞｹﾝ","cityKana":"ｲﾏﾘｼ","streetKana":"ｵｵｶﾜﾁｮｳﾋｶﾞｼﾀｼﾛ","prefecture":"佐賀県","city":"伊万里市","street":"大川町東田代"},{"zipCode":"8495255","prefectureKana":"ｻｶﾞｹﾝ","cityKana":"ｲﾏﾘｼ","streetKana":"ｵｵｶﾜﾁｮｳﾔﾏｸﾞﾁ","prefecture":"佐賀県","city":"伊万里市","street":"大川町山口"},{"zipCode":"8494284","prefectureKana":"ｻｶﾞｹﾝ","cityKana":"ｲﾏﾘｼ","streetKana":"ﾋｶﾞｼﾔﾏｼﾛﾁｮｳｳﾗｶﾞﾜﾁ","prefecture":"佐賀県","city":"伊万里市","street":"東山代町浦川内"},{"zipCode":"8494281","prefectureKana":"ｻｶﾞｹﾝ","cityKana":"ｲﾏﾘｼ","streetKana":"ﾋｶﾞｼﾔﾏｼﾛﾁｮｳｵｵｸﾎﾞ","prefecture":"佐賀県","city":"伊万里市","street":"東山代町大久保"},{"zipCode":"8494286","prefectureKana":"ｻｶﾞｹﾝ","cityKana":"ｲﾏﾘｼ","streetKana":"ﾋｶﾞｼﾔﾏｼﾛﾁｮｳｶﾜﾁﾉ","prefecture":"佐賀県","city":"伊万里市","street":"東山代町川内野"},{"zipCode":"8494282","prefectureKana":"ｻｶﾞｹﾝ","cityKana":"ｲﾏﾘｼ","streetKana":"ﾋｶﾞｼﾔﾏｼﾛﾁｮｳｻﾄ","prefecture":"佐賀県","city":"伊万里市","street":"東山代町里"},{"zipCode":"8494285","prefectureKana":"ｻｶﾞｹﾝ","cityKana":"ｲﾏﾘｼ","streetKana":"ﾋｶﾞｼﾔﾏｼﾛﾁｮｳﾀｷｶﾞﾜﾁ","prefecture":"佐賀県","city":"伊万里市","street":"東山代町滝川内"},{"zipCode":"8494273","prefectureKana":"ｻｶﾞｹﾝ","cityKana":"ｲﾏﾘｼ","streetKana":"ﾋｶﾞｼﾔﾏｼﾛﾁｮｳﾃﾝｼﾞﾝ","prefecture":"佐賀県","city":"伊万里市","street":"東山代町天神"},{"zipCode":"8494271","prefectureKana":"ｻｶﾞｹﾝ","cityKana":"ｲﾏﾘｼ","streetKana":"ﾋｶﾞｼﾔﾏｼﾛﾁｮｳﾅｶﾞﾊﾏ","prefecture":"佐賀県","city":"伊万里市","street":"東山代町長浜"},{"zipCode":"8494272","prefectureKana":"ｻｶﾞｹﾝ","cityKana":"ｲﾏﾘｼ","streetKana":"ﾋｶﾞｼﾔﾏｼﾛﾁｮｳﾋｵ","prefecture":"佐賀県","city":"伊万里市","street":"東山代町日尾"},{"zipCode":"8494283","prefectureKana":"ｻｶﾞｹﾝ","cityKana":"ｲﾏﾘｼ","streetKana":"ﾋｶﾞｼﾔﾏｼﾛﾁｮｳﾋｶﾞｼｵｵｸﾎﾞ","prefecture":"佐賀県","city":"伊万里市","street":"東山代町東大久保"},{"zipCode":"8494274","prefectureKana":"ｻｶﾞｹﾝ","cityKana":"ｲﾏﾘｼ","streetKana":"ﾋｶﾞｼﾔﾏｼﾛﾁｮｳﾜｷﾉ","prefecture":"佐賀県","city":"伊万里市","street":"東山代町脇野"},{"zipCode":"8495264","prefectureKana":"ｻｶﾞｹﾝ","cityKana":"ｲﾏﾘｼ","streetKana":"ﾏﾂｳﾗﾁｮｳｻｹﾞﾉｶﾜ","prefecture":"佐賀県","city":"伊万里市","street":"松浦町提川"},{"zipCode":"8495262","prefectureKana":"ｻｶﾞｹﾝ","cityKana":"ｲﾏﾘｼ","streetKana":"ﾏﾂｳﾗﾁｮｳﾅｶﾉﾊﾗ","prefecture":"佐賀県","city":"伊万里市","street":"松浦町中野原"},{"zipCode":"8495261","prefectureKana":"ｻｶﾞｹﾝ","cityKana":"ｲﾏﾘｼ","streetKana":"ﾏﾂｳﾗﾁｮｳﾓﾓﾉｶﾜ","prefecture":"佐賀県","city":"伊万里市","street":"松浦町桃川"},{"zipCode":"8495263","prefectureKana":"ｻｶﾞｹﾝ","cityKana":"ｲﾏﾘｼ","streetKana":"ﾏﾂｳﾗﾁｮｳﾔﾏｶﾞﾀ","prefecture":"佐賀県","city":"伊万里市","street":"松浦町山形"},{"zipCode":"8494251","prefectureKana":"ｻｶﾞｹﾝ","cityKana":"ｲﾏﾘｼ","streetKana":"ﾔﾏｼﾛﾁｮｳｸｽｸ","prefecture":"佐賀県","city":"伊万里市","street":"山代町楠久"},{"zipCode":"8494252","prefectureKana":"ｻｶﾞｹﾝ","cityKana":"ｲﾏﾘｼ","streetKana":"ﾔﾏｼﾛﾁｮｳｸｽｸﾂ","prefecture":"佐賀県","city":"伊万里市","street":"山代町楠久津"},{"zipCode":"8494256","prefectureKana":"ｻｶﾞｹﾝ","cityKana":"ｲﾏﾘｼ","streetKana":"ﾔﾏｼﾛﾁｮｳｸﾊﾞﾗ","prefecture":"佐賀県","city":"伊万里市","street":"山代町久原"},{"zipCode":"8494254","prefectureKana":"ｻｶﾞｹﾝ","cityKana":"ｲﾏﾘｼ","streetKana":"ﾔﾏｼﾛﾁｮｳｼﾞｮｳ","prefecture":"佐賀県","city":"伊万里市","street":"山代町城"},{"zipCode":"8494261","prefectureKana":"ｻｶﾞｹﾝ","cityKana":"ｲﾏﾘｼ","streetKana":"ﾔﾏｼﾛﾁｮｳﾀﾁｲﾜ","prefecture":"佐賀県","city":"伊万里市","street":"山代町立岩"},{"zipCode":"8494263","prefectureKana":"ｻｶﾞｹﾝ","cityKana":"ｲﾏﾘｼ","streetKana":"ﾔﾏｼﾛﾁｮｳﾆｼｵｵｸﾎﾞ","prefecture":"佐賀県","city":"伊万里市","street":"山代町西大久保"},{"zipCode":"8494264","prefectureKana":"ｻｶﾞｹﾝ","cityKana":"ｲﾏﾘｼ","streetKana":"ﾔﾏｼﾛﾁｮｳﾋｶﾞｼﾌﾞﾝ","prefecture":"佐賀県","city":"伊万里市","street":"山代町東分"},{"zipCode":"8494262","prefectureKana":"ｻｶﾞｹﾝ","cityKana":"ｲﾏﾘｼ","streetKana":"ﾔﾏｼﾛﾁｮｳﾆｼﾌﾞﾝ","prefecture":"佐賀県","city":"伊万里市","street":"山代町西分"},{"zipCode":"8494255","prefectureKana":"ｻｶﾞｹﾝ","cityKana":"ｲﾏﾘｼ","streetKana":"ﾔﾏｼﾛﾁｮｳﾌｸｶﾞﾜﾁ","prefecture":"佐賀県","city":"伊万里市","street":"山代町福川内"},{"zipCode":"8494253","prefectureKana":"ｻｶﾞｹﾝ","cityKana":"ｲﾏﾘｼ","streetKana":"ﾔﾏｼﾛﾁｮｳﾐﾈ","prefecture":"佐賀県","city":"伊万里市","street":"山代町峰"},{"zipCode":"8492203","prefectureKana":"ｻｶﾞｹﾝ","cityKana":"ﾀｹｵｼ","streetKana":"ｷﾀｶﾞﾀﾁｮｳｱｼﾊﾗ","prefecture":"佐賀県","city":"武雄市","street":"北方町芦原"},{"zipCode":"8492204","prefectureKana":"ｻｶﾞｹﾝ","cityKana":"ﾀｹｵｼ","streetKana":"ｷﾀｶﾞﾀﾁｮｳｵｵｻｷ","prefecture":"佐賀県","city":"武雄市","street":"北方町大崎"},{"zipCode":"8492202","prefectureKana":"ｻｶﾞｹﾝ","cityKana":"ﾀｹｵｼ","streetKana":"ｷﾀｶﾞﾀﾁｮｳｵｵﾜﾀﾘ","prefecture":"佐賀県","city":"武雄市","street":"北方町大渡"},{"zipCode":"8492201","prefectureKana":"ｻｶﾞｹﾝ","cityKana":"ﾀｹｵｼ","streetKana":"ｷﾀｶﾞﾀﾁｮｳｼｸ","prefecture":"佐賀県","city":"武雄市","street":"北方町志久"},{"zipCode":"8492341","prefectureKana":"ｻｶﾞｹﾝ","cityKana":"ﾀｹｵｼ","streetKana":"ﾀｹｳﾁﾁｮｳｳﾒﾉ","prefecture":"佐賀県","city":"武雄市","street":"武内町梅野"},{"zipCode":"8492342","prefectureKana":"ｻｶﾞｹﾝ","cityKana":"ﾀｹｵｼ","streetKana":"ﾀｹｳﾁﾁｮｳﾏﾃﾉ","prefecture":"佐賀県","city":"武雄市","street":"武内町真手野"},{"zipCode":"8492301","prefectureKana":"ｻｶﾞｹﾝ","cityKana":"ﾀｹｵｼ","streetKana":"ﾔﾏｳﾁﾁｮｳｲﾇﾊﾞｼﾘ","prefecture":"佐賀県","city":"武雄市","street":"山内町犬走"},{"zipCode":"8492304","prefectureKana":"ｻｶﾞｹﾝ","cityKana":"ﾀｹｵｼ","streetKana":"ﾔﾏｳﾁﾁｮｳｵｵﾉ","prefecture":"佐賀県","city":"武雄市","street":"山内町大野"},{"zipCode":"8492302","prefectureKana":"ｻｶﾞｹﾝ","cityKana":"ﾀｹｵｼ","streetKana":"ﾔﾏｳﾁﾁｮｳﾄﾉﾐ","prefecture":"佐賀県","city":"武雄市","street":"山内町鳥海"},{"zipCode":"8492303","prefectureKana":"ｻｶﾞｹﾝ","cityKana":"ﾀｹｵｼ","streetKana":"ﾔﾏｳﾁﾁｮｳﾐﾏｻｶ","prefecture":"佐賀県","city":"武雄市","street":"山内町三間坂"},{"zipCode":"8492305","prefectureKana":"ｻｶﾞｹﾝ","cityKana":"ﾀｹｵｼ","streetKana":"ﾔﾏｳﾁﾁｮｳﾐﾔﾉ","prefecture":"佐賀県","city":"武雄市","street":"山内町宮野"},{"zipCode":"8491300","prefectureKana":"ｻｶﾞｹﾝ","cityKana":"ｶｼﾏｼ","streetKana":"ｲｶﾆｹｲｻｲｶﾞﾅｲﾊﾞｱｲ","prefecture":"佐賀県","city":"鹿島市","street":"以下に掲載がない場合"},{"zipCode":"8491324","prefectureKana":"ｻｶﾞｹﾝ","cityKana":"ｶｼﾏｼ","streetKana":"ｲｲﾀﾞ","prefecture":"佐賀県","city":"鹿島市","street":"飯田"},{"zipCode":"8491302","prefectureKana":"ｻｶﾞｹﾝ","cityKana":"ｶｼﾏｼ","streetKana":"ｲﾃﾞ","prefecture":"佐賀県","city":"鹿島市","street":"井手"},{"zipCode":"8491323","prefectureKana":"ｻｶﾞｹﾝ","cityKana":"ｶｼﾏｼ","streetKana":"ｵﾄﾅﾘ","prefecture":"佐賀県","city":"鹿島市","street":"音成"},{"zipCode":"8491313","prefectureKana":"ｻｶﾞｹﾝ","cityKana":"ｶｼﾏｼ","streetKana":"ｼﾞｭｳﾉｷ","prefecture":"佐賀県","city":"鹿島市","street":"重ノ木"},{"zipCode":"8491311","prefectureKana":"ｻｶﾞｹﾝ","cityKana":"ｶｼﾏｼ","streetKana":"ﾀｶﾂﾊﾗ","prefecture":"佐賀県","city":"鹿島市","street":"高津原"},{"zipCode":"8491301","prefectureKana":"ｻｶﾞｹﾝ","cityKana":"ｶｼﾏｼ","streetKana":"ﾂﾈﾋﾛ","prefecture":"佐賀県","city":"鹿島市","street":"常広"},{"zipCode":"8491304","prefectureKana":"ｻｶﾞｹﾝ","cityKana":"ｶｼﾏｼ","streetKana":"ﾅｶﾑﾗ","prefecture":"佐賀県","city":"鹿島市","street":"中村"},{"zipCode":"8491312","prefectureKana":"ｻｶﾞｹﾝ","cityKana":"ｶｼﾏｼ","streetKana":"ﾉｳﾄﾞﾐﾌﾞﾝ","prefecture":"佐賀県","city":"鹿島市","street":"納富分"},{"zipCode":"8491322","prefectureKana":"ｻｶﾞｹﾝ","cityKana":"ｶｼﾏｼ","streetKana":"ﾊﾏﾏﾁ","prefecture":"佐賀県","city":"鹿島市","street":"浜町"},{"zipCode":"8491321","prefectureKana":"ｻｶﾞｹﾝ","cityKana":"ｶｼﾏｼ","streetKana":"ﾌﾙｴﾀﾞ","prefecture":"佐賀県","city":"鹿島市","street":"古枝"},{"zipCode":"8491315","prefectureKana":"ｻｶﾞｹﾝ","cityKana":"ｶｼﾏｼ","streetKana":"ﾐｶﾜﾁ","prefecture":"佐賀県","city":"鹿島市","street":"三河内"},{"zipCode":"8491303","prefectureKana":"ｻｶﾞｹﾝ","cityKana":"ｶｼﾏｼ","streetKana":"ﾓﾘ","prefecture":"佐賀県","city":"鹿島市","street":"森"},{"zipCode":"8491314","prefectureKana":"ｻｶﾞｹﾝ","cityKana":"ｶｼﾏｼ","streetKana":"ﾔﾏｳﾗ","prefecture":"佐賀県","city":"鹿島市","street":"山浦"},{"zipCode":"8490311","prefectureKana":"ｻｶﾞｹﾝ","cityKana":"ｵｷﾞｼ","streetKana":"ｱｼｶﾘﾁｮｳｱｼﾐｿﾞ","prefecture":"佐賀県","city":"小城市","street":"芦刈町芦溝"},{"zipCode":"8490312","prefectureKana":"ｻｶﾞｹﾝ","cityKana":"ｵｷﾞｼ","streetKana":"ｱｼｶﾘﾁｮｳｼﾓｺｶﾞ","prefecture":"佐賀県","city":"小城市","street":"芦刈町下古賀"},{"zipCode":"8490316","prefectureKana":"ｻｶﾞｹﾝ","cityKana":"ｵｷﾞｼ","streetKana":"ｱｼｶﾘﾁｮｳﾄﾞｳﾒ","prefecture":"佐賀県","city":"小城市","street":"芦刈町道免"},{"zipCode":"8490313","prefectureKana":"ｻｶﾞｹﾝ","cityKana":"ｵｷﾞｼ","streetKana":"ｱｼｶﾘﾁｮｳﾅｶﾞﾀ","prefecture":"佐賀県","city":"小城市","street":"芦刈町永田"},{"zipCode":"8490315","prefectureKana":"ｻｶﾞｹﾝ","cityKana":"ｵｷﾞｼ","streetKana":"ｱｼｶﾘﾁｮｳﾊﾏｴﾀﾞｶﾞﾜ","prefecture":"佐賀県","city":"小城市","street":"芦刈町浜枝川"},{"zipCode":"8490314","prefectureKana":"ｻｶﾞｹﾝ","cityKana":"ｵｷﾞｼ","streetKana":"ｱｼｶﾘﾁｮｳﾐｵｳｻﾞｷ","prefecture":"佐賀県","city":"小城市","street":"芦刈町三王崎"},{"zipCode":"8490303","prefectureKana":"ｻｶﾞｹﾝ","cityKana":"ｵｷﾞｼ","streetKana":"ｳｼﾂﾞﾁｮｳｳｼﾂﾞ","prefecture":"佐賀県","city":"小城市","street":"牛津町牛津"},{"zipCode":"8490301","prefectureKana":"ｻｶﾞｹﾝ","cityKana":"ｵｷﾞｼ","streetKana":"ｳｼﾂﾞﾁｮｳｵﾄﾔﾅｷﾞ","prefecture":"佐賀県","city":"小城市","street":"牛津町乙柳"},{"zipCode":"8490302","prefectureKana":"ｻｶﾞｹﾝ","cityKana":"ｵｷﾞｼ","streetKana":"ｳｼﾂﾞﾁｮｳｶｷﾋｾ","prefecture":"佐賀県","city":"小城市","street":"牛津町柿樋瀬"},{"zipCode":"8490306","prefectureKana":"ｻｶﾞｹﾝ","cityKana":"ｵｷﾞｼ","streetKana":"ｳｼﾂﾞﾁｮｳｶﾂ","prefecture":"佐賀県","city":"小城市","street":"牛津町勝"},{"zipCode":"8490305","prefectureKana":"ｻｶﾞｹﾝ","cityKana":"ｵｷﾞｼ","streetKana":"ｳｼﾂﾞﾁｮｳｶﾐﾄｶﾞﾜ","prefecture":"佐賀県","city":"小城市","street":"牛津町上砥川"},{"zipCode":"8490304","prefectureKana":"ｻｶﾞｹﾝ","cityKana":"ｵｷﾞｼ","streetKana":"ｳｼﾂﾞﾁｮｳｼﾓﾄｶﾞﾜ","prefecture":"佐賀県","city":"小城市","street":"牛津町下砥川"},{"zipCode":"8491416","prefectureKana":"ｻｶﾞｹﾝ","cityKana":"ｳﾚｼﾉｼ","streetKana":"ｼｵﾀﾁｮｳｵｵｸｻﾉｵﾂ","prefecture":"佐賀県","city":"嬉野市","street":"塩田町大草野乙"},{"zipCode":"8491414","prefectureKana":"ｻｶﾞｹﾝ","cityKana":"ｳﾚｼﾉｼ","streetKana":"ｼｵﾀﾁｮｳｵｵｸｻﾉｺｳ","prefecture":"佐賀県","city":"嬉野市","street":"塩田町大草野甲"},{"zipCode":"8491415","prefectureKana":"ｻｶﾞｹﾝ","cityKana":"ｳﾚｼﾉｼ","streetKana":"ｼｵﾀﾁｮｳｵｵｸｻﾉﾍｲ","prefecture":"佐賀県","city":"嬉野市","street":"塩田町大草野丙"},{"zipCode":"8491402","prefectureKana":"ｻｶﾞｹﾝ","cityKana":"ｳﾚｼﾉｼ","streetKana":"ｼｵﾀﾁｮｳｸﾏｵﾂ","prefecture":"佐賀県","city":"嬉野市","street":"塩田町久間乙"},{"zipCode":"8491401","prefectureKana":"ｻｶﾞｹﾝ","cityKana":"ｳﾚｼﾉｼ","streetKana":"ｼｵﾀﾁｮｳｸﾏｺｳ","prefecture":"佐賀県","city":"嬉野市","street":"塩田町久間甲"},{"zipCode":"8491404","prefectureKana":"ｻｶﾞｹﾝ","cityKana":"ｳﾚｼﾉｼ","streetKana":"ｼｵﾀﾁｮｳｸﾏﾃｲ","prefecture":"佐賀県","city":"嬉野市","street":"塩田町久間丁"},{"zipCode":"8491403","prefectureKana":"ｻｶﾞｹﾝ","cityKana":"ｳﾚｼﾉｼ","streetKana":"ｼｵﾀﾁｮｳｸﾏﾍｲ","prefecture":"佐賀県","city":"嬉野市","street":"塩田町久間丙"},{"zipCode":"8491426","prefectureKana":"ｻｶﾞｹﾝ","cityKana":"ｳﾚｼﾉｼ","streetKana":"ｼｵﾀﾁｮｳｺﾞﾁｮｳﾀﾞｵﾂ","prefecture":"佐賀県","city":"嬉野市","street":"塩田町五町田乙"},{"zipCode":"8491425","prefectureKana":"ｻｶﾞｹﾝ","cityKana":"ｳﾚｼﾉｼ","streetKana":"ｼｵﾀﾁｮｳｺﾞﾁｮｳﾀﾞｺｳ","prefecture":"佐賀県","city":"嬉野市","street":"塩田町五町田甲"},{"zipCode":"8491423","prefectureKana":"ｻｶﾞｹﾝ","cityKana":"ｳﾚｼﾉｼ","streetKana":"ｼｵﾀﾁｮｳﾀﾆﾄﾞｺﾛｵﾂ","prefecture":"佐賀県","city":"嬉野市","street":"塩田町谷所乙"},{"zipCode":"8491422","prefectureKana":"ｻｶﾞｹﾝ","cityKana":"ｳﾚｼﾉｼ","streetKana":"ｼｵﾀﾁｮｳﾀﾆﾄﾞｺﾛｺｳ","prefecture":"佐賀県","city":"嬉野市","street":"塩田町谷所甲"},{"zipCode":"8491424","prefectureKana":"ｻｶﾞｹﾝ","cityKana":"ｳﾚｼﾉｼ","streetKana":"ｼｵﾀﾁｮｳﾀﾆﾄﾞｺﾛﾍｲ","prefecture":"佐賀県","city":"嬉野市","street":"塩田町谷所丙"},{"zipCode":"8491412","prefectureKana":"ｻｶﾞｹﾝ","cityKana":"ｳﾚｼﾉｼ","streetKana":"ｼｵﾀﾁｮｳﾊﾞﾊﾞｼﾀｵﾂ","prefecture":"佐賀県","city":"嬉野市","street":"塩田町馬場下乙"},{"zipCode":"8491411","prefectureKana":"ｻｶﾞｹﾝ","cityKana":"ｳﾚｼﾉｼ","streetKana":"ｼｵﾀﾁｮｳﾊﾞﾊﾞｼﾀｺｳ","prefecture":"佐賀県","city":"嬉野市","street":"塩田町馬場下甲"},{"zipCode":"8491413","prefectureKana":"ｻｶﾞｹﾝ","cityKana":"ｳﾚｼﾉｼ","streetKana":"ｼｵﾀﾁｮｳﾊﾞﾊﾞｼﾀﾍｲ","prefecture":"佐賀県","city":"嬉野市","street":"塩田町馬場下丙"},{"zipCode":"8491421","prefectureKana":"ｻｶﾞｹﾝ","cityKana":"ｳﾚｼﾉｼ","streetKana":"ｼｵﾀﾁｮｳﾏﾂｻｷ","prefecture":"佐賀県","city":"嬉野市","street":"塩田町真崎"},{"zipCode":"8490100","prefectureKana":"ｻｶﾞｹﾝ","cityKana":"ﾐﾔｷｸﾞﾝｶﾐﾐﾈﾁｮｳ","streetKana":"ｲｶﾆｹｲｻｲｶﾞﾅｲﾊﾞｱｲ","prefecture":"佐賀県","city":"三養基郡上峰町","street":"以下に掲載がない場合"},{"zipCode":"8490121","prefectureKana":"ｻｶﾞｹﾝ","cityKana":"ﾐﾔｷｸﾞﾝｶﾐﾐﾈﾁｮｳ","streetKana":"ｴﾑｶｲ","prefecture":"佐賀県","city":"三養基郡上峰町","street":"江迎"},{"zipCode":"8490124","prefectureKana":"ｻｶﾞｹﾝ","cityKana":"ﾐﾔｷｸﾞﾝｶﾐﾐﾈﾁｮｳ","streetKana":"ﾂﾂﾐ","prefecture":"佐賀県","city":"三養基郡上峰町","street":"堤"},{"zipCode":"8490123","prefectureKana":"ｻｶﾞｹﾝ","cityKana":"ﾐﾔｷｸﾞﾝｶﾐﾐﾈﾁｮｳ","streetKana":"ﾎﾞｳｼﾞｮ","prefecture":"佐賀県","city":"三養基郡上峰町","street":"坊所"},{"zipCode":"8490122","prefectureKana":"ｻｶﾞｹﾝ","cityKana":"ﾐﾔｷｸﾞﾝｶﾐﾐﾈﾁｮｳ","streetKana":"ﾏｴﾑﾀ","prefecture":"佐賀県","city":"三養基郡上峰町","street":"前牟田"},{"zipCode":"8490100","prefectureKana":"ｻｶﾞｹﾝ","cityKana":"ﾐﾔｷｸﾞﾝﾐﾔｷﾁｮｳ","streetKana":"ｲｶﾆｹｲｻｲｶﾞﾅｲﾊﾞｱｲ","prefecture":"佐賀県","city":"三養基郡みやき町","street":"以下に掲載がない場合"},{"zipCode":"8490112","prefectureKana":"ｻｶﾞｹﾝ","cityKana":"ﾐﾔｷｸﾞﾝﾐﾔｷﾁｮｳ","streetKana":"ｴｸﾞﾁ","prefecture":"佐賀県","city":"三養基郡みやき町","street":"江口"},{"zipCode":"8490111","prefectureKana":"ｻｶﾞｹﾝ","cityKana":"ﾐﾔｷｸﾞﾝﾐﾔｷﾁｮｳ","streetKana":"ｼﾗｶﾍﾞ","prefecture":"佐賀県","city":"三養基郡みやき町","street":"白壁"},{"zipCode":"8490114","prefectureKana":"ｻｶﾞｹﾝ","cityKana":"ﾐﾔｷｸﾞﾝﾐﾔｷﾁｮｳ","streetKana":"ﾅｶﾂｸﾏ","prefecture":"佐賀県","city":"三養基郡みやき町","street":"中津隈"},{"zipCode":"8490101","prefectureKana":"ｻｶﾞｹﾝ","cityKana":"ﾐﾔｷｸﾞﾝﾐﾔｷﾁｮｳ","streetKana":"ﾊﾙｺｶﾞ","prefecture":"佐賀県","city":"三養基郡みやき町","street":"原古賀"},{"zipCode":"8490113","prefectureKana":"ｻｶﾞｹﾝ","cityKana":"ﾐﾔｷｸﾞﾝﾐﾔｷﾁｮｳ","streetKana":"ﾋｶﾞｼｵ","prefecture":"佐賀県","city":"三養基郡みやき町","street":"東尾"},{"zipCode":"8490102","prefectureKana":"ｻｶﾞｹﾝ","cityKana":"ﾐﾔｷｸﾞﾝﾐﾔｷﾁｮｳ","streetKana":"ﾐﾉﾊﾞﾙ","prefecture":"佐賀県","city":"三養基郡みやき町","street":"簑原"},{"zipCode":"8494154","prefectureKana":"ｻｶﾞｹﾝ","cityKana":"ﾆｼﾏﾂｳﾗｸﾞﾝｱﾘﾀﾁｮｳ","streetKana":"ｵｵｷﾞｼｭｸ","prefecture":"佐賀県","city":"西松浦郡有田町","street":"大木宿"},{"zipCode":"8494162","prefectureKana":"ｻｶﾞｹﾝ","cityKana":"ﾆｼﾏﾂｳﾗｸﾞﾝｱﾘﾀﾁｮｳ","streetKana":"ｶﾐｳﾁﾉ","prefecture":"佐賀県","city":"西松浦郡有田町","street":"上内野"},{"zipCode":"8494174","prefectureKana":"ｻｶﾞｹﾝ","cityKana":"ﾆｼﾏﾂｳﾗｸﾞﾝｱﾘﾀﾁｮｳ","streetKana":"ｶﾐﾎﾝ","prefecture":"佐賀県","city":"西松浦郡有田町","street":"上本"},{"zipCode":"8494144","prefectureKana":"ｻｶﾞｹﾝ","cityKana":"ﾆｼﾏﾂｳﾗｸﾞﾝｱﾘﾀﾁｮｳ","streetKana":"ｶﾐﾔﾏﾀﾞﾆ","prefecture":"佐賀県","city":"西松浦郡有田町","street":"上山谷"},{"zipCode":"8494166","prefectureKana":"ｻｶﾞｹﾝ","cityKana":"ﾆｼﾏﾂｳﾗｸﾞﾝｱﾘﾀﾁｮｳ","streetKana":"ｷﾀﾉｶﾜﾁ","prefecture":"佐賀県","city":"西松浦郡有田町","street":"北ノ川内"},{"zipCode":"8494175","prefectureKana":"ｻｶﾞｹﾝ","cityKana":"ﾆｼﾏﾂｳﾗｸﾞﾝｱﾘﾀﾁｮｳ","streetKana":"ｸｽﾉｷﾊﾞﾙ","prefecture":"佐賀県","city":"西松浦郡有田町","street":"楠木原"},{"zipCode":"8494165","prefectureKana":"ｻｶﾞｹﾝ","cityKana":"ﾆｼﾏﾂｳﾗｸﾞﾝｱﾘﾀﾁｮｳ","streetKana":"ｸﾛｺﾞｳ","prefecture":"佐賀県","city":"西松浦郡有田町","street":"黒川"},{"zipCode":"8494156","prefectureKana":"ｻｶﾞｹﾝ","cityKana":"ﾆｼﾏﾂｳﾗｸﾞﾝｱﾘﾀﾁｮｳ","streetKana":"ｸﾜﾉｷﾊﾞﾙ","prefecture":"佐賀県","city":"西松浦郡有田町","street":"桑木原"},{"zipCode":"8494163","prefectureKana":"ｻｶﾞｹﾝ","cityKana":"ﾆｼﾏﾂｳﾗｸﾞﾝｱﾘﾀﾁｮｳ","streetKana":"ｼﾓｳﾁﾉ","prefecture":"佐賀県","city":"西松浦郡有田町","street":"下内野"},{"zipCode":"8494172","prefectureKana":"ｻｶﾞｹﾝ","cityKana":"ﾆｼﾏﾂｳﾗｸﾞﾝｱﾘﾀﾁｮｳ","streetKana":"ｼﾓﾎﾝ","prefecture":"佐賀県","city":"西松浦郡有田町","street":"下本"},{"zipCode":"8494143","prefectureKana":"ｻｶﾞｹﾝ","cityKana":"ﾆｼﾏﾂｳﾗｸﾞﾝｱﾘﾀﾁｮｳ","streetKana":"ｼﾓﾔﾏﾀﾞﾆ","prefecture":"佐賀県","city":"西松浦郡有田町","street":"下山谷"},{"zipCode":"8494161","prefectureKana":"ｻｶﾞｹﾝ","cityKana":"ﾆｼﾏﾂｳﾗｸﾞﾝｱﾘﾀﾁｮｳ","streetKana":"ｿﾞｳｼｭｸ","prefecture":"佐賀県","city":"西松浦郡有田町","street":"蔵宿"},{"zipCode":"8494146","prefectureKana":"ｻｶﾞｹﾝ","cityKana":"ﾆｼﾏﾂｳﾗｸﾞﾝｱﾘﾀﾁｮｳ","streetKana":"ﾀｹ","prefecture":"佐賀県","city":"西松浦郡有田町","street":"岳"},{"zipCode":"8494153","prefectureKana":"ｻｶﾞｹﾝ","cityKana":"ﾆｼﾏﾂｳﾗｸﾞﾝｱﾘﾀﾁｮｳ","streetKana":"ﾀﾁﾍﾞ","prefecture":"佐賀県","city":"西松浦郡有田町","street":"立部"},{"zipCode":"8494141","prefectureKana":"ｻｶﾞｹﾝ","cityKana":"ﾆｼﾏﾂｳﾗｸﾞﾝｱﾘﾀﾁｮｳ","streetKana":"ﾆﾉｾ","prefecture":"佐賀県","city":"西松浦郡有田町","street":"二ノ瀬"},{"zipCode":"8494176","prefectureKana":"ｻｶﾞｹﾝ","cityKana":"ﾆｼﾏﾂｳﾗｸﾞﾝｱﾘﾀﾁｮｳ","streetKana":"ﾊﾗｱｹ","prefecture":"佐賀県","city":"西松浦郡有田町","street":"原明"},{"zipCode":"8494152","prefectureKana":"ｻｶﾞｹﾝ","cityKana":"ﾆｼﾏﾂｳﾗｸﾞﾝｱﾘﾀﾁｮｳ","streetKana":"ﾋﾛｾ","prefecture":"佐賀県","city":"西松浦郡有田町","street":"広瀬"},{"zipCode":"8494151","prefectureKana":"ｻｶﾞｹﾝ","cityKana":"ﾆｼﾏﾂｳﾗｸﾞﾝｱﾘﾀﾁｮｳ","streetKana":"ﾋﾛｾﾔﾏ","prefecture":"佐賀県","city":"西松浦郡有田町","street":"広瀬山"},{"zipCode":"8494164","prefectureKana":"ｻｶﾞｹﾝ","cityKana":"ﾆｼﾏﾂｳﾗｸﾞﾝｱﾘﾀﾁｮｳ","streetKana":"ﾎﾄｹﾉﾊﾗ","prefecture":"佐賀県","city":"西松浦郡有田町","street":"仏ノ原"},{"zipCode":"8494173","prefectureKana":"ｻｶﾞｹﾝ","cityKana":"ﾆｼﾏﾂｳﾗｸﾞﾝｱﾘﾀﾁｮｳ","streetKana":"ﾏｲﾊﾞﾙ","prefecture":"佐賀県","city":"西松浦郡有田町","street":"舞原"},{"zipCode":"8494145","prefectureKana":"ｻｶﾞｹﾝ","cityKana":"ﾆｼﾏﾂｳﾗｸﾞﾝｱﾘﾀﾁｮｳ","streetKana":"ﾔﾏﾀﾞﾆｷﾘｸﾞﾁ","prefecture":"佐賀県","city":"西松浦郡有田町","street":"山谷切口"},{"zipCode":"8494142","prefectureKana":"ｻｶﾞｹﾝ","cityKana":"ﾆｼﾏﾂｳﾗｸﾞﾝｱﾘﾀﾁｮｳ","streetKana":"ﾔﾏﾀﾞﾆﾏｷ","prefecture":"佐賀県","city":"西松浦郡有田町","street":"山谷牧"},{"zipCode":"8494155","prefectureKana":"ｻｶﾞｹﾝ","cityKana":"ﾆｼﾏﾂｳﾗｸﾞﾝｱﾘﾀﾁｮｳ","streetKana":"ﾔﾏﾓﾄ","prefecture":"佐賀県","city":"西松浦郡有田町","street":"山本"},{"zipCode":"8494171","prefectureKana":"ｻｶﾞｹﾝ","cityKana":"ﾆｼﾏﾂｳﾗｸﾞﾝｱﾘﾀﾁｮｳ","streetKana":"ﾖﾖｷﾞ","prefecture":"佐賀県","city":"西松浦郡有田町","street":"代々木"},{"zipCode":"8492100","prefectureKana":"ｻｶﾞｹﾝ","cityKana":"ｷｼﾏｸﾞﾝｵｵﾏﾁﾁｮｳ","streetKana":"ｲｶﾆｹｲｻｲｶﾞﾅｲﾊﾞｱｲ","prefecture":"佐賀県","city":"杵島郡大町町","street":"以下に掲載がない場合"},{"zipCode":"8492101","prefectureKana":"ｻｶﾞｹﾝ","cityKana":"ｷｼﾏｸﾞﾝｵｵﾏﾁﾁｮｳ","streetKana":"ｵｵﾏﾁ","prefecture":"佐賀県","city":"杵島郡大町町","street":"大町"},{"zipCode":"8492102","prefectureKana":"ｻｶﾞｹﾝ","cityKana":"ｷｼﾏｸﾞﾝｵｵﾏﾁﾁｮｳ","streetKana":"ﾌｸﾓ","prefecture":"佐賀県","city":"杵島郡大町町","street":"福母"},{"zipCode":"8490500","prefectureKana":"ｻｶﾞｹﾝ","cityKana":"ｷｼﾏｸﾞﾝｺｳﾎｸﾏﾁ","streetKana":"ｲｶﾆｹｲｻｲｶﾞﾅｲﾊﾞｱｲ","prefecture":"佐賀県","city":"杵島郡江北町","street":"以下に掲載がない場合"},{"zipCode":"8490506","prefectureKana":"ｻｶﾞｹﾝ","cityKana":"ｷｼﾏｸﾞﾝｺｳﾎｸﾏﾁ","streetKana":"ｶﾐｵﾀﾞ","prefecture":"佐賀県","city":"杵島郡江北町","street":"上小田"},{"zipCode":"8490502","prefectureKana":"ｻｶﾞｹﾝ","cityKana":"ｷｼﾏｸﾞﾝｺｳﾎｸﾏﾁ","streetKana":"ｻﾙｼ","prefecture":"佐賀県","city":"杵島郡江北町","street":"佐留志"},{"zipCode":"8490505","prefectureKana":"ｻｶﾞｹﾝ","cityKana":"ｷｼﾏｸﾞﾝｺｳﾎｸﾏﾁ","streetKana":"ｼﾓｵﾀﾞ","prefecture":"佐賀県","city":"杵島郡江北町","street":"下小田"},{"zipCode":"8490503","prefectureKana":"ｻｶﾞｹﾝ","cityKana":"ｷｼﾏｸﾞﾝｺｳﾎｸﾏﾁ","streetKana":"ｿｳﾘｮｳﾌﾞﾝ","prefecture":"佐賀県","city":"杵島郡江北町","street":"惣領分"},{"zipCode":"8490504","prefectureKana":"ｻｶﾞｹﾝ","cityKana":"ｷｼﾏｸﾞﾝｺｳﾎｸﾏﾁ","streetKana":"ﾊｯﾁｮｳ","prefecture":"佐賀県","city":"杵島郡江北町","street":"八町"},{"zipCode":"8490501","prefectureKana":"ｻｶﾞｹﾝ","cityKana":"ｷｼﾏｸﾞﾝｺｳﾎｸﾏﾁ","streetKana":"ﾔﾏｸﾞﾁ","prefecture":"佐賀県","city":"杵島郡江北町","street":"山口"},{"zipCode":"8491100","prefectureKana":"ｻｶﾞｹﾝ","cityKana":"ｷｼﾏｸﾞﾝｼﾛｲｼﾁｮｳ","streetKana":"ｲｶﾆｹｲｻｲｶﾞﾅｲﾊﾞｱｲ","prefecture":"佐賀県","city":"杵島郡白石町","street":"以下に掲載がない場合"},{"zipCode":"8491101","prefectureKana":"ｻｶﾞｹﾝ","cityKana":"ｷｼﾏｸﾞﾝｼﾛｲｼﾁｮｳ","streetKana":"ｲﾏｲｽﾞﾐ","prefecture":"佐賀県","city":"杵島郡白石町","street":"今泉"},{"zipCode":"8491201","prefectureKana":"ｻｶﾞｹﾝ","cityKana":"ｷｼﾏｸﾞﾝｼﾛｲｼﾁｮｳ","streetKana":"ｳｼﾔ","prefecture":"佐賀県","city":"杵島郡白石町","street":"牛屋"},{"zipCode":"8491102","prefectureKana":"ｻｶﾞｹﾝ","cityKana":"ｷｼﾏｸﾞﾝｼﾛｲｼﾁｮｳ","streetKana":"ｵｵﾜﾀﾘ","prefecture":"佐賀県","city":"杵島郡白石町","street":"大渡"},{"zipCode":"8491204","prefectureKana":"ｻｶﾞｹﾝ","cityKana":"ｷｼﾏｸﾞﾝｼﾛｲｼﾁｮｳ","streetKana":"ｻｶﾀ","prefecture":"佐賀県","city":"杵島郡白石町","street":"坂田"},{"zipCode":"8491208","prefectureKana":"ｻｶﾞｹﾝ","cityKana":"ｷｼﾏｸﾞﾝｼﾛｲｼﾁｮｳ","streetKana":"ｼﾝｶｲ","prefecture":"佐賀県","city":"杵島郡白石町","street":"新開"},{"zipCode":"8491221","prefectureKana":"ｻｶﾞｹﾝ","cityKana":"ｷｼﾏｸﾞﾝｼﾛｲｼﾁｮｳ","streetKana":"ｼﾝﾀｸ","prefecture":"佐賀県","city":"杵島郡白石町","street":"新拓"},{"zipCode":"8491202","prefectureKana":"ｻｶﾞｹﾝ","cityKana":"ｷｼﾏｸﾞﾝｼﾛｲｼﾁｮｳ","streetKana":"ｼﾝﾒｲ","prefecture":"佐賀県","city":"杵島郡白石町","street":"新明"},{"zipCode":"8491205","prefectureKana":"ｻｶﾞｹﾝ","cityKana":"ｷｼﾏｸﾞﾝｼﾛｲｼﾁｮｳ","streetKana":"ﾀﾉｳｴ","prefecture":"佐賀県","city":"杵島郡白石町","street":"田野上"},{"zipCode":"8491103","prefectureKana":"ｻｶﾞｹﾝ","cityKana":"ｷｼﾏｸﾞﾝｼﾛｲｼﾁｮｳ","streetKana":"ﾂｲｷﾘ","prefecture":"佐賀県","city":"杵島郡白石町","street":"築切"},{"zipCode":"8491104","prefectureKana":"ｻｶﾞｹﾝ","cityKana":"ｷｼﾏｸﾞﾝｼﾛｲｼﾁｮｳ","streetKana":"ﾂﾂﾐ","prefecture":"佐賀県","city":"杵島郡白石町","street":"堤"},{"zipCode":"8491105","prefectureKana":"ｻｶﾞｹﾝ","cityKana":"ｷｼﾏｸﾞﾝｼﾛｲｼﾁｮｳ","streetKana":"ﾄｵﾉｴ","prefecture":"佐賀県","city":"杵島郡白石町","street":"遠江"},{"zipCode":"8491203","prefectureKana":"ｻｶﾞｹﾝ","cityKana":"ｷｼﾏｸﾞﾝｼﾛｲｼﾁｮｳ","streetKana":"ﾄｶﾞﾘ","prefecture":"佐賀県","city":"杵島郡白石町","street":"戸ケ里"},{"zipCode":"8491106","prefectureKana":"ｻｶﾞｹﾝ","cityKana":"ｷｼﾏｸﾞﾝｼﾛｲｼﾁｮｳ","streetKana":"ﾊﾀﾁ","prefecture":"佐賀県","city":"杵島郡白石町","street":"廿治"},{"zipCode":"8490403","prefectureKana":"ｻｶﾞｹﾝ","cityKana":"ｷｼﾏｸﾞﾝｼﾛｲｼﾁｮｳ","streetKana":"ﾊﾁﾍｲ","prefecture":"佐賀県","city":"杵島郡白石町","street":"八平"},{"zipCode":"8491111","prefectureKana":"ｻｶﾞｹﾝ","cityKana":"ｷｼﾏｸﾞﾝｼﾛｲｼﾁｮｳ","streetKana":"ﾋｶﾞｼｺﾞｳ","prefecture":"佐賀県","city":"杵島郡白石町","street":"東郷"},{"zipCode":"8491207","prefectureKana":"ｻｶﾞｹﾝ","cityKana":"ｷｼﾏｸﾞﾝｼﾛｲｼﾁｮｳ","streetKana":"ﾌｶｳﾗ","prefecture":"佐賀県","city":"杵島郡白石町","street":"深浦"},{"zipCode":"8491112","prefectureKana":"ｻｶﾞｹﾝ","cityKana":"ｷｼﾏｸﾞﾝｼﾛｲｼﾁｮｳ","streetKana":"ﾌｸﾀ","prefecture":"佐賀県","city":"杵島郡白石町","street":"福田"},{"zipCode":"8490401","prefectureKana":"ｻｶﾞｹﾝ","cityKana":"ｷｼﾏｸﾞﾝｼﾛｲｼﾁｮｳ","streetKana":"ﾌｸﾄﾞﾐ","prefecture":"佐賀県","city":"杵島郡白石町","street":"福富"},{"zipCode":"8490402","prefectureKana":"ｻｶﾞｹﾝ","cityKana":"ｷｼﾏｸﾞﾝｼﾛｲｼﾁｮｳ","streetKana":"ﾌｸﾄﾞﾐｼﾓﾌﾞﾝ","prefecture":"佐賀県","city":"杵島郡白石町","street":"福富下分"},{"zipCode":"8491113","prefectureKana":"ｻｶﾞｹﾝ","cityKana":"ｷｼﾏｸﾞﾝｼﾛｲｼﾁｮｳ","streetKana":"ﾌｸﾖｼ","prefecture":"佐賀県","city":"杵島郡白石町","street":"福吉"},{"zipCode":"8491206","prefectureKana":"ｻｶﾞｹﾝ","cityKana":"ｷｼﾏｸﾞﾝｼﾛｲｼﾁｮｳ","streetKana":"ﾍﾀ","prefecture":"佐賀県","city":"杵島郡白石町","street":"辺田"},{"zipCode":"8491114","prefectureKana":"ｻｶﾞｹﾝ","cityKana":"ｷｼﾏｸﾞﾝｼﾛｲｼﾁｮｳ","streetKana":"ﾓｳﾗｲ","prefecture":"佐賀県","city":"杵島郡白石町","street":"馬洗"},{"zipCode":"8491115","prefectureKana":"ｻｶﾞｹﾝ","cityKana":"ｷｼﾏｸﾞﾝｼﾛｲｼﾁｮｳ","streetKana":"ﾕｻﾞｷ","prefecture":"佐賀県","city":"杵島郡白石町","street":"湯崎"},{"zipCode":"8491116","prefectureKana":"ｻｶﾞｹﾝ","cityKana":"ｷｼﾏｸﾞﾝｼﾛｲｼﾁｮｳ","streetKana":"ﾖｺﾃ","prefecture":"佐賀県","city":"杵島郡白石町","street":"横手"},{"zipCode":"8491600","prefectureKana":"ｻｶﾞｹﾝ","cityKana":"ﾌｼﾞﾂｸﾞﾝﾀﾗﾁｮｳ","streetKana":"ｲｶﾆｹｲｻｲｶﾞﾅｲﾊﾞｱｲ","prefecture":"佐賀県","city":"藤津郡太良町","street":"以下に掲載がない場合"},{"zipCode":"8491603","prefectureKana":"ｻｶﾞｹﾝ","cityKana":"ﾌｼﾞﾂｸﾞﾝﾀﾗﾁｮｳ","streetKana":"ｲﾄｷ","prefecture":"佐賀県","city":"藤津郡太良町","street":"糸岐"},{"zipCode":"8491601","prefectureKana":"ｻｶﾞｹﾝ","cityKana":"ﾌｼﾞﾂｸﾞﾝﾀﾗﾁｮｳ","streetKana":"ｲﾌｸｺｳ","prefecture":"佐賀県","city":"藤津郡太良町","street":"伊福甲"},{"zipCode":"8491614","prefectureKana":"ｻｶﾞｹﾝ","cityKana":"ﾌｼﾞﾂｸﾞﾝﾀﾗﾁｮｳ","streetKana":"ｵｵｳﾗｺｳ","prefecture":"佐賀県","city":"藤津郡太良町","street":"大浦甲"},{"zipCode":"8491615","prefectureKana":"ｻｶﾞｹﾝ","cityKana":"ﾌｼﾞﾂｸﾞﾝﾀﾗﾁｮｳ","streetKana":"ｵｵｳﾗｵﾂ","prefecture":"佐賀県","city":"藤津郡太良町","street":"大浦乙"},{"zipCode":"8491613","prefectureKana":"ｻｶﾞｹﾝ","cityKana":"ﾌｼﾞﾂｸﾞﾝﾀﾗﾁｮｳ","streetKana":"ｵｵｳﾗﾍｲ","prefecture":"佐賀県","city":"藤津郡太良町","street":"大浦丙"},{"zipCode":"8491612","prefectureKana":"ｻｶﾞｹﾝ","cityKana":"ﾌｼﾞﾂｸﾞﾝﾀﾗﾁｮｳ","streetKana":"ｵｵｳﾗﾃｲ","prefecture":"佐賀県","city":"藤津郡太良町","street":"大浦丁"},{"zipCode":"8491611","prefectureKana":"ｻｶﾞｹﾝ","cityKana":"ﾌｼﾞﾂｸﾞﾝﾀﾗﾁｮｳ","streetKana":"ｵｵｳﾗﾎﾞ","prefecture":"佐賀県","city":"藤津郡太良町","street":"大浦戊"},{"zipCode":"8491616","prefectureKana":"ｻｶﾞｹﾝ","cityKana":"ﾌｼﾞﾂｸﾞﾝﾀﾗﾁｮｳ","streetKana":"ｵｵｳﾗｷ","prefecture":"佐賀県","city":"藤津郡太良町","street":"大浦己"},{"zipCode":"8491602","prefectureKana":"ｻｶﾞｹﾝ","cityKana":"ﾌｼﾞﾂｸﾞﾝﾀﾗﾁｮｳ","streetKana":"ﾀﾗ","prefecture":"佐賀県","city":"藤津郡太良町","street":"多良"}]