[{"zipCode":"8593241","prefectureKana":"ﾅｶﾞｻｷｹﾝ","cityKana":"ｻｾﾎﾞｼ","streetKana":"ｱﾘﾌｸﾁｮｳ","prefecture":"長崎県","city":"佐世保市","street":"有福町"},{"zipCode":"8593225","prefectureKana":"ﾅｶﾞｻｷｹﾝ","cityKana":"ｻｾﾎﾞｼ","streetKana":"ｳﾗｶﾞﾜﾁﾁｮｳ","prefecture":"長崎県","city":"佐世保市","street":"浦川内町"},{"zipCode":"8593202","prefectureKana":"ﾅｶﾞｻｷｹﾝ","cityKana":"ｻｾﾎﾞｼ","streetKana":"ｳﾜﾊﾞﾙﾁｮｳ","prefecture":"長崎県","city":"佐世保市","street":"上原町"},{"zipCode":"8593244","prefectureKana":"ﾅｶﾞｻｷｹﾝ","cityKana":"ｻｾﾎﾞｼ","streetKana":"ｴｶﾞﾐﾁｮｳ","prefecture":"長崎県","city":"佐世保市","street":"江上町"},{"zipCode":"8593165","prefectureKana":"ﾅｶﾞｻｷｹﾝ","cityKana":"ｻｾﾎﾞｼ","streetKana":"ｴﾅｶﾞﾁｮｳ","prefecture":"長崎県","city":"佐世保市","street":"江永町"},{"zipCode":"8596131","prefectureKana":"ﾅｶﾞｻｷｹﾝ","cityKana":"ｻｾﾎﾞｼ","streetKana":"ｴﾑｶｴﾁｮｳｱｶｻｶ","prefecture":"長崎県","city":"佐世保市","street":"江迎町赤坂"},{"zipCode":"8596111","prefectureKana":"ﾅｶﾞｻｷｹﾝ","cityKana":"ｻｾﾎﾞｼ","streetKana":"ｴﾑｶｴﾁｮｳｲｲﾗｻﾞｶ","prefecture":"長崎県","city":"佐世保市","street":"江迎町飯良坂"},{"zipCode":"8596133","prefectureKana":"ﾅｶﾞｻｷｹﾝ","cityKana":"ｻｾﾎﾞｼ","streetKana":"ｴﾑｶｴﾁｮｳｲﾉﾂｷ","prefecture":"長崎県","city":"佐世保市","street":"江迎町猪調"},{"zipCode":"8596103","prefectureKana":"ﾅｶﾞｻｷｹﾝ","cityKana":"ｻｾﾎﾞｼ","streetKana":"ｴﾑｶｴﾁｮｳｳﾒﾀﾃ","prefecture":"長崎県","city":"佐世保市","street":"江迎町埋立"},{"zipCode":"8596114","prefectureKana":"ﾅｶﾞｻｷｹﾝ","cityKana":"ｻｾﾎﾞｼ","streetKana":"ｴﾑｶｴﾁｮｳｴﾋﾞﾗｵ","prefecture":"長崎県","city":"佐世保市","street":"江迎町箙尾"},{"zipCode":"8596121","prefectureKana":"ﾅｶﾞｻｷｹﾝ","cityKana":"ｻｾﾎﾞｼ","streetKana":"ｴﾑｶｴﾁｮｳｵｸｶﾞﾜﾁ","prefecture":"長崎県","city":"佐世保市","street":"江迎町奥川内"},{"zipCode":"8596105","prefectureKana":"ﾅｶﾞｻｷｹﾝ","cityKana":"ｻｾﾎﾞｼ","streetKana":"ｴﾑｶｴﾁｮｳｶｼﾞﾉﾑﾗ","prefecture":"長崎県","city":"佐世保市","street":"江迎町梶ノ村"},{"zipCode":"8596102","prefectureKana":"ﾅｶﾞｻｷｹﾝ","cityKana":"ｻｾﾎﾞｼ","streetKana":"ｴﾑｶｴﾁｮｳｶﾐｶﾞﾜﾁ","prefecture":"長崎県","city":"佐世保市","street":"江迎町上川内"},{"zipCode":"8596106","prefectureKana":"ﾅｶﾞｻｷｹﾝ","cityKana":"ｻｾﾎﾞｼ","streetKana":"ｴﾑｶｴﾁｮｳｷﾀﾀﾞ","prefecture":"長崎県","city":"佐世保市","street":"江迎町北田"},{"zipCode":"8596126","prefectureKana":"ﾅｶﾞｻｷｹﾝ","cityKana":"ｻｾﾎﾞｼ","streetKana":"ｴﾑｶｴﾁｮｳｷﾀﾋﾗ","prefecture":"長崎県","city":"佐世保市","street":"江迎町北平"},{"zipCode":"8596113","prefectureKana":"ﾅｶﾞｻｷｹﾝ","cityKana":"ｻｾﾎﾞｼ","streetKana":"ｴﾑｶｴﾁｮｳｸﾘｺｼ","prefecture":"長崎県","city":"佐世保市","street":"江迎町栗越"},{"zipCode":"8596123","prefectureKana":"ﾅｶﾞｻｷｹﾝ","cityKana":"ｻｾﾎﾞｼ","streetKana":"ｴﾑｶｴﾁｮｳｺｶﾞﾜﾁ","prefecture":"長崎県","city":"佐世保市","street":"江迎町小川内"},{"zipCode":"8596132","prefectureKana":"ﾅｶﾞｻｷｹﾝ","cityKana":"ｻｾﾎﾞｼ","streetKana":"ｴﾑｶｴﾁｮｳｼﾄﾉｳｼﾞ","prefecture":"長崎県","city":"佐世保市","street":"江迎町志戸氏"},{"zipCode":"8596104","prefectureKana":"ﾅｶﾞｻｷｹﾝ","cityKana":"ｻｾﾎﾞｼ","streetKana":"ｴﾑｶｴﾁｮｳｽｴﾀﾁﾊﾞﾅ","prefecture":"長崎県","city":"佐世保市","street":"江迎町末橘"},{"zipCode":"8596134","prefectureKana":"ﾅｶﾞｻｷｹﾝ","cityKana":"ｻｾﾎﾞｼ","streetKana":"ｴﾑｶｴﾁｮｳﾀﾉﾓﾄ","prefecture":"長崎県","city":"佐世保市","street":"江迎町田ノ元"},{"zipCode":"8596115","prefectureKana":"ﾅｶﾞｻｷｹﾝ","cityKana":"ｻｾﾎﾞｼ","streetKana":"ｴﾑｶｴﾁｮｳﾅｶｵ","prefecture":"長崎県","city":"佐世保市","street":"江迎町中尾"},{"zipCode":"8596101","prefectureKana":"ﾅｶﾞｻｷｹﾝ","cityKana":"ｻｾﾎﾞｼ","streetKana":"ｴﾑｶｴﾁｮｳﾅｶﾞｻｶ","prefecture":"長崎県","city":"佐世保市","street":"江迎町長坂"},{"zipCode":"8596122","prefectureKana":"ﾅｶﾞｻｷｹﾝ","cityKana":"ｻｾﾎﾞｼ","streetKana":"ｴﾑｶｴﾁｮｳﾅﾅｶｲ","prefecture":"長崎県","city":"佐世保市","street":"江迎町七腕"},{"zipCode":"8596112","prefectureKana":"ﾅｶﾞｻｷｹﾝ","cityKana":"ｻｾﾎﾞｼ","streetKana":"ｴﾑｶｴﾁｮｳﾈﾋﾞｷ","prefecture":"長崎県","city":"佐世保市","street":"江迎町根引"},{"zipCode":"8596125","prefectureKana":"ﾅｶﾞｻｷｹﾝ","cityKana":"ｻｾﾎﾞｼ","streetKana":"ｴﾑｶｴﾁｮｳﾐｳﾗ","prefecture":"長崎県","city":"佐世保市","street":"江迎町三浦"},{"zipCode":"8596124","prefectureKana":"ﾅｶﾞｻｷｹﾝ","cityKana":"ｻｾﾎﾞｼ","streetKana":"ｴﾑｶｴﾁｮｳﾐﾀﾞﾚﾊﾞｼ","prefecture":"長崎県","city":"佐世保市","street":"江迎町乱橋"},{"zipCode":"8593233","prefectureKana":"ﾅｶﾞｻｷｹﾝ","cityKana":"ｻｾﾎﾞｼ","streetKana":"ｵｸﾔﾏﾁｮｳ","prefecture":"長崎県","city":"佐世保市","street":"奥山町"},{"zipCode":"8593216","prefectureKana":"ﾅｶﾞｻｷｹﾝ","cityKana":"ｻｾﾎﾞｼ","streetKana":"ｶﾂｳﾐﾁｮｳ","prefecture":"長崎県","city":"佐世保市","street":"勝海町"},{"zipCode":"8593166","prefectureKana":"ﾅｶﾞｻｷｹﾝ","cityKana":"ｻｾﾎﾞｼ","streetKana":"ｷﾊﾗﾁｮｳ","prefecture":"長崎県","city":"佐世保市","street":"木原町"},{"zipCode":"8593161","prefectureKana":"ﾅｶﾞｻｷｹﾝ","cityKana":"ｻｾﾎﾞｼ","streetKana":"ｸﾁﾉｵﾁｮｳ","prefecture":"長崎県","city":"佐世保市","street":"口の尾町"},{"zipCode":"8593157","prefectureKana":"ﾅｶﾞｻｷｹﾝ","cityKana":"ｻｾﾎﾞｼ","streetKana":"ｸﾜｺﾊﾞﾁｮｳ","prefecture":"長崎県","city":"佐世保市","street":"桑木場町"},{"zipCode":"8593164","prefectureKana":"ﾅｶﾞｻｷｹﾝ","cityKana":"ｻｾﾎﾞｼ","streetKana":"ｺｺﾝﾉﾁｮｳ","prefecture":"長崎県","city":"佐世保市","street":"心野町"},{"zipCode":"8593214","prefectureKana":"ﾅｶﾞｻｷｹﾝ","cityKana":"ｻｾﾎﾞｼ","streetKana":"ｺﾞﾝｼﾞｮｳｼﾞ","prefecture":"長崎県","city":"佐世保市","street":"権常寺"},{"zipCode":"8593213","prefectureKana":"ﾅｶﾞｻｷｹﾝ","cityKana":"ｻｾﾎﾞｼ","streetKana":"ｺﾞﾝｼﾞｮｳｼﾞﾁｮｳ","prefecture":"長崎県","city":"佐世保市","street":"権常寺町"},{"zipCode":"8593226","prefectureKana":"ﾅｶﾞｻｷｹﾝ","cityKana":"ｻｾﾎﾞｼ","streetKana":"ｻｷｵｶﾁｮｳ","prefecture":"長崎県","city":"佐世保市","street":"崎岡町"},{"zipCode":"8593242","prefectureKana":"ﾅｶﾞｻｷｹﾝ","cityKana":"ｻｾﾎﾞｼ","streetKana":"ｻｼｶﾀﾁｮｳ","prefecture":"長崎県","city":"佐世保市","street":"指方町"},{"zipCode":"8593211","prefectureKana":"ﾅｶﾞｻｷｹﾝ","cityKana":"ｻｾﾎﾞｼ","streetKana":"ｻﾅｴﾁｮｳ","prefecture":"長崎県","city":"佐世保市","street":"早苗町"},{"zipCode":"8593154","prefectureKana":"ﾅｶﾞｻｷｹﾝ","cityKana":"ｻｾﾎﾞｼ","streetKana":"ｼｵﾋﾀｼﾁｮｳ","prefecture":"長崎県","city":"佐世保市","street":"塩浸町"},{"zipCode":"8596201","prefectureKana":"ﾅｶﾞｻｷｹﾝ","cityKana":"ｻｾﾎﾞｼ","streetKana":"ｼｶﾏﾁﾁｮｳｵｵﾔ","prefecture":"長崎県","city":"佐世保市","street":"鹿町町大屋"},{"zipCode":"8596202","prefectureKana":"ﾅｶﾞｻｷｹﾝ","cityKana":"ｻｾﾎﾞｼ","streetKana":"ｼｶﾏﾁﾁｮｳｶﾐｳﾀｶﾞｳﾗ","prefecture":"長崎県","city":"佐世保市","street":"鹿町町上歌ヶ浦"},{"zipCode":"8596203","prefectureKana":"ﾅｶﾞｻｷｹﾝ","cityKana":"ｻｾﾎﾞｼ","streetKana":"ｼｶﾏﾁﾁｮｳｸﾁﾉｻﾄ","prefecture":"長崎県","city":"佐世保市","street":"鹿町町口ノ里"},{"zipCode":"8596144","prefectureKana":"ﾅｶﾞｻｷｹﾝ","cityKana":"ｻｾﾎﾞｼ","streetKana":"ｼｶﾏﾁﾁｮｳｼｶﾏﾁ","prefecture":"長崎県","city":"佐世保市","street":"鹿町町鹿町"},{"zipCode":"8596204","prefectureKana":"ﾅｶﾞｻｷｹﾝ","cityKana":"ｻｾﾎﾞｼ","streetKana":"ｼｶﾏﾁﾁｮｳｼﾓｳﾀｶﾞｳﾗ","prefecture":"長崎県","city":"佐世保市","street":"鹿町町下歌ヶ浦"},{"zipCode":"8596141","prefectureKana":"ﾅｶﾞｻｷｹﾝ","cityKana":"ｻｾﾎﾞｼ","streetKana":"ｼｶﾏﾁﾁｮｳｼﾝﾌｶｴ","prefecture":"長崎県","city":"佐世保市","street":"鹿町町新深江"},{"zipCode":"8596145","prefectureKana":"ﾅｶﾞｻｷｹﾝ","cityKana":"ｻｾﾎﾞｼ","streetKana":"ｼｶﾏﾁﾁｮｳﾄﾞｲﾉｳﾗ","prefecture":"長崎県","city":"佐世保市","street":"鹿町町土肥ノ浦"},{"zipCode":"8596205","prefectureKana":"ﾅｶﾞｻｷｹﾝ","cityKana":"ｻｾﾎﾞｼ","streetKana":"ｼｶﾏﾁﾁｮｳﾅｶﾉ","prefecture":"長崎県","city":"佐世保市","street":"鹿町町中野"},{"zipCode":"8596206","prefectureKana":"ﾅｶﾞｻｷｹﾝ","cityKana":"ｻｾﾎﾞｼ","streetKana":"ｼｶﾏﾁﾁｮｳﾅｸﾞｼ","prefecture":"長崎県","city":"佐世保市","street":"鹿町町長串"},{"zipCode":"8596142","prefectureKana":"ﾅｶﾞｻｷｹﾝ","cityKana":"ｻｾﾎﾞｼ","streetKana":"ｼｶﾏﾁﾁｮｳﾌｶｴ","prefecture":"長崎県","city":"佐世保市","street":"鹿町町深江"},{"zipCode":"8596143","prefectureKana":"ﾅｶﾞｻｷｹﾝ","cityKana":"ｻｾﾎﾞｼ","streetKana":"ｼｶﾏﾁﾁｮｳﾌｶｴｶﾞﾀ","prefecture":"長崎県","city":"佐世保市","street":"鹿町町深江潟"},{"zipCode":"8596207","prefectureKana":"ﾅｶﾞｻｷｹﾝ","cityKana":"ｻｾﾎﾞｼ","streetKana":"ｼｶﾏﾁﾁｮｳﾌﾈﾉﾑﾗ","prefecture":"長崎県","city":"佐世保市","street":"鹿町町船ノ村"},{"zipCode":"8593224","prefectureKana":"ﾅｶﾞｻｷｹﾝ","cityKana":"ｻｾﾎﾞｼ","streetKana":"ｼｹﾞｵﾁｮｳ","prefecture":"長崎県","city":"佐世保市","street":"重尾町"},{"zipCode":"8593156","prefectureKana":"ﾅｶﾞｻｷｹﾝ","cityKana":"ｻｾﾎﾞｼ","streetKana":"ｼﾓﾉﾊﾙﾁｮｳ","prefecture":"長崎県","city":"佐世保市","street":"下の原町"},{"zipCode":"8593237","prefectureKana":"ﾅｶﾞｻｷｹﾝ","cityKana":"ｻｾﾎﾞｼ","streetKana":"ｼﾞｮｳﾏﾁｮｳ","prefecture":"長崎県","city":"佐世保市","street":"城間町"},{"zipCode":"8593158","prefectureKana":"ﾅｶﾞｻｷｹﾝ","cityKana":"ｻｾﾎﾞｼ","streetKana":"ｼﾝｶﾞｴﾁｮｳ","prefecture":"長崎県","city":"佐世保市","street":"新替町"},{"zipCode":"8593152","prefectureKana":"ﾅｶﾞｻｷｹﾝ","cityKana":"ｻｾﾎﾞｼ","streetKana":"ｼﾝｷﾞｮｳｴﾁｮｳ","prefecture":"長崎県","city":"佐世保市","street":"新行江町"},{"zipCode":"8593203","prefectureKana":"ﾅｶﾞｻｷｹﾝ","cityKana":"ｻｾﾎﾞｼ","streetKana":"ｼﾞﾝﾉｳﾁﾁｮｳ","prefecture":"長崎県","city":"佐世保市","street":"陣の内町"},{"zipCode":"8596401","prefectureKana":"ﾅｶﾞｻｷｹﾝ","cityKana":"ｻｾﾎﾞｼ","streetKana":"ｾﾁﾊﾞﾙﾁｮｳｱｶｺﾊﾞ","prefecture":"長崎県","city":"佐世保市","street":"世知原町赤木場"},{"zipCode":"8596402","prefectureKana":"ﾅｶﾞｻｷｹﾝ","cityKana":"ｻｾﾎﾞｼ","streetKana":"ｾﾁﾊﾞﾙﾁｮｳｲﾜﾔｸﾞﾁ","prefecture":"長崎県","city":"佐世保市","street":"世知原町岩谷口"},{"zipCode":"8596403","prefectureKana":"ﾅｶﾞｻｷｹﾝ","cityKana":"ｻｾﾎﾞｼ","streetKana":"ｾﾁﾊﾞﾙﾁｮｳｳｴﾉﾊﾗ","prefecture":"長崎県","city":"佐世保市","street":"世知原町上野原"},{"zipCode":"8596404","prefectureKana":"ﾅｶﾞｻｷｹﾝ","cityKana":"ｻｾﾎﾞｼ","streetKana":"ｾﾁﾊﾞﾙﾁｮｳｵｵﾀ","prefecture":"長崎県","city":"佐世保市","street":"世知原町太田"},{"zipCode":"8596405","prefectureKana":"ﾅｶﾞｻｷｹﾝ","cityKana":"ｻｾﾎﾞｼ","streetKana":"ｾﾁﾊﾞﾙﾁｮｳｶｲｻｸ","prefecture":"長崎県","city":"佐世保市","street":"世知原町開作"},{"zipCode":"8596406","prefectureKana":"ﾅｶﾞｻｷｹﾝ","cityKana":"ｻｾﾎﾞｼ","streetKana":"ｾﾁﾊﾞﾙﾁｮｳｷｳﾗﾊﾞﾙ","prefecture":"長崎県","city":"佐世保市","street":"世知原町木浦原"},{"zipCode":"8596407","prefectureKana":"ﾅｶﾞｻｷｹﾝ","cityKana":"ｻｾﾎﾞｼ","streetKana":"ｾﾁﾊﾞﾙﾁｮｳｷﾀｶﾞﾜﾁ","prefecture":"長崎県","city":"佐世保市","street":"世知原町北川内"},{"zipCode":"8596408","prefectureKana":"ﾅｶﾞｻｷｹﾝ","cityKana":"ｻｾﾎﾞｼ","streetKana":"ｾﾁﾊﾞﾙﾁｮｳｸﾘﾑｶｴ","prefecture":"長崎県","city":"佐世保市","street":"世知原町栗迎"},{"zipCode":"8596411","prefectureKana":"ﾅｶﾞｻｷｹﾝ","cityKana":"ｻｾﾎﾞｼ","streetKana":"ｾﾁﾊﾞﾙﾁｮｳﾅｶﾞﾀｼﾛ","prefecture":"長崎県","city":"佐世保市","street":"世知原町長田代"},{"zipCode":"8596409","prefectureKana":"ﾅｶﾞｻｷｹﾝ","cityKana":"ｻｾﾎﾞｼ","streetKana":"ｾﾁﾊﾞﾙﾁｮｳﾅｶﾄﾞｵﾘ","prefecture":"長崎県","city":"佐世保市","street":"世知原町中通"},{"zipCode":"8596412","prefectureKana":"ﾅｶﾞｻｷｹﾝ","cityKana":"ｻｾﾎﾞｼ","streetKana":"ｾﾁﾊﾞﾙﾁｮｳﾆｼﾉﾀｹ","prefecture":"長崎県","city":"佐世保市","street":"世知原町西ノ岳"},{"zipCode":"8596413","prefectureKana":"ﾅｶﾞｻｷｹﾝ","cityKana":"ｻｾﾎﾞｼ","streetKana":"ｾﾁﾊﾞﾙﾁｮｳﾔﾅｾﾞ","prefecture":"長崎県","city":"佐世保市","street":"世知原町笥瀬"},{"zipCode":"8596414","prefectureKana":"ﾅｶﾞｻｷｹﾝ","cityKana":"ｻｾﾎﾞｼ","streetKana":"ｾﾁﾊﾞﾙﾁｮｳﾔﾋﾞﾂ","prefecture":"長崎県","city":"佐世保市","street":"世知原町矢櫃"},{"zipCode":"8596415","prefectureKana":"ﾅｶﾞｻｷｹﾝ","cityKana":"ｻｾﾎﾞｼ","streetKana":"ｾﾁﾊﾞﾙﾁｮｳﾔﾘﾏｷ","prefecture":"長崎県","city":"佐世保市","street":"世知原町槍巻"},{"zipCode":"8593231","prefectureKana":"ﾅｶﾞｻｷｹﾝ","cityKana":"ｻｾﾎﾞｼ","streetKana":"ｾﾄﾞｳﾁｮｳ","prefecture":"長崎県","city":"佐世保市","street":"瀬道町"},{"zipCode":"8593205","prefectureKana":"ﾅｶﾞｻｷｹﾝ","cityKana":"ｻｾﾎﾞｼ","streetKana":"ﾀﾉｳﾗﾁｮｳ","prefecture":"長崎県","city":"佐世保市","street":"田の浦町"},{"zipCode":"8593234","prefectureKana":"ﾅｶﾞｻｷｹﾝ","cityKana":"ｻｾﾎﾞｼ","streetKana":"ﾅｶﾞﾊﾀﾁｮｳ","prefecture":"長崎県","city":"佐世保市","street":"長畑町"},{"zipCode":"8593221","prefectureKana":"ﾅｶﾞｻｷｹﾝ","cityKana":"ｻｾﾎﾞｼ","streetKana":"ﾅｶﾊﾗﾁｮｳ","prefecture":"長崎県","city":"佐世保市","street":"中原町"},{"zipCode":"8593215","prefectureKana":"ﾅｶﾞｻｷｹﾝ","cityKana":"ｻｾﾎﾞｼ","streetKana":"ﾊｲｷ","prefecture":"長崎県","city":"佐世保市","street":"早岐"},{"zipCode":"8593243","prefectureKana":"ﾅｶﾞｻｷｹﾝ","cityKana":"ｻｾﾎﾞｼ","streetKana":"ﾊｳｽﾃﾝﾎﾞｽﾏﾁ","prefecture":"長崎県","city":"佐世保市","street":"ハウステンボス町"},{"zipCode":"8593236","prefectureKana":"ﾅｶﾞｻｷｹﾝ","cityKana":"ｻｾﾎﾞｼ","streetKana":"ﾊｴﾉｻｷﾁｮｳ","prefecture":"長崎県","city":"佐世保市","street":"南風崎町"},{"zipCode":"8593232","prefectureKana":"ﾅｶﾞｻｷｹﾝ","cityKana":"ｻｾﾎﾞｼ","streetKana":"ﾊｷﾞｻｶﾁｮｳ","prefecture":"長崎県","city":"佐世保市","street":"萩坂町"},{"zipCode":"8593212","prefectureKana":"ﾅｶﾞｻｷｹﾝ","cityKana":"ｻｾﾎﾞｼ","streetKana":"ﾊﾅﾀｶ","prefecture":"長崎県","city":"佐世保市","street":"花高"},{"zipCode":"8593454","prefectureKana":"ﾅｶﾞｻｷｹﾝ","cityKana":"ｻｾﾎﾞｼ","streetKana":"ﾊﾘｵｷﾀﾏﾁ","prefecture":"長崎県","city":"佐世保市","street":"針尾北町"},{"zipCode":"8593452","prefectureKana":"ﾅｶﾞｻｷｹﾝ","cityKana":"ｻｾﾎﾞｼ","streetKana":"ﾊﾘｵﾅｶﾏﾁ","prefecture":"長崎県","city":"佐世保市","street":"針尾中町"},{"zipCode":"8593453","prefectureKana":"ﾅｶﾞｻｷｹﾝ","cityKana":"ｻｾﾎﾞｼ","streetKana":"ﾊﾘｵﾆｼﾏﾁ","prefecture":"長崎県","city":"佐世保市","street":"針尾西町"},{"zipCode":"8593451","prefectureKana":"ﾅｶﾞｻｷｹﾝ","cityKana":"ｻｾﾎﾞｼ","streetKana":"ﾊﾘｵﾋｶﾞｼﾏﾁ","prefecture":"長崎県","city":"佐世保市","street":"針尾東町"},{"zipCode":"8593201","prefectureKana":"ﾅｶﾞｻｷｹﾝ","cityKana":"ｻｾﾎﾞｼ","streetKana":"ﾋﾗﾏﾂﾁｮｳ","prefecture":"長崎県","city":"佐世保市","street":"平松町"},{"zipCode":"8593223","prefectureKana":"ﾅｶﾞｻｷｹﾝ","cityKana":"ｻｾﾎﾞｼ","streetKana":"ﾋﾛﾀ","prefecture":"長崎県","city":"佐世保市","street":"広田"},{"zipCode":"8593222","prefectureKana":"ﾅｶﾞｻｷｹﾝ","cityKana":"ｻｾﾎﾞｼ","streetKana":"ﾋﾛﾀﾞﾁｮｳ","prefecture":"長崎県","city":"佐世保市","street":"広田町"},{"zipCode":"8593153","prefectureKana":"ﾅｶﾞｻｷｹﾝ","cityKana":"ｻｾﾎﾞｼ","streetKana":"ﾐｶﾜﾁｼﾝﾏﾁ","prefecture":"長崎県","city":"佐世保市","street":"三川内新町"},{"zipCode":"8593155","prefectureKana":"ﾅｶﾞｻｷｹﾝ","cityKana":"ｻｾﾎﾞｼ","streetKana":"ﾐｶﾜﾁﾁｮｳ","prefecture":"長崎県","city":"佐世保市","street":"三川内町"},{"zipCode":"8593151","prefectureKana":"ﾅｶﾞｻｷｹﾝ","cityKana":"ｻｾﾎﾞｼ","streetKana":"ﾐｶﾜﾁﾎﾝﾏﾁ","prefecture":"長崎県","city":"佐世保市","street":"三川内本町"},{"zipCode":"8593235","prefectureKana":"ﾅｶﾞｻｷｹﾝ","cityKana":"ｻｾﾎﾞｼ","streetKana":"ﾐﾔﾂﾞﾁｮｳ","prefecture":"長崎県","city":"佐世保市","street":"宮津町"},{"zipCode":"8593163","prefectureKana":"ﾅｶﾞｻｷｹﾝ","cityKana":"ｻｾﾎﾞｼ","streetKana":"ﾖｺﾃﾁｮｳ","prefecture":"長崎県","city":"佐世保市","street":"横手町"},{"zipCode":"8596303","prefectureKana":"ﾅｶﾞｻｷｹﾝ","cityKana":"ｻｾﾎﾞｼ","streetKana":"ﾖｼｲﾁｮｳｲﾀﾋﾞ","prefecture":"長崎県","city":"佐世保市","street":"吉井町板樋"},{"zipCode":"8596325","prefectureKana":"ﾅｶﾞｻｷｹﾝ","cityKana":"ｻｾﾎﾞｼ","streetKana":"ﾖｼｲﾁｮｳｵｵﾜﾀﾘ","prefecture":"長崎県","city":"佐世保市","street":"吉井町大渡"},{"zipCode":"8596316","prefectureKana":"ﾅｶﾞｻｷｹﾝ","cityKana":"ｻｾﾎﾞｼ","streetKana":"ﾖｼｲﾁｮｳｵﾂｲｼｵ","prefecture":"長崎県","city":"佐世保市","street":"吉井町乙石尾"},{"zipCode":"8596322","prefectureKana":"ﾅｶﾞｻｷｹﾝ","cityKana":"ｻｾﾎﾞｼ","streetKana":"ﾖｼｲﾁｮｳｵﾄﾞﾘｾﾞ","prefecture":"長崎県","city":"佐世保市","street":"吉井町踊瀬"},{"zipCode":"8596304","prefectureKana":"ﾅｶﾞｻｷｹﾝ","cityKana":"ｻｾﾎﾞｼ","streetKana":"ﾖｼｲﾁｮｳｶｼﾞｺﾊﾞ","prefecture":"長崎県","city":"佐世保市","street":"吉井町梶木場"},{"zipCode":"8596313","prefectureKana":"ﾅｶﾞｻｷｹﾝ","cityKana":"ｻｾﾎﾞｼ","streetKana":"ﾖｼｲﾁｮｳｶﾐﾖｼﾀﾞ","prefecture":"長崎県","city":"佐世保市","street":"吉井町上吉田"},{"zipCode":"8596315","prefectureKana":"ﾅｶﾞｻｷｹﾝ","cityKana":"ｻｾﾎﾞｼ","streetKana":"ﾖｼｲﾁｮｳｼﾓﾊﾞﾙ","prefecture":"長崎県","city":"佐世保市","street":"吉井町下原"},{"zipCode":"8596301","prefectureKana":"ﾅｶﾞｻｷｹﾝ","cityKana":"ｻｾﾎﾞｼ","streetKana":"ﾖｼｲﾁｮｳｿｳﾉｵ","prefecture":"長崎県","city":"佐世保市","street":"吉井町草ノ尾"},{"zipCode":"8596317","prefectureKana":"ﾅｶﾞｻｷｹﾝ","cityKana":"ｻｾﾎﾞｼ","streetKana":"ﾖｼｲﾁｮｳﾀｶﾐﾈ","prefecture":"長崎県","city":"佐世保市","street":"吉井町高峰"},{"zipCode":"8596326","prefectureKana":"ﾅｶﾞｻｷｹﾝ","cityKana":"ｻｾﾎﾞｼ","streetKana":"ﾖｼｲﾁｮｳﾀﾃｲｼ","prefecture":"長崎県","city":"佐世保市","street":"吉井町立石"},{"zipCode":"8596314","prefectureKana":"ﾅｶﾞｻｷｹﾝ","cityKana":"ｻｾﾎﾞｼ","streetKana":"ﾖｼｲﾁｮｳﾀﾊﾞﾙ","prefecture":"長崎県","city":"佐世保市","street":"吉井町田原"},{"zipCode":"8596305","prefectureKana":"ﾅｶﾞｻｷｹﾝ","cityKana":"ｻｾﾎﾞｼ","streetKana":"ﾖｼｲﾁｮｳﾅｵﾔ","prefecture":"長崎県","city":"佐世保市","street":"吉井町直谷"},{"zipCode":"8596311","prefectureKana":"ﾅｶﾞｻｷｹﾝ","cityKana":"ｻｾﾎﾞｼ","streetKana":"ﾖｼｲﾁｮｳﾊｼｶﾜﾁ","prefecture":"長崎県","city":"佐世保市","street":"吉井町橋川内"},{"zipCode":"8596312","prefectureKana":"ﾅｶﾞｻｷｹﾝ","cityKana":"ｻｾﾎﾞｼ","streetKana":"ﾖｼｲﾁｮｳﾊｼｸﾞﾁ","prefecture":"長崎県","city":"佐世保市","street":"吉井町橋口"},{"zipCode":"8596323","prefectureKana":"ﾅｶﾞｻｷｹﾝ","cityKana":"ｻｾﾎﾞｼ","streetKana":"ﾖｼｲﾁｮｳﾊﾙｱｹ","prefecture":"長崎県","city":"佐世保市","street":"吉井町春明"},{"zipCode":"8596302","prefectureKana":"ﾅｶﾞｻｷｹﾝ","cityKana":"ｻｾﾎﾞｼ","streetKana":"ﾖｼｲﾁｮｳﾌｸｲ","prefecture":"長崎県","city":"佐世保市","street":"吉井町福井"},{"zipCode":"8596321","prefectureKana":"ﾅｶﾞｻｷｹﾝ","cityKana":"ｻｾﾎﾞｼ","streetKana":"ﾖｼｲﾁｮｳﾏｴﾀﾞｹ","prefecture":"長崎県","city":"佐世保市","street":"吉井町前岳"},{"zipCode":"8596324","prefectureKana":"ﾅｶﾞｻｷｹﾝ","cityKana":"ｻｾﾎﾞｼ","streetKana":"ﾖｼｲﾁｮｳﾖｼﾓﾄ","prefecture":"長崎県","city":"佐世保市","street":"吉井町吉元"},{"zipCode":"8593162","prefectureKana":"ﾅｶﾞｻｷｹﾝ","cityKana":"ｻｾﾎﾞｼ","streetKana":"ﾖｼﾌｸﾁｮｳ","prefecture":"長崎県","city":"佐世保市","street":"吉福町"},{"zipCode":"8593204","prefectureKana":"ﾅｶﾞｻｷｹﾝ","cityKana":"ｻｾﾎﾞｼ","streetKana":"ﾜｶﾀｹﾀﾞｲﾏﾁ","prefecture":"長崎県","city":"佐世保市","street":"若竹台町"},{"zipCode":"8591412","prefectureKana":"ﾅｶﾞｻｷｹﾝ","cityKana":"ｼﾏﾊﾞﾗｼ","streetKana":"ｱﾘｱｹﾁｮｳｵｵﾐｻｷｵﾂ","prefecture":"長崎県","city":"島原市","street":"有明町大三東乙"},{"zipCode":"8591411","prefectureKana":"ﾅｶﾞｻｷｹﾝ","cityKana":"ｼﾏﾊﾞﾗｼ","streetKana":"ｱﾘｱｹﾁｮｳｵｵﾐｻｷｺｳ","prefecture":"長崎県","city":"島原市","street":"有明町大三東甲"},{"zipCode":"8591414","prefectureKana":"ﾅｶﾞｻｷｹﾝ","cityKana":"ｼﾏﾊﾞﾗｼ","streetKana":"ｱﾘｱｹﾁｮｳｵｵﾐｻｷﾃｲ","prefecture":"長崎県","city":"島原市","street":"有明町大三東丁"},{"zipCode":"8591413","prefectureKana":"ﾅｶﾞｻｷｹﾝ","cityKana":"ｼﾏﾊﾞﾗｼ","streetKana":"ｱﾘｱｹﾁｮｳｵｵﾐｻｷﾍｲ","prefecture":"長崎県","city":"島原市","street":"有明町大三東丙"},{"zipCode":"8591415","prefectureKana":"ﾅｶﾞｻｷｹﾝ","cityKana":"ｼﾏﾊﾞﾗｼ","streetKana":"ｱﾘｱｹﾁｮｳｵｵﾐｻｷﾎﾞ","prefecture":"長崎県","city":"島原市","street":"有明町大三東戊"},{"zipCode":"8591402","prefectureKana":"ﾅｶﾞｻｷｹﾝ","cityKana":"ｼﾏﾊﾞﾗｼ","streetKana":"ｱﾘｱｹﾁｮｳﾕｴｵﾂ","prefecture":"長崎県","city":"島原市","street":"有明町湯江乙"},{"zipCode":"8591401","prefectureKana":"ﾅｶﾞｻｷｹﾝ","cityKana":"ｼﾏﾊﾞﾗｼ","streetKana":"ｱﾘｱｹﾁｮｳﾕｴｺｳ","prefecture":"長崎県","city":"島原市","street":"有明町湯江甲"},{"zipCode":"8591404","prefectureKana":"ﾅｶﾞｻｷｹﾝ","cityKana":"ｼﾏﾊﾞﾗｼ","streetKana":"ｱﾘｱｹﾁｮｳﾕｴﾃｲ","prefecture":"長崎県","city":"島原市","street":"有明町湯江丁"},{"zipCode":"8591403","prefectureKana":"ﾅｶﾞｻｷｹﾝ","cityKana":"ｼﾏﾊﾞﾗｼ","streetKana":"ｱﾘｱｹﾁｮｳﾕｴﾍｲ","prefecture":"長崎県","city":"島原市","street":"有明町湯江丙"},{"zipCode":"8590311","prefectureKana":"ﾅｶﾞｻｷｹﾝ","cityKana":"ｲｻﾊﾔｼ","streetKana":"ｱｽﾞｷｻｷﾏﾁ","prefecture":"長崎県","city":"諫早市","street":"小豆崎町"},{"zipCode":"8590315","prefectureKana":"ﾅｶﾞｻｷｹﾝ","cityKana":"ｲｻﾊﾔｼ","streetKana":"ｵｵﾊﾞﾏﾁ","prefecture":"長崎県","city":"諫早市","street":"大場町"},{"zipCode":"8590314","prefectureKana":"ﾅｶﾞｻｷｹﾝ","cityKana":"ｲｻﾊﾔｼ","streetKana":"ｵﾁｮｳｽﾞﾏﾁ","prefecture":"長崎県","city":"諫早市","street":"御手水町"},{"zipCode":"8590303","prefectureKana":"ﾅｶﾞｻｷｹﾝ","cityKana":"ｲｻﾊﾔｼ","streetKana":"ｺｳﾃﾝﾏﾁ","prefecture":"長崎県","city":"諫早市","street":"高天町"},{"zipCode":"8590166","prefectureKana":"ﾅｶﾞｻｷｹﾝ","cityKana":"ｲｻﾊﾔｼ","streetKana":"ｺﾅｶﾞｲﾁｮｳｲｻﾞｷ","prefecture":"長崎県","city":"諫早市","street":"小長井町井崎"},{"zipCode":"8590151","prefectureKana":"ﾅｶﾞｻｷｹﾝ","cityKana":"ｲｻﾊﾔｼ","streetKana":"ｺﾅｶﾞｲﾁｮｳｳﾁｺｼ","prefecture":"長崎県","city":"諫早市","street":"小長井町打越"},{"zipCode":"8590152","prefectureKana":"ﾅｶﾞｻｷｹﾝ","cityKana":"ｲｻﾊﾔｼ","streetKana":"ｺﾅｶﾞｲﾁｮｳｵｵｶﾞﾗﾐ","prefecture":"長崎県","city":"諫早市","street":"小長井町大搦"},{"zipCode":"8590153","prefectureKana":"ﾅｶﾞｻｷｹﾝ","cityKana":"ｲｻﾊﾔｼ","streetKana":"ｺﾅｶﾞｲﾁｮｳｵｵﾐﾈ","prefecture":"長崎県","city":"諫早市","street":"小長井町大峰"},{"zipCode":"8590165","prefectureKana":"ﾅｶﾞｻｷｹﾝ","cityKana":"ｲｻﾊﾔｼ","streetKana":"ｺﾅｶﾞｲﾁｮｳｵｶﾞﾜﾊﾗｳﾗ","prefecture":"長崎県","city":"諫早市","street":"小長井町小川原浦"},{"zipCode":"8590154","prefectureKana":"ﾅｶﾞｻｷｹﾝ","cityKana":"ｲｻﾊﾔｼ","streetKana":"ｺﾅｶﾞｲﾁｮｳｺｳﾁ","prefecture":"長崎県","city":"諫早市","street":"小長井町川内"},{"zipCode":"8590161","prefectureKana":"ﾅｶﾞｻｷｹﾝ","cityKana":"ｲｻﾊﾔｼ","streetKana":"ｺﾅｶﾞｲﾁｮｳｺﾊﾞ","prefecture":"長崎県","city":"諫早市","street":"小長井町古場"},{"zipCode":"8590162","prefectureKana":"ﾅｶﾞｻｷｹﾝ","cityKana":"ｲｻﾊﾔｼ","streetKana":"ｺﾅｶﾞｲﾁｮｳｼﾝﾀﾊﾞﾙ","prefecture":"長崎県","city":"諫早市","street":"小長井町新田原"},{"zipCode":"8590163","prefectureKana":"ﾅｶﾞｻｷｹﾝ","cityKana":"ｲｻﾊﾔｼ","streetKana":"ｺﾅｶﾞｲﾁｮｳﾀﾊﾞﾙ","prefecture":"長崎県","city":"諫早市","street":"小長井町田原"},{"zipCode":"8590167","prefectureKana":"ﾅｶﾞｻｷｹﾝ","cityKana":"ｲｻﾊﾔｼ","streetKana":"ｺﾅｶﾞｲﾁｮｳﾄｵﾀﾞｹ","prefecture":"長崎県","city":"諫早市","street":"小長井町遠竹"},{"zipCode":"8590164","prefectureKana":"ﾅｶﾞｻｷｹﾝ","cityKana":"ｲｻﾊﾔｼ","streetKana":"ｺﾅｶﾞｲﾁｮｳﾏｷ","prefecture":"長崎県","city":"諫早市","street":"小長井町牧"},{"zipCode":"8590305","prefectureKana":"ﾅｶﾞｻｷｹﾝ","cityKana":"ｲｻﾊﾔｼ","streetKana":"ｻﾙｻﾞｷﾏﾁ","prefecture":"長崎県","city":"諫早市","street":"猿崎町"},{"zipCode":"8590302","prefectureKana":"ﾅｶﾞｻｷｹﾝ","cityKana":"ｲｻﾊﾔｼ","streetKana":"ｼｮｳｷｭｳｼﾞﾏﾁ","prefecture":"長崎県","city":"諫早市","street":"正久寺町"},{"zipCode":"8590307","prefectureKana":"ﾅｶﾞｻｷｹﾝ","cityKana":"ｲｻﾊﾔｼ","streetKana":"ｼﾗｷﾐﾈﾏﾁ","prefecture":"長崎県","city":"諫早市","street":"白木峰町"},{"zipCode":"8590304","prefectureKana":"ﾅｶﾞｻｷｹﾝ","cityKana":"ｲｻﾊﾔｼ","streetKana":"ｼﾗﾊﾏﾏﾁ","prefecture":"長崎県","city":"諫早市","street":"白浜町"},{"zipCode":"8590306","prefectureKana":"ﾅｶﾞｻｷｹﾝ","cityKana":"ｲｻﾊﾔｼ","streetKana":"ｼﾗﾊﾗﾏﾁ","prefecture":"長崎県","city":"諫早市","street":"白原町"},{"zipCode":"8590121","prefectureKana":"ﾅｶﾞｻｷｹﾝ","cityKana":"ｲｻﾊﾔｼ","streetKana":"ﾀｶｷﾁｮｳｲｽﾞﾐ","prefecture":"長崎県","city":"諫早市","street":"高来町泉"},{"zipCode":"8590111","prefectureKana":"ﾅｶﾞｻｷｹﾝ","cityKana":"ｲｻﾊﾔｼ","streetKana":"ﾀｶｷﾁｮｳｳﾜｸﾞﾐ","prefecture":"長崎県","city":"諫早市","street":"高来町上与"},{"zipCode":"8590171","prefectureKana":"ﾅｶﾞｻｷｹﾝ","cityKana":"ｲｻﾊﾔｼ","streetKana":"ﾀｶｷﾁｮｳｵｴｶﾝﾀｸ","prefecture":"長崎県","city":"諫早市","street":"高来町小江干拓"},{"zipCode":"8590101","prefectureKana":"ﾅｶﾞｻｷｹﾝ","cityKana":"ｲｻﾊﾔｼ","streetKana":"ﾀｶｷﾁｮｳｵｵﾄ","prefecture":"長崎県","city":"諫早市","street":"高来町大戸"},{"zipCode":"8590102","prefectureKana":"ﾅｶﾞｻｷｹﾝ","cityKana":"ｲｻﾊﾔｼ","streetKana":"ﾀｶｷﾁｮｳｵﾘﾔﾏ","prefecture":"長崎県","city":"諫早市","street":"高来町折山"},{"zipCode":"8590146","prefectureKana":"ﾅｶﾞｻｷｹﾝ","cityKana":"ｲｻﾊﾔｼ","streetKana":"ﾀｶｷﾁｮｳｶﾅｻｷ","prefecture":"長崎県","city":"諫早市","street":"高来町金崎"},{"zipCode":"8590141","prefectureKana":"ﾅｶﾞｻｷｹﾝ","cityKana":"ｲｻﾊﾔｼ","streetKana":"ﾀｶｷﾁｮｳｸﾐｽﾞ","prefecture":"長崎県","city":"諫早市","street":"高来町汲水"},{"zipCode":"8590122","prefectureKana":"ﾅｶﾞｻｷｹﾝ","cityKana":"ｲｻﾊﾔｼ","streetKana":"ﾀｶｷﾁｮｳｸﾛｻｷ","prefecture":"長崎県","city":"諫早市","street":"高来町黒崎"},{"zipCode":"8590142","prefectureKana":"ﾅｶﾞｻｷｹﾝ","cityKana":"ｲｻﾊﾔｼ","streetKana":"ﾀｶｷﾁｮｳｸﾛﾆﾀ","prefecture":"長崎県","city":"諫早市","street":"高来町黒新田"},{"zipCode":"8590131","prefectureKana":"ﾅｶﾞｻｷｹﾝ","cityKana":"ｲｻﾊﾔｼ","streetKana":"ﾀｶｷﾁｮｳｺｳﾂﾞｸﾗ","prefecture":"長崎県","city":"諫早市","street":"高来町神津倉"},{"zipCode":"8590103","prefectureKana":"ﾅｶﾞｻｷｹﾝ","cityKana":"ｲｻﾊﾔｼ","streetKana":"ﾀｶｷﾁｮｳｺﾊﾞ","prefecture":"長崎県","city":"諫早市","street":"高来町古場"},{"zipCode":"8590112","prefectureKana":"ﾅｶﾞｻｷｹﾝ","cityKana":"ｲｻﾊﾔｼ","streetKana":"ﾀｶｷﾁｮｳｺﾌﾞﾅﾂ","prefecture":"長崎県","city":"諫早市","street":"高来町小船津"},{"zipCode":"8590123","prefectureKana":"ﾅｶﾞｻｷｹﾝ","cityKana":"ｲｻﾊﾔｼ","streetKana":"ﾀｶｷﾁｮｳｺﾐﾈ","prefecture":"長崎県","city":"諫早市","street":"高来町小峰"},{"zipCode":"8590143","prefectureKana":"ﾅｶﾞｻｷｹﾝ","cityKana":"ｲｻﾊﾔｼ","streetKana":"ﾀｶｷﾁｮｳｻｶﾓﾄ","prefecture":"長崎県","city":"諫早市","street":"高来町坂元"},{"zipCode":"8590124","prefectureKana":"ﾅｶﾞｻｷｹﾝ","cityKana":"ｲｻﾊﾔｼ","streetKana":"ﾀｶｷﾁｮｳｻﾄ","prefecture":"長崎県","city":"諫早市","street":"高来町里"},{"zipCode":"8590132","prefectureKana":"ﾅｶﾞｻｷｹﾝ","cityKana":"ｲｻﾊﾔｼ","streetKana":"ﾀｶｷﾁｮｳｻﾝﾌﾞｲﾁ","prefecture":"長崎県","city":"諫早市","street":"高来町三部壱"},{"zipCode":"8590113","prefectureKana":"ﾅｶﾞｻｷｹﾝ","cityKana":"ｲｻﾊﾔｼ","streetKana":"ﾀｶｷﾁｮｳｼﾀｸﾞﾐ","prefecture":"長崎県","city":"諫早市","street":"高来町下与"},{"zipCode":"8590125","prefectureKana":"ﾅｶﾞｻｷｹﾝ","cityKana":"ｲｻﾊﾔｼ","streetKana":"ﾀｶｷﾁｮｳｾﾞﾝｼﾞｭｳｼﾞ","prefecture":"長崎県","city":"諫早市","street":"高来町善住寺"},{"zipCode":"8590104","prefectureKana":"ﾅｶﾞｻｷｹﾝ","cityKana":"ｲｻﾊﾔｼ","streetKana":"ﾀｶｷﾁｮｳﾀﾁﾔﾏ","prefecture":"長崎県","city":"諫早市","street":"高来町建山"},{"zipCode":"8590115","prefectureKana":"ﾅｶﾞｻｷｹﾝ","cityKana":"ｲｻﾊﾔｼ","streetKana":"ﾀｶｷﾁｮｳﾆｼﾉｵ","prefecture":"長崎県","city":"諫早市","street":"高来町西尾"},{"zipCode":"8590114","prefectureKana":"ﾅｶﾞｻｷｹﾝ","cityKana":"ｲｻﾊﾔｼ","streetKana":"ﾀｶｷﾁｮｳﾆｼﾋﾗﾊﾞﾙ","prefecture":"長崎県","city":"諫早市","street":"高来町西平原"},{"zipCode":"8590126","prefectureKana":"ﾅｶﾞｻｷｹﾝ","cityKana":"ｲｻﾊﾔｼ","streetKana":"ﾀｶｷﾁｮｳﾉﾘｶﾞﾜ","prefecture":"長崎県","city":"諫早市","street":"高来町法川"},{"zipCode":"8590133","prefectureKana":"ﾅｶﾞｻｷｹﾝ","cityKana":"ｲｻﾊﾔｼ","streetKana":"ﾀｶｷﾁｮｳﾋｶﾞｼﾋﾗﾊﾞﾙ","prefecture":"長崎県","city":"諫早市","street":"高来町東平原"},{"zipCode":"8590116","prefectureKana":"ﾅｶﾞｻｷｹﾝ","cityKana":"ｲｻﾊﾔｼ","streetKana":"ﾀｶｷﾁｮｳﾋﾗﾀ","prefecture":"長崎県","city":"諫早市","street":"高来町平田"},{"zipCode":"8590106","prefectureKana":"ﾅｶﾞｻｷｹﾝ","cityKana":"ｲｻﾊﾔｼ","streetKana":"ﾀｶｷﾁｮｳﾌｼﾞﾄ","prefecture":"長崎県","city":"諫早市","street":"高来町冨地戸"},{"zipCode":"8590105","prefectureKana":"ﾅｶﾞｻｷｹﾝ","cityKana":"ｲｻﾊﾔｼ","streetKana":"ﾀｶｷﾁｮｳﾌﾅﾂ","prefecture":"長崎県","city":"諫早市","street":"高来町船津"},{"zipCode":"8590127","prefectureKana":"ﾅｶﾞｻｷｹﾝ","cityKana":"ｲｻﾊﾔｼ","streetKana":"ﾀｶｷﾁｮｳﾏﾁﾐｮｳ","prefecture":"長崎県","city":"諫早市","street":"高来町町名"},{"zipCode":"8590147","prefectureKana":"ﾅｶﾞｻｷｹﾝ","cityKana":"ｲｻﾊﾔｼ","streetKana":"ﾀｶｷﾁｮｳﾐｽﾞﾉｳﾗ","prefecture":"長崎県","city":"諫早市","street":"高来町水ノ浦"},{"zipCode":"8590144","prefectureKana":"ﾅｶﾞｻｷｹﾝ","cityKana":"ｲｻﾊﾔｼ","streetKana":"ﾀｶｷﾁｮｳﾐｿﾞｸﾞﾁ","prefecture":"長崎県","city":"諫早市","street":"高来町溝口"},{"zipCode":"8590117","prefectureKana":"ﾅｶﾞｻｷｹﾝ","cityKana":"ｲｻﾊﾔｼ","streetKana":"ﾀｶｷﾁｮｳﾐﾈ","prefecture":"長崎県","city":"諫早市","street":"高来町峰"},{"zipCode":"8590145","prefectureKana":"ﾅｶﾞｻｷｹﾝ","cityKana":"ｲｻﾊﾔｼ","streetKana":"ﾀｶｷﾁｮｳﾔﾏﾐﾁ","prefecture":"長崎県","city":"諫早市","street":"高来町山道"},{"zipCode":"8590403","prefectureKana":"ﾅｶﾞｻｷｹﾝ","cityKana":"ｲｻﾊﾔｼ","streetKana":"ﾀﾗﾐﾁｮｳｲﾁﾇﾉ","prefecture":"長崎県","city":"諫早市","street":"多良見町市布"},{"zipCode":"8590402","prefectureKana":"ﾅｶﾞｻｷｹﾝ","cityKana":"ｲｻﾊﾔｼ","streetKana":"ﾀﾗﾐﾁｮｳｶｺｲ","prefecture":"長崎県","city":"諫早市","street":"多良見町囲"},{"zipCode":"8590406","prefectureKana":"ﾅｶﾞｻｷｹﾝ","cityKana":"ｲｻﾊﾔｼ","streetKana":"ﾀﾗﾐﾁｮｳｷﾄﾞｺ","prefecture":"長崎県","city":"諫早市","street":"多良見町木床"},{"zipCode":"8590401","prefectureKana":"ﾅｶﾞｻｷｹﾝ","cityKana":"ｲｻﾊﾔｼ","streetKana":"ﾀﾗﾐﾁｮｳｹﾔ","prefecture":"長崎県","city":"諫早市","street":"多良見町化屋"},{"zipCode":"8590418","prefectureKana":"ﾅｶﾞｻｷｹﾝ","cityKana":"ｲｻﾊﾔｼ","streetKana":"ﾀﾗﾐﾁｮｳｻｾ","prefecture":"長崎県","city":"諫早市","street":"多良見町佐瀬"},{"zipCode":"8590407","prefectureKana":"ﾅｶﾞｻｷｹﾝ","cityKana":"ｲｻﾊﾔｼ","streetKana":"ﾀﾗﾐﾁｮｳｼｰｻｲﾄﾞ","prefecture":"長崎県","city":"諫早市","street":"多良見町シーサイド"},{"zipCode":"8590405","prefectureKana":"ﾅｶﾞｻｷｹﾝ","cityKana":"ｲｻﾊﾔｼ","streetKana":"ﾀﾗﾐﾁｮｳﾅｶｻﾞﾄ","prefecture":"長崎県","city":"諫早市","street":"多良見町中里"},{"zipCode":"8590404","prefectureKana":"ﾅｶﾞｻｷｹﾝ","cityKana":"ｲｻﾊﾔｼ","streetKana":"ﾀﾗﾐﾁｮｳﾆｼｶﾜｳﾁ","prefecture":"長崎県","city":"諫早市","street":"多良見町西川内"},{"zipCode":"8590412","prefectureKana":"ﾅｶﾞｻｷｹﾝ","cityKana":"ｲｻﾊﾔｼ","streetKana":"ﾀﾗﾐﾁｮｳﾆｼｿﾞﾉ","prefecture":"長崎県","city":"諫早市","street":"多良見町西園"},{"zipCode":"8590416","prefectureKana":"ﾅｶﾞｻｷｹﾝ","cityKana":"ｲｻﾊﾔｼ","streetKana":"ﾀﾗﾐﾁｮｳﾉｶﾞﾜｳﾁ","prefecture":"長崎県","city":"諫早市","street":"多良見町野川内"},{"zipCode":"8590413","prefectureKana":"ﾅｶﾞｻｷｹﾝ","cityKana":"ｲｻﾊﾔｼ","streetKana":"ﾀﾗﾐﾁｮｳﾉｿﾞｴ","prefecture":"長崎県","city":"諫早市","street":"多良見町野副"},{"zipCode":"8590411","prefectureKana":"ﾅｶﾞｻｷｹﾝ","cityKana":"ｲｻﾊﾔｼ","streetKana":"ﾀﾗﾐﾁｮｳﾋｶﾞｼｿﾞﾉ","prefecture":"長崎県","city":"諫早市","street":"多良見町東園"},{"zipCode":"8590417","prefectureKana":"ﾅｶﾞｻｷｹﾝ","cityKana":"ｲｻﾊﾔｼ","streetKana":"ﾀﾗﾐﾁｮｳﾌﾅﾂ","prefecture":"長崎県","city":"諫早市","street":"多良見町舟津"},{"zipCode":"8590414","prefectureKana":"ﾅｶﾞｻｷｹﾝ","cityKana":"ｲｻﾊﾔｼ","streetKana":"ﾀﾗﾐﾁｮｳﾓﾄｶﾞﾏ","prefecture":"長崎県","city":"諫早市","street":"多良見町元釜"},{"zipCode":"8590415","prefectureKana":"ﾅｶﾞｻｷｹﾝ","cityKana":"ｲｻﾊﾔｼ","streetKana":"ﾀﾗﾐﾁｮｳﾔﾏｶﾞﾜｳﾁ","prefecture":"長崎県","city":"諫早市","street":"多良見町山川内"},{"zipCode":"8590313","prefectureKana":"ﾅｶﾞｻｷｹﾝ","cityKana":"ｲｻﾊﾔｼ","streetKana":"ﾅｶﾀﾞﾏﾁ","prefecture":"長崎県","city":"諫早市","street":"中田町"},{"zipCode":"8590301","prefectureKana":"ﾅｶﾞｻｷｹﾝ","cityKana":"ｲｻﾊﾔｼ","streetKana":"ﾅｶﾞﾀﾏﾁ","prefecture":"長崎県","city":"諫早市","street":"長田町"},{"zipCode":"8590312","prefectureKana":"ﾅｶﾞｻｷｹﾝ","cityKana":"ｲｻﾊﾔｼ","streetKana":"ﾆｼｻﾞﾄﾏﾁ","prefecture":"長崎県","city":"諫早市","street":"西里町"},{"zipCode":"8595100","prefectureKana":"ﾅｶﾞｻｷｹﾝ","cityKana":"ﾋﾗﾄﾞｼ","streetKana":"ｲｶﾆｹｲｻｲｶﾞﾅｲﾊﾞｱｲ","prefecture":"長崎県","city":"平戸市","street":"以下に掲載がない場合"},{"zipCode":"8595384","prefectureKana":"ﾅｶﾞｻｷｹﾝ","cityKana":"ﾋﾗﾄﾞｼ","streetKana":"ｱｶﾏﾂﾁｮｳ","prefecture":"長崎県","city":"平戸市","street":"赤松町"},{"zipCode":"8595122","prefectureKana":"ﾅｶﾞｻｷｹﾝ","cityKana":"ﾋﾗﾄﾞｼ","streetKana":"ｱｹﾉｶﾜﾁﾁｮｳ","prefecture":"長崎県","city":"平戸市","street":"明の川内町"},{"zipCode":"8595515","prefectureKana":"ﾅｶﾞｻｷｹﾝ","cityKana":"ﾋﾗﾄﾞｼ","streetKana":"ｱﾕｶﾜﾁｮｳ","prefecture":"長崎県","city":"平戸市","street":"鮎川町"},{"zipCode":"8595382","prefectureKana":"ﾅｶﾞｻｷｹﾝ","cityKana":"ﾋﾗﾄﾞｼ","streetKana":"ｲｲﾗﾁｮｳ","prefecture":"長崎県","city":"平戸市","street":"飯良町"},{"zipCode":"8595701","prefectureKana":"ﾅｶﾞｻｷｹﾝ","cityKana":"ﾋﾗﾄﾞｼ","streetKana":"ｲｷﾂｷﾁｮｳｲﾁﾌﾞ","prefecture":"長崎県","city":"平戸市","street":"生月町壱部"},{"zipCode":"8595702","prefectureKana":"ﾅｶﾞｻｷｹﾝ","cityKana":"ﾋﾗﾄﾞｼ","streetKana":"ｲｷﾂｷﾁｮｳｲﾁﾌﾞｳﾗ","prefecture":"長崎県","city":"平戸市","street":"生月町壱部浦"},{"zipCode":"8595703","prefectureKana":"ﾅｶﾞｻｷｹﾝ","cityKana":"ﾋﾗﾄﾞｼ","streetKana":"ｲｷﾂｷﾁｮｳｻﾄﾒﾝ","prefecture":"長崎県","city":"平戸市","street":"生月町里免"},{"zipCode":"8595705","prefectureKana":"ﾅｶﾞｻｷｹﾝ","cityKana":"ﾋﾗﾄﾞｼ","streetKana":"ｲｷﾂｷﾁｮｳﾀﾁｳﾗ","prefecture":"長崎県","city":"平戸市","street":"生月町舘浦"},{"zipCode":"8595707","prefectureKana":"ﾅｶﾞｻｷｹﾝ","cityKana":"ﾋﾗﾄﾞｼ","streetKana":"ｲｷﾂｷﾁｮｳﾐｻｷ","prefecture":"長崎県","city":"平戸市","street":"生月町御崎"},{"zipCode":"8595706","prefectureKana":"ﾅｶﾞｻｷｹﾝ","cityKana":"ﾋﾗﾄﾞｼ","streetKana":"ｲｷﾂｷﾁｮｳﾐﾅﾐﾒﾝ","prefecture":"長崎県","city":"平戸市","street":"生月町南免"},{"zipCode":"8595704","prefectureKana":"ﾅｶﾞｻｷｹﾝ","cityKana":"ﾋﾗﾄﾞｼ","streetKana":"ｲｷﾂｷﾁｮｳﾔﾏﾀﾞﾒﾝ","prefecture":"長崎県","city":"平戸市","street":"生月町山田免"},{"zipCode":"8595502","prefectureKana":"ﾅｶﾞｻｷｹﾝ","cityKana":"ﾋﾗﾄﾞｼ","streetKana":"ｲﾄﾔﾁｮｳ","prefecture":"長崎県","city":"平戸市","street":"猪渡谷町"},{"zipCode":"8595121","prefectureKana":"ﾅｶﾞｻｷｹﾝ","cityKana":"ﾋﾗﾄﾞｼ","streetKana":"ｲﾜﾉｳｴﾁｮｳ","prefecture":"長崎県","city":"平戸市","street":"岩の上町"},{"zipCode":"8595117","prefectureKana":"ﾅｶﾞｻｷｹﾝ","cityKana":"ﾋﾗﾄﾞｼ","streetKana":"ｳｵﾉﾀﾅﾁｮｳ","prefecture":"長崎県","city":"平戸市","street":"魚の棚町"},{"zipCode":"8595111","prefectureKana":"ﾅｶﾞｻｷｹﾝ","cityKana":"ﾋﾗﾄﾞｼ","streetKana":"ｳﾗﾉﾁｮｳ","prefecture":"長崎県","city":"平戸市","street":"浦の町"},{"zipCode":"8595376","prefectureKana":"ﾅｶﾞｻｷｹﾝ","cityKana":"ﾋﾗﾄﾞｼ","streetKana":"ｵｵｲｼﾜｷﾁｮｳ","prefecture":"長崎県","city":"平戸市","street":"大石脇町"},{"zipCode":"8595383","prefectureKana":"ﾅｶﾞｻｷｹﾝ","cityKana":"ﾋﾗﾄﾞｼ","streetKana":"ｵｵｶﾜﾗﾁｮｳ","prefecture":"長崎県","city":"平戸市","street":"大川原町"},{"zipCode":"8595102","prefectureKana":"ﾅｶﾞｻｷｹﾝ","cityKana":"ﾋﾗﾄﾞｼ","streetKana":"ｵｵｸﾎﾞﾁｮｳ","prefecture":"長崎県","city":"平戸市","street":"大久保町"},{"zipCode":"8595516","prefectureKana":"ﾅｶﾞｻｷｹﾝ","cityKana":"ﾋﾗﾄﾞｼ","streetKana":"ｵｵｻｼﾁｮｳ","prefecture":"長崎県","city":"平戸市","street":"大佐志町"},{"zipCode":"8595532","prefectureKana":"ﾅｶﾞｻｷｹﾝ","cityKana":"ﾋﾗﾄﾞｼ","streetKana":"ｵｵｼｼﾞｷﾁｮｳ","prefecture":"長崎県","city":"平戸市","street":"大志々伎町"},{"zipCode":"8595805","prefectureKana":"ﾅｶﾞｻｷｹﾝ","cityKana":"ﾋﾗﾄﾞｼ","streetKana":"ｵｵｼﾏﾑﾗｱﾂﾞﾁｶﾜﾁ","prefecture":"長崎県","city":"平戸市","street":"大島村的山川内"},{"zipCode":"8595806","prefectureKana":"ﾅｶﾞｻｷｹﾝ","cityKana":"ﾋﾗﾄﾞｼ","streetKana":"ｵｵｼﾏﾑﾗｱﾂﾞﾁﾄﾀﾞ","prefecture":"長崎県","city":"平戸市","street":"大島村的山戸田"},{"zipCode":"8595804","prefectureKana":"ﾅｶﾞｻｷｹﾝ","cityKana":"ﾋﾗﾄﾞｼ","streetKana":"ｵｵｼﾏﾑﾗｵｵﾈｻﾞｶ","prefecture":"長崎県","city":"平戸市","street":"大島村大根坂"},{"zipCode":"8595801","prefectureKana":"ﾅｶﾞｻｷｹﾝ","cityKana":"ﾋﾗﾄﾞｼ","streetKana":"ｵｵｼﾏﾑﾗｺｳﾉｳﾗ","prefecture":"長崎県","city":"平戸市","street":"大島村神浦"},{"zipCode":"8595803","prefectureKana":"ﾅｶﾞｻｷｹﾝ","cityKana":"ﾋﾗﾄﾞｼ","streetKana":"ｵｵｼﾏﾑﾗﾆｼｳﾄﾞ","prefecture":"長崎県","city":"平戸市","street":"大島村西宇戸"},{"zipCode":"8595802","prefectureKana":"ﾅｶﾞｻｷｹﾝ","cityKana":"ﾋﾗﾄﾞｼ","streetKana":"ｵｵｼﾏﾑﾗﾏｴﾋﾞﾗ","prefecture":"長崎県","city":"平戸市","street":"大島村前平"},{"zipCode":"8595123","prefectureKana":"ﾅｶﾞｻｷｹﾝ","cityKana":"ﾋﾗﾄﾞｼ","streetKana":"ｵｵﾉﾁｮｳ","prefecture":"長崎県","city":"平戸市","street":"大野町"},{"zipCode":"8595131","prefectureKana":"ﾅｶﾞｻｷｹﾝ","cityKana":"ﾋﾗﾄﾞｼ","streetKana":"ｵｵﾔﾏﾁｮｳ","prefecture":"長崎県","city":"平戸市","street":"大山町"},{"zipCode":"8595534","prefectureKana":"ﾅｶﾞｻｷｹﾝ","cityKana":"ﾋﾗﾄﾞｼ","streetKana":"ｵﾀﾞﾁｮｳ","prefecture":"長崎県","city":"平戸市","street":"小田町"},{"zipCode":"8595152","prefectureKana":"ﾅｶﾞｻｷｹﾝ","cityKana":"ﾋﾗﾄﾞｼ","streetKana":"ｶｶﾞﾐｶﾞﾜﾁｮｳ","prefecture":"長崎県","city":"平戸市","street":"鏡川町"},{"zipCode":"8595373","prefectureKana":"ﾅｶﾞｻｷｹﾝ","cityKana":"ﾋﾗﾄﾞｼ","streetKana":"ｶｽｶﾞﾁｮｳ","prefecture":"長崎県","city":"平戸市","street":"春日町"},{"zipCode":"8595524","prefectureKana":"ﾅｶﾞｻｷｹﾝ","cityKana":"ﾋﾗﾄﾞｼ","streetKana":"ｶﾐｱｹﾞﾁｮｳ","prefecture":"長崎県","city":"平戸市","street":"神上町"},{"zipCode":"8595503","prefectureKana":"ﾅｶﾞｻｷｹﾝ","cityKana":"ﾋﾗﾄﾞｼ","streetKana":"ｶﾐﾅｶﾂﾗﾁｮｳ","prefecture":"長崎県","city":"平戸市","street":"上中津良町"},{"zipCode":"8595132","prefectureKana":"ﾅｶﾞｻｷｹﾝ","cityKana":"ﾋﾗﾄﾞｼ","streetKana":"ｶﾜﾁﾁｮｳ","prefecture":"長崎県","city":"平戸市","street":"川内町"},{"zipCode":"8595362","prefectureKana":"ﾅｶﾞｻｷｹﾝ","cityKana":"ﾋﾗﾄﾞｼ","streetKana":"ｷｶﾞﾂﾁｮｳ","prefecture":"長崎県","city":"平戸市","street":"木ケ津町"},{"zipCode":"8595113","prefectureKana":"ﾅｶﾞｻｷｹﾝ","cityKana":"ﾋﾗﾄﾞｼ","streetKana":"ｷﾋｷﾀﾞﾁｮｳ","prefecture":"長崎県","city":"平戸市","street":"木引田町"},{"zipCode":"8595363","prefectureKana":"ﾅｶﾞｻｷｹﾝ","cityKana":"ﾋﾗﾄﾞｼ","streetKana":"ｸｻﾂﾞﾐﾁｮｳ","prefecture":"長崎県","city":"平戸市","street":"草積町"},{"zipCode":"8595522","prefectureKana":"ﾅｶﾞｻｷｹﾝ","cityKana":"ﾋﾗﾄﾞｼ","streetKana":"ｺｳﾉｶﾜﾁｮｳ","prefecture":"長崎県","city":"平戸市","street":"神ノ川町"},{"zipCode":"8595118","prefectureKana":"ﾅｶﾞｻｷｹﾝ","cityKana":"ﾋﾗﾄﾞｼ","streetKana":"ｺｳﾔﾏﾁ","prefecture":"長崎県","city":"平戸市","street":"紺屋町"},{"zipCode":"8595365","prefectureKana":"ﾅｶﾞｻｷｹﾝ","cityKana":"ﾋﾗﾄﾞｼ","streetKana":"ｺﾊﾞﾁｮｳ","prefecture":"長崎県","city":"平戸市","street":"木場町"},{"zipCode":"8595151","prefectureKana":"ﾅｶﾞｻｷｹﾝ","cityKana":"ﾋﾗﾄﾞｼ","streetKana":"ｺﾋｷﾁｮｳ","prefecture":"長崎県","city":"平戸市","street":"木引町"},{"zipCode":"8595104","prefectureKana":"ﾅｶﾞｻｷｹﾝ","cityKana":"ﾋﾗﾄﾞｼ","streetKana":"ｻｷｶﾞﾀﾁｮｳ","prefecture":"長崎県","city":"平戸市","street":"崎方町"},{"zipCode":"8595505","prefectureKana":"ﾅｶﾞｻｷｹﾝ","cityKana":"ﾋﾗﾄﾞｼ","streetKana":"ｼｷｻﾁｮｳ","prefecture":"長崎県","city":"平戸市","street":"敷佐町"},{"zipCode":"8595371","prefectureKana":"ﾅｶﾞｻｷｹﾝ","cityKana":"ﾋﾗﾄﾞｼ","streetKana":"ｼｼﾁｮｳ","prefecture":"長崎県","city":"平戸市","street":"獅子町"},{"zipCode":"8595533","prefectureKana":"ﾅｶﾞｻｷｹﾝ","cityKana":"ﾋﾗﾄﾞｼ","streetKana":"ｼｼﾞｷﾁｮｳ","prefecture":"長崎県","city":"平戸市","street":"志々伎町"},{"zipCode":"8595511","prefectureKana":"ﾅｶﾞｻｷｹﾝ","cityKana":"ﾋﾗﾄﾞｼ","streetKana":"ｼﾌﾞﾈﾁｮｳ","prefecture":"長崎県","city":"平戸市","street":"神船町"},{"zipCode":"8595504","prefectureKana":"ﾅｶﾞｻｷｹﾝ","cityKana":"ﾋﾗﾄﾞｼ","streetKana":"ｼﾓﾅｶﾂﾗﾁｮｳ","prefecture":"長崎県","city":"平戸市","street":"下中津良町"},{"zipCode":"8595144","prefectureKana":"ﾅｶﾞｻｷｹﾝ","cityKana":"ﾋﾗﾄﾞｼ","streetKana":"ｼﾓﾅｶﾉﾁｮｳ","prefecture":"長崎県","city":"平戸市","street":"下中野町"},{"zipCode":"8595142","prefectureKana":"ﾅｶﾞｻｷｹﾝ","cityKana":"ﾋﾗﾄﾞｼ","streetKana":"ｼｭｳｼﾁｮｳ","prefecture":"長崎県","city":"平戸市","street":"主師町"},{"zipCode":"8595116","prefectureKana":"ﾅｶﾞｻｷｹﾝ","cityKana":"ﾋﾗﾄﾞｼ","streetKana":"ｼｮｸﾆﾝﾁｮｳ","prefecture":"長崎県","city":"平戸市","street":"職人町"},{"zipCode":"8595115","prefectureKana":"ﾅｶﾞｻｷｹﾝ","cityKana":"ﾋﾗﾄﾞｼ","streetKana":"ｼﾝﾏﾁ","prefecture":"長崎県","city":"平戸市","street":"新町"},{"zipCode":"8595372","prefectureKana":"ﾅｶﾞｻｷｹﾝ","cityKana":"ﾋﾗﾄﾞｼ","streetKana":"ﾀｶｺﾞｴﾁｮｳ","prefecture":"長崎県","city":"平戸市","street":"高越町"},{"zipCode":"8595101","prefectureKana":"ﾅｶﾞｻｷｹﾝ","cityKana":"ﾋﾗﾄﾞｼ","streetKana":"ﾀｸｼﾏﾁｮｳ","prefecture":"長崎県","city":"平戸市","street":"度島町"},{"zipCode":"8595527","prefectureKana":"ﾅｶﾞｻｷｹﾝ","cityKana":"ﾋﾗﾄﾞｼ","streetKana":"ﾀｼﾛﾁｮｳ","prefecture":"長崎県","city":"平戸市","street":"田代町"},{"zipCode":"8595103","prefectureKana":"ﾅｶﾞｻｷｹﾝ","cityKana":"ﾋﾗﾄﾞｼ","streetKana":"ﾀｽｹﾁｮｳ","prefecture":"長崎県","city":"平戸市","street":"田助町"},{"zipCode":"8594822","prefectureKana":"ﾅｶﾞｻｷｹﾝ","cityKana":"ﾋﾗﾄﾞｼ","streetKana":"ﾀﾋﾞﾗﾁｮｳｲｯｾｷﾒﾝ","prefecture":"長崎県","city":"平戸市","street":"田平町一関免"},{"zipCode":"8594814","prefectureKana":"ﾅｶﾞｻｷｹﾝ","cityKana":"ﾋﾗﾄﾞｼ","streetKana":"ﾀﾋﾞﾗﾁｮｳｲﾖｼﾒﾝ","prefecture":"長崎県","city":"平戸市","street":"田平町以善免"},{"zipCode":"8594821","prefectureKana":"ﾅｶﾞｻｷｹﾝ","cityKana":"ﾋﾗﾄﾞｼ","streetKana":"ﾀﾋﾞﾗﾁｮｳｵｵｸﾎﾞﾒﾝ","prefecture":"長崎県","city":"平戸市","street":"田平町大久保免"},{"zipCode":"8594823","prefectureKana":"ﾅｶﾞｻｷｹﾝ","cityKana":"ﾋﾗﾄﾞｼ","streetKana":"ﾀﾋﾞﾗﾁｮｳｵｷﾞﾀﾒﾝ","prefecture":"長崎県","city":"平戸市","street":"田平町荻田免"},{"zipCode":"8594804","prefectureKana":"ﾅｶﾞｻｷｹﾝ","cityKana":"ﾋﾗﾄﾞｼ","streetKana":"ﾀﾋﾞﾗﾁｮｳｶﾐｶﾞﾒﾒﾝ","prefecture":"長崎県","city":"平戸市","street":"田平町上亀免"},{"zipCode":"8594803","prefectureKana":"ﾅｶﾞｻｷｹﾝ","cityKana":"ﾋﾗﾄﾞｼ","streetKana":"ﾀﾋﾞﾗﾁｮｳｺｻﾞｷﾒﾝ","prefecture":"長崎県","city":"平戸市","street":"田平町小崎免"},{"zipCode":"8594824","prefectureKana":"ﾅｶﾞｻｷｹﾝ","cityKana":"ﾋﾗﾄﾞｼ","streetKana":"ﾀﾋﾞﾗﾁｮｳｺﾃﾀﾞﾒﾝ","prefecture":"長崎県","city":"平戸市","street":"田平町小手田免"},{"zipCode":"8594807","prefectureKana":"ﾅｶﾞｻｷｹﾝ","cityKana":"ﾋﾗﾄﾞｼ","streetKana":"ﾀﾋﾞﾗﾁｮｳｻﾄﾒﾝ","prefecture":"長崎県","city":"平戸市","street":"田平町里免"},{"zipCode":"8594806","prefectureKana":"ﾅｶﾞｻｷｹﾝ","cityKana":"ﾋﾗﾄﾞｼ","streetKana":"ﾀﾋﾞﾗﾁｮｳｼﾓｶﾞﾒﾒﾝ","prefecture":"長崎県","city":"平戸市","street":"田平町下亀免"},{"zipCode":"8594815","prefectureKana":"ﾅｶﾞｻｷｹﾝ","cityKana":"ﾋﾗﾄﾞｼ","streetKana":"ﾀﾋﾞﾗﾁｮｳｼﾓﾃﾞﾗﾒﾝ","prefecture":"長崎県","city":"平戸市","street":"田平町下寺免"},{"zipCode":"8594801","prefectureKana":"ﾅｶﾞｻｷｹﾝ","cityKana":"ﾋﾗﾄﾞｼ","streetKana":"ﾀﾋﾞﾗﾁｮｳﾀｹｻﾞｷﾒﾝ","prefecture":"長崎県","city":"平戸市","street":"田平町岳崎免"},{"zipCode":"8594812","prefectureKana":"ﾅｶﾞｻｷｹﾝ","cityKana":"ﾋﾗﾄﾞｼ","streetKana":"ﾀﾋﾞﾗﾁｮｳﾀｼﾛﾒﾝ","prefecture":"長崎県","city":"平戸市","street":"田平町田代免"},{"zipCode":"8594826","prefectureKana":"ﾅｶﾞｻｷｹﾝ","cityKana":"ﾋﾗﾄﾞｼ","streetKana":"ﾀﾋﾞﾗﾁｮｳﾉﾀﾞﾒﾝ","prefecture":"長崎県","city":"平戸市","street":"田平町野田免"},{"zipCode":"8594813","prefectureKana":"ﾅｶﾞｻｷｹﾝ","cityKana":"ﾋﾗﾄﾞｼ","streetKana":"ﾀﾋﾞﾗﾁｮｳﾌｶﾂｷﾒﾝ","prefecture":"長崎県","city":"平戸市","street":"田平町深月免"},{"zipCode":"8594802","prefectureKana":"ﾅｶﾞｻｷｹﾝ","cityKana":"ﾋﾗﾄﾞｼ","streetKana":"ﾀﾋﾞﾗﾁｮｳﾌｸｻﾞｷﾒﾝ","prefecture":"長崎県","city":"平戸市","street":"田平町福崎免"},{"zipCode":"8594811","prefectureKana":"ﾅｶﾞｻｷｹﾝ","cityKana":"ﾋﾗﾄﾞｼ","streetKana":"ﾀﾋﾞﾗﾁｮｳﾌﾙｶｼﾞﾒﾝ","prefecture":"長崎県","city":"平戸市","street":"田平町古梶免"},{"zipCode":"8594805","prefectureKana":"ﾅｶﾞｻｷｹﾝ","cityKana":"ﾋﾗﾄﾞｼ","streetKana":"ﾀﾋﾞﾗﾁｮｳﾓﾄﾔﾏﾒﾝ","prefecture":"長崎県","city":"平戸市","street":"田平町本山免"},{"zipCode":"8594825","prefectureKana":"ﾅｶﾞｻｷｹﾝ","cityKana":"ﾋﾗﾄﾞｼ","streetKana":"ﾀﾋﾞﾗﾁｮｳﾔﾏｳﾁﾒﾝ","prefecture":"長崎県","city":"平戸市","street":"田平町山内免"},{"zipCode":"8594827","prefectureKana":"ﾅｶﾞｻｷｹﾝ","cityKana":"ﾋﾗﾄﾞｼ","streetKana":"ﾀﾋﾞﾗﾁｮｳﾖｺｼﾏﾒﾝ","prefecture":"長崎県","city":"平戸市","street":"田平町横島免"},{"zipCode":"8595114","prefectureKana":"ﾅｶﾞｻｷｹﾝ","cityKana":"ﾋﾗﾄﾞｼ","streetKana":"ﾂｷｼﾞﾁｮｳ","prefecture":"長崎県","city":"平戸市","street":"築地町"},{"zipCode":"8595513","prefectureKana":"ﾅｶﾞｻｷｹﾝ","cityKana":"ﾋﾗﾄﾞｼ","streetKana":"ﾂｼﾞﾁｮｳ","prefecture":"長崎県","city":"平戸市","street":"辻町"},{"zipCode":"8595501","prefectureKana":"ﾅｶﾞｻｷｹﾝ","cityKana":"ﾋﾗﾄﾞｼ","streetKana":"ﾂﾂﾐﾁｮｳ","prefecture":"長崎県","city":"平戸市","street":"堤町"},{"zipCode":"8595512","prefectureKana":"ﾅｶﾞｻｷｹﾝ","cityKana":"ﾋﾗﾄﾞｼ","streetKana":"ﾂﾖｼﾁｮｳ","prefecture":"長崎県","city":"平戸市","street":"津吉町"},{"zipCode":"8595153","prefectureKana":"ﾅｶﾞｻｷｹﾝ","cityKana":"ﾋﾗﾄﾞｼ","streetKana":"ﾄｲｼｶﾞﾜﾁｮｳ","prefecture":"長崎県","city":"平戸市","street":"戸石川町"},{"zipCode":"8595133","prefectureKana":"ﾅｶﾞｻｷｹﾝ","cityKana":"ﾋﾗﾄﾞｼ","streetKana":"ﾅｶﾉｵｵｸﾎﾞﾁｮｳ","prefecture":"長崎県","city":"平戸市","street":"中野大久保町"},{"zipCode":"8595526","prefectureKana":"ﾅｶﾞｻｷｹﾝ","cityKana":"ﾋﾗﾄﾞｼ","streetKana":"ﾆｼﾅｶﾔﾏﾁｮｳ","prefecture":"長崎県","city":"平戸市","street":"西中山町"},{"zipCode":"8595381","prefectureKana":"ﾅｶﾞｻｷｹﾝ","cityKana":"ﾋﾗﾄﾞｼ","streetKana":"ﾈｼｺﾁｮｳ","prefecture":"長崎県","city":"平戸市","street":"根獅子町"},{"zipCode":"8595535","prefectureKana":"ﾅｶﾞｻｷｹﾝ","cityKana":"ﾋﾗﾄﾞｼ","streetKana":"ﾉｺﾁｮｳ","prefecture":"長崎県","city":"平戸市","street":"野子町"},{"zipCode":"8595531","prefectureKana":"ﾅｶﾞｻｷｹﾝ","cityKana":"ﾋﾗﾄﾞｼ","streetKana":"ﾊｲﾌｸﾁｮｳ","prefecture":"長崎県","city":"平戸市","street":"早福町"},{"zipCode":"8595525","prefectureKana":"ﾅｶﾞｻｷｹﾝ","cityKana":"ﾋﾗﾄﾞｼ","streetKana":"ﾋｶﾞｼﾅｶﾔﾏﾁｮｳ","prefecture":"長崎県","city":"平戸市","street":"東中山町"},{"zipCode":"8595361","prefectureKana":"ﾅｶﾞｻｷｹﾝ","cityKana":"ﾋﾗﾄﾞｼ","streetKana":"ﾋﾓｻｼﾁｮｳ","prefecture":"長崎県","city":"平戸市","street":"紐差町"},{"zipCode":"8595374","prefectureKana":"ﾅｶﾞｻｷｹﾝ","cityKana":"ﾋﾗﾄﾞｼ","streetKana":"ﾌｶｶﾞﾜﾁｮｳ","prefecture":"長崎県","city":"平戸市","street":"深川町"},{"zipCode":"8595514","prefectureKana":"ﾅｶﾞｻｷｹﾝ","cityKana":"ﾋﾗﾄﾞｼ","streetKana":"ﾌﾞﾀﾞｲｼﾞﾁｮｳ","prefecture":"長崎県","city":"平戸市","street":"無代寺町"},{"zipCode":"8595521","prefectureKana":"ﾅｶﾞｻｷｹﾝ","cityKana":"ﾋﾗﾄﾞｼ","streetKana":"ﾌﾅｷﾞﾁｮｳ","prefecture":"長崎県","city":"平戸市","street":"船木町"},{"zipCode":"8595145","prefectureKana":"ﾅｶﾞｻｷｹﾝ","cityKana":"ﾋﾗﾄﾞｼ","streetKana":"ﾌﾙｴﾁｮｳ","prefecture":"長崎県","city":"平戸市","street":"古江町"},{"zipCode":"8595375","prefectureKana":"ﾅｶﾞｻｷｹﾝ","cityKana":"ﾋﾗﾄﾞｼ","streetKana":"ﾍｺﾞﾉﾊﾗﾁｮｳ","prefecture":"長崎県","city":"平戸市","street":"朶の原町"},{"zipCode":"8595143","prefectureKana":"ﾅｶﾞｻｷｹﾝ","cityKana":"ﾋﾗﾄﾞｼ","streetKana":"ﾎﾞｳｶﾞﾀﾁｮｳ","prefecture":"長崎県","city":"平戸市","street":"坊方町"},{"zipCode":"8595366","prefectureKana":"ﾅｶﾞｻｷｹﾝ","cityKana":"ﾋﾗﾄﾞｼ","streetKana":"ﾎｳｷﾁｮｳ","prefecture":"長崎県","city":"平戸市","street":"宝亀町"},{"zipCode":"8595523","prefectureKana":"ﾅｶﾞｻｷｹﾝ","cityKana":"ﾋﾗﾄﾞｼ","streetKana":"ﾏｴﾂﾖｼﾁｮｳ","prefecture":"長崎県","city":"平戸市","street":"前津吉町"},{"zipCode":"8595134","prefectureKana":"ﾅｶﾞｻｷｹﾝ","cityKana":"ﾋﾗﾄﾞｼ","streetKana":"ﾐｽﾞﾀﾘﾁｮｳ","prefecture":"長崎県","city":"平戸市","street":"水垂町"},{"zipCode":"8595112","prefectureKana":"ﾅｶﾞｻｷｹﾝ","cityKana":"ﾋﾗﾄﾞｼ","streetKana":"ﾐﾔﾉﾁｮｳ","prefecture":"長崎県","city":"平戸市","street":"宮の町"},{"zipCode":"8595364","prefectureKana":"ﾅｶﾞｻｷｹﾝ","cityKana":"ﾋﾗﾄﾞｼ","streetKana":"ﾑｶｴﾋﾓｻｼﾁｮｳ","prefecture":"長崎県","city":"平戸市","street":"迎紐差町"},{"zipCode":"8595141","prefectureKana":"ﾅｶﾞｻｷｹﾝ","cityKana":"ﾋﾗﾄﾞｼ","streetKana":"ﾔﾏﾅｶﾁｮｳ","prefecture":"長崎県","city":"平戸市","street":"山中町"},{"zipCode":"8594500","prefectureKana":"ﾅｶﾞｻｷｹﾝ","cityKana":"ﾏﾂｳﾗｼ","streetKana":"ｲｶﾆｹｲｻｲｶﾞﾅｲﾊﾞｱｲ","prefecture":"長崎県","city":"松浦市","street":"以下に掲載がない場合"},{"zipCode":"8594528","prefectureKana":"ﾅｶﾞｻｷｹﾝ","cityKana":"ﾏﾂｳﾗｼ","streetKana":"ｲﾏﾌｸﾁｮｳｳﾗﾒﾝ","prefecture":"長崎県","city":"松浦市","street":"今福町浦免"},{"zipCode":"8594521","prefectureKana":"ﾅｶﾞｻｷｹﾝ","cityKana":"ﾏﾂｳﾗｼ","streetKana":"ｲﾏﾌｸﾁｮｳｷﾀﾒﾝ","prefecture":"長崎県","city":"松浦市","street":"今福町北免"},{"zipCode":"8594524","prefectureKana":"ﾅｶﾞｻｷｹﾝ","cityKana":"ﾏﾂｳﾗｼ","streetKana":"ｲﾏﾌｸﾁｮｳｺﾊﾞﾒﾝ","prefecture":"長崎県","city":"松浦市","street":"今福町木場免"},{"zipCode":"8594526","prefectureKana":"ﾅｶﾞｻｷｹﾝ","cityKana":"ﾏﾂｳﾗｼ","streetKana":"ｲﾏﾌｸﾁｮｳｻｶﾉﾒﾝ","prefecture":"長崎県","city":"松浦市","street":"今福町坂野免"},{"zipCode":"8594525","prefectureKana":"ﾅｶﾞｻｷｹﾝ","cityKana":"ﾏﾂｳﾗｼ","streetKana":"ｲﾏﾌｸﾁｮｳﾃﾗｹﾞﾒﾝ","prefecture":"長崎県","city":"松浦市","street":"今福町寺上免"},{"zipCode":"8594529","prefectureKana":"ﾅｶﾞｻｷｹﾝ","cityKana":"ﾏﾂｳﾗｼ","streetKana":"ｲﾏﾌｸﾁｮｳﾄﾋﾞｼﾏﾒﾝ","prefecture":"長崎県","city":"松浦市","street":"今福町飛島免"},{"zipCode":"8594523","prefectureKana":"ﾅｶﾞｻｷｹﾝ","cityKana":"ﾏﾂｳﾗｼ","streetKana":"ｲﾏﾌｸﾁｮｳﾅﾍﾞﾙﾊﾞｴﾒﾝ","prefecture":"長崎県","city":"松浦市","street":"今福町滑栄免"},{"zipCode":"8594522","prefectureKana":"ﾅｶﾞｻｷｹﾝ","cityKana":"ﾏﾂｳﾗｼ","streetKana":"ｲﾏﾌｸﾁｮｳﾋｶﾞｼﾒﾝ","prefecture":"長崎県","city":"松浦市","street":"今福町東免"},{"zipCode":"8594527","prefectureKana":"ﾅｶﾞｻｷｹﾝ","cityKana":"ﾏﾂｳﾗｼ","streetKana":"ｲﾏﾌｸﾁｮｳﾎﾄｹｻﾞｶﾒﾝ","prefecture":"長崎県","city":"松浦市","street":"今福町仏坂免"},{"zipCode":"8594511","prefectureKana":"ﾅｶﾞｻｷｹﾝ","cityKana":"ﾏﾂｳﾗｼ","streetKana":"ｼｻﾁｮｳｱｶｷﾞﾒﾝ","prefecture":"長崎県","city":"松浦市","street":"志佐町赤木免"},{"zipCode":"8594518","prefectureKana":"ﾅｶﾞｻｷｹﾝ","cityKana":"ﾏﾂｳﾗｼ","streetKana":"ｼｻﾁｮｳｲｹﾅﾘﾒﾝ","prefecture":"長崎県","city":"松浦市","street":"志佐町池成免"},{"zipCode":"8594501","prefectureKana":"ﾅｶﾞｻｷｹﾝ","cityKana":"ﾏﾂｳﾗｼ","streetKana":"ｼｻﾁｮｳｳﾗﾒﾝ","prefecture":"長崎県","city":"松浦市","street":"志佐町浦免"},{"zipCode":"8594504","prefectureKana":"ﾅｶﾞｻｷｹﾝ","cityKana":"ﾏﾂｳﾗｼ","streetKana":"ｼｻﾁｮｳｶﾔﾉｷﾒﾝ","prefecture":"長崎県","city":"松浦市","street":"志佐町栢木免"},{"zipCode":"8594502","prefectureKana":"ﾅｶﾞｻｷｹﾝ","cityKana":"ﾏﾂｳﾗｼ","streetKana":"ｼｻﾁｮｳｻﾄﾒﾝ","prefecture":"長崎県","city":"松浦市","street":"志佐町里免"},{"zipCode":"8594507","prefectureKana":"ﾅｶﾞｻｷｹﾝ","cityKana":"ﾏﾂｳﾗｼ","streetKana":"ｼｻﾁｮｳｼｮｳﾉﾒﾝ","prefecture":"長崎県","city":"松浦市","street":"志佐町庄野免"},{"zipCode":"8594506","prefectureKana":"ﾅｶﾞｻｷｹﾝ","cityKana":"ﾏﾂｳﾗｼ","streetKana":"ｼｻﾁｮｳｼﾗﾊﾏﾒﾝ","prefecture":"長崎県","city":"松浦市","street":"志佐町白浜免"},{"zipCode":"8594503","prefectureKana":"ﾅｶﾞｻｷｹﾝ","cityKana":"ﾏﾂｳﾗｼ","streetKana":"ｼｻﾁｮｳﾀｶﾉﾒﾝ","prefecture":"長崎県","city":"松浦市","street":"志佐町高野免"},{"zipCode":"8594513","prefectureKana":"ﾅｶﾞｻｷｹﾝ","cityKana":"ﾏﾂｳﾗｼ","streetKana":"ｼｻﾁｮｳﾀﾉﾋﾗﾒﾝ","prefecture":"長崎県","city":"松浦市","street":"志佐町田ノ平免"},{"zipCode":"8594516","prefectureKana":"ﾅｶﾞｻｷｹﾝ","cityKana":"ﾏﾂｳﾗｼ","streetKana":"ｼｻﾁｮｳﾅｶﾞﾉﾒﾝ","prefecture":"長崎県","city":"松浦市","street":"志佐町長野免"},{"zipCode":"8594505","prefectureKana":"ﾅｶﾞｻｷｹﾝ","cityKana":"ﾏﾂｳﾗｼ","streetKana":"ｼｻﾁｮｳﾆｼﾔﾏﾒﾝ","prefecture":"長崎県","city":"松浦市","street":"志佐町西山免"},{"zipCode":"8594515","prefectureKana":"ﾅｶﾞｻｷｹﾝ","cityKana":"ﾏﾂｳﾗｼ","streetKana":"ｼｻﾁｮｳﾋｴｺﾊﾞﾒﾝ","prefecture":"長崎県","city":"松浦市","street":"志佐町稗木場免"},{"zipCode":"8594512","prefectureKana":"ﾅｶﾞｻｷｹﾝ","cityKana":"ﾏﾂｳﾗｼ","streetKana":"ｼｻﾁｮｳﾌｴﾌｷﾒﾝ","prefecture":"長崎県","city":"松浦市","street":"志佐町笛吹免"},{"zipCode":"8594514","prefectureKana":"ﾅｶﾞｻｷｹﾝ","cityKana":"ﾏﾂｳﾗｼ","streetKana":"ｼｻﾁｮｳﾕﾉｷｶﾞﾜﾁﾒﾝ","prefecture":"長崎県","city":"松浦市","street":"志佐町柚木川内免"},{"zipCode":"8594517","prefectureKana":"ﾅｶﾞｻｷｹﾝ","cityKana":"ﾏﾂｳﾗｼ","streetKana":"ｼｻﾁｮｳﾖｺﾍﾞﾀﾒﾝ","prefecture":"長崎県","city":"松浦市","street":"志佐町横辺田免"},{"zipCode":"8594301","prefectureKana":"ﾅｶﾞｻｷｹﾝ","cityKana":"ﾏﾂｳﾗｼ","streetKana":"ﾀｶｼﾏﾁｮｳｱｵｳｳﾗﾒﾝ","prefecture":"長崎県","city":"松浦市","street":"鷹島町阿翁浦免"},{"zipCode":"8594302","prefectureKana":"ﾅｶﾞｻｷｹﾝ","cityKana":"ﾏﾂｳﾗｼ","streetKana":"ﾀｶｼﾏﾁｮｳｱｵｳﾒﾝ","prefecture":"長崎県","city":"松浦市","street":"鷹島町阿翁免"},{"zipCode":"8594309","prefectureKana":"ﾅｶﾞｻｷｹﾝ","cityKana":"ﾏﾂｳﾗｼ","streetKana":"ﾀｶｼﾏﾁｮｳｸﾛｼﾏﾒﾝ","prefecture":"長崎県","city":"松浦市","street":"鷹島町黒島免"},{"zipCode":"8594303","prefectureKana":"ﾅｶﾞｻｷｹﾝ","cityKana":"ﾏﾂｳﾗｼ","streetKana":"ﾀｶｼﾏﾁｮｳｺｳｻﾞｷﾒﾝ","prefecture":"長崎県","city":"松浦市","street":"鷹島町神崎免"},{"zipCode":"8594304","prefectureKana":"ﾅｶﾞｻｷｹﾝ","cityKana":"ﾏﾂｳﾗｼ","streetKana":"ﾀｶｼﾏﾁｮｳｻﾄﾒﾝ","prefecture":"長崎県","city":"松浦市","street":"鷹島町里免"},{"zipCode":"8594307","prefectureKana":"ﾅｶﾞｻｷｹﾝ","cityKana":"ﾏﾂｳﾗｼ","streetKana":"ﾀｶｼﾏﾁｮｳｻﾝﾘﾒﾝ","prefecture":"長崎県","city":"松浦市","street":"鷹島町三里免"},{"zipCode":"8594305","prefectureKana":"ﾅｶﾞｻｷｹﾝ","cityKana":"ﾏﾂｳﾗｼ","streetKana":"ﾀｶｼﾏﾁｮｳﾅｶﾄﾞｵﾘﾒﾝ","prefecture":"長崎県","city":"松浦市","street":"鷹島町中通免"},{"zipCode":"8594306","prefectureKana":"ﾅｶﾞｻｷｹﾝ","cityKana":"ﾏﾂｳﾗｼ","streetKana":"ﾀｶｼﾏﾁｮｳﾊﾙﾒﾝ","prefecture":"長崎県","city":"松浦市","street":"鷹島町原免"},{"zipCode":"8594308","prefectureKana":"ﾅｶﾞｻｷｹﾝ","cityKana":"ﾏﾂｳﾗｼ","streetKana":"ﾀｶｼﾏﾁｮｳﾌﾅﾄｳﾂﾞﾒﾝ","prefecture":"長崎県","city":"松浦市","street":"鷹島町船唐津免"},{"zipCode":"8594533","prefectureKana":"ﾅｶﾞｻｷｹﾝ","cityKana":"ﾏﾂｳﾗｼ","streetKana":"ﾂｷﾉｶﾜﾁｮｳｶﾐﾒﾝ","prefecture":"長崎県","city":"松浦市","street":"調川町上免"},{"zipCode":"8594532","prefectureKana":"ﾅｶﾞｻｷｹﾝ","cityKana":"ﾏﾂｳﾗｼ","streetKana":"ﾂｷﾉｶﾜﾁｮｳﾅｶﾒﾝ","prefecture":"長崎県","city":"松浦市","street":"調川町中免"},{"zipCode":"8594536","prefectureKana":"ﾅｶﾞｻｷｹﾝ","cityKana":"ﾏﾂｳﾗｼ","streetKana":"ﾂｷﾉｶﾜﾁｮｳｼﾓﾒﾝ","prefecture":"長崎県","city":"松浦市","street":"調川町下免"},{"zipCode":"8594534","prefectureKana":"ﾅｶﾞｻｷｹﾝ","cityKana":"ﾏﾂｳﾗｼ","streetKana":"ﾂｷﾉｶﾜﾁｮｳｼﾗｲﾒﾝ","prefecture":"長崎県","city":"松浦市","street":"調川町白井免"},{"zipCode":"8594531","prefectureKana":"ﾅｶﾞｻｷｹﾝ","cityKana":"ﾏﾂｳﾗｼ","streetKana":"ﾂｷﾉｶﾜﾁｮｳﾋﾗｵﾒﾝ","prefecture":"長崎県","city":"松浦市","street":"調川町平尾免"},{"zipCode":"8594535","prefectureKana":"ﾅｶﾞｻｷｹﾝ","cityKana":"ﾏﾂｳﾗｼ","streetKana":"ﾂｷﾉｶﾜﾁｮｳﾏﾂﾔﾏﾀﾞﾒﾝ","prefecture":"長崎県","city":"松浦市","street":"調川町松山田免"},{"zipCode":"8594745","prefectureKana":"ﾅｶﾞｻｷｹﾝ","cityKana":"ﾏﾂｳﾗｼ","streetKana":"ﾎｼｶﾁｮｳｱｵｼﾏﾒﾝ","prefecture":"長崎県","city":"松浦市","street":"星鹿町青島免"},{"zipCode":"8594741","prefectureKana":"ﾅｶﾞｻｷｹﾝ","cityKana":"ﾏﾂｳﾗｼ","streetKana":"ﾎｼｶﾁｮｳｷﾀｸﾎﾞﾒﾝ","prefecture":"長崎県","city":"松浦市","street":"星鹿町北久保免"},{"zipCode":"8594743","prefectureKana":"ﾅｶﾞｻｷｹﾝ","cityKana":"ﾏﾂｳﾗｼ","streetKana":"ﾎｼｶﾁｮｳｼﾓﾀﾞﾒﾝ","prefecture":"長崎県","city":"松浦市","street":"星鹿町下田免"},{"zipCode":"8594744","prefectureKana":"ﾅｶﾞｻｷｹﾝ","cityKana":"ﾏﾂｳﾗｼ","streetKana":"ﾎｼｶﾁｮｳﾀｹｻﾞｷﾒﾝ","prefecture":"長崎県","city":"松浦市","street":"星鹿町岳崎免"},{"zipCode":"8594742","prefectureKana":"ﾅｶﾞｻｷｹﾝ","cityKana":"ﾏﾂｳﾗｼ","streetKana":"ﾎｼｶﾁｮｳﾑﾀﾒﾝ","prefecture":"長崎県","city":"松浦市","street":"星鹿町牟田免"},{"zipCode":"8594761","prefectureKana":"ﾅｶﾞｻｷｹﾝ","cityKana":"ﾏﾂｳﾗｼ","streetKana":"ﾐｸﾘﾔﾁｮｳｱｲｻｶﾒﾝ","prefecture":"長崎県","city":"松浦市","street":"御厨町相坂免"},{"zipCode":"8594751","prefectureKana":"ﾅｶﾞｻｷｹﾝ","cityKana":"ﾏﾂｳﾗｼ","streetKana":"ﾐｸﾘﾔﾁｮｳｲｹﾀﾞﾒﾝ","prefecture":"長崎県","city":"松浦市","street":"御厨町池田免"},{"zipCode":"8594777","prefectureKana":"ﾅｶﾞｻｷｹﾝ","cityKana":"ﾏﾂｳﾗｼ","streetKana":"ﾐｸﾘﾔﾁｮｳｲﾀﾊﾞｼﾒﾝ","prefecture":"長崎県","city":"松浦市","street":"御厨町板橋免"},{"zipCode":"8594758","prefectureKana":"ﾅｶﾞｻｷｹﾝ","cityKana":"ﾏﾂｳﾗｼ","streetKana":"ﾐｸﾘﾔﾁｮｳｵｵｻｷﾒﾝ","prefecture":"長崎県","city":"松浦市","street":"御厨町大崎免"},{"zipCode":"8594773","prefectureKana":"ﾅｶﾞｻｷｹﾝ","cityKana":"ﾏﾂｳﾗｼ","streetKana":"ﾐｸﾘﾔﾁｮｳｶﾐﾉﾎﾞﾘｷﾒﾝ","prefecture":"長崎県","city":"松浦市","street":"御厨町上登木免"},{"zipCode":"8594764","prefectureKana":"ﾅｶﾞｻｷｹﾝ","cityKana":"ﾏﾂｳﾗｼ","streetKana":"ﾐｸﾘﾔﾁｮｳｶﾘﾊﾗﾒﾝ","prefecture":"長崎県","city":"松浦市","street":"御厨町狩原免"},{"zipCode":"8594767","prefectureKana":"ﾅｶﾞｻｷｹﾝ","cityKana":"ﾏﾂｳﾗｼ","streetKana":"ﾐｸﾘﾔﾁｮｳｶﾜﾁﾒﾝ","prefecture":"長崎県","city":"松浦市","street":"御厨町川内免"},{"zipCode":"8594754","prefectureKana":"ﾅｶﾞｻｷｹﾝ","cityKana":"ﾏﾂｳﾗｼ","streetKana":"ﾐｸﾘﾔﾁｮｳｷﾀﾋﾞﾗﾒﾝ","prefecture":"長崎県","city":"松浦市","street":"御厨町北平免"},{"zipCode":"8594775","prefectureKana":"ﾅｶﾞｻｷｹﾝ","cityKana":"ﾏﾂｳﾗｼ","streetKana":"ﾐｸﾘﾔﾁｮｳｺｯｺｳﾉｵﾒﾝ","prefecture":"長崎県","city":"松浦市","street":"御厨町郭公尾免"},{"zipCode":"8594776","prefectureKana":"ﾅｶﾞｻｷｹﾝ","cityKana":"ﾏﾂｳﾗｼ","streetKana":"ﾐｸﾘﾔﾁｮｳｺﾊﾞﾒﾝ","prefecture":"長崎県","city":"松浦市","street":"御厨町木場免"},{"zipCode":"8594762","prefectureKana":"ﾅｶﾞｻｷｹﾝ","cityKana":"ﾏﾂｳﾗｼ","streetKana":"ﾐｸﾘﾔﾁｮｳｺﾌﾞﾈﾒﾝ","prefecture":"長崎県","city":"松浦市","street":"御厨町小船免"},{"zipCode":"8594765","prefectureKana":"ﾅｶﾞｻｷｹﾝ","cityKana":"ﾏﾂｳﾗｼ","streetKana":"ﾐｸﾘﾔﾁｮｳｺﾒﾉﾔﾏﾒﾝ","prefecture":"長崎県","city":"松浦市","street":"御厨町米ノ山免"},{"zipCode":"8594752","prefectureKana":"ﾅｶﾞｻｷｹﾝ","cityKana":"ﾏﾂｳﾗｼ","streetKana":"ﾐｸﾘﾔﾁｮｳｻﾄﾒﾝ","prefecture":"長崎県","city":"松浦市","street":"御厨町里免"},{"zipCode":"8594771","prefectureKana":"ﾅｶﾞｻｷｹﾝ","cityKana":"ﾏﾂｳﾗｼ","streetKana":"ﾐｸﾘﾔﾁｮｳｼﾓﾉﾎﾞﾘｷﾒﾝ","prefecture":"長崎県","city":"松浦市","street":"御厨町下登木免"},{"zipCode":"8594757","prefectureKana":"ﾅｶﾞｻｷｹﾝ","cityKana":"ﾏﾂｳﾗｼ","streetKana":"ﾐｸﾘﾔﾁｮｳﾀｶﾉﾒﾝ","prefecture":"長崎県","city":"松浦市","street":"御厨町高野免"},{"zipCode":"8594778","prefectureKana":"ﾅｶﾞｻｷｹﾝ","cityKana":"ﾏﾂｳﾗｼ","streetKana":"ﾐｸﾘﾔﾁｮｳﾀｼﾛﾒﾝ","prefecture":"長崎県","city":"松浦市","street":"御厨町田代免"},{"zipCode":"8594761","prefectureKana":"ﾅｶﾞｻｷｹﾝ","cityKana":"ﾏﾂｳﾗｼ","streetKana":"ﾐｸﾘﾔﾁｮｳﾀﾊﾞﾙﾒﾝ","prefecture":"長崎県","city":"松浦市","street":"御厨町田原免"},{"zipCode":"8594774","prefectureKana":"ﾅｶﾞｻｷｹﾝ","cityKana":"ﾏﾂｳﾗｼ","streetKana":"ﾐｸﾘﾔﾁｮｳﾀﾁｷﾒﾝ","prefecture":"長崎県","city":"松浦市","street":"御厨町立木免"},{"zipCode":"8594772","prefectureKana":"ﾅｶﾞｻｷｹﾝ","cityKana":"ﾏﾂｳﾗｼ","streetKana":"ﾐｸﾘﾔﾁｮｳﾃﾗﾉｵﾒﾝ","prefecture":"長崎県","city":"松浦市","street":"御厨町寺ノ尾免"},{"zipCode":"8594753","prefectureKana":"ﾅｶﾞｻｷｹﾝ","cityKana":"ﾏﾂｳﾗｼ","streetKana":"ﾐｸﾘﾔﾁｮｳﾅｶﾉﾒﾝ","prefecture":"長崎県","city":"松浦市","street":"御厨町中野免"},{"zipCode":"8594769","prefectureKana":"ﾅｶﾞｻｷｹﾝ","cityKana":"ﾏﾂｳﾗｼ","streetKana":"ﾐｸﾘﾔﾁｮｳﾆｼｺﾊﾞﾒﾝ","prefecture":"長崎県","city":"松浦市","street":"御厨町西木場免"},{"zipCode":"8594768","prefectureKana":"ﾅｶﾞｻｷｹﾝ","cityKana":"ﾏﾂｳﾗｼ","streetKana":"ﾐｸﾘﾔﾁｮｳﾆｼﾀﾞﾒﾝ","prefecture":"長崎県","city":"松浦市","street":"御厨町西田免"},{"zipCode":"8594766","prefectureKana":"ﾅｶﾞｻｷｹﾝ","cityKana":"ﾏﾂｳﾗｼ","streetKana":"ﾐｸﾘﾔﾁｮｳﾌｼﾞｭｳﾒﾝ","prefecture":"長崎県","city":"松浦市","street":"御厨町普住免"},{"zipCode":"8594756","prefectureKana":"ﾅｶﾞｻｷｹﾝ","cityKana":"ﾏﾂｳﾗｼ","streetKana":"ﾐｸﾘﾔﾁｮｳﾏｴﾀﾞﾒﾝ","prefecture":"長崎県","city":"松浦市","street":"御厨町前田免"},{"zipCode":"8594763","prefectureKana":"ﾅｶﾞｻｷｹﾝ","cityKana":"ﾏﾂｳﾗｼ","streetKana":"ﾐｸﾘﾔﾁｮｳﾔﾏﾈﾒﾝ","prefecture":"長崎県","city":"松浦市","street":"御厨町山根免"},{"zipCode":"8594755","prefectureKana":"ﾅｶﾞｻｷｹﾝ","cityKana":"ﾏﾂｳﾗｼ","streetKana":"ﾐｸﾘﾔﾁｮｳﾖｺｸﾎﾞﾒﾝ","prefecture":"長崎県","city":"松浦市","street":"御厨町横久保免"},{"zipCode":"8591116","prefectureKana":"ﾅｶﾞｻｷｹﾝ","cityKana":"ｳﾝｾﾞﾝｼ","streetKana":"ｱﾂﾞﾏﾁｮｳｱﾎﾞﾐｮｳ","prefecture":"長崎県","city":"雲仙市","street":"吾妻町阿母名"},{"zipCode":"8591107","prefectureKana":"ﾅｶﾞｻｷｹﾝ","cityKana":"ｳﾝｾﾞﾝｼ","streetKana":"ｱﾂﾞﾏﾁｮｳｳｼｸﾞﾁﾐｮｳ","prefecture":"長崎県","city":"雲仙市","street":"吾妻町牛口名"},{"zipCode":"8591115","prefectureKana":"ﾅｶﾞｻｷｹﾝ","cityKana":"ｳﾝｾﾞﾝｼ","streetKana":"ｱﾂﾞﾏﾁｮｳｴｲﾁｭｳﾐｮｳ","prefecture":"長崎県","city":"雲仙市","street":"吾妻町永中名"},{"zipCode":"8591106","prefectureKana":"ﾅｶﾞｻｷｹﾝ","cityKana":"ｳﾝｾﾞﾝｼ","streetKana":"ｱﾂﾞﾏﾁｮｳｵｵｺﾊﾞﾐｮｳ","prefecture":"長崎県","city":"雲仙市","street":"吾妻町大木場名"},{"zipCode":"8591114","prefectureKana":"ﾅｶﾞｻｷｹﾝ","cityKana":"ｳﾝｾﾞﾝｼ","streetKana":"ｱﾂﾞﾏﾁｮｳｶﾜﾄｺﾐｮｳ","prefecture":"長崎県","city":"雲仙市","street":"吾妻町川床名"},{"zipCode":"8591112","prefectureKana":"ﾅｶﾞｻｷｹﾝ","cityKana":"ｳﾝｾﾞﾝｼ","streetKana":"ｱﾂﾞﾏﾁｮｳｸﾘﾊﾞﾔｼﾐｮｳ","prefecture":"長崎県","city":"雲仙市","street":"吾妻町栗林名"},{"zipCode":"8591102","prefectureKana":"ﾅｶﾞｻｷｹﾝ","cityKana":"ｳﾝｾﾞﾝｼ","streetKana":"ｱﾂﾞﾏﾁｮｳｺﾊﾞﾐｮｳ","prefecture":"長崎県","city":"雲仙市","street":"吾妻町木場名"},{"zipCode":"8591105","prefectureKana":"ﾅｶﾞｻｷｹﾝ","cityKana":"ｳﾝｾﾞﾝｼ","streetKana":"ｱﾂﾞﾏﾁｮｳﾀﾉﾋﾗﾐｮｳ","prefecture":"長崎県","city":"雲仙市","street":"吾妻町田之平名"},{"zipCode":"8591113","prefectureKana":"ﾅｶﾞｻｷｹﾝ","cityKana":"ｳﾝｾﾞﾝｼ","streetKana":"ｱﾂﾞﾏﾁｮｳﾇﾉｴﾐｮｳ","prefecture":"長崎県","city":"雲仙市","street":"吾妻町布江名"},{"zipCode":"8591111","prefectureKana":"ﾅｶﾞｻｷｹﾝ","cityKana":"ｳﾝｾﾞﾝｼ","streetKana":"ｱﾂﾞﾏﾁｮｳﾊﾞﾊﾞﾐｮｳ","prefecture":"長崎県","city":"雲仙市","street":"吾妻町馬場名"},{"zipCode":"8591103","prefectureKana":"ﾅｶﾞｻｷｹﾝ","cityKana":"ｳﾝｾﾞﾝｼ","streetKana":"ｱﾂﾞﾏﾁｮｳﾋﾗｴﾐｮｳ","prefecture":"長崎県","city":"雲仙市","street":"吾妻町平江名"},{"zipCode":"8591104","prefectureKana":"ﾅｶﾞｻｷｹﾝ","cityKana":"ｳﾝｾﾞﾝｼ","streetKana":"ｱﾂﾞﾏﾁｮｳﾌﾙｼﾛﾐｮｳ","prefecture":"長崎県","city":"雲仙市","street":"吾妻町古城名"},{"zipCode":"8591101","prefectureKana":"ﾅｶﾞｻｷｹﾝ","cityKana":"ｳﾝｾﾞﾝｼ","streetKana":"ｱﾂﾞﾏﾁｮｳﾓﾄﾑﾗﾐｮｳ","prefecture":"長崎県","city":"雲仙市","street":"吾妻町本村名"},{"zipCode":"8591302","prefectureKana":"ﾅｶﾞｻｷｹﾝ","cityKana":"ｳﾝｾﾞﾝｼ","streetKana":"ｸﾆﾐﾁｮｳｺｳｼﾞﾛｵﾂ","prefecture":"長崎県","city":"雲仙市","street":"国見町神代乙"},{"zipCode":"8591306","prefectureKana":"ﾅｶﾞｻｷｹﾝ","cityKana":"ｳﾝｾﾞﾝｼ","streetKana":"ｸﾆﾐﾁｮｳｺｳｼﾞﾛｷ","prefecture":"長崎県","city":"雲仙市","street":"国見町神代己"},{"zipCode":"8591301","prefectureKana":"ﾅｶﾞｻｷｹﾝ","cityKana":"ｳﾝｾﾞﾝｼ","streetKana":"ｸﾆﾐﾁｮｳｺｳｼﾞﾛｺｳ","prefecture":"長崎県","city":"雲仙市","street":"国見町神代甲"},{"zipCode":"8591307","prefectureKana":"ﾅｶﾞｻｷｹﾝ","cityKana":"ｳﾝｾﾞﾝｼ","streetKana":"ｸﾆﾐﾁｮｳｺｳｼﾞﾛｺｳ","prefecture":"長崎県","city":"雲仙市","street":"国見町神代庚"},{"zipCode":"8591308","prefectureKana":"ﾅｶﾞｻｷｹﾝ","cityKana":"ｳﾝｾﾞﾝｼ","streetKana":"ｸﾆﾐﾁｮｳｺｳｼﾞﾛｼﾝ","prefecture":"長崎県","city":"雲仙市","street":"国見町神代辛"},{"zipCode":"8591304","prefectureKana":"ﾅｶﾞｻｷｹﾝ","cityKana":"ｳﾝｾﾞﾝｼ","streetKana":"ｸﾆﾐﾁｮｳｺｳｼﾞﾛﾃｲ","prefecture":"長崎県","city":"雲仙市","street":"国見町神代丁"},{"zipCode":"8591303","prefectureKana":"ﾅｶﾞｻｷｹﾝ","cityKana":"ｳﾝｾﾞﾝｼ","streetKana":"ｸﾆﾐﾁｮｳｺｳｼﾞﾛﾍｲ","prefecture":"長崎県","city":"雲仙市","street":"国見町神代丙"},{"zipCode":"8591305","prefectureKana":"ﾅｶﾞｻｷｹﾝ","cityKana":"ｳﾝｾﾞﾝｼ","streetKana":"ｸﾆﾐﾁｮｳｺｳｼﾞﾛﾎﾞ","prefecture":"長崎県","city":"雲仙市","street":"国見町神代戊"},{"zipCode":"8591322","prefectureKana":"ﾅｶﾞｻｷｹﾝ","cityKana":"ｳﾝｾﾞﾝｼ","streetKana":"ｸﾆﾐﾁｮｳﾀｲﾗｵﾂ","prefecture":"長崎県","city":"雲仙市","street":"国見町多比良乙"},{"zipCode":"8591321","prefectureKana":"ﾅｶﾞｻｷｹﾝ","cityKana":"ｳﾝｾﾞﾝｼ","streetKana":"ｸﾆﾐﾁｮｳﾀｲﾗｺｳ","prefecture":"長崎県","city":"雲仙市","street":"国見町多比良甲"},{"zipCode":"8591324","prefectureKana":"ﾅｶﾞｻｷｹﾝ","cityKana":"ｳﾝｾﾞﾝｼ","streetKana":"ｸﾆﾐﾁｮｳﾀｲﾗﾃｲ","prefecture":"長崎県","city":"雲仙市","street":"国見町多比良丁"},{"zipCode":"8591323","prefectureKana":"ﾅｶﾞｻｷｹﾝ","cityKana":"ｳﾝｾﾞﾝｼ","streetKana":"ｸﾆﾐﾁｮｳﾀｲﾗﾍｲ","prefecture":"長崎県","city":"雲仙市","street":"国見町多比良丙"},{"zipCode":"8591325","prefectureKana":"ﾅｶﾞｻｷｹﾝ","cityKana":"ｳﾝｾﾞﾝｼ","streetKana":"ｸﾆﾐﾁｮｳﾀｲﾗﾎﾞ","prefecture":"長崎県","city":"雲仙市","street":"国見町多比良戊"},{"zipCode":"8591312","prefectureKana":"ﾅｶﾞｻｷｹﾝ","cityKana":"ｳﾝｾﾞﾝｼ","streetKana":"ｸﾆﾐﾁｮｳﾋｼﾞｸﾛｵﾂ","prefecture":"長崎県","city":"雲仙市","street":"国見町土黒乙"},{"zipCode":"8591316","prefectureKana":"ﾅｶﾞｻｷｹﾝ","cityKana":"ｳﾝｾﾞﾝｼ","streetKana":"ｸﾆﾐﾁｮｳﾋｼﾞｸﾛｷ","prefecture":"長崎県","city":"雲仙市","street":"国見町土黒己"},{"zipCode":"8591311","prefectureKana":"ﾅｶﾞｻｷｹﾝ","cityKana":"ｳﾝｾﾞﾝｼ","streetKana":"ｸﾆﾐﾁｮｳﾋｼﾞｸﾛｺｳ","prefecture":"長崎県","city":"雲仙市","street":"国見町土黒甲"},{"zipCode":"8591317","prefectureKana":"ﾅｶﾞｻｷｹﾝ","cityKana":"ｳﾝｾﾞﾝｼ","streetKana":"ｸﾆﾐﾁｮｳﾋｼﾞｸﾛｺｳ","prefecture":"長崎県","city":"雲仙市","street":"国見町土黒庚"},{"zipCode":"8591314","prefectureKana":"ﾅｶﾞｻｷｹﾝ","cityKana":"ｳﾝｾﾞﾝｼ","streetKana":"ｸﾆﾐﾁｮｳﾋｼﾞｸﾛﾃｲ","prefecture":"長崎県","city":"雲仙市","street":"国見町土黒丁"},{"zipCode":"8591313","prefectureKana":"ﾅｶﾞｻｷｹﾝ","cityKana":"ｳﾝｾﾞﾝｼ","streetKana":"ｸﾆﾐﾁｮｳﾋｼﾞｸﾛﾍｲ","prefecture":"長崎県","city":"雲仙市","street":"国見町土黒丙"},{"zipCode":"8591315","prefectureKana":"ﾅｶﾞｻｷｹﾝ","cityKana":"ｳﾝｾﾞﾝｼ","streetKana":"ｸﾆﾐﾁｮｳﾋｼﾞｸﾛﾎﾞ","prefecture":"長崎県","city":"雲仙市","street":"国見町土黒戊"},{"zipCode":"8591214","prefectureKana":"ﾅｶﾞｻｷｹﾝ","cityKana":"ｳﾝｾﾞﾝｼ","streetKana":"ﾐｽﾞﾎﾁｮｳｲﾌｸｵﾂ","prefecture":"長崎県","city":"雲仙市","street":"瑞穂町伊福乙"},{"zipCode":"8591213","prefectureKana":"ﾅｶﾞｻｷｹﾝ","cityKana":"ｳﾝｾﾞﾝｼ","streetKana":"ﾐｽﾞﾎﾁｮｳｲﾌｸｺｳ","prefecture":"長崎県","city":"雲仙市","street":"瑞穂町伊福甲"},{"zipCode":"8591216","prefectureKana":"ﾅｶﾞｻｷｹﾝ","cityKana":"ｳﾝｾﾞﾝｼ","streetKana":"ﾐｽﾞﾎﾁｮｳｺﾍﾞｵﾂ","prefecture":"長崎県","city":"雲仙市","street":"瑞穂町古部乙"},{"zipCode":"8591215","prefectureKana":"ﾅｶﾞｻｷｹﾝ","cityKana":"ｳﾝｾﾞﾝｼ","streetKana":"ﾐｽﾞﾎﾁｮｳｺﾍﾞｺｳ","prefecture":"長崎県","city":"雲仙市","street":"瑞穂町古部甲"},{"zipCode":"8591203","prefectureKana":"ﾅｶﾞｻｷｹﾝ","cityKana":"ｳﾝｾﾞﾝｼ","streetKana":"ﾐｽﾞﾎﾁｮｳｻｲｺﾞｳｵﾂ","prefecture":"長崎県","city":"雲仙市","street":"瑞穂町西郷乙"},{"zipCode":"8591212","prefectureKana":"ﾅｶﾞｻｷｹﾝ","cityKana":"ｳﾝｾﾞﾝｼ","streetKana":"ﾐｽﾞﾎﾁｮｳｻｲｺﾞｳｷ","prefecture":"長崎県","city":"雲仙市","street":"瑞穂町西郷己"},{"zipCode":"8591202","prefectureKana":"ﾅｶﾞｻｷｹﾝ","cityKana":"ｳﾝｾﾞﾝｼ","streetKana":"ﾐｽﾞﾎﾁｮｳｻｲｺﾞｳｺｳ","prefecture":"長崎県","city":"雲仙市","street":"瑞穂町西郷甲"},{"zipCode":"8591201","prefectureKana":"ﾅｶﾞｻｷｹﾝ","cityKana":"ｳﾝｾﾞﾝｼ","streetKana":"ﾐｽﾞﾎﾁｮｳｻｲｺﾞｳｺｳ","prefecture":"長崎県","city":"雲仙市","street":"瑞穂町西郷庚"},{"zipCode":"8591206","prefectureKana":"ﾅｶﾞｻｷｹﾝ","cityKana":"ｳﾝｾﾞﾝｼ","streetKana":"ﾐｽﾞﾎﾁｮｳｻｲｺﾞｳｼﾝ","prefecture":"長崎県","city":"雲仙市","street":"瑞穂町西郷辛"},{"zipCode":"8591205","prefectureKana":"ﾅｶﾞｻｷｹﾝ","cityKana":"ｳﾝｾﾞﾝｼ","streetKana":"ﾐｽﾞﾎﾁｮｳｻｲｺﾞｳﾃｲ","prefecture":"長崎県","city":"雲仙市","street":"瑞穂町西郷丁"},{"zipCode":"8591204","prefectureKana":"ﾅｶﾞｻｷｹﾝ","cityKana":"ｳﾝｾﾞﾝｼ","streetKana":"ﾐｽﾞﾎﾁｮｳｻｲｺﾞｳﾍｲ","prefecture":"長崎県","city":"雲仙市","street":"瑞穂町西郷丙"},{"zipCode":"8591211","prefectureKana":"ﾅｶﾞｻｷｹﾝ","cityKana":"ｳﾝｾﾞﾝｼ","streetKana":"ﾐｽﾞﾎﾁｮｳｻｲｺﾞｳﾎﾞ","prefecture":"長崎県","city":"雲仙市","street":"瑞穂町西郷戊"},{"zipCode":"8592600","prefectureKana":"ﾅｶﾞｻｷｹﾝ","cityKana":"ﾐﾅﾐｼﾏﾊﾞﾗｼ","streetKana":"ｲｶﾆｹｲｻｲｶﾞﾅｲﾊﾞｱｲ","prefecture":"長崎県","city":"南島原市","street":"以下に掲載がない場合"},{"zipCode":"8592121","prefectureKana":"ﾅｶﾞｻｷｹﾝ","cityKana":"ﾐﾅﾐｼﾏﾊﾞﾗｼ","streetKana":"ｱﾘｴﾁｮｳｲｼﾀﾞ","prefecture":"長崎県","city":"南島原市","street":"有家町石田"},{"zipCode":"8592122","prefectureKana":"ﾅｶﾞｻｷｹﾝ","cityKana":"ﾐﾅﾐｼﾏﾊﾞﾗｼ","streetKana":"ｱﾘｴﾁｮｳｵｵｿﾞﾉ","prefecture":"長崎県","city":"南島原市","street":"有家町大苑"},{"zipCode":"8592203","prefectureKana":"ﾅｶﾞｻｷｹﾝ","cityKana":"ﾐﾅﾐｼﾏﾊﾞﾗｼ","streetKana":"ｱﾘｴﾁｮｳｵﾉｳｴ","prefecture":"長崎県","city":"南島原市","street":"有家町尾上"},{"zipCode":"8592204","prefectureKana":"ﾅｶﾞｻｷｹﾝ","cityKana":"ﾐﾅﾐｼﾏﾊﾞﾗｼ","streetKana":"ｱﾘｴﾁｮｳｶﾏｶﾞ","prefecture":"長崎県","city":"南島原市","street":"有家町蒲河"},{"zipCode":"8592201","prefectureKana":"ﾅｶﾞｻｷｹﾝ","cityKana":"ﾐﾅﾐｼﾏﾊﾞﾗｼ","streetKana":"ｱﾘｴﾁｮｳｸﾎﾞ","prefecture":"長崎県","city":"南島原市","street":"有家町久保"},{"zipCode":"8592205","prefectureKana":"ﾅｶﾞｻｷｹﾝ","cityKana":"ﾐﾅﾐｼﾏﾊﾞﾗｼ","streetKana":"ｱﾘｴﾁｮｳｺｶﾞﾜ","prefecture":"長崎県","city":"南島原市","street":"有家町小川"},{"zipCode":"8592206","prefectureKana":"ﾅｶﾞｻｷｹﾝ","cityKana":"ﾐﾅﾐｼﾏﾊﾞﾗｼ","streetKana":"ｱﾘｴﾁｮｳﾅｶｽｶﾜ","prefecture":"長崎県","city":"南島原市","street":"有家町中須川"},{"zipCode":"8592123","prefectureKana":"ﾅｶﾞｻｷｹﾝ","cityKana":"ﾐﾅﾐｼﾏﾊﾞﾗｼ","streetKana":"ｱﾘｴﾁｮｳﾊﾗｵ","prefecture":"長崎県","city":"南島原市","street":"有家町原尾"},{"zipCode":"8592202","prefectureKana":"ﾅｶﾞｻｷｹﾝ","cityKana":"ﾐﾅﾐｼﾏﾊﾞﾗｼ","streetKana":"ｱﾘｴﾁｮｳﾔﾏｶﾞﾜ","prefecture":"長崎県","city":"南島原市","street":"有家町山川"},{"zipCode":"8592605","prefectureKana":"ﾅｶﾞｻｷｹﾝ","cityKana":"ﾐﾅﾐｼﾏﾊﾞﾗｼ","streetKana":"ｶﾂﾞｻﾁｮｳｵﾂ","prefecture":"長崎県","city":"南島原市","street":"加津佐町乙"},{"zipCode":"8592601","prefectureKana":"ﾅｶﾞｻｷｹﾝ","cityKana":"ﾐﾅﾐｼﾏﾊﾞﾗｼ","streetKana":"ｶﾂﾞｻﾁｮｳｷ","prefecture":"長崎県","city":"南島原市","street":"加津佐町己"},{"zipCode":"8592606","prefectureKana":"ﾅｶﾞｻｷｹﾝ","cityKana":"ﾐﾅﾐｼﾏﾊﾞﾗｼ","streetKana":"ｶﾂﾞｻﾁｮｳｺｳ","prefecture":"長崎県","city":"南島原市","street":"加津佐町甲"},{"zipCode":"8592603","prefectureKana":"ﾅｶﾞｻｷｹﾝ","cityKana":"ﾐﾅﾐｼﾏﾊﾞﾗｼ","streetKana":"ｶﾂﾞｻﾁｮｳﾃｲ","prefecture":"長崎県","city":"南島原市","street":"加津佐町丁"},{"zipCode":"8592604","prefectureKana":"ﾅｶﾞｻｷｹﾝ","cityKana":"ﾐﾅﾐｼﾏﾊﾞﾗｼ","streetKana":"ｶﾂﾞｻﾁｮｳﾍｲ","prefecture":"長崎県","city":"南島原市","street":"加津佐町丙"},{"zipCode":"8592602","prefectureKana":"ﾅｶﾞｻｷｹﾝ","cityKana":"ﾐﾅﾐｼﾏﾊﾞﾗｼ","streetKana":"ｶﾂﾞｻﾁｮｳﾎﾞ","prefecture":"長崎県","city":"南島原市","street":"加津佐町戊"},{"zipCode":"8592302","prefectureKana":"ﾅｶﾞｻｷｹﾝ","cityKana":"ﾐﾅﾐｼﾏﾊﾞﾗｼ","streetKana":"ｷﾀｱﾘﾏﾁｮｳｵﾂ","prefecture":"長崎県","city":"南島原市","street":"北有馬町乙"},{"zipCode":"8592306","prefectureKana":"ﾅｶﾞｻｷｹﾝ","cityKana":"ﾐﾅﾐｼﾏﾊﾞﾗｼ","streetKana":"ｷﾀｱﾘﾏﾁｮｳｷ","prefecture":"長崎県","city":"南島原市","street":"北有馬町己"},{"zipCode":"8592301","prefectureKana":"ﾅｶﾞｻｷｹﾝ","cityKana":"ﾐﾅﾐｼﾏﾊﾞﾗｼ","streetKana":"ｷﾀｱﾘﾏﾁｮｳｺｳ","prefecture":"長崎県","city":"南島原市","street":"北有馬町甲"},{"zipCode":"8592304","prefectureKana":"ﾅｶﾞｻｷｹﾝ","cityKana":"ﾐﾅﾐｼﾏﾊﾞﾗｼ","streetKana":"ｷﾀｱﾘﾏﾁｮｳﾃｲ","prefecture":"長崎県","city":"南島原市","street":"北有馬町丁"},{"zipCode":"8592303","prefectureKana":"ﾅｶﾞｻｷｹﾝ","cityKana":"ﾐﾅﾐｼﾏﾊﾞﾗｼ","streetKana":"ｷﾀｱﾘﾏﾁｮｳﾍｲ","prefecture":"長崎県","city":"南島原市","street":"北有馬町丙"},{"zipCode":"8592305","prefectureKana":"ﾅｶﾞｻｷｹﾝ","cityKana":"ﾐﾅﾐｼﾏﾊﾞﾗｼ","streetKana":"ｷﾀｱﾘﾏﾁｮｳﾎﾞ","prefecture":"長崎県","city":"南島原市","street":"北有馬町戊"},{"zipCode":"8592501","prefectureKana":"ﾅｶﾞｻｷｹﾝ","cityKana":"ﾐﾅﾐｼﾏﾊﾞﾗｼ","streetKana":"ｸﾁﾉﾂﾁｮｳｵﾂ","prefecture":"長崎県","city":"南島原市","street":"口之津町乙"},{"zipCode":"8592502","prefectureKana":"ﾅｶﾞｻｷｹﾝ","cityKana":"ﾐﾅﾐｼﾏﾊﾞﾗｼ","streetKana":"ｸﾁﾉﾂﾁｮｳｺｳ","prefecture":"長崎県","city":"南島原市","street":"口之津町甲"},{"zipCode":"8592503","prefectureKana":"ﾅｶﾞｻｷｹﾝ","cityKana":"ﾐﾅﾐｼﾏﾊﾞﾗｼ","streetKana":"ｸﾁﾉﾂﾁｮｳﾃｲ","prefecture":"長崎県","city":"南島原市","street":"口之津町丁"},{"zipCode":"8592504","prefectureKana":"ﾅｶﾞｻｷｹﾝ","cityKana":"ﾐﾅﾐｼﾏﾊﾞﾗｼ","streetKana":"ｸﾁﾉﾂﾁｮｳﾍｲ","prefecture":"長崎県","city":"南島原市","street":"口之津町丙"},{"zipCode":"8592211","prefectureKana":"ﾅｶﾞｻｷｹﾝ","cityKana":"ﾐﾅﾐｼﾏﾊﾞﾗｼ","streetKana":"ﾆｼｱﾘｴﾁｮｳｻﾄﾎﾞｳ","prefecture":"長崎県","city":"南島原市","street":"西有家町里坊"},{"zipCode":"8592214","prefectureKana":"ﾅｶﾞｻｷｹﾝ","cityKana":"ﾐﾅﾐｼﾏﾊﾞﾗｼ","streetKana":"ﾆｼｱﾘｴﾁｮｳｼﾞｵﾝｼﾞ","prefecture":"長崎県","city":"南島原市","street":"西有家町慈恩寺"},{"zipCode":"8592212","prefectureKana":"ﾅｶﾞｻｷｹﾝ","cityKana":"ﾐﾅﾐｼﾏﾊﾞﾗｼ","streetKana":"ﾆｼｱﾘｴﾁｮｳｽｶﾜ","prefecture":"長崎県","city":"南島原市","street":"西有家町須川"},{"zipCode":"8592216","prefectureKana":"ﾅｶﾞｻｷｹﾝ","cityKana":"ﾐﾅﾐｼﾏﾊﾞﾗｼ","streetKana":"ﾆｼｱﾘｴﾁｮｳﾀﾂｲｼ","prefecture":"長崎県","city":"南島原市","street":"西有家町龍石"},{"zipCode":"8592215","prefectureKana":"ﾅｶﾞｻｷｹﾝ","cityKana":"ﾐﾅﾐｼﾏﾊﾞﾗｼ","streetKana":"ﾆｼｱﾘｴﾁｮｳﾅｶﾞﾉ","prefecture":"長崎県","city":"南島原市","street":"西有家町長野"},{"zipCode":"8592213","prefectureKana":"ﾅｶﾞｻｷｹﾝ","cityKana":"ﾐﾅﾐｼﾏﾊﾞﾗｼ","streetKana":"ﾆｼｱﾘｴﾁｮｳﾐﾀﾞｹ","prefecture":"長崎県","city":"南島原市","street":"西有家町見岳"},{"zipCode":"8591502","prefectureKana":"ﾅｶﾞｻｷｹﾝ","cityKana":"ﾐﾅﾐｼﾏﾊﾞﾗｼ","streetKana":"ﾌｶｴﾁｮｳｵﾂ","prefecture":"長崎県","city":"南島原市","street":"深江町乙"},{"zipCode":"8591501","prefectureKana":"ﾅｶﾞｻｷｹﾝ","cityKana":"ﾐﾅﾐｼﾏﾊﾞﾗｼ","streetKana":"ﾌｶｴﾁｮｳｺｳ","prefecture":"長崎県","city":"南島原市","street":"深江町甲"},{"zipCode":"8591504","prefectureKana":"ﾅｶﾞｻｷｹﾝ","cityKana":"ﾐﾅﾐｼﾏﾊﾞﾗｼ","streetKana":"ﾌｶｴﾁｮｳﾃｲ","prefecture":"長崎県","city":"南島原市","street":"深江町丁"},{"zipCode":"8591503","prefectureKana":"ﾅｶﾞｻｷｹﾝ","cityKana":"ﾐﾅﾐｼﾏﾊﾞﾗｼ","streetKana":"ﾌｶｴﾁｮｳﾍｲ","prefecture":"長崎県","city":"南島原市","street":"深江町丙"},{"zipCode":"8591505","prefectureKana":"ﾅｶﾞｻｷｹﾝ","cityKana":"ﾐﾅﾐｼﾏﾊﾞﾗｼ","streetKana":"ﾌｶｴﾁｮｳﾎﾞ","prefecture":"長崎県","city":"南島原市","street":"深江町戊"},{"zipCode":"8592112","prefectureKana":"ﾅｶﾞｻｷｹﾝ","cityKana":"ﾐﾅﾐｼﾏﾊﾞﾗｼ","streetKana":"ﾌﾂﾁｮｳｵﾂ","prefecture":"長崎県","city":"南島原市","street":"布津町乙"},{"zipCode":"8592111","prefectureKana":"ﾅｶﾞｻｷｹﾝ","cityKana":"ﾐﾅﾐｼﾏﾊﾞﾗｼ","streetKana":"ﾌﾂﾁｮｳｺｳ","prefecture":"長崎県","city":"南島原市","street":"布津町甲"},{"zipCode":"8592113","prefectureKana":"ﾅｶﾞｻｷｹﾝ","cityKana":"ﾐﾅﾐｼﾏﾊﾞﾗｼ","streetKana":"ﾌﾂﾁｮｳﾍｲ","prefecture":"長崎県","city":"南島原市","street":"布津町丙"},{"zipCode":"8592412","prefectureKana":"ﾅｶﾞｻｷｹﾝ","cityKana":"ﾐﾅﾐｼﾏﾊﾞﾗｼ","streetKana":"ﾐﾅﾐｱﾘﾏﾁｮｳｵﾂ","prefecture":"長崎県","city":"南島原市","street":"南有馬町乙"},{"zipCode":"8592316","prefectureKana":"ﾅｶﾞｻｷｹﾝ","cityKana":"ﾐﾅﾐｼﾏﾊﾞﾗｼ","streetKana":"ﾐﾅﾐｱﾘﾏﾁｮｳｷ(ﾌﾙｿﾞﾉﾄﾛﾂｺﾞ)","prefecture":"長崎県","city":"南島原市","street":"南有馬町己（古園轟河）"},{"zipCode":"8592416","prefectureKana":"ﾅｶﾞｻｷｹﾝ","cityKana":"ﾐﾅﾐｼﾏﾊﾞﾗｼ","streetKana":"ﾐﾅﾐｱﾘﾏﾁｮｳｷ(ｿﾉﾀ)","prefecture":"長崎県","city":"南島原市","street":"南有馬町己（その他）"},{"zipCode":"8592411","prefectureKana":"ﾅｶﾞｻｷｹﾝ","cityKana":"ﾐﾅﾐｼﾏﾊﾞﾗｼ","streetKana":"ﾐﾅﾐｱﾘﾏﾁｮｳｺｳ","prefecture":"長崎県","city":"南島原市","street":"南有馬町甲"},{"zipCode":"8592414","prefectureKana":"ﾅｶﾞｻｷｹﾝ","cityKana":"ﾐﾅﾐｼﾏﾊﾞﾗｼ","streetKana":"ﾐﾅﾐｱﾘﾏﾁｮｳﾃｲ","prefecture":"長崎県","city":"南島原市","street":"南有馬町丁"},{"zipCode":"8592413","prefectureKana":"ﾅｶﾞｻｷｹﾝ","cityKana":"ﾐﾅﾐｼﾏﾊﾞﾗｼ","streetKana":"ﾐﾅﾐｱﾘﾏﾁｮｳﾍｲ","prefecture":"長崎県","city":"南島原市","street":"南有馬町丙"},{"zipCode":"8592415","prefectureKana":"ﾅｶﾞｻｷｹﾝ","cityKana":"ﾐﾅﾐｼﾏﾊﾞﾗｼ","streetKana":"ﾐﾅﾐｱﾘﾏﾁｮｳﾎﾞ","prefecture":"長崎県","city":"南島原市","street":"南有馬町戊"},{"zipCode":"8593800","prefectureKana":"ﾅｶﾞｻｷｹﾝ","cityKana":"ﾋｶﾞｼｿﾉｷﾞｸﾞﾝﾋｶﾞｼｿﾉｷﾞﾁｮｳ","streetKana":"ｲｶﾆｹｲｻｲｶﾞﾅｲﾊﾞｱｲ","prefecture":"長崎県","city":"東彼杵郡東彼杵町","street":"以下に掲載がない場合"},{"zipCode":"8593811","prefectureKana":"ﾅｶﾞｻｷｹﾝ","cityKana":"ﾋｶﾞｼｿﾉｷﾞｸﾞﾝﾋｶﾞｼｿﾉｷﾞﾁｮｳ","streetKana":"ｵｵﾈｺﾞﾄｺﾞｳ","prefecture":"長崎県","city":"東彼杵郡東彼杵町","street":"大音琴郷"},{"zipCode":"8593926","prefectureKana":"ﾅｶﾞｻｷｹﾝ","cityKana":"ﾋｶﾞｼｿﾉｷﾞｸﾞﾝﾋｶﾞｼｿﾉｷﾞﾁｮｳ","streetKana":"ｶﾌﾞﾗｺﾞｳ","prefecture":"長崎県","city":"東彼杵郡東彼杵町","street":"蕪郷"},{"zipCode":"8593805","prefectureKana":"ﾅｶﾞｻｷｹﾝ","cityKana":"ﾋｶﾞｼｿﾉｷﾞｸﾞﾝﾋｶﾞｼｿﾉｷﾞﾁｮｳ","streetKana":"ｶﾜﾁｺﾞｳ","prefecture":"長崎県","city":"東彼杵郡東彼杵町","street":"川内郷"},{"zipCode":"8593809","prefectureKana":"ﾅｶﾞｻｷｹﾝ","cityKana":"ﾋｶﾞｼｿﾉｷﾞｸﾞﾝﾋｶﾞｼｿﾉｷﾞﾁｮｳ","streetKana":"ｸﾁｷﾀﾞｺﾞｳ","prefecture":"長崎県","city":"東彼杵郡東彼杵町","street":"口木田郷"},{"zipCode":"8593808","prefectureKana":"ﾅｶﾞｻｷｹﾝ","cityKana":"ﾋｶﾞｼｿﾉｷﾞｸﾞﾝﾋｶﾞｼｿﾉｷﾞﾁｮｳ","streetKana":"ｸﾗﾓﾄｺﾞｳ","prefecture":"長崎県","city":"東彼杵郡東彼杵町","street":"蔵本郷"},{"zipCode":"8593812","prefectureKana":"ﾅｶﾞｻｷｹﾝ","cityKana":"ﾋｶﾞｼｿﾉｷﾞｸﾞﾝﾋｶﾞｼｿﾉｷﾞﾁｮｳ","streetKana":"ｺﾈｺﾞﾄｺﾞｳ","prefecture":"長崎県","city":"東彼杵郡東彼杵町","street":"小音琴郷"},{"zipCode":"8593931","prefectureKana":"ﾅｶﾞｻｷｹﾝ","cityKana":"ﾋｶﾞｼｿﾉｷﾞｸﾞﾝﾋｶﾞｼｿﾉｷﾞﾁｮｳ","streetKana":"ｺﾊﾞｺﾞｳ","prefecture":"長崎県","city":"東彼杵郡東彼杵町","street":"木場郷"},{"zipCode":"8593802","prefectureKana":"ﾅｶﾞｻｷｹﾝ","cityKana":"ﾋｶﾞｼｿﾉｷﾞｸﾞﾝﾋｶﾞｼｿﾉｷﾞﾁｮｳ","streetKana":"ｻｶﾓﾄｺﾞｳ","prefecture":"長崎県","city":"東彼杵郡東彼杵町","street":"坂本郷"},{"zipCode":"8593929","prefectureKana":"ﾅｶﾞｻｷｹﾝ","cityKana":"ﾋｶﾞｼｿﾉｷﾞｸﾞﾝﾋｶﾞｼｿﾉｷﾞﾁｮｳ","streetKana":"ｻﾄｺﾞｳ","prefecture":"長崎県","city":"東彼杵郡東彼杵町","street":"里郷"},{"zipCode":"8593803","prefectureKana":"ﾅｶﾞｻｷｹﾝ","cityKana":"ﾋｶﾞｼｿﾉｷﾞｸﾞﾝﾋｶﾞｼｿﾉｷﾞﾁｮｳ","streetKana":"ｽｶﾞﾑﾀｺﾞｳ","prefecture":"長崎県","city":"東彼杵郡東彼杵町","street":"菅無田郷"},{"zipCode":"8593923","prefectureKana":"ﾅｶﾞｻｷｹﾝ","cityKana":"ﾋｶﾞｼｿﾉｷﾞｸﾞﾝﾋｶﾞｼｿﾉｷﾞﾁｮｳ","streetKana":"ｾﾄｺﾞｳ","prefecture":"長崎県","city":"東彼杵郡東彼杵町","street":"瀬戸郷"},{"zipCode":"8593807","prefectureKana":"ﾅｶﾞｻｷｹﾝ","cityKana":"ﾋｶﾞｼｿﾉｷﾞｸﾞﾝﾋｶﾞｼｿﾉｷﾞﾁｮｳ","streetKana":"ｿﾉｷﾞｼｭｸｺﾞｳ","prefecture":"長崎県","city":"東彼杵郡東彼杵町","street":"彼杵宿郷"},{"zipCode":"8593927","prefectureKana":"ﾅｶﾞｻｷｹﾝ","cityKana":"ﾋｶﾞｼｿﾉｷﾞｸﾞﾝﾋｶﾞｼｿﾉｷﾞﾁｮｳ","streetKana":"ﾀﾞｼﾞｺﾞｳ","prefecture":"長崎県","city":"東彼杵郡東彼杵町","street":"駄地郷"},{"zipCode":"8593924","prefectureKana":"ﾅｶﾞｻｷｹﾝ","cityKana":"ﾋｶﾞｼｿﾉｷﾞｸﾞﾝﾋｶﾞｼｿﾉｷﾞﾁｮｳ","streetKana":"ﾀﾉｳﾗｺﾞｳ","prefecture":"長崎県","city":"東彼杵郡東彼杵町","street":"太ノ浦郷"},{"zipCode":"8593921","prefectureKana":"ﾅｶﾞｻｷｹﾝ","cityKana":"ﾋｶﾞｼｿﾉｷﾞｸﾞﾝﾋｶﾞｼｿﾉｷﾞﾁｮｳ","streetKana":"ﾁﾜﾀｼｭｸｺﾞｳ","prefecture":"長崎県","city":"東彼杵郡東彼杵町","street":"千綿宿郷"},{"zipCode":"8593932","prefectureKana":"ﾅｶﾞｻｷｹﾝ","cityKana":"ﾋｶﾞｼｿﾉｷﾞｸﾞﾝﾋｶﾞｼｿﾉｷﾞﾁｮｳ","streetKana":"ﾄｵﾒｺﾞｳ","prefecture":"長崎県","city":"東彼杵郡東彼杵町","street":"遠目郷"},{"zipCode":"8593801","prefectureKana":"ﾅｶﾞｻｷｹﾝ","cityKana":"ﾋｶﾞｼｿﾉｷﾞｸﾞﾝﾋｶﾞｼｿﾉｷﾞﾁｮｳ","streetKana":"ﾅｶｵｺﾞｳ","prefecture":"長崎県","city":"東彼杵郡東彼杵町","street":"中尾郷"},{"zipCode":"8593925","prefectureKana":"ﾅｶﾞｻｷｹﾝ","cityKana":"ﾋｶﾞｼｿﾉｷﾞｸﾞﾝﾋｶﾞｼｿﾉｷﾞﾁｮｳ","streetKana":"ﾅｶﾀｹｺﾞｳ","prefecture":"長崎県","city":"東彼杵郡東彼杵町","street":"中岳郷"},{"zipCode":"8593922","prefectureKana":"ﾅｶﾞｻｷｹﾝ","cityKana":"ﾋｶﾞｼｿﾉｷﾞｸﾞﾝﾋｶﾞｼｿﾉｷﾞﾁｮｳ","streetKana":"ﾊﾁﾀﾝﾀﾞｺﾞｳ","prefecture":"長崎県","city":"東彼杵郡東彼杵町","street":"八反田郷"},{"zipCode":"8593933","prefectureKana":"ﾅｶﾞｻｷｹﾝ","cityKana":"ﾋｶﾞｼｿﾉｷﾞｸﾞﾝﾋｶﾞｼｿﾉｷﾞﾁｮｳ","streetKana":"ﾋﾄﾂｲｼｺﾞｳ","prefecture":"長崎県","city":"東彼杵郡東彼杵町","street":"一ッ石郷"},{"zipCode":"8593928","prefectureKana":"ﾅｶﾞｻｷｹﾝ","cityKana":"ﾋｶﾞｼｿﾉｷﾞｸﾞﾝﾋｶﾞｼｿﾉｷﾞﾁｮｳ","streetKana":"ﾋﾗﾆﾀｺﾞｳ","prefecture":"長崎県","city":"東彼杵郡東彼杵町","street":"平似田郷"},{"zipCode":"8593804","prefectureKana":"ﾅｶﾞｻｷｹﾝ","cityKana":"ﾋｶﾞｼｿﾉｷﾞｸﾞﾝﾋｶﾞｼｿﾉｷﾞﾁｮｳ","streetKana":"ﾎｳｵﾝｼﾞｺﾞｳ","prefecture":"長崎県","city":"東彼杵郡東彼杵町","street":"法音寺郷"},{"zipCode":"8593806","prefectureKana":"ﾅｶﾞｻｷｹﾝ","cityKana":"ﾋｶﾞｼｿﾉｷﾞｸﾞﾝﾋｶﾞｼｿﾉｷﾞﾁｮｳ","streetKana":"ﾐﾈｺﾞｳ","prefecture":"長崎県","city":"東彼杵郡東彼杵町","street":"三根郷"},{"zipCode":"8593600","prefectureKana":"ﾅｶﾞｻｷｹﾝ","cityKana":"ﾋｶﾞｼｿﾉｷﾞｸﾞﾝｶﾜﾀﾅﾁｮｳ","streetKana":"ｲｶﾆｹｲｻｲｶﾞﾅｲﾊﾞｱｲ","prefecture":"長崎県","city":"東彼杵郡川棚町","street":"以下に掲載がない場合"},{"zipCode":"8593604","prefectureKana":"ﾅｶﾞｻｷｹﾝ","cityKana":"ﾋｶﾞｼｿﾉｷﾞｸﾞﾝｶﾜﾀﾅﾁｮｳ","streetKana":"ｲｼｷｺﾞｳ","prefecture":"長崎県","city":"東彼杵郡川棚町","street":"石木郷"},{"zipCode":"8593601","prefectureKana":"ﾅｶﾞｻｷｹﾝ","cityKana":"ﾋｶﾞｼｿﾉｷﾞｸﾞﾝｶﾜﾀﾅﾁｮｳ","streetKana":"ｲﾉﾘｺﾞｳﾁｺﾞｳ","prefecture":"長崎県","city":"東彼杵郡川棚町","street":"猪乗川内郷"},{"zipCode":"8593603","prefectureKana":"ﾅｶﾞｻｷｹﾝ","cityKana":"ﾋｶﾞｼｿﾉｷﾞｸﾞﾝｶﾜﾀﾅﾁｮｳ","streetKana":"ｲﾜﾔｺﾞｳ","prefecture":"長崎県","city":"東彼杵郡川棚町","street":"岩屋郷"},{"zipCode":"8593618","prefectureKana":"ﾅｶﾞｻｷｹﾝ","cityKana":"ﾋｶﾞｼｿﾉｷﾞｸﾞﾝｶﾜﾀﾅﾁｮｳ","streetKana":"ｵｸﾞｼｺﾞｳ","prefecture":"長崎県","city":"東彼杵郡川棚町","street":"小串郷"},{"zipCode":"8593613","prefectureKana":"ﾅｶﾞｻｷｹﾝ","cityKana":"ﾋｶﾞｼｿﾉｷﾞｸﾞﾝｶﾜﾀﾅﾁｮｳ","streetKana":"ｶﾐｸﾞﾐｺﾞｳ","prefecture":"長崎県","city":"東彼杵郡川棚町","street":"上組郷"},{"zipCode":"8593612","prefectureKana":"ﾅｶﾞｻｷｹﾝ","cityKana":"ﾋｶﾞｼｿﾉｷﾞｸﾞﾝｶﾜﾀﾅﾁｮｳ","streetKana":"ｺﾞﾀﾝﾀﾞｺﾞｳ","prefecture":"長崎県","city":"東彼杵郡川棚町","street":"五反田郷"},{"zipCode":"8593606","prefectureKana":"ﾅｶﾞｻｷｹﾝ","cityKana":"ﾋｶﾞｼｿﾉｷﾞｸﾞﾝｶﾜﾀﾅﾁｮｳ","streetKana":"ｺﾈｺﾞﾄｺﾞｳ","prefecture":"長崎県","city":"東彼杵郡川棚町","street":"小音琴郷"},{"zipCode":"8593602","prefectureKana":"ﾅｶﾞｻｷｹﾝ","cityKana":"ﾋｶﾞｼｿﾉｷﾞｸﾞﾝｶﾜﾀﾅﾁｮｳ","streetKana":"ｺﾊﾞｺﾞｳ","prefecture":"長崎県","city":"東彼杵郡川棚町","street":"木場郷"},{"zipCode":"8593608","prefectureKana":"ﾅｶﾞｻｷｹﾝ","cityKana":"ﾋｶﾞｼｿﾉｷﾞｸﾞﾝｶﾜﾀﾅﾁｮｳ","streetKana":"ｻｶｴﾏﾁ","prefecture":"長崎県","city":"東彼杵郡川棚町","street":"栄町"},{"zipCode":"8593615","prefectureKana":"ﾅｶﾞｻｷｹﾝ","cityKana":"ﾋｶﾞｼｿﾉｷﾞｸﾞﾝｶﾜﾀﾅﾁｮｳ","streetKana":"ｼﾓｸﾞﾐｺﾞｳ","prefecture":"長崎県","city":"東彼杵郡川棚町","street":"下組郷"},{"zipCode":"8593616","prefectureKana":"ﾅｶﾞｻｷｹﾝ","cityKana":"ﾋｶﾞｼｿﾉｷﾞｸﾞﾝｶﾜﾀﾅﾁｮｳ","streetKana":"ｼﾛｲｼｺﾞｳ","prefecture":"長崎県","city":"東彼杵郡川棚町","street":"白石郷"},{"zipCode":"8593607","prefectureKana":"ﾅｶﾞｻｷｹﾝ","cityKana":"ﾋｶﾞｼｿﾉｷﾞｸﾞﾝｶﾜﾀﾅﾁｮｳ","streetKana":"ｼﾛﾔﾏﾁｮｳ","prefecture":"長崎県","city":"東彼杵郡川棚町","street":"城山町"},{"zipCode":"8593619","prefectureKana":"ﾅｶﾞｻｷｹﾝ","cityKana":"ﾋｶﾞｼｿﾉｷﾞｸﾞﾝｶﾜﾀﾅﾁｮｳ","streetKana":"ｼﾝｶﾞｴｺﾞｳ","prefecture":"長崎県","city":"東彼杵郡川棚町","street":"新谷郷"},{"zipCode":"8593614","prefectureKana":"ﾅｶﾞｻｷｹﾝ","cityKana":"ﾋｶﾞｼｿﾉｷﾞｸﾞﾝｶﾜﾀﾅﾁｮｳ","streetKana":"ﾅｶｸﾞﾐｺﾞｳ","prefecture":"長崎県","city":"東彼杵郡川棚町","street":"中組郷"},{"zipCode":"8593611","prefectureKana":"ﾅｶﾞｻｷｹﾝ","cityKana":"ﾋｶﾞｼｿﾉｷﾞｸﾞﾝｶﾜﾀﾅﾁｮｳ","streetKana":"ﾅｶﾔﾏｺﾞｳ","prefecture":"長崎県","city":"東彼杵郡川棚町","street":"中山郷"},{"zipCode":"8593617","prefectureKana":"ﾅｶﾞｻｷｹﾝ","cityKana":"ﾋｶﾞｼｿﾉｷﾞｸﾞﾝｶﾜﾀﾅﾁｮｳ","streetKana":"ﾐﾂｺﾞｴｺﾞｳ","prefecture":"長崎県","city":"東彼杵郡川棚町","street":"三越郷"},{"zipCode":"8593605","prefectureKana":"ﾅｶﾞｻｷｹﾝ","cityKana":"ﾋｶﾞｼｿﾉｷﾞｸﾞﾝｶﾜﾀﾅﾁｮｳ","streetKana":"ﾓﾓﾂﾞｺﾞｳ","prefecture":"長崎県","city":"東彼杵郡川棚町","street":"百津郷"},{"zipCode":"8593700","prefectureKana":"ﾅｶﾞｻｷｹﾝ","cityKana":"ﾋｶﾞｼｿﾉｷﾞｸﾞﾝﾊｻﾐﾁｮｳ","streetKana":"ｲｶﾆｹｲｻｲｶﾞﾅｲﾊﾞｱｲ","prefecture":"長崎県","city":"東彼杵郡波佐見町","street":"以下に掲載がない場合"},{"zipCode":"8593711","prefectureKana":"ﾅｶﾞｻｷｹﾝ","cityKana":"ﾋｶﾞｼｿﾉｷﾞｸﾞﾝﾊｻﾐﾁｮｳ","streetKana":"ｲｾｷｺﾞｳ","prefecture":"長崎県","city":"東彼杵郡波佐見町","street":"井石郷"},{"zipCode":"8593713","prefectureKana":"ﾅｶﾞｻｷｹﾝ","cityKana":"ﾋｶﾞｼｿﾉｷﾞｸﾞﾝﾊｻﾐﾁｮｳ","streetKana":"ｵﾆｷﾞｺﾞｳ","prefecture":"長崎県","city":"東彼杵郡波佐見町","street":"鬼木郷"},{"zipCode":"8593701","prefectureKana":"ﾅｶﾞｻｷｹﾝ","cityKana":"ﾋｶﾞｼｿﾉｷﾞｸﾞﾝﾊｻﾐﾁｮｳ","streetKana":"ｵﾘｼｷｾｺﾞｳ","prefecture":"長崎県","city":"東彼杵郡波佐見町","street":"折敷瀬郷"},{"zipCode":"8593714","prefectureKana":"ﾅｶﾞｻｷｹﾝ","cityKana":"ﾋｶﾞｼｿﾉｷﾞｸﾞﾝﾊｻﾐﾁｮｳ","streetKana":"ｶﾅﾔｺﾞｳ","prefecture":"長崎県","city":"東彼杵郡波佐見町","street":"金屋郷"},{"zipCode":"8593721","prefectureKana":"ﾅｶﾞｻｷｹﾝ","cityKana":"ﾋｶﾞｼｿﾉｷﾞｸﾞﾝﾊｻﾐﾁｮｳ","streetKana":"ｶﾜﾁｺﾞｳ","prefecture":"長崎県","city":"東彼杵郡波佐見町","street":"川内郷"},{"zipCode":"8593704","prefectureKana":"ﾅｶﾞｻｷｹﾝ","cityKana":"ﾋｶﾞｼｿﾉｷﾞｸﾞﾝﾊｻﾐﾁｮｳ","streetKana":"ｺﾀﾞﾙｺﾞｳ","prefecture":"長崎県","city":"東彼杵郡波佐見町","street":"小樽郷"},{"zipCode":"8593727","prefectureKana":"ﾅｶﾞｻｷｹﾝ","cityKana":"ﾋｶﾞｼｿﾉｷﾞｸﾞﾝﾊｻﾐﾁｮｳ","streetKana":"ｻﾗﾔﾏｺﾞｳ","prefecture":"長崎県","city":"東彼杵郡波佐見町","street":"皿山郷"},{"zipCode":"8593724","prefectureKana":"ﾅｶﾞｻｷｹﾝ","cityKana":"ﾋｶﾞｼｿﾉｷﾞｸﾞﾝﾊｻﾐﾁｮｳ","streetKana":"ｼｵﾘｺﾞｳ","prefecture":"長崎県","city":"東彼杵郡波佐見町","street":"志折郷"},{"zipCode":"8593715","prefectureKana":"ﾅｶﾞｻｷｹﾝ","cityKana":"ﾋｶﾞｼｿﾉｷﾞｸﾞﾝﾊｻﾐﾁｮｳ","streetKana":"ｼｭｸｺﾞｳ","prefecture":"長崎県","city":"東彼杵郡波佐見町","street":"宿郷"},{"zipCode":"8593722","prefectureKana":"ﾅｶﾞｻｷｹﾝ","cityKana":"ﾋｶﾞｼｿﾉｷﾞｸﾞﾝﾊｻﾐﾁｮｳ","streetKana":"ﾀｹﾍﾞﾀｺﾞｳ","prefecture":"長崎県","city":"東彼杵郡波佐見町","street":"岳辺田郷"},{"zipCode":"8593716","prefectureKana":"ﾅｶﾞｻｷｹﾝ","cityKana":"ﾋｶﾞｼｿﾉｷﾞｸﾞﾝﾊｻﾐﾁｮｳ","streetKana":"ﾀﾉｶｼﾗｺﾞｳ","prefecture":"長崎県","city":"東彼杵郡波佐見町","street":"田ノ頭郷"},{"zipCode":"8593712","prefectureKana":"ﾅｶﾞｻｷｹﾝ","cityKana":"ﾋｶﾞｼｿﾉｷﾞｸﾞﾝﾊｻﾐﾁｮｳ","streetKana":"ﾅｶｵｺﾞｳ","prefecture":"長崎県","city":"東彼杵郡波佐見町","street":"中尾郷"},{"zipCode":"8593705","prefectureKana":"ﾅｶﾞｻｷｹﾝ","cityKana":"ﾋｶﾞｼｿﾉｷﾞｸﾞﾝﾊｻﾐﾁｮｳ","streetKana":"ﾅｶﾞｵｺﾞｳ","prefecture":"長崎県","city":"東彼杵郡波佐見町","street":"永尾郷"},{"zipCode":"8593725","prefectureKana":"ﾅｶﾞｻｷｹﾝ","cityKana":"ﾋｶﾞｼｿﾉｷﾞｸﾞﾝﾊｻﾐﾁｮｳ","streetKana":"ﾅｶﾞﾉｺﾞｳ","prefecture":"長崎県","city":"東彼杵郡波佐見町","street":"長野郷"},{"zipCode":"8593703","prefectureKana":"ﾅｶﾞｻｷｹﾝ","cityKana":"ﾋｶﾞｼｿﾉｷﾞｸﾞﾝﾊｻﾐﾁｮｳ","streetKana":"ﾉﾉｶﾜｺﾞｳ","prefecture":"長崎県","city":"東彼杵郡波佐見町","street":"野々川郷"},{"zipCode":"8593726","prefectureKana":"ﾅｶﾞｻｷｹﾝ","cityKana":"ﾋｶﾞｼｿﾉｷﾞｸﾞﾝﾊｻﾐﾁｮｳ","streetKana":"ﾋｴｺﾊﾞｺﾞｳ","prefecture":"長崎県","city":"東彼杵郡波佐見町","street":"稗木場郷"},{"zipCode":"8593723","prefectureKana":"ﾅｶﾞｻｷｹﾝ","cityKana":"ﾋｶﾞｼｿﾉｷﾞｸﾞﾝﾊｻﾐﾁｮｳ","streetKana":"ﾋﾗﾉｺﾞｳ","prefecture":"長崎県","city":"東彼杵郡波佐見町","street":"平野郷"},{"zipCode":"8593706","prefectureKana":"ﾅｶﾞｻｷｹﾝ","cityKana":"ﾋｶﾞｼｿﾉｷﾞｸﾞﾝﾊｻﾐﾁｮｳ","streetKana":"ﾐﾂﾏﾀｺﾞｳ","prefecture":"長崎県","city":"東彼杵郡波佐見町","street":"三股郷"},{"zipCode":"8593728","prefectureKana":"ﾅｶﾞｻｷｹﾝ","cityKana":"ﾋｶﾞｼｿﾉｷﾞｸﾞﾝﾊｻﾐﾁｮｳ","streetKana":"ﾑﾗｷﾞｺﾞｳ","prefecture":"長崎県","city":"東彼杵郡波佐見町","street":"村木郷"},{"zipCode":"8593702","prefectureKana":"ﾅｶﾞｻｷｹﾝ","cityKana":"ﾋｶﾞｼｿﾉｷﾞｸﾞﾝﾊｻﾐﾁｮｳ","streetKana":"ﾕﾑﾀｺﾞｳ","prefecture":"長崎県","city":"東彼杵郡波佐見町","street":"湯無田郷"}]