[{"zipCode":"8620941","prefectureKana":"ｸﾏﾓﾄｹﾝ","cityKana":"ｸﾏﾓﾄｼﾁｭｳｵｳｸ","streetKana":"ｲｽﾞﾐ","prefecture":"熊本県","city":"熊本市中央区","street":"出水"},{"zipCode":"8620942","prefectureKana":"ｸﾏﾓﾄｹﾝ","cityKana":"ｸﾏﾓﾄｼﾁｭｳｵｳｸ","streetKana":"ｴﾂﾞ","prefecture":"熊本県","city":"熊本市中央区","street":"江津"},{"zipCode":"8620971","prefectureKana":"ｸﾏﾓﾄｹﾝ","cityKana":"ｸﾏﾓﾄｼﾁｭｳｵｳｸ","streetKana":"ｵｵｴ","prefecture":"熊本県","city":"熊本市中央区","street":"大江"},{"zipCode":"8620973","prefectureKana":"ｸﾏﾓﾄｹﾝ","cityKana":"ｸﾏﾓﾄｼﾁｭｳｵｳｸ","streetKana":"ｵｵｴﾎﾝﾏﾁ","prefecture":"熊本県","city":"熊本市中央区","street":"大江本町"},{"zipCode":"8620958","prefectureKana":"ｸﾏﾓﾄｹﾝ","cityKana":"ｸﾏﾓﾄｼﾁｭｳｵｳｸ","streetKana":"ｵｶﾀﾞﾏﾁ","prefecture":"熊本県","city":"熊本市中央区","street":"岡田町"},{"zipCode":"8620924","prefectureKana":"ｸﾏﾓﾄｹﾝ","cityKana":"ｸﾏﾓﾄｼﾁｭｳｵｳｸ","streetKana":"ｵﾋﾞﾔﾏ","prefecture":"熊本県","city":"熊本市中央区","street":"帯山"},{"zipCode":"8620953","prefectureKana":"ｸﾏﾓﾄｹﾝ","cityKana":"ｸﾏﾓﾄｼﾁｭｳｵｳｸ","streetKana":"ｶﾐｷｮｳﾂﾞｶﾏﾁ","prefecture":"熊本県","city":"熊本市中央区","street":"上京塚町"},{"zipCode":"8620951","prefectureKana":"ｸﾏﾓﾄｹﾝ","cityKana":"ｸﾏﾓﾄｼﾁｭｳｵｳｸ","streetKana":"ｶﾐｽｲｾﾞﾝｼﾞ","prefecture":"熊本県","city":"熊本市中央区","street":"上水前寺"},{"zipCode":"8620976","prefectureKana":"ｸﾏﾓﾄｹﾝ","cityKana":"ｸﾏﾓﾄｼﾁｭｳｵｳｸ","streetKana":"ｸﾎﾝｼﾞ","prefecture":"熊本県","city":"熊本市中央区","street":"九品寺"},{"zipCode":"8620954","prefectureKana":"ｸﾏﾓﾄｹﾝ","cityKana":"ｸﾏﾓﾄｼﾁｭｳｵｳｸ","streetKana":"ｸﾜﾐｽﾞ","prefecture":"熊本県","city":"熊本市中央区","street":"神水"},{"zipCode":"8620955","prefectureKana":"ｸﾏﾓﾄｹﾝ","cityKana":"ｸﾏﾓﾄｼﾁｭｳｵｳｸ","streetKana":"ｸﾜﾐｽﾞﾎﾝﾏﾁ","prefecture":"熊本県","city":"熊本市中央区","street":"神水本町"},{"zipCode":"8620949","prefectureKana":"ｸﾏﾓﾄｹﾝ","cityKana":"ｸﾏﾓﾄｼﾁｭｳｵｳｸ","streetKana":"ｺｸﾌﾞ","prefecture":"熊本県","city":"熊本市中央区","street":"国府"},{"zipCode":"8620948","prefectureKana":"ｸﾏﾓﾄｹﾝ","cityKana":"ｸﾏﾓﾄｼﾁｭｳｵｳｸ","streetKana":"ｺｸﾌﾞﾎﾝﾏﾁ","prefecture":"熊本県","city":"熊本市中央区","street":"国府本町"},{"zipCode":"8620909","prefectureKana":"ｸﾏﾓﾄｹﾝ","cityKana":"ｸﾏﾓﾄｼﾁｭｳｵｳｸ","streetKana":"ｺﾄｳ","prefecture":"熊本県","city":"熊本市中央区","street":"湖東"},{"zipCode":"8620922","prefectureKana":"ｸﾏﾓﾄｹﾝ","cityKana":"ｸﾏﾓﾄｼﾁｭｳｵｳｸ","streetKana":"ｻﾌﾞﾛｳ","prefecture":"熊本県","city":"熊本市中央区","street":"三郎"},{"zipCode":"8620972","prefectureKana":"ｸﾏﾓﾄｹﾝ","cityKana":"ｸﾏﾓﾄｼﾁｭｳｵｳｸ","streetKana":"ｼﾝｵｵｴ","prefecture":"熊本県","city":"熊本市中央区","street":"新大江"},{"zipCode":"8620975","prefectureKana":"ｸﾏﾓﾄｹﾝ","cityKana":"ｸﾏﾓﾄｼﾁｭｳｵｳｸ","streetKana":"ｼﾝﾔｼｷ","prefecture":"熊本県","city":"熊本市中央区","street":"新屋敷"},{"zipCode":"8620950","prefectureKana":"ｸﾏﾓﾄｹﾝ","cityKana":"ｸﾏﾓﾄｼﾁｭｳｵｳｸ","streetKana":"ｽｲｾﾞﾝｼﾞ","prefecture":"熊本県","city":"熊本市中央区","street":"水前寺"},{"zipCode":"8620956","prefectureKana":"ｸﾏﾓﾄｹﾝ","cityKana":"ｸﾏﾓﾄｼﾁｭｳｵｳｸ","streetKana":"ｽｲｾﾞﾝｼﾞｺｳｴﾝ","prefecture":"熊本県","city":"熊本市中央区","street":"水前寺公園"},{"zipCode":"8620957","prefectureKana":"ｸﾏﾓﾄｹﾝ","cityKana":"ｸﾏﾓﾄｼﾁｭｳｵｳｸ","streetKana":"ｽｶﾞﾜﾗﾏﾁ","prefecture":"熊本県","city":"熊本市中央区","street":"菅原町"},{"zipCode":"8620970","prefectureKana":"ｸﾏﾓﾄｹﾝ","cityKana":"ｸﾏﾓﾄｼﾁｭｳｵｳｸ","streetKana":"ﾄﾛｸ","prefecture":"熊本県","city":"熊本市中央区","street":"渡鹿"},{"zipCode":"8620959","prefectureKana":"ｸﾏﾓﾄｹﾝ","cityKana":"ｸﾏﾓﾄｼﾁｭｳｵｳｸ","streetKana":"ﾊｸｻﾞﾝ","prefecture":"熊本県","city":"熊本市中央区","street":"白山"},{"zipCode":"8620923","prefectureKana":"ｸﾏﾓﾄｹﾝ","cityKana":"ｸﾏﾓﾄｼﾁｭｳｵｳｸ","streetKana":"ﾋｶﾞｼｷｮｳﾂﾞｶﾏﾁ","prefecture":"熊本県","city":"熊本市中央区","street":"東京塚町"},{"zipCode":"8620926","prefectureKana":"ｸﾏﾓﾄｹﾝ","cityKana":"ｸﾏﾓﾄｼﾁｭｳｵｳｸ","streetKana":"ﾎﾀｸﾎﾞ","prefecture":"熊本県","city":"熊本市中央区","street":"保田窪"},{"zipCode":"8620941","prefectureKana":"ｸﾏﾓﾄｹﾝ","cityKana":"ｸﾏﾓﾄｼﾋｶﾞｼｸ","streetKana":"ｲｽﾞﾐ","prefecture":"熊本県","city":"熊本市東区","street":"出水"},{"zipCode":"8620961","prefectureKana":"ｸﾏﾓﾄｹﾝ","cityKana":"ｸﾏﾓﾄｼﾋｶﾞｼｸ","streetKana":"ｴｽﾞﾋｶﾞｼ","prefecture":"熊本県","city":"熊本市東区","street":"画図東"},{"zipCode":"8620944","prefectureKana":"ｸﾏﾓﾄｹﾝ","cityKana":"ｸﾏﾓﾄｼﾋｶﾞｼｸ","streetKana":"ｴｽﾞﾏﾁｶﾐﾑﾀ","prefecture":"熊本県","city":"熊本市東区","street":"画図町上無田"},{"zipCode":"8620947","prefectureKana":"ｸﾏﾓﾄｹﾝ","cityKana":"ｸﾏﾓﾄｼﾋｶﾞｼｸ","streetKana":"ｴｽﾞﾏﾁｼｹﾞﾄﾞﾐ","prefecture":"熊本県","city":"熊本市東区","street":"画図町重富"},{"zipCode":"8620943","prefectureKana":"ｸﾏﾓﾄｹﾝ","cityKana":"ｸﾏﾓﾄｼﾋｶﾞｼｸ","streetKana":"ｴｽﾞﾏﾁｼﾓｴﾂﾞ","prefecture":"熊本県","city":"熊本市東区","street":"画図町下江津"},{"zipCode":"8620945","prefectureKana":"ｸﾏﾓﾄｹﾝ","cityKana":"ｸﾏﾓﾄｼﾋｶﾞｼｸ","streetKana":"ｴｽﾞﾏﾁｼﾓﾑﾀ","prefecture":"熊本県","city":"熊本市東区","street":"画図町下無田"},{"zipCode":"8620946","prefectureKana":"ｸﾏﾓﾄｹﾝ","cityKana":"ｸﾏﾓﾄｼﾋｶﾞｼｸ","streetKana":"ｴｽﾞﾏﾁﾄｺﾛｼﾞﾏ","prefecture":"熊本県","city":"熊本市東区","street":"画図町所島"},{"zipCode":"8620942","prefectureKana":"ｸﾏﾓﾄｹﾝ","cityKana":"ｸﾏﾓﾄｼﾋｶﾞｼｸ","streetKana":"ｴﾂﾞ","prefecture":"熊本県","city":"熊本市東区","street":"江津"},{"zipCode":"8620917","prefectureKana":"ｸﾏﾓﾄｹﾝ","cityKana":"ｸﾏﾓﾄｼﾋｶﾞｼｸ","streetKana":"ｴﾉｷﾏﾁ","prefecture":"熊本県","city":"熊本市東区","street":"榎町"},{"zipCode":"8620913","prefectureKana":"ｸﾏﾓﾄｹﾝ","cityKana":"ｸﾏﾓﾄｼﾋｶﾞｼｸ","streetKana":"ｵﾉｳｴ","prefecture":"熊本県","city":"熊本市東区","street":"尾ノ上"},{"zipCode":"8620924","prefectureKana":"ｸﾏﾓﾄｹﾝ","cityKana":"ｸﾏﾓﾄｼﾋｶﾞｼｸ","streetKana":"ｵﾋﾞﾔﾏ","prefecture":"熊本県","city":"熊本市東区","street":"帯山"},{"zipCode":"8620933","prefectureKana":"ｸﾏﾓﾄｹﾝ","cityKana":"ｸﾏﾓﾄｼﾋｶﾞｼｸ","streetKana":"ｵﾐﾈ","prefecture":"熊本県","city":"熊本市東区","street":"小峯"},{"zipCode":"8620952","prefectureKana":"ｸﾏﾓﾄｹﾝ","cityKana":"ｸﾏﾓﾄｼﾋｶﾞｼｸ","streetKana":"ｷｮｳﾂﾞｶﾎﾝﾏﾁ","prefecture":"熊本県","city":"熊本市東区","street":"京塚本町"},{"zipCode":"8620955","prefectureKana":"ｸﾏﾓﾄｹﾝ","cityKana":"ｸﾏﾓﾄｼﾋｶﾞｼｸ","streetKana":"ｸﾜﾐｽﾞﾎﾝﾏﾁ","prefecture":"熊本県","city":"熊本市東区","street":"神水本町"},{"zipCode":"8620911","prefectureKana":"ｸﾏﾓﾄｹﾝ","cityKana":"ｸﾏﾓﾄｼﾋｶﾞｼｸ","streetKana":"ｹﾝｸﾞﾝ","prefecture":"熊本県","city":"熊本市東区","street":"健軍"},{"zipCode":"8620910","prefectureKana":"ｸﾏﾓﾄｹﾝ","cityKana":"ｸﾏﾓﾄｼﾋｶﾞｼｸ","streetKana":"ｹﾝｸﾞﾝﾎﾝﾏﾁ","prefecture":"熊本県","city":"熊本市東区","street":"健軍本町"},{"zipCode":"8620909","prefectureKana":"ｸﾏﾓﾄｹﾝ","cityKana":"ｸﾏﾓﾄｼﾋｶﾞｼｸ","streetKana":"ｺﾄｳ","prefecture":"熊本県","city":"熊本市東区","street":"湖東"},{"zipCode":"8620904","prefectureKana":"ｸﾏﾓﾄｹﾝ","cityKana":"ｸﾏﾓﾄｼﾋｶﾞｼｸ","streetKana":"ｻｶｴﾏﾁ","prefecture":"熊本県","city":"熊本市東区","street":"栄町"},{"zipCode":"8620916","prefectureKana":"ｸﾏﾓﾄｹﾝ","cityKana":"ｸﾏﾓﾄｼﾋｶﾞｼｸ","streetKana":"ｻﾄﾞﾜﾗ","prefecture":"熊本県","city":"熊本市東区","street":"佐土原"},{"zipCode":"8620922","prefectureKana":"ｸﾏﾓﾄｹﾝ","cityKana":"ｸﾏﾓﾄｼﾋｶﾞｼｸ","streetKana":"ｻﾌﾞﾛｳ","prefecture":"熊本県","city":"熊本市東区","street":"三郎"},{"zipCode":"8620960","prefectureKana":"ｸﾏﾓﾄｹﾝ","cityKana":"ｸﾏﾓﾄｼﾋｶﾞｼｸ","streetKana":"ｼﾓｴﾂﾞ","prefecture":"熊本県","city":"熊本市東区","street":"下江津"},{"zipCode":"8620908","prefectureKana":"ｸﾏﾓﾄｹﾝ","cityKana":"ｸﾏﾓﾄｼﾋｶﾞｼｸ","streetKana":"ｼﾝｾｲ","prefecture":"熊本県","city":"熊本市東区","street":"新生"},{"zipCode":"8620921","prefectureKana":"ｸﾏﾓﾄｹﾝ","cityKana":"ｸﾏﾓﾄｼﾋｶﾞｼｸ","streetKana":"ｼﾝﾎｶ","prefecture":"熊本県","city":"熊本市東区","street":"新外"},{"zipCode":"8620907","prefectureKana":"ｸﾏﾓﾄｹﾝ","cityKana":"ｸﾏﾓﾄｼﾋｶﾞｼｸ","streetKana":"ｽｲｹﾞﾝ","prefecture":"熊本県","city":"熊本市東区","street":"水源"},{"zipCode":"8620920","prefectureKana":"ｸﾏﾓﾄｹﾝ","cityKana":"ｸﾏﾓﾄｼﾋｶﾞｼｸ","streetKana":"ﾂｷﾃﾞ","prefecture":"熊本県","city":"熊本市東区","street":"月出"},{"zipCode":"8620970","prefectureKana":"ｸﾏﾓﾄｹﾝ","cityKana":"ｸﾏﾓﾄｼﾋｶﾞｼｸ","streetKana":"ﾄﾛｸ","prefecture":"熊本県","city":"熊本市東区","street":"渡鹿"},{"zipCode":"8620912","prefectureKana":"ｸﾏﾓﾄｹﾝ","cityKana":"ｸﾏﾓﾄｼﾋｶﾞｼｸ","streetKana":"ﾆｼｷｶﾞｵｶ","prefecture":"熊本県","city":"熊本市東区","street":"錦ケ丘"},{"zipCode":"8620918","prefectureKana":"ｸﾏﾓﾄｹﾝ","cityKana":"ｸﾏﾓﾄｼﾋｶﾞｼｸ","streetKana":"ﾊﾅﾀﾃ(5､6ﾁｮｳﾒ)","prefecture":"熊本県","city":"熊本市東区","street":"花立（５、６丁目）"},{"zipCode":"8620923","prefectureKana":"ｸﾏﾓﾄｹﾝ","cityKana":"ｸﾏﾓﾄｼﾋｶﾞｼｸ","streetKana":"ﾋｶﾞｼｷｮｳﾂﾞｶﾏﾁ","prefecture":"熊本県","city":"熊本市東区","street":"東京塚町"},{"zipCode":"8620902","prefectureKana":"ｸﾏﾓﾄｹﾝ","cityKana":"ｸﾏﾓﾄｼﾋｶﾞｼｸ","streetKana":"ﾋｶﾞｼﾎﾝﾏﾁ","prefecture":"熊本県","city":"熊本市東区","street":"東本町"},{"zipCode":"8620901","prefectureKana":"ｸﾏﾓﾄｹﾝ","cityKana":"ｸﾏﾓﾄｼﾋｶﾞｼｸ","streetKana":"ﾋｶﾞｼﾏﾁ","prefecture":"熊本県","city":"熊本市東区","street":"東町"},{"zipCode":"8620906","prefectureKana":"ｸﾏﾓﾄｹﾝ","cityKana":"ｸﾏﾓﾄｼﾋｶﾞｼｸ","streetKana":"ﾋﾛｷﾞﾏﾁ","prefecture":"熊本県","city":"熊本市東区","street":"広木町"},{"zipCode":"8620926","prefectureKana":"ｸﾏﾓﾄｹﾝ","cityKana":"ｸﾏﾓﾄｼﾋｶﾞｼｸ","streetKana":"ﾎﾀｸﾎﾞ","prefecture":"熊本県","city":"熊本市東区","street":"保田窪"},{"zipCode":"8620925","prefectureKana":"ｸﾏﾓﾄｹﾝ","cityKana":"ｸﾏﾓﾄｼﾋｶﾞｼｸ","streetKana":"ﾎﾀｸﾎﾞﾎﾝﾏﾁ","prefecture":"熊本県","city":"熊本市東区","street":"保田窪本町"},{"zipCode":"8620905","prefectureKana":"ｸﾏﾓﾄｹﾝ","cityKana":"ｸﾏﾓﾄｼﾋｶﾞｼｸ","streetKana":"ﾐﾅﾐﾏﾁ","prefecture":"熊本県","city":"熊本市東区","street":"南町"},{"zipCode":"8620914","prefectureKana":"ｸﾏﾓﾄｹﾝ","cityKana":"ｸﾏﾓﾄｼﾋｶﾞｼｸ","streetKana":"ﾔﾏﾉｳﾁ","prefecture":"熊本県","city":"熊本市東区","street":"山ノ内"},{"zipCode":"8620915","prefectureKana":"ｸﾏﾓﾄｹﾝ","cityKana":"ｸﾏﾓﾄｼﾋｶﾞｼｸ","streetKana":"ﾔﾏﾉｶﾐ","prefecture":"熊本県","city":"熊本市東区","street":"山ノ神"},{"zipCode":"8620903","prefectureKana":"ｸﾏﾓﾄｹﾝ","cityKana":"ｸﾏﾓﾄｼﾋｶﾞｼｸ","streetKana":"ﾜｶﾊﾞ(1-3ﾁｮｳﾒ)","prefecture":"熊本県","city":"熊本市東区","street":"若葉（１～３丁目）"},{"zipCode":"8620963","prefectureKana":"ｸﾏﾓﾄｹﾝ","cityKana":"ｸﾏﾓﾄｼﾐﾅﾐｸ","streetKana":"ｲﾃﾞﾅｶﾏ","prefecture":"熊本県","city":"熊本市南区","street":"出仲間"},{"zipCode":"8620965","prefectureKana":"ｸﾏﾓﾄｹﾝ","cityKana":"ｸﾏﾓﾄｼﾐﾅﾐｸ","streetKana":"ﾀｲﾉｼﾏ","prefecture":"熊本県","city":"熊本市南区","street":"田井島"},{"zipCode":"8620962","prefectureKana":"ｸﾏﾓﾄｹﾝ","cityKana":"ｸﾏﾓﾄｼﾐﾅﾐｸ","streetKana":"ﾀﾑｶｴ","prefecture":"熊本県","city":"熊本市南区","street":"田迎"},{"zipCode":"8620965","prefectureKana":"ｸﾏﾓﾄｹﾝ","cityKana":"ｸﾏﾓﾄｼﾐﾅﾐｸ","streetKana":"ﾀﾑｶｴﾏﾁﾀｲﾉｼﾏ","prefecture":"熊本県","city":"熊本市南区","street":"田迎町田井島"},{"zipCode":"8620966","prefectureKana":"ｸﾏﾓﾄｹﾝ","cityKana":"ｸﾏﾓﾄｼﾐﾅﾐｸ","streetKana":"ﾀﾑｶｴﾏﾁﾔﾔﾏﾁ","prefecture":"熊本県","city":"熊本市南区","street":"田迎町良町"},{"zipCode":"8620968","prefectureKana":"ｸﾏﾓﾄｹﾝ","cityKana":"ｸﾏﾓﾄｼﾐﾅﾐｸ","streetKana":"ﾏﾜﾀﾘ","prefecture":"熊本県","city":"熊本市南区","street":"馬渡"},{"zipCode":"8620969","prefectureKana":"ｸﾏﾓﾄｹﾝ","cityKana":"ｸﾏﾓﾄｼﾐﾅﾐｸ","streetKana":"ﾔﾔﾏﾁ","prefecture":"熊本県","city":"熊本市南区","street":"良町"},{"zipCode":"8620967","prefectureKana":"ｸﾏﾓﾄｹﾝ","cityKana":"ｸﾏﾓﾄｼﾐﾅﾐｸ","streetKana":"ﾘｭｳﾂｳﾀﾞﾝﾁ","prefecture":"熊本県","city":"熊本市南区","street":"流通団地"}]