[{"zipCode":"8680000","prefectureKana":"ｸﾏﾓﾄｹﾝ","cityKana":"ﾋﾄﾖｼｼ","streetKana":"ｲｶﾆｹｲｻｲｶﾞﾅｲﾊﾞｱｲ","prefecture":"熊本県","city":"人吉市","street":"以下に掲載がない場合"},{"zipCode":"8680825","prefectureKana":"ｸﾏﾓﾄｹﾝ","cityKana":"ﾋﾄﾖｼｼ","streetKana":"ｱｶｲｹﾊﾗﾏﾁ","prefecture":"熊本県","city":"人吉市","street":"赤池原町"},{"zipCode":"8680824","prefectureKana":"ｸﾏﾓﾄｹﾝ","cityKana":"ﾋﾄﾖｼｼ","streetKana":"ｱｶｲｹﾐｽﾞﾅｼﾏﾁ","prefecture":"熊本県","city":"人吉市","street":"赤池水無町"},{"zipCode":"8680035","prefectureKana":"ｸﾏﾓﾄｹﾝ","cityKana":"ﾋﾄﾖｼｼ","streetKana":"ｲﾂｶﾏﾁ","prefecture":"熊本県","city":"人吉市","street":"五日町"},{"zipCode":"8680027","prefectureKana":"ｸﾏﾓﾄｹﾝ","cityKana":"ﾋﾄﾖｼｼ","streetKana":"ｲﾉｸﾁﾏﾁ","prefecture":"熊本県","city":"人吉市","street":"井ノ口町"},{"zipCode":"8680047","prefectureKana":"ｸﾏﾓﾄｹﾝ","cityKana":"ﾋﾄﾖｼｼ","streetKana":"ｳｴﾊﾗﾏﾁ","prefecture":"熊本県","city":"人吉市","street":"上原町"},{"zipCode":"8680053","prefectureKana":"ｸﾏﾓﾄｹﾝ","cityKana":"ﾋﾄﾖｼｼ","streetKana":"ｵｲｶﾐﾏﾁ","prefecture":"熊本県","city":"人吉市","street":"老神町"},{"zipCode":"8680812","prefectureKana":"ｸﾏﾓﾄｹﾝ","cityKana":"ﾋﾄﾖｼｼ","streetKana":"ｵｵﾉﾏﾁ","prefecture":"熊本県","city":"人吉市","street":"大野町"},{"zipCode":"8680811","prefectureKana":"ｸﾏﾓﾄｹﾝ","cityKana":"ﾋﾄﾖｼｼ","streetKana":"ｵｺﾊﾞﾌﾓﾄﾏﾁ","prefecture":"熊本県","city":"人吉市","street":"大畑麓町"},{"zipCode":"8680803","prefectureKana":"ｸﾏﾓﾄｹﾝ","cityKana":"ﾋﾄﾖｼｼ","streetKana":"ｵｺﾊﾞﾏﾁ","prefecture":"熊本県","city":"人吉市","street":"大畑町"},{"zipCode":"8680021","prefectureKana":"ｸﾏﾓﾄｹﾝ","cityKana":"ﾋﾄﾖｼｼ","streetKana":"ｵﾆｷﾏﾁ","prefecture":"熊本県","city":"人吉市","street":"鬼木町"},{"zipCode":"8680084","prefectureKana":"ｸﾏﾓﾄｹﾝ","cityKana":"ﾋﾄﾖｼｼ","streetKana":"ｵﾝｾﾝﾏﾁ","prefecture":"熊本県","city":"人吉市","street":"温泉町"},{"zipCode":"8680001","prefectureKana":"ｸﾏﾓﾄｹﾝ","cityKana":"ﾋﾄﾖｼｼ","streetKana":"ｶｼﾞﾔﾏﾁ","prefecture":"熊本県","city":"人吉市","street":"鍛冶屋町"},{"zipCode":"8680078","prefectureKana":"ｸﾏﾓﾄｹﾝ","cityKana":"ﾋﾄﾖｼｼ","streetKana":"ｶﾅﾒﾏﾁ","prefecture":"熊本県","city":"人吉市","street":"鹿目町"},{"zipCode":"8680005","prefectureKana":"ｸﾏﾓﾄｹﾝ","cityKana":"ﾋﾄﾖｼｼ","streetKana":"ｶﾐｱｵｲﾏﾁ","prefecture":"熊本県","city":"人吉市","street":"上青井町"},{"zipCode":"8680821","prefectureKana":"ｸﾏﾓﾄｹﾝ","cityKana":"ﾋﾄﾖｼｼ","streetKana":"ｶﾐｳﾙｼﾀﾞﾏﾁ","prefecture":"熊本県","city":"人吉市","street":"上漆田町"},{"zipCode":"8680013","prefectureKana":"ｸﾏﾓﾄｹﾝ","cityKana":"ﾋﾄﾖｼｼ","streetKana":"ｶﾐｻﾂﾏｾﾞﾏﾁ","prefecture":"熊本県","city":"人吉市","street":"上薩摩瀬町"},{"zipCode":"8680032","prefectureKana":"ｸﾏﾓﾄｹﾝ","cityKana":"ﾋﾄﾖｼｼ","streetKana":"ｶﾐｼﾝﾏﾁ","prefecture":"熊本県","city":"人吉市","street":"上新町"},{"zipCode":"8680801","prefectureKana":"ｸﾏﾓﾄｹﾝ","cityKana":"ﾋﾄﾖｼｼ","streetKana":"ｶﾐﾀｼﾛﾏﾁ","prefecture":"熊本県","city":"人吉市","street":"上田代町"},{"zipCode":"8680076","prefectureKana":"ｸﾏﾓﾄｹﾝ","cityKana":"ﾋﾄﾖｼｼ","streetKana":"ｶﾐﾄｺﾞｴﾏﾁ","prefecture":"熊本県","city":"人吉市","street":"上戸越町"},{"zipCode":"8680073","prefectureKana":"ｸﾏﾓﾄｹﾝ","cityKana":"ﾋﾄﾖｼｼ","streetKana":"ｶﾐﾅｶﾞﾉﾏﾁ","prefecture":"熊本県","city":"人吉市","street":"上永野町"},{"zipCode":"8680081","prefectureKana":"ｸﾏﾓﾄｹﾝ","cityKana":"ﾋﾄﾖｼｼ","streetKana":"ｶﾐﾊﾞﾔｼﾏﾁ","prefecture":"熊本県","city":"人吉市","street":"上林町"},{"zipCode":"8680087","prefectureKana":"ｸﾏﾓﾄｹﾝ","cityKana":"ﾋﾄﾖｼｼ","streetKana":"ｶﾐﾊﾗﾀﾞﾏﾁ","prefecture":"熊本県","city":"人吉市","street":"上原田町"},{"zipCode":"8680025","prefectureKana":"ｸﾏﾓﾄｹﾝ","cityKana":"ﾋﾄﾖｼｼ","streetKana":"ｶﾜﾗﾔﾏﾁ","prefecture":"熊本県","city":"人吉市","street":"瓦屋町"},{"zipCode":"8680022","prefectureKana":"ｸﾏﾓﾄｹﾝ","cityKana":"ﾋﾄﾖｼｼ","streetKana":"ｶﾞﾝｼﾞｮｳｼﾞﾏﾁ","prefecture":"熊本県","city":"人吉市","street":"願成寺町"},{"zipCode":"8680042","prefectureKana":"ｸﾏﾓﾄｹﾝ","cityKana":"ﾋﾄﾖｼｼ","streetKana":"ｶﾞﾝﾂｸﾘﾏﾁ","prefecture":"熊本県","city":"人吉市","street":"蟹作町"},{"zipCode":"8680063","prefectureKana":"ｸﾏﾓﾄｹﾝ","cityKana":"ﾋﾄﾖｼｼ","streetKana":"ｷｼﾞﾔﾏﾁ","prefecture":"熊本県","city":"人吉市","street":"木地屋町"},{"zipCode":"8680023","prefectureKana":"ｸﾏﾓﾄｹﾝ","cityKana":"ﾋﾄﾖｼｼ","streetKana":"ｷﾀｲｽﾞﾐﾀﾞﾏﾁ","prefecture":"熊本県","city":"人吉市","street":"北泉田町"},{"zipCode":"8680022","prefectureKana":"ｸﾏﾓﾄｹﾝ","cityKana":"ﾋﾄﾖｼｼ","streetKana":"ｷﾀｶﾞﾝｼﾞｮｳｼﾞﾏﾁ","prefecture":"熊本県","city":"人吉市","street":"北願成寺町"},{"zipCode":"8680026","prefectureKana":"ｸﾏﾓﾄｹﾝ","cityKana":"ﾋﾄﾖｼｼ","streetKana":"ｺﾞｳﾉﾊﾙﾏﾁ","prefecture":"熊本県","city":"人吉市","street":"合ノ原町"},{"zipCode":"8680003","prefectureKana":"ｸﾏﾓﾄｹﾝ","cityKana":"ﾋﾄﾖｼｼ","streetKana":"ｺｳﾔﾏﾁ","prefecture":"熊本県","city":"人吉市","street":"紺屋町"},{"zipCode":"8680004","prefectureKana":"ｸﾏﾓﾄｹﾝ","cityKana":"ﾋﾄﾖｼｼ","streetKana":"ｺｺﾉｶﾏﾁ","prefecture":"熊本県","city":"人吉市","street":"九日町"},{"zipCode":"8680062","prefectureKana":"ｸﾏﾓﾄｹﾝ","cityKana":"ﾋﾄﾖｼｼ","streetKana":"ｺﾌﾞﾂﾁｮｳﾏﾁ","prefecture":"熊本県","city":"人吉市","street":"古仏頂町"},{"zipCode":"8680006","prefectureKana":"ｸﾏﾓﾄｹﾝ","cityKana":"ﾋﾄﾖｼｼ","streetKana":"ｺﾏｲﾀﾞﾏﾁ","prefecture":"熊本県","city":"人吉市","street":"駒井田町"},{"zipCode":"8680012","prefectureKana":"ｸﾏﾓﾄｹﾝ","cityKana":"ﾋﾄﾖｼｼ","streetKana":"ｻｶﾞﾗﾏﾁ","prefecture":"熊本県","city":"人吉市","street":"相良町"},{"zipCode":"8680041","prefectureKana":"ｸﾏﾓﾄｹﾝ","cityKana":"ﾋﾄﾖｼｼ","streetKana":"ｼﾁﾁﾏﾁ","prefecture":"熊本県","city":"人吉市","street":"七地町"},{"zipCode":"8680007","prefectureKana":"ｸﾏﾓﾄｹﾝ","cityKana":"ﾋﾄﾖｼｼ","streetKana":"ｼﾓｱｵｲﾏﾁ","prefecture":"熊本県","city":"人吉市","street":"下青井町"},{"zipCode":"8680822","prefectureKana":"ｸﾏﾓﾄｹﾝ","cityKana":"ﾋﾄﾖｼｼ","streetKana":"ｼﾓｳﾙｼﾀﾞﾏﾁ","prefecture":"熊本県","city":"人吉市","street":"下漆田町"},{"zipCode":"8680014","prefectureKana":"ｸﾏﾓﾄｹﾝ","cityKana":"ﾋﾄﾖｼｼ","streetKana":"ｼﾓｻﾂﾏｾﾞﾏﾁ","prefecture":"熊本県","city":"人吉市","street":"下薩摩瀬町"},{"zipCode":"8680015","prefectureKana":"ｸﾏﾓﾄｹﾝ","cityKana":"ﾋﾄﾖｼｼ","streetKana":"ｼﾓｼﾛﾓﾄﾏﾁ","prefecture":"熊本県","city":"人吉市","street":"下城本町"},{"zipCode":"8680033","prefectureKana":"ｸﾏﾓﾄｹﾝ","cityKana":"ﾋﾄﾖｼｼ","streetKana":"ｼﾓｼﾝﾏﾁ","prefecture":"熊本県","city":"人吉市","street":"下新町"},{"zipCode":"8680802","prefectureKana":"ｸﾏﾓﾄｹﾝ","cityKana":"ﾋﾄﾖｼｼ","streetKana":"ｼﾓﾀｼﾛﾏﾁ","prefecture":"熊本県","city":"人吉市","street":"下田代町"},{"zipCode":"8680077","prefectureKana":"ｸﾏﾓﾄｹﾝ","cityKana":"ﾋﾄﾖｼｼ","streetKana":"ｼﾓﾄｺﾞｴﾏﾁ","prefecture":"熊本県","city":"人吉市","street":"下戸越町"},{"zipCode":"8680074","prefectureKana":"ｸﾏﾓﾄｹﾝ","cityKana":"ﾋﾄﾖｼｼ","streetKana":"ｼﾓﾅｶﾞﾉﾏﾁ","prefecture":"熊本県","city":"人吉市","street":"下永野町"},{"zipCode":"8680086","prefectureKana":"ｸﾏﾓﾄｹﾝ","cityKana":"ﾋﾄﾖｼｼ","streetKana":"ｼﾓﾊﾗﾀﾞﾏﾁ","prefecture":"熊本県","city":"人吉市","street":"下原田町"},{"zipCode":"8680083","prefectureKana":"ｸﾏﾓﾄｹﾝ","cityKana":"ﾋﾄﾖｼｼ","streetKana":"ｼﾓﾊﾞﾔｼﾏﾁ","prefecture":"熊本県","city":"人吉市","street":"下林町"},{"zipCode":"8680016","prefectureKana":"ｸﾏﾓﾄｹﾝ","cityKana":"ﾋﾄﾖｼｼ","streetKana":"ｼﾛﾓﾄﾏﾁ","prefecture":"熊本県","city":"人吉市","street":"城本町"},{"zipCode":"8680052","prefectureKana":"ｸﾏﾓﾄｹﾝ","cityKana":"ﾋﾄﾖｼｼ","streetKana":"ｼﾝﾏﾁ","prefecture":"熊本県","city":"人吉市","street":"新町"},{"zipCode":"8680002","prefectureKana":"ｸﾏﾓﾄｹﾝ","cityKana":"ﾋﾄﾖｼｼ","streetKana":"ﾀﾞｲｸﾏﾁ","prefecture":"熊本県","city":"人吉市","street":"大工町"},{"zipCode":"8680066","prefectureKana":"ｸﾏﾓﾄｹﾝ","cityKana":"ﾋﾄﾖｼｼ","streetKana":"ﾀﾉﾏﾁ","prefecture":"熊本県","city":"人吉市","street":"田野町"},{"zipCode":"8680054","prefectureKana":"ｸﾏﾓﾄｹﾝ","cityKana":"ﾋﾄﾖｼｼ","streetKana":"ﾀﾏﾁ","prefecture":"熊本県","city":"人吉市","street":"田町"},{"zipCode":"8680024","prefectureKana":"ｸﾏﾓﾄｹﾝ","cityKana":"ﾋﾄﾖｼｼ","streetKana":"ﾂﾙﾀﾞﾏﾁ","prefecture":"熊本県","city":"人吉市","street":"鶴田町"},{"zipCode":"8680056","prefectureKana":"ｸﾏﾓﾄｹﾝ","cityKana":"ﾋﾄﾖｼｼ","streetKana":"ﾃﾗﾏﾁ","prefecture":"熊本県","city":"人吉市","street":"寺町"},{"zipCode":"8680057","prefectureKana":"ｸﾏﾓﾄｹﾝ","cityKana":"ﾋﾄﾖｼｼ","streetKana":"ﾄﾞﾃﾏﾁ","prefecture":"熊本県","city":"人吉市","street":"土手町"},{"zipCode":"8680048","prefectureKana":"ｸﾏﾓﾄｹﾝ","cityKana":"ﾋﾄﾖｼｼ","streetKana":"ﾄﾐｶﾞｵﾏﾁ","prefecture":"熊本県","city":"人吉市","street":"富ケ尾町"},{"zipCode":"8680008","prefectureKana":"ｸﾏﾓﾄｹﾝ","cityKana":"ﾋﾄﾖｼｼ","streetKana":"ﾅｶｱｵｲﾏﾁ","prefecture":"熊本県","city":"人吉市","street":"中青井町"},{"zipCode":"8680085","prefectureKana":"ｸﾏﾓﾄｹﾝ","cityKana":"ﾋﾄﾖｼｼ","streetKana":"ﾅｶｶﾞﾐﾁｮｳ","prefecture":"熊本県","city":"人吉市","street":"中神町"},{"zipCode":"8680082","prefectureKana":"ｸﾏﾓﾄｹﾝ","cityKana":"ﾋﾄﾖｼｼ","streetKana":"ﾅｶﾊﾞﾔｼﾏﾁ","prefecture":"熊本県","city":"人吉市","street":"中林町"},{"zipCode":"8680034","prefectureKana":"ｸﾏﾓﾄｹﾝ","cityKana":"ﾋﾄﾖｼｼ","streetKana":"ﾅﾇｶﾏﾁ","prefecture":"熊本県","city":"人吉市","street":"七日町"},{"zipCode":"8680045","prefectureKana":"ｸﾏﾓﾄｹﾝ","cityKana":"ﾋﾄﾖｼｼ","streetKana":"ﾅﾐﾄｺﾏﾁ","prefecture":"熊本県","city":"人吉市","street":"浪床町"},{"zipCode":"8680071","prefectureKana":"ｸﾏﾓﾄｹﾝ","cityKana":"ﾋﾄﾖｼｼ","streetKana":"ﾆｼｱｲﾀﾞｶﾐﾏﾁ","prefecture":"熊本県","city":"人吉市","street":"西間上町"},{"zipCode":"8680072","prefectureKana":"ｸﾏﾓﾄｹﾝ","cityKana":"ﾋﾄﾖｼｼ","streetKana":"ﾆｼｱｲﾀﾞｼﾓﾏﾁ","prefecture":"熊本県","city":"人吉市","street":"西間下町"},{"zipCode":"8680065","prefectureKana":"ｸﾏﾓﾄｹﾝ","cityKana":"ﾋﾄﾖｼｼ","streetKana":"ﾆｼｵｵﾂｶﾏﾁ","prefecture":"熊本県","city":"人吉市","street":"西大塚町"},{"zipCode":"8680036","prefectureKana":"ｸﾏﾓﾄｹﾝ","cityKana":"ﾋﾄﾖｼｼ","streetKana":"ﾆﾉﾏﾁ","prefecture":"熊本県","city":"人吉市","street":"二日町"},{"zipCode":"8680058","prefectureKana":"ｸﾏﾓﾄｹﾝ","cityKana":"ﾋﾄﾖｼｼ","streetKana":"ﾊｲｸﾎﾞﾏﾁ","prefecture":"熊本県","city":"人吉市","street":"灰久保町"},{"zipCode":"8680046","prefectureKana":"ｸﾏﾓﾄｹﾝ","cityKana":"ﾋﾄﾖｼｼ","streetKana":"ﾊﾗﾉｼﾞｮｳﾏﾁ","prefecture":"熊本県","city":"人吉市","street":"原城町"},{"zipCode":"8680043","prefectureKana":"ｸﾏﾓﾄｹﾝ","cityKana":"ﾋﾄﾖｼｼ","streetKana":"ﾋｶﾞｼｱｲﾀﾞｶﾐﾏﾁ","prefecture":"熊本県","city":"人吉市","street":"東間上町"},{"zipCode":"8680044","prefectureKana":"ｸﾏﾓﾄｹﾝ","cityKana":"ﾋﾄﾖｼｼ","streetKana":"ﾋｶﾞｼｱｲﾀﾞｼﾓﾏﾁ","prefecture":"熊本県","city":"人吉市","street":"東間下町"},{"zipCode":"8680823","prefectureKana":"ｸﾏﾓﾄｹﾝ","cityKana":"ﾋﾄﾖｼｼ","streetKana":"ﾋｶﾞｼｳﾙｼﾀﾞﾏﾁ","prefecture":"熊本県","city":"人吉市","street":"東漆田町"},{"zipCode":"8680064","prefectureKana":"ｸﾏﾓﾄｹﾝ","cityKana":"ﾋﾄﾖｼｼ","streetKana":"ﾋｶﾞｼｵｵﾂｶﾏﾁ","prefecture":"熊本県","city":"人吉市","street":"東大塚町"},{"zipCode":"8680051","prefectureKana":"ｸﾏﾓﾄｹﾝ","cityKana":"ﾋﾄﾖｼｼ","streetKana":"ﾌﾓﾄﾏﾁ","prefecture":"熊本県","city":"人吉市","street":"麓町"},{"zipCode":"8680011","prefectureKana":"ｸﾏﾓﾄｹﾝ","cityKana":"ﾋﾄﾖｼｼ","streetKana":"ﾎｳﾗｲﾏﾁ","prefecture":"熊本県","city":"人吉市","street":"宝来町"},{"zipCode":"8680037","prefectureKana":"ｸﾏﾓﾄｹﾝ","cityKana":"ﾋﾄﾖｼｼ","streetKana":"ﾐﾅﾐｲｽﾞﾐﾀﾞﾏﾁ","prefecture":"熊本県","city":"人吉市","street":"南泉田町"},{"zipCode":"8680031","prefectureKana":"ｸﾏﾓﾄｹﾝ","cityKana":"ﾋﾄﾖｼｼ","streetKana":"ﾐﾅﾐｶﾞﾝｼﾞｮｳｼﾞﾁｮｳ","prefecture":"熊本県","city":"人吉市","street":"南願成寺町"},{"zipCode":"8680055","prefectureKana":"ｸﾏﾓﾄｹﾝ","cityKana":"ﾋﾄﾖｼｼ","streetKana":"ﾐﾅﾐﾏﾁ","prefecture":"熊本県","city":"人吉市","street":"南町"},{"zipCode":"8680061","prefectureKana":"ｸﾏﾓﾄｹﾝ","cityKana":"ﾋﾄﾖｼｼ","streetKana":"ﾐﾉﾉﾏﾁ","prefecture":"熊本県","city":"人吉市","street":"蓑野町"},{"zipCode":"8680075","prefectureKana":"ｸﾏﾓﾄｹﾝ","cityKana":"ﾋﾄﾖｼｼ","streetKana":"ﾔｸﾞﾛﾏﾁ","prefecture":"熊本県","city":"人吉市","street":"矢黒町"},{"zipCode":"8680813","prefectureKana":"ｸﾏﾓﾄｹﾝ","cityKana":"ﾋﾄﾖｼｼ","streetKana":"ﾔﾀｹﾏﾁ","prefecture":"熊本県","city":"人吉市","street":"矢岳町"},{"zipCode":"8680300","prefectureKana":"ｸﾏﾓﾄｹﾝ","cityKana":"ｸﾏｸﾞﾝﾆｼｷﾏﾁ","streetKana":"ｲｶﾆｹｲｻｲｶﾞﾅｲﾊﾞｱｲ","prefecture":"熊本県","city":"球磨郡錦町","street":"以下に掲載がない場合"},{"zipCode":"8680302","prefectureKana":"ｸﾏﾓﾄｹﾝ","cityKana":"ｸﾏｸﾞﾝﾆｼｷﾏﾁ","streetKana":"ｲﾁﾌﾞ","prefecture":"熊本県","city":"球磨郡錦町","street":"一武"},{"zipCode":"8680301","prefectureKana":"ｸﾏﾓﾄｹﾝ","cityKana":"ｸﾏｸﾞﾝﾆｼｷﾏﾁ","streetKana":"ｷﾉｳｴ","prefecture":"熊本県","city":"球磨郡錦町","street":"木上"},{"zipCode":"8680303","prefectureKana":"ｸﾏﾓﾄｹﾝ","cityKana":"ｸﾏｸﾞﾝﾆｼｷﾏﾁ","streetKana":"ﾆｼ","prefecture":"熊本県","city":"球磨郡錦町","street":"西"},{"zipCode":"8680500","prefectureKana":"ｸﾏﾓﾄｹﾝ","cityKana":"ｸﾏｸﾞﾝﾀﾗｷﾞﾏﾁ","streetKana":"ｲｶﾆｹｲｻｲｶﾞﾅｲﾊﾞｱｲ","prefecture":"熊本県","city":"球磨郡多良木町","street":"以下に掲載がない場合"},{"zipCode":"8680504","prefectureKana":"ｸﾏﾓﾄｹﾝ","cityKana":"ｸﾏｸﾞﾝﾀﾗｷﾞﾏﾁ","streetKana":"ｵｸﾉ","prefecture":"熊本県","city":"球磨郡多良木町","street":"奥野"},{"zipCode":"8680503","prefectureKana":"ｸﾏﾓﾄｹﾝ","cityKana":"ｸﾏｸﾞﾝﾀﾗｷﾞﾏﾁ","streetKana":"ｸﾒ","prefecture":"熊本県","city":"球磨郡多良木町","street":"久米"},{"zipCode":"8680502","prefectureKana":"ｸﾏﾓﾄｹﾝ","cityKana":"ｸﾏｸﾞﾝﾀﾗｷﾞﾏﾁ","streetKana":"ｸﾛﾋｼﾞ","prefecture":"熊本県","city":"球磨郡多良木町","street":"黒肥地"},{"zipCode":"8680501","prefectureKana":"ｸﾏﾓﾄｹﾝ","cityKana":"ｸﾏｸﾞﾝﾀﾗｷﾞﾏﾁ","streetKana":"ﾀﾗｷﾞ","prefecture":"熊本県","city":"球磨郡多良木町","street":"多良木"},{"zipCode":"8680505","prefectureKana":"ｸﾏﾓﾄｹﾝ","cityKana":"ｸﾏｸﾞﾝﾀﾗｷﾞﾏﾁ","streetKana":"ﾂｷｷﾞ","prefecture":"熊本県","city":"球磨郡多良木町","street":"槻木"},{"zipCode":"8680600","prefectureKana":"ｸﾏﾓﾄｹﾝ","cityKana":"ｸﾏｸﾞﾝﾕﾉﾏｴﾏﾁ","streetKana":"ｲｶﾆｹｲｻｲｶﾞﾅｲﾊﾞｱｲ","prefecture":"熊本県","city":"球磨郡湯前町","street":"以下に掲載がない場合"},{"zipCode":"8680604","prefectureKana":"ｸﾏﾓﾄｹﾝ","cityKana":"ｸﾏｸﾞﾝﾕﾉﾏｴﾏﾁ","streetKana":"ｱｻｶﾉ","prefecture":"熊本県","city":"球磨郡湯前町","street":"浅ケ野"},{"zipCode":"8680611","prefectureKana":"ｸﾏﾓﾄｹﾝ","cityKana":"ｸﾏｸﾞﾝﾕﾉﾏｴﾏﾁ","streetKana":"ｳｴｷ","prefecture":"熊本県","city":"球磨郡湯前町","street":"植木"},{"zipCode":"8680625","prefectureKana":"ｸﾏﾓﾄｹﾝ","cityKana":"ｸﾏｸﾞﾝﾕﾉﾏｴﾏﾁ","streetKana":"ｶﾐｲ","prefecture":"熊本県","city":"球磨郡湯前町","street":"上猪"},{"zipCode":"8680621","prefectureKana":"ｸﾏﾓﾄｹﾝ","cityKana":"ｸﾏｸﾞﾝﾕﾉﾏｴﾏﾁ","streetKana":"ｶﾐｻﾞﾄ","prefecture":"熊本県","city":"球磨郡湯前町","street":"上里"},{"zipCode":"8680622","prefectureKana":"ｸﾏﾓﾄｹﾝ","cityKana":"ｸﾏｸﾞﾝﾕﾉﾏｴﾏﾁ","streetKana":"ｶﾐｿﾒﾀﾞ","prefecture":"熊本県","city":"球磨郡湯前町","street":"上染田"},{"zipCode":"8680612","prefectureKana":"ｸﾏﾓﾄｹﾝ","cityKana":"ｸﾏｸﾞﾝﾕﾉﾏｴﾏﾁ","streetKana":"ｶﾐﾑﾗ","prefecture":"熊本県","city":"球磨郡湯前町","street":"上村"},{"zipCode":"8680601","prefectureKana":"ｸﾏﾓﾄｹﾝ","cityKana":"ｸﾏｸﾞﾝﾕﾉﾏｴﾏﾁ","streetKana":"ｼﾀｼﾞｮｳ","prefecture":"熊本県","city":"球磨郡湯前町","street":"下城"},{"zipCode":"8680607","prefectureKana":"ｸﾏﾓﾄｹﾝ","cityKana":"ｸﾏｸﾞﾝﾕﾉﾏｴﾏﾁ","streetKana":"ｼﾓｻﾞﾄ","prefecture":"熊本県","city":"球磨郡湯前町","street":"下里"},{"zipCode":"8680605","prefectureKana":"ｸﾏﾓﾄｹﾝ","cityKana":"ｸﾏｸﾞﾝﾕﾉﾏｴﾏﾁ","streetKana":"ｼﾓｿﾒﾀﾞ","prefecture":"熊本県","city":"球磨郡湯前町","street":"下染田"},{"zipCode":"8680616","prefectureKana":"ｸﾏﾓﾄｹﾝ","cityKana":"ｸﾏｸﾞﾝﾕﾉﾏｴﾏﾁ","streetKana":"ｼﾓﾑﾗ","prefecture":"熊本県","city":"球磨郡湯前町","street":"下村"},{"zipCode":"8680615","prefectureKana":"ｸﾏﾓﾄｹﾝ","cityKana":"ｸﾏｸﾞﾝﾕﾉﾏｴﾏﾁ","streetKana":"ｾﾄﾞｸﾁ","prefecture":"熊本県","city":"球磨郡湯前町","street":"瀬戸口"},{"zipCode":"8680613","prefectureKana":"ｸﾏﾓﾄｹﾝ","cityKana":"ｸﾏｸﾞﾝﾕﾉﾏｴﾏﾁ","streetKana":"ﾀﾉｴ","prefecture":"熊本県","city":"球磨郡湯前町","street":"田上"},{"zipCode":"8680624","prefectureKana":"ｸﾏﾓﾄｹﾝ","cityKana":"ｸﾏｸﾞﾝﾕﾉﾏｴﾏﾁ","streetKana":"ﾅｶｲ","prefecture":"熊本県","city":"球磨郡湯前町","street":"中猪"},{"zipCode":"8680606","prefectureKana":"ｸﾏﾓﾄｹﾝ","cityKana":"ｸﾏｸﾞﾝﾕﾉﾏｴﾏﾁ","streetKana":"ﾅｶｻﾞﾄ","prefecture":"熊本県","city":"球磨郡湯前町","street":"中里"},{"zipCode":"8680623","prefectureKana":"ｸﾏﾓﾄｹﾝ","cityKana":"ｸﾏｸﾞﾝﾕﾉﾏｴﾏﾁ","streetKana":"ﾉﾅｶﾀﾞ","prefecture":"熊本県","city":"球磨郡湯前町","street":"野中田"},{"zipCode":"8680614","prefectureKana":"ｸﾏﾓﾄｹﾝ","cityKana":"ｸﾏｸﾞﾝﾕﾉﾏｴﾏﾁ","streetKana":"ﾊﾞﾊﾞ","prefecture":"熊本県","city":"球磨郡湯前町","street":"馬場"},{"zipCode":"8680602","prefectureKana":"ｸﾏﾓﾄｹﾝ","cityKana":"ｸﾏｸﾞﾝﾕﾉﾏｴﾏﾁ","streetKana":"ﾊﾏｺﾞｳ","prefecture":"熊本県","city":"球磨郡湯前町","street":"浜川"},{"zipCode":"8680603","prefectureKana":"ｸﾏﾓﾄｹﾝ","cityKana":"ｸﾏｸﾞﾝﾕﾉﾏｴﾏﾁ","streetKana":"ﾌﾙｼﾞｮｳ","prefecture":"熊本県","city":"球磨郡湯前町","street":"古城"},{"zipCode":"8680700","prefectureKana":"ｸﾏﾓﾄｹﾝ","cityKana":"ｸﾏｸﾞﾝﾐｽﾞｶﾐﾑﾗ","streetKana":"ｲｶﾆｹｲｻｲｶﾞﾅｲﾊﾞｱｲ","prefecture":"熊本県","city":"球磨郡水上村","street":"以下に掲載がない場合"},{"zipCode":"8680701","prefectureKana":"ｸﾏﾓﾄｹﾝ","cityKana":"ｸﾏｸﾞﾝﾐｽﾞｶﾐﾑﾗ","streetKana":"ｲﾜﾉ","prefecture":"熊本県","city":"球磨郡水上村","street":"岩野"},{"zipCode":"8680702","prefectureKana":"ｸﾏﾓﾄｹﾝ","cityKana":"ｸﾏｸﾞﾝﾐｽﾞｶﾐﾑﾗ","streetKana":"ｴｼﾛ","prefecture":"熊本県","city":"球磨郡水上村","street":"江代"},{"zipCode":"8680703","prefectureKana":"ｸﾏﾓﾄｹﾝ","cityKana":"ｸﾏｸﾞﾝﾐｽﾞｶﾐﾑﾗ","streetKana":"ﾕﾔﾏ","prefecture":"熊本県","city":"球磨郡水上村","street":"湯山"},{"zipCode":"8680000","prefectureKana":"ｸﾏﾓﾄｹﾝ","cityKana":"ｸﾏｸﾞﾝｻｶﾞﾗﾑﾗ","streetKana":"ｲｶﾆｹｲｻｲｶﾞﾅｲﾊﾞｱｲ","prefecture":"熊本県","city":"球磨郡相良村","street":"以下に掲載がない場合"},{"zipCode":"8680093","prefectureKana":"ｸﾏﾓﾄｹﾝ","cityKana":"ｸﾏｸﾞﾝｻｶﾞﾗﾑﾗ","streetKana":"ｶﾜﾍﾞ","prefecture":"熊本県","city":"球磨郡相良村","street":"川辺"},{"zipCode":"8680094","prefectureKana":"ｸﾏﾓﾄｹﾝ","cityKana":"ｸﾏｸﾞﾝｻｶﾞﾗﾑﾗ","streetKana":"ﾌｶﾐ","prefecture":"熊本県","city":"球磨郡相良村","street":"深水"},{"zipCode":"8680095","prefectureKana":"ｸﾏﾓﾄｹﾝ","cityKana":"ｸﾏｸﾞﾝｻｶﾞﾗﾑﾗ","streetKana":"ﾔﾅｾ","prefecture":"熊本県","city":"球磨郡相良村","street":"柳瀬"},{"zipCode":"8680101","prefectureKana":"ｸﾏﾓﾄｹﾝ","cityKana":"ｸﾏｸﾞﾝｻｶﾞﾗﾑﾗ","streetKana":"ﾖｳﾗ","prefecture":"熊本県","city":"球磨郡相良村","street":"四浦"},{"zipCode":"8680200","prefectureKana":"ｸﾏﾓﾄｹﾝ","cityKana":"ｸﾏｸﾞﾝｲﾂｷﾑﾗ","streetKana":"ｲｶﾆｹｲｻｲｶﾞﾅｲﾊﾞｱｲ","prefecture":"熊本県","city":"球磨郡五木村","street":"以下に掲載がない場合"},{"zipCode":"8680201","prefectureKana":"ｸﾏﾓﾄｹﾝ","cityKana":"ｸﾏｸﾞﾝｲﾂｷﾑﾗ","streetKana":"ｺｳ","prefecture":"熊本県","city":"球磨郡五木村","street":"甲"},{"zipCode":"8680202","prefectureKana":"ｸﾏﾓﾄｹﾝ","cityKana":"ｸﾏｸﾞﾝｲﾂｷﾑﾗ","streetKana":"ｵﾂ","prefecture":"熊本県","city":"球磨郡五木村","street":"乙"},{"zipCode":"8680203","prefectureKana":"ｸﾏﾓﾄｹﾝ","cityKana":"ｸﾏｸﾞﾝｲﾂｷﾑﾗ","streetKana":"ﾍｲ","prefecture":"熊本県","city":"球磨郡五木村","street":"丙"},{"zipCode":"8680000","prefectureKana":"ｸﾏﾓﾄｹﾝ","cityKana":"ｸﾏｸﾞﾝﾔﾏｴﾑﾗ","streetKana":"ｲｶﾆｹｲｻｲｶﾞﾅｲﾊﾞｱｲ","prefecture":"熊本県","city":"球磨郡山江村","street":"以下に掲載がない場合"},{"zipCode":"8680091","prefectureKana":"ｸﾏﾓﾄｹﾝ","cityKana":"ｸﾏｸﾞﾝﾔﾏｴﾑﾗ","streetKana":"ﾏｴ","prefecture":"熊本県","city":"球磨郡山江村","street":"万江"},{"zipCode":"8680092","prefectureKana":"ｸﾏﾓﾄｹﾝ","cityKana":"ｸﾏｸﾞﾝﾔﾏｴﾑﾗ","streetKana":"ﾔﾏﾀﾞ","prefecture":"熊本県","city":"球磨郡山江村","street":"山田"},{"zipCode":"8680400","prefectureKana":"ｸﾏﾓﾄｹﾝ","cityKana":"ｸﾏｸﾞﾝｱｻｷﾞﾘﾁｮｳ","streetKana":"ｲｶﾆｹｲｻｲｶﾞﾅｲﾊﾞｱｲ","prefecture":"熊本県","city":"球磨郡あさぎり町","street":"以下に掲載がない場合"},{"zipCode":"8680421","prefectureKana":"ｸﾏﾓﾄｹﾝ","cityKana":"ｸﾏｸﾞﾝｱｻｷﾞﾘﾁｮｳ","streetKana":"ｳｴﾋｶﾞｼ","prefecture":"熊本県","city":"球磨郡あさぎり町","street":"上東"},{"zipCode":"8680424","prefectureKana":"ｸﾏﾓﾄｹﾝ","cityKana":"ｸﾏｸﾞﾝｱｻｷﾞﾘﾁｮｳ","streetKana":"ｳｴﾆｼ","prefecture":"熊本県","city":"球磨郡あさぎり町","street":"上西"},{"zipCode":"8680423","prefectureKana":"ｸﾏﾓﾄｹﾝ","cityKana":"ｸﾏｸﾞﾝｱｻｷﾞﾘﾁｮｳ","streetKana":"ｳｴﾐﾅﾐ","prefecture":"熊本県","city":"球磨郡あさぎり町","street":"上南"},{"zipCode":"8680422","prefectureKana":"ｸﾏﾓﾄｹﾝ","cityKana":"ｸﾏｸﾞﾝｱｻｷﾞﾘﾁｮｳ","streetKana":"ｳｴｷﾀ","prefecture":"熊本県","city":"球磨郡あさぎり町","street":"上北"},{"zipCode":"8680432","prefectureKana":"ｸﾏﾓﾄｹﾝ","cityKana":"ｸﾏｸﾞﾝｱｻｷﾞﾘﾁｮｳ","streetKana":"ｵｶﾊﾙﾐﾅﾐ","prefecture":"熊本県","city":"球磨郡あさぎり町","street":"岡原南"},{"zipCode":"8680431","prefectureKana":"ｸﾏﾓﾄｹﾝ","cityKana":"ｸﾏｸﾞﾝｱｻｷﾞﾘﾁｮｳ","streetKana":"ｵｶﾊﾙｷﾀ","prefecture":"熊本県","city":"球磨郡あさぎり町","street":"岡原北"},{"zipCode":"8680451","prefectureKana":"ｸﾏﾓﾄｹﾝ","cityKana":"ｸﾏｸﾞﾝｱｻｷﾞﾘﾁｮｳ","streetKana":"ｽｴ","prefecture":"熊本県","city":"球磨郡あさぎり町","street":"須恵"},{"zipCode":"8680442","prefectureKana":"ｸﾏﾓﾄｹﾝ","cityKana":"ｸﾏｸﾞﾝｱｻｷﾞﾘﾁｮｳ","streetKana":"ﾌｶﾀﾞﾋｶﾞｼ","prefecture":"熊本県","city":"球磨郡あさぎり町","street":"深田東"},{"zipCode":"8680444","prefectureKana":"ｸﾏﾓﾄｹﾝ","cityKana":"ｸﾏｸﾞﾝｱｻｷﾞﾘﾁｮｳ","streetKana":"ﾌｶﾀﾞﾆｼ","prefecture":"熊本県","city":"球磨郡あさぎり町","street":"深田西"},{"zipCode":"8680443","prefectureKana":"ｸﾏﾓﾄｹﾝ","cityKana":"ｸﾏｸﾞﾝｱｻｷﾞﾘﾁｮｳ","streetKana":"ﾌｶﾀﾞﾐﾅﾐ","prefecture":"熊本県","city":"球磨郡あさぎり町","street":"深田南"},{"zipCode":"8680441","prefectureKana":"ｸﾏﾓﾄｹﾝ","cityKana":"ｸﾏｸﾞﾝｱｻｷﾞﾘﾁｮｳ","streetKana":"ﾌｶﾀﾞｷﾀ","prefecture":"熊本県","city":"球磨郡あさぎり町","street":"深田北"},{"zipCode":"8680425","prefectureKana":"ｸﾏﾓﾄｹﾝ","cityKana":"ｸﾏｸﾞﾝｱｻｷﾞﾘﾁｮｳ","streetKana":"ﾐﾅｺﾞｴ","prefecture":"熊本県","city":"球磨郡あさぎり町","street":"皆越"},{"zipCode":"8680408","prefectureKana":"ｸﾏﾓﾄｹﾝ","cityKana":"ｸﾏｸﾞﾝｱｻｷﾞﾘﾁｮｳ","streetKana":"ﾒﾝﾀﾞﾋｶﾞｼ","prefecture":"熊本県","city":"球磨郡あさぎり町","street":"免田東"},{"zipCode":"8680415","prefectureKana":"ｸﾏﾓﾄｹﾝ","cityKana":"ｸﾏｸﾞﾝｱｻｷﾞﾘﾁｮｳ","streetKana":"ﾒﾝﾀﾞﾆｼ","prefecture":"熊本県","city":"球磨郡あさぎり町","street":"免田西"}]