[{"zipCode":"8770000","prefectureKana":"ｵｵｲﾀｹﾝ","cityKana":"ﾋﾀｼ","streetKana":"ｲｶﾆｹｲｻｲｶﾞﾅｲﾊﾞｱｲ","prefecture":"大分県","city":"日田市","street":"以下に掲載がない場合"},{"zipCode":"8771224","prefectureKana":"ｵｵｲﾀｹﾝ","cityKana":"ﾋﾀｼ","streetKana":"ｱｷﾊﾞﾙﾏﾁ","prefecture":"大分県","city":"日田市","street":"秋原町"},{"zipCode":"8770001","prefectureKana":"ｵｵｲﾀｹﾝ","cityKana":"ﾋﾀｼ","streetKana":"ｱｷﾔﾏﾏﾁ","prefecture":"大分県","city":"日田市","street":"秋山町"},{"zipCode":"8770084","prefectureKana":"ｵｵｲﾀｹﾝ","cityKana":"ﾋﾀｼ","streetKana":"ｱｻﾋｶﾞｵｶ","prefecture":"大分県","city":"日田市","street":"朝日ケ丘"},{"zipCode":"8770085","prefectureKana":"ｵｵｲﾀｹﾝ","cityKana":"ﾋﾀｼ","streetKana":"ｱｻﾋﾏﾁ","prefecture":"大分県","city":"日田市","street":"朝日町"},{"zipCode":"8770111","prefectureKana":"ｵｵｲﾀｹﾝ","cityKana":"ﾋﾀｼ","streetKana":"ｱﾏｶﾞｾﾏﾁｲﾂﾏｲﾁ","prefecture":"大分県","city":"日田市","street":"天瀬町五馬市"},{"zipCode":"8770114","prefectureKana":"ｵｵｲﾀｹﾝ","cityKana":"ﾋﾀｼ","streetKana":"ｱﾏｶﾞｾﾏﾁｲﾃﾞｸﾞﾁ","prefecture":"大分県","city":"日田市","street":"天瀬町出口"},{"zipCode":"8770113","prefectureKana":"ｵｵｲﾀｹﾝ","cityKana":"ﾋﾀｼ","streetKana":"ｱﾏｶﾞｾﾏﾁﾂｶﾀﾞ","prefecture":"大分県","city":"日田市","street":"天瀬町塚田"},{"zipCode":"8770112","prefectureKana":"ｵｵｲﾀｹﾝ","cityKana":"ﾋﾀｼ","streetKana":"ｱﾏｶﾞｾﾏﾁﾎﾝｼﾞｮｳ","prefecture":"大分県","city":"日田市","street":"天瀬町本城"},{"zipCode":"8771366","prefectureKana":"ｵｵｲﾀｹﾝ","cityKana":"ﾋﾀｼ","streetKana":"ｱﾔﾒﾀﾞｲ","prefecture":"大分県","city":"日田市","street":"あやめ台"},{"zipCode":"8771361","prefectureKana":"ｵｵｲﾀｹﾝ","cityKana":"ﾋﾀｼ","streetKana":"ｱﾘﾀﾏﾁ","prefecture":"大分県","city":"日田市","street":"有田町"},{"zipCode":"8771375","prefectureKana":"ｵｵｲﾀｹﾝ","cityKana":"ﾋﾀｼ","streetKana":"ｲｹﾍﾞﾏﾁ","prefecture":"大分県","city":"日田市","street":"池辺町"},{"zipCode":"8770061","prefectureKana":"ｵｵｲﾀｹﾝ","cityKana":"ﾋﾀｼ","streetKana":"ｲｼｲ","prefecture":"大分県","city":"日田市","street":"石井"},{"zipCode":"8771352","prefectureKana":"ｵｵｲﾀｹﾝ","cityKana":"ﾋﾀｼ","streetKana":"ｲｼﾏﾂﾏﾁ","prefecture":"大分県","city":"日田市","street":"石松町"},{"zipCode":"8771223","prefectureKana":"ｵｵｲﾀｹﾝ","cityKana":"ﾋﾀｼ","streetKana":"ｲﾁﾉｾﾏﾁ","prefecture":"大分県","city":"日田市","street":"市ノ瀬町"},{"zipCode":"8771383","prefectureKana":"ｵｵｲﾀｹﾝ","cityKana":"ﾋﾀｼ","streetKana":"ｲﾜﾐﾏﾁ","prefecture":"大分県","city":"日田市","street":"岩美町"},{"zipCode":"8770062","prefectureKana":"ｵｵｲﾀｹﾝ","cityKana":"ﾋﾀｼ","streetKana":"ｳｴﾉﾏﾁ","prefecture":"大分県","city":"日田市","street":"上野町"},{"zipCode":"8770068","prefectureKana":"ｵｵｲﾀｹﾝ","cityKana":"ﾋﾀｼ","streetKana":"ｳﾁｶﾜﾏﾁ","prefecture":"大分県","city":"日田市","street":"内河町"},{"zipCode":"8771104","prefectureKana":"ｵｵｲﾀｹﾝ","cityKana":"ﾋﾀｼ","streetKana":"ｵｵﾂﾙﾎﾝﾏﾁ","prefecture":"大分県","city":"日田市","street":"大鶴本町"},{"zipCode":"8771107","prefectureKana":"ｵｵｲﾀｹﾝ","cityKana":"ﾋﾀｼ","streetKana":"ｵｵﾂﾙﾏﾁ","prefecture":"大分県","city":"日田市","street":"大鶴町"},{"zipCode":"8771105","prefectureKana":"ｵｵｲﾀｹﾝ","cityKana":"ﾋﾀｼ","streetKana":"ｵｵﾋﾏﾁ","prefecture":"大分県","city":"日田市","street":"大肥町"},{"zipCode":"8771106","prefectureKana":"ｵｵｲﾀｹﾝ","cityKana":"ﾋﾀｼ","streetKana":"ｵｵﾋﾎﾝﾏﾁ","prefecture":"大分県","city":"日田市","street":"大肥本町"},{"zipCode":"8770033","prefectureKana":"ｵｵｲﾀｹﾝ","cityKana":"ﾋﾀｼ","streetKana":"ｵｵﾍﾞﾏﾁ","prefecture":"大分県","city":"日田市","street":"大部町"},{"zipCode":"8770055","prefectureKana":"ｵｵｲﾀｹﾝ","cityKana":"ﾋﾀｼ","streetKana":"ｵｵﾐﾔﾏﾁ","prefecture":"大分県","city":"日田市","street":"大宮町"},{"zipCode":"8770201","prefectureKana":"ｵｵｲﾀｹﾝ","cityKana":"ﾋﾀｼ","streetKana":"ｵｵﾔﾏﾏﾁﾆｼｵｵﾔﾏ","prefecture":"大分県","city":"日田市","street":"大山町西大山"},{"zipCode":"8770202","prefectureKana":"ｵｵｲﾀｹﾝ","cityKana":"ﾋﾀｼ","streetKana":"ｵｵﾔﾏﾏﾁﾋｶﾞｼｵｵﾔﾏ","prefecture":"大分県","city":"日田市","street":"大山町東大山"},{"zipCode":"8770032","prefectureKana":"ｵｵｲﾀｹﾝ","cityKana":"ﾋﾀｼ","streetKana":"ｵｶﾞｾﾏﾁ","prefecture":"大分県","city":"日田市","street":"小ケ瀬町"},{"zipCode":"8771222","prefectureKana":"ｵｵｲﾀｹﾝ","cityKana":"ﾋﾀｼ","streetKana":"ｵｶﾞﾜﾁﾏﾁ","prefecture":"大分県","city":"日田市","street":"小河内町"},{"zipCode":"8770088","prefectureKana":"ｵｵｲﾀｹﾝ","cityKana":"ﾋﾀｼ","streetKana":"ｵｻﾞｺﾏﾁ","prefecture":"大分県","city":"日田市","street":"小迫町"},{"zipCode":"8771362","prefectureKana":"ｵｵｲﾀｹﾝ","cityKana":"ﾋﾀｼ","streetKana":"ｵﾄｳﾏﾁ","prefecture":"大分県","city":"日田市","street":"尾当町"},{"zipCode":"8770064","prefectureKana":"ｵｵｲﾀｹﾝ","cityKana":"ﾋﾀｼ","streetKana":"ｵﾔﾏﾏﾁ","prefecture":"大分県","city":"日田市","street":"小山町"},{"zipCode":"8770022","prefectureKana":"ｵｵｲﾀｹﾝ","cityKana":"ﾋﾀｼ","streetKana":"ｶﾐｸﾏﾁ","prefecture":"大分県","city":"日田市","street":"神来町"},{"zipCode":"8770003","prefectureKana":"ｵｵｲﾀｹﾝ","cityKana":"ﾋﾀｼ","streetKana":"ｶﾐｼﾞｮｳﾅｲﾏﾁ","prefecture":"大分県","city":"日田市","street":"上城内町"},{"zipCode":"8770312","prefectureKana":"ｵｵｲﾀｹﾝ","cityKana":"ﾋﾀｼ","streetKana":"ｶﾐﾂｴﾏﾁｶﾐﾉﾀﾞ","prefecture":"大分県","city":"日田市","street":"上津江町上野田"},{"zipCode":"8770311","prefectureKana":"ｵｵｲﾀｹﾝ","cityKana":"ﾋﾀｼ","streetKana":"ｶﾐﾂｴﾏﾁｶﾜﾊﾞﾙ","prefecture":"大分県","city":"日田市","street":"上津江町川原"},{"zipCode":"8771372","prefectureKana":"ｵｵｲﾀｹﾝ","cityKana":"ﾋﾀｼ","streetKana":"ｶﾐﾓﾛﾄﾞﾒﾏﾁ","prefecture":"大分県","city":"日田市","street":"上諸留町"},{"zipCode":"8770076","prefectureKana":"ｵｵｲﾀｹﾝ","cityKana":"ﾋﾀｼ","streetKana":"ｶﾒｶﾞﾜﾏﾁ","prefecture":"大分県","city":"日田市","street":"亀川町"},{"zipCode":"8770066","prefectureKana":"ｵｵｲﾀｹﾝ","cityKana":"ﾋﾀｼ","streetKana":"ｶﾜｼﾀ","prefecture":"大分県","city":"日田市","street":"川下"},{"zipCode":"8770043","prefectureKana":"ｵｵｲﾀｹﾝ","cityKana":"ﾋﾀｼ","streetKana":"ｶﾜﾊﾗﾏﾁ","prefecture":"大分県","city":"日田市","street":"川原町"},{"zipCode":"8770045","prefectureKana":"ｵｵｲﾀｹﾝ","cityKana":"ﾋﾀｼ","streetKana":"ｷｻﾞﾝﾏﾁ","prefecture":"大分県","city":"日田市","street":"亀山町"},{"zipCode":"8770078","prefectureKana":"ｵｵｲﾀｹﾝ","cityKana":"ﾋﾀｼ","streetKana":"ｷﾀﾄﾓﾀﾞ","prefecture":"大分県","city":"日田市","street":"北友田"},{"zipCode":"8770087","prefectureKana":"ｵｵｲﾀｹﾝ","cityKana":"ﾋﾀｼ","streetKana":"ｷﾐｻﾞｺﾏﾁ","prefecture":"大分県","city":"日田市","street":"君迫町"},{"zipCode":"8770051","prefectureKana":"ｵｵｲﾀｹﾝ","cityKana":"ﾋﾀｼ","streetKana":"ｷｮｳﾏﾁ","prefecture":"大分県","city":"日田市","street":"京町"},{"zipCode":"8770063","prefectureKana":"ｵｵｲﾀｹﾝ","cityKana":"ﾋﾀｼ","streetKana":"ｸｼｶﾜﾏﾁ","prefecture":"大分県","city":"日田市","street":"串川町"},{"zipCode":"8770044","prefectureKana":"ｵｵｲﾀｹﾝ","cityKana":"ﾋﾀｼ","streetKana":"ｸﾏ","prefecture":"大分県","city":"日田市","street":"隈"},{"zipCode":"8770031","prefectureKana":"ｵｵｲﾀｹﾝ","cityKana":"ﾋﾀｼ","streetKana":"ｺｶﾞﾈﾏﾁ","prefecture":"大分県","city":"日田市","street":"古金町"},{"zipCode":"8770054","prefectureKana":"ｵｵｲﾀｹﾝ","cityKana":"ﾋﾀｼ","streetKana":"ｺﾄﾋﾗﾏﾁ","prefecture":"大分県","city":"日田市","street":"琴平町"},{"zipCode":"8771231","prefectureKana":"ｵｵｲﾀｹﾝ","cityKana":"ﾋﾀｼ","streetKana":"ｻﾞｲﾂﾏﾁ","prefecture":"大分県","city":"日田市","street":"財津町"},{"zipCode":"8771354","prefectureKana":"ｵｵｲﾀｹﾝ","cityKana":"ﾋﾀｼ","streetKana":"ｻｶｲﾏﾁ","prefecture":"大分県","city":"日田市","street":"坂井町"},{"zipCode":"8771351","prefectureKana":"ｵｵｲﾀｹﾝ","cityKana":"ﾋﾀｼ","streetKana":"ｻﾝﾉﾐﾔﾏﾁ","prefecture":"大分県","city":"日田市","street":"三ノ宮町"},{"zipCode":"8770016","prefectureKana":"ｵｵｲﾀｹﾝ","cityKana":"ﾋﾀｼ","streetKana":"ｻﾝﾎﾞﾝﾏﾂ","prefecture":"大分県","city":"日田市","street":"三本松"},{"zipCode":"8770017","prefectureKana":"ｵｵｲﾀｹﾝ","cityKana":"ﾋﾀｼ","streetKana":"ｻﾝﾎﾞﾝﾏﾂｼﾝﾏﾁ","prefecture":"大分県","city":"日田市","street":"三本松新町"},{"zipCode":"8771232","prefectureKana":"ｵｵｲﾀｹﾝ","cityKana":"ﾋﾀｼ","streetKana":"ｼﾐｽﾞﾏﾁ","prefecture":"大分県","city":"日田市","street":"清水町"},{"zipCode":"8770038","prefectureKana":"ｵｵｲﾀｹﾝ","cityKana":"ﾋﾀｼ","streetKana":"ｼﾓｲﾃﾞﾏﾁ","prefecture":"大分県","city":"日田市","street":"下井手町"},{"zipCode":"8771102","prefectureKana":"ｵｵｲﾀｹﾝ","cityKana":"ﾋﾀｼ","streetKana":"ｼﾞｮｳｸﾞｳﾏﾁ","prefecture":"大分県","city":"日田市","street":"上宮町"},{"zipCode":"8770002","prefectureKana":"ｵｵｲﾀｹﾝ","cityKana":"ﾋﾀｼ","streetKana":"ｼﾞｮｳﾅｲｼﾝﾏﾁ","prefecture":"大分県","city":"日田市","street":"城内新町"},{"zipCode":"8770004","prefectureKana":"ｵｵｲﾀｹﾝ","cityKana":"ﾋﾀｼ","streetKana":"ｼﾛﾏﾁ","prefecture":"大分県","city":"日田市","street":"城町"},{"zipCode":"8771243","prefectureKana":"ｵｵｲﾀｹﾝ","cityKana":"ﾋﾀｼ","streetKana":"ｽｽﾞﾚﾏﾁ","prefecture":"大分県","city":"日田市","street":"鈴連町"},{"zipCode":"8770081","prefectureKana":"ｵｵｲﾀｹﾝ","cityKana":"ﾋﾀｼ","streetKana":"ｾｲｶﾞﾝｼﾞﾏﾁ","prefecture":"大分県","city":"日田市","street":"清岸寺町"},{"zipCode":"8770056","prefectureKana":"ｵｵｲﾀｹﾝ","cityKana":"ﾋﾀｼ","streetKana":"ｾｲﾜﾏﾁ","prefecture":"大分県","city":"日田市","street":"誠和町"},{"zipCode":"8770052","prefectureKana":"ｵｵｲﾀｹﾝ","cityKana":"ﾋﾀｼ","streetKana":"ｾﾞﾆﾌﾞﾁﾏﾁ","prefecture":"大分県","city":"日田市","street":"銭渕町"},{"zipCode":"8770059","prefectureKana":"ｵｵｲﾀｹﾝ","cityKana":"ﾋﾀｼ","streetKana":"ﾀﾞｲﾆﾁﾏﾁ","prefecture":"大分県","city":"日田市","street":"大日町"},{"zipCode":"8770067","prefectureKana":"ｵｵｲﾀｹﾝ","cityKana":"ﾋﾀｼ","streetKana":"ﾀｶｲﾏﾁ","prefecture":"大分県","city":"日田市","street":"高井町"},{"zipCode":"8770053","prefectureKana":"ｵｵｲﾀｹﾝ","cityKana":"ﾋﾀｼ","streetKana":"ﾀｶｾﾎﾝﾏﾁ","prefecture":"大分県","city":"日田市","street":"高瀬本町"},{"zipCode":"8770041","prefectureKana":"ｵｵｲﾀｹﾝ","cityKana":"ﾋﾀｼ","streetKana":"ﾀｹﾀﾞｼﾝﾏﾁ","prefecture":"大分県","city":"日田市","street":"竹田新町"},{"zipCode":"8770023","prefectureKana":"ｵｵｲﾀｹﾝ","cityKana":"ﾋﾀｼ","streetKana":"ﾀｼﾏ(ｵｵｱｻﾞ)","prefecture":"大分県","city":"日田市","street":"田島（大字）"},{"zipCode":"8770025","prefectureKana":"ｵｵｲﾀｹﾝ","cityKana":"ﾋﾀｼ","streetKana":"ﾀｼﾏ(ﾁｮｳﾒ)","prefecture":"大分県","city":"日田市","street":"田島（丁目）"},{"zipCode":"8770026","prefectureKana":"ｵｵｲﾀｹﾝ","cityKana":"ﾋﾀｼ","streetKana":"ﾀｼﾏﾎﾝﾏﾁ","prefecture":"大分県","city":"日田市","street":"田島本町"},{"zipCode":"8770071","prefectureKana":"ｵｵｲﾀｹﾝ","cityKana":"ﾋﾀｼ","streetKana":"ﾀﾏｶﾞﾜﾏﾁ","prefecture":"大分県","city":"日田市","street":"玉川町"},{"zipCode":"8770012","prefectureKana":"ｵｵｲﾀｹﾝ","cityKana":"ﾋﾀｼ","streetKana":"ﾀﾝｿｳ","prefecture":"大分県","city":"日田市","street":"淡窓"},{"zipCode":"8770015","prefectureKana":"ｵｵｲﾀｹﾝ","cityKana":"ﾋﾀｼ","streetKana":"ﾁｭｳｵｳ","prefecture":"大分県","city":"日田市","street":"中央"},{"zipCode":"8771373","prefectureKana":"ｵｵｲﾀｹﾝ","cityKana":"ﾋﾀｼ","streetKana":"ﾂｷﾃﾞﾏﾁ","prefecture":"大分県","city":"日田市","street":"月出町"},{"zipCode":"8771103","prefectureKana":"ｵｵｲﾀｹﾝ","cityKana":"ﾋﾀｼ","streetKana":"ﾂﾙｶﾞﾜﾁﾏﾁ","prefecture":"大分県","city":"日田市","street":"鶴河内町"},{"zipCode":"8771101","prefectureKana":"ｵｵｲﾀｹﾝ","cityKana":"ﾋﾀｼ","streetKana":"ﾂﾙｷﾞﾏﾁ","prefecture":"大分県","city":"日田市","street":"鶴城町"},{"zipCode":"8771234","prefectureKana":"ｵｵｲﾀｹﾝ","cityKana":"ﾋﾀｼ","streetKana":"ﾃﾝｼﾞﾝﾏﾁ","prefecture":"大分県","city":"日田市","street":"天神町"},{"zipCode":"8771242","prefectureKana":"ｵｵｲﾀｹﾝ","cityKana":"ﾋﾀｼ","streetKana":"ﾄﾉﾏﾁ","prefecture":"大分県","city":"日田市","street":"殿町"},{"zipCode":"8771363","prefectureKana":"ｵｵｲﾀｹﾝ","cityKana":"ﾋﾀｼ","streetKana":"ﾅｶｵﾏﾁ","prefecture":"大分県","city":"日田市","street":"中尾町"},{"zipCode":"8770011","prefectureKana":"ｵｵｲﾀｹﾝ","cityKana":"ﾋﾀｼ","streetKana":"ﾅｶｼﾞｮｳﾏﾁ","prefecture":"大分県","city":"日田市","street":"中城町"},{"zipCode":"8770302","prefectureKana":"ｵｵｲﾀｹﾝ","cityKana":"ﾋﾀｼ","streetKana":"ﾅｶﾂｴﾑﾗｺﾞｳｾ","prefecture":"大分県","city":"日田市","street":"中津江村合瀬"},{"zipCode":"8770301","prefectureKana":"ｵｵｲﾀｹﾝ","cityKana":"ﾋﾀｼ","streetKana":"ﾅｶﾂｴﾑﾗﾄﾁﾉ","prefecture":"大分県","city":"日田市","street":"中津江村栃野"},{"zipCode":"8770075","prefectureKana":"ｵｵｲﾀｹﾝ","cityKana":"ﾋﾀｼ","streetKana":"ﾅｶﾂﾞﾙﾏﾁ","prefecture":"大分県","city":"日田市","street":"中釣町"},{"zipCode":"8770074","prefectureKana":"ｵｵｲﾀｹﾝ","cityKana":"ﾋﾀｼ","streetKana":"ﾅｶﾉｼﾏﾏﾁ","prefecture":"大分県","city":"日田市","street":"中ノ島町"},{"zipCode":"8770047","prefectureKana":"ｵｵｲﾀｹﾝ","cityKana":"ﾋﾀｼ","streetKana":"ﾅｶﾎﾝﾏﾁ","prefecture":"大分県","city":"日田市","street":"中本町"},{"zipCode":"8770058","prefectureKana":"ｵｵｲﾀｹﾝ","cityKana":"ﾋﾀｼ","streetKana":"ﾅﾝﾌﾞﾏﾁ","prefecture":"大分県","city":"日田市","street":"南部町"},{"zipCode":"8770072","prefectureKana":"ｵｵｲﾀｹﾝ","cityKana":"ﾋﾀｼ","streetKana":"ﾆｲﾊﾞﾙﾏﾁ","prefecture":"大分県","city":"日田市","street":"新治町"},{"zipCode":"8770086","prefectureKana":"ｵｵｲﾀｹﾝ","cityKana":"ﾋﾀｼ","streetKana":"ﾆｸｼﾁｮｳ","prefecture":"大分県","city":"日田市","street":"二串町"},{"zipCode":"8771353","prefectureKana":"ｵｵｲﾀｹﾝ","cityKana":"ﾋﾀｼ","streetKana":"ﾉﾎﾞﾃﾏﾁ","prefecture":"大分県","city":"日田市","street":"上手町"},{"zipCode":"8771384","prefectureKana":"ｵｵｲﾀｹﾝ","cityKana":"ﾋﾀｼ","streetKana":"ﾊﾀﾏﾁ","prefecture":"大分県","city":"日田市","street":"羽田町"},{"zipCode":"8771381","prefectureKana":"ｵｵｲﾀｹﾝ","cityKana":"ﾋﾀｼ","streetKana":"ﾋｶﾞｼﾊﾀﾏﾁ","prefecture":"大分県","city":"日田市","street":"東羽田町"},{"zipCode":"8770042","prefectureKana":"ｵｵｲﾀｹﾝ","cityKana":"ﾋﾀｼ","streetKana":"ﾋｶﾞｼﾏﾁ","prefecture":"大分県","city":"日田市","street":"東町"},{"zipCode":"8770035","prefectureKana":"ｵｵｲﾀｹﾝ","cityKana":"ﾋﾀｼ","streetKana":"ﾋﾀﾞｶﾏﾁ","prefecture":"大分県","city":"日田市","street":"日高町"},{"zipCode":"8770073","prefectureKana":"ｵｵｲﾀｹﾝ","cityKana":"ﾋﾀｼ","streetKana":"ﾋﾉｸﾏﾏﾁ","prefecture":"大分県","city":"日田市","street":"日ノ隈町"},{"zipCode":"8770082","prefectureKana":"ｵｵｲﾀｹﾝ","cityKana":"ﾋﾀｼ","streetKana":"ﾋﾉﾃﾞﾏﾁ","prefecture":"大分県","city":"日田市","street":"日ノ出町"},{"zipCode":"8771382","prefectureKana":"ｵｵｲﾀｹﾝ","cityKana":"ﾋﾀｼ","streetKana":"ﾋﾉﾓﾄﾏﾁ","prefecture":"大分県","city":"日田市","street":"日の本町"},{"zipCode":"8770083","prefectureKana":"ｵｵｲﾀｹﾝ","cityKana":"ﾋﾀｼ","streetKana":"ﾌｷｱｹﾞﾏﾁ","prefecture":"大分県","city":"日田市","street":"吹上町"},{"zipCode":"8771221","prefectureKana":"ｵｵｲﾀｹﾝ","cityKana":"ﾋﾀｼ","streetKana":"ﾌｼｷﾏﾁ","prefecture":"大分県","city":"日田市","street":"伏木町"},{"zipCode":"8771225","prefectureKana":"ｵｵｲﾀｹﾝ","cityKana":"ﾋﾀｼ","streetKana":"ﾌｼﾞﾔﾏﾏﾁ","prefecture":"大分県","city":"日田市","street":"藤山町"},{"zipCode":"8770046","prefectureKana":"ｵｵｲﾀｹﾝ","cityKana":"ﾋﾀｼ","streetKana":"ﾎﾝｼﾞｮｳﾏﾁ","prefecture":"大分県","city":"日田市","street":"本庄町"},{"zipCode":"8770014","prefectureKana":"ｵｵｲﾀｹﾝ","cityKana":"ﾋﾀｼ","streetKana":"ﾎﾝﾏﾁ","prefecture":"大分県","city":"日田市","street":"本町"},{"zipCode":"8770211","prefectureKana":"ｵｵｲﾀｹﾝ","cityKana":"ﾋﾀｼ","streetKana":"ﾏｴﾂｴﾏﾁｱｶｲｼ","prefecture":"大分県","city":"日田市","street":"前津江町赤石"},{"zipCode":"8770212","prefectureKana":"ｵｵｲﾀｹﾝ","cityKana":"ﾋﾀｼ","streetKana":"ﾏｴﾂｴﾏﾁｵｵﾉ","prefecture":"大分県","city":"日田市","street":"前津江町大野"},{"zipCode":"8770221","prefectureKana":"ｵｵｲﾀｹﾝ","cityKana":"ﾋﾀｼ","streetKana":"ﾏｴﾂｴﾏﾁﾕｳｷﾞ(ｿﾉﾀ)","prefecture":"大分県","city":"日田市","street":"前津江町柚木（その他）"},{"zipCode":"8771374","prefectureKana":"ｵｵｲﾀｹﾝ","cityKana":"ﾋﾀｼ","streetKana":"ﾏﾂﾉﾏﾁ","prefecture":"大分県","city":"日田市","street":"松野町"},{"zipCode":"8770005","prefectureKana":"ｵｵｲﾀｹﾝ","cityKana":"ﾋﾀｼ","streetKana":"ﾏﾒﾀﾞﾏﾁ","prefecture":"大分県","city":"日田市","street":"豆田町"},{"zipCode":"8770007","prefectureKana":"ｵｵｲﾀｹﾝ","cityKana":"ﾋﾀｼ","streetKana":"ﾏﾙﾉｳﾁﾏﾁ","prefecture":"大分県","city":"日田市","street":"丸の内町"},{"zipCode":"8770008","prefectureKana":"ｵｵｲﾀｹﾝ","cityKana":"ﾋﾀｼ","streetKana":"ﾏﾙﾔﾏ","prefecture":"大分県","city":"日田市","street":"丸山"},{"zipCode":"8771364","prefectureKana":"ｵｵｲﾀｹﾝ","cityKana":"ﾋﾀｼ","streetKana":"ﾐｲｹﾏﾁ","prefecture":"大分県","city":"日田市","street":"三池町"},{"zipCode":"8771244","prefectureKana":"ｵｵｲﾀｹﾝ","cityKana":"ﾋﾀｼ","streetKana":"ﾐｶﾜﾏﾁ","prefecture":"大分県","city":"日田市","street":"三河町"},{"zipCode":"8771365","prefectureKana":"ｵｵｲﾀｹﾝ","cityKana":"ﾋﾀｼ","streetKana":"ﾐｽﾞﾒﾏﾁ","prefecture":"大分県","city":"日田市","street":"水目町"},{"zipCode":"8770065","prefectureKana":"ｵｵｲﾀｹﾝ","cityKana":"ﾋﾀｼ","streetKana":"ﾐﾄﾞﾘﾏﾁ","prefecture":"大分県","city":"日田市","street":"緑町"},{"zipCode":"8770006","prefectureKana":"ｵｵｲﾀｹﾝ","cityKana":"ﾋﾀｼ","streetKana":"ﾐﾅﾄﾏﾁ","prefecture":"大分県","city":"日田市","street":"港町"},{"zipCode":"8770077","prefectureKana":"ｵｵｲﾀｹﾝ","cityKana":"ﾋﾀｼ","streetKana":"ﾐﾅﾐﾄﾓﾀﾞﾏﾁ","prefecture":"大分県","city":"日田市","street":"南友田町"},{"zipCode":"8770024","prefectureKana":"ｵｵｲﾀｹﾝ","cityKana":"ﾋﾀｼ","streetKana":"ﾐﾅﾐﾓﾄﾏﾁ","prefecture":"大分県","city":"日田市","street":"南元町"},{"zipCode":"8770036","prefectureKana":"ｵｵｲﾀｹﾝ","cityKana":"ﾋﾀｼ","streetKana":"ﾐﾖｼｺﾌﾞﾁﾏﾁ","prefecture":"大分県","city":"日田市","street":"三芳小渕町"},{"zipCode":"8771233","prefectureKana":"ｵｵｲﾀｹﾝ","cityKana":"ﾋﾀｼ","streetKana":"ﾐﾜﾀﾞﾝﾁ","prefecture":"大分県","city":"日田市","street":"三和団地"},{"zipCode":"8770013","prefectureKana":"ｵｵｲﾀｹﾝ","cityKana":"ﾋﾀｼ","streetKana":"ﾓﾄﾏﾁ","prefecture":"大分県","city":"日田市","street":"元町"},{"zipCode":"8771121","prefectureKana":"ｵｵｲﾀｹﾝ","cityKana":"ﾋﾀｼ","streetKana":"ﾓﾄｴﾏﾁ(ｲｹﾉﾂﾙ､ｻﾗﾔﾏ)","prefecture":"大分県","city":"日田市","street":"源栄町（池ノ鶴、皿山）"},{"zipCode":"8771241","prefectureKana":"ｵｵｲﾀｹﾝ","cityKana":"ﾋﾀｼ","streetKana":"ﾓﾄｴﾏﾁ(ｿﾉﾀ)","prefecture":"大分県","city":"日田市","street":"源栄町（その他）"},{"zipCode":"8770021","prefectureKana":"ｵｵｲﾀｹﾝ","cityKana":"ﾋﾀｼ","streetKana":"ﾓﾄﾒﾏﾁ","prefecture":"大分県","city":"日田市","street":"求町"},{"zipCode":"8770034","prefectureKana":"ｵｵｲﾀｹﾝ","cityKana":"ﾋﾀｼ","streetKana":"ﾓﾓﾔﾏﾏﾁ","prefecture":"大分県","city":"日田市","street":"桃山町"},{"zipCode":"8771371","prefectureKana":"ｵｵｲﾀｹﾝ","cityKana":"ﾋﾀｼ","streetKana":"ﾓﾛﾄﾞﾒﾏﾁ","prefecture":"大分県","city":"日田市","street":"諸留町"},{"zipCode":"8770057","prefectureKana":"ｵｵｲﾀｹﾝ","cityKana":"ﾋﾀｼ","streetKana":"ﾔﾊﾀﾏﾁ","prefecture":"大分県","city":"日田市","street":"八幡町"},{"zipCode":"8770089","prefectureKana":"ｵｵｲﾀｹﾝ","cityKana":"ﾋﾀｼ","streetKana":"ﾔﾏﾀﾞﾏﾁ","prefecture":"大分県","city":"日田市","street":"山田町"},{"zipCode":"8770039","prefectureKana":"ｵｵｲﾀｹﾝ","cityKana":"ﾋﾀｼ","streetKana":"ﾕｷｲﾏﾁ","prefecture":"大分県","city":"日田市","street":"刃連町"},{"zipCode":"8771111","prefectureKana":"ｵｵｲﾀｹﾝ","cityKana":"ﾋﾀｼ","streetKana":"ﾖｱｹｶﾐﾏﾁ","prefecture":"大分県","city":"日田市","street":"夜明上町"},{"zipCode":"8771112","prefectureKana":"ｵｵｲﾀｹﾝ","cityKana":"ﾋﾀｼ","streetKana":"ﾖｱｹﾅｶﾏﾁ","prefecture":"大分県","city":"日田市","street":"夜明中町"},{"zipCode":"8771113","prefectureKana":"ｵｵｲﾀｹﾝ","cityKana":"ﾋﾀｼ","streetKana":"ﾖｱｹｾｷﾏﾁ","prefecture":"大分県","city":"日田市","street":"夜明関町"},{"zipCode":"8770037","prefectureKana":"ｵｵｲﾀｹﾝ","cityKana":"ﾋﾀｼ","streetKana":"ﾜｶﾐﾔﾏﾁ","prefecture":"大分県","city":"日田市","street":"若宮町"}]