[{"zipCode":"8797504","prefectureKana":"ｵｵｲﾀｹﾝ","cityKana":"ｵｵｲﾀｼ","streetKana":"ｱﾝﾄﾞｳ","prefecture":"大分県","city":"大分市","street":"安藤"},{"zipCode":"8792203","prefectureKana":"ｵｵｲﾀｹﾝ","cityKana":"ｵｵｲﾀｼ","streetKana":"ｲｯｼｬｸﾔ","prefecture":"大分県","city":"大分市","street":"一尺屋"},{"zipCode":"8797885","prefectureKana":"ｵｵｲﾀｹﾝ","cityKana":"ｵｵｲﾀｼ","streetKana":"ｳﾒｶﾞｵｶ","prefecture":"大分県","city":"大分市","street":"梅が丘"},{"zipCode":"8792114","prefectureKana":"ｵｵｲﾀｹﾝ","cityKana":"ｵｵｲﾀｼ","streetKana":"ｵｵﾋﾗ","prefecture":"大分県","city":"大分市","street":"大平"},{"zipCode":"8797881","prefectureKana":"ｵｵｲﾀｹﾝ","cityKana":"ｵｵｲﾀｼ","streetKana":"ｵｸ","prefecture":"大分県","city":"大分市","street":"奥"},{"zipCode":"8797764","prefectureKana":"ｵｵｲﾀｹﾝ","cityKana":"ｵｵｲﾀｼ","streetKana":"ｶﾐﾍﾂｷﾞ","prefecture":"大分県","city":"大分市","street":"上戸次"},{"zipCode":"8797503","prefectureKana":"ｵｵｲﾀｹﾝ","cityKana":"ｵｵｲﾀｼ","streetKana":"ｶﾜﾗｳﾁ","prefecture":"大分県","city":"大分市","street":"河原内"},{"zipCode":"8792113","prefectureKana":"ｵｵｲﾀｹﾝ","cityKana":"ｵｵｲﾀｼ","streetKana":"ｷｻｶﾞﾐ","prefecture":"大分県","city":"大分市","street":"木佐上"},{"zipCode":"8797762","prefectureKana":"ｵｵｲﾀｹﾝ","cityKana":"ｵｵｲﾀｼ","streetKana":"ｹﾔｷﾀﾞｲ","prefecture":"大分県","city":"大分市","street":"けやき台"},{"zipCode":"8792201","prefectureKana":"ｵｵｲﾀｹﾝ","cityKana":"ｵｵｲﾀｼ","streetKana":"ｻｶﾞﾉｾｷ","prefecture":"大分県","city":"大分市","street":"佐賀関"},{"zipCode":"8797884","prefectureKana":"ｵｵｲﾀｹﾝ","cityKana":"ｵｵｲﾀｼ","streetKana":"ｼﾂﾙ","prefecture":"大分県","city":"大分市","street":"志津留"},{"zipCode":"8797763","prefectureKana":"ｵｵｲﾀｹﾝ","cityKana":"ｵｵｲﾀｼ","streetKana":"ｼﾓﾍﾂｷﾞ","prefecture":"大分県","city":"大分市","street":"下戸次"},{"zipCode":"8792115","prefectureKana":"ｵｵｲﾀｹﾝ","cityKana":"ｵｵｲﾀｼ","streetKana":"ｼｭｳｷ","prefecture":"大分県","city":"大分市","street":"志生木"},{"zipCode":"8792202","prefectureKana":"ｵｵｲﾀｹﾝ","cityKana":"ｵｵｲﾀｼ","streetKana":"ｼﾗｷ","prefecture":"大分県","city":"大分市","street":"白木"},{"zipCode":"8797882","prefectureKana":"ｵｵｲﾀｹﾝ","cityKana":"ｵｵｲﾀｼ","streetKana":"ｽｷﾞﾊﾞﾙ","prefecture":"大分県","city":"大分市","street":"杉原"},{"zipCode":"8797501","prefectureKana":"ｵｵｲﾀｹﾝ","cityKana":"ｵｵｲﾀｼ","streetKana":"ﾀｹﾅｶ","prefecture":"大分県","city":"大分市","street":"竹中"},{"zipCode":"8797872","prefectureKana":"ｵｵｲﾀｹﾝ","cityKana":"ｵｵｲﾀｼ","streetKana":"ﾂｷｶﾞﾀ","prefecture":"大分県","city":"大分市","street":"月形"},{"zipCode":"8797871","prefectureKana":"ｵｵｲﾀｹﾝ","cityKana":"ｵｵｲﾀｼ","streetKana":"ﾂｼﾞ","prefecture":"大分県","city":"大分市","street":"辻"},{"zipCode":"8797761","prefectureKana":"ｵｵｲﾀｹﾝ","cityKana":"ｵｵｲﾀｼ","streetKana":"ﾅｶﾍﾂｷﾞ","prefecture":"大分県","city":"大分市","street":"中戸次"},{"zipCode":"8797883","prefectureKana":"ｵｵｲﾀｹﾝ","cityKana":"ｵｵｲﾀｼ","streetKana":"ﾊｷﾞｵ","prefecture":"大分県","city":"大分市","street":"萩尾"},{"zipCode":"8797502","prefectureKana":"ｵｵｲﾀｹﾝ","cityKana":"ｵｵｲﾀｼ","streetKana":"ﾊﾀﾉﾎﾞﾘ","prefecture":"大分県","city":"大分市","street":"端登"},{"zipCode":"8792112","prefectureKana":"ｵｵｲﾀｹﾝ","cityKana":"ｵｵｲﾀｼ","streetKana":"ﾊﾞﾊﾞ","prefecture":"大分県","city":"大分市","street":"馬場"},{"zipCode":"8797874","prefectureKana":"ｵｵｲﾀｹﾝ","cityKana":"ｵｵｲﾀｼ","streetKana":"ﾌｸﾗ","prefecture":"大分県","city":"大分市","street":"福良"},{"zipCode":"8792111","prefectureKana":"ｵｵｲﾀｹﾝ","cityKana":"ｵｵｲﾀｼ","streetKana":"ﾎﾝｺｳｻﾞｷ","prefecture":"大分県","city":"大分市","street":"本神崎"},{"zipCode":"8797765","prefectureKana":"ｵｵｲﾀｹﾝ","cityKana":"ｵｵｲﾀｼ","streetKana":"ﾐｿﾉﾀﾞﾝﾁ","prefecture":"大分県","city":"大分市","street":"美園団地"},{"zipCode":"8797873","prefectureKana":"ｵｵｲﾀｹﾝ","cityKana":"ｵｵｲﾀｼ","streetKana":"ﾐﾔｵ","prefecture":"大分県","city":"大分市","street":"宮尾"},{"zipCode":"8797875","prefectureKana":"ｵｵｲﾀｹﾝ","cityKana":"ｵｵｲﾀｼ","streetKana":"ﾖｼﾉﾊﾙ","prefecture":"大分県","city":"大分市","street":"吉野原"},{"zipCode":"8795551","prefectureKana":"ｵｵｲﾀｹﾝ","cityKana":"ﾍﾞｯﾌﾟｼ","streetKana":"ｳﾁﾅﾘ","prefecture":"大分県","city":"別府市","street":"内成"},{"zipCode":"8795552","prefectureKana":"ｵｵｲﾀｹﾝ","cityKana":"ﾍﾞｯﾌﾟｼ","streetKana":"ｺｶﾞﾉﾊﾙ","prefecture":"大分県","city":"別府市","street":"古賀原"},{"zipCode":"8790106","prefectureKana":"ｵｵｲﾀｹﾝ","cityKana":"ﾅｶﾂｼ","streetKana":"ｱｶｻｺ","prefecture":"大分県","city":"中津市","street":"赤迫"},{"zipCode":"8790111","prefectureKana":"ｵｵｲﾀｹﾝ","cityKana":"ﾅｶﾂｼ","streetKana":"ｲﾄﾞｳﾀﾞ","prefecture":"大分県","city":"中津市","street":"伊藤田"},{"zipCode":"8790105","prefectureKana":"ｵｵｲﾀｹﾝ","cityKana":"ﾅｶﾂｼ","streetKana":"ｲﾇﾏﾙ","prefecture":"大分県","city":"中津市","street":"犬丸"},{"zipCode":"8790101","prefectureKana":"ｵｵｲﾀｹﾝ","cityKana":"ﾅｶﾂｼ","streetKana":"ｲﾏﾂﾞ","prefecture":"大分県","city":"中津市","street":"今津"},{"zipCode":"8790103","prefectureKana":"ｵｵｲﾀｹﾝ","cityKana":"ﾅｶﾂｼ","streetKana":"ｳｴﾉ","prefecture":"大分県","city":"中津市","street":"植野"},{"zipCode":"8790113","prefectureKana":"ｵｵｲﾀｹﾝ","cityKana":"ﾅｶﾂｼ","streetKana":"ｷﾀﾊﾞﾙ","prefecture":"大分県","city":"中津市","street":"北原"},{"zipCode":"8790122","prefectureKana":"ｵｵｲﾀｹﾝ","cityKana":"ﾅｶﾂｼ","streetKana":"ｻﾀﾞﾉﾐ","prefecture":"大分県","city":"中津市","street":"定留"},{"zipCode":"8790225","prefectureKana":"ｵｵｲﾀｹﾝ","cityKana":"ﾅｶﾂｼ","streetKana":"ｻﾝｺｳｶﾐﾌｺｳｽﾞ","prefecture":"大分県","city":"中津市","street":"三光上深水"},{"zipCode":"8790221","prefectureKana":"ｵｵｲﾀｹﾝ","cityKana":"ﾅｶﾂｼ","streetKana":"ｻﾝｺｳｶﾐﾏｸｻ","prefecture":"大分県","city":"中津市","street":"三光上秣"},{"zipCode":"8790224","prefectureKana":"ｵｵｲﾀｹﾝ","cityKana":"ﾅｶﾂｼ","streetKana":"ｻﾝｺｳｼﾓﾌｺｳｽﾞ","prefecture":"大分県","city":"中津市","street":"三光下深水"},{"zipCode":"8790223","prefectureKana":"ｵｵｲﾀｹﾝ","cityKana":"ﾅｶﾂｼ","streetKana":"ｻﾝｺｳｼﾓﾏｸｻ","prefecture":"大分県","city":"中津市","street":"三光下秣"},{"zipCode":"8790222","prefectureKana":"ｵｵｲﾀｹﾝ","cityKana":"ﾅｶﾂｼ","streetKana":"ｻﾝｺｳﾆｼﾏｸｻ","prefecture":"大分県","city":"中津市","street":"三光西秣"},{"zipCode":"8790107","prefectureKana":"ｵｵｲﾀｹﾝ","cityKana":"ﾅｶﾂｼ","streetKana":"ｼｮｳﾜｼﾝﾃﾞﾝ","prefecture":"大分県","city":"中津市","street":"昭和新田"},{"zipCode":"8790123","prefectureKana":"ｵｵｲﾀｹﾝ","cityKana":"ﾅｶﾂｼ","streetKana":"ﾀｼﾞﾘ","prefecture":"大分県","city":"中津市","street":"田尻"},{"zipCode":"8790124","prefectureKana":"ｵｵｲﾀｹﾝ","cityKana":"ﾅｶﾂｼ","streetKana":"ﾀｼﾞﾘｻﾞｷ","prefecture":"大分県","city":"中津市","street":"田尻崎"},{"zipCode":"8790102","prefectureKana":"ｵｵｲﾀｹﾝ","cityKana":"ﾅｶﾂｼ","streetKana":"ﾅﾍﾞｼﾏ","prefecture":"大分県","city":"中津市","street":"鍋島"},{"zipCode":"8790104","prefectureKana":"ｵｵｲﾀｹﾝ","cityKana":"ﾅｶﾂｼ","streetKana":"ﾉﾖﾘ","prefecture":"大分県","city":"中津市","street":"野依"},{"zipCode":"8790112","prefectureKana":"ｵｵｲﾀｹﾝ","cityKana":"ﾅｶﾂｼ","streetKana":"ﾌｸｼﾏ","prefecture":"大分県","city":"中津市","street":"福島"},{"zipCode":"8790121","prefectureKana":"ｵｵｲﾀｹﾝ","cityKana":"ﾅｶﾂｼ","streetKana":"ﾓﾛﾀ","prefecture":"大分県","city":"中津市","street":"諸田"},{"zipCode":"8794202","prefectureKana":"ｵｵｲﾀｹﾝ","cityKana":"ﾋﾀｼ","streetKana":"ｱﾏｶﾞｾﾏﾁｱｶｲﾜ","prefecture":"大分県","city":"日田市","street":"天瀬町赤岩"},{"zipCode":"8794123","prefectureKana":"ｵｵｲﾀｹﾝ","cityKana":"ﾋﾀｼ","streetKana":"ｱﾏｶﾞｾﾏﾁｵﾅｺﾞﾊﾀ","prefecture":"大分県","city":"日田市","street":"天瀬町女子畑"},{"zipCode":"8794122","prefectureKana":"ｵｵｲﾀｹﾝ","cityKana":"ﾋﾀｼ","streetKana":"ｱﾏｶﾞｾﾏﾁｺﾞｳﾀ","prefecture":"大分県","city":"日田市","street":"天瀬町合田"},{"zipCode":"8794201","prefectureKana":"ｵｵｲﾀｹﾝ","cityKana":"ﾋﾀｼ","streetKana":"ｱﾏｶﾞｾﾏﾁｻｸﾗﾀﾞｹ","prefecture":"大分県","city":"日田市","street":"天瀬町桜竹"},{"zipCode":"8794121","prefectureKana":"ｵｵｲﾀｹﾝ","cityKana":"ﾋﾀｼ","streetKana":"ｱﾏｶﾞｾﾏﾁﾏﾊﾞﾙ","prefecture":"大分県","city":"日田市","street":"天瀬町馬原"},{"zipCode":"8794203","prefectureKana":"ｵｵｲﾀｹﾝ","cityKana":"ﾋﾀｼ","streetKana":"ｱﾏｶﾞｾﾏﾁﾕﾔﾏ","prefecture":"大分県","city":"日田市","street":"天瀬町湯山"},{"zipCode":"8793201","prefectureKana":"ｵｵｲﾀｹﾝ","cityKana":"ｻｲｷｼ","streetKana":"ｳﾒｵｵﾋﾗ","prefecture":"大分県","city":"佐伯市","street":"宇目大平"},{"zipCode":"8793301","prefectureKana":"ｵｵｲﾀｹﾝ","cityKana":"ｻｲｷｼ","streetKana":"ｳﾒｵﾉｲﾁ","prefecture":"大分県","city":"佐伯市","street":"宇目小野市"},{"zipCode":"8793202","prefectureKana":"ｵｵｲﾀｹﾝ","cityKana":"ｻｲｷｼ","streetKana":"ｳﾒｶﾜﾁ","prefecture":"大分県","city":"佐伯市","street":"宇目河内"},{"zipCode":"8793402","prefectureKana":"ｵｵｲﾀｹﾝ","cityKana":"ｻｲｷｼ","streetKana":"ｳﾒｷｳﾗｳﾁ","prefecture":"大分県","city":"佐伯市","street":"宇目木浦内"},{"zipCode":"8793401","prefectureKana":"ｵｵｲﾀｹﾝ","cityKana":"ｻｲｷｼ","streetKana":"ｳﾒｷｳﾗｺｳｻﾞﾝ","prefecture":"大分県","city":"佐伯市","street":"宇目木浦鉱山"},{"zipCode":"8793203","prefectureKana":"ｵｵｲﾀｹﾝ","cityKana":"ｻｲｷｼ","streetKana":"ｳﾒｼｵﾐｿﾞﾉ","prefecture":"大分県","city":"佐伯市","street":"宇目塩見園"},{"zipCode":"8793204","prefectureKana":"ｵｵｲﾀｹﾝ","cityKana":"ｻｲｷｼ","streetKana":"ｳﾒｼｹﾞｵｶ","prefecture":"大分県","city":"佐伯市","street":"宇目重岡"},{"zipCode":"8793205","prefectureKana":"ｵｵｲﾀｹﾝ","cityKana":"ｻｲｷｼ","streetKana":"ｳﾒｾﾝｿﾞｸ","prefecture":"大分県","city":"佐伯市","street":"宇目千束"},{"zipCode":"8793302","prefectureKana":"ｵｵｲﾀｹﾝ","cityKana":"ｻｲｷｼ","streetKana":"ｳﾒﾐﾅﾐﾀﾊﾞﾙ","prefecture":"大分県","city":"佐伯市","street":"宇目南田原"},{"zipCode":"8792601","prefectureKana":"ｵｵｲﾀｹﾝ","cityKana":"ｻｲｷｼ","streetKana":"ｶﾐｳﾗｱｻﾞﾑｲｳﾗ","prefecture":"大分県","city":"佐伯市","street":"上浦浅海井浦"},{"zipCode":"8792602","prefectureKana":"ｵｵｲﾀｹﾝ","cityKana":"ｻｲｷｼ","streetKana":"ｶﾐｳﾗﾂｲｳﾗ","prefecture":"大分県","city":"佐伯市","street":"上浦津井浦"},{"zipCode":"8792603","prefectureKana":"ｵｵｲﾀｹﾝ","cityKana":"ｻｲｷｼ","streetKana":"ｶﾐｳﾗﾆｲﾅﾒｳﾗ","prefecture":"大分県","city":"佐伯市","street":"上浦最勝海浦"},{"zipCode":"8793101","prefectureKana":"ｵｵｲﾀｹﾝ","cityKana":"ｻｲｷｼ","streetKana":"ﾅｵｶﾜｱｶｷﾞ","prefecture":"大分県","city":"佐伯市","street":"直川赤木"},{"zipCode":"8793102","prefectureKana":"ｵｵｲﾀｹﾝ","cityKana":"ｻｲｷｼ","streetKana":"ﾅｵｶﾜｶﾐﾅｵﾐ","prefecture":"大分県","city":"佐伯市","street":"直川上直見"},{"zipCode":"8793103","prefectureKana":"ｵｵｲﾀｹﾝ","cityKana":"ｻｲｷｼ","streetKana":"ﾅｵｶﾜｼﾓﾅｵﾐ","prefecture":"大分県","city":"佐伯市","street":"直川下直見"},{"zipCode":"8793104","prefectureKana":"ｵｵｲﾀｹﾝ","cityKana":"ｻｲｷｼ","streetKana":"ﾅｵｶﾜﾆﾀﾊﾗ","prefecture":"大分県","city":"佐伯市","street":"直川仁田原"},{"zipCode":"8793105","prefectureKana":"ｵｵｲﾀｹﾝ","cityKana":"ｻｲｷｼ","streetKana":"ﾅｵｶﾜﾖｺｶﾞﾜ","prefecture":"大分県","city":"佐伯市","street":"直川横川"},{"zipCode":"8792400","prefectureKana":"ｵｵｲﾀｹﾝ","cityKana":"ﾂｸﾐｼ","streetKana":"ｲｶﾆｹｲｻｲｶﾞﾅｲﾊﾞｱｲ","prefecture":"大分県","city":"津久見市","street":"以下に掲載がない場合"},{"zipCode":"8792682","prefectureKana":"ｵｵｲﾀｹﾝ","cityKana":"ﾂｸﾐｼ","streetKana":"ｱｼﾞﾛ","prefecture":"大分県","city":"津久見市","street":"網代"},{"zipCode":"8792445","prefectureKana":"ｵｵｲﾀｹﾝ","cityKana":"ﾂｸﾐｼ","streetKana":"ｲﾑﾀﾏﾁ","prefecture":"大分県","city":"津久見市","street":"井無田町"},{"zipCode":"8792459","prefectureKana":"ｵｵｲﾀｹﾝ","cityKana":"ﾂｸﾐｼ","streetKana":"ｲﾘﾌﾈﾋｶﾞｼﾏﾁ","prefecture":"大分県","city":"津久見市","street":"入船東町"},{"zipCode":"8792458","prefectureKana":"ｵｵｲﾀｹﾝ","cityKana":"ﾂｸﾐｼ","streetKana":"ｲﾘﾌﾈﾆｼﾏﾁ","prefecture":"大分県","city":"津久見市","street":"入船西町"},{"zipCode":"8792411","prefectureKana":"ｵｵｲﾀｹﾝ","cityKana":"ﾂｸﾐｼ","streetKana":"ｲﾜﾔﾏﾁ","prefecture":"大分県","city":"津久見市","street":"岩屋町"},{"zipCode":"8792431","prefectureKana":"ｵｵｲﾀｹﾝ","cityKana":"ﾂｸﾐｼ","streetKana":"ｵｵﾄﾓﾏﾁ","prefecture":"大分県","city":"津久見市","street":"大友町"},{"zipCode":"8792455","prefectureKana":"ｵｵｲﾀｹﾝ","cityKana":"ﾂｸﾐｼ","streetKana":"ｵｶﾏﾁ","prefecture":"大分県","city":"津久見市","street":"岡町"},{"zipCode":"8792475","prefectureKana":"ｵｵｲﾀｹﾝ","cityKana":"ﾂｸﾐｼ","streetKana":"ｶﾀｳﾗ","prefecture":"大分県","city":"津久見市","street":"堅浦"},{"zipCode":"8792461","prefectureKana":"ｵｵｲﾀｹﾝ","cityKana":"ﾂｸﾐｼ","streetKana":"ｶﾐｱｵｴ","prefecture":"大分県","city":"津久見市","street":"上青江"},{"zipCode":"8792436","prefectureKana":"ｵｵｲﾀｹﾝ","cityKana":"ﾂｸﾐｼ","streetKana":"ｶﾐﾐﾔﾓﾄﾏﾁ","prefecture":"大分県","city":"津久見市","street":"上宮本町"},{"zipCode":"8792471","prefectureKana":"ｵｵｲﾀｹﾝ","cityKana":"ﾂｸﾐｼ","streetKana":"ｺﾞｳﾉﾓﾄﾏﾁ","prefecture":"大分県","city":"津久見市","street":"合ノ元町"},{"zipCode":"8792453","prefectureKana":"ｵｵｲﾀｹﾝ","cityKana":"ﾂｸﾐｼ","streetKana":"ｺｿﾞﾉﾏﾁ","prefecture":"大分県","city":"津久見市","street":"小園町"},{"zipCode":"8792454","prefectureKana":"ｵｵｲﾀｹﾝ","cityKana":"ﾂｸﾐｼ","streetKana":"ｼﾞｿﾞｳﾏﾁ","prefecture":"大分県","city":"津久見市","street":"地蔵町"},{"zipCode":"8792457","prefectureKana":"ｵｵｲﾀｹﾝ","cityKana":"ﾂｸﾐｼ","streetKana":"ｼﾃﾏﾁ","prefecture":"大分県","city":"津久見市","street":"志手町"},{"zipCode":"8792446","prefectureKana":"ｵｵｲﾀｹﾝ","cityKana":"ﾂｸﾐｼ","streetKana":"ｼﾓｱｵｴ","prefecture":"大分県","city":"津久見市","street":"下青江"},{"zipCode":"8792451","prefectureKana":"ｵｵｲﾀｹﾝ","cityKana":"ﾂｸﾐｼ","streetKana":"ｼﾝﾏﾁ","prefecture":"大分県","city":"津久見市","street":"新町"},{"zipCode":"8792443","prefectureKana":"ｵｵｲﾀｹﾝ","cityKana":"ﾂｸﾐｼ","streetKana":"ｾﾒﾝﾄﾏﾁ","prefecture":"大分県","city":"津久見市","street":"セメント町"},{"zipCode":"8792412","prefectureKana":"ｵｵｲﾀｹﾝ","cityKana":"ﾂｸﾐｼ","streetKana":"ﾀｶｽﾏﾁ","prefecture":"大分県","city":"津久見市","street":"高洲町"},{"zipCode":"8792434","prefectureKana":"ｵｵｲﾀｹﾝ","cityKana":"ﾂｸﾐｼ","streetKana":"ﾀﾁﾊﾞﾅﾏﾁ","prefecture":"大分県","city":"津久見市","street":"立花町"},{"zipCode":"8792401","prefectureKana":"ｵｵｲﾀｹﾝ","cityKana":"ﾂｸﾐｼ","streetKana":"ﾁﾇ","prefecture":"大分県","city":"津久見市","street":"千怒"},{"zipCode":"8792441","prefectureKana":"ｵｵｲﾀｹﾝ","cityKana":"ﾂｸﾐｼ","streetKana":"ﾁｭｳｵｳﾏﾁ","prefecture":"大分県","city":"津久見市","street":"中央町"},{"zipCode":"8792421","prefectureKana":"ｵｵｲﾀｹﾝ","cityKana":"ﾂｸﾐｼ","streetKana":"ﾂｸﾐ","prefecture":"大分県","city":"津久見市","street":"津久見"},{"zipCode":"8792413","prefectureKana":"ｵｵｲﾀｹﾝ","cityKana":"ﾂｸﾐｼ","streetKana":"ﾂｸﾐｳﾗ","prefecture":"大分県","city":"津久見市","street":"津久見浦"},{"zipCode":"8792474","prefectureKana":"ｵｵｲﾀｹﾝ","cityKana":"ﾂｸﾐｼ","streetKana":"ﾄｸｳﾗ","prefecture":"大分県","city":"津久見市","street":"徳浦"},{"zipCode":"8792472","prefectureKana":"ｵｵｲﾀｹﾝ","cityKana":"ﾂｸﾐｼ","streetKana":"ﾄｸｳﾗﾎﾝﾏﾁ","prefecture":"大分県","city":"津久見市","street":"徳浦本町"},{"zipCode":"8792473","prefectureKana":"ｵｵｲﾀｹﾝ","cityKana":"ﾂｸﾐｼ","streetKana":"ﾄｸｳﾗﾐﾔﾏﾁ","prefecture":"大分県","city":"津久見市","street":"徳浦宮町"},{"zipCode":"8792433","prefectureKana":"ｵｵｲﾀｹﾝ","cityKana":"ﾂｸﾐｼ","streetKana":"ﾅｶﾀﾞﾏﾁ","prefecture":"大分県","city":"津久見市","street":"中田町"},{"zipCode":"8792452","prefectureKana":"ｵｵｲﾀｹﾝ","cityKana":"ﾂｸﾐｼ","streetKana":"ﾅｶﾏﾁ","prefecture":"大分県","city":"津久見市","street":"中町"},{"zipCode":"8792476","prefectureKana":"ｵｵｲﾀｹﾝ","cityKana":"ﾂｸﾐｼ","streetKana":"ﾅｶﾞﾒ","prefecture":"大分県","city":"津久見市","street":"長目"},{"zipCode":"8792681","prefectureKana":"ｵｵｲﾀｹﾝ","cityKana":"ﾂｸﾐｼ","streetKana":"ﾋﾐ","prefecture":"大分県","city":"津久見市","street":"日見"},{"zipCode":"8792432","prefectureKana":"ｵｵｲﾀｹﾝ","cityKana":"ﾂｸﾐｼ","streetKana":"ﾌﾞﾝｷｮｳﾏﾁ","prefecture":"大分県","city":"津久見市","street":"文京町"},{"zipCode":"8792501","prefectureKana":"ｵｵｲﾀｹﾝ","cityKana":"ﾂｸﾐｼ","streetKana":"ﾎﾄｼﾞﾏ","prefecture":"大分県","city":"津久見市","street":"保戸島"},{"zipCode":"8792442","prefectureKana":"ｵｵｲﾀｹﾝ","cityKana":"ﾂｸﾐｼ","streetKana":"ﾐﾅﾄﾏﾁ","prefecture":"大分県","city":"津久見市","street":"港町"},{"zipCode":"8792435","prefectureKana":"ｵｵｲﾀｹﾝ","cityKana":"ﾂｸﾐｼ","streetKana":"ﾐﾔﾓﾄﾏﾁ","prefecture":"大分県","city":"津久見市","street":"宮本町"},{"zipCode":"8792444","prefectureKana":"ｵｵｲﾀｹﾝ","cityKana":"ﾂｸﾐｼ","streetKana":"ﾓﾄﾏﾁ","prefecture":"大分県","city":"津久見市","street":"元町"},{"zipCode":"8792456","prefectureKana":"ｵｵｲﾀｹﾝ","cityKana":"ﾂｸﾐｼ","streetKana":"ﾓﾝｾﾞﾝﾏﾁ","prefecture":"大分県","city":"津久見市","street":"門前町"},{"zipCode":"8792422","prefectureKana":"ｵｵｲﾀｹﾝ","cityKana":"ﾂｸﾐｼ","streetKana":"ﾔﾄ","prefecture":"大分県","city":"津久見市","street":"八戸"},{"zipCode":"8792683","prefectureKana":"ｵｵｲﾀｹﾝ","cityKana":"ﾂｸﾐｼ","streetKana":"ﾖｳﾗ","prefecture":"大分県","city":"津久見市","street":"四浦"},{"zipCode":"8796182","prefectureKana":"ｵｵｲﾀｹﾝ","cityKana":"ﾀｹﾀｼ","streetKana":"ｲﾏ","prefecture":"大分県","city":"竹田市","street":"今"},{"zipCode":"8796134","prefectureKana":"ｵｵｲﾀｹﾝ","cityKana":"ﾀｹﾀｼ","streetKana":"ｵｷﾞﾏﾁｳﾘﾂｸﾘ","prefecture":"大分県","city":"竹田市","street":"荻町瓜作"},{"zipCode":"8796113","prefectureKana":"ｵｵｲﾀｹﾝ","cityKana":"ﾀｹﾀｼ","streetKana":"ｵｷﾞﾏﾁｴﾗﾊﾙ","prefecture":"大分県","city":"竹田市","street":"荻町恵良原"},{"zipCode":"8796126","prefectureKana":"ｵｵｲﾀｹﾝ","cityKana":"ﾀｹﾀｼ","streetKana":"ｵｷﾞﾏﾁｵｵﾀﾞｲﾗ","prefecture":"大分県","city":"竹田市","street":"荻町大平"},{"zipCode":"8796122","prefectureKana":"ｵｵｲﾀｹﾝ","cityKana":"ﾀｹﾀｼ","streetKana":"ｵｷﾞﾏﾁｶｼﾜﾊﾞﾙ","prefecture":"大分県","city":"竹田市","street":"荻町柏原"},{"zipCode":"8796127","prefectureKana":"ｵｵｲﾀｹﾝ","cityKana":"ﾀｹﾀｼ","streetKana":"ｵｷﾞﾏﾁｶﾅｲﾉ","prefecture":"大分県","city":"竹田市","street":"荻町叶野"},{"zipCode":"8796135","prefectureKana":"ｵｵｲﾀｹﾝ","cityKana":"ﾀｹﾀｼ","streetKana":"ｵｷﾞﾏﾁｷﾀﾊﾞﾙ","prefecture":"大分県","city":"竹田市","street":"荻町北原"},{"zipCode":"8796101","prefectureKana":"ｵｵｲﾀｹﾝ","cityKana":"ﾀｹﾀｼ","streetKana":"ｵｷﾞﾏﾁｷﾉｼﾀ","prefecture":"大分県","city":"竹田市","street":"荻町木下"},{"zipCode":"8796121","prefectureKana":"ｵｵｲﾀｹﾝ","cityKana":"ﾀｹﾀｼ","streetKana":"ｵｷﾞﾏﾁｸﾜｷﾞ","prefecture":"大分県","city":"竹田市","street":"荻町桑木"},{"zipCode":"8796132","prefectureKana":"ｵｵｲﾀｹﾝ","cityKana":"ﾀｹﾀｼ","streetKana":"ｵｷﾞﾏﾁｻｲﾌｸｼﾞ","prefecture":"大分県","city":"竹田市","street":"荻町西福寺"},{"zipCode":"8796131","prefectureKana":"ｵｵｲﾀｹﾝ","cityKana":"ﾀｹﾀｼ","streetKana":"ｵｷﾞﾏﾁｼｷﾞﾀ","prefecture":"大分県","city":"竹田市","street":"荻町鴫田"},{"zipCode":"8796103","prefectureKana":"ｵｵｲﾀｹﾝ","cityKana":"ﾀｹﾀｼ","streetKana":"ｵｷﾞﾏﾁｼﾝﾄﾞｳ","prefecture":"大分県","city":"竹田市","street":"荻町新藤"},{"zipCode":"8796116","prefectureKana":"ｵｵｲﾀｹﾝ","cityKana":"ﾀｹﾀｼ","streetKana":"ｵｷﾞﾏﾁﾀｶｼﾞｮｳ","prefecture":"大分県","city":"竹田市","street":"荻町高城"},{"zipCode":"8796128","prefectureKana":"ｵｵｲﾀｹﾝ","cityKana":"ﾀｹﾀｼ","streetKana":"ｵｷﾞﾏﾁﾀｶﾈﾘｷ","prefecture":"大分県","city":"竹田市","street":"荻町高練木"},{"zipCode":"8796133","prefectureKana":"ｵｵｲﾀｹﾝ","cityKana":"ﾀｹﾀｼ","streetKana":"ｵｷﾞﾏﾁﾀｼﾛ","prefecture":"大分県","city":"竹田市","street":"荻町田代"},{"zipCode":"8796115","prefectureKana":"ｵｵｲﾀｹﾝ","cityKana":"ﾀｹﾀｼ","streetKana":"ｵｷﾞﾏﾁﾊﾞﾊﾞ","prefecture":"大分県","city":"竹田市","street":"荻町馬場"},{"zipCode":"8796124","prefectureKana":"ｵｵｲﾀｹﾝ","cityKana":"ﾀｹﾀｼ","streetKana":"ｵｷﾞﾏﾁﾋﾅﾀﾒ","prefecture":"大分県","city":"竹田市","street":"荻町陽目"},{"zipCode":"8796104","prefectureKana":"ｵｵｲﾀｹﾝ","cityKana":"ﾀｹﾀｼ","streetKana":"ｵｷﾞﾏﾁﾌｼﾞﾜﾀﾘ","prefecture":"大分県","city":"竹田市","street":"荻町藤渡"},{"zipCode":"8796125","prefectureKana":"ｵｵｲﾀｹﾝ","cityKana":"ﾀｹﾀｼ","streetKana":"ｵｷﾞﾏﾁﾌﾞﾂﾒﾝ","prefecture":"大分県","city":"竹田市","street":"荻町仏面"},{"zipCode":"8796112","prefectureKana":"ｵｵｲﾀｹﾝ","cityKana":"ﾀｹﾀｼ","streetKana":"ｵｷﾞﾏﾁﾏｾﾉ","prefecture":"大分県","city":"竹田市","street":"荻町馬背野"},{"zipCode":"8796102","prefectureKana":"ｵｵｲﾀｹﾝ","cityKana":"ﾀｹﾀｼ","streetKana":"ｵｷﾞﾏﾁﾏﾄﾞｺﾛ","prefecture":"大分県","city":"竹田市","street":"荻町政所"},{"zipCode":"8796111","prefectureKana":"ｵｵｲﾀｹﾝ","cityKana":"ﾀｹﾀｼ","streetKana":"ｵｷﾞﾏﾁﾐﾅﾐｶﾞﾜﾁ","prefecture":"大分県","city":"竹田市","street":"荻町南河内"},{"zipCode":"8796123","prefectureKana":"ｵｵｲﾀｹﾝ","cityKana":"ﾀｹﾀｼ","streetKana":"ｵｷﾞﾏﾁﾐﾔﾋﾞﾗ","prefecture":"大分県","city":"竹田市","street":"荻町宮平"},{"zipCode":"8796181","prefectureKana":"ｵｵｲﾀｹﾝ","cityKana":"ﾀｹﾀｼ","streetKana":"ｵﾂﾞｶ","prefecture":"大分県","city":"竹田市","street":"小塚"},{"zipCode":"8796184","prefectureKana":"ｵｵｲﾀｹﾝ","cityKana":"ﾀｹﾀｼ","streetKana":"ｽｺﾞｳ","prefecture":"大分県","city":"竹田市","street":"菅生"},{"zipCode":"8796183","prefectureKana":"ｵｵｲﾀｹﾝ","cityKana":"ﾀｹﾀｼ","streetKana":"ﾄｳｴ","prefecture":"大分県","city":"竹田市","street":"戸上"},{"zipCode":"8790600","prefectureKana":"ｵｵｲﾀｹﾝ","cityKana":"ﾌﾞﾝｺﾞﾀｶﾀﾞｼ","streetKana":"ｲｶﾆｹｲｻｲｶﾞﾅｲﾊﾞｱｲ","prefecture":"大分県","city":"豊後高田市","street":"以下に掲載がない場合"},{"zipCode":"8790733","prefectureKana":"ｵｵｲﾀｹﾝ","cityKana":"ﾌﾞﾝｺﾞﾀｶﾀﾞｼ","streetKana":"ｱﾗｵ","prefecture":"大分県","city":"豊後高田市","street":"荒尾"},{"zipCode":"8790722","prefectureKana":"ｵｵｲﾀｹﾝ","cityKana":"ﾌﾞﾝｺﾞﾀｶﾀﾞｼ","streetKana":"ｲﾁﾊﾀ","prefecture":"大分県","city":"豊後高田市","street":"一畑"},{"zipCode":"8790626","prefectureKana":"ｵｵｲﾀｹﾝ","cityKana":"ﾌﾞﾝｺﾞﾀｶﾀﾞｼ","streetKana":"ｲﾏﾏﾁ","prefecture":"大分県","city":"豊後高田市","street":"今町"},{"zipCode":"8790723","prefectureKana":"ｵｵｲﾀｹﾝ","cityKana":"ﾌﾞﾝｺﾞﾀｶﾀﾞｼ","streetKana":"ｳﾒﾉｷ","prefecture":"大分県","city":"豊後高田市","street":"梅ノ木"},{"zipCode":"8790605","prefectureKana":"ｵｵｲﾀｹﾝ","cityKana":"ﾌﾞﾝｺﾞﾀｶﾀﾞｼ","streetKana":"ｵﾀﾞﾏ","prefecture":"大分県","city":"豊後高田市","street":"御玉"},{"zipCode":"8790622","prefectureKana":"ｵｵｲﾀｹﾝ","cityKana":"ﾌﾞﾝｺﾞﾀｶﾀﾞｼ","streetKana":"ｶｼﾞﾔﾏﾁ","prefecture":"大分県","city":"豊後高田市","street":"鍛治屋町"},{"zipCode":"8790603","prefectureKana":"ｵｵｲﾀｹﾝ","cityKana":"ﾌﾞﾝｺﾞﾀｶﾀﾞｼ","streetKana":"ｶﾅｴ","prefecture":"大分県","city":"豊後高田市","street":"鼎"},{"zipCode":"8790623","prefectureKana":"ｵｵｲﾀｹﾝ","cityKana":"ﾌﾞﾝｺﾞﾀｶﾀﾞｼ","streetKana":"ｶﾅﾔﾏﾁ","prefecture":"大分県","city":"豊後高田市","street":"金谷町"},{"zipCode":"8790721","prefectureKana":"ｵｵｲﾀｹﾝ","cityKana":"ﾌﾞﾝｺﾞﾀｶﾀﾞｼ","streetKana":"ｶﾚｶﾞﾜ","prefecture":"大分県","city":"豊後高田市","street":"加礼川"},{"zipCode":"8790601","prefectureKana":"ｵｵｲﾀｹﾝ","cityKana":"ﾌﾞﾝｺﾞﾀｶﾀﾞｼ","streetKana":"ｸｻｼﾞ","prefecture":"大分県","city":"豊後高田市","street":"草地"},{"zipCode":"8790614","prefectureKana":"ｵｵｲﾀｹﾝ","cityKana":"ﾌﾞﾝｺﾞﾀｶﾀﾞｼ","streetKana":"ｸﾅﾜ","prefecture":"大分県","city":"豊後高田市","street":"来縄"},{"zipCode":"8790608","prefectureKana":"ｵｵｲﾀｹﾝ","cityKana":"ﾌﾞﾝｺﾞﾀｶﾀﾞｼ","streetKana":"ｸﾚｻｷ","prefecture":"大分県","city":"豊後高田市","street":"呉崎"},{"zipCode":"8790613","prefectureKana":"ｵｵｲﾀｹﾝ","cityKana":"ﾌﾞﾝｺﾞﾀｶﾀﾞｼ","streetKana":"ｺﾀﾞﾜﾗ","prefecture":"大分県","city":"豊後高田市","street":"小田原"},{"zipCode":"8790621","prefectureKana":"ｵｵｲﾀｹﾝ","cityKana":"ﾌﾞﾝｺﾞﾀｶﾀﾞｼ","streetKana":"ｺﾚﾅｶﾞﾏﾁ","prefecture":"大分県","city":"豊後高田市","street":"是永町"},{"zipCode":"8790615","prefectureKana":"ｵｵｲﾀｹﾝ","cityKana":"ﾌﾞﾝｺﾞﾀｶﾀﾞｼ","streetKana":"ｻｶｲ","prefecture":"大分県","city":"豊後高田市","street":"界"},{"zipCode":"8790612","prefectureKana":"ｵｵｲﾀｹﾝ","cityKana":"ﾌﾞﾝｺﾞﾀｶﾀﾞｼ","streetKana":"ｻﾉ","prefecture":"大分県","city":"豊後高田市","street":"佐野"},{"zipCode":"8790609","prefectureKana":"ｵｵｲﾀｹﾝ","cityKana":"ﾌﾞﾝｺﾞﾀｶﾀﾞｼ","streetKana":"ｼﾞｮｳﾀﾞｲ","prefecture":"大分県","city":"豊後高田市","street":"城台"},{"zipCode":"8790607","prefectureKana":"ｵｵｲﾀｹﾝ","cityKana":"ﾌﾞﾝｺﾞﾀｶﾀﾞｼ","streetKana":"ｼﾝｴｲ","prefecture":"大分県","city":"豊後高田市","street":"新栄"},{"zipCode":"8790724","prefectureKana":"ｵｵｲﾀｹﾝ","cityKana":"ﾌﾞﾝｺﾞﾀｶﾀﾞｼ","streetKana":"ｼﾝｼﾞｮｳ","prefecture":"大分県","city":"豊後高田市","street":"新城"},{"zipCode":"8790627","prefectureKana":"ｵｵｲﾀｹﾝ","cityKana":"ﾌﾞﾝｺﾞﾀｶﾀﾞｼ","streetKana":"ｼﾝﾁ","prefecture":"大分県","city":"豊後高田市","street":"新地"},{"zipCode":"8790628","prefectureKana":"ｵｵｲﾀｹﾝ","cityKana":"ﾌﾞﾝｺﾞﾀｶﾀﾞｼ","streetKana":"ｼﾝﾏﾁ","prefecture":"大分県","city":"豊後高田市","street":"新町"},{"zipCode":"8790732","prefectureKana":"ｵｵｲﾀｹﾝ","cityKana":"ﾌﾞﾝｺﾞﾀｶﾀﾞｼ","streetKana":"ﾀﾞｲﾘｷ","prefecture":"大分県","city":"豊後高田市","street":"大力"},{"zipCode":"8790617","prefectureKana":"ｵｵｲﾀｹﾝ","cityKana":"ﾌﾞﾝｺﾞﾀｶﾀﾞｼ","streetKana":"ﾀｶﾀﾞ","prefecture":"大分県","city":"豊後高田市","street":"高田"},{"zipCode":"8790843","prefectureKana":"ｵｵｲﾀｹﾝ","cityKana":"ﾌﾞﾝｺﾞﾀｶﾀﾞｼ","streetKana":"ﾀｼﾌﾞｱｲﾜﾗ","prefecture":"大分県","city":"豊後高田市","street":"田染相原"},{"zipCode":"8790842","prefectureKana":"ｵｵｲﾀｹﾝ","cityKana":"ﾌﾞﾝｺﾞﾀｶﾀﾞｼ","streetKana":"ﾀｼﾌﾞｲｹﾍﾞ","prefecture":"大分県","city":"豊後高田市","street":"田染池部"},{"zipCode":"8790844","prefectureKana":"ｵｵｲﾀｹﾝ","cityKana":"ﾌﾞﾝｺﾞﾀｶﾀﾞｼ","streetKana":"ﾀｼﾌﾞｳｴﾉ","prefecture":"大分県","city":"豊後高田市","street":"田染上野"},{"zipCode":"8790854","prefectureKana":"ｵｵｲﾀｹﾝ","cityKana":"ﾌﾞﾝｺﾞﾀｶﾀﾞｼ","streetKana":"ﾀｼﾌﾞｵｻｷ","prefecture":"大分県","city":"豊後高田市","street":"田染小崎"},{"zipCode":"8790853","prefectureKana":"ｵｵｲﾀｹﾝ","cityKana":"ﾌﾞﾝｺﾞﾀｶﾀﾞｼ","streetKana":"ﾀｼﾌﾞﾋﾗﾉ","prefecture":"大分県","city":"豊後高田市","street":"田染平野"},{"zipCode":"8790841","prefectureKana":"ｵｵｲﾀｹﾝ","cityKana":"ﾌﾞﾝｺﾞﾀｶﾀﾞｼ","streetKana":"ﾀｼﾌﾞﾌｷ","prefecture":"大分県","city":"豊後高田市","street":"田染蕗"},{"zipCode":"8790855","prefectureKana":"ｵｵｲﾀｹﾝ","cityKana":"ﾌﾞﾝｺﾞﾀｶﾀﾞｼ","streetKana":"ﾀｼﾌﾞﾏｷ","prefecture":"大分県","city":"豊後高田市","street":"田染真木"},{"zipCode":"8790852","prefectureKana":"ｵｵｲﾀｹﾝ","cityKana":"ﾌﾞﾝｺﾞﾀｶﾀﾞｼ","streetKana":"ﾀｼﾌﾞﾏﾅｶ","prefecture":"大分県","city":"豊後高田市","street":"田染真中"},{"zipCode":"8790851","prefectureKana":"ｵｵｲﾀｹﾝ","cityKana":"ﾌﾞﾝｺﾞﾀｶﾀﾞｼ","streetKana":"ﾀｼﾌﾞﾖｺﾐﾈ","prefecture":"大分県","city":"豊後高田市","street":"田染横嶺"},{"zipCode":"8790606","prefectureKana":"ｵｵｲﾀｹﾝ","cityKana":"ﾌﾞﾝｺﾞﾀｶﾀﾞｼ","streetKana":"ﾀﾏﾂ","prefecture":"大分県","city":"豊後高田市","street":"玉津"},{"zipCode":"8790618","prefectureKana":"ｵｵｲﾀｹﾝ","cityKana":"ﾌﾞﾝｺﾞﾀｶﾀﾞｼ","streetKana":"ﾁｭｳｵｳﾄﾞｵﾘ","prefecture":"大分県","city":"豊後高田市","street":"中央通"},{"zipCode":"8790734","prefectureKana":"ｵｵｲﾀｹﾝ","cityKana":"ﾌﾞﾝｺﾞﾀｶﾀﾞｼ","streetKana":"ﾂｲｼﾞ","prefecture":"大分県","city":"豊後高田市","street":"築地"},{"zipCode":"8790731","prefectureKana":"ｵｵｲﾀｹﾝ","cityKana":"ﾌﾞﾝｺﾞﾀｶﾀﾞｼ","streetKana":"ﾅｶﾞｲﾜﾔ","prefecture":"大分県","city":"豊後高田市","street":"長岩屋"},{"zipCode":"8790619","prefectureKana":"ｵｵｲﾀｹﾝ","cityKana":"ﾌﾞﾝｺﾞﾀｶﾀﾞｼ","streetKana":"ﾊﾏﾏﾁ","prefecture":"大分県","city":"豊後高田市","street":"浜町"},{"zipCode":"8790602","prefectureKana":"ｵｵｲﾀｹﾝ","cityKana":"ﾌﾞﾝｺﾞﾀｶﾀﾞｼ","streetKana":"ﾊﾗｲﾀﾞ","prefecture":"大分県","city":"豊後高田市","street":"払田"},{"zipCode":"8790624","prefectureKana":"ｵｵｲﾀｹﾝ","cityKana":"ﾌﾞﾝｺﾞﾀｶﾀﾞｼ","streetKana":"ﾎﾝﾏﾁ","prefecture":"大分県","city":"豊後高田市","street":"本町"},{"zipCode":"8790735","prefectureKana":"ｵｵｲﾀｹﾝ","cityKana":"ﾌﾞﾝｺﾞﾀｶﾀﾞｼ","streetKana":"ﾏﾂﾕｷ","prefecture":"大分県","city":"豊後高田市","street":"松行"},{"zipCode":"8790616","prefectureKana":"ｵｵｲﾀｹﾝ","cityKana":"ﾌﾞﾝｺﾞﾀｶﾀﾞｼ","streetKana":"ﾐｽﾞｻｷ","prefecture":"大分県","city":"豊後高田市","street":"水崎"},{"zipCode":"8790625","prefectureKana":"ｵｵｲﾀｹﾝ","cityKana":"ﾌﾞﾝｺﾞﾀｶﾀﾞｼ","streetKana":"ﾐｽﾞﾄﾘ","prefecture":"大分県","city":"豊後高田市","street":"水取"},{"zipCode":"8790604","prefectureKana":"ｵｵｲﾀｹﾝ","cityKana":"ﾌﾞﾝｺﾞﾀｶﾀﾞｼ","streetKana":"ﾐﾜ","prefecture":"大分県","city":"豊後高田市","street":"美和"},{"zipCode":"8790611","prefectureKana":"ｵｵｲﾀｹﾝ","cityKana":"ﾌﾞﾝｺﾞﾀｶﾀﾞｼ","streetKana":"ﾓﾘ","prefecture":"大分県","city":"豊後高田市","street":"森"},{"zipCode":"8790901","prefectureKana":"ｵｵｲﾀｹﾝ","cityKana":"ｷﾂｷｼ","streetKana":"ｵｵﾀｲｼﾏﾙ","prefecture":"大分県","city":"杵築市","street":"大田石丸"},{"zipCode":"8790904","prefectureKana":"ｵｵｲﾀｹﾝ","cityKana":"ｷﾂｷｼ","streetKana":"ｵｵﾀｵﾉ","prefecture":"大分県","city":"杵築市","street":"大田小野"},{"zipCode":"8790902","prefectureKana":"ｵｵｲﾀｹﾝ","cityKana":"ｷﾂｷｼ","streetKana":"ｵｵﾀｸﾂｶｹ","prefecture":"大分県","city":"杵築市","street":"大田沓掛"},{"zipCode":"8790912","prefectureKana":"ｵｵｲﾀｹﾝ","cityKana":"ｷﾂｷｼ","streetKana":"ｵｵﾀｼﾗｷﾊﾗ","prefecture":"大分県","city":"杵築市","street":"大田白木原"},{"zipCode":"8790903","prefectureKana":"ｵｵｲﾀｹﾝ","cityKana":"ｷﾂｷｼ","streetKana":"ｵｵﾀﾅｶﾞﾏﾂ","prefecture":"大分県","city":"杵築市","street":"大田永松"},{"zipCode":"8790911","prefectureKana":"ｵｵｲﾀｹﾝ","cityKana":"ｷﾂｷｼ","streetKana":"ｵｵﾀﾊﾀﾞｶﾀ","prefecture":"大分県","city":"杵築市","street":"大田波多方"},{"zipCode":"8790941","prefectureKana":"ｵｵｲﾀｹﾝ","cityKana":"ｷﾂｷｼ","streetKana":"ｵｵﾀﾏﾀﾐｽﾞ(ｿﾉﾀ)","prefecture":"大分県","city":"杵築市","street":"大田俣水（その他）"},{"zipCode":"8791311","prefectureKana":"ｵｵｲﾀｹﾝ","cityKana":"ｷﾂｷｼ","streetKana":"ﾔﾏｶﾞﾏﾁｳﾁｶﾞﾜﾉ","prefecture":"大分県","city":"杵築市","street":"山香町内河野"},{"zipCode":"8791304","prefectureKana":"ｵｵｲﾀｹﾝ","cityKana":"ｷﾂｷｼ","streetKana":"ﾔﾏｶﾞﾏﾁｵﾀﾞｹ","prefecture":"大分県","city":"杵築市","street":"山香町小武"},{"zipCode":"8791313","prefectureKana":"ｵｵｲﾀｹﾝ","cityKana":"ｷﾂｷｼ","streetKana":"ﾔﾏｶﾞﾏﾁｸｷﾞﾉｵ","prefecture":"大分県","city":"杵築市","street":"山香町久木野尾"},{"zipCode":"8791305","prefectureKana":"ｵｵｲﾀｹﾝ","cityKana":"ｷﾂｷｼ","streetKana":"ﾔﾏｶﾞﾏﾁｸﾗﾅﾘ","prefecture":"大分県","city":"杵築市","street":"山香町倉成"},{"zipCode":"8791303","prefectureKana":"ｵｵｲﾀｹﾝ","cityKana":"ｷﾂｷｼ","streetKana":"ﾔﾏｶﾞﾏﾁｼﾓ","prefecture":"大分県","city":"杵築市","street":"山香町下"},{"zipCode":"8791302","prefectureKana":"ｵｵｲﾀｹﾝ","cityKana":"ｷﾂｷｼ","streetKana":"ﾔﾏｶﾞﾏﾁﾀﾃｲｼ","prefecture":"大分県","city":"杵築市","street":"山香町立石"},{"zipCode":"8791307","prefectureKana":"ｵｵｲﾀｹﾝ","cityKana":"ｷﾂｷｼ","streetKana":"ﾔﾏｶﾞﾏﾁﾉﾊﾙ","prefecture":"大分県","city":"杵築市","street":"山香町野原"},{"zipCode":"8791312","prefectureKana":"ｵｵｲﾀｹﾝ","cityKana":"ｷﾂｷｼ","streetKana":"ﾔﾏｶﾞﾏﾁﾋｻｼ","prefecture":"大分県","city":"杵築市","street":"山香町日指"},{"zipCode":"8791306","prefectureKana":"ｵｵｲﾀｹﾝ","cityKana":"ｷﾂｷｼ","streetKana":"ﾔﾏｶﾞﾏﾁﾋﾛｾ","prefecture":"大分県","city":"杵築市","street":"山香町広瀬"},{"zipCode":"8791314","prefectureKana":"ｵｵｲﾀｹﾝ","cityKana":"ｷﾂｷｼ","streetKana":"ﾔﾏｶﾞﾏﾁﾐﾅﾐﾊﾀ","prefecture":"大分県","city":"杵築市","street":"山香町南畑"},{"zipCode":"8791301","prefectureKana":"ｵｵｲﾀｹﾝ","cityKana":"ｷﾂｷｼ","streetKana":"ﾔﾏｶﾞﾏﾁﾑｸﾉ","prefecture":"大分県","city":"杵築市","street":"山香町向野"},{"zipCode":"8791315","prefectureKana":"ｵｵｲﾀｹﾝ","cityKana":"ｷﾂｷｼ","streetKana":"ﾔﾏｶﾞﾏﾁﾔﾏｳﾗ","prefecture":"大分県","city":"杵築市","street":"山香町山浦"},{"zipCode":"8791316","prefectureKana":"ｵｵｲﾀｹﾝ","cityKana":"ｷﾂｷｼ","streetKana":"ﾔﾏｶﾞﾏﾁﾖｼﾉﾜﾀﾘ","prefecture":"大分県","city":"杵築市","street":"山香町吉野渡"},{"zipCode":"8791138","prefectureKana":"ｵｵｲﾀｹﾝ","cityKana":"ｳｻｼ","streetKana":"ｱｵﾓﾘ","prefecture":"大分県","city":"宇佐市","street":"青森"},{"zipCode":"8790233","prefectureKana":"ｵｵｲﾀｹﾝ","cityKana":"ｳｻｼ","streetKana":"ｱｶｵ","prefecture":"大分県","city":"宇佐市","street":"赤尾"},{"zipCode":"8790501","prefectureKana":"ｵｵｲﾀｹﾝ","cityKana":"ｳｻｼ","streetKana":"ｱｿｳ","prefecture":"大分県","city":"宇佐市","street":"麻生"},{"zipCode":"8790312","prefectureKana":"ｵｵｲﾀｹﾝ","cityKana":"ｳｻｼ","streetKana":"ｱﾗｷ","prefecture":"大分県","city":"宇佐市","street":"荒木"},{"zipCode":"8790444","prefectureKana":"ｵｵｲﾀｹﾝ","cityKana":"ｳｻｼ","streetKana":"ｲｼﾀﾞ","prefecture":"大分県","city":"宇佐市","street":"石田"},{"zipCode":"8791131","prefectureKana":"ｵｵｲﾀｹﾝ","cityKana":"ｳｻｼ","streetKana":"ｲﾃﾞﾐﾂ","prefecture":"大分県","city":"宇佐市","street":"出光"},{"zipCode":"8790514","prefectureKana":"ｵｵｲﾀｹﾝ","cityKana":"ｳｻｼ","streetKana":"ｲﾏﾅﾘ","prefecture":"大分県","city":"宇佐市","street":"今成"},{"zipCode":"8790234","prefectureKana":"ｵｵｲﾀｹﾝ","cityKana":"ｳｻｼ","streetKana":"ｲﾏﾆ","prefecture":"大分県","city":"宇佐市","street":"今仁"},{"zipCode":"8791132","prefectureKana":"ｵｵｲﾀｹﾝ","cityKana":"ｳｻｼ","streetKana":"ｲﾜｻｷ","prefecture":"大分県","city":"宇佐市","street":"岩崎"},{"zipCode":"8790453","prefectureKana":"ｵｵｲﾀｹﾝ","cityKana":"ｳｻｼ","streetKana":"ｳｴﾀﾞ","prefecture":"大分県","city":"宇佐市","street":"上田"},{"zipCode":"8791126","prefectureKana":"ｵｵｲﾀｹﾝ","cityKana":"ｳｻｼ","streetKana":"ｴｸﾞﾏ","prefecture":"大分県","city":"宇佐市","street":"江熊"},{"zipCode":"8790464","prefectureKana":"ｵｵｲﾀｹﾝ","cityKana":"ｳｻｼ","streetKana":"ｵｵﾂｶ","prefecture":"大分県","city":"宇佐市","street":"大塚"},{"zipCode":"8790232","prefectureKana":"ｵｵｲﾀｹﾝ","cityKana":"ｳｻｼ","streetKana":"ｵｵﾈｶﾞﾜ","prefecture":"大分県","city":"宇佐市","street":"大根川"},{"zipCode":"8790301","prefectureKana":"ｵｵｲﾀｹﾝ","cityKana":"ｳｻｼ","streetKana":"ｵﾄﾒｼﾝﾃﾞﾝ","prefecture":"大分県","city":"宇佐市","street":"乙女新田"},{"zipCode":"8790304","prefectureKana":"ｵｵｲﾀｹﾝ","cityKana":"ｳｻｼ","streetKana":"ｵﾅｶﾞｲ","prefecture":"大分県","city":"宇佐市","street":"尾永井"},{"zipCode":"8791128","prefectureKana":"ｵｵｲﾀｹﾝ","cityKana":"ｳｻｼ","streetKana":"ｶﾅﾏﾙ","prefecture":"大分県","city":"宇佐市","street":"金丸"},{"zipCode":"8790303","prefectureKana":"ｵｵｲﾀｹﾝ","cityKana":"ｳｻｼ","streetKana":"ｶﾐｵﾄﾒ","prefecture":"大分県","city":"宇佐市","street":"上乙女"},{"zipCode":"8790163","prefectureKana":"ｵｵｲﾀｹﾝ","cityKana":"ｳｻｼ","streetKana":"ｶﾐｼｷﾀﾞ","prefecture":"大分県","city":"宇佐市","street":"上敷田"},{"zipCode":"8790153","prefectureKana":"ｵｵｲﾀｹﾝ","cityKana":"ｳｻｼ","streetKana":"ｶﾐｼｮｳ","prefecture":"大分県","city":"宇佐市","street":"上庄"},{"zipCode":"8790313","prefectureKana":"ｵｵｲﾀｹﾝ","cityKana":"ｳｻｼ","streetKana":"ｶﾐﾀｶ","prefecture":"大分県","city":"宇佐市","street":"上高"},{"zipCode":"8790305","prefectureKana":"ｵｵｲﾀｹﾝ","cityKana":"ｳｻｼ","streetKana":"ｶﾐﾀｹｲ","prefecture":"大分県","city":"宇佐市","street":"上高家"},{"zipCode":"8790315","prefectureKana":"ｵｵｲﾀｹﾝ","cityKana":"ｳｻｼ","streetKana":"ｶﾐﾄｷｴﾀﾞ","prefecture":"大分県","city":"宇佐市","street":"上時枝"},{"zipCode":"8790466","prefectureKana":"ｵｵｲﾀｹﾝ","cityKana":"ｳｻｼ","streetKana":"ｶﾐﾊｲﾀ(ｿﾉﾀ)","prefecture":"大分県","city":"宇佐市","street":"上拝田（その他）"},{"zipCode":"8790472","prefectureKana":"ｵｵｲﾀｹﾝ","cityKana":"ｳｻｼ","streetKana":"ｶﾐﾓﾄｼｹﾞ","prefecture":"大分県","city":"宇佐市","street":"上元重"},{"zipCode":"8790456","prefectureKana":"ｵｵｲﾀｹﾝ","cityKana":"ｳｻｼ","streetKana":"ｶﾗｼﾏ","prefecture":"大分県","city":"宇佐市","street":"辛島"},{"zipCode":"8791137","prefectureKana":"ｵｵｲﾀｹﾝ","cityKana":"ｳｻｼ","streetKana":"ｶﾘｳﾀﾞ","prefecture":"大分県","city":"宇佐市","street":"苅宇田"},{"zipCode":"8790452","prefectureKana":"ｵｵｲﾀｹﾝ","cityKana":"ｳｻｼ","streetKana":"ｶﾜﾍﾞ","prefecture":"大分県","city":"宇佐市","street":"川部"},{"zipCode":"8790516","prefectureKana":"ｵｵｲﾀｹﾝ","cityKana":"ｳｻｼ","streetKana":"ｷﾉｳﾁ","prefecture":"大分県","city":"宇佐市","street":"木内"},{"zipCode":"8790235","prefectureKana":"ｵｵｲﾀｹﾝ","cityKana":"ｳｻｼ","streetKana":"ｷﾍﾞ","prefecture":"大分県","city":"宇佐市","street":"木部"},{"zipCode":"8790443","prefectureKana":"ｵｵｲﾀｹﾝ","cityKana":"ｳｻｼ","streetKana":"ｸｽﾞﾊﾗ","prefecture":"大分県","city":"宇佐市","street":"葛原"},{"zipCode":"8790512","prefectureKana":"ｵｵｲﾀｹﾝ","cityKana":"ｳｻｼ","streetKana":"ｸﾛ","prefecture":"大分県","city":"宇佐市","street":"黒"},{"zipCode":"8790455","prefectureKana":"ｵｵｲﾀｹﾝ","cityKana":"ｳｻｼ","streetKana":"ｺﾞｳ","prefecture":"大分県","city":"宇佐市","street":"閤"},{"zipCode":"8791136","prefectureKana":"ｵｵｲﾀｹﾝ","cityKana":"ｳｻｼ","streetKana":"ｻｲｷﾞ","prefecture":"大分県","city":"宇佐市","street":"西木"},{"zipCode":"8790237","prefectureKana":"ｵｵｲﾀｹﾝ","cityKana":"ｳｻｼ","streetKana":"ｻﾉ","prefecture":"大分県","city":"宇佐市","street":"佐野"},{"zipCode":"8790314","prefectureKana":"ｵｵｲﾀｹﾝ","cityKana":"ｳｻｼ","streetKana":"ｻﾙﾜﾀﾘ","prefecture":"大分県","city":"宇佐市","street":"猿渡"},{"zipCode":"8790457","prefectureKana":"ｵｵｲﾀｹﾝ","cityKana":"ｳｻｼ","streetKana":"ｼﾊﾞﾊﾗ","prefecture":"大分県","city":"宇佐市","street":"芝原"},{"zipCode":"8790236","prefectureKana":"ｵｵｲﾀｹﾝ","cityKana":"ｳｻｼ","streetKana":"ｼﾐｽﾞ","prefecture":"大分県","city":"宇佐市","street":"清水"},{"zipCode":"8790302","prefectureKana":"ｵｵｲﾀｹﾝ","cityKana":"ｳｻｼ","streetKana":"ｼﾓｵﾄﾒ","prefecture":"大分県","city":"宇佐市","street":"下乙女"},{"zipCode":"8790161","prefectureKana":"ｵｵｲﾀｹﾝ","cityKana":"ｳｻｼ","streetKana":"ｼﾓｼｷﾀﾞ","prefecture":"大分県","city":"宇佐市","street":"下敷田"},{"zipCode":"8790152","prefectureKana":"ｵｵｲﾀｹﾝ","cityKana":"ｳｻｼ","streetKana":"ｼﾓｼｮｳ","prefecture":"大分県","city":"宇佐市","street":"下庄"},{"zipCode":"8790317","prefectureKana":"ｵｵｲﾀｹﾝ","cityKana":"ｳｻｼ","streetKana":"ｼﾓﾀｶ","prefecture":"大分県","city":"宇佐市","street":"下高"},{"zipCode":"8790308","prefectureKana":"ｵｵｲﾀｹﾝ","cityKana":"ｳｻｼ","streetKana":"ｼﾓﾀｹｲ","prefecture":"大分県","city":"宇佐市","street":"下高家"},{"zipCode":"8790316","prefectureKana":"ｵｵｲﾀｹﾝ","cityKana":"ｳｻｼ","streetKana":"ｼﾓﾄｷｴﾀﾞ","prefecture":"大分県","city":"宇佐市","street":"下時枝"},{"zipCode":"8790465","prefectureKana":"ｵｵｲﾀｹﾝ","cityKana":"ｳｻｼ","streetKana":"ｼﾓﾊｲﾀ","prefecture":"大分県","city":"宇佐市","street":"下拝田"},{"zipCode":"8790473","prefectureKana":"ｵｵｲﾀｹﾝ","cityKana":"ｳｻｼ","streetKana":"ｼﾓﾓﾄｼｹﾞ","prefecture":"大分県","city":"宇佐市","street":"下元重"},{"zipCode":"8790442","prefectureKana":"ｵｵｲﾀｹﾝ","cityKana":"ｳｻｼ","streetKana":"ｼﾞｮｳｲ","prefecture":"大分県","city":"宇佐市","street":"城井"},{"zipCode":"8790515","prefectureKana":"ｵｵｲﾀｹﾝ","cityKana":"ｳｻｼ","streetKana":"ｽｴ","prefecture":"大分県","city":"宇佐市","street":"末"},{"zipCode":"8790502","prefectureKana":"ｵｵｲﾀｹﾝ","cityKana":"ｳｻｼ","streetKana":"ﾀｹﾉｸﾋﾞ","prefecture":"大分県","city":"宇佐市","street":"岳ノ首"},{"zipCode":"8791123","prefectureKana":"ｵｵｲﾀｹﾝ","cityKana":"ｳｻｼ","streetKana":"ﾀﾃｲｼ","prefecture":"大分県","city":"宇佐市","street":"立石"},{"zipCode":"8790164","prefectureKana":"ｵｵｲﾀｹﾝ","cityKana":"ｳｻｼ","streetKana":"ﾄﾐﾔﾏ","prefecture":"大分県","city":"宇佐市","street":"富山"},{"zipCode":"8790513","prefectureKana":"ｵｵｲﾀｹﾝ","cityKana":"ｳｻｼ","streetKana":"ﾅｶ","prefecture":"大分県","city":"宇佐市","street":"中"},{"zipCode":"8790162","prefectureKana":"ｵｵｲﾀｹﾝ","cityKana":"ｳｻｼ","streetKana":"ﾅｶｼｷﾀﾞ","prefecture":"大分県","city":"宇佐市","street":"中敷田"},{"zipCode":"8790463","prefectureKana":"ｵｵｲﾀｹﾝ","cityKana":"ｳｻｼ","streetKana":"ﾅｶﾊﾙ","prefecture":"大分県","city":"宇佐市","street":"中原"},{"zipCode":"8790503","prefectureKana":"ｵｵｲﾀｹﾝ","cityKana":"ｳｻｼ","streetKana":"ﾅﾀﾞ","prefecture":"大分県","city":"宇佐市","street":"灘"},{"zipCode":"8790306","prefectureKana":"ｵｵｲﾀｹﾝ","cityKana":"ｳｻｼ","streetKana":"ﾆｼﾀｹｲ","prefecture":"大分県","city":"宇佐市","street":"西高家"},{"zipCode":"8791127","prefectureKana":"ｵｵｲﾀｹﾝ","cityKana":"ｳｻｼ","streetKana":"ﾆｼﾔｼｷ","prefecture":"大分県","city":"宇佐市","street":"西屋敷"},{"zipCode":"8791134","prefectureKana":"ｵｵｲﾀｹﾝ","cityKana":"ｳｻｼ","streetKana":"ﾊｼﾂﾞ","prefecture":"大分県","city":"宇佐市","street":"橋津"},{"zipCode":"8790451","prefectureKana":"ｵｵｲﾀｹﾝ","cityKana":"ｳｻｼ","streetKana":"ﾊﾀｹﾀﾞ","prefecture":"大分県","city":"宇佐市","street":"畑田"},{"zipCode":"8790307","prefectureKana":"ｵｵｲﾀｹﾝ","cityKana":"ｳｻｼ","streetKana":"ﾊﾏﾀｹｲ","prefecture":"大分県","city":"宇佐市","street":"浜高家"},{"zipCode":"8791133","prefectureKana":"ｵｵｲﾀｹﾝ","cityKana":"ｳｻｼ","streetKana":"ﾋｱｼ","prefecture":"大分県","city":"宇佐市","street":"日足"},{"zipCode":"8791121","prefectureKana":"ｵｵｲﾀｹﾝ","cityKana":"ｳｻｼ","streetKana":"ﾋｶﾞｼｵｵﾎﾞﾘ","prefecture":"大分県","city":"宇佐市","street":"東大堀"},{"zipCode":"8790309","prefectureKana":"ｵｵｲﾀｹﾝ","cityKana":"ｳｻｼ","streetKana":"ﾋｶﾞｼﾀｹｲ","prefecture":"大分県","city":"宇佐市","street":"東高家"},{"zipCode":"8790461","prefectureKana":"ｵｵｲﾀｹﾝ","cityKana":"ｳｻｼ","streetKana":"ﾋﾀﾞ","prefecture":"大分県","city":"宇佐市","street":"樋田"},{"zipCode":"8790462","prefectureKana":"ｵｵｲﾀｹﾝ","cityKana":"ｳｻｼ","streetKana":"ﾋﾞｭｳ","prefecture":"大分県","city":"宇佐市","street":"別府"},{"zipCode":"8790454","prefectureKana":"ｵｵｲﾀｹﾝ","cityKana":"ｳｻｼ","streetKana":"ﾎｳｷｮｳｼﾞ","prefecture":"大分県","city":"宇佐市","street":"法鏡寺"},{"zipCode":"8790231","prefectureKana":"ｵｵｲﾀｹﾝ","cityKana":"ｳｻｼ","streetKana":"ﾐﾅﾐｼｷﾀﾞ","prefecture":"大分県","city":"宇佐市","street":"南敷田"},{"zipCode":"8790151","prefectureKana":"ｵｵｲﾀｹﾝ","cityKana":"ｳｻｼ","streetKana":"ﾐﾔｸﾞﾏ","prefecture":"大分県","city":"宇佐市","street":"宮熊"},{"zipCode":"8790311","prefectureKana":"ｵｵｲﾀｹﾝ","cityKana":"ｳｻｼ","streetKana":"ﾓﾘﾔﾏ","prefecture":"大分県","city":"宇佐市","street":"森山"},{"zipCode":"8791124","prefectureKana":"ｵｵｲﾀｹﾝ","cityKana":"ｳｻｼ","streetKana":"ﾔﾏ","prefecture":"大分県","city":"宇佐市","street":"山"},{"zipCode":"8790504","prefectureKana":"ｵｵｲﾀｹﾝ","cityKana":"ｳｻｼ","streetKana":"ﾔﾏｸﾞﾁ","prefecture":"大分県","city":"宇佐市","street":"山口"},{"zipCode":"8790474","prefectureKana":"ｵｵｲﾀｹﾝ","cityKana":"ｳｻｼ","streetKana":"ﾔﾏｼﾀ","prefecture":"大分県","city":"宇佐市","street":"山下"},{"zipCode":"8790511","prefectureKana":"ｵｵｲﾀｹﾝ","cityKana":"ｳｻｼ","streetKana":"ﾔﾏﾌﾞｸﾛ","prefecture":"大分県","city":"宇佐市","street":"山袋"},{"zipCode":"8790467","prefectureKana":"ｵｵｲﾀｹﾝ","cityKana":"ｳｻｼ","streetKana":"ﾔﾏﾓﾄ","prefecture":"大分県","city":"宇佐市","street":"山本"},{"zipCode":"8791122","prefectureKana":"ｵｵｲﾀｹﾝ","cityKana":"ｳｻｼ","streetKana":"ﾖｺﾀ","prefecture":"大分県","city":"宇佐市","street":"横田"},{"zipCode":"8790441","prefectureKana":"ｵｵｲﾀｹﾝ","cityKana":"ｳｻｼ","streetKana":"ﾖｼﾏﾂ","prefecture":"大分県","city":"宇佐市","street":"吉松"},{"zipCode":"8790471","prefectureKana":"ｵｵｲﾀｹﾝ","cityKana":"ｳｻｼ","streetKana":"ﾖｯｶｲﾁ","prefecture":"大分県","city":"宇佐市","street":"四日市"},{"zipCode":"8791125","prefectureKana":"ｵｵｲﾀｹﾝ","cityKana":"ｳｻｼ","streetKana":"ﾘｮｳｶｲ","prefecture":"大分県","city":"宇佐市","street":"両戒"},{"zipCode":"8791135","prefectureKana":"ｵｵｲﾀｹﾝ","cityKana":"ｳｻｼ","streetKana":"ﾜｷ","prefecture":"大分県","city":"宇佐市","street":"和気"},{"zipCode":"8797100","prefectureKana":"ｵｵｲﾀｹﾝ","cityKana":"ﾌﾞﾝｺﾞｵｵﾉｼ","streetKana":"ｲｶﾆｹｲｻｲｶﾞﾅｲﾊﾞｱｲ","prefecture":"大分県","city":"豊後大野市","street":"以下に掲載がない場合"},{"zipCode":"8796222","prefectureKana":"ｵｵｲﾀｹﾝ","cityKana":"ﾌﾞﾝｺﾞｵｵﾉｼ","streetKana":"ｱｻｼﾞﾏﾁｱｻｼﾞ","prefecture":"大分県","city":"豊後大野市","street":"朝地町朝地"},{"zipCode":"8796224","prefectureKana":"ｵｵｲﾀｹﾝ","cityKana":"ﾌﾞﾝｺﾞｵｵﾉｼ","streetKana":"ｱｻｼﾞﾏﾁｲｹﾀﾞ","prefecture":"大分県","city":"豊後大野市","street":"朝地町池田"},{"zipCode":"8796223","prefectureKana":"ｵｵｲﾀｹﾝ","cityKana":"ﾌﾞﾝｺﾞｵｵﾉｼ","streetKana":"ｱｻｼﾞﾏﾁｲﾀｲｻﾞｺ","prefecture":"大分県","city":"豊後大野市","street":"朝地町板井迫"},{"zipCode":"8796201","prefectureKana":"ｵｵｲﾀｹﾝ","cityKana":"ﾌﾞﾝｺﾞｵｵﾉｼ","streetKana":"ｱｻｼﾞﾏﾁｲﾁﾏﾝﾀﾞ","prefecture":"大分県","city":"豊後大野市","street":"朝地町市万田"},{"zipCode":"8796213","prefectureKana":"ｵｵｲﾀｹﾝ","cityKana":"ﾌﾞﾝｺﾞｵｵﾉｼ","streetKana":"ｱｻｼﾞﾏﾁｶﾐｵﾂｶ","prefecture":"大分県","city":"豊後大野市","street":"朝地町上尾塚"},{"zipCode":"8796333","prefectureKana":"ｵｵｲﾀｹﾝ","cityKana":"ﾌﾞﾝｺﾞｵｵﾉｼ","streetKana":"ｱｻｼﾞﾏﾁｸﾘﾊﾞﾔｼ","prefecture":"大分県","city":"豊後大野市","street":"朝地町栗林"},{"zipCode":"8796212","prefectureKana":"ｵｵｲﾀｹﾝ","cityKana":"ﾌﾞﾝｺﾞｵｵﾉｼ","streetKana":"ｱｻｼﾞﾏﾁｼｶﾞ","prefecture":"大分県","city":"豊後大野市","street":"朝地町志賀"},{"zipCode":"8796202","prefectureKana":"ｵｵｲﾀｹﾝ","cityKana":"ﾌﾞﾝｺﾞｵｵﾉｼ","streetKana":"ｱｻｼﾞﾏﾁｼﾓﾉ","prefecture":"大分県","city":"豊後大野市","street":"朝地町下野"},{"zipCode":"8796221","prefectureKana":"ｵｵｲﾀｹﾝ","cityKana":"ﾌﾞﾝｺﾞｵｵﾉｼ","streetKana":"ｱｻｼﾞﾏﾁﾂﾎﾞｲｽﾞﾐ","prefecture":"大分県","city":"豊後大野市","street":"朝地町坪泉"},{"zipCode":"8796331","prefectureKana":"ｵｵｲﾀｹﾝ","cityKana":"ﾌﾞﾝｺﾞｵｵﾉｼ","streetKana":"ｱｻｼﾞﾏﾁﾄﾘﾀ","prefecture":"大分県","city":"豊後大野市","street":"朝地町鳥田"},{"zipCode":"8796334","prefectureKana":"ｵｵｲﾀｹﾝ","cityKana":"ﾌﾞﾝｺﾞｵｵﾉｼ","streetKana":"ｱｻｼﾞﾏﾁﾅｼｺ","prefecture":"大分県","city":"豊後大野市","street":"朝地町梨小"},{"zipCode":"8796211","prefectureKana":"ｵｵｲﾀｹﾝ","cityKana":"ﾌﾞﾝｺﾞｵｵﾉｼ","streetKana":"ｱｻｼﾞﾏﾁﾐﾔｵ","prefecture":"大分県","city":"豊後大野市","street":"朝地町宮生"},{"zipCode":"8796332","prefectureKana":"ｵｵｲﾀｹﾝ","cityKana":"ﾌﾞﾝｺﾞｵｵﾉｼ","streetKana":"ｱｻｼﾞﾏﾁﾜﾀﾀﾞ","prefecture":"大分県","city":"豊後大野市","street":"朝地町綿田"},{"zipCode":"8797301","prefectureKana":"ｵｵｲﾀｹﾝ","cityKana":"ﾌﾞﾝｺﾞｵｵﾉｼ","streetKana":"ｲﾇｶｲﾏﾁｲﾇｶｲ","prefecture":"大分県","city":"豊後大野市","street":"犬飼町犬飼"},{"zipCode":"8797304","prefectureKana":"ｵｵｲﾀｹﾝ","cityKana":"ﾌﾞﾝｺﾞｵｵﾉｼ","streetKana":"ｲﾇｶｲﾏﾁｵｵｿｳ","prefecture":"大分県","city":"豊後大野市","street":"犬飼町大寒"},{"zipCode":"8797302","prefectureKana":"ｵｵｲﾀｹﾝ","cityKana":"ﾌﾞﾝｺﾞｵｵﾉｼ","streetKana":"ｲﾇｶｲﾏﾁｸﾊﾞﾙ","prefecture":"大分県","city":"豊後大野市","street":"犬飼町久原"},{"zipCode":"8797314","prefectureKana":"ｵｵｲﾀｹﾝ","cityKana":"ﾌﾞﾝｺﾞｵｵﾉｼ","streetKana":"ｲﾇｶｲﾏﾁｸﾘｶﾞﾊﾀ","prefecture":"大分県","city":"豊後大野市","street":"犬飼町栗ケ畑"},{"zipCode":"8797313","prefectureKana":"ｵｵｲﾀｹﾝ","cityKana":"ﾌﾞﾝｺﾞｵｵﾉｼ","streetKana":"ｲﾇｶｲﾏﾁｸﾛﾏﾂ","prefecture":"大分県","city":"豊後大野市","street":"犬飼町黒松"},{"zipCode":"8797312","prefectureKana":"ｵｵｲﾀｹﾝ","cityKana":"ﾌﾞﾝｺﾞｵｵﾉｼ","streetKana":"ｲﾇｶｲﾏﾁｺｳﾂﾞﾊﾙ","prefecture":"大分県","city":"豊後大野市","street":"犬飼町高津原"},{"zipCode":"8797307","prefectureKana":"ｵｵｲﾀｹﾝ","cityKana":"ﾌﾞﾝｺﾞｵｵﾉｼ","streetKana":"ｲﾇｶｲﾏﾁｻｻﾑﾀ","prefecture":"大分県","city":"豊後大野市","street":"犬飼町西寒田"},{"zipCode":"8797311","prefectureKana":"ｵｵｲﾀｹﾝ","cityKana":"ﾌﾞﾝｺﾞｵｵﾉｼ","streetKana":"ｲﾇｶｲﾏﾁｼﾊﾞｷﾀ","prefecture":"大分県","city":"豊後大野市","street":"犬飼町柴北"},{"zipCode":"8797306","prefectureKana":"ｵｵｲﾀｹﾝ","cityKana":"ﾌﾞﾝｺﾞｵｵﾉｼ","streetKana":"ｲﾇｶｲﾏﾁｼﾓﾂｵ","prefecture":"大分県","city":"豊後大野市","street":"犬飼町下津尾"},{"zipCode":"8797305","prefectureKana":"ｵｵｲﾀｹﾝ","cityKana":"ﾌﾞﾝｺﾞｵｵﾉｼ","streetKana":"ｲﾇｶｲﾏﾁﾀﾊﾗ","prefecture":"大分県","city":"豊後大野市","street":"犬飼町田原"},{"zipCode":"8797316","prefectureKana":"ｵｵｲﾀｹﾝ","cityKana":"ﾌﾞﾝｺﾞｵｵﾉｼ","streetKana":"ｲﾇｶｲﾏﾁﾅｶﾞﾊﾀ","prefecture":"大分県","city":"豊後大野市","street":"犬飼町長畑"},{"zipCode":"8797315","prefectureKana":"ｵｵｲﾀｹﾝ","cityKana":"ﾌﾞﾝｺﾞｵｵﾉｼ","streetKana":"ｲﾇｶｲﾏﾁﾔﾏｳﾁ","prefecture":"大分県","city":"豊後大野市","street":"犬飼町山内"},{"zipCode":"8797303","prefectureKana":"ｵｵｲﾀｹﾝ","cityKana":"ﾌﾞﾝｺﾞｵｵﾉｼ","streetKana":"ｲﾇｶｲﾏﾁﾕﾉｷ","prefecture":"大分県","city":"豊後大野市","street":"犬飼町柚野木"},{"zipCode":"8796401","prefectureKana":"ｵｵｲﾀｹﾝ","cityKana":"ﾌﾞﾝｺﾞｵｵﾉｼ","streetKana":"ｵｵﾉﾏﾁｱﾝﾄﾞｳ","prefecture":"大分県","city":"豊後大野市","street":"大野町安藤"},{"zipCode":"8796404","prefectureKana":"ｵｵｲﾀｹﾝ","cityKana":"ﾌﾞﾝｺﾞｵｵﾉｼ","streetKana":"ｵｵﾉﾏﾁｳｼﾛﾀﾞ","prefecture":"大分県","city":"豊後大野市","street":"大野町後田"},{"zipCode":"8796433","prefectureKana":"ｵｵｲﾀｹﾝ","cityKana":"ﾌﾞﾝｺﾞｵｵﾉｼ","streetKana":"ｵｵﾉﾏﾁｵｵﾊﾙ","prefecture":"大分県","city":"豊後大野市","street":"大野町大原"},{"zipCode":"8796445","prefectureKana":"ｵｵｲﾀｹﾝ","cityKana":"ﾌﾞﾝｺﾞｵｵﾉｼ","streetKana":"ｵｵﾉﾏﾁｶﾀｼﾏ","prefecture":"大分県","city":"豊後大野市","street":"大野町片島"},{"zipCode":"8796435","prefectureKana":"ｵｵｲﾀｹﾝ","cityKana":"ﾌﾞﾝｺﾞｵｵﾉｼ","streetKana":"ｵｵﾉﾏﾁｷﾀｿﾞﾉ","prefecture":"大分県","city":"豊後大野市","street":"大野町北園"},{"zipCode":"8796434","prefectureKana":"ｵｵｲﾀｹﾝ","cityKana":"ﾌﾞﾝｺﾞｵｵﾉｼ","streetKana":"ｵｵﾉﾏﾁｸﾜﾊﾞﾙ","prefecture":"大分県","city":"豊後大野市","street":"大野町桑原"},{"zipCode":"8796426","prefectureKana":"ｵｵｲﾀｹﾝ","cityKana":"ﾌﾞﾝｺﾞｵｵﾉｼ","streetKana":"ｵｵﾉﾏﾁｺｵﾘﾔﾏ","prefecture":"大分県","city":"豊後大野市","street":"大野町郡山"},{"zipCode":"8796422","prefectureKana":"ｵｵｲﾀｹﾝ","cityKana":"ﾌﾞﾝｺﾞｵｵﾉｼ","streetKana":"ｵｵﾉﾏﾁｺｸﾞﾗｷ","prefecture":"大分県","city":"豊後大野市","street":"大野町小倉木"},{"zipCode":"8796431","prefectureKana":"ｵｵｲﾀｹﾝ","cityKana":"ﾌﾞﾝｺﾞｵｵﾉｼ","streetKana":"ｵｵﾉﾏﾁｻｶｲｼﾞ","prefecture":"大分県","city":"豊後大野市","street":"大野町酒井寺"},{"zipCode":"8796408","prefectureKana":"ｵｵｲﾀｹﾝ","cityKana":"ﾌﾞﾝｺﾞｵｵﾉｼ","streetKana":"ｵｵﾉﾏﾁｻﾜﾀ","prefecture":"大分県","city":"豊後大野市","street":"大野町沢田"},{"zipCode":"8796406","prefectureKana":"ｵｵｲﾀｹﾝ","cityKana":"ﾌﾞﾝｺﾞｵｵﾉｼ","streetKana":"ｵｵﾉﾏﾁｽｷﾞｿﾞﾉ","prefecture":"大分県","city":"豊後大野市","street":"大野町杉園"},{"zipCode":"8796405","prefectureKana":"ｵｵｲﾀｹﾝ","cityKana":"ﾌﾞﾝｺﾞｵｵﾉｼ","streetKana":"ｵｵﾉﾏﾁﾀﾞｲｻﾝｺﾞ","prefecture":"大分県","city":"豊後大野市","street":"大野町代三五"},{"zipCode":"8796444","prefectureKana":"ｵｵｲﾀｹﾝ","cityKana":"ﾌﾞﾝｺﾞｵｵﾉｼ","streetKana":"ｵｵﾉﾏﾁﾀｼﾛ","prefecture":"大分県","city":"豊後大野市","street":"大野町田代"},{"zipCode":"8796441","prefectureKana":"ｵｵｲﾀｹﾝ","cityKana":"ﾌﾞﾝｺﾞｵｵﾉｼ","streetKana":"ｵｵﾉﾏﾁﾀﾅｶ","prefecture":"大分県","city":"豊後大野市","street":"大野町田中"},{"zipCode":"8796407","prefectureKana":"ｵｵｲﾀｹﾝ","cityKana":"ﾌﾞﾝｺﾞｵｵﾉｼ","streetKana":"ｵｵﾉﾏﾁﾄﾄｷ","prefecture":"大分県","city":"豊後大野市","street":"大野町十時"},{"zipCode":"8796402","prefectureKana":"ｵｵｲﾀｹﾝ","cityKana":"ﾌﾞﾝｺﾞｵｵﾉｼ","streetKana":"ｵｵﾉﾏﾁﾅｶﾊｼﾞ","prefecture":"大分県","city":"豊後大野市","street":"大野町中土師"},{"zipCode":"8796403","prefectureKana":"ｵｵｲﾀｹﾝ","cityKana":"ﾌﾞﾝｺﾞｵｵﾉｼ","streetKana":"ｵｵﾉﾏﾁﾅｶﾞﾊﾀ","prefecture":"大分県","city":"豊後大野市","street":"大野町長畑"},{"zipCode":"8796421","prefectureKana":"ｵｵｲﾀｹﾝ","cityKana":"ﾌﾞﾝｺﾞｵｵﾉｼ","streetKana":"ｵｵﾉﾏﾁﾅｶﾊﾞﾙ","prefecture":"大分県","city":"豊後大野市","street":"大野町中原"},{"zipCode":"8796424","prefectureKana":"ｵｵｲﾀｹﾝ","cityKana":"ﾌﾞﾝｺﾞｵｵﾉｼ","streetKana":"ｵｵﾉﾏﾁﾅﾀｾ","prefecture":"大分県","city":"豊後大野市","street":"大野町夏足"},{"zipCode":"8796442","prefectureKana":"ｵｵｲﾀｹﾝ","cityKana":"ﾌﾞﾝｺﾞｵｵﾉｼ","streetKana":"ｵｵﾉﾏﾁﾌｼﾞｷﾀ","prefecture":"大分県","city":"豊後大野市","street":"大野町藤北"},{"zipCode":"8796443","prefectureKana":"ｵｵｲﾀｹﾝ","cityKana":"ﾌﾞﾝｺﾞｵｵﾉｼ","streetKana":"ｵｵﾉﾏﾁﾐﾔｻﾞｺ","prefecture":"大分県","city":"豊後大野市","street":"大野町宮迫"},{"zipCode":"8796423","prefectureKana":"ｵｵｲﾀｹﾝ","cityKana":"ﾌﾞﾝｺﾞｵｵﾉｼ","streetKana":"ｵｵﾉﾏﾁﾔﾀﾞ","prefecture":"大分県","city":"豊後大野市","street":"大野町矢田"},{"zipCode":"8796432","prefectureKana":"ｵｵｲﾀｹﾝ","cityKana":"ﾌﾞﾝｺﾞｵｵﾉｼ","streetKana":"ｵｵﾉﾏﾁﾔﾊﾞﾙ","prefecture":"大分県","city":"豊後大野市","street":"大野町屋原"},{"zipCode":"8796425","prefectureKana":"ｵｵｲﾀｹﾝ","cityKana":"ﾌﾞﾝｺﾞｵｵﾉｼ","streetKana":"ｵｵﾉﾏﾁﾘｮｳｹ","prefecture":"大分県","city":"豊後大野市","street":"大野町両家"},{"zipCode":"8796613","prefectureKana":"ｵｵｲﾀｹﾝ","cityKana":"ﾌﾞﾝｺﾞｵｵﾉｼ","streetKana":"ｵｶﾞﾀﾏﾁｲﾉｳｴ","prefecture":"大分県","city":"豊後大野市","street":"緒方町井上"},{"zipCode":"8796864","prefectureKana":"ｵｵｲﾀｹﾝ","cityKana":"ﾌﾞﾝｺﾞｵｵﾉｼ","streetKana":"ｵｶﾞﾀﾏﾁｳﾜﾊﾀ","prefecture":"大分県","city":"豊後大野市","street":"緒方町上畑"},{"zipCode":"8796633","prefectureKana":"ｵｵｲﾀｹﾝ","cityKana":"ﾌﾞﾝｺﾞｵｵﾉｼ","streetKana":"ｵｶﾞﾀﾏﾁｵｱﾃ","prefecture":"大分県","city":"豊後大野市","street":"緒方町小宛"},{"zipCode":"8796759","prefectureKana":"ｵｵｲﾀｹﾝ","cityKana":"ﾌﾞﾝｺﾞｵｵﾉｼ","streetKana":"ｵｶﾞﾀﾏﾁｵｵｲｼ","prefecture":"大分県","city":"豊後大野市","street":"緒方町大石"},{"zipCode":"8796861","prefectureKana":"ｵｵｲﾀｹﾝ","cityKana":"ﾌﾞﾝｺﾞｵｵﾉｼ","streetKana":"ｵｶﾞﾀﾏﾁｵﾊﾙ","prefecture":"大分県","city":"豊後大野市","street":"緒方町小原"},{"zipCode":"8796865","prefectureKana":"ｵｵｲﾀｹﾝ","cityKana":"ﾌﾞﾝｺﾞｵｵﾉｼ","streetKana":"ｵｶﾞﾀﾏﾁｵﾋﾞﾗｺｳｻﾞﾝ","prefecture":"大分県","city":"豊後大野市","street":"緒方町尾平鉱山"},{"zipCode":"8796625","prefectureKana":"ｵｵｲﾀｹﾝ","cityKana":"ﾌﾞﾝｺﾞｵｵﾉｼ","streetKana":"ｵｶﾞﾀﾏﾁｶﾐｲﾇﾂﾞｶ","prefecture":"大分県","city":"豊後大野市","street":"緒方町上犬塚"},{"zipCode":"8796642","prefectureKana":"ｵｵｲﾀｹﾝ","cityKana":"ﾌﾞﾝｺﾞｵｵﾉｼ","streetKana":"ｵｶﾞﾀﾏﾁｶﾐｼﾞｻﾞｲ","prefecture":"大分県","city":"豊後大野市","street":"緒方町上自在"},{"zipCode":"8796751","prefectureKana":"ｵｵｲﾀｹﾝ","cityKana":"ﾌﾞﾝｺﾞｵｵﾉｼ","streetKana":"ｵｶﾞﾀﾏﾁｶﾐﾄｼﾉ","prefecture":"大分県","city":"豊後大野市","street":"緒方町上年野"},{"zipCode":"8796755","prefectureKana":"ｵｵｲﾀｹﾝ","cityKana":"ﾌﾞﾝｺﾞｵｵﾉｼ","streetKana":"ｵｶﾞﾀﾏﾁｶﾐﾌﾕﾊﾞﾙ","prefecture":"大分県","city":"豊後大野市","street":"緒方町上冬原"},{"zipCode":"8796757","prefectureKana":"ｵｵｲﾀｹﾝ","cityKana":"ﾌﾞﾝｺﾞｵｵﾉｼ","streetKana":"ｵｶﾞﾀﾏﾁｷﾉ","prefecture":"大分県","city":"豊後大野市","street":"緒方町木野"},{"zipCode":"8796641","prefectureKana":"ｵｵｲﾀｹﾝ","cityKana":"ﾌﾞﾝｺﾞｵｵﾉｼ","streetKana":"ｵｶﾞﾀﾏﾁｸｻﾌﾞｶﾉ","prefecture":"大分県","city":"豊後大野市","street":"緒方町草深野"},{"zipCode":"8796616","prefectureKana":"ｵｵｲﾀｹﾝ","cityKana":"ﾌﾞﾝｺﾞｵｵﾉｼ","streetKana":"ｵｶﾞﾀﾏﾁｸﾄﾞﾁ","prefecture":"大分県","city":"豊後大野市","street":"緒方町久土知"},{"zipCode":"8796862","prefectureKana":"ｵｵｲﾀｹﾝ","cityKana":"ﾌﾞﾝｺﾞｵｵﾉｼ","streetKana":"ｵｶﾞﾀﾏﾁｸﾘｳ","prefecture":"大分県","city":"豊後大野市","street":"緒方町栗生"},{"zipCode":"8796612","prefectureKana":"ｵｵｲﾀｹﾝ","cityKana":"ﾌﾞﾝｺﾞｵｵﾉｼ","streetKana":"ｵｶﾞﾀﾏﾁｺｼｵ","prefecture":"大分県","city":"豊後大野市","street":"緒方町越生"},{"zipCode":"8796602","prefectureKana":"ｵｵｲﾀｹﾝ","cityKana":"ﾌﾞﾝｺﾞｵｵﾉｼ","streetKana":"ｵｶﾞﾀﾏﾁｼｶﾞ","prefecture":"大分県","city":"豊後大野市","street":"緒方町志賀"},{"zipCode":"8796635","prefectureKana":"ｵｵｲﾀｹﾝ","cityKana":"ﾌﾞﾝｺﾞｵｵﾉｼ","streetKana":"ｵｶﾞﾀﾏﾁｼﾞｸﾏﾙ","prefecture":"大分県","city":"豊後大野市","street":"緒方町軸丸"},{"zipCode":"8796643","prefectureKana":"ｵｵｲﾀｹﾝ","cityKana":"ﾌﾞﾝｺﾞｵｵﾉｼ","streetKana":"ｵｶﾞﾀﾏﾁｼﾓｼﾞｻﾞｲ","prefecture":"大分県","city":"豊後大野市","street":"緒方町下自在"},{"zipCode":"8796753","prefectureKana":"ｵｵｲﾀｹﾝ","cityKana":"ﾌﾞﾝｺﾞｵｵﾉｼ","streetKana":"ｵｶﾞﾀﾏﾁｼﾓﾄｸﾀﾞ","prefecture":"大分県","city":"豊後大野市","street":"緒方町下徳田"},{"zipCode":"8796626","prefectureKana":"ｵｵｲﾀｹﾝ","cityKana":"ﾌﾞﾝｺﾞｵｵﾉｼ","streetKana":"ｵｶﾞﾀﾏﾁﾀｲｶ","prefecture":"大分県","city":"豊後大野市","street":"緒方町大化"},{"zipCode":"8796863","prefectureKana":"ｵｵｲﾀｹﾝ","cityKana":"ﾌﾞﾝｺﾞｵｵﾉｼ","streetKana":"ｵｶﾞﾀﾏﾁﾀｲｻﾞｺ","prefecture":"大分県","city":"豊後大野市","street":"緒方町滞迫"},{"zipCode":"8796614","prefectureKana":"ｵｵｲﾀｹﾝ","cityKana":"ﾌﾞﾝｺﾞｵｵﾉｼ","streetKana":"ｵｶﾞﾀﾏﾁﾁﾀ","prefecture":"大分県","city":"豊後大野市","street":"緒方町知田"},{"zipCode":"8796632","prefectureKana":"ｵｵｲﾀｹﾝ","cityKana":"ﾌﾞﾝｺﾞｵｵﾉｼ","streetKana":"ｵｶﾞﾀﾏﾁﾂｼﾞ","prefecture":"大分県","city":"豊後大野市","street":"緒方町辻"},{"zipCode":"8796634","prefectureKana":"ｵｵｲﾀｹﾝ","cityKana":"ﾌﾞﾝｺﾞｵｵﾉｼ","streetKana":"ｵｶﾞﾀﾏﾁﾃﾗﾊﾞﾙ","prefecture":"大分県","city":"豊後大野市","street":"緒方町寺原"},{"zipCode":"8796622","prefectureKana":"ｵｵｲﾀｹﾝ","cityKana":"ﾌﾞﾝｺﾞｵｵﾉｼ","streetKana":"ｵｶﾞﾀﾏﾁﾃﾝｼﾞﾝ","prefecture":"大分県","city":"豊後大野市","street":"緒方町天神"},{"zipCode":"8796756","prefectureKana":"ｵｵｲﾀｹﾝ","cityKana":"ﾌﾞﾝｺﾞｵｵﾉｼ","streetKana":"ｵｶﾞﾀﾏﾁﾄｸﾀﾞ","prefecture":"大分県","city":"豊後大野市","street":"緒方町徳田"},{"zipCode":"8796758","prefectureKana":"ｵｵｲﾀｹﾝ","cityKana":"ﾌﾞﾝｺﾞｵｵﾉｼ","streetKana":"ｵｶﾞﾀﾏﾁﾅｶﾉ","prefecture":"大分県","city":"豊後大野市","street":"緒方町中野"},{"zipCode":"8796611","prefectureKana":"ｵｵｲﾀｹﾝ","cityKana":"ﾌﾞﾝｺﾞｵｵﾉｼ","streetKana":"ｵｶﾞﾀﾏﾁﾅﾀｾ","prefecture":"大分県","city":"豊後大野市","street":"緒方町夏足"},{"zipCode":"8796621","prefectureKana":"ｵｵｲﾀｹﾝ","cityKana":"ﾌﾞﾝｺﾞｵｵﾉｼ","streetKana":"ｵｶﾞﾀﾏﾁﾉｼﾞﾘ","prefecture":"大分県","city":"豊後大野市","street":"緒方町野尻"},{"zipCode":"8796601","prefectureKana":"ｵｵｲﾀｹﾝ","cityKana":"ﾌﾞﾝｺﾞｵｵﾉｼ","streetKana":"ｵｶﾞﾀﾏﾁﾊﾞﾊﾞ","prefecture":"大分県","city":"豊後大野市","street":"緒方町馬場"},{"zipCode":"8796631","prefectureKana":"ｵｵｲﾀｹﾝ","cityKana":"ﾌﾞﾝｺﾞｵｵﾉｼ","streetKana":"ｵｶﾞﾀﾏﾁﾊﾗｼﾞﾘ","prefecture":"大分県","city":"豊後大野市","street":"緒方町原尻"},{"zipCode":"8796624","prefectureKana":"ｵｵｲﾀｹﾝ","cityKana":"ﾌﾞﾝｺﾞｵｵﾉｼ","streetKana":"ｵｶﾞﾀﾏﾁﾋﾗｲｼ","prefecture":"大分県","city":"豊後大野市","street":"緒方町平石"},{"zipCode":"8796615","prefectureKana":"ｵｵｲﾀｹﾝ","cityKana":"ﾌﾞﾝｺﾞｵｵﾉｼ","streetKana":"ｵｶﾞﾀﾏﾁﾌﾅｶﾞﾜ","prefecture":"大分県","city":"豊後大野市","street":"緒方町鮒川"},{"zipCode":"8796754","prefectureKana":"ｵｵｲﾀｹﾝ","cityKana":"ﾌﾞﾝｺﾞｵｵﾉｼ","streetKana":"ｵｶﾞﾀﾏﾁﾌﾕﾊﾞﾙ","prefecture":"大分県","city":"豊後大野市","street":"緒方町冬原"},{"zipCode":"8796623","prefectureKana":"ｵｵｲﾀｹﾝ","cityKana":"ﾌﾞﾝｺﾞｵｵﾉｼ","streetKana":"ｵｶﾞﾀﾏﾁﾏｾﾊﾞﾀ","prefecture":"大分県","city":"豊後大野市","street":"緒方町馬背畑"},{"zipCode":"8796752","prefectureKana":"ｵｵｲﾀｹﾝ","cityKana":"ﾌﾞﾝｺﾞｵｵﾉｼ","streetKana":"ｵｶﾞﾀﾏﾁﾕｷﾞ","prefecture":"大分県","city":"豊後大野市","street":"緒方町柚木"},{"zipCode":"8796902","prefectureKana":"ｵｵｲﾀｹﾝ","cityKana":"ﾌﾞﾝｺﾞｵｵﾉｼ","streetKana":"ｷﾖｶﾜﾏﾁｱﾏﾂﾞﾂﾐ","prefecture":"大分県","city":"豊後大野市","street":"清川町雨堤"},{"zipCode":"8796901","prefectureKana":"ｵｵｲﾀｹﾝ","cityKana":"ﾌﾞﾝｺﾞｵｵﾉｼ","streetKana":"ｷﾖｶﾜﾏﾁｳｽｵ","prefecture":"大分県","city":"豊後大野市","street":"清川町臼尾"},{"zipCode":"8796911","prefectureKana":"ｵｵｲﾀｹﾝ","cityKana":"ﾌﾞﾝｺﾞｵｵﾉｼ","streetKana":"ｷﾖｶﾜﾏﾁｳﾀｴﾀﾞ","prefecture":"大分県","city":"豊後大野市","street":"清川町宇田枝"},{"zipCode":"8796922","prefectureKana":"ｵｵｲﾀｹﾝ","cityKana":"ﾌﾞﾝｺﾞｵｵﾉｼ","streetKana":"ｷﾖｶﾜﾏﾁｵｵｼﾛﾀﾆ","prefecture":"大分県","city":"豊後大野市","street":"清川町大白谷"},{"zipCode":"8796903","prefectureKana":"ｵｵｲﾀｹﾝ","cityKana":"ﾌﾞﾝｺﾞｵｵﾉｼ","streetKana":"ｷﾖｶﾜﾏﾁｽﾅﾀﾞ","prefecture":"大分県","city":"豊後大野市","street":"清川町砂田"},{"zipCode":"8796914","prefectureKana":"ｵｵｲﾀｹﾝ","cityKana":"ﾌﾞﾝｺﾞｵｵﾉｼ","streetKana":"ｷﾖｶﾜﾏﾁｿｳﾁ","prefecture":"大分県","city":"豊後大野市","street":"清川町左右知"},{"zipCode":"8796904","prefectureKana":"ｵｵｲﾀｹﾝ","cityKana":"ﾌﾞﾝｺﾞｵｵﾉｼ","streetKana":"ｷﾖｶﾜﾏﾁﾃﾝｼﾞﾝ","prefecture":"大分県","city":"豊後大野市","street":"清川町天神"},{"zipCode":"8796913","prefectureKana":"ｵｵｲﾀｹﾝ","cityKana":"ﾌﾞﾝｺﾞｵｵﾉｼ","streetKana":"ｷﾖｶﾜﾏﾁﾋﾗｲｼ","prefecture":"大分県","city":"豊後大野市","street":"清川町平石"},{"zipCode":"8796921","prefectureKana":"ｵｵｲﾀｹﾝ","cityKana":"ﾌﾞﾝｺﾞｵｵﾉｼ","streetKana":"ｷﾖｶﾜﾏﾁﾌｾﾉ","prefecture":"大分県","city":"豊後大野市","street":"清川町伏野"},{"zipCode":"8796905","prefectureKana":"ｵｵｲﾀｹﾝ","cityKana":"ﾌﾞﾝｺﾞｵｵﾉｼ","streetKana":"ｷﾖｶﾜﾏﾁﾐﾀﾏ","prefecture":"大分県","city":"豊後大野市","street":"清川町三玉"},{"zipCode":"8796912","prefectureKana":"ｵｵｲﾀｹﾝ","cityKana":"ﾌﾞﾝｺﾞｵｵﾉｼ","streetKana":"ｷﾖｶﾜﾏﾁﾑｸｻ","prefecture":"大分県","city":"豊後大野市","street":"清川町六種"},{"zipCode":"8797403","prefectureKana":"ｵｵｲﾀｹﾝ","cityKana":"ﾌﾞﾝｺﾞｵｵﾉｼ","streetKana":"ﾁﾄｾﾏﾁｲｼﾀﾞ","prefecture":"大分県","city":"豊後大野市","street":"千歳町石田"},{"zipCode":"8797411","prefectureKana":"ｵｵｲﾀｹﾝ","cityKana":"ﾌﾞﾝｺﾞｵｵﾉｼ","streetKana":"ﾁﾄｾﾏﾁｼﾊﾞﾔﾏ","prefecture":"大分県","city":"豊後大野市","street":"千歳町柴山"},{"zipCode":"8797413","prefectureKana":"ｵｵｲﾀｹﾝ","cityKana":"ﾌﾞﾝｺﾞｵｵﾉｼ","streetKana":"ﾁﾄｾﾏﾁｼﾓﾔﾏ","prefecture":"大分県","city":"豊後大野市","street":"千歳町下山"},{"zipCode":"8797412","prefectureKana":"ｵｵｲﾀｹﾝ","cityKana":"ﾌﾞﾝｺﾞｵｵﾉｼ","streetKana":"ﾁﾄｾﾏﾁﾀｶﾊﾀ","prefecture":"大分県","city":"豊後大野市","street":"千歳町高畑"},{"zipCode":"8797404","prefectureKana":"ｵｵｲﾀｹﾝ","cityKana":"ﾌﾞﾝｺﾞｵｵﾉｼ","streetKana":"ﾁﾄｾﾏﾁﾅｶﾞﾐﾈ","prefecture":"大分県","city":"豊後大野市","street":"千歳町長峰"},{"zipCode":"8797401","prefectureKana":"ｵｵｲﾀｹﾝ","cityKana":"ﾌﾞﾝｺﾞｵｵﾉｼ","streetKana":"ﾁﾄｾﾏﾁﾆｲﾄﾞﾉ","prefecture":"大分県","city":"豊後大野市","street":"千歳町新殿"},{"zipCode":"8797402","prefectureKana":"ｵｵｲﾀｹﾝ","cityKana":"ﾌﾞﾝｺﾞｵｵﾉｼ","streetKana":"ﾁﾄｾﾏﾁﾌﾅﾀﾞ","prefecture":"大分県","city":"豊後大野市","street":"千歳町船田"},{"zipCode":"8797414","prefectureKana":"ｵｵｲﾀｹﾝ","cityKana":"ﾌﾞﾝｺﾞｵｵﾉｼ","streetKana":"ﾁﾄｾﾏﾁﾏｴﾀﾞ","prefecture":"大分県","city":"豊後大野市","street":"千歳町前田"},{"zipCode":"8797111","prefectureKana":"ｵｵｲﾀｹﾝ","cityKana":"ﾌﾞﾝｺﾞｵｵﾉｼ","streetKana":"ﾐｴﾏﾁｱｶﾐﾈ","prefecture":"大分県","city":"豊後大野市","street":"三重町赤嶺"},{"zipCode":"8797141","prefectureKana":"ｵｵｲﾀｹﾝ","cityKana":"ﾌﾞﾝｺﾞｵｵﾉｼ","streetKana":"ﾐｴﾏﾁｱｷﾊﾞ","prefecture":"大分県","city":"豊後大野市","street":"三重町秋葉"},{"zipCode":"8797108","prefectureKana":"ｵｵｲﾀｹﾝ","cityKana":"ﾌﾞﾝｺﾞｵｵﾉｼ","streetKana":"ﾐｴﾏﾁｱｻｾ","prefecture":"大分県","city":"豊後大野市","street":"三重町浅瀬"},{"zipCode":"8797105","prefectureKana":"ｵｵｲﾀｹﾝ","cityKana":"ﾌﾞﾝｺﾞｵｵﾉｼ","streetKana":"ﾐｴﾏﾁｱｼｶﾘ","prefecture":"大分県","city":"豊後大野市","street":"三重町芦刈"},{"zipCode":"8797106","prefectureKana":"ｵｵｲﾀｹﾝ","cityKana":"ﾌﾞﾝｺﾞｵｵﾉｼ","streetKana":"ﾐｴﾏﾁｲｻｺ","prefecture":"大分県","city":"豊後大野市","street":"三重町井迫"},{"zipCode":"8797131","prefectureKana":"ｵｵｲﾀｹﾝ","cityKana":"ﾌﾞﾝｺﾞｵｵﾉｼ","streetKana":"ﾐｴﾏﾁｲﾁﾊﾞ","prefecture":"大分県","city":"豊後大野市","street":"三重町市場"},{"zipCode":"8797125","prefectureKana":"ｵｵｲﾀｹﾝ","cityKana":"ﾌﾞﾝｺﾞｵｵﾉｼ","streetKana":"ﾐｴﾏﾁｳﾁﾀﾞ","prefecture":"大分県","city":"豊後大野市","street":"三重町内田"},{"zipCode":"8797124","prefectureKana":"ｵｵｲﾀｹﾝ","cityKana":"ﾌﾞﾝｺﾞｵｵﾉｼ","streetKana":"ﾐｴﾏﾁｳﾁﾔﾏ","prefecture":"大分県","city":"豊後大野市","street":"三重町内山"},{"zipCode":"8797264","prefectureKana":"ｵｵｲﾀｹﾝ","cityKana":"ﾌﾞﾝｺﾞｵｵﾉｼ","streetKana":"ﾐｴﾏﾁｵｵｼﾛﾀﾆ","prefecture":"大分県","city":"豊後大野市","street":"三重町大白谷"},{"zipCode":"8797262","prefectureKana":"ｵｵｲﾀｹﾝ","cityKana":"ﾌﾞﾝｺﾞｵｵﾉｼ","streetKana":"ﾐｴﾏﾁｵｸﾊﾞﾀ","prefecture":"大分県","city":"豊後大野市","street":"三重町奥畑"},{"zipCode":"8797104","prefectureKana":"ｵｵｲﾀｹﾝ","cityKana":"ﾌﾞﾝｺﾞｵｵﾉｼ","streetKana":"ﾐｴﾏﾁｵｻｶ","prefecture":"大分県","city":"豊後大野市","street":"三重町小坂"},{"zipCode":"8797142","prefectureKana":"ｵｵｲﾀｹﾝ","cityKana":"ﾌﾞﾝｺﾞｵｵﾉｼ","streetKana":"ﾐｴﾏﾁｵﾀﾞ","prefecture":"大分県","city":"豊後大野市","street":"三重町小田"},{"zipCode":"8797107","prefectureKana":"ｵｵｲﾀｹﾝ","cityKana":"ﾌﾞﾝｺﾞｵｵﾉｼ","streetKana":"ﾐｴﾏﾁｶﾐﾀﾜﾗ","prefecture":"大分県","city":"豊後大野市","street":"三重町上田原"},{"zipCode":"8797154","prefectureKana":"ｵｵｲﾀｹﾝ","cityKana":"ﾌﾞﾝｺﾞｵｵﾉｼ","streetKana":"ﾐｴﾏﾁｶﾜﾍﾞ","prefecture":"大分県","city":"豊後大野市","street":"三重町川辺"},{"zipCode":"8797102","prefectureKana":"ｵｵｲﾀｹﾝ","cityKana":"ﾌﾞﾝｺﾞｵｵﾉｼ","streetKana":"ﾐｴﾏﾁｽｺﾞｳ","prefecture":"大分県","city":"豊後大野市","street":"三重町菅生"},{"zipCode":"8797153","prefectureKana":"ｵｵｲﾀｹﾝ","cityKana":"ﾌﾞﾝｺﾞｵｵﾉｼ","streetKana":"ﾐｴﾏﾁﾀﾏﾀﾞ","prefecture":"大分県","city":"豊後大野市","street":"三重町玉田"},{"zipCode":"8797263","prefectureKana":"ｵｵｲﾀｹﾝ","cityKana":"ﾌﾞﾝｺﾞｵｵﾉｼ","streetKana":"ﾐｴﾏﾁﾅｶﾂﾞﾙ","prefecture":"大分県","city":"豊後大野市","street":"三重町中津留"},{"zipCode":"8797151","prefectureKana":"ｵｵｲﾀｹﾝ","cityKana":"ﾌﾞﾝｺﾞｵｵﾉｼ","streetKana":"ﾐｴﾏﾁﾆｼｲｽﾞﾐ","prefecture":"大分県","city":"豊後大野市","street":"三重町西泉"},{"zipCode":"8797103","prefectureKana":"ｵｵｲﾀｹﾝ","cityKana":"ﾌﾞﾝｺﾞｵｵﾉｼ","streetKana":"ﾐｴﾏﾁﾆｼﾊﾀ","prefecture":"大分県","city":"豊後大野市","street":"三重町西畑"},{"zipCode":"8797143","prefectureKana":"ｵｵｲﾀｹﾝ","cityKana":"ﾌﾞﾝｺﾞｵｵﾉｼ","streetKana":"ﾐｴﾏﾁﾋｻﾀﾞ","prefecture":"大分県","city":"豊後大野市","street":"三重町久田"},{"zipCode":"8797261","prefectureKana":"ｵｵｲﾀｹﾝ","cityKana":"ﾌﾞﾝｺﾞｵｵﾉｼ","streetKana":"ﾐｴﾏﾁﾌｾﾉ","prefecture":"大分県","city":"豊後大野市","street":"三重町伏野"},{"zipCode":"8797144","prefectureKana":"ｵｵｲﾀｹﾝ","cityKana":"ﾌﾞﾝｺﾞｵｵﾉｼ","streetKana":"ﾐｴﾏﾁﾎﾝｼﾞｮｳ","prefecture":"大分県","city":"豊後大野市","street":"三重町本城"},{"zipCode":"8797123","prefectureKana":"ｵｵｲﾀｹﾝ","cityKana":"ﾌﾞﾝｺﾞｵｵﾉｼ","streetKana":"ﾐｴﾏﾁﾏﾂｵ","prefecture":"大分県","city":"豊後大野市","street":"三重町松尾"},{"zipCode":"8797101","prefectureKana":"ｵｵｲﾀｹﾝ","cityKana":"ﾌﾞﾝｺﾞｵｵﾉｼ","streetKana":"ﾐｴﾏﾁﾐﾔﾉ","prefecture":"大分県","city":"豊後大野市","street":"三重町宮野"},{"zipCode":"8797155","prefectureKana":"ｵｵｲﾀｹﾝ","cityKana":"ﾌﾞﾝｺﾞｵｵﾉｼ","streetKana":"ﾐｴﾏﾁﾑｺｳﾉ","prefecture":"大分県","city":"豊後大野市","street":"三重町向野"},{"zipCode":"8797152","prefectureKana":"ｵｵｲﾀｹﾝ","cityKana":"ﾌﾞﾝｺﾞｵｵﾉｼ","streetKana":"ﾐｴﾏﾁﾓﾓｴﾀﾞ","prefecture":"大分県","city":"豊後大野市","street":"三重町百枝"},{"zipCode":"8797121","prefectureKana":"ｵｵｲﾀｹﾝ","cityKana":"ﾌﾞﾝｺﾞｵｵﾉｼ","streetKana":"ﾐｴﾏﾁﾔﾏﾌﾞ","prefecture":"大分県","city":"豊後大野市","street":"三重町山部"},{"zipCode":"8797122","prefectureKana":"ｵｵｲﾀｹﾝ","cityKana":"ﾌﾞﾝｺﾞｵｵﾉｼ","streetKana":"ﾐｴﾏﾁﾜｼﾀﾞﾆ","prefecture":"大分県","city":"豊後大野市","street":"三重町鷲谷"},{"zipCode":"8795400","prefectureKana":"ｵｵｲﾀｹﾝ","cityKana":"ﾕﾌｼ","streetKana":"ｲｶﾆｹｲｻｲｶﾞﾅｲﾊﾞｱｲ","prefecture":"大分県","city":"由布市","street":"以下に掲載がない場合"},{"zipCode":"8795423","prefectureKana":"ｵｵｲﾀｹﾝ","cityKana":"ﾕﾌｼ","streetKana":"ｼｮｳﾅｲﾁｮｳｱｿﾉ","prefecture":"大分県","city":"由布市","street":"庄内町阿蘇野"},{"zipCode":"8795404","prefectureKana":"ｵｵｲﾀｹﾝ","cityKana":"ﾕﾌｼ","streetKana":"ｼｮｳﾅｲﾁｮｳｲﾁｷﾞ","prefecture":"大分県","city":"由布市","street":"庄内町櫟木"},{"zipCode":"8795413","prefectureKana":"ｵｵｲﾀｹﾝ","cityKana":"ﾕﾌｼ","streetKana":"ｼｮｳﾅｲﾁｮｳｵｵﾀﾂ","prefecture":"大分県","city":"由布市","street":"庄内町大龍"},{"zipCode":"8795402","prefectureKana":"ｵｵｲﾀｹﾝ","cityKana":"ﾕﾌｼ","streetKana":"ｼｮｳﾅｲﾁｮｳｵﾊﾞｻﾏ","prefecture":"大分県","city":"由布市","street":"庄内町小挾間"},{"zipCode":"8795421","prefectureKana":"ｵｵｲﾀｹﾝ","cityKana":"ﾕﾌｼ","streetKana":"ｼｮｳﾅｲﾁｮｳｶｷﾊﾙ","prefecture":"大分県","city":"由布市","street":"庄内町柿原"},{"zipCode":"8795401","prefectureKana":"ｵｵｲﾀｹﾝ","cityKana":"ﾕﾌｼ","streetKana":"ｼｮｳﾅｲﾁｮｳｷﾀｵｵﾂﾙ","prefecture":"大分県","city":"由布市","street":"庄内町北大津留"},{"zipCode":"8795412","prefectureKana":"ｵｵｲﾀｹﾝ","cityKana":"ﾕﾌｼ","streetKana":"ｼｮｳﾅｲﾁｮｳｺﾞｶｾ","prefecture":"大分県","city":"由布市","street":"庄内町五ケ瀬"},{"zipCode":"8795434","prefectureKana":"ｵｵｲﾀｹﾝ","cityKana":"ﾕﾌｼ","streetKana":"ｼｮｳﾅｲﾁｮｳｼｮｳﾅｲﾊﾞﾙ","prefecture":"大分県","city":"由布市","street":"庄内町庄内原"},{"zipCode":"8795433","prefectureKana":"ｵｵｲﾀｹﾝ","cityKana":"ﾕﾌｼ","streetKana":"ｼｮｳﾅｲﾁｮｳﾀｶｵｶ","prefecture":"大分県","city":"由布市","street":"庄内町高岡"},{"zipCode":"8795411","prefectureKana":"ｵｵｲﾀｹﾝ","cityKana":"ﾕﾌｼ","streetKana":"ｼｮｳﾅｲﾁｮｳﾀﾂﾊﾙ","prefecture":"大分県","city":"由布市","street":"庄内町龍原"},{"zipCode":"8795424","prefectureKana":"ｵｵｲﾀｹﾝ","cityKana":"ﾕﾌｼ","streetKana":"ｼｮｳﾅｲﾁｮｳﾅｵﾉｳﾁﾔﾏ","prefecture":"大分県","city":"由布市","street":"庄内町直野内山"},{"zipCode":"8795435","prefectureKana":"ｵｵｲﾀｹﾝ","cityKana":"ﾕﾌｼ","streetKana":"ｼｮｳﾅｲﾁｮｳﾅｶ","prefecture":"大分県","city":"由布市","street":"庄内町中"},{"zipCode":"8795431","prefectureKana":"ｵｵｲﾀｹﾝ","cityKana":"ﾕﾌｼ","streetKana":"ｼｮｳﾅｲﾁｮｳﾅｶﾞﾉ","prefecture":"大分県","city":"由布市","street":"庄内町長野"},{"zipCode":"8795436","prefectureKana":"ｵｵｲﾀｹﾝ","cityKana":"ﾕﾌｼ","streetKana":"ｼｮｳﾅｲﾁｮｳﾆｼ","prefecture":"大分県","city":"由布市","street":"庄内町西"},{"zipCode":"8795408","prefectureKana":"ｵｵｲﾀｹﾝ","cityKana":"ﾕﾌｼ","streetKana":"ｼｮｳﾅｲﾁｮｳﾆｼｵｵﾂﾙ","prefecture":"大分県","city":"由布市","street":"庄内町西大津留"},{"zipCode":"8795406","prefectureKana":"ｵｵｲﾀｹﾝ","cityKana":"ﾕﾌｼ","streetKana":"ｼｮｳﾅｲﾁｮｳﾆｼﾁｮｳﾎｳ","prefecture":"大分県","city":"由布市","street":"庄内町西長宝"},{"zipCode":"8795422","prefectureKana":"ｵｵｲﾀｹﾝ","cityKana":"ﾕﾌｼ","streetKana":"ｼｮｳﾅｲﾁｮｳﾉﾊﾞﾀｹ","prefecture":"大分県","city":"由布市","street":"庄内町野畑"},{"zipCode":"8795432","prefectureKana":"ｵｵｲﾀｹﾝ","cityKana":"ﾕﾌｼ","streetKana":"ｼｮｳﾅｲﾁｮｳﾊﾀｹﾀﾞ","prefecture":"大分県","city":"由布市","street":"庄内町畑田"},{"zipCode":"8795403","prefectureKana":"ｵｵｲﾀｹﾝ","cityKana":"ﾕﾌｼ","streetKana":"ｼｮｳﾅｲﾁｮｳﾋｶﾞｼｵｵﾂﾙ","prefecture":"大分県","city":"由布市","street":"庄内町東大津留"},{"zipCode":"8795405","prefectureKana":"ｵｵｲﾀｹﾝ","cityKana":"ﾕﾌｼ","streetKana":"ｼｮｳﾅｲﾁｮｳﾋｶﾞｼﾁｮｳﾎｳ","prefecture":"大分県","city":"由布市","street":"庄内町東長宝"},{"zipCode":"8795437","prefectureKana":"ｵｵｲﾀｹﾝ","cityKana":"ﾕﾌｼ","streetKana":"ｼｮｳﾅｲﾁｮｳﾋﾗｲｼ","prefecture":"大分県","city":"由布市","street":"庄内町平石"},{"zipCode":"8795425","prefectureKana":"ｵｵｲﾀｹﾝ","cityKana":"ﾕﾌｼ","streetKana":"ｼｮｳﾅｲﾁｮｳﾌﾁ","prefecture":"大分県","city":"由布市","street":"庄内町渕"},{"zipCode":"8795407","prefectureKana":"ｵｵｲﾀｹﾝ","cityKana":"ﾕﾌｼ","streetKana":"ｼｮｳﾅｲﾁｮｳﾐﾅﾐｵｵﾂﾙ","prefecture":"大分県","city":"由布市","street":"庄内町南大津留"},{"zipCode":"8795516","prefectureKana":"ｵｵｲﾀｹﾝ","cityKana":"ﾕﾌｼ","streetKana":"ﾊｻﾏﾏﾁｱｶﾉ","prefecture":"大分県","city":"由布市","street":"挾間町赤野"},{"zipCode":"8795503","prefectureKana":"ｵｵｲﾀｹﾝ","cityKana":"ﾕﾌｼ","streetKana":"ﾊｻﾏﾏﾁｲﾀﾞｲｶﾞｵｶ","prefecture":"大分県","city":"由布市","street":"挾間町医大ケ丘"},{"zipCode":"8795517","prefectureKana":"ｵｵｲﾀｹﾝ","cityKana":"ﾕﾌｼ","streetKana":"ﾊｻﾏﾏﾁｳﾁﾅﾘ","prefecture":"大分県","city":"由布市","street":"挾間町内成"},{"zipCode":"8795521","prefectureKana":"ｵｵｲﾀｹﾝ","cityKana":"ﾕﾌｼ","streetKana":"ﾊｻﾏﾏﾁｵﾆｶﾞｾ","prefecture":"大分県","city":"由布市","street":"挾間町鬼瀬"},{"zipCode":"8795501","prefectureKana":"ｵｵｲﾀｹﾝ","cityKana":"ﾕﾌｼ","streetKana":"ﾊｻﾏﾏﾁｵﾆｻﾞｷ","prefecture":"大分県","city":"由布市","street":"挾間町鬼崎"},{"zipCode":"8795522","prefectureKana":"ｵｵｲﾀｹﾝ","cityKana":"ﾕﾌｼ","streetKana":"ﾊｻﾏﾏﾁｵﾉ","prefecture":"大分県","city":"由布市","street":"挾間町小野"},{"zipCode":"8795518","prefectureKana":"ｵｵｲﾀｹﾝ","cityKana":"ﾕﾌｼ","streetKana":"ﾊｻﾏﾏﾁｷﾀｶﾞﾀ","prefecture":"大分県","city":"由布市","street":"挾間町北方"},{"zipCode":"8795512","prefectureKana":"ｵｵｲﾀｹﾝ","cityKana":"ﾕﾌｼ","streetKana":"ﾊｻﾏﾏﾁｸﾊﾞﾁ","prefecture":"大分県","city":"由布市","street":"挾間町来鉢"},{"zipCode":"8795523","prefectureKana":"ｵｵｲﾀｹﾝ","cityKana":"ﾕﾌｼ","streetKana":"ﾊｻﾏﾏﾁｼﾉﾊﾗ","prefecture":"大分県","city":"由布市","street":"挾間町篠原"},{"zipCode":"8795504","prefectureKana":"ｵｵｲﾀｹﾝ","cityKana":"ﾕﾌｼ","streetKana":"ﾊｻﾏﾏﾁｼﾓｲﾁ","prefecture":"大分県","city":"由布市","street":"挾間町下市"},{"zipCode":"8795513","prefectureKana":"ｵｵｲﾀｹﾝ","cityKana":"ﾕﾌｼ","streetKana":"ﾊｻﾏﾏﾁﾀｶｻﾞｷ","prefecture":"大分県","city":"由布市","street":"挾間町高崎"},{"zipCode":"8795519","prefectureKana":"ｵｵｲﾀｹﾝ","cityKana":"ﾕﾌｼ","streetKana":"ﾊｻﾏﾏﾁﾀｼﾛ","prefecture":"大分県","city":"由布市","street":"挾間町田代"},{"zipCode":"8795531","prefectureKana":"ｵｵｲﾀｹﾝ","cityKana":"ﾕﾌｼ","streetKana":"ﾊｻﾏﾏﾁﾀﾆ","prefecture":"大分県","city":"由布市","street":"挾間町谷"},{"zipCode":"8795532","prefectureKana":"ｵｵｲﾀｹﾝ","cityKana":"ﾕﾌｼ","streetKana":"ﾊｻﾏﾏﾁﾂﾂｸﾞﾁ","prefecture":"大分県","city":"由布市","street":"挾間町筒口"},{"zipCode":"8795510","prefectureKana":"ｵｵｲﾀｹﾝ","cityKana":"ﾕﾌｼ","streetKana":"ﾊｻﾏﾏﾁﾄｲ","prefecture":"大分県","city":"由布市","street":"挾間町東院"},{"zipCode":"8795524","prefectureKana":"ｵｵｲﾀｹﾝ","cityKana":"ﾕﾌｼ","streetKana":"ﾊｻﾏﾏﾁﾄｷﾏﾂ","prefecture":"大分県","city":"由布市","street":"挾間町時松"},{"zipCode":"8795514","prefectureKana":"ｵｵｲﾀｹﾝ","cityKana":"ﾕﾌｼ","streetKana":"ﾊｻﾏﾏﾁﾅﾅｿﾞｳｼ","prefecture":"大分県","city":"由布市","street":"挾間町七蔵司"},{"zipCode":"8795506","prefectureKana":"ｵｵｲﾀｹﾝ","cityKana":"ﾕﾌｼ","streetKana":"ﾊｻﾏﾏﾁﾊｻﾏ","prefecture":"大分県","city":"由布市","street":"挾間町挾間"},{"zipCode":"8795511","prefectureKana":"ｵｵｲﾀｹﾝ","cityKana":"ﾕﾌｼ","streetKana":"ﾊｻﾏﾏﾁﾌﾙﾉ","prefecture":"大分県","city":"由布市","street":"挾間町古野"},{"zipCode":"8795525","prefectureKana":"ｵｵｲﾀｹﾝ","cityKana":"ﾕﾌｼ","streetKana":"ﾊｻﾏﾏﾁﾎｵﾉｷ","prefecture":"大分県","city":"由布市","street":"挾間町朴木"},{"zipCode":"8795515","prefectureKana":"ｵｵｲﾀｹﾝ","cityKana":"ﾕﾌｼ","streetKana":"ﾊｻﾏﾏﾁﾐﾌﾈ","prefecture":"大分県","city":"由布市","street":"挾間町三船"},{"zipCode":"8795502","prefectureKana":"ｵｵｲﾀｹﾝ","cityKana":"ﾕﾌｼ","streetKana":"ﾊｻﾏﾏﾁﾑｶｲﾉﾊﾙ","prefecture":"大分県","city":"由布市","street":"挾間町向原"},{"zipCode":"8795102","prefectureKana":"ｵｵｲﾀｹﾝ","cityKana":"ﾕﾌｼ","streetKana":"ﾕﾌｲﾝﾁｮｳｶﾜｶﾐ","prefecture":"大分県","city":"由布市","street":"湯布院町川上"},{"zipCode":"8795114","prefectureKana":"ｵｵｲﾀｹﾝ","cityKana":"ﾕﾌｼ","streetKana":"ﾕﾌｲﾝﾁｮｳｶﾜｷﾀ","prefecture":"大分県","city":"由布市","street":"湯布院町川北"},{"zipCode":"8795113","prefectureKana":"ｵｵｲﾀｹﾝ","cityKana":"ﾕﾌｼ","streetKana":"ﾕﾌｲﾝﾁｮｳｶﾜﾆｼ","prefecture":"大分県","city":"由布市","street":"湯布院町川西"},{"zipCode":"8795103","prefectureKana":"ｵｵｲﾀｹﾝ","cityKana":"ﾕﾌｼ","streetKana":"ﾕﾌｲﾝﾁｮｳｶﾜﾐﾅﾐ","prefecture":"大分県","city":"由布市","street":"湯布院町川南"},{"zipCode":"8795111","prefectureKana":"ｵｵｲﾀｹﾝ","cityKana":"ﾕﾌｼ","streetKana":"ﾕﾌｲﾝﾁｮｳｼﾓﾕﾉﾋﾗ","prefecture":"大分県","city":"由布市","street":"湯布院町下湯平"},{"zipCode":"8795101","prefectureKana":"ｵｵｲﾀｹﾝ","cityKana":"ﾕﾌｼ","streetKana":"ﾕﾌｲﾝﾁｮｳﾂｶﾜﾗ","prefecture":"大分県","city":"由布市","street":"湯布院町塚原"},{"zipCode":"8795104","prefectureKana":"ｵｵｲﾀｹﾝ","cityKana":"ﾕﾌｼ","streetKana":"ﾕﾌｲﾝﾁｮｳﾅｶｶﾞﾜ","prefecture":"大分県","city":"由布市","street":"湯布院町中川"},{"zipCode":"8795112","prefectureKana":"ｵｵｲﾀｹﾝ","cityKana":"ﾕﾌｼ","streetKana":"ﾕﾌｲﾝﾁｮｳﾕﾉﾋﾗ","prefecture":"大分県","city":"由布市","street":"湯布院町湯平"},{"zipCode":"8791500","prefectureKana":"ｵｵｲﾀｹﾝ","cityKana":"ﾊﾔﾐｸﾞﾝﾋｼﾞﾏﾁ","streetKana":"ｲｶﾆｹｲｻｲｶﾞﾅｲﾊﾞｱｲ","prefecture":"大分県","city":"速見郡日出町","street":"以下に掲載がない場合"},{"zipCode":"8791506","prefectureKana":"ｵｵｲﾀｹﾝ","cityKana":"ﾊﾔﾐｸﾞﾝﾋｼﾞﾏﾁ","streetKana":"ﾋｼﾞﾏﾁﾉﾂｷﾞﾆﾊﾞﾝﾁｶﾞｸﾙﾊﾞｱｲ","prefecture":"大分県","city":"速見郡日出町","street":"日出町の次に番地がくる場合"},{"zipCode":"8791504","prefectureKana":"ｵｵｲﾀｹﾝ","cityKana":"ﾊﾔﾐｸﾞﾝﾋｼﾞﾏﾁ","streetKana":"ｵｵｶﾞ","prefecture":"大分県","city":"速見郡日出町","street":"大神"},{"zipCode":"8791505","prefectureKana":"ｵｵｲﾀｹﾝ","cityKana":"ﾊﾔﾐｸﾞﾝﾋｼﾞﾏﾁ","streetKana":"ｶﾜｻｷ","prefecture":"大分県","city":"速見郡日出町","street":"川崎"},{"zipCode":"8791507","prefectureKana":"ｵｵｲﾀｹﾝ","cityKana":"ﾊﾔﾐｸﾞﾝﾋｼﾞﾏﾁ","streetKana":"ﾄﾖｵｶ","prefecture":"大分県","city":"速見郡日出町","street":"豊岡"},{"zipCode":"8791508","prefectureKana":"ｵｵｲﾀｹﾝ","cityKana":"ﾊﾔﾐｸﾞﾝﾋｼﾞﾏﾁ","streetKana":"ﾋﾗﾐﾁ","prefecture":"大分県","city":"速見郡日出町","street":"平道"},{"zipCode":"8791501","prefectureKana":"ｵｵｲﾀｹﾝ","cityKana":"ﾊﾔﾐｸﾞﾝﾋｼﾞﾏﾁ","streetKana":"ﾋﾛｾ","prefecture":"大分県","city":"速見郡日出町","street":"広瀬"},{"zipCode":"8791502","prefectureKana":"ｵｵｲﾀｹﾝ","cityKana":"ﾊﾔﾐｸﾞﾝﾋｼﾞﾏﾁ","streetKana":"ﾌｼﾞﾜﾗ","prefecture":"大分県","city":"速見郡日出町","street":"藤原"},{"zipCode":"8791503","prefectureKana":"ｵｵｲﾀｹﾝ","cityKana":"ﾊﾔﾐｸﾞﾝﾋｼﾞﾏﾁ","streetKana":"ﾏﾅｲ","prefecture":"大分県","city":"速見郡日出町","street":"真那井"},{"zipCode":"8791509","prefectureKana":"ｵｵｲﾀｹﾝ","cityKana":"ﾊﾔﾐｸﾞﾝﾋｼﾞﾏﾁ","streetKana":"ﾐﾅﾐﾊﾀ","prefecture":"大分県","city":"速見郡日出町","street":"南畑"},{"zipCode":"8794800","prefectureKana":"ｵｵｲﾀｹﾝ","cityKana":"ｸｽｸﾞﾝｺｺﾉｴﾏﾁ","streetKana":"ｲｶﾆｹｲｻｲｶﾞﾅｲﾊﾞｱｲ","prefecture":"大分県","city":"玖珠郡九重町","street":"以下に掲載がない場合"},{"zipCode":"8794721","prefectureKana":"ｵｵｲﾀｹﾝ","cityKana":"ｸｽｸﾞﾝｺｺﾉｴﾏﾁ","streetKana":"ｱﾜﾉ","prefecture":"大分県","city":"玖珠郡九重町","street":"粟野"},{"zipCode":"8794803","prefectureKana":"ｵｵｲﾀｹﾝ","cityKana":"ｸｽｸﾞﾝｺｺﾉｴﾏﾁ","streetKana":"ｳｼﾛﾉｶﾞﾐ","prefecture":"大分県","city":"玖珠郡九重町","street":"後野上"},{"zipCode":"8794631","prefectureKana":"ｵｵｲﾀｹﾝ","cityKana":"ｸｽｸﾞﾝｺｺﾉｴﾏﾁ","streetKana":"ｴﾗ","prefecture":"大分県","city":"玖珠郡九重町","street":"恵良"},{"zipCode":"8794724","prefectureKana":"ｵｵｲﾀｹﾝ","cityKana":"ｸｽｸﾞﾝｺｺﾉｴﾏﾁ","streetKana":"ｽｶﾞﾜﾗ","prefecture":"大分県","city":"玖珠郡九重町","street":"菅原"},{"zipCode":"8794911","prefectureKana":"ｵｵｲﾀｹﾝ","cityKana":"ｸｽｸﾞﾝｺｺﾉｴﾏﾁ","streetKana":"ﾀﾉ","prefecture":"大分県","city":"玖珠郡九重町","street":"田野"},{"zipCode":"8794802","prefectureKana":"ｵｵｲﾀｹﾝ","cityKana":"ｸｽｸﾞﾝｺｺﾉｴﾏﾁ","streetKana":"ﾉｶﾞﾐ","prefecture":"大分県","city":"玖珠郡九重町","street":"野上"},{"zipCode":"8794722","prefectureKana":"ｵｵｲﾀｹﾝ","cityKana":"ｸｽｸﾞﾝｺｺﾉｴﾏﾁ","streetKana":"ﾋｷｼﾞ","prefecture":"大分県","city":"玖珠郡九重町","street":"引治"},{"zipCode":"8794723","prefectureKana":"ｵｵｲﾀｹﾝ","cityKana":"ｸｽｸﾞﾝｺｺﾉｴﾏﾁ","streetKana":"ﾏﾁﾀﾞ","prefecture":"大分県","city":"玖珠郡九重町","street":"町田"},{"zipCode":"8794632","prefectureKana":"ｵｵｲﾀｹﾝ","cityKana":"ｸｽｸﾞﾝｺｺﾉｴﾏﾁ","streetKana":"ﾏﾂｷﾞ","prefecture":"大分県","city":"玖珠郡九重町","street":"松木"},{"zipCode":"8794801","prefectureKana":"ｵｵｲﾀｹﾝ","cityKana":"ｸｽｸﾞﾝｺｺﾉｴﾏﾁ","streetKana":"ﾐｷﾞﾀ(1-1464ﾊﾞﾝﾁ)","prefecture":"大分県","city":"玖珠郡九重町","street":"右田（１～１４６４番地）"},{"zipCode":"8794601","prefectureKana":"ｵｵｲﾀｹﾝ","cityKana":"ｸｽｸﾞﾝｺｺﾉｴﾏﾁ","streetKana":"ﾐｷﾞﾀ(ｿﾉﾀ)","prefecture":"大分県","city":"玖珠郡九重町","street":"右田（その他）"},{"zipCode":"8794912","prefectureKana":"ｵｵｲﾀｹﾝ","cityKana":"ｸｽｸﾞﾝｺｺﾉｴﾏﾁ","streetKana":"ﾕﾂﾎﾞ","prefecture":"大分県","city":"玖珠郡九重町","street":"湯坪"},{"zipCode":"8794400","prefectureKana":"ｵｵｲﾀｹﾝ","cityKana":"ｸｽｸﾞﾝｸｽﾏﾁ","streetKana":"ｲｶﾆｹｲｻｲｶﾞﾅｲﾊﾞｱｲ","prefecture":"大分県","city":"玖珠郡玖珠町","street":"以下に掲載がない場合"},{"zipCode":"8794402","prefectureKana":"ｵｵｲﾀｹﾝ","cityKana":"ｸｽｸﾞﾝｸｽﾏﾁ","streetKana":"ｱﾔｶﾞｷ","prefecture":"大分県","city":"玖珠郡玖珠町","street":"綾垣"},{"zipCode":"8794405","prefectureKana":"ｵｵｲﾀｹﾝ","cityKana":"ｸｽｸﾞﾝｸｽﾏﾁ","streetKana":"ｲﾜﾑﾛ","prefecture":"大分県","city":"玖珠郡玖珠町","street":"岩室"},{"zipCode":"8794414","prefectureKana":"ｵｵｲﾀｹﾝ","cityKana":"ｸｽｸﾞﾝｸｽﾏﾁ","streetKana":"ｵｵｸﾏ","prefecture":"大分県","city":"玖珠郡玖珠町","street":"大隈"},{"zipCode":"8794521","prefectureKana":"ｵｵｲﾀｹﾝ","cityKana":"ｸｽｸﾞﾝｸｽﾏﾁ","streetKana":"ｵｵﾀ","prefecture":"大分県","city":"玖珠郡玖珠町","street":"太田"},{"zipCode":"8794411","prefectureKana":"ｵｵｲﾀｹﾝ","cityKana":"ｸｽｸﾞﾝｸｽﾏﾁ","streetKana":"ｵﾀ","prefecture":"大分県","city":"玖珠郡玖珠町","street":"小田"},{"zipCode":"8794523","prefectureKana":"ｵｵｲﾀｹﾝ","cityKana":"ｸｽｸﾞﾝｸｽﾏﾁ","streetKana":"ｺｺﾞ","prefecture":"大分県","city":"玖珠郡玖珠町","street":"古後"},{"zipCode":"8794413","prefectureKana":"ｵｵｲﾀｹﾝ","cityKana":"ｸｽｸﾞﾝｸｽﾏﾁ","streetKana":"ﾂｶﾜｷ","prefecture":"大分県","city":"玖珠郡玖珠町","street":"塚脇"},{"zipCode":"8794331","prefectureKana":"ｵｵｲﾀｹﾝ","cityKana":"ｸｽｸﾞﾝｸｽﾏﾁ","streetKana":"ﾄﾊﾞﾀ","prefecture":"大分県","city":"玖珠郡玖珠町","street":"戸畑"},{"zipCode":"8794406","prefectureKana":"ｵｵｲﾀｹﾝ","cityKana":"ｸｽｸﾞﾝｸｽﾏﾁ","streetKana":"ﾋｼﾞｳ","prefecture":"大分県","city":"玖珠郡玖珠町","street":"日出生"},{"zipCode":"8794403","prefectureKana":"ｵｵｲﾀｹﾝ","cityKana":"ｸｽｸﾞﾝｸｽﾏﾁ","streetKana":"ﾎｱｼ","prefecture":"大分県","city":"玖珠郡玖珠町","street":"帆足"},{"zipCode":"8794404","prefectureKana":"ｵｵｲﾀｹﾝ","cityKana":"ｸｽｸﾞﾝｸｽﾏﾁ","streetKana":"ﾓﾘ","prefecture":"大分県","city":"玖珠郡玖珠町","street":"森"},{"zipCode":"8794332","prefectureKana":"ｵｵｲﾀｹﾝ","cityKana":"ｸｽｸﾞﾝｸｽﾏﾁ","streetKana":"ﾔﾏｳﾗ(ｱｷﾊﾀ､ｵｷﾞﾜﾗ､ｼﾓｿﾉ､ｼﾓﾉﾃﾗ､ｽｷﾞｶﾜﾁ､ｾﾝｼｭｳ､ｿｳｽﾞ､ﾅｶﾉ､ﾅｶ","prefecture":"大分県","city":"玖珠郡玖珠町","street":"山浦（秋畑、荻原、下園、下ノ寺、杉河内、千重、早水、中野、中"},{"zipCode":"8794332","prefectureKana":"ｵｵｲﾀｹﾝ","cityKana":"ｸｽｸﾞﾝｸｽﾏﾁ","streetKana":"ﾂﾞﾏﾘ､ﾊﾅｶﾞ､ﾎﾞｸｼﾞｮｳ)","prefecture":"大分県","city":"玖珠郡玖珠町","street":"泊里、花香、牧場）"},{"zipCode":"8794732","prefectureKana":"ｵｵｲﾀｹﾝ","cityKana":"ｸｽｸﾞﾝｸｽﾏﾁ","streetKana":"ﾔﾏｳﾗ(ﾀﾞｲ1ﾀﾞｲｹﾞﾝﾔ､ﾀﾞｲ2ﾀﾞｲｹﾞﾝﾔ､ｱｿﾂﾞﾙ)","prefecture":"大分県","city":"玖珠郡玖珠町","street":"山浦（第一大原野、第二大原野、阿蘇釣）"},{"zipCode":"8794522","prefectureKana":"ｵｵｲﾀｹﾝ","cityKana":"ｸｽｸﾞﾝｸｽﾏﾁ","streetKana":"ﾔﾏｼﾀ","prefecture":"大分県","city":"玖珠郡玖珠町","street":"山下"},{"zipCode":"8794412","prefectureKana":"ｵｵｲﾀｹﾝ","cityKana":"ｸｽｸﾞﾝｸｽﾏﾁ","streetKana":"ﾔﾏﾀﾞ","prefecture":"大分県","city":"玖珠郡玖珠町","street":"山田"},{"zipCode":"8794401","prefectureKana":"ｵｵｲﾀｹﾝ","cityKana":"ｸｽｸﾞﾝｸｽﾏﾁ","streetKana":"ﾖｯｶｲﾁ(1-899ﾊﾞﾝﾁ)","prefecture":"大分県","city":"玖珠郡玖珠町","street":"四日市（１～８９９番地）"},{"zipCode":"8794301","prefectureKana":"ｵｵｲﾀｹﾝ","cityKana":"ｸｽｸﾞﾝｸｽﾏﾁ","streetKana":"ﾖｯｶｲﾁ(ｿﾉﾀ)","prefecture":"大分県","city":"玖珠郡玖珠町","street":"四日市（その他）"}]