[{"zipCode":"8830000","prefectureKana":"ﾐﾔｻﾞｷｹﾝ","cityKana":"ﾋｭｳｶﾞｼ","streetKana":"ｲｶﾆｹｲｻｲｶﾞﾅｲﾊﾞｱｲ","prefecture":"宮崎県","city":"日向市","street":"以下に掲載がない場合"},{"zipCode":"8830003","prefectureKana":"ﾐﾔｻﾞｷｹﾝ","cityKana":"ﾋｭｳｶﾞｼ","streetKana":"ｲｾｶﾞﾊﾏ","prefecture":"宮崎県","city":"日向市","street":"伊勢ケ浜"},{"zipCode":"8830044","prefectureKana":"ﾐﾔｻﾞｷｹﾝ","cityKana":"ﾋｭｳｶﾞｼ","streetKana":"ｳｴﾏﾁ","prefecture":"宮崎県","city":"日向市","street":"上町"},{"zipCode":"8830012","prefectureKana":"ﾐﾔｻﾞｷｹﾝ","cityKana":"ﾋｭｳｶﾞｼ","streetKana":"ｴﾗﾁｮｳ","prefecture":"宮崎県","city":"日向市","street":"江良町"},{"zipCode":"8830053","prefectureKana":"ﾐﾔｻﾞｷｹﾝ","cityKana":"ﾋｭｳｶﾞｼ","streetKana":"ｶｼﾞｷﾁｮｳ","prefecture":"宮崎県","city":"日向市","street":"梶木町"},{"zipCode":"8830066","prefectureKana":"ﾐﾔｻﾞｷｹﾝ","cityKana":"ﾋｭｳｶﾞｼ","streetKana":"ｶﾒｻﾞｷ","prefecture":"宮崎県","city":"日向市","street":"亀崎"},{"zipCode":"8830068","prefectureKana":"ﾐﾔｻﾞｷｹﾝ","cityKana":"ﾋｭｳｶﾞｼ","streetKana":"ｶﾒｻﾞｷﾆｼ","prefecture":"宮崎県","city":"日向市","street":"亀崎西"},{"zipCode":"8830067","prefectureKana":"ﾐﾔｻﾞｷｹﾝ","cityKana":"ﾋｭｳｶﾞｼ","streetKana":"ｶﾒｻﾞｷﾋｶﾞｼ","prefecture":"宮崎県","city":"日向市","street":"亀崎東"},{"zipCode":"8830041","prefectureKana":"ﾐﾔｻﾞｷｹﾝ","cityKana":"ﾋｭｳｶﾞｼ","streetKana":"ｷﾀﾏﾁ","prefecture":"宮崎県","city":"日向市","street":"北町"},{"zipCode":"8830038","prefectureKana":"ﾐﾔｻﾞｷｹﾝ","cityKana":"ﾋｭｳｶﾞｼ","streetKana":"ｹﾞｲﾖｳｴﾝ","prefecture":"宮崎県","city":"日向市","street":"迎洋園"},{"zipCode":"8830021","prefectureKana":"ﾐﾔｻﾞｷｹﾝ","cityKana":"ﾋｭｳｶﾞｼ","streetKana":"ｻﾞｲｺｳｼﾞ","prefecture":"宮崎県","city":"日向市","street":"財光寺"},{"zipCode":"8830024","prefectureKana":"ﾐﾔｻﾞｷｹﾝ","cityKana":"ﾋｭｳｶﾞｼ","streetKana":"ｻﾞｲｺｳｼﾞｵｳｶﾝﾁｮｳ","prefecture":"宮崎県","city":"日向市","street":"財光寺往還町"},{"zipCode":"8830023","prefectureKana":"ﾐﾔｻﾞｷｹﾝ","cityKana":"ﾋｭｳｶﾞｼ","streetKana":"ｻﾞｲｺｳｼﾞｵｷﾏﾁ","prefecture":"宮崎県","city":"日向市","street":"財光寺沖町"},{"zipCode":"8830033","prefectureKana":"ﾐﾔｻﾞｷｹﾝ","cityKana":"ﾋｭｳｶﾞｼ","streetKana":"ｼｵﾐ","prefecture":"宮崎県","city":"日向市","street":"塩見"},{"zipCode":"8830013","prefectureKana":"ﾐﾔｻﾞｷｹﾝ","cityKana":"ﾋｭｳｶﾞｼ","streetKana":"ｼﾝｾｲﾁｮｳ","prefecture":"宮崎県","city":"日向市","street":"新生町"},{"zipCode":"8830011","prefectureKana":"ﾐﾔｻﾞｷｹﾝ","cityKana":"ﾋｭｳｶﾞｼ","streetKana":"ｿﾈﾁｮｳ","prefecture":"宮崎県","city":"日向市","street":"曽根町"},{"zipCode":"8830061","prefectureKana":"ﾐﾔｻﾞｷｹﾝ","cityKana":"ﾋｭｳｶﾞｼ","streetKana":"ﾀﾞｲｵｳﾁｮｳ","prefecture":"宮崎県","city":"日向市","street":"大王町"},{"zipCode":"8830042","prefectureKana":"ﾐﾔｻﾞｷｹﾝ","cityKana":"ﾋｭｳｶﾞｼ","streetKana":"ﾀｶｻｺﾞﾁｮｳ","prefecture":"宮崎県","city":"日向市","street":"高砂町"},{"zipCode":"8830063","prefectureKana":"ﾐﾔｻﾞｷｹﾝ","cityKana":"ﾋｭｳｶﾞｼ","streetKana":"ﾀｹｼﾏﾁｮｳ","prefecture":"宮崎県","city":"日向市","street":"竹島町"},{"zipCode":"8830052","prefectureKana":"ﾐﾔｻﾞｷｹﾝ","cityKana":"ﾋｭｳｶﾞｼ","streetKana":"ﾂﾙﾏﾁ","prefecture":"宮崎県","city":"日向市","street":"鶴町"},{"zipCode":"8830111","prefectureKana":"ﾐﾔｻﾞｷｹﾝ","cityKana":"ﾋｭｳｶﾞｼ","streetKana":"ﾄｳｺﾞｳﾁｮｳｻｺﾉｳﾁ","prefecture":"宮崎県","city":"日向市","street":"東郷町迫野内"},{"zipCode":"8830213","prefectureKana":"ﾐﾔｻﾞｷｹﾝ","cityKana":"ﾋｭｳｶﾞｼ","streetKana":"ﾄｳｺﾞｳﾁｮｳｼﾓｻﾝｹﾞ","prefecture":"宮崎県","city":"日向市","street":"東郷町下三ケ"},{"zipCode":"8830211","prefectureKana":"ﾐﾔｻﾞｷｹﾝ","cityKana":"ﾋｭｳｶﾞｼ","streetKana":"ﾄｳｺﾞｳﾁｮｳﾂﾎﾞﾔ","prefecture":"宮崎県","city":"日向市","street":"東郷町坪谷"},{"zipCode":"8830108","prefectureKana":"ﾐﾔｻﾞｷｹﾝ","cityKana":"ﾋｭｳｶﾞｼ","streetKana":"ﾄｳｺﾞｳﾁｮｳﾊｴﾊﾞﾙ","prefecture":"宮崎県","city":"日向市","street":"東郷町八重原"},{"zipCode":"8830109","prefectureKana":"ﾐﾔｻﾞｷｹﾝ","cityKana":"ﾋｭｳｶﾞｼ","streetKana":"ﾄｳｺﾞｳﾁｮｳﾔﾏｹﾞ","prefecture":"宮崎県","city":"日向市","street":"東郷町山陰"},{"zipCode":"8830101","prefectureKana":"ﾐﾔｻﾞｷｹﾝ","cityKana":"ﾋｭｳｶﾞｼ","streetKana":"ﾄｳｺﾞｳﾁｮｳﾔﾏｹﾞｵﾂ(ｿﾉﾀ)","prefecture":"宮崎県","city":"日向市","street":"東郷町山陰乙（その他）"},{"zipCode":"8830105","prefectureKana":"ﾐﾔｻﾞｷｹﾝ","cityKana":"ﾋｭｳｶﾞｼ","streetKana":"ﾄｳｺﾞｳﾁｮｳﾔﾏｹﾞｷ","prefecture":"宮崎県","city":"日向市","street":"東郷町山陰己"},{"zipCode":"8830107","prefectureKana":"ﾐﾔｻﾞｷｹﾝ","cityKana":"ﾋｭｳｶﾞｼ","streetKana":"ﾄｳｺﾞｳﾁｮｳﾔﾏｹﾞｺｳ","prefecture":"宮崎県","city":"日向市","street":"東郷町山陰庚"},{"zipCode":"8830106","prefectureKana":"ﾐﾔｻﾞｷｹﾝ","cityKana":"ﾋｭｳｶﾞｼ","streetKana":"ﾄｳｺﾞｳﾁｮｳﾔﾏｹﾞｼﾝ","prefecture":"宮崎県","city":"日向市","street":"東郷町山陰辛"},{"zipCode":"8830103","prefectureKana":"ﾐﾔｻﾞｷｹﾝ","cityKana":"ﾋｭｳｶﾞｼ","streetKana":"ﾄｳｺﾞｳﾁｮｳﾔﾏｹﾞﾃｲ","prefecture":"宮崎県","city":"日向市","street":"東郷町山陰丁"},{"zipCode":"8830102","prefectureKana":"ﾐﾔｻﾞｷｹﾝ","cityKana":"ﾋｭｳｶﾞｼ","streetKana":"ﾄｳｺﾞｳﾁｮｳﾔﾏｹﾞﾍｲ","prefecture":"宮崎県","city":"日向市","street":"東郷町山陰丙"},{"zipCode":"8830104","prefectureKana":"ﾐﾔｻﾞｷｹﾝ","cityKana":"ﾋｭｳｶﾞｼ","streetKana":"ﾄｳｺﾞｳﾁｮｳﾔﾏｹﾞﾎﾞ(513ﾉ1ｲﾅｲ)","prefecture":"宮崎県","city":"日向市","street":"東郷町山陰戊（５１３の１以内）"},{"zipCode":"8830212","prefectureKana":"ﾐﾔｻﾞｷｹﾝ","cityKana":"ﾋｭｳｶﾞｼ","streetKana":"ﾄｳｺﾞｳﾁｮｳﾔﾏｹﾞﾎﾞ(ｿﾉﾀ)","prefecture":"宮崎県","city":"日向市","street":"東郷町山陰戊（その他）"},{"zipCode":"8830034","prefectureKana":"ﾐﾔｻﾞｷｹﾝ","cityKana":"ﾋｭｳｶﾞｼ","streetKana":"ﾄﾐﾀｶ","prefecture":"宮崎県","city":"日向市","street":"富高"},{"zipCode":"8830005","prefectureKana":"ﾐﾔｻﾞｷｹﾝ","cityKana":"ﾋｭｳｶﾞｼ","streetKana":"ﾅｶﾎﾘﾁｮｳ","prefecture":"宮崎県","city":"日向市","street":"中堀町"},{"zipCode":"8830046","prefectureKana":"ﾐﾔｻﾞｷｹﾝ","cityKana":"ﾋｭｳｶﾞｼ","streetKana":"ﾅｶﾏﾁ","prefecture":"宮崎県","city":"日向市","street":"中町"},{"zipCode":"8830015","prefectureKana":"ﾐﾔｻﾞｷｹﾝ","cityKana":"ﾋｭｳｶﾞｼ","streetKana":"ﾅｶﾞｴﾁｮｳ","prefecture":"宮崎県","city":"日向市","street":"永江町"},{"zipCode":"8830004","prefectureKana":"ﾐﾔｻﾞｷｹﾝ","cityKana":"ﾋｭｳｶﾞｼ","streetKana":"ﾊﾏﾏﾁ","prefecture":"宮崎県","city":"日向市","street":"浜町"},{"zipCode":"8830014","prefectureKana":"ﾐﾔｻﾞｷｹﾝ","cityKana":"ﾋｭｳｶﾞｼ","streetKana":"ﾊﾗﾏﾁ","prefecture":"宮崎県","city":"日向市","street":"原町"},{"zipCode":"8830035","prefectureKana":"ﾐﾔｻﾞｷｹﾝ","cityKana":"ﾋｭｳｶﾞｼ","streetKana":"ﾊﾙﾊﾗﾁｮｳ","prefecture":"宮崎県","city":"日向市","street":"春原町"},{"zipCode":"8830062","prefectureKana":"ﾐﾔｻﾞｷｹﾝ","cityKana":"ﾋｭｳｶﾞｼ","streetKana":"ﾋﾁﾔ","prefecture":"宮崎県","city":"日向市","street":"日知屋"},{"zipCode":"8830064","prefectureKana":"ﾐﾔｻﾞｷｹﾝ","cityKana":"ﾋｭｳｶﾞｼ","streetKana":"ﾋﾁﾔﾌﾙﾀﾁｮｳ","prefecture":"宮崎県","city":"日向市","street":"日知屋古田町"},{"zipCode":"8830022","prefectureKana":"ﾐﾔｻﾞｷｹﾝ","cityKana":"ﾋｭｳｶﾞｼ","streetKana":"ﾋﾗｲﾜ","prefecture":"宮崎県","city":"日向市","street":"平岩"},{"zipCode":"8830031","prefectureKana":"ﾐﾔｻﾞｷｹﾝ","cityKana":"ﾋｭｳｶﾞｼ","streetKana":"ﾋﾗﾁｮｳ","prefecture":"宮崎県","city":"日向市","street":"比良町"},{"zipCode":"8830002","prefectureKana":"ﾐﾔｻﾞｷｹﾝ","cityKana":"ﾋｭｳｶﾞｼ","streetKana":"ﾋﾗﾉﾁｮｳ","prefecture":"宮崎県","city":"日向市","street":"平野町"},{"zipCode":"8830037","prefectureKana":"ﾐﾔｻﾞｷｹﾝ","cityKana":"ﾋｭｳｶﾞｼ","streetKana":"ﾌﾄﾞｳｼﾞ","prefecture":"宮崎県","city":"日向市","street":"不動寺"},{"zipCode":"8830065","prefectureKana":"ﾐﾔｻﾞｷｹﾝ","cityKana":"ﾋｭｳｶﾞｼ","streetKana":"ﾌﾅﾊﾞﾁｮｳ","prefecture":"宮崎県","city":"日向市","street":"船場町"},{"zipCode":"8830001","prefectureKana":"ﾐﾔｻﾞｷｹﾝ","cityKana":"ﾋｭｳｶﾞｼ","streetKana":"ﾎｿｼﾏ","prefecture":"宮崎県","city":"日向市","street":"細島"},{"zipCode":"8830045","prefectureKana":"ﾐﾔｻﾞｷｹﾝ","cityKana":"ﾋｭｳｶﾞｼ","streetKana":"ﾎﾝﾏﾁ","prefecture":"宮崎県","city":"日向市","street":"本町"},{"zipCode":"8830036","prefectureKana":"ﾐﾔｻﾞｷｹﾝ","cityKana":"ﾋｭｳｶﾞｼ","streetKana":"ﾐﾅﾐﾏﾁ","prefecture":"宮崎県","city":"日向市","street":"南町"},{"zipCode":"8830043","prefectureKana":"ﾐﾔｻﾞｷｹﾝ","cityKana":"ﾋｭｳｶﾞｼ","streetKana":"ﾐﾔｺﾏﾁ","prefecture":"宮崎県","city":"日向市","street":"都町"},{"zipCode":"8830051","prefectureKana":"ﾐﾔｻﾞｷｹﾝ","cityKana":"ﾋｭｳｶﾞｼ","streetKana":"ﾑｶｴﾁｮｳ","prefecture":"宮崎県","city":"日向市","street":"向江町"},{"zipCode":"8830032","prefectureKana":"ﾐﾔｻﾞｷｹﾝ","cityKana":"ﾋｭｳｶﾞｼ","streetKana":"ﾔﾏｼﾀﾁｮｳ","prefecture":"宮崎県","city":"日向市","street":"山下町"},{"zipCode":"8830006","prefectureKana":"ﾐﾔｻﾞｷｹﾝ","cityKana":"ﾋｭｳｶﾞｼ","streetKana":"ﾔﾏﾃﾁｮｳ","prefecture":"宮崎県","city":"日向市","street":"山手町"},{"zipCode":"8831300","prefectureKana":"ﾐﾔｻﾞｷｹﾝ","cityKana":"ﾋｶﾞｼｳｽｷｸﾞﾝﾓﾛﾂｶｿﾝ","streetKana":"ｲｶﾆｹｲｻｲｶﾞﾅｲﾊﾞｱｲ","prefecture":"宮崎県","city":"東臼杵郡諸塚村","street":"以下に掲載がない場合"},{"zipCode":"8831301","prefectureKana":"ﾐﾔｻﾞｷｹﾝ","cityKana":"ﾋｶﾞｼｳｽｷｸﾞﾝﾓﾛﾂｶｿﾝ","streetKana":"ｴｼﾛ","prefecture":"宮崎県","city":"東臼杵郡諸塚村","street":"家代"},{"zipCode":"8831402","prefectureKana":"ﾐﾔｻﾞｷｹﾝ","cityKana":"ﾋｶﾞｼｳｽｷｸﾞﾝﾓﾛﾂｶｿﾝ","streetKana":"ﾅﾅﾂﾔﾏ(ｲｲﾎﾞｼ､ｵﾊﾞﾗｲ､ｶﾜｳﾁ､ﾀﾃｲﾜ､ﾊｴﾉﾋﾗ､ﾎﾝﾑﾗ)","prefecture":"宮崎県","city":"東臼杵郡諸塚村","street":"七ツ山（飯干、小原井、川内、立岩、八重の平、本村）"},{"zipCode":"8831302","prefectureKana":"ﾐﾔｻﾞｷｹﾝ","cityKana":"ﾋｶﾞｼｳｽｷｸﾞﾝﾓﾛﾂｶｿﾝ","streetKana":"ﾅﾅﾂﾔﾏ(ｿﾉﾀ)","prefecture":"宮崎県","city":"東臼杵郡諸塚村","street":"七ツ山（その他）"},{"zipCode":"8831600","prefectureKana":"ﾐﾔｻﾞｷｹﾝ","cityKana":"ﾋｶﾞｼｳｽｷｸﾞﾝｼｲﾊﾞｿﾝ","streetKana":"ｲｶﾆｹｲｻｲｶﾞﾅｲﾊﾞｱｲ","prefecture":"宮崎県","city":"東臼杵郡椎葉村","street":"以下に掲載がない場合"},{"zipCode":"8830402","prefectureKana":"ﾐﾔｻﾞｷｹﾝ","cityKana":"ﾋｶﾞｼｳｽｷｸﾞﾝｼｲﾊﾞｿﾝ","streetKana":"ｵｵｶﾜｳﾁ(1-1302ﾊﾞﾝﾁ)","prefecture":"宮崎県","city":"東臼杵郡椎葉村","street":"大河内（１～１３０２番地）"},{"zipCode":"8831602","prefectureKana":"ﾐﾔｻﾞｷｹﾝ","cityKana":"ﾋｶﾞｼｳｽｷｸﾞﾝｼｲﾊﾞｿﾝ","streetKana":"ｵｵｶﾜｳﾁ(ｿﾉﾀ)","prefecture":"宮崎県","city":"東臼杵郡椎葉村","street":"大河内（その他）"},{"zipCode":"8831601","prefectureKana":"ﾐﾔｻﾞｷｹﾝ","cityKana":"ﾋｶﾞｼｳｽｷｸﾞﾝｼｲﾊﾞｿﾝ","streetKana":"ｼﾓﾌｸﾗ","prefecture":"宮崎県","city":"東臼杵郡椎葉村","street":"下福良"},{"zipCode":"8831603","prefectureKana":"ﾐﾔｻﾞｷｹﾝ","cityKana":"ﾋｶﾞｼｳｽｷｸﾞﾝｼｲﾊﾞｿﾝ","streetKana":"ﾌﾄﾞﾉ","prefecture":"宮崎県","city":"東臼杵郡椎葉村","street":"不土野"},{"zipCode":"8831604","prefectureKana":"ﾐﾔｻﾞｷｹﾝ","cityKana":"ﾋｶﾞｼｳｽｷｸﾞﾝｼｲﾊﾞｿﾝ","streetKana":"ﾏﾂｵ","prefecture":"宮崎県","city":"東臼杵郡椎葉村","street":"松尾"},{"zipCode":"8831100","prefectureKana":"ﾐﾔｻﾞｷｹﾝ","cityKana":"ﾋｶﾞｼｳｽｷｸﾞﾝﾐｻﾄﾁｮｳ","streetKana":"ｲｶﾆｹｲｻｲｶﾞﾅｲﾊﾞｱｲ","prefecture":"宮崎県","city":"東臼杵郡美郷町","street":"以下に掲載がない場合"},{"zipCode":"8831212","prefectureKana":"ﾐﾔｻﾞｷｹﾝ","cityKana":"ﾋｶﾞｼｳｽｷｸﾞﾝﾐｻﾄﾁｮｳ","streetKana":"ｻｲｺﾞｳｵﾊﾞﾙ","prefecture":"宮崎県","city":"東臼杵郡美郷町","street":"西郷小原"},{"zipCode":"8831101","prefectureKana":"ﾐﾔｻﾞｷｹﾝ","cityKana":"ﾋｶﾞｼｳｽｷｸﾞﾝﾐｻﾄﾁｮｳ","streetKana":"ｻｲｺﾞｳﾀｼﾛ","prefecture":"宮崎県","city":"東臼杵郡美郷町","street":"西郷田代"},{"zipCode":"8831102","prefectureKana":"ﾐﾔｻﾞｷｹﾝ","cityKana":"ﾋｶﾞｼｳｽｷｸﾞﾝﾐｻﾄﾁｮｳ","streetKana":"ｻｲｺﾞｳﾀﾃｲｼ","prefecture":"宮崎県","city":"東臼杵郡美郷町","street":"西郷立石"},{"zipCode":"8831211","prefectureKana":"ﾐﾔｻﾞｷｹﾝ","cityKana":"ﾋｶﾞｼｳｽｷｸﾞﾝﾐｻﾄﾁｮｳ","streetKana":"ｻｲｺﾞｳﾔﾏｻﾝｶﾞ","prefecture":"宮崎県","city":"東臼杵郡美郷町","street":"西郷山三ヶ"},{"zipCode":"8830303","prefectureKana":"ﾐﾔｻﾞｷｹﾝ","cityKana":"ﾋｶﾞｼｳｽｷｸﾞﾝﾐｻﾄﾁｮｳ","streetKana":"ﾅﾝｺﾞｳｶﾐﾄﾞｶﾞﾜ","prefecture":"宮崎県","city":"東臼杵郡美郷町","street":"南郷上渡川"},{"zipCode":"8830304","prefectureKana":"ﾐﾔｻﾞｷｹﾝ","cityKana":"ﾋｶﾞｼｳｽｷｸﾞﾝﾐｻﾄﾁｮｳ","streetKana":"ﾅﾝｺﾞｳｷｼﾞﾉ","prefecture":"宮崎県","city":"東臼杵郡美郷町","street":"南郷鬼神野"},{"zipCode":"8830302","prefectureKana":"ﾐﾔｻﾞｷｹﾝ","cityKana":"ﾋｶﾞｼｳｽｷｸﾞﾝﾐｻﾄﾁｮｳ","streetKana":"ﾅﾝｺﾞｳﾅｶﾄﾞｶﾞﾜ","prefecture":"宮崎県","city":"東臼杵郡美郷町","street":"南郷中渡川"},{"zipCode":"8830306","prefectureKana":"ﾐﾔｻﾞｷｹﾝ","cityKana":"ﾋｶﾞｼｳｽｷｸﾞﾝﾐｻﾄﾁｮｳ","streetKana":"ﾅﾝｺﾞｳﾐｶﾄﾞ","prefecture":"宮崎県","city":"東臼杵郡美郷町","street":"南郷神門"},{"zipCode":"8830301","prefectureKana":"ﾐﾔｻﾞｷｹﾝ","cityKana":"ﾋｶﾞｼｳｽｷｸﾞﾝﾐｻﾄﾁｮｳ","streetKana":"ﾅﾝｺﾞｳﾐｽﾞｼﾀﾞﾆ","prefecture":"宮崎県","city":"東臼杵郡美郷町","street":"南郷水清谷"},{"zipCode":"8830305","prefectureKana":"ﾐﾔｻﾞｷｹﾝ","cityKana":"ﾋｶﾞｼｳｽｷｸﾞﾝﾐｻﾄﾁｮｳ","streetKana":"ﾅﾝｺﾞｳﾔﾏｻﾝｶﾞ","prefecture":"宮崎県","city":"東臼杵郡美郷町","street":"南郷山三ヶ"}]