[{"zipCode":"8930000","prefectureKana":"ｶｺﾞｼﾏｹﾝ","cityKana":"ｶﾉﾔｼ","streetKana":"ｲｶﾆｹｲｻｲｶﾞﾅｲﾊﾞｱｲ","prefecture":"鹿児島県","city":"鹿屋市","street":"以下に掲載がない場合"},{"zipCode":"8931101","prefectureKana":"ｶｺﾞｼﾏｹﾝ","cityKana":"ｶﾉﾔｼ","streetKana":"ｱｲﾗﾁｮｳｶﾐﾐｮｳ","prefecture":"鹿児島県","city":"鹿屋市","street":"吾平町上名"},{"zipCode":"8931102","prefectureKana":"ｶｺﾞｼﾏｹﾝ","cityKana":"ｶﾉﾔｼ","streetKana":"ｱｲﾗﾁｮｳｼﾓﾐｮｳ","prefecture":"鹿児島県","city":"鹿屋市","street":"吾平町下名"},{"zipCode":"8931103","prefectureKana":"ｶｺﾞｼﾏｹﾝ","cityKana":"ｶﾉﾔｼ","streetKana":"ｱｲﾗﾁｮｳﾌﾓﾄ","prefecture":"鹿児島県","city":"鹿屋市","street":"吾平町麓"},{"zipCode":"8930022","prefectureKana":"ｶｺﾞｼﾏｹﾝ","cityKana":"ｶﾉﾔｼ","streetKana":"ｱｻﾋﾊﾞﾙﾁｮｳ","prefecture":"鹿児島県","city":"鹿屋市","street":"旭原町"},{"zipCode":"8930004","prefectureKana":"ｶｺﾞｼﾏｹﾝ","cityKana":"ｶﾉﾔｼ","streetKana":"ｱｻﾋﾏﾁ","prefecture":"鹿児島県","city":"鹿屋市","street":"朝日町"},{"zipCode":"8930035","prefectureKana":"ｶｺﾞｼﾏｹﾝ","cityKana":"ｶﾉﾔｼ","streetKana":"ｲｲｸﾏﾁｮｳ","prefecture":"鹿児島県","city":"鹿屋市","street":"飯隈町"},{"zipCode":"8930042","prefectureKana":"ｶｺﾞｼﾏｹﾝ","cityKana":"ｶﾉﾔｼ","streetKana":"ｲｹｿﾞﾉﾁｮｳ","prefecture":"鹿児島県","city":"鹿屋市","street":"池園町"},{"zipCode":"8930057","prefectureKana":"ｶｺﾞｼﾏｹﾝ","cityKana":"ｶﾉﾔｼ","streetKana":"ｲﾏｻｶﾁｮｳ","prefecture":"鹿児島県","city":"鹿屋市","street":"今坂町"},{"zipCode":"8930056","prefectureKana":"ｶｺﾞｼﾏｹﾝ","cityKana":"ｶﾉﾔｼ","streetKana":"ｳｴﾉﾁｮｳ","prefecture":"鹿児島県","city":"鹿屋市","street":"上野町"},{"zipCode":"8930011","prefectureKana":"ｶｺﾞｼﾏｹﾝ","cityKana":"ｶﾉﾔｼ","streetKana":"ｳﾂﾏ","prefecture":"鹿児島県","city":"鹿屋市","street":"打馬"},{"zipCode":"8930012","prefectureKana":"ｶｺﾞｼﾏｹﾝ","cityKana":"ｶﾉﾔｼ","streetKana":"ｵｳｼﾞﾁｮｳ","prefecture":"鹿児島県","city":"鹿屋市","street":"王子町"},{"zipCode":"8930051","prefectureKana":"ｶｺﾞｼﾏｹﾝ","cityKana":"ｶﾉﾔｼ","streetKana":"ｵｵｱｲﾗﾁｮｳ","prefecture":"鹿児島県","city":"鹿屋市","street":"大姶良町"},{"zipCode":"8930067","prefectureKana":"ｶｺﾞｼﾏｹﾝ","cityKana":"ｶﾉﾔｼ","streetKana":"ｵｵｳﾗﾁｮｳ","prefecture":"鹿児島県","city":"鹿屋市","street":"大浦町"},{"zipCode":"8930009","prefectureKana":"ｶｺﾞｼﾏｹﾝ","cityKana":"ｶﾉﾔｼ","streetKana":"ｵｵﾃﾏﾁ","prefecture":"鹿児島県","city":"鹿屋市","street":"大手町"},{"zipCode":"8930023","prefectureKana":"ｶｺﾞｼﾏｹﾝ","cityKana":"ｶﾉﾔｼ","streetKana":"ｶｻﾉﾊﾗﾁｮｳ","prefecture":"鹿児島県","city":"鹿屋市","street":"笠之原町"},{"zipCode":"8930131","prefectureKana":"ｶｺﾞｼﾏｹﾝ","cityKana":"ｶﾉﾔｼ","streetKana":"ｶﾐﾀｶｸﾏﾁｮｳ","prefecture":"鹿児島県","city":"鹿屋市","street":"上高隈町"},{"zipCode":"8930061","prefectureKana":"ｶｺﾞｼﾏｹﾝ","cityKana":"ｶﾉﾔｼ","streetKana":"ｶﾐﾀﾞﾆﾁｮｳ","prefecture":"鹿児島県","city":"鹿屋市","street":"上谷町"},{"zipCode":"8930027","prefectureKana":"ｶｺﾞｼﾏｹﾝ","cityKana":"ｶﾉﾔｼ","streetKana":"ｶﾐﾊﾗｲｶﾞﾜﾁｮｳ","prefecture":"鹿児島県","city":"鹿屋市","street":"上祓川町"},{"zipCode":"8930032","prefectureKana":"ｶｺﾞｼﾏｹﾝ","cityKana":"ｶﾉﾔｼ","streetKana":"ｶﾜﾆｼﾁｮｳ","prefecture":"鹿児島県","city":"鹿屋市","street":"川西町"},{"zipCode":"8930031","prefectureKana":"ｶｺﾞｼﾏｹﾝ","cityKana":"ｶﾉﾔｼ","streetKana":"ｶﾜﾋｶﾞｼﾁｮｳ","prefecture":"鹿児島県","city":"鹿屋市","street":"川東町"},{"zipCode":"8930007","prefectureKana":"ｶｺﾞｼﾏｹﾝ","cityKana":"ｶﾉﾔｼ","streetKana":"ｷﾀﾀﾞﾁｮｳ","prefecture":"鹿児島県","city":"鹿屋市","street":"北田町"},{"zipCode":"8930201","prefectureKana":"ｶｺﾞｼﾏｹﾝ","cityKana":"ｶﾉﾔｼ","streetKana":"ｷﾎｸﾁｮｳｶﾐﾓﾋﾞｷ","prefecture":"鹿児島県","city":"鹿屋市","street":"輝北町上百引"},{"zipCode":"8930202","prefectureKana":"ｶｺﾞｼﾏｹﾝ","cityKana":"ｶﾉﾔｼ","streetKana":"ｷﾎｸﾁｮｳｼﾓﾓﾋﾞｷ","prefecture":"鹿児島県","city":"鹿屋市","street":"輝北町下百引"},{"zipCode":"8930203","prefectureKana":"ｶｺﾞｼﾏｹﾝ","cityKana":"ｶﾉﾔｼ","streetKana":"ｷﾎｸﾁｮｳﾋﾗﾎﾞｳ","prefecture":"鹿児島県","city":"鹿屋市","street":"輝北町平房"},{"zipCode":"8930005","prefectureKana":"ｶｺﾞｼﾏｹﾝ","cityKana":"ｶﾉﾔｼ","streetKana":"ｷｮｳｴｲﾁｮｳ","prefecture":"鹿児島県","city":"鹿屋市","street":"共栄町"},{"zipCode":"8931602","prefectureKana":"ｶｺﾞｼﾏｹﾝ","cityKana":"ｶﾉﾔｼ","streetKana":"ｸｼﾗﾁｮｳｱﾘｻﾄ","prefecture":"鹿児島県","city":"鹿屋市","street":"串良町有里"},{"zipCode":"8931603","prefectureKana":"ｶｺﾞｼﾏｹﾝ","cityKana":"ｶﾉﾔｼ","streetKana":"ｸｼﾗﾁｮｳｵｶｻｷ","prefecture":"鹿児島県","city":"鹿屋市","street":"串良町岡崎"},{"zipCode":"8931605","prefectureKana":"ｶｺﾞｼﾏｹﾝ","cityKana":"ｶﾉﾔｼ","streetKana":"ｸｼﾗﾁｮｳｶﾐｵﾊﾞﾙ","prefecture":"鹿児島県","city":"鹿屋市","street":"串良町上小原"},{"zipCode":"8931604","prefectureKana":"ｶｺﾞｼﾏｹﾝ","cityKana":"ｶﾉﾔｼ","streetKana":"ｸｼﾗﾁｮｳｼﾓｵﾊﾞﾙ","prefecture":"鹿児島県","city":"鹿屋市","street":"串良町下小原"},{"zipCode":"8931601","prefectureKana":"ｶｺﾞｼﾏｹﾝ","cityKana":"ｶﾉﾔｼ","streetKana":"ｸｼﾗﾁｮｳﾎｿﾔﾏﾀﾞ","prefecture":"鹿児島県","city":"鹿屋市","street":"串良町細山田"},{"zipCode":"8930065","prefectureKana":"ｶｺﾞｼﾏｹﾝ","cityKana":"ｶﾉﾔｼ","streetKana":"ｺﾞｳﾉﾊﾗﾁｮｳ","prefecture":"鹿児島県","city":"鹿屋市","street":"郷之原町"},{"zipCode":"8930001","prefectureKana":"ｶｺﾞｼﾏｹﾝ","cityKana":"ｶﾉﾔｼ","streetKana":"ｺｾﾝｼﾞｮｳﾁｮｳ","prefecture":"鹿児島県","city":"鹿屋市","street":"古前城町"},{"zipCode":"8930014","prefectureKana":"ｶｺﾞｼﾏｹﾝ","cityKana":"ｶﾉﾔｼ","streetKana":"ｺﾄﾌﾞｷ","prefecture":"鹿児島県","city":"鹿屋市","street":"寿"},{"zipCode":"8930044","prefectureKana":"ｶｺﾞｼﾏｹﾝ","cityKana":"ｶﾉﾔｼ","streetKana":"ｼｼﾒﾁｮｳ","prefecture":"鹿児島県","city":"鹿屋市","street":"獅子目町"},{"zipCode":"8930132","prefectureKana":"ｶｺﾞｼﾏｹﾝ","cityKana":"ｶﾉﾔｼ","streetKana":"ｼﾓﾀｶｸﾏﾁｮｳ","prefecture":"鹿児島県","city":"鹿屋市","street":"下高隈町"},{"zipCode":"8930024","prefectureKana":"ｶｺﾞｼﾏｹﾝ","cityKana":"ｶﾉﾔｼ","streetKana":"ｼﾓﾊﾗｲｶﾞﾜﾁｮｳ","prefecture":"鹿児島県","city":"鹿屋市","street":"下祓川町"},{"zipCode":"8930047","prefectureKana":"ｶｺﾞｼﾏｹﾝ","cityKana":"ｶﾉﾔｼ","streetKana":"ｼﾓﾎﾘﾁｮｳ","prefecture":"鹿児島県","city":"鹿屋市","street":"下堀町"},{"zipCode":"8930016","prefectureKana":"ｶｺﾞｼﾏｹﾝ","cityKana":"ｶﾉﾔｼ","streetKana":"ｼﾗｻｷﾁｮｳ","prefecture":"鹿児島県","city":"鹿屋市","street":"白崎町"},{"zipCode":"8930063","prefectureKana":"ｶｺﾞｼﾏｹﾝ","cityKana":"ｶﾉﾔｼ","streetKana":"ｼﾝｴｲﾁｮｳ","prefecture":"鹿児島県","city":"鹿屋市","street":"新栄町"},{"zipCode":"8930015","prefectureKana":"ｶｺﾞｼﾏｹﾝ","cityKana":"ｶﾉﾔｼ","streetKana":"ｼﾝｶﾜﾁｮｳ","prefecture":"鹿児島県","city":"鹿屋市","street":"新川町"},{"zipCode":"8930062","prefectureKana":"ｶｺﾞｼﾏｹﾝ","cityKana":"ｶﾉﾔｼ","streetKana":"ｼﾝｾｲﾁｮｳ","prefecture":"鹿児島県","city":"鹿屋市","street":"新生町"},{"zipCode":"8930003","prefectureKana":"ｶｺﾞｼﾏｹﾝ","cityKana":"ｶﾉﾔｼ","streetKana":"ｿﾀﾞﾁｮｳ","prefecture":"鹿児島県","city":"鹿屋市","street":"曽田町"},{"zipCode":"8930054","prefectureKana":"ｶｺﾞｼﾏｹﾝ","cityKana":"ｶﾉﾔｼ","streetKana":"ﾀｶｽﾁｮｳ","prefecture":"鹿児島県","city":"鹿屋市","street":"高須町"},{"zipCode":"8930066","prefectureKana":"ｶｺﾞｼﾏｹﾝ","cityKana":"ｶﾉﾔｼ","streetKana":"ﾀｶﾏｷﾁｮｳ","prefecture":"鹿児島県","city":"鹿屋市","street":"高牧町"},{"zipCode":"8930037","prefectureKana":"ｶｺﾞｼﾏｹﾝ","cityKana":"ｶﾉﾔｼ","streetKana":"ﾀｻｷﾁｮｳ","prefecture":"鹿児島県","city":"鹿屋市","street":"田崎町"},{"zipCode":"8930045","prefectureKana":"ｶｺﾞｼﾏｹﾝ","cityKana":"ｶﾉﾔｼ","streetKana":"ﾀﾌﾞﾁﾁｮｳ","prefecture":"鹿児島県","city":"鹿屋市","street":"田淵町"},{"zipCode":"8930052","prefectureKana":"ｶｺﾞｼﾏｹﾝ","cityKana":"ｶﾉﾔｼ","streetKana":"ﾅｶﾞｵﾊﾞﾙﾁｮｳ","prefecture":"鹿児島県","city":"鹿屋市","street":"永小原町"},{"zipCode":"8930033","prefectureKana":"ｶｺﾞｼﾏｹﾝ","cityKana":"ｶﾉﾔｼ","streetKana":"ﾅｶﾞﾉﾀﾞﾁｮｳ","prefecture":"鹿児島県","city":"鹿屋市","street":"永野田町"},{"zipCode":"8930034","prefectureKana":"ｶｺﾞｼﾏｹﾝ","cityKana":"ｶﾉﾔｼ","streetKana":"ﾅﾇｷﾁｮｳ","prefecture":"鹿児島県","city":"鹿屋市","street":"名貫町"},{"zipCode":"8930008","prefectureKana":"ｶｺﾞｼﾏｹﾝ","cityKana":"ｶﾉﾔｼ","streetKana":"ﾆｼｵｵﾃﾏﾁ","prefecture":"鹿児島県","city":"鹿屋市","street":"西大手町"},{"zipCode":"8930064","prefectureKana":"ｶｺﾞｼﾏｹﾝ","cityKana":"ｶﾉﾔｼ","streetKana":"ﾆｼﾊﾗ","prefecture":"鹿児島県","city":"鹿屋市","street":"西原"},{"zipCode":"8930025","prefectureKana":"ｶｺﾞｼﾏｹﾝ","cityKana":"ｶﾉﾔｼ","streetKana":"ﾆｼﾊﾗｲｶﾞﾜﾁｮｳ","prefecture":"鹿児島県","city":"鹿屋市","street":"西祓川町"},{"zipCode":"8930055","prefectureKana":"ｶｺﾞｼﾏｹﾝ","cityKana":"ｶﾉﾔｼ","streetKana":"ﾉｻﾞﾄﾁｮｳ","prefecture":"鹿児島県","city":"鹿屋市","street":"野里町"},{"zipCode":"8930036","prefectureKana":"ｶｺﾞｼﾏｹﾝ","cityKana":"ｶﾉﾔｼ","streetKana":"ﾊｷﾞﾂｶﾁｮｳ","prefecture":"鹿児島県","city":"鹿屋市","street":"萩塚町"},{"zipCode":"8930053","prefectureKana":"ｶｺﾞｼﾏｹﾝ","cityKana":"ｶﾉﾔｼ","streetKana":"ﾊﾏﾀﾞﾁｮｳ","prefecture":"鹿児島県","city":"鹿屋市","street":"浜田町"},{"zipCode":"8930026","prefectureKana":"ｶｺﾞｼﾏｹﾝ","cityKana":"ｶﾉﾔｼ","streetKana":"ﾊﾗｲｶﾞﾜﾁｮｳ","prefecture":"鹿児島県","city":"鹿屋市","street":"祓川町"},{"zipCode":"8930021","prefectureKana":"ｶｺﾞｼﾏｹﾝ","cityKana":"ｶﾉﾔｼ","streetKana":"ﾋｶﾞｼﾊﾞﾙﾁｮｳ","prefecture":"鹿児島県","city":"鹿屋市","street":"東原町"},{"zipCode":"8930013","prefectureKana":"ｶｺﾞｼﾏｹﾝ","cityKana":"ｶﾉﾔｼ","streetKana":"ﾌﾀﾞﾓﾄ","prefecture":"鹿児島県","city":"鹿屋市","street":"札元"},{"zipCode":"8930041","prefectureKana":"ｶｺﾞｼﾏｹﾝ","cityKana":"ｶﾉﾔｼ","streetKana":"ﾎｼﾂﾞｶﾁｮｳ","prefecture":"鹿児島県","city":"鹿屋市","street":"星塚町"},{"zipCode":"8930002","prefectureKana":"ｶｺﾞｼﾏｹﾝ","cityKana":"ｶﾉﾔｼ","streetKana":"ﾎﾝﾏﾁ","prefecture":"鹿児島県","city":"鹿屋市","street":"本町"},{"zipCode":"8930043","prefectureKana":"ｶｺﾞｼﾏｹﾝ","cityKana":"ｶﾉﾔｼ","streetKana":"ﾐﾅﾐﾁｮｳ","prefecture":"鹿児島県","city":"鹿屋市","street":"南町"},{"zipCode":"8930006","prefectureKana":"ｶｺﾞｼﾏｹﾝ","cityKana":"ｶﾉﾔｼ","streetKana":"ﾑｶｴﾁｮｳ","prefecture":"鹿児島県","city":"鹿屋市","street":"向江町"},{"zipCode":"8930046","prefectureKana":"ｶｺﾞｼﾏｹﾝ","cityKana":"ｶﾉﾔｼ","streetKana":"ﾖｺﾔﾏﾁｮｳ","prefecture":"鹿児島県","city":"鹿屋市","street":"横山町"},{"zipCode":"8931600","prefectureKana":"ｶｺﾞｼﾏｹﾝ","cityKana":"ｷﾓﾂｷｸﾞﾝﾋｶﾞｼｸｼﾗﾁｮｳ","streetKana":"ｲｶﾆｹｲｻｲｶﾞﾅｲﾊﾞｱｲ","prefecture":"鹿児島県","city":"肝属郡東串良町","street":"以下に掲載がない場合"},{"zipCode":"8931612","prefectureKana":"ｶｺﾞｼﾏｹﾝ","cityKana":"ｷﾓﾂｷｸﾞﾝﾋｶﾞｼｸｼﾗﾁｮｳ","streetKana":"ｲｹﾉﾊﾗ","prefecture":"鹿児島県","city":"肝属郡東串良町","street":"池之原"},{"zipCode":"8931611","prefectureKana":"ｶｺﾞｼﾏｹﾝ","cityKana":"ｷﾓﾂｷｸﾞﾝﾋｶﾞｼｸｼﾗﾁｮｳ","streetKana":"ｲﾜﾋﾛ","prefecture":"鹿児島県","city":"肝属郡東串良町","street":"岩弘"},{"zipCode":"8931615","prefectureKana":"ｶｺﾞｼﾏｹﾝ","cityKana":"ｷﾓﾂｷｸﾞﾝﾋｶﾞｼｸｼﾗﾁｮｳ","streetKana":"ｶﾜﾋｶﾞｼ","prefecture":"鹿児島県","city":"肝属郡東串良町","street":"川東"},{"zipCode":"8931613","prefectureKana":"ｶｺﾞｼﾏｹﾝ","cityKana":"ｷﾓﾂｷｸﾞﾝﾋｶﾞｼｸｼﾗﾁｮｳ","streetKana":"ｶﾜﾆｼ","prefecture":"鹿児島県","city":"肝属郡東串良町","street":"川西"},{"zipCode":"8931614","prefectureKana":"ｶｺﾞｼﾏｹﾝ","cityKana":"ｷﾓﾂｷｸﾞﾝﾋｶﾞｼｸｼﾗﾁｮｳ","streetKana":"ｼﾝｶﾜﾆｼ","prefecture":"鹿児島県","city":"肝属郡東串良町","street":"新川西"},{"zipCode":"8932300","prefectureKana":"ｶｺﾞｼﾏｹﾝ","cityKana":"ｷﾓﾂｷｸﾞﾝｷﾝｺｳﾁｮｳ","streetKana":"ｲｶﾆｹｲｻｲｶﾞﾅｲﾊﾞｱｲ","prefecture":"鹿児島県","city":"肝属郡錦江町","street":"以下に掲載がない場合"},{"zipCode":"8932301","prefectureKana":"ｶｺﾞｼﾏｹﾝ","cityKana":"ｷﾓﾂｷｸﾞﾝｷﾝｺｳﾁｮｳ","streetKana":"ｶﾐｶﾜ","prefecture":"鹿児島県","city":"肝属郡錦江町","street":"神川"},{"zipCode":"8932302","prefectureKana":"ｶｺﾞｼﾏｹﾝ","cityKana":"ｷﾓﾂｷｸﾞﾝｷﾝｺｳﾁｮｳ","streetKana":"ｼﾛﾓﾄ","prefecture":"鹿児島県","city":"肝属郡錦江町","street":"城元"},{"zipCode":"8932402","prefectureKana":"ｶｺﾞｼﾏｹﾝ","cityKana":"ｷﾓﾂｷｸﾞﾝｷﾝｺｳﾁｮｳ","streetKana":"ﾀｼﾛｶﾜﾊﾗ","prefecture":"鹿児島県","city":"肝属郡錦江町","street":"田代川原"},{"zipCode":"8932401","prefectureKana":"ｶｺﾞｼﾏｹﾝ","cityKana":"ｷﾓﾂｷｸﾞﾝｷﾝｺｳﾁｮｳ","streetKana":"ﾀｼﾛﾌﾓﾄ","prefecture":"鹿児島県","city":"肝属郡錦江町","street":"田代麓"},{"zipCode":"8932303","prefectureKana":"ｶｺﾞｼﾏｹﾝ","cityKana":"ｷﾓﾂｷｸﾞﾝｷﾝｺｳﾁｮｳ","streetKana":"ﾊﾞﾊﾞ","prefecture":"鹿児島県","city":"肝属郡錦江町","street":"馬場"},{"zipCode":"8932500","prefectureKana":"ｶｺﾞｼﾏｹﾝ","cityKana":"ｷﾓﾂｷｸﾞﾝﾐﾅﾐｵｵｽﾐﾁｮｳ","streetKana":"ｲｶﾆｹｲｻｲｶﾞﾅｲﾊﾞｱｲ","prefecture":"鹿児島県","city":"肝属郡南大隅町","street":"以下に掲載がない場合"},{"zipCode":"8932601","prefectureKana":"ｶｺﾞｼﾏｹﾝ","cityKana":"ｷﾓﾂｷｸﾞﾝﾐﾅﾐｵｵｽﾐﾁｮｳ","streetKana":"ｻﾀｲｻﾞｼｷ","prefecture":"鹿児島県","city":"肝属郡南大隅町","street":"佐多伊座敷"},{"zipCode":"8932603","prefectureKana":"ｶｺﾞｼﾏｹﾝ","cityKana":"ｷﾓﾂｷｸﾞﾝﾐﾅﾐｵｵｽﾐﾁｮｳ","streetKana":"ｻﾀｺｵﾘ","prefecture":"鹿児島県","city":"肝属郡南大隅町","street":"佐多郡"},{"zipCode":"8932602","prefectureKana":"ｶｺﾞｼﾏｹﾝ","cityKana":"ｷﾓﾂｷｸﾞﾝﾐﾅﾐｵｵｽﾐﾁｮｳ","streetKana":"ｻﾀﾍﾂｶ","prefecture":"鹿児島県","city":"肝属郡南大隅町","street":"佐多辺塚"},{"zipCode":"8932604","prefectureKana":"ｶｺﾞｼﾏｹﾝ","cityKana":"ｷﾓﾂｷｸﾞﾝﾐﾅﾐｵｵｽﾐﾁｮｳ","streetKana":"ｻﾀﾏｺﾞﾒ","prefecture":"鹿児島県","city":"肝属郡南大隅町","street":"佐多馬籠"},{"zipCode":"8932501","prefectureKana":"ｶｺﾞｼﾏｹﾝ","cityKana":"ｷﾓﾂｷｸﾞﾝﾐﾅﾐｵｵｽﾐﾁｮｳ","streetKana":"ﾈｼﾞﾒｶﾜｷﾀ","prefecture":"鹿児島県","city":"肝属郡南大隅町","street":"根占川北"},{"zipCode":"8932502","prefectureKana":"ｶｺﾞｼﾏｹﾝ","cityKana":"ｷﾓﾂｷｸﾞﾝﾐﾅﾐｵｵｽﾐﾁｮｳ","streetKana":"ﾈｼﾞﾒｶﾜﾐﾅﾐ","prefecture":"鹿児島県","city":"肝属郡南大隅町","street":"根占川南"},{"zipCode":"8932505","prefectureKana":"ｶｺﾞｼﾏｹﾝ","cityKana":"ｷﾓﾂｷｸﾞﾝﾐﾅﾐｵｵｽﾐﾁｮｳ","streetKana":"ﾈｼﾞﾒﾍﾀ","prefecture":"鹿児島県","city":"肝属郡南大隅町","street":"根占辺田"},{"zipCode":"8932504","prefectureKana":"ｶｺﾞｼﾏｹﾝ","cityKana":"ｷﾓﾂｷｸﾞﾝﾐﾅﾐｵｵｽﾐﾁｮｳ","streetKana":"ﾈｼﾞﾒﾔﾏﾓﾄ","prefecture":"鹿児島県","city":"肝属郡南大隅町","street":"根占山本"},{"zipCode":"8932503","prefectureKana":"ｶｺﾞｼﾏｹﾝ","cityKana":"ｷﾓﾂｷｸﾞﾝﾐﾅﾐｵｵｽﾐﾁｮｳ","streetKana":"ﾈｼﾞﾒﾖｺﾍﾞｯﾌﾟ","prefecture":"鹿児島県","city":"肝属郡南大隅町","street":"根占横別府"},{"zipCode":"8931200","prefectureKana":"ｶｺﾞｼﾏｹﾝ","cityKana":"ｷﾓﾂｷｸﾞﾝｷﾓﾂｷﾁｮｳ","streetKana":"ｲｶﾆｹｲｻｲｶﾞﾅｲﾊﾞｱｲ","prefecture":"鹿児島県","city":"肝属郡肝付町","street":"以下に掲載がない場合"},{"zipCode":"8931203","prefectureKana":"ｶｺﾞｼﾏｹﾝ","cityKana":"ｷﾓﾂｷｸﾞﾝｷﾓﾂｷﾁｮｳ","streetKana":"ｳｼﾛﾀﾞ","prefecture":"鹿児島県","city":"肝属郡肝付町","street":"後田"},{"zipCode":"8931511","prefectureKana":"ｶｺﾞｼﾏｹﾝ","cityKana":"ｷﾓﾂｷｸﾞﾝｷﾓﾂｷﾁｮｳ","streetKana":"ｷｼﾗ","prefecture":"鹿児島県","city":"肝属郡肝付町","street":"岸良"},{"zipCode":"8931401","prefectureKana":"ｶｺﾞｼﾏｹﾝ","cityKana":"ｷﾓﾂｷｸﾞﾝｷﾓﾂｷﾁｮｳ","streetKana":"ｷﾀｶﾀ","prefecture":"鹿児島県","city":"肝属郡肝付町","street":"北方"},{"zipCode":"8931204","prefectureKana":"ｶｺﾞｼﾏｹﾝ","cityKana":"ｷﾓﾂｷｸﾞﾝｷﾓﾂｷﾁｮｳ","streetKana":"ﾄﾐﾔﾏ","prefecture":"鹿児島県","city":"肝属郡肝付町","street":"富山"},{"zipCode":"8931207","prefectureKana":"ｶｺﾞｼﾏｹﾝ","cityKana":"ｷﾓﾂｷｸﾞﾝｷﾓﾂｷﾁｮｳ","streetKana":"ﾆｲﾄﾐ","prefecture":"鹿児島県","city":"肝属郡肝付町","street":"新富"},{"zipCode":"8931201","prefectureKana":"ｶｺﾞｼﾏｹﾝ","cityKana":"ｷﾓﾂｷｸﾞﾝｷﾓﾂｷﾁｮｳ","streetKana":"ﾉｻｷ","prefecture":"鹿児島県","city":"肝属郡肝付町","street":"野崎"},{"zipCode":"8931202","prefectureKana":"ｶｺﾞｼﾏｹﾝ","cityKana":"ｷﾓﾂｷｸﾞﾝｷﾓﾂｷﾁｮｳ","streetKana":"ﾊﾐ","prefecture":"鹿児島県","city":"肝属郡肝付町","street":"波見"},{"zipCode":"8931206","prefectureKana":"ｶｺﾞｼﾏｹﾝ","cityKana":"ｷﾓﾂｷｸﾞﾝｷﾓﾂｷﾁｮｳ","streetKana":"ﾏｴﾀﾞ","prefecture":"鹿児島県","city":"肝属郡肝付町","street":"前田"},{"zipCode":"8931402","prefectureKana":"ｶｺﾞｼﾏｹﾝ","cityKana":"ｷﾓﾂｷｸﾞﾝｷﾓﾂｷﾁｮｳ","streetKana":"ﾐﾅﾐｶﾀ","prefecture":"鹿児島県","city":"肝属郡肝付町","street":"南方"},{"zipCode":"8931205","prefectureKana":"ｶｺﾞｼﾏｹﾝ","cityKana":"ｷﾓﾂｷｸﾞﾝｷﾓﾂｷﾁｮｳ","streetKana":"ﾐﾔｹﾞ","prefecture":"鹿児島県","city":"肝属郡肝付町","street":"宮下"}]