[{"zipCode":"8992701","prefectureKana":"ｶｺﾞｼﾏｹﾝ","cityKana":"ｶｺﾞｼﾏｼ","streetKana":"ｲｼﾀﾞﾆﾁｮｳ","prefecture":"鹿児島県","city":"鹿児島市","street":"石谷町"},{"zipCode":"8993206","prefectureKana":"ｶｺﾞｼﾏｹﾝ","cityKana":"ｶｺﾞｼﾏｼ","streetKana":"ｲﾘｻﾁｮｳ(1738､1739ﾊﾞﾝﾁ)","prefecture":"鹿児島県","city":"鹿児島市","street":"入佐町（１７３８、１７３９番地）"},{"zipCode":"8992706","prefectureKana":"ｶｺﾞｼﾏｹﾝ","cityKana":"ｶｺﾞｼﾏｼ","streetKana":"ｲﾘｻﾁｮｳ(ｿﾉﾀ)","prefecture":"鹿児島県","city":"鹿児島市","street":"入佐町（その他）"},{"zipCode":"8992703","prefectureKana":"ｶｺﾞｼﾏｹﾝ","cityKana":"ｶｺﾞｼﾏｼ","streetKana":"ｶﾐﾀﾆｸﾞﾁﾁｮｳ","prefecture":"鹿児島県","city":"鹿児島市","street":"上谷口町"},{"zipCode":"8992531","prefectureKana":"ｶｺﾞｼﾏｹﾝ","cityKana":"ｶｺﾞｼﾏｼ","streetKana":"ｺﾔﾏﾀﾞﾁｮｳ(5199､5200､5205ﾊﾞﾝﾁ)","prefecture":"鹿児島県","city":"鹿児島市","street":"小山田町（５１９９、５２００、５２０５番地）"},{"zipCode":"8992707","prefectureKana":"ｶｺﾞｼﾏｹﾝ","cityKana":"ｶｺﾞｼﾏｼ","streetKana":"ｼｮｳﾖｳﾀﾞｲﾁｮｳ","prefecture":"鹿児島県","city":"鹿児島市","street":"松陽台町"},{"zipCode":"8992705","prefectureKana":"ｶｺﾞｼﾏｹﾝ","cityKana":"ｶｺﾞｼﾏｼ","streetKana":"ﾅｵｷﾁｮｳ","prefecture":"鹿児島県","city":"鹿児島市","street":"直木町"},{"zipCode":"8992704","prefectureKana":"ｶｺﾞｼﾏｹﾝ","cityKana":"ｶｺﾞｼﾏｼ","streetKana":"ﾊﾙﾔﾏﾁｮｳ","prefecture":"鹿児島県","city":"鹿児島市","street":"春山町"},{"zipCode":"8992709","prefectureKana":"ｶｺﾞｼﾏｹﾝ","cityKana":"ｶｺﾞｼﾏｼ","streetKana":"ﾋﾗﾀﾁｮｳ","prefecture":"鹿児島県","city":"鹿児島市","street":"平田町"},{"zipCode":"8992702","prefectureKana":"ｶｺﾞｼﾏｹﾝ","cityKana":"ｶｺﾞｼﾏｼ","streetKana":"ﾌｸﾔﾏﾁｮｳ","prefecture":"鹿児島県","city":"鹿児島市","street":"福山町"},{"zipCode":"8992708","prefectureKana":"ｶｺﾞｼﾏｹﾝ","cityKana":"ｶｺﾞｼﾏｼ","streetKana":"ﾖﾂﾓﾄﾁｮｳ","prefecture":"鹿児島県","city":"鹿児島市","street":"四元町"},{"zipCode":"8998511","prefectureKana":"ｶｺﾞｼﾏｹﾝ","cityKana":"ｶﾉﾔｼ","streetKana":"ｷﾎｸﾁｮｳｲﾁﾅﾘ","prefecture":"鹿児島県","city":"鹿屋市","street":"輝北町市成"},{"zipCode":"8998512","prefectureKana":"ｶｺﾞｼﾏｹﾝ","cityKana":"ｶﾉﾔｼ","streetKana":"ｷﾎｸﾁｮｳｽﾜﾊﾞﾗ","prefecture":"鹿児島県","city":"鹿屋市","street":"輝北町諏訪原"},{"zipCode":"8991600","prefectureKana":"ｶｺﾞｼﾏｹﾝ","cityKana":"ｱｸﾈｼ","streetKana":"ｲｶﾆｹｲｻｲｶﾞﾅｲﾊﾞｱｲ","prefecture":"鹿児島県","city":"阿久根市","street":"以下に掲載がない場合"},{"zipCode":"8991611","prefectureKana":"ｶｺﾞｼﾏｹﾝ","cityKana":"ｱｸﾈｼ","streetKana":"ｱｶｾｶﾞﾜ","prefecture":"鹿児島県","city":"阿久根市","street":"赤瀬川"},{"zipCode":"8991741","prefectureKana":"ｶｺﾞｼﾏｹﾝ","cityKana":"ｱｸﾈｼ","streetKana":"ｵｵｶﾜ","prefecture":"鹿児島県","city":"阿久根市","street":"大川"},{"zipCode":"8991624","prefectureKana":"ｶｺﾞｼﾏｹﾝ","cityKana":"ｱｸﾈｼ","streetKana":"ｵｵﾏﾙﾁｮｳ","prefecture":"鹿児島県","city":"阿久根市","street":"大丸町"},{"zipCode":"8991601","prefectureKana":"ｶｺﾞｼﾏｹﾝ","cityKana":"ｱｸﾈｼ","streetKana":"ｵﾘｸﾞﾁ","prefecture":"鹿児島県","city":"阿久根市","street":"折口"},{"zipCode":"8991615","prefectureKana":"ｶｺﾞｼﾏｹﾝ","cityKana":"ｱｸﾈｼ","streetKana":"ｺﾄﾋﾗﾁｮｳ","prefecture":"鹿児島県","city":"阿久根市","street":"琴平町"},{"zipCode":"8991616","prefectureKana":"ｶｺﾞｼﾏｹﾝ","cityKana":"ｱｸﾈｼ","streetKana":"ｻｶｴﾏﾁ","prefecture":"鹿児島県","city":"阿久根市","street":"栄町"},{"zipCode":"8991628","prefectureKana":"ｶｺﾞｼﾏｹﾝ","cityKana":"ｱｸﾈｼ","streetKana":"ｼｵﾂﾙﾁｮｳ","prefecture":"鹿児島県","city":"阿久根市","street":"塩鶴町"},{"zipCode":"8991629","prefectureKana":"ｶｺﾞｼﾏｹﾝ","cityKana":"ｱｸﾈｼ","streetKana":"ｼｵﾊﾏﾁｮｳ","prefecture":"鹿児島県","city":"阿久根市","street":"塩浜町"},{"zipCode":"8991613","prefectureKana":"ｶｺﾞｼﾏｹﾝ","cityKana":"ｱｸﾈｼ","streetKana":"ｼﾝﾏﾁ","prefecture":"鹿児島県","city":"阿久根市","street":"新町"},{"zipCode":"8991622","prefectureKana":"ｶｺﾞｼﾏｹﾝ","cityKana":"ｱｸﾈｼ","streetKana":"ﾀｶﾏﾂﾁｮｳ","prefecture":"鹿児島県","city":"阿久根市","street":"高松町"},{"zipCode":"8991602","prefectureKana":"ｶｺﾞｼﾏｹﾝ","cityKana":"ｱｸﾈｼ","streetKana":"ﾀﾀﾞ","prefecture":"鹿児島県","city":"阿久根市","street":"多田"},{"zipCode":"8991603","prefectureKana":"ｶｺﾞｼﾏｹﾝ","cityKana":"ｱｸﾈｼ","streetKana":"ﾂﾙｶﾞﾜｳﾁ","prefecture":"鹿児島県","city":"阿久根市","street":"鶴川内"},{"zipCode":"8991626","prefectureKana":"ｶｺﾞｼﾏｹﾝ","cityKana":"ｱｸﾈｼ","streetKana":"ﾂﾙﾐﾁｮｳ","prefecture":"鹿児島県","city":"阿久根市","street":"鶴見町"},{"zipCode":"8991627","prefectureKana":"ｶｺﾞｼﾏｹﾝ","cityKana":"ｱｸﾈｼ","streetKana":"ﾆｼﾒ","prefecture":"鹿児島県","city":"阿久根市","street":"西目"},{"zipCode":"8991617","prefectureKana":"ｶｺﾞｼﾏｹﾝ","cityKana":"ｱｸﾈｼ","streetKana":"ﾊﾏﾏﾁ","prefecture":"鹿児島県","city":"阿久根市","street":"浜町"},{"zipCode":"8991625","prefectureKana":"ｶｺﾞｼﾏｹﾝ","cityKana":"ｱｸﾈｼ","streetKana":"ﾊﾙ","prefecture":"鹿児島県","city":"阿久根市","street":"波留"},{"zipCode":"8991614","prefectureKana":"ｶｺﾞｼﾏｹﾝ","cityKana":"ｱｸﾈｼ","streetKana":"ﾊﾙﾐﾁｮｳ","prefecture":"鹿児島県","city":"阿久根市","street":"晴海町"},{"zipCode":"8991621","prefectureKana":"ｶｺﾞｼﾏｹﾝ","cityKana":"ｱｸﾈｼ","streetKana":"ﾎﾝﾏﾁ","prefecture":"鹿児島県","city":"阿久根市","street":"本町"},{"zipCode":"8991612","prefectureKana":"ｶｺﾞｼﾏｹﾝ","cityKana":"ｱｸﾈｼ","streetKana":"ﾏﾙｵﾁｮｳ","prefecture":"鹿児島県","city":"阿久根市","street":"丸尾町"},{"zipCode":"8991623","prefectureKana":"ｶｺﾞｼﾏｹﾝ","cityKana":"ｱｸﾈｼ","streetKana":"ﾐﾅﾄﾏﾁ","prefecture":"鹿児島県","city":"阿久根市","street":"港町"},{"zipCode":"8991604","prefectureKana":"ｶｺﾞｼﾏｹﾝ","cityKana":"ｱｸﾈｼ","streetKana":"ﾔﾏｼﾀ","prefecture":"鹿児島県","city":"阿久根市","street":"山下"},{"zipCode":"8991131","prefectureKana":"ｶｺﾞｼﾏｹﾝ","cityKana":"ｱｸﾈｼ","streetKana":"ﾜｷﾓﾄ","prefecture":"鹿児島県","city":"阿久根市","street":"脇本"},{"zipCode":"8990200","prefectureKana":"ｶｺﾞｼﾏｹﾝ","cityKana":"ｲｽﾞﾐｼ","streetKana":"ｲｶﾆｹｲｻｲｶﾞﾅｲﾊﾞｱｲ","prefecture":"鹿児島県","city":"出水市","street":"以下に掲載がない場合"},{"zipCode":"8990137","prefectureKana":"ｶｺﾞｼﾏｹﾝ","cityKana":"ｲｽﾞﾐｼ","streetKana":"ｲﾏｶﾞﾏﾁｮｳ","prefecture":"鹿児島県","city":"出水市","street":"今釜町"},{"zipCode":"8990134","prefectureKana":"ｶｺﾞｼﾏｹﾝ","cityKana":"ｲｽﾞﾐｼ","streetKana":"ｳﾗﾀﾁｮｳ","prefecture":"鹿児島県","city":"出水市","street":"浦田町"},{"zipCode":"8990216","prefectureKana":"ｶｺﾞｼﾏｹﾝ","cityKana":"ｲｽﾞﾐｼ","streetKana":"ｵｵﾉﾊﾗﾁｮｳ","prefecture":"鹿児島県","city":"出水市","street":"大野原町"},{"zipCode":"8990341","prefectureKana":"ｶｺﾞｼﾏｹﾝ","cityKana":"ｲｽﾞﾐｼ","streetKana":"ｶﾐｵｵｶﾜｳﾁ","prefecture":"鹿児島県","city":"出水市","street":"上大川内"},{"zipCode":"8990203","prefectureKana":"ｶｺﾞｼﾏｹﾝ","cityKana":"ｲｽﾞﾐｼ","streetKana":"ｶﾐｻﾊﾞﾌﾞﾁ","prefecture":"鹿児島県","city":"出水市","street":"上鯖渕"},{"zipCode":"8990212","prefectureKana":"ｶｺﾞｼﾏｹﾝ","cityKana":"ｲｽﾞﾐｼ","streetKana":"ｶﾐﾁｼｷﾁｮｳ","prefecture":"鹿児島県","city":"出水市","street":"上知識町"},{"zipCode":"8990125","prefectureKana":"ｶｺﾞｼﾏｹﾝ","cityKana":"ｲｽﾞﾐｼ","streetKana":"ｺｶﾞﾈﾏﾁ","prefecture":"鹿児島県","city":"出水市","street":"黄金町"},{"zipCode":"8990214","prefectureKana":"ｶｺﾞｼﾏｹﾝ","cityKana":"ｲｽﾞﾐｼ","streetKana":"ｺﾞﾏﾝｺﾞｸﾁｮｳ","prefecture":"鹿児島県","city":"出水市","street":"五万石町"},{"zipCode":"8990121","prefectureKana":"ｶｺﾞｼﾏｹﾝ","cityKana":"ｲｽﾞﾐｼ","streetKana":"ｺﾒﾉﾂﾏﾁ","prefecture":"鹿児島県","city":"出水市","street":"米ノ津町"},{"zipCode":"8990122","prefectureKana":"ｶｺﾞｼﾏｹﾝ","cityKana":"ｲｽﾞﾐｼ","streetKana":"ｻｶｲﾁｮｳ","prefecture":"鹿児島県","city":"出水市","street":"境町"},{"zipCode":"8990136","prefectureKana":"ｶｺﾞｼﾏｹﾝ","cityKana":"ｲｽﾞﾐｼ","streetKana":"ｼｵﾐﾁｮｳ","prefecture":"鹿児島県","city":"出水市","street":"汐見町"},{"zipCode":"8990342","prefectureKana":"ｶｺﾞｼﾏｹﾝ","cityKana":"ｲｽﾞﾐｼ","streetKana":"ｼﾓｵｵｶﾜｳﾁ","prefecture":"鹿児島県","city":"出水市","street":"下大川内"},{"zipCode":"8990123","prefectureKana":"ｶｺﾞｼﾏｹﾝ","cityKana":"ｲｽﾞﾐｼ","streetKana":"ｼﾓｻﾊﾞﾁｮｳ","prefecture":"鹿児島県","city":"出水市","street":"下鯖町"},{"zipCode":"8990132","prefectureKana":"ｶｺﾞｼﾏｹﾝ","cityKana":"ｲｽﾞﾐｼ","streetKana":"ｼﾓﾁｼｷﾁｮｳ","prefecture":"鹿児島県","city":"出水市","street":"下知識町"},{"zipCode":"8990435","prefectureKana":"ｶｺﾞｼﾏｹﾝ","cityKana":"ｲｽﾞﾐｼ","streetKana":"ｼｮｳ","prefecture":"鹿児島県","city":"出水市","street":"荘"},{"zipCode":"8990202","prefectureKana":"ｶｺﾞｼﾏｹﾝ","cityKana":"ｲｽﾞﾐｼ","streetKana":"ｼｮｳﾜﾏﾁ","prefecture":"鹿児島県","city":"出水市","street":"昭和町"},{"zipCode":"8990138","prefectureKana":"ｶｺﾞｼﾏｹﾝ","cityKana":"ｲｽﾞﾐｼ","streetKana":"ｽﾐﾖｼﾁｮｳ","prefecture":"鹿児島県","city":"出水市","street":"住吉町"},{"zipCode":"8990407","prefectureKana":"ｶｺﾞｼﾏｹﾝ","cityKana":"ｲｽﾞﾐｼ","streetKana":"ﾀｶｵﾉﾏﾁｴｳﾁ","prefecture":"鹿児島県","city":"出水市","street":"高尾野町江内"},{"zipCode":"8990401","prefectureKana":"ｶｺﾞｼﾏｹﾝ","cityKana":"ｲｽﾞﾐｼ","streetKana":"ﾀｶｵﾉﾏﾁｵｵｸﾎﾞ","prefecture":"鹿児島県","city":"出水市","street":"高尾野町大久保"},{"zipCode":"8990406","prefectureKana":"ｶｺﾞｼﾏｹﾝ","cityKana":"ｲｽﾞﾐｼ","streetKana":"ﾀｶｵﾉﾏﾁｶﾐｽﾞﾙ","prefecture":"鹿児島県","city":"出水市","street":"高尾野町上水流"},{"zipCode":"8990403","prefectureKana":"ｶｺﾞｼﾏｹﾝ","cityKana":"ｲｽﾞﾐｼ","streetKana":"ﾀｶｵﾉﾏﾁｶﾗｶﾞｻｷ","prefecture":"鹿児島県","city":"出水市","street":"高尾野町唐笠木"},{"zipCode":"8990402","prefectureKana":"ｶｺﾞｼﾏｹﾝ","cityKana":"ｲｽﾞﾐｼ","streetKana":"ﾀｶｵﾉﾏﾁｼﾊﾞﾋｷ","prefecture":"鹿児島県","city":"出水市","street":"高尾野町柴引"},{"zipCode":"8990405","prefectureKana":"ｶｺﾞｼﾏｹﾝ","cityKana":"ｲｽﾞﾐｼ","streetKana":"ﾀｶｵﾉﾏﾁｼﾓｽﾞﾙ","prefecture":"鹿児島県","city":"出水市","street":"高尾野町下水流"},{"zipCode":"8990404","prefectureKana":"ｶｺﾞｼﾏｹﾝ","cityKana":"ｲｽﾞﾐｼ","streetKana":"ﾀｶｵﾉﾏﾁｼﾓﾀｶｵﾉ","prefecture":"鹿児島県","city":"出水市","street":"高尾野町下高尾野"},{"zipCode":"8990215","prefectureKana":"ｶｺﾞｼﾏｹﾝ","cityKana":"ｲｽﾞﾐｼ","streetKana":"ﾀｹﾓﾄ","prefecture":"鹿児島県","city":"出水市","street":"武本"},{"zipCode":"8990211","prefectureKana":"ｶｺﾞｼﾏｹﾝ","cityKana":"ｲｽﾞﾐｼ","streetKana":"ﾁｼｷﾁｮｳ","prefecture":"鹿児島県","city":"出水市","street":"知識町"},{"zipCode":"8990207","prefectureKana":"ｶｺﾞｼﾏｹﾝ","cityKana":"ｲｽﾞﾐｼ","streetKana":"ﾁｭｳｵｳﾁｮｳ","prefecture":"鹿児島県","city":"出水市","street":"中央町"},{"zipCode":"8990213","prefectureKana":"ｶｺﾞｼﾏｹﾝ","cityKana":"ｲｽﾞﾐｼ","streetKana":"ﾆｼｲｽﾞﾐﾁｮｳ","prefecture":"鹿児島県","city":"出水市","street":"西出水町"},{"zipCode":"8990501","prefectureKana":"ｶｺﾞｼﾏｹﾝ","cityKana":"ｲｽﾞﾐｼ","streetKana":"ﾉﾀﾞﾁｮｳｶﾐﾐｮｳ","prefecture":"鹿児島県","city":"出水市","street":"野田町上名"},{"zipCode":"8990502","prefectureKana":"ｶｺﾞｼﾏｹﾝ","cityKana":"ｲｽﾞﾐｼ","streetKana":"ﾉﾀﾞﾁｮｳｼﾓﾐｮｳ","prefecture":"鹿児島県","city":"出水市","street":"野田町下名"},{"zipCode":"8990133","prefectureKana":"ｶｺﾞｼﾏｹﾝ","cityKana":"ｲｽﾞﾐｼ","streetKana":"ﾌｸﾉｴﾁｮｳ","prefecture":"鹿児島県","city":"出水市","street":"福ノ江町"},{"zipCode":"8990204","prefectureKana":"ｶｺﾞｼﾏｹﾝ","cityKana":"ｲｽﾞﾐｼ","streetKana":"ﾌﾓﾄﾁｮｳ","prefecture":"鹿児島県","city":"出水市","street":"麓町"},{"zipCode":"8990208","prefectureKana":"ｶｺﾞｼﾏｹﾝ","cityKana":"ｲｽﾞﾐｼ","streetKana":"ﾌﾞﾝｶﾁｮｳ","prefecture":"鹿児島県","city":"出水市","street":"文化町"},{"zipCode":"8990217","prefectureKana":"ｶｺﾞｼﾏｹﾝ","cityKana":"ｲｽﾞﾐｼ","streetKana":"ﾍｲﾜﾁｮｳ","prefecture":"鹿児島県","city":"出水市","street":"平和町"},{"zipCode":"8990205","prefectureKana":"ｶｺﾞｼﾏｹﾝ","cityKana":"ｲｽﾞﾐｼ","streetKana":"ﾎﾝﾏﾁ","prefecture":"鹿児島県","city":"出水市","street":"本町"},{"zipCode":"8990201","prefectureKana":"ｶｺﾞｼﾏｹﾝ","cityKana":"ｲｽﾞﾐｼ","streetKana":"ﾐﾄﾞﾘﾏﾁ","prefecture":"鹿児島県","city":"出水市","street":"緑町"},{"zipCode":"8990124","prefectureKana":"ｶｺﾞｼﾏｹﾝ","cityKana":"ｲｽﾞﾐｼ","streetKana":"ﾐﾊﾗﾁｮｳ","prefecture":"鹿児島県","city":"出水市","street":"美原町"},{"zipCode":"8990131","prefectureKana":"ｶｺﾞｼﾏｹﾝ","cityKana":"ｲｽﾞﾐｼ","streetKana":"ﾐｮｳｼﾞﾝﾁｮｳ","prefecture":"鹿児島県","city":"出水市","street":"明神町"},{"zipCode":"8990206","prefectureKana":"ｶｺﾞｼﾏｹﾝ","cityKana":"ｲｽﾞﾐｼ","streetKana":"ﾑｶｴﾏﾁ","prefecture":"鹿児島県","city":"出水市","street":"向江町"},{"zipCode":"8990126","prefectureKana":"ｶｺﾞｼﾏｹﾝ","cityKana":"ｲｽﾞﾐｼ","streetKana":"ﾛｸｶﾞﾂﾀﾞﾏﾁ","prefecture":"鹿児島県","city":"出水市","street":"六月田町"},{"zipCode":"8994631","prefectureKana":"ｶｺﾞｼﾏｹﾝ","cityKana":"ﾀﾙﾐｽﾞｼ","streetKana":"ｳｼﾈｻｶｲ","prefecture":"鹿児島県","city":"垂水市","street":"牛根境"},{"zipCode":"8994632","prefectureKana":"ｶｺﾞｼﾏｹﾝ","cityKana":"ﾀﾙﾐｽﾞｼ","streetKana":"ｳｼﾈﾌﾓﾄ","prefecture":"鹿児島県","city":"垂水市","street":"牛根麓"},{"zipCode":"8994633","prefectureKana":"ｶｺﾞｼﾏｹﾝ","cityKana":"ﾀﾙﾐｽﾞｼ","streetKana":"ﾌﾀｶﾞﾜ","prefecture":"鹿児島県","city":"垂水市","street":"二川"},{"zipCode":"8991925","prefectureKana":"ｶｺﾞｼﾏｹﾝ","cityKana":"ｻﾂﾏｾﾝﾀﾞｲｼ","streetKana":"ｵｳﾂﾞﾁｮｳ","prefecture":"鹿児島県","city":"薩摩川内市","street":"網津町"},{"zipCode":"8991922","prefectureKana":"ｶｺﾞｼﾏｹﾝ","cityKana":"ｻﾂﾏｾﾝﾀﾞｲｼ","streetKana":"ｺｸﾗﾁｮｳ","prefecture":"鹿児島県","city":"薩摩川内市","street":"小倉町"},{"zipCode":"8991801","prefectureKana":"ｶｺﾞｼﾏｹﾝ","cityKana":"ｻﾂﾏｾﾝﾀﾞｲｼ","streetKana":"ﾆｼｶﾀﾁｮｳ","prefecture":"鹿児島県","city":"薩摩川内市","street":"西方町"},{"zipCode":"8991921","prefectureKana":"ｶｺﾞｼﾏｹﾝ","cityKana":"ｻﾂﾏｾﾝﾀﾞｲｼ","streetKana":"ﾐｽﾞﾋｷﾁｮｳ","prefecture":"鹿児島県","city":"薩摩川内市","street":"水引町"},{"zipCode":"8991924","prefectureKana":"ｶｺﾞｼﾏｹﾝ","cityKana":"ｻﾂﾏｾﾝﾀﾞｲｼ","streetKana":"ﾐﾅﾄﾁｮｳ","prefecture":"鹿児島県","city":"薩摩川内市","street":"港町"},{"zipCode":"8991923","prefectureKana":"ｶｺﾞｼﾏｹﾝ","cityKana":"ｻﾂﾏｾﾝﾀﾞｲｼ","streetKana":"ﾕｼﾏﾁｮｳ","prefecture":"鹿児島県","city":"薩摩川内市","street":"湯島町"},{"zipCode":"8991802","prefectureKana":"ｶｺﾞｼﾏｹﾝ","cityKana":"ｻﾂﾏｾﾝﾀﾞｲｼ","streetKana":"ﾕﾀﾞﾁｮｳ","prefecture":"鹿児島県","city":"薩摩川内市","street":"湯田町"},{"zipCode":"8992500","prefectureKana":"ｶｺﾞｼﾏｹﾝ","cityKana":"ﾋｵｷｼ","streetKana":"ｲｶﾆｹｲｻｲｶﾞﾅｲﾊﾞｱｲ","prefecture":"鹿児島県","city":"日置市","street":"以下に掲載がない場合"},{"zipCode":"8992522","prefectureKana":"ｶｺﾞｼﾏｹﾝ","cityKana":"ﾋｵｷｼ","streetKana":"ｲｼﾞｭｳｲﾝﾁｮｳｲｲﾑﾚ","prefecture":"鹿児島県","city":"日置市","street":"伊集院町飯牟礼"},{"zipCode":"8992505","prefectureKana":"ｶｺﾞｼﾏｹﾝ","cityKana":"ﾋｵｷｼ","streetKana":"ｲｼﾞｭｳｲﾝﾁｮｳｲｶﾞｸﾗ","prefecture":"鹿児島県","city":"日置市","street":"伊集院町猪鹿倉"},{"zipCode":"8993121","prefectureKana":"ｶｺﾞｼﾏｹﾝ","cityKana":"ﾋｵｷｼ","streetKana":"ｲｼﾞｭｳｲﾝﾁｮｳｵｵﾀ(ｸｷﾉﾉｲｼﾂﾞｶ)","prefecture":"鹿児島県","city":"日置市","street":"伊集院町大田（久木野々石塚）"},{"zipCode":"8992521","prefectureKana":"ｶｺﾞｼﾏｹﾝ","cityKana":"ﾋｵｷｼ","streetKana":"ｲｼﾞｭｳｲﾝﾁｮｳｵｵﾀ(ｿﾉﾀ)","prefecture":"鹿児島県","city":"日置市","street":"伊集院町大田（その他）"},{"zipCode":"8992512","prefectureKana":"ｶｺﾞｼﾏｹﾝ","cityKana":"ﾋｵｷｼ","streetKana":"ｲｼﾞｭｳｲﾝﾁｮｳｶﾐｺｳﾄﾞﾉ","prefecture":"鹿児島県","city":"日置市","street":"伊集院町上神殿"},{"zipCode":"8992506","prefectureKana":"ｶｺﾞｼﾏｹﾝ","cityKana":"ﾋｵｷｼ","streetKana":"ｲｼﾞｭｳｲﾝﾁｮｳｷﾖﾌｼﾞ","prefecture":"鹿児島県","city":"日置市","street":"伊集院町清藤"},{"zipCode":"8992441","prefectureKana":"ｶｺﾞｼﾏｹﾝ","cityKana":"ﾋｵｷｼ","streetKana":"ｲｼﾞｭｳｲﾝﾁｮｳｸﾜﾊﾞﾀ","prefecture":"鹿児島県","city":"日置市","street":"伊集院町桑畑"},{"zipCode":"8992524","prefectureKana":"ｶｺﾞｼﾏｹﾝ","cityKana":"ﾋｵｷｼ","streetKana":"ｲｼﾞｭｳｲﾝﾁｮｳｺｲﾉﾊﾗ","prefecture":"鹿児島県","city":"日置市","street":"伊集院町恋之原"},{"zipCode":"8992504","prefectureKana":"ｶｺﾞｼﾏｹﾝ","cityKana":"ﾋｵｷｼ","streetKana":"ｲｼﾞｭｳｲﾝﾁｮｳｺｵﾘ","prefecture":"鹿児島県","city":"日置市","street":"伊集院町郡"},{"zipCode":"8992511","prefectureKana":"ｶｺﾞｼﾏｹﾝ","cityKana":"ﾋｵｷｼ","streetKana":"ｲｼﾞｭｳｲﾝﾁｮｳｼﾓｺｳﾄﾞﾉ","prefecture":"鹿児島県","city":"日置市","street":"伊集院町下神殿"},{"zipCode":"8992501","prefectureKana":"ｶｺﾞｼﾏｹﾝ","cityKana":"ﾋｵｷｼ","streetKana":"ｲｼﾞｭｳｲﾝﾁｮｳｼﾓﾀﾆｸﾞﾁ","prefecture":"鹿児島県","city":"日置市","street":"伊集院町下谷口"},{"zipCode":"8992515","prefectureKana":"ｶｺﾞｼﾏｹﾝ","cityKana":"ﾋｵｷｼ","streetKana":"ｲｼﾞｭｳｲﾝﾁｮｳﾀｹﾉﾔﾏ","prefecture":"鹿児島県","city":"日置市","street":"伊集院町竹之山"},{"zipCode":"8992516","prefectureKana":"ｶｺﾞｼﾏｹﾝ","cityKana":"ﾋｵｷｼ","streetKana":"ｲｼﾞｭｳｲﾝﾁｮｳﾂﾁﾊﾞｼ","prefecture":"鹿児島県","city":"日置市","street":"伊集院町土橋"},{"zipCode":"8992443","prefectureKana":"ｶｺﾞｼﾏｹﾝ","cityKana":"ﾋｵｷｼ","streetKana":"ｲｼﾞｭｳｲﾝﾁｮｳﾃﾗﾜｷ","prefecture":"鹿児島県","city":"日置市","street":"伊集院町寺脇"},{"zipCode":"8992502","prefectureKana":"ｶｺﾞｼﾏｹﾝ","cityKana":"ﾋｵｷｼ","streetKana":"ｲｼﾞｭｳｲﾝﾁｮｳﾄｸｼｹﾞ","prefecture":"鹿児島県","city":"日置市","street":"伊集院町徳重"},{"zipCode":"8992514","prefectureKana":"ｶｺﾞｼﾏｹﾝ","cityKana":"ﾋｵｷｼ","streetKana":"ｲｼﾞｭｳｲﾝﾁｮｳﾅｶｶﾞﾜ","prefecture":"鹿児島県","city":"日置市","street":"伊集院町中川"},{"zipCode":"8992442","prefectureKana":"ｶｺﾞｼﾏｹﾝ","cityKana":"ﾋｵｷｼ","streetKana":"ｲｼﾞｭｳｲﾝﾁｮｳﾉﾀﾞ","prefecture":"鹿児島県","city":"日置市","street":"伊集院町野田"},{"zipCode":"8992523","prefectureKana":"ｶｺﾞｼﾏｹﾝ","cityKana":"ﾋｵｷｼ","streetKana":"ｲｼﾞｭｳｲﾝﾁｮｳﾌﾙｼﾞｮｳ","prefecture":"鹿児島県","city":"日置市","street":"伊集院町古城"},{"zipCode":"8992503","prefectureKana":"ｶｺﾞｼﾏｹﾝ","cityKana":"ﾋｵｷｼ","streetKana":"ｲｼﾞｭｳｲﾝﾁｮｳﾐｮｳｴﾝｼﾞ","prefecture":"鹿児島県","city":"日置市","street":"伊集院町妙円寺"},{"zipCode":"8992513","prefectureKana":"ｶｺﾞｼﾏｹﾝ","cityKana":"ﾋｵｷｼ","streetKana":"ｲｼﾞｭｳｲﾝﾁｮｳﾑｷﾞｳﾀﾞ","prefecture":"鹿児島県","city":"日置市","street":"伊集院町麦生田"},{"zipCode":"8992203","prefectureKana":"ｶｺﾞｼﾏｹﾝ","cityKana":"ﾋｵｷｼ","streetKana":"ﾋｶﾞｼｲﾁｷﾁｮｳｲｻﾞｸﾀﾞ","prefecture":"鹿児島県","city":"日置市","street":"東市来町伊作田"},{"zipCode":"8992204","prefectureKana":"ｶｺﾞｼﾏｹﾝ","cityKana":"ﾋｵｷｼ","streetKana":"ﾋｶﾞｼｲﾁｷﾁｮｳｶﾐﾉｶﾜ","prefecture":"鹿児島県","city":"日置市","street":"東市来町神之川"},{"zipCode":"8992432","prefectureKana":"ｶｺﾞｼﾏｹﾝ","cityKana":"ﾋｵｷｼ","streetKana":"ﾋｶﾞｼｲﾁｷﾁｮｳﾃﾗﾜｷ","prefecture":"鹿児島県","city":"日置市","street":"東市来町寺脇"},{"zipCode":"8992202","prefectureKana":"ｶｺﾞｼﾏｹﾝ","cityKana":"ﾋｵｷｼ","streetKana":"ﾋｶﾞｼｲﾁｷﾁｮｳﾅｶﾞｻﾄ","prefecture":"鹿児島県","city":"日置市","street":"東市来町長里"},{"zipCode":"8992434","prefectureKana":"ｶｺﾞｼﾏｹﾝ","cityKana":"ﾋｵｷｼ","streetKana":"ﾋｶﾞｼｲﾁｷﾁｮｳﾐﾅﾐｶﾐﾉｶﾜ","prefecture":"鹿児島県","city":"日置市","street":"東市来町南神之川"},{"zipCode":"8992433","prefectureKana":"ｶｺﾞｼﾏｹﾝ","cityKana":"ﾋｵｷｼ","streetKana":"ﾋｶﾞｼｲﾁｷﾁｮｳﾐﾔﾀ","prefecture":"鹿児島県","city":"日置市","street":"東市来町宮田"},{"zipCode":"8992431","prefectureKana":"ｶｺﾞｼﾏｹﾝ","cityKana":"ﾋｵｷｼ","streetKana":"ﾋｶﾞｼｲﾁｷﾁｮｳﾐﾔﾏ","prefecture":"鹿児島県","city":"日置市","street":"東市来町美山"},{"zipCode":"8992201","prefectureKana":"ｶｺﾞｼﾏｹﾝ","cityKana":"ﾋｵｷｼ","streetKana":"ﾋｶﾞｼｲﾁｷﾁｮｳﾕﾀﾞ","prefecture":"鹿児島県","city":"日置市","street":"東市来町湯田"},{"zipCode":"8992311","prefectureKana":"ｶｺﾞｼﾏｹﾝ","cityKana":"ﾋｵｷｼ","streetKana":"ﾋｶﾞｼｲﾁｷﾁｮｳﾖｳﾎﾞ","prefecture":"鹿児島県","city":"日置市","street":"東市来町養母"},{"zipCode":"8992421","prefectureKana":"ｶｺﾞｼﾏｹﾝ","cityKana":"ﾋｵｷｼ","streetKana":"ﾋﾖｼﾁｮｳｶﾐﾉｶﾜ","prefecture":"鹿児島県","city":"日置市","street":"日吉町神之川"},{"zipCode":"8993101","prefectureKana":"ｶｺﾞｼﾏｹﾝ","cityKana":"ﾋｵｷｼ","streetKana":"ﾋﾖｼﾁｮｳﾋｵｷ","prefecture":"鹿児島県","city":"日置市","street":"日吉町日置"},{"zipCode":"8993102","prefectureKana":"ｶｺﾞｼﾏｹﾝ","cityKana":"ﾋｵｷｼ","streetKana":"ﾋﾖｼﾁｮｳﾔﾏﾀﾞ","prefecture":"鹿児島県","city":"日置市","street":"日吉町山田"},{"zipCode":"8993103","prefectureKana":"ｶｺﾞｼﾏｹﾝ","cityKana":"ﾋｵｷｼ","streetKana":"ﾋﾖｼﾁｮｳﾖｼﾄｼ(5614､5619､5647､5653ﾊﾞﾝﾁ)","prefecture":"鹿児島県","city":"日置市","street":"日吉町吉利（５６１４、５６１９、５６４７、５６５３番地）"},{"zipCode":"8993203","prefectureKana":"ｶｺﾞｼﾏｹﾝ","cityKana":"ﾋｵｷｼ","streetKana":"ﾋﾖｼﾁｮｳﾖｼﾄｼ(ｿﾉﾀ)","prefecture":"鹿児島県","city":"日置市","street":"日吉町吉利（その他）"},{"zipCode":"8993305","prefectureKana":"ｶｺﾞｼﾏｹﾝ","cityKana":"ﾋｵｷｼ","streetKana":"ﾌｷｱｹﾞﾁｮｳｲﾏﾀﾞ","prefecture":"鹿児島県","city":"日置市","street":"吹上町今田"},{"zipCode":"8993304","prefectureKana":"ｶｺﾞｼﾏｹﾝ","cityKana":"ﾋｵｷｼ","streetKana":"ﾌｷｱｹﾞﾁｮｳｲﾘｷ","prefecture":"鹿児島県","city":"日置市","street":"吹上町入来"},{"zipCode":"8993306","prefectureKana":"ｶｺﾞｼﾏｹﾝ","cityKana":"ﾋｵｷｼ","streetKana":"ﾌｷｱｹﾞﾁｮｳｵﾉ","prefecture":"鹿児島県","city":"日置市","street":"吹上町小野"},{"zipCode":"8993307","prefectureKana":"ｶｺﾞｼﾏｹﾝ","cityKana":"ﾋｵｷｼ","streetKana":"ﾌｷｱｹﾞﾁｮｳｹｼﾞｭｸﾘ","prefecture":"鹿児島県","city":"日置市","street":"吹上町花熟里"},{"zipCode":"8993308","prefectureKana":"ｶｺﾞｼﾏｹﾝ","cityKana":"ﾋｵｷｼ","streetKana":"ﾌｷｱｹﾞﾁｮｳﾀｼﾞﾘ","prefecture":"鹿児島県","city":"日置市","street":"吹上町田尻"},{"zipCode":"8993302","prefectureKana":"ｶｺﾞｼﾏｹﾝ","cityKana":"ﾋｵｷｼ","streetKana":"ﾌｷｱｹﾞﾁｮｳﾅｶﾉｻﾄ","prefecture":"鹿児島県","city":"日置市","street":"吹上町中之里"},{"zipCode":"8993301","prefectureKana":"ｶｺﾞｼﾏｹﾝ","cityKana":"ﾋｵｷｼ","streetKana":"ﾌｷｱｹﾞﾁｮｳﾅｶﾊﾗ","prefecture":"鹿児島県","city":"日置市","street":"吹上町中原"},{"zipCode":"8993221","prefectureKana":"ｶｺﾞｼﾏｹﾝ","cityKana":"ﾋｵｷｼ","streetKana":"ﾌｷｱｹﾞﾁｮｳﾅｶﾞﾖｼ","prefecture":"鹿児島県","city":"日置市","street":"吹上町永吉"},{"zipCode":"8993303","prefectureKana":"ｶｺﾞｼﾏｹﾝ","cityKana":"ﾋｵｷｼ","streetKana":"ﾌｷｱｹﾞﾁｮｳﾕﾉｳﾗ","prefecture":"鹿児島県","city":"日置市","street":"吹上町湯之浦"},{"zipCode":"8993309","prefectureKana":"ｶｺﾞｼﾏｹﾝ","cityKana":"ﾋｵｷｼ","streetKana":"ﾌｷｱｹﾞﾁｮｳﾖｸﾗ","prefecture":"鹿児島県","city":"日置市","street":"吹上町与倉"},{"zipCode":"8993311","prefectureKana":"ｶｺﾞｼﾏｹﾝ","cityKana":"ﾋｵｷｼ","streetKana":"ﾌｷｱｹﾞﾁｮｳﾜﾀﾞ","prefecture":"鹿児島県","city":"日置市","street":"吹上町和田"},{"zipCode":"8998600","prefectureKana":"ｶｺﾞｼﾏｹﾝ","cityKana":"ｿｵｼ","streetKana":"ｲｶﾆｹｲｻｲｶﾞﾅｲﾊﾞｱｲ","prefecture":"鹿児島県","city":"曽於市","street":"以下に掲載がない場合"},{"zipCode":"8998211","prefectureKana":"ｶｺﾞｼﾏｹﾝ","cityKana":"ｿｵｼ","streetKana":"ｵｵｽﾐﾁｮｳｱﾗﾀﾆ(ｱﾗﾀﾆ､ｵｵｻｺ､ﾅｶｵｵｻｺ)","prefecture":"鹿児島県","city":"曽於市","street":"大隅町荒谷（荒谷、大迫、中大迫）"},{"zipCode":"8998311","prefectureKana":"ｶｺﾞｼﾏｹﾝ","cityKana":"ｿｵｼ","streetKana":"ｵｵｽﾐﾁｮｳｱﾗﾀﾆ(ｿﾉﾀ)","prefecture":"鹿児島県","city":"曽於市","street":"大隅町荒谷（その他）"},{"zipCode":"8998102","prefectureKana":"ｶｺﾞｼﾏｹﾝ","cityKana":"ｿｵｼ","streetKana":"ｵｵｽﾐﾁｮｳｲﾜｶﾞﾜ","prefecture":"鹿児島県","city":"曽於市","street":"大隅町岩川"},{"zipCode":"8998421","prefectureKana":"ｶｺﾞｼﾏｹﾝ","cityKana":"ｿｵｼ","streetKana":"ｵｵｽﾐﾁｮｳｵｵﾀﾆ","prefecture":"鹿児島県","city":"曽於市","street":"大隅町大谷"},{"zipCode":"8998213","prefectureKana":"ｶｺﾞｼﾏｹﾝ","cityKana":"ｿｵｼ","streetKana":"ｵｵｽﾐﾁｮｳｻｶｲｷﾞﾏﾁ","prefecture":"鹿児島県","city":"曽於市","street":"大隅町境木町"},{"zipCode":"8998422","prefectureKana":"ｶｺﾞｼﾏｹﾝ","cityKana":"ｿｵｼ","streetKana":"ｵｵｽﾐﾁｮｳｻｶﾓﾄ","prefecture":"鹿児島県","city":"曽於市","street":"大隅町坂元"},{"zipCode":"8998106","prefectureKana":"ｶｺﾞｼﾏｹﾝ","cityKana":"ｿｵｼ","streetKana":"ｵｵｽﾐﾁｮｳｼﾓｸﾎﾞﾏﾁ","prefecture":"鹿児島県","city":"曽於市","street":"大隅町下窪町"},{"zipCode":"8998423","prefectureKana":"ｶｺﾞｼﾏｹﾝ","cityKana":"ｿｵｼ","streetKana":"ｵｵｽﾐﾁｮｳｽﾀﾞｷ","prefecture":"鹿児島県","city":"曽於市","street":"大隅町須田木"},{"zipCode":"8998105","prefectureKana":"ｶｺﾞｼﾏｹﾝ","cityKana":"ｿｵｼ","streetKana":"ｵｵｽﾐﾁｮｳﾀﾞﾝﾅｶﾏﾁ","prefecture":"鹿児島県","city":"曽於市","street":"大隅町段中町"},{"zipCode":"8998212","prefectureKana":"ｶｺﾞｼﾏｹﾝ","cityKana":"ｿｵｼ","streetKana":"ｵｵｽﾐﾁｮｳﾂｷﾉ","prefecture":"鹿児島県","city":"曽於市","street":"大隅町月野"},{"zipCode":"8998424","prefectureKana":"ｶｺﾞｼﾏｹﾝ","cityKana":"ｿｵｼ","streetKana":"ｵｵｽﾐﾁｮｳﾂﾈﾖｼ","prefecture":"鹿児島県","city":"曽於市","street":"大隅町恒吉"},{"zipCode":"8998103","prefectureKana":"ｶｺﾞｼﾏｹﾝ","cityKana":"ｿｵｼ","streetKana":"ｵｵｽﾐﾁｮｳﾅｶﾉｳﾁ","prefecture":"鹿児島県","city":"曽於市","street":"大隅町中之内"},{"zipCode":"8998104","prefectureKana":"ｶｺﾞｼﾏｹﾝ","cityKana":"ｿｵｼ","streetKana":"ｵｵｽﾐﾁｮｳﾅﾙｶﾞﾐﾏﾁ","prefecture":"鹿児島県","city":"曽於市","street":"大隅町鳴神町"},{"zipCode":"8998101","prefectureKana":"ｶｺﾞｼﾏｹﾝ","cityKana":"ｿｵｼ","streetKana":"ｽｴﾖｼﾁｮｳｲﾜｻｷ(ｲｹﾊﾗ､ｲﾜﾉｳｴ､ｲﾜﾐﾅﾐ､ﾏｴﾀﾞ､ﾏｷﾊﾗ､ﾐﾁｿﾞｲ､ﾐﾔﾊﾞﾙ)","prefecture":"鹿児島県","city":"曽於市","street":"末吉町岩崎（池原、岩之上、岩南、前田、牧原、道添、宮原）"},{"zipCode":"8998601","prefectureKana":"ｶｺﾞｼﾏｹﾝ","cityKana":"ｿｵｼ","streetKana":"ｽｴﾖｼﾁｮｳｲﾜｻｷ(ｿﾉﾀ)","prefecture":"鹿児島県","city":"曽於市","street":"末吉町岩崎（その他）"},{"zipCode":"8998609","prefectureKana":"ｶｺﾞｼﾏｹﾝ","cityKana":"ｿｵｼ","streetKana":"ｽｴﾖｼﾁｮｳｶﾐﾏﾁ","prefecture":"鹿児島県","city":"曽於市","street":"末吉町上町"},{"zipCode":"8998602","prefectureKana":"ｶｺﾞｼﾏｹﾝ","cityKana":"ｿｵｼ","streetKana":"ｽｴﾖｼﾁｮｳｻｶｴﾏﾁ","prefecture":"鹿児島県","city":"曽於市","street":"末吉町栄町"},{"zipCode":"8998603","prefectureKana":"ｶｺﾞｼﾏｹﾝ","cityKana":"ｿｵｼ","streetKana":"ｽｴﾖｼﾁｮｳｼﾝﾏﾁ","prefecture":"鹿児島県","city":"曽於市","street":"末吉町新町"},{"zipCode":"8998604","prefectureKana":"ｶｺﾞｼﾏｹﾝ","cityKana":"ｿｵｼ","streetKana":"ｽｴﾖｼﾁｮｳｽﾜｶﾀ","prefecture":"鹿児島県","city":"曽於市","street":"末吉町諏訪方"},{"zipCode":"8998605","prefectureKana":"ｶｺﾞｼﾏｹﾝ","cityKana":"ｿｵｼ","streetKana":"ｽｴﾖｼﾁｮｳﾆﾉｶﾀ","prefecture":"鹿児島県","city":"曽於市","street":"末吉町二之方"},{"zipCode":"8998606","prefectureKana":"ｶｺﾞｼﾏｹﾝ","cityKana":"ｿｵｼ","streetKana":"ｽｴﾖｼﾁｮｳﾌｶｶﾞﾜ","prefecture":"鹿児島県","city":"曽於市","street":"末吉町深川"},{"zipCode":"8998607","prefectureKana":"ｶｺﾞｼﾏｹﾝ","cityKana":"ｿｵｼ","streetKana":"ｽｴﾖｼﾁｮｳﾎﾝﾏﾁ","prefecture":"鹿児島県","city":"曽於市","street":"末吉町本町"},{"zipCode":"8998608","prefectureKana":"ｶｺﾞｼﾏｹﾝ","cityKana":"ｿｵｼ","streetKana":"ｽｴﾖｼﾁｮｳﾐﾅﾐﾉｺﾞｳ","prefecture":"鹿児島県","city":"曽於市","street":"末吉町南之郷"},{"zipCode":"8994102","prefectureKana":"ｶｺﾞｼﾏｹﾝ","cityKana":"ｿｵｼ","streetKana":"ﾀｶﾗﾍﾞﾁｮｳｷﾀﾏﾀ","prefecture":"鹿児島県","city":"曽於市","street":"財部町北俣"},{"zipCode":"8994103","prefectureKana":"ｶｺﾞｼﾏｹﾝ","cityKana":"ｿｵｼ","streetKana":"ﾀｶﾗﾍﾞﾁｮｳｼﾓﾀｶﾗﾍﾞ","prefecture":"鹿児島県","city":"曽於市","street":"財部町下財部"},{"zipCode":"8994101","prefectureKana":"ｶｺﾞｼﾏｹﾝ","cityKana":"ｿｵｼ","streetKana":"ﾀｶﾗﾍﾞﾁｮｳﾐﾅﾐﾏﾀ","prefecture":"鹿児島県","city":"曽於市","street":"財部町南俣"},{"zipCode":"8994300","prefectureKana":"ｶｺﾞｼﾏｹﾝ","cityKana":"ｷﾘｼﾏｼ","streetKana":"ｲｶﾆｹｲｻｲｶﾞﾅｲﾊﾞｱｲ","prefecture":"鹿児島県","city":"霧島市","street":"以下に掲載がない場合"},{"zipCode":"8994203","prefectureKana":"ｶｺﾞｼﾏｹﾝ","cityKana":"ｷﾘｼﾏｼ","streetKana":"ｷﾘｼﾏｵｵｸﾎﾞ","prefecture":"鹿児島県","city":"霧島市","street":"霧島大窪"},{"zipCode":"8994204","prefectureKana":"ｶｺﾞｼﾏｹﾝ","cityKana":"ｷﾘｼﾏｼ","streetKana":"ｷﾘｼﾏｶﾜｷﾀ","prefecture":"鹿児島県","city":"霧島市","street":"霧島川北"},{"zipCode":"8994201","prefectureKana":"ｶｺﾞｼﾏｹﾝ","cityKana":"ｷﾘｼﾏｼ","streetKana":"ｷﾘｼﾏﾀｸﾞﾁ","prefecture":"鹿児島県","city":"霧島市","street":"霧島田口"},{"zipCode":"8994202","prefectureKana":"ｶｺﾞｼﾏｹﾝ","cityKana":"ｷﾘｼﾏｼ","streetKana":"ｷﾘｼﾏﾅｶﾞﾐｽﾞ","prefecture":"鹿児島県","city":"霧島市","street":"霧島永水"},{"zipCode":"8994461","prefectureKana":"ｶｺﾞｼﾏｹﾝ","cityKana":"ｷﾘｼﾏｼ","streetKana":"ｺｸﾌﾞｳｴﾉﾀﾞﾝ","prefecture":"鹿児島県","city":"霧島市","street":"国分上之段"},{"zipCode":"8994318","prefectureKana":"ｶｺﾞｼﾏｹﾝ","cityKana":"ｷﾘｼﾏｼ","streetKana":"ｺｸﾌﾞｳｴﾉﾊﾗｼﾞｮｳﾓﾝﾉﾓﾘ","prefecture":"鹿児島県","city":"霧島市","street":"国分上野原縄文の森"},{"zipCode":"8994317","prefectureKana":"ｶｺﾞｼﾏｹﾝ","cityKana":"ｷﾘｼﾏｼ","streetKana":"ｺｸﾌﾞｳｴﾉﾊﾗﾃｸﾉﾊﾟｰｸ","prefecture":"鹿児島県","city":"霧島市","street":"国分上野原テクノパーク"},{"zipCode":"8994313","prefectureKana":"ｶｺﾞｼﾏｹﾝ","cityKana":"ｷﾘｼﾏｼ","streetKana":"ｺｸﾌﾞｳﾜｲ","prefecture":"鹿児島県","city":"霧島市","street":"国分上井"},{"zipCode":"8994316","prefectureKana":"ｶｺﾞｼﾏｹﾝ","cityKana":"ｷﾘｼﾏｼ","streetKana":"ｺｸﾌﾞｶﾐｺｶﾞﾜ","prefecture":"鹿児島県","city":"霧島市","street":"国分上小川"},{"zipCode":"8994314","prefectureKana":"ｶｺﾞｼﾏｹﾝ","cityKana":"ｷﾘｼﾏｼ","streetKana":"ｺｸﾌﾞｶﾜｳﾁ","prefecture":"鹿児島県","city":"霧島市","street":"国分川内"},{"zipCode":"8994303","prefectureKana":"ｶｺﾞｼﾏｹﾝ","cityKana":"ｷﾘｼﾏｼ","streetKana":"ｺｸﾌﾞｶﾜﾊﾗ","prefecture":"鹿児島県","city":"霧島市","street":"国分川原"},{"zipCode":"8994304","prefectureKana":"ｶｺﾞｼﾏｹﾝ","cityKana":"ｷﾘｼﾏｼ","streetKana":"ｺｸﾌﾞｷﾖﾐｽﾞ","prefecture":"鹿児島県","city":"霧島市","street":"国分清水"},{"zipCode":"8994355","prefectureKana":"ｶｺﾞｼﾏｹﾝ","cityKana":"ｷﾘｼﾏｼ","streetKana":"ｺｸﾌﾞｹﾝﾉｳﾄﾁｮｳ","prefecture":"鹿児島県","city":"霧島市","street":"国分剣之宇都町"},{"zipCode":"8994305","prefectureKana":"ｶｺﾞｼﾏｹﾝ","cityKana":"ｷﾘｼﾏｼ","streetKana":"ｺｸﾌﾞｺｵﾘﾀﾞ","prefecture":"鹿児島県","city":"霧島市","street":"国分郡田"},{"zipCode":"8994462","prefectureKana":"ｶｺﾞｼﾏｹﾝ","cityKana":"ｷﾘｼﾏｼ","streetKana":"ｺｸﾌﾞｼｷﾈ","prefecture":"鹿児島県","city":"霧島市","street":"国分敷根"},{"zipCode":"8994301","prefectureKana":"ｶｺﾞｼﾏｹﾝ","cityKana":"ｷﾘｼﾏｼ","streetKana":"ｺｸﾌﾞｼｹﾞﾋｻ","prefecture":"鹿児島県","city":"霧島市","street":"国分重久"},{"zipCode":"8994463","prefectureKana":"ｶｺﾞｼﾏｹﾝ","cityKana":"ｷﾘｼﾏｼ","streetKana":"ｺｸﾌﾞｼﾀｲ","prefecture":"鹿児島県","city":"霧島市","street":"国分下井"},{"zipCode":"8994331","prefectureKana":"ｶｺﾞｼﾏｹﾝ","cityKana":"ｷﾘｼﾏｼ","streetKana":"ｺｸﾌﾞｼﾛﾔﾏﾁｮｳ","prefecture":"鹿児島県","city":"霧島市","street":"国分城山町"},{"zipCode":"8994351","prefectureKana":"ｶｺﾞｼﾏｹﾝ","cityKana":"ｷﾘｼﾏｼ","streetKana":"ｺｸﾌﾞｼﾝﾏﾁ","prefecture":"鹿児島県","city":"霧島市","street":"国分新町"},{"zipCode":"8994302","prefectureKana":"ｶｺﾞｼﾏｹﾝ","cityKana":"ｷﾘｼﾏｼ","streetKana":"ｺｸﾌﾞﾀﾞｲﾐｮｳｼﾞ","prefecture":"鹿児島県","city":"霧島市","street":"国分台明寺"},{"zipCode":"8994332","prefectureKana":"ｶｺﾞｼﾏｹﾝ","cityKana":"ｷﾘｼﾏｼ","streetKana":"ｺｸﾌﾞﾁｭｳｵｳ","prefecture":"鹿児島県","city":"霧島市","street":"国分中央"},{"zipCode":"8994311","prefectureKana":"ｶｺﾞｼﾏｹﾝ","cityKana":"ｷﾘｼﾏｼ","streetKana":"ｺｸﾌﾞﾅﾊﾞﾁｮｳ","prefecture":"鹿児島県","city":"霧島市","street":"国分名波町"},{"zipCode":"8994344","prefectureKana":"ｶｺﾞｼﾏｹﾝ","cityKana":"ｷﾘｼﾏｼ","streetKana":"ｺｸﾌﾞﾉｸﾞﾁｷﾀ","prefecture":"鹿児島県","city":"霧島市","street":"国分野口北"},{"zipCode":"8994342","prefectureKana":"ｶｺﾞｼﾏｹﾝ","cityKana":"ｷﾘｼﾏｼ","streetKana":"ｺｸﾌﾞﾉｸﾞﾁﾁｮｳ","prefecture":"鹿児島県","city":"霧島市","street":"国分野口町"},{"zipCode":"8994343","prefectureKana":"ｶｺﾞｼﾏｹﾝ","cityKana":"ｷﾘｼﾏｼ","streetKana":"ｺｸﾌﾞﾉｸﾞﾁﾆｼ","prefecture":"鹿児島県","city":"霧島市","street":"国分野口西"},{"zipCode":"8994341","prefectureKana":"ｶｺﾞｼﾏｹﾝ","cityKana":"ｷﾘｼﾏｼ","streetKana":"ｺｸﾌﾞﾉｸﾞﾁﾋｶﾞｼ","prefecture":"鹿児島県","city":"霧島市","street":"国分野口東"},{"zipCode":"8994354","prefectureKana":"ｶｺﾞｼﾏｹﾝ","cityKana":"ｷﾘｼﾏｼ","streetKana":"ｺｸﾌﾞﾋﾒｷﾞ","prefecture":"鹿児島県","city":"霧島市","street":"国分姫城"},{"zipCode":"8994356","prefectureKana":"ｶｺﾞｼﾏｹﾝ","cityKana":"ｷﾘｼﾏｼ","streetKana":"ｺｸﾌﾞﾋﾒｷﾞﾐﾅﾐ","prefecture":"鹿児島県","city":"霧島市","street":"国分姫城南"},{"zipCode":"8994321","prefectureKana":"ｶｺﾞｼﾏｹﾝ","cityKana":"ｷﾘｼﾏｼ","streetKana":"ｺｸﾌﾞﾋﾛｾ","prefecture":"鹿児島県","city":"霧島市","street":"国分広瀬"},{"zipCode":"8994322","prefectureKana":"ｶｺﾞｼﾏｹﾝ","cityKana":"ｷﾘｼﾏｼ","streetKana":"ｺｸﾌﾞﾌｸｼﾏ","prefecture":"鹿児島県","city":"霧島市","street":"国分福島"},{"zipCode":"8994345","prefectureKana":"ｶｺﾞｼﾏｹﾝ","cityKana":"ｷﾘｼﾏｼ","streetKana":"ｺｸﾌﾞﾌﾁｭｳ","prefecture":"鹿児島県","city":"霧島市","street":"国分府中"},{"zipCode":"8994346","prefectureKana":"ｶｺﾞｼﾏｹﾝ","cityKana":"ｷﾘｼﾏｼ","streetKana":"ｺｸﾌﾞﾌﾁｭｳﾁｮｳ","prefecture":"鹿児島県","city":"霧島市","street":"国分府中町"},{"zipCode":"8994323","prefectureKana":"ｶｺﾞｼﾏｹﾝ","cityKana":"ｷﾘｼﾏｼ","streetKana":"ｺｸﾌﾞﾏﾂｷ","prefecture":"鹿児島県","city":"霧島市","street":"国分松木"},{"zipCode":"8994325","prefectureKana":"ｶｺﾞｼﾏｹﾝ","cityKana":"ｷﾘｼﾏｼ","streetKana":"ｺｸﾌﾞﾏﾂｷﾁｮｳ","prefecture":"鹿児島県","city":"霧島市","street":"国分松木町"},{"zipCode":"8994324","prefectureKana":"ｶｺﾞｼﾏｹﾝ","cityKana":"ｷﾘｼﾏｼ","streetKana":"ｺｸﾌﾞﾏﾂｷﾋｶﾞｼ","prefecture":"鹿児島県","city":"霧島市","street":"国分松木東"},{"zipCode":"8994315","prefectureKana":"ｶｺﾞｼﾏｹﾝ","cityKana":"ｷﾘｼﾏｼ","streetKana":"ｺｸﾌﾞﾐﾅﾄ","prefecture":"鹿児島県","city":"霧島市","street":"国分湊"},{"zipCode":"8994352","prefectureKana":"ｶｺﾞｼﾏｹﾝ","cityKana":"ｷﾘｼﾏｼ","streetKana":"ｺｸﾌﾞﾑｹ","prefecture":"鹿児島県","city":"霧島市","street":"国分向花"},{"zipCode":"8994353","prefectureKana":"ｶｺﾞｼﾏｹﾝ","cityKana":"ｷﾘｼﾏｼ","streetKana":"ｺｸﾌﾞﾑｹﾁｮｳ","prefecture":"鹿児島県","city":"霧島市","street":"国分向花町"},{"zipCode":"8994312","prefectureKana":"ｶｺﾞｼﾏｹﾝ","cityKana":"ｷﾘｼﾏｼ","streetKana":"ｺｸﾌﾞﾔﾏｼﾀﾁｮｳ","prefecture":"鹿児島県","city":"霧島市","street":"国分山下町"},{"zipCode":"8995118","prefectureKana":"ｶｺﾞｼﾏｹﾝ","cityKana":"ｷﾘｼﾏｼ","streetKana":"ﾊﾔﾄﾁｮｳｱｻﾋ","prefecture":"鹿児島県","city":"霧島市","street":"隼人町朝日"},{"zipCode":"8995116","prefectureKana":"ｶｺﾞｼﾏｹﾝ","cityKana":"ｷﾘｼﾏｼ","streetKana":"ﾊﾔﾄﾁｮｳｳﾁ","prefecture":"鹿児島県","city":"霧島市","street":"隼人町内"},{"zipCode":"8995106","prefectureKana":"ｶｺﾞｼﾏｹﾝ","cityKana":"ｷﾘｼﾏｼ","streetKana":"ﾊﾔﾄﾁｮｳｳﾁﾔﾏﾀﾞ","prefecture":"鹿児島県","city":"霧島市","street":"隼人町内山田"},{"zipCode":"8995105","prefectureKana":"ｶｺﾞｼﾏｹﾝ","cityKana":"ｷﾘｼﾏｼ","streetKana":"ﾊﾔﾄﾁｮｳｵﾀﾞ","prefecture":"鹿児島県","city":"霧島市","street":"隼人町小田"},{"zipCode":"8995103","prefectureKana":"ｶｺﾞｼﾏｹﾝ","cityKana":"ｷﾘｼﾏｼ","streetKana":"ﾊﾔﾄﾁｮｳｵﾊﾏ","prefecture":"鹿児島県","city":"霧島市","street":"隼人町小浜"},{"zipCode":"8995113","prefectureKana":"ｶｺﾞｼﾏｹﾝ","cityKana":"ｷﾘｼﾏｼ","streetKana":"ﾊﾔﾄﾁｮｳｶﾚｲｶﾞﾜ","prefecture":"鹿児島県","city":"霧島市","street":"隼人町嘉例川"},{"zipCode":"8995114","prefectureKana":"ｶｺﾞｼﾏｹﾝ","cityKana":"ｷﾘｼﾏｼ","streetKana":"ﾊﾔﾄﾁｮｳｻｲｺｳｼﾞ","prefecture":"鹿児島県","city":"霧島市","street":"隼人町西光寺"},{"zipCode":"8995121","prefectureKana":"ｶｺﾞｼﾏｹﾝ","cityKana":"ｷﾘｼﾏｼ","streetKana":"ﾊﾔﾄﾁｮｳｼﾞﾝｸﾞｳ","prefecture":"鹿児島県","city":"霧島市","street":"隼人町神宮"},{"zipCode":"8995102","prefectureKana":"ｶｺﾞｼﾏｹﾝ","cityKana":"ｷﾘｼﾏｼ","streetKana":"ﾊﾔﾄﾁｮｳｼﾝｺｳ","prefecture":"鹿児島県","city":"霧島市","street":"隼人町真孝"},{"zipCode":"8995101","prefectureKana":"ｶｺﾞｼﾏｹﾝ","cityKana":"ｷﾘｼﾏｼ","streetKana":"ﾊﾔﾄﾁｮｳｽﾐﾖｼ","prefecture":"鹿児島県","city":"霧島市","street":"隼人町住吉"},{"zipCode":"8995115","prefectureKana":"ｶｺﾞｼﾏｹﾝ","cityKana":"ｷﾘｼﾏｼ","streetKana":"ﾊﾔﾄﾁｮｳﾄｳｺﾞｳ","prefecture":"鹿児島県","city":"霧島市","street":"隼人町東郷"},{"zipCode":"8995104","prefectureKana":"ｶｺﾞｼﾏｹﾝ","cityKana":"ｷﾘｼﾏｼ","streetKana":"ﾊﾔﾄﾁｮｳﾉｸﾐﾀﾞ","prefecture":"鹿児島県","city":"霧島市","street":"隼人町野久美田"},{"zipCode":"8995111","prefectureKana":"ｶｺﾞｼﾏｹﾝ","cityKana":"ｷﾘｼﾏｼ","streetKana":"ﾊﾔﾄﾁｮｳﾋﾒｷﾞ","prefecture":"鹿児島県","city":"霧島市","street":"隼人町姫城"},{"zipCode":"8995112","prefectureKana":"ｶｺﾞｼﾏｹﾝ","cityKana":"ｷﾘｼﾏｼ","streetKana":"ﾊﾔﾄﾁｮｳﾏﾂﾅｶﾞ","prefecture":"鹿児島県","city":"霧島市","street":"隼人町松永"},{"zipCode":"8995117","prefectureKana":"ｶｺﾞｼﾏｹﾝ","cityKana":"ｷﾘｼﾏｼ","streetKana":"ﾊﾔﾄﾁｮｳﾐﾂｷﾞ","prefecture":"鹿児島県","city":"霧島市","street":"隼人町見次"},{"zipCode":"8994504","prefectureKana":"ｶｺﾞｼﾏｹﾝ","cityKana":"ｷﾘｼﾏｼ","streetKana":"ﾌｸﾔﾏﾁｮｳｶﾚｲｶﾞﾜ","prefecture":"鹿児島県","city":"霧島市","street":"福山町佳例川"},{"zipCode":"8994503","prefectureKana":"ｶｺﾞｼﾏｹﾝ","cityKana":"ｷﾘｼﾏｼ","streetKana":"ﾌｸﾔﾏﾁｮｳﾌｸｻﾞﾜ","prefecture":"鹿児島県","city":"霧島市","street":"福山町福沢"},{"zipCode":"8994502","prefectureKana":"ｶｺﾞｼﾏｹﾝ","cityKana":"ｷﾘｼﾏｼ","streetKana":"ﾌｸﾔﾏﾁｮｳﾌｸﾁ","prefecture":"鹿児島県","city":"霧島市","street":"福山町福地"},{"zipCode":"8994501","prefectureKana":"ｶｺﾞｼﾏｹﾝ","cityKana":"ｷﾘｼﾏｼ","streetKana":"ﾌｸﾔﾏﾁｮｳﾌｸﾔﾏ","prefecture":"鹿児島県","city":"霧島市","street":"福山町福山"},{"zipCode":"8996604","prefectureKana":"ｶｺﾞｼﾏｹﾝ","cityKana":"ｷﾘｼﾏｼ","streetKana":"ﾏｷｿﾞﾉﾁｮｳｶﾐﾅｶﾂｶﾞﾜ(1896-2072ﾊﾞﾝ)","prefecture":"鹿児島県","city":"霧島市","street":"牧園町上中津川（１８９６～２０７２番）"},{"zipCode":"8996504","prefectureKana":"ｶｺﾞｼﾏｹﾝ","cityKana":"ｷﾘｼﾏｼ","streetKana":"ﾏｷｿﾞﾉﾁｮｳｶﾐﾅｶﾂｶﾞﾜ(ｿﾉﾀ)","prefecture":"鹿児島県","city":"霧島市","street":"牧園町上中津川（その他）"},{"zipCode":"8996602","prefectureKana":"ｶｺﾞｼﾏｹﾝ","cityKana":"ｷﾘｼﾏｼ","streetKana":"ﾏｷｿﾞﾉﾁｮｳｻﾝﾀｲﾄﾞｳ(1824-2､1824-9､1824-41､","prefecture":"鹿児島県","city":"霧島市","street":"牧園町三体堂（１８２４－２、１８２４－９、１８２４－４１、"},{"zipCode":"8996602","prefectureKana":"ｶｺﾞｼﾏｹﾝ","cityKana":"ｷﾘｼﾏｼ","streetKana":"1835-81､1835-108､1835-109､1835-228､","prefecture":"鹿児島県","city":"霧島市","street":"１８３５－８１、１８３５－１０８、１８３５－１０９、１８３５－２２８、"},{"zipCode":"8996602","prefectureKana":"ｶｺﾞｼﾏｹﾝ","cityKana":"ｷﾘｼﾏｼ","streetKana":"1835-238､1835-253､2003-5､2003-9､","prefecture":"鹿児島県","city":"霧島市","street":"１８３５－２３８、１８３５－２５３、２００３－５、２００３－９、"},{"zipCode":"8996602","prefectureKana":"ｶｺﾞｼﾏｹﾝ","cityKana":"ｷﾘｼﾏｼ","streetKana":"2003-14､2003-17､2003-18､2057-8)","prefecture":"鹿児島県","city":"霧島市","street":"２００３－１４、２００３－１７、２００３－１８、２０５７－８）"},{"zipCode":"8996502","prefectureKana":"ｶｺﾞｼﾏｹﾝ","cityKana":"ｷﾘｼﾏｼ","streetKana":"ﾏｷｿﾞﾉﾁｮｳｻﾝﾀｲﾄﾞｳ(ｿﾉﾀ)","prefecture":"鹿児島県","city":"霧島市","street":"牧園町三体堂（その他）"},{"zipCode":"8996506","prefectureKana":"ｶｺﾞｼﾏｹﾝ","cityKana":"ｷﾘｼﾏｼ","streetKana":"ﾏｷｿﾞﾉﾁｮｳｼﾓﾅｶﾂｶﾞﾜ","prefecture":"鹿児島県","city":"霧島市","street":"牧園町下中津川"},{"zipCode":"8996507","prefectureKana":"ｶｺﾞｼﾏｹﾝ","cityKana":"ｷﾘｼﾏｼ","streetKana":"ﾏｷｿﾞﾉﾁｮｳｼｭｸｸﾎﾞﾀ","prefecture":"鹿児島県","city":"霧島市","street":"牧園町宿窪田"},{"zipCode":"8996503","prefectureKana":"ｶｺﾞｼﾏｹﾝ","cityKana":"ｷﾘｼﾏｼ","streetKana":"ﾏｷｿﾞﾉﾁｮｳﾀｶﾁﾎ(3012-3240ﾊﾞﾝ)","prefecture":"鹿児島県","city":"霧島市","street":"牧園町高千穂（３０１２～３２４０番）"},{"zipCode":"8996603","prefectureKana":"ｶｺﾞｼﾏｹﾝ","cityKana":"ｷﾘｼﾏｼ","streetKana":"ﾏｷｿﾞﾉﾁｮｳﾀｶﾁﾎ(ｿﾉﾀ)","prefecture":"鹿児島県","city":"霧島市","street":"牧園町高千穂（その他）"},{"zipCode":"8996601","prefectureKana":"ｶｺﾞｼﾏｹﾝ","cityKana":"ｷﾘｼﾏｼ","streetKana":"ﾏｷｿﾞﾉﾁｮｳﾏﾝｾﾞﾝ(1400-1477ﾊﾞﾝ)","prefecture":"鹿児島県","city":"霧島市","street":"牧園町万膳（１４００～１４７７番）"},{"zipCode":"8996501","prefectureKana":"ｶｺﾞｼﾏｹﾝ","cityKana":"ｷﾘｼﾏｼ","streetKana":"ﾏｷｿﾞﾉﾁｮｳﾏﾝｾﾞﾝ(ｿﾉﾀ)","prefecture":"鹿児島県","city":"霧島市","street":"牧園町万膳（その他）"},{"zipCode":"8996505","prefectureKana":"ｶｺﾞｼﾏｹﾝ","cityKana":"ｷﾘｼﾏｼ","streetKana":"ﾏｷｿﾞﾉﾁｮｳﾓﾁﾏﾂ","prefecture":"鹿児島県","city":"霧島市","street":"牧園町持松"},{"zipCode":"8996401","prefectureKana":"ｶｺﾞｼﾏｹﾝ","cityKana":"ｷﾘｼﾏｼ","streetKana":"ﾐｿﾞﾍﾞﾁｮｳｱﾘｶﾜ","prefecture":"鹿児島県","city":"霧島市","street":"溝辺町有川"},{"zipCode":"8996405","prefectureKana":"ｶｺﾞｼﾏｹﾝ","cityKana":"ｷﾘｼﾏｼ","streetKana":"ﾐｿﾞﾍﾞﾁｮｳｻｷﾓﾘ","prefecture":"鹿児島県","city":"霧島市","street":"溝辺町崎森"},{"zipCode":"8996402","prefectureKana":"ｶｺﾞｼﾏｹﾝ","cityKana":"ｷﾘｼﾏｼ","streetKana":"ﾐｿﾞﾍﾞﾁｮｳﾀｶｾﾞ","prefecture":"鹿児島県","city":"霧島市","street":"溝辺町竹子"},{"zipCode":"8996404","prefectureKana":"ｶｺﾞｼﾏｹﾝ","cityKana":"ｷﾘｼﾏｼ","streetKana":"ﾐｿﾞﾍﾞﾁｮｳﾌﾓﾄ","prefecture":"鹿児島県","city":"霧島市","street":"溝辺町麓"},{"zipCode":"8996403","prefectureKana":"ｶｺﾞｼﾏｹﾝ","cityKana":"ｷﾘｼﾏｼ","streetKana":"ﾐｿﾞﾍﾞﾁｮｳﾐﾅﾜ","prefecture":"鹿児島県","city":"霧島市","street":"溝辺町三縄"},{"zipCode":"8996301","prefectureKana":"ｶｺﾞｼﾏｹﾝ","cityKana":"ｷﾘｼﾏｼ","streetKana":"ﾖｺｶﾞﾜﾁｮｳｶﾐﾉ","prefecture":"鹿児島県","city":"霧島市","street":"横川町上ノ"},{"zipCode":"8996302","prefectureKana":"ｶｺﾞｼﾏｹﾝ","cityKana":"ｷﾘｼﾏｼ","streetKana":"ﾖｺｶﾞﾜﾁｮｳｼﾓﾉ","prefecture":"鹿児島県","city":"霧島市","street":"横川町下ノ"},{"zipCode":"8996303","prefectureKana":"ｶｺﾞｼﾏｹﾝ","cityKana":"ｷﾘｼﾏｼ","streetKana":"ﾖｺｶﾞﾜﾁｮｳﾅｶﾉ","prefecture":"鹿児島県","city":"霧島市","street":"横川町中ノ"},{"zipCode":"8992103","prefectureKana":"ｶｺﾞｼﾏｹﾝ","cityKana":"ｲﾁｷｸｼｷﾉｼ","streetKana":"ｵｵｻﾞﾄ","prefecture":"鹿児島県","city":"いちき串木野市","street":"大里"},{"zipCode":"8992102","prefectureKana":"ｶｺﾞｼﾏｹﾝ","cityKana":"ｲﾁｷｸｼｷﾉｼ","streetKana":"ｶﾜｶﾐ","prefecture":"鹿児島県","city":"いちき串木野市","street":"川上"},{"zipCode":"8992101","prefectureKana":"ｶｺﾞｼﾏｹﾝ","cityKana":"ｲﾁｷｸｼｷﾉｼ","streetKana":"ﾐﾅﾄﾏﾁ","prefecture":"鹿児島県","city":"いちき串木野市","street":"湊町"},{"zipCode":"8993611","prefectureKana":"ｶｺﾞｼﾏｹﾝ","cityKana":"ﾐﾅﾐｻﾂﾏｼ","streetKana":"ｶｾﾀﾞﾂﾇｷ","prefecture":"鹿児島県","city":"南さつま市","street":"加世田津貫"},{"zipCode":"8993405","prefectureKana":"ｶｺﾞｼﾏｹﾝ","cityKana":"ﾐﾅﾐｻﾂﾏｼ","streetKana":"ｷﾝﾎﾟｳﾁｮｳｲｹﾍﾞ","prefecture":"鹿児島県","city":"南さつま市","street":"金峰町池辺"},{"zipCode":"8993516","prefectureKana":"ｶｺﾞｼﾏｹﾝ","cityKana":"ﾐﾅﾐｻﾂﾏｼ","streetKana":"ｷﾝﾎﾟｳﾁｮｳｳﾗﾉﾐｮｳ","prefecture":"鹿児島県","city":"南さつま市","street":"金峰町浦之名"},{"zipCode":"8993401","prefectureKana":"ｶｺﾞｼﾏｹﾝ","cityKana":"ﾐﾅﾐｻﾂﾏｼ","streetKana":"ｷﾝﾎﾟｳﾁｮｳｵｵﾉ","prefecture":"鹿児島県","city":"南さつま市","street":"金峰町大野"},{"zipCode":"8993403","prefectureKana":"ｶｺﾞｼﾏｹﾝ","cityKana":"ﾐﾅﾐｻﾂﾏｼ","streetKana":"ｷﾝﾎﾟｳﾁｮｳｵｸﾀﾞﾘ","prefecture":"鹿児島県","city":"南さつま市","street":"金峰町尾下"},{"zipCode":"8993513","prefectureKana":"ｶｺﾞｼﾏｹﾝ","cityKana":"ﾐﾅﾐｻﾂﾏｼ","streetKana":"ｷﾝﾎﾟｳﾁｮｳｼﾗｶﾜ","prefecture":"鹿児島県","city":"南さつま市","street":"金峰町白川"},{"zipCode":"8993402","prefectureKana":"ｶｺﾞｼﾏｹﾝ","cityKana":"ﾐﾅﾐｻﾂﾏｼ","streetKana":"ｷﾝﾎﾟｳﾁｮｳﾀﾞｲｻﾞｶ","prefecture":"鹿児島県","city":"南さつま市","street":"金峰町大坂"},{"zipCode":"8993404","prefectureKana":"ｶｺﾞｼﾏｹﾝ","cityKana":"ﾐﾅﾐｻﾂﾏｼ","streetKana":"ｷﾝﾎﾟｳﾁｮｳﾀｶﾊｼ","prefecture":"鹿児島県","city":"南さつま市","street":"金峰町高橋"},{"zipCode":"8993515","prefectureKana":"ｶｺﾞｼﾏｹﾝ","cityKana":"ﾐﾅﾐｻﾂﾏｼ","streetKana":"ｷﾝﾎﾟｳﾁｮｳﾅｶﾂﾉ","prefecture":"鹿児島県","city":"南さつま市","street":"金峰町中津野"},{"zipCode":"8993514","prefectureKana":"ｶｺﾞｼﾏｹﾝ","cityKana":"ﾐﾅﾐｻﾂﾏｼ","streetKana":"ｷﾝﾎﾟｳﾁｮｳﾆｲﾔﾏ","prefecture":"鹿児島県","city":"南さつま市","street":"金峰町新山"},{"zipCode":"8993512","prefectureKana":"ｶｺﾞｼﾏｹﾝ","cityKana":"ﾐﾅﾐｻﾂﾏｼ","streetKana":"ｷﾝﾎﾟｳﾁｮｳﾊﾅｾﾞ","prefecture":"鹿児島県","city":"南さつま市","street":"金峰町花瀬"},{"zipCode":"8993511","prefectureKana":"ｶｺﾞｼﾏｹﾝ","cityKana":"ﾐﾅﾐｻﾂﾏｼ","streetKana":"ｷﾝﾎﾟｳﾁｮｳﾐﾔｻﾞｷ","prefecture":"鹿児島県","city":"南さつま市","street":"金峰町宮崎"},{"zipCode":"8997100","prefectureKana":"ｶｺﾞｼﾏｹﾝ","cityKana":"ｼﾌﾞｼｼ","streetKana":"ｲｶﾆｹｲｻｲｶﾞﾅｲﾊﾞｱｲ","prefecture":"鹿児島県","city":"志布志市","street":"以下に掲載がない場合"},{"zipCode":"8997401","prefectureKana":"ｶｺﾞｼﾏｹﾝ","cityKana":"ｼﾌﾞｼｼ","streetKana":"ｱﾘｱｹﾁｮｳｲｻｷﾀﾞ","prefecture":"鹿児島県","city":"志布志市","street":"有明町伊崎田"},{"zipCode":"8997402","prefectureKana":"ｶｺﾞｼﾏｹﾝ","cityKana":"ｼﾌﾞｼｼ","streetKana":"ｱﾘｱｹﾁｮｳﾉｲｸﾗ","prefecture":"鹿児島県","city":"志布志市","street":"有明町野井倉"},{"zipCode":"8998312","prefectureKana":"ｶｺﾞｼﾏｹﾝ","cityKana":"ｼﾌﾞｼｼ","streetKana":"ｱﾘｱｹﾁｮｳﾉｶﾞﾐ(ﾇｷﾀﾞﾆ､ﾇﾙｷ､ﾎﾝｼﾞ､ﾏｶﾞﾘ､ﾐｽﾞﾉﾀﾆ)","prefecture":"鹿児島県","city":"志布志市","street":"有明町野神（抜谷、塗木、本地、曲、水ノ谷）"},{"zipCode":"8997512","prefectureKana":"ｶｺﾞｼﾏｹﾝ","cityKana":"ｼﾌﾞｼｼ","streetKana":"ｱﾘｱｹﾁｮｳﾉｶﾞﾐ(ｿﾉﾀ)","prefecture":"鹿児島県","city":"志布志市","street":"有明町野神（その他）"},{"zipCode":"8997511","prefectureKana":"ｶｺﾞｼﾏｹﾝ","cityKana":"ｼﾌﾞｼｼ","streetKana":"ｱﾘｱｹﾁｮｳﾊﾗﾀﾞ","prefecture":"鹿児島県","city":"志布志市","street":"有明町原田"},{"zipCode":"8997403","prefectureKana":"ｶｺﾞｼﾏｹﾝ","cityKana":"ｼﾌﾞｼｼ","streetKana":"ｱﾘｱｹﾁｮｳﾌﾂﾊﾗ(ｶｽｶﾞ)","prefecture":"鹿児島県","city":"志布志市","street":"有明町蓬原（春日）"},{"zipCode":"8997503","prefectureKana":"ｶｺﾞｼﾏｹﾝ","cityKana":"ｼﾌﾞｼｼ","streetKana":"ｱﾘｱｹﾁｮｳﾌﾂﾊﾗ(ｿﾉﾀ)","prefecture":"鹿児島県","city":"志布志市","street":"有明町蓬原（その他）"},{"zipCode":"8997513","prefectureKana":"ｶｺﾞｼﾏｹﾝ","cityKana":"ｼﾌﾞｼｼ","streetKana":"ｱﾘｱｹﾁｮｳﾔﾏｼｹﾞ","prefecture":"鹿児島県","city":"志布志市","street":"有明町山重"},{"zipCode":"8997104","prefectureKana":"ｶｺﾞｼﾏｹﾝ","cityKana":"ｼﾌﾞｼｼ","streetKana":"ｼﾌﾞｼﾁｮｳｱﾝﾗｸ","prefecture":"鹿児島県","city":"志布志市","street":"志布志町安楽"},{"zipCode":"8997211","prefectureKana":"ｶｺﾞｼﾏｹﾝ","cityKana":"ｼﾌﾞｼｼ","streetKana":"ｼﾌﾞｼﾁｮｳｳﾁﾉｸﾗ","prefecture":"鹿児島県","city":"志布志市","street":"志布志町内之倉"},{"zipCode":"8997103","prefectureKana":"ｶｺﾞｼﾏｹﾝ","cityKana":"ｼﾌﾞｼｼ","streetKana":"ｼﾌﾞｼﾁｮｳｼﾌﾞｼ","prefecture":"鹿児島県","city":"志布志市","street":"志布志町志布志"},{"zipCode":"8997212","prefectureKana":"ｶｺﾞｼﾏｹﾝ","cityKana":"ｼﾌﾞｼｼ","streetKana":"ｼﾌﾞｼﾁｮｳﾀﾉｳﾗ","prefecture":"鹿児島県","city":"志布志市","street":"志布志町田之浦"},{"zipCode":"8997102","prefectureKana":"ｶｺﾞｼﾏｹﾝ","cityKana":"ｼﾌﾞｼｼ","streetKana":"ｼﾌﾞｼﾁｮｳﾁｮｳ","prefecture":"鹿児島県","city":"志布志市","street":"志布志町帖"},{"zipCode":"8997101","prefectureKana":"ｶｺﾞｼﾏｹﾝ","cityKana":"ｼﾌﾞｼｼ","streetKana":"ｼﾌﾞｼﾁｮｳﾅﾂｲ","prefecture":"鹿児島県","city":"志布志市","street":"志布志町夏井"},{"zipCode":"8997603","prefectureKana":"ｶｺﾞｼﾏｹﾝ","cityKana":"ｼﾌﾞｼｼ","streetKana":"ﾏﾂﾔﾏﾁｮｳｵﾉﾐ","prefecture":"鹿児島県","city":"志布志市","street":"松山町尾野見"},{"zipCode":"8997601","prefectureKana":"ｶｺﾞｼﾏｹﾝ","cityKana":"ｼﾌﾞｼｼ","streetKana":"ﾏﾂﾔﾏﾁｮｳｼﾝﾊﾞｼ","prefecture":"鹿児島県","city":"志布志市","street":"松山町新橋"},{"zipCode":"8997602","prefectureKana":"ｶｺﾞｼﾏｹﾝ","cityKana":"ｼﾌﾞｼｼ","streetKana":"ﾏﾂﾔﾏﾁｮｳﾀｲﾉ","prefecture":"鹿児島県","city":"志布志市","street":"松山町泰野"},{"zipCode":"8995400","prefectureKana":"ｶｺﾞｼﾏｹﾝ","cityKana":"ｱｲﾗｼ","streetKana":"ｲｶﾆｹｲｻｲｶﾞﾅｲﾊﾞｱｲ","prefecture":"鹿児島県","city":"姶良市","street":"以下に掲載がない場合"},{"zipCode":"8995653","prefectureKana":"ｶｺﾞｼﾏｹﾝ","cityKana":"ｱｲﾗｼ","streetKana":"ｲｹｼﾞﾏﾏﾁ","prefecture":"鹿児島県","city":"姶良市","street":"池島町"},{"zipCode":"8995544","prefectureKana":"ｶｺﾞｼﾏｹﾝ","cityKana":"ｱｲﾗｼ","streetKana":"ｵｵﾔﾏ","prefecture":"鹿児島県","city":"姶良市","street":"大山"},{"zipCode":"8995213","prefectureKana":"ｶｺﾞｼﾏｹﾝ","cityKana":"ｱｲﾗｼ","streetKana":"ｶｼﾞｷﾁｮｳｱｻﾋﾏﾁ","prefecture":"鹿児島県","city":"姶良市","street":"加治木町朝日町"},{"zipCode":"8995214","prefectureKana":"ｶｺﾞｼﾏｹﾝ","cityKana":"ｱｲﾗｼ","streetKana":"ｶｼﾞｷﾁｮｳｶﾘﾔﾏﾁ","prefecture":"鹿児島県","city":"姶良市","street":"加治木町仮屋町"},{"zipCode":"8995241","prefectureKana":"ｶｺﾞｼﾏｹﾝ","cityKana":"ｱｲﾗｼ","streetKana":"ｶｼﾞｷﾁｮｳｷﾀﾞ","prefecture":"鹿児島県","city":"姶良市","street":"加治木町木田"},{"zipCode":"8995222","prefectureKana":"ｶｺﾞｼﾏｹﾝ","cityKana":"ｱｲﾗｼ","streetKana":"ｶｼﾞｷﾁｮｳｷﾝｺｳﾏﾁ","prefecture":"鹿児島県","city":"姶良市","street":"加治木町錦江町"},{"zipCode":"8995203","prefectureKana":"ｶｺﾞｼﾏｹﾝ","cityKana":"ｱｲﾗｼ","streetKana":"ｶｼﾞｷﾁｮｳｺﾔﾏﾀﾞ","prefecture":"鹿児島県","city":"姶良市","street":"加治木町小山田"},{"zipCode":"8995223","prefectureKana":"ｶｺﾞｼﾏｹﾝ","cityKana":"ｱｲﾗｼ","streetKana":"ｶｼﾞｷﾁｮｳｼﾝｾｲﾏﾁ","prefecture":"鹿児島県","city":"姶良市","street":"加治木町新生町"},{"zipCode":"8995211","prefectureKana":"ｶｺﾞｼﾏｹﾝ","cityKana":"ｱｲﾗｼ","streetKana":"ｶｼﾞｷﾁｮｳｼﾝﾄﾐﾏﾁ","prefecture":"鹿児島県","city":"姶良市","street":"加治木町新富町"},{"zipCode":"8995212","prefectureKana":"ｶｺﾞｼﾏｹﾝ","cityKana":"ｱｲﾗｼ","streetKana":"ｶｼﾞｷﾁｮｳｽﾜﾏﾁ","prefecture":"鹿児島県","city":"姶良市","street":"加治木町諏訪町"},{"zipCode":"8995231","prefectureKana":"ｶｺﾞｼﾏｹﾝ","cityKana":"ｱｲﾗｼ","streetKana":"ｶｼﾞｷﾁｮｳﾀﾝﾄﾞ","prefecture":"鹿児島県","city":"姶良市","street":"加治木町反土"},{"zipCode":"8995201","prefectureKana":"ｶｺﾞｼﾏｹﾝ","cityKana":"ｱｲﾗｼ","streetKana":"ｶｼﾞｷﾁｮｳﾆｼﾍﾞｯﾌﾟ","prefecture":"鹿児島県","city":"姶良市","street":"加治木町西別府"},{"zipCode":"8995204","prefectureKana":"ｶｺﾞｼﾏｹﾝ","cityKana":"ｱｲﾗｼ","streetKana":"ｶｼﾞｷﾁｮｳﾋｷﾔﾏ","prefecture":"鹿児島県","city":"姶良市","street":"加治木町日木山"},{"zipCode":"8995202","prefectureKana":"ｶｺﾞｼﾏｹﾝ","cityKana":"ｱｲﾗｼ","streetKana":"ｶｼﾞｷﾁｮｳﾍｶﾞﾜ","prefecture":"鹿児島県","city":"姶良市","street":"加治木町辺川"},{"zipCode":"8995221","prefectureKana":"ｶｺﾞｼﾏｹﾝ","cityKana":"ｱｲﾗｼ","streetKana":"ｶｼﾞｷﾁｮｳﾐﾅﾄﾏﾁ","prefecture":"鹿児島県","city":"姶良市","street":"加治木町港町"},{"zipCode":"8995215","prefectureKana":"ｶｺﾞｼﾏｹﾝ","cityKana":"ｱｲﾗｼ","streetKana":"ｶｼﾞｷﾁｮｳﾓﾄﾏﾁ","prefecture":"鹿児島県","city":"姶良市","street":"加治木町本町"},{"zipCode":"8995542","prefectureKana":"ｶｺﾞｼﾏｹﾝ","cityKana":"ｱｲﾗｼ","streetKana":"ｶﾐﾐｮｳ","prefecture":"鹿児島県","city":"姶良市","street":"上名"},{"zipCode":"8995301","prefectureKana":"ｶｺﾞｼﾏｹﾝ","cityKana":"ｱｲﾗｼ","streetKana":"ｶﾓｳﾁｮｳｳﾙｼ","prefecture":"鹿児島県","city":"姶良市","street":"蒲生町漆"},{"zipCode":"8995302","prefectureKana":"ｶｺﾞｼﾏｹﾝ","cityKana":"ｱｲﾗｼ","streetKana":"ｶﾓｳﾁｮｳｶﾐｷﾞｭｳﾄｸ","prefecture":"鹿児島県","city":"姶良市","street":"蒲生町上久徳"},{"zipCode":"8995303","prefectureKana":"ｶｺﾞｼﾏｹﾝ","cityKana":"ｱｲﾗｼ","streetKana":"ｶﾓｳﾁｮｳｷﾀ","prefecture":"鹿児島県","city":"姶良市","street":"蒲生町北"},{"zipCode":"8995304","prefectureKana":"ｶｺﾞｼﾏｹﾝ","cityKana":"ｱｲﾗｼ","streetKana":"ｶﾓｳﾁｮｳｼﾓｷﾞｭｳﾄｸ","prefecture":"鹿児島県","city":"姶良市","street":"蒲生町下久徳"},{"zipCode":"8995305","prefectureKana":"ｶｺﾞｼﾏｹﾝ","cityKana":"ｱｲﾗｼ","streetKana":"ｶﾓｳﾁｮｳｼﾗｵ","prefecture":"鹿児島県","city":"姶良市","street":"蒲生町白男"},{"zipCode":"8995306","prefectureKana":"ｶｺﾞｼﾏｹﾝ","cityKana":"ｱｲﾗｼ","streetKana":"ｶﾓｳﾁｮｳﾆｼｳﾗ","prefecture":"鹿児島県","city":"姶良市","street":"蒲生町西浦"},{"zipCode":"8995307","prefectureKana":"ｶｺﾞｼﾏｹﾝ","cityKana":"ｱｲﾗｼ","streetKana":"ｶﾓｳﾁｮｳﾋｻｽｴ","prefecture":"鹿児島県","city":"姶良市","street":"蒲生町久末"},{"zipCode":"8995308","prefectureKana":"ｶｺﾞｼﾏｹﾝ","cityKana":"ｱｲﾗｼ","streetKana":"ｶﾓｳﾁｮｳﾖﾈﾏﾙ","prefecture":"鹿児島県","city":"姶良市","street":"蒲生町米丸"},{"zipCode":"8995541","prefectureKana":"ｶｺﾞｼﾏｹﾝ","cityKana":"ｱｲﾗｼ","streetKana":"ｷﾀﾔﾏ","prefecture":"鹿児島県","city":"姶良市","street":"北山"},{"zipCode":"8995545","prefectureKana":"ｶｺﾞｼﾏｹﾝ","cityKana":"ｱｲﾗｼ","streetKana":"ｷﾂﾞｼ","prefecture":"鹿児島県","city":"姶良市","street":"木津志"},{"zipCode":"8995412","prefectureKana":"ｶｺﾞｼﾏｹﾝ","cityKana":"ｱｲﾗｼ","streetKana":"ｻﾝｼﾞｭｯﾁｮｳ","prefecture":"鹿児島県","city":"姶良市","street":"三拾町"},{"zipCode":"8995543","prefectureKana":"ｶｺﾞｼﾏｹﾝ","cityKana":"ｱｲﾗｼ","streetKana":"ｼﾓﾐｮｳ","prefecture":"鹿児島県","city":"姶良市","street":"下名"},{"zipCode":"8995405","prefectureKana":"ｶｺﾞｼﾏｹﾝ","cityKana":"ｱｲﾗｼ","streetKana":"ｽﾐﾖｼ","prefecture":"鹿児島県","city":"姶良市","street":"住吉"},{"zipCode":"8995401","prefectureKana":"ｶｺﾞｼﾏｹﾝ","cityKana":"ｱｲﾗｼ","streetKana":"ﾃﾗｼ","prefecture":"鹿児島県","city":"姶良市","street":"寺師"},{"zipCode":"8995413","prefectureKana":"ｶｺﾞｼﾏｹﾝ","cityKana":"ｱｲﾗｼ","streetKana":"ﾄﾖﾄﾞﾒ","prefecture":"鹿児島県","city":"姶良市","street":"豊留"},{"zipCode":"8995654","prefectureKana":"ｶｺﾞｼﾏｹﾝ","cityKana":"ｱｲﾗｼ","streetKana":"ﾅｶﾞｲｹﾏﾁ","prefecture":"鹿児島県","city":"姶良市","street":"永池町"},{"zipCode":"8995404","prefectureKana":"ｶｺﾞｼﾏｹﾝ","cityKana":"ｱｲﾗｼ","streetKana":"ﾅｶﾞｾ","prefecture":"鹿児島県","city":"姶良市","street":"永瀬"},{"zipCode":"8995402","prefectureKana":"ｶｺﾞｼﾏｹﾝ","cityKana":"ｱｲﾗｼ","streetKana":"ﾅｶﾂﾉ","prefecture":"鹿児島県","city":"姶良市","street":"中津野"},{"zipCode":"8995411","prefectureKana":"ｶｺﾞｼﾏｹﾝ","cityKana":"ｱｲﾗｼ","streetKana":"ﾅﾍﾞｸﾗ","prefecture":"鹿児島県","city":"姶良市","street":"鍋倉"},{"zipCode":"8995656","prefectureKana":"ｶｺﾞｼﾏｹﾝ","cityKana":"ｱｲﾗｼ","streetKana":"ﾆｼｱｲﾗ","prefecture":"鹿児島県","city":"姶良市","street":"西姶良"},{"zipCode":"8995433","prefectureKana":"ｶｺﾞｼﾏｹﾝ","cityKana":"ｱｲﾗｼ","streetKana":"ﾆｼﾐﾔｼﾞﾏﾏﾁ","prefecture":"鹿児島県","city":"姶良市","street":"西宮島町"},{"zipCode":"8995431","prefectureKana":"ｶｺﾞｼﾏｹﾝ","cityKana":"ｱｲﾗｼ","streetKana":"ﾆｼﾓﾁﾀﾞ","prefecture":"鹿児島県","city":"姶良市","street":"西餠田"},{"zipCode":"8995421","prefectureKana":"ｶｺﾞｼﾏｹﾝ","cityKana":"ｱｲﾗｼ","streetKana":"ﾋｶﾞｼﾓﾁﾀﾞ","prefecture":"鹿児島県","city":"姶良市","street":"東餠田"},{"zipCode":"8995652","prefectureKana":"ｶｺﾞｼﾏｹﾝ","cityKana":"ｱｲﾗｼ","streetKana":"ﾋﾗﾏﾂ","prefecture":"鹿児島県","city":"姶良市","street":"平松"},{"zipCode":"8995414","prefectureKana":"ｶｺﾞｼﾏｹﾝ","cityKana":"ｱｲﾗｼ","streetKana":"ﾌｶﾐｽﾞ","prefecture":"鹿児島県","city":"姶良市","street":"深水"},{"zipCode":"8995655","prefectureKana":"ｶｺﾞｼﾏｹﾝ","cityKana":"ｱｲﾗｼ","streetKana":"ﾌﾅﾂ","prefecture":"鹿児島県","city":"姶良市","street":"船津"},{"zipCode":"8995403","prefectureKana":"ｶｺﾞｼﾏｹﾝ","cityKana":"ｱｲﾗｼ","streetKana":"ﾏｽﾀﾞ","prefecture":"鹿児島県","city":"姶良市","street":"増田"},{"zipCode":"8995422","prefectureKana":"ｶｺﾞｼﾏｹﾝ","cityKana":"ｱｲﾗｼ","streetKana":"ﾏﾂﾊﾞﾗﾏﾁ","prefecture":"鹿児島県","city":"姶良市","street":"松原町"},{"zipCode":"8995432","prefectureKana":"ｶｺﾞｼﾏｹﾝ","cityKana":"ｱｲﾗｼ","streetKana":"ﾐﾔｼﾞﾏﾏﾁ","prefecture":"鹿児島県","city":"姶良市","street":"宮島町"},{"zipCode":"8995651","prefectureKana":"ｶｺﾞｼﾏｹﾝ","cityKana":"ｱｲﾗｼ","streetKana":"ﾜｷﾓﾄ","prefecture":"鹿児島県","city":"姶良市","street":"脇元"},{"zipCode":"8991400","prefectureKana":"ｶｺﾞｼﾏｹﾝ","cityKana":"ｲｽﾞﾐｸﾞﾝﾅｶﾞｼﾏﾁｮｳ","streetKana":"ｲｶﾆｹｲｻｲｶﾞﾅｲﾊﾞｱｲ","prefecture":"鹿児島県","city":"出水郡長島町","street":"以下に掲載がない場合"},{"zipCode":"8991402","prefectureKana":"ｶｺﾞｼﾏｹﾝ","cityKana":"ｲｽﾞﾐｸﾞﾝﾅｶﾞｼﾏﾁｮｳ","streetKana":"ｳﾗｿｺ","prefecture":"鹿児島県","city":"出水郡長島町","street":"浦底"},{"zipCode":"8991212","prefectureKana":"ｶｺﾞｼﾏｹﾝ","cityKana":"ｲｽﾞﾐｸﾞﾝﾅｶﾞｼﾏﾁｮｳ","streetKana":"ｶﾜﾄｺ","prefecture":"鹿児島県","city":"出水郡長島町","street":"川床"},{"zipCode":"8991301","prefectureKana":"ｶｺﾞｼﾏｹﾝ","cityKana":"ｲｽﾞﾐｸﾞﾝﾅｶﾞｼﾏﾁｮｳ","streetKana":"ｸﾗﾉﾓﾄ","prefecture":"鹿児島県","city":"出水郡長島町","street":"蔵之元"},{"zipCode":"8991303","prefectureKana":"ｶｺﾞｼﾏｹﾝ","cityKana":"ｲｽﾞﾐｸﾞﾝﾅｶﾞｼﾏﾁｮｳ","streetKana":"ｻｽｴ","prefecture":"鹿児島県","city":"出水郡長島町","street":"指江"},{"zipCode":"8991501","prefectureKana":"ｶｺﾞｼﾏｹﾝ","cityKana":"ｲｽﾞﾐｸﾞﾝﾅｶﾞｼﾏﾁｮｳ","streetKana":"ｼｼｼﾞﾏ","prefecture":"鹿児島県","city":"出水郡長島町","street":"獅子島"},{"zipCode":"8991321","prefectureKana":"ｶｺﾞｼﾏｹﾝ","cityKana":"ｲｽﾞﾐｸﾞﾝﾅｶﾞｼﾏﾁｮｳ","streetKana":"ｼﾓﾔﾏﾄﾞﾉ","prefecture":"鹿児島県","city":"出水郡長島町","street":"下山門野"},{"zipCode":"8991304","prefectureKana":"ｶｺﾞｼﾏｹﾝ","cityKana":"ｲｽﾞﾐｸﾞﾝﾅｶﾞｼﾏﾁｮｳ","streetKana":"ｼﾞｮｳｶﾜｳﾁ","prefecture":"鹿児島県","city":"出水郡長島町","street":"城川内"},{"zipCode":"8991403","prefectureKana":"ｶｺﾞｼﾏｹﾝ","cityKana":"ｲｽﾞﾐｸﾞﾝﾅｶﾞｼﾏﾁｮｳ","streetKana":"ｼｮｳﾗ","prefecture":"鹿児島県","city":"出水郡長島町","street":"諸浦"},{"zipCode":"8991401","prefectureKana":"ｶｺﾞｼﾏｹﾝ","cityKana":"ｲｽﾞﾐｸﾞﾝﾅｶﾞｼﾏﾁｮｳ","streetKana":"ﾀｶﾉｽ","prefecture":"鹿児島県","city":"出水郡長島町","street":"鷹巣"},{"zipCode":"8991302","prefectureKana":"ｶｺﾞｼﾏｹﾝ","cityKana":"ｲｽﾞﾐｸﾞﾝﾅｶﾞｼﾏﾁｮｳ","streetKana":"ﾋﾗｵ","prefecture":"鹿児島県","city":"出水郡長島町","street":"平尾"},{"zipCode":"8991211","prefectureKana":"ｶｺﾞｼﾏｹﾝ","cityKana":"ｲｽﾞﾐｸﾞﾝﾅｶﾞｼﾏﾁｮｳ","streetKana":"ﾔﾏﾄﾞﾉ","prefecture":"鹿児島県","city":"出水郡長島町","street":"山門野"},{"zipCode":"8996200","prefectureKana":"ｶｺﾞｼﾏｹﾝ","cityKana":"ｱｲﾗｸﾞﾝﾕｳｽｲﾁｮｳ","streetKana":"ｲｶﾆｹｲｻｲｶﾞﾅｲﾊﾞｱｲ","prefecture":"鹿児島県","city":"姶良郡湧水町","street":"以下に掲載がない場合"},{"zipCode":"8996204","prefectureKana":"ｶｺﾞｼﾏｹﾝ","cityKana":"ｱｲﾗｸﾞﾝﾕｳｽｲﾁｮｳ","streetKana":"ｲﾅﾊﾞｻｷ","prefecture":"鹿児島県","city":"姶良郡湧水町","street":"稲葉崎"},{"zipCode":"8996103","prefectureKana":"ｶｺﾞｼﾏｹﾝ","cityKana":"ｱｲﾗｸﾞﾝﾕｳｽｲﾁｮｳ","streetKana":"ｶﾜｿｴ","prefecture":"鹿児島県","city":"姶良郡湧水町","street":"川添"},{"zipCode":"8996104","prefectureKana":"ｶｺﾞｼﾏｹﾝ","cityKana":"ｱｲﾗｸﾞﾝﾕｳｽｲﾁｮｳ","streetKana":"ｶﾜﾆｼ","prefecture":"鹿児島県","city":"姶良郡湧水町","street":"川西"},{"zipCode":"8996202","prefectureKana":"ｶｺﾞｼﾏｹﾝ","cityKana":"ｱｲﾗｸﾞﾝﾕｳｽｲﾁｮｳ","streetKana":"ｷﾀｶﾀ","prefecture":"鹿児島県","city":"姶良郡湧水町","street":"北方"},{"zipCode":"8996205","prefectureKana":"ｶｺﾞｼﾏｹﾝ","cityKana":"ｱｲﾗｸﾞﾝﾕｳｽｲﾁｮｳ","streetKana":"ｺｳﾀﾞ","prefecture":"鹿児島県","city":"姶良郡湧水町","street":"幸田"},{"zipCode":"8996201","prefectureKana":"ｶｺﾞｼﾏｹﾝ","cityKana":"ｱｲﾗｸﾞﾝﾕｳｽｲﾁｮｳ","streetKana":"ｺﾊﾞ","prefecture":"鹿児島県","city":"姶良郡湧水町","street":"木場"},{"zipCode":"8996203","prefectureKana":"ｶｺﾞｼﾏｹﾝ","cityKana":"ｱｲﾗｸﾞﾝﾕｳｽｲﾁｮｳ","streetKana":"ﾀｵﾊﾞﾙ","prefecture":"鹿児島県","city":"姶良郡湧水町","street":"田尾原"},{"zipCode":"8996206","prefectureKana":"ｶｺﾞｼﾏｹﾝ","cityKana":"ｱｲﾗｸﾞﾝﾕｳｽｲﾁｮｳ","streetKana":"ﾂﾈﾂｸﾞ","prefecture":"鹿児島県","city":"姶良郡湧水町","street":"恒次"},{"zipCode":"8996101","prefectureKana":"ｶｺﾞｼﾏｹﾝ","cityKana":"ｱｲﾗｸﾞﾝﾕｳｽｲﾁｮｳ","streetKana":"ﾂﾙﾏﾙ","prefecture":"鹿児島県","city":"姶良郡湧水町","street":"鶴丸"},{"zipCode":"8996102","prefectureKana":"ｶｺﾞｼﾏｹﾝ","cityKana":"ｱｲﾗｸﾞﾝﾕｳｽｲﾁｮｳ","streetKana":"ﾅｶﾂｶﾞﾜ","prefecture":"鹿児島県","city":"姶良郡湧水町","street":"中津川"},{"zipCode":"8996105","prefectureKana":"ｶｺﾞｼﾏｹﾝ","cityKana":"ｱｲﾗｸﾞﾝﾕｳｽｲﾁｮｳ","streetKana":"ﾊﾝﾆｬｼﾞ","prefecture":"鹿児島県","city":"姶良郡湧水町","street":"般若寺"},{"zipCode":"8996207","prefectureKana":"ｶｺﾞｼﾏｹﾝ","cityKana":"ｱｲﾗｸﾞﾝﾕｳｽｲﾁｮｳ","streetKana":"ﾖﾈﾅｶﾞ","prefecture":"鹿児島県","city":"姶良郡湧水町","street":"米永"},{"zipCode":"8997300","prefectureKana":"ｶｺﾞｼﾏｹﾝ","cityKana":"ｿｵｸﾞﾝｵｵｻｷﾁｮｳ","streetKana":"ｲｶﾆｹｲｻｲｶﾞﾅｲﾊﾞｱｲ","prefecture":"鹿児島県","city":"曽於郡大崎町","street":"以下に掲載がない場合"},{"zipCode":"8997309","prefectureKana":"ｶｺﾞｼﾏｹﾝ","cityKana":"ｿｵｸﾞﾝｵｵｻｷﾁｮｳ","streetKana":"ｲﾏﾀ","prefecture":"鹿児島県","city":"曽於郡大崎町","street":"井俣"},{"zipCode":"8997308","prefectureKana":"ｶｺﾞｼﾏｹﾝ","cityKana":"ｿｵｸﾞﾝｵｵｻｷﾁｮｳ","streetKana":"ｵｶﾍﾞｯﾌﾟ","prefecture":"鹿児島県","city":"曽於郡大崎町","street":"岡別府"},{"zipCode":"8997305","prefectureKana":"ｶｺﾞｼﾏｹﾝ","cityKana":"ｿｵｸﾞﾝｵｵｻｷﾁｮｳ","streetKana":"ｶﾘｼﾞｭｸ","prefecture":"鹿児島県","city":"曽於郡大崎町","street":"假宿"},{"zipCode":"8997302","prefectureKana":"ｶｺﾞｼﾏｹﾝ","cityKana":"ｿｵｸﾞﾝｵｵｻｷﾁｮｳ","streetKana":"ｼﾞﾝﾘｮｳ","prefecture":"鹿児島県","city":"曽於郡大崎町","street":"神領"},{"zipCode":"8997306","prefectureKana":"ｶｺﾞｼﾏｹﾝ","cityKana":"ｿｵｸﾞﾝｵｵｻｷﾁｮｳ","streetKana":"ﾅｶﾞﾖｼ","prefecture":"鹿児島県","city":"曽於郡大崎町","street":"永吉"},{"zipCode":"8998313","prefectureKana":"ｶｺﾞｼﾏｹﾝ","cityKana":"ｿｵｸﾞﾝｵｵｻｷﾁｮｳ","streetKana":"ﾉｶﾞﾀ","prefecture":"鹿児島県","city":"曽於郡大崎町","street":"野方"},{"zipCode":"8997301","prefectureKana":"ｶｺﾞｼﾏｹﾝ","cityKana":"ｿｵｸﾞﾝｵｵｻｷﾁｮｳ","streetKana":"ﾋｼﾀﾞ","prefecture":"鹿児島県","city":"曽於郡大崎町","street":"菱田"},{"zipCode":"8997303","prefectureKana":"ｶｺﾞｼﾏｹﾝ","cityKana":"ｿｵｸﾞﾝｵｵｻｷﾁｮｳ","streetKana":"ﾏｽﾏﾙ","prefecture":"鹿児島県","city":"曽於郡大崎町","street":"益丸"},{"zipCode":"8997307","prefectureKana":"ｶｺﾞｼﾏｹﾝ","cityKana":"ｿｵｸﾞﾝｵｵｻｷﾁｮｳ","streetKana":"ﾓﾁﾄﾞﾒ","prefecture":"鹿児島県","city":"曽於郡大崎町","street":"持留"},{"zipCode":"8997304","prefectureKana":"ｶｺﾞｼﾏｹﾝ","cityKana":"ｿｵｸﾞﾝｵｵｻｷﾁｮｳ","streetKana":"ﾖｺｾ","prefecture":"鹿児島県","city":"曽於郡大崎町","street":"横瀬"}]