[{"zipCode":"9000000","prefectureKana":"ｵｷﾅﾜｹﾝ","cityKana":"ﾅﾊｼ","streetKana":"ｲｶﾆｹｲｻｲｶﾞﾅｲﾊﾞｱｲ","prefecture":"沖縄県","city":"那覇市","street":"以下に掲載がない場合"},{"zipCode":"9000002","prefectureKana":"ｵｷﾅﾜｹﾝ","cityKana":"ﾅﾊｼ","streetKana":"ｱｹﾎﾞﾉ","prefecture":"沖縄県","city":"那覇市","street":"曙"},{"zipCode":"9000029","prefectureKana":"ｵｷﾅﾜｹﾝ","cityKana":"ﾅﾊｼ","streetKana":"ｱｻﾋﾏﾁ","prefecture":"沖縄県","city":"那覇市","street":"旭町"},{"zipCode":"9000003","prefectureKana":"ｵｷﾅﾜｹﾝ","cityKana":"ﾅﾊｼ","streetKana":"ｱｼﾞｬ","prefecture":"沖縄県","city":"那覇市","street":"安謝"},{"zipCode":"9000005","prefectureKana":"ｵｷﾅﾜｹﾝ","cityKana":"ﾅﾊｼ","streetKana":"ｱﾒｸ","prefecture":"沖縄県","city":"那覇市","street":"天久"},{"zipCode":"9000021","prefectureKana":"ｵｷﾅﾜｹﾝ","cityKana":"ﾅﾊｼ","streetKana":"ｲｽﾞﾐｻﾞｷ","prefecture":"沖縄県","city":"那覇市","street":"泉崎"},{"zipCode":"9000011","prefectureKana":"ｵｷﾅﾜｹﾝ","cityKana":"ﾅﾊｼ","streetKana":"ｳｴﾉﾔ","prefecture":"沖縄県","city":"那覇市","street":"上之屋"},{"zipCode":"9000026","prefectureKana":"ｵｷﾅﾜｹﾝ","cityKana":"ﾅﾊｼ","streetKana":"ｵｵﾉﾔﾏﾁｮｳ","prefecture":"沖縄県","city":"那覇市","street":"奥武山町"},{"zipCode":"9000006","prefectureKana":"ｵｷﾅﾜｹﾝ","cityKana":"ﾅﾊｼ","streetKana":"ｵﾓﾛﾏﾁ","prefecture":"沖縄県","city":"那覇市","street":"おもろまち"},{"zipCode":"9000028","prefectureKana":"ｵｷﾅﾜｹﾝ","cityKana":"ﾅﾊｼ","streetKana":"ｶｷﾉﾊﾅﾁｮｳ","prefecture":"沖縄県","city":"那覇市","street":"垣花町"},{"zipCode":"9000033","prefectureKana":"ｵｷﾅﾜｹﾝ","cityKana":"ﾅﾊｼ","streetKana":"ｸﾒ","prefecture":"沖縄県","city":"那覇市","street":"久米"},{"zipCode":"9000015","prefectureKana":"ｵｷﾅﾜｹﾝ","cityKana":"ﾅﾊｼ","streetKana":"ｸﾓｼﾞ","prefecture":"沖縄県","city":"那覇市","street":"久茂地"},{"zipCode":"9000024","prefectureKana":"ｵｷﾅﾜｹﾝ","cityKana":"ﾅﾊｼ","streetKana":"ｺﾊｸﾞﾗ","prefecture":"沖縄県","city":"那覇市","street":"古波蔵"},{"zipCode":"9000023","prefectureKana":"ｵｷﾅﾜｹﾝ","cityKana":"ﾅﾊｼ","streetKana":"ｿﾍﾞ","prefecture":"沖縄県","city":"那覇市","street":"楚辺"},{"zipCode":"9000037","prefectureKana":"ｵｷﾅﾜｹﾝ","cityKana":"ﾅﾊｼ","streetKana":"ﾂｼﾞ","prefecture":"沖縄県","city":"那覇市","street":"辻"},{"zipCode":"9000025","prefectureKana":"ｵｷﾅﾜｹﾝ","cityKana":"ﾅﾊｼ","streetKana":"ﾂﾎﾞｶﾞﾜ","prefecture":"沖縄県","city":"那覇市","street":"壺川"},{"zipCode":"9000012","prefectureKana":"ｵｷﾅﾜｹﾝ","cityKana":"ﾅﾊｼ","streetKana":"ﾄﾏﾘ","prefecture":"沖縄県","city":"那覇市","street":"泊"},{"zipCode":"9000035","prefectureKana":"ｵｷﾅﾜｹﾝ","cityKana":"ﾅﾊｼ","streetKana":"ﾄﾝﾄﾞｳﾁｮｳ","prefecture":"沖縄県","city":"那覇市","street":"通堂町"},{"zipCode":"9000036","prefectureKana":"ｵｷﾅﾜｹﾝ","cityKana":"ﾅﾊｼ","streetKana":"ﾆｼ","prefecture":"沖縄県","city":"那覇市","street":"西"},{"zipCode":"9000034","prefectureKana":"ｵｷﾅﾜｹﾝ","cityKana":"ﾅﾊｼ","streetKana":"ﾋｶﾞｼﾏﾁ","prefecture":"沖縄県","city":"那覇市","street":"東町"},{"zipCode":"9000022","prefectureKana":"ｵｷﾅﾜｹﾝ","cityKana":"ﾅﾊｼ","streetKana":"ﾋｶﾞﾜ","prefecture":"沖縄県","city":"那覇市","street":"樋川"},{"zipCode":"9000016","prefectureKana":"ｵｷﾅﾜｹﾝ","cityKana":"ﾅﾊｼ","streetKana":"ﾏｴｼﾞﾏ","prefecture":"沖縄県","city":"那覇市","street":"前島"},{"zipCode":"9000013","prefectureKana":"ｵｷﾅﾜｹﾝ","cityKana":"ﾅﾊｼ","streetKana":"ﾏｷｼ","prefecture":"沖縄県","city":"那覇市","street":"牧志"},{"zipCode":"9000014","prefectureKana":"ｵｷﾅﾜｹﾝ","cityKana":"ﾅﾊｼ","streetKana":"ﾏﾂｵ","prefecture":"沖縄県","city":"那覇市","street":"松尾"},{"zipCode":"9000032","prefectureKana":"ｵｷﾅﾜｹﾝ","cityKana":"ﾅﾊｼ","streetKana":"ﾏﾂﾔﾏ","prefecture":"沖縄県","city":"那覇市","street":"松山"},{"zipCode":"9000001","prefectureKana":"ｵｷﾅﾜｹﾝ","cityKana":"ﾅﾊｼ","streetKana":"ﾐﾅﾄﾏﾁ","prefecture":"沖縄県","city":"那覇市","street":"港町"},{"zipCode":"9000004","prefectureKana":"ｵｷﾅﾜｹﾝ","cityKana":"ﾅﾊｼ","streetKana":"ﾒｶﾙ","prefecture":"沖縄県","city":"那覇市","street":"銘苅"},{"zipCode":"9000027","prefectureKana":"ｵｷﾅﾜｹﾝ","cityKana":"ﾅﾊｼ","streetKana":"ﾔﾏｼﾀﾁｮｳ","prefecture":"沖縄県","city":"那覇市","street":"山下町"},{"zipCode":"9000031","prefectureKana":"ｵｷﾅﾜｹﾝ","cityKana":"ﾅﾊｼ","streetKana":"ﾜｶｻ","prefecture":"沖縄県","city":"那覇市","street":"若狭"}]