[{"zipCode":"9010154","prefectureKana":"ｵｷﾅﾜｹﾝ","cityKana":"ﾅﾊｼ","streetKana":"ｱｶﾐﾈ","prefecture":"沖縄県","city":"那覇市","street":"赤嶺"},{"zipCode":"9010143","prefectureKana":"ｵｷﾅﾜｹﾝ","cityKana":"ﾅﾊｼ","streetKana":"ｱｼﾐﾈ","prefecture":"沖縄県","city":"那覇市","street":"安次嶺"},{"zipCode":"9010153","prefectureKana":"ｵｷﾅﾜｹﾝ","cityKana":"ﾅﾊｼ","streetKana":"ｳｴﾊﾞﾙ","prefecture":"沖縄県","city":"那覇市","street":"宇栄原"},{"zipCode":"9010148","prefectureKana":"ｵｷﾅﾜｹﾝ","cityKana":"ﾅﾊｼ","streetKana":"ｵｵﾐﾈ","prefecture":"沖縄県","city":"那覇市","street":"大嶺"},{"zipCode":"9010152","prefectureKana":"ｵｷﾅﾜｹﾝ","cityKana":"ﾅﾊｼ","streetKana":"ｵﾛｸ","prefecture":"沖縄県","city":"那覇市","street":"小禄"},{"zipCode":"9010142","prefectureKana":"ｵｷﾅﾜｹﾝ","cityKana":"ﾅﾊｼ","streetKana":"ｶｶﾞﾐｽﾞ","prefecture":"沖縄県","city":"那覇市","street":"鏡水"},{"zipCode":"9010155","prefectureKana":"ｵｷﾅﾜｹﾝ","cityKana":"ﾅﾊｼ","streetKana":"ｶﾅｸﾞｽｸ","prefecture":"沖縄県","city":"那覇市","street":"金城"},{"zipCode":"9010151","prefectureKana":"ｵｷﾅﾜｹﾝ","cityKana":"ﾅﾊｼ","streetKana":"ｷｮｳﾊﾗﾁｮｳ","prefecture":"沖縄県","city":"那覇市","street":"鏡原町"},{"zipCode":"9010146","prefectureKana":"ｵｷﾅﾜｹﾝ","cityKana":"ﾅﾊｼ","streetKana":"ｸﾞｼ","prefecture":"沖縄県","city":"那覇市","street":"具志"},{"zipCode":"9010141","prefectureKana":"ｵｷﾅﾜｹﾝ","cityKana":"ﾅﾊｼ","streetKana":"ｽﾐﾖｼﾁｮｳ","prefecture":"沖縄県","city":"那覇市","street":"住吉町"},{"zipCode":"9010145","prefectureKana":"ｵｷﾅﾜｹﾝ","cityKana":"ﾅﾊｼ","streetKana":"ﾀｶﾗ","prefecture":"沖縄県","city":"那覇市","street":"高良"},{"zipCode":"9010156","prefectureKana":"ｵｷﾅﾜｹﾝ","cityKana":"ﾅﾊｼ","streetKana":"ﾀﾊﾞﾙ","prefecture":"沖縄県","city":"那覇市","street":"田原"},{"zipCode":"9010144","prefectureKana":"ｵｷﾅﾜｹﾝ","cityKana":"ﾅﾊｼ","streetKana":"ﾄｳﾏ","prefecture":"沖縄県","city":"那覇市","street":"当間"},{"zipCode":"9010147","prefectureKana":"ｵｷﾅﾜｹﾝ","cityKana":"ﾅﾊｼ","streetKana":"ﾐﾔｸﾞｽｸ","prefecture":"沖縄県","city":"那覇市","street":"宮城"},{"zipCode":"9012200","prefectureKana":"ｵｷﾅﾜｹﾝ","cityKana":"ｷﾞﾉﾜﾝｼ","streetKana":"ｲｶﾆｹｲｻｲｶﾞﾅｲﾊﾞｱｲ","prefecture":"沖縄県","city":"宜野湾市","street":"以下に掲載がない場合"},{"zipCode":"9012206","prefectureKana":"ｵｷﾅﾜｹﾝ","cityKana":"ｷﾞﾉﾜﾝｼ","streetKana":"ｱｲﾁ","prefecture":"沖縄県","city":"宜野湾市","street":"愛知"},{"zipCode":"9012205","prefectureKana":"ｵｷﾅﾜｹﾝ","cityKana":"ｷﾞﾉﾜﾝｼ","streetKana":"ｱｶﾐﾁ","prefecture":"沖縄県","city":"宜野湾市","street":"赤道"},{"zipCode":"9012201","prefectureKana":"ｵｷﾅﾜｹﾝ","cityKana":"ｷﾞﾉﾜﾝｼ","streetKana":"ｱﾗｸﾞｽｸ","prefecture":"沖縄県","city":"宜野湾市","street":"新城"},{"zipCode":"9012221","prefectureKana":"ｵｷﾅﾜｹﾝ","cityKana":"ｷﾞﾉﾜﾝｼ","streetKana":"ｲｻ","prefecture":"沖縄県","city":"宜野湾市","street":"伊佐"},{"zipCode":"9012204","prefectureKana":"ｵｷﾅﾜｹﾝ","cityKana":"ｷﾞﾉﾜﾝｼ","streetKana":"ｳｴﾊﾗ","prefecture":"沖縄県","city":"宜野湾市","street":"上原"},{"zipCode":"9012227","prefectureKana":"ｵｷﾅﾜｹﾝ","cityKana":"ｷﾞﾉﾜﾝｼ","streetKana":"ｳﾁﾄﾞﾏﾘ","prefecture":"沖縄県","city":"宜野湾市","street":"宇地泊"},{"zipCode":"9012225","prefectureKana":"ｵｷﾅﾜｹﾝ","cityKana":"ｷﾞﾉﾜﾝｼ","streetKana":"ｵｵｼﾞｬﾅ","prefecture":"沖縄県","city":"宜野湾市","street":"大謝名"},{"zipCode":"9012223","prefectureKana":"ｵｷﾅﾜｹﾝ","cityKana":"ｷﾞﾉﾜﾝｼ","streetKana":"ｵｵﾔﾏ","prefecture":"沖縄県","city":"宜野湾市","street":"大山"},{"zipCode":"9012226","prefectureKana":"ｵｷﾅﾜｹﾝ","cityKana":"ｷﾞﾉﾜﾝｼ","streetKana":"ｶｶｽﾞ","prefecture":"沖縄県","city":"宜野湾市","street":"嘉数"},{"zipCode":"9012214","prefectureKana":"ｵｷﾅﾜｹﾝ","cityKana":"ｷﾞﾉﾜﾝｼ","streetKana":"ｶﾞﾈｺ","prefecture":"沖縄県","city":"宜野湾市","street":"我如古"},{"zipCode":"9012207","prefectureKana":"ｵｷﾅﾜｹﾝ","cityKana":"ｷﾞﾉﾜﾝｼ","streetKana":"ｶﾐﾔﾏ","prefecture":"沖縄県","city":"宜野湾市","street":"神山"},{"zipCode":"9012211","prefectureKana":"ｵｷﾅﾜｹﾝ","cityKana":"ｷﾞﾉﾜﾝｼ","streetKana":"ｷﾞﾉﾜﾝ","prefecture":"沖縄県","city":"宜野湾市","street":"宜野湾"},{"zipCode":"9012222","prefectureKana":"ｵｷﾅﾜｹﾝ","cityKana":"ｷﾞﾉﾜﾝｼ","streetKana":"ｷﾕｳﾅ","prefecture":"沖縄県","city":"宜野湾市","street":"喜友名"},{"zipCode":"9012216","prefectureKana":"ｵｷﾅﾜｹﾝ","cityKana":"ｷﾞﾉﾜﾝｼ","streetKana":"ｻﾏｼﾀ","prefecture":"沖縄県","city":"宜野湾市","street":"佐真下"},{"zipCode":"9012213","prefectureKana":"ｵｷﾅﾜｹﾝ","cityKana":"ｷﾞﾉﾜﾝｼ","streetKana":"ｼﾏｼ","prefecture":"沖縄県","city":"宜野湾市","street":"志真志"},{"zipCode":"9012212","prefectureKana":"ｵｷﾅﾜｹﾝ","cityKana":"ｷﾞﾉﾜﾝｼ","streetKana":"ﾅｶﾞﾀ","prefecture":"沖縄県","city":"宜野湾市","street":"長田"},{"zipCode":"9012203","prefectureKana":"ｵｷﾅﾜｹﾝ","cityKana":"ｷﾞﾉﾜﾝｼ","streetKana":"ﾉﾀﾞｹ","prefecture":"沖縄県","city":"宜野湾市","street":"野嵩"},{"zipCode":"9012202","prefectureKana":"ｵｷﾅﾜｹﾝ","cityKana":"ｷﾞﾉﾜﾝｼ","streetKana":"ﾌﾃﾝﾏ","prefecture":"沖縄県","city":"宜野湾市","street":"普天間"},{"zipCode":"9012215","prefectureKana":"ｵｷﾅﾜｹﾝ","cityKana":"ｷﾞﾉﾜﾝｼ","streetKana":"ﾏｴﾊﾗ","prefecture":"沖縄県","city":"宜野湾市","street":"真栄原"},{"zipCode":"9012224","prefectureKana":"ｵｷﾅﾜｹﾝ","cityKana":"ｷﾞﾉﾜﾝｼ","streetKana":"ﾏｼｷ","prefecture":"沖縄県","city":"宜野湾市","street":"真志喜"},{"zipCode":"9012100","prefectureKana":"ｵｷﾅﾜｹﾝ","cityKana":"ｳﾗｿｴｼ","streetKana":"ｲｶﾆｹｲｻｲｶﾞﾅｲﾊﾞｱｲ","prefecture":"沖縄県","city":"浦添市","street":"以下に掲載がない場合"},{"zipCode":"9012114","prefectureKana":"ｵｷﾅﾜｹﾝ","cityKana":"ｳﾗｿｴｼ","streetKana":"ｱﾊﾁｬ","prefecture":"沖縄県","city":"浦添市","street":"安波茶"},{"zipCode":"9012132","prefectureKana":"ｵｷﾅﾜｹﾝ","cityKana":"ｳﾗｿｴｼ","streetKana":"ｲｿ","prefecture":"沖縄県","city":"浦添市","street":"伊祖"},{"zipCode":"9012128","prefectureKana":"ｵｷﾅﾜｹﾝ","cityKana":"ｳﾗｿｴｼ","streetKana":"ｲﾅﾝｾ","prefecture":"沖縄県","city":"浦添市","street":"伊奈武瀬"},{"zipCode":"9012123","prefectureKana":"ｵｷﾅﾜｹﾝ","cityKana":"ｳﾗｿｴｼ","streetKana":"ｲﾘｼﾞﾏ","prefecture":"沖縄県","city":"浦添市","street":"西洲"},{"zipCode":"9012121","prefectureKana":"ｵｷﾅﾜｹﾝ","cityKana":"ｳﾗｿｴｼ","streetKana":"ｳﾁﾏ","prefecture":"沖縄県","city":"浦添市","street":"内間"},{"zipCode":"9012113","prefectureKana":"ｵｷﾅﾜｹﾝ","cityKana":"ｳﾗｿｴｼ","streetKana":"ｵｵﾋﾗ","prefecture":"沖縄県","city":"浦添市","street":"大平"},{"zipCode":"9012111","prefectureKana":"ｵｷﾅﾜｹﾝ","cityKana":"ｳﾗｿｴｼ","streetKana":"ｷｮｳﾂﾞｶ","prefecture":"沖縄県","city":"浦添市","street":"経塚"},{"zipCode":"9012133","prefectureKana":"ｵｷﾅﾜｹﾝ","cityKana":"ｳﾗｿｴｼ","streetKana":"ｸﾞｽｸﾏ","prefecture":"沖縄県","city":"浦添市","street":"城間"},{"zipCode":"9012124","prefectureKana":"ｵｷﾅﾜｹﾝ","cityKana":"ｳﾗｿｴｼ","streetKana":"ｺﾜﾝ","prefecture":"沖縄県","city":"浦添市","street":"小湾"},{"zipCode":"9012122","prefectureKana":"ｵｷﾅﾜｹﾝ","cityKana":"ｳﾗｿｴｼ","streetKana":"ｼﾞｯﾁｬｸ","prefecture":"沖縄県","city":"浦添市","street":"勢理客"},{"zipCode":"9012112","prefectureKana":"ｵｷﾅﾜｹﾝ","cityKana":"ｳﾗｿｴｼ","streetKana":"ﾀｸｼ","prefecture":"沖縄県","city":"浦添市","street":"沢岻"},{"zipCode":"9012104","prefectureKana":"ｵｷﾅﾜｹﾝ","cityKana":"ｳﾗｿｴｼ","streetKana":"ﾄｳﾔﾏ","prefecture":"沖縄県","city":"浦添市","street":"当山"},{"zipCode":"9012103","prefectureKana":"ｵｷﾅﾜｹﾝ","cityKana":"ｳﾗｿｴｼ","streetKana":"ﾅｶﾏ","prefecture":"沖縄県","city":"浦添市","street":"仲間"},{"zipCode":"9012125","prefectureKana":"ｵｷﾅﾜｹﾝ","cityKana":"ｳﾗｿｴｼ","streetKana":"ﾅｶﾆｼ","prefecture":"沖縄県","city":"浦添市","street":"仲西"},{"zipCode":"9012101","prefectureKana":"ｵｷﾅﾜｹﾝ","cityKana":"ｳﾗｿｴｼ","streetKana":"ﾆｼﾊﾗ","prefecture":"沖縄県","city":"浦添市","street":"西原"},{"zipCode":"9012102","prefectureKana":"ｵｷﾅﾜｹﾝ","cityKana":"ｳﾗｿｴｼ","streetKana":"ﾏｴﾀﾞ","prefecture":"沖縄県","city":"浦添市","street":"前田"},{"zipCode":"9012131","prefectureKana":"ｵｷﾅﾜｹﾝ","cityKana":"ｳﾗｿｴｼ","streetKana":"ﾏｷﾐﾅﾄ","prefecture":"沖縄県","city":"浦添市","street":"牧港"},{"zipCode":"9012134","prefectureKana":"ｵｷﾅﾜｹﾝ","cityKana":"ｳﾗｿｴｼ","streetKana":"ﾐﾅﾄｶﾞﾜ","prefecture":"沖縄県","city":"浦添市","street":"港川"},{"zipCode":"9012126","prefectureKana":"ｵｷﾅﾜｹﾝ","cityKana":"ｳﾗｿｴｼ","streetKana":"ﾐﾔｷﾞ","prefecture":"沖縄県","city":"浦添市","street":"宮城"},{"zipCode":"9012127","prefectureKana":"ｵｷﾅﾜｹﾝ","cityKana":"ｳﾗｿｴｼ","streetKana":"ﾔﾌｿ","prefecture":"沖縄県","city":"浦添市","street":"屋富祖"},{"zipCode":"9010300","prefectureKana":"ｵｷﾅﾜｹﾝ","cityKana":"ｲﾄﾏﾝｼ","streetKana":"ｲｶﾆｹｲｻｲｶﾞﾅｲﾊﾞｱｲ","prefecture":"沖縄県","city":"糸満市","street":"以下に掲載がない場合"},{"zipCode":"9010301","prefectureKana":"ｵｷﾅﾜｹﾝ","cityKana":"ｲﾄﾏﾝｼ","streetKana":"ｱﾊｺﾞﾝ","prefecture":"沖縄県","city":"糸満市","street":"阿波根"},{"zipCode":"9010323","prefectureKana":"ｵｷﾅﾜｹﾝ","cityKana":"ｲﾄﾏﾝｼ","streetKana":"ｱﾗｶｷ","prefecture":"沖縄県","city":"糸満市","street":"新垣"},{"zipCode":"9010363","prefectureKana":"ｵｷﾅﾜｹﾝ","cityKana":"ｲﾄﾏﾝｼ","streetKana":"ｲｼｷ","prefecture":"沖縄県","city":"糸満市","street":"伊敷"},{"zipCode":"9010342","prefectureKana":"ｵｷﾅﾜｹﾝ","cityKana":"ｲﾄﾏﾝｼ","streetKana":"ｲﾄｽ","prefecture":"沖縄県","city":"糸満市","street":"糸洲"},{"zipCode":"9010361","prefectureKana":"ｵｷﾅﾜｹﾝ","cityKana":"ｲﾄﾏﾝｼ","streetKana":"ｲﾄﾏﾝ","prefecture":"沖縄県","city":"糸満市","street":"糸満"},{"zipCode":"9010344","prefectureKana":"ｵｷﾅﾜｹﾝ","cityKana":"ｲﾄﾏﾝｼ","streetKana":"ｲﾊﾗ","prefecture":"沖縄県","city":"糸満市","street":"伊原"},{"zipCode":"9010332","prefectureKana":"ｵｷﾅﾜｹﾝ","cityKana":"ｲﾄﾏﾝｼ","streetKana":"ｳｴｸﾞｽｸ","prefecture":"沖縄県","city":"糸満市","street":"宇江城"},{"zipCode":"9010325","prefectureKana":"ｵｷﾅﾜｹﾝ","cityKana":"ｲﾄﾏﾝｼ","streetKana":"ｵｵｻﾞﾄ","prefecture":"沖縄県","city":"糸満市","street":"大里"},{"zipCode":"9010334","prefectureKana":"ｵｷﾅﾜｹﾝ","cityKana":"ｲﾄﾏﾝｼ","streetKana":"ｵｵﾄﾞ","prefecture":"沖縄県","city":"糸満市","street":"大度"},{"zipCode":"9010313","prefectureKana":"ｵｷﾅﾜｹﾝ","cityKana":"ｲﾄﾏﾝｼ","streetKana":"ｶｶｽﾞ","prefecture":"沖縄県","city":"糸満市","street":"賀数"},{"zipCode":"9010303","prefectureKana":"ｵｷﾅﾜｹﾝ","cityKana":"ｲﾄﾏﾝｼ","streetKana":"ｶﾈｸﾞｽｸ","prefecture":"沖縄県","city":"糸満市","street":"兼城"},{"zipCode":"9010312","prefectureKana":"ｵｷﾅﾜｹﾝ","cityKana":"ｲﾄﾏﾝｼ","streetKana":"ｷﾀﾅﾐﾋﾗ","prefecture":"沖縄県","city":"糸満市","street":"北波平"},{"zipCode":"9010354","prefectureKana":"ｵｷﾅﾜｹﾝ","cityKana":"ｲﾄﾏﾝｼ","streetKana":"ｷｬﾝ","prefecture":"沖縄県","city":"糸満市","street":"喜屋武"},{"zipCode":"9010324","prefectureKana":"ｵｷﾅﾜｹﾝ","cityKana":"ｲﾄﾏﾝｼ","streetKana":"ｸﾆﾖｼ","prefecture":"沖縄県","city":"糸満市","street":"国吉"},{"zipCode":"9010341","prefectureKana":"ｵｷﾅﾜｹﾝ","cityKana":"ｲﾄﾏﾝｼ","streetKana":"ｺﾊｸﾞﾗ","prefecture":"沖縄県","city":"糸満市","street":"小波蔵"},{"zipCode":"9010335","prefectureKana":"ｵｷﾅﾜｹﾝ","cityKana":"ｲﾄﾏﾝｼ","streetKana":"ｺﾒｽ","prefecture":"沖縄県","city":"糸満市","street":"米須"},{"zipCode":"9010314","prefectureKana":"ｵｷﾅﾜｹﾝ","cityKana":"ｲﾄﾏﾝｼ","streetKana":"ｻﾞﾊ","prefecture":"沖縄県","city":"糸満市","street":"座波"},{"zipCode":"9010364","prefectureKana":"ｵｷﾅﾜｹﾝ","cityKana":"ｲﾄﾏﾝｼ","streetKana":"ｼｵｻﾞｷﾁｮｳ","prefecture":"沖縄県","city":"糸満市","street":"潮崎町"},{"zipCode":"9010302","prefectureKana":"ｵｷﾅﾜｹﾝ","cityKana":"ｲﾄﾏﾝｼ","streetKana":"ｼｵﾋﾗ","prefecture":"沖縄県","city":"糸満市","street":"潮平"},{"zipCode":"9010311","prefectureKana":"ｵｷﾅﾜｹﾝ","cityKana":"ｲﾄﾏﾝｼ","streetKana":"ﾀｹﾄﾐ","prefecture":"沖縄県","city":"糸満市","street":"武富"},{"zipCode":"9010353","prefectureKana":"ｵｷﾅﾜｹﾝ","cityKana":"ｲﾄﾏﾝｼ","streetKana":"ﾂｶｻﾞﾄ","prefecture":"沖縄県","city":"糸満市","street":"束里"},{"zipCode":"9010315","prefectureKana":"ｵｷﾅﾜｹﾝ","cityKana":"ｲﾄﾏﾝｼ","streetKana":"ﾃﾙﾔ","prefecture":"沖縄県","city":"糸満市","street":"照屋"},{"zipCode":"9010321","prefectureKana":"ｵｷﾅﾜｹﾝ","cityKana":"ｲﾄﾏﾝｼ","streetKana":"ﾄﾖﾊﾗ","prefecture":"沖縄県","city":"糸満市","street":"豊原"},{"zipCode":"9010351","prefectureKana":"ｵｷﾅﾜｹﾝ","cityKana":"ｲﾄﾏﾝｼ","streetKana":"ﾅｼﾛ","prefecture":"沖縄県","city":"糸満市","street":"名城"},{"zipCode":"9010304","prefectureKana":"ｵｷﾅﾜｹﾝ","cityKana":"ｲﾄﾏﾝｼ","streetKana":"ﾆｼｶﾜﾁｮｳ","prefecture":"沖縄県","city":"糸満市","street":"西川町"},{"zipCode":"9010305","prefectureKana":"ｵｷﾅﾜｹﾝ","cityKana":"ｲﾄﾏﾝｼ","streetKana":"ﾆｼｻﾞｷ","prefecture":"沖縄県","city":"糸満市","street":"西崎"},{"zipCode":"9010306","prefectureKana":"ｵｷﾅﾜｹﾝ","cityKana":"ｲﾄﾏﾝｼ","streetKana":"ﾆｼｻﾞｷﾁｮｳ","prefecture":"沖縄県","city":"糸満市","street":"西崎町"},{"zipCode":"9010345","prefectureKana":"ｵｷﾅﾜｹﾝ","cityKana":"ｲﾄﾏﾝｼ","streetKana":"ﾌｸｼﾞ","prefecture":"沖縄県","city":"糸満市","street":"福地"},{"zipCode":"9010362","prefectureKana":"ｵｷﾅﾜｹﾝ","cityKana":"ｲﾄﾏﾝｼ","streetKana":"ﾏｴｻﾞﾄ","prefecture":"沖縄県","city":"糸満市","street":"真栄里"},{"zipCode":"9010331","prefectureKana":"ｵｷﾅﾜｹﾝ","cityKana":"ｲﾄﾏﾝｼ","streetKana":"ﾏｴﾋﾗ","prefecture":"沖縄県","city":"糸満市","street":"真栄平"},{"zipCode":"9010336","prefectureKana":"ｵｷﾅﾜｹﾝ","cityKana":"ｲﾄﾏﾝｼ","streetKana":"ﾏｶﾍﾞ","prefecture":"沖縄県","city":"糸満市","street":"真壁"},{"zipCode":"9010333","prefectureKana":"ｵｷﾅﾜｹﾝ","cityKana":"ｲﾄﾏﾝｼ","streetKana":"ﾏﾌﾞﾆ","prefecture":"沖縄県","city":"糸満市","street":"摩文仁"},{"zipCode":"9010343","prefectureKana":"ｵｷﾅﾜｹﾝ","cityKana":"ｲﾄﾏﾝｼ","streetKana":"ﾐﾅﾐﾅﾐﾋﾗ","prefecture":"沖縄県","city":"糸満市","street":"南波平"},{"zipCode":"9010352","prefectureKana":"ｵｷﾅﾜｹﾝ","cityKana":"ｲﾄﾏﾝｼ","streetKana":"ﾔﾏｸﾞｽｸ","prefecture":"沖縄県","city":"糸満市","street":"山城"},{"zipCode":"9010322","prefectureKana":"ｵｷﾅﾜｹﾝ","cityKana":"ｲﾄﾏﾝｼ","streetKana":"ﾖｻﾞ","prefecture":"沖縄県","city":"糸満市","street":"与座"},{"zipCode":"9010200","prefectureKana":"ｵｷﾅﾜｹﾝ","cityKana":"ﾄﾐｸﾞｽｸｼ","streetKana":"ｲｶﾆｹｲｻｲｶﾞﾅｲﾊﾞｱｲ","prefecture":"沖縄県","city":"豊見城市","street":"以下に掲載がない場合"},{"zipCode":"9010232","prefectureKana":"ｵｷﾅﾜｹﾝ","cityKana":"ﾄﾐｸﾞｽｸｼ","streetKana":"ｲﾗﾊ","prefecture":"沖縄県","city":"豊見城市","street":"伊良波"},{"zipCode":"9010243","prefectureKana":"ｵｷﾅﾜｹﾝ","cityKana":"ﾄﾐｸﾞｽｸｼ","streetKana":"ｳｴﾀ","prefecture":"沖縄県","city":"豊見城市","street":"上田"},{"zipCode":"9010223","prefectureKana":"ｵｷﾅﾜｹﾝ","cityKana":"ﾄﾐｸﾞｽｸｼ","streetKana":"ｵﾅｶﾞ","prefecture":"沖縄県","city":"豊見城市","street":"翁長"},{"zipCode":"9010202","prefectureKana":"ｵｷﾅﾜｹﾝ","cityKana":"ﾄﾐｸﾞｽｸｼ","streetKana":"ｶｶｽﾞ","prefecture":"沖縄県","city":"豊見城市","street":"嘉数"},{"zipCode":"9010231","prefectureKana":"ｵｷﾅﾜｹﾝ","cityKana":"ﾄﾐｸﾞｽｸｼ","streetKana":"ｶﾞﾅﾊ","prefecture":"沖縄県","city":"豊見城市","street":"我那覇"},{"zipCode":"9010204","prefectureKana":"ｵｷﾅﾜｹﾝ","cityKana":"ﾄﾐｸﾞｽｸｼ","streetKana":"ｶﾈﾗ","prefecture":"沖縄県","city":"豊見城市","street":"金良"},{"zipCode":"9010244","prefectureKana":"ｵｷﾅﾜｹﾝ","cityKana":"ﾄﾐｸﾞｽｸｼ","streetKana":"ｷﾞﾎﾞ","prefecture":"沖縄県","city":"豊見城市","street":"宜保"},{"zipCode":"9010221","prefectureKana":"ｵｷﾅﾜｹﾝ","cityKana":"ﾄﾐｸﾞｽｸｼ","streetKana":"ｻﾞﾔｽ","prefecture":"沖縄県","city":"豊見城市","street":"座安"},{"zipCode":"9010233","prefectureKana":"ｵｷﾅﾜｹﾝ","cityKana":"ﾄﾐｸﾞｽｸｼ","streetKana":"ｾﾅｶﾞ","prefecture":"沖縄県","city":"豊見城市","street":"瀬長"},{"zipCode":"9010212","prefectureKana":"ｵｷﾅﾜｹﾝ","cityKana":"ﾄﾐｸﾞｽｸｼ","streetKana":"ﾀｲﾗ","prefecture":"沖縄県","city":"豊見城市","street":"平良"},{"zipCode":"9010213","prefectureKana":"ｵｷﾅﾜｹﾝ","cityKana":"ﾄﾐｸﾞｽｸｼ","streetKana":"ﾀｶﾐﾈ","prefecture":"沖縄県","city":"豊見城市","street":"高嶺"},{"zipCode":"9010242","prefectureKana":"ｵｷﾅﾜｹﾝ","cityKana":"ﾄﾐｸﾞｽｸｼ","streetKana":"ﾀｶﾔｽ","prefecture":"沖縄県","city":"豊見城市","street":"高安"},{"zipCode":"9010234","prefectureKana":"ｵｷﾅﾜｹﾝ","cityKana":"ﾄﾐｸﾞｽｸｼ","streetKana":"ﾀｶﾞﾐ","prefecture":"沖縄県","city":"豊見城市","street":"田頭"},{"zipCode":"9010215","prefectureKana":"ｵｷﾅﾜｹﾝ","cityKana":"ﾄﾐｸﾞｽｸｼ","streetKana":"ﾄｶｼｷ","prefecture":"沖縄県","city":"豊見城市","street":"渡嘉敷"},{"zipCode":"9010222","prefectureKana":"ｵｷﾅﾜｹﾝ","cityKana":"ﾄﾐｸﾞｽｸｼ","streetKana":"ﾄﾊｼﾅ","prefecture":"沖縄県","city":"豊見城市","street":"渡橋名"},{"zipCode":"9010241","prefectureKana":"ｵｷﾅﾜｹﾝ","cityKana":"ﾄﾐｸﾞｽｸｼ","streetKana":"ﾄﾐｸﾞｽｸ","prefecture":"沖縄県","city":"豊見城市","street":"豊見城"},{"zipCode":"9010225","prefectureKana":"ｵｷﾅﾜｹﾝ","cityKana":"ﾄﾐｸﾞｽｸｼ","streetKana":"ﾄﾖｻｷ","prefecture":"沖縄県","city":"豊見城市","street":"豊崎"},{"zipCode":"9010235","prefectureKana":"ｵｷﾅﾜｹﾝ","cityKana":"ﾄﾐｸﾞｽｸｼ","streetKana":"ﾅｶﾁ","prefecture":"沖縄県","city":"豊見城市","street":"名嘉地"},{"zipCode":"9010203","prefectureKana":"ｵｷﾅﾜｹﾝ","cityKana":"ﾄﾐｸﾞｽｸｼ","streetKana":"ﾅｶﾞﾄﾞｳ","prefecture":"沖縄県","city":"豊見城市","street":"長堂"},{"zipCode":"9010205","prefectureKana":"ｵｷﾅﾜｹﾝ","cityKana":"ﾄﾐｸﾞｽｸｼ","streetKana":"ﾈｻﾌﾞ","prefecture":"沖縄県","city":"豊見城市","street":"根差部"},{"zipCode":"9010211","prefectureKana":"ｵｷﾅﾜｹﾝ","cityKana":"ﾄﾐｸﾞｽｸｼ","streetKana":"ﾉﾊ","prefecture":"沖縄県","city":"豊見城市","street":"饒波"},{"zipCode":"9010214","prefectureKana":"ｵｷﾅﾜｹﾝ","cityKana":"ﾄﾐｸﾞｽｸｼ","streetKana":"ﾋﾞﾝ","prefecture":"沖縄県","city":"豊見城市","street":"保栄茂"},{"zipCode":"9010201","prefectureKana":"ｵｷﾅﾜｹﾝ","cityKana":"ﾄﾐｸﾞｽｸｼ","streetKana":"ﾏﾀﾞﾝﾊﾞｼ","prefecture":"沖縄県","city":"豊見城市","street":"真玉橋"},{"zipCode":"9010224","prefectureKana":"ｵｷﾅﾜｹﾝ","cityKana":"ﾄﾐｸﾞｽｸｼ","streetKana":"ﾖﾈ","prefecture":"沖縄県","city":"豊見城市","street":"与根"},{"zipCode":"9011400","prefectureKana":"ｵｷﾅﾜｹﾝ","cityKana":"ﾅﾝｼﾞｮｳｼ","streetKana":"ｲｶﾆｹｲｻｲｶﾞﾅｲﾊﾞｱｲ","prefecture":"沖縄県","city":"南城市","street":"以下に掲載がない場合"},{"zipCode":"9011204","prefectureKana":"ｵｷﾅﾜｹﾝ","cityKana":"ﾅﾝｼﾞｮｳｼ","streetKana":"ｵｵｻﾞﾄｲﾅﾐﾈ","prefecture":"沖縄県","city":"南城市","street":"大里稲嶺"},{"zipCode":"9011202","prefectureKana":"ｵｷﾅﾜｹﾝ","cityKana":"ﾅﾝｼﾞｮｳｼ","streetKana":"ｵｵｻﾞﾄｵｵｻﾞﾄ","prefecture":"沖縄県","city":"南城市","street":"大里大里"},{"zipCode":"9011203","prefectureKana":"ｵｷﾅﾜｹﾝ","cityKana":"ﾅﾝｼﾞｮｳｼ","streetKana":"ｵｵｻﾞﾄｵｵｼﾛ","prefecture":"沖縄県","city":"南城市","street":"大里大城"},{"zipCode":"9011208","prefectureKana":"ｵｷﾅﾜｹﾝ","cityKana":"ﾅﾝｼﾞｮｳｼ","streetKana":"ｵｵｻﾞﾄﾀｲﾗ","prefecture":"沖縄県","city":"南城市","street":"大里平良"},{"zipCode":"9011205","prefectureKana":"ｵｷﾅﾜｹﾝ","cityKana":"ﾅﾝｼﾞｮｳｼ","streetKana":"ｵｵｻﾞﾄﾀｶﾋﾗ","prefecture":"沖縄県","city":"南城市","street":"大里高平"},{"zipCode":"9011206","prefectureKana":"ｵｷﾅﾜｹﾝ","cityKana":"ﾅﾝｼﾞｮｳｼ","streetKana":"ｵｵｻﾞﾄﾅｶﾏ","prefecture":"沖縄県","city":"南城市","street":"大里仲間"},{"zipCode":"9011207","prefectureKana":"ｵｷﾅﾜｹﾝ","cityKana":"ﾅﾝｼﾞｮｳｼ","streetKana":"ｵｵｻﾞﾄﾌﾙｹﾞﾝ","prefecture":"沖縄県","city":"南城市","street":"大里古堅"},{"zipCode":"9011201","prefectureKana":"ｵｷﾅﾜｹﾝ","cityKana":"ﾅﾝｼﾞｮｳｼ","streetKana":"ｵｵｻﾞﾄﾐﾈｲ","prefecture":"沖縄県","city":"南城市","street":"大里嶺井"},{"zipCode":"9011401","prefectureKana":"ｵｷﾅﾜｹﾝ","cityKana":"ﾅﾝｼﾞｮｳｼ","streetKana":"ｻｼｷｲﾊﾞﾗ","prefecture":"沖縄県","city":"南城市","street":"佐敷伊原"},{"zipCode":"9011413","prefectureKana":"ｵｷﾅﾜｹﾝ","cityKana":"ﾅﾝｼﾞｮｳｼ","streetKana":"ｻｼｷｵｺｸ","prefecture":"沖縄県","city":"南城市","street":"佐敷小谷"},{"zipCode":"9011411","prefectureKana":"ｵｷﾅﾜｹﾝ","cityKana":"ﾅﾝｼﾞｮｳｼ","streetKana":"ｻｼｷｶﾈｸ","prefecture":"沖縄県","city":"南城市","street":"佐敷兼久"},{"zipCode":"9011403","prefectureKana":"ｵｷﾅﾜｹﾝ","cityKana":"ﾅﾝｼﾞｮｳｼ","streetKana":"ｻｼｷｻｼｷ","prefecture":"沖縄県","city":"南城市","street":"佐敷佐敷"},{"zipCode":"9011415","prefectureKana":"ｵｷﾅﾜｹﾝ","cityKana":"ﾅﾝｼﾞｮｳｼ","streetKana":"ｻｼｷｼﾝｶｲ","prefecture":"沖縄県","city":"南城市","street":"佐敷新開"},{"zipCode":"9011412","prefectureKana":"ｵｷﾅﾜｹﾝ","cityKana":"ﾅﾝｼﾞｮｳｼ","streetKana":"ｻｼｷｼﾝｻﾞﾄ","prefecture":"沖縄県","city":"南城市","street":"佐敷新里"},{"zipCode":"9011414","prefectureKana":"ｵｷﾅﾜｹﾝ","cityKana":"ﾅﾝｼﾞｮｳｼ","streetKana":"ｻｼｷﾂﾊｺ","prefecture":"沖縄県","city":"南城市","street":"佐敷津波古"},{"zipCode":"9011402","prefectureKana":"ｵｷﾅﾜｹﾝ","cityKana":"ﾅﾝｼﾞｮｳｼ","streetKana":"ｻｼｷﾃﾄﾞｺﾝ","prefecture":"沖縄県","city":"南城市","street":"佐敷手登根"},{"zipCode":"9011405","prefectureKana":"ｵｷﾅﾜｹﾝ","cityKana":"ﾅﾝｼﾞｮｳｼ","streetKana":"ｻｼｷﾅｶｲﾎ","prefecture":"沖縄県","city":"南城市","street":"佐敷仲伊保"},{"zipCode":"9011404","prefectureKana":"ｵｷﾅﾜｹﾝ","cityKana":"ﾅﾝｼﾞｮｳｼ","streetKana":"ｻｼｷﾌｿｻﾞｷ","prefecture":"沖縄県","city":"南城市","street":"佐敷冨祖崎"},{"zipCode":"9011406","prefectureKana":"ｵｷﾅﾜｹﾝ","cityKana":"ﾅﾝｼﾞｮｳｼ","streetKana":"ｻｼｷﾔﾋﾞｸ","prefecture":"沖縄県","city":"南城市","street":"佐敷屋比久"},{"zipCode":"9010617","prefectureKana":"ｵｷﾅﾜｹﾝ","cityKana":"ﾅﾝｼﾞｮｳｼ","streetKana":"ﾀﾏｸﾞｽｸｱｲﾁ","prefecture":"沖縄県","city":"南城市","street":"玉城愛地"},{"zipCode":"9010606","prefectureKana":"ｵｷﾅﾜｹﾝ","cityKana":"ﾅﾝｼﾞｮｳｼ","streetKana":"ﾀﾏｸﾞｽｸｲﾄｶｽﾞ","prefecture":"沖縄県","city":"南城市","street":"玉城糸数"},{"zipCode":"9010614","prefectureKana":"ｵｷﾅﾜｹﾝ","cityKana":"ﾅﾝｼﾞｮｳｼ","streetKana":"ﾀﾏｸﾞｽｸｵｳ","prefecture":"沖縄県","city":"南城市","street":"玉城奥武"},{"zipCode":"9010608","prefectureKana":"ｵｷﾅﾜｹﾝ","cityKana":"ﾅﾝｼﾞｮｳｼ","streetKana":"ﾀﾏｸﾞｽｸｵﾔｹﾊﾞﾙ","prefecture":"沖縄県","city":"南城市","street":"玉城親慶原"},{"zipCode":"9010601","prefectureKana":"ｵｷﾅﾜｹﾝ","cityKana":"ﾅﾝｼﾞｮｳｼ","streetKana":"ﾀﾏｸﾞｽｸｶｷﾉﾊﾅ","prefecture":"沖縄県","city":"南城市","street":"玉城垣花"},{"zipCode":"9010607","prefectureKana":"ｵｷﾅﾜｹﾝ","cityKana":"ﾅﾝｼﾞｮｳｼ","streetKana":"ﾀﾏｸﾞｽｸｷﾗﾊﾞﾙ","prefecture":"沖縄県","city":"南城市","street":"玉城喜良原"},{"zipCode":"9010613","prefectureKana":"ｵｷﾅﾜｹﾝ","cityKana":"ﾅﾝｼﾞｮｳｼ","streetKana":"ﾀﾏｸﾞｽｸｼｹﾝﾊﾞﾙ","prefecture":"沖縄県","city":"南城市","street":"玉城志堅原"},{"zipCode":"9010604","prefectureKana":"ｵｷﾅﾜｹﾝ","cityKana":"ﾅﾝｼﾞｮｳｼ","streetKana":"ﾀﾏｸﾞｽｸﾀﾏｸﾞｽｸ","prefecture":"沖縄県","city":"南城市","street":"玉城玉城"},{"zipCode":"9010612","prefectureKana":"ｵｷﾅﾜｹﾝ","cityKana":"ﾅﾝｼﾞｮｳｼ","streetKana":"ﾀﾏｸﾞｽｸﾄｳﾔﾏ","prefecture":"沖縄県","city":"南城市","street":"玉城當山"},{"zipCode":"9010605","prefectureKana":"ｵｷﾅﾜｹﾝ","cityKana":"ﾅﾝｼﾞｮｳｼ","streetKana":"ﾀﾏｸﾞｽｸﾅｶﾔﾏ","prefecture":"沖縄県","city":"南城市","street":"玉城中山"},{"zipCode":"9010602","prefectureKana":"ｵｷﾅﾜｹﾝ","cityKana":"ﾅﾝｼﾞｮｳｼ","streetKana":"ﾀﾏｸﾞｽｸﾅｶﾝﾀﾞｶﾘ","prefecture":"沖縄県","city":"南城市","street":"玉城仲村渠"},{"zipCode":"9010603","prefectureKana":"ｵｷﾅﾜｹﾝ","cityKana":"ﾅﾝｼﾞｮｳｼ","streetKana":"ﾀﾏｸﾞｽｸﾋｬｸﾅ","prefecture":"沖縄県","city":"南城市","street":"玉城百名"},{"zipCode":"9010611","prefectureKana":"ｵｷﾅﾜｹﾝ","cityKana":"ﾅﾝｼﾞｮｳｼ","streetKana":"ﾀﾏｸﾞｽｸﾌｻﾄ","prefecture":"沖縄県","city":"南城市","street":"玉城富里"},{"zipCode":"9010618","prefectureKana":"ｵｷﾅﾜｹﾝ","cityKana":"ﾅﾝｼﾞｮｳｼ","streetKana":"ﾀﾏｸﾞｽｸﾌﾅｺｼ","prefecture":"沖縄県","city":"南城市","street":"玉城船越"},{"zipCode":"9010615","prefectureKana":"ｵｷﾅﾜｹﾝ","cityKana":"ﾅﾝｼﾞｮｳｼ","streetKana":"ﾀﾏｸﾞｽｸﾎﾘｶﾜ","prefecture":"沖縄県","city":"南城市","street":"玉城堀川"},{"zipCode":"9010616","prefectureKana":"ｵｷﾅﾜｹﾝ","cityKana":"ﾅﾝｼﾞｮｳｼ","streetKana":"ﾀﾏｸﾞｽｸﾏｴｶﾜ","prefecture":"沖縄県","city":"南城市","street":"玉城前川"},{"zipCode":"9010619","prefectureKana":"ｵｷﾅﾜｹﾝ","cityKana":"ﾅﾝｼﾞｮｳｼ","streetKana":"ﾀﾏｸﾞｽｸﾔｶﾌﾞ","prefecture":"沖縄県","city":"南城市","street":"玉城屋嘉部"},{"zipCode":"9011502","prefectureKana":"ｵｷﾅﾜｹﾝ","cityKana":"ﾅﾝｼﾞｮｳｼ","streetKana":"ﾁﾈﾝｱｻﾞﾏ","prefecture":"沖縄県","city":"南城市","street":"知念安座真"},{"zipCode":"9011504","prefectureKana":"ｵｷﾅﾜｹﾝ","cityKana":"ﾅﾝｼﾞｮｳｼ","streetKana":"ﾁﾈﾝｳﾐﾉ","prefecture":"沖縄県","city":"南城市","street":"知念海野"},{"zipCode":"9011514","prefectureKana":"ｵｷﾅﾜｹﾝ","cityKana":"ﾅﾝｼﾞｮｳｼ","streetKana":"ﾁﾈﾝｸﾞｼｹﾝ","prefecture":"沖縄県","city":"南城市","street":"知念具志堅"},{"zipCode":"9011501","prefectureKana":"ｵｷﾅﾜｹﾝ","cityKana":"ﾅﾝｼﾞｮｳｼ","streetKana":"ﾁﾈﾝｸﾀﾞｶ","prefecture":"沖縄県","city":"南城市","street":"知念久高"},{"zipCode":"9011511","prefectureKana":"ｵｷﾅﾜｹﾝ","cityKana":"ﾅﾝｼﾞｮｳｼ","streetKana":"ﾁﾈﾝｸﾃﾞｹﾝ","prefecture":"沖縄県","city":"南城市","street":"知念久手堅"},{"zipCode":"9011505","prefectureKana":"ｵｷﾅﾜｹﾝ","cityKana":"ﾅﾝｼﾞｮｳｼ","streetKana":"ﾁﾈﾝｸﾊﾗ","prefecture":"沖縄県","city":"南城市","street":"知念久原"},{"zipCode":"9011516","prefectureKana":"ｵｷﾅﾜｹﾝ","cityKana":"ﾅﾝｼﾞｮｳｼ","streetKana":"ﾁﾈﾝｼｷﾔ","prefecture":"沖縄県","city":"南城市","street":"知念志喜屋"},{"zipCode":"9011503","prefectureKana":"ｵｷﾅﾜｹﾝ","cityKana":"ﾅﾝｼﾞｮｳｼ","streetKana":"ﾁﾈﾝﾁﾅ","prefecture":"沖縄県","city":"南城市","street":"知念知名"},{"zipCode":"9011513","prefectureKana":"ｵｷﾅﾜｹﾝ","cityKana":"ﾅﾝｼﾞｮｳｼ","streetKana":"ﾁﾈﾝﾁﾈﾝ","prefecture":"沖縄県","city":"南城市","street":"知念知念"},{"zipCode":"9011515","prefectureKana":"ｵｷﾅﾜｹﾝ","cityKana":"ﾅﾝｼﾞｮｳｼ","streetKana":"ﾁﾈﾝﾔﾏｻﾞﾄ","prefecture":"沖縄県","city":"南城市","street":"知念山里"},{"zipCode":"9011512","prefectureKana":"ｵｷﾅﾜｹﾝ","cityKana":"ﾅﾝｼﾞｮｳｼ","streetKana":"ﾁﾈﾝﾖｼﾄﾐ","prefecture":"沖縄県","city":"南城市","street":"知念吉富"},{"zipCode":"9011407","prefectureKana":"ｵｷﾅﾜｹﾝ","cityKana":"ﾅﾝｼﾞｮｳｼ","streetKana":"ﾂｷｼﾛ","prefecture":"沖縄県","city":"南城市","street":"つきしろ"},{"zipCode":"9012300","prefectureKana":"ｵｷﾅﾜｹﾝ","cityKana":"ﾅｶｶﾞﾐｸﾞﾝｷﾀﾅｶｸﾞｽｸｿﾝ","streetKana":"ｲｶﾆｹｲｻｲｶﾞﾅｲﾊﾞｱｲ","prefecture":"沖縄県","city":"中頭郡北中城村","street":"以下に掲載がない場合"},{"zipCode":"9012316","prefectureKana":"ｵｷﾅﾜｹﾝ","cityKana":"ﾅｶｶﾞﾐｸﾞﾝｷﾀﾅｶｸﾞｽｸｿﾝ","streetKana":"ｱﾀﾞﾆﾔ","prefecture":"沖縄県","city":"中頭郡北中城村","street":"安谷屋"},{"zipCode":"9012313","prefectureKana":"ｵｷﾅﾜｹﾝ","cityKana":"ﾅｶｶﾞﾐｸﾞﾝｷﾀﾅｶｸﾞｽｸｿﾝ","streetKana":"ｱｯﾀ","prefecture":"沖縄県","city":"中頭郡北中城村","street":"熱田"},{"zipCode":"9012314","prefectureKana":"ｵｷﾅﾜｹﾝ","cityKana":"ﾅｶｶﾞﾐｸﾞﾝｷﾀﾅｶｸﾞｽｸｿﾝ","streetKana":"ｵｵｸﾞｽｸ","prefecture":"沖縄県","city":"中頭郡北中城村","street":"大城"},{"zipCode":"9012315","prefectureKana":"ｵｷﾅﾜｹﾝ","cityKana":"ﾅｶｶﾞﾐｸﾞﾝｷﾀﾅｶｸﾞｽｸｿﾝ","streetKana":"ｵｷﾞﾄﾞｳ","prefecture":"沖縄県","city":"中頭郡北中城村","street":"荻道"},{"zipCode":"9012311","prefectureKana":"ｵｷﾅﾜｹﾝ","cityKana":"ﾅｶｶﾞﾐｸﾞﾝｷﾀﾅｶｸﾞｽｸｿﾝ","streetKana":"ｷｼｬﾊﾞ","prefecture":"沖縄県","city":"中頭郡北中城村","street":"喜舎場"},{"zipCode":"9012301","prefectureKana":"ｵｷﾅﾜｹﾝ","cityKana":"ﾅｶｶﾞﾐｸﾞﾝｷﾀﾅｶｸﾞｽｸｿﾝ","streetKana":"ｼﾏﾌﾞｸ","prefecture":"沖縄県","city":"中頭郡北中城村","street":"島袋"},{"zipCode":"9012317","prefectureKana":"ｵｷﾅﾜｹﾝ","cityKana":"ﾅｶｶﾞﾐｸﾞﾝｷﾀﾅｶｸﾞｽｸｿﾝ","streetKana":"ｽﾞｹﾗﾝ","prefecture":"沖縄県","city":"中頭郡北中城村","street":"瑞慶覧"},{"zipCode":"9012303","prefectureKana":"ｵｷﾅﾜｹﾝ","cityKana":"ﾅｶｶﾞﾐｸﾞﾝｷﾀﾅｶｸﾞｽｸｿﾝ","streetKana":"ﾁｭﾝｼﾞｭﾝ","prefecture":"沖縄県","city":"中頭郡北中城村","street":"仲順"},{"zipCode":"9012302","prefectureKana":"ｵｷﾅﾜｹﾝ","cityKana":"ﾅｶｶﾞﾐｸﾞﾝｷﾀﾅｶｸﾞｽｸｿﾝ","streetKana":"ﾄｸﾞﾁ","prefecture":"沖縄県","city":"中頭郡北中城村","street":"渡口"},{"zipCode":"9012305","prefectureKana":"ｵｷﾅﾜｹﾝ","cityKana":"ﾅｶｶﾞﾐｸﾞﾝｷﾀﾅｶｸﾞｽｸｿﾝ","streetKana":"ﾋｶﾞ","prefecture":"沖縄県","city":"中頭郡北中城村","street":"比嘉"},{"zipCode":"9012321","prefectureKana":"ｵｷﾅﾜｹﾝ","cityKana":"ﾅｶｶﾞﾐｸﾞﾝｷﾀﾅｶｸﾞｽｸｿﾝ","streetKana":"ﾐｻｷ","prefecture":"沖縄県","city":"中頭郡北中城村","street":"美崎"},{"zipCode":"9012304","prefectureKana":"ｵｷﾅﾜｹﾝ","cityKana":"ﾅｶｶﾞﾐｸﾞﾝｷﾀﾅｶｸﾞｽｸｿﾝ","streetKana":"ﾔｷﾞﾊﾞﾙ","prefecture":"沖縄県","city":"中頭郡北中城村","street":"屋宜原"},{"zipCode":"9012306","prefectureKana":"ｵｷﾅﾜｹﾝ","cityKana":"ﾅｶｶﾞﾐｸﾞﾝｷﾀﾅｶｸﾞｽｸｿﾝ","streetKana":"ﾗｲｶﾑ","prefecture":"沖縄県","city":"中頭郡北中城村","street":"ライカム"},{"zipCode":"9012312","prefectureKana":"ｵｷﾅﾜｹﾝ","cityKana":"ﾅｶｶﾞﾐｸﾞﾝｷﾀﾅｶｸﾞｽｸｿﾝ","streetKana":"ﾜﾆﾔ","prefecture":"沖縄県","city":"中頭郡北中城村","street":"和仁屋"},{"zipCode":"9012400","prefectureKana":"ｵｷﾅﾜｹﾝ","cityKana":"ﾅｶｶﾞﾐｸﾞﾝﾅｶｸﾞｽｸｿﾝ","streetKana":"ｲｶﾆｹｲｻｲｶﾞﾅｲﾊﾞｱｲ","prefecture":"沖縄県","city":"中頭郡中城村","street":"以下に掲載がない場合"},{"zipCode":"9012407","prefectureKana":"ｵｷﾅﾜｹﾝ","cityKana":"ﾅｶｶﾞﾐｸﾞﾝﾅｶｸﾞｽｸｿﾝ","streetKana":"ｱｻﾄ","prefecture":"沖縄県","city":"中頭郡中城村","street":"安里"},{"zipCode":"9012422","prefectureKana":"ｵｷﾅﾜｹﾝ","cityKana":"ﾅｶｶﾞﾐｸﾞﾝﾅｶｸﾞｽｸｿﾝ","streetKana":"ｱﾗｶｷ","prefecture":"沖縄県","city":"中頭郡中城村","street":"新垣"},{"zipCode":"9012403","prefectureKana":"ｵｷﾅﾜｹﾝ","cityKana":"ﾅｶｶﾞﾐｸﾞﾝﾅｶｸﾞｽｸｿﾝ","streetKana":"ｲｼｬﾄﾞｳ","prefecture":"沖縄県","city":"中頭郡中城村","street":"伊舎堂"},{"zipCode":"9012417","prefectureKana":"ｵｷﾅﾜｹﾝ","cityKana":"ﾅｶｶﾞﾐｸﾞﾝﾅｶｸﾞｽｸｿﾝ","streetKana":"ｲｼﾞｭ","prefecture":"沖縄県","city":"中頭郡中城村","street":"伊集"},{"zipCode":"9012412","prefectureKana":"ｵｷﾅﾜｹﾝ","cityKana":"ﾅｶｶﾞﾐｸﾞﾝﾅｶｸﾞｽｸｿﾝ","streetKana":"ｵｸﾏ","prefecture":"沖縄県","city":"中頭郡中城村","street":"奥間"},{"zipCode":"9012423","prefectureKana":"ｵｷﾅﾜｹﾝ","cityKana":"ﾅｶｶﾞﾐｸﾞﾝﾅｶｸﾞｽｸｿﾝ","streetKana":"ｷﾀｳｴﾊﾞﾙ","prefecture":"沖縄県","city":"中頭郡中城村","street":"北上原"},{"zipCode":"9012414","prefectureKana":"ｵｷﾅﾜｹﾝ","cityKana":"ﾅｶｶﾞﾐｸﾞﾝﾅｶｸﾞｽｸｿﾝ","streetKana":"ｷﾀﾊﾏ","prefecture":"沖縄県","city":"中頭郡中城村","street":"北浜"},{"zipCode":"9012401","prefectureKana":"ｵｷﾅﾜｹﾝ","cityKana":"ﾅｶｶﾞﾐｸﾞﾝﾅｶｸﾞｽｸｿﾝ","streetKana":"ｸﾊﾞ","prefecture":"沖縄県","city":"中頭郡中城村","street":"久場"},{"zipCode":"9012404","prefectureKana":"ｵｷﾅﾜｹﾝ","cityKana":"ﾅｶｶﾞﾐｸﾞﾝﾅｶｸﾞｽｸｿﾝ","streetKana":"ｿｴｼ","prefecture":"沖縄県","city":"中頭郡中城村","street":"添石"},{"zipCode":"9012413","prefectureKana":"ｵｷﾅﾜｹﾝ","cityKana":"ﾅｶｶﾞﾐｸﾞﾝﾅｶｸﾞｽｸｿﾝ","streetKana":"ﾂﾊ","prefecture":"沖縄県","city":"中頭郡中城村","street":"津覇"},{"zipCode":"9012406","prefectureKana":"ｵｷﾅﾜｹﾝ","cityKana":"ﾅｶｶﾞﾐｸﾞﾝﾅｶｸﾞｽｸｿﾝ","streetKana":"ﾄｳﾏ","prefecture":"沖縄県","city":"中頭郡中城村","street":"当間"},{"zipCode":"9012402","prefectureKana":"ｵｷﾅﾜｹﾝ","cityKana":"ﾅｶｶﾞﾐｸﾞﾝﾅｶｸﾞｽｸｿﾝ","streetKana":"ﾄﾏﾘ","prefecture":"沖縄県","city":"中頭郡中城村","street":"泊"},{"zipCode":"9012421","prefectureKana":"ｵｷﾅﾜｹﾝ","cityKana":"ﾅｶｶﾞﾐｸﾞﾝﾅｶｸﾞｽｸｿﾝ","streetKana":"ﾉﾎﾞﾘﾏﾀ","prefecture":"沖縄県","city":"中頭郡中城村","street":"登又"},{"zipCode":"9012411","prefectureKana":"ｵｷﾅﾜｹﾝ","cityKana":"ﾅｶｶﾞﾐｸﾞﾝﾅｶｸﾞｽｸｿﾝ","streetKana":"ﾊﾏ","prefecture":"沖縄県","city":"中頭郡中城村","street":"浜"},{"zipCode":"9012424","prefectureKana":"ｵｷﾅﾜｹﾝ","cityKana":"ﾅｶｶﾞﾐｸﾞﾝﾅｶｸﾞｽｸｿﾝ","streetKana":"ﾐﾅﾐｳｴﾊﾞﾙ","prefecture":"沖縄県","city":"中頭郡中城村","street":"南上原"},{"zipCode":"9012415","prefectureKana":"ｵｷﾅﾜｹﾝ","cityKana":"ﾅｶｶﾞﾐｸﾞﾝﾅｶｸﾞｽｸｿﾝ","streetKana":"ﾐﾅﾐﾊﾏ","prefecture":"沖縄県","city":"中頭郡中城村","street":"南浜"},{"zipCode":"9012405","prefectureKana":"ｵｷﾅﾜｹﾝ","cityKana":"ﾅｶｶﾞﾐｸﾞﾝﾅｶｸﾞｽｸｿﾝ","streetKana":"ﾔｷﾞ","prefecture":"沖縄県","city":"中頭郡中城村","street":"屋宜"},{"zipCode":"9012416","prefectureKana":"ｵｷﾅﾜｹﾝ","cityKana":"ﾅｶｶﾞﾐｸﾞﾝﾅｶｸﾞｽｸｿﾝ","streetKana":"ﾜｳｹ","prefecture":"沖縄県","city":"中頭郡中城村","street":"和宇慶"},{"zipCode":"9011300","prefectureKana":"ｵｷﾅﾜｹﾝ","cityKana":"ｼﾏｼﾞﾘｸﾞﾝﾖﾅﾊﾞﾙﾁｮｳ","streetKana":"ｲｶﾆｹｲｻｲｶﾞﾅｲﾊﾞｱｲ","prefecture":"沖縄県","city":"島尻郡与那原町","street":"以下に掲載がない場合"},{"zipCode":"9011304","prefectureKana":"ｵｷﾅﾜｹﾝ","cityKana":"ｼﾏｼﾞﾘｸﾞﾝﾖﾅﾊﾞﾙﾁｮｳ","streetKana":"ｱｶﾞﾘﾊﾏ","prefecture":"沖縄県","city":"島尻郡与那原町","street":"東浜"},{"zipCode":"9011301","prefectureKana":"ｵｷﾅﾜｹﾝ","cityKana":"ｼﾏｼﾞﾘｸﾞﾝﾖﾅﾊﾞﾙﾁｮｳ","streetKana":"ｲﾀﾗｼｷ","prefecture":"沖縄県","city":"島尻郡与那原町","street":"板良敷"},{"zipCode":"9011302","prefectureKana":"ｵｷﾅﾜｹﾝ","cityKana":"ｼﾏｼﾞﾘｸﾞﾝﾖﾅﾊﾞﾙﾁｮｳ","streetKana":"ｳｴﾖﾅﾊﾞﾙ","prefecture":"沖縄県","city":"島尻郡与那原町","street":"上与那原"},{"zipCode":"9011303","prefectureKana":"ｵｷﾅﾜｹﾝ","cityKana":"ｼﾏｼﾞﾘｸﾞﾝﾖﾅﾊﾞﾙﾁｮｳ","streetKana":"ﾖﾅﾊﾞﾙ","prefecture":"沖縄県","city":"島尻郡与那原町","street":"与那原"},{"zipCode":"9011100","prefectureKana":"ｵｷﾅﾜｹﾝ","cityKana":"ｼﾏｼﾞﾘｸﾞﾝﾊｴﾊﾞﾙﾁｮｳ","streetKana":"ｲｶﾆｹｲｻｲｶﾞﾅｲﾊﾞｱｲ","prefecture":"沖縄県","city":"島尻郡南風原町","street":"以下に掲載がない場合"},{"zipCode":"9011105","prefectureKana":"ｵｷﾅﾜｹﾝ","cityKana":"ｼﾏｼﾞﾘｸﾞﾝﾊｴﾊﾞﾙﾁｮｳ","streetKana":"ｱﾗｶﾜ","prefecture":"沖縄県","city":"島尻郡南風原町","street":"新川"},{"zipCode":"9011101","prefectureKana":"ｵｷﾅﾜｹﾝ","cityKana":"ｼﾏｼﾞﾘｸﾞﾝﾊｴﾊﾞﾙﾁｮｳ","streetKana":"ｵｵﾅ","prefecture":"沖縄県","city":"島尻郡南風原町","street":"大名"},{"zipCode":"9011111","prefectureKana":"ｵｷﾅﾜｹﾝ","cityKana":"ｼﾏｼﾞﾘｸﾞﾝﾊｴﾊﾞﾙﾁｮｳ","streetKana":"ｶﾈｸﾞｽｸ","prefecture":"沖縄県","city":"島尻郡南風原町","street":"兼城"},{"zipCode":"9011114","prefectureKana":"ｵｷﾅﾜｹﾝ","cityKana":"ｼﾏｼﾞﾘｸﾞﾝﾊｴﾊﾞﾙﾁｮｳ","streetKana":"ｶﾐｻﾞﾄ","prefecture":"沖縄県","city":"島尻郡南風原町","street":"神里"},{"zipCode":"9011113","prefectureKana":"ｵｷﾅﾜｹﾝ","cityKana":"ｼﾏｼﾞﾘｸﾞﾝﾊｴﾊﾞﾙﾁｮｳ","streetKana":"ｷｬﾝ","prefecture":"沖縄県","city":"島尻郡南風原町","street":"喜屋武"},{"zipCode":"9011117","prefectureKana":"ｵｷﾅﾜｹﾝ","cityKana":"ｼﾏｼﾞﾘｸﾞﾝﾊｴﾊﾞﾙﾁｮｳ","streetKana":"ﾂｶｻﾞﾝ","prefecture":"沖縄県","city":"島尻郡南風原町","street":"津嘉山"},{"zipCode":"9011116","prefectureKana":"ｵｷﾅﾜｹﾝ","cityKana":"ｼﾏｼﾞﾘｸﾞﾝﾊｴﾊﾞﾙﾁｮｳ","streetKana":"ﾃﾙﾔ","prefecture":"沖縄県","city":"島尻郡南風原町","street":"照屋"},{"zipCode":"9011102","prefectureKana":"ｵｷﾅﾜｹﾝ","cityKana":"ｼﾏｼﾞﾘｸﾞﾝﾊｴﾊﾞﾙﾁｮｳ","streetKana":"ﾐﾔｸﾞｽｸ","prefecture":"沖縄県","city":"島尻郡南風原町","street":"宮城"},{"zipCode":"9011104","prefectureKana":"ｵｷﾅﾜｹﾝ","cityKana":"ｼﾏｼﾞﾘｸﾞﾝﾊｴﾊﾞﾙﾁｮｳ","streetKana":"ﾐﾔﾋﾗ","prefecture":"沖縄県","city":"島尻郡南風原町","street":"宮平"},{"zipCode":"9011112","prefectureKana":"ｵｷﾅﾜｹﾝ","cityKana":"ｼﾏｼﾞﾘｸﾞﾝﾊｴﾊﾞﾙﾁｮｳ","streetKana":"ﾓﾄﾌﾞ","prefecture":"沖縄県","city":"島尻郡南風原町","street":"本部"},{"zipCode":"9011115","prefectureKana":"ｵｷﾅﾜｹﾝ","cityKana":"ｼﾏｼﾞﾘｸﾞﾝﾊｴﾊﾞﾙﾁｮｳ","streetKana":"ﾔﾏｶﾜ","prefecture":"沖縄県","city":"島尻郡南風原町","street":"山川"},{"zipCode":"9011103","prefectureKana":"ｵｷﾅﾜｹﾝ","cityKana":"ｼﾏｼﾞﾘｸﾞﾝﾊｴﾊﾞﾙﾁｮｳ","streetKana":"ﾖﾅﾊ","prefecture":"沖縄県","city":"島尻郡南風原町","street":"与那覇"},{"zipCode":"9013500","prefectureKana":"ｵｷﾅﾜｹﾝ","cityKana":"ｼﾏｼﾞﾘｸﾞﾝﾄｶｼｷｿﾝ","streetKana":"ｲｶﾆｹｲｻｲｶﾞﾅｲﾊﾞｱｲ","prefecture":"沖縄県","city":"島尻郡渡嘉敷村","street":"以下に掲載がない場合"},{"zipCode":"9013502","prefectureKana":"ｵｷﾅﾜｹﾝ","cityKana":"ｼﾏｼﾞﾘｸﾞﾝﾄｶｼｷｿﾝ","streetKana":"ｱﾊﾚﾝ","prefecture":"沖縄県","city":"島尻郡渡嘉敷村","street":"阿波連"},{"zipCode":"9013501","prefectureKana":"ｵｷﾅﾜｹﾝ","cityKana":"ｼﾏｼﾞﾘｸﾞﾝﾄｶｼｷｿﾝ","streetKana":"ﾄｶｼｷ","prefecture":"沖縄県","city":"島尻郡渡嘉敷村","street":"渡嘉敷"},{"zipCode":"9013400","prefectureKana":"ｵｷﾅﾜｹﾝ","cityKana":"ｼﾏｼﾞﾘｸﾞﾝｻﾞﾏﾐｿﾝ","streetKana":"ｲｶﾆｹｲｻｲｶﾞﾅｲﾊﾞｱｲ","prefecture":"沖縄県","city":"島尻郡座間味村","street":"以下に掲載がない場合"},{"zipCode":"9013311","prefectureKana":"ｵｷﾅﾜｹﾝ","cityKana":"ｼﾏｼﾞﾘｸﾞﾝｻﾞﾏﾐｿﾝ","streetKana":"ｱｶ","prefecture":"沖縄県","city":"島尻郡座間味村","street":"阿嘉"},{"zipCode":"9013401","prefectureKana":"ｵｷﾅﾜｹﾝ","cityKana":"ｼﾏｼﾞﾘｸﾞﾝｻﾞﾏﾐｿﾝ","streetKana":"ｱｻ","prefecture":"沖縄県","city":"島尻郡座間味村","street":"阿佐"},{"zipCode":"9013403","prefectureKana":"ｵｷﾅﾜｹﾝ","cityKana":"ｼﾏｼﾞﾘｸﾞﾝｻﾞﾏﾐｿﾝ","streetKana":"ｱﾏ","prefecture":"沖縄県","city":"島尻郡座間味村","street":"阿真"},{"zipCode":"9013312","prefectureKana":"ｵｷﾅﾜｹﾝ","cityKana":"ｼﾏｼﾞﾘｸﾞﾝｻﾞﾏﾐｿﾝ","streetKana":"ｹﾞﾙﾏ","prefecture":"沖縄県","city":"島尻郡座間味村","street":"慶留間"},{"zipCode":"9013402","prefectureKana":"ｵｷﾅﾜｹﾝ","cityKana":"ｼﾏｼﾞﾘｸﾞﾝｻﾞﾏﾐｿﾝ","streetKana":"ｻﾞﾏﾐ","prefecture":"沖縄県","city":"島尻郡座間味村","street":"座間味"},{"zipCode":"9013700","prefectureKana":"ｵｷﾅﾜｹﾝ","cityKana":"ｼﾏｼﾞﾘｸﾞﾝｱｸﾞﾆｿﾝ","streetKana":"ｲｶﾆｹｲｻｲｶﾞﾅｲﾊﾞｱｲ","prefecture":"沖縄県","city":"島尻郡粟国村","street":"以下に掲載がない場合"},{"zipCode":"9013703","prefectureKana":"ｵｷﾅﾜｹﾝ","cityKana":"ｼﾏｼﾞﾘｸﾞﾝｱｸﾞﾆｿﾝ","streetKana":"ﾆｼ","prefecture":"沖縄県","city":"島尻郡粟国村","street":"西"},{"zipCode":"9013701","prefectureKana":"ｵｷﾅﾜｹﾝ","cityKana":"ｼﾏｼﾞﾘｸﾞﾝｱｸﾞﾆｿﾝ","streetKana":"ﾊﾏ","prefecture":"沖縄県","city":"島尻郡粟国村","street":"浜"},{"zipCode":"9013702","prefectureKana":"ｵｷﾅﾜｹﾝ","cityKana":"ｼﾏｼﾞﾘｸﾞﾝｱｸﾞﾆｿﾝ","streetKana":"ﾋｶﾞｼ","prefecture":"沖縄県","city":"島尻郡粟国村","street":"東"},{"zipCode":"9013601","prefectureKana":"ｵｷﾅﾜｹﾝ","cityKana":"ｼﾏｼﾞﾘｸﾞﾝﾄﾅｷｿﾝ","streetKana":"ﾄﾅｷｿﾝｲﾁｴﾝ","prefecture":"沖縄県","city":"島尻郡渡名喜村","street":"渡名喜村一円"},{"zipCode":"9013800","prefectureKana":"ｵｷﾅﾜｹﾝ","cityKana":"ｼﾏｼﾞﾘｸﾞﾝﾐﾅﾐﾀﾞｲﾄｳｿﾝ","streetKana":"ｲｶﾆｹｲｻｲｶﾞﾅｲﾊﾞｱｲ","prefecture":"沖縄県","city":"島尻郡南大東村","street":"以下に掲載がない場合"},{"zipCode":"9013806","prefectureKana":"ｵｷﾅﾜｹﾝ","cityKana":"ｼﾏｼﾞﾘｸﾞﾝﾐﾅﾐﾀﾞｲﾄｳｿﾝ","streetKana":"ｲｹﾉｻﾜ","prefecture":"沖縄県","city":"島尻郡南大東村","street":"池之沢"},{"zipCode":"9013801","prefectureKana":"ｵｷﾅﾜｹﾝ","cityKana":"ｼﾏｼﾞﾘｸﾞﾝﾐﾅﾐﾀﾞｲﾄｳｿﾝ","streetKana":"ｷﾀ","prefecture":"沖縄県","city":"島尻郡南大東村","street":"北"},{"zipCode":"9013803","prefectureKana":"ｵｷﾅﾜｹﾝ","cityKana":"ｼﾏｼﾞﾘｸﾞﾝﾐﾅﾐﾀﾞｲﾄｳｿﾝ","streetKana":"ｷｭｳﾄｳ","prefecture":"沖縄県","city":"島尻郡南大東村","street":"旧東"},{"zipCode":"9013805","prefectureKana":"ｵｷﾅﾜｹﾝ","cityKana":"ｼﾏｼﾞﾘｸﾞﾝﾐﾅﾐﾀﾞｲﾄｳｿﾝ","streetKana":"ｻﾞｲｼｮ","prefecture":"沖縄県","city":"島尻郡南大東村","street":"在所"},{"zipCode":"9013802","prefectureKana":"ｵｷﾅﾜｹﾝ","cityKana":"ｼﾏｼﾞﾘｸﾞﾝﾐﾅﾐﾀﾞｲﾄｳｿﾝ","streetKana":"ｼﾝﾄｳ","prefecture":"沖縄県","city":"島尻郡南大東村","street":"新東"},{"zipCode":"9013804","prefectureKana":"ｵｷﾅﾜｹﾝ","cityKana":"ｼﾏｼﾞﾘｸﾞﾝﾐﾅﾐﾀﾞｲﾄｳｿﾝ","streetKana":"ﾐﾅﾐ","prefecture":"沖縄県","city":"島尻郡南大東村","street":"南"},{"zipCode":"9013900","prefectureKana":"ｵｷﾅﾜｹﾝ","cityKana":"ｼﾏｼﾞﾘｸﾞﾝｷﾀﾀﾞｲﾄｳｿﾝ","streetKana":"ｲｶﾆｹｲｻｲｶﾞﾅｲﾊﾞｱｲ","prefecture":"沖縄県","city":"島尻郡北大東村","street":"以下に掲載がない場合"},{"zipCode":"9013902","prefectureKana":"ｵｷﾅﾜｹﾝ","cityKana":"ｼﾏｼﾞﾘｸﾞﾝｷﾀﾀﾞｲﾄｳｿﾝ","streetKana":"ﾅｶﾉ","prefecture":"沖縄県","city":"島尻郡北大東村","street":"中野"},{"zipCode":"9013903","prefectureKana":"ｵｷﾅﾜｹﾝ","cityKana":"ｼﾏｼﾞﾘｸﾞﾝｷﾀﾀﾞｲﾄｳｿﾝ","streetKana":"ﾐﾅﾄ","prefecture":"沖縄県","city":"島尻郡北大東村","street":"港"},{"zipCode":"9013901","prefectureKana":"ｵｷﾅﾜｹﾝ","cityKana":"ｼﾏｼﾞﾘｸﾞﾝｷﾀﾀﾞｲﾄｳｿﾝ","streetKana":"ﾐﾅﾐ","prefecture":"沖縄県","city":"島尻郡北大東村","street":"南"},{"zipCode":"9013100","prefectureKana":"ｵｷﾅﾜｹﾝ","cityKana":"ｼﾏｼﾞﾘｸﾞﾝｸﾒｼﾞﾏﾁｮｳ","streetKana":"ｲｶﾆｹｲｻｲｶﾞﾅｲﾊﾞｱｲ","prefecture":"沖縄県","city":"島尻郡久米島町","street":"以下に掲載がない場合"},{"zipCode":"9013103","prefectureKana":"ｵｷﾅﾜｹﾝ","cityKana":"ｼﾏｼﾞﾘｸﾞﾝｸﾒｼﾞﾏﾁｮｳ","streetKana":"ｱｶ","prefecture":"沖縄県","city":"島尻郡久米島町","street":"阿嘉"},{"zipCode":"9013101","prefectureKana":"ｵｷﾅﾜｹﾝ","cityKana":"ｼﾏｼﾞﾘｸﾞﾝｸﾒｼﾞﾏﾁｮｳ","streetKana":"ｳｴｸﾞｽｸ","prefecture":"沖縄県","city":"島尻郡久米島町","street":"宇江城"},{"zipCode":"9013138","prefectureKana":"ｵｷﾅﾜｹﾝ","cityKana":"ｼﾏｼﾞﾘｸﾞﾝｸﾒｼﾞﾏﾁｮｳ","streetKana":"ｳｴｽﾞ","prefecture":"沖縄県","city":"島尻郡久米島町","street":"上江洲"},{"zipCode":"9013105","prefectureKana":"ｵｷﾅﾜｹﾝ","cityKana":"ｼﾏｼﾞﾘｸﾞﾝｸﾒｼﾞﾏﾁｮｳ","streetKana":"ｳﾈ","prefecture":"沖縄県","city":"島尻郡久米島町","street":"宇根"},{"zipCode":"9013106","prefectureKana":"ｵｷﾅﾜｹﾝ","cityKana":"ｼﾏｼﾞﾘｸﾞﾝｸﾒｼﾞﾏﾁｮｳ","streetKana":"ｵｳ","prefecture":"沖縄県","city":"島尻郡久米島町","street":"奥武"},{"zipCode":"9013123","prefectureKana":"ｵｷﾅﾜｹﾝ","cityKana":"ｼﾏｼﾞﾘｸﾞﾝｸﾒｼﾞﾏﾁｮｳ","streetKana":"ｵｵﾀ","prefecture":"沖縄県","city":"島尻郡久米島町","street":"大田"},{"zipCode":"9013132","prefectureKana":"ｵｷﾅﾜｹﾝ","cityKana":"ｼﾏｼﾞﾘｸﾞﾝｸﾒｼﾞﾏﾁｮｳ","streetKana":"ｵｵﾊﾗ","prefecture":"沖縄県","city":"島尻郡久米島町","street":"大原"},{"zipCode":"9013121","prefectureKana":"ｵｷﾅﾜｹﾝ","cityKana":"ｼﾏｼﾞﾘｸﾞﾝｸﾒｼﾞﾏﾁｮｳ","streetKana":"ｶﾃﾞｶﾙ","prefecture":"沖縄県","city":"島尻郡久米島町","street":"嘉手苅"},{"zipCode":"9013122","prefectureKana":"ｵｷﾅﾜｹﾝ","cityKana":"ｼﾏｼﾞﾘｸﾞﾝｸﾒｼﾞﾏﾁｮｳ","streetKana":"ｶﾈｸﾞｽｸ","prefecture":"沖縄県","city":"島尻郡久米島町","street":"兼城"},{"zipCode":"9013133","prefectureKana":"ｵｷﾅﾜｹﾝ","cityKana":"ｼﾏｼﾞﾘｸﾞﾝｸﾒｼﾞﾏﾁｮｳ","streetKana":"ｷﾀﾊﾗ","prefecture":"沖縄県","city":"島尻郡久米島町","street":"北原"},{"zipCode":"9013115","prefectureKana":"ｵｷﾅﾜｹﾝ","cityKana":"ｼﾏｼﾞﾘｸﾞﾝｸﾒｼﾞﾏﾁｮｳ","streetKana":"ｷﾞﾏ","prefecture":"沖縄県","city":"島尻郡久米島町","street":"儀間"},{"zipCode":"9013134","prefectureKana":"ｵｷﾅﾜｹﾝ","cityKana":"ｼﾏｼﾞﾘｸﾞﾝｸﾒｼﾞﾏﾁｮｳ","streetKana":"ｸﾞｼｶﾜ","prefecture":"沖縄県","city":"島尻郡久米島町","street":"具志川"},{"zipCode":"9013114","prefectureKana":"ｵｷﾅﾜｹﾝ","cityKana":"ｼﾏｼﾞﾘｸﾞﾝｸﾒｼﾞﾏﾁｮｳ","streetKana":"ｼﾏｼﾞﾘ","prefecture":"沖縄県","city":"島尻郡久米島町","street":"島尻"},{"zipCode":"9013107","prefectureKana":"ｵｷﾅﾜｹﾝ","cityKana":"ｼﾏｼﾞﾘｸﾞﾝｸﾒｼﾞﾏﾁｮｳ","streetKana":"ｼﾞｬﾅﾄﾞｳ","prefecture":"沖縄県","city":"島尻郡久米島町","street":"謝名堂"},{"zipCode":"9013113","prefectureKana":"ｵｷﾅﾜｹﾝ","cityKana":"ｼﾏｼﾞﾘｸﾞﾝｸﾒｼﾞﾏﾁｮｳ","streetKana":"ｾﾞﾝﾀﾞ","prefecture":"沖縄県","city":"島尻郡久米島町","street":"銭田"},{"zipCode":"9013125","prefectureKana":"ｵｷﾅﾜｹﾝ","cityKana":"ｼﾏｼﾞﾘｸﾞﾝｸﾒｼﾞﾏﾁｮｳ","streetKana":"ﾄﾘｼﾏ","prefecture":"沖縄県","city":"島尻郡久米島町","street":"鳥島"},{"zipCode":"9013136","prefectureKana":"ｵｷﾅﾜｹﾝ","cityKana":"ｼﾏｼﾞﾘｸﾞﾝｸﾒｼﾞﾏﾁｮｳ","streetKana":"ﾅｶﾁ","prefecture":"沖縄県","city":"島尻郡久米島町","street":"仲地"},{"zipCode":"9013124","prefectureKana":"ｵｷﾅﾜｹﾝ","cityKana":"ｼﾏｼﾞﾘｸﾞﾝｸﾒｼﾞﾏﾁｮｳ","streetKana":"ﾅｶﾄﾞﾏﾘ","prefecture":"沖縄県","city":"島尻郡久米島町","street":"仲泊"},{"zipCode":"9013135","prefectureKana":"ｵｷﾅﾜｹﾝ","cityKana":"ｼﾏｼﾞﾘｸﾞﾝｸﾒｼﾞﾏﾁｮｳ","streetKana":"ﾅｶﾝﾀﾞｶﾘ","prefecture":"沖縄県","city":"島尻郡久米島町","street":"仲村渠"},{"zipCode":"9013131","prefectureKana":"ｵｷﾅﾜｹﾝ","cityKana":"ｼﾏｼﾞﾘｸﾞﾝｸﾒｼﾞﾏﾁｮｳ","streetKana":"ﾆｼﾒ","prefecture":"沖縄県","city":"島尻郡久米島町","street":"西銘"},{"zipCode":"9013108","prefectureKana":"ｵｷﾅﾜｹﾝ","cityKana":"ｼﾏｼﾞﾘｸﾞﾝｸﾒｼﾞﾏﾁｮｳ","streetKana":"ﾋｶﾞ","prefecture":"沖縄県","city":"島尻郡久米島町","street":"比嘉"},{"zipCode":"9013102","prefectureKana":"ｵｷﾅﾜｹﾝ","cityKana":"ｼﾏｼﾞﾘｸﾞﾝｸﾒｼﾞﾏﾁｮｳ","streetKana":"ﾋﾔｼﾞｮｳ","prefecture":"沖縄県","city":"島尻郡久米島町","street":"比屋定"},{"zipCode":"9013112","prefectureKana":"ｵｷﾅﾜｹﾝ","cityKana":"ｼﾏｼﾞﾘｸﾞﾝｸﾒｼﾞﾏﾁｮｳ","streetKana":"ﾏｶﾞﾘ","prefecture":"沖縄県","city":"島尻郡久米島町","street":"真我里"},{"zipCode":"9013104","prefectureKana":"ｵｷﾅﾜｹﾝ","cityKana":"ｼﾏｼﾞﾘｸﾞﾝｸﾒｼﾞﾏﾁｮｳ","streetKana":"ﾏｼﾞｬ","prefecture":"沖縄県","city":"島尻郡久米島町","street":"真謝"},{"zipCode":"9013111","prefectureKana":"ｵｷﾅﾜｹﾝ","cityKana":"ｼﾏｼﾞﾘｸﾞﾝｸﾒｼﾞﾏﾁｮｳ","streetKana":"ﾔﾏｸﾞｽｸ","prefecture":"沖縄県","city":"島尻郡久米島町","street":"山城"},{"zipCode":"9013137","prefectureKana":"ｵｷﾅﾜｹﾝ","cityKana":"ｼﾏｼﾞﾘｸﾞﾝｸﾒｼﾞﾏﾁｮｳ","streetKana":"ﾔﾏｻﾞﾄ","prefecture":"沖縄県","city":"島尻郡久米島町","street":"山里"},{"zipCode":"9010400","prefectureKana":"ｵｷﾅﾜｹﾝ","cityKana":"ｼﾏｼﾞﾘｸﾞﾝﾔｴｾﾁｮｳ","streetKana":"ｲｶﾆｹｲｻｲｶﾞﾅｲﾊﾞｱｲ","prefecture":"沖縄県","city":"島尻郡八重瀬町","street":"以下に掲載がない場合"},{"zipCode":"9010514","prefectureKana":"ｵｷﾅﾜｹﾝ","cityKana":"ｼﾏｼﾞﾘｸﾞﾝﾔｴｾﾁｮｳ","streetKana":"ｱｻﾄ","prefecture":"沖縄県","city":"島尻郡八重瀬町","street":"安里"},{"zipCode":"9010503","prefectureKana":"ｵｷﾅﾜｹﾝ","cityKana":"ｼﾏｼﾞﾘｸﾞﾝﾔｴｾﾁｮｳ","streetKana":"ｱﾗｸﾞｽｸ","prefecture":"沖縄県","city":"島尻郡八重瀬町","street":"新城"},{"zipCode":"9010405","prefectureKana":"ｵｷﾅﾜｹﾝ","cityKana":"ｼﾏｼﾞﾘｸﾞﾝﾔｴｾﾁｮｳ","streetKana":"ｲﾊ","prefecture":"沖縄県","city":"島尻郡八重瀬町","street":"伊覇"},{"zipCode":"9010412","prefectureKana":"ｵｷﾅﾜｹﾝ","cityKana":"ｼﾏｼﾞﾘｸﾞﾝﾔｴｾﾁｮｳ","streetKana":"ｳｴﾀﾊﾞﾙ","prefecture":"沖縄県","city":"島尻郡八重瀬町","street":"上田原"},{"zipCode":"9010502","prefectureKana":"ｵｷﾅﾜｹﾝ","cityKana":"ｼﾏｼﾞﾘｸﾞﾝﾔｴｾﾁｮｳ","streetKana":"ｵｵﾄﾝ","prefecture":"沖縄県","city":"島尻郡八重瀬町","street":"大頓"},{"zipCode":"9010416","prefectureKana":"ｵｷﾅﾜｹﾝ","cityKana":"ｼﾏｼﾞﾘｸﾞﾝﾔｴｾﾁｮｳ","streetKana":"ｷﾞｼ","prefecture":"沖縄県","city":"島尻郡八重瀬町","street":"宜次"},{"zipCode":"9010512","prefectureKana":"ｵｷﾅﾜｹﾝ","cityKana":"ｼﾏｼﾞﾘｸﾞﾝﾔｴｾﾁｮｳ","streetKana":"ｸﾞｼﾁｬﾝ","prefecture":"沖縄県","city":"島尻郡八重瀬町","street":"具志頭"},{"zipCode":"9010415","prefectureKana":"ｵｷﾅﾜｹﾝ","cityKana":"ｼﾏｼﾞﾘｸﾞﾝﾔｴｾﾁｮｳ","streetKana":"ｺｸﾞｽｸ","prefecture":"沖縄県","city":"島尻郡八重瀬町","street":"小城"},{"zipCode":"9010504","prefectureKana":"ｵｷﾅﾜｹﾝ","cityKana":"ｼﾏｼﾞﾘｸﾞﾝﾔｴｾﾁｮｳ","streetKana":"ｺｼﾊﾗ","prefecture":"沖縄県","city":"島尻郡八重瀬町","street":"後原"},{"zipCode":"9010401","prefectureKana":"ｵｷﾅﾜｹﾝ","cityKana":"ｼﾏｼﾞﾘｸﾞﾝﾔｴｾﾁｮｳ","streetKana":"ｺﾁﾝﾀﾞ","prefecture":"沖縄県","city":"島尻郡八重瀬町","street":"東風平"},{"zipCode":"9010413","prefectureKana":"ｵｷﾅﾜｹﾝ","cityKana":"ｼﾏｼﾞﾘｸﾞﾝﾔｴｾﾁｮｳ","streetKana":"ｼﾀﾊｸ","prefecture":"沖縄県","city":"島尻郡八重瀬町","street":"志多伯"},{"zipCode":"9010404","prefectureKana":"ｵｷﾅﾜｹﾝ","cityKana":"ｼﾏｼﾞﾘｸﾞﾝﾔｴｾﾁｮｳ","streetKana":"ﾀｶﾗ","prefecture":"沖縄県","city":"島尻郡八重瀬町","street":"高良"},{"zipCode":"9010414","prefectureKana":"ｵｷﾅﾜｹﾝ","cityKana":"ｼﾏｼﾞﾘｸﾞﾝﾔｴｾﾁｮｳ","streetKana":"ﾄｳﾒ","prefecture":"沖縄県","city":"島尻郡八重瀬町","street":"当銘"},{"zipCode":"9010411","prefectureKana":"ｵｷﾅﾜｹﾝ","cityKana":"ｼﾏｼﾞﾘｸﾞﾝﾔｴｾﾁｮｳ","streetKana":"ﾄﾓﾖｾ","prefecture":"沖縄県","city":"島尻郡八重瀬町","street":"友寄"},{"zipCode":"9010402","prefectureKana":"ｵｷﾅﾜｹﾝ","cityKana":"ｼﾏｼﾞﾘｸﾞﾝﾔｴｾﾁｮｳ","streetKana":"ﾄﾓﾘ","prefecture":"沖縄県","city":"島尻郡八重瀬町","street":"富盛"},{"zipCode":"9010516","prefectureKana":"ｵｷﾅﾜｹﾝ","cityKana":"ｼﾏｼﾞﾘｸﾞﾝﾔｴｾﾁｮｳ","streetKana":"ﾅｶｻﾞ","prefecture":"沖縄県","city":"島尻郡八重瀬町","street":"仲座"},{"zipCode":"9010501","prefectureKana":"ｵｷﾅﾜｹﾝ","cityKana":"ｼﾏｼﾞﾘｸﾞﾝﾔｴｾﾁｮｳ","streetKana":"ﾅｶﾞﾓｳ","prefecture":"沖縄県","city":"島尻郡八重瀬町","street":"長毛"},{"zipCode":"9010513","prefectureKana":"ｵｷﾅﾜｹﾝ","cityKana":"ｼﾏｼﾞﾘｸﾞﾝﾔｴｾﾁｮｳ","streetKana":"ﾊﾅｼﾛ","prefecture":"沖縄県","city":"島尻郡八重瀬町","street":"玻名城"},{"zipCode":"9010417","prefectureKana":"ｵｷﾅﾜｹﾝ","cityKana":"ｼﾏｼﾞﾘｸﾞﾝﾔｴｾﾁｮｳ","streetKana":"ﾎｶﾏ","prefecture":"沖縄県","city":"島尻郡八重瀬町","street":"外間"},{"zipCode":"9010511","prefectureKana":"ｵｷﾅﾜｹﾝ","cityKana":"ｼﾏｼﾞﾘｸﾞﾝﾔｴｾﾁｮｳ","streetKana":"ﾐﾅﾄｶﾞﾜ","prefecture":"沖縄県","city":"島尻郡八重瀬町","street":"港川"},{"zipCode":"9010406","prefectureKana":"ｵｷﾅﾜｹﾝ","cityKana":"ｼﾏｼﾞﾘｸﾞﾝﾔｴｾﾁｮｳ","streetKana":"ﾔｷﾞﾊﾞﾙ","prefecture":"沖縄県","city":"島尻郡八重瀬町","street":"屋宜原"},{"zipCode":"9010515","prefectureKana":"ｵｷﾅﾜｹﾝ","cityKana":"ｼﾏｼﾞﾘｸﾞﾝﾔｴｾﾁｮｳ","streetKana":"ﾖｻﾞ","prefecture":"沖縄県","city":"島尻郡八重瀬町","street":"与座"},{"zipCode":"9010403","prefectureKana":"ｵｷﾅﾜｹﾝ","cityKana":"ｼﾏｼﾞﾘｸﾞﾝﾔｴｾﾁｮｳ","streetKana":"ﾖﾅｸﾞｽｸ","prefecture":"沖縄県","city":"島尻郡八重瀬町","street":"世名城"}]