[{"zipCode":"9050000","prefectureKana":"ｵｷﾅﾜｹﾝ","cityKana":"ﾅｺﾞｼ","streetKana":"ｲｶﾆｹｲｻｲｶﾞﾅｲﾊﾞｱｲ","prefecture":"沖縄県","city":"名護市","street":"以下に掲載がない場合"},{"zipCode":"9050021","prefectureKana":"ｵｷﾅﾜｹﾝ","cityKana":"ﾅｺﾞｼ","streetKana":"ｱｶﾞﾘｴ","prefecture":"沖縄県","city":"名護市","street":"東江"},{"zipCode":"9050003","prefectureKana":"ｵｷﾅﾜｹﾝ","cityKana":"ﾅｺﾞｼ","streetKana":"ｱｻﾋｶﾜ","prefecture":"沖縄県","city":"名護市","street":"旭川"},{"zipCode":"9052263","prefectureKana":"ｵｷﾅﾜｹﾝ","cityKana":"ﾅｺﾞｼ","streetKana":"ｱﾌﾞ","prefecture":"沖縄県","city":"名護市","street":"安部"},{"zipCode":"9050001","prefectureKana":"ｵｷﾅﾜｹﾝ","cityKana":"ﾅｺﾞｼ","streetKana":"ｱﾜ","prefecture":"沖縄県","city":"名護市","street":"安和"},{"zipCode":"9051152","prefectureKana":"ｵｷﾅﾜｹﾝ","cityKana":"ﾅｺﾞｼ","streetKana":"ｲｻｶﾞﾜ","prefecture":"沖縄県","city":"名護市","street":"伊差川"},{"zipCode":"9051142","prefectureKana":"ｵｷﾅﾜｹﾝ","cityKana":"ﾅｺﾞｼ","streetKana":"ｲﾅﾐﾈ","prefecture":"沖縄県","city":"名護市","street":"稲嶺"},{"zipCode":"9050006","prefectureKana":"ｵｷﾅﾜｹﾝ","cityKana":"ﾅｺﾞｼ","streetKana":"ｳﾑｻ","prefecture":"沖縄県","city":"名護市","street":"宇茂佐"},{"zipCode":"9050009","prefectureKana":"ｵｷﾅﾜｹﾝ","cityKana":"ﾅｺﾞｼ","streetKana":"ｳﾑｻﾉﾓﾘ","prefecture":"沖縄県","city":"名護市","street":"宇茂佐の森"},{"zipCode":"9051634","prefectureKana":"ｵｷﾅﾜｹﾝ","cityKana":"ﾅｺﾞｼ","streetKana":"ｳﾝﾃﾝﾊﾞﾙ","prefecture":"沖縄県","city":"名護市","street":"運天原"},{"zipCode":"9052267","prefectureKana":"ｵｷﾅﾜｹﾝ","cityKana":"ﾅｺﾞｼ","streetKana":"ｵｵｳﾗ","prefecture":"沖縄県","city":"名護市","street":"大浦"},{"zipCode":"9052268","prefectureKana":"ｵｷﾅﾜｹﾝ","cityKana":"ﾅｺﾞｼ","streetKana":"ｵｵｶﾜ","prefecture":"沖縄県","city":"名護市","street":"大川"},{"zipCode":"9050019","prefectureKana":"ｵｷﾅﾜｹﾝ","cityKana":"ﾅｺﾞｼ","streetKana":"ｵｵｷﾀ","prefecture":"沖縄県","city":"名護市","street":"大北"},{"zipCode":"9050017","prefectureKana":"ｵｷﾅﾜｹﾝ","cityKana":"ﾅｺﾞｼ","streetKana":"ｵｵﾅｶ","prefecture":"沖縄県","city":"名護市","street":"大中"},{"zipCode":"9050018","prefectureKana":"ｵｷﾅﾜｹﾝ","cityKana":"ﾅｺﾞｼ","streetKana":"ｵｵﾆｼ","prefecture":"沖縄県","city":"名護市","street":"大西"},{"zipCode":"9050016","prefectureKana":"ｵｷﾅﾜｹﾝ","cityKana":"ﾅｺﾞｼ","streetKana":"ｵｵﾋｶﾞｼ","prefecture":"沖縄県","city":"名護市","street":"大東"},{"zipCode":"9050015","prefectureKana":"ｵｷﾅﾜｹﾝ","cityKana":"ﾅｺﾞｼ","streetKana":"ｵｵﾐﾅﾐ","prefecture":"沖縄県","city":"名護市","street":"大南"},{"zipCode":"9051146","prefectureKana":"ｵｷﾅﾜｹﾝ","cityKana":"ﾅｺﾞｼ","streetKana":"ｵﾔｶﾜ","prefecture":"沖縄県","city":"名護市","street":"親川"},{"zipCode":"9050002","prefectureKana":"ｵｷﾅﾜｹﾝ","cityKana":"ﾅｺﾞｼ","streetKana":"ｶﾂﾔﾏ","prefecture":"沖縄県","city":"名護市","street":"勝山"},{"zipCode":"9051633","prefectureKana":"ｵｷﾅﾜｹﾝ","cityKana":"ﾅｺﾞｼ","streetKana":"ｶﾞﾌﾞ","prefecture":"沖縄県","city":"名護市","street":"我部"},{"zipCode":"9051155","prefectureKana":"ｵｷﾅﾜｹﾝ","cityKana":"ﾅｺﾞｼ","streetKana":"ｶﾞﾌﾞｿｶ","prefecture":"沖縄県","city":"名護市","street":"我部祖河"},{"zipCode":"9052262","prefectureKana":"ｵｷﾅﾜｹﾝ","cityKana":"ﾅｺﾞｼ","streetKana":"ｶﾖｳ","prefecture":"沖縄県","city":"名護市","street":"嘉陽"},{"zipCode":"9051145","prefectureKana":"ｵｷﾅﾜｹﾝ","cityKana":"ﾅｺﾞｼ","streetKana":"ｶﾜｶﾐ","prefecture":"沖縄県","city":"名護市","street":"川上"},{"zipCode":"9050026","prefectureKana":"ｵｷﾅﾜｹﾝ","cityKana":"ﾅｺﾞｼ","streetKana":"ｷｾ","prefecture":"沖縄県","city":"名護市","street":"喜瀬"},{"zipCode":"9050024","prefectureKana":"ｵｷﾅﾜｹﾝ","cityKana":"ﾅｺﾞｼ","streetKana":"ｷｮﾀﾞ","prefecture":"沖縄県","city":"名護市","street":"許田"},{"zipCode":"9052173","prefectureKana":"ｵｷﾅﾜｹﾝ","cityKana":"ﾅｺﾞｼ","streetKana":"ｸｼ","prefecture":"沖縄県","city":"名護市","street":"久志"},{"zipCode":"9050013","prefectureKana":"ｵｷﾅﾜｹﾝ","cityKana":"ﾅｺﾞｼ","streetKana":"ｸﾞｽｸ","prefecture":"沖縄県","city":"名護市","street":"城"},{"zipCode":"9051141","prefectureKana":"ｵｷﾅﾜｹﾝ","cityKana":"ﾅｺﾞｼ","streetKana":"ｹﾞﾝｶ","prefecture":"沖縄県","city":"名護市","street":"源河"},{"zipCode":"9050025","prefectureKana":"ｵｷﾅﾜｹﾝ","cityKana":"ﾅｺﾞｼ","streetKana":"ｺｳｷ","prefecture":"沖縄県","city":"名護市","street":"幸喜"},{"zipCode":"9051154","prefectureKana":"ｵｷﾅﾜｹﾝ","cityKana":"ﾅｺﾞｼ","streetKana":"ｺﾞｶﾞ","prefecture":"沖縄県","city":"名護市","street":"呉我"},{"zipCode":"9051156","prefectureKana":"ｵｷﾅﾜｹﾝ","cityKana":"ﾅｺﾞｼ","streetKana":"ｺｶﾞﾁ","prefecture":"沖縄県","city":"名護市","street":"古我知"},{"zipCode":"9050023","prefectureKana":"ｵｷﾅﾜｹﾝ","cityKana":"ﾅｺﾞｼ","streetKana":"ｽｸﾀ","prefecture":"沖縄県","city":"名護市","street":"数久田"},{"zipCode":"9051635","prefectureKana":"ｵｷﾅﾜｹﾝ","cityKana":"ﾅｺﾞｼ","streetKana":"ｽﾑｲﾃﾞ","prefecture":"沖縄県","city":"名護市","street":"済井出"},{"zipCode":"9052266","prefectureKana":"ｵｷﾅﾜｹﾝ","cityKana":"ﾅｺﾞｼ","streetKana":"ｾﾀﾞｹ","prefecture":"沖縄県","city":"名護市","street":"瀬嵩"},{"zipCode":"9051147","prefectureKana":"ｵｷﾅﾜｹﾝ","cityKana":"ﾅｺﾞｼ","streetKana":"ﾀｲﾗ","prefecture":"沖縄県","city":"名護市","street":"田井等"},{"zipCode":"9052265","prefectureKana":"ｵｷﾅﾜｹﾝ","cityKana":"ﾅｺﾞｼ","streetKana":"ﾃｲﾏ","prefecture":"沖縄県","city":"名護市","street":"汀間"},{"zipCode":"9052261","prefectureKana":"ｵｷﾅﾜｹﾝ","cityKana":"ﾅｺﾞｼ","streetKana":"ﾃﾆﾔ","prefecture":"沖縄県","city":"名護市","street":"天仁屋"},{"zipCode":"9052172","prefectureKana":"ｵｷﾅﾜｹﾝ","cityKana":"ﾅｺﾞｼ","streetKana":"ﾄﾖﾊﾗ","prefecture":"沖縄県","city":"名護市","street":"豊原"},{"zipCode":"9051153","prefectureKana":"ｵｷﾅﾜｹﾝ","cityKana":"ﾅｺﾞｼ","streetKana":"ﾅｶｵ","prefecture":"沖縄県","city":"名護市","street":"仲尾"},{"zipCode":"9051144","prefectureKana":"ｵｷﾅﾜｹﾝ","cityKana":"ﾅｺﾞｼ","streetKana":"ﾅｶｵｼ","prefecture":"沖縄県","city":"名護市","street":"仲尾次"},{"zipCode":"9050004","prefectureKana":"ｵｷﾅﾜｹﾝ","cityKana":"ﾅｺﾞｼ","streetKana":"ﾅｶﾔﾏ","prefecture":"沖縄県","city":"名護市","street":"中山"},{"zipCode":"9050012","prefectureKana":"ｵｷﾅﾜｹﾝ","cityKana":"ﾅｺﾞｼ","streetKana":"ﾅｺﾞ","prefecture":"沖縄県","city":"名護市","street":"名護"},{"zipCode":"9050005","prefectureKana":"ｵｷﾅﾜｹﾝ","cityKana":"ﾅｺﾞｼ","streetKana":"ﾋﾞｲﾏﾀ","prefecture":"沖縄県","city":"名護市","street":"為又"},{"zipCode":"9052269","prefectureKana":"ｵｷﾅﾜｹﾝ","cityKana":"ﾅｺﾞｼ","streetKana":"ﾌﾀﾐ","prefecture":"沖縄県","city":"名護市","street":"二見"},{"zipCode":"9051151","prefectureKana":"ｵｷﾅﾜｹﾝ","cityKana":"ﾅｺﾞｼ","streetKana":"ﾌﾞﾘｹﾅ","prefecture":"沖縄県","city":"名護市","street":"振慶名"},{"zipCode":"9052171","prefectureKana":"ｵｷﾅﾜｹﾝ","cityKana":"ﾅｺﾞｼ","streetKana":"ﾍﾉｺ","prefecture":"沖縄県","city":"名護市","street":"辺野古"},{"zipCode":"9051143","prefectureKana":"ｵｷﾅﾜｹﾝ","cityKana":"ﾅｺﾞｼ","streetKana":"ﾏｷﾔ","prefecture":"沖縄県","city":"名護市","street":"真喜屋"},{"zipCode":"9050014","prefectureKana":"ｵｷﾅﾜｹﾝ","cityKana":"ﾅｺﾞｼ","streetKana":"ﾐﾅﾄ","prefecture":"沖縄県","city":"名護市","street":"港"},{"zipCode":"9052264","prefectureKana":"ｵｷﾅﾜｹﾝ","cityKana":"ﾅｺﾞｼ","streetKana":"ﾐﾊﾗ","prefecture":"沖縄県","city":"名護市","street":"三原"},{"zipCode":"9050011","prefectureKana":"ｵｷﾅﾜｹﾝ","cityKana":"ﾅｺﾞｼ","streetKana":"ﾐﾔｻﾞﾄ","prefecture":"沖縄県","city":"名護市","street":"宮里"},{"zipCode":"9051631","prefectureKana":"ｵｷﾅﾜｹﾝ","cityKana":"ﾅｺﾞｼ","streetKana":"ﾔｶﾞ","prefecture":"沖縄県","city":"名護市","street":"屋我"},{"zipCode":"9050007","prefectureKana":"ｵｷﾅﾜｹﾝ","cityKana":"ﾅｺﾞｼ","streetKana":"ﾔﾌﾞ","prefecture":"沖縄県","city":"名護市","street":"屋部"},{"zipCode":"9050008","prefectureKana":"ｵｷﾅﾜｹﾝ","cityKana":"ﾅｺﾞｼ","streetKana":"ﾔﾏﾉﾊ","prefecture":"沖縄県","city":"名護市","street":"山入端"},{"zipCode":"9050022","prefectureKana":"ｵｷﾅﾜｹﾝ","cityKana":"ﾅｺﾞｼ","streetKana":"ﾖﾌｹ","prefecture":"沖縄県","city":"名護市","street":"世冨慶"},{"zipCode":"9051632","prefectureKana":"ｵｷﾅﾜｹﾝ","cityKana":"ﾅｺﾞｼ","streetKana":"ﾖﾍﾅ","prefecture":"沖縄県","city":"名護市","street":"饒平名"},{"zipCode":"9051400","prefectureKana":"ｵｷﾅﾜｹﾝ","cityKana":"ｸﾆｶﾞﾐｸﾞﾝｸﾆｶﾞﾐｿﾝ","streetKana":"ｲｶﾆｹｲｻｲｶﾞﾅｲﾊﾞｱｲ","prefecture":"沖縄県","city":"国頭郡国頭村","street":"以下に掲載がない場合"},{"zipCode":"9051503","prefectureKana":"ｵｷﾅﾜｹﾝ","cityKana":"ｸﾆｶﾞﾐｸﾞﾝｸﾆｶﾞﾐｿﾝ","streetKana":"ｱﾀﾞ","prefecture":"沖縄県","city":"国頭郡国頭村","street":"安田"},{"zipCode":"9051504","prefectureKana":"ｵｷﾅﾜｹﾝ","cityKana":"ｸﾆｶﾞﾐｸﾞﾝｸﾆｶﾞﾐｿﾝ","streetKana":"ｱﾊ","prefecture":"沖縄県","city":"国頭郡国頭村","street":"安波"},{"zipCode":"9051428","prefectureKana":"ｵｷﾅﾜｹﾝ","cityKana":"ｸﾆｶﾞﾐｸﾞﾝｸﾆｶﾞﾐｿﾝ","streetKana":"ｲｼﾞ","prefecture":"沖縄県","city":"国頭郡国頭村","street":"伊地"},{"zipCode":"9051423","prefectureKana":"ｵｷﾅﾜｹﾝ","cityKana":"ｸﾆｶﾞﾐｸﾞﾝｸﾆｶﾞﾐｿﾝ","streetKana":"ｳｶ","prefecture":"沖縄県","city":"国頭郡国頭村","street":"宇嘉"},{"zipCode":"9051429","prefectureKana":"ｵｷﾅﾜｹﾝ","cityKana":"ｸﾆｶﾞﾐｸﾞﾝｸﾆｶﾞﾐｿﾝ","streetKana":"ｳﾗ","prefecture":"沖縄県","city":"国頭郡国頭村","street":"宇良"},{"zipCode":"9051501","prefectureKana":"ｵｷﾅﾜｹﾝ","cityKana":"ｸﾆｶﾞﾐｸﾞﾝｸﾆｶﾞﾐｿﾝ","streetKana":"ｵｸ","prefecture":"沖縄県","city":"国頭郡国頭村","street":"奥"},{"zipCode":"9051412","prefectureKana":"ｵｷﾅﾜｹﾝ","cityKana":"ｸﾆｶﾞﾐｸﾞﾝｸﾆｶﾞﾐｿﾝ","streetKana":"ｵｸﾏ","prefecture":"沖縄県","city":"国頭郡国頭村","street":"奥間"},{"zipCode":"9051416","prefectureKana":"ｵｷﾅﾜｹﾝ","cityKana":"ｸﾆｶﾞﾐｸﾞﾝｸﾆｶﾞﾐｿﾝ","streetKana":"ｶｶﾞﾝｼﾞ","prefecture":"沖縄県","city":"国頭郡国頭村","street":"鏡地"},{"zipCode":"9051422","prefectureKana":"ｵｷﾅﾜｹﾝ","cityKana":"ｸﾆｶﾞﾐｸﾞﾝｸﾆｶﾞﾐｿﾝ","streetKana":"ｷﾞﾅﾏ","prefecture":"沖縄県","city":"国頭郡国頭村","street":"宜名真"},{"zipCode":"9051425","prefectureKana":"ｵｷﾅﾜｹﾝ","cityKana":"ｸﾆｶﾞﾐｸﾞﾝｸﾆｶﾞﾐｿﾝ","streetKana":"ｻﾃ","prefecture":"沖縄県","city":"国頭郡国頭村","street":"佐手"},{"zipCode":"9051426","prefectureKana":"ｵｷﾅﾜｹﾝ","cityKana":"ｸﾆｶﾞﾐｸﾞﾝｸﾆｶﾞﾐｿﾝ","streetKana":"ｼﾞｬｼｷ","prefecture":"沖縄県","city":"国頭郡国頭村","street":"謝敷"},{"zipCode":"9051502","prefectureKana":"ｵｷﾅﾜｹﾝ","cityKana":"ｸﾆｶﾞﾐｸﾞﾝｸﾆｶﾞﾐｿﾝ","streetKana":"ｿｽ","prefecture":"沖縄県","city":"国頭郡国頭村","street":"楚洲"},{"zipCode":"9051417","prefectureKana":"ｵｷﾅﾜｹﾝ","cityKana":"ｸﾆｶﾞﾐｸﾞﾝｸﾆｶﾞﾐｿﾝ","streetKana":"ﾄｳﾊﾞﾙ","prefecture":"沖縄県","city":"国頭郡国頭村","street":"桃原"},{"zipCode":"9051415","prefectureKana":"ｵｷﾅﾜｹﾝ","cityKana":"ｸﾆｶﾞﾐｸﾞﾝｸﾆｶﾞﾐｿﾝ","streetKana":"ﾊﾏ","prefecture":"沖縄県","city":"国頭郡国頭村","street":"浜"},{"zipCode":"9051414","prefectureKana":"ｵｷﾅﾜｹﾝ","cityKana":"ｸﾆｶﾞﾐｸﾞﾝｸﾆｶﾞﾐｿﾝ","streetKana":"ﾊﾝｼﾞ","prefecture":"沖縄県","city":"国頭郡国頭村","street":"半地"},{"zipCode":"9051413","prefectureKana":"ｵｷﾅﾜｹﾝ","cityKana":"ｸﾆｶﾞﾐｸﾞﾝｸﾆｶﾞﾐｿﾝ","streetKana":"ﾋｼﾞ","prefecture":"沖縄県","city":"国頭郡国頭村","street":"比地"},{"zipCode":"9051421","prefectureKana":"ｵｷﾅﾜｹﾝ","cityKana":"ｸﾆｶﾞﾐｸﾞﾝｸﾆｶﾞﾐｿﾝ","streetKana":"ﾍﾄﾞ","prefecture":"沖縄県","city":"国頭郡国頭村","street":"辺戸"},{"zipCode":"9051424","prefectureKana":"ｵｷﾅﾜｹﾝ","cityKana":"ｸﾆｶﾞﾐｸﾞﾝｸﾆｶﾞﾐｿﾝ","streetKana":"ﾍﾞﾉｷ","prefecture":"沖縄県","city":"国頭郡国頭村","street":"辺野喜"},{"zipCode":"9051411","prefectureKana":"ｵｷﾅﾜｹﾝ","cityKana":"ｸﾆｶﾞﾐｸﾞﾝｸﾆｶﾞﾐｿﾝ","streetKana":"ﾍﾝﾄﾅ","prefecture":"沖縄県","city":"国頭郡国頭村","street":"辺土名"},{"zipCode":"9051427","prefectureKana":"ｵｷﾅﾜｹﾝ","cityKana":"ｸﾆｶﾞﾐｸﾞﾝｸﾆｶﾞﾐｿﾝ","streetKana":"ﾖﾅ","prefecture":"沖縄県","city":"国頭郡国頭村","street":"与那"},{"zipCode":"9051300","prefectureKana":"ｵｷﾅﾜｹﾝ","cityKana":"ｸﾆｶﾞﾐｸﾞﾝｵｵｷﾞﾐｿﾝ","streetKana":"ｲｶﾆｹｲｻｲｶﾞﾅｲﾊﾞｱｲ","prefecture":"沖縄県","city":"国頭郡大宜味村","street":"以下に掲載がない場合"},{"zipCode":"9051308","prefectureKana":"ｵｷﾅﾜｹﾝ","cityKana":"ｸﾆｶﾞﾐｸﾞﾝｵｵｷﾞﾐｿﾝ","streetKana":"ｳｴﾊﾗ","prefecture":"沖縄県","city":"国頭郡大宜味村","street":"上原"},{"zipCode":"9051317","prefectureKana":"ｵｷﾅﾜｹﾝ","cityKana":"ｸﾆｶﾞﾐｸﾞﾝｵｵｷﾞﾐｿﾝ","streetKana":"ｴｽ","prefecture":"沖縄県","city":"国頭郡大宜味村","street":"江洲"},{"zipCode":"9051305","prefectureKana":"ｵｷﾅﾜｹﾝ","cityKana":"ｸﾆｶﾞﾐｸﾞﾝｵｵｷﾞﾐｿﾝ","streetKana":"ｵｵｶﾞﾈｸ","prefecture":"沖縄県","city":"国頭郡大宜味村","street":"大兼久"},{"zipCode":"9051306","prefectureKana":"ｵｷﾅﾜｹﾝ","cityKana":"ｸﾆｶﾞﾐｸﾞﾝｵｵｷﾞﾐｿﾝ","streetKana":"ｵｵｷﾞﾐ","prefecture":"沖縄県","city":"国頭郡大宜味村","street":"大宜味"},{"zipCode":"9051313","prefectureKana":"ｵｷﾅﾜｹﾝ","cityKana":"ｸﾆｶﾞﾐｸﾞﾝｵｵｷﾞﾐｿﾝ","streetKana":"ｵｼｶﾜ","prefecture":"沖縄県","city":"国頭郡大宜味村","street":"押川"},{"zipCode":"9051303","prefectureKana":"ｵｷﾅﾜｹﾝ","cityKana":"ｸﾆｶﾞﾐｸﾞﾝｵｵｷﾞﾐｿﾝ","streetKana":"ｷｼﾞｮｶ","prefecture":"沖縄県","city":"国頭郡大宜味村","street":"喜如嘉"},{"zipCode":"9051311","prefectureKana":"ｵｷﾅﾜｹﾝ","cityKana":"ｸﾆｶﾞﾐｸﾞﾝｵｵｷﾞﾐｿﾝ","streetKana":"ｼｵﾔ","prefecture":"沖縄県","city":"国頭郡大宜味村","street":"塩屋"},{"zipCode":"9051302","prefectureKana":"ｵｷﾅﾜｹﾝ","cityKana":"ｸﾆｶﾞﾐｸﾞﾝｵｵｷﾞﾐｿﾝ","streetKana":"ｼﾞｬﾅｸﾞｽｸ","prefecture":"沖縄県","city":"国頭郡大宜味村","street":"謝名城"},{"zipCode":"9051316","prefectureKana":"ｵｷﾅﾜｹﾝ","cityKana":"ｸﾆｶﾞﾐｸﾞﾝｵｵｷﾞﾐｿﾝ","streetKana":"ｼﾗﾊﾏ","prefecture":"沖縄県","city":"国頭郡大宜味村","street":"白浜"},{"zipCode":"9051315","prefectureKana":"ｵｷﾅﾜｹﾝ","cityKana":"ｸﾆｶﾞﾐｸﾞﾝｵｵｷﾞﾐｿﾝ","streetKana":"ﾀｲﾎ","prefecture":"沖縄県","city":"国頭郡大宜味村","street":"大保"},{"zipCode":"9051301","prefectureKana":"ｵｷﾅﾜｹﾝ","cityKana":"ｸﾆｶﾞﾐｸﾞﾝｵｵｷﾞﾐｿﾝ","streetKana":"ﾀｶｻﾞﾄ","prefecture":"沖縄県","city":"国頭郡大宜味村","street":"田嘉里"},{"zipCode":"9051314","prefectureKana":"ｵｷﾅﾜｹﾝ","cityKana":"ｸﾆｶﾞﾐｸﾞﾝｵｵｷﾞﾐｿﾝ","streetKana":"ﾀﾐﾅﾄ","prefecture":"沖縄県","city":"国頭郡大宜味村","street":"田港"},{"zipCode":"9051318","prefectureKana":"ｵｷﾅﾜｹﾝ","cityKana":"ｸﾆｶﾞﾐｸﾞﾝｵｵｷﾞﾐｿﾝ","streetKana":"ﾂﾊ","prefecture":"沖縄県","city":"国頭郡大宜味村","street":"津波"},{"zipCode":"9051304","prefectureKana":"ｵｷﾅﾜｹﾝ","cityKana":"ｸﾆｶﾞﾐｸﾞﾝｵｵｷﾞﾐｿﾝ","streetKana":"ﾇｳﾊ","prefecture":"沖縄県","city":"国頭郡大宜味村","street":"饒波"},{"zipCode":"9051307","prefectureKana":"ｵｷﾅﾜｹﾝ","cityKana":"ｸﾆｶﾞﾐｸﾞﾝｵｵｷﾞﾐｿﾝ","streetKana":"ﾈﾛﾒ","prefecture":"沖縄県","city":"国頭郡大宜味村","street":"根路銘"},{"zipCode":"9051319","prefectureKana":"ｵｷﾅﾜｹﾝ","cityKana":"ｸﾆｶﾞﾐｸﾞﾝｵｵｷﾞﾐｿﾝ","streetKana":"ﾐﾔｷﾞ","prefecture":"沖縄県","city":"国頭郡大宜味村","street":"宮城"},{"zipCode":"9051312","prefectureKana":"ｵｷﾅﾜｹﾝ","cityKana":"ｸﾆｶﾞﾐｸﾞﾝｵｵｷﾞﾐｿﾝ","streetKana":"ﾔｺ","prefecture":"沖縄県","city":"国頭郡大宜味村","street":"屋古"},{"zipCode":"9051200","prefectureKana":"ｵｷﾅﾜｹﾝ","cityKana":"ｸﾆｶﾞﾐｸﾞﾝﾋｶﾞｼｿﾝ","streetKana":"ｲｶﾆｹｲｻｲｶﾞﾅｲﾊﾞｱｲ","prefecture":"沖縄県","city":"国頭郡東村","street":"以下に掲載がない場合"},{"zipCode":"9051206","prefectureKana":"ｵｷﾅﾜｹﾝ","cityKana":"ｸﾆｶﾞﾐｸﾞﾝﾋｶﾞｼｿﾝ","streetKana":"ｱﾙﾒ","prefecture":"沖縄県","city":"国頭郡東村","street":"有銘"},{"zipCode":"9051203","prefectureKana":"ｵｷﾅﾜｹﾝ","cityKana":"ｸﾆｶﾞﾐｸﾞﾝﾋｶﾞｼｿﾝ","streetKana":"ｶﾜﾀ","prefecture":"沖縄県","city":"国頭郡東村","street":"川田"},{"zipCode":"9051205","prefectureKana":"ｵｷﾅﾜｹﾝ","cityKana":"ｸﾆｶﾞﾐｸﾞﾝﾋｶﾞｼｿﾝ","streetKana":"ｹﾞｻｼ","prefecture":"沖縄県","city":"国頭郡東村","street":"慶佐次"},{"zipCode":"9051204","prefectureKana":"ｵｷﾅﾜｹﾝ","cityKana":"ｸﾆｶﾞﾐｸﾞﾝﾋｶﾞｼｿﾝ","streetKana":"ﾀｲﾗ","prefecture":"沖縄県","city":"国頭郡東村","street":"平良"},{"zipCode":"9051201","prefectureKana":"ｵｷﾅﾜｹﾝ","cityKana":"ｸﾆｶﾞﾐｸﾞﾝﾋｶﾞｼｿﾝ","streetKana":"ﾀｶｴ","prefecture":"沖縄県","city":"国頭郡東村","street":"高江"},{"zipCode":"9051202","prefectureKana":"ｵｷﾅﾜｹﾝ","cityKana":"ｸﾆｶﾞﾐｸﾞﾝﾋｶﾞｼｿﾝ","streetKana":"ﾐﾔｷﾞ","prefecture":"沖縄県","city":"国頭郡東村","street":"宮城"},{"zipCode":"9050400","prefectureKana":"ｵｷﾅﾜｹﾝ","cityKana":"ｸﾆｶﾞﾐｸﾞﾝﾅｷｼﾞﾝｿﾝ","streetKana":"ｲｶﾆｹｲｻｲｶﾞﾅｲﾊﾞｱｲ","prefecture":"沖縄県","city":"国頭郡今帰仁村","street":"以下に掲載がない場合"},{"zipCode":"9050411","prefectureKana":"ｵｷﾅﾜｹﾝ","cityKana":"ｸﾆｶﾞﾐｸﾞﾝﾅｷｼﾞﾝｿﾝ","streetKana":"ｱﾒｿｺ","prefecture":"沖縄県","city":"国頭郡今帰仁村","street":"天底"},{"zipCode":"9050428","prefectureKana":"ｵｷﾅﾜｹﾝ","cityKana":"ｸﾆｶﾞﾐｸﾞﾝﾅｷｼﾞﾝｿﾝ","streetKana":"ｲﾏﾄﾞﾏﾘ","prefecture":"沖縄県","city":"国頭郡今帰仁村","street":"今泊"},{"zipCode":"9050403","prefectureKana":"ｵｷﾅﾜｹﾝ","cityKana":"ｸﾆｶﾞﾐｸﾞﾝﾅｷｼﾞﾝｿﾝ","streetKana":"ｳﾝﾃﾝ","prefecture":"沖縄県","city":"国頭郡今帰仁村","street":"運天"},{"zipCode":"9050427","prefectureKana":"ｵｷﾅﾜｹﾝ","cityKana":"ｸﾆｶﾞﾐｸﾞﾝﾅｷｼﾞﾝｿﾝ","streetKana":"ｶﾈｼ","prefecture":"沖縄県","city":"国頭郡今帰仁村","street":"兼次"},{"zipCode":"9050404","prefectureKana":"ｵｷﾅﾜｹﾝ","cityKana":"ｸﾆｶﾞﾐｸﾞﾝﾅｷｼﾞﾝｿﾝ","streetKana":"ｶﾐｳﾝﾃﾝ","prefecture":"沖縄県","city":"国頭郡今帰仁村","street":"上運天"},{"zipCode":"9050406","prefectureKana":"ｵｷﾅﾜｹﾝ","cityKana":"ｸﾆｶﾞﾐｸﾞﾝﾅｷｼﾞﾝｿﾝ","streetKana":"ｺｳﾘ","prefecture":"沖縄県","city":"国頭郡今帰仁村","street":"古宇利"},{"zipCode":"9050421","prefectureKana":"ｵｷﾅﾜｹﾝ","cityKana":"ｸﾆｶﾞﾐｸﾞﾝﾅｷｼﾞﾝｿﾝ","streetKana":"ｺｴﾁ","prefecture":"沖縄県","city":"国頭郡今帰仁村","street":"越地"},{"zipCode":"9050413","prefectureKana":"ｵｷﾅﾜｹﾝ","cityKana":"ｸﾆｶﾞﾐｸﾞﾝﾅｷｼﾞﾝｿﾝ","streetKana":"ｺﾞｶﾞﾔﾏ","prefecture":"沖縄県","city":"国頭郡今帰仁村","street":"呉我山"},{"zipCode":"9050422","prefectureKana":"ｵｷﾅﾜｹﾝ","cityKana":"ｸﾆｶﾞﾐｸﾞﾝﾅｷｼﾞﾝｿﾝ","streetKana":"ｻｷﾔﾏ","prefecture":"沖縄県","city":"国頭郡今帰仁村","street":"崎山"},{"zipCode":"9050414","prefectureKana":"ｵｷﾅﾜｹﾝ","cityKana":"ｸﾆｶﾞﾐｸﾞﾝﾅｷｼﾞﾝｿﾝ","streetKana":"ｼﾞｬﾅ","prefecture":"沖縄県","city":"国頭郡今帰仁村","street":"謝名"},{"zipCode":"9050426","prefectureKana":"ｵｷﾅﾜｹﾝ","cityKana":"ｸﾆｶﾞﾐｸﾞﾝﾅｷｼﾞﾝｿﾝ","streetKana":"ｼｮｼ","prefecture":"沖縄県","city":"国頭郡今帰仁村","street":"諸志"},{"zipCode":"9050405","prefectureKana":"ｵｷﾅﾜｹﾝ","cityKana":"ｸﾆｶﾞﾐｸﾞﾝﾅｷｼﾞﾝｿﾝ","streetKana":"ｾﾘｷｬｸ","prefecture":"沖縄県","city":"国頭郡今帰仁村","street":"勢理客"},{"zipCode":"9050415","prefectureKana":"ｵｷﾅﾜｹﾝ","cityKana":"ｸﾆｶﾞﾐｸﾞﾝﾅｷｼﾞﾝｿﾝ","streetKana":"ﾀﾏｼﾛ","prefecture":"沖縄県","city":"国頭郡今帰仁村","street":"玉城"},{"zipCode":"9050402","prefectureKana":"ｵｷﾅﾜｹﾝ","cityKana":"ｸﾆｶﾞﾐｸﾞﾝﾅｷｼﾞﾝｿﾝ","streetKana":"ﾄｷｼﾞﾝ","prefecture":"沖縄県","city":"国頭郡今帰仁村","street":"渡喜仁"},{"zipCode":"9050424","prefectureKana":"ｵｷﾅﾜｹﾝ","cityKana":"ｸﾆｶﾞﾐｸﾞﾝﾅｷｼﾞﾝｿﾝ","streetKana":"ﾅｶｵｼ","prefecture":"沖縄県","city":"国頭郡今帰仁村","street":"仲尾次"},{"zipCode":"9050401","prefectureKana":"ｵｷﾅﾜｹﾝ","cityKana":"ｸﾆｶﾞﾐｸﾞﾝﾅｷｼﾞﾝｿﾝ","streetKana":"ﾅｶｿﾈ","prefecture":"沖縄県","city":"国頭郡今帰仁村","street":"仲宗根"},{"zipCode":"9050423","prefectureKana":"ｵｷﾅﾜｹﾝ","cityKana":"ｸﾆｶﾞﾐｸﾞﾝﾅｷｼﾞﾝｿﾝ","streetKana":"ﾍｼｷ","prefecture":"沖縄県","city":"国頭郡今帰仁村","street":"平敷"},{"zipCode":"9050425","prefectureKana":"ｵｷﾅﾜｹﾝ","cityKana":"ｸﾆｶﾞﾐｸﾞﾝﾅｷｼﾞﾝｿﾝ","streetKana":"ﾖﾅﾐﾈ","prefecture":"沖縄県","city":"国頭郡今帰仁村","street":"与那嶺"},{"zipCode":"9050412","prefectureKana":"ｵｷﾅﾜｹﾝ","cityKana":"ｸﾆｶﾞﾐｸﾞﾝﾅｷｼﾞﾝｿﾝ","streetKana":"ﾜｸｶﾞﾜ","prefecture":"沖縄県","city":"国頭郡今帰仁村","street":"湧川"},{"zipCode":"9050200","prefectureKana":"ｵｷﾅﾜｹﾝ","cityKana":"ｸﾆｶﾞﾐｸﾞﾝﾓﾄﾌﾞﾁｮｳ","streetKana":"ｲｶﾆｹｲｻｲｶﾞﾅｲﾊﾞｱｲ","prefecture":"沖縄県","city":"国頭郡本部町","street":"以下に掲載がない場合"},{"zipCode":"9050206","prefectureKana":"ｵｷﾅﾜｹﾝ","cityKana":"ｸﾆｶﾞﾐｸﾞﾝﾓﾄﾌﾞﾁｮｳ","streetKana":"ｲｼｶﾜ","prefecture":"沖縄県","city":"国頭郡本部町","street":"石川"},{"zipCode":"9050221","prefectureKana":"ｵｷﾅﾜｹﾝ","cityKana":"ｸﾆｶﾞﾐｸﾞﾝﾓﾄﾌﾞﾁｮｳ","streetKana":"ｲｽﾞﾐ","prefecture":"沖縄県","city":"国頭郡本部町","street":"伊豆味"},{"zipCode":"9050228","prefectureKana":"ｵｷﾅﾜｹﾝ","cityKana":"ｸﾆｶﾞﾐｸﾞﾝﾓﾄﾌﾞﾁｮｳ","streetKana":"ｲﾉﾊ","prefecture":"沖縄県","city":"国頭郡本部町","street":"伊野波"},{"zipCode":"9050229","prefectureKana":"ｵｷﾅﾜｹﾝ","cityKana":"ｸﾆｶﾞﾐｸﾞﾝﾓﾄﾌﾞﾁｮｳ","streetKana":"ｳﾌﾄﾞｳ","prefecture":"沖縄県","city":"国頭郡本部町","street":"大堂"},{"zipCode":"9050217","prefectureKana":"ｵｷﾅﾜｹﾝ","cityKana":"ｸﾆｶﾞﾐｸﾞﾝﾓﾄﾌﾞﾁｮｳ","streetKana":"ｳﾗｻｷ","prefecture":"沖縄県","city":"国頭郡本部町","street":"浦崎"},{"zipCode":"9050223","prefectureKana":"ｵｷﾅﾜｹﾝ","cityKana":"ｸﾆｶﾞﾐｸﾞﾝﾓﾄﾌﾞﾁｮｳ","streetKana":"ｵｵｶﾖｳ","prefecture":"沖縄県","city":"国頭郡本部町","street":"大嘉陽"},{"zipCode":"9050212","prefectureKana":"ｵｷﾅﾜｹﾝ","cityKana":"ｸﾆｶﾞﾐｸﾞﾝﾓﾄﾌﾞﾁｮｳ","streetKana":"ｵｵﾊﾏ","prefecture":"沖縄県","city":"国頭郡本部町","street":"大浜"},{"zipCode":"9050202","prefectureKana":"ｵｷﾅﾜｹﾝ","cityKana":"ｸﾆｶﾞﾐｸﾞﾝﾓﾄﾌﾞﾁｮｳ","streetKana":"ｶﾂｳ","prefecture":"沖縄県","city":"国頭郡本部町","street":"嘉津宇"},{"zipCode":"9050209","prefectureKana":"ｵｷﾅﾜｹﾝ","cityKana":"ｸﾆｶﾞﾐｸﾞﾝﾓﾄﾌﾞﾁｮｳ","streetKana":"ｷﾀｻﾞﾄ","prefecture":"沖縄県","city":"国頭郡本部町","street":"北里"},{"zipCode":"9050201","prefectureKana":"ｵｷﾅﾜｹﾝ","cityKana":"ｸﾆｶﾞﾐｸﾞﾝﾓﾄﾌﾞﾁｮｳ","streetKana":"ｸﾞｼｹﾝ","prefecture":"沖縄県","city":"国頭郡本部町","street":"具志堅"},{"zipCode":"9050226","prefectureKana":"ｵｷﾅﾜｹﾝ","cityKana":"ｸﾆｶﾞﾐｸﾞﾝﾓﾄﾌﾞﾁｮｳ","streetKana":"ｹﾝｹﾝ","prefecture":"沖縄県","city":"国頭郡本部町","street":"健堅"},{"zipCode":"9050225","prefectureKana":"ｵｷﾅﾜｹﾝ","cityKana":"ｸﾆｶﾞﾐｸﾞﾝﾓﾄﾌﾞﾁｮｳ","streetKana":"ｻｷﾓﾄﾌﾞ","prefecture":"沖縄県","city":"国頭郡本部町","street":"崎本部"},{"zipCode":"9050203","prefectureKana":"ｵｷﾅﾜｹﾝ","cityKana":"ｸﾆｶﾞﾐｸﾞﾝﾓﾄﾌﾞﾁｮｳ","streetKana":"ｼﾞｬﾊﾅ","prefecture":"沖縄県","city":"国頭郡本部町","street":"謝花"},{"zipCode":"9050208","prefectureKana":"ｵｷﾅﾜｹﾝ","cityKana":"ｸﾆｶﾞﾐｸﾞﾝﾓﾄﾌﾞﾁｮｳ","streetKana":"ｼﾝｻﾞﾄ","prefecture":"沖縄県","city":"国頭郡本部町","street":"新里"},{"zipCode":"9050227","prefectureKana":"ｵｷﾅﾜｹﾝ","cityKana":"ｸﾆｶﾞﾐｸﾞﾝﾓﾄﾌﾞﾁｮｳ","streetKana":"ｾｿｺ","prefecture":"沖縄県","city":"国頭郡本部町","street":"瀬底"},{"zipCode":"9050213","prefectureKana":"ｵｷﾅﾜｹﾝ","cityKana":"ｸﾆｶﾞﾐｸﾞﾝﾓﾄﾌﾞﾁｮｳ","streetKana":"ﾀﾝﾁｬ","prefecture":"沖縄県","city":"国頭郡本部町","street":"谷茶"},{"zipCode":"9050214","prefectureKana":"ｵｷﾅﾜｹﾝ","cityKana":"ｸﾆｶﾞﾐｸﾞﾝﾓﾄﾌﾞﾁｮｳ","streetKana":"ﾄｸﾞﾁ","prefecture":"沖縄県","city":"国頭郡本部町","street":"渡久地"},{"zipCode":"9050204","prefectureKana":"ｵｷﾅﾜｹﾝ","cityKana":"ｸﾆｶﾞﾐｸﾞﾝﾓﾄﾌﾞﾁｮｳ","streetKana":"ﾄﾖﾊﾗ","prefecture":"沖縄県","city":"国頭郡本部町","street":"豊原"},{"zipCode":"9050222","prefectureKana":"ｵｷﾅﾜｹﾝ","cityKana":"ｸﾆｶﾞﾐｸﾞﾝﾓﾄﾌﾞﾁｮｳ","streetKana":"ﾅﾐｻﾞﾄ","prefecture":"沖縄県","city":"国頭郡本部町","street":"並里"},{"zipCode":"9050215","prefectureKana":"ｵｷﾅﾜｹﾝ","cityKana":"ｸﾆｶﾞﾐｸﾞﾝﾓﾄﾌﾞﾁｮｳ","streetKana":"ﾉﾊﾞﾙ","prefecture":"沖縄県","city":"国頭郡本部町","street":"野原"},{"zipCode":"9050216","prefectureKana":"ｵｷﾅﾜｹﾝ","cityKana":"ｸﾆｶﾞﾐｸﾞﾝﾓﾄﾌﾞﾁｮｳ","streetKana":"ﾊﾏﾓﾄ","prefecture":"沖縄県","city":"国頭郡本部町","street":"浜元"},{"zipCode":"9050211","prefectureKana":"ｵｷﾅﾜｹﾝ","cityKana":"ｸﾆｶﾞﾐｸﾞﾝﾓﾄﾌﾞﾁｮｳ","streetKana":"ﾋｶﾞｼ","prefecture":"沖縄県","city":"国頭郡本部町","street":"東"},{"zipCode":"9050207","prefectureKana":"ｵｷﾅﾜｹﾝ","cityKana":"ｸﾆｶﾞﾐｸﾞﾝﾓﾄﾌﾞﾁｮｳ","streetKana":"ﾋﾞｾ","prefecture":"沖縄県","city":"国頭郡本部町","street":"備瀬"},{"zipCode":"9050218","prefectureKana":"ｵｷﾅﾜｹﾝ","cityKana":"ｸﾆｶﾞﾐｸﾞﾝﾓﾄﾌﾞﾁｮｳ","streetKana":"ﾌﾙｼﾞﾏ","prefecture":"沖縄県","city":"国頭郡本部町","street":"古島"},{"zipCode":"9050224","prefectureKana":"ｵｷﾅﾜｹﾝ","cityKana":"ｸﾆｶﾞﾐｸﾞﾝﾓﾄﾌﾞﾁｮｳ","streetKana":"ﾍﾅｼﾞ","prefecture":"沖縄県","city":"国頭郡本部町","street":"辺名地"},{"zipCode":"9050205","prefectureKana":"ｵｷﾅﾜｹﾝ","cityKana":"ｸﾆｶﾞﾐｸﾞﾝﾓﾄﾌﾞﾁｮｳ","streetKana":"ﾔﾏｶﾜ","prefecture":"沖縄県","city":"国頭郡本部町","street":"山川"},{"zipCode":"9050219","prefectureKana":"ｵｷﾅﾜｹﾝ","cityKana":"ｸﾆｶﾞﾐｸﾞﾝﾓﾄﾌﾞﾁｮｳ","streetKana":"ﾔﾏｻﾞﾄ","prefecture":"沖縄県","city":"国頭郡本部町","street":"山里"},{"zipCode":"9050500","prefectureKana":"ｵｷﾅﾜｹﾝ","cityKana":"ｸﾆｶﾞﾐｸﾞﾝｲｴｿﾝ","streetKana":"ｲｶﾆｹｲｻｲｶﾞﾅｲﾊﾞｱｲ","prefecture":"沖縄県","city":"国頭郡伊江村","street":"以下に掲載がない場合"},{"zipCode":"9050503","prefectureKana":"ｵｷﾅﾜｹﾝ","cityKana":"ｸﾆｶﾞﾐｸﾞﾝｲｴｿﾝ","streetKana":"ｶﾜﾋﾗ","prefecture":"沖縄県","city":"国頭郡伊江村","street":"川平"},{"zipCode":"9050505","prefectureKana":"ｵｷﾅﾜｹﾝ","cityKana":"ｸﾆｶﾞﾐｸﾞﾝｲｴｿﾝ","streetKana":"ﾆｼｴｳｴ","prefecture":"沖縄県","city":"国頭郡伊江村","street":"西江上"},{"zipCode":"9050504","prefectureKana":"ｵｷﾅﾜｹﾝ","cityKana":"ｸﾆｶﾞﾐｸﾞﾝｲｴｿﾝ","streetKana":"ﾆｼｴﾏｴ","prefecture":"沖縄県","city":"国頭郡伊江村","street":"西江前"},{"zipCode":"9050501","prefectureKana":"ｵｷﾅﾜｹﾝ","cityKana":"ｸﾆｶﾞﾐｸﾞﾝｲｴｿﾝ","streetKana":"ﾋｶﾞｼｴｳｴ","prefecture":"沖縄県","city":"国頭郡伊江村","street":"東江上"},{"zipCode":"9050502","prefectureKana":"ｵｷﾅﾜｹﾝ","cityKana":"ｸﾆｶﾞﾐｸﾞﾝｲｴｿﾝ","streetKana":"ﾋｶﾞｼｴﾏｴ","prefecture":"沖縄県","city":"国頭郡伊江村","street":"東江前"},{"zipCode":"9050700","prefectureKana":"ｵｷﾅﾜｹﾝ","cityKana":"ｼﾏｼﾞﾘｸﾞﾝｲﾍﾔｿﾝ","streetKana":"ｲｶﾆｹｲｻｲｶﾞﾅｲﾊﾞｱｲ","prefecture":"沖縄県","city":"島尻郡伊平屋村","street":"以下に掲載がない場合"},{"zipCode":"9050703","prefectureKana":"ｵｷﾅﾜｹﾝ","cityKana":"ｼﾏｼﾞﾘｸﾞﾝｲﾍﾔｿﾝ","streetKana":"ｶﾞｷﾔ","prefecture":"沖縄県","city":"島尻郡伊平屋村","street":"我喜屋"},{"zipCode":"9050704","prefectureKana":"ｵｷﾅﾜｹﾝ","cityKana":"ｼﾏｼﾞﾘｸﾞﾝｲﾍﾔｿﾝ","streetKana":"ｼﾏｼﾞﾘ","prefecture":"沖縄県","city":"島尻郡伊平屋村","street":"島尻"},{"zipCode":"9050701","prefectureKana":"ｵｷﾅﾜｹﾝ","cityKana":"ｼﾏｼﾞﾘｸﾞﾝｲﾍﾔｿﾝ","streetKana":"ﾀﾞﾅ","prefecture":"沖縄県","city":"島尻郡伊平屋村","street":"田名"},{"zipCode":"9050705","prefectureKana":"ｵｷﾅﾜｹﾝ","cityKana":"ｼﾏｼﾞﾘｸﾞﾝｲﾍﾔｿﾝ","streetKana":"ﾉﾎ","prefecture":"沖縄県","city":"島尻郡伊平屋村","street":"野甫"},{"zipCode":"9050702","prefectureKana":"ｵｷﾅﾜｹﾝ","cityKana":"ｼﾏｼﾞﾘｸﾞﾝｲﾍﾔｿﾝ","streetKana":"ﾏｴﾄﾞﾏﾘ","prefecture":"沖縄県","city":"島尻郡伊平屋村","street":"前泊"},{"zipCode":"9050600","prefectureKana":"ｵｷﾅﾜｹﾝ","cityKana":"ｼﾏｼﾞﾘｸﾞﾝｲｾﾞﾅｿﾝ","streetKana":"ｲｶﾆｹｲｻｲｶﾞﾅｲﾊﾞｱｲ","prefecture":"沖縄県","city":"島尻郡伊是名村","street":"以下に掲載がない場合"},{"zipCode":"9050604","prefectureKana":"ｵｷﾅﾜｹﾝ","cityKana":"ｼﾏｼﾞﾘｸﾞﾝｲｾﾞﾅｿﾝ","streetKana":"ｲｾﾞﾅ","prefecture":"沖縄県","city":"島尻郡伊是名村","street":"伊是名"},{"zipCode":"9050601","prefectureKana":"ｵｷﾅﾜｹﾝ","cityKana":"ｼﾏｼﾞﾘｸﾞﾝｲｾﾞﾅｿﾝ","streetKana":"ｳﾁﾊﾅ","prefecture":"沖縄県","city":"島尻郡伊是名村","street":"内花"},{"zipCode":"9050602","prefectureKana":"ｵｷﾅﾜｹﾝ","cityKana":"ｼﾏｼﾞﾘｸﾞﾝｲｾﾞﾅｿﾝ","streetKana":"ｼｮﾐ","prefecture":"沖縄県","city":"島尻郡伊是名村","street":"諸見"},{"zipCode":"9050605","prefectureKana":"ｵｷﾅﾜｹﾝ","cityKana":"ｼﾏｼﾞﾘｸﾞﾝｲｾﾞﾅｿﾝ","streetKana":"ｾﾘｷｬｸ","prefecture":"沖縄県","city":"島尻郡伊是名村","street":"勢理客"},{"zipCode":"9050603","prefectureKana":"ｵｷﾅﾜｹﾝ","cityKana":"ｼﾏｼﾞﾘｸﾞﾝｲｾﾞﾅｿﾝ","streetKana":"ﾅｶﾀﾞ","prefecture":"沖縄県","city":"島尻郡伊是名村","street":"仲田"}]