[{"zipCode":"9150000","prefectureKana":"ﾌｸｲｹﾝ","cityKana":"ｴﾁｾﾞﾝｼ","streetKana":"ｲｶﾆｹｲｻｲｶﾞﾅｲﾊﾞｱｲ","prefecture":"福井県","city":"越前市","street":"以下に掲載がない場合"},{"zipCode":"9150202","prefectureKana":"ﾌｸｲｹﾝ","cityKana":"ｴﾁｾﾞﾝｼ","streetKana":"ｱｲﾉｷﾁｮｳ","prefecture":"福井県","city":"越前市","street":"相木町"},{"zipCode":"9150064","prefectureKana":"ﾌｸｲｹﾝ","cityKana":"ｴﾁｾﾞﾝｼ","streetKana":"ｱｵﾊﾞﾁｮｳ","prefecture":"福井県","city":"越前市","street":"あおば町"},{"zipCode":"9150256","prefectureKana":"ﾌｸｲｹﾝ","cityKana":"ｴﾁｾﾞﾝｼ","streetKana":"ｱｶｻｶﾁｮｳ","prefecture":"福井県","city":"越前市","street":"赤坂町"},{"zipCode":"9150214","prefectureKana":"ﾌｸｲｹﾝ","cityKana":"ｴﾁｾﾞﾝｼ","streetKana":"ｱｶﾀﾆﾁｮｳ","prefecture":"福井県","city":"越前市","street":"赤谷町"},{"zipCode":"9150025","prefectureKana":"ﾌｸｲｹﾝ","cityKana":"ｴﾁｾﾞﾝｼ","streetKana":"ｱｼﾞﾏﾉﾁｮｳ","prefecture":"福井県","city":"越前市","street":"味真野町"},{"zipCode":"9150069","prefectureKana":"ﾌｸｲｹﾝ","cityKana":"ｴﾁｾﾞﾝｼ","streetKana":"ｱﾂﾞﾏﾁｮｳ","prefecture":"福井県","city":"越前市","street":"吾妻町"},{"zipCode":"9150045","prefectureKana":"ﾌｸｲｹﾝ","cityKana":"ｴﾁｾﾞﾝｼ","streetKana":"ｱﾗﾀﾆﾁｮｳ","prefecture":"福井県","city":"越前市","street":"荒谷町"},{"zipCode":"9150242","prefectureKana":"ﾌｸｲｹﾝ","cityKana":"ｴﾁｾﾞﾝｼ","streetKana":"ｱﾜﾀﾍﾞﾁｮｳ","prefecture":"福井県","city":"越前市","street":"粟田部町"},{"zipCode":"9150241","prefectureKana":"ﾌｸｲｹﾝ","cityKana":"ｴﾁｾﾞﾝｼ","streetKana":"ｱﾜﾀﾍﾞﾁｮｳﾁｭｳｵｳ","prefecture":"福井県","city":"越前市","street":"粟田部町中央"},{"zipCode":"9151242","prefectureKana":"ﾌｸｲｹﾝ","cityKana":"ｴﾁｾﾞﾝｼ","streetKana":"ｱﾜﾉﾁｮｳ","prefecture":"福井県","city":"越前市","street":"粟野町"},{"zipCode":"9151201","prefectureKana":"ﾌｸｲｹﾝ","cityKana":"ｴﾁｾﾞﾝｼ","streetKana":"ｱﾝﾖｳｼﾞﾁｮｳ","prefecture":"福井県","city":"越前市","street":"安養寺町"},{"zipCode":"9150801","prefectureKana":"ﾌｸｲｹﾝ","cityKana":"ｴﾁｾﾞﾝｼ","streetKana":"ｲｴﾋｻﾁｮｳ","prefecture":"福井県","city":"越前市","street":"家久町"},{"zipCode":"9150023","prefectureKana":"ﾌｸｲｹﾝ","cityKana":"ｴﾁｾﾞﾝｼ","streetKana":"ｲｹｲｽﾞﾐﾁｮｳ","prefecture":"福井県","city":"越前市","street":"池泉町"},{"zipCode":"9150873","prefectureKana":"ﾌｸｲｹﾝ","cityKana":"ｴﾁｾﾞﾝｼ","streetKana":"ｲｹﾉｶﾐﾁｮｳ","prefecture":"福井県","city":"越前市","street":"池ノ上町"},{"zipCode":"9150216","prefectureKana":"ﾌｸｲｹﾝ","cityKana":"ｴﾁｾﾞﾝｼ","streetKana":"ｲﾁﾉﾉﾁｮｳ","prefecture":"福井県","city":"越前市","street":"市野々町"},{"zipCode":"9150095","prefectureKana":"ﾌｸｲｹﾝ","cityKana":"ｴﾁｾﾞﾝｼ","streetKana":"ｲﾅﾖｾﾁｮｳ","prefecture":"福井県","city":"越前市","street":"稲寄町"},{"zipCode":"9150861","prefectureKana":"ﾌｸｲｹﾝ","cityKana":"ｴﾁｾﾞﾝｼ","streetKana":"ｲﾏｼﾞｭｸﾁｮｳ","prefecture":"福井県","city":"越前市","street":"今宿町"},{"zipCode":"9150035","prefectureKana":"ﾌｸｲｹﾝ","cityKana":"ｴﾁｾﾞﾝｼ","streetKana":"ｲﾘﾀﾆﾁｮｳ","prefecture":"福井県","city":"越前市","street":"入谷町"},{"zipCode":"9150016","prefectureKana":"ﾌｸｲｹﾝ","cityKana":"ｴﾁｾﾞﾝｼ","streetKana":"ｲﾜｳﾁﾁｮｳ","prefecture":"福井県","city":"越前市","street":"岩内町"},{"zipCode":"9150233","prefectureKana":"ﾌｸｲｹﾝ","cityKana":"ｴﾁｾﾞﾝｼ","streetKana":"ｲﾜﾓﾄﾁｮｳ","prefecture":"福井県","city":"越前市","street":"岩本町"},{"zipCode":"9150096","prefectureKana":"ﾌｸｲｹﾝ","cityKana":"ｴﾁｾﾞﾝｼ","streetKana":"ｳﾘｭｳﾁｮｳ","prefecture":"福井県","city":"越前市","street":"瓜生町"},{"zipCode":"9150865","prefectureKana":"ﾌｸｲｹﾝ","cityKana":"ｴﾁｾﾞﾝｼ","streetKana":"ｳﾘｭｳﾉﾁｮｳ","prefecture":"福井県","city":"越前市","street":"瓜生野町"},{"zipCode":"9150235","prefectureKana":"ﾌｸｲｹﾝ","cityKana":"ｴﾁｾﾞﾝｼ","streetKana":"ｵｲｽﾞﾁｮｳ","prefecture":"福井県","city":"越前市","street":"不老町"},{"zipCode":"9150863","prefectureKana":"ﾌｸｲｹﾝ","cityKana":"ｴﾁｾﾞﾝｼ","streetKana":"ｵｵｼｵﾁｮｳ","prefecture":"福井県","city":"越前市","street":"大塩町"},{"zipCode":"9150234","prefectureKana":"ﾌｸｲｹﾝ","cityKana":"ｴﾁｾﾞﾝｼ","streetKana":"ｵｵﾀｷﾁｮｳ","prefecture":"福井県","city":"越前市","street":"大滝町"},{"zipCode":"9150218","prefectureKana":"ﾌｸｲｹﾝ","cityKana":"ｴﾁｾﾞﾝｼ","streetKana":"ｵｵﾀﾆﾁｮｳ","prefecture":"福井県","city":"越前市","street":"大谷町"},{"zipCode":"9150015","prefectureKana":"ﾌｸｲｹﾝ","cityKana":"ｴﾁｾﾞﾝｼ","streetKana":"ｵｵﾃﾞﾁｮｳ","prefecture":"福井県","city":"越前市","street":"大手町"},{"zipCode":"9150228","prefectureKana":"ﾌｸｲｹﾝ","cityKana":"ｴﾁｾﾞﾝｼ","streetKana":"ｵｵﾋﾗﾁｮｳ","prefecture":"福井県","city":"越前市","street":"大平町"},{"zipCode":"9150885","prefectureKana":"ﾌｸｲｹﾝ","cityKana":"ｴﾁｾﾞﾝｼ","streetKana":"ｵｵﾑｼﾁｮｳ","prefecture":"福井県","city":"越前市","street":"大虫町"},{"zipCode":"9150884","prefectureKana":"ﾌｸｲｹﾝ","cityKana":"ｴﾁｾﾞﾝｼ","streetKana":"ｵｵﾑｼﾎﾝﾁｮｳ","prefecture":"福井県","city":"越前市","street":"大虫本町"},{"zipCode":"9150042","prefectureKana":"ﾌｸｲｹﾝ","cityKana":"ｴﾁｾﾞﾝｼ","streetKana":"ｵｵﾔﾁｮｳ","prefecture":"福井県","city":"越前市","street":"大屋町"},{"zipCode":"9150835","prefectureKana":"ﾌｸｲｹﾝ","cityKana":"ｴﾁｾﾞﾝｼ","streetKana":"ｵｶﾓﾄﾁｮｳ","prefecture":"福井県","city":"越前市","street":"岡本町"},{"zipCode":"9150083","prefectureKana":"ﾌｸｲｹﾝ","cityKana":"ｴﾁｾﾞﾝｼ","streetKana":"ｵｼﾀﾞ","prefecture":"福井県","city":"越前市","street":"押田"},{"zipCode":"9150054","prefectureKana":"ﾌｸｲｹﾝ","cityKana":"ｴﾁｾﾞﾝｼ","streetKana":"ｵﾉﾀﾞﾆﾁｮｳ","prefecture":"福井県","city":"越前市","street":"小野谷町"},{"zipCode":"9150877","prefectureKana":"ﾌｸｲｹﾝ","cityKana":"ｴﾁｾﾞﾝｼ","streetKana":"ｶｽｶﾞﾉﾁｮｳ","prefecture":"福井県","city":"越前市","street":"春日野町"},{"zipCode":"9150893","prefectureKana":"ﾌｸｲｹﾝ","cityKana":"ｴﾁｾﾞﾝｼ","streetKana":"ｶﾀﾔﾁｮｳ","prefecture":"福井県","city":"越前市","street":"片屋町"},{"zipCode":"9150812","prefectureKana":"ﾌｸｲｹﾝ","cityKana":"ｴﾁｾﾞﾝｼ","streetKana":"ｶﾂﾗﾁｮｳ","prefecture":"福井県","city":"越前市","street":"桂町"},{"zipCode":"9150011","prefectureKana":"ﾌｸｲｹﾝ","cityKana":"ｴﾁｾﾞﾝｼ","streetKana":"ｶﾅﾔﾁｮｳ","prefecture":"福井県","city":"越前市","street":"金屋町"},{"zipCode":"9150882","prefectureKana":"ﾌｸｲｹﾝ","cityKana":"ｴﾁｾﾞﾝｼ","streetKana":"ｶﾐｵｵﾀﾞﾁｮｳ","prefecture":"福井県","city":"越前市","street":"上太田町"},{"zipCode":"9150024","prefectureKana":"ﾌｸｲｹﾝ","cityKana":"ｴﾁｾﾞﾝｼ","streetKana":"ｶﾐｵｵﾂﾎﾞﾁｮｳ","prefecture":"福井県","city":"越前市","street":"上大坪町"},{"zipCode":"9150864","prefectureKana":"ﾌｸｲｹﾝ","cityKana":"ｴﾁｾﾞﾝｼ","streetKana":"ｶﾐｺﾏﾂﾁｮｳ","prefecture":"福井県","city":"越前市","street":"上小松町"},{"zipCode":"9150886","prefectureKana":"ﾌｸｲｹﾝ","cityKana":"ｴﾁｾﾞﾝｼ","streetKana":"ｶﾐｼﾒﾁｮｳ","prefecture":"福井県","city":"越前市","street":"上四目町"},{"zipCode":"9151203","prefectureKana":"ﾌｸｲｹﾝ","cityKana":"ｴﾁｾﾞﾝｼ","streetKana":"ｶﾐｽｷﾞﾓﾄﾁｮｳ","prefecture":"福井県","city":"越前市","street":"上杉本町"},{"zipCode":"9150011","prefectureKana":"ﾌｸｲｹﾝ","cityKana":"ｴﾁｾﾞﾝｼ","streetKana":"ｶﾐﾏｶﾗﾁｮｳ","prefecture":"福井県","city":"越前市","street":"上真柄町"},{"zipCode":"9150013","prefectureKana":"ﾌｸｲｹﾝ","cityKana":"ｴﾁｾﾞﾝｼ","streetKana":"ｶﾐﾏｶﾗﾐﾔﾀﾞﾆｲﾘｱｲﾁ","prefecture":"福井県","city":"越前市","street":"上真柄宮谷入会地"},{"zipCode":"9150037","prefectureKana":"ﾌｸｲｹﾝ","cityKana":"ｴﾁｾﾞﾝｼ","streetKana":"ｶﾔﾀﾞﾆﾁｮｳ","prefecture":"福井県","city":"越前市","street":"萱谷町"},{"zipCode":"9150021","prefectureKana":"ﾌｸｲｹﾝ","cityKana":"ｴﾁｾﾞﾝｼ","streetKana":"ｷﾀｵﾔﾏﾁｮｳ","prefecture":"福井県","city":"越前市","street":"北小山町"},{"zipCode":"9150802","prefectureKana":"ﾌｸｲｹﾝ","cityKana":"ｴﾁｾﾞﾝｼ","streetKana":"ｷﾀｺﾞ","prefecture":"福井県","city":"越前市","street":"北府"},{"zipCode":"9150802","prefectureKana":"ﾌｸｲｹﾝ","cityKana":"ｴﾁｾﾞﾝｼ","streetKana":"ｷﾀｺﾞﾎﾝﾏﾁ","prefecture":"福井県","city":"越前市","street":"北府本町"},{"zipCode":"9150219","prefectureKana":"ﾌｸｲｹﾝ","cityKana":"ｴﾁｾﾞﾝｼ","streetKana":"ｷﾀｻｶｼﾀﾁｮｳ","prefecture":"福井県","city":"越前市","street":"北坂下町"},{"zipCode":"9150834","prefectureKana":"ﾌｸｲｹﾝ","cityKana":"ｴﾁｾﾞﾝｼ","streetKana":"ｷﾀｾﾝﾌﾟｸﾁｮｳ","prefecture":"福井県","city":"越前市","street":"北千福町"},{"zipCode":"9150004","prefectureKana":"ﾌｸｲｹﾝ","cityKana":"ｴﾁｾﾞﾝｼ","streetKana":"ｷﾀﾁｮｳ","prefecture":"福井県","city":"越前市","street":"北町"},{"zipCode":"9150897","prefectureKana":"ﾌｸｲｹﾝ","cityKana":"ｴﾁｾﾞﾝｼ","streetKana":"ｷﾀﾔﾏﾁｮｳ","prefecture":"福井県","city":"越前市","street":"北山町"},{"zipCode":"9150813","prefectureKana":"ﾌｸｲｹﾝ","cityKana":"ｴﾁｾﾞﾝｼ","streetKana":"ｷｮｳﾏﾁ","prefecture":"福井県","city":"越前市","street":"京町"},{"zipCode":"9150203","prefectureKana":"ﾌｸｲｹﾝ","cityKana":"ｴﾁｾﾞﾝｼ","streetKana":"ｷﾖﾈﾁｮｳ","prefecture":"福井県","city":"越前市","street":"清根町"},{"zipCode":"9150041","prefectureKana":"ﾌｸｲｹﾝ","cityKana":"ｴﾁｾﾞﾝｼ","streetKana":"ｸｽﾞｵｶﾁｮｳ","prefecture":"福井県","city":"越前市","street":"葛岡町"},{"zipCode":"9150261","prefectureKana":"ﾌｸｲｹﾝ","cityKana":"ｴﾁｾﾞﾝｼ","streetKana":"ｸﾀﾞｼﾁｮｳ","prefecture":"福井県","city":"越前市","street":"朽飯町"},{"zipCode":"9150862","prefectureKana":"ﾌｸｲｹﾝ","cityKana":"ｴﾁｾﾞﾝｼ","streetKana":"ｸﾆｶﾈﾁｮｳ","prefecture":"福井県","city":"越前市","street":"国兼町"},{"zipCode":"9150082","prefectureKana":"ﾌｸｲｹﾝ","cityKana":"ｴﾁｾﾞﾝｼ","streetKana":"ｸﾆﾀｶ","prefecture":"福井県","city":"越前市","street":"国高"},{"zipCode":"9150254","prefectureKana":"ﾌｸｲｹﾝ","cityKana":"ｴﾁｾﾞﾝｼ","streetKana":"ｸﾆﾅｶﾁｮｳ","prefecture":"福井県","city":"越前市","street":"国中町"},{"zipCode":"9151202","prefectureKana":"ﾌｸｲｹﾝ","cityKana":"ｴﾁｾﾞﾝｼ","streetKana":"ｸﾛｶﾜﾁｮｳ","prefecture":"福井県","city":"越前市","street":"黒川町"},{"zipCode":"9151221","prefectureKana":"ﾌｸｲｹﾝ","cityKana":"ｴﾁｾﾞﾝｼ","streetKana":"ｺｳﾄｳｶﾞﾊﾗﾁｮｳ","prefecture":"福井県","city":"越前市","street":"勾当原町"},{"zipCode":"9150874","prefectureKana":"ﾌｸｲｹﾝ","cityKana":"ｴﾁｾﾞﾝｼ","streetKana":"ｺｳﾖｳﾁｮｳ","prefecture":"福井県","city":"越前市","street":"向陽町"},{"zipCode":"9150076","prefectureKana":"ﾌｸｲｹﾝ","cityKana":"ｴﾁｾﾞﾝｼ","streetKana":"ｺｸﾌ","prefecture":"福井県","city":"越前市","street":"国府"},{"zipCode":"9151243","prefectureKana":"ﾌｸｲｹﾝ","cityKana":"ｴﾁｾﾞﾝｼ","streetKana":"ｺｽｷﾞﾁｮｳ","prefecture":"福井県","city":"越前市","street":"小杉町"},{"zipCode":"9151234","prefectureKana":"ﾌｸｲｹﾝ","cityKana":"ｴﾁｾﾞﾝｼ","streetKana":"ｺﾀﾞﾆﾁｮｳ","prefecture":"福井県","city":"越前市","street":"小谷町"},{"zipCode":"9151215","prefectureKana":"ﾌｸｲｹﾝ","cityKana":"ｴﾁｾﾞﾝｼ","streetKana":"ｺﾉﾁｮｳ","prefecture":"福井県","city":"越前市","street":"小野町"},{"zipCode":"9150026","prefectureKana":"ﾌｸｲｹﾝ","cityKana":"ｴﾁｾﾞﾝｼ","streetKana":"ｺﾞﾌﾞｲﾁﾁｮｳ","prefecture":"福井県","city":"越前市","street":"五分市町"},{"zipCode":"9150816","prefectureKana":"ﾌｸｲｹﾝ","cityKana":"ｴﾁｾﾞﾝｼ","streetKana":"ｺﾏﾂ","prefecture":"福井県","city":"越前市","street":"小松"},{"zipCode":"9151212","prefectureKana":"ﾌｸｲｹﾝ","cityKana":"ｴﾁｾﾞﾝｼ","streetKana":"ｺﾒｸﾞﾁﾁｮｳ","prefecture":"福井県","city":"越前市","street":"米口町"},{"zipCode":"9150075","prefectureKana":"ﾌｸｲｹﾝ","cityKana":"ｴﾁｾﾞﾝｼ","streetKana":"ｻｲﾜｲﾁｮｳ","prefecture":"福井県","city":"越前市","street":"幸町"},{"zipCode":"9150231","prefectureKana":"ﾌｸｲｹﾝ","cityKana":"ｴﾁｾﾞﾝｼ","streetKana":"ｻﾀﾞﾄﾓﾁｮｳ","prefecture":"福井県","city":"越前市","street":"定友町"},{"zipCode":"9150833","prefectureKana":"ﾌｸｲｹﾝ","cityKana":"ｴﾁｾﾞﾝｼ","streetKana":"ｻﾜﾁｮｳ","prefecture":"福井県","city":"越前市","street":"沢町"},{"zipCode":"9150805","prefectureKana":"ﾌｸｲｹﾝ","cityKana":"ｴﾁｾﾞﾝｼ","streetKana":"ｼﾊﾞﾊﾗ","prefecture":"福井県","city":"越前市","street":"芝原"},{"zipCode":"9150223","prefectureKana":"ﾌｸｲｹﾝ","cityKana":"ｴﾁｾﾞﾝｼ","streetKana":"ｼﾏﾁｮｳ","prefecture":"福井県","city":"越前市","street":"島町"},{"zipCode":"9150012","prefectureKana":"ﾌｸｲｹﾝ","cityKana":"ｴﾁｾﾞﾝｼ","streetKana":"ｼﾐｽﾞｶﾞｼﾗﾁｮｳ","prefecture":"福井県","city":"越前市","street":"清水頭町"},{"zipCode":"9150881","prefectureKana":"ﾌｸｲｹﾝ","cityKana":"ｴﾁｾﾞﾝｼ","streetKana":"ｼﾓｵｵﾀﾞﾁｮｳ","prefecture":"福井県","city":"越前市","street":"下太田町"},{"zipCode":"9150887","prefectureKana":"ﾌｸｲｹﾝ","cityKana":"ｴﾁｾﾞﾝｼ","streetKana":"ｼﾓｼﾒﾁｮｳ","prefecture":"福井県","city":"越前市","street":"下四目町"},{"zipCode":"9151222","prefectureKana":"ﾌｸｲｹﾝ","cityKana":"ｴﾁｾﾞﾝｼ","streetKana":"ｼﾓﾅｶﾂﾊﾗﾁｮｳ","prefecture":"福井県","city":"越前市","street":"下中津原町"},{"zipCode":"9150855","prefectureKana":"ﾌｸｲｹﾝ","cityKana":"ｴﾁｾﾞﾝｼ","streetKana":"ｼﾓﾋﾗﾌﾞｷﾁｮｳ","prefecture":"福井県","city":"越前市","street":"下平吹町"},{"zipCode":"9151224","prefectureKana":"ﾌｸｲｹﾝ","cityKana":"ｴﾁｾﾞﾝｼ","streetKana":"ｼﾓﾍﾞｯｼﾖﾁｮｳ","prefecture":"福井県","city":"越前市","street":"下別所町"},{"zipCode":"9150093","prefectureKana":"ﾌｸｲｹﾝ","cityKana":"ｴﾁｾﾞﾝｼ","streetKana":"ｼｮｳﾁｮｳ","prefecture":"福井県","city":"越前市","street":"庄町"},{"zipCode":"9150043","prefectureKana":"ﾌｸｲｹﾝ","cityKana":"ｴﾁｾﾞﾝｼ","streetKana":"ｼｮｳﾃﾞﾝﾁｮｳ","prefecture":"福井県","city":"越前市","street":"庄田町"},{"zipCode":"9151233","prefectureKana":"ﾌｸｲｹﾝ","cityKana":"ｴﾁｾﾞﾝｼ","streetKana":"ｼｮｳﾌﾞﾀﾞﾆﾁｮｳ","prefecture":"福井県","city":"越前市","street":"菖蒲谷町"},{"zipCode":"9151214","prefectureKana":"ﾌｸｲｹﾝ","cityKana":"ｴﾁｾﾞﾝｼ","streetKana":"ｼｮｳﾚﾝｹﾞﾁｮｳ","prefecture":"福井県","city":"越前市","street":"勝蓮花町"},{"zipCode":"9150857","prefectureKana":"ﾌｸｲｹﾝ","cityKana":"ｴﾁｾﾞﾝｼ","streetKana":"ｼﾛｳﾏﾙﾁｮｳ","prefecture":"福井県","city":"越前市","street":"四郎丸町"},{"zipCode":"9150876","prefectureKana":"ﾌｸｲｹﾝ","cityKana":"ｴﾁｾﾞﾝｼ","streetKana":"ｼﾛｻｷﾁｮｳ","prefecture":"福井県","city":"越前市","street":"白崎町"},{"zipCode":"9150232","prefectureKana":"ﾌｸｲｹﾝ","cityKana":"ｴﾁｾﾞﾝｼ","streetKana":"ｼﾝｻﾞｲｹﾁｮｳ","prefecture":"福井県","city":"越前市","street":"新在家町"},{"zipCode":"9150883","prefectureKana":"ﾌｸｲｹﾝ","cityKana":"ｴﾁｾﾞﾝｼ","streetKana":"ｼﾝﾁｮｳ","prefecture":"福井県","city":"越前市","street":"新町"},{"zipCode":"9150255","prefectureKana":"ﾌｸｲｹﾝ","cityKana":"ｴﾁｾﾞﾝｼ","streetKana":"ｼﾝﾄﾞｳﾁｮｳ","prefecture":"福井県","city":"越前市","street":"新堂町"},{"zipCode":"9150804","prefectureKana":"ﾌｸｲｹﾝ","cityKana":"ｴﾁｾﾞﾝｼ","streetKana":"ｼﾝﾎﾞ","prefecture":"福井県","city":"越前市","street":"新保"},{"zipCode":"9150804","prefectureKana":"ﾌｸｲｹﾝ","cityKana":"ｴﾁｾﾞﾝｼ","streetKana":"ｼﾝﾎﾞﾁｮｳ","prefecture":"福井県","city":"越前市","street":"新保町"},{"zipCode":"9150066","prefectureKana":"ﾌｸｲｹﾝ","cityKana":"ｴﾁｾﾞﾝｼ","streetKana":"ｼﾝﾒｲﾁｮｳ","prefecture":"福井県","city":"越前市","street":"神明町"},{"zipCode":"9150221","prefectureKana":"ﾌｸｲｹﾝ","cityKana":"ｴﾁｾﾞﾝｼ","streetKana":"ｽｷﾞｵﾁｮｳ","prefecture":"福井県","city":"越前市","street":"杉尾町"},{"zipCode":"9150006","prefectureKana":"ﾌｸｲｹﾝ","cityKana":"ｴﾁｾﾞﾝｼ","streetKana":"ｽｷﾞｻｷﾁｮｳ","prefecture":"福井県","city":"越前市","street":"杉崎町"},{"zipCode":"9151235","prefectureKana":"ﾌｸｲｹﾝ","cityKana":"ｴﾁｾﾞﾝｼ","streetKana":"ｽｹﾞﾁｮｳ","prefecture":"福井県","city":"越前市","street":"菅町"},{"zipCode":"9150067","prefectureKana":"ﾌｸｲｹﾝ","cityKana":"ｴﾁｾﾞﾝｼ","streetKana":"ｽﾐﾖｼﾁｮｳ","prefecture":"福井県","city":"越前市","street":"住吉町"},{"zipCode":"9151231","prefectureKana":"ﾌｸｲｹﾝ","cityKana":"ｴﾁｾﾞﾝｼ","streetKana":"ｾﾝｺﾞｳﾀﾞﾆﾁｮｳ","prefecture":"福井県","city":"越前市","street":"千合谷町"},{"zipCode":"9150846","prefectureKana":"ﾌｸｲｹﾝ","cityKana":"ｴﾁｾﾞﾝｼ","streetKana":"ｾﾝﾌﾟｸﾁｮｳ","prefecture":"福井県","city":"越前市","street":"千福町"},{"zipCode":"9151241","prefectureKana":"ﾌｸｲｹﾝ","cityKana":"ｴﾁｾﾞﾝｼ","streetKana":"ｿﾊﾗﾁｮｳ","prefecture":"福井県","city":"越前市","street":"曽原町"},{"zipCode":"9150262","prefectureKana":"ﾌｸｲｹﾝ","cityKana":"ｴﾁｾﾞﾝｼ","streetKana":"ﾀｶｵｶﾁｮｳ","prefecture":"福井県","city":"越前市","street":"高岡町"},{"zipCode":"9150091","prefectureKana":"ﾌｸｲｹﾝ","cityKana":"ｴﾁｾﾞﾝｼ","streetKana":"ﾀｶｷﾞﾁｮｳ","prefecture":"福井県","city":"越前市","street":"高木町"},{"zipCode":"9150832","prefectureKana":"ﾌｸｲｹﾝ","cityKana":"ｴﾁｾﾞﾝｼ","streetKana":"ﾀｶｾ","prefecture":"福井県","city":"越前市","street":"高瀬"},{"zipCode":"9150888","prefectureKana":"ﾌｸｲｹﾝ","cityKana":"ｴﾁｾﾞﾝｼ","streetKana":"ﾀｶﾓﾘﾁｮｳ","prefecture":"福井県","city":"越前市","street":"高森町"},{"zipCode":"9150824","prefectureKana":"ﾌｸｲｹﾝ","cityKana":"ｴﾁｾﾞﾝｼ","streetKana":"ﾀｹﾌﾔﾅｷﾞﾁｮｳ","prefecture":"福井県","city":"越前市","street":"武生柳町"},{"zipCode":"9150243","prefectureKana":"ﾌｸｲｹﾝ","cityKana":"ｴﾁｾﾞﾝｼ","streetKana":"ﾁﾊﾗﾁｮｳ","prefecture":"福井県","city":"越前市","street":"千原町"},{"zipCode":"9150814","prefectureKana":"ﾌｸｲｹﾝ","cityKana":"ｴﾁｾﾞﾝｼ","streetKana":"ﾁｭｳｵｳ","prefecture":"福井県","city":"越前市","street":"中央"},{"zipCode":"9150223","prefectureKana":"ﾌｸｲｹﾝ","cityKana":"ｴﾁｾﾞﾝｼ","streetKana":"ﾁｮｳｺﾞﾁｮｳ","prefecture":"福井県","city":"越前市","street":"長五町"},{"zipCode":"9150092","prefectureKana":"ﾌｸｲｹﾝ","cityKana":"ｴﾁｾﾞﾝｼ","streetKana":"ﾂｶﾁｮｳ","prefecture":"福井県","city":"越前市","street":"塚町"},{"zipCode":"9150875","prefectureKana":"ﾌｸｲｹﾝ","cityKana":"ｴﾁｾﾞﾝｼ","streetKana":"ﾂｶﾊﾞﾗﾁｮｳ","prefecture":"福井県","city":"越前市","street":"塚原町"},{"zipCode":"9150843","prefectureKana":"ﾌｸｲｹﾝ","cityKana":"ｴﾁｾﾞﾝｼ","streetKana":"ﾂｷﾐﾁｮｳ","prefecture":"福井県","city":"越前市","street":"月見町"},{"zipCode":"9151234","prefectureKana":"ﾌｸｲｹﾝ","cityKana":"ｴﾁｾﾞﾝｼ","streetKana":"ﾂﾁﾔﾏﾁｮｳ","prefecture":"福井県","city":"越前市","street":"土山町"},{"zipCode":"9150842","prefectureKana":"ﾌｸｲｹﾝ","cityKana":"ｴﾁｾﾞﾝｼ","streetKana":"ﾂﾈﾋｻﾁｮｳ","prefecture":"福井県","city":"越前市","street":"常久町"},{"zipCode":"9150204","prefectureKana":"ﾌｸｲｹﾝ","cityKana":"ｴﾁｾﾞﾝｼ","streetKana":"ﾃﾗｼﾞﾁｮｳ","prefecture":"福井県","city":"越前市","street":"寺地町"},{"zipCode":"9150068","prefectureKana":"ﾌｸｲｹﾝ","cityKana":"ｴﾁｾﾞﾝｼ","streetKana":"ﾃﾝﾉｳﾁｮｳ","prefecture":"福井県","city":"越前市","street":"天王町"},{"zipCode":"9150003","prefectureKana":"ﾌｸｲｹﾝ","cityKana":"ｴﾁｾﾞﾝｼ","streetKana":"ﾄﾀﾆﾁｮｳ","prefecture":"福井県","city":"越前市","street":"戸谷町"},{"zipCode":"9150222","prefectureKana":"ﾌｸｲｹﾝ","cityKana":"ｴﾁｾﾞﾝｼ","streetKana":"ﾄﾄﾞﾛｲﾁｮｳ","prefecture":"福井県","city":"越前市","street":"轟井町"},{"zipCode":"9150219","prefectureKana":"ﾌｸｲｹﾝ","cityKana":"ｴﾁｾﾞﾝｼ","streetKana":"ﾄﾉﾁｮｳ","prefecture":"福井県","city":"越前市","street":"殿町"},{"zipCode":"9151204","prefectureKana":"ﾌｸｲｹﾝ","cityKana":"ｴﾁｾﾞﾝｼ","streetKana":"ﾄﾍﾞﾁｮｳ","prefecture":"福井県","city":"越前市","street":"都辺町"},{"zipCode":"9150053","prefectureKana":"ﾌｸｲｹﾝ","cityKana":"ｴﾁｾﾞﾝｼ","streetKana":"ﾄﾝﾔﾏﾁ","prefecture":"福井県","city":"越前市","street":"問屋町"},{"zipCode":"9150034","prefectureKana":"ﾌｸｲｹﾝ","cityKana":"ｴﾁｾﾞﾝｼ","streetKana":"ﾅｶｲﾁｮｳ","prefecture":"福井県","city":"越前市","street":"中居町"},{"zipCode":"9150227","prefectureKana":"ﾌｸｲｹﾝ","cityKana":"ｴﾁｾﾞﾝｼ","streetKana":"ﾅｶｲﾝﾁｮｳ","prefecture":"福井県","city":"越前市","street":"中印町"},{"zipCode":"9150002","prefectureKana":"ﾌｸｲｹﾝ","cityKana":"ｴﾁｾﾞﾝｼ","streetKana":"ﾅｶﾞｵﾁｮｳ","prefecture":"福井県","city":"越前市","street":"長尾町"},{"zipCode":"9150001","prefectureKana":"ﾌｸｲｹﾝ","cityKana":"ｴﾁｾﾞﾝｼ","streetKana":"ﾅｶｼﾝｼﾞｮｳﾁｮｳ","prefecture":"福井県","city":"越前市","street":"中新庄町"},{"zipCode":"9150212","prefectureKana":"ﾌｸｲｹﾝ","cityKana":"ｴﾁｾﾞﾝｼ","streetKana":"ﾅｶﾞﾀﾆﾁｮｳ","prefecture":"福井県","city":"越前市","street":"長谷町"},{"zipCode":"9151223","prefectureKana":"ﾌｸｲｹﾝ","cityKana":"ｴﾁｾﾞﾝｼ","streetKana":"ﾅｶﾂﾊﾗﾁｮｳ","prefecture":"福井県","city":"越前市","street":"中津原町"},{"zipCode":"9150253","prefectureKana":"ﾌｸｲｹﾝ","cityKana":"ｴﾁｾﾞﾝｼ","streetKana":"ﾅｶﾂﾔﾏﾁｮｳ","prefecture":"福井県","city":"越前市","street":"中津山町"},{"zipCode":"9150097","prefectureKana":"ﾌｸｲｹﾝ","cityKana":"ｴﾁｾﾞﾝｼ","streetKana":"ﾅｶﾞﾄﾛﾁｮｳ","prefecture":"福井県","city":"越前市","street":"長土呂町"},{"zipCode":"9151246","prefectureKana":"ﾌｸｲｹﾝ","cityKana":"ｴﾁｾﾞﾝｼ","streetKana":"ﾅｶﾉﾁｮｳ","prefecture":"福井県","city":"越前市","street":"中野町"},{"zipCode":"9150856","prefectureKana":"ﾌｸｲｹﾝ","cityKana":"ｴﾁｾﾞﾝｼ","streetKana":"ﾅｶﾋﾗﾌﾞｷﾁｮｳ","prefecture":"福井県","city":"越前市","street":"中平吹町"},{"zipCode":"9150265","prefectureKana":"ﾌｸｲｹﾝ","cityKana":"ｴﾁｾﾞﾝｼ","streetKana":"ﾅｶﾔﾏ","prefecture":"福井県","city":"越前市","street":"仲山"},{"zipCode":"9151226","prefectureKana":"ﾌｸｲｹﾝ","cityKana":"ｴﾁｾﾞﾝｼ","streetKana":"ﾅｶﾔﾏﾁｮｳ","prefecture":"福井県","city":"越前市","street":"中山町"},{"zipCode":"9150205","prefectureKana":"ﾌｸｲｹﾝ","cityKana":"ｴﾁｾﾞﾝｼ","streetKana":"ﾅﾐｶﾞｷﾁｮｳ","prefecture":"福井県","city":"越前市","street":"波垣町"},{"zipCode":"9150851","prefectureKana":"ﾌｸｲｹﾝ","cityKana":"ｴﾁｾﾞﾝｼ","streetKana":"ﾅﾜﾃﾁｮｳ","prefecture":"福井県","city":"越前市","street":"畷町"},{"zipCode":"9151232","prefectureKana":"ﾌｸｲｹﾝ","cityKana":"ｴﾁｾﾞﾝｼ","streetKana":"ﾆｶｲﾄﾞｳﾁｮｳ","prefecture":"福井県","city":"越前市","street":"二階堂町"},{"zipCode":"9150014","prefectureKana":"ﾌｸｲｹﾝ","cityKana":"ｴﾁｾﾞﾝｼ","streetKana":"ﾆｼｵﾁｮｳ","prefecture":"福井県","city":"越前市","street":"西尾町"},{"zipCode":"9150244","prefectureKana":"ﾌｸｲｹﾝ","cityKana":"ｴﾁｾﾞﾝｼ","streetKana":"ﾆｼｶｼｵﾁｮｳ","prefecture":"福井県","city":"越前市","street":"西樫尾町"},{"zipCode":"9150073","prefectureKana":"ﾌｸｲｹﾝ","cityKana":"ｴﾁｾﾞﾝｼ","streetKana":"ﾆｼｷﾁｮｳ","prefecture":"福井県","city":"越前市","street":"錦町"},{"zipCode":"9150201","prefectureKana":"ﾌｸｲｹﾝ","cityKana":"ｴﾁｾﾞﾝｼ","streetKana":"ﾆｼｺｳﾁﾁｮｳ","prefecture":"福井県","city":"越前市","street":"西河内町"},{"zipCode":"9150252","prefectureKana":"ﾌｸｲｹﾝ","cityKana":"ｴﾁｾﾞﾝｼ","streetKana":"ﾆｼｼｮｳｻﾞｶｲﾁｮｳ","prefecture":"福井県","city":"越前市","street":"西庄境町"},{"zipCode":"9150046","prefectureKana":"ﾌｸｲｹﾝ","cityKana":"ｴﾁｾﾞﾝｼ","streetKana":"ﾆｼﾀﾆﾁｮｳ","prefecture":"福井県","city":"越前市","street":"西谷町"},{"zipCode":"9150894","prefectureKana":"ﾌｸｲｹﾝ","cityKana":"ｴﾁｾﾞﾝｼ","streetKana":"ﾆｭｳﾉｺﾞｳﾁｮｳ","prefecture":"福井県","city":"越前市","street":"丹生郷町"},{"zipCode":"9150264","prefectureKana":"ﾌｸｲｹﾝ","cityKana":"ｴﾁｾﾞﾝｼ","streetKana":"ﾉｵｶﾁｮｳ","prefecture":"福井県","city":"越前市","street":"野岡町"},{"zipCode":"9150836","prefectureKana":"ﾌｸｲｹﾝ","cityKana":"ｴﾁｾﾞﾝｼ","streetKana":"ﾉｶﾞﾐﾏﾁ","prefecture":"福井県","city":"越前市","street":"野上町"},{"zipCode":"9151205","prefectureKana":"ﾌｸｲｹﾝ","cityKana":"ｴﾁｾﾞﾝｼ","streetKana":"ﾊｷﾞﾜﾗﾁｮｳ","prefecture":"福井県","city":"越前市","street":"萩原町"},{"zipCode":"9150891","prefectureKana":"ﾌｸｲｹﾝ","cityKana":"ｴﾁｾﾞﾝｼ","streetKana":"ﾊｸﾞﾘﾁｮｳ","prefecture":"福井県","city":"越前市","street":"余田町"},{"zipCode":"9150081","prefectureKana":"ﾌｸｲｹﾝ","cityKana":"ｴﾁｾﾞﾝｼ","streetKana":"ﾊﾞｼﾞｮｳﾒﾁｮｳ","prefecture":"福井県","city":"越前市","street":"馬上免町"},{"zipCode":"9150055","prefectureKana":"ﾌｸｲｹﾝ","cityKana":"ｴﾁｾﾞﾝｼ","streetKana":"ﾊﾀﾁｮｳ","prefecture":"福井県","city":"越前市","street":"畑町"},{"zipCode":"9150224","prefectureKana":"ﾌｸｲｹﾝ","cityKana":"ｴﾁｾﾞﾝｼ","streetKana":"ﾊﾁｺｸﾁｮｳ","prefecture":"福井県","city":"越前市","street":"八石町"},{"zipCode":"9150085","prefectureKana":"ﾌｸｲｹﾝ","cityKana":"ｴﾁｾﾞﾝｼ","streetKana":"ﾊﾁﾏﾝ","prefecture":"福井県","city":"越前市","street":"八幡"},{"zipCode":"9150206","prefectureKana":"ﾌｸｲｹﾝ","cityKana":"ｴﾁｾﾞﾝｼ","streetKana":"ﾊﾙﾔﾏﾁｮｳ","prefecture":"福井県","city":"越前市","street":"春山町"},{"zipCode":"9150072","prefectureKana":"ﾌｸｲｹﾝ","cityKana":"ｴﾁｾﾞﾝｼ","streetKana":"ﾊﾞﾝﾀﾞｲﾁｮｳ","prefecture":"福井県","city":"越前市","street":"万代町"},{"zipCode":"9150032","prefectureKana":"ﾌｸｲｹﾝ","cityKana":"ｴﾁｾﾞﾝｼ","streetKana":"ﾋｵﾀﾞﾆﾁｮｳ","prefecture":"福井県","city":"越前市","street":"檜尾谷町"},{"zipCode":"9150207","prefectureKana":"ﾌｸｲｹﾝ","cityKana":"ｴﾁｾﾞﾝｼ","streetKana":"ﾋｶﾞｼｶｼｵﾁｮｳ","prefecture":"福井県","city":"越前市","street":"東樫尾町"},{"zipCode":"9150251","prefectureKana":"ﾌｸｲｹﾝ","cityKana":"ｴﾁｾﾞﾝｼ","streetKana":"ﾋｶﾞｼｼｮｳｻﾞｶｲﾁｮｳ","prefecture":"福井県","city":"越前市","street":"東庄境町"},{"zipCode":"9150847","prefectureKana":"ﾌｸｲｹﾝ","cityKana":"ｴﾁｾﾞﾝｼ","streetKana":"ﾋｶﾞｼｾﾝﾌﾟｸﾁｮｳ","prefecture":"福井県","city":"越前市","street":"東千福町"},{"zipCode":"9150892","prefectureKana":"ﾌｸｲｹﾝ","cityKana":"ｴﾁｾﾞﾝｼ","streetKana":"ﾋｻｶﾁｮｳ","prefecture":"福井県","city":"越前市","street":"氷坂町"},{"zipCode":"9150831","prefectureKana":"ﾌｸｲｹﾝ","cityKana":"ｴﾁｾﾞﾝｼ","streetKana":"ﾋﾉﾐ","prefecture":"福井県","city":"越前市","street":"日野美"},{"zipCode":"9150062","prefectureKana":"ﾌｸｲｹﾝ","cityKana":"ｴﾁｾﾞﾝｼ","streetKana":"ﾋﾒｶﾜ","prefecture":"福井県","city":"越前市","street":"姫川"},{"zipCode":"9150803","prefectureKana":"ﾌｸｲｹﾝ","cityKana":"ｴﾁｾﾞﾝｼ","streetKana":"ﾋﾗｲﾃﾞ","prefecture":"福井県","city":"越前市","street":"平出"},{"zipCode":"9150044","prefectureKana":"ﾌｸｲｹﾝ","cityKana":"ｴﾁｾﾞﾝｼ","streetKana":"ﾋﾗﾊﾞﾔｼﾁｮｳ","prefecture":"福井県","city":"越前市","street":"平林町"},{"zipCode":"9150872","prefectureKana":"ﾌｸｲｹﾝ","cityKana":"ｴﾁｾﾞﾝｼ","streetKana":"ﾋﾛｾﾁｮｳ","prefecture":"福井県","city":"越前市","street":"広瀬町"},{"zipCode":"9150815","prefectureKana":"ﾌｸｲｹﾝ","cityKana":"ｴﾁｾﾞﾝｼ","streetKana":"ﾌｶｸｻ","prefecture":"福井県","city":"越前市","street":"深草"},{"zipCode":"9150209","prefectureKana":"ﾌｸｲｹﾝ","cityKana":"ｴﾁｾﾞﾝｼ","streetKana":"ﾌｼﾞﾉｷﾁｮｳ","prefecture":"福井県","city":"越前市","street":"藤木町"},{"zipCode":"9150854","prefectureKana":"ﾌｸｲｹﾝ","cityKana":"ｴﾁｾﾞﾝｼ","streetKana":"ﾌｼﾞﾐｶﾞｵｶ","prefecture":"福井県","city":"越前市","street":"富士見が丘"},{"zipCode":"9150071","prefectureKana":"ﾌｸｲｹﾝ","cityKana":"ｴﾁｾﾞﾝｼ","streetKana":"ﾌﾁｭｳ","prefecture":"福井県","city":"越前市","street":"府中"},{"zipCode":"9150036","prefectureKana":"ﾌｸｲｹﾝ","cityKana":"ｴﾁｾﾞﾝｼ","streetKana":"ﾌﾑﾛﾁｮｳ","prefecture":"福井県","city":"越前市","street":"文室町"},{"zipCode":"9150841","prefectureKana":"ﾌｸｲｹﾝ","cityKana":"ｴﾁｾﾞﾝｼ","streetKana":"ﾌﾞﾝｷｮｳ","prefecture":"福井県","city":"越前市","street":"文京"},{"zipCode":"9150827","prefectureKana":"ﾌｸｲｹﾝ","cityKana":"ｴﾁｾﾞﾝｼ","streetKana":"ﾍｲﾜﾁｮｳ","prefecture":"福井県","city":"越前市","street":"平和町"},{"zipCode":"9150225","prefectureKana":"ﾌｸｲｹﾝ","cityKana":"ｴﾁｾﾞﾝｼ","streetKana":"ﾍﾞﾂｲﾝﾁｮｳ","prefecture":"福井県","city":"越前市","street":"別印町"},{"zipCode":"9150074","prefectureKana":"ﾌｸｲｹﾝ","cityKana":"ｴﾁｾﾞﾝｼ","streetKana":"ﾎｳﾗｲﾁｮｳ","prefecture":"福井県","city":"越前市","street":"蓬莱町"},{"zipCode":"9151212","prefectureKana":"ﾌｸｲｹﾝ","cityKana":"ｴﾁｾﾞﾝｼ","streetKana":"ﾎﾄｹﾀﾞﾆﾁｮｳ","prefecture":"福井県","city":"越前市","street":"仏谷町"},{"zipCode":"9150051","prefectureKana":"ﾌｸｲｹﾝ","cityKana":"ｴﾁｾﾞﾝｼ","streetKana":"ﾎﾔﾏﾁｮｳ","prefecture":"福井県","city":"越前市","street":"帆山町"},{"zipCode":"9150061","prefectureKana":"ﾌｸｲｹﾝ","cityKana":"ｴﾁｾﾞﾝｼ","streetKana":"ﾎﾘｶﾜﾁｮｳ","prefecture":"福井県","city":"越前市","street":"堀川町"},{"zipCode":"9151211","prefectureKana":"ﾌｸｲｹﾝ","cityKana":"ｴﾁｾﾞﾝｼ","streetKana":"ﾎﾘﾁｮｳ","prefecture":"福井県","city":"越前市","street":"堀町"},{"zipCode":"9150811","prefectureKana":"ﾌｸｲｹﾝ","cityKana":"ｴﾁｾﾞﾝｼ","streetKana":"ﾎﾝﾀﾞ","prefecture":"福井県","city":"越前市","street":"本多"},{"zipCode":"9150806","prefectureKana":"ﾌｸｲｹﾝ","cityKana":"ｴﾁｾﾞﾝｼ","streetKana":"ﾎﾝﾎﾞﾁｮｳ","prefecture":"福井県","city":"越前市","street":"本保町"},{"zipCode":"9150823","prefectureKana":"ﾌｸｲｹﾝ","cityKana":"ｴﾁｾﾞﾝｼ","streetKana":"ﾎﾝﾏﾁ","prefecture":"福井県","city":"越前市","street":"本町"},{"zipCode":"9150005","prefectureKana":"ﾌｸｲｹﾝ","cityKana":"ｴﾁｾﾞﾝｼ","streetKana":"ﾏｶﾗﾁｮｳ","prefecture":"福井県","city":"越前市","street":"真柄町"},{"zipCode":"9151244","prefectureKana":"ﾌｸｲｹﾝ","cityKana":"ｴﾁｾﾞﾝｼ","streetKana":"ﾏｷﾁｮｳ","prefecture":"福井県","city":"越前市","street":"牧町"},{"zipCode":"9150852","prefectureKana":"ﾌｸｲｹﾝ","cityKana":"ｴﾁｾﾞﾝｼ","streetKana":"ﾏﾂﾓﾘﾁｮｳ","prefecture":"福井県","city":"越前市","street":"松森町"},{"zipCode":"9151213","prefectureKana":"ﾌｸｲｹﾝ","cityKana":"ｴﾁｾﾞﾝｼ","streetKana":"ﾏﾙｶﾁｮｳ","prefecture":"福井県","city":"越前市","street":"丸岡町"},{"zipCode":"9150217","prefectureKana":"ﾌｸｲｹﾝ","cityKana":"ｴﾁｾﾞﾝｼ","streetKana":"ﾐｽﾞﾏﾁｮｳ","prefecture":"福井県","city":"越前市","street":"水間町"},{"zipCode":"9150845","prefectureKana":"ﾌｸｲｹﾝ","cityKana":"ｴﾁｾﾞﾝｼ","streetKana":"ﾐﾂｸﾁﾁｮｳ","prefecture":"福井県","city":"越前市","street":"三ツ口町"},{"zipCode":"9150895","prefectureKana":"ﾌｸｲｹﾝ","cityKana":"ｴﾁｾﾞﾝｼ","streetKana":"ﾐﾂﾏﾀﾁｮｳ","prefecture":"福井県","city":"越前市","street":"三ツ俣町"},{"zipCode":"9150007","prefectureKana":"ﾌｸｲｹﾝ","cityKana":"ｴﾁｾﾞﾝｼ","streetKana":"ﾐﾂﾔﾁｮｳ","prefecture":"福井県","city":"越前市","street":"三ツ屋町"},{"zipCode":"9150825","prefectureKana":"ﾌｸｲｹﾝ","cityKana":"ｴﾁｾﾞﾝｼ","streetKana":"ﾐﾅﾐ","prefecture":"福井県","city":"越前市","street":"南"},{"zipCode":"9150022","prefectureKana":"ﾌｸｲｹﾝ","cityKana":"ｴﾁｾﾞﾝｼ","streetKana":"ﾐﾅﾐｵﾔﾏﾁｮｳ","prefecture":"福井県","city":"越前市","street":"南小山町"},{"zipCode":"9150226","prefectureKana":"ﾌｸｲｹﾝ","cityKana":"ｴﾁｾﾞﾝｼ","streetKana":"ﾐﾅﾐｻｶｼﾀﾁｮｳ","prefecture":"福井県","city":"越前市","street":"南坂下町"},{"zipCode":"9150213","prefectureKana":"ﾌｸｲｹﾝ","cityKana":"ｴﾁｾﾞﾝｼ","streetKana":"ﾐﾅﾐﾅｶﾁｮｳ","prefecture":"福井県","city":"越前市","street":"南中町"},{"zipCode":"9150033","prefectureKana":"ﾌｸｲｹﾝ","cityKana":"ｴﾁｾﾞﾝｼ","streetKana":"ﾐﾉﾜｷﾁｮｳ","prefecture":"福井県","city":"越前市","street":"蓑脇町"},{"zipCode":"9150013","prefectureKana":"ﾌｸｲｹﾝ","cityKana":"ｴﾁｾﾞﾝｼ","streetKana":"ﾐﾔﾀﾞﾆﾁｮｳ","prefecture":"福井県","city":"越前市","street":"宮谷町"},{"zipCode":"9150826","prefectureKana":"ﾌｸｲｹﾝ","cityKana":"ｴﾁｾﾞﾝｼ","streetKana":"ﾐﾕｷﾁｮｳ","prefecture":"福井県","city":"越前市","street":"御幸町"},{"zipCode":"9150844","prefectureKana":"ﾌｸｲｹﾝ","cityKana":"ｴﾁｾﾞﾝｼ","streetKana":"ﾐｮｳﾎｳｼﾞﾁｮｳ","prefecture":"福井県","city":"越前市","street":"妙法寺町"},{"zipCode":"9150871","prefectureKana":"ﾌｸｲｹﾝ","cityKana":"ｴﾁｾﾞﾝｼ","streetKana":"ﾑｶｲｶﾞｵｶﾁｮｳ","prefecture":"福井県","city":"越前市","street":"向が丘町"},{"zipCode":"9150056","prefectureKana":"ﾌｸｲｹﾝ","cityKana":"ｴﾁｾﾞﾝｼ","streetKana":"ﾑｶｲｼﾝﾎﾞﾁｮｳ","prefecture":"福井県","city":"越前市","street":"向新保町"},{"zipCode":"9150084","prefectureKana":"ﾌｸｲｹﾝ","cityKana":"ｴﾁｾﾞﾝｼ","streetKana":"ﾑﾗｸﾆ","prefecture":"福井県","city":"越前市","street":"村国"},{"zipCode":"9150211","prefectureKana":"ﾌｸｲｹﾝ","cityKana":"ｴﾁｾﾞﾝｼ","streetKana":"ﾑﾛﾀﾆﾁｮｳ","prefecture":"福井県","city":"越前市","street":"室谷町"},{"zipCode":"9150822","prefectureKana":"ﾌｸｲｹﾝ","cityKana":"ｴﾁｾﾞﾝｼ","streetKana":"ﾓﾄﾏﾁ","prefecture":"福井県","city":"越前市","street":"元町"},{"zipCode":"9150865","prefectureKana":"ﾌｸｲｹﾝ","cityKana":"ｴﾁｾﾞﾝｼ","streetKana":"ﾓﾘﾋｻﾁｮｳ","prefecture":"福井県","city":"越前市","street":"森久町"},{"zipCode":"9151235","prefectureKana":"ﾌｸｲｹﾝ","cityKana":"ｴﾁｾﾞﾝｼ","streetKana":"ﾔｽﾄﾞﾁｮｳ","prefecture":"福井県","city":"越前市","street":"安戸町"},{"zipCode":"9150215","prefectureKana":"ﾌｸｲｹﾝ","cityKana":"ｴﾁｾﾞﾝｼ","streetKana":"ﾔﾅｷﾞﾓﾄﾏﾁ","prefecture":"福井県","city":"越前市","street":"柳元町"},{"zipCode":"9150052","prefectureKana":"ﾌｸｲｹﾝ","cityKana":"ｴﾁｾﾞﾝｼ","streetKana":"ﾔﾊﾅｼﾁｮｳ","prefecture":"福井県","city":"越前市","street":"矢放町"},{"zipCode":"9150057","prefectureKana":"ﾌｸｲｹﾝ","cityKana":"ｴﾁｾﾞﾝｼ","streetKana":"ﾔﾌﾈﾁｮｳ","prefecture":"福井県","city":"越前市","street":"矢船町"},{"zipCode":"9150263","prefectureKana":"ﾌｸｲｹﾝ","cityKana":"ｴﾁｾﾞﾝｼ","streetKana":"ﾔﾏﾑﾛﾁｮｳ","prefecture":"福井県","city":"越前市","street":"山室町"},{"zipCode":"9150853","prefectureKana":"ﾌｸｲｹﾝ","cityKana":"ｴﾁｾﾞﾝｼ","streetKana":"ﾕｷﾏﾂﾁｮｳ","prefecture":"福井県","city":"越前市","street":"行松町"},{"zipCode":"9150065","prefectureKana":"ﾌｸｲｹﾝ","cityKana":"ｴﾁｾﾞﾝｼ","streetKana":"ﾕﾀｶﾁｮｳ","prefecture":"福井県","city":"越前市","street":"豊町"},{"zipCode":"9151225","prefectureKana":"ﾌｸｲｹﾝ","cityKana":"ｴﾁｾﾞﾝｼ","streetKana":"ﾕﾔﾁｮｳ","prefecture":"福井県","city":"越前市","street":"湯谷町"},{"zipCode":"9150031","prefectureKana":"ﾌｸｲｹﾝ","cityKana":"ｴﾁｾﾞﾝｼ","streetKana":"ﾖｶﾜﾁｮｳ","prefecture":"福井県","city":"越前市","street":"余川町"},{"zipCode":"9150094","prefectureKana":"ﾌｸｲｹﾝ","cityKana":"ｴﾁｾﾞﾝｼ","streetKana":"ﾖｺｲﾁﾁｮｳ","prefecture":"福井県","city":"越前市","street":"横市町"},{"zipCode":"9150203","prefectureKana":"ﾌｸｲｹﾝ","cityKana":"ｴﾁｾﾞﾝｼ","streetKana":"ﾖｺｽﾞﾐﾁｮｳ","prefecture":"福井県","city":"越前市","street":"横住町"},{"zipCode":"9150896","prefectureKana":"ﾌｸｲｹﾝ","cityKana":"ｴﾁｾﾞﾝｼ","streetKana":"ﾖｺﾈﾁｮｳ","prefecture":"福井県","city":"越前市","street":"横根町"},{"zipCode":"9150208","prefectureKana":"ﾌｸｲｹﾝ","cityKana":"ｴﾁｾﾞﾝｼ","streetKana":"ﾘｮｳｹﾁｮｳ","prefecture":"福井県","city":"越前市","street":"領家町"},{"zipCode":"9151245","prefectureKana":"ﾌｸｲｹﾝ","cityKana":"ｴﾁｾﾞﾝｼ","streetKana":"ﾜｶﾞｽﾁｮｳ","prefecture":"福井県","city":"越前市","street":"若須町"},{"zipCode":"9150063","prefectureKana":"ﾌｸｲｹﾝ","cityKana":"ｴﾁｾﾞﾝｼ","streetKana":"ﾜｶﾀｹﾁｮｳ","prefecture":"福井県","city":"越前市","street":"若竹町"},{"zipCode":"9150821","prefectureKana":"ﾌｸｲｹﾝ","cityKana":"ｴﾁｾﾞﾝｼ","streetKana":"ﾜｶﾏﾂﾁｮｳ","prefecture":"福井県","city":"越前市","street":"若松町"},{"zipCode":"9151105","prefectureKana":"ﾌｸｲｹﾝ","cityKana":"ﾅﾝｼﾞｮｳｸﾞﾝﾐﾅﾐｴﾁｾﾞﾝﾁｮｳ","streetKana":"ｱｶﾊｷﾞ","prefecture":"福井県","city":"南条郡南越前町","street":"赤萩"},{"zipCode":"9151112","prefectureKana":"ﾌｸｲｹﾝ","cityKana":"ﾅﾝｼﾞｮｳｸﾞﾝﾐﾅﾐｴﾁｾﾞﾝﾁｮｳ","streetKana":"ｲﾏｲｽﾞﾐ","prefecture":"福井県","city":"南条郡南越前町","street":"今泉"},{"zipCode":"9151103","prefectureKana":"ﾌｸｲｹﾝ","cityKana":"ﾅﾝｼﾞｮｳｸﾞﾝﾐﾅﾐｴﾁｾﾞﾝﾁｮｳ","streetKana":"ｵｵﾀﾆ","prefecture":"福井県","city":"南条郡南越前町","street":"大谷"},{"zipCode":"9151113","prefectureKana":"ﾌｸｲｹﾝ","cityKana":"ﾅﾝｼﾞｮｳｸﾞﾝﾐﾅﾐｴﾁｾﾞﾝﾁｮｳ","streetKana":"ｶﾌﾞﾗｷ","prefecture":"福井県","city":"南条郡南越前町","street":"甲楽城"},{"zipCode":"9151101","prefectureKana":"ﾌｸｲｹﾝ","cityKana":"ﾅﾝｼﾞｮｳｸﾞﾝﾐﾅﾐｴﾁｾﾞﾝﾁｮｳ","streetKana":"ｸﾞﾀﾞﾆ","prefecture":"福井県","city":"南条郡南越前町","street":"具谷"},{"zipCode":"9151106","prefectureKana":"ﾌｸｲｹﾝ","cityKana":"ﾅﾝｼﾞｮｳｸﾞﾝﾐﾅﾐｴﾁｾﾞﾝﾁｮｳ","streetKana":"ｺｳﾁ","prefecture":"福井県","city":"南条郡南越前町","street":"河内"},{"zipCode":"9151111","prefectureKana":"ﾌｸｲｹﾝ","cityKana":"ﾅﾝｼﾞｮｳｸﾞﾝﾐﾅﾐｴﾁｾﾞﾝﾁｮｳ","streetKana":"ｺｳﾉ","prefecture":"福井県","city":"南条郡南越前町","street":"河野"},{"zipCode":"9151102","prefectureKana":"ﾌｸｲｹﾝ","cityKana":"ﾅﾝｼﾞｮｳｸﾞﾝﾐﾅﾐｴﾁｾﾞﾝﾁｮｳ","streetKana":"ｽｹﾞﾉﾀﾆ","prefecture":"福井県","city":"南条郡南越前町","street":"菅谷"},{"zipCode":"9151104","prefectureKana":"ﾌｸｲｹﾝ","cityKana":"ﾅﾝｼﾞｮｳｸﾞﾝﾐﾅﾐｴﾁｾﾞﾝﾁｮｳ","streetKana":"ﾀﾞｲﾗ","prefecture":"福井県","city":"南条郡南越前町","street":"大良"},{"zipCode":"9151114","prefectureKana":"ﾌｸｲｹﾝ","cityKana":"ﾅﾝｼﾞｮｳｸﾞﾝﾐﾅﾐｴﾁｾﾞﾝﾁｮｳ","streetKana":"ﾇｶ","prefecture":"福井県","city":"南条郡南越前町","street":"糠"},{"zipCode":"9151114","prefectureKana":"ﾌｸｲｹﾝ","cityKana":"ﾅﾝｼﾞｮｳｸﾞﾝﾐﾅﾐｴﾁｾﾞﾝﾁｮｳ","streetKana":"ﾇｶ(ｼﾞﾝﾄﾞ)","prefecture":"福井県","city":"南条郡南越前町","street":"糠（神土）"},{"zipCode":"9151114","prefectureKana":"ﾌｸｲｹﾝ","cityKana":"ﾅﾝｼﾞｮｳｸﾞﾝﾐﾅﾐｴﾁｾﾞﾝﾁｮｳ","streetKana":"ﾇｶ(ｽｷﾞﾔﾏ)","prefecture":"福井県","city":"南条郡南越前町","street":"糠（杉山）"},{"zipCode":"9151114","prefectureKana":"ﾌｸｲｹﾝ","cityKana":"ﾅﾝｼﾞｮｳｸﾞﾝﾐﾅﾐｴﾁｾﾞﾝﾁｮｳ","streetKana":"ﾊｯﾀ","prefecture":"福井県","city":"南条郡南越前町","street":"八田"}]