[{"zipCode":"9160000","prefectureKana":"ﾌｸｲｹﾝ","cityKana":"ｻﾊﾞｴｼ","streetKana":"ｲｶﾆｹｲｻｲｶﾞﾅｲﾊﾞｱｲ","prefecture":"福井県","city":"鯖江市","street":"以下に掲載がない場合"},{"zipCode":"9160025","prefectureKana":"ﾌｸｲｹﾝ","cityKana":"ｻﾊﾞｴｼ","streetKana":"ｱｻﾋﾏﾁ","prefecture":"福井県","city":"鯖江市","street":"旭町"},{"zipCode":"9161224","prefectureKana":"ﾌｸｲｹﾝ","cityKana":"ｻﾊﾞｴｼ","streetKana":"ｱｿﾞｳﾀﾞﾁｮｳ","prefecture":"福井県","city":"鯖江市","street":"莇生田町"},{"zipCode":"9160057","prefectureKana":"ﾌｸｲｹﾝ","cityKana":"ｻﾊﾞｴｼ","streetKana":"ｱﾘｻﾀﾞﾁｮｳ","prefecture":"福井県","city":"鯖江市","street":"有定町"},{"zipCode":"9160083","prefectureKana":"ﾌｸｲｹﾝ","cityKana":"ｻﾊﾞｴｼ","streetKana":"ｲｼﾀﾞｶﾐﾁｮｳ","prefecture":"福井県","city":"鯖江市","street":"石田上町"},{"zipCode":"9160082","prefectureKana":"ﾌｸｲｹﾝ","cityKana":"ｻﾊﾞｴｼ","streetKana":"ｲｼﾀﾞﾅｶﾁｮｳ","prefecture":"福井県","city":"鯖江市","street":"石田中町"},{"zipCode":"9160081","prefectureKana":"ﾌｸｲｹﾝ","cityKana":"ｻﾊﾞｴｼ","streetKana":"ｲｼﾀﾞｼﾓﾁｮｳ","prefecture":"福井県","city":"鯖江市","street":"石田下町"},{"zipCode":"9160076","prefectureKana":"ﾌｸｲｹﾝ","cityKana":"ｻﾊﾞｴｼ","streetKana":"ｲｼｮｳﾀﾞﾆﾁｮｳ","prefecture":"福井県","city":"鯖江市","street":"石生谷町"},{"zipCode":"9161114","prefectureKana":"ﾌｸｲｹﾝ","cityKana":"ｻﾊﾞｴｼ","streetKana":"ｲｿﾍﾞﾁｮｳ","prefecture":"福井県","city":"鯖江市","street":"磯部町"},{"zipCode":"9160008","prefectureKana":"ﾌｸｲｹﾝ","cityKana":"ｻﾊﾞｴｼ","streetKana":"ｲﾘﾁｮｳ","prefecture":"福井県","city":"鯖江市","street":"入町"},{"zipCode":"9160075","prefectureKana":"ﾌｸｲｹﾝ","cityKana":"ｻﾊﾞｴｼ","streetKana":"ｳﾙｼﾊﾗﾁｮｳ","prefecture":"福井県","city":"鯖江市","street":"漆原町"},{"zipCode":"9160085","prefectureKana":"ﾌｸｲｹﾝ","cityKana":"ｻﾊﾞｴｼ","streetKana":"ｵｵｸﾗﾁｮｳ","prefecture":"福井県","city":"鯖江市","street":"大倉町"},{"zipCode":"9161102","prefectureKana":"ﾌｸｲｹﾝ","cityKana":"ｻﾊﾞｴｼ","streetKana":"ｵｵﾉﾁｮｳ","prefecture":"福井県","city":"鯖江市","street":"大野町"},{"zipCode":"9161115","prefectureKana":"ﾌｸｲｹﾝ","cityKana":"ｻﾊﾞｴｼ","streetKana":"ｵﾁｲﾁｮｳ","prefecture":"福井県","city":"鯖江市","street":"落井町"},{"zipCode":"9161104","prefectureKana":"ﾌｸｲｹﾝ","cityKana":"ｻﾊﾞｴｼ","streetKana":"ｵﾂｻｶｺﾝﾎﾞｸﾁｮｳ","prefecture":"福井県","city":"鯖江市","street":"乙坂今北町"},{"zipCode":"9161233","prefectureKana":"ﾌｸｲｹﾝ","cityKana":"ｻﾊﾞｴｼ","streetKana":"ｵﾊﾞﾅﾁｮｳ","prefecture":"福井県","city":"鯖江市","street":"尾花町"},{"zipCode":"9161223","prefectureKana":"ﾌｸｲｹﾝ","cityKana":"ｻﾊﾞｴｼ","streetKana":"ｶﾀﾔﾏﾁｮｳ","prefecture":"福井県","city":"鯖江市","street":"片山町"},{"zipCode":"9161231","prefectureKana":"ﾌｸｲｹﾝ","cityKana":"ｻﾊﾞｴｼ","streetKana":"ｶﾅﾀﾞﾆﾁｮｳ","prefecture":"福井県","city":"鯖江市","street":"金谷町"},{"zipCode":"9160066","prefectureKana":"ﾌｸｲｹﾝ","cityKana":"ｻﾊﾞｴｼ","streetKana":"ｶﾐｳｽﾞｴﾁｮｳ","prefecture":"福井県","city":"鯖江市","street":"上氏家町"},{"zipCode":"9161235","prefectureKana":"ﾌｸｲｹﾝ","cityKana":"ｻﾊﾞｴｼ","streetKana":"ｶﾐｺｳﾁﾁｮｳ","prefecture":"福井県","city":"鯖江市","street":"上河内町"},{"zipCode":"9160037","prefectureKana":"ﾌｸｲｹﾝ","cityKana":"ｻﾊﾞｴｼ","streetKana":"ｶﾐｺｳﾊﾞﾀﾁｮｳ","prefecture":"福井県","city":"鯖江市","street":"上河端町"},{"zipCode":"9160055","prefectureKana":"ﾌｸｲｹﾝ","cityKana":"ｻﾊﾞｴｼ","streetKana":"ｶﾐｻﾊﾞｴ","prefecture":"福井県","city":"鯖江市","street":"上鯖江"},{"zipCode":"9160055","prefectureKana":"ﾌｸｲｹﾝ","cityKana":"ｻﾊﾞｴｼ","streetKana":"ｶﾐｻﾊﾞｴﾁｮｳ","prefecture":"福井県","city":"鯖江市","street":"上鯖江町"},{"zipCode":"9161111","prefectureKana":"ﾌｸｲｹﾝ","cityKana":"ｻﾊﾞｴｼ","streetKana":"ｶﾐﾄﾉｸﾁﾁｮｳ","prefecture":"福井県","city":"鯖江市","street":"上戸口町"},{"zipCode":"9160016","prefectureKana":"ﾌｸｲｹﾝ","cityKana":"ｻﾊﾞｴｼ","streetKana":"ｶﾐﾅｶﾁｮｳ","prefecture":"福井県","city":"鯖江市","street":"神中町"},{"zipCode":"9160074","prefectureKana":"ﾌｸｲｹﾝ","cityKana":"ｻﾊﾞｴｼ","streetKana":"ｶﾐﾉﾀﾞﾁｮｳ","prefecture":"福井県","city":"鯖江市","street":"上野田町"},{"zipCode":"9160088","prefectureKana":"ﾌｸｲｹﾝ","cityKana":"ｻﾊﾞｴｼ","streetKana":"ｶﾜｻﾘﾁｮｳ","prefecture":"福井県","city":"鯖江市","street":"川去町"},{"zipCode":"9161116","prefectureKana":"ﾌｸｲｹﾝ","cityKana":"ｻﾊﾞｴｼ","streetKana":"ｶﾜｼﾏﾁｮｳ","prefecture":"福井県","city":"鯖江市","street":"川島町"},{"zipCode":"9161222","prefectureKana":"ﾌｸｲｹﾝ","cityKana":"ｻﾊﾞｴｼ","streetKana":"ｶﾜﾀﾞﾁｮｳ","prefecture":"福井県","city":"鯖江市","street":"河和田町"},{"zipCode":"9161237","prefectureKana":"ﾌｸｲｹﾝ","cityKana":"ｻﾊﾞｴｼ","streetKana":"ｷﾀﾅｶﾁｮｳ","prefecture":"福井県","city":"鯖江市","street":"北中町"},{"zipCode":"9160029","prefectureKana":"ﾌｸｲｹﾝ","cityKana":"ｻﾊﾞｴｼ","streetKana":"ｷﾀﾉﾁｮｳ","prefecture":"福井県","city":"鯖江市","street":"北野町"},{"zipCode":"9160062","prefectureKana":"ﾌｸｲｹﾝ","cityKana":"ｻﾊﾞｴｼ","streetKana":"ｸﾏﾀﾞﾁｮｳ","prefecture":"福井県","city":"鯖江市","street":"熊田町"},{"zipCode":"9160064","prefectureKana":"ﾌｸｲｹﾝ","cityKana":"ｻﾊﾞｴｼ","streetKana":"ｹﾞｼﾁｮｳ","prefecture":"福井県","city":"鯖江市","street":"下司町"},{"zipCode":"9160084","prefectureKana":"ﾌｸｲｹﾝ","cityKana":"ｻﾊﾞｴｼ","streetKana":"ｺｲｽﾞﾐﾁｮｳ","prefecture":"福井県","city":"鯖江市","street":"小泉町"},{"zipCode":"9160028","prefectureKana":"ﾌｸｲｹﾝ","cityKana":"ｻﾊﾞｴｼ","streetKana":"ｺｸﾞﾛﾏﾁ","prefecture":"福井県","city":"鯖江市","street":"小黒町"},{"zipCode":"9160044","prefectureKana":"ﾌｸｲｹﾝ","cityKana":"ｻﾊﾞｴｼ","streetKana":"ｺﾞﾛｳﾏﾙﾁｮｳ","prefecture":"福井県","city":"鯖江市","street":"五郎丸町"},{"zipCode":"9160018","prefectureKana":"ﾌｸｲｹﾝ","cityKana":"ｻﾊﾞｴｼ","streetKana":"ｻｲﾜｲﾁｮｳ","prefecture":"福井県","city":"鯖江市","street":"幸町"},{"zipCode":"9160027","prefectureKana":"ﾌｸｲｹﾝ","cityKana":"ｻﾊﾞｴｼ","streetKana":"ｻｸﾗﾏﾁ","prefecture":"福井県","city":"鯖江市","street":"桜町"},{"zipCode":"9160043","prefectureKana":"ﾌｸｲｹﾝ","cityKana":"ｻﾊﾞｴｼ","streetKana":"ｻﾀﾞﾂｷﾞﾁｮｳ","prefecture":"福井県","city":"鯖江市","street":"定次町"},{"zipCode":"9161234","prefectureKana":"ﾌｸｲｹﾝ","cityKana":"ｻﾊﾞｴｼ","streetKana":"ｻﾜﾁｮｳ","prefecture":"福井県","city":"鯖江市","street":"沢町"},{"zipCode":"9160021","prefectureKana":"ﾌｸｲｹﾝ","cityKana":"ｻﾊﾞｴｼ","streetKana":"ｻﾝﾛｸﾁｮｳ","prefecture":"福井県","city":"鯖江市","street":"三六町"},{"zipCode":"9161232","prefectureKana":"ﾌｸｲｹﾝ","cityKana":"ｻﾊﾞｴｼ","streetKana":"ｼﾞﾁｭｳﾁｮｳ","prefecture":"福井県","city":"鯖江市","street":"寺中町"},{"zipCode":"9161106","prefectureKana":"ﾌｸｲｹﾝ","cityKana":"ｻﾊﾞｴｼ","streetKana":"ｼﾎｳﾀﾞﾆﾁｮｳ","prefecture":"福井県","city":"鯖江市","street":"四方谷町"},{"zipCode":"9160071","prefectureKana":"ﾌｸｲｹﾝ","cityKana":"ｻﾊﾞｴｼ","streetKana":"ｼﾞﾐｮｳｼﾞﾁｮｳ","prefecture":"福井県","city":"鯖江市","street":"持明寺町"},{"zipCode":"9160067","prefectureKana":"ﾌｸｲｹﾝ","cityKana":"ｻﾊﾞｴｼ","streetKana":"ｼﾓｳｽﾞｴﾁｮｳ","prefecture":"福井県","city":"鯖江市","street":"下氏家町"},{"zipCode":"9160038","prefectureKana":"ﾌｸｲｹﾝ","cityKana":"ｻﾊﾞｴｼ","streetKana":"ｼﾓｺｳﾊﾞﾀﾁｮｳ","prefecture":"福井県","city":"鯖江市","street":"下河端町"},{"zipCode":"9160034","prefectureKana":"ﾌｸｲｹﾝ","cityKana":"ｻﾊﾞｴｼ","streetKana":"ｼﾓｼﾝｼﾞｮｳﾁｮｳ","prefecture":"福井県","city":"鯖江市","street":"下新庄町"},{"zipCode":"9160073","prefectureKana":"ﾌｸｲｹﾝ","cityKana":"ｻﾊﾞｴｼ","streetKana":"ｼﾓﾉﾀﾞﾁｮｳ","prefecture":"福井県","city":"鯖江市","street":"下野田町"},{"zipCode":"9160035","prefectureKana":"ﾌｸｲｹﾝ","cityKana":"ｻﾊﾞｴｼ","streetKana":"ｼﾝﾏﾁ","prefecture":"福井県","city":"鯖江市","street":"新町"},{"zipCode":"9160017","prefectureKana":"ﾌｸｲｹﾝ","cityKana":"ｻﾊﾞｴｼ","streetKana":"ｼﾝﾒｲﾁｮｳ","prefecture":"福井県","city":"鯖江市","street":"神明町"},{"zipCode":"9160042","prefectureKana":"ﾌｸｲｹﾝ","cityKana":"ｻﾊﾞｴｼ","streetKana":"ｼﾝﾖｺｴ","prefecture":"福井県","city":"鯖江市","street":"新横江"},{"zipCode":"9160005","prefectureKana":"ﾌｸｲｹﾝ","cityKana":"ｻﾊﾞｴｼ","streetKana":"ｽｷﾞﾓﾄﾁｮｳ","prefecture":"福井県","city":"鯖江市","street":"杉本町"},{"zipCode":"9160056","prefectureKana":"ﾌｸｲｹﾝ","cityKana":"ｻﾊﾞｴｼ","streetKana":"ｽﾐﾖｼﾁｮｳ","prefecture":"福井県","city":"鯖江市","street":"住吉町"},{"zipCode":"9161101","prefectureKana":"ﾌｸｲｹﾝ","cityKana":"ｻﾊﾞｴｼ","streetKana":"ﾀﾞｲｼｮｳｼﾞﾁｮｳ","prefecture":"福井県","city":"鯖江市","street":"大正寺町"},{"zipCode":"9160004","prefectureKana":"ﾌｸｲｹﾝ","cityKana":"ｻﾊﾞｴｼ","streetKana":"ﾀﾀﾞｽﾁｮｳ","prefecture":"福井県","city":"鯖江市","street":"糺町"},{"zipCode":"9160003","prefectureKana":"ﾌｸｲｹﾝ","cityKana":"ｻﾊﾞｴｼ","streetKana":"ﾀﾄﾞｺﾛﾁｮｳ","prefecture":"福井県","city":"鯖江市","street":"田所町"},{"zipCode":"9160087","prefectureKana":"ﾌｸｲｹﾝ","cityKana":"ｻﾊﾞｴｼ","streetKana":"ﾀﾑﾗﾁｮｳ","prefecture":"福井県","city":"鯖江市","street":"田村町"},{"zipCode":"9160024","prefectureKana":"ﾌｸｲｹﾝ","cityKana":"ｻﾊﾞｴｼ","streetKana":"ﾁｮｳｾﾝｼﾞﾁｮｳ","prefecture":"福井県","city":"鯖江市","street":"長泉寺町"},{"zipCode":"9160011","prefectureKana":"ﾌｸｲｹﾝ","cityKana":"ｻﾊﾞｴｼ","streetKana":"ﾂﾂｼﾞｶﾞｵｶﾁｮｳ","prefecture":"福井県","city":"鯖江市","street":"つつじケ丘町"},{"zipCode":"9160065","prefectureKana":"ﾌｸｲｹﾝ","cityKana":"ｻﾊﾞｴｼ","streetKana":"ﾄｳﾃﾞﾁｮｳ","prefecture":"福井県","city":"鯖江市","street":"当田町"},{"zipCode":"9161113","prefectureKana":"ﾌｸｲｹﾝ","cityKana":"ｻﾊﾞｴｼ","streetKana":"ﾄﾉｸﾁﾁｮｳ","prefecture":"福井県","city":"鯖江市","street":"戸口町"},{"zipCode":"9160013","prefectureKana":"ﾌｸｲｹﾝ","cityKana":"ｻﾊﾞｴｼ","streetKana":"ﾄﾊﾞ","prefecture":"福井県","city":"鯖江市","street":"鳥羽"},{"zipCode":"9160014","prefectureKana":"ﾌｸｲｹﾝ","cityKana":"ｻﾊﾞｴｼ","streetKana":"ﾄﾊﾞﾁｮｳ","prefecture":"福井県","city":"鯖江市","street":"鳥羽町"},{"zipCode":"9160063","prefectureKana":"ﾌｸｲｹﾝ","cityKana":"ｻﾊﾞｴｼ","streetKana":"ﾄﾘｲﾁｮｳ","prefecture":"福井県","city":"鯖江市","street":"鳥井町"},{"zipCode":"9161107","prefectureKana":"ﾌｸｲｹﾝ","cityKana":"ｻﾊﾞｴｼ","streetKana":"ﾅｵｲﾁｮｳ","prefecture":"福井県","city":"鯖江市","street":"南井町"},{"zipCode":"9161112","prefectureKana":"ﾌｸｲｹﾝ","cityKana":"ｻﾊﾞｴｼ","streetKana":"ﾅｶﾄﾉｸﾁﾁｮｳ","prefecture":"福井県","city":"鯖江市","street":"中戸口町"},{"zipCode":"9160033","prefectureKana":"ﾌｸｲｹﾝ","cityKana":"ｻﾊﾞｴｼ","streetKana":"ﾅｶﾉﾁｮｳ","prefecture":"福井県","city":"鯖江市","street":"中野町"},{"zipCode":"9161133","prefectureKana":"ﾌｸｲｹﾝ","cityKana":"ｻﾊﾞｴｼ","streetKana":"ﾅｶﾉﾏﾂﾅﾘ","prefecture":"福井県","city":"鯖江市","street":"中野松成"},{"zipCode":"9160078","prefectureKana":"ﾌｸｲｹﾝ","cityKana":"ｻﾊﾞｴｼ","streetKana":"ﾆｼｵｵｲﾁｮｳ","prefecture":"福井県","city":"鯖江市","street":"西大井町"},{"zipCode":"9160006","prefectureKana":"ﾌｸｲｹﾝ","cityKana":"ｻﾊﾞｴｼ","streetKana":"ﾆｼﾊﾞﾝﾁｮｳ","prefecture":"福井県","city":"鯖江市","street":"西番町"},{"zipCode":"9161221","prefectureKana":"ﾌｸｲｹﾝ","cityKana":"ｻﾊﾞｴｼ","streetKana":"ﾆｼﾌﾞｸﾛﾁｮｳ","prefecture":"福井県","city":"鯖江市","street":"西袋町"},{"zipCode":"9160023","prefectureKana":"ﾌｸｲｹﾝ","cityKana":"ｻﾊﾞｴｼ","streetKana":"ﾆｼﾔﾏﾁｮｳ","prefecture":"福井県","city":"鯖江市","street":"西山町"},{"zipCode":"9160068","prefectureKana":"ﾌｸｲｹﾝ","cityKana":"ｻﾊﾞｴｼ","streetKana":"ﾆﾁｮｶﾞｹﾁｮｳ","prefecture":"福井県","city":"鯖江市","street":"二丁掛町"},{"zipCode":"9160031","prefectureKana":"ﾌｸｲｹﾝ","cityKana":"ｻﾊﾞｴｼ","streetKana":"ﾊｼﾀﾃﾁｮｳ","prefecture":"福井県","city":"鯖江市","street":"橋立町"},{"zipCode":"9160041","prefectureKana":"ﾌｸｲｹﾝ","cityKana":"ｻﾊﾞｴｼ","streetKana":"ﾋｶﾞｼｻﾊﾞｴ","prefecture":"福井県","city":"鯖江市","street":"東鯖江"},{"zipCode":"9161236","prefectureKana":"ﾌｸｲｹﾝ","cityKana":"ｻﾊﾞｴｼ","streetKana":"ﾋｶﾞｼｼﾐｽﾞﾁｮｳ","prefecture":"福井県","city":"鯖江市","street":"東清水町"},{"zipCode":"9160012","prefectureKana":"ﾌｸｲｹﾝ","cityKana":"ｻﾊﾞｴｼ","streetKana":"ﾋｶﾞｼﾖﾈｵｶ","prefecture":"福井県","city":"鯖江市","street":"東米岡"},{"zipCode":"9160053","prefectureKana":"ﾌｸｲｹﾝ","cityKana":"ｻﾊﾞｴｼ","streetKana":"ﾋﾉﾃﾞﾁｮｳ","prefecture":"福井県","city":"鯖江市","street":"日の出町"},{"zipCode":"9160061","prefectureKana":"ﾌｸｲｹﾝ","cityKana":"ｻﾊﾞｴｼ","streetKana":"ﾋﾗｲﾁｮｳ","prefecture":"福井県","city":"鯖江市","street":"平井町"},{"zipCode":"9160052","prefectureKana":"ﾌｸｲｹﾝ","cityKana":"ｻﾊﾞｴｼ","streetKana":"ﾌｶｴﾁｮｳ","prefecture":"福井県","city":"鯖江市","street":"深江町"},{"zipCode":"9160072","prefectureKana":"ﾌｸｲｹﾝ","cityKana":"ｻﾊﾞｴｼ","streetKana":"ﾌｼﾞﾏﾁｮｳ","prefecture":"福井県","city":"鯖江市","street":"冬島町"},{"zipCode":"9160032","prefectureKana":"ﾌｸｲｹﾝ","cityKana":"ｻﾊﾞｴｼ","streetKana":"ﾌﾅｴﾀﾞﾁｮｳ","prefecture":"福井県","city":"鯖江市","street":"舟枝町"},{"zipCode":"9160054","prefectureKana":"ﾌｸｲｹﾝ","cityKana":"ｻﾊﾞｴｼ","streetKana":"ﾌﾅﾂﾁｮｳ","prefecture":"福井県","city":"鯖江市","street":"舟津町"},{"zipCode":"9161225","prefectureKana":"ﾌｸｲｹﾝ","cityKana":"ｻﾊﾞｴｼ","streetKana":"ﾍﾞｯｼﾁｮｳ","prefecture":"福井県","city":"鯖江市","street":"別司町"},{"zipCode":"9161103","prefectureKana":"ﾌｸｲｹﾝ","cityKana":"ｻﾊﾞｴｼ","streetKana":"ﾍﾞｯｼｮﾁｮｳ","prefecture":"福井県","city":"鯖江市","street":"別所町"},{"zipCode":"9160026","prefectureKana":"ﾌｸｲｹﾝ","cityKana":"ｻﾊﾞｴｼ","streetKana":"ﾎﾝﾏﾁ","prefecture":"福井県","city":"鯖江市","street":"本町"},{"zipCode":"9161118","prefectureKana":"ﾌｸｲｹﾝ","cityKana":"ｻﾊﾞｴｼ","streetKana":"ﾏﾂﾅﾘﾁｮｳ","prefecture":"福井県","city":"鯖江市","street":"松成町"},{"zipCode":"9160019","prefectureKana":"ﾌｸｲｹﾝ","cityKana":"ｻﾊﾞｴｼ","streetKana":"ﾏﾙﾔﾏﾁｮｳ","prefecture":"福井県","city":"鯖江市","street":"丸山町"},{"zipCode":"9160007","prefectureKana":"ﾌｸｲｹﾝ","cityKana":"ｻﾊﾞｴｼ","streetKana":"ﾐｵﾉｼｭﾂｻｸﾁｮｳ","prefecture":"福井県","city":"鯖江市","street":"三尾野出作町"},{"zipCode":"9160022","prefectureKana":"ﾌｸｲｹﾝ","cityKana":"ｻﾊﾞｴｼ","streetKana":"ﾐｽﾞｵﾁﾁｮｳ","prefecture":"福井県","city":"鯖江市","street":"水落町"},{"zipCode":"9160045","prefectureKana":"ﾌｸｲｹﾝ","cityKana":"ｻﾊﾞｴｼ","streetKana":"ﾐﾔﾏｴ","prefecture":"福井県","city":"鯖江市","street":"宮前"},{"zipCode":"9160015","prefectureKana":"ﾌｸｲｹﾝ","cityKana":"ｻﾊﾞｴｼ","streetKana":"ﾐﾕｷﾁｮｳ","prefecture":"福井県","city":"鯖江市","street":"御幸町"},{"zipCode":"9160051","prefectureKana":"ﾌｸｲｹﾝ","cityKana":"ｻﾊﾞｴｼ","streetKana":"ﾔｶﾀﾁｮｳ","prefecture":"福井県","city":"鯖江市","street":"屋形町"},{"zipCode":"9160047","prefectureKana":"ﾌｸｲｹﾝ","cityKana":"ｻﾊﾞｴｼ","streetKana":"ﾔﾅｷﾞﾏﾁ","prefecture":"福井県","city":"鯖江市","street":"柳町"},{"zipCode":"9160046","prefectureKana":"ﾌｸｲｹﾝ","cityKana":"ｻﾊﾞｴｼ","streetKana":"ﾖｺｴﾁｮｳ","prefecture":"福井県","city":"鯖江市","street":"横江町"},{"zipCode":"9160036","prefectureKana":"ﾌｸｲｹﾝ","cityKana":"ｻﾊﾞｴｼ","streetKana":"ﾖｺｺﾞｼﾁｮｳ","prefecture":"福井県","city":"鯖江市","street":"横越町"},{"zipCode":"9160001","prefectureKana":"ﾌｸｲｹﾝ","cityKana":"ｻﾊﾞｴｼ","streetKana":"ﾖｼｴﾁｮｳ","prefecture":"福井県","city":"鯖江市","street":"吉江町"},{"zipCode":"9161105","prefectureKana":"ﾌｸｲｹﾝ","cityKana":"ｻﾊﾞｴｼ","streetKana":"ﾖｼﾀﾆﾁｮｳ","prefecture":"福井県","city":"鯖江市","street":"吉谷町"},{"zipCode":"9160086","prefectureKana":"ﾌｸｲｹﾝ","cityKana":"ｻﾊﾞｴｼ","streetKana":"ﾖｼﾀﾞﾁｮｳ","prefecture":"福井県","city":"鯖江市","street":"吉田町"},{"zipCode":"9160002","prefectureKana":"ﾌｸｲｹﾝ","cityKana":"ｻﾊﾞｴｼ","streetKana":"ﾖﾈｵｶﾁｮｳ","prefecture":"福井県","city":"鯖江市","street":"米岡町"},{"zipCode":"9160077","prefectureKana":"ﾌｸｲｹﾝ","cityKana":"ｻﾊﾞｴｼ","streetKana":"ﾜﾀﾞﾁｮｳ","prefecture":"福井県","city":"鯖江市","street":"和田町"},{"zipCode":"9160200","prefectureKana":"ﾌｸｲｹﾝ","cityKana":"ﾆｭｳｸﾞﾝｴﾁｾﾞﾝﾁｮｳ","streetKana":"ｲｶﾆｹｲｻｲｶﾞﾅｲﾊﾞｱｲ","prefecture":"福井県","city":"丹生郡越前町","street":"以下に掲載がない場合"},{"zipCode":"9160152","prefectureKana":"ﾌｸｲｹﾝ","cityKana":"ﾆｭｳｸﾞﾝｴﾁｾﾞﾝﾁｮｳ","streetKana":"ｱｵﾉ","prefecture":"福井県","city":"丹生郡越前町","street":"青野"},{"zipCode":"9160205","prefectureKana":"ﾌｸｲｹﾝ","cityKana":"ﾆｭｳｸﾞﾝｴﾁｾﾞﾝﾁｮｳ","streetKana":"ｱｶｲﾀﾞﾆ","prefecture":"福井県","city":"丹生郡越前町","street":"赤井谷"},{"zipCode":"9160146","prefectureKana":"ﾌｸｲｹﾝ","cityKana":"ﾆｭｳｸﾞﾝｴﾁｾﾞﾝﾁｮｳ","streetKana":"ｱｻﾋ","prefecture":"福井県","city":"丹生郡越前町","street":"朝日"},{"zipCode":"9160101","prefectureKana":"ﾌｸｲｹﾝ","cityKana":"ﾆｭｳｸﾞﾝｴﾁｾﾞﾝﾁｮｳ","streetKana":"ｱﾏﾀﾞﾆ","prefecture":"福井県","city":"丹生郡越前町","street":"天谷"},{"zipCode":"9160106","prefectureKana":"ﾌｸｲｹﾝ","cityKana":"ﾆｭｳｸﾞﾝｴﾁｾﾞﾝﾁｮｳ","streetKana":"ｲｶﾀﾞﾏ","prefecture":"福井県","city":"丹生郡越前町","street":"大玉"},{"zipCode":"9160135","prefectureKana":"ﾌｸｲｹﾝ","cityKana":"ﾆｭｳｸﾞﾝｴﾁｾﾞﾝﾁｮｳ","streetKana":"ｲﾁ","prefecture":"福井県","city":"丹生郡越前町","street":"市"},{"zipCode":"9160201","prefectureKana":"ﾌｸｲｹﾝ","cityKana":"ﾆｭｳｸﾞﾝｴﾁｾﾞﾝﾁｮｳ","streetKana":"ｲﾘｵ","prefecture":"福井県","city":"丹生郡越前町","street":"入尾"},{"zipCode":"9160145","prefectureKana":"ﾌｸｲｹﾝ","cityKana":"ﾆｭｳｸﾞﾝｴﾁｾﾞﾝﾁｮｳ","streetKana":"ｲﾜｶｲ","prefecture":"福井県","city":"丹生郡越前町","street":"岩開"},{"zipCode":"9160212","prefectureKana":"ﾌｸｲｹﾝ","cityKana":"ﾆｭｳｸﾞﾝｴﾁｾﾞﾝﾁｮｳ","streetKana":"ｲﾜｸﾗ","prefecture":"福井県","city":"丹生郡越前町","street":"岩倉"},{"zipCode":"9160126","prefectureKana":"ﾌｸｲｹﾝ","cityKana":"ﾆｭｳｸﾞﾝｴﾁｾﾞﾝﾁｮｳ","streetKana":"ｳｼｺﾞｴ","prefecture":"福井県","city":"丹生郡越前町","street":"牛越"},{"zipCode":"9160262","prefectureKana":"ﾌｸｲｹﾝ","cityKana":"ﾆｭｳｸﾞﾝｴﾁｾﾞﾝﾁｮｳ","streetKana":"ｳｽｵ","prefecture":"福井県","city":"丹生郡越前町","street":"宇須尾"},{"zipCode":"9160143","prefectureKana":"ﾌｸｲｹﾝ","cityKana":"ﾆｭｳｸﾞﾝｴﾁｾﾞﾝﾁｮｳ","streetKana":"ｳﾀﾞ","prefecture":"福井県","city":"丹生郡越前町","street":"宇田"},{"zipCode":"9160147","prefectureKana":"ﾌｸｲｹﾝ","cityKana":"ﾆｭｳｸﾞﾝｴﾁｾﾞﾝﾁｮｳ","streetKana":"ｳﾁｺﾞｵﾘ","prefecture":"福井県","city":"丹生郡越前町","street":"内郡"},{"zipCode":"9160216","prefectureKana":"ﾌｸｲｹﾝ","cityKana":"ﾆｭｳｸﾞﾝｴﾁｾﾞﾝﾁｮｳ","streetKana":"ｳﾁｺｼ","prefecture":"福井県","city":"丹生郡越前町","street":"打越"},{"zipCode":"9160311","prefectureKana":"ﾌｸｲｹﾝ","cityKana":"ﾆｭｳｸﾞﾝｴﾁｾﾞﾝﾁｮｳ","streetKana":"ｳﾒｳﾗ","prefecture":"福井県","city":"丹生郡越前町","street":"梅浦"},{"zipCode":"9160143","prefectureKana":"ﾌｸｲｹﾝ","cityKana":"ﾆｭｳｸﾞﾝｴﾁｾﾞﾝﾁｮｳ","streetKana":"ｳﾙｼﾓﾄ","prefecture":"福井県","city":"丹生郡越前町","street":"漆本"},{"zipCode":"9160214","prefectureKana":"ﾌｸｲｹﾝ","cityKana":"ﾆｭｳｸﾞﾝｴﾁｾﾞﾝﾁｮｳ","streetKana":"ｳﾜﾄﾞ","prefecture":"福井県","city":"丹生郡越前町","street":"上戸"},{"zipCode":"9160267","prefectureKana":"ﾌｸｲｹﾝ","cityKana":"ﾆｭｳｸﾞﾝｴﾁｾﾞﾝﾁｮｳ","streetKana":"ｳﾜﾉ","prefecture":"福井県","city":"丹生郡越前町","street":"上野"},{"zipCode":"9160255","prefectureKana":"ﾌｸｲｹﾝ","cityKana":"ﾆｭｳｸﾞﾝｴﾁｾﾞﾝﾁｮｳ","streetKana":"ｴﾅﾐ","prefecture":"福井県","city":"丹生郡越前町","street":"江波"},{"zipCode":"9160263","prefectureKana":"ﾌｸｲｹﾝ","cityKana":"ﾆｭｳｸﾞﾝｴﾁｾﾞﾝﾁｮｳ","streetKana":"ｴﾝﾏ","prefecture":"福井県","city":"丹生郡越前町","street":"円満"},{"zipCode":"9160206","prefectureKana":"ﾌｸｲｹﾝ","cityKana":"ﾆｭｳｸﾞﾝｴﾁｾﾞﾝﾁｮｳ","streetKana":"ｵｲﾏﾂ","prefecture":"福井県","city":"丹生郡越前町","street":"笈松"},{"zipCode":"9160251","prefectureKana":"ﾌｸｲｹﾝ","cityKana":"ﾆｭｳｸﾞﾝｴﾁｾﾞﾝﾁｮｳ","streetKana":"ｵｵﾀﾆ","prefecture":"福井県","city":"丹生郡越前町","street":"大谷"},{"zipCode":"9160117","prefectureKana":"ﾌｸｲｹﾝ","cityKana":"ﾆｭｳｸﾞﾝｴﾁｾﾞﾝﾁｮｳ","streetKana":"ｵｵﾀﾝｼﾞ","prefecture":"福井県","city":"丹生郡越前町","street":"大谷寺"},{"zipCode":"9160121","prefectureKana":"ﾌｸｲｹﾝ","cityKana":"ﾆｭｳｸﾞﾝｴﾁｾﾞﾝﾁｮｳ","streetKana":"ｵｵﾊﾞﾀ","prefecture":"福井県","city":"丹生郡越前町","street":"大畑"},{"zipCode":"9160108","prefectureKana":"ﾌｸｲｹﾝ","cityKana":"ﾆｭｳｸﾞﾝｴﾁｾﾞﾝﾁｮｳ","streetKana":"ｵｶﾞﾜ","prefecture":"福井県","city":"丹生郡越前町","street":"小川"},{"zipCode":"9160111","prefectureKana":"ﾌｸｲｹﾝ","cityKana":"ﾆｭｳｸﾞﾝｴﾁｾﾞﾝﾁｮｳ","streetKana":"ｵｸﾞﾗ","prefecture":"福井県","city":"丹生郡越前町","street":"小倉"},{"zipCode":"9160316","prefectureKana":"ﾌｸｲｹﾝ","cityKana":"ﾆｭｳｸﾞﾝｴﾁｾﾞﾝﾁｮｳ","streetKana":"ｵｺﾉｷﾞ","prefecture":"福井県","city":"丹生郡越前町","street":"大樟"},{"zipCode":"9160273","prefectureKana":"ﾌｸｲｹﾝ","cityKana":"ﾆｭｳｸﾞﾝｴﾁｾﾞﾝﾁｮｳ","streetKana":"ｵｿﾞﾜﾗ","prefecture":"福井県","city":"丹生郡越前町","street":"小曽原"},{"zipCode":"9160215","prefectureKana":"ﾌｸｲｹﾝ","cityKana":"ﾆｭｳｸﾞﾝｴﾁｾﾞﾝﾁｮｳ","streetKana":"ｵﾀ","prefecture":"福井県","city":"丹生郡越前町","street":"織田"},{"zipCode":"9160131","prefectureKana":"ﾌｸｲｹﾝ","cityKana":"ﾆｭｳｸﾞﾝｴﾁｾﾞﾝﾁｮｳ","streetKana":"ｵﾂｻｶ","prefecture":"福井県","city":"丹生郡越前町","street":"乙坂"},{"zipCode":"9160272","prefectureKana":"ﾌｸｲｹﾝ","cityKana":"ﾆｭｳｸﾞﾝｴﾁｾﾞﾝﾁｮｳ","streetKana":"ｶｼﾂﾞ","prefecture":"福井県","city":"丹生郡越前町","street":"樫津"},{"zipCode":"9160153","prefectureKana":"ﾌｸｲｹﾝ","cityKana":"ﾆｭｳｸﾞﾝｴﾁｾﾞﾝﾁｮｳ","streetKana":"ｶｼﾗﾀﾞﾆ","prefecture":"福井県","city":"丹生郡越前町","street":"頭谷"},{"zipCode":"9160112","prefectureKana":"ﾌｸｲｹﾝ","cityKana":"ﾆｭｳｸﾞﾝｴﾁｾﾞﾝﾁｮｳ","streetKana":"ｶｽﾞﾗﾉ","prefecture":"福井県","city":"丹生郡越前町","street":"葛野"},{"zipCode":"9160253","prefectureKana":"ﾌｸｲｹﾝ","cityKana":"ﾆｭｳｸﾞﾝｴﾁｾﾞﾝﾁｮｳ","streetKana":"ｶﾀﾞﾝｼﾞ","prefecture":"福井県","city":"丹生郡越前町","street":"蚊谷寺"},{"zipCode":"9160151","prefectureKana":"ﾌｸｲｹﾝ","cityKana":"ﾆｭｳｸﾞﾝｴﾁｾﾞﾝﾁｮｳ","streetKana":"ｶﾅﾔ","prefecture":"福井県","city":"丹生郡越前町","street":"金谷"},{"zipCode":"9160107","prefectureKana":"ﾌｸｲｹﾝ","cityKana":"ﾆｭｳｸﾞﾝｴﾁｾﾞﾝﾁｮｳ","streetKana":"ｶﾐｲﾄｳ","prefecture":"福井県","city":"丹生郡越前町","street":"上糸生"},{"zipCode":"9160142","prefectureKana":"ﾌｸｲｹﾝ","cityKana":"ﾆｭｳｸﾞﾝｴﾁｾﾞﾝﾁｮｳ","streetKana":"ｶﾐｶﾜｻﾘ","prefecture":"福井県","city":"丹生郡越前町","street":"上川去"},{"zipCode":"9160225","prefectureKana":"ﾌｸｲｹﾝ","cityKana":"ﾆｭｳｸﾞﾝｴﾁｾﾞﾝﾁｮｳ","streetKana":"ｶﾐﾔﾏﾅｶ","prefecture":"福井県","city":"丹生郡越前町","street":"上山中"},{"zipCode":"9160133","prefectureKana":"ﾌｸｲｹﾝ","cityKana":"ﾆｭｳｸﾞﾝｴﾁｾﾞﾝﾁｮｳ","streetKana":"ｷﾋｼｮｳ","prefecture":"福井県","city":"丹生郡越前町","street":"気比庄"},{"zipCode":"9160275","prefectureKana":"ﾌｸｲｹﾝ","cityKana":"ﾆｭｳｸﾞﾝｴﾁｾﾞﾝﾁｮｳ","streetKana":"ｸﾏﾀﾞﾆ","prefecture":"福井県","city":"丹生郡越前町","street":"熊谷"},{"zipCode":"9160155","prefectureKana":"ﾌｸｲｹﾝ","cityKana":"ﾆｭｳｸﾞﾝｴﾁｾﾞﾝﾁｮｳ","streetKana":"ｸﾞﾐﾜﾗ","prefecture":"福井県","city":"丹生郡越前町","street":"茱原"},{"zipCode":"9160422","prefectureKana":"ﾌｸｲｹﾝ","cityKana":"ﾆｭｳｸﾞﾝｴﾁｾﾞﾝﾁｮｳ","streetKana":"ｸﾘﾔ","prefecture":"福井県","city":"丹生郡越前町","street":"厨"},{"zipCode":"9160315","prefectureKana":"ﾌｸｲｹﾝ","cityKana":"ﾆｭｳｸﾞﾝｴﾁｾﾞﾝﾁｮｳ","streetKana":"ｺｺﾉｷﾞ","prefecture":"福井県","city":"丹生郡越前町","street":"小樟"},{"zipCode":"9160428","prefectureKana":"ﾌｸｲｹﾝ","cityKana":"ﾆｭｳｸﾞﾝｴﾁｾﾞﾝﾁｮｳ","streetKana":"ｺﾞﾎﾞｳｶﾞﾀﾞｲﾗ","prefecture":"福井県","city":"丹生郡越前町","street":"午房ケ平"},{"zipCode":"9160426","prefectureKana":"ﾌｸｲｹﾝ","cityKana":"ﾆｭｳｸﾞﾝｴﾁｾﾞﾝﾁｮｳ","streetKana":"ｺﾒﾉ","prefecture":"福井県","city":"丹生郡越前町","street":"米ノ"},{"zipCode":"9160154","prefectureKana":"ﾌｸｲｹﾝ","cityKana":"ﾆｭｳｸﾞﾝｴﾁｾﾞﾝﾁｮｳ","streetKana":"ｻｶｲﾉ","prefecture":"福井県","city":"丹生郡越前町","street":"境野"},{"zipCode":"9160213","prefectureKana":"ﾌｸｲｹﾝ","cityKana":"ﾆｭｳｸﾞﾝｴﾁｾﾞﾝﾁｮｳ","streetKana":"ｻｸﾗﾀﾞﾆ","prefecture":"福井県","city":"丹生郡越前町","street":"桜谷"},{"zipCode":"9160211","prefectureKana":"ﾌｸｲｹﾝ","cityKana":"ﾆｭｳｸﾞﾝｴﾁｾﾞﾝﾁｮｳ","streetKana":"ｻｻｶﾞﾜ","prefecture":"福井県","city":"丹生郡越前町","street":"笹川"},{"zipCode":"9160144","prefectureKana":"ﾌｸｲｹﾝ","cityKana":"ﾆｭｳｸﾞﾝｴﾁｾﾞﾝﾁｮｳ","streetKana":"ｻｿｳ","prefecture":"福井県","city":"丹生郡越前町","street":"佐々生"},{"zipCode":"9160114","prefectureKana":"ﾌｸｲｹﾝ","cityKana":"ﾆｭｳｸﾞﾝｴﾁｾﾞﾝﾁｮｳ","streetKana":"ｼﾓｲﾄｳ","prefecture":"福井県","city":"丹生郡越前町","street":"下糸生"},{"zipCode":"9160223","prefectureKana":"ﾌｸｲｹﾝ","cityKana":"ﾆｭｳｸﾞﾝｴﾁｾﾞﾝﾁｮｳ","streetKana":"ｼﾓｶﾞﾜﾗ","prefecture":"福井県","city":"丹生郡越前町","street":"下河原"},{"zipCode":"9160226","prefectureKana":"ﾌｸｲｹﾝ","cityKana":"ﾆｭｳｸﾞﾝｴﾁｾﾞﾝﾁｮｳ","streetKana":"ｼﾓﾔﾏﾅｶ","prefecture":"福井県","city":"丹生郡越前町","street":"下山中"},{"zipCode":"9160312","prefectureKana":"ﾌｸｲｹﾝ","cityKana":"ﾆｭｳｸﾞﾝｴﾁｾﾞﾝﾁｮｳ","streetKana":"ｼｭｸ","prefecture":"福井県","city":"丹生郡越前町","street":"宿"},{"zipCode":"9160314","prefectureKana":"ﾌｸｲｹﾝ","cityKana":"ﾆｭｳｸﾞﾝｴﾁｾﾞﾝﾁｮｳ","streetKana":"ｼﾞｮｳｶﾞﾀﾆ","prefecture":"福井県","city":"丹生郡越前町","street":"城ケ谷"},{"zipCode":"9160105","prefectureKana":"ﾌｸｲｹﾝ","cityKana":"ﾆｭｳｸﾞﾝｴﾁｾﾞﾝﾁｮｳ","streetKana":"ｼｮｳｽﾞ","prefecture":"福井県","city":"丹生郡越前町","street":"清水"},{"zipCode":"9160424","prefectureKana":"ﾌｸｲｹﾝ","cityKana":"ﾆｭｳｸﾞﾝｴﾁｾﾞﾝﾁｮｳ","streetKana":"ｼﾗﾊﾏ","prefecture":"福井県","city":"丹生郡越前町","street":"白浜"},{"zipCode":"9160134","prefectureKana":"ﾌｸｲｹﾝ","cityKana":"ﾆｭｳｸﾞﾝｴﾁｾﾞﾝﾁｮｳ","streetKana":"ｼﾝｼｮｳ","prefecture":"福井県","city":"丹生郡越前町","street":"新庄"},{"zipCode":"9160313","prefectureKana":"ﾌｸｲｹﾝ","cityKana":"ﾆｭｳｸﾞﾝｴﾁｾﾞﾝﾁｮｳ","streetKana":"ｼﾝﾎﾞ","prefecture":"福井県","city":"丹生郡越前町","street":"新保"},{"zipCode":"9160268","prefectureKana":"ﾌｸｲｹﾝ","cityKana":"ﾆｭｳｸﾞﾝｴﾁｾﾞﾝﾁｮｳ","streetKana":"ｽｴﾉﾀﾆ","prefecture":"福井県","city":"丹生郡越前町","street":"陶の谷"},{"zipCode":"9160252","prefectureKana":"ﾌｸｲｹﾝ","cityKana":"ﾆｭｳｸﾞﾝｴﾁｾﾞﾝﾁｮｳ","streetKana":"ｾﾐｸﾞﾁ","prefecture":"福井県","city":"丹生郡越前町","street":"蝉口"},{"zipCode":"9160302","prefectureKana":"ﾌｸｲｹﾝ","cityKana":"ﾆｭｳｸﾞﾝｴﾁｾﾞﾝﾁｮｳ","streetKana":"ｿｳ","prefecture":"福井県","city":"丹生郡越前町","street":"左右"},{"zipCode":"9160222","prefectureKana":"ﾌｸｲｹﾝ","cityKana":"ﾆｭｳｸﾞﾝｴﾁｾﾞﾝﾁｮｳ","streetKana":"ﾀﾞｲｵｳﾏﾙ","prefecture":"福井県","city":"丹生郡越前町","street":"大王丸"},{"zipCode":"9160224","prefectureKana":"ﾌｸｲｹﾝ","cityKana":"ﾆｭｳｸﾞﾝｴﾁｾﾞﾝﾁｮｳ","streetKana":"ﾀｲﾗ","prefecture":"福井県","city":"丹生郡越前町","street":"平等"},{"zipCode":"9160425","prefectureKana":"ﾌｸｲｹﾝ","cityKana":"ﾆｭｳｸﾞﾝｴﾁｾﾞﾝﾁｮｳ","streetKana":"ﾀｶｻ","prefecture":"福井県","city":"丹生郡越前町","street":"高佐"},{"zipCode":"9160132","prefectureKana":"ﾌｸｲｹﾝ","cityKana":"ﾆｭｳｸﾞﾝｴﾁｾﾞﾝﾁｮｳ","streetKana":"ﾀﾅｶ","prefecture":"福井県","city":"丹生郡越前町","street":"田中"},{"zipCode":"9160304","prefectureKana":"ﾌｸｲｹﾝ","cityKana":"ﾆｭｳｸﾞﾝｴﾁｾﾞﾝﾁｮｳ","streetKana":"ﾀﾏｶﾞﾜ","prefecture":"福井県","city":"丹生郡越前町","street":"玉川"},{"zipCode":"9160303","prefectureKana":"ﾌｸｲｹﾝ","cityKana":"ﾆｭｳｸﾞﾝｴﾁｾﾞﾝﾁｮｳ","streetKana":"ﾁｶﾞﾀﾞｲﾗ","prefecture":"福井県","city":"丹生郡越前町","street":"血ケ平"},{"zipCode":"9160103","prefectureKana":"ﾌｸｲｹﾝ","cityKana":"ﾆｭｳｸﾞﾝｴﾁｾﾞﾝﾁｮｳ","streetKana":"ﾂｴﾀﾃ","prefecture":"福井県","city":"丹生郡越前町","street":"杖立"},{"zipCode":"9160266","prefectureKana":"ﾌｸｲｹﾝ","cityKana":"ﾆｭｳｸﾞﾝｴﾁｾﾞﾝﾁｮｳ","streetKana":"ﾃﾗ","prefecture":"福井県","city":"丹生郡越前町","street":"寺"},{"zipCode":"9160122","prefectureKana":"ﾌｸｲｹﾝ","cityKana":"ﾆｭｳｸﾞﾝｴﾁｾﾞﾝﾁｮｳ","streetKana":"ﾃﾝﾉｳ","prefecture":"福井県","city":"丹生郡越前町","street":"天王"},{"zipCode":"9160123","prefectureKana":"ﾌｸｲｹﾝ","cityKana":"ﾆｭｳｸﾞﾝｴﾁｾﾞﾝﾁｮｳ","streetKana":"ﾃﾝﾎﾟｳ","prefecture":"福井県","city":"丹生郡越前町","street":"天宝"},{"zipCode":"9160136","prefectureKana":"ﾌｸｲｹﾝ","cityKana":"ﾆｭｳｸﾞﾝｴﾁｾﾞﾝﾁｮｳ","streetKana":"ﾄﾁｶﾜ","prefecture":"福井県","city":"丹生郡越前町","street":"栃川"},{"zipCode":"9160204","prefectureKana":"ﾌｸｲｹﾝ","cityKana":"ﾆｭｳｸﾞﾝｴﾁｾﾞﾝﾁｮｳ","streetKana":"ﾅｶ","prefecture":"福井県","city":"丹生郡越前町","street":"中"},{"zipCode":"9160116","prefectureKana":"ﾌｸｲｹﾝ","cityKana":"ﾆｭｳｸﾞﾝｴﾁｾﾞﾝﾁｮｳ","streetKana":"ﾅｶﾉ","prefecture":"福井県","city":"丹生郡越前町","street":"中野"},{"zipCode":"9160301","prefectureKana":"ﾌｸｲｹﾝ","cityKana":"ﾆｭｳｸﾞﾝｴﾁｾﾞﾝﾁｮｳ","streetKana":"ﾅｼｶﾞﾀﾞｲﾗ","prefecture":"福井県","city":"丹生郡越前町","street":"梨子ヶ平"},{"zipCode":"9160219","prefectureKana":"ﾌｸｲｹﾝ","cityKana":"ﾆｭｳｸﾞﾝｴﾁｾﾞﾝﾁｮｳ","streetKana":"ﾆｼｶﾞｵｶ","prefecture":"福井県","city":"丹生郡越前町","street":"西ケ丘"},{"zipCode":"9160141","prefectureKana":"ﾌｸｲｹﾝ","cityKana":"ﾆｭｳｸﾞﾝｴﾁｾﾞﾝﾁｮｳ","streetKana":"ﾆｼﾀﾅｶ","prefecture":"福井県","city":"丹生郡越前町","street":"西田中"},{"zipCode":"9160261","prefectureKana":"ﾌｸｲｹﾝ","cityKana":"ﾆｭｳｸﾞﾝｴﾁｾﾞﾝﾁｮｳ","streetKana":"ﾉ","prefecture":"福井県","city":"丹生郡越前町","street":"野"},{"zipCode":"9160127","prefectureKana":"ﾌｸｲｹﾝ","cityKana":"ﾆｭｳｸﾞﾝｴﾁｾﾞﾝﾁｮｳ","streetKana":"ﾉｽﾞｴ","prefecture":"福井県","city":"丹生郡越前町","street":"野末"},{"zipCode":"9160113","prefectureKana":"ﾌｸｲｹﾝ","cityKana":"ﾆｭｳｸﾞﾝｴﾁｾﾞﾝﾁｮｳ","streetKana":"ﾉﾀﾞ","prefecture":"福井県","city":"丹生郡越前町","street":"野田"},{"zipCode":"9160218","prefectureKana":"ﾌｸｲｹﾝ","cityKana":"ﾆｭｳｸﾞﾝｴﾁｾﾞﾝﾁｮｳ","streetKana":"ﾊｷﾞﾉ","prefecture":"福井県","city":"丹生郡越前町","street":"萩野"},{"zipCode":"9160264","prefectureKana":"ﾌｸｲｹﾝ","cityKana":"ﾆｭｳｸﾞﾝｴﾁｾﾞﾝﾁｮｳ","streetKana":"ﾊｯﾀ","prefecture":"福井県","city":"丹生郡越前町","street":"八田"},{"zipCode":"9160265","prefectureKana":"ﾌｸｲｹﾝ","cityKana":"ﾆｭｳｸﾞﾝｴﾁｾﾞﾝﾁｮｳ","streetKana":"ﾊｯﾀｼﾝﾎﾞ","prefecture":"福井県","city":"丹生郡越前町","street":"八田新保"},{"zipCode":"9160156","prefectureKana":"ﾌｸｲｹﾝ","cityKana":"ﾆｭｳｸﾞﾝｴﾁｾﾞﾝﾁｮｳ","streetKana":"ﾋｶﾞｼｳﾁｺﾞｵﾘ","prefecture":"福井県","city":"丹生郡越前町","street":"東内郡"},{"zipCode":"9160254","prefectureKana":"ﾌｸｲｹﾝ","cityKana":"ﾆｭｳｸﾞﾝｴﾁｾﾞﾝﾁｮｳ","streetKana":"ﾋﾛﾉ","prefecture":"福井県","city":"丹生郡越前町","street":"広野"},{"zipCode":"9160271","prefectureKana":"ﾌｸｲｹﾝ","cityKana":"ﾆｭｳｸﾞﾝｴﾁｾﾞﾝﾁｮｳ","streetKana":"ﾌﾅﾊﾞ","prefecture":"福井県","city":"丹生郡越前町","street":"舟場"},{"zipCode":"9160276","prefectureKana":"ﾌｸｲｹﾝ","cityKana":"ﾆｭｳｸﾞﾝｴﾁｾﾞﾝﾁｮｳ","streetKana":"ﾌﾙﾔ","prefecture":"福井県","city":"丹生郡越前町","street":"古屋"},{"zipCode":"9160124","prefectureKana":"ﾌｸｲｹﾝ","cityKana":"ﾆｭｳｸﾞﾝｴﾁｾﾞﾝﾁｮｳ","streetKana":"ﾎｳｾﾝｼﾞ","prefecture":"福井県","city":"丹生郡越前町","street":"宝泉寺"},{"zipCode":"9160202","prefectureKana":"ﾌｸｲｹﾝ","cityKana":"ﾆｭｳｸﾞﾝｴﾁｾﾞﾝﾁｮｳ","streetKana":"ﾎｿﾉ","prefecture":"福井県","city":"丹生郡越前町","street":"細野"},{"zipCode":"9160102","prefectureKana":"ﾌｸｲｹﾝ","cityKana":"ﾆｭｳｸﾞﾝｴﾁｾﾞﾝﾁｮｳ","streetKana":"ﾏｷ","prefecture":"福井県","city":"丹生郡越前町","street":"真木"},{"zipCode":"9160274","prefectureKana":"ﾌｸｲｹﾝ","cityKana":"ﾆｭｳｸﾞﾝｴﾁｾﾞﾝﾁｮｳ","streetKana":"ﾏｽﾀﾆ","prefecture":"福井県","city":"丹生郡越前町","street":"増谷"},{"zipCode":"9160217","prefectureKana":"ﾌｸｲｹﾝ","cityKana":"ﾆｭｳｸﾞﾝｴﾁｾﾞﾝﾁｮｳ","streetKana":"ﾏﾙﾔﾏ","prefecture":"福井県","city":"丹生郡越前町","street":"丸山"},{"zipCode":"9160221","prefectureKana":"ﾌｸｲｹﾝ","cityKana":"ﾆｭｳｸﾞﾝｴﾁｾﾞﾝﾁｮｳ","streetKana":"ﾐｻｷ","prefecture":"福井県","city":"丹生郡越前町","street":"三崎"},{"zipCode":"9160421","prefectureKana":"ﾌｸｲｹﾝ","cityKana":"ﾆｭｳｸﾞﾝｴﾁｾﾞﾝﾁｮｳ","streetKana":"ﾐﾁｸﾞﾁ","prefecture":"福井県","city":"丹生郡越前町","street":"道口"},{"zipCode":"9160137","prefectureKana":"ﾌｸｲｹﾝ","cityKana":"ﾆｭｳｸﾞﾝｴﾁｾﾞﾝﾁｮｳ","streetKana":"ﾐﾔﾉﾆｼﾀﾞﾝﾁ","prefecture":"福井県","city":"丹生郡越前町","street":"宮の西団地"},{"zipCode":"9160423","prefectureKana":"ﾌｸｲｹﾝ","cityKana":"ﾆｭｳｸﾞﾝｴﾁｾﾞﾝﾁｮｳ","streetKana":"ﾓﾊﾗ","prefecture":"福井県","city":"丹生郡越前町","street":"茂原"},{"zipCode":"9160104","prefectureKana":"ﾌｸｲｹﾝ","cityKana":"ﾆｭｳｸﾞﾝｴﾁｾﾞﾝﾁｮｳ","streetKana":"ﾓﾘ","prefecture":"福井県","city":"丹生郡越前町","street":"森"},{"zipCode":"9160203","prefectureKana":"ﾌｸｲｹﾝ","cityKana":"ﾆｭｳｸﾞﾝｴﾁｾﾞﾝﾁｮｳ","streetKana":"ﾔﾏﾀﾞ","prefecture":"福井県","city":"丹生郡越前町","street":"山田"},{"zipCode":"9160125","prefectureKana":"ﾌｸｲｹﾝ","cityKana":"ﾆｭｳｸﾞﾝｴﾁｾﾞﾝﾁｮｳ","streetKana":"ﾖｺﾔﾏ","prefecture":"福井県","city":"丹生郡越前町","street":"横山"},{"zipCode":"9160227","prefectureKana":"ﾌｸｲｹﾝ","cityKana":"ﾆｭｳｸﾞﾝｴﾁｾﾞﾝﾁｮｳ","streetKana":"ﾖﾂｽｷﾞ","prefecture":"福井県","city":"丹生郡越前町","street":"四ツ杉"},{"zipCode":"9160427","prefectureKana":"ﾌｸｲｹﾝ","cityKana":"ﾆｭｳｸﾞﾝｴﾁｾﾞﾝﾁｮｳ","streetKana":"ﾛｸﾛｼ","prefecture":"福井県","city":"丹生郡越前町","street":"六呂師"},{"zipCode":"9160115","prefectureKana":"ﾌｸｲｹﾝ","cityKana":"ﾆｭｳｸﾞﾝｴﾁｾﾞﾝﾁｮｳ","streetKana":"ﾜｷ","prefecture":"福井県","city":"丹生郡越前町","street":"脇"}]