[{"zipCode":"9200000","prefectureKana":"ｲｼｶﾜｹﾝ","cityKana":"ｶﾅｻﾞﾜｼ","streetKana":"ｲｶﾆｹｲｻｲｶﾞﾅｲﾊﾞｱｲ","prefecture":"石川県","city":"金沢市","street":"以下に掲載がない場合"},{"zipCode":"9200907","prefectureKana":"ｲｼｶﾜｹﾝ","cityKana":"ｶﾅｻﾞﾜｼ","streetKana":"ｱｵｸｻﾏﾁ","prefecture":"石川県","city":"金沢市","street":"青草町"},{"zipCode":"9201322","prefectureKana":"ｲｼｶﾜｹﾝ","cityKana":"ｶﾅｻﾞﾜｼ","streetKana":"ｱｵﾀﾞﾆﾏﾁ","prefecture":"石川県","city":"金沢市","street":"相合谷町"},{"zipCode":"9200926","prefectureKana":"ｲｼｶﾜｹﾝ","cityKana":"ｶﾅｻﾞﾜｼ","streetKana":"ｱｶﾂｷﾏﾁ","prefecture":"石川県","city":"金沢市","street":"暁町"},{"zipCode":"9200353","prefectureKana":"ｲｼｶﾜｹﾝ","cityKana":"ｶﾅｻﾞﾜｼ","streetKana":"ｱｶﾂﾁﾏﾁ","prefecture":"石川県","city":"金沢市","street":"赤土町"},{"zipCode":"9200111","prefectureKana":"ｲｼｶﾜｹﾝ","cityKana":"ｶﾅｻﾞﾜｼ","streetKana":"ｱｻｵｶﾏﾁ","prefecture":"石川県","city":"金沢市","street":"浅丘町"},{"zipCode":"9201132","prefectureKana":"ｲｼｶﾜｹﾝ","cityKana":"ｶﾅｻﾞﾜｼ","streetKana":"ｱｻｶﾔﾏﾁ","prefecture":"石川県","city":"金沢市","street":"朝加屋町"},{"zipCode":"9201145","prefectureKana":"ｲｼｶﾜｹﾝ","cityKana":"ｶﾅｻﾞﾜｼ","streetKana":"ｱｻｶﾜﾏﾁ","prefecture":"石川県","city":"金沢市","street":"浅川町"},{"zipCode":"9201158","prefectureKana":"ｲｼｶﾜｹﾝ","cityKana":"ｶﾅｻﾞﾜｼ","streetKana":"ｱｻｷﾞﾘﾀﾞｲ","prefecture":"石川県","city":"金沢市","street":"朝霧台"},{"zipCode":"9200841","prefectureKana":"ｲｼｶﾜｹﾝ","cityKana":"ｶﾅｻﾞﾜｼ","streetKana":"ｱｻﾉﾎﾝﾏﾁ","prefecture":"石川県","city":"金沢市","street":"浅野本町"},{"zipCode":"9200126","prefectureKana":"ｲｼｶﾜｹﾝ","cityKana":"ｶﾅｻﾞﾜｼ","streetKana":"ｱｻﾋﾏｷﾏﾁ","prefecture":"石川県","city":"金沢市","street":"朝日牧町"},{"zipCode":"9200941","prefectureKana":"ｲｼｶﾜｹﾝ","cityKana":"ｶﾅｻﾞﾜｼ","streetKana":"ｱｻﾋﾏﾁ","prefecture":"石川県","city":"金沢市","street":"旭町"},{"zipCode":"9201107","prefectureKana":"ｲｼｶﾜｹﾝ","cityKana":"ｶﾅｻﾞﾜｼ","streetKana":"ｱｽﾞｷｻﾞﾜﾏﾁ","prefecture":"石川県","city":"金沢市","street":"小豆沢町"},{"zipCode":"9200996","prefectureKana":"ｲｼｶﾜｹﾝ","cityKana":"ｶﾅｻﾞﾜｼ","streetKana":"ｱﾌﾞﾗｸﾞﾙﾏ","prefecture":"石川県","city":"金沢市","street":"油車"},{"zipCode":"9201331","prefectureKana":"ｲｼｶﾜｹﾝ","cityKana":"ｶﾅｻﾞﾜｼ","streetKana":"ｱﾏｲｹﾏﾁ","prefecture":"石川県","city":"金沢市","street":"天池町"},{"zipCode":"9203124","prefectureKana":"ｲｼｶﾜｹﾝ","cityKana":"ｶﾅｻﾞﾜｼ","streetKana":"ｱﾗﾔ","prefecture":"石川県","city":"金沢市","street":"荒屋"},{"zipCode":"9203125","prefectureKana":"ｲｼｶﾜｹﾝ","cityKana":"ｶﾅｻﾞﾜｼ","streetKana":"ｱﾗﾔﾏﾁ","prefecture":"石川県","city":"金沢市","street":"荒屋町"},{"zipCode":"9201101","prefectureKana":"ｲｼｶﾜｹﾝ","cityKana":"ｶﾅｻﾞﾜｼ","streetKana":"ｱﾗﾔﾏﾏﾁ","prefecture":"石川県","city":"金沢市","street":"荒山町"},{"zipCode":"9200226","prefectureKana":"ｲｼｶﾜｹﾝ","cityKana":"ｶﾅｻﾞﾜｼ","streetKana":"ｱﾜｶﾞｻｷﾏﾁ","prefecture":"石川県","city":"金沢市","street":"粟崎町"},{"zipCode":"9200227","prefectureKana":"ｲｼｶﾜｹﾝ","cityKana":"ｶﾅｻﾞﾜｼ","streetKana":"ｱﾜｶﾞｻｷﾊﾏﾏﾁ","prefecture":"石川県","city":"金沢市","street":"粟崎浜町"},{"zipCode":"9200983","prefectureKana":"ｲｼｶﾜｹﾝ","cityKana":"ｶﾅｻﾞﾜｼ","streetKana":"ｲｹﾀﾞﾏﾁ1ﾊﾞﾝﾁｮｳ","prefecture":"石川県","city":"金沢市","street":"池田町一番丁"},{"zipCode":"9200984","prefectureKana":"ｲｼｶﾜｹﾝ","cityKana":"ｶﾅｻﾞﾜｼ","streetKana":"ｲｹﾀﾞﾏﾁ2ﾊﾞﾝﾁｮｳ","prefecture":"石川県","city":"金沢市","street":"池田町二番丁"},{"zipCode":"9200985","prefectureKana":"ｲｼｶﾜｹﾝ","cityKana":"ｶﾅｻﾞﾜｼ","streetKana":"ｲｹﾀﾞﾏﾁ3ﾊﾞﾝﾁｮｳ","prefecture":"石川県","city":"金沢市","street":"池田町三番丁"},{"zipCode":"9200986","prefectureKana":"ｲｼｶﾜｹﾝ","cityKana":"ｶﾅｻﾞﾜｼ","streetKana":"ｲｹﾀﾞﾏﾁ4ﾊﾞﾝﾁｮｳ","prefecture":"石川県","city":"金沢市","street":"池田町四番丁"},{"zipCode":"9200987","prefectureKana":"ｲｼｶﾜｹﾝ","cityKana":"ｶﾅｻﾞﾜｼ","streetKana":"ｲｹﾀﾞﾏﾁﾀﾃﾁｮｳ","prefecture":"石川県","city":"金沢市","street":"池田町立丁"},{"zipCode":"9201115","prefectureKana":"ｲｼｶﾜｹﾝ","cityKana":"ｶﾅｻﾞﾜｼ","streetKana":"ｲｼｸﾞﾛﾏﾁ","prefecture":"石川県","city":"金沢市","street":"石黒町"},{"zipCode":"9200935","prefectureKana":"ｲｼｶﾜｹﾝ","cityKana":"ｶﾅｻﾞﾜｼ","streetKana":"ｲｼﾋﾞｷ","prefecture":"石川県","city":"金沢市","street":"石引"},{"zipCode":"9200056","prefectureKana":"ｲｼｶﾜｹﾝ","cityKana":"ｶﾅｻﾞﾜｼ","streetKana":"ｲｽﾞﾓﾏﾁ","prefecture":"石川県","city":"金沢市","street":"出雲町"},{"zipCode":"9200012","prefectureKana":"ｲｼｶﾜｹﾝ","cityKana":"ｶﾅｻﾞﾜｼ","streetKana":"ｲｿﾍﾞﾏﾁ","prefecture":"石川県","city":"金沢市","street":"磯部町"},{"zipCode":"9201116","prefectureKana":"ｲｼｶﾜｹﾝ","cityKana":"ｶﾅｻﾞﾜｼ","streetKana":"ｲﾀｶﾞﾔﾏﾁ","prefecture":"石川県","city":"金沢市","street":"板ケ谷町"},{"zipCode":"9200145","prefectureKana":"ｲｼｶﾜｹﾝ","cityKana":"ｶﾅｻﾞﾜｼ","streetKana":"ｲﾁﾉｾﾏﾁ","prefecture":"石川県","city":"金沢市","street":"市瀬町"},{"zipCode":"9200378","prefectureKana":"ｲｼｶﾜｹﾝ","cityKana":"ｶﾅｻﾞﾜｼ","streetKana":"ｲﾅﾎ","prefecture":"石川県","city":"金沢市","street":"いなほ"},{"zipCode":"9200994","prefectureKana":"ｲｼｶﾜｹﾝ","cityKana":"ｶﾅｻﾞﾜｼ","streetKana":"ｲﾊﾞﾗｷﾞﾁｮｳ","prefecture":"石川県","city":"金沢市","street":"茨木町"},{"zipCode":"9200125","prefectureKana":"ｲｼｶﾜｹﾝ","cityKana":"ｶﾅｻﾞﾜｼ","streetKana":"ｲﾏｲｽﾞﾐﾏﾁ","prefecture":"石川県","city":"金沢市","street":"今泉町"},{"zipCode":"9200008","prefectureKana":"ｲｼｶﾜｹﾝ","cityKana":"ｶﾅｻﾞﾜｼ","streetKana":"ｲﾏｼｮｳﾏﾁ","prefecture":"石川県","city":"金沢市","street":"今昭町"},{"zipCode":"9200106","prefectureKana":"ｲｼｶﾜｹﾝ","cityKana":"ｶﾅｻﾞﾜｼ","streetKana":"ｲﾏﾏﾁ","prefecture":"石川県","city":"金沢市","street":"今町"},{"zipCode":"9200171","prefectureKana":"ｲｼｶﾜｹﾝ","cityKana":"ｶﾅｻﾞﾜｼ","streetKana":"ｲﾜﾃﾞﾏﾁ","prefecture":"石川県","city":"金沢市","street":"岩出町"},{"zipCode":"9200943","prefectureKana":"ｲｼｶﾜｹﾝ","cityKana":"ｶﾅｻﾞﾜｼ","streetKana":"ｳｴﾉﾎﾝﾏﾁ","prefecture":"石川県","city":"金沢市","street":"上野本町"},{"zipCode":"9201113","prefectureKana":"ｲｼｶﾜｹﾝ","cityKana":"ｶﾅｻﾞﾜｼ","streetKana":"ｳｴﾔﾏﾏﾁ","prefecture":"石川県","city":"金沢市","street":"上山町"},{"zipCode":"9201111","prefectureKana":"ｲｼｶﾜｹﾝ","cityKana":"ｶﾅｻﾞﾜｼ","streetKana":"ｳｵｶﾞｴﾘﾏﾁ","prefecture":"石川県","city":"金沢市","street":"魚帰町"},{"zipCode":"9200837","prefectureKana":"ｲｼｶﾜｹﾝ","cityKana":"ｶﾅｻﾞﾜｼ","streetKana":"ｳｸﾞｲｽﾏﾁ","prefecture":"石川県","city":"金沢市","street":"鶯町"},{"zipCode":"9200832","prefectureKana":"ｲｼｶﾜｹﾝ","cityKana":"ｶﾅｻﾞﾜｼ","streetKana":"ｳﾀﾂﾏﾁ","prefecture":"石川県","city":"金沢市","street":"卯辰町"},{"zipCode":"9201149","prefectureKana":"ｲｼｶﾜｹﾝ","cityKana":"ｶﾅｻﾞﾜｼ","streetKana":"ｳﾁｵﾏﾁ","prefecture":"石川県","city":"金沢市","street":"打尾町"},{"zipCode":"9200377","prefectureKana":"ｲｼｶﾜｹﾝ","cityKana":"ｶﾅｻﾞﾜｼ","streetKana":"ｳﾂｷﾞﾏﾁ","prefecture":"石川県","city":"金沢市","street":"打木町"},{"zipCode":"9200343","prefectureKana":"ｲｼｶﾜｹﾝ","cityKana":"ｶﾅｻﾞﾜｼ","streetKana":"ｳﾈﾀﾞﾅｶ","prefecture":"石川県","city":"金沢市","street":"畝田中"},{"zipCode":"9200342","prefectureKana":"ｲｼｶﾜｹﾝ","cityKana":"ｶﾅｻﾞﾜｼ","streetKana":"ｳﾈﾀﾞﾏﾁ","prefecture":"石川県","city":"金沢市","street":"畝田町"},{"zipCode":"9200344","prefectureKana":"ｲｼｶﾜｹﾝ","cityKana":"ｶﾅｻﾞﾜｼ","streetKana":"ｳﾈﾀﾞﾋｶﾞｼ","prefecture":"石川県","city":"金沢市","street":"畝田東"},{"zipCode":"9200342","prefectureKana":"ｲｼｶﾜｹﾝ","cityKana":"ｶﾅｻﾞﾜｼ","streetKana":"ｳﾈﾀﾞﾆｼ","prefecture":"石川県","city":"金沢市","street":"畝田西"},{"zipCode":"9203111","prefectureKana":"ｲｼｶﾜｹﾝ","cityKana":"ｶﾅｻﾞﾜｼ","streetKana":"ｳﾒﾀﾞﾏﾁ","prefecture":"石川県","city":"金沢市","street":"梅田町"},{"zipCode":"9200971","prefectureKana":"ｲｼｶﾜｹﾝ","cityKana":"ｶﾅｻﾞﾜｼ","streetKana":"ｳﾛｺﾏﾁ","prefecture":"石川県","city":"金沢市","street":"鱗町"},{"zipCode":"9200122","prefectureKana":"ｲｼｶﾜｹﾝ","cityKana":"ｶﾅｻﾞﾜｼ","streetKana":"ｳﾜﾀﾞｲﾗﾏﾁ","prefecture":"石川県","city":"金沢市","street":"上平町"},{"zipCode":"9201301","prefectureKana":"ｲｼｶﾜｹﾝ","cityKana":"ｶﾅｻﾞﾜｼ","streetKana":"ｴｲｱﾝﾁｮｳ","prefecture":"石川県","city":"金沢市","street":"永安町"},{"zipCode":"9200027","prefectureKana":"ｲｼｶﾜｹﾝ","cityKana":"ｶﾅｻﾞﾜｼ","streetKana":"ｴｷﾆｼｼﾝﾏﾁ","prefecture":"石川県","city":"金沢市","street":"駅西新町"},{"zipCode":"9200025","prefectureKana":"ｲｼｶﾜｹﾝ","cityKana":"ｶﾅｻﾞﾜｼ","streetKana":"ｴｷﾆｼﾎﾝﾏﾁ","prefecture":"石川県","city":"金沢市","street":"駅西本町"},{"zipCode":"9200973","prefectureKana":"ｲｼｶﾜｹﾝ","cityKana":"ｶﾅｻﾞﾜｼ","streetKana":"ｴﾀﾞﾏﾁ","prefecture":"石川県","city":"金沢市","street":"枝町"},{"zipCode":"9200112","prefectureKana":"ｲｼｶﾜｹﾝ","cityKana":"ｶﾅｻﾞﾜｼ","streetKana":"ｴﾉｷｵﾏﾁ","prefecture":"石川県","city":"金沢市","street":"榎尾町"},{"zipCode":"9200162","prefectureKana":"ｲｼｶﾜｹﾝ","cityKana":"ｶﾅｻﾞﾜｼ","streetKana":"ｵｲｹﾏﾁ","prefecture":"石川県","city":"金沢市","street":"小池町"},{"zipCode":"9200927","prefectureKana":"ｲｼｶﾜｹﾝ","cityKana":"ｶﾅｻﾞﾜｼ","streetKana":"ｵｳｷﾞﾏﾁ","prefecture":"石川県","city":"金沢市","street":"扇町"},{"zipCode":"9200205","prefectureKana":"ｲｼｶﾜｹﾝ","cityKana":"ｶﾅｻﾞﾜｼ","streetKana":"ｵｵｳﾗﾏﾁ","prefecture":"石川県","city":"金沢市","street":"大浦町"},{"zipCode":"9200945","prefectureKana":"ｲｼｶﾜｹﾝ","cityKana":"ｶﾅｻﾞﾜｼ","streetKana":"ｵｵｸﾜｼﾝﾏﾁ","prefecture":"石川県","city":"金沢市","street":"大桑新町"},{"zipCode":"9200946","prefectureKana":"ｲｼｶﾜｹﾝ","cityKana":"ｶﾅｻﾞﾜｼ","streetKana":"ｵｵｸﾜﾏﾁ(ｶ､ｺ､ｻｵﾂ､ｻｺｳ､ｿ､ﾀ､ﾂｺｳ､ﾅ､ﾒ､ﾕ､ﾖ､","prefecture":"石川県","city":"金沢市","street":"大桑町（カ、コ、サ乙、サ甲、ソ、タ、ツ甲、ナ、メ、ユ、ヨ、"},{"zipCode":"9200946","prefectureKana":"ｲｼｶﾜｹﾝ","cityKana":"ｶﾅｻﾞﾜｼ","streetKana":"ﾗ､ﾜ､ｱﾅｶﾞｹ､ｱﾅﾌﾞﾁｶﾞｹ､ﾈ､ｺｳ､ﾖｼｼﾞﾏ､ｼﾓﾖｼｼﾞﾏｶﾞｹ)","prefecture":"石川県","city":"金沢市","street":"ラ、ワ、穴欠、穴淵欠、子、庚、葭島、下葭島欠）"},{"zipCode":"9200912","prefectureKana":"ｲｼｶﾜｹﾝ","cityKana":"ｶﾅｻﾞﾜｼ","streetKana":"ｵｵﾃﾏﾁ","prefecture":"石川県","city":"金沢市","street":"大手町"},{"zipCode":"9208205","prefectureKana":"ｲｼｶﾜｹﾝ","cityKana":"ｶﾅｻﾞﾜｼ","streetKana":"ｵｵﾄﾓ","prefecture":"石川県","city":"金沢市","street":"大友"},{"zipCode":"9208222","prefectureKana":"ｲｼｶﾜｹﾝ","cityKana":"ｶﾅｻﾞﾜｼ","streetKana":"ｵｵﾄﾓﾏﾁ","prefecture":"石川県","city":"金沢市","street":"大友町"},{"zipCode":"9200231","prefectureKana":"ｲｼｶﾜｹﾝ","cityKana":"ｶﾅｻﾞﾜｼ","streetKana":"ｵｵﾉﾏﾁ(ｿ､ﾀ､ﾇ､ﾖ､ﾚ)","prefecture":"石川県","city":"金沢市","street":"大野町（ソ、タ、ヌ、ヨ、レ）"},{"zipCode":"9200331","prefectureKana":"ｲｼｶﾜｹﾝ","cityKana":"ｶﾅｻﾞﾜｼ","streetKana":"ｵｵﾉﾏﾁ(ｿﾉﾀ)","prefecture":"石川県","city":"金沢市","street":"大野町（その他）"},{"zipCode":"9200225","prefectureKana":"ｲｼｶﾜｹﾝ","cityKana":"ｶﾅｻﾞﾜｼ","streetKana":"ｵｵﾉﾏﾁｼﾝﾏﾁ","prefecture":"石川県","city":"金沢市","street":"大野町新町"},{"zipCode":"9203121","prefectureKana":"ｲｼｶﾜｹﾝ","cityKana":"ｶﾅｻﾞﾜｼ","streetKana":"ｵｵﾊﾞﾏﾁ","prefecture":"石川県","city":"金沢市","street":"大場町"},{"zipCode":"9200818","prefectureKana":"ｲｼｶﾜｹﾝ","cityKana":"ｶﾅｻﾞﾜｼ","streetKana":"ｵｵﾋﾏﾁ","prefecture":"石川県","city":"金沢市","street":"大樋町"},{"zipCode":"9201335","prefectureKana":"ｲｼｶﾜｹﾝ","cityKana":"ｶﾅｻﾞﾜｼ","streetKana":"ｵｵﾋﾗｿｳﾏﾁ","prefecture":"石川県","city":"金沢市","street":"大平沢町"},{"zipCode":"9200013","prefectureKana":"ｲｼｶﾜｹﾝ","cityKana":"ｶﾅｻﾞﾜｼ","streetKana":"ｵｷﾏﾁ","prefecture":"石川県","city":"金沢市","street":"沖町"},{"zipCode":"9201101","prefectureKana":"ｲｼｶﾜｹﾝ","cityKana":"ｶﾅｻﾞﾜｼ","streetKana":"ｵｸｼﾝﾎﾞﾏﾁ","prefecture":"石川県","city":"金沢市","street":"奥新保町"},{"zipCode":"9200210","prefectureKana":"ｲｼｶﾜｹﾝ","cityKana":"ｶﾅｻﾞﾜｼ","streetKana":"ｵｺﾊﾞﾀﾆｼ","prefecture":"石川県","city":"金沢市","street":"大河端西"},{"zipCode":"9200213","prefectureKana":"ｲｼｶﾜｹﾝ","cityKana":"ｶﾅｻﾞﾜｼ","streetKana":"ｵｺﾊﾞﾀﾏﾁ","prefecture":"石川県","city":"金沢市","street":"大河端町"},{"zipCode":"9201324","prefectureKana":"ｲｼｶﾜｹﾝ","cityKana":"ｶﾅｻﾞﾜｼ","streetKana":"ｵｼﾊﾗﾏﾁ","prefecture":"石川県","city":"金沢市","street":"鴛原町"},{"zipCode":"9200807","prefectureKana":"ｲｼｶﾜｹﾝ","cityKana":"ｶﾅｻﾞﾜｼ","streetKana":"ｵﾄﾏﾙﾏﾁ","prefecture":"石川県","city":"金沢市","street":"乙丸町"},{"zipCode":"9201343","prefectureKana":"ｲｼｶﾜｹﾝ","cityKana":"ｶﾅｻﾞﾜｼ","streetKana":"ｵﾊﾗﾏﾁ","prefecture":"石川県","city":"金沢市","street":"小原町"},{"zipCode":"9201111","prefectureKana":"ｲｼｶﾜｹﾝ","cityKana":"ｶﾅｻﾞﾜｼ","streetKana":"ｵﾋﾞｼｹﾏﾁ","prefecture":"石川県","city":"金沢市","street":"大菱池町"},{"zipCode":"9200918","prefectureKana":"ｲｼｶﾜｹﾝ","cityKana":"ｶﾅｻﾞﾜｼ","streetKana":"ｵﾔﾏﾏﾁ","prefecture":"石川県","city":"金沢市","street":"尾山町"},{"zipCode":"9201112","prefectureKana":"ｲｼｶﾜｹﾝ","cityKana":"ｶﾅｻﾞﾜｼ","streetKana":"ｵﾘﾀﾆﾏﾁ","prefecture":"石川県","city":"金沢市","street":"折谷町"},{"zipCode":"9200902","prefectureKana":"ｲｼｶﾜｹﾝ","cityKana":"ｶﾅｻﾞﾜｼ","streetKana":"ｵﾜﾘﾁｮｳ","prefecture":"石川県","city":"金沢市","street":"尾張町"},{"zipCode":"9200114","prefectureKana":"ｲｼｶﾜｹﾝ","cityKana":"ｶﾅｻﾞﾜｼ","streetKana":"ｶｶﾞｱｻﾋﾏﾁ","prefecture":"石川県","city":"金沢市","street":"加賀朝日町"},{"zipCode":"9200208","prefectureKana":"ｲｼｶﾜｹﾝ","cityKana":"ｶﾅｻﾞﾜｼ","streetKana":"ｶｶﾞﾂﾒﾏﾁ","prefecture":"石川県","city":"金沢市","street":"蚊爪町"},{"zipCode":"9200999","prefectureKana":"ｲｼｶﾜｹﾝ","cityKana":"ｶﾅｻﾞﾜｼ","streetKana":"ｶｷﾉｷﾊﾞﾀｹ","prefecture":"石川県","city":"金沢市","street":"柿木畠"},{"zipCode":"9201163","prefectureKana":"ｲｼｶﾜｹﾝ","cityKana":"ｶﾅｻﾞﾜｼ","streetKana":"ｶｸﾏｼﾝﾏﾁ","prefecture":"石川県","city":"金沢市","street":"角間新町"},{"zipCode":"9201164","prefectureKana":"ｲｼｶﾜｹﾝ","cityKana":"ｶﾅｻﾞﾜｼ","streetKana":"ｶｸﾏﾏﾁ","prefecture":"石川県","city":"金沢市","street":"角間町"},{"zipCode":"9200851","prefectureKana":"ｲｼｶﾜｹﾝ","cityKana":"ｶﾅｻﾞﾜｼ","streetKana":"ｶｻｲﾁﾏﾁ","prefecture":"石川県","city":"金沢市","street":"笠市町"},{"zipCode":"9200965","prefectureKana":"ｲｼｶﾜｹﾝ","cityKana":"ｶﾅｻﾞﾜｼ","streetKana":"ｶｻﾏｲ","prefecture":"石川県","city":"金沢市","street":"笠舞"},{"zipCode":"9200947","prefectureKana":"ｲｼｶﾜｹﾝ","cityKana":"ｶﾅｻﾞﾜｼ","streetKana":"ｶｻﾏｲﾎﾝﾏﾁ","prefecture":"石川県","city":"金沢市","street":"笠舞本町"},{"zipCode":"9201332","prefectureKana":"ｲｼｶﾜｹﾝ","cityKana":"ｶﾅｻﾞﾜｼ","streetKana":"ｶｼﾐﾏﾁ","prefecture":"石川県","city":"金沢市","street":"樫見町"},{"zipCode":"9200908","prefectureKana":"ｲｼｶﾜｹﾝ","cityKana":"ｶﾅｻﾞﾜｼ","streetKana":"ｶｽﾞｴﾏﾁ","prefecture":"石川県","city":"金沢市","street":"主計町"},{"zipCode":"9200817","prefectureKana":"ｲｼｶﾜｹﾝ","cityKana":"ｶﾅｻﾞﾜｼ","streetKana":"ｶｽｶﾞﾏﾁ","prefecture":"石川県","city":"金沢市","street":"春日町"},{"zipCode":"9200164","prefectureKana":"ｲｼｶﾜｹﾝ","cityKana":"ｶﾅｻﾞﾜｼ","streetKana":"ｶﾀﾀﾏﾁ","prefecture":"石川県","city":"金沢市","street":"堅田町"},{"zipCode":"9200219","prefectureKana":"ｲｼｶﾜｹﾝ","cityKana":"ｶﾅｻﾞﾜｼ","streetKana":"ｶﾀﾂ","prefecture":"石川県","city":"金沢市","street":"かたつ"},{"zipCode":"9200981","prefectureKana":"ｲｼｶﾜｹﾝ","cityKana":"ｶﾅｻﾞﾜｼ","streetKana":"ｶﾀﾏﾁ","prefecture":"石川県","city":"金沢市","street":"片町"},{"zipCode":"9200334","prefectureKana":"ｲｼｶﾜｹﾝ","cityKana":"ｶﾅｻﾞﾜｼ","streetKana":"ｶﾂﾗﾏﾁ","prefecture":"石川県","city":"金沢市","street":"桂町"},{"zipCode":"9203134","prefectureKana":"ｲｼｶﾜｹﾝ","cityKana":"ｶﾅｻﾞﾜｼ","streetKana":"ｶﾅｲﾁﾏﾁ","prefecture":"石川県","city":"金沢市","street":"金市町"},{"zipCode":"9200310","prefectureKana":"ｲｼｶﾜｹﾝ","cityKana":"ｶﾅｻﾞﾜｼ","streetKana":"ｶﾅｲﾜｱｲｵｲﾁｮｳ","prefecture":"石川県","city":"金沢市","street":"金石相生町"},{"zipCode":"9200322","prefectureKana":"ｲｼｶﾜｹﾝ","cityKana":"ｶﾅｻﾞﾜｼ","streetKana":"ｶﾅｲﾜｲﾏﾏﾁ","prefecture":"石川県","city":"金沢市","street":"金石今町"},{"zipCode":"9200314","prefectureKana":"ｲｼｶﾜｹﾝ","cityKana":"ｶﾅｻﾞﾜｼ","streetKana":"ｶﾅｲﾜｵﾌﾈﾏﾁ","prefecture":"石川県","city":"金沢市","street":"金石御船町"},{"zipCode":"9200321","prefectureKana":"ｲｼｶﾜｹﾝ","cityKana":"ｶﾅｻﾞﾜｼ","streetKana":"ｶﾅｲﾜｶｲｾﾞﾝｼﾞﾏﾁ","prefecture":"石川県","city":"金沢市","street":"金石海禅寺町"},{"zipCode":"9200319","prefectureKana":"ｲｼｶﾜｹﾝ","cityKana":"ｶﾅｻﾞﾜｼ","streetKana":"ｶﾅｲﾜｶﾐｴﾁｾﾞﾝﾏﾁ","prefecture":"石川県","city":"金沢市","street":"金石上越前町"},{"zipCode":"9200311","prefectureKana":"ｲｼｶﾜｹﾝ","cityKana":"ｶﾅｻﾞﾜｼ","streetKana":"ｶﾅｲﾜｶﾐﾊﾏﾏﾁ","prefecture":"石川県","city":"金沢市","street":"金石上浜町"},{"zipCode":"9200338","prefectureKana":"ｲｼｶﾜｹﾝ","cityKana":"ｶﾅｻﾞﾜｼ","streetKana":"ｶﾅｲﾜｷﾀ","prefecture":"石川県","city":"金沢市","street":"金石北"},{"zipCode":"9200315","prefectureKana":"ｲｼｶﾜｹﾝ","cityKana":"ｶﾅｻﾞﾜｼ","streetKana":"ｶﾅｲﾜｼﾓﾃﾞﾗﾏﾁ","prefecture":"石川県","city":"金沢市","street":"金石下寺町"},{"zipCode":"9200317","prefectureKana":"ｲｼｶﾜｹﾝ","cityKana":"ｶﾅｻﾞﾜｼ","streetKana":"ｶﾅｲﾜｼﾓﾎﾝﾏﾁ","prefecture":"石川県","city":"金沢市","street":"金石下本町"},{"zipCode":"9200330","prefectureKana":"ｲｼｶﾜｹﾝ","cityKana":"ｶﾅｻﾞﾜｼ","streetKana":"ｶﾅｲﾜｼﾝﾁｮｳ","prefecture":"石川県","city":"金沢市","street":"金石新町"},{"zipCode":"9200316","prefectureKana":"ｲｼｶﾜｹﾝ","cityKana":"ｶﾅｻﾞﾜｼ","streetKana":"ｶﾅｲﾜﾄｵﾘﾏﾁ","prefecture":"石川県","city":"金沢市","street":"金石通町"},{"zipCode":"9200337","prefectureKana":"ｲｼｶﾜｹﾝ","cityKana":"ｶﾅｻﾞﾜｼ","streetKana":"ｶﾅｲﾜﾆｼ","prefecture":"石川県","city":"金沢市","street":"金石西"},{"zipCode":"9200313","prefectureKana":"ｲｼｶﾜｹﾝ","cityKana":"ｶﾅｻﾞﾜｼ","streetKana":"ｶﾅｲﾜﾊﾏﾏﾁ","prefecture":"石川県","city":"金沢市","street":"金石浜町"},{"zipCode":"9200335","prefectureKana":"ｲｼｶﾜｹﾝ","cityKana":"ｶﾅｻﾞﾜｼ","streetKana":"ｶﾅｲﾜﾋｶﾞｼ","prefecture":"石川県","city":"金沢市","street":"金石東"},{"zipCode":"9200336","prefectureKana":"ｲｼｶﾜｹﾝ","cityKana":"ｶﾅｻﾞﾜｼ","streetKana":"ｶﾅｲﾜﾎﾝﾏﾁ","prefecture":"石川県","city":"金沢市","street":"金石本町"},{"zipCode":"9200312","prefectureKana":"ｲｼｶﾜｹﾝ","cityKana":"ｶﾅｻﾞﾜｼ","streetKana":"ｶﾅｲﾜﾏﾂﾏｴﾏﾁ","prefecture":"石川県","city":"金沢市","street":"金石松前町"},{"zipCode":"9200318","prefectureKana":"ｲｼｶﾜｹﾝ","cityKana":"ｶﾅｻﾞﾜｼ","streetKana":"ｶﾅｲﾜﾐｿﾔﾁｮｳ","prefecture":"石川県","city":"金沢市","street":"金石味噌屋町"},{"zipCode":"9201148","prefectureKana":"ｲｼｶﾜｹﾝ","cityKana":"ｶﾅｻﾞﾜｼ","streetKana":"ｶﾅｶﾞﾜﾏﾁ","prefecture":"石川県","city":"金沢市","street":"金川町"},{"zipCode":"9200905","prefectureKana":"ｲｼｶﾜｹﾝ","cityKana":"ｶﾅｻﾞﾜｼ","streetKana":"ｶﾐｵｳﾐﾁｮｳ","prefecture":"石川県","city":"金沢市","street":"上近江町"},{"zipCode":"9200992","prefectureKana":"ｲｼｶﾜｹﾝ","cityKana":"ｶﾅｻﾞﾜｼ","streetKana":"ｶﾐｶｷﾉｷﾊﾞﾀｹ","prefecture":"石川県","city":"金沢市","street":"上柿木畠"},{"zipCode":"9201304","prefectureKana":"ｲｼｶﾜｹﾝ","cityKana":"ｶﾅｻﾞﾜｼ","streetKana":"ｶﾐﾀﾂﾐﾏﾁ","prefecture":"石川県","city":"金沢市","street":"上辰巳町"},{"zipCode":"9200869","prefectureKana":"ｲｼｶﾜｹﾝ","cityKana":"ｶﾅｻﾞﾜｼ","streetKana":"ｶﾐﾂﾂﾐﾁｮｳ","prefecture":"石川県","city":"金沢市","street":"上堤町"},{"zipCode":"9201146","prefectureKana":"ｲｼｶﾜｹﾝ","cityKana":"ｶﾅｻﾞﾜｼ","streetKana":"ｶﾐﾅｶﾏﾁ","prefecture":"石川県","city":"金沢市","street":"上中町"},{"zipCode":"9200368","prefectureKana":"ｲｼｶﾜｹﾝ","cityKana":"ｶﾅｻﾞﾜｼ","streetKana":"ｶﾐﾉ","prefecture":"石川県","city":"金沢市","street":"神野"},{"zipCode":"9200365","prefectureKana":"ｲｼｶﾜｹﾝ","cityKana":"ｶﾅｻﾞﾜｼ","streetKana":"ｶﾐﾉﾏﾁ","prefecture":"石川県","city":"金沢市","street":"神野町"},{"zipCode":"9200370","prefectureKana":"ｲｼｶﾜｹﾝ","cityKana":"ｶﾅｻﾞﾜｼ","streetKana":"ｶﾐﾔｽﾊﾗ","prefecture":"石川県","city":"金沢市","street":"上安原"},{"zipCode":"9200374","prefectureKana":"ｲｼｶﾜｹﾝ","cityKana":"ｶﾅｻﾞﾜｼ","streetKana":"ｶﾐﾔｽﾊﾗﾏﾁ","prefecture":"石川県","city":"金沢市","street":"上安原町"},{"zipCode":"9200374","prefectureKana":"ｲｼｶﾜｹﾝ","cityKana":"ｶﾅｻﾞﾜｼ","streetKana":"ｶﾐﾔｽﾊﾗﾐﾅﾐ","prefecture":"石川県","city":"金沢市","street":"上安原南"},{"zipCode":"9200801","prefectureKana":"ｲｼｶﾜｹﾝ","cityKana":"ｶﾅｻﾞﾜｼ","streetKana":"ｶﾐﾔﾁﾏﾁ","prefecture":"石川県","city":"金沢市","street":"神谷内町"},{"zipCode":"9201166","prefectureKana":"ｲｼｶﾜｹﾝ","cityKana":"ｶﾅｻﾞﾜｼ","streetKana":"ｶﾐﾜｶﾏﾂﾏﾁ","prefecture":"石川県","city":"金沢市","street":"上若松町"},{"zipCode":"9200175","prefectureKana":"ｲｼｶﾜｹﾝ","cityKana":"ｶﾅｻﾞﾜｼ","streetKana":"ｶﾐﾜｸﾅﾐﾏﾁ","prefecture":"石川県","city":"金沢市","street":"上涌波町"},{"zipCode":"9200974","prefectureKana":"ｲｼｶﾜｹﾝ","cityKana":"ｶﾅｻﾞﾜｼ","streetKana":"ｶﾜｷﾞｼﾏﾁ","prefecture":"石川県","city":"金沢市","street":"川岸町"},{"zipCode":"9200172","prefectureKana":"ｲｼｶﾜｹﾝ","cityKana":"ｶﾅｻﾞﾜｼ","streetKana":"ｶﾜﾗｲﾁﾏﾁ","prefecture":"石川県","city":"金沢市","street":"河原市町"},{"zipCode":"9200352","prefectureKana":"ｲｼｶﾜｹﾝ","cityKana":"ｶﾅｻﾞﾜｼ","streetKana":"ｶﾝﾉﾝﾄﾞｳﾏﾁ","prefecture":"石川県","city":"金沢市","street":"観音堂町"},{"zipCode":"9200838","prefectureKana":"ｲｼｶﾜｹﾝ","cityKana":"ｶﾅｻﾞﾜｼ","streetKana":"ｶﾝﾉﾝﾏﾁ","prefecture":"石川県","city":"金沢市","street":"観音町"},{"zipCode":"9201125","prefectureKana":"ｲｼｶﾜｹﾝ","cityKana":"ｶﾅｻﾞﾜｼ","streetKana":"ｶﾝﾊﾞﾗﾏﾁ","prefecture":"石川県","city":"金沢市","street":"上原町"},{"zipCode":"9203112","prefectureKana":"ｲｼｶﾜｹﾝ","cityKana":"ｶﾅｻﾞﾜｼ","streetKana":"ｶﾝﾎﾟｳｼﾞﾏﾁ","prefecture":"石川県","city":"金沢市","street":"観法寺町"},{"zipCode":"9200967","prefectureKana":"ｲｼｶﾜｹﾝ","cityKana":"ｶﾅｻﾞﾜｼ","streetKana":"ｷｸｶﾞﾜ","prefecture":"石川県","city":"金沢市","street":"菊川"},{"zipCode":"9200988","prefectureKana":"ｲｼｶﾜｹﾝ","cityKana":"ｶﾅｻﾞﾜｼ","streetKana":"ｷｸﾞﾗﾏﾁ","prefecture":"石川県","city":"金沢市","street":"木倉町"},{"zipCode":"9200202","prefectureKana":"ｲｼｶﾜｹﾝ","cityKana":"ｶﾅｻﾞﾜｼ","streetKana":"ｷｺﾞｼ","prefecture":"石川県","city":"金沢市","street":"木越"},{"zipCode":"9200201","prefectureKana":"ｲｼｶﾜｹﾝ","cityKana":"ｶﾅｻﾞﾜｼ","streetKana":"ｷｺﾞｼﾏﾁ(ﾐｽﾞｷﾀﾞﾝﾁ)","prefecture":"石川県","city":"金沢市","street":"木越町（瑞樹団地）"},{"zipCode":"9200203","prefectureKana":"ｲｼｶﾜｹﾝ","cityKana":"ｶﾅｻﾞﾜｼ","streetKana":"ｷｺﾞｼﾏﾁ(ｿﾉﾀ)","prefecture":"石川県","city":"金沢市","street":"木越町（その他）"},{"zipCode":"9200102","prefectureKana":"ｲｼｶﾜｹﾝ","cityKana":"ｶﾅｻﾞﾜｼ","streetKana":"ｷｼｶﾞﾜﾏﾁ","prefecture":"石川県","city":"金沢市","street":"岸川町"},{"zipCode":"9200143","prefectureKana":"ｲｼｶﾜｹﾝ","cityKana":"ｶﾅｻﾞﾜｼ","streetKana":"ｷﾀｶﾞﾀﾏﾁ","prefecture":"石川県","city":"金沢市","street":"北方町"},{"zipCode":"9200128","prefectureKana":"ｲｼｶﾜｹﾝ","cityKana":"ｶﾅｻﾞﾜｼ","streetKana":"ｷﾀｾﾝｺﾞｸﾏﾁ","prefecture":"石川県","city":"金沢市","street":"北千石町"},{"zipCode":"9200367","prefectureKana":"ｲｼｶﾜｹﾝ","cityKana":"ｶﾅｻﾞﾜｼ","streetKana":"ｷﾀﾂﾞｶﾏﾁ","prefecture":"石川県","city":"金沢市","street":"北塚町"},{"zipCode":"9200206","prefectureKana":"ｲｼｶﾜｹﾝ","cityKana":"ｶﾅｻﾞﾜｼ","streetKana":"ｷﾀﾃﾞﾗﾏﾁ","prefecture":"石川県","city":"金沢市","street":"北寺町"},{"zipCode":"9201135","prefectureKana":"ｲｼｶﾜｹﾝ","cityKana":"ｶﾅｻﾞﾜｼ","streetKana":"ｷﾀﾌﾞｸﾛﾏﾁ","prefecture":"石川県","city":"金沢市","street":"北袋町"},{"zipCode":"9200055","prefectureKana":"ｲｼｶﾜｹﾝ","cityKana":"ｶﾅｻﾞﾜｼ","streetKana":"ｷﾀﾏﾁ","prefecture":"石川県","city":"金沢市","street":"北町"},{"zipCode":"9200212","prefectureKana":"ｲｼｶﾜｹﾝ","cityKana":"ｶﾅｻﾞﾜｼ","streetKana":"ｷﾀﾏﾏﾁ","prefecture":"石川県","city":"金沢市","street":"北間町"},{"zipCode":"9203117","prefectureKana":"ｲｼｶﾜｹﾝ","cityKana":"ｶﾅｻﾞﾜｼ","streetKana":"ｷﾀﾓﾘﾓﾄﾏﾁ","prefecture":"石川県","city":"金沢市","street":"北森本町"},{"zipCode":"9200022","prefectureKana":"ｲｼｶﾜｹﾝ","cityKana":"ｶﾅｻﾞﾜｼ","streetKana":"ｷﾀﾔｽｴ","prefecture":"石川県","city":"金沢市","street":"北安江"},{"zipCode":"9200023","prefectureKana":"ｲｼｶﾜｹﾝ","cityKana":"ｶﾅｻﾞﾜｼ","streetKana":"ｷﾀﾔｽｴﾁｮｳ","prefecture":"石川県","city":"金沢市","street":"北安江町"},{"zipCode":"9200858","prefectureKana":"ｲｼｶﾜｹﾝ","cityKana":"ｶﾅｻﾞﾜｼ","streetKana":"ｷﾉｼﾝﾎﾞﾏﾁ","prefecture":"石川県","city":"金沢市","street":"木ノ新保町"},{"zipCode":"9200339","prefectureKana":"ｲｼｶﾜｹﾝ","cityKana":"ｶﾅｻﾞﾜｼ","streetKana":"ｷﾋﾞｷﾉ","prefecture":"石川県","city":"金沢市","street":"木曳野"},{"zipCode":"9200848","prefectureKana":"ｲｼｶﾜｹﾝ","cityKana":"ｶﾅｻﾞﾜｼ","streetKana":"ｷｮｳﾏﾁ","prefecture":"石川県","city":"金沢市","street":"京町"},{"zipCode":"9200163","prefectureKana":"ｲｼｶﾜｹﾝ","cityKana":"ｶﾅｻﾞﾜｼ","streetKana":"ｷﾘﾔﾏﾏﾁ","prefecture":"石川県","city":"金沢市","street":"桐山町"},{"zipCode":"9201333","prefectureKana":"ｲｼｶﾜｹﾝ","cityKana":"ｶﾅｻﾞﾜｼ","streetKana":"ｸﾆﾐﾁｮｳ","prefecture":"石川県","city":"金沢市","street":"国見町"},{"zipCode":"9201326","prefectureKana":"ｲｼｶﾜｹﾝ","cityKana":"ｶﾅｻﾞﾜｼ","streetKana":"ｸﾏﾊﾞｼﾘﾏﾁ","prefecture":"石川県","city":"金沢市","street":"熊走町"},{"zipCode":"9208203","prefectureKana":"ｲｼｶﾜｹﾝ","cityKana":"ｶﾅｻﾞﾜｼ","streetKana":"ｸﾗﾂｷ","prefecture":"石川県","city":"金沢市","street":"鞍月"},{"zipCode":"9208201","prefectureKana":"ｲｼｶﾜｹﾝ","cityKana":"ｶﾅｻﾞﾜｼ","streetKana":"ｸﾗﾂｷﾋｶﾞｼ","prefecture":"石川県","city":"金沢市","street":"鞍月東"},{"zipCode":"9200157","prefectureKana":"ｲｼｶﾜｹﾝ","cityKana":"ｶﾅｻﾞﾜｼ","streetKana":"ｸﾙﾏﾏﾁ","prefecture":"石川県","city":"金沢市","street":"車町"},{"zipCode":"9200936","prefectureKana":"ｲｼｶﾜｹﾝ","cityKana":"ｶﾅｻﾞﾜｼ","streetKana":"ｹﾝﾛｸﾏﾁ","prefecture":"石川県","city":"金沢市","street":"兼六町"},{"zipCode":"9200931","prefectureKana":"ｲｼｶﾜｹﾝ","cityKana":"ｶﾅｻﾞﾜｼ","streetKana":"ｹﾝﾛｸﾓﾄﾏﾁ","prefecture":"石川県","city":"金沢市","street":"兼六元町"},{"zipCode":"9200961","prefectureKana":"ｲｼｶﾜｹﾝ","cityKana":"ｶﾅｻﾞﾜｼ","streetKana":"ｺｳﾘﾝﾎﾞｳ","prefecture":"石川県","city":"金沢市","street":"香林坊"},{"zipCode":"9200805","prefectureKana":"ｲｼｶﾜｹﾝ","cityKana":"ｶﾅｻﾞﾜｼ","streetKana":"ｺｶﾞﾈﾏﾁ","prefecture":"石川県","city":"金沢市","street":"小金町"},{"zipCode":"9201114","prefectureKana":"ｲｼｶﾜｹﾝ","cityKana":"ｶﾅｻﾞﾜｼ","streetKana":"ｺｷｮｳﾏﾁ","prefecture":"石川県","city":"金沢市","street":"古郷町"},{"zipCode":"9208221","prefectureKana":"ｲｼｶﾜｹﾝ","cityKana":"ｶﾅｻﾞﾜｼ","streetKana":"ｺﾞｸﾃﾞﾝﾏﾁ","prefecture":"石川県","city":"金沢市","street":"御供田町"},{"zipCode":"9200811","prefectureKana":"ｲｼｶﾜｹﾝ","cityKana":"ｶﾅｻﾞﾜｼ","streetKana":"ｺｻｶﾏﾁ","prefecture":"石川県","city":"金沢市","street":"小坂町"},{"zipCode":"9200932","prefectureKana":"ｲｼｶﾜｹﾝ","cityKana":"ｶﾅｻﾞﾜｼ","streetKana":"ｺｼｮｳﾏﾁ","prefecture":"石川県","city":"金沢市","street":"小将町"},{"zipCode":"9200813","prefectureKana":"ｲｼｶﾜｹﾝ","cityKana":"ｶﾅｻﾞﾜｼ","streetKana":"ｺﾞｼｮﾏﾁ","prefecture":"石川県","city":"金沢市","street":"御所町"},{"zipCode":"9200942","prefectureKana":"ｲｼｶﾜｹﾝ","cityKana":"ｶﾅｻﾞﾜｼ","streetKana":"ｺﾀﾞﾂﾉ","prefecture":"石川県","city":"金沢市","street":"小立野"},{"zipCode":"9200129","prefectureKana":"ｲｼｶﾜｹﾝ","cityKana":"ｶﾅｻﾞﾜｼ","streetKana":"ｺﾄｻｶﾏﾁ","prefecture":"石川県","city":"金沢市","street":"琴坂町"},{"zipCode":"9200121","prefectureKana":"ｲｼｶﾜｹﾝ","cityKana":"ｶﾅｻﾞﾜｼ","streetKana":"ｺﾄﾏﾁ","prefecture":"石川県","city":"金沢市","street":"琴町"},{"zipCode":"9203107","prefectureKana":"ｲｼｶﾜｹﾝ","cityKana":"ｶﾅｻﾞﾜｼ","streetKana":"ｺﾅﾝﾏﾁ","prefecture":"石川県","city":"金沢市","street":"湖南町"},{"zipCode":"9200852","prefectureKana":"ｲｼｶﾜｹﾝ","cityKana":"ｶﾅｻﾞﾜｼ","streetKana":"ｺﾉﾊﾅﾏﾁ","prefecture":"石川県","city":"金沢市","street":"此花町"},{"zipCode":"9200168","prefectureKana":"ｲｼｶﾜｹﾝ","cityKana":"ｶﾅｻﾞﾜｼ","streetKana":"ｺﾉﾏﾁ","prefecture":"石川県","city":"金沢市","street":"小野町"},{"zipCode":"9200844","prefectureKana":"ｲｼｶﾜｹﾝ","cityKana":"ｶﾅｻﾞﾜｼ","streetKana":"ｺﾊﾞｼﾏﾁ","prefecture":"石川県","city":"金沢市","street":"小橋町"},{"zipCode":"9201111","prefectureKana":"ｲｼｶﾜｹﾝ","cityKana":"ｶﾅｻﾞﾜｼ","streetKana":"ｺﾋﾞｼｹﾏﾁ","prefecture":"石川県","city":"金沢市","street":"小菱池町"},{"zipCode":"9200826","prefectureKana":"ｲｼｶﾜｹﾝ","cityKana":"ｶﾅｻﾞﾜｼ","streetKana":"ｺﾌﾀﾏﾀﾏﾁ","prefecture":"石川県","city":"金沢市","street":"小二又町"},{"zipCode":"9200362","prefectureKana":"ｲｼｶﾜｹﾝ","cityKana":"ｶﾅｻﾞﾜｼ","streetKana":"ｺﾌﾞ","prefecture":"石川県","city":"金沢市","street":"古府"},{"zipCode":"9200362","prefectureKana":"ｲｼｶﾜｹﾝ","cityKana":"ｶﾅｻﾞﾜｼ","streetKana":"ｺﾌﾞﾏﾁ","prefecture":"石川県","city":"金沢市","street":"古府町"},{"zipCode":"9200362","prefectureKana":"ｲｼｶﾜｹﾝ","cityKana":"ｶﾅｻﾞﾜｼ","streetKana":"ｺﾌﾞﾏﾁ(ﾆｼ)","prefecture":"石川県","city":"金沢市","street":"古府町（西）"},{"zipCode":"9200363","prefectureKana":"ｲｼｶﾜｹﾝ","cityKana":"ｶﾅｻﾞﾜｼ","streetKana":"ｺﾌﾞﾏﾁ(ﾐﾅﾐ)","prefecture":"石川県","city":"金沢市","street":"古府町（南）"},{"zipCode":"9201313","prefectureKana":"ｲｼｶﾜｹﾝ","cityKana":"ｶﾅｻﾞﾜｼ","streetKana":"ｺﾏｶﾞｴﾘﾏﾁ","prefecture":"石川県","city":"金沢市","street":"駒帰町"},{"zipCode":"9200144","prefectureKana":"ｲｼｶﾜｹﾝ","cityKana":"ｶﾅｻﾞﾜｼ","streetKana":"ｺﾐﾈﾏﾁ","prefecture":"石川県","city":"金沢市","street":"小嶺町"},{"zipCode":"9203103","prefectureKana":"ｲｼｶﾜｹﾝ","cityKana":"ｶﾅｻﾞﾜｼ","streetKana":"ｺﾖｳ","prefecture":"石川県","city":"金沢市","street":"湖陽"},{"zipCode":"9200836","prefectureKana":"ｲｼｶﾜｹﾝ","cityKana":"ｶﾅｻﾞﾜｼ","streetKana":"ｺﾗｲﾏﾁ","prefecture":"石川県","city":"金沢市","street":"子来町"},{"zipCode":"9200224","prefectureKana":"ｲｼｶﾜｹﾝ","cityKana":"ｶﾅｻﾞﾜｼ","streetKana":"ｺﾞﾛｼﾞﾏﾏﾁ","prefecture":"石川県","city":"金沢市","street":"五郎島町"},{"zipCode":"9203101","prefectureKana":"ｲｼｶﾜｹﾝ","cityKana":"ｶﾅｻﾞﾜｼ","streetKana":"ｻｲﾀﾞﾏﾁ","prefecture":"石川県","city":"金沢市","street":"才田町"},{"zipCode":"9200024","prefectureKana":"ｲｼｶﾜｹﾝ","cityKana":"ｶﾅｻﾞﾜｼ","streetKana":"ｻｲﾈﾝ","prefecture":"石川県","city":"金沢市","street":"西念"},{"zipCode":"9200026","prefectureKana":"ｲｼｶﾜｹﾝ","cityKana":"ｶﾅｻﾞﾜｼ","streetKana":"ｻｲﾈﾝﾏﾁ","prefecture":"石川県","city":"金沢市","street":"西念町"},{"zipCode":"9200921","prefectureKana":"ｲｼｶﾜｹﾝ","cityKana":"ｶﾅｻﾞﾜｼ","streetKana":"ｻﾞｲﾓｸﾁｮｳ","prefecture":"石川県","city":"金沢市","street":"材木町"},{"zipCode":"9200968","prefectureKana":"ｲｼｶﾜｹﾝ","cityKana":"ｶﾅｻﾞﾜｼ","streetKana":"ｻｲﾜｲﾏﾁ","prefecture":"石川県","city":"金沢市","street":"幸町"},{"zipCode":"9200357","prefectureKana":"ｲｼｶﾜｹﾝ","cityKana":"ｶﾅｻﾞﾜｼ","streetKana":"ｻｷﾓﾘﾏﾁ","prefecture":"石川県","city":"金沢市","street":"佐奇森町"},{"zipCode":"9200057","prefectureKana":"ｲｼｶﾜｹﾝ","cityKana":"ｶﾅｻﾞﾜｼ","streetKana":"ｻｸﾗﾀﾞﾏﾁ","prefecture":"石川県","city":"金沢市","street":"桜田町"},{"zipCode":"9200923","prefectureKana":"ｲｼｶﾜｹﾝ","cityKana":"ｶﾅｻﾞﾜｼ","streetKana":"ｻｸﾗﾏﾁ","prefecture":"石川県","city":"金沢市","street":"桜町"},{"zipCode":"9200998","prefectureKana":"ｲｼｶﾜｹﾝ","cityKana":"ｶﾅｻﾞﾜｼ","streetKana":"ｻﾄﾐﾁｮｳ","prefecture":"石川県","city":"金沢市","street":"里見町"},{"zipCode":"9200034","prefectureKana":"ｲｼｶﾜｹﾝ","cityKana":"ｶﾅｻﾞﾜｼ","streetKana":"ｻﾒｶﾞｲﾁｮｳ","prefecture":"石川県","city":"金沢市","street":"醒ケ井町"},{"zipCode":"9200861","prefectureKana":"ｲｼｶﾜｹﾝ","cityKana":"ｶﾅｻﾞﾜｼ","streetKana":"ｻﾝｼﾞｬﾏﾁ","prefecture":"石川県","city":"金沢市","street":"三社町"},{"zipCode":"9200821","prefectureKana":"ｲｼｶﾜｹﾝ","cityKana":"ｶﾅｻﾞﾜｼ","streetKana":"ｻﾝﾉｳﾏﾁ","prefecture":"石川県","city":"金沢市","street":"山王町"},{"zipCode":"9200166","prefectureKana":"ｲｼｶﾜｹﾝ","cityKana":"ｶﾅｻﾞﾜｼ","streetKana":"ｼｵｳｼﾞﾏﾁ","prefecture":"石川県","city":"金沢市","street":"四王寺町"},{"zipCode":"9200116","prefectureKana":"ｲｼｶﾜｹﾝ","cityKana":"ｶﾅｻﾞﾜｼ","streetKana":"ｼﾞﾀﾞｲﾏﾁ","prefecture":"石川県","city":"金沢市","street":"地代町"},{"zipCode":"9200341","prefectureKana":"ｲｼｶﾜｹﾝ","cityKana":"ｶﾅｻﾞﾜｼ","streetKana":"ｼﾞﾁｭｳﾏﾁ","prefecture":"石川県","city":"金沢市","street":"寺中町"},{"zipCode":"9200906","prefectureKana":"ｲｼｶﾜｹﾝ","cityKana":"ｶﾅｻﾞﾜｼ","streetKana":"ｼﾞﾂｹﾝﾏﾁ","prefecture":"石川県","city":"金沢市","street":"十間町"},{"zipCode":"9201129","prefectureKana":"ｲｼｶﾜｹﾝ","cityKana":"ｶﾅｻﾞﾜｼ","streetKana":"ｼﾊﾞﾊﾗﾏﾁ","prefecture":"石川県","city":"金沢市","street":"芝原町"},{"zipCode":"9200104","prefectureKana":"ｲｼｶﾜｹﾝ","cityKana":"ｶﾅｻﾞﾜｼ","streetKana":"ｼﾎﾞｳﾀｶｻｶﾏﾁ","prefecture":"石川県","city":"金沢市","street":"四坊高坂町"},{"zipCode":"9200104","prefectureKana":"ｲｼｶﾜｹﾝ","cityKana":"ｶﾅｻﾞﾜｼ","streetKana":"ｼﾎﾞｳﾏﾁ","prefecture":"石川県","city":"金沢市","street":"四坊町"},{"zipCode":"9200132","prefectureKana":"ｲｼｶﾜｹﾝ","cityKana":"ｶﾅｻﾞﾜｼ","streetKana":"ｼﾐｽﾞﾀﾞﾆﾏﾁ","prefecture":"石川県","city":"金沢市","street":"清水谷町"},{"zipCode":"9201104","prefectureKana":"ｲｼｶﾜｹﾝ","cityKana":"ｶﾅｻﾞﾜｼ","streetKana":"ｼﾐｽﾞﾏﾁ","prefecture":"石川県","city":"金沢市","street":"清水町"},{"zipCode":"9200058","prefectureKana":"ｲｼｶﾜｹﾝ","cityKana":"ｶﾅｻﾞﾜｼ","streetKana":"ｼﾒﾉﾅｶﾏﾁ","prefecture":"石川県","city":"金沢市","street":"示野中町"},{"zipCode":"9200059","prefectureKana":"ｲｼｶﾜｹﾝ","cityKana":"ｶﾅｻﾞﾜｼ","streetKana":"ｼﾒﾉﾏﾁ","prefecture":"石川県","city":"金沢市","street":"示野町"},{"zipCode":"9200939","prefectureKana":"ｲｼｶﾜｹﾝ","cityKana":"ｶﾅｻﾞﾜｼ","streetKana":"ｼﾓｲｼﾋﾞｷﾏﾁ","prefecture":"石川県","city":"金沢市","street":"下石引町"},{"zipCode":"9200904","prefectureKana":"ｲｼｶﾜｹﾝ","cityKana":"ｶﾅｻﾞﾜｼ","streetKana":"ｼﾓｵｳﾐﾁｮｳ","prefecture":"石川県","city":"金沢市","street":"下近江町"},{"zipCode":"9201323","prefectureKana":"ｲｼｶﾜｹﾝ","cityKana":"ｶﾅｻﾞﾜｼ","streetKana":"ｼﾓｵｼﾊﾗﾏﾁ","prefecture":"石川県","city":"金沢市","street":"下鴛原町"},{"zipCode":"9200991","prefectureKana":"ｲｼｶﾜｹﾝ","cityKana":"ｶﾅｻﾞﾜｼ","streetKana":"ｼﾓｶｷﾉｷﾊﾞﾀｹ","prefecture":"石川県","city":"金沢市","street":"下柿木畠"},{"zipCode":"9200910","prefectureKana":"ｲｼｶﾜｹﾝ","cityKana":"ｶﾅｻﾞﾜｼ","streetKana":"ｼﾓｼﾝﾁｮｳ","prefecture":"石川県","city":"金沢市","street":"下新町"},{"zipCode":"9201127","prefectureKana":"ｲｼｶﾜｹﾝ","cityKana":"ｶﾅｻﾞﾜｼ","streetKana":"ｼﾓﾀﾞﾆﾏﾁ","prefecture":"石川県","city":"金沢市","street":"下谷町"},{"zipCode":"9200917","prefectureKana":"ｲｼｶﾜｹﾝ","cityKana":"ｶﾅｻﾞﾜｼ","streetKana":"ｼﾓﾂﾂﾐﾁｮｳ","prefecture":"石川県","city":"金沢市","street":"下堤町"},{"zipCode":"9200993","prefectureKana":"ｲｼｶﾜｹﾝ","cityKana":"ｶﾅｻﾞﾜｼ","streetKana":"ｼﾓﾎﾝﾀﾞﾏﾁ","prefecture":"石川県","city":"金沢市","street":"下本多町"},{"zipCode":"9200916","prefectureKana":"ｲｼｶﾜｹﾝ","cityKana":"ｶﾅｻﾞﾜｼ","streetKana":"ｼﾓﾏﾂﾊﾞﾗﾁｮｳ","prefecture":"石川県","city":"金沢市","street":"下松原町"},{"zipCode":"9200371","prefectureKana":"ｲｼｶﾜｹﾝ","cityKana":"ｶﾅｻﾞﾜｼ","streetKana":"ｼﾓﾔｽﾊﾗﾏﾁ","prefecture":"石川県","city":"金沢市","street":"下安原町"},{"zipCode":"9200176","prefectureKana":"ｲｼｶﾜｹﾝ","cityKana":"ｶﾅｻﾞﾜｼ","streetKana":"ｼﾓﾜｸﾅﾐﾏﾁ","prefecture":"石川県","city":"金沢市","street":"下涌波町"},{"zipCode":"9200976","prefectureKana":"ｲｼｶﾜｹﾝ","cityKana":"ｶﾅｻﾞﾜｼ","streetKana":"ｼﾞｭｳｻﾝｹﾞﾝﾏﾁ","prefecture":"石川県","city":"金沢市","street":"十三間町"},{"zipCode":"9200977","prefectureKana":"ｲｼｶﾜｹﾝ","cityKana":"ｶﾅｻﾞﾜｼ","streetKana":"ｼﾞｭｳｻﾝｹﾞﾝﾏﾁﾅｶﾁｮｳ","prefecture":"石川県","city":"金沢市","street":"十三間町中丁"},{"zipCode":"9200846","prefectureKana":"ｲｼｶﾜｹﾝ","cityKana":"ｶﾅｻﾞﾜｼ","streetKana":"ｼｮｳｴｲﾏﾁ","prefecture":"石川県","city":"金沢市","street":"昌永町"},{"zipCode":"9200966","prefectureKana":"ｲｼｶﾜｹﾝ","cityKana":"ｶﾅｻﾞﾜｼ","streetKana":"ｼﾞｮｳﾅﾝ","prefecture":"石川県","city":"金沢市","street":"城南"},{"zipCode":"9200154","prefectureKana":"ｲｼｶﾜｹﾝ","cityKana":"ｶﾅｻﾞﾜｼ","streetKana":"ｼｮｳﾌﾞﾏﾁ","prefecture":"石川県","city":"金沢市","street":"正部町"},{"zipCode":"9201325","prefectureKana":"ｲｼｶﾜｹﾝ","cityKana":"ｶﾅｻﾞﾜｼ","streetKana":"ｼﾞｮｳﾘｷﾏﾁ","prefecture":"石川県","city":"金沢市","street":"城力町"},{"zipCode":"9200856","prefectureKana":"ｲｼｶﾜｹﾝ","cityKana":"ｶﾅｻﾞﾜｼ","streetKana":"ｼｮｳﾜﾏﾁ","prefecture":"石川県","city":"金沢市","street":"昭和町"},{"zipCode":"9201126","prefectureKana":"ｲｼｶﾜｹﾝ","cityKana":"ｶﾅｻﾞﾜｼ","streetKana":"ｼﾛﾐﾏﾁ","prefecture":"石川県","city":"金沢市","street":"白見町"},{"zipCode":"9200806","prefectureKana":"ｲｼｶﾜｹﾝ","cityKana":"ｶﾅｻﾞﾜｼ","streetKana":"ｼﾞﾝｸﾞｳｼﾞ","prefecture":"石川県","city":"金沢市","street":"神宮寺"},{"zipCode":"9200803","prefectureKana":"ｲｼｶﾜｹﾝ","cityKana":"ｶﾅｻﾞﾜｼ","streetKana":"ｼﾞﾝｸﾞｳｼﾞﾏﾁ","prefecture":"石川県","city":"金沢市","street":"神宮寺町"},{"zipCode":"9200995","prefectureKana":"ｲｼｶﾜｹﾝ","cityKana":"ｶﾅｻﾞﾜｼ","streetKana":"ｼﾝﾀﾃﾏﾁ","prefecture":"石川県","city":"金沢市","street":"新竪町"},{"zipCode":"9201345","prefectureKana":"ｲｼｶﾜｹﾝ","cityKana":"ｶﾅｻﾞﾜｼ","streetKana":"ｼﾝﾎﾞﾏﾁ","prefecture":"石川県","city":"金沢市","street":"新保町"},{"zipCode":"9200833","prefectureKana":"ｲｼｶﾜｹﾝ","cityKana":"ｶﾅｻﾞﾜｼ","streetKana":"ｽｴﾋﾛﾏﾁ","prefecture":"石川県","city":"金沢市","street":"末広町"},{"zipCode":"9201302","prefectureKana":"ｲｼｶﾜｹﾝ","cityKana":"ｶﾅｻﾞﾜｼ","streetKana":"ｽｴﾏﾁ","prefecture":"石川県","city":"金沢市","street":"末町"},{"zipCode":"9201311","prefectureKana":"ｲｼｶﾜｹﾝ","cityKana":"ｶﾅｻﾞﾜｼ","streetKana":"ｽｶﾞｲｹﾏﾁ","prefecture":"石川県","city":"金沢市","street":"菅池町"},{"zipCode":"9200972","prefectureKana":"ｲｼｶﾜｹﾝ","cityKana":"ｶﾅｻﾞﾜｼ","streetKana":"ｽｷﾞｳﾗﾏﾁ","prefecture":"石川県","city":"金沢市","street":"杉浦町"},{"zipCode":"9200207","prefectureKana":"ｲｼｶﾜｹﾝ","cityKana":"ｶﾅｻﾞﾜｼ","streetKana":"ｽｻﾞｷﾏﾁ","prefecture":"石川県","city":"金沢市","street":"須崎町"},{"zipCode":"9200857","prefectureKana":"ｲｼｶﾜｹﾝ","cityKana":"ｶﾅｻﾞﾜｼ","streetKana":"ｽｼﾞｶｲﾏﾁ","prefecture":"石川県","city":"金沢市","street":"折違町"},{"zipCode":"9201161","prefectureKana":"ｲｼｶﾜｹﾝ","cityKana":"ｶﾅｻﾞﾜｼ","streetKana":"ｽｽﾞﾐﾀﾞｲ","prefecture":"石川県","city":"金沢市","street":"鈴見台"},{"zipCode":"9201162","prefectureKana":"ｲｼｶﾜｹﾝ","cityKana":"ｶﾅｻﾞﾜｼ","streetKana":"ｽｽﾞﾐﾏﾁ","prefecture":"石川県","city":"金沢市","street":"鈴見町"},{"zipCode":"9201101","prefectureKana":"ｲｼｶﾜｹﾝ","cityKana":"ｶﾅｻﾞﾜｼ","streetKana":"ｽﾅｺﾞｻﾞｶﾏﾁ","prefecture":"石川県","city":"金沢市","street":"砂子坂町"},{"zipCode":"9201344","prefectureKana":"ｲｼｶﾜｹﾝ","cityKana":"ｶﾅｻﾞﾜｼ","streetKana":"ｽﾐﾖｼﾏﾁ","prefecture":"石川県","city":"金沢市","street":"住吉町"},{"zipCode":"9208202","prefectureKana":"ｲｼｶﾜｹﾝ","cityKana":"ｶﾅｻﾞﾜｼ","streetKana":"ｾｲﾄ","prefecture":"石川県","city":"金沢市","street":"西都"},{"zipCode":"9200002","prefectureKana":"ｲｼｶﾜｹﾝ","cityKana":"ｶﾅｻﾞﾜｼ","streetKana":"ｾｷﾞ","prefecture":"石川県","city":"金沢市","street":"千木"},{"zipCode":"9200001","prefectureKana":"ｲｼｶﾜｹﾝ","cityKana":"ｶﾅｻﾞﾜｼ","streetKana":"ｾｷﾞﾏﾁ","prefecture":"石川県","city":"金沢市","street":"千木町"},{"zipCode":"9201312","prefectureKana":"ｲｼｶﾜｹﾝ","cityKana":"ｶﾅｻﾞﾜｼ","streetKana":"ｾﾘｮｳﾏﾁ","prefecture":"石川県","city":"金沢市","street":"瀬領町"},{"zipCode":"9200356","prefectureKana":"ｲｼｶﾜｹﾝ","cityKana":"ｶﾅｻﾞﾜｼ","streetKana":"ｾﾝｺｳｼﾞﾏﾁ","prefecture":"石川県","city":"金沢市","street":"専光寺町"},{"zipCode":"9200204","prefectureKana":"ｲｼｶﾜｹﾝ","cityKana":"ｶﾅｻﾞﾜｼ","streetKana":"ｾﾝﾀﾞﾏﾁ","prefecture":"石川県","city":"金沢市","street":"千田町"},{"zipCode":"9200115","prefectureKana":"ｲｼｶﾜｹﾝ","cityKana":"ｶﾅｻﾞﾜｼ","streetKana":"ｾﾝﾉｽｷﾞﾏﾁ","prefecture":"石川県","city":"金沢市","street":"千杉町"},{"zipCode":"9200982","prefectureKana":"ｲｼｶﾜｹﾝ","cityKana":"ｶﾅｻﾞﾜｼ","streetKana":"ﾀﾞｲｸﾏﾁ","prefecture":"石川県","city":"金沢市","street":"大工町"},{"zipCode":"9200924","prefectureKana":"ｲｼｶﾜｹﾝ","cityKana":"ｶﾅｻﾞﾜｼ","streetKana":"ﾀｲﾏﾁ","prefecture":"石川県","city":"金沢市","street":"田井町"},{"zipCode":"9201154","prefectureKana":"ｲｼｶﾜｹﾝ","cityKana":"ｶﾅｻﾞﾜｼ","streetKana":"ﾀｲﾖｳｶﾞｵｶ","prefecture":"石川県","city":"金沢市","street":"太陽が丘"},{"zipCode":"9201141","prefectureKana":"ｲｼｶﾜｹﾝ","cityKana":"ｶﾅｻﾞﾜｼ","streetKana":"ﾀﾞｲﾗﾎﾝﾏﾁ","prefecture":"石川県","city":"金沢市","street":"平等本町"},{"zipCode":"9201334","prefectureKana":"ｲｼｶﾜｹﾝ","cityKana":"ｶﾅｻﾞﾜｼ","streetKana":"ﾀｲﾗﾏﾁ","prefecture":"石川県","city":"金沢市","street":"平町"},{"zipCode":"9200046","prefectureKana":"ｲｼｶﾜｹﾝ","cityKana":"ｶﾅｻﾞﾜｼ","streetKana":"ﾀﾞｲﾜﾏﾁ","prefecture":"石川県","city":"金沢市","street":"大和町"},{"zipCode":"9201143","prefectureKana":"ｲｼｶﾜｹﾝ","cityKana":"ｶﾅｻﾞﾜｼ","streetKana":"ﾀｶｲｹﾏﾁ","prefecture":"石川県","city":"金沢市","street":"高池町"},{"zipCode":"9200864","prefectureKana":"ｲｼｶﾜｹﾝ","cityKana":"ｶﾅｻﾞﾜｼ","streetKana":"ﾀｶｵｶﾏﾁ","prefecture":"石川県","city":"金沢市","street":"高岡町"},{"zipCode":"9200155","prefectureKana":"ｲｼｶﾜｹﾝ","cityKana":"ｶﾅｻﾞﾜｼ","streetKana":"ﾀｶｻｶﾏﾁ","prefecture":"石川県","city":"金沢市","street":"高坂町"},{"zipCode":"9200005","prefectureKana":"ｲｼｶﾜｹﾝ","cityKana":"ｶﾅｻﾞﾜｼ","streetKana":"ﾀｶﾔﾅｷﾞﾏﾁ","prefecture":"石川県","city":"金沢市","street":"高柳町"},{"zipCode":"9200934","prefectureKana":"ｲｼｶﾜｹﾝ","cityKana":"ｶﾅｻﾞﾜｼ","streetKana":"ﾀｶﾗﾏﾁ","prefecture":"石川県","city":"金沢市","street":"宝町"},{"zipCode":"9201152","prefectureKana":"ｲｼｶﾜｹﾝ","cityKana":"ｶﾅｻﾞﾜｼ","streetKana":"ﾀｶﾞﾐ","prefecture":"石川県","city":"金沢市","street":"田上"},{"zipCode":"9201157","prefectureKana":"ｲｼｶﾜｹﾝ","cityKana":"ｶﾅｻﾞﾜｼ","streetKana":"ﾀｶﾞﾐｻｸﾗ","prefecture":"石川県","city":"金沢市","street":"田上さくら"},{"zipCode":"9201153","prefectureKana":"ｲｼｶﾜｹﾝ","cityKana":"ｶﾅｻﾞﾜｼ","streetKana":"ﾀｶﾞﾐｼﾝﾏﾁ","prefecture":"石川県","city":"金沢市","street":"田上新町"},{"zipCode":"9201156","prefectureKana":"ｲｼｶﾜｹﾝ","cityKana":"ｶﾅｻﾞﾜｼ","streetKana":"ﾀｶﾞﾐﾉｻﾄ","prefecture":"石川県","city":"金沢市","street":"田上の里"},{"zipCode":"9201155","prefectureKana":"ｲｼｶﾜｹﾝ","cityKana":"ｶﾅｻﾞﾜｼ","streetKana":"ﾀｶﾞﾐﾎﾝﾏﾁ","prefecture":"石川県","city":"金沢市","street":"田上本町"},{"zipCode":"9201151","prefectureKana":"ｲｼｶﾜｹﾝ","cityKana":"ｶﾅｻﾞﾜｼ","streetKana":"ﾀｶﾞﾐﾏﾁ","prefecture":"石川県","city":"金沢市","street":"田上町"},{"zipCode":"9200123","prefectureKana":"ｲｼｶﾜｹﾝ","cityKana":"ｶﾅｻﾞﾜｼ","streetKana":"ﾀｷｼﾀﾏﾁ","prefecture":"石川県","city":"金沢市","street":"滝下町"},{"zipCode":"9200137","prefectureKana":"ｲｼｶﾜｹﾝ","cityKana":"ｶﾅｻﾞﾜｼ","streetKana":"ﾀｹﾏﾀﾏﾁ","prefecture":"石川県","city":"金沢市","street":"竹又町"},{"zipCode":"9203102","prefectureKana":"ｲｼｶﾜｹﾝ","cityKana":"ｶﾅｻﾞﾜｼ","streetKana":"ﾀﾀﾞﾅﾜﾏﾁ","prefecture":"石川県","city":"金沢市","street":"忠縄町"},{"zipCode":"9200957","prefectureKana":"ｲｼｶﾜｹﾝ","cityKana":"ｶﾅｻﾞﾜｼ","streetKana":"ﾀﾁﾏﾁ","prefecture":"石川県","city":"金沢市","street":"舘町"},{"zipCode":"9200956","prefectureKana":"ｲｼｶﾜｹﾝ","cityKana":"ｶﾅｻﾞﾜｼ","streetKana":"ﾀﾁﾔﾏﾏﾁ","prefecture":"石川県","city":"金沢市","street":"舘山町"},{"zipCode":"9201303","prefectureKana":"ｲｼｶﾜｹﾝ","cityKana":"ｶﾅｻﾞﾜｼ","streetKana":"ﾀﾂﾐﾏﾁ","prefecture":"石川県","city":"金沢市","street":"辰巳町"},{"zipCode":"9200997","prefectureKana":"ｲｼｶﾜｹﾝ","cityKana":"ｶﾅｻﾞﾜｼ","streetKana":"ﾀﾃﾏﾁ","prefecture":"石川県","city":"金沢市","street":"竪町"},{"zipCode":"9200007","prefectureKana":"ｲｼｶﾜｹﾝ","cityKana":"ｶﾅｻﾞﾜｼ","streetKana":"ﾀﾅｶﾏﾁ","prefecture":"石川県","city":"金沢市","street":"田中町"},{"zipCode":"9201103","prefectureKana":"ｲｼｶﾜｹﾝ","cityKana":"ｶﾅｻﾞﾜｼ","streetKana":"ﾀﾉｼﾏﾏﾁ","prefecture":"石川県","city":"金沢市","street":"田島町"},{"zipCode":"9200863","prefectureKana":"ｲｼｶﾜｹﾝ","cityKana":"ｶﾅｻﾞﾜｼ","streetKana":"ﾀﾏｶﾞﾜﾁｮｳ","prefecture":"石川県","city":"金沢市","street":"玉川町"},{"zipCode":"9200113","prefectureKana":"ｲｼｶﾜｹﾝ","cityKana":"ｶﾅｻﾞﾜｼ","streetKana":"ﾀﾗﾜﾗﾏﾁ","prefecture":"石川県","city":"金沢市","street":"俵原町"},{"zipCode":"9201108","prefectureKana":"ｲｼｶﾜｹﾝ","cityKana":"ｶﾅｻﾞﾜｼ","streetKana":"ﾀﾜﾗﾏﾁ","prefecture":"石川県","city":"金沢市","street":"俵町"},{"zipCode":"9208217","prefectureKana":"ｲｼｶﾜｹﾝ","cityKana":"ｶﾅｻﾞﾜｼ","streetKana":"ﾁｶｵｶﾏﾁ","prefecture":"石川県","city":"金沢市","street":"近岡町"},{"zipCode":"9201138","prefectureKana":"ｲｼｶﾜｹﾝ","cityKana":"ｶﾅｻﾞﾜｼ","streetKana":"ﾁﾊﾗﾏﾁ","prefecture":"石川県","city":"金沢市","street":"茅原町"},{"zipCode":"9200866","prefectureKana":"ｲｼｶﾜｹﾝ","cityKana":"ｶﾅｻﾞﾜｼ","streetKana":"ﾁｭｳｵｳﾄﾞｵﾘﾏﾁ","prefecture":"石川県","city":"金沢市","street":"中央通町"},{"zipCode":"9201147","prefectureKana":"ｲｼｶﾜｹﾝ","cityKana":"ｶﾅｻﾞﾜｼ","streetKana":"ﾁｮｳｼﾏﾁ","prefecture":"石川県","city":"金沢市","street":"銚子町"},{"zipCode":"9203113","prefectureKana":"ｲｼｶﾜｹﾝ","cityKana":"ｶﾅｻﾞﾜｼ","streetKana":"ﾂｶｻﾞｷﾏﾁ","prefecture":"石川県","city":"金沢市","street":"塚崎町"},{"zipCode":"9200178","prefectureKana":"ｲｼｶﾜｹﾝ","cityKana":"ｶﾅｻﾞﾜｼ","streetKana":"ﾂｷｳﾗﾏﾁ","prefecture":"石川県","city":"金沢市","street":"月浦町"},{"zipCode":"9200105","prefectureKana":"ｲｼｶﾜｹﾝ","cityKana":"ｶﾅｻﾞﾜｼ","streetKana":"ﾂｷｶｹﾞﾏﾁ","prefecture":"石川県","city":"金沢市","street":"月影町"},{"zipCode":"9200135","prefectureKana":"ｲｼｶﾜｹﾝ","cityKana":"ｶﾅｻﾞﾜｼ","streetKana":"ﾂﾁｺﾊﾗﾏﾁ","prefecture":"石川県","city":"金沢市","street":"土子原町"},{"zipCode":"9200955","prefectureKana":"ｲｼｶﾜｹﾝ","cityKana":"ｶﾅｻﾞﾜｼ","streetKana":"ﾂﾁｼﾐｽﾞ","prefecture":"石川県","city":"金沢市","street":"土清水"},{"zipCode":"9200161","prefectureKana":"ｲｼｶﾜｹﾝ","cityKana":"ｶﾅｻﾞﾜｼ","streetKana":"ﾂﾂﾞﾐﾄﾞｳﾏﾁ","prefecture":"石川県","city":"金沢市","street":"鞁筒町"},{"zipCode":"9200825","prefectureKana":"ｲｼｶﾜｹﾝ","cityKana":"ｶﾅｻﾞﾜｼ","streetKana":"ﾂﾙﾍﾞﾏﾁ","prefecture":"石川県","city":"金沢市","street":"釣部町"},{"zipCode":"9201315","prefectureKana":"ｲｼｶﾜｹﾝ","cityKana":"ｶﾅｻﾞﾜｼ","streetKana":"ﾃﾗﾂﾞﾏﾁ","prefecture":"石川県","city":"金沢市","street":"寺津町"},{"zipCode":"9200925","prefectureKana":"ｲｼｶﾜｹﾝ","cityKana":"ｶﾅｻﾞﾜｼ","streetKana":"ﾃﾝｼﾞﾝﾏﾁ","prefecture":"石川県","city":"金沢市","street":"天神町"},{"zipCode":"9200963","prefectureKana":"ｲｼｶﾜｹﾝ","cityKana":"ｶﾅｻﾞﾜｼ","streetKana":"ﾃﾞﾜﾏﾁ","prefecture":"石川県","city":"金沢市","street":"出羽町"},{"zipCode":"9200824","prefectureKana":"ｲｼｶﾜｹﾝ","cityKana":"ｶﾅｻﾞﾜｼ","streetKana":"ﾃﾞﾝﾄﾞｳｼﾞﾏﾁ","prefecture":"石川県","city":"金沢市","street":"伝燈寺町"},{"zipCode":"9200068","prefectureKana":"ｲｼｶﾜｹﾝ","cityKana":"ｶﾅｻﾞﾜｼ","streetKana":"ﾄｲﾀ","prefecture":"石川県","city":"金沢市","street":"戸板"},{"zipCode":"9200069","prefectureKana":"ｲｼｶﾜｹﾝ","cityKana":"ｶﾅｻﾞﾜｼ","streetKana":"ﾄｲﾀﾆｼ","prefecture":"石川県","city":"金沢市","street":"戸板西"},{"zipCode":"9200061","prefectureKana":"ｲｼｶﾜｹﾝ","cityKana":"ｶﾅｻﾞﾜｼ","streetKana":"ﾄｲﾔﾏﾁ","prefecture":"石川県","city":"金沢市","street":"問屋町"},{"zipCode":"9201133","prefectureKana":"ｲｼｶﾜｹﾝ","cityKana":"ｶﾅｻﾞﾜｼ","streetKana":"ﾄｳﾛｸﾏﾁ","prefecture":"石川県","city":"金沢市","street":"藤六町"},{"zipCode":"9200834","prefectureKana":"ｲｼｶﾜｹﾝ","cityKana":"ｶﾅｻﾞﾜｼ","streetKana":"ﾄｷﾜﾏﾁ","prefecture":"石川県","city":"金沢市","street":"常盤町"},{"zipCode":"9200101","prefectureKana":"ｲｼｶﾜｹﾝ","cityKana":"ｶﾅｻﾞﾜｼ","streetKana":"ﾄｷﾞﾔﾏﾁ","prefecture":"石川県","city":"金沢市","street":"利屋町"},{"zipCode":"9200938","prefectureKana":"ｲｼｶﾜｹﾝ","cityKana":"ｶﾅｻﾞﾜｼ","streetKana":"ﾄﾋﾞｳﾒﾁｮｳ","prefecture":"石川県","city":"金沢市","street":"飛梅町"},{"zipCode":"9208204","prefectureKana":"ｲｼｶﾜｹﾝ","cityKana":"ｶﾅｻﾞﾜｼ","streetKana":"ﾄﾐｽﾞ","prefecture":"石川県","city":"金沢市","street":"戸水"},{"zipCode":"9200223","prefectureKana":"ｲｼｶﾜｹﾝ","cityKana":"ｶﾅｻﾞﾜｼ","streetKana":"ﾄﾐｽﾞﾏﾁ","prefecture":"石川県","city":"金沢市","street":"戸水町"},{"zipCode":"9201105","prefectureKana":"ｲｼｶﾜｹﾝ","cityKana":"ｶﾅｻﾞﾜｼ","streetKana":"ﾄﾑﾛｼﾝﾎﾞ","prefecture":"石川県","city":"金沢市","street":"戸室新保"},{"zipCode":"9201106","prefectureKana":"ｲｼｶﾜｹﾝ","cityKana":"ｶﾅｻﾞﾜｼ","streetKana":"ﾄﾑﾛﾍﾞｯｼｮ","prefecture":"石川県","city":"金沢市","street":"戸室別所"},{"zipCode":"9200372","prefectureKana":"ｲｼｶﾜｹﾝ","cityKana":"ｶﾅｻﾞﾜｼ","streetKana":"ﾄﾖﾎﾏﾁ","prefecture":"石川県","city":"金沢市","street":"豊穂町"},{"zipCode":"9208218","prefectureKana":"ｲｼｶﾜｹﾝ","cityKana":"ｶﾅｻﾞﾜｼ","streetKana":"ﾅｵｴｷﾀ","prefecture":"石川県","city":"金沢市","street":"直江北"},{"zipCode":"9208215","prefectureKana":"ｲｼｶﾜｹﾝ","cityKana":"ｶﾅｻﾞﾜｼ","streetKana":"ﾅｵｴﾆｼ","prefecture":"石川県","city":"金沢市","street":"直江西"},{"zipCode":"9200141","prefectureKana":"ｲｼｶﾜｹﾝ","cityKana":"ｶﾅｻﾞﾜｼ","streetKana":"ﾅｵｴﾉﾏﾁ","prefecture":"石川県","city":"金沢市","street":"直江野町"},{"zipCode":"9208213","prefectureKana":"ｲｼｶﾜｹﾝ","cityKana":"ｶﾅｻﾞﾜｼ","streetKana":"ﾅｵｴﾋｶﾞｼ","prefecture":"石川県","city":"金沢市","street":"直江東"},{"zipCode":"9208216","prefectureKana":"ｲｼｶﾜｹﾝ","cityKana":"ｶﾅｻﾞﾜｼ","streetKana":"ﾅｵｴﾏﾁ","prefecture":"石川県","city":"金沢市","street":"直江町"},{"zipCode":"9208214","prefectureKana":"ｲｼｶﾜｹﾝ","cityKana":"ｶﾅｻﾞﾜｼ","streetKana":"ﾅｵｴﾐﾅﾐ","prefecture":"石川県","city":"金沢市","street":"直江南"},{"zipCode":"9200124","prefectureKana":"ｲｼｶﾜｹﾝ","cityKana":"ｶﾅｻﾞﾜｼ","streetKana":"ﾅｶｵﾏﾁ","prefecture":"石川県","city":"金沢市","street":"中尾町"},{"zipCode":"9200975","prefectureKana":"ｲｼｶﾜｹﾝ","cityKana":"ｶﾅｻﾞﾜｼ","streetKana":"ﾅｶｶﾜﾖｹﾏﾁ","prefecture":"石川県","city":"金沢市","street":"中川除町"},{"zipCode":"9201336","prefectureKana":"ｲｼｶﾜｹﾝ","cityKana":"ｶﾅｻﾞﾜｼ","streetKana":"ﾅｶﾄﾏﾁ","prefecture":"石川県","city":"金沢市","street":"中戸町"},{"zipCode":"9200035","prefectureKana":"ｲｼｶﾜｹﾝ","cityKana":"ｶﾅｻﾞﾜｼ","streetKana":"ﾅｶﾊﾞｼﾏﾁ","prefecture":"石川県","city":"金沢市","street":"中橋町"},{"zipCode":"9200381","prefectureKana":"ｲｼｶﾜｹﾝ","cityKana":"ｶﾅｻﾞﾜｼ","streetKana":"ﾅｶﾔ","prefecture":"石川県","city":"金沢市","street":"中屋"},{"zipCode":"9200375","prefectureKana":"ｲｼｶﾜｹﾝ","cityKana":"ｶﾅｻﾞﾜｼ","streetKana":"ﾅｶﾔﾏﾁ","prefecture":"石川県","city":"金沢市","street":"中屋町"},{"zipCode":"9201109","prefectureKana":"ｲｼｶﾜｹﾝ","cityKana":"ｶﾅｻﾞﾜｼ","streetKana":"ﾅｶﾔﾏﾏﾁ","prefecture":"石川県","city":"金沢市","street":"中山町"},{"zipCode":"9200379","prefectureKana":"ｲｼｶﾜｹﾝ","cityKana":"ｶﾅｻﾞﾜｼ","streetKana":"ﾅｶﾔﾐﾅﾐ","prefecture":"石川県","city":"金沢市","street":"中屋南"},{"zipCode":"9200043","prefectureKana":"ｲｼｶﾜｹﾝ","cityKana":"ｶﾅｻﾞﾜｼ","streetKana":"ﾅｶﾞﾀ","prefecture":"石川県","city":"金沢市","street":"長田"},{"zipCode":"9200041","prefectureKana":"ｲｼｶﾜｹﾝ","cityKana":"ｶﾅｻﾞﾜｼ","streetKana":"ﾅｶﾞﾀﾎﾝﾏﾁ","prefecture":"石川県","city":"金沢市","street":"長田本町"},{"zipCode":"9200042","prefectureKana":"ｲｼｶﾜｹﾝ","cityKana":"ｶﾅｻﾞﾜｼ","streetKana":"ﾅｶﾞﾀﾏﾁ","prefecture":"石川県","city":"金沢市","street":"長田町"},{"zipCode":"9200867","prefectureKana":"ｲｼｶﾜｹﾝ","cityKana":"ｶﾅｻﾞﾜｼ","streetKana":"ﾅｶﾞﾄﾞﾍ","prefecture":"石川県","city":"金沢市","street":"長土塀"},{"zipCode":"9200865","prefectureKana":"ｲｼｶﾜｹﾝ","cityKana":"ｶﾅｻﾞﾜｼ","streetKana":"ﾅｶﾞﾏﾁ","prefecture":"石川県","city":"金沢市","street":"長町"},{"zipCode":"9200151","prefectureKana":"ｲｼｶﾜｹﾝ","cityKana":"ｶﾅｻﾞﾜｼ","streetKana":"ﾅｼﾉｷﾏﾁ","prefecture":"石川県","city":"金沢市","street":"梨木町"},{"zipCode":"9200021","prefectureKana":"ｲｼｶﾜｹﾝ","cityKana":"ｶﾅｻﾞﾜｼ","streetKana":"ﾅﾅﾂﾔﾏﾁ","prefecture":"石川県","city":"金沢市","street":"七ツ屋町"},{"zipCode":"9201137","prefectureKana":"ｲｼｶﾜｹﾝ","cityKana":"ｶﾅｻﾞﾜｼ","streetKana":"ﾅﾅﾏｶﾞﾘﾏﾁ","prefecture":"石川県","city":"金沢市","street":"七曲町"},{"zipCode":"9200928","prefectureKana":"ｲｼｶﾜｹﾝ","cityKana":"ｶﾅｻﾞﾜｼ","streetKana":"ﾅﾐｷﾏﾁ","prefecture":"石川県","city":"金沢市","street":"並木町"},{"zipCode":"9200152","prefectureKana":"ｲｼｶﾜｹﾝ","cityKana":"ｶﾅｻﾞﾜｼ","streetKana":"ﾅﾗｾﾓﾄﾏﾁ","prefecture":"石川県","city":"金沢市","street":"鳴瀬元町"},{"zipCode":"9200804","prefectureKana":"ｲｼｶﾜｹﾝ","cityKana":"ｶﾅｻﾞﾜｼ","streetKana":"ﾅﾙﾜ","prefecture":"石川県","city":"金沢市","street":"鳴和"},{"zipCode":"9200815","prefectureKana":"ｲｼｶﾜｹﾝ","cityKana":"ｶﾅｻﾞﾜｼ","streetKana":"ﾅﾙﾜﾀﾞｲ","prefecture":"石川県","city":"金沢市","street":"鳴和台"},{"zipCode":"9200814","prefectureKana":"ｲｼｶﾜｹﾝ","cityKana":"ｶﾅｻﾞﾜｼ","streetKana":"ﾅﾙﾜﾏﾁ","prefecture":"石川県","city":"金沢市","street":"鳴和町"},{"zipCode":"9201136","prefectureKana":"ｲｼｶﾜｹﾝ","cityKana":"ｶﾅｻﾞﾜｼ","streetKana":"ﾆｼｲﾁﾉｾﾏﾁ","prefecture":"石川県","city":"金沢市","street":"西市瀬町"},{"zipCode":"9200952","prefectureKana":"ｲｼｶﾜｹﾝ","cityKana":"ｶﾅｻﾞﾜｼ","streetKana":"ﾆｼｷﾏﾁ","prefecture":"石川県","city":"金沢市","street":"錦町"},{"zipCode":"9200913","prefectureKana":"ｲｼｶﾜｹﾝ","cityKana":"ｶﾅｻﾞﾜｼ","streetKana":"ﾆｼﾁｮｳ3ﾊﾞﾝﾁｮｳ","prefecture":"石川県","city":"金沢市","street":"西町三番丁"},{"zipCode":"9200914","prefectureKana":"ｲｼｶﾜｹﾝ","cityKana":"ｶﾅｻﾞﾜｼ","streetKana":"ﾆｼﾁｮｳ4ﾊﾞﾝﾁｮｳ","prefecture":"石川県","city":"金沢市","street":"西町四番丁"},{"zipCode":"9200915","prefectureKana":"ｲｼｶﾜｹﾝ","cityKana":"ｶﾅｻﾞﾜｼ","streetKana":"ﾆｼﾁｮｳﾔﾌﾞﾉｳﾁﾄﾞｵﾘ","prefecture":"石川県","city":"金沢市","street":"西町藪ノ内通"},{"zipCode":"9200067","prefectureKana":"ｲｼｶﾜｹﾝ","cityKana":"ｶﾅｻﾞﾜｼ","streetKana":"ﾆﾉﾐﾔﾏﾁ","prefecture":"石川県","city":"金沢市","street":"二宮町"},{"zipCode":"9200142","prefectureKana":"ｲｼｶﾜｹﾝ","cityKana":"ｶﾅｻﾞﾜｼ","streetKana":"ﾉｳﾈﾝﾏﾁ","prefecture":"石川県","city":"金沢市","street":"納年町"},{"zipCode":"9200903","prefectureKana":"ｲｼｶﾜｹﾝ","cityKana":"ｶﾅｻﾞﾜｼ","streetKana":"ﾊﾞｸﾛﾏﾁ","prefecture":"石川県","city":"金沢市","street":"博労町"},{"zipCode":"9200911","prefectureKana":"ｲｼｶﾜｹﾝ","cityKana":"ｶﾅｻﾞﾜｼ","streetKana":"ﾊｼﾊﾞﾁｮｳ","prefecture":"石川県","city":"金沢市","street":"橋場町"},{"zipCode":"9203106","prefectureKana":"ｲｼｶﾜｹﾝ","cityKana":"ｶﾅｻﾞﾜｼ","streetKana":"ﾊｯﾀﾏﾁ","prefecture":"石川県","city":"金沢市","street":"八田町"},{"zipCode":"9203104","prefectureKana":"ｲｼｶﾜｹﾝ","cityKana":"ｶﾅｻﾞﾜｼ","streetKana":"ﾊｯﾀﾏﾁﾋｶﾞｼ","prefecture":"石川県","city":"金沢市","street":"八田町東"},{"zipCode":"9203105","prefectureKana":"ｲｼｶﾜｹﾝ","cityKana":"ｶﾅｻﾞﾜｼ","streetKana":"ﾊｯﾀﾏﾁﾆｼ","prefecture":"石川県","city":"金沢市","street":"八田町西"},{"zipCode":"9200951","prefectureKana":"ｲｼｶﾜｹﾝ","cityKana":"ｶﾅｻﾞﾜｼ","streetKana":"ﾊﾅｻﾞﾄﾏﾁ","prefecture":"石川県","city":"金沢市","street":"花里町"},{"zipCode":"9200103","prefectureKana":"ｲｼｶﾜｹﾝ","cityKana":"ｶﾅｻﾞﾜｼ","streetKana":"ﾊﾅｿﾞﾉﾔﾜﾀﾏﾁ","prefecture":"石川県","city":"金沢市","street":"花園八幡町"},{"zipCode":"9201128","prefectureKana":"ｲｼｶﾜｹﾝ","cityKana":"ｶﾅｻﾞﾜｼ","streetKana":"ﾊﾊﾞﾏﾁ","prefecture":"石川県","city":"金沢市","street":"羽場町"},{"zipCode":"9201131","prefectureKana":"ｲｼｶﾜｹﾝ","cityKana":"ｶﾅｻﾞﾜｼ","streetKana":"ﾋｶﾞｼｱﾗﾔﾏﾁ","prefecture":"石川県","city":"金沢市","street":"東荒屋町"},{"zipCode":"9201134","prefectureKana":"ｲｼｶﾜｹﾝ","cityKana":"ｶﾅｻﾞﾜｼ","streetKana":"ﾋｶﾞｼｲﾁﾉｾﾏﾁ","prefecture":"石川県","city":"金沢市","street":"東市瀬町"},{"zipCode":"9200209","prefectureKana":"ｲｼｶﾜｹﾝ","cityKana":"ｶﾅｻﾞﾜｼ","streetKana":"ﾋｶﾞｼｶｶﾞﾂﾒﾏﾁ","prefecture":"石川県","city":"金沢市","street":"東蚊爪町"},{"zipCode":"9200933","prefectureKana":"ｲｼｶﾜｹﾝ","cityKana":"ｶﾅｻﾞﾜｼ","streetKana":"ﾋｶﾞｼｹﾝﾛｸﾏﾁ","prefecture":"石川県","city":"金沢市","street":"東兼六町"},{"zipCode":"9200822","prefectureKana":"ｲｼｶﾜｹﾝ","cityKana":"ｶﾅｻﾞﾜｼ","streetKana":"ﾋｶﾞｼﾅｶﾞｴﾏﾁ","prefecture":"石川県","city":"金沢市","street":"東長江町"},{"zipCode":"9200131","prefectureKana":"ｲｼｶﾜｹﾝ","cityKana":"ｶﾅｻﾞﾜｼ","streetKana":"ﾋｶﾞｼﾊﾗﾏﾁ","prefecture":"石川県","city":"金沢市","street":"東原町"},{"zipCode":"9201121","prefectureKana":"ｲｼｶﾜｹﾝ","cityKana":"ｶﾅｻﾞﾜｼ","streetKana":"ﾋｶﾞｼﾏﾁ","prefecture":"石川県","city":"金沢市","street":"東町"},{"zipCode":"9200835","prefectureKana":"ｲｼｶﾜｹﾝ","cityKana":"ｶﾅｻﾞﾜｼ","streetKana":"ﾋｶﾞｼﾐｶｹﾞﾏﾁ","prefecture":"石川県","city":"金沢市","street":"東御影町"},{"zipCode":"9200831","prefectureKana":"ｲｼｶﾜｹﾝ","cityKana":"ｶﾅｻﾞﾜｼ","streetKana":"ﾋｶﾞｼﾔﾏ","prefecture":"石川県","city":"金沢市","street":"東山"},{"zipCode":"9200003","prefectureKana":"ｲｼｶﾜｹﾝ","cityKana":"ｶﾅｻﾞﾜｼ","streetKana":"ﾋｷﾀﾞ","prefecture":"石川県","city":"金沢市","street":"疋田"},{"zipCode":"9200004","prefectureKana":"ｲｼｶﾜｹﾝ","cityKana":"ｶﾅｻﾞﾜｼ","streetKana":"ﾋｷﾀﾞﾏﾁ","prefecture":"石川県","city":"金沢市","street":"疋田町"},{"zipCode":"9200901","prefectureKana":"ｲｼｶﾜｹﾝ","cityKana":"ｶﾅｻﾞﾜｼ","streetKana":"ﾋｺｿﾏﾁ","prefecture":"石川県","city":"金沢市","street":"彦三町"},{"zipCode":"9201111","prefectureKana":"ｲｼｶﾜｹﾝ","cityKana":"ｶﾅｻﾞﾜｼ","streetKana":"ﾋｼｲｹｵﾊﾗﾏﾁ","prefecture":"石川県","city":"金沢市","street":"菱池小原町"},{"zipCode":"9200845","prefectureKana":"ｲｼｶﾜｹﾝ","cityKana":"ｶﾅｻﾞﾜｼ","streetKana":"ﾋｮｳﾀﾝﾏﾁ","prefecture":"石川県","city":"金沢市","street":"瓢箪町"},{"zipCode":"9200033","prefectureKana":"ｲｼｶﾜｹﾝ","cityKana":"ｶﾅｻﾞﾜｼ","streetKana":"ﾋﾖｼﾏﾁ","prefecture":"石川県","city":"金沢市","street":"日吉町"},{"zipCode":"9200031","prefectureKana":"ｲｼｶﾜｹﾝ","cityKana":"ｶﾅｻﾞﾜｼ","streetKana":"ﾋﾛｵｶ","prefecture":"石川県","city":"金沢市","street":"広岡"},{"zipCode":"9200032","prefectureKana":"ｲｼｶﾜｹﾝ","cityKana":"ｶﾅｻﾞﾜｼ","streetKana":"ﾋﾛｵｶﾏﾁ","prefecture":"石川県","city":"金沢市","street":"広岡町"},{"zipCode":"9200962","prefectureKana":"ｲｼｶﾜｹﾝ","cityKana":"ｶﾅｻﾞﾜｼ","streetKana":"ﾋﾛｻｶ","prefecture":"石川県","city":"金沢市","street":"広坂"},{"zipCode":"9200165","prefectureKana":"ｲｼｶﾜｹﾝ","cityKana":"ｶﾅｻﾞﾜｼ","streetKana":"ﾌｶﾀﾆﾏﾁ","prefecture":"石川県","city":"金沢市","street":"深谷町"},{"zipCode":"9200167","prefectureKana":"ｲｼｶﾜｹﾝ","cityKana":"ｶﾅｻﾞﾜｼ","streetKana":"ﾌｸﾊﾞﾀｹﾏﾁ","prefecture":"石川県","city":"金沢市","street":"福畠町"},{"zipCode":"9203126","prefectureKana":"ｲｼｶﾜｹﾝ","cityKana":"ｶﾅｻﾞﾜｼ","streetKana":"ﾌｸﾋｻ","prefecture":"石川県","city":"金沢市","street":"福久"},{"zipCode":"9203122","prefectureKana":"ｲｼｶﾜｹﾝ","cityKana":"ｶﾅｻﾞﾜｼ","streetKana":"ﾌｸﾋｻﾏﾁ","prefecture":"石川県","city":"金沢市","street":"福久町"},{"zipCode":"9203123","prefectureKana":"ｲｼｶﾜｹﾝ","cityKana":"ｶﾅｻﾞﾜｼ","streetKana":"ﾌｸﾋｻﾋｶﾞｼ","prefecture":"石川県","city":"金沢市","street":"福久東"},{"zipCode":"9200376","prefectureKana":"ｲｼｶﾜｹﾝ","cityKana":"ｶﾅｻﾞﾜｼ","streetKana":"ﾌｸﾏｽﾏﾁ","prefecture":"石川県","city":"金沢市","street":"福増町"},{"zipCode":"9201144","prefectureKana":"ｲｼｶﾜｹﾝ","cityKana":"ｶﾅｻﾞﾜｼ","streetKana":"ﾌｸﾛｲﾀﾔﾏﾁ","prefecture":"石川県","city":"金沢市","street":"袋板屋町"},{"zipCode":"9200361","prefectureKana":"ｲｼｶﾜｹﾝ","cityKana":"ｶﾅｻﾞﾜｼ","streetKana":"ﾌｸﾛﾊﾞﾀｹﾏﾁ","prefecture":"石川県","city":"金沢市","street":"袋畠町"},{"zipCode":"9200909","prefectureKana":"ｲｼｶﾜｹﾝ","cityKana":"ｶﾅｻﾞﾜｼ","streetKana":"ﾌｸﾛﾏﾁ","prefecture":"石川県","city":"金沢市","street":"袋町"},{"zipCode":"9200351","prefectureKana":"ｲｼｶﾜｹﾝ","cityKana":"ｶﾅｻﾞﾜｼ","streetKana":"ﾌｼｮｳｼﾞﾏﾁ","prefecture":"石川県","city":"金沢市","street":"普正寺町"},{"zipCode":"9200346","prefectureKana":"ｲｼｶﾜｹﾝ","cityKana":"ｶﾅｻﾞﾜｼ","streetKana":"ﾌｼﾞｴﾐﾅﾐ","prefecture":"石川県","city":"金沢市","street":"藤江南"},{"zipCode":"9200345","prefectureKana":"ｲｼｶﾜｹﾝ","cityKana":"ｶﾅｻﾞﾜｼ","streetKana":"ﾌｼﾞｴｷﾀ","prefecture":"石川県","city":"金沢市","street":"藤江北"},{"zipCode":"9200051","prefectureKana":"ｲｼｶﾜｹﾝ","cityKana":"ｶﾅｻﾞﾜｼ","streetKana":"ﾌﾀｸﾁﾏﾁ","prefecture":"石川県","city":"金沢市","street":"二口町"},{"zipCode":"9200354","prefectureKana":"ｲｼｶﾜｹﾝ","cityKana":"ｶﾅｻﾞﾜｼ","streetKana":"ﾌﾀﾂﾃﾞﾗﾏﾁ","prefecture":"石川県","city":"金沢市","street":"二ツ寺町"},{"zipCode":"9200065","prefectureKana":"ｲｼｶﾜｹﾝ","cityKana":"ｶﾅｻﾞﾜｼ","streetKana":"ﾌﾀﾂﾔﾏﾁ","prefecture":"石川県","city":"金沢市","street":"二ツ屋町"},{"zipCode":"9201316","prefectureKana":"ｲｼｶﾜｹﾝ","cityKana":"ｶﾅｻﾞﾜｼ","streetKana":"ﾌﾀﾏﾀｼﾝﾏﾁ","prefecture":"石川県","city":"金沢市","street":"二又新町"},{"zipCode":"9201102","prefectureKana":"ｲｼｶﾜｹﾝ","cityKana":"ｶﾅｻﾞﾜｼ","streetKana":"ﾌﾀﾏﾀﾏﾁ","prefecture":"石川県","city":"金沢市","street":"二俣町"},{"zipCode":"9200107","prefectureKana":"ｲｼｶﾜｹﾝ","cityKana":"ｶﾅｻﾞﾜｼ","streetKana":"ﾌﾂｶｲﾁﾏﾁ","prefecture":"石川県","city":"金沢市","street":"二日市町"},{"zipCode":"9200173","prefectureKana":"ｲｼｶﾜｹﾝ","cityKana":"ｶﾅｻﾞﾜｼ","streetKana":"ﾌﾄﾞｳｼﾞﾏﾁ","prefecture":"石川県","city":"金沢市","street":"不動寺町"},{"zipCode":"9200147","prefectureKana":"ｲｼｶﾜｹﾝ","cityKana":"ｶﾅｻﾞﾜｼ","streetKana":"ﾌﾑﾛﾏﾁ","prefecture":"石川県","city":"金沢市","street":"不室町"},{"zipCode":"9200156","prefectureKana":"ｲｼｶﾜｹﾝ","cityKana":"ｶﾅｻﾞﾜｼ","streetKana":"ﾌﾙﾔﾀﾞﾆﾏﾁ","prefecture":"石川県","city":"金沢市","street":"古屋谷町"},{"zipCode":"9201341","prefectureKana":"ｲｼｶﾜｹﾝ","cityKana":"ｶﾅｻﾞﾜｼ","streetKana":"ﾍﾞｯｼｮﾏﾁ","prefecture":"石川県","city":"金沢市","street":"別所町"},{"zipCode":"9203132","prefectureKana":"ｲｼｶﾜｹﾝ","cityKana":"ｶﾅｻﾞﾜｼ","streetKana":"ﾎｳｺｳｼﾞﾏﾁ","prefecture":"石川県","city":"金沢市","street":"法光寺町"},{"zipCode":"9200862","prefectureKana":"ｲｼｶﾜｹﾝ","cityKana":"ｶﾅｻﾞﾜｼ","streetKana":"ﾎｳｻｲ","prefecture":"石川県","city":"金沢市","street":"芳斉"},{"zipCode":"9200177","prefectureKana":"ｲｼｶﾜｹﾝ","cityKana":"ｶﾅｻﾞﾜｼ","streetKana":"ﾎｸﾖｳﾀﾞｲ","prefecture":"石川県","city":"金沢市","street":"北陽台"},{"zipCode":"9200849","prefectureKana":"ｲｼｶﾜｹﾝ","cityKana":"ｶﾅｻﾞﾜｼ","streetKana":"ﾎﾘｶﾜｼﾝﾏﾁ","prefecture":"石川県","city":"金沢市","street":"堀川新町"},{"zipCode":"9200847","prefectureKana":"ｲｼｶﾜｹﾝ","cityKana":"ｶﾅｻﾞﾜｼ","streetKana":"ﾎﾘｶﾜﾏﾁ","prefecture":"石川県","city":"金沢市","street":"堀川町"},{"zipCode":"9200133","prefectureKana":"ｲｼｶﾜｹﾝ","cityKana":"ｶﾅｻﾞﾜｼ","streetKana":"ﾎﾘｷﾘﾏﾁ","prefecture":"石川県","city":"金沢市","street":"堀切町"},{"zipCode":"9200964","prefectureKana":"ｲｼｶﾜｹﾝ","cityKana":"ｶﾅｻﾞﾜｼ","streetKana":"ﾎﾝﾀﾞﾏﾁ","prefecture":"石川県","city":"金沢市","street":"本多町"},{"zipCode":"9200853","prefectureKana":"ｲｼｶﾜｹﾝ","cityKana":"ｶﾅｻﾞﾜｼ","streetKana":"ﾎﾝﾏﾁ","prefecture":"石川県","city":"金沢市","street":"本町"},{"zipCode":"9200827","prefectureKana":"ｲｼｶﾜｹﾝ","cityKana":"ｶﾅｻﾞﾜｼ","streetKana":"ﾏｷﾏﾁ","prefecture":"石川県","city":"金沢市","street":"牧町"},{"zipCode":"9200148","prefectureKana":"ｲｼｶﾜｹﾝ","cityKana":"ｶﾅｻﾞﾜｼ","streetKana":"ﾏｷﾔﾏﾏﾁ","prefecture":"石川県","city":"金沢市","street":"牧山町"},{"zipCode":"9200134","prefectureKana":"ｲｼｶﾜｹﾝ","cityKana":"ｶﾅｻﾞﾜｼ","streetKana":"ﾏｹﾞｼﾊﾗﾏﾁ","prefecture":"石川県","city":"金沢市","street":"曲子原町"},{"zipCode":"9200364","prefectureKana":"ｲｼｶﾜｹﾝ","cityKana":"ｶﾅｻﾞﾜｼ","streetKana":"ﾏﾂｼﾏ","prefecture":"石川県","city":"金沢市","street":"松島"},{"zipCode":"9200364","prefectureKana":"ｲｼｶﾜｹﾝ","cityKana":"ｶﾅｻﾞﾜｼ","streetKana":"ﾏﾂｼﾏﾏﾁ","prefecture":"石川県","city":"金沢市","street":"松島町"},{"zipCode":"9200011","prefectureKana":"ｲｼｶﾜｹﾝ","cityKana":"ｶﾅｻﾞﾜｼ","streetKana":"ﾏﾂﾃﾞﾗﾏﾁ","prefecture":"石川県","city":"金沢市","street":"松寺町"},{"zipCode":"9200136","prefectureKana":"ｲｼｶﾜｹﾝ","cityKana":"ｶﾅｻﾞﾜｼ","streetKana":"ﾏﾂﾈﾏﾁ","prefecture":"石川県","city":"金沢市","street":"松根町"},{"zipCode":"9200348","prefectureKana":"ｲｼｶﾜｹﾝ","cityKana":"ｶﾅｻﾞﾜｼ","streetKana":"ﾏﾂﾑﾗ","prefecture":"石川県","city":"金沢市","street":"松村"},{"zipCode":"9200347","prefectureKana":"ｲｼｶﾜｹﾝ","cityKana":"ｶﾅｻﾞﾜｼ","streetKana":"ﾏﾂﾑﾗﾏﾁ","prefecture":"石川県","city":"金沢市","street":"松村町"},{"zipCode":"9200047","prefectureKana":"ｲｼｶﾜｹﾝ","cityKana":"ｶﾅｻﾞﾜｼ","streetKana":"ﾏﾒﾀﾞﾎﾝﾏﾁ(ｿﾉﾀ)","prefecture":"石川県","city":"金沢市","street":"大豆田本町（その他）"},{"zipCode":"9200937","prefectureKana":"ｲｼｶﾜｹﾝ","cityKana":"ｶﾅｻﾞﾜｼ","streetKana":"ﾏﾙﾉｳﾁ","prefecture":"石川県","city":"金沢市","street":"丸の内"},{"zipCode":"9200809","prefectureKana":"ｲｼｶﾜｹﾝ","cityKana":"ｶﾅｻﾞﾜｼ","streetKana":"ﾐｲｹｻｶｴﾏﾁ","prefecture":"石川県","city":"金沢市","street":"三池栄町"},{"zipCode":"9200808","prefectureKana":"ｲｼｶﾜｹﾝ","cityKana":"ｶﾅｻﾞﾜｼ","streetKana":"ﾐｲｹｼﾝﾏﾁ","prefecture":"石川県","city":"金沢市","street":"三池新町"},{"zipCode":"9200802","prefectureKana":"ｲｼｶﾜｹﾝ","cityKana":"ｶﾅｻﾞﾜｼ","streetKana":"ﾐｲｹﾏﾁ","prefecture":"石川県","city":"金沢市","street":"三池町"},{"zipCode":"9200063","prefectureKana":"ｲｼｶﾜｹﾝ","cityKana":"ｶﾅｻﾞﾜｼ","streetKana":"ﾐｳﾗﾏﾁ","prefecture":"石川県","city":"金沢市","street":"三浦町"},{"zipCode":"9200201","prefectureKana":"ｲｼｶﾜｹﾝ","cityKana":"ｶﾅｻﾞﾜｼ","streetKana":"ﾐｽﾞｷ","prefecture":"石川県","city":"金沢市","street":"みずき"},{"zipCode":"9200978","prefectureKana":"ｲｼｶﾜｹﾝ","cityKana":"ｶﾅｻﾞﾜｼ","streetKana":"ﾐｽﾞﾀﾒﾏﾁ","prefecture":"石川県","city":"金沢市","street":"水溜町"},{"zipCode":"9201321","prefectureKana":"ｲｼｶﾜｹﾝ","cityKana":"ｶﾅｻﾞﾜｼ","streetKana":"ﾐｽﾞﾌﾞﾁﾏﾁ","prefecture":"石川県","city":"金沢市","street":"水淵町"},{"zipCode":"9200944","prefectureKana":"ｲｼｶﾜｹﾝ","cityKana":"ｶﾅｻﾞﾜｼ","streetKana":"ﾐﾂｸﾁｼﾝﾏﾁ","prefecture":"石川県","city":"金沢市","street":"三口新町"},{"zipCode":"9200018","prefectureKana":"ｲｼｶﾜｹﾝ","cityKana":"ｶﾅｻﾞﾜｼ","streetKana":"ﾐﾂｸﾁﾏﾁ","prefecture":"石川県","city":"金沢市","street":"三口町"},{"zipCode":"9201346","prefectureKana":"ｲｼｶﾜｹﾝ","cityKana":"ｶﾅｻﾞﾜｼ","streetKana":"ﾐﾂｺｳｼﾞﾏﾁ","prefecture":"石川県","city":"金沢市","street":"三小牛町"},{"zipCode":"9200214","prefectureKana":"ｲｼｶﾜｹﾝ","cityKana":"ｶﾅｻﾞﾜｼ","streetKana":"ﾐﾂﾔﾏﾁ","prefecture":"石川県","city":"金沢市","street":"三ツ屋町"},{"zipCode":"9200373","prefectureKana":"ｲｼｶﾜｹﾝ","cityKana":"ｶﾅｻﾞﾜｼ","streetKana":"ﾐﾄﾞﾘ","prefecture":"石川県","city":"金沢市","street":"みどり"},{"zipCode":"9200211","prefectureKana":"ｲｼｶﾜｹﾝ","cityKana":"ｶﾅｻﾞﾜｼ","streetKana":"ﾐﾅﾄ","prefecture":"石川県","city":"金沢市","street":"湊"},{"zipCode":"9200812","prefectureKana":"ｲｼｶﾜｹﾝ","cityKana":"ｶﾅｻﾞﾜｼ","streetKana":"ﾐﾅﾐｺﾞｼｮﾏﾁ","prefecture":"石川県","city":"金沢市","street":"南御所町"},{"zipCode":"9200064","prefectureKana":"ｲｼｶﾜｹﾝ","cityKana":"ｶﾅｻﾞﾜｼ","streetKana":"ﾐﾅﾐｼﾝﾎﾞﾏﾁ","prefecture":"石川県","city":"金沢市","street":"南新保町"},{"zipCode":"9200127","prefectureKana":"ｲｼｶﾜｹﾝ","cityKana":"ｶﾅｻﾞﾜｼ","streetKana":"ﾐﾅﾐｾﾝｺﾞｸﾏﾁ","prefecture":"石川県","city":"金沢市","street":"南千谷町"},{"zipCode":"9200919","prefectureKana":"ｲｼｶﾜｹﾝ","cityKana":"ｶﾅｻﾞﾜｼ","streetKana":"ﾐﾅﾐﾁｮｳ","prefecture":"石川県","city":"金沢市","street":"南町"},{"zipCode":"9200366","prefectureKana":"ｲｼｶﾜｹﾝ","cityKana":"ｶﾅｻﾞﾜｼ","streetKana":"ﾐﾅﾐﾂﾞｶﾏﾁ","prefecture":"石川県","city":"金沢市","street":"南塚町"},{"zipCode":"9200044","prefectureKana":"ｲｼｶﾜｹﾝ","cityKana":"ｶﾅｻﾞﾜｼ","streetKana":"ﾐﾅﾐﾋﾛｵｶﾏﾁ","prefecture":"石川県","city":"金沢市","street":"南広岡町"},{"zipCode":"9203116","prefectureKana":"ｲｼｶﾜｹﾝ","cityKana":"ｶﾅｻﾞﾜｼ","streetKana":"ﾐﾅﾐﾓﾘﾓﾄﾏﾁ","prefecture":"石川県","city":"金沢市","street":"南森本町"},{"zipCode":"9200153","prefectureKana":"ｲｼｶﾜｹﾝ","cityKana":"ｶﾅｻﾞﾜｼ","streetKana":"ﾐﾔﾉﾏﾁ","prefecture":"石川県","city":"金沢市","street":"宮野町"},{"zipCode":"9200006","prefectureKana":"ｲｼｶﾜｹﾝ","cityKana":"ｶﾅｻﾞﾜｼ","streetKana":"ﾐﾔﾎﾞﾏﾁ","prefecture":"石川県","city":"金沢市","street":"宮保町"},{"zipCode":"9203115","prefectureKana":"ｲｼｶﾜｹﾝ","cityKana":"ｶﾅｻﾞﾜｼ","streetKana":"ﾐﾛｸﾏﾁ","prefecture":"石川県","city":"金沢市","street":"弥勒町"},{"zipCode":"9200045","prefectureKana":"ｲｼｶﾜｹﾝ","cityKana":"ｶﾅｻﾞﾜｼ","streetKana":"ﾑｺｳﾅｶﾏﾁ","prefecture":"石川県","city":"金沢市","street":"向中町"},{"zipCode":"9200855","prefectureKana":"ｲｼｶﾜｹﾝ","cityKana":"ｶﾅｻﾞﾜｼ","streetKana":"ﾑｻｼﾏﾁ","prefecture":"石川県","city":"金沢市","street":"武蔵町"},{"zipCode":"9200333","prefectureKana":"ｲｼｶﾜｹﾝ","cityKana":"ｶﾅｻﾞﾜｼ","streetKana":"ﾑﾘｮｳｼﾞ","prefecture":"石川県","city":"金沢市","street":"無量寺"},{"zipCode":"9200332","prefectureKana":"ｲｼｶﾜｹﾝ","cityKana":"ｶﾅｻﾞﾜｼ","streetKana":"ﾑﾘｮｳｼﾞﾏﾁ","prefecture":"石川県","city":"金沢市","street":"無量寺町"},{"zipCode":"9201314","prefectureKana":"ｲｼｶﾜｹﾝ","cityKana":"ｶﾅｻﾞﾜｼ","streetKana":"ﾒｵﾄｽｷﾞﾏﾁ","prefecture":"石川県","city":"金沢市","street":"娚杉町"},{"zipCode":"9200036","prefectureKana":"ｲｼｶﾜｹﾝ","cityKana":"ｶﾅｻﾞﾜｼ","streetKana":"ﾓﾄｷﾞｸﾁｮｳ","prefecture":"石川県","city":"金沢市","street":"元菊町"},{"zipCode":"9200842","prefectureKana":"ｲｼｶﾜｹﾝ","cityKana":"ｶﾅｻﾞﾜｼ","streetKana":"ﾓﾄﾏﾁ","prefecture":"石川県","city":"金沢市","street":"元町"},{"zipCode":"9203131","prefectureKana":"ｲｼｶﾜｹﾝ","cityKana":"ｶﾅｻﾞﾜｼ","streetKana":"ﾓﾓｻｶﾏﾁ","prefecture":"石川県","city":"金沢市","street":"百坂町"},{"zipCode":"9201167","prefectureKana":"ｲｼｶﾜｹﾝ","cityKana":"ｶﾅｻﾞﾜｼ","streetKana":"ﾓﾘﾉｻﾄ","prefecture":"石川県","city":"金沢市","street":"もりの里"},{"zipCode":"9200843","prefectureKana":"ｲｼｶﾜｹﾝ","cityKana":"ｶﾅｻﾞﾜｼ","streetKana":"ﾓﾘﾔﾏ","prefecture":"石川県","city":"金沢市","street":"森山"},{"zipCode":"9200014","prefectureKana":"ｲｼｶﾜｹﾝ","cityKana":"ｶﾅｻﾞﾜｼ","streetKana":"ﾓﾛｴﾏﾁ","prefecture":"石川県","city":"金沢市","street":"諸江町"},{"zipCode":"9200015","prefectureKana":"ｲｼｶﾜｹﾝ","cityKana":"ｶﾅｻﾞﾜｼ","streetKana":"ﾓﾛｴﾏﾁ(ｶﾐﾁｮｳ)","prefecture":"石川県","city":"金沢市","street":"諸江町（上丁）"},{"zipCode":"9200016","prefectureKana":"ｲｼｶﾜｹﾝ","cityKana":"ｶﾅｻﾞﾜｼ","streetKana":"ﾓﾛｴﾏﾁ(ﾅｶﾁｮｳ)","prefecture":"石川県","city":"金沢市","street":"諸江町（中丁）"},{"zipCode":"9200017","prefectureKana":"ｲｼｶﾜｹﾝ","cityKana":"ｶﾅｻﾞﾜｼ","streetKana":"ﾓﾛｴﾏﾁ(ｼﾓﾁｮｳ)","prefecture":"石川県","city":"金沢市","street":"諸江町（下丁）"},{"zipCode":"9200052","prefectureKana":"ｲｼｶﾜｹﾝ","cityKana":"ｶﾅｻﾞﾜｼ","streetKana":"ﾔｸｼﾄﾞｳﾏﾁ","prefecture":"石川県","city":"金沢市","street":"薬師堂町"},{"zipCode":"9200174","prefectureKana":"ｲｼｶﾜｹﾝ","cityKana":"ｶﾅｻﾞﾜｼ","streetKana":"ﾔｸｼﾏﾁ","prefecture":"石川県","city":"金沢市","street":"薬師町"},{"zipCode":"9200854","prefectureKana":"ｲｼｶﾜｹﾝ","cityKana":"ｶﾅｻﾞﾜｼ","streetKana":"ﾔｽｴﾁｮｳ","prefecture":"石川県","city":"金沢市","street":"安江町"},{"zipCode":"9203133","prefectureKana":"ｲｼｶﾜｹﾝ","cityKana":"ｶﾅｻﾞﾜｼ","streetKana":"ﾔﾅｷﾞﾊﾞｼﾏﾁ","prefecture":"石川県","city":"金沢市","street":"柳橋町"},{"zipCode":"9201337","prefectureKana":"ｲｼｶﾜｹﾝ","cityKana":"ｶﾅｻﾞﾜｼ","streetKana":"ﾔﾏｺﾞﾏﾁ","prefecture":"石川県","city":"金沢市","street":"山川町"},{"zipCode":"9200816","prefectureKana":"ｲｼｶﾜｹﾝ","cityKana":"ｶﾅｻﾞﾜｼ","streetKana":"ﾔﾏﾉｳｴﾏﾁ","prefecture":"石川県","city":"金沢市","street":"山の上町"},{"zipCode":"9200823","prefectureKana":"ｲｼｶﾜｹﾝ","cityKana":"ｶﾅｻﾞﾜｼ","streetKana":"ﾕｳﾋﾃﾞﾗﾏﾁ","prefecture":"石川県","city":"金沢市","street":"夕日寺町"},{"zipCode":"9200146","prefectureKana":"ｲｼｶﾜｹﾝ","cityKana":"ｶﾅｻﾞﾜｼ","streetKana":"ﾕﾉｷﾏﾁ","prefecture":"石川県","city":"金沢市","street":"柚木町"},{"zipCode":"9200215","prefectureKana":"ｲｼｶﾜｹﾝ","cityKana":"ｶﾅｻﾞﾜｼ","streetKana":"ﾕﾐﾄﾘﾏﾁ","prefecture":"石川県","city":"金沢市","street":"弓取町"},{"zipCode":"9201106","prefectureKana":"ｲｼｶﾜｹﾝ","cityKana":"ｶﾅｻﾞﾜｼ","streetKana":"ﾕﾔｶﾞﾊﾗﾏﾁ","prefecture":"石川県","city":"金沢市","street":"湯谷原町"},{"zipCode":"9201122","prefectureKana":"ｲｼｶﾜｹﾝ","cityKana":"ｶﾅｻﾞﾜｼ","streetKana":"ﾕﾜｸｱﾗﾔﾏﾁ","prefecture":"石川県","city":"金沢市","street":"湯涌荒屋町"},{"zipCode":"9201118","prefectureKana":"ｲｼｶﾜｹﾝ","cityKana":"ｶﾅｻﾞﾜｼ","streetKana":"ﾕﾜｸｶﾜﾁﾏﾁ","prefecture":"石川県","city":"金沢市","street":"湯涌河内町"},{"zipCode":"9201124","prefectureKana":"ｲｼｶﾜｹﾝ","cityKana":"ｶﾅｻﾞﾜｼ","streetKana":"ﾕﾜｸﾀｺﾞｼﾞﾏﾏﾁ","prefecture":"石川県","city":"金沢市","street":"湯涌田子島町"},{"zipCode":"9201119","prefectureKana":"ｲｼｶﾜｹﾝ","cityKana":"ｶﾅｻﾞﾜｼ","streetKana":"ﾕﾜｸﾏｶﾞﾘﾏﾁ","prefecture":"石川県","city":"金沢市","street":"湯涌曲町"},{"zipCode":"9201123","prefectureKana":"ｲｼｶﾜｹﾝ","cityKana":"ｶﾅｻﾞﾜｼ","streetKana":"ﾕﾜｸﾏﾁ","prefecture":"石川県","city":"金沢市","street":"湯涌町"},{"zipCode":"9201117","prefectureKana":"ｲｼｶﾜｹﾝ","cityKana":"ｶﾅｻﾞﾜｼ","streetKana":"ﾖｺﾀﾆﾏﾁ","prefecture":"石川県","city":"金沢市","street":"横谷町"},{"zipCode":"9203135","prefectureKana":"ｲｼｶﾜｹﾝ","cityKana":"ｶﾅｻﾞﾜｼ","streetKana":"ﾖｺﾏｸﾗﾏﾁ","prefecture":"石川県","city":"金沢市","street":"横枕町"},{"zipCode":"9200922","prefectureKana":"ｲｼｶﾜｹﾝ","cityKana":"ｶﾅｻﾞﾜｼ","streetKana":"ﾖｺﾔﾏﾏﾁ","prefecture":"石川県","city":"金沢市","street":"横山町"},{"zipCode":"9203114","prefectureKana":"ｲｼｶﾜｹﾝ","cityKana":"ｶﾅｻﾞﾜｼ","streetKana":"ﾖｼﾜﾗﾏﾁ","prefecture":"石川県","city":"金沢市","street":"吉原町"},{"zipCode":"9201342","prefectureKana":"ｲｼｶﾜｹﾝ","cityKana":"ｶﾅｻﾞﾜｼ","streetKana":"ﾚﾝｹﾞﾏﾁ","prefecture":"石川県","city":"金沢市","street":"蓮花町"},{"zipCode":"9201142","prefectureKana":"ｲｼｶﾜｹﾝ","cityKana":"ｶﾅｻﾞﾜｼ","streetKana":"ﾚﾝﾆｮﾏﾁ","prefecture":"石川県","city":"金沢市","street":"蓮如町"},{"zipCode":"9200868","prefectureKana":"ｲｼｶﾜｹﾝ","cityKana":"ｶﾅｻﾞﾜｼ","streetKana":"ﾛｸﾏｲﾏﾁ","prefecture":"石川県","city":"金沢市","street":"六枚町"},{"zipCode":"9200355","prefectureKana":"ｲｼｶﾜｹﾝ","cityKana":"ｶﾅｻﾞﾜｼ","streetKana":"ﾜｶﾋﾉﾏﾁ","prefecture":"石川県","city":"金沢市","street":"稚日野町"},{"zipCode":"9201165","prefectureKana":"ｲｼｶﾜｹﾝ","cityKana":"ｶﾅｻﾞﾜｼ","streetKana":"ﾜｶﾏﾂﾏﾁ","prefecture":"石川県","city":"金沢市","street":"若松町"},{"zipCode":"9200054","prefectureKana":"ｲｼｶﾜｹﾝ","cityKana":"ｶﾅｻﾞﾜｼ","streetKana":"ﾜｶﾐﾔ","prefecture":"石川県","city":"金沢市","street":"若宮"},{"zipCode":"9200053","prefectureKana":"ｲｼｶﾜｹﾝ","cityKana":"ｶﾅｻﾞﾜｼ","streetKana":"ﾜｶﾐﾔﾏﾁ","prefecture":"石川県","city":"金沢市","street":"若宮町"},{"zipCode":"9200953","prefectureKana":"ｲｼｶﾜｹﾝ","cityKana":"ｶﾅｻﾞﾜｼ","streetKana":"ﾜｸﾅﾐ","prefecture":"石川県","city":"金沢市","street":"涌波"},{"zipCode":"9200954","prefectureKana":"ｲｼｶﾜｹﾝ","cityKana":"ｶﾅｻﾞﾜｼ","streetKana":"ﾜｸﾅﾐﾏﾁ","prefecture":"石川県","city":"金沢市","street":"涌波町"},{"zipCode":"9200062","prefectureKana":"ｲｼｶﾜｹﾝ","cityKana":"ｶﾅｻﾞﾜｼ","streetKana":"ﾜﾘﾀﾞｼﾏﾁ","prefecture":"石川県","city":"金沢市","street":"割出町"},{"zipCode":"9202367","prefectureKana":"ｲｼｶﾜｹﾝ","cityKana":"ﾊｸｻﾝｼ","streetKana":"ｱｲﾀｷﾏﾁ","prefecture":"石川県","city":"白山市","street":"相滝町"},{"zipCode":"9202132","prefectureKana":"ｲｼｶﾜｹﾝ","cityKana":"ﾊｸｻﾝｼ","streetKana":"ｱｶﾗｼﾞﾏﾏﾁ","prefecture":"石川県","city":"白山市","street":"明島町"},{"zipCode":"9202356","prefectureKana":"ｲｼｶﾜｹﾝ","cityKana":"ﾊｸｻﾝｼ","streetKana":"ｱﾃﾏﾁ","prefecture":"石川県","city":"白山市","street":"阿手町"},{"zipCode":"9202332","prefectureKana":"ｲｼｶﾜｹﾝ","cityKana":"ﾊｸｻﾝｼ","streetKana":"ｱﾗﾀﾆ","prefecture":"石川県","city":"白山市","street":"荒谷"},{"zipCode":"9202151","prefectureKana":"ｲｼｶﾜｹﾝ","cityKana":"ﾊｸｻﾝｼ","streetKana":"ｱﾗﾔﾏﾁ","prefecture":"石川県","city":"白山市","street":"荒屋町"},{"zipCode":"9202148","prefectureKana":"ｲｼｶﾜｹﾝ","cityKana":"ﾊｸｻﾝｼ","streetKana":"ｱﾙｷﾏﾁ","prefecture":"石川県","city":"白山市","street":"行町"},{"zipCode":"9202141","prefectureKana":"ｲｼｶﾜｹﾝ","cityKana":"ﾊｸｻﾝｼ","streetKana":"ｱﾝﾖｳｼﾞﾏﾁ","prefecture":"石川県","city":"白山市","street":"安養寺町"},{"zipCode":"9202327","prefectureKana":"ｲｼｶﾜｹﾝ","cityKana":"ﾊｸｻﾝｼ","streetKana":"ｲﾁﾊﾗ","prefecture":"石川県","city":"白山市","street":"市原"},{"zipCode":"9202154","prefectureKana":"ｲｼｶﾜｹﾝ","cityKana":"ﾊｸｻﾝｼ","streetKana":"ｲﾉｸﾁﾏﾁ","prefecture":"石川県","city":"白山市","street":"井口町"},{"zipCode":"9202144","prefectureKana":"ｲｼｶﾜｹﾝ","cityKana":"ﾊｸｻﾝｼ","streetKana":"ｵｵﾀﾞｹﾏﾁ","prefecture":"石川県","city":"白山市","street":"大竹町"},{"zipCode":"9202333","prefectureKana":"ｲｼｶﾜｹﾝ","cityKana":"ﾊｸｻﾝｼ","streetKana":"ｵｿﾞｳ","prefecture":"石川県","city":"白山市","street":"尾添"},{"zipCode":"9202335","prefectureKana":"ｲｼｶﾜｹﾝ","cityKana":"ﾊｸｻﾝｼ","streetKana":"ｵﾅﾊﾞﾗ","prefecture":"石川県","city":"白山市","street":"女原"},{"zipCode":"9202103","prefectureKana":"ｲｼｶﾜｹﾝ","cityKana":"ﾊｸｻﾝｼ","streetKana":"ｵﾔﾅｷﾞﾏﾁ","prefecture":"石川県","city":"白山市","street":"小柳町"},{"zipCode":"9202355","prefectureKana":"ｲｼｶﾜｹﾝ","cityKana":"ﾊｸｻﾝｼ","streetKana":"ｶｽﾞｾﾏﾁ","prefecture":"石川県","city":"白山市","street":"数瀬町"},{"zipCode":"9202341","prefectureKana":"ｲｼｶﾜｹﾝ","cityKana":"ﾊｸｻﾝｼ","streetKana":"ｶﾏｼﾐｽﾞﾏﾁ","prefecture":"石川県","city":"白山市","street":"釜清水町"},{"zipCode":"9202338","prefectureKana":"ｲｼｶﾜｹﾝ","cityKana":"ﾊｸｻﾝｼ","streetKana":"ｶﾏﾀﾞﾆ","prefecture":"石川県","city":"白山市","street":"釜谷"},{"zipCode":"9202375","prefectureKana":"ｲｼｶﾜｹﾝ","cityKana":"ﾊｸｻﾝｼ","streetKana":"ｶﾐﾉﾏﾁ","prefecture":"石川県","city":"白山市","street":"上野町"},{"zipCode":"9202344","prefectureKana":"ｲｼｶﾜｹﾝ","cityKana":"ﾊｸｻﾝｼ","streetKana":"ｶﾐﾖｼﾀﾆﾏﾁ","prefecture":"石川県","city":"白山市","street":"上吉谷町"},{"zipCode":"9202373","prefectureKana":"ｲｼｶﾜｹﾝ","cityKana":"ﾊｸｻﾝｼ","streetKana":"ｶﾜｲﾏﾁ","prefecture":"石川県","city":"白山市","street":"河合町"},{"zipCode":"9202315","prefectureKana":"ｲｼｶﾜｹﾝ","cityKana":"ﾊｸｻﾝｼ","streetKana":"ｶﾜﾁﾏﾁｲﾀｵ","prefecture":"石川県","city":"白山市","street":"河内町板尾"},{"zipCode":"9202318","prefectureKana":"ｲｼｶﾜｹﾝ","cityKana":"ﾊｸｻﾝｼ","streetKana":"ｶﾜﾁﾏﾁｳﾂｵ","prefecture":"石川県","city":"白山市","street":"河内町内尾"},{"zipCode":"9202312","prefectureKana":"ｲｼｶﾜｹﾝ","cityKana":"ﾊｸｻﾝｼ","streetKana":"ｶﾜﾁﾏﾁｵｸｲｹ","prefecture":"石川県","city":"白山市","street":"河内町奥池"},{"zipCode":"9202304","prefectureKana":"ｲｼｶﾜｹﾝ","cityKana":"ﾊｸｻﾝｼ","streetKana":"ｶﾜﾁﾏﾁｷﾘﾉｻﾄ","prefecture":"石川県","city":"白山市","street":"河内町きりの里"},{"zipCode":"9202316","prefectureKana":"ｲｼｶﾜｹﾝ","cityKana":"ﾊｸｻﾝｼ","streetKana":"ｶﾜﾁﾏﾁｷﾝﾏ","prefecture":"石川県","city":"白山市","street":"河内町金間"},{"zipCode":"9202301","prefectureKana":"ｲｼｶﾜｹﾝ","cityKana":"ﾊｸｻﾝｼ","streetKana":"ｶﾜﾁﾏﾁｸﾁﾉﾐ","prefecture":"石川県","city":"白山市","street":"河内町口直海"},{"zipCode":"9202313","prefectureKana":"ｲｼｶﾜｹﾝ","cityKana":"ﾊｸｻﾝｼ","streetKana":"ｶﾜﾁﾏﾁｸﾎﾞ","prefecture":"石川県","city":"白山市","street":"河内町久保"},{"zipCode":"9202305","prefectureKana":"ｲｼｶﾜｹﾝ","cityKana":"ﾊｸｻﾝｼ","streetKana":"ｶﾜﾁﾏﾁｺﾞｳﾂﾞ","prefecture":"石川県","city":"白山市","street":"河内町江津"},{"zipCode":"9202317","prefectureKana":"ｲｼｶﾜｹﾝ","cityKana":"ﾊｸｻﾝｼ","streetKana":"ｶﾜﾁﾏﾁｿｿﾘ","prefecture":"石川県","city":"白山市","street":"河内町下折"},{"zipCode":"9202311","prefectureKana":"ｲｼｶﾜｹﾝ","cityKana":"ﾊｸｻﾝｼ","streetKana":"ｶﾜﾁﾏﾁﾅｶﾉﾐ","prefecture":"石川県","city":"白山市","street":"河内町中直海"},{"zipCode":"9202314","prefectureKana":"ｲｼｶﾜｹﾝ","cityKana":"ﾊｸｻﾝｼ","streetKana":"ｶﾜﾁﾏﾁﾌｷｱｹﾞ","prefecture":"石川県","city":"白山市","street":"河内町吹上"},{"zipCode":"9202303","prefectureKana":"ｲｼｶﾜｹﾝ","cityKana":"ﾊｸｻﾝｼ","streetKana":"ｶﾜﾁﾏﾁﾌｸｵｶ","prefecture":"石川県","city":"白山市","street":"河内町福岡"},{"zipCode":"9202302","prefectureKana":"ｲｼｶﾜｹﾝ","cityKana":"ﾊｸｻﾝｼ","streetKana":"ｶﾜﾁﾏﾁﾌｼﾞｶﾞｵｶ","prefecture":"石川県","city":"白山市","street":"河内町ふじが丘"},{"zipCode":"9202306","prefectureKana":"ｲｼｶﾜｹﾝ","cityKana":"ﾊｸｻﾝｼ","streetKana":"ｶﾜﾁﾏﾁﾖｼｵｶ","prefecture":"石川県","city":"白山市","street":"河内町吉岡"},{"zipCode":"9202346","prefectureKana":"ｲｼｶﾜｹﾝ","cityKana":"ﾊｸｻﾝｼ","streetKana":"ｶﾜﾊﾗﾔﾏﾏﾁ","prefecture":"石川県","city":"白山市","street":"河原山町"},{"zipCode":"9202326","prefectureKana":"ｲｼｶﾜｹﾝ","cityKana":"ﾊｸｻﾝｼ","streetKana":"ｷﾅﾒﾘ","prefecture":"石川県","city":"白山市","street":"木滑"},{"zipCode":"9202325","prefectureKana":"ｲｼｶﾜｹﾝ","cityKana":"ﾊｸｻﾝｼ","streetKana":"ｷﾅﾒﾘｼﾝ","prefecture":"石川県","city":"白山市","street":"木滑新"},{"zipCode":"9202502","prefectureKana":"ｲｼｶﾜｹﾝ","cityKana":"ﾊｸｻﾝｼ","streetKana":"ｸﾜｼﾞﾏ","prefecture":"石川県","city":"白山市","street":"桑島"},{"zipCode":"9202357","prefectureKana":"ｲｼｶﾜｹﾝ","cityKana":"ﾊｸｻﾝｼ","streetKana":"ｺﾞｼﾞｭｳﾀﾞﾆﾏﾁ","prefecture":"石川県","city":"白山市","street":"五十谷町"},{"zipCode":"9202337","prefectureKana":"ｲｼｶﾜｹﾝ","cityKana":"ﾊｸｻﾝｼ","streetKana":"ｺﾞﾐｼﾞﾏ","prefecture":"石川県","city":"白山市","street":"五味島"},{"zipCode":"9202102","prefectureKana":"ｲｼｶﾜｹﾝ","cityKana":"ﾊｸｻﾝｼ","streetKana":"ｻｶｼﾞﾘﾏﾁ","prefecture":"石川県","city":"白山市","street":"坂尻町"},{"zipCode":"9202322","prefectureKana":"ｲｼｶﾜｹﾝ","cityKana":"ﾊｸｻﾝｼ","streetKana":"ｻﾗ","prefecture":"石川県","city":"白山市","street":"佐良"},{"zipCode":"9202114","prefectureKana":"ｲｼｶﾜｹﾝ","cityKana":"ﾊｸｻﾝｼ","streetKana":"ｻﾝﾉﾐﾔﾏﾁ","prefecture":"石川県","city":"白山市","street":"三宮町"},{"zipCode":"9202143","prefectureKana":"ｲｼｶﾜｹﾝ","cityKana":"ﾊｸｻﾝｼ","streetKana":"ｼﾁﾊﾗﾏﾁ","prefecture":"石川県","city":"白山市","street":"七原町"},{"zipCode":"9202164","prefectureKana":"ｲｼｶﾜｹﾝ","cityKana":"ﾊｸｻﾝｼ","streetKana":"ｼﾊﾞｷ(2ﾁｮｳﾒ)","prefecture":"石川県","city":"白山市","street":"柴木（２丁目）"},{"zipCode":"9202163","prefectureKana":"ｲｼｶﾜｹﾝ","cityKana":"ﾊｸｻﾝｼ","streetKana":"ｼﾊﾞｷﾏﾁ","prefecture":"石川県","city":"白山市","street":"柴木町"},{"zipCode":"9202503","prefectureKana":"ｲｼｶﾜｹﾝ","cityKana":"ﾊｸｻﾝｼ","streetKana":"ｼﾓﾀﾜﾗ","prefecture":"石川県","city":"白山市","street":"下田原"},{"zipCode":"9202374","prefectureKana":"ｲｼｶﾜｹﾝ","cityKana":"ﾊｸｻﾝｼ","streetKana":"ｼﾓﾉﾏﾁ","prefecture":"石川県","city":"白山市","street":"下野町"},{"zipCode":"9202342","prefectureKana":"ｲｼｶﾜｹﾝ","cityKana":"ﾊｸｻﾝｼ","streetKana":"ｼﾓﾖｼﾀﾆﾏﾁ","prefecture":"石川県","city":"白山市","street":"下吉谷町"},{"zipCode":"9202501","prefectureKana":"ｲｼｶﾜｹﾝ","cityKana":"ﾊｸｻﾝｼ","streetKana":"ｼﾗﾐﾈ","prefecture":"石川県","city":"白山市","street":"白峰"},{"zipCode":"9202115","prefectureKana":"ｲｼｶﾜｹﾝ","cityKana":"ﾊｸｻﾝｼ","streetKana":"ｼﾗﾔﾏﾏﾁ","prefecture":"石川県","city":"白山市","street":"白山町"},{"zipCode":"9202364","prefectureKana":"ｲｼｶﾜｹﾝ","cityKana":"ﾊｸｻﾝｼ","streetKana":"ｽｷﾞﾓﾘﾏﾁ","prefecture":"石川県","city":"白山市","street":"杉森町"},{"zipCode":"9202372","prefectureKana":"ｲｼｶﾜｹﾝ","cityKana":"ﾊｸｻﾝｼ","streetKana":"ｾｷﾞﾉﾏﾁ","prefecture":"石川県","city":"白山市","street":"瀬木野町"},{"zipCode":"9202331","prefectureKana":"ｲｼｶﾜｹﾝ","cityKana":"ﾊｸｻﾝｼ","streetKana":"ｾﾄ","prefecture":"石川県","city":"白山市","street":"瀬戸"},{"zipCode":"9202323","prefectureKana":"ｲｼｶﾜｹﾝ","cityKana":"ﾊｸｻﾝｼ","streetKana":"ｾﾅﾐ","prefecture":"石川県","city":"白山市","street":"瀬波"},{"zipCode":"9202101","prefectureKana":"ｲｼｶﾜｹﾝ","cityKana":"ﾊｸｻﾝｼ","streetKana":"ｿﾀﾞﾆﾏﾁ","prefecture":"石川県","city":"白山市","street":"曽谷町"},{"zipCode":"9202155","prefectureKana":"ｲｼｶﾜｹﾝ","cityKana":"ﾊｸｻﾝｼ","streetKana":"ﾁｷｼﾞﾏﾁ","prefecture":"石川県","city":"白山市","street":"知気寺町"},{"zipCode":"9202324","prefectureKana":"ｲｼｶﾜｹﾝ","cityKana":"ﾊｸｻﾝｼ","streetKana":"ﾁｭｳｸﾞｳ","prefecture":"石川県","city":"白山市","street":"中宮"},{"zipCode":"9202104","prefectureKana":"ｲｼｶﾜｹﾝ","cityKana":"ﾊｸｻﾝｼ","streetKana":"ﾂｷﾊｼﾏﾁ","prefecture":"石川県","city":"白山市","street":"月橋町"},{"zipCode":"9202111","prefectureKana":"ｲｼｶﾜｹﾝ","cityKana":"ﾊｸｻﾝｼ","streetKana":"ﾂﾙｷﾞｱｻﾋﾏﾁ","prefecture":"石川県","city":"白山市","street":"鶴来朝日町"},{"zipCode":"9202125","prefectureKana":"ｲｼｶﾜｹﾝ","cityKana":"ﾊｸｻﾝｼ","streetKana":"ﾂﾙｷﾞｲﾏﾏﾁ","prefecture":"石川県","city":"白山市","street":"鶴来今町"},{"zipCode":"9202133","prefectureKana":"ｲｼｶﾜｹﾝ","cityKana":"ﾊｸｻﾝｼ","streetKana":"ﾂﾙｷﾞｵｵｸﾆﾏﾁ","prefecture":"石川県","city":"白山市","street":"鶴来大国町"},{"zipCode":"9202127","prefectureKana":"ｲｼｶﾜｹﾝ","cityKana":"ﾊｸｻﾝｼ","streetKana":"ﾂﾙｷﾞｶﾐﾋｶﾞｼﾏﾁ","prefecture":"石川県","city":"白山市","street":"鶴来上東町"},{"zipCode":"9202166","prefectureKana":"ｲｼｶﾜｹﾝ","cityKana":"ﾊｸｻﾝｼ","streetKana":"ﾂﾙｷﾞｸﾜｼﾞﾏﾏﾁ","prefecture":"石川県","city":"白山市","street":"鶴来桑島町"},{"zipCode":"9202128","prefectureKana":"ｲｼｶﾜｹﾝ","cityKana":"ﾊｸｻﾝｼ","streetKana":"ﾂﾙｷﾞｼﾓﾋｶﾞｼﾏﾁ","prefecture":"石川県","city":"白山市","street":"鶴来下東町"},{"zipCode":"9202126","prefectureKana":"ｲｼｶﾜｹﾝ","cityKana":"ﾊｸｻﾝｼ","streetKana":"ﾂﾙｷﾞｼﾝﾏﾁ","prefecture":"石川県","city":"白山市","street":"鶴来新町"},{"zipCode":"9202124","prefectureKana":"ｲｼｶﾜｹﾝ","cityKana":"ﾊｸｻﾝｼ","streetKana":"ﾂﾙｷﾞｾｲｻﾜﾏﾁ","prefecture":"石川県","city":"白山市","street":"鶴来清沢町"},{"zipCode":"9202122","prefectureKana":"ｲｼｶﾜｹﾝ","cityKana":"ﾊｸｻﾝｼ","streetKana":"ﾂﾙｷﾞﾁﾓﾘﾁｮｳ","prefecture":"石川県","city":"白山市","street":"鶴来知守町"},{"zipCode":"9202123","prefectureKana":"ｲｼｶﾜｹﾝ","cityKana":"ﾊｸｻﾝｼ","streetKana":"ﾂﾙｷﾞﾋﾂﾞﾒﾁｮｳ","prefecture":"石川県","city":"白山市","street":"鶴来日詰町"},{"zipCode":"9202112","prefectureKana":"ｲｼｶﾜｹﾝ","cityKana":"ﾊｸｻﾝｼ","streetKana":"ﾂﾙｷﾞﾋﾖｼﾏﾁ","prefecture":"石川県","city":"白山市","street":"鶴来日吉町"},{"zipCode":"9202129","prefectureKana":"ｲｼｶﾜｹﾝ","cityKana":"ﾊｸｻﾝｼ","streetKana":"ﾂﾙｷﾞﾌﾙﾏﾁ","prefecture":"石川県","city":"白山市","street":"鶴来古町"},{"zipCode":"9202121","prefectureKana":"ｲｼｶﾜｹﾝ","cityKana":"ﾊｸｻﾝｼ","streetKana":"ﾂﾙｷﾞﾎﾝﾏﾁ(1-4ﾁｮｳﾒ)","prefecture":"石川県","city":"白山市","street":"鶴来本町（１～４丁目）"},{"zipCode":"9202134","prefectureKana":"ｲｼｶﾜｹﾝ","cityKana":"ﾊｸｻﾝｼ","streetKana":"ﾂﾙｷﾞﾐﾄﾏﾁ(2-4ﾁｮｳﾒ)","prefecture":"石川県","city":"白山市","street":"鶴来水戸町（２～４丁目）"},{"zipCode":"9202368","prefectureKana":"ｲｼｶﾜｹﾝ","cityKana":"ﾊｸｻﾝｼ","streetKana":"ﾃﾞｱｲﾏﾁ","prefecture":"石川県","city":"白山市","street":"出合町"},{"zipCode":"9202162","prefectureKana":"ｲｼｶﾜｹﾝ","cityKana":"ﾊｸｻﾝｼ","streetKana":"ﾄﾞｳﾎｳｼﾞﾏﾁ","prefecture":"石川県","city":"白山市","street":"道法寺町"},{"zipCode":"9202165","prefectureKana":"ｲｼｶﾜｹﾝ","cityKana":"ﾊｸｻﾝｼ","streetKana":"ﾄﾐｺｳｼﾞﾏﾁ","prefecture":"石川県","city":"白山市","street":"富光寺町"},{"zipCode":"9202116","prefectureKana":"ｲｼｶﾜｹﾝ","cityKana":"ﾊｸｻﾝｼ","streetKana":"ﾅｶｼﾞﾏﾏﾁ","prefecture":"石川県","city":"白山市","street":"中島町"},{"zipCode":"9202339","prefectureKana":"ｲｼｶﾜｹﾝ","cityKana":"ﾊｸｻﾝｼ","streetKana":"ﾄｶﾞﾀﾆ","prefecture":"石川県","city":"白山市","street":"鴇ケ谷"},{"zipCode":"9202147","prefectureKana":"ｲｼｶﾜｹﾝ","cityKana":"ﾊｸｻﾝｼ","streetKana":"ﾅｶﾉｺﾞｳﾏﾁ","prefecture":"石川県","city":"白山市","street":"中ノ郷町"},{"zipCode":"9202343","prefectureKana":"ｲｼｶﾜｹﾝ","cityKana":"ﾊｸｻﾝｼ","streetKana":"ﾆｼｻﾗﾏﾁ","prefecture":"石川県","city":"白山市","street":"西佐良町"},{"zipCode":"9202161","prefectureKana":"ｲｼｶﾜｹﾝ","cityKana":"ﾊｸｻﾝｼ","streetKana":"ﾈﾂﾉﾏﾁ","prefecture":"石川県","city":"白山市","street":"熱野町"},{"zipCode":"9202352","prefectureKana":"ｲｼｶﾜｹﾝ","cityKana":"ﾊｸｻﾝｼ","streetKana":"ﾉｳﾁﾞﾏﾁ","prefecture":"石川県","city":"白山市","street":"野地町"},{"zipCode":"9202336","prefectureKana":"ｲｼｶﾜｹﾝ","cityKana":"ﾊｸｻﾝｼ","streetKana":"ﾋｶﾞｼﾌﾀｸﾁ","prefecture":"石川県","city":"白山市","street":"東二口"},{"zipCode":"9202353","prefectureKana":"ｲｼｶﾜｹﾝ","cityKana":"ﾊｸｻﾝｼ","streetKana":"ﾋﾀﾞﾘﾂﾌﾞﾃﾏﾁ","prefecture":"石川県","city":"白山市","street":"左礫町"},{"zipCode":"9202153","prefectureKana":"ｲｼｶﾜｹﾝ","cityKana":"ﾊｸｻﾝｼ","streetKana":"ﾋﾉﾐｺﾏﾁ","prefecture":"石川県","city":"白山市","street":"日御子町"},{"zipCode":"9202168","prefectureKana":"ｲｼｶﾜｹﾝ","cityKana":"ﾊｸｻﾝｼ","streetKana":"ﾋﾊﾞﾘ","prefecture":"石川県","city":"白山市","street":"陽羽里"},{"zipCode":"9202146","prefectureKana":"ｲｼｶﾜｹﾝ","cityKana":"ﾊｸｻﾝｼ","streetKana":"ﾋｭｳｶﾞﾏﾁ","prefecture":"石川県","city":"白山市","street":"日向町"},{"zipCode":"9202371","prefectureKana":"ｲｼｶﾜｹﾝ","cityKana":"ﾊｸｻﾝｼ","streetKana":"ﾋﾛｾﾏﾁ","prefecture":"石川県","city":"白山市","street":"広瀬町"},{"zipCode":"9202334","prefectureKana":"ｲｼｶﾜｹﾝ","cityKana":"ﾊｸｻﾝｼ","streetKana":"ﾌｶｾﾞ","prefecture":"石川県","city":"白山市","street":"深瀬"},{"zipCode":"9202142","prefectureKana":"ｲｼｶﾜｹﾝ","cityKana":"ﾊｸｻﾝｼ","streetKana":"ﾌｶｾﾞｼﾝﾏﾁ","prefecture":"石川県","city":"白山市","street":"深瀬新町"},{"zipCode":"9202347","prefectureKana":"ｲｼｶﾜｹﾝ","cityKana":"ﾊｸｻﾝｼ","streetKana":"ﾌﾞｼｶﾞﾉﾏﾁ","prefecture":"石川県","city":"白山市","street":"仏師ケ野町"},{"zipCode":"9202167","prefectureKana":"ｲｼｶﾜｹﾝ","cityKana":"ﾊｸｻﾝｼ","streetKana":"ﾌﾞﾆｭｳﾄﾞｳﾏﾁ","prefecture":"石川県","city":"白山市","street":"部入道町"},{"zipCode":"9202363","prefectureKana":"ｲｼｶﾜｹﾝ","cityKana":"ﾊｸｻﾝｼ","streetKana":"ﾍﾞﾂｸﾃﾞﾏﾁ","prefecture":"石川県","city":"白山市","street":"別宮出町"},{"zipCode":"9202362","prefectureKana":"ｲｼｶﾜｹﾝ","cityKana":"ﾊｸｻﾝｼ","streetKana":"ﾍﾞﾂｸﾏﾁ","prefecture":"石川県","city":"白山市","street":"別宮町"},{"zipCode":"9202365","prefectureKana":"ｲｼｶﾜｹﾝ","cityKana":"ﾊｸｻﾝｼ","streetKana":"ﾐｺｼﾐｽﾞﾏﾁ","prefecture":"石川県","city":"白山市","street":"神子清水町"},{"zipCode":"9202361","prefectureKana":"ｲｼｶﾜｹﾝ","cityKana":"ﾊｸｻﾝｼ","streetKana":"ﾐｻｶﾏﾁ","prefecture":"石川県","city":"白山市","street":"三坂町"},{"zipCode":"9202354","prefectureKana":"ｲｼｶﾜｹﾝ","cityKana":"ﾊｸｻﾝｼ","streetKana":"ﾐﾂｾﾏﾁ","prefecture":"石川県","city":"白山市","street":"三ツ瀬町"},{"zipCode":"9202345","prefectureKana":"ｲｼｶﾜｹﾝ","cityKana":"ﾊｸｻﾝｼ","streetKana":"ﾐﾂﾔﾉﾏﾁ","prefecture":"石川県","city":"白山市","street":"三ツ屋野町"},{"zipCode":"9202145","prefectureKana":"ｲｼｶﾜｹﾝ","cityKana":"ﾊｸｻﾝｼ","streetKana":"ﾐｮｳﾎｳｼﾞﾏﾏﾁ","prefecture":"石川県","city":"白山市","street":"明法島町"},{"zipCode":"9202152","prefectureKana":"ｲｼｶﾜｹﾝ","cityKana":"ﾊｸｻﾝｼ","streetKana":"ﾒｲｺｳ(1-4ﾁｮｳﾒ)","prefecture":"石川県","city":"白山市","street":"明光（１～４丁目）"},{"zipCode":"9202131","prefectureKana":"ｲｼｶﾜｹﾝ","cityKana":"ﾊｸｻﾝｼ","streetKana":"ﾓﾘｼﾞﾏﾏﾁ","prefecture":"石川県","city":"白山市","street":"森島町"},{"zipCode":"9202351","prefectureKana":"ｲｼｶﾜｹﾝ","cityKana":"ﾊｸｻﾝｼ","streetKana":"ﾔﾅｷﾞﾊﾗﾏﾁ","prefecture":"石川県","city":"白山市","street":"柳原町"},{"zipCode":"9202113","prefectureKana":"ｲｼｶﾜｹﾝ","cityKana":"ﾊｸｻﾝｼ","streetKana":"ﾔﾜﾀﾏﾁ","prefecture":"石川県","city":"白山市","street":"八幡町"},{"zipCode":"9202321","prefectureKana":"ｲｼｶﾜｹﾝ","cityKana":"ﾊｸｻﾝｼ","streetKana":"ﾖｼﾉ","prefecture":"石川県","city":"白山市","street":"吉野"},{"zipCode":"9202376","prefectureKana":"ｲｼｶﾜｹﾝ","cityKana":"ﾊｸｻﾝｼ","streetKana":"ﾜｶﾊﾞﾗﾏﾁ","prefecture":"石川県","city":"白山市","street":"若原町"},{"zipCode":"9202366","prefectureKana":"ｲｼｶﾜｹﾝ","cityKana":"ﾊｸｻﾝｼ","streetKana":"ﾜﾀﾂﾞﾏﾁ","prefecture":"石川県","city":"白山市","street":"渡津町"},{"zipCode":"9200200","prefectureKana":"ｲｼｶﾜｹﾝ","cityKana":"ｶﾎｸｸﾞﾝｳﾁﾅﾀﾞﾏﾁ","streetKana":"ｲｶﾆｹｲｻｲｶﾞﾅｲﾊﾞｱｲ","prefecture":"石川県","city":"河北郡内灘町","street":"以下に掲載がない場合"},{"zipCode":"9200273","prefectureKana":"ｲｼｶﾜｹﾝ","cityKana":"ｶﾎｸｸﾞﾝｳﾁﾅﾀﾞﾏﾁ","streetKana":"ｱｶｼｱ","prefecture":"石川県","city":"河北郡内灘町","street":"アカシア"},{"zipCode":"9200275","prefectureKana":"ｲｼｶﾜｹﾝ","cityKana":"ｶﾎｸｸﾞﾝｳﾁﾅﾀﾞﾏﾁ","streetKana":"ｱｻﾋｶﾞｵｶ","prefecture":"石川県","city":"河北郡内灘町","street":"旭ケ丘"},{"zipCode":"9200266","prefectureKana":"ｲｼｶﾜｹﾝ","cityKana":"ｶﾎｸｸﾞﾝｳﾁﾅﾀﾞﾏﾁ","streetKana":"ｵｵﾈﾌﾞ","prefecture":"石川県","city":"河北郡内灘町","street":"大根布"},{"zipCode":"9200272","prefectureKana":"ｲｼｶﾜｹﾝ","cityKana":"ｶﾎｸｸﾞﾝｳﾁﾅﾀﾞﾏﾁ","streetKana":"ｺｳﾖｳﾀﾞｲ","prefecture":"石川県","city":"河北郡内灘町","street":"向陽台"},{"zipCode":"9200263","prefectureKana":"ｲｼｶﾜｹﾝ","cityKana":"ｶﾎｸｸﾞﾝｳﾁﾅﾀﾞﾏﾁ","streetKana":"ｺｾｲ","prefecture":"石川県","city":"河北郡内灘町","street":"湖西"},{"zipCode":"9200269","prefectureKana":"ｲｼｶﾜｹﾝ","cityKana":"ｶﾎｸｸﾞﾝｳﾁﾅﾀﾞﾏﾁ","streetKana":"ｼﾗﾎﾀﾞｲ","prefecture":"石川県","city":"河北郡内灘町","street":"白帆台"},{"zipCode":"9200265","prefectureKana":"ｲｼｶﾜｹﾝ","cityKana":"ｶﾎｸｸﾞﾝｳﾁﾅﾀﾞﾏﾁ","streetKana":"ﾀﾞｲｶﾞｸ","prefecture":"石川県","city":"河北郡内灘町","street":"大学"},{"zipCode":"9200267","prefectureKana":"ｲｼｶﾜｹﾝ","cityKana":"ｶﾎｸｸﾞﾝｳﾁﾅﾀﾞﾏﾁ","streetKana":"ﾀｲｾｲﾀﾞｲ","prefecture":"石川県","city":"河北郡内灘町","street":"大清台"},{"zipCode":"9200277","prefectureKana":"ｲｼｶﾜｹﾝ","cityKana":"ｶﾎｸｸﾞﾝｳﾁﾅﾀﾞﾏﾁ","streetKana":"ﾁﾄﾞﾘﾀﾞｲ","prefecture":"石川県","city":"河北郡内灘町","street":"千鳥台"},{"zipCode":"9200271","prefectureKana":"ｲｼｶﾜｹﾝ","cityKana":"ｶﾎｸｸﾞﾝｳﾁﾅﾀﾞﾏﾁ","streetKana":"ﾂﾙｶﾞｵｶ","prefecture":"石川県","city":"河北郡内灘町","street":"鶴ケ丘"},{"zipCode":"9200262","prefectureKana":"ｲｼｶﾜｹﾝ","cityKana":"ｶﾎｸｸﾞﾝｳﾁﾅﾀﾞﾏﾁ","streetKana":"ﾆｼｱﾗﾔ","prefecture":"石川県","city":"河北郡内灘町","street":"西荒屋"},{"zipCode":"9200268","prefectureKana":"ｲｼｶﾜｹﾝ","cityKana":"ｶﾎｸｸﾞﾝｳﾁﾅﾀﾞﾏﾁ","streetKana":"ﾊﾏﾅｽ","prefecture":"石川県","city":"河北郡内灘町","street":"ハマナス"},{"zipCode":"9200276","prefectureKana":"ｲｼｶﾜｹﾝ","cityKana":"ｶﾎｸｸﾞﾝｳﾁﾅﾀﾞﾏﾁ","streetKana":"ﾐﾄﾞﾘﾀﾞｲ","prefecture":"石川県","city":"河北郡内灘町","street":"緑台"},{"zipCode":"9200264","prefectureKana":"ｲｼｶﾜｹﾝ","cityKana":"ｶﾎｸｸﾞﾝｳﾁﾅﾀﾞﾏﾁ","streetKana":"ﾐﾔｻｶ","prefecture":"石川県","city":"河北郡内灘町","street":"宮坂"},{"zipCode":"9200274","prefectureKana":"ｲｼｶﾜｹﾝ","cityKana":"ｶﾎｸｸﾞﾝｳﾁﾅﾀﾞﾏﾁ","streetKana":"ﾑｶｲｱﾜｶﾞｻｷ","prefecture":"石川県","city":"河北郡内灘町","street":"向粟崎"},{"zipCode":"9200261","prefectureKana":"ｲｼｶﾜｹﾝ","cityKana":"ｶﾎｸｸﾞﾝｳﾁﾅﾀﾞﾏﾁ","streetKana":"ﾑﾛ","prefecture":"石川県","city":"河北郡内灘町","street":"室"}]