[{"zipCode":"9230000","prefectureKana":"ｲｼｶﾜｹﾝ","cityKana":"ｺﾏﾂｼ","streetKana":"ｲｶﾆｹｲｻｲｶﾞﾅｲﾊﾞｱｲ","prefecture":"石川県","city":"小松市","street":"以下に掲載がない場合"},{"zipCode":"9230946","prefectureKana":"ｲｼｶﾜｹﾝ","cityKana":"ｺﾏﾂｼ","streetKana":"ｱｲｵｲﾏﾁ","prefecture":"石川県","city":"小松市","street":"相生町"},{"zipCode":"9230967","prefectureKana":"ｲｼｶﾜｹﾝ","cityKana":"ｺﾏﾂｼ","streetKana":"ｱｵｼﾞﾁｮｳ","prefecture":"石川県","city":"小松市","street":"青路町"},{"zipCode":"9230185","prefectureKana":"ｲｼｶﾜｹﾝ","cityKana":"ｺﾏﾂｼ","streetKana":"ｱｶｾﾞﾏﾁ","prefecture":"石川県","city":"小松市","street":"赤瀬町"},{"zipCode":"9230187","prefectureKana":"ｲｼｶﾜｹﾝ","cityKana":"ｺﾏﾂｼ","streetKana":"ｱｶﾞﾘｴﾏﾁ","prefecture":"石川県","city":"小松市","street":"上リ江町"},{"zipCode":"9230035","prefectureKana":"ｲｼｶﾜｹﾝ","cityKana":"ｺﾏﾂｼ","streetKana":"ｱｹﾎﾞﾉﾏﾁ","prefecture":"石川県","city":"小松市","street":"あけぼの町"},{"zipCode":"9230953","prefectureKana":"ｲｼｶﾜｹﾝ","cityKana":"ｺﾏﾂｼ","streetKana":"ｱｻﾋﾏﾁ","prefecture":"石川県","city":"小松市","street":"旭町"},{"zipCode":"9230938","prefectureKana":"ｲｼｶﾜｹﾝ","cityKana":"ｺﾏﾂｼ","streetKana":"ｱｼﾀﾞﾏﾁ","prefecture":"石川県","city":"小松市","street":"芦田町"},{"zipCode":"9230995","prefectureKana":"ｲｼｶﾜｹﾝ","cityKana":"ｺﾏﾂｼ","streetKana":"ｱﾀｶｼﾝﾏﾁ","prefecture":"石川県","city":"小松市","street":"安宅新町"},{"zipCode":"9230003","prefectureKana":"ｲｼｶﾜｹﾝ","cityKana":"ｺﾏﾂｼ","streetKana":"ｱﾀｶﾏﾁ","prefecture":"石川県","city":"小松市","street":"安宅町"},{"zipCode":"9230922","prefectureKana":"ｲｼｶﾜｹﾝ","cityKana":"ｺﾏﾂｼ","streetKana":"ｱﾒﾔﾏﾁ","prefecture":"石川県","city":"小松市","street":"飴屋町"},{"zipCode":"9230823","prefectureKana":"ｲｼｶﾜｹﾝ","cityKana":"ｺﾏﾂｼ","streetKana":"ｱﾗｷﾀﾞﾏﾁ","prefecture":"石川県","city":"小松市","street":"荒木田町"},{"zipCode":"9230078","prefectureKana":"ｲｼｶﾜｹﾝ","cityKana":"ｺﾏﾂｼ","streetKana":"ｱﾗｼﾏﾁ","prefecture":"石川県","city":"小松市","street":"嵐町"},{"zipCode":"9230032","prefectureKana":"ｲｼｶﾜｹﾝ","cityKana":"ｺﾏﾂｼ","streetKana":"ｱﾗﾔﾏﾁ","prefecture":"石川県","city":"小松市","street":"荒屋町"},{"zipCode":"9230864","prefectureKana":"ｲｼｶﾜｹﾝ","cityKana":"ｺﾏﾂｼ","streetKana":"ｱﾘｱｹﾏﾁ","prefecture":"石川県","city":"小松市","street":"有明町"},{"zipCode":"9230326","prefectureKana":"ｲｼｶﾜｹﾝ","cityKana":"ｺﾏﾂｼ","streetKana":"ｱﾜﾂﾞｵﾝｾﾝ","prefecture":"石川県","city":"小松市","street":"粟津温泉"},{"zipCode":"9230326","prefectureKana":"ｲｼｶﾜｹﾝ","cityKana":"ｺﾏﾂｼ","streetKana":"ｱﾜﾂﾞﾏﾁ","prefecture":"石川県","city":"小松市","street":"粟津町"},{"zipCode":"9230943","prefectureKana":"ｲｼｶﾜｹﾝ","cityKana":"ｺﾏﾂｼ","streetKana":"ｲｸｾｲﾏﾁ","prefecture":"石川県","city":"小松市","street":"育成町"},{"zipCode":"9230161","prefectureKana":"ｲｼｶﾜｹﾝ","cityKana":"ｺﾏﾂｼ","streetKana":"ｲｹﾉｼﾞｮｳﾏﾁ","prefecture":"石川県","city":"小松市","street":"池城町"},{"zipCode":"9230901","prefectureKana":"ｲｼｶﾜｹﾝ","cityKana":"ｺﾏﾂｼ","streetKana":"ｲｽﾞﾐﾏﾁ","prefecture":"石川県","city":"小松市","street":"泉町"},{"zipCode":"9230813","prefectureKana":"ｲｼｶﾜｹﾝ","cityKana":"ｺﾏﾂｼ","streetKana":"ｲﾄﾏﾁ","prefecture":"石川県","city":"小松市","street":"糸町"},{"zipCode":"9230015","prefectureKana":"ｲｼｶﾜｹﾝ","cityKana":"ｺﾏﾂｼ","streetKana":"ｲﾇﾏﾙﾏﾁ","prefecture":"石川県","city":"小松市","street":"犬丸町"},{"zipCode":"9230316","prefectureKana":"ｲｼｶﾜｹﾝ","cityKana":"ｺﾏﾂｼ","streetKana":"ｲﾉｸﾁﾏﾁ","prefecture":"石川県","city":"小松市","street":"井口町"},{"zipCode":"9230964","prefectureKana":"ｲｼｶﾜｹﾝ","cityKana":"ｺﾏﾂｼ","streetKana":"ｲﾏｴﾏﾁ","prefecture":"石川県","city":"小松市","street":"今江町"},{"zipCode":"9230177","prefectureKana":"ｲｼｶﾜｹﾝ","cityKana":"ｺﾏﾂｼ","streetKana":"ｲﾜｶﾞﾐﾏﾁ","prefecture":"石川県","city":"小松市","street":"岩上町"},{"zipCode":"9230073","prefectureKana":"ｲｼｶﾜｹﾝ","cityKana":"ｺﾏﾂｼ","streetKana":"ｲﾜﾌﾞﾁﾏﾁ","prefecture":"石川県","city":"小松市","street":"岩渕町"},{"zipCode":"9230063","prefectureKana":"ｲｼｶﾜｹﾝ","cityKana":"ｺﾏﾂｼ","streetKana":"ｳｶﾞﾜﾏﾁ","prefecture":"石川県","city":"小松市","street":"鵜川町"},{"zipCode":"9230908","prefectureKana":"ｲｼｶﾜｹﾝ","cityKana":"ｺﾏﾂｼ","streetKana":"ｳｷｼﾛﾏﾁ","prefecture":"石川県","city":"小松市","street":"浮城町"},{"zipCode":"9230993","prefectureKana":"ｲｼｶﾜｹﾝ","cityKana":"ｺﾏﾂｼ","streetKana":"ｳｷﾔﾅｷﾞﾏﾁ","prefecture":"石川県","city":"小松市","street":"浮柳町"},{"zipCode":"9230831","prefectureKana":"ｲｼｶﾜｹﾝ","cityKana":"ｺﾏﾂｼ","streetKana":"ｳﾁｺｼﾏﾁ","prefecture":"石川県","city":"小松市","street":"打越町"},{"zipCode":"9230184","prefectureKana":"ｲｼｶﾜｹﾝ","cityKana":"ｺﾏﾂｼ","streetKana":"ｳﾂｷﾞﾏﾁ","prefecture":"石川県","city":"小松市","street":"打木町"},{"zipCode":"9230023","prefectureKana":"ｲｼｶﾜｹﾝ","cityKana":"ｺﾏﾂｼ","streetKana":"ｳﾒﾀﾞﾏﾁ","prefecture":"石川県","city":"小松市","street":"梅田町"},{"zipCode":"9230812","prefectureKana":"ｲｼｶﾜｹﾝ","cityKana":"ｺﾏﾂｼ","streetKana":"ｳﾙｼﾏﾁ","prefecture":"石川県","city":"小松市","street":"漆町"},{"zipCode":"9230155","prefectureKana":"ｲｼｶﾜｹﾝ","cityKana":"ｺﾏﾂｼ","streetKana":"ｴｻｼﾏﾁ","prefecture":"石川県","city":"小松市","street":"江指町"},{"zipCode":"9230853","prefectureKana":"ｲｼｶﾜｹﾝ","cityKana":"ｺﾏﾂｼ","streetKana":"ｵｳｷﾞﾏﾁ","prefecture":"石川県","city":"小松市","street":"扇町"},{"zipCode":"9230973","prefectureKana":"ｲｼｶﾜｹﾝ","cityKana":"ｺﾏﾂｼ","streetKana":"ｵｳｷﾞﾊﾗﾏﾁ","prefecture":"石川県","city":"小松市","street":"扇原町"},{"zipCode":"9230911","prefectureKana":"ｲｼｶﾜｹﾝ","cityKana":"ｺﾏﾂｼ","streetKana":"ｵｵｶﾜﾏﾁ","prefecture":"石川県","city":"小松市","street":"大川町"},{"zipCode":"9230001","prefectureKana":"ｲｼｶﾜｹﾝ","cityKana":"ｺﾏﾂｼ","streetKana":"ｵｵｼﾏﾏﾁ","prefecture":"石川県","city":"小松市","street":"大島町"},{"zipCode":"9230186","prefectureKana":"ｲｼｶﾜｹﾝ","cityKana":"ｺﾏﾂｼ","streetKana":"ｵｵｽｷﾞﾏﾁ","prefecture":"石川県","city":"小松市","street":"大杉町"},{"zipCode":"9230156","prefectureKana":"ｲｼｶﾜｹﾝ","cityKana":"ｺﾏﾂｼ","streetKana":"ｵｵﾉﾏﾁ","prefecture":"石川県","city":"小松市","street":"大野町"},{"zipCode":"9230861","prefectureKana":"ｲｼｶﾜｹﾝ","cityKana":"ｺﾏﾂｼ","streetKana":"ｵｷﾏﾁ","prefecture":"石川県","city":"小松市","street":"沖町"},{"zipCode":"9230172","prefectureKana":"ｲｼｶﾜｹﾝ","cityKana":"ｺﾏﾂｼ","streetKana":"ｵｺﾞﾔﾏﾁ","prefecture":"石川県","city":"小松市","street":"尾小屋町"},{"zipCode":"9230016","prefectureKana":"ｲｼｶﾜｹﾝ","cityKana":"ｺﾏﾂｼ","streetKana":"ｵﾀﾁﾏﾁ","prefecture":"石川県","city":"小松市","street":"御館町"},{"zipCode":"9230054","prefectureKana":"ｲｼｶﾜｹﾝ","cityKana":"ｺﾏﾂｼ","streetKana":"ｵﾉﾏﾁ","prefecture":"石川県","city":"小松市","street":"小野町"},{"zipCode":"9230314","prefectureKana":"ｲｼｶﾜｹﾝ","cityKana":"ｺﾏﾂｼ","streetKana":"ｵﾋﾞｼﾏﾁ","prefecture":"石川県","city":"小松市","street":"おびし町"},{"zipCode":"9230805","prefectureKana":"ｲｼｶﾜｹﾝ","cityKana":"ｺﾏﾂｼ","streetKana":"ｵﾐﾔﾏﾁ","prefecture":"石川県","city":"小松市","street":"御宮町"},{"zipCode":"9230028","prefectureKana":"ｲｼｶﾜｹﾝ","cityKana":"ｺﾏﾂｼ","streetKana":"ｶｹﾊｼﾏﾁ","prefecture":"石川県","city":"小松市","street":"梯町"},{"zipCode":"9230341","prefectureKana":"ｲｼｶﾜｹﾝ","cityKana":"ｺﾏﾂｼ","streetKana":"ｶｽｶﾞﾁｮｳ","prefecture":"石川県","city":"小松市","street":"春日町"},{"zipCode":"9230074","prefectureKana":"ｲｼｶﾜｹﾝ","cityKana":"ｺﾏﾂｼ","streetKana":"ｶﾂﾗﾏﾁ","prefecture":"石川県","city":"小松市","street":"桂町"},{"zipCode":"9230171","prefectureKana":"ｲｼｶﾜｹﾝ","cityKana":"ｺﾏﾂｼ","streetKana":"ｶﾅｶﾞｿﾏﾁ","prefecture":"石川県","city":"小松市","street":"観音下町"},{"zipCode":"9230154","prefectureKana":"ｲｼｶﾜｹﾝ","cityKana":"ｺﾏﾂｼ","streetKana":"ｶﾈﾉﾏﾁ","prefecture":"石川県","city":"小松市","street":"金野町"},{"zipCode":"9230153","prefectureKana":"ｲｼｶﾜｹﾝ","cityKana":"ｺﾏﾂｼ","streetKana":"ｶﾅﾋﾗﾏﾁ","prefecture":"石川県","city":"小松市","street":"金平町"},{"zipCode":"9230812","prefectureKana":"ｲｼｶﾜｹﾝ","cityKana":"ｺﾏﾂｼ","streetKana":"ｶﾅﾔﾏﾁ","prefecture":"石川県","city":"小松市","street":"金屋町"},{"zipCode":"9230331","prefectureKana":"ｲｼｶﾜｹﾝ","cityKana":"ｺﾏﾂｼ","streetKana":"ｶﾐｱﾗﾔﾏﾁ","prefecture":"石川県","city":"小松市","street":"上荒屋町"},{"zipCode":"9230802","prefectureKana":"ｲｼｶﾜｹﾝ","cityKana":"ｺﾏﾂｼ","streetKana":"ｶﾐｺﾏﾂﾏﾁ","prefecture":"石川県","city":"小松市","street":"上小松町"},{"zipCode":"9230935","prefectureKana":"ｲｼｶﾜｹﾝ","cityKana":"ｺﾏﾂｼ","streetKana":"ｶﾐﾃﾞﾗﾏﾁ","prefecture":"石川県","city":"小松市","street":"上寺町"},{"zipCode":"9230027","prefectureKana":"ｲｼｶﾜｹﾝ","cityKana":"ｺﾏﾂｼ","streetKana":"ｶﾐﾏｷﾏﾁ","prefecture":"石川県","city":"小松市","street":"上牧町"},{"zipCode":"9230077","prefectureKana":"ｲｼｶﾜｹﾝ","cityKana":"ｺﾏﾂｼ","streetKana":"ｶﾐﾑｷﾞｸﾁﾏﾁ","prefecture":"石川県","city":"小松市","street":"上麦口町"},{"zipCode":"9230955","prefectureKana":"ｲｼｶﾜｹﾝ","cityKana":"ｺﾏﾂｼ","streetKana":"ｶﾐﾓﾄｵﾘﾏﾁ","prefecture":"石川県","city":"小松市","street":"上本折町"},{"zipCode":"9230051","prefectureKana":"ｲｼｶﾜｹﾝ","cityKana":"ｺﾏﾂｼ","streetKana":"ｶﾐﾔｻﾄﾏﾁ","prefecture":"石川県","city":"小松市","street":"上八里町"},{"zipCode":"9230824","prefectureKana":"ｲｼｶﾜｹﾝ","cityKana":"ｺﾏﾂｼ","streetKana":"ｶﾙﾐﾏﾁ","prefecture":"石川県","city":"小松市","street":"軽海町"},{"zipCode":"9230044","prefectureKana":"ｲｼｶﾜｹﾝ","cityKana":"ｺﾏﾂｼ","streetKana":"ｶﾜﾍﾞﾏﾁ","prefecture":"石川県","city":"小松市","street":"川辺町"},{"zipCode":"9230991","prefectureKana":"ｲｼｶﾜｹﾝ","cityKana":"ｺﾏﾂｼ","streetKana":"ｷｿﾏﾁ","prefecture":"石川県","city":"小松市","street":"木曽町"},{"zipCode":"9230851","prefectureKana":"ｲｼｶﾜｹﾝ","cityKana":"ｺﾏﾂｼ","streetKana":"ｷﾀｱｻｲﾏﾁ","prefecture":"石川県","city":"小松市","street":"北浅井町"},{"zipCode":"9230312","prefectureKana":"ｲｼｶﾜｹﾝ","cityKana":"ｺﾏﾂｼ","streetKana":"ｷﾊﾞﾀﾞｲ","prefecture":"石川県","city":"小松市","street":"木場台"},{"zipCode":"9230311","prefectureKana":"ｲｼｶﾜｹﾝ","cityKana":"ｺﾏﾂｼ","streetKana":"ｷﾊﾞﾏﾁ","prefecture":"石川県","city":"小松市","street":"木場町"},{"zipCode":"9230826","prefectureKana":"ｲｼｶﾜｹﾝ","cityKana":"ｺﾏﾂｼ","streetKana":"ｷﾎﾞｳｶﾞｵｶ","prefecture":"石川県","city":"小松市","street":"希望丘"},{"zipCode":"9230918","prefectureKana":"ｲｼｶﾜｹﾝ","cityKana":"ｺﾏﾂｼ","streetKana":"ｷｮｳﾏﾁ","prefecture":"石川県","city":"小松市","street":"京町"},{"zipCode":"9230996","prefectureKana":"ｲｼｶﾜｹﾝ","cityKana":"ｺﾏﾂｼ","streetKana":"ｸｻﾉﾏﾁ","prefecture":"石川県","city":"小松市","street":"草野町"},{"zipCode":"9230966","prefectureKana":"ｲｼｶﾜｹﾝ","cityKana":"ｺﾏﾂｼ","streetKana":"ｸｼﾁｬﾔﾏﾁ","prefecture":"石川県","city":"小松市","street":"串茶屋町"},{"zipCode":"9230965","prefectureKana":"ｲｼｶﾜｹﾝ","cityKana":"ｺﾏﾂｼ","streetKana":"ｸｼﾏﾁ","prefecture":"石川県","city":"小松市","street":"串町"},{"zipCode":"9230994","prefectureKana":"ｲｼｶﾜｹﾝ","cityKana":"ｺﾏﾂｼ","streetKana":"ｺｳｷﾞｮｳﾀﾞﾝﾁ","prefecture":"石川県","city":"小松市","street":"工業団地"},{"zipCode":"9230053","prefectureKana":"ｲｼｶﾜｹﾝ","cityKana":"ｺﾏﾂｼ","streetKana":"ｺｳﾀﾞﾏﾁ","prefecture":"石川県","city":"小松市","street":"河田町"},{"zipCode":"9230822","prefectureKana":"ｲｼｶﾜｹﾝ","cityKana":"ｺﾏﾂｼ","streetKana":"ｺｳﾖｳﾏﾁ","prefecture":"石川県","city":"小松市","street":"光陽町"},{"zipCode":"9230061","prefectureKana":"ｲｼｶﾜｹﾝ","cityKana":"ｺﾏﾂｼ","streetKana":"ｺｸﾌﾀﾞｲ","prefecture":"石川県","city":"小松市","street":"国府台"},{"zipCode":"9230152","prefectureKana":"ｲｼｶﾜｹﾝ","cityKana":"ｺﾏﾂｼ","streetKana":"ｺﾞｺｳｼﾞﾏﾁ","prefecture":"石川県","city":"小松市","street":"五国寺町"},{"zipCode":"9230002","prefectureKana":"ｲｼｶﾜｹﾝ","cityKana":"ｺﾏﾂｼ","streetKana":"ｺｼﾞﾏﾏﾁ","prefecture":"石川県","city":"小松市","street":"小島町"},{"zipCode":"9230902","prefectureKana":"ｲｼｶﾜｹﾝ","cityKana":"ｺﾏﾂｼ","streetKana":"ｺｼﾞｮｳﾏﾁ","prefecture":"石川県","city":"小松市","street":"古城町"},{"zipCode":"9230806","prefectureKana":"ｲｼｶﾜｹﾝ","cityKana":"ｺﾏﾂｼ","streetKana":"ｺﾃﾞﾗﾏﾁ","prefecture":"石川県","city":"小松市","street":"小寺町"},{"zipCode":"9230055","prefectureKana":"ｲｼｶﾜｹﾝ","cityKana":"ｺﾏﾂｼ","streetKana":"ｺﾌﾏﾁ","prefecture":"石川県","city":"小松市","street":"古府町"},{"zipCode":"9230869","prefectureKana":"ｲｼｶﾜｹﾝ","cityKana":"ｺﾏﾂｼ","streetKana":"ｺﾏﾂﾉﾓﾘ","prefecture":"石川県","city":"小松市","street":"こまつの杜"},{"zipCode":"9230315","prefectureKana":"ｲｼｶﾜｹﾝ","cityKana":"ｺﾏﾂｼ","streetKana":"ｺﾔﾏﾀﾞﾏﾁ","prefecture":"石川県","city":"小松市","street":"小山田町"},{"zipCode":"9230904","prefectureKana":"ｲｼｶﾜｹﾝ","cityKana":"ｺﾏﾂｼ","streetKana":"ｺﾝﾏﾃﾞﾏﾁ","prefecture":"石川県","city":"小松市","street":"小馬出町"},{"zipCode":"9230915","prefectureKana":"ｲｼｶﾜｹﾝ","cityKana":"ｺﾏﾂｼ","streetKana":"ｻｲｸﾁｮｳ","prefecture":"石川県","city":"小松市","street":"細工町"},{"zipCode":"9230916","prefectureKana":"ｲｼｶﾜｹﾝ","cityKana":"ｺﾏﾂｼ","streetKana":"ｻﾞｲﾓｸﾁｮｳ","prefecture":"石川県","city":"小松市","street":"材木町"},{"zipCode":"9230867","prefectureKana":"ｲｼｶﾜｹﾝ","cityKana":"ｺﾏﾂｼ","streetKana":"ｻｲﾜｲﾁｮｳ","prefecture":"石川県","city":"小松市","street":"幸町"},{"zipCode":"9230934","prefectureKana":"ｲｼｶﾜｹﾝ","cityKana":"ｺﾏﾂｼ","streetKana":"ｻｶｴﾏﾁ","prefecture":"石川県","city":"小松市","street":"栄町"},{"zipCode":"9230942","prefectureKana":"ｲｼｶﾜｹﾝ","cityKana":"ｺﾏﾂｼ","streetKana":"ｻｸﾗｷﾞﾁｮｳ","prefecture":"石川県","city":"小松市","street":"桜木町"},{"zipCode":"9230821","prefectureKana":"ｲｼｶﾜｹﾝ","cityKana":"ｺﾏﾂｼ","streetKana":"ｻｻｷﾏﾁ","prefecture":"石川県","city":"小松市","street":"佐々木町"},{"zipCode":"9230062","prefectureKana":"ｲｼｶﾜｹﾝ","cityKana":"ｺﾏﾂｼ","streetKana":"ｻﾄｶﾜﾏﾁ","prefecture":"石川県","city":"小松市","street":"里川町"},{"zipCode":"9230984","prefectureKana":"ｲｼｶﾜｹﾝ","cityKana":"ｺﾏﾂｼ","streetKana":"ｻﾐﾏﾁ","prefecture":"石川県","city":"小松市","street":"佐美町"},{"zipCode":"9230165","prefectureKana":"ｲｼｶﾜｹﾝ","cityKana":"ｺﾏﾂｼ","streetKana":"ｻﾜﾏﾁ","prefecture":"石川県","city":"小松市","street":"沢町"},{"zipCode":"9230844","prefectureKana":"ｲｼｶﾜｹﾝ","cityKana":"ｺﾏﾂｼ","streetKana":"ｻﾝﾀﾞﾆﾏﾁ","prefecture":"石川県","city":"小松市","street":"三谷町"},{"zipCode":"9230163","prefectureKana":"ｲｼｶﾜｹﾝ","cityKana":"ｺﾏﾂｼ","streetKana":"ｼｵﾊﾗﾏﾁ","prefecture":"石川県","city":"小松市","street":"塩原町"},{"zipCode":"9230836","prefectureKana":"ｲｼｶﾜｹﾝ","cityKana":"ｺﾏﾂｼ","streetKana":"ｼｶﾏﾁ","prefecture":"石川県","city":"小松市","street":"鹿町"},{"zipCode":"9230905","prefectureKana":"ｲｼｶﾜｹﾝ","cityKana":"ｺﾏﾂｼ","streetKana":"ｼﾞｼﾏﾁ","prefecture":"石川県","city":"小松市","street":"地子町"},{"zipCode":"9230971","prefectureKana":"ｲｼｶﾜｹﾝ","cityKana":"ｺﾏﾂｼ","streetKana":"ｼﾁｮｳﾏﾁ","prefecture":"石川県","city":"小松市","street":"四丁町"},{"zipCode":"9230021","prefectureKana":"ｲｼｶﾜｹﾝ","cityKana":"ｺﾏﾂｼ","streetKana":"ｼﾏﾀﾞﾏﾁ","prefecture":"石川県","city":"小松市","street":"島田町"},{"zipCode":"9230303","prefectureKana":"ｲｼｶﾜｹﾝ","cityKana":"ｺﾏﾂｼ","streetKana":"ｼﾏﾏﾁ","prefecture":"石川県","city":"小松市","street":"島町"},{"zipCode":"9230958","prefectureKana":"ｲｼｶﾜｹﾝ","cityKana":"ｺﾏﾂｼ","streetKana":"ｼﾐｽﾞﾏﾁ","prefecture":"石川県","city":"小松市","street":"清水町"},{"zipCode":"9230304","prefectureKana":"ｲｼｶﾜｹﾝ","cityKana":"ｺﾏﾂｼ","streetKana":"ｼﾓｱﾜﾂﾞﾏﾁ","prefecture":"石川県","city":"小松市","street":"下粟津町"},{"zipCode":"9230026","prefectureKana":"ｲｼｶﾜｹﾝ","cityKana":"ｺﾏﾂｼ","streetKana":"ｼﾓﾏｷﾏﾁ","prefecture":"石川県","city":"小松市","street":"下牧町"},{"zipCode":"9230052","prefectureKana":"ｲｼｶﾜｹﾝ","cityKana":"ｺﾏﾂｼ","streetKana":"ｼﾓﾔｻﾄﾏﾁ","prefecture":"石川県","city":"小松市","street":"下八里町"},{"zipCode":"9230941","prefectureKana":"ｲｼｶﾜｹﾝ","cityKana":"ｺﾏﾂｼ","streetKana":"ｼﾞｮｳﾅﾝﾏﾁ","prefecture":"石川県","city":"小松市","street":"城南町"},{"zipCode":"9230013","prefectureKana":"ｲｼｶﾜｹﾝ","cityKana":"ｺﾏﾂｼ","streetKana":"ｼﾞｮｳﾎｸﾏﾁ","prefecture":"石川県","city":"小松市","street":"城北町"},{"zipCode":"9230151","prefectureKana":"ｲｼｶﾜｹﾝ","cityKana":"ｺﾏﾂｼ","streetKana":"ｼｮｳﾚﾝｼﾞﾏﾁ","prefecture":"石川県","city":"小松市","street":"正蓮寺町"},{"zipCode":"9230811","prefectureKana":"ｲｼｶﾜｹﾝ","cityKana":"ｺﾏﾂｼ","streetKana":"ｼﾗｴﾏﾁ","prefecture":"石川県","city":"小松市","street":"白江町"},{"zipCode":"9230866","prefectureKana":"ｲｼｶﾜｹﾝ","cityKana":"ｺﾏﾂｼ","streetKana":"ｼﾗﾈﾏﾁ","prefecture":"石川県","city":"小松市","street":"白嶺町"},{"zipCode":"9230814","prefectureKana":"ｲｼｶﾜｹﾝ","cityKana":"ｺﾏﾂｼ","streetKana":"ｼﾗﾏﾂﾏﾁ","prefecture":"石川県","city":"小松市","street":"白松町"},{"zipCode":"9230321","prefectureKana":"ｲｼｶﾜｹﾝ","cityKana":"ｺﾏﾂｼ","streetKana":"ｼﾗﾔﾏﾀﾞﾏﾁ","prefecture":"石川県","city":"小松市","street":"白山田町"},{"zipCode":"9230914","prefectureKana":"ｲｼｶﾜｹﾝ","cityKana":"ｺﾏﾂｼ","streetKana":"ｼﾝｶｼﾞﾏﾁ","prefecture":"石川県","city":"小松市","street":"新鍛冶町"},{"zipCode":"9230906","prefectureKana":"ｲｼｶﾜｹﾝ","cityKana":"ｺﾏﾂｼ","streetKana":"ｼﾝﾀﾞｲｸﾁｮｳ","prefecture":"石川県","city":"小松市","street":"新大工町"},{"zipCode":"9230175","prefectureKana":"ｲｼｶﾜｹﾝ","cityKana":"ｺﾏﾂｼ","streetKana":"ｼﾝﾎﾞﾏﾁ","prefecture":"石川県","city":"小松市","street":"新保町"},{"zipCode":"9230912","prefectureKana":"ｲｼｶﾜｹﾝ","cityKana":"ｺﾏﾂｼ","streetKana":"ｼﾝﾏﾁ","prefecture":"石川県","city":"小松市","street":"新町"},{"zipCode":"9230963","prefectureKana":"ｲｼｶﾜｹﾝ","cityKana":"ｺﾏﾂｼ","streetKana":"ｽｱﾏﾏﾁ","prefecture":"石川県","city":"小松市","street":"須天町"},{"zipCode":"9230945","prefectureKana":"ｲｼｶﾜｹﾝ","cityKana":"ｺﾏﾂｼ","streetKana":"ｽｴﾋﾛﾏﾁ","prefecture":"石川県","city":"小松市","street":"末広町"},{"zipCode":"9230183","prefectureKana":"ｲｼｶﾜｹﾝ","cityKana":"ｺﾏﾂｼ","streetKana":"ｾｲﾘｮﾏﾁ","prefecture":"石川県","city":"小松市","street":"瀬領町"},{"zipCode":"9230862","prefectureKana":"ｲｼｶﾜｹﾝ","cityKana":"ｺﾏﾂｼ","streetKana":"ｾｲﾛｸﾏﾁ","prefecture":"石川県","city":"小松市","street":"清六町"},{"zipCode":"9230834","prefectureKana":"ｲｼｶﾜｹﾝ","cityKana":"ｺﾏﾂｼ","streetKana":"ｾｷﾞﾉﾏﾁ","prefecture":"石川県","city":"小松市","street":"千木野町"},{"zipCode":"9230041","prefectureKana":"ｲｼｶﾜｹﾝ","cityKana":"ｺﾏﾂｼ","streetKana":"ｾﾝﾀﾞｲﾏﾁ","prefecture":"石川県","city":"小松市","street":"千代町"},{"zipCode":"9230801","prefectureKana":"ｲｼｶﾜｹﾝ","cityKana":"ｺﾏﾂｼ","streetKana":"ｿﾉﾏﾁ","prefecture":"石川県","city":"小松市","street":"園町"},{"zipCode":"9230931","prefectureKana":"ｲｼｶﾜｹﾝ","cityKana":"ｺﾏﾂｼ","streetKana":"ﾀﾞｲﾓﾝｼﾞﾁｮｳ","prefecture":"石川県","city":"小松市","street":"大文字町"},{"zipCode":"9230962","prefectureKana":"ｲｼｶﾜｹﾝ","cityKana":"ｺﾏﾂｼ","streetKana":"ﾀﾞｲﾘｮｳﾅｶﾏﾁ","prefecture":"石川県","city":"小松市","street":"大領中町"},{"zipCode":"9230854","prefectureKana":"ｲｼｶﾜｹﾝ","cityKana":"ｺﾏﾂｼ","streetKana":"ﾀﾞｲﾘｮｳﾏﾁ","prefecture":"石川県","city":"小松市","street":"大領町"},{"zipCode":"9230905","prefectureKana":"ｲｼｶﾜｹﾝ","cityKana":"ｺﾏﾂｼ","streetKana":"ﾀｶｼﾞｮｳﾏﾁ","prefecture":"石川県","city":"小松市","street":"鷹匠町"},{"zipCode":"9230803","prefectureKana":"ｲｼｶﾜｹﾝ","cityKana":"ｺﾏﾂｼ","streetKana":"ﾀｶﾗﾏﾁ","prefecture":"石川県","city":"小松市","street":"宝町"},{"zipCode":"9230031","prefectureKana":"ｲｼｶﾜｹﾝ","cityKana":"ｺﾏﾂｼ","streetKana":"ﾀｶﾝﾄﾞｳﾏﾁ","prefecture":"石川県","city":"小松市","street":"高堂町"},{"zipCode":"9230335","prefectureKana":"ｲｼｶﾜｹﾝ","cityKana":"ｺﾏﾂｼ","streetKana":"ﾀｷｶﾞﾊﾗﾏﾁ","prefecture":"石川県","city":"小松市","street":"滝ケ原町"},{"zipCode":"9230981","prefectureKana":"ｲｼｶﾜｹﾝ","cityKana":"ｺﾏﾂｼ","streetKana":"ﾀｸｴｲﾏﾁ","prefecture":"石川県","city":"小松市","street":"拓栄町"},{"zipCode":"9230024","prefectureKana":"ｲｼｶﾜｹﾝ","cityKana":"ｺﾏﾂｼ","streetKana":"ﾁｬﾔﾏﾁ","prefecture":"石川県","city":"小松市","street":"茶屋町"},{"zipCode":"9230972","prefectureKana":"ｲｼｶﾜｹﾝ","cityKana":"ｺﾏﾂｼ","streetKana":"ﾂｷﾂﾞﾏﾁ","prefecture":"石川県","city":"小松市","street":"月津町"},{"zipCode":"9230974","prefectureKana":"ｲｼｶﾜｹﾝ","cityKana":"ｺﾏﾂｼ","streetKana":"ﾂｷﾐｶﾞｵｶ","prefecture":"石川県","city":"小松市","street":"月美丘"},{"zipCode":"9230313","prefectureKana":"ｲｼｶﾜｹﾝ","cityKana":"ｺﾏﾂｼ","streetKana":"ﾂﾊﾞｸﾗﾏﾁ","prefecture":"石川県","city":"小松市","street":"津波倉町"},{"zipCode":"9230992","prefectureKana":"ｲｼｶﾜｹﾝ","cityKana":"ｺﾏﾂｼ","streetKana":"ﾂﾙｶﾞｼﾏﾏﾁ","prefecture":"石川県","city":"小松市","street":"鶴ケ島町"},{"zipCode":"9230932","prefectureKana":"ｲｼｶﾜｹﾝ","cityKana":"ｺﾏﾂｼ","streetKana":"ﾃﾗﾏﾁ","prefecture":"石川県","city":"小松市","street":"寺町"},{"zipCode":"9230025","prefectureKana":"ｲｼｶﾜｹﾝ","cityKana":"ｺﾏﾂｼ","streetKana":"ﾃﾝｼﾞﾝﾏﾁ","prefecture":"石川県","city":"小松市","street":"天神町"},{"zipCode":"9230921","prefectureKana":"ｲｼｶﾜｹﾝ","cityKana":"ｺﾏﾂｼ","streetKana":"ﾄﾞｲﾊﾗﾏﾁ","prefecture":"石川県","city":"小松市","street":"土居原町"},{"zipCode":"9230327","prefectureKana":"ｲｼｶﾜｹﾝ","cityKana":"ｺﾏﾂｼ","streetKana":"ﾄﾂﾞﾏﾁ","prefecture":"石川県","city":"小松市","street":"戸津町"},{"zipCode":"9230919","prefectureKana":"ｲｼｶﾜｹﾝ","cityKana":"ｺﾏﾂｼ","streetKana":"ﾄﾉﾏﾁ","prefecture":"石川県","city":"小松市","street":"殿町"},{"zipCode":"9230037","prefectureKana":"ｲｼｶﾜｹﾝ","cityKana":"ｺﾏﾂｼ","streetKana":"ﾄﾝﾔﾏﾁ","prefecture":"石川県","city":"小松市","street":"問屋町"},{"zipCode":"9230071","prefectureKana":"ｲｼｶﾜｹﾝ","cityKana":"ｺﾏﾂｼ","streetKana":"ﾅｶｳﾐﾏﾁ","prefecture":"石川県","city":"小松市","street":"中海町"},{"zipCode":"9230078","prefectureKana":"ｲｼｶﾜｹﾝ","cityKana":"ｺﾏﾂｼ","streetKana":"ﾅｶﾉﾄｳｹﾞﾏﾁ","prefecture":"石川県","city":"小松市","street":"中ノ峠町"},{"zipCode":"9230917","prefectureKana":"ｲｼｶﾜｹﾝ","cityKana":"ｺﾏﾂｼ","streetKana":"ﾅｶﾏﾁ","prefecture":"石川県","city":"小松市","street":"中町"},{"zipCode":"9230004","prefectureKana":"ｲｼｶﾜｹﾝ","cityKana":"ｺﾏﾂｼ","streetKana":"ﾅｶﾞｻｷﾏﾁ","prefecture":"石川県","city":"小松市","street":"長崎町"},{"zipCode":"9230181","prefectureKana":"ｲｼｶﾜｹﾝ","cityKana":"ｺﾏﾂｼ","streetKana":"ﾅｶﾞﾀﾆﾏﾁ","prefecture":"石川県","city":"小松市","street":"長谷町"},{"zipCode":"9230034","prefectureKana":"ｲｼｶﾜｹﾝ","cityKana":"ｺﾏﾂｼ","streetKana":"ﾅｶﾞﾀﾞﾏﾁ","prefecture":"石川県","city":"小松市","street":"長田町"},{"zipCode":"9230336","prefectureKana":"ｲｼｶﾜｹﾝ","cityKana":"ｺﾏﾂｼ","streetKana":"ﾅﾀﾏﾁ","prefecture":"石川県","city":"小松市","street":"那谷町"},{"zipCode":"9230328","prefectureKana":"ｲｼｶﾜｹﾝ","cityKana":"ｺﾏﾂｼ","streetKana":"ﾅﾝﾖｳﾏﾁ","prefecture":"石川県","city":"小松市","street":"南陽町"},{"zipCode":"9230323","prefectureKana":"ｲｼｶﾜｹﾝ","cityKana":"ｺﾏﾂｼ","streetKana":"ﾆｼｱﾗﾀﾆﾏﾁ","prefecture":"石川県","city":"小松市","street":"西荒谷町"},{"zipCode":"9230825","prefectureKana":"ｲｼｶﾜｹﾝ","cityKana":"ｺﾏﾂｼ","streetKana":"ﾆｼｶﾙﾐﾏﾁ","prefecture":"石川県","city":"小松市","street":"西軽海町"},{"zipCode":"9230948","prefectureKana":"ｲｼｶﾜｹﾝ","cityKana":"ｺﾏﾂｼ","streetKana":"ﾆｼｷﾏﾁ","prefecture":"石川県","city":"小松市","street":"錦町"},{"zipCode":"9230927","prefectureKana":"ｲｼｶﾜｹﾝ","cityKana":"ｺﾏﾂｼ","streetKana":"ﾆｼﾁｮｳ","prefecture":"石川県","city":"小松市","street":"西町"},{"zipCode":"9230325","prefectureKana":"ｲｼｶﾜｹﾝ","cityKana":"ｺﾏﾂｼ","streetKana":"ﾆｼﾊﾗﾏﾁ","prefecture":"石川県","city":"小松市","street":"西原町"},{"zipCode":"9230176","prefectureKana":"ｲｼｶﾜｹﾝ","cityKana":"ｺﾏﾂｼ","streetKana":"ﾆｼﾏﾀﾏﾁ","prefecture":"石川県","city":"小松市","street":"西俣町"},{"zipCode":"9230956","prefectureKana":"ｲｼｶﾜｹﾝ","cityKana":"ｺﾏﾂｼ","streetKana":"ﾆｼﾓﾄｵﾘﾏﾁ","prefecture":"石川県","city":"小松市","street":"西本折町"},{"zipCode":"9230977","prefectureKana":"ｲｼｶﾜｹﾝ","cityKana":"ｺﾏﾂｼ","streetKana":"ﾇｶﾐﾏﾁ","prefecture":"石川県","city":"小松市","street":"額見町"},{"zipCode":"9230164","prefectureKana":"ｲｼｶﾜｹﾝ","cityKana":"ｺﾏﾂｼ","streetKana":"ﾇﾉﾊｼﾏﾁ","prefecture":"石川県","city":"小松市","street":"布橋町"},{"zipCode":"9230965","prefectureKana":"ｲｼｶﾜｹﾝ","cityKana":"ｺﾏﾂｼ","streetKana":"ﾉﾀﾞﾁﾏﾁ","prefecture":"石川県","city":"小松市","street":"野立町"},{"zipCode":"9230033","prefectureKana":"ｲｼｶﾜｹﾝ","cityKana":"ｺﾏﾂｼ","streetKana":"ﾉﾀﾞﾏﾁ","prefecture":"石川県","city":"小松市","street":"野田町"},{"zipCode":"9230042","prefectureKana":"ｲｼｶﾜｹﾝ","cityKana":"ｺﾏﾂｼ","streetKana":"ﾉﾐﾏﾁ","prefecture":"石川県","city":"小松市","street":"能美町"},{"zipCode":"9230951","prefectureKana":"ｲｼｶﾜｹﾝ","cityKana":"ｺﾏﾂｼ","streetKana":"ﾊｸｻﾝﾏﾁ","prefecture":"石川県","city":"小松市","street":"白山町"},{"zipCode":"9230182","prefectureKana":"ｲｼｶﾜｹﾝ","cityKana":"ｺﾏﾂｼ","streetKana":"ﾊｻﾀﾞﾆﾏﾁ","prefecture":"石川県","city":"小松市","street":"波佐谷町"},{"zipCode":"9230162","prefectureKana":"ｲｼｶﾜｹﾝ","cityKana":"ｺﾏﾂｼ","streetKana":"ﾊｻﾗﾏﾁ","prefecture":"石川県","city":"小松市","street":"波佐羅町"},{"zipCode":"9230157","prefectureKana":"ｲｼｶﾜｹﾝ","cityKana":"ｺﾏﾂｼ","streetKana":"ﾊﾅｻｶﾏﾁ","prefecture":"石川県","city":"小松市","street":"花坂町"},{"zipCode":"9230174","prefectureKana":"ｲｼｶﾜｹﾝ","cityKana":"ｺﾏﾂｼ","streetKana":"ﾊﾅﾀﾃﾏﾁ","prefecture":"石川県","city":"小松市","street":"花立町"},{"zipCode":"9230066","prefectureKana":"ｲｼｶﾜｹﾝ","cityKana":"ｺﾏﾂｼ","streetKana":"ﾊﾈﾀﾞﾏﾁ","prefecture":"石川県","city":"小松市","street":"埴田町"},{"zipCode":"9230997","prefectureKana":"ｲｼｶﾜｹﾝ","cityKana":"ｺﾏﾂｼ","streetKana":"ﾊﾏｻﾐﾎﾝﾏﾁ","prefecture":"石川県","city":"小松市","street":"浜佐美本町"},{"zipCode":"9230985","prefectureKana":"ｲｼｶﾜｹﾝ","cityKana":"ｺﾏﾂｼ","streetKana":"ﾊﾏｻﾐﾏﾁ","prefecture":"石川県","city":"小松市","street":"浜佐美町"},{"zipCode":"9230907","prefectureKana":"ｲｼｶﾜｹﾝ","cityKana":"ｺﾏﾂｼ","streetKana":"ﾊﾏﾀﾞﾏﾁ","prefecture":"石川県","city":"小松市","street":"浜田町"},{"zipCode":"9230344","prefectureKana":"ｲｼｶﾜｹﾝ","cityKana":"ｺﾏﾂｼ","streetKana":"ﾊﾔｼﾏﾁ","prefecture":"石川県","city":"小松市","street":"林町"},{"zipCode":"9230075","prefectureKana":"ｲｼｶﾜｹﾝ","cityKana":"ｺﾏﾂｼ","streetKana":"ﾊﾗﾏﾁ","prefecture":"石川県","city":"小松市","street":"原町"},{"zipCode":"9230333","prefectureKana":"ｲｼｶﾜｹﾝ","cityKana":"ｺﾏﾂｼ","streetKana":"ﾊﾞﾝﾊﾞﾏﾁ","prefecture":"石川県","city":"小松市","street":"馬場町"},{"zipCode":"9230804","prefectureKana":"ｲｼｶﾜｹﾝ","cityKana":"ｺﾏﾂｼ","streetKana":"ﾋｶﾘﾏﾁ","prefecture":"石川県","city":"小松市","street":"光町"},{"zipCode":"9230012","prefectureKana":"ｲｼｶﾜｹﾝ","cityKana":"ｺﾏﾂｼ","streetKana":"ﾋｶﾞｼﾋﾙｶﾞﾜﾏﾁ","prefecture":"石川県","city":"小松市","street":"東蛭川町"},{"zipCode":"9230923","prefectureKana":"ｲｼｶﾜｹﾝ","cityKana":"ｺﾏﾂｼ","streetKana":"ﾋｶﾞｼﾁｮｳ","prefecture":"石川県","city":"小松市","street":"東町"},{"zipCode":"9230842","prefectureKana":"ｲｼｶﾜｹﾝ","cityKana":"ｺﾏﾂｼ","streetKana":"ﾋｶﾞｼﾔﾏﾏﾁ","prefecture":"石川県","city":"小松市","street":"東山町"},{"zipCode":"9230983","prefectureKana":"ｲｼｶﾜｹﾝ","cityKana":"ｺﾏﾂｼ","streetKana":"ﾋｽﾞｴﾏﾁ","prefecture":"石川県","city":"小松市","street":"日末町"},{"zipCode":"9230043","prefectureKana":"ｲｼｶﾜｹﾝ","cityKana":"ｺﾏﾂｼ","streetKana":"ﾋﾄﾂﾊﾘﾏﾁ","prefecture":"石川県","city":"小松市","street":"一針町"},{"zipCode":"9230868","prefectureKana":"ｲｼｶﾜｹﾝ","cityKana":"ｺﾏﾂｼ","streetKana":"ﾋﾉﾃﾞﾏﾁ","prefecture":"石川県","city":"小松市","street":"日の出町"},{"zipCode":"9230324","prefectureKana":"ｲｼｶﾜｹﾝ","cityKana":"ｺﾏﾂｼ","streetKana":"ﾋﾖｳﾏﾁ","prefecture":"石川県","city":"小松市","street":"日用町"},{"zipCode":"9230947","prefectureKana":"ｲｼｶﾜｹﾝ","cityKana":"ｺﾏﾂｼ","streetKana":"ﾋﾖｼﾏﾁ","prefecture":"石川県","city":"小松市","street":"日吉町"},{"zipCode":"9230036","prefectureKana":"ｲｼｶﾜｹﾝ","cityKana":"ｺﾏﾂｼ","streetKana":"ﾋﾗｵﾓﾃﾏﾁ","prefecture":"石川県","city":"小松市","street":"平面町"},{"zipCode":"9230011","prefectureKana":"ｲｼｶﾜｹﾝ","cityKana":"ｺﾏﾂｼ","streetKana":"ﾋﾞﾙｶﾞﾜﾏﾁ","prefecture":"石川県","city":"小松市","street":"蛭川町"},{"zipCode":"9230865","prefectureKana":"ｲｼｶﾜｹﾝ","cityKana":"ｺﾏﾂｼ","streetKana":"ﾌｸﾉﾐﾔﾏﾁ","prefecture":"石川県","city":"小松市","street":"福乃宮町"},{"zipCode":"9230345","prefectureKana":"ｲｼｶﾜｹﾝ","cityKana":"ｺﾏﾂｼ","streetKana":"ﾌﾀﾂﾅｼﾏﾁ","prefecture":"石川県","city":"小松市","street":"二ツ梨町"},{"zipCode":"9230302","prefectureKana":"ｲｼｶﾜｹﾝ","cityKana":"ｺﾏﾂｼ","streetKana":"ﾌﾂﾏﾁ","prefecture":"石川県","city":"小松市","street":"符津町"},{"zipCode":"9230863","prefectureKana":"ｲｼｶﾜｹﾝ","cityKana":"ｺﾏﾂｼ","streetKana":"ﾌﾄﾞｳｼﾞﾏﾏﾁ","prefecture":"石川県","city":"小松市","street":"不動島町"},{"zipCode":"9230944","prefectureKana":"ｲｼｶﾜｹﾝ","cityKana":"ｺﾏﾂｼ","streetKana":"ﾌﾙｶﾜﾏﾁ","prefecture":"石川県","city":"小松市","street":"古河町"},{"zipCode":"9230005","prefectureKana":"ｲｼｶﾜｹﾝ","cityKana":"ｺﾏﾂｼ","streetKana":"ﾎﾞｳﾏﾙﾏﾁ","prefecture":"石川県","city":"小松市","street":"坊丸町"},{"zipCode":"9230334","prefectureKana":"ｲｼｶﾜｹﾝ","cityKana":"ｺﾏﾂｼ","streetKana":"ﾎﾞﾀﾞｲﾏﾁ","prefecture":"石川県","city":"小松市","street":"菩提町"},{"zipCode":"9230933","prefectureKana":"ｲｼｶﾜｹﾝ","cityKana":"ｺﾏﾂｼ","streetKana":"ﾎﾝｶｼﾞﾏﾁ","prefecture":"石川県","city":"小松市","street":"本鍛冶町"},{"zipCode":"9230841","prefectureKana":"ｲｼｶﾜｹﾝ","cityKana":"ｺﾏﾂｼ","streetKana":"ﾎﾝｺﾞｳﾏﾁ","prefecture":"石川県","city":"小松市","street":"本江町"},{"zipCode":"9230936","prefectureKana":"ｲｼｶﾜｹﾝ","cityKana":"ｺﾏﾂｼ","streetKana":"ﾎﾝﾀﾞｲｸﾁｮｳ","prefecture":"石川県","city":"小松市","street":"本大工町"},{"zipCode":"9230937","prefectureKana":"ｲｼｶﾜｹﾝ","cityKana":"ｺﾏﾂｼ","streetKana":"ﾎﾝﾏﾁ","prefecture":"石川県","city":"小松市","street":"本町"},{"zipCode":"9230322","prefectureKana":"ｲｼｶﾜｹﾝ","cityKana":"ｺﾏﾂｼ","streetKana":"ﾏｷｸﾞﾁﾏﾁ","prefecture":"石川県","city":"小松市","street":"牧口町"},{"zipCode":"9230306","prefectureKana":"ｲｼｶﾜｹﾝ","cityKana":"ｺﾏﾂｼ","streetKana":"ﾏﾂｵｲﾁｮｳ","prefecture":"石川県","city":"小松市","street":"松生町"},{"zipCode":"9230166","prefectureKana":"ｲｼｶﾜｹﾝ","cityKana":"ｺﾏﾂｼ","streetKana":"ﾏﾂｵｶﾏﾁ","prefecture":"石川県","city":"小松市","street":"松岡町"},{"zipCode":"9230982","prefectureKana":"ｲｼｶﾜｹﾝ","cityKana":"ｺﾏﾂｼ","streetKana":"ﾏﾂｻﾞｷﾏﾁ","prefecture":"石川県","city":"小松市","street":"松崎町"},{"zipCode":"9230913","prefectureKana":"ｲｼｶﾜｹﾝ","cityKana":"ｺﾏﾂｼ","streetKana":"ﾏｯﾄｳﾏﾁ","prefecture":"石川県","city":"小松市","street":"松任町"},{"zipCode":"9230014","prefectureKana":"ｲｼｶﾜｹﾝ","cityKana":"ｺﾏﾂｼ","streetKana":"ﾏﾂﾅｼﾏﾁ","prefecture":"石川県","city":"小松市","street":"松梨町"},{"zipCode":"9230903","prefectureKana":"ｲｼｶﾜｹﾝ","cityKana":"ｺﾏﾂｼ","streetKana":"ﾏﾙﾉｳﾁｺｳｴﾝﾏﾁ","prefecture":"石川県","city":"小松市","street":"丸の内公園町"},{"zipCode":"9230903","prefectureKana":"ｲｼｶﾜｹﾝ","cityKana":"ｺﾏﾂｼ","streetKana":"ﾏﾙﾉｳﾁﾏﾁ","prefecture":"石川県","city":"小松市","street":"丸の内町"},{"zipCode":"9230903","prefectureKana":"ｲｼｶﾜｹﾝ","cityKana":"ｺﾏﾂｼ","streetKana":"ﾏﾙﾉｳﾁﾏﾁ","prefecture":"石川県","city":"小松市","street":"丸内町"},{"zipCode":"9230173","prefectureKana":"ｲｼｶﾜｹﾝ","cityKana":"ｺﾏﾂｼ","streetKana":"ﾏﾙﾔﾏﾏﾁ","prefecture":"石川県","city":"小松市","street":"丸山町"},{"zipCode":"9230862","prefectureKana":"ｲｼｶﾜｹﾝ","cityKana":"ｺﾏﾂｼ","streetKana":"ﾐﾀﾏﾁ","prefecture":"石川県","city":"小松市","street":"三田町"},{"zipCode":"9230924","prefectureKana":"ｲｼｶﾜｹﾝ","cityKana":"ｺﾏﾂｼ","streetKana":"ﾐｯｶｲﾁﾏﾁ","prefecture":"石川県","city":"小松市","street":"三日市町"},{"zipCode":"9230072","prefectureKana":"ｲｼｶﾜｹﾝ","cityKana":"ｺﾏﾂｼ","streetKana":"ﾐﾄﾞﾘﾏﾁ","prefecture":"石川県","city":"小松市","street":"みどり町"},{"zipCode":"9230852","prefectureKana":"ｲｼｶﾜｹﾝ","cityKana":"ｺﾏﾂｼ","streetKana":"ﾐﾅﾐｱｻｲﾏﾁ","prefecture":"石川県","city":"小松市","street":"南浅井町"},{"zipCode":"9230305","prefectureKana":"ｲｼｶﾜｹﾝ","cityKana":"ｺﾏﾂｼ","streetKana":"ﾐﾉﾜﾏﾁ","prefecture":"石川県","city":"小松市","street":"蓑輪町"},{"zipCode":"9230022","prefectureKana":"ｲｼｶﾜｹﾝ","cityKana":"ｺﾏﾂｼ","streetKana":"ﾐﾊﾗﾏﾁ","prefecture":"石川県","city":"小松市","street":"美原町"},{"zipCode":"9230961","prefectureKana":"ｲｼｶﾜｹﾝ","cityKana":"ｺﾏﾂｼ","streetKana":"ﾑｶｲﾓﾄｵﾘﾏﾁ","prefecture":"石川県","city":"小松市","street":"向本折町"},{"zipCode":"9230076","prefectureKana":"ｲｼｶﾜｹﾝ","cityKana":"ｺﾏﾂｼ","streetKana":"ﾑｷﾞｸﾁﾏﾁ","prefecture":"石川県","city":"小松市","street":"麦口町"},{"zipCode":"9230968","prefectureKana":"ｲｼｶﾜｹﾝ","cityKana":"ｺﾏﾂｼ","streetKana":"ﾑﾗﾏﾂﾏﾁ","prefecture":"石川県","city":"小松市","street":"村松町"},{"zipCode":"9230957","prefectureKana":"ｲｼｶﾜｹﾝ","cityKana":"ｺﾏﾂｼ","streetKana":"ﾓﾄｵﾘﾏﾁ","prefecture":"石川県","city":"小松市","street":"本折町"},{"zipCode":"9230301","prefectureKana":"ｲｼｶﾜｹﾝ","cityKana":"ｺﾏﾂｼ","streetKana":"ﾔｻﾞｷﾏﾁ","prefecture":"石川県","city":"小松市","street":"矢崎町"},{"zipCode":"9230056","prefectureKana":"ｲｼｶﾜｹﾝ","cityKana":"ｺﾏﾂｼ","streetKana":"ﾔｻﾄﾀﾞｲ","prefecture":"石川県","city":"小松市","street":"八里台"},{"zipCode":"9230343","prefectureKana":"ｲｼｶﾜｹﾝ","cityKana":"ｺﾏﾂｼ","streetKana":"ﾔｻﾞﾜﾏﾁ","prefecture":"石川県","city":"小松市","street":"矢沢町"},{"zipCode":"9230976","prefectureKana":"ｲｼｶﾜｹﾝ","cityKana":"ｺﾏﾂｼ","streetKana":"ﾔﾀｼﾝﾏﾁ","prefecture":"石川県","city":"小松市","street":"矢田新町"},{"zipCode":"9230342","prefectureKana":"ｲｼｶﾜｹﾝ","cityKana":"ｺﾏﾂｼ","streetKana":"ﾔﾀﾉﾏﾁ","prefecture":"石川県","city":"小松市","street":"矢田野町"},{"zipCode":"9230975","prefectureKana":"ｲｼｶﾜｹﾝ","cityKana":"ｺﾏﾂｼ","streetKana":"ﾔﾀﾏﾁ","prefecture":"石川県","city":"小松市","street":"矢田町"},{"zipCode":"9230952","prefectureKana":"ｲｼｶﾜｹﾝ","cityKana":"ｺﾏﾂｼ","streetKana":"ﾔﾏﾄﾏﾁ","prefecture":"石川県","city":"小松市","street":"大和町"},{"zipCode":"9230833","prefectureKana":"ｲｼｶﾜｹﾝ","cityKana":"ｺﾏﾂｼ","streetKana":"ﾔﾜﾀ(ｶｶﾞﾔﾜﾀ)","prefecture":"石川県","city":"小松市","street":"八幡（加賀八幡）"},{"zipCode":"9230954","prefectureKana":"ｲｼｶﾜｹﾝ","cityKana":"ｺﾏﾂｼ","streetKana":"ﾔﾜﾀﾏﾁ","prefecture":"石川県","city":"小松市","street":"八幡町"},{"zipCode":"9230064","prefectureKana":"ｲｼｶﾜｹﾝ","cityKana":"ｺﾏﾂｼ","streetKana":"ﾕｳｾﾝｼﾞﾏﾁ","prefecture":"石川県","city":"小松市","street":"遊泉寺町"},{"zipCode":"9230332","prefectureKana":"ｲｼｶﾜｹﾝ","cityKana":"ｺﾏﾂｼ","streetKana":"ﾕﾉｶﾐﾏﾁ","prefecture":"石川県","city":"小松市","street":"湯上町"},{"zipCode":"9230925","prefectureKana":"ｲｼｶﾜｹﾝ","cityKana":"ｺﾏﾂｼ","streetKana":"ﾖｳｶｲﾁﾏﾁ","prefecture":"石川県","city":"小松市","street":"八日市町"},{"zipCode":"9230868","prefectureKana":"ｲｼｶﾜｹﾝ","cityKana":"ｺﾏﾂｼ","streetKana":"ﾖｳｶｲﾁﾏﾁｼﾞｶﾞﾀ","prefecture":"石川県","city":"小松市","street":"八日市町地方"},{"zipCode":"9230835","prefectureKana":"ｲｼｶﾜｹﾝ","cityKana":"ｺﾏﾂｼ","streetKana":"ﾖｼﾀｹﾏﾁ","prefecture":"石川県","city":"小松市","street":"吉竹町"},{"zipCode":"9230998","prefectureKana":"ｲｼｶﾜｹﾝ","cityKana":"ｺﾏﾂｼ","streetKana":"ﾖｼﾅｶﾁｮｳ","prefecture":"石川県","city":"小松市","street":"義仲町"},{"zipCode":"9230926","prefectureKana":"ｲｼｶﾜｹﾝ","cityKana":"ｺﾏﾂｼ","streetKana":"ﾘｭｳｽｹﾁｮｳ","prefecture":"石川県","city":"小松市","street":"龍助町"},{"zipCode":"9230065","prefectureKana":"ｲｼｶﾜｹﾝ","cityKana":"ｺﾏﾂｼ","streetKana":"ﾘｭｳﾐｮｳｼﾞﾏﾁ","prefecture":"石川県","city":"小松市","street":"立明寺町"},{"zipCode":"9230843","prefectureKana":"ｲｼｶﾜｹﾝ","cityKana":"ｺﾏﾂｼ","streetKana":"ﾚﾝﾀﾞｲｼﾞﾏﾁ","prefecture":"石川県","city":"小松市","street":"蓮代寺町"},{"zipCode":"9230832","prefectureKana":"ｲｼｶﾜｹﾝ","cityKana":"ｺﾏﾂｼ","streetKana":"ﾜｶｽｷﾞﾏﾁ","prefecture":"石川県","city":"小松市","street":"若杉町"},{"zipCode":"9231100","prefectureKana":"ｲｼｶﾜｹﾝ","cityKana":"ﾉﾐｼ","streetKana":"ｲｶﾆｹｲｻｲｶﾞﾅｲﾊﾞｱｲ","prefecture":"石川県","city":"能美市","street":"以下に掲載がない場合"},{"zipCode":"9231101","prefectureKana":"ｲｼｶﾜｹﾝ","cityKana":"ﾉﾐｼ","streetKana":"ｱｵﾏﾁ","prefecture":"石川県","city":"能美市","street":"粟生町"},{"zipCode":"9231103","prefectureKana":"ｲｼｶﾜｹﾝ","cityKana":"ﾉﾐｼ","streetKana":"ｱｷﾂﾈﾏﾁ","prefecture":"石川県","city":"能美市","street":"秋常町"},{"zipCode":"9231211","prefectureKana":"ｲｼｶﾜｹﾝ","cityKana":"ﾉﾐｼ","streetKana":"ｱｻﾋﾀﾞｲ","prefecture":"石川県","city":"能美市","street":"旭台"},{"zipCode":"9231202","prefectureKana":"ｲｼｶﾜｹﾝ","cityKana":"ﾉﾐｼ","streetKana":"ｱｿﾞｳﾏﾁ","prefecture":"石川県","city":"能美市","street":"莇生町"},{"zipCode":"9231233","prefectureKana":"ｲｼｶﾜｹﾝ","cityKana":"ﾉﾐｼ","streetKana":"ｱﾗﾔﾏﾁ","prefecture":"石川県","city":"能美市","street":"荒屋町"},{"zipCode":"9231105","prefectureKana":"ｲｼｶﾜｹﾝ","cityKana":"ﾉﾐｼ","streetKana":"ｲｼｺﾏﾁ","prefecture":"石川県","city":"能美市","street":"石子町"},{"zipCode":"9231111","prefectureKana":"ｲｼｶﾜｹﾝ","cityKana":"ﾉﾐｼ","streetKana":"ｲｽﾞﾐﾀﾞｲﾏﾁ","prefecture":"石川県","city":"能美市","street":"泉台町"},{"zipCode":"9231201","prefectureKana":"ｲｼｶﾜｹﾝ","cityKana":"ﾉﾐｼ","streetKana":"ｲﾜｳﾁﾏﾁ","prefecture":"石川県","city":"能美市","street":"岩内町"},{"zipCode":"9231207","prefectureKana":"ｲｼｶﾜｹﾝ","cityKana":"ﾉﾐｼ","streetKana":"ｲﾜﾓﾄﾏﾁ","prefecture":"石川県","city":"能美市","street":"岩本町"},{"zipCode":"9231113","prefectureKana":"ｲｼｶﾜｹﾝ","cityKana":"ﾉﾐｼ","streetKana":"ｳｼｼﾞﾏﾏﾁ","prefecture":"石川県","city":"能美市","street":"牛島町"},{"zipCode":"9231212","prefectureKana":"ｲｼｶﾜｹﾝ","cityKana":"ﾉﾐｼ","streetKana":"ｵｵｸﾁﾏﾁ","prefecture":"石川県","city":"能美市","street":"大口町"},{"zipCode":"9231115","prefectureKana":"ｲｼｶﾜｹﾝ","cityKana":"ﾉﾐｼ","streetKana":"ｵｵﾅｶﾞﾉﾏﾁ","prefecture":"石川県","city":"能美市","street":"大長野町"},{"zipCode":"9231231","prefectureKana":"ｲｼｶﾜｹﾝ","cityKana":"ﾉﾐｼ","streetKana":"ｶﾐｶｲﾊﾂﾏﾁ","prefecture":"石川県","city":"能美市","street":"上開発町"},{"zipCode":"9231237","prefectureKana":"ｲｼｶﾜｹﾝ","cityKana":"ﾉﾐｼ","streetKana":"ｶﾐｼﾐｽﾞﾏﾁ","prefecture":"石川県","city":"能美市","street":"上清水町"},{"zipCode":"9231236","prefectureKana":"ｲｼｶﾜｹﾝ","cityKana":"ﾉﾐｼ","streetKana":"ｷﾀｲﾁﾏﾁ","prefecture":"石川県","city":"能美市","street":"北市町"},{"zipCode":"9231246","prefectureKana":"ｲｼｶﾜｹﾝ","cityKana":"ﾉﾐｼ","streetKana":"ｸﾗｼｹﾞﾏﾁ","prefecture":"石川県","city":"能美市","street":"倉重町"},{"zipCode":"9231234","prefectureKana":"ｲｼｶﾜｹﾝ","cityKana":"ﾉﾐｼ","streetKana":"ｺｳｻﾞﾏﾁ","prefecture":"石川県","city":"能美市","street":"高座町"},{"zipCode":"9231114","prefectureKana":"ｲｼｶﾜｹﾝ","cityKana":"ﾉﾐｼ","streetKana":"ｺｽｷﾞﾏﾁ","prefecture":"石川県","city":"能美市","street":"小杉町"},{"zipCode":"9231116","prefectureKana":"ｲｼｶﾜｹﾝ","cityKana":"ﾉﾐｼ","streetKana":"ｺﾅｶﾞﾉﾏﾁ","prefecture":"石川県","city":"能美市","street":"小長野町"},{"zipCode":"9231214","prefectureKana":"ｲｼｶﾜｹﾝ","cityKana":"ﾉﾐｼ","streetKana":"ｺﾝｺﾞｳｼﾞﾏﾁ","prefecture":"石川県","city":"能美市","street":"金剛寺町"},{"zipCode":"9231112","prefectureKana":"ｲｼｶﾜｹﾝ","cityKana":"ﾉﾐｼ","streetKana":"ｻﾉﾏﾁ","prefecture":"石川県","city":"能美市","street":"佐野町"},{"zipCode":"9231124","prefectureKana":"ｲｼｶﾜｹﾝ","cityKana":"ﾉﾐｼ","streetKana":"ｻﾝﾄﾞｳﾔﾏﾏﾁ","prefecture":"石川県","city":"能美市","street":"三道山町"},{"zipCode":"9231232","prefectureKana":"ｲｼｶﾜｹﾝ","cityKana":"ﾉﾐｼ","streetKana":"ｼﾓｶｲﾊﾂﾏﾁ","prefecture":"石川県","city":"能美市","street":"下開発町"},{"zipCode":"9231238","prefectureKana":"ｲｼｶﾜｹﾝ","cityKana":"ﾉﾐｼ","streetKana":"ｼﾓｼﾐｽﾞﾏﾁ","prefecture":"石川県","city":"能美市","street":"下清水町"},{"zipCode":"9231102","prefectureKana":"ｲｼｶﾜｹﾝ","cityKana":"ﾉﾐｼ","streetKana":"ｼﾝﾎﾞﾏﾁ","prefecture":"石川県","city":"能美市","street":"新保町"},{"zipCode":"9231117","prefectureKana":"ｲｼｶﾜｹﾝ","cityKana":"ﾉﾐｼ","streetKana":"ｽｴﾉﾌﾞﾏﾁ","prefecture":"石川県","city":"能美市","street":"末信町"},{"zipCode":"9231215","prefectureKana":"ｲｼｶﾜｹﾝ","cityKana":"ﾉﾐｼ","streetKana":"ﾀﾁﾏﾁ","prefecture":"石川県","city":"能美市","street":"舘町"},{"zipCode":"9231245","prefectureKana":"ｲｼｶﾜｹﾝ","cityKana":"ﾉﾐｼ","streetKana":"ﾀﾂﾉｸﾁﾏﾁ","prefecture":"石川県","city":"能美市","street":"辰口町"},{"zipCode":"9231213","prefectureKana":"ｲｼｶﾜｹﾝ","cityKana":"ﾉﾐｼ","streetKana":"ﾂﾎﾞﾉﾏﾁ","prefecture":"石川県","city":"能美市","street":"坪野町"},{"zipCode":"9231247","prefectureKana":"ｲｼｶﾜｹﾝ","cityKana":"ﾉﾐｼ","streetKana":"ﾃﾞｸﾞﾁﾏﾁ","prefecture":"石川県","city":"能美市","street":"出口町"},{"zipCode":"9231121","prefectureKana":"ｲｼｶﾜｹﾝ","cityKana":"ﾉﾐｼ","streetKana":"ﾃﾗｲﾏﾁ","prefecture":"石川県","city":"能美市","street":"寺井町"},{"zipCode":"9231223","prefectureKana":"ｲｼｶﾜｹﾝ","cityKana":"ﾉﾐｼ","streetKana":"ﾃﾗﾊﾞﾀｹﾏﾁ","prefecture":"石川県","city":"能美市","street":"寺畠町"},{"zipCode":"9231222","prefectureKana":"ｲｼｶﾜｹﾝ","cityKana":"ﾉﾐｼ","streetKana":"ﾄｸｻﾝﾏﾁ","prefecture":"石川県","city":"能美市","street":"徳山町"},{"zipCode":"9231235","prefectureKana":"ｲｼｶﾜｹﾝ","cityKana":"ﾉﾐｼ","streetKana":"ﾄｸﾋｻﾏﾁ","prefecture":"石川県","city":"能美市","street":"徳久町"},{"zipCode":"9231206","prefectureKana":"ｲｼｶﾜｹﾝ","cityKana":"ﾉﾐｼ","streetKana":"ﾄﾀﾞｼﾉﾏﾁ","prefecture":"石川県","city":"能美市","street":"灯台笹町"},{"zipCode":"9231204","prefectureKana":"ｲｼｶﾜｹﾝ","cityKana":"ﾉﾐｼ","streetKana":"ﾅｶﾞﾀｷﾏﾁ","prefecture":"石川県","city":"能美市","street":"長滝町"},{"zipCode":"9231216","prefectureKana":"ｲｼｶﾜｹﾝ","cityKana":"ﾉﾐｼ","streetKana":"ﾅﾍﾞﾀﾆﾏﾁ","prefecture":"石川県","city":"能美市","street":"鍋谷町"},{"zipCode":"9231122","prefectureKana":"ｲｼｶﾜｹﾝ","cityKana":"ﾉﾐｼ","streetKana":"ﾋｶﾞｼﾄｳﾀﾞﾏﾁ","prefecture":"石川県","city":"能美市","street":"東任田町"},{"zipCode":"9231242","prefectureKana":"ｲｼｶﾜｹﾝ","cityKana":"ﾉﾐｼ","streetKana":"ﾋｶﾞﾏﾏﾁ","prefecture":"石川県","city":"能美市","street":"火釜町"},{"zipCode":"9231217","prefectureKana":"ｲｼｶﾜｹﾝ","cityKana":"ﾉﾐｼ","streetKana":"ﾌﾞﾂﾀｲｼﾞﾏﾁ","prefecture":"石川県","city":"能美市","street":"仏大寺町"},{"zipCode":"9231225","prefectureKana":"ｲｼｶﾜｹﾝ","cityKana":"ﾉﾐｼ","streetKana":"ﾏﾂｶﾞｵｶ","prefecture":"石川県","city":"能美市","street":"松が岡"},{"zipCode":"9231107","prefectureKana":"ｲｼｶﾜｹﾝ","cityKana":"ﾉﾐｼ","streetKana":"ﾏﾂｼﾞﾏﾁ","prefecture":"石川県","city":"能美市","street":"末寺町"},{"zipCode":"9231203","prefectureKana":"ｲｼｶﾜｹﾝ","cityKana":"ﾉﾐｼ","streetKana":"ﾐﾂｸﾁﾏﾁ","prefecture":"石川県","city":"能美市","street":"三ツ口町"},{"zipCode":"9231243","prefectureKana":"ｲｼｶﾜｹﾝ","cityKana":"ﾉﾐｼ","streetKana":"ﾐﾂﾔﾏﾁ","prefecture":"石川県","city":"能美市","street":"三ツ屋町"},{"zipCode":"9231226","prefectureKana":"ｲｼｶﾜｹﾝ","cityKana":"ﾉﾐｼ","streetKana":"ﾐﾄﾞﾘｶﾞｵｶ","prefecture":"石川県","city":"能美市","street":"緑が丘"},{"zipCode":"9231205","prefectureKana":"ｲｼｶﾜｹﾝ","cityKana":"ﾉﾐｼ","streetKana":"ﾐﾔﾀｹﾏﾁ","prefecture":"石川県","city":"能美市","street":"宮竹町"},{"zipCode":"9231241","prefectureKana":"ｲｼｶﾜｹﾝ","cityKana":"ﾉﾐｼ","streetKana":"ﾔﾏﾀﾞﾏﾁ","prefecture":"石川県","city":"能美市","street":"山田町"},{"zipCode":"9231104","prefectureKana":"ｲｼｶﾜｹﾝ","cityKana":"ﾉﾐｼ","streetKana":"ﾕﾉﾀﾆﾏﾁ","prefecture":"石川県","city":"能美市","street":"湯谷町"},{"zipCode":"9231221","prefectureKana":"ｲｼｶﾜｹﾝ","cityKana":"ﾉﾐｼ","streetKana":"ﾕﾉﾔﾏﾁ","prefecture":"石川県","city":"能美市","street":"湯屋町"},{"zipCode":"9231123","prefectureKana":"ｲｼｶﾜｹﾝ","cityKana":"ﾉﾐｼ","streetKana":"ﾖｼﾐﾂﾏﾁ","prefecture":"石川県","city":"能美市","street":"吉光町"},{"zipCode":"9231244","prefectureKana":"ｲｼｶﾜｹﾝ","cityKana":"ﾉﾐｼ","streetKana":"ﾗｲﾏﾙﾏﾁ","prefecture":"石川県","city":"能美市","street":"来丸町"},{"zipCode":"9231224","prefectureKana":"ｲｼｶﾜｹﾝ","cityKana":"ﾉﾐｼ","streetKana":"ﾜｹﾏﾁ","prefecture":"石川県","city":"能美市","street":"和気町"},{"zipCode":"9231227","prefectureKana":"ｲｼｶﾜｹﾝ","cityKana":"ﾉﾐｼ","streetKana":"ﾜｺｳﾀﾞｲ","prefecture":"石川県","city":"能美市","street":"和光台"},{"zipCode":"9231208","prefectureKana":"ｲｼｶﾜｹﾝ","cityKana":"ﾉﾐｼ","streetKana":"ﾜｻﾀﾞﾆﾏﾁ","prefecture":"石川県","city":"能美市","street":"和佐谷町"},{"zipCode":"9231106","prefectureKana":"ｲｼｶﾜｹﾝ","cityKana":"ﾉﾐｼ","streetKana":"ﾜﾀﾞﾏﾁ","prefecture":"石川県","city":"能美市","street":"和田町"},{"zipCode":"9231200","prefectureKana":"ｲｼｶﾜｹﾝ","cityKana":"ﾉﾐｸﾞﾝｶﾜｷﾀﾏﾁ","streetKana":"ｲｶﾆｹｲｻｲｶﾞﾅｲﾊﾞｱｲ","prefecture":"石川県","city":"能美郡川北町","street":"以下に掲載がない場合"},{"zipCode":"9231278","prefectureKana":"ｲｼｶﾜｹﾝ","cityKana":"ﾉﾐｸﾞﾝｶﾜｷﾀﾏﾁ","streetKana":"ｱｻﾋ","prefecture":"石川県","city":"能美郡川北町","street":"朝日"},{"zipCode":"9231265","prefectureKana":"ｲｼｶﾜｹﾝ","cityKana":"ﾉﾐｸﾞﾝｶﾜｷﾀﾏﾁ","streetKana":"ｶﾐｾﾝﾃﾞﾝ","prefecture":"石川県","city":"能美郡川北町","street":"上先出"},{"zipCode":"9231269","prefectureKana":"ｲｼｶﾜｹﾝ","cityKana":"ﾉﾐｸﾞﾝｶﾜｷﾀﾏﾁ","streetKana":"ｶﾐﾀﾞｺﾞｼﾞﾏ","prefecture":"石川県","city":"能美郡川北町","street":"上田子島"},{"zipCode":"9231262","prefectureKana":"ｲｼｶﾜｹﾝ","cityKana":"ﾉﾐｸﾞﾝｶﾜｷﾀﾏﾁ","streetKana":"ｸｻﾌﾞｶ","prefecture":"石川県","city":"能美郡川北町","street":"草深"},{"zipCode":"9231274","prefectureKana":"ｲｼｶﾜｹﾝ","cityKana":"ﾉﾐｸﾞﾝｶﾜｷﾀﾏﾁ","streetKana":"ｺﾛﾊﾞ","prefecture":"石川県","city":"能美郡川北町","street":"木呂場"},{"zipCode":"9231275","prefectureKana":"ｲｼｶﾜｹﾝ","cityKana":"ﾉﾐｸﾞﾝｶﾜｷﾀﾏﾁ","streetKana":"ｺﾛﾊﾞｼﾝ","prefecture":"石川県","city":"能美郡川北町","street":"木呂場新"},{"zipCode":"9231254","prefectureKana":"ｲｼｶﾜｹﾝ","cityKana":"ﾉﾐｸﾞﾝｶﾜｷﾀﾏﾁ","streetKana":"ｻﾝｺｰﾎﾟﾗｽ","prefecture":"石川県","city":"能美郡川北町","street":"サンコーポラス"},{"zipCode":"9231253","prefectureKana":"ｲｼｶﾜｹﾝ","cityKana":"ﾉﾐｸﾞﾝｶﾜｷﾀﾏﾁ","streetKana":"ｻﾝﾀﾝﾀﾞ","prefecture":"石川県","city":"能美郡川北町","street":"三反田"},{"zipCode":"9231272","prefectureKana":"ｲｼｶﾜｹﾝ","cityKana":"ﾉﾐｸﾞﾝｶﾜｷﾀﾏﾁ","streetKana":"ｼﾓﾀｺﾞｼﾞﾏ","prefecture":"石川県","city":"能美郡川北町","street":"下田子島"},{"zipCode":"9231263","prefectureKana":"ｲｼｶﾜｹﾝ","cityKana":"ﾉﾐｸﾞﾝｶﾜｷﾀﾏﾁ","streetKana":"ｼﾓﾂﾁﾑﾛ","prefecture":"石川県","city":"能美郡川北町","street":"下土室"},{"zipCode":"9231266","prefectureKana":"ｲｼｶﾜｹﾝ","cityKana":"ﾉﾐｸﾞﾝｶﾜｷﾀﾏﾁ","streetKana":"ｼﾓｾﾝﾃﾞﾝ","prefecture":"石川県","city":"能美郡川北町","street":"下先出"},{"zipCode":"9231271","prefectureKana":"ｲｼｶﾜｹﾝ","cityKana":"ﾉﾐｸﾞﾝｶﾜｷﾀﾏﾁ","streetKana":"ﾀﾞｺﾞｼﾞﾏ","prefecture":"石川県","city":"能美郡川北町","street":"田子島"},{"zipCode":"9231276","prefectureKana":"ｲｼｶﾜｹﾝ","cityKana":"ﾉﾐｸﾞﾝｶﾜｷﾀﾏﾁ","streetKana":"ﾀﾁﾊﾞﾅ","prefecture":"石川県","city":"能美郡川北町","street":"橘"},{"zipCode":"9231277","prefectureKana":"ｲｼｶﾜｹﾝ","cityKana":"ﾉﾐｸﾞﾝｶﾜｷﾀﾏﾁ","streetKana":"ﾀﾁﾊﾞﾅｼﾝ","prefecture":"石川県","city":"能美郡川北町","street":"橘新"},{"zipCode":"9231261","prefectureKana":"ｲｼｶﾜｹﾝ","cityKana":"ﾉﾐｸﾞﾝｶﾜｷﾀﾏﾁ","streetKana":"ﾂﾁﾑﾛ","prefecture":"石川県","city":"能美郡川北町","street":"土室"},{"zipCode":"9231251","prefectureKana":"ｲｼｶﾜｹﾝ","cityKana":"ﾉﾐｸﾞﾝｶﾜｷﾀﾏﾁ","streetKana":"ﾄｳｿﾞｳ","prefecture":"石川県","city":"能美郡川北町","street":"藤蔵"},{"zipCode":"9231252","prefectureKana":"ｲｼｶﾜｹﾝ","cityKana":"ﾉﾐｸﾞﾝｶﾜｷﾀﾏﾁ","streetKana":"ﾅｶｼﾞﾏ","prefecture":"石川県","city":"能美郡川北町","street":"中島"},{"zipCode":"9231267","prefectureKana":"ｲｼｶﾜｹﾝ","cityKana":"ﾉﾐｸﾞﾝｶﾜｷﾀﾏﾁ","streetKana":"ﾋﾄﾂﾔ","prefecture":"石川県","city":"能美郡川北町","street":"壱ツ屋"},{"zipCode":"9231273","prefectureKana":"ｲｼｶﾜｹﾝ","cityKana":"ﾉﾐｸﾞﾝｶﾜｷﾀﾏﾁ","streetKana":"ﾌﾅﾊﾞｼﾞﾏ","prefecture":"石川県","city":"能美郡川北町","street":"舟場島"},{"zipCode":"9231264","prefectureKana":"ｲｼｶﾜｹﾝ","cityKana":"ﾉﾐｸﾞﾝｶﾜｷﾀﾏﾁ","streetKana":"ﾔﾏﾀﾞｾﾝﾃﾞﾝ","prefecture":"石川県","city":"能美郡川北町","street":"山田先出"},{"zipCode":"9231268","prefectureKana":"ｲｼｶﾜｹﾝ","cityKana":"ﾉﾐｸﾞﾝｶﾜｷﾀﾏﾁ","streetKana":"ﾖｸﾛｳｼﾞﾏ","prefecture":"石川県","city":"能美郡川北町","street":"与九郎島"}]