[{"zipCode":"9250000","prefectureKana":"ｲｼｶﾜｹﾝ","cityKana":"ﾊｸｲｼ","streetKana":"ｲｶﾆｹｲｻｲｶﾞﾅｲﾊﾞｱｲ","prefecture":"石川県","city":"羽咋市","street":"以下に掲載がない場合"},{"zipCode":"9250045","prefectureKana":"ｲｼｶﾜｹﾝ","cityKana":"ﾊｸｲｼ","streetKana":"ｱｵﾏﾁ","prefecture":"石川県","city":"羽咋市","street":"粟生町"},{"zipCode":"9250034","prefectureKana":"ｲｼｶﾜｹﾝ","cityKana":"ﾊｸｲｼ","streetKana":"ｱｻﾋﾏﾁ","prefecture":"石川県","city":"羽咋市","street":"旭町"},{"zipCode":"9250043","prefectureKana":"ｲｼｶﾜｹﾝ","cityKana":"ﾊｸｲｼ","streetKana":"ｱﾜﾗﾏﾁ","prefecture":"石川県","city":"羽咋市","street":"粟原町"},{"zipCode":"9250026","prefectureKana":"ｲｼｶﾜｹﾝ","cityKana":"ﾊｸｲｼ","streetKana":"ｲｼﾉﾏﾁ","prefecture":"石川県","city":"羽咋市","street":"石野町"},{"zipCode":"9250004","prefectureKana":"ｲｼｶﾜｹﾝ","cityKana":"ﾊｸｲｼ","streetKana":"ｲﾁﾉﾐﾔﾏﾁ","prefecture":"石川県","city":"羽咋市","street":"一ノ宮町"},{"zipCode":"9250613","prefectureKana":"ｲｼｶﾜｹﾝ","cityKana":"ﾊｸｲｼ","streetKana":"ｲﾉﾔﾏﾏﾁ","prefecture":"石川県","city":"羽咋市","street":"飯山町"},{"zipCode":"9250605","prefectureKana":"ｲｼｶﾜｹﾝ","cityKana":"ﾊｸｲｼ","streetKana":"ｳﾄﾞﾉﾏﾁ","prefecture":"石川県","city":"羽咋市","street":"宇土野町"},{"zipCode":"9250611","prefectureKana":"ｲｼｶﾜｹﾝ","cityKana":"ﾊｸｲｼ","streetKana":"ｳﾜｴﾏﾁ","prefecture":"石川県","city":"羽咋市","street":"上江町"},{"zipCode":"9250015","prefectureKana":"ｲｼｶﾜｹﾝ","cityKana":"ﾊｸｲｼ","streetKana":"ｵｵｶﾜﾏﾁ","prefecture":"石川県","city":"羽咋市","street":"大川町"},{"zipCode":"9250025","prefectureKana":"ｲｼｶﾜｹﾝ","cityKana":"ﾊｸｲｼ","streetKana":"ｵｵﾀﾏﾁ","prefecture":"石川県","city":"羽咋市","street":"太田町"},{"zipCode":"9250072","prefectureKana":"ｲｼｶﾜｹﾝ","cityKana":"ﾊｸｲｼ","streetKana":"ｵｵﾏﾁ","prefecture":"石川県","city":"羽咋市","street":"大町"},{"zipCode":"9250625","prefectureKana":"ｲｼｶﾜｹﾝ","cityKana":"ﾊｸｲｼ","streetKana":"ｵﾅｶﾞﾏﾁ","prefecture":"石川県","city":"羽咋市","street":"尾長町"},{"zipCode":"9250612","prefectureKana":"ｲｼｶﾜｹﾝ","cityKana":"ﾊｸｲｼ","streetKana":"ｶｸｯﾀﾏﾁ","prefecture":"石川県","city":"羽咋市","street":"垣内田町"},{"zipCode":"9250076","prefectureKana":"ｲｼｶﾜｹﾝ","cityKana":"ﾊｸｲｼ","streetKana":"ｶｼﾏｼﾞﾏﾁ","prefecture":"石川県","city":"羽咋市","street":"鹿島路町"},{"zipCode":"9250075","prefectureKana":"ｲｼｶﾜｹﾝ","cityKana":"ﾊｸｲｼ","streetKana":"ｶﾈﾏﾙﾃﾞﾏﾁ","prefecture":"石川県","city":"羽咋市","street":"金丸出町"},{"zipCode":"9250014","prefectureKana":"ｲｼｶﾜｹﾝ","cityKana":"ﾊｸｲｼ","streetKana":"ｶﾏﾔﾏﾁ","prefecture":"石川県","city":"羽咋市","street":"釜屋町"},{"zipCode":"9250607","prefectureKana":"ｲｼｶﾜｹﾝ","cityKana":"ﾊｸｲｼ","streetKana":"ｶﾐｼﾛｾﾏﾁ","prefecture":"石川県","city":"羽咋市","street":"上白瀬町"},{"zipCode":"9250011","prefectureKana":"ｲｼｶﾜｹﾝ","cityKana":"ﾊｸｲｼ","streetKana":"ｶﾐﾅｶﾔﾏﾏﾁ","prefecture":"石川県","city":"羽咋市","street":"上中山町"},{"zipCode":"9250033","prefectureKana":"ｲｼｶﾜｹﾝ","cityKana":"ﾊｸｲｼ","streetKana":"ｶﾜﾗﾏﾁ","prefecture":"石川県","city":"羽咋市","street":"川原町"},{"zipCode":"9250047","prefectureKana":"ｲｼｶﾜｹﾝ","cityKana":"ﾊｸｲｼ","streetKana":"ｺﾞﾎﾞｳﾔﾏﾏﾁ","prefecture":"石川県","city":"羽咋市","street":"御坊山町"},{"zipCode":"9250074","prefectureKana":"ｲｼｶﾜｹﾝ","cityKana":"ﾊｸｲｼ","streetKana":"ｻｶｲﾏﾁ","prefecture":"石川県","city":"羽咋市","street":"酒井町"},{"zipCode":"9250003","prefectureKana":"ｲｼｶﾜｹﾝ","cityKana":"ﾊｸｲｼ","streetKana":"ｼﾞｹﾏﾁ","prefecture":"石川県","city":"羽咋市","street":"寺家町"},{"zipCode":"9250624","prefectureKana":"ｲｼｶﾜｹﾝ","cityKana":"ﾊｸｲｼ","streetKana":"ｼｼﾞﾐﾏﾁ","prefecture":"石川県","city":"羽咋市","street":"志々見町"},{"zipCode":"9250616","prefectureKana":"ｲｼｶﾜｹﾝ","cityKana":"ﾊｸｲｼ","streetKana":"ｼﾁｮｳ","prefecture":"石川県","city":"羽咋市","street":"四町"},{"zipCode":"9250001","prefectureKana":"ｲｼｶﾜｹﾝ","cityKana":"ﾊｸｲｼ","streetKana":"ｼﾊﾞｶﾞｷﾏﾁ","prefecture":"石川県","city":"羽咋市","street":"柴垣町"},{"zipCode":"9250051","prefectureKana":"ｲｼｶﾜｹﾝ","cityKana":"ﾊｸｲｼ","streetKana":"ｼﾏﾃﾞﾏﾁ","prefecture":"石川県","city":"羽咋市","street":"島出町"},{"zipCode":"9250071","prefectureKana":"ｲｼｶﾜｹﾝ","cityKana":"ﾊｸｲｼ","streetKana":"ｼﾓｿﾈﾏﾁ","prefecture":"石川県","city":"羽咋市","street":"下曽祢町"},{"zipCode":"9250604","prefectureKana":"ｲｼｶﾜｹﾝ","cityKana":"ﾊｸｲｼ","streetKana":"ｼﾛｲｼﾏﾁ","prefecture":"石川県","city":"羽咋市","street":"白石町"},{"zipCode":"9250606","prefectureKana":"ｲｼｶﾜｹﾝ","cityKana":"ﾊｸｲｼ","streetKana":"ｼﾛｾﾏﾁ","prefecture":"石川県","city":"羽咋市","street":"白瀬町"},{"zipCode":"9250044","prefectureKana":"ｲｼｶﾜｹﾝ","cityKana":"ﾊｸｲｼ","streetKana":"ｼﾝﾎﾞﾏﾁ","prefecture":"石川県","city":"羽咋市","street":"新保町"},{"zipCode":"9250601","prefectureKana":"ｲｼｶﾜｹﾝ","cityKana":"ﾊｸｲｼ","streetKana":"ｽｶﾞｲｹﾏﾁ","prefecture":"石川県","city":"羽咋市","street":"菅池町"},{"zipCode":"9250028","prefectureKana":"ｲｼｶﾜｹﾝ","cityKana":"ﾊｸｲｼ","streetKana":"ｽﾊﾞﾏﾁ","prefecture":"石川県","city":"羽咋市","street":"次場町"},{"zipCode":"9250602","prefectureKana":"ｲｼｶﾜｹﾝ","cityKana":"ﾊｸｲｼ","streetKana":"ｾﾝｺﾞｸﾏﾁ","prefecture":"石川県","city":"羽咋市","street":"千石町"},{"zipCode":"9250626","prefectureKana":"ｲｼｶﾜｹﾝ","cityKana":"ﾊｸｲｼ","streetKana":"ｾﾝﾀﾞﾏﾁ","prefecture":"石川県","city":"羽咋市","street":"千田町"},{"zipCode":"9250002","prefectureKana":"ｲｼｶﾜｹﾝ","cityKana":"ﾊｸｲｼ","streetKana":"ﾀｷﾀﾞﾆﾏﾁ","prefecture":"石川県","city":"羽咋市","street":"滝谷町"},{"zipCode":"9250005","prefectureKana":"ｲｼｶﾜｹﾝ","cityKana":"ﾊｸｲｼ","streetKana":"ﾀｷﾏﾁ","prefecture":"石川県","city":"羽咋市","street":"滝町"},{"zipCode":"9250012","prefectureKana":"ｲｼｶﾜｹﾝ","cityKana":"ﾊｸｲｼ","streetKana":"ﾁｼﾞﾏﾁ","prefecture":"石川県","city":"羽咋市","street":"千路町"},{"zipCode":"9250052","prefectureKana":"ｲｼｶﾜｹﾝ","cityKana":"ﾊｸｲｼ","streetKana":"ﾁｭｳｵｳﾏﾁ","prefecture":"石川県","city":"羽咋市","street":"中央町"},{"zipCode":"9250615","prefectureKana":"ｲｼｶﾜｹﾝ","cityKana":"ﾊｸｲｼ","streetKana":"ﾁﾖﾏﾁ","prefecture":"石川県","city":"羽咋市","street":"千代町"},{"zipCode":"9250054","prefectureKana":"ｲｼｶﾜｹﾝ","cityKana":"ﾊｸｲｼ","streetKana":"ﾁﾘﾊﾏﾏﾁ","prefecture":"石川県","city":"羽咋市","street":"千里浜町"},{"zipCode":"9250042","prefectureKana":"ｲｼｶﾜｹﾝ","cityKana":"ﾊｸｲｼ","streetKana":"ﾂﾁﾊｼﾏﾁ","prefecture":"石川県","city":"羽咋市","street":"土橋町"},{"zipCode":"9250617","prefectureKana":"ｲｼｶﾜｹﾝ","cityKana":"ﾊｸｲｼ","streetKana":"ﾂﾑﾗｲﾏﾁ","prefecture":"石川県","city":"羽咋市","street":"円井町"},{"zipCode":"9250027","prefectureKana":"ｲｼｶﾜｹﾝ","cityKana":"ﾊｸｲｼ","streetKana":"ﾂﾙﾀﾏﾁ","prefecture":"石川県","city":"羽咋市","street":"鶴多町"},{"zipCode":"9250614","prefectureKana":"ｲｼｶﾜｹﾝ","cityKana":"ﾊｸｲｼ","streetKana":"ﾅｶｶﾞﾜﾏﾁ","prefecture":"石川県","city":"羽咋市","street":"中川町"},{"zipCode":"9250017","prefectureKana":"ｲｼｶﾜｹﾝ","cityKana":"ﾊｸｲｼ","streetKana":"ﾆｼｶﾏﾔﾏﾁ","prefecture":"石川県","city":"羽咋市","street":"西釜屋町"},{"zipCode":"9250016","prefectureKana":"ｲｼｶﾜｹﾝ","cityKana":"ﾊｸｲｼ","streetKana":"ﾊｸｲﾏﾁ","prefecture":"石川県","city":"羽咋市","street":"羽咋町"},{"zipCode":"9250077","prefectureKana":"ｲｼｶﾜｹﾝ","cityKana":"ﾊｸｲｼ","streetKana":"ﾋｶﾞｼｶﾀﾏﾁ","prefecture":"石川県","city":"羽咋市","street":"東潟町"},{"zipCode":"9250013","prefectureKana":"ｲｼｶﾜｹﾝ","cityKana":"ﾊｸｲｼ","streetKana":"ﾋｶﾞｼｶﾏﾔﾏﾁ","prefecture":"石川県","city":"羽咋市","street":"東釜屋町"},{"zipCode":"9250032","prefectureKana":"ｲｼｶﾜｹﾝ","cityKana":"ﾊｸｲｼ","streetKana":"ﾋｶﾞｼｶﾜﾗﾏﾁ","prefecture":"石川県","city":"羽咋市","street":"東川原町"},{"zipCode":"9250031","prefectureKana":"ｲｼｶﾜｹﾝ","cityKana":"ﾊｸｲｼ","streetKana":"ﾋｶﾞｼﾏﾄﾊﾞﾏﾁ","prefecture":"石川県","city":"羽咋市","street":"東的場町"},{"zipCode":"9250621","prefectureKana":"ｲｼｶﾜｹﾝ","cityKana":"ﾊｸｲｼ","streetKana":"ﾋｼﾜｹﾏﾁ","prefecture":"石川県","city":"羽咋市","street":"菱分町"},{"zipCode":"9250046","prefectureKana":"ｲｼｶﾜｹﾝ","cityKana":"ﾊｸｲｼ","streetKana":"ﾋｮｳｺﾞﾏﾁ","prefecture":"石川県","city":"羽咋市","street":"兵庫町"},{"zipCode":"9250022","prefectureKana":"ｲｼｶﾜｹﾝ","cityKana":"ﾊｸｲｼ","streetKana":"ﾌｶｴﾏﾁ","prefecture":"石川県","city":"羽咋市","street":"深江町"},{"zipCode":"9250603","prefectureKana":"ｲｼｶﾜｹﾝ","cityKana":"ﾊｸｲｼ","streetKana":"ﾌｸﾐｽﾞﾏﾁ","prefecture":"石川県","city":"羽咋市","street":"福水町"},{"zipCode":"9250622","prefectureKana":"ｲｼｶﾜｹﾝ","cityKana":"ﾊｸｲｼ","streetKana":"ﾎﾘｶｴｼﾝﾏﾁ","prefecture":"石川県","city":"羽咋市","street":"堀替新町"},{"zipCode":"9250623","prefectureKana":"ｲｼｶﾜｹﾝ","cityKana":"ﾊｸｲｼ","streetKana":"ﾎﾝｺﾞｳﾏﾁ","prefecture":"石川県","city":"羽咋市","street":"本江町"},{"zipCode":"9250035","prefectureKana":"ｲｼｶﾜｹﾝ","cityKana":"ﾊｸｲｼ","streetKana":"ﾎﾝﾏﾁ","prefecture":"石川県","city":"羽咋市","street":"本町"},{"zipCode":"9250048","prefectureKana":"ｲｼｶﾜｹﾝ","cityKana":"ﾊｸｲｼ","streetKana":"ﾏﾂｶﾞｼﾀﾏﾁ","prefecture":"石川県","city":"羽咋市","street":"松ケ下町"},{"zipCode":"9250036","prefectureKana":"ｲｼｶﾜｹﾝ","cityKana":"ﾊｸｲｼ","streetKana":"ﾏﾄﾊﾞﾏﾁ","prefecture":"石川県","city":"羽咋市","street":"的場町"},{"zipCode":"9250608","prefectureKana":"ｲｼｶﾜｹﾝ","cityKana":"ﾊｸｲｼ","streetKana":"ﾐｺﾊﾗﾏﾁ","prefecture":"石川県","city":"羽咋市","street":"神子原町"},{"zipCode":"9250024","prefectureKana":"ｲｼｶﾜｹﾝ","cityKana":"ﾊｸｲｼ","streetKana":"ﾐﾂﾔﾏﾁ","prefecture":"石川県","city":"羽咋市","street":"三ツ屋町"},{"zipCode":"9250053","prefectureKana":"ｲｼｶﾜｹﾝ","cityKana":"ﾊｸｲｼ","streetKana":"ﾐﾅﾐﾁｭｳｵｳﾏﾁ","prefecture":"石川県","city":"羽咋市","street":"南中央町"},{"zipCode":"9250018","prefectureKana":"ｲｼｶﾜｹﾝ","cityKana":"ﾊｸｲｼ","streetKana":"ﾔﾅｲﾀﾞﾏﾁ","prefecture":"石川県","city":"羽咋市","street":"柳田町"},{"zipCode":"9250049","prefectureKana":"ｲｼｶﾜｹﾝ","cityKana":"ﾊｸｲｼ","streetKana":"ﾔﾅｷﾞﾊﾞｼﾏﾁ","prefecture":"石川県","city":"羽咋市","street":"柳橋町"},{"zipCode":"9250021","prefectureKana":"ｲｼｶﾜｹﾝ","cityKana":"ﾊｸｲｼ","streetKana":"ﾖｼｻｷﾏﾁ","prefecture":"石川県","city":"羽咋市","street":"吉崎町"},{"zipCode":"9250073","prefectureKana":"ｲｼｶﾜｹﾝ","cityKana":"ﾊｸｲｼ","streetKana":"ﾖﾂﾔﾅｷﾞﾏﾁ","prefecture":"石川県","city":"羽咋市","street":"四柳町"},{"zipCode":"9250041","prefectureKana":"ｲｼｶﾜｹﾝ","cityKana":"ﾊｸｲｼ","streetKana":"ﾘｭｳｶﾞｲﾏﾁ","prefecture":"石川県","city":"羽咋市","street":"立開町"},{"zipCode":"9250023","prefectureKana":"ｲｼｶﾜｹﾝ","cityKana":"ﾊｸｲｼ","streetKana":"ﾜｶｸｻﾏﾁ","prefecture":"石川県","city":"羽咋市","street":"若草町"},{"zipCode":"9250100","prefectureKana":"ｲｼｶﾜｹﾝ","cityKana":"ﾊｸｲｸﾞﾝｼｶﾏﾁ","streetKana":"ｲｶﾆｹｲｻｲｶﾞﾅｲﾊﾞｱｲ","prefecture":"石川県","city":"羽咋郡志賀町","street":"以下に掲載がない場合"},{"zipCode":"9250454","prefectureKana":"ｲｼｶﾜｹﾝ","cityKana":"ﾊｸｲｸﾞﾝｼｶﾏﾁ","streetKana":"ｱｲｶﾐ","prefecture":"石川県","city":"羽咋郡志賀町","street":"相神"},{"zipCode":"9250574","prefectureKana":"ｲｼｶﾜｹﾝ","cityKana":"ﾊｸｲｸﾞﾝｼｶﾏﾁ","streetKana":"ｱｶｻｷ","prefecture":"石川県","city":"羽咋郡志賀町","street":"赤崎"},{"zipCode":"9250161","prefectureKana":"ｲｼｶﾜｹﾝ","cityKana":"ﾊｸｲｸﾞﾝｼｶﾏﾁ","streetKana":"ｱｶｽﾐ","prefecture":"石川県","city":"羽咋郡志賀町","street":"赤住"},{"zipCode":"9250426","prefectureKana":"ｲｼｶﾜｹﾝ","cityKana":"ﾊｸｲｸﾞﾝｼｶﾏﾁ","streetKana":"ｱｺｳ","prefecture":"石川県","city":"羽咋郡志賀町","street":"阿川"},{"zipCode":"9250121","prefectureKana":"ｲｼｶﾜｹﾝ","cityKana":"ﾊｸｲｸﾞﾝｼｶﾏﾁ","streetKana":"ｱﾂﾞﾐ","prefecture":"石川県","city":"羽咋郡志賀町","street":"安津見"},{"zipCode":"9250132","prefectureKana":"ｲｼｶﾜｹﾝ","cityKana":"ﾊｸｲｸﾞﾝｼｶﾏﾁ","streetKana":"ｱﾅｸﾞﾁ","prefecture":"石川県","city":"羽咋郡志賀町","street":"穴口"},{"zipCode":"9250166","prefectureKana":"ｲｼｶﾜｹﾝ","cityKana":"ﾊｸｲｸﾞﾝｼｶﾏﾁ","streetKana":"ｱﾌﾞﾔ","prefecture":"石川県","city":"羽咋郡志賀町","street":"安部屋"},{"zipCode":"9250146","prefectureKana":"ｲｼｶﾜｹﾝ","cityKana":"ﾊｸｲｸﾞﾝｼｶﾏﾁ","streetKana":"ｱﾏﾀﾞ","prefecture":"石川県","city":"羽咋郡志賀町","street":"甘田"},{"zipCode":"9250307","prefectureKana":"ｲｼｶﾜｹﾝ","cityKana":"ﾊｸｲｸﾞﾝｼｶﾏﾁ","streetKana":"ｱﾗﾔ","prefecture":"石川県","city":"羽咋郡志賀町","street":"荒屋"},{"zipCode":"9250215","prefectureKana":"ｲｼｶﾜｹﾝ","cityKana":"ﾊｸｲｸﾞﾝｼｶﾏﾁ","streetKana":"ｲｽﾞﾓ","prefecture":"石川県","city":"羽咋郡志賀町","street":"出雲"},{"zipCode":"9250563","prefectureKana":"ｲｼｶﾜｹﾝ","cityKana":"ﾊｸｲｸﾞﾝｼｶﾏﾁ","streetKana":"ｲﾅｼｷ","prefecture":"石川県","city":"羽咋郡志賀町","street":"稲敷"},{"zipCode":"9250432","prefectureKana":"ｲｼｶﾜｹﾝ","cityKana":"ﾊｸｲｸﾞﾝｼｶﾏﾁ","streetKana":"ｲﾏﾀﾞ","prefecture":"石川県","city":"羽咋郡志賀町","street":"今田"},{"zipCode":"9250424","prefectureKana":"ｲｼｶﾜｹﾝ","cityKana":"ﾊｸｲｸﾞﾝｼｶﾏﾁ","streetKana":"ｲﾘｶﾞﾏ","prefecture":"石川県","city":"羽咋郡志賀町","street":"入釜"},{"zipCode":"9250145","prefectureKana":"ｲｼｶﾜｹﾝ","cityKana":"ﾊｸｲｸﾞﾝｼｶﾏﾁ","streetKana":"ｲﾜﾀ","prefecture":"石川県","city":"羽咋郡志賀町","street":"岩田"},{"zipCode":"9250201","prefectureKana":"ｲｼｶﾜｹﾝ","cityKana":"ﾊｸｲｸﾞﾝｼｶﾏﾁ","streetKana":"ｲﾝﾅｲ","prefecture":"石川県","city":"羽咋郡志賀町","street":"印内"},{"zipCode":"9250385","prefectureKana":"ｲｼｶﾜｹﾝ","cityKana":"ﾊｸｲｸﾞﾝｼｶﾏﾁ","streetKana":"ｳｼｶﾞｸﾋﾞ","prefecture":"石川県","city":"羽咋郡志賀町","street":"牛ケ首"},{"zipCode":"9250423","prefectureKana":"ｲｼｶﾜｹﾝ","cityKana":"ﾊｸｲｸﾞﾝｼｶﾏﾁ","streetKana":"ｳﾉﾔ","prefecture":"石川県","city":"羽咋郡志賀町","street":"鵜野屋"},{"zipCode":"9250134","prefectureKana":"ｲｼｶﾜｹﾝ","cityKana":"ﾊｸｲｸﾞﾝｼｶﾏﾁ","streetKana":"ｳﾜﾀﾞﾅ","prefecture":"石川県","city":"羽咋郡志賀町","street":"上棚"},{"zipCode":"9250165","prefectureKana":"ｲｼｶﾜｹﾝ","cityKana":"ﾊｸｲｸﾞﾝｼｶﾏﾁ","streetKana":"ｳﾜﾉ","prefecture":"石川県","city":"羽咋郡志賀町","street":"上野"},{"zipCode":"9250435","prefectureKana":"ｲｼｶﾜｹﾝ","cityKana":"ﾊｸｲｸﾞﾝｼｶﾏﾁ","streetKana":"ｴｿﾞｴ","prefecture":"石川県","city":"羽咋郡志賀町","street":"江添"},{"zipCode":"9250163","prefectureKana":"ｲｼｶﾜｹﾝ","cityKana":"ﾊｸｲｸﾞﾝｼｶﾏﾁ","streetKana":"ｵｳﾗ","prefecture":"石川県","city":"羽咋郡志賀町","street":"小浦"},{"zipCode":"9250133","prefectureKana":"ｲｼｶﾜｹﾝ","cityKana":"ﾊｸｲｸﾞﾝｼｶﾏﾁ","streetKana":"ｵｵｻｶ","prefecture":"石川県","city":"羽咋郡志賀町","street":"大坂"},{"zipCode":"9250383","prefectureKana":"ｲｼｶﾜｹﾝ","cityKana":"ﾊｸｲｸﾞﾝｼｶﾏﾁ","streetKana":"ｵｵｻﾞｻ","prefecture":"石川県","city":"羽咋郡志賀町","street":"大笹"},{"zipCode":"9250164","prefectureKana":"ｲｼｶﾜｹﾝ","cityKana":"ﾊｸｲｸﾞﾝｼｶﾏﾁ","streetKana":"ｵｵﾂﾞ","prefecture":"石川県","city":"羽咋郡志賀町","street":"大津"},{"zipCode":"9250434","prefectureKana":"ｲｼｶﾜｹﾝ","cityKana":"ﾊｸｲｸﾞﾝｼｶﾏﾁ","streetKana":"ｵｵﾆｼ","prefecture":"石川県","city":"羽咋郡志賀町","street":"大西"},{"zipCode":"9250575","prefectureKana":"ｲｼｶﾜｹﾝ","cityKana":"ﾊｸｲｸﾞﾝｼｶﾏﾁ","streetKana":"ｵｸﾎﾞ","prefecture":"石川県","city":"羽咋郡志賀町","street":"小窪"},{"zipCode":"9250147","prefectureKana":"ｲｼｶﾜｹﾝ","cityKana":"ﾊｸｲｸﾞﾝｼｶﾏﾁ","streetKana":"ｵｼﾏ","prefecture":"石川県","city":"羽咋郡志賀町","street":"大島"},{"zipCode":"9250436","prefectureKana":"ｲｼｶﾜｹﾝ","cityKana":"ﾊｸｲｸﾞﾝｼｶﾏﾁ","streetKana":"ｶｲﾀﾞ","prefecture":"石川県","city":"羽咋郡志賀町","street":"貝田"},{"zipCode":"9250562","prefectureKana":"ｲｼｶﾜｹﾝ","cityKana":"ﾊｸｲｸﾞﾝｼｶﾏﾁ","streetKana":"ｶｲﾉｷ","prefecture":"石川県","city":"羽咋郡志賀町","street":"栢木"},{"zipCode":"9250155","prefectureKana":"ｲｼｶﾜｹﾝ","cityKana":"ﾊｸｲｸﾞﾝｼｶﾏﾁ","streetKana":"ｶｸﾐ","prefecture":"石川県","city":"羽咋郡志賀町","street":"神代"},{"zipCode":"9250565","prefectureKana":"ｲｼｶﾜｹﾝ","cityKana":"ﾊｸｲｸﾞﾝｼｶﾏﾁ","streetKana":"ｶﾉｳ","prefecture":"石川県","city":"羽咋郡志賀町","street":"香能"},{"zipCode":"9250168","prefectureKana":"ｲｼｶﾜｹﾝ","cityKana":"ﾊｸｲｸﾞﾝｼｶﾏﾁ","streetKana":"ｶﾜｼﾘ","prefecture":"石川県","city":"羽咋郡志賀町","street":"川尻"},{"zipCode":"9250152","prefectureKana":"ｲｼｶﾜｹﾝ","cityKana":"ﾊｸｲｸﾞﾝｼｶﾏﾁ","streetKana":"ｷﾀﾖｼﾀﾞ","prefecture":"石川県","city":"羽咋郡志賀町","street":"北吉田"},{"zipCode":"9250457","prefectureKana":"ｲｼｶﾜｹﾝ","cityKana":"ﾊｸｲｸﾞﾝｼｶﾏﾁ","streetKana":"ｷｭｳﾌﾞﾝ","prefecture":"石川県","city":"羽咋郡志賀町","street":"給分"},{"zipCode":"9250421","prefectureKana":"ｲｼｶﾜｹﾝ","cityKana":"ﾊｸｲｸﾞﾝｼｶﾏﾁ","streetKana":"ｷﾘﾄﾞﾒ","prefecture":"石川県","city":"羽咋郡志賀町","street":"切留"},{"zipCode":"9250306","prefectureKana":"ｲｼｶﾜｹﾝ","cityKana":"ﾊｸｲｸﾞﾝｼｶﾏﾁ","streetKana":"ｸｻｷﾞ","prefecture":"石川県","city":"羽咋郡志賀町","street":"草木"},{"zipCode":"9250122","prefectureKana":"ｲｼｶﾜｹﾝ","cityKana":"ﾊｸｲｸﾞﾝｼｶﾏﾁ","streetKana":"ｸﾗｶｷ","prefecture":"石川県","city":"羽咋郡志賀町","street":"倉垣"},{"zipCode":"9250207","prefectureKana":"ｲｼｶﾜｹﾝ","cityKana":"ﾊｸｲｸﾞﾝｼｶﾏﾁ","streetKana":"ｸﾘﾔﾏ","prefecture":"石川県","city":"羽咋郡志賀町","street":"栗山"},{"zipCode":"9250373","prefectureKana":"ｲｼｶﾜｹﾝ","cityKana":"ﾊｸｲｸﾞﾝｼｶﾏﾁ","streetKana":"ｺﾓﾛ","prefecture":"石川県","city":"羽咋郡志賀町","street":"小室"},{"zipCode":"9250384","prefectureKana":"ｲｼｶﾜｹﾝ","cityKana":"ﾊｸｲｸﾞﾝｼｶﾏﾁ","streetKana":"ｺﾞﾘﾄｳｹﾞ","prefecture":"石川県","city":"羽咋郡志賀町","street":"五里峠"},{"zipCode":"9250382","prefectureKana":"ｲｼｶﾜｹﾝ","cityKana":"ﾊｸｲｸﾞﾝｼｶﾏﾁ","streetKana":"ｺﾝﾏﾁ","prefecture":"石川県","city":"羽咋郡志賀町","street":"米町"},{"zipCode":"9250571","prefectureKana":"ｲｼｶﾜｹﾝ","cityKana":"ﾊｸｲｸﾞﾝｼｶﾏﾁ","streetKana":"ｻｲｶｲｶｻﾞﾅｼ","prefecture":"石川県","city":"羽咋郡志賀町","street":"西海風無"},{"zipCode":"9250572","prefectureKana":"ｲｼｶﾜｹﾝ","cityKana":"ﾊｸｲｸﾞﾝｼｶﾏﾁ","streetKana":"ｻｲｶｲﾁﾉｳﾗ","prefecture":"石川県","city":"羽咋郡志賀町","street":"西海千ノ浦"},{"zipCode":"9250573","prefectureKana":"ｲｼｶﾜｹﾝ","cityKana":"ﾊｸｲｸﾞﾝｼｶﾏﾁ","streetKana":"ｻｲｶｲﾋｻｷ","prefecture":"石川県","city":"羽咋郡志賀町","street":"西海久喜"},{"zipCode":"9250566","prefectureKana":"ｲｼｶﾜｹﾝ","cityKana":"ﾊｸｲｸﾞﾝｼｶﾏﾁ","streetKana":"ｻｲｶｲﾌﾄ","prefecture":"石川県","city":"羽咋郡志賀町","street":"西海風戸"},{"zipCode":"9250564","prefectureKana":"ｲｼｶﾜｹﾝ","cityKana":"ﾊｸｲｸﾞﾝｼｶﾏﾁ","streetKana":"ｻｶﾐ","prefecture":"石川県","city":"羽咋郡志賀町","street":"酒見"},{"zipCode":"9250577","prefectureKana":"ｲｼｶﾜｹﾝ","cityKana":"ﾊｸｲｸﾞﾝｼｶﾏﾁ","streetKana":"ｻｻﾅﾐ","prefecture":"石川県","city":"羽咋郡志賀町","street":"笹波"},{"zipCode":"9250453","prefectureKana":"ｲｼｶﾜｹﾝ","cityKana":"ﾊｸｲｸﾞﾝｼｶﾏﾁ","streetKana":"ｻﾄﾎﾝｺﾞ","prefecture":"石川県","city":"羽咋郡志賀町","street":"里本江"},{"zipCode":"9250313","prefectureKana":"ｲｼｶﾜｹﾝ","cityKana":"ﾊｸｲｸﾞﾝｼｶﾏﾁ","streetKana":"ｻﾝﾐｮｳ","prefecture":"石川県","city":"羽咋郡志賀町","street":"三明"},{"zipCode":"9250576","prefectureKana":"ｲｼｶﾜｹﾝ","cityKana":"ﾊｸｲｸﾞﾝｼｶﾏﾁ","streetKana":"ｼｼｽﾞ","prefecture":"石川県","city":"羽咋郡志賀町","street":"鹿頭"},{"zipCode":"9250202","prefectureKana":"ｲｼｶﾜｹﾝ","cityKana":"ﾊｸｲｸﾞﾝｼｶﾏﾁ","streetKana":"ｼﾅﾝﾀ","prefecture":"石川県","city":"羽咋郡志賀町","street":"代田"},{"zipCode":"9250422","prefectureKana":"ｲｼｶﾜｹﾝ","cityKana":"ﾊｸｲｸﾞﾝｼｶﾏﾁ","streetKana":"ｼﾞﾎ","prefecture":"石川県","city":"羽咋郡志賀町","street":"地保"},{"zipCode":"9250153","prefectureKana":"ｲｼｶﾜｹﾝ","cityKana":"ﾊｸｲｸﾞﾝｼｶﾏﾁ","streetKana":"ｼﾐｽﾞｲﾏｴ","prefecture":"石川県","city":"羽咋郡志賀町","street":"清水今江"},{"zipCode":"9250371","prefectureKana":"ｲｼｶﾜｹﾝ","cityKana":"ﾊｸｲｸﾞﾝｼｶﾏﾁ","streetKana":"ｼｬｶﾄﾞｳ","prefecture":"石川県","city":"羽咋郡志賀町","street":"釈迦堂"},{"zipCode":"9250203","prefectureKana":"ｲｼｶﾜｹﾝ","cityKana":"ﾊｸｲｸﾞﾝｼｶﾏﾁ","streetKana":"ｼﾝﾊﾞﾔｼ","prefecture":"石川県","city":"羽咋郡志賀町","street":"新林"},{"zipCode":"9250154","prefectureKana":"ｲｼｶﾜｹﾝ","cityKana":"ﾊｸｲｸﾞﾝｼｶﾏﾁ","streetKana":"ｽｴﾖｼ","prefecture":"石川県","city":"羽咋郡志賀町","street":"末吉"},{"zipCode":"9250456","prefectureKana":"ｲｼｶﾜｹﾝ","cityKana":"ﾊｸｲｸﾞﾝｼｶﾏﾁ","streetKana":"ｿｳｺﾞ","prefecture":"石川県","city":"羽咋郡志賀町","street":"草江"},{"zipCode":"9250427","prefectureKana":"ｲｼｶﾜｹﾝ","cityKana":"ﾊｸｲｸﾞﾝｼｶﾏﾁ","streetKana":"ｿﾜ","prefecture":"石川県","city":"羽咋郡志賀町","street":"楚和"},{"zipCode":"9250431","prefectureKana":"ｲｼｶﾜｹﾝ","cityKana":"ﾊｸｲｸﾞﾝｼｶﾏﾁ","streetKana":"ｿﾝﾎﾞ","prefecture":"石川県","city":"羽咋郡志賀町","street":"尊保"},{"zipCode":"9250561","prefectureKana":"ｲｼｶﾜｹﾝ","cityKana":"ﾊｸｲｸﾞﾝｼｶﾏﾁ","streetKana":"ﾀﾞｲﾌｸｼﾞ","prefecture":"石川県","city":"羽咋郡志賀町","street":"大福寺"},{"zipCode":"9250141","prefectureKana":"ｲｼｶﾜｹﾝ","cityKana":"ﾊｸｲｸﾞﾝｼｶﾏﾁ","streetKana":"ﾀｶﾊﾏﾁｮｳ","prefecture":"石川県","city":"羽咋郡志賀町","street":"高浜町"},{"zipCode":"9250136","prefectureKana":"ｲｼｶﾜｹﾝ","cityKana":"ﾊｸｲｸﾞﾝｼｶﾏﾁ","streetKana":"ﾀﾁ","prefecture":"石川県","city":"羽咋郡志賀町","street":"舘"},{"zipCode":"9250213","prefectureKana":"ｲｼｶﾜｹﾝ","cityKana":"ﾊｸｲｸﾞﾝｼｶﾏﾁ","streetKana":"ﾀﾁﾋﾗｷ","prefecture":"石川県","city":"羽咋郡志賀町","street":"舘開"},{"zipCode":"9250437","prefectureKana":"ｲｼｶﾜｹﾝ","cityKana":"ﾊｸｲｸﾞﾝｼｶﾏﾁ","streetKana":"ﾀﾅｶ","prefecture":"石川県","city":"羽咋郡志賀町","street":"田中"},{"zipCode":"9250206","prefectureKana":"ｲｼｶﾜｹﾝ","cityKana":"ﾊｸｲｸﾞﾝｼｶﾏﾁ","streetKana":"ﾀﾆﾔ","prefecture":"石川県","city":"羽咋郡志賀町","street":"谷屋"},{"zipCode":"9250381","prefectureKana":"ｲｼｶﾜｹﾝ","cityKana":"ﾊｸｲｸﾞﾝｼｶﾏﾁ","streetKana":"ﾀﾜﾗ","prefecture":"石川県","city":"羽咋郡志賀町","street":"田原"},{"zipCode":"9250144","prefectureKana":"ｲｼｶﾜｹﾝ","cityKana":"ﾊｸｲｸﾞﾝｼｶﾏﾁ","streetKana":"ﾂﾎﾞﾉ","prefecture":"石川県","city":"羽咋郡志賀町","street":"坪野"},{"zipCode":"9250345","prefectureKana":"ｲｼｶﾜｹﾝ","cityKana":"ﾊｸｲｸﾞﾝｼｶﾏﾁ","streetKana":"ﾄｷﾞｳｼｵﾛｼ(ｶﾞﾝﾓﾝ)","prefecture":"石川県","city":"羽咋郡志賀町","street":"富来牛下（巌門）"},{"zipCode":"9250445","prefectureKana":"ｲｼｶﾜｹﾝ","cityKana":"ﾊｸｲｸﾞﾝｼｶﾏﾁ","streetKana":"ﾄｷﾞｳｼｵﾛｼ(ｿﾉﾀ)","prefecture":"石川県","city":"羽咋郡志賀町","street":"富来牛下（その他）"},{"zipCode":"9250444","prefectureKana":"ｲｼｶﾜｹﾝ","cityKana":"ﾊｸｲｸﾞﾝｼｶﾏﾁ","streetKana":"ﾄｷﾞｳﾙｶﾐ","prefecture":"石川県","city":"羽咋郡志賀町","street":"富来生神"},{"zipCode":"9250443","prefectureKana":"ｲｼｶﾜｹﾝ","cityKana":"ﾊｸｲｸﾞﾝｼｶﾏﾁ","streetKana":"ﾄｷﾞｼﾂﾐ","prefecture":"石川県","city":"羽咋郡志賀町","street":"富来七海"},{"zipCode":"9250446","prefectureKana":"ｲｼｶﾜｹﾝ","cityKana":"ﾊｸｲｸﾞﾝｼｶﾏﾁ","streetKana":"ﾄｷﾞｼﾞﾄｳﾏﾁ","prefecture":"石川県","city":"羽咋郡志賀町","street":"富来地頭町"},{"zipCode":"9250448","prefectureKana":"ｲｼｶﾜｹﾝ","cityKana":"ﾊｸｲｸﾞﾝｼｶﾏﾁ","streetKana":"ﾄｷﾞﾀｶﾀ","prefecture":"石川県","city":"羽咋郡志賀町","street":"富来高田"},{"zipCode":"9250447","prefectureKana":"ｲｼｶﾜｹﾝ","cityKana":"ﾊｸｲｸﾞﾝｼｶﾏﾁ","streetKana":"ﾄｷﾞﾘｮｳｹﾏﾁ","prefecture":"石川県","city":"羽咋郡志賀町","street":"富来領家町"},{"zipCode":"9250212","prefectureKana":"ｲｼｶﾜｹﾝ","cityKana":"ﾊｸｲｸﾞﾝｼｶﾏﾁ","streetKana":"ﾄｸﾀﾞ","prefecture":"石川県","city":"羽咋郡志賀町","street":"徳田"},{"zipCode":"9250425","prefectureKana":"ｲｼｶﾜｹﾝ","cityKana":"ﾊｸｲｸﾞﾝｼｶﾏﾁ","streetKana":"ﾄﾎﾞｼ","prefecture":"石川県","city":"羽咋郡志賀町","street":"灯"},{"zipCode":"9250452","prefectureKana":"ｲｼｶﾜｹﾝ","cityKana":"ﾊｸｲｸﾞﾝｼｶﾏﾁ","streetKana":"ﾅｶｲｽﾞﾐ","prefecture":"石川県","city":"羽咋郡志賀町","street":"中泉"},{"zipCode":"9250148","prefectureKana":"ｲｼｶﾜｹﾝ","cityKana":"ﾊｸｲｸﾞﾝｼｶﾏﾁ","streetKana":"ﾅｶﾞｻﾜ","prefecture":"石川県","city":"羽咋郡志賀町","street":"長沢"},{"zipCode":"9250376","prefectureKana":"ｲｼｶﾜｹﾝ","cityKana":"ﾊｸｲｸﾞﾝｼｶﾏﾁ","streetKana":"ﾅｶﾞﾀ","prefecture":"石川県","city":"羽咋郡志賀町","street":"長田"},{"zipCode":"9250314","prefectureKana":"ｲｼｶﾜｹﾝ","cityKana":"ﾊｸｲｸﾞﾝｼｶﾏﾁ","streetKana":"ﾅｶﾊﾞﾀ","prefecture":"石川県","city":"羽咋郡志賀町","street":"中畠"},{"zipCode":"9250455","prefectureKana":"ｲｼｶﾜｹﾝ","cityKana":"ﾊｸｲｸﾞﾝｼｶﾏﾁ","streetKana":"ﾅｶﾊﾏ","prefecture":"石川県","city":"羽咋郡志賀町","street":"中浜"},{"zipCode":"9250304","prefectureKana":"ｲｼｶﾜｹﾝ","cityKana":"ﾊｸｲｸﾞﾝｼｶﾏﾁ","streetKana":"ﾅｶﾔﾏ","prefecture":"石川県","city":"羽咋郡志賀町","street":"中山"},{"zipCode":"9250151","prefectureKana":"ｲｼｶﾜｹﾝ","cityKana":"ﾊｸｲｸﾞﾝｼｶﾏﾁ","streetKana":"ﾅｼﾀﾆｺﾔﾏ","prefecture":"石川県","city":"羽咋郡志賀町","street":"梨谷小山"},{"zipCode":"9250124","prefectureKana":"ｲｼｶﾜｹﾝ","cityKana":"ﾊｸｲｸﾞﾝｼｶﾏﾁ","streetKana":"ﾆｼﾔﾏ","prefecture":"石川県","city":"羽咋郡志賀町","street":"西山"},{"zipCode":"9250125","prefectureKana":"ｲｼｶﾜｹﾝ","cityKana":"ﾊｸｲｸﾞﾝｼｶﾏﾁ","streetKana":"ﾆｼﾔﾏﾀﾞｲ","prefecture":"石川県","city":"羽咋郡志賀町","street":"西山台"},{"zipCode":"9250135","prefectureKana":"ｲｼｶﾜｹﾝ","cityKana":"ﾊｸｲｸﾞﾝｼｶﾏﾁ","streetKana":"ﾆｼｮﾉﾐﾔ","prefecture":"石川県","city":"羽咋郡志賀町","street":"二所宮"},{"zipCode":"9250372","prefectureKana":"ｲｼｶﾜｹﾝ","cityKana":"ﾊｸｲｸﾞﾝｼｶﾏﾁ","streetKana":"ﾉｳﾐ","prefecture":"石川県","city":"羽咋郡志賀町","street":"直海"},{"zipCode":"9250214","prefectureKana":"ｲｼｶﾜｹﾝ","cityKana":"ﾊｸｲｸﾞﾝｼｶﾏﾁ","streetKana":"ﾋｳﾁﾀﾞﾆ","prefecture":"石川県","city":"羽咋郡志賀町","street":"火打谷"},{"zipCode":"9250442","prefectureKana":"ｲｼｶﾜｹﾝ","cityKana":"ﾊｸｲｸﾞﾝｼｶﾏﾁ","streetKana":"ﾋｶﾞｼｵﾓﾛ","prefecture":"石川県","city":"羽咋郡志賀町","street":"東小室"},{"zipCode":"9250303","prefectureKana":"ｲｼｶﾜｹﾝ","cityKana":"ﾊｸｲｸﾞﾝｼｶﾏﾁ","streetKana":"ﾋｹﾞﾀ","prefecture":"石川県","city":"羽咋郡志賀町","street":"日下田"},{"zipCode":"9250301","prefectureKana":"ｲｼｶﾜｹﾝ","cityKana":"ﾊｸｲｸﾞﾝｼｶﾏﾁ","streetKana":"ﾋﾖｳ","prefecture":"石川県","city":"羽咋郡志賀町","street":"日用"},{"zipCode":"9250441","prefectureKana":"ｲｼｶﾜｹﾝ","cityKana":"ﾊｸｲｸﾞﾝｼｶﾏﾁ","streetKana":"ﾋﾛﾁﾞ","prefecture":"石川県","city":"羽咋郡志賀町","street":"広地"},{"zipCode":"9250137","prefectureKana":"ｲｼｶﾜｹﾝ","cityKana":"ﾊｸｲｸﾞﾝｼｶﾏﾁ","streetKana":"ﾌｸｲ","prefecture":"石川県","city":"羽咋郡志賀町","street":"福井"},{"zipCode":"9250142","prefectureKana":"ｲｼｶﾜｹﾝ","cityKana":"ﾊｸｲｸﾞﾝｼｶﾏﾁ","streetKana":"ﾌｸﾉ","prefecture":"石川県","city":"羽咋郡志賀町","street":"福野"},{"zipCode":"9250315","prefectureKana":"ｲｼｶﾜｹﾝ","cityKana":"ﾊｸｲｸﾞﾝｼｶﾏﾁ","streetKana":"ﾌｸﾗｺｳ","prefecture":"石川県","city":"羽咋郡志賀町","street":"福浦港"},{"zipCode":"9250305","prefectureKana":"ｲｼｶﾜｹﾝ","cityKana":"ﾊｸｲｸﾞﾝｼｶﾏﾁ","streetKana":"ﾌﾞﾝｺﾞﾒ","prefecture":"石川県","city":"羽咋郡志賀町","street":"豊後名"},{"zipCode":"9250205","prefectureKana":"ｲｼｶﾜｹﾝ","cityKana":"ﾊｸｲｸﾞﾝｼｶﾏﾁ","streetKana":"ﾎﾄｷﾞﾘ","prefecture":"石川県","city":"羽咋郡志賀町","street":"仏木"},{"zipCode":"9250157","prefectureKana":"ｲｼｶﾜｹﾝ","cityKana":"ﾊｸｲｸﾞﾝｼｶﾏﾁ","streetKana":"ﾎﾘﾏﾂ","prefecture":"石川県","city":"羽咋郡志賀町","street":"堀松"},{"zipCode":"9250578","prefectureKana":"ｲｼｶﾜｹﾝ","cityKana":"ﾊｸｲｸﾞﾝｼｶﾏﾁ","streetKana":"ﾏｴﾊﾏ","prefecture":"石川県","city":"羽咋郡志賀町","street":"前浜"},{"zipCode":"9250204","prefectureKana":"ｲｼｶﾜｹﾝ","cityKana":"ﾊｸｲｸﾞﾝｼｶﾏﾁ","streetKana":"ﾏｷﾔﾏ","prefecture":"石川県","city":"羽咋郡志賀町","street":"牧山"},{"zipCode":"9250167","prefectureKana":"ｲｼｶﾜｹﾝ","cityKana":"ﾊｸｲｸﾞﾝｼｶﾏﾁ","streetKana":"ﾏﾁ","prefecture":"石川県","city":"羽咋郡志賀町","street":"町"},{"zipCode":"9250302","prefectureKana":"ｲｼｶﾜｹﾝ","cityKana":"ﾊｸｲｸﾞﾝｼｶﾏﾁ","streetKana":"ﾏﾁｲ","prefecture":"石川県","city":"羽咋郡志賀町","street":"町居"},{"zipCode":"9250374","prefectureKana":"ｲｼｶﾜｹﾝ","cityKana":"ﾊｸｲｸﾞﾝｼｶﾏﾁ","streetKana":"ﾏﾂﾉｷ","prefecture":"石川県","city":"羽咋郡志賀町","street":"松木"},{"zipCode":"9250312","prefectureKana":"ｲｼｶﾜｹﾝ","cityKana":"ﾊｸｲｸﾞﾝｼｶﾏﾁ","streetKana":"ﾑﾂﾐ","prefecture":"石川県","city":"羽咋郡志賀町","street":"六実"},{"zipCode":"9250162","prefectureKana":"ｲｼｶﾜｹﾝ","cityKana":"ﾊｸｲｸﾞﾝｼｶﾏﾁ","streetKana":"ﾓﾓｳﾗ","prefecture":"石川県","city":"羽咋郡志賀町","street":"百浦"},{"zipCode":"9250156","prefectureKana":"ｲｼｶﾜｹﾝ","cityKana":"ﾊｸｲｸﾞﾝｼｶﾏﾁ","streetKana":"ﾔｸﾞﾗﾀﾞﾆ","prefecture":"石川県","city":"羽咋郡志賀町","street":"矢蔵谷"},{"zipCode":"9250211","prefectureKana":"ｲｼｶﾜｹﾝ","cityKana":"ﾊｸｲｸﾞﾝｼｶﾏﾁ","streetKana":"ﾔﾀ","prefecture":"石川県","city":"羽咋郡志賀町","street":"矢田"},{"zipCode":"9250123","prefectureKana":"ｲｼｶﾜｹﾝ","cityKana":"ﾊｸｲｸﾞﾝｼｶﾏﾁ","streetKana":"ﾔﾀﾞ","prefecture":"石川県","city":"羽咋郡志賀町","street":"矢駄"},{"zipCode":"9250311","prefectureKana":"ｲｼｶﾜｹﾝ","cityKana":"ﾊｸｲｸﾞﾝｼｶﾏﾁ","streetKana":"ﾔﾁｶﾐ","prefecture":"石川県","city":"羽咋郡志賀町","street":"谷神"},{"zipCode":"9250438","prefectureKana":"ｲｼｶﾜｹﾝ","cityKana":"ﾊｸｲｸﾞﾝｼｶﾏﾁ","streetKana":"ﾔﾁﾖ","prefecture":"石川県","city":"羽咋郡志賀町","street":"八千代"},{"zipCode":"9250143","prefectureKana":"ｲｼｶﾜｹﾝ","cityKana":"ﾊｸｲｸﾞﾝｼｶﾏﾁ","streetKana":"ﾔﾄﾞﾒ","prefecture":"石川県","city":"羽咋郡志賀町","street":"宿女"},{"zipCode":"9250451","prefectureKana":"ｲｼｶﾜｹﾝ","cityKana":"ﾊｸｲｸﾞﾝｼｶﾏﾁ","streetKana":"ﾔﾜﾀ","prefecture":"石川県","city":"羽咋郡志賀町","street":"八幡"},{"zipCode":"9250452","prefectureKana":"ｲｼｶﾜｹﾝ","cityKana":"ﾊｸｲｸﾞﾝｼｶﾏﾁ","streetKana":"ﾔﾜﾀｻﾞｽ","prefecture":"石川県","city":"羽咋郡志賀町","street":"八幡座主"},{"zipCode":"9250131","prefectureKana":"ｲｼｶﾜｹﾝ","cityKana":"ﾊｸｲｸﾞﾝｼｶﾏﾁ","streetKana":"ﾖﾈﾊﾏ","prefecture":"石川県","city":"羽咋郡志賀町","street":"米浜"},{"zipCode":"9250375","prefectureKana":"ｲｼｶﾜｹﾝ","cityKana":"ﾊｸｲｸﾞﾝｼｶﾏﾁ","streetKana":"ﾜｶﾊﾞﾀﾞｲ","prefecture":"石川県","city":"羽咋郡志賀町","street":"若葉台"},{"zipCode":"9250433","prefectureKana":"ｲｼｶﾜｹﾝ","cityKana":"ﾊｸｲｸﾞﾝｼｶﾏﾁ","streetKana":"ﾜﾀﾞ","prefecture":"石川県","city":"羽咋郡志賀町","street":"和田"}]