[{"zipCode":"9260000","prefectureKana":"ｲｼｶﾜｹﾝ","cityKana":"ﾅﾅｵｼ","streetKana":"ｲｶﾆｹｲｻｲｶﾞﾅｲﾊﾞｱｲ","prefecture":"石川県","city":"七尾市","street":"以下に掲載がない場合"},{"zipCode":"9260044","prefectureKana":"ｲｼｶﾜｹﾝ","cityKana":"ﾅﾅｵｼ","streetKana":"ｱｲｵｲﾁｮｳ","prefecture":"石川県","city":"七尾市","street":"相生町"},{"zipCode":"9260823","prefectureKana":"ｲｼｶﾜｹﾝ","cityKana":"ﾅﾅｵｼ","streetKana":"ｱｵﾊﾞﾀﾞｲﾏﾁ","prefecture":"石川県","city":"七尾市","street":"青葉台町"},{"zipCode":"9260831","prefectureKana":"ｲｼｶﾜｹﾝ","cityKana":"ﾅﾅｵｼ","streetKana":"ｱｵﾔﾏﾏﾁ","prefecture":"石川県","city":"七尾市","street":"青山町"},{"zipCode":"9260843","prefectureKana":"ｲｼｶﾜｹﾝ","cityKana":"ﾅﾅｵｼ","streetKana":"ｱｶｳﾗﾏﾁ","prefecture":"石川県","city":"七尾市","street":"赤浦町"},{"zipCode":"9260833","prefectureKana":"ｲｼｶﾜｹﾝ","cityKana":"ﾅﾅｵｼ","streetKana":"ｱｻﾋﾏﾁ","prefecture":"石川県","city":"七尾市","street":"旭町"},{"zipCode":"9260372","prefectureKana":"ｲｼｶﾜｹﾝ","cityKana":"ﾅﾅｵｼ","streetKana":"ｱｿｳﾏﾁ","prefecture":"石川県","city":"七尾市","street":"麻生町"},{"zipCode":"9260807","prefectureKana":"ｲｼｶﾜｹﾝ","cityKana":"ﾅﾅｵｼ","streetKana":"ｱﾗﾏﾁ","prefecture":"石川県","city":"七尾市","street":"阿良町"},{"zipCode":"9260366","prefectureKana":"ｲｼｶﾜｹﾝ","cityKana":"ﾅﾅｵｼ","streetKana":"ｲｵﾘﾏﾁ","prefecture":"石川県","city":"七尾市","street":"庵町"},{"zipCode":"9260364","prefectureKana":"ｲｼｶﾜｹﾝ","cityKana":"ﾅﾅｵｼ","streetKana":"ｲｵﾘﾏﾁ(ｼﾗﾄﾘﾏﾁ)","prefecture":"石川県","city":"七尾市","street":"庵町（白鳥町）"},{"zipCode":"9260365","prefectureKana":"ｲｼｶﾜｹﾝ","cityKana":"ﾅﾅｵｼ","streetKana":"ｲｵﾘﾏﾁ(ﾄﾞｳﾐﾏﾁ)","prefecture":"石川県","city":"七尾市","street":"庵町（百海町）"},{"zipCode":"9260367","prefectureKana":"ｲｼｶﾜｹﾝ","cityKana":"ﾅﾅｵｼ","streetKana":"ｲｵﾘﾏﾁ(ﾑｼｻｷﾏﾁ)","prefecture":"石川県","city":"七尾市","street":"庵町（虫崎町）"},{"zipCode":"9260826","prefectureKana":"ｲｼｶﾜｹﾝ","cityKana":"ﾅﾅｵｼ","streetKana":"ｲｶﾞﾜﾏﾁ","prefecture":"石川県","city":"七尾市","street":"飯川町"},{"zipCode":"9260831","prefectureKana":"ｲｼｶﾜｹﾝ","cityKana":"ﾅﾅｵｼ","streetKana":"ｲｹｻﾞｷﾏﾁ","prefecture":"石川県","city":"七尾市","street":"池崎町"},{"zipCode":"9260804","prefectureKana":"ｲｼｶﾜｹﾝ","cityKana":"ﾅﾅｵｼ","streetKana":"ｲｺﾏﾁｮｳ","prefecture":"石川県","city":"七尾市","street":"生駒町"},{"zipCode":"9260171","prefectureKana":"ｲｼｶﾜｹﾝ","cityKana":"ﾅﾅｵｼ","streetKana":"ｲｼｻﾞｷﾏﾁ","prefecture":"石川県","city":"七尾市","street":"石崎町"},{"zipCode":"9260178","prefectureKana":"ｲｼｶﾜｹﾝ","cityKana":"ﾅﾅｵｼ","streetKana":"ｲｼｻﾞｷﾏﾁ(ｶｼﾏ)","prefecture":"石川県","city":"七尾市","street":"石崎町（香島）"},{"zipCode":"9260173","prefectureKana":"ｲｼｶﾜｹﾝ","cityKana":"ﾅﾅｵｼ","streetKana":"ｲｼｻﾞｷﾏﾁ(ﾆｼ)","prefecture":"石川県","city":"七尾市","street":"石崎町（西）"},{"zipCode":"9260172","prefectureKana":"ｲｼｶﾜｹﾝ","cityKana":"ﾅﾅｵｼ","streetKana":"ｲｼｻﾞｷﾏﾁ(ﾋｶﾞｼ)","prefecture":"石川県","city":"七尾市","street":"石崎町（東）"},{"zipCode":"9260806","prefectureKana":"ｲｼｶﾜｹﾝ","cityKana":"ﾅﾅｵｼ","streetKana":"ｲｯﾎﾟﾝｽｷﾞﾏﾁ","prefecture":"石川県","city":"七尾市","street":"一本杉町"},{"zipCode":"9260055","prefectureKana":"ｲｼｶﾜｹﾝ","cityKana":"ﾅﾅｵｼ","streetKana":"ｲﾏﾏﾁ","prefecture":"石川県","city":"七尾市","street":"今町"},{"zipCode":"9260816","prefectureKana":"ｲｼｶﾜｹﾝ","cityKana":"ﾅﾅｵｼ","streetKana":"ｲﾜﾔﾏﾁ","prefecture":"石川県","city":"七尾市","street":"岩屋町"},{"zipCode":"9260864","prefectureKana":"ｲｼｶﾜｹﾝ","cityKana":"ﾅﾅｵｼ","streetKana":"ｳｵﾏﾁ","prefecture":"石川県","city":"七尾市","street":"魚町"},{"zipCode":"9260027","prefectureKana":"ｲｼｶﾜｹﾝ","cityKana":"ﾅﾅｵｼ","streetKana":"ｳｼﾛﾊﾞﾀｹﾏﾁ","prefecture":"石川県","city":"七尾市","street":"後畠町"},{"zipCode":"9260001","prefectureKana":"ｲｼｶﾜｹﾝ","cityKana":"ﾅﾅｵｼ","streetKana":"ｳﾉｳﾗﾏﾁ","prefecture":"石川県","city":"七尾市","street":"鵜浦町"},{"zipCode":"9260818","prefectureKana":"ｲｼｶﾜｹﾝ","cityKana":"ﾅﾅｵｼ","streetKana":"ｳﾏﾀﾞｼﾏﾁ","prefecture":"石川県","city":"七尾市","street":"馬出町"},{"zipCode":"9260825","prefectureKana":"ｲｼｶﾜｹﾝ","cityKana":"ﾅﾅｵｼ","streetKana":"ｴｿﾏﾁ","prefecture":"石川県","city":"七尾市","street":"江曽町"},{"zipCode":"9260363","prefectureKana":"ｲｼｶﾜｹﾝ","cityKana":"ﾅﾅｵｼ","streetKana":"ｴﾉﾄﾏﾘﾏﾁ","prefecture":"石川県","city":"七尾市","street":"江泊町"},{"zipCode":"9260364","prefectureKana":"ｲｼｶﾜｹﾝ","cityKana":"ﾅﾅｵｼ","streetKana":"ｴﾉﾄﾏﾘﾏﾁ(ｼﾗﾄﾏﾘﾏﾁ)","prefecture":"石川県","city":"七尾市","street":"江泊町（白鳥町）"},{"zipCode":"9260361","prefectureKana":"ｲｼｶﾜｹﾝ","cityKana":"ﾅﾅｵｼ","streetKana":"ｴﾉﾄﾏﾘﾏﾁ(ﾋﾑﾛﾏﾁ)","prefecture":"石川県","city":"七尾市","street":"江泊町（日室町）"},{"zipCode":"9260006","prefectureKana":"ｲｼｶﾜｹﾝ","cityKana":"ﾅﾅｵｼ","streetKana":"ｵｵﾀｼﾝﾏﾁ","prefecture":"石川県","city":"七尾市","street":"大田新町"},{"zipCode":"9260006","prefectureKana":"ｲｼｶﾜｹﾝ","cityKana":"ﾅﾅｵｼ","streetKana":"ｵｵﾀﾏﾁ","prefecture":"石川県","city":"七尾市","street":"大田町"},{"zipCode":"9260047","prefectureKana":"ｲｼｶﾜｹﾝ","cityKana":"ﾅﾅｵｼ","streetKana":"ｵｵﾃﾏﾁ","prefecture":"石川県","city":"七尾市","street":"大手町"},{"zipCode":"9260384","prefectureKana":"ｲｼｶﾜｹﾝ","cityKana":"ﾅﾅｵｼ","streetKana":"ｵｵﾄﾏﾘﾏﾁ","prefecture":"石川県","city":"七尾市","street":"大泊町"},{"zipCode":"9260362","prefectureKana":"ｲｼｶﾜｹﾝ","cityKana":"ﾅﾅｵｼ","streetKana":"ｵｵﾉｷﾞﾏﾁ","prefecture":"石川県","city":"七尾市","street":"大野木町"},{"zipCode":"9260005","prefectureKana":"ｲｼｶﾜｹﾝ","cityKana":"ﾅﾅｵｼ","streetKana":"ｵｶﾏﾁ","prefecture":"石川県","city":"七尾市","street":"岡町"},{"zipCode":"9260174","prefectureKana":"ｲｼｶﾜｹﾝ","cityKana":"ﾅﾅｵｼ","streetKana":"ｵｸﾊﾗﾏﾁ","prefecture":"石川県","city":"七尾市","street":"奥原町"},{"zipCode":"9260373","prefectureKana":"ｲｼｶﾜｹﾝ","cityKana":"ﾅﾅｵｼ","streetKana":"ｵｸﾞﾘﾏﾁ","prefecture":"石川県","city":"七尾市","street":"小栗町"},{"zipCode":"9260057","prefectureKana":"ｲｼｶﾜｹﾝ","cityKana":"ﾅﾅｵｼ","streetKana":"ｶｼﾞﾏﾁ","prefecture":"石川県","city":"七尾市","street":"鍛冶町"},{"zipCode":"9260053","prefectureKana":"ｲｼｶﾜｹﾝ","cityKana":"ﾅﾅｵｼ","streetKana":"ｶﾐﾌﾁｭｳﾏﾁ","prefecture":"石川県","city":"七尾市","street":"上府中町"},{"zipCode":"9260805","prefectureKana":"ｲｼｶﾜｹﾝ","cityKana":"ﾅﾅｵｼ","streetKana":"ｶﾒﾔﾏﾁｮｳ","prefecture":"石川県","city":"七尾市","street":"亀山町"},{"zipCode":"9260054","prefectureKana":"ｲｼｶﾜｹﾝ","cityKana":"ﾅﾅｵｼ","streetKana":"ｶﾜﾗﾏﾁ","prefecture":"石川県","city":"七尾市","street":"川原町"},{"zipCode":"9260812","prefectureKana":"ｲｼｶﾜｹﾝ","cityKana":"ﾅﾅｵｼ","streetKana":"ｷﾀﾌｼﾞﾊｼﾏﾁ","prefecture":"石川県","city":"七尾市","street":"北藤橋町"},{"zipCode":"9260808","prefectureKana":"ｲｼｶﾜｹﾝ","cityKana":"ﾅﾅｵｼ","streetKana":"ｷﾏﾁ","prefecture":"石川県","city":"七尾市","street":"木町"},{"zipCode":"9260387","prefectureKana":"ｲｼｶﾜｹﾝ","cityKana":"ﾅﾅｵｼ","streetKana":"ｸﾏﾌﾞﾁﾏﾁ","prefecture":"石川県","city":"七尾市","street":"熊淵町"},{"zipCode":"9260389","prefectureKana":"ｲｼｶﾜｹﾝ","cityKana":"ﾅﾅｵｼ","streetKana":"ｸﾏﾌﾞﾁﾏﾁ(ﾀｷﾉｼﾘﾏﾁ)","prefecture":"石川県","city":"七尾市","street":"熊淵町（滝の尻町）"},{"zipCode":"9260388","prefectureKana":"ｲｼｶﾜｹﾝ","cityKana":"ﾅﾅｵｼ","streetKana":"ｸﾏﾌﾞﾁﾏﾁ(ﾐｽﾞｶﾐﾏﾁ)","prefecture":"石川県","city":"七尾市","street":"熊淵町（水上町）"},{"zipCode":"9260381","prefectureKana":"ｲｼｶﾜｹﾝ","cityKana":"ﾅﾅｵｼ","streetKana":"ｸﾛｻｷﾏﾁ","prefecture":"石川県","city":"七尾市","street":"黒崎町"},{"zipCode":"9260026","prefectureKana":"ｲｼｶﾜｹﾝ","cityKana":"ﾅﾅｵｼ","streetKana":"ｺｲｹｶﾞﾜﾗﾏﾁ","prefecture":"石川県","city":"七尾市","street":"小池川原町"},{"zipCode":"9260375","prefectureKana":"ｲｼｶﾜｹﾝ","cityKana":"ﾅﾅｵｼ","streetKana":"ｺｳｼﾞﾏﾁ","prefecture":"石川県","city":"七尾市","street":"柑子町"},{"zipCode":"9260177","prefectureKana":"ｲｼｶﾜｹﾝ","cityKana":"ﾅﾅｵｼ","streetKana":"ｺｳﾖｳﾀﾞｲ","prefecture":"石川県","city":"七尾市","street":"光陽台"},{"zipCode":"9260051","prefectureKana":"ｲｼｶﾜｹﾝ","cityKana":"ﾅﾅｵｼ","streetKana":"ｺｵﾘﾏﾁ","prefecture":"石川県","city":"七尾市","street":"郡町"},{"zipCode":"9260037","prefectureKana":"ｲｼｶﾜｹﾝ","cityKana":"ﾅﾅｵｼ","streetKana":"ｺｸｶﾞﾏﾁ","prefecture":"石川県","city":"七尾市","street":"国下町"},{"zipCode":"9260821","prefectureKana":"ｲｼｶﾜｹﾝ","cityKana":"ﾅﾅｵｼ","streetKana":"ｺｸﾌﾞﾏﾁ","prefecture":"石川県","city":"七尾市","street":"国分町"},{"zipCode":"9260852","prefectureKana":"ｲｼｶﾜｹﾝ","cityKana":"ﾅﾅｵｼ","streetKana":"ｺｼﾞﾏﾏﾁ","prefecture":"石川県","city":"七尾市","street":"小島町"},{"zipCode":"9260861","prefectureKana":"ｲｼｶﾜｹﾝ","cityKana":"ﾅﾅｵｼ","streetKana":"ｺﾄﾌﾞｷﾁｮｳ","prefecture":"石川県","city":"七尾市","street":"寿町"},{"zipCode":"9260855","prefectureKana":"ｲｼｶﾜｹﾝ","cityKana":"ﾅﾅｵｼ","streetKana":"ｺﾏﾙﾔﾏﾀﾞｲ","prefecture":"石川県","city":"七尾市","street":"小丸山台"},{"zipCode":"9260803","prefectureKana":"ｲｼｶﾜｹﾝ","cityKana":"ﾅﾅｵｼ","streetKana":"ｺﾒﾏﾁ","prefecture":"石川県","city":"七尾市","street":"米町"},{"zipCode":"9260815","prefectureKana":"ｲｼｶﾜｹﾝ","cityKana":"ﾅﾅｵｼ","streetKana":"ｻｶｴﾏﾁ","prefecture":"石川県","city":"七尾市","street":"栄町"},{"zipCode":"9260042","prefectureKana":"ｲｼｶﾜｹﾝ","cityKana":"ﾅﾅｵｼ","streetKana":"ｻｸｼﾞﾏﾁ","prefecture":"石川県","city":"七尾市","street":"作事町"},{"zipCode":"9260867","prefectureKana":"ｲｼｶﾜｹﾝ","cityKana":"ﾅﾅｵｼ","streetKana":"ｻｸﾗﾏﾁ","prefecture":"石川県","city":"七尾市","street":"桜町"},{"zipCode":"9260371","prefectureKana":"ｲｼｶﾜｹﾝ","cityKana":"ﾅﾅｵｼ","streetKana":"ｻｻﾞﾅﾐﾏﾁ","prefecture":"石川県","city":"七尾市","street":"佐々波町"},{"zipCode":"9260013","prefectureKana":"ｲｼｶﾜｹﾝ","cityKana":"ﾅﾅｵｼ","streetKana":"ｻﾉﾏﾁ","prefecture":"石川県","city":"七尾市","street":"佐野町"},{"zipCode":"9260011","prefectureKana":"ｲｼｶﾜｹﾝ","cityKana":"ﾅﾅｵｼ","streetKana":"ｻﾐﾏﾁ","prefecture":"石川県","city":"七尾市","street":"佐味町"},{"zipCode":"9260003","prefectureKana":"ｲｼｶﾜｹﾝ","cityKana":"ﾅﾅｵｼ","streetKana":"ｻﾜﾉﾏﾁ","prefecture":"石川県","city":"七尾市","street":"沢野町"},{"zipCode":"9260052","prefectureKana":"ｲｼｶﾜｹﾝ","cityKana":"ﾅﾅｵｼ","streetKana":"ｻﾝﾉｳﾏﾁ","prefecture":"石川県","city":"七尾市","street":"山王町"},{"zipCode":"9260374","prefectureKana":"ｲｼｶﾜｹﾝ","cityKana":"ﾅﾅｵｼ","streetKana":"ｼﾐｽﾞﾀﾞｲﾗﾏﾁ","prefecture":"石川県","city":"七尾市","street":"清水平町"},{"zipCode":"9260824","prefectureKana":"ｲｼｶﾜｹﾝ","cityKana":"ﾅﾅｵｼ","streetKana":"ｼﾓﾏﾁ","prefecture":"石川県","city":"七尾市","street":"下町"},{"zipCode":"9260801","prefectureKana":"ｲｼｶﾜｹﾝ","cityKana":"ﾅﾅｵｼ","streetKana":"ｼｮｳﾜﾏﾁ","prefecture":"石川県","city":"七尾市","street":"昭和町"},{"zipCode":"9260828","prefectureKana":"ｲｼｶﾜｹﾝ","cityKana":"ﾅﾅｵｼ","streetKana":"ｼﾛｳﾏﾏﾁ","prefecture":"石川県","city":"七尾市","street":"白馬町"},{"zipCode":"9260863","prefectureKana":"ｲｼｶﾜｹﾝ","cityKana":"ﾅﾅｵｼ","streetKana":"ｼﾛｶﾞﾈﾁｮｳ","prefecture":"石川県","city":"七尾市","street":"白銀町"},{"zipCode":"9260845","prefectureKana":"ｲｼｶﾜｹﾝ","cityKana":"ﾅﾅｵｼ","streetKana":"ｼﾝﾎﾞﾏﾁ","prefecture":"石川県","city":"七尾市","street":"新保町"},{"zipCode":"9260046","prefectureKana":"ｲｼｶﾜｹﾝ","cityKana":"ﾅﾅｵｼ","streetKana":"ｼﾝﾒｲﾁｮｳ","prefecture":"石川県","city":"七尾市","street":"神明町"},{"zipCode":"9260179","prefectureKana":"ｲｼｶﾜｹﾝ","cityKana":"ﾅﾅｵｼ","streetKana":"ｾﾝﾅﾝﾀﾞｲ","prefecture":"石川県","city":"七尾市","street":"泉南台"},{"zipCode":"9260045","prefectureKana":"ｲｼｶﾜｹﾝ","cityKana":"ﾅﾅｵｼ","streetKana":"ｿﾃﾞｶﾞｴﾁｮｳ","prefecture":"石川県","city":"七尾市","street":"袖ケ江町"},{"zipCode":"9260376","prefectureKana":"ｲｼｶﾜｹﾝ","cityKana":"ﾅﾅｵｼ","streetKana":"ｿﾄﾊﾞﾔｼﾏﾁ","prefecture":"石川県","city":"七尾市","street":"外林町"},{"zipCode":"9260846","prefectureKana":"ｲｼｶﾜｹﾝ","cityKana":"ﾅﾅｵｼ","streetKana":"ｿﾊﾏﾏﾁ","prefecture":"石川県","city":"七尾市","street":"祖浜町"},{"zipCode":"9260023","prefectureKana":"ｲｼｶﾜｹﾝ","cityKana":"ﾅﾅｵｼ","streetKana":"ﾀｹﾏﾁ","prefecture":"石川県","city":"七尾市","street":"竹町"},{"zipCode":"9260844","prefectureKana":"ｲｼｶﾜｹﾝ","cityKana":"ﾅﾅｵｼ","streetKana":"ﾀﾀﾞﾂﾏﾁ","prefecture":"石川県","city":"七尾市","street":"直津町"},{"zipCode":"9260043","prefectureKana":"ｲｼｶﾜｹﾝ","cityKana":"ﾅﾅｵｼ","streetKana":"ﾀﾁﾊﾞﾅﾁｮｳ","prefecture":"石川県","city":"七尾市","street":"橘町"},{"zipCode":"9260034","prefectureKana":"ｲｼｶﾜｹﾝ","cityKana":"ﾅﾅｵｼ","streetKana":"ﾀﾈﾏﾁ","prefecture":"石川県","city":"七尾市","street":"多根町"},{"zipCode":"9260033","prefectureKana":"ｲｼｶﾜｹﾝ","cityKana":"ﾅﾅｵｼ","streetKana":"ﾁﾉﾏﾁ","prefecture":"石川県","city":"七尾市","street":"千野町"},{"zipCode":"9260851","prefectureKana":"ｲｼｶﾜｹﾝ","cityKana":"ﾅﾅｵｼ","streetKana":"ﾂﾂｼﾞｶﾞﾊﾏ","prefecture":"石川県","city":"七尾市","street":"つつじが浜"},{"zipCode":"9260853","prefectureKana":"ｲｼｶﾜｹﾝ","cityKana":"ﾅﾅｵｼ","streetKana":"ﾂﾑｷﾞﾏﾁ","prefecture":"石川県","city":"七尾市","street":"津向町"},{"zipCode":"9260022","prefectureKana":"ｲｼｶﾜｹﾝ","cityKana":"ﾅﾅｵｼ","streetKana":"ﾃﾝｼﾞﾝｶﾜﾗﾏﾁ","prefecture":"石川県","city":"七尾市","street":"天神川原町"},{"zipCode":"9260383","prefectureKana":"ｲｼｶﾜｹﾝ","cityKana":"ﾅﾅｵｼ","streetKana":"ﾄｳﾉﾊﾏﾏﾁ","prefecture":"石川県","city":"七尾市","street":"東浜町"},{"zipCode":"9260862","prefectureKana":"ｲｼｶﾜｹﾝ","cityKana":"ﾅﾅｵｼ","streetKana":"ﾄｷﾜﾏﾁ","prefecture":"石川県","city":"七尾市","street":"常盤町"},{"zipCode":"9260829","prefectureKana":"ｲｼｶﾜｹﾝ","cityKana":"ﾅﾅｵｼ","streetKana":"ﾄｸﾀﾞｼﾝﾏﾁ","prefecture":"石川県","city":"七尾市","street":"徳田新町"},{"zipCode":"9260824","prefectureKana":"ｲｼｶﾜｹﾝ","cityKana":"ﾅﾅｵｼ","streetKana":"ﾄｸﾀﾞﾏﾁ","prefecture":"石川県","city":"七尾市","street":"徳田町"},{"zipCode":"9260814","prefectureKana":"ｲｼｶﾜｹﾝ","cityKana":"ﾅﾅｵｼ","streetKana":"ﾄｺﾛｸﾞﾁﾏﾁ","prefecture":"石川県","city":"七尾市","street":"所口町"},{"zipCode":"9260004","prefectureKana":"ｲｼｶﾜｹﾝ","cityKana":"ﾅﾅｵｼ","streetKana":"ﾄﾉﾏﾁ","prefecture":"石川県","city":"七尾市","street":"殿町"},{"zipCode":"9260866","prefectureKana":"ｲｼｶﾜｹﾝ","cityKana":"ﾅﾅｵｼ","streetKana":"ﾄﾐｵｶﾁｮｳ","prefecture":"石川県","city":"七尾市","street":"富岡町"},{"zipCode":"9260021","prefectureKana":"ｲｼｶﾜｹﾝ","cityKana":"ﾅﾅｵｼ","streetKana":"ﾄﾓｴﾏﾁ","prefecture":"石川県","city":"七尾市","street":"巴町"},{"zipCode":"9260036","prefectureKana":"ｲｼｶﾜｹﾝ","cityKana":"ﾅﾅｵｼ","streetKana":"ﾅｶﾊﾞｻﾐﾏﾁ","prefecture":"石川県","city":"七尾市","street":"中挾町"},{"zipCode":"9260854","prefectureKana":"ｲｼｶﾜｹﾝ","cityKana":"ﾅﾅｵｼ","streetKana":"ﾅｷﾞﾉｳﾗ","prefecture":"石川県","city":"七尾市","street":"なぎの浦"},{"zipCode":"9260817","prefectureKana":"ｲｼｶﾜｹﾝ","cityKana":"ﾅﾅｵｼ","streetKana":"ﾆｼﾌｼﾞﾊｼﾏﾁ","prefecture":"石川県","city":"七尾市","street":"西藤橋町"},{"zipCode":"9260835","prefectureKana":"ｲｼｶﾜｹﾝ","cityKana":"ﾅﾅｵｼ","streetKana":"ﾆｼﾐｶｲﾏﾁ","prefecture":"石川県","city":"七尾市","street":"西三階町"},{"zipCode":"9260837","prefectureKana":"ｲｼｶﾜｹﾝ","cityKana":"ﾅﾅｵｼ","streetKana":"ﾇｸｲﾏﾁ","prefecture":"石川県","city":"七尾市","street":"温井町"},{"zipCode":"9260056","prefectureKana":"ｲｼｶﾜｹﾝ","cityKana":"ﾅﾅｵｼ","streetKana":"ﾇｼﾏﾁ","prefecture":"石川県","city":"七尾市","street":"塗師町"},{"zipCode":"9260203","prefectureKana":"ｲｼｶﾜｹﾝ","cityKana":"ﾅﾅｵｼ","streetKana":"ﾉﾄｼﾞﾏｴﾉﾒﾏﾁ","prefecture":"石川県","city":"七尾市","street":"能登島えの目町"},{"zipCode":"9260208","prefectureKana":"ｲｼｶﾜｹﾝ","cityKana":"ﾅﾅｵｼ","streetKana":"ﾉﾄｼﾞﾏｵｳﾗﾏﾁ","prefecture":"石川県","city":"七尾市","street":"能登島小浦町"},{"zipCode":"9260227","prefectureKana":"ｲｼｶﾜｹﾝ","cityKana":"ﾅﾅｵｼ","streetKana":"ﾉﾄｼﾞﾏｸｷﾏﾁ","prefecture":"石川県","city":"七尾市","street":"能登島久木町"},{"zipCode":"9260211","prefectureKana":"ｲｼｶﾜｹﾝ","cityKana":"ﾅﾅｵｼ","streetKana":"ﾉﾄｼﾞﾏｺｳﾀﾞﾏﾁ","prefecture":"石川県","city":"七尾市","street":"能登島向田町"},{"zipCode":"9260212","prefectureKana":"ｲｼｶﾜｹﾝ","cityKana":"ﾅﾅｵｼ","streetKana":"ﾉﾄｼﾞﾏｻﾅﾐﾏﾁ","prefecture":"石川県","city":"七尾市","street":"能登島佐波町"},{"zipCode":"9260213","prefectureKana":"ｲｼｶﾜｹﾝ","cityKana":"ﾅﾅｵｼ","streetKana":"ﾉﾄｼﾞﾏｽｿﾏﾁ","prefecture":"石川県","city":"七尾市","street":"能登島須曽町"},{"zipCode":"9260226","prefectureKana":"ｲｼｶﾜｹﾝ","cityKana":"ﾅﾅｵｼ","streetKana":"ﾉﾄｼﾞﾏﾀｼﾞﾘﾏﾁ","prefecture":"石川県","city":"七尾市","street":"能登島田尻町"},{"zipCode":"9260225","prefectureKana":"ｲｼｶﾜｹﾝ","cityKana":"ﾅﾅｵｼ","streetKana":"ﾉﾄｼﾞﾏﾄｵﾘﾏﾁ","prefecture":"石川県","city":"七尾市","street":"能登島通町"},{"zipCode":"9260204","prefectureKana":"ｲｼｶﾜｹﾝ","cityKana":"ﾅﾅｵｼ","streetKana":"ﾉﾄｼﾞﾏﾅｶﾞｻｷﾏﾁ","prefecture":"石川県","city":"七尾市","street":"能登島長崎町"},{"zipCode":"9260222","prefectureKana":"ｲｼｶﾜｹﾝ","cityKana":"ﾅﾅｵｼ","streetKana":"ﾉﾄｼﾞﾏﾈﾔﾏﾁ","prefecture":"石川県","city":"七尾市","street":"能登島閨町"},{"zipCode":"9260205","prefectureKana":"ｲｼｶﾜｹﾝ","cityKana":"ﾅﾅｵｼ","streetKana":"ﾉﾄｼﾞﾏﾉｻﾞｷﾏﾁ","prefecture":"石川県","city":"七尾市","street":"能登島野崎町"},{"zipCode":"9260201","prefectureKana":"ｲｼｶﾜｹﾝ","cityKana":"ﾅﾅｵｼ","streetKana":"ﾉﾄｼﾞﾏﾊﾞｶﾞｳﾗﾏﾁ","prefecture":"石川県","city":"七尾市","street":"能登島祖母ケ浦町"},{"zipCode":"9260202","prefectureKana":"ｲｼｶﾜｹﾝ","cityKana":"ﾅﾅｵｼ","streetKana":"ﾉﾄｼﾞﾏﾊﾁｶﾞｻｷﾏﾁ","prefecture":"石川県","city":"七尾市","street":"能登島八ケ崎町"},{"zipCode":"9260223","prefectureKana":"ｲｼｶﾜｹﾝ","cityKana":"ﾅﾅｵｼ","streetKana":"ﾉﾄｼﾞﾏﾊﾝﾉｳﾗﾏﾁ","prefecture":"石川県","city":"七尾市","street":"能登島半浦町"},{"zipCode":"9260206","prefectureKana":"ｲｼｶﾜｹﾝ","cityKana":"ﾅﾅｵｼ","streetKana":"ﾉﾄｼﾞﾏﾋﾃﾞｶﾞｼﾏﾏﾁ","prefecture":"石川県","city":"七尾市","street":"能登島日出ケ島町"},{"zipCode":"9260224","prefectureKana":"ｲｼｶﾜｹﾝ","cityKana":"ﾅﾅｵｼ","streetKana":"ﾉﾄｼﾞﾏﾋｬｸﾏﾝｺﾞｸﾏﾁ","prefecture":"石川県","city":"七尾市","street":"能登島百万石町"},{"zipCode":"9260207","prefectureKana":"ｲｼｶﾜｹﾝ","cityKana":"ﾅﾅｵｼ","streetKana":"ﾉﾄｼﾞﾏﾌﾀｱﾅﾏﾁ","prefecture":"石川県","city":"七尾市","street":"能登島二穴町"},{"zipCode":"9260214","prefectureKana":"ｲｼｶﾜｹﾝ","cityKana":"ﾅﾅｵｼ","streetKana":"ﾉﾄｼﾞﾏﾍﾞｯｼｮﾏﾁ","prefecture":"石川県","city":"七尾市","street":"能登島別所町"},{"zipCode":"9260216","prefectureKana":"ｲｼｶﾜｹﾝ","cityKana":"ﾅﾅｵｼ","streetKana":"ﾉﾄｼﾞﾏﾏｶﾞﾘﾏﾁ","prefecture":"石川県","city":"七尾市","street":"能登島曲町"},{"zipCode":"9260215","prefectureKana":"ｲｼｶﾜｹﾝ","cityKana":"ﾅﾅｵｼ","streetKana":"ﾉﾄｼﾞﾏﾐﾅﾐﾏﾁ","prefecture":"石川県","city":"七尾市","street":"能登島南町"},{"zipCode":"9260221","prefectureKana":"ｲｼｶﾜｹﾝ","cityKana":"ﾅﾅｵｼ","streetKana":"ﾉﾄｼﾞﾏﾑｾｷﾏﾁ","prefecture":"石川県","city":"七尾市","street":"能登島無関町"},{"zipCode":"9260035","prefectureKana":"ｲｼｶﾜｹﾝ","cityKana":"ﾅﾅｵｼ","streetKana":"ﾊｯﾀﾏﾁ","prefecture":"石川県","city":"七尾市","street":"八田町"},{"zipCode":"9260382","prefectureKana":"ｲｼｶﾜｹﾝ","cityKana":"ﾅﾅｵｼ","streetKana":"ﾊﾅｿﾞﾉﾏﾁ","prefecture":"石川県","city":"七尾市","street":"花園町"},{"zipCode":"9260832","prefectureKana":"ｲｼｶﾜｹﾝ","cityKana":"ﾅﾅｵｼ","streetKana":"ﾊﾝﾆｬﾉﾏﾁ","prefecture":"石川県","city":"七尾市","street":"盤若野町"},{"zipCode":"9260834","prefectureKana":"ｲｼｶﾜｹﾝ","cityKana":"ﾅﾅｵｼ","streetKana":"ﾋｶﾞｼﾐｶｲﾏﾁ","prefecture":"石川県","city":"七尾市","street":"東三階町"},{"zipCode":"9260048","prefectureKana":"ｲｼｶﾜｹﾝ","cityKana":"ﾅﾅｵｼ","streetKana":"ﾋﾓﾉﾏﾁ","prefecture":"石川県","city":"七尾市","street":"桧物町"},{"zipCode":"9260028","prefectureKana":"ｲｼｶﾜｹﾝ","cityKana":"ﾅﾅｵｼ","streetKana":"ﾌｼﾞﾉﾏﾁ","prefecture":"石川県","city":"七尾市","street":"藤野町"},{"zipCode":"9260816","prefectureKana":"ｲｼｶﾜｹﾝ","cityKana":"ﾅﾅｵｼ","streetKana":"ﾌｼﾞﾊｼﾏﾁ","prefecture":"石川県","city":"七尾市","street":"藤橋町"},{"zipCode":"9260041","prefectureKana":"ｲｼｶﾜｹﾝ","cityKana":"ﾅﾅｵｼ","streetKana":"ﾌﾁｭｳﾏﾁ","prefecture":"石川県","city":"七尾市","street":"府中町"},{"zipCode":"9260031","prefectureKana":"ｲｼｶﾜｹﾝ","cityKana":"ﾅﾅｵｼ","streetKana":"ﾌﾙｺﾏﾁ","prefecture":"石川県","city":"七尾市","street":"古府町"},{"zipCode":"9260025","prefectureKana":"ｲｼｶﾜｹﾝ","cityKana":"ﾅﾅｵｼ","streetKana":"ﾌﾙｼﾛﾏﾁ","prefecture":"石川県","city":"七尾市","street":"古城町"},{"zipCode":"9260024","prefectureKana":"ｲｼｶﾜｹﾝ","cityKana":"ﾅﾅｵｼ","streetKana":"ﾌﾙﾔｼｷﾏﾁ","prefecture":"石川県","city":"七尾市","street":"古屋敷町"},{"zipCode":"9260012","prefectureKana":"ｲｼｶﾜｹﾝ","cityKana":"ﾅﾅｵｼ","streetKana":"ﾎｳｺｸﾏﾁ","prefecture":"石川県","city":"七尾市","street":"報国町"},{"zipCode":"9260822","prefectureKana":"ｲｼｶﾜｹﾝ","cityKana":"ﾅﾅｵｼ","streetKana":"ﾎｿｸﾞﾁﾏﾁ","prefecture":"石川県","city":"七尾市","street":"細口町"},{"zipCode":"9260836","prefectureKana":"ｲｼｶﾜｹﾝ","cityKana":"ﾅﾅｵｼ","streetKana":"ﾏﾁﾔﾏﾁ","prefecture":"石川県","city":"七尾市","street":"町屋町"},{"zipCode":"9260842","prefectureKana":"ｲｼｶﾜｹﾝ","cityKana":"ﾅﾅｵｼ","streetKana":"ﾏｯﾄｳｼﾝﾏﾁ","prefecture":"石川県","city":"七尾市","street":"松百新町"},{"zipCode":"9260841","prefectureKana":"ｲｼｶﾜｹﾝ","cityKana":"ﾅﾅｵｼ","streetKana":"ﾏｯﾄｳﾏﾁ","prefecture":"石川県","city":"七尾市","street":"松百町"},{"zipCode":"9260865","prefectureKana":"ｲｼｶﾜｹﾝ","cityKana":"ﾅﾅｵｼ","streetKana":"ﾏﾂﾓﾄﾁｮｳ","prefecture":"石川県","city":"七尾市","street":"松本町"},{"zipCode":"9260838","prefectureKana":"ｲｼｶﾜｹﾝ","cityKana":"ﾅﾅｵｼ","streetKana":"ﾏﾆﾏﾁ","prefecture":"石川県","city":"七尾市","street":"満仁町"},{"zipCode":"9260017","prefectureKana":"ｲｼｶﾜｹﾝ","cityKana":"ﾅﾅｵｼ","streetKana":"ﾏﾝｷﾞｮｳ","prefecture":"石川県","city":"七尾市","street":"万行"},{"zipCode":"9260012","prefectureKana":"ｲｼｶﾜｹﾝ","cityKana":"ﾅﾅｵｼ","streetKana":"ﾏﾝｷﾞｮｳﾏﾁ","prefecture":"石川県","city":"七尾市","street":"万行町"},{"zipCode":"9260802","prefectureKana":"ｲｼｶﾜｹﾝ","cityKana":"ﾅﾅｵｼ","streetKana":"ﾐｼﾏﾁｮｳ","prefecture":"石川県","city":"七尾市","street":"三島町"},{"zipCode":"9260811","prefectureKana":"ｲｼｶﾜｹﾝ","cityKana":"ﾅﾅｵｼ","streetKana":"ﾐｿｷﾞﾁｮｳ","prefecture":"石川県","city":"七尾市","street":"御祓町"},{"zipCode":"9260014","prefectureKana":"ｲｼｶﾜｹﾝ","cityKana":"ﾅﾅｵｼ","streetKana":"ﾐﾄﾞﾘｶﾞｵｶﾁｮｳ","prefecture":"石川県","city":"七尾市","street":"緑ケ丘町"},{"zipCode":"9260058","prefectureKana":"ｲｼｶﾜｹﾝ","cityKana":"ﾅﾅｵｼ","streetKana":"ﾐﾅﾄﾁｮｳ","prefecture":"石川県","city":"七尾市","street":"湊町"},{"zipCode":"9260032","prefectureKana":"ｲｼｶﾜｹﾝ","cityKana":"ﾅﾅｵｼ","streetKana":"ﾐﾅﾐｶﾞｵｶﾏﾁ","prefecture":"石川県","city":"七尾市","street":"南ケ丘町"},{"zipCode":"9260813","prefectureKana":"ｲｼｶﾜｹﾝ","cityKana":"ﾅﾅｵｼ","streetKana":"ﾐﾅﾐﾌｼﾞﾊｼﾏﾁ","prefecture":"石川県","city":"七尾市","street":"南藤橋町"},{"zipCode":"9260007","prefectureKana":"ｲｼｶﾜｹﾝ","cityKana":"ﾅﾅｵｼ","streetKana":"ﾐﾑﾛﾏﾁ","prefecture":"石川県","city":"七尾市","street":"三室町"},{"zipCode":"9260021","prefectureKana":"ｲｼｶﾜｹﾝ","cityKana":"ﾅﾅｵｼ","streetKana":"ﾓﾄﾌﾁｭｳﾏﾁ","prefecture":"石川県","city":"七尾市","street":"本府中町"},{"zipCode":"9260015","prefectureKana":"ｲｼｶﾜｹﾝ","cityKana":"ﾅﾅｵｼ","streetKana":"ﾔﾀｼﾝﾏﾁ","prefecture":"石川県","city":"七尾市","street":"矢田新町"},{"zipCode":"9260014","prefectureKana":"ｲｼｶﾜｹﾝ","cityKana":"ﾅﾅｵｼ","streetKana":"ﾔﾀﾏﾁ","prefecture":"石川県","city":"七尾市","street":"矢田町"},{"zipCode":"9260385","prefectureKana":"ｲｼｶﾜｹﾝ","cityKana":"ﾅﾅｵｼ","streetKana":"ﾔﾏｻﾞｷﾏﾁ","prefecture":"石川県","city":"七尾市","street":"山崎町"},{"zipCode":"9260386","prefectureKana":"ｲｼｶﾜｹﾝ","cityKana":"ﾅﾅｵｼ","streetKana":"ﾔﾏｻﾞｷﾏﾁ(ｺｳﾁﾏﾁ)","prefecture":"石川県","city":"七尾市","street":"山崎町（小川内町）"},{"zipCode":"9260016","prefectureKana":"ｲｼｶﾜｹﾝ","cityKana":"ﾅﾅｵｼ","streetKana":"ﾔﾏﾄﾏﾁ","prefecture":"石川県","city":"七尾市","street":"大和町"},{"zipCode":"9260038","prefectureKana":"ｲｼｶﾜｹﾝ","cityKana":"ﾅﾅｵｼ","streetKana":"ﾔﾜﾀﾏﾁ","prefecture":"石川県","city":"七尾市","street":"八幡町"},{"zipCode":"9260002","prefectureKana":"ｲｼｶﾜｹﾝ","cityKana":"ﾅﾅｵｼ","streetKana":"ﾕｶﾞﾜﾏﾁ","prefecture":"石川県","city":"七尾市","street":"湯川町"},{"zipCode":"9260827","prefectureKana":"ｲｼｶﾜｹﾝ","cityKana":"ﾅﾅｵｼ","streetKana":"ﾜｶﾊﾞﾔｼﾏﾁ","prefecture":"石川県","city":"七尾市","street":"若林町"},{"zipCode":"9260175","prefectureKana":"ｲｼｶﾜｹﾝ","cityKana":"ﾅﾅｵｼ","streetKana":"ﾜｸﾗﾏﾁ","prefecture":"石川県","city":"七尾市","street":"和倉町"},{"zipCode":"9260176","prefectureKana":"ｲｼｶﾜｹﾝ","cityKana":"ﾅﾅｵｼ","streetKana":"ﾜｸﾗﾏﾁﾋﾊﾞﾘ","prefecture":"石川県","city":"七尾市","street":"和倉町ひばり"}]