[{"zipCode":"9300075","prefectureKana":"ﾄﾔﾏｹﾝ","cityKana":"ﾄﾔﾏｼ","streetKana":"ｱｲｵｲﾁｮｳ","prefecture":"富山県","city":"富山市","street":"相生町"},{"zipCode":"9300845","prefectureKana":"ﾄﾔﾏｹﾝ","cityKana":"ﾄﾔﾏｼ","streetKana":"ｱｲﾃﾞﾝﾏﾁ","prefecture":"富山県","city":"富山市","street":"綾田町"},{"zipCode":"9300855","prefectureKana":"ﾄﾔﾏｹﾝ","cityKana":"ﾄﾔﾏｼ","streetKana":"ｱｶｴﾏﾁ","prefecture":"富山県","city":"富山市","street":"赤江町"},{"zipCode":"9300953","prefectureKana":"ﾄﾔﾏｹﾝ","cityKana":"ﾄﾔﾏｼ","streetKana":"ｱｷﾖｼ","prefecture":"富山県","city":"富山市","street":"秋吉"},{"zipCode":"9300954","prefectureKana":"ﾄﾔﾏｹﾝ","cityKana":"ﾄﾔﾏｼ","streetKana":"ｱｷﾖｼｼﾝﾏﾁ","prefecture":"富山県","city":"富山市","street":"秋吉新町"},{"zipCode":"9300847","prefectureKana":"ﾄﾔﾏｹﾝ","cityKana":"ﾄﾔﾏｼ","streetKana":"ｱｹﾎﾞﾉﾁｮｳ","prefecture":"富山県","city":"富山市","street":"曙町"},{"zipCode":"9300931","prefectureKana":"ﾄﾔﾏｹﾝ","cityKana":"ﾄﾔﾏｼ","streetKana":"ｱｻﾋ","prefecture":"富山県","city":"富山市","street":"朝日"},{"zipCode":"9300094","prefectureKana":"ﾄﾔﾏｹﾝ","cityKana":"ﾄﾔﾏｼ","streetKana":"ｱｽﾞﾐﾁｮｳ","prefecture":"富山県","city":"富山市","street":"安住町"},{"zipCode":"9300091","prefectureKana":"ﾄﾔﾏｹﾝ","cityKana":"ﾄﾔﾏｼ","streetKana":"ｱﾀｺﾞﾏﾁ","prefecture":"富山県","city":"富山市","street":"愛宕町"},{"zipCode":"9300982","prefectureKana":"ﾄﾔﾏｹﾝ","cityKana":"ﾄﾔﾏｼ","streetKana":"ｱﾗｶﾜ","prefecture":"富山県","city":"富山市","street":"荒川"},{"zipCode":"9300984","prefectureKana":"ﾄﾔﾏｹﾝ","cityKana":"ﾄﾔﾏｼ","streetKana":"ｱﾗｶﾜｼﾝﾏﾁ","prefecture":"富山県","city":"富山市","street":"荒川新町"},{"zipCode":"9300983","prefectureKana":"ﾄﾔﾏｹﾝ","cityKana":"ﾄﾔﾏｼ","streetKana":"ｱﾗｶﾜﾄｷﾜﾀﾞｲ","prefecture":"富山県","city":"富山市","street":"荒川常盤台"},{"zipCode":"9300028","prefectureKana":"ﾄﾔﾏｹﾝ","cityKana":"ﾄﾔﾏｼ","streetKana":"ｱﾗﾏﾁ","prefecture":"富山県","city":"富山市","street":"荒町"},{"zipCode":"9301321","prefectureKana":"ﾄﾔﾏｹﾝ","cityKana":"ﾄﾔﾏｼ","streetKana":"ｱﾗﾏﾁ","prefecture":"富山県","city":"富山市","street":"新町"},{"zipCode":"9300822","prefectureKana":"ﾄﾔﾏｹﾝ","cityKana":"ﾄﾔﾏｼ","streetKana":"ｱﾗﾔ","prefecture":"富山県","city":"富山市","street":"新屋"},{"zipCode":"9300823","prefectureKana":"ﾄﾔﾏｹﾝ","cityKana":"ﾄﾔﾏｼ","streetKana":"ｱﾗﾔｼﾝﾏﾁ","prefecture":"富山県","city":"富山市","street":"新屋新町"},{"zipCode":"9300863","prefectureKana":"ﾄﾔﾏｹﾝ","cityKana":"ﾄﾔﾏｼ","streetKana":"ｱﾘｱｹﾁｮｳ","prefecture":"富山県","city":"富山市","street":"有明町"},{"zipCode":"9300862","prefectureKana":"ﾄﾔﾏｹﾝ","cityKana":"ﾄﾔﾏｼ","streetKana":"ｱﾘｻﾜ","prefecture":"富山県","city":"富山市","street":"有沢"},{"zipCode":"9300861","prefectureKana":"ﾄﾔﾏｹﾝ","cityKana":"ﾄﾔﾏｼ","streetKana":"ｱﾘｻﾜｼﾝﾏﾁ","prefecture":"富山県","city":"富山市","street":"有沢新町"},{"zipCode":"9301458","prefectureKana":"ﾄﾔﾏｹﾝ","cityKana":"ﾄﾔﾏｼ","streetKana":"ｱﾘﾐﾈ","prefecture":"富山県","city":"富山市","street":"有峰"},{"zipCode":"9301457","prefectureKana":"ﾄﾔﾏｹﾝ","cityKana":"ﾄﾔﾏｼ","streetKana":"ｱﾘﾐﾈ(ﾀﾛｳﾀﾞｲﾗ)","prefecture":"富山県","city":"富山市","street":"有峰（太郎平）"},{"zipCode":"9300881","prefectureKana":"ﾄﾔﾏｹﾝ","cityKana":"ﾄﾔﾏｼ","streetKana":"ｱﾝﾖｳﾎﾞｳ","prefecture":"富山県","city":"富山市","street":"安養坊"},{"zipCode":"9300821","prefectureKana":"ﾄﾔﾏｹﾝ","cityKana":"ﾄﾔﾏｼ","streetKana":"ｲｲﾉ","prefecture":"富山県","city":"富山市","street":"飯野"},{"zipCode":"9300158","prefectureKana":"ﾄﾔﾏｹﾝ","cityKana":"ﾄﾔﾏｼ","streetKana":"ｲｹﾀﾞ","prefecture":"富山県","city":"富山市","street":"池多"},{"zipCode":"9300966","prefectureKana":"ﾄﾔﾏｹﾝ","cityKana":"ﾄﾔﾏｼ","streetKana":"ｲｼｶﾞﾈ","prefecture":"富山県","city":"富山市","street":"石金"},{"zipCode":"9300043","prefectureKana":"ﾄﾔﾏｹﾝ","cityKana":"ﾄﾔﾏｼ","streetKana":"ｲｼｸﾗﾏﾁ","prefecture":"富山県","city":"富山市","street":"石倉町"},{"zipCode":"9300892","prefectureKana":"ﾄﾔﾏｹﾝ","cityKana":"ﾄﾔﾏｼ","streetKana":"ｲｼｻｶ","prefecture":"富山県","city":"富山市","street":"石坂"},{"zipCode":"9300891","prefectureKana":"ﾄﾔﾏｹﾝ","cityKana":"ﾄﾔﾏｼ","streetKana":"ｲｼｻｶｼﾝ","prefecture":"富山県","city":"富山市","street":"石坂新"},{"zipCode":"9300893","prefectureKana":"ﾄﾔﾏｹﾝ","cityKana":"ﾄﾔﾏｼ","streetKana":"ｲｼｻｶﾋｶﾞｼﾏﾁ","prefecture":"富山県","city":"富山市","street":"石坂東町"},{"zipCode":"9301271","prefectureKana":"ﾄﾔﾏｹﾝ","cityKana":"ﾄﾔﾏｼ","streetKana":"ｲｼﾌﾞﾁ","prefecture":"富山県","city":"富山市","street":"石渕"},{"zipCode":"9300042","prefectureKana":"ﾄﾔﾏｹﾝ","cityKana":"ﾄﾔﾏｼ","streetKana":"ｲｽﾞﾐﾁｮｳ","prefecture":"富山県","city":"富山市","street":"泉町"},{"zipCode":"9300077","prefectureKana":"ﾄﾔﾏｹﾝ","cityKana":"ﾄﾔﾏｼ","streetKana":"ｲｿﾍﾞﾏﾁ","prefecture":"富山県","city":"富山市","street":"磯部町"},{"zipCode":"9300061","prefectureKana":"ﾄﾔﾏｹﾝ","cityKana":"ﾄﾔﾏｼ","streetKana":"ｲﾁﾊﾞﾝﾏﾁ","prefecture":"富山県","city":"富山市","street":"一番町"},{"zipCode":"9300904","prefectureKana":"ﾄﾔﾏｹﾝ","cityKana":"ﾄﾔﾏｼ","streetKana":"ｲｯﾎﾟﾝｷﾞ","prefecture":"富山県","city":"富山市","street":"一本木"},{"zipCode":"9300849","prefectureKana":"ﾄﾔﾏｹﾝ","cityKana":"ﾄﾔﾏｼ","streetKana":"ｲﾅﾘｿﾉﾏﾁ","prefecture":"富山県","city":"富山市","street":"稲荷園町"},{"zipCode":"9300012","prefectureKana":"ﾄﾔﾏｹﾝ","cityKana":"ﾄﾔﾏｼ","streetKana":"ｲﾅﾘﾏﾁ","prefecture":"富山県","city":"富山市","street":"稲荷町"},{"zipCode":"9300010","prefectureKana":"ﾄﾔﾏｹﾝ","cityKana":"ﾄﾔﾏｼ","streetKana":"ｲﾅﾘﾓﾄﾏﾁ","prefecture":"富山県","city":"富山市","street":"稲荷元町"},{"zipCode":"9302221","prefectureKana":"ﾄﾔﾏｹﾝ","cityKana":"ﾄﾔﾏｼ","streetKana":"ｲﾏｲﾁ","prefecture":"富山県","city":"富山市","street":"今市"},{"zipCode":"9300021","prefectureKana":"ﾄﾔﾏｹﾝ","cityKana":"ﾄﾔﾏｼ","streetKana":"ｲﾏｷﾞﾏﾁ","prefecture":"富山県","city":"富山市","street":"今木町"},{"zipCode":"9300856","prefectureKana":"ﾄﾔﾏｹﾝ","cityKana":"ﾄﾔﾏｼ","streetKana":"ｳｼｼﾞﾏｼﾝﾏﾁ","prefecture":"富山県","city":"富山市","street":"牛島新町"},{"zipCode":"9300858","prefectureKana":"ﾄﾔﾏｹﾝ","cityKana":"ﾄﾔﾏｼ","streetKana":"ｳｼｼﾞﾏﾁｮｳ","prefecture":"富山県","city":"富山市","street":"牛島町"},{"zipCode":"9300859","prefectureKana":"ﾄﾔﾏｹﾝ","cityKana":"ﾄﾔﾏｼ","streetKana":"ｳｼｼﾞﾏﾎﾝﾏﾁ","prefecture":"富山県","city":"富山市","street":"牛島本町"},{"zipCode":"9302237","prefectureKana":"ﾄﾔﾏｹﾝ","cityKana":"ﾄﾔﾏｼ","streetKana":"ｳﾁｲﾃﾞ","prefecture":"富山県","city":"富山市","street":"打出"},{"zipCode":"9302238","prefectureKana":"ﾄﾔﾏｹﾝ","cityKana":"ﾄﾔﾏｼ","streetKana":"ｳﾁｲﾃﾞｼﾝ","prefecture":"富山県","city":"富山市","street":"打出新"},{"zipCode":"9300093","prefectureKana":"ﾄﾔﾏｹﾝ","cityKana":"ﾄﾔﾏｼ","streetKana":"ｳﾁｻｲﾜｲﾁｮｳ","prefecture":"富山県","city":"富山市","street":"内幸町"},{"zipCode":"9301284","prefectureKana":"ﾄﾔﾏｹﾝ","cityKana":"ﾄﾔﾏｼ","streetKana":"ｳﾏﾉｾ","prefecture":"富山県","city":"富山市","street":"馬瀬"},{"zipCode":"9300055","prefectureKana":"ﾄﾔﾏｹﾝ","cityKana":"ﾄﾔﾏｼ","streetKana":"ｳﾒｻﾞﾜﾁｮｳ","prefecture":"富山県","city":"富山市","street":"梅沢町"},{"zipCode":"9300853","prefectureKana":"ﾄﾔﾏｹﾝ","cityKana":"ﾄﾔﾏｼ","streetKana":"ｴｲﾗｸﾁｮｳ","prefecture":"富山県","city":"富山市","street":"永楽町"},{"zipCode":"9300067","prefectureKana":"ﾄﾔﾏｹﾝ","cityKana":"ﾄﾔﾏｼ","streetKana":"ｴﾁｾﾞﾝﾏﾁ","prefecture":"富山県","city":"富山市","street":"越前町"},{"zipCode":"9300914","prefectureKana":"ﾄﾔﾏｹﾝ","cityKana":"ﾄﾔﾏｼ","streetKana":"ｴﾊﾞﾗ","prefecture":"富山県","city":"富山市","street":"荏原"},{"zipCode":"9300915","prefectureKana":"ﾄﾔﾏｹﾝ","cityKana":"ﾄﾔﾏｼ","streetKana":"ｴﾊﾞﾗｴｷﾏｴﾄﾞｵﾘ","prefecture":"富山県","city":"富山市","street":"荏原駅前通り"},{"zipCode":"9300913","prefectureKana":"ﾄﾔﾏｹﾝ","cityKana":"ﾄﾔﾏｼ","streetKana":"ｴﾊﾞﾗｼﾝﾏﾁ","prefecture":"富山県","city":"富山市","street":"荏原新町"},{"zipCode":"9300027","prefectureKana":"ﾄﾔﾏｹﾝ","cityKana":"ﾄﾔﾏｼ","streetKana":"ｴﾋﾞﾁｮｳ","prefecture":"富山県","city":"富山市","street":"蛯町"},{"zipCode":"9300116","prefectureKana":"ﾄﾔﾏｹﾝ","cityKana":"ﾄﾔﾏｼ","streetKana":"ｵｲﾜｹﾁｬﾔ","prefecture":"富山県","city":"富山市","street":"追分茶屋"},{"zipCode":"9300922","prefectureKana":"ﾄﾔﾏｹﾝ","cityKana":"ﾄﾔﾏｼ","streetKana":"ｵｵｴﾎﾞｼ","prefecture":"富山県","city":"富山市","street":"大江干"},{"zipCode":"9300927","prefectureKana":"ﾄﾔﾏｹﾝ","cityKana":"ﾄﾔﾏｼ","streetKana":"ｵｵｴﾎﾞｼｼﾝﾏﾁ","prefecture":"富山県","city":"富山市","street":"大江干新町"},{"zipCode":"9301327","prefectureKana":"ﾄﾔﾏｹﾝ","cityKana":"ﾄﾔﾏｼ","streetKana":"ｵｵｸﾞﾘ","prefecture":"富山県","city":"富山市","street":"大栗"},{"zipCode":"9301275","prefectureKana":"ﾄﾔﾏｹﾝ","cityKana":"ﾄﾔﾏｼ","streetKana":"ｵｵｼﾐｽﾞ","prefecture":"富山県","city":"富山市","street":"大清水"},{"zipCode":"9301274","prefectureKana":"ﾄﾔﾏｹﾝ","cityKana":"ﾄﾔﾏｼ","streetKana":"ｵｵｿﾞｳﾚｲ","prefecture":"富山県","city":"富山市","street":"大双嶺"},{"zipCode":"9300063","prefectureKana":"ﾄﾔﾏｹﾝ","cityKana":"ﾄﾔﾏｼ","streetKana":"ｵｵﾀｸﾞﾁﾄﾞｵﾘ","prefecture":"富山県","city":"富山市","street":"太田口通り"},{"zipCode":"9300015","prefectureKana":"ﾄﾔﾏｹﾝ","cityKana":"ﾄﾔﾏｼ","streetKana":"ｵｵﾀﾏﾁ","prefecture":"富山県","city":"富山市","street":"於保多町"},{"zipCode":"9300107","prefectureKana":"ﾄﾔﾏｹﾝ","cityKana":"ﾄﾔﾏｼ","streetKana":"ｵｵﾂｶ","prefecture":"富山県","city":"富山市","street":"大塚"},{"zipCode":"9300107","prefectureKana":"ﾄﾔﾏｹﾝ","cityKana":"ﾄﾔﾏｼ","streetKana":"ｵｵﾂｶﾋｶﾞｼ","prefecture":"富山県","city":"富山市","street":"大塚東"},{"zipCode":"9300107","prefectureKana":"ﾄﾔﾏｹﾝ","cityKana":"ﾄﾔﾏｼ","streetKana":"ｵｵﾂｶﾆｼ","prefecture":"富山県","city":"富山市","street":"大塚西"},{"zipCode":"9300107","prefectureKana":"ﾄﾔﾏｹﾝ","cityKana":"ﾄﾔﾏｼ","streetKana":"ｵｵﾂｶﾐﾅﾐ","prefecture":"富山県","city":"富山市","street":"大塚南"},{"zipCode":"9300107","prefectureKana":"ﾄﾔﾏｹﾝ","cityKana":"ﾄﾔﾏｼ","streetKana":"ｵｵﾂｶｷﾀ","prefecture":"富山県","city":"富山市","street":"大塚北"},{"zipCode":"9300084","prefectureKana":"ﾄﾔﾏｹﾝ","cityKana":"ﾄﾔﾏｼ","streetKana":"ｵｵﾃﾏﾁ","prefecture":"富山県","city":"富山市","street":"大手町"},{"zipCode":"9301321","prefectureKana":"ﾄﾔﾏｹﾝ","cityKana":"ﾄﾔﾏｼ","streetKana":"ｵｵﾔﾏｳﾜﾉ","prefecture":"富山県","city":"富山市","street":"大山上野"},{"zipCode":"9301311","prefectureKana":"ﾄﾔﾏｹﾝ","cityKana":"ﾄﾔﾏｼ","streetKana":"ｵｵﾔﾏｷﾀｼﾝﾏﾁ","prefecture":"富山県","city":"富山市","street":"大山北新町"},{"zipCode":"9301264","prefectureKana":"ﾄﾔﾏｹﾝ","cityKana":"ﾄﾔﾏｼ","streetKana":"ｵｵﾔﾏﾇﾉﾒ","prefecture":"富山県","city":"富山市","street":"大山布目"},{"zipCode":"9301466","prefectureKana":"ﾄﾔﾏｹﾝ","cityKana":"ﾄﾔﾏｼ","streetKana":"ｵｵﾔﾏﾏﾂﾉｷ","prefecture":"富山県","city":"富山市","street":"大山松木"},{"zipCode":"9301322","prefectureKana":"ﾄﾔﾏｹﾝ","cityKana":"ﾄﾔﾏｼ","streetKana":"ｵｶﾀﾞ","prefecture":"富山県","city":"富山市","street":"岡田"},{"zipCode":"9300846","prefectureKana":"ﾄﾔﾏｹﾝ","cityKana":"ﾄﾔﾏｼ","streetKana":"ｵｸｲﾏﾁ","prefecture":"富山県","city":"富山市","street":"奥井町"},{"zipCode":"9300852","prefectureKana":"ﾄﾔﾏｹﾝ","cityKana":"ﾄﾔﾏｼ","streetKana":"ｵｸﾀﾞｺﾄﾌﾞｷﾁｮｳ","prefecture":"富山県","city":"富山市","street":"奥田寿町"},{"zipCode":"9300857","prefectureKana":"ﾄﾔﾏｹﾝ","cityKana":"ﾄﾔﾏｼ","streetKana":"ｵｸﾀﾞｼﾝﾏﾁ","prefecture":"富山県","city":"富山市","street":"奥田新町"},{"zipCode":"9300851","prefectureKana":"ﾄﾔﾏｹﾝ","cityKana":"ﾄﾔﾏｼ","streetKana":"ｵｸﾀﾞﾌﾀﾊﾞﾁｮｳ","prefecture":"富山県","city":"富山市","street":"奥田双葉町"},{"zipCode":"9300819","prefectureKana":"ﾄﾔﾏｹﾝ","cityKana":"ﾄﾔﾏｼ","streetKana":"ｵｸﾀﾞﾎﾝﾏﾁ","prefecture":"富山県","city":"富山市","street":"奥田本町"},{"zipCode":"9300818","prefectureKana":"ﾄﾔﾏｹﾝ","cityKana":"ﾄﾔﾏｼ","streetKana":"ｵｸﾀﾞﾏﾁ","prefecture":"富山県","city":"富山市","street":"奥田町"},{"zipCode":"9301286","prefectureKana":"ﾄﾔﾏｹﾝ","cityKana":"ﾄﾔﾏｼ","streetKana":"ｵｻﾞﾅﾐ","prefecture":"富山県","city":"富山市","street":"小佐波"},{"zipCode":"9301265","prefectureKana":"ﾄﾔﾏｹﾝ","cityKana":"ﾄﾔﾏｼ","streetKana":"ｵﾀﾆ","prefecture":"富山県","city":"富山市","street":"小谷"},{"zipCode":"9300037","prefectureKana":"ﾄﾔﾏｹﾝ","cityKana":"ﾄﾔﾏｼ","streetKana":"ｵﾄﾜﾁｮｳ","prefecture":"富山県","city":"富山市","street":"音羽町"},{"zipCode":"9301328","prefectureKana":"ﾄﾔﾏｹﾝ","cityKana":"ﾄﾔﾏｼ","streetKana":"ｵﾊﾗﾔ","prefecture":"富山県","city":"富山市","street":"小原屋"},{"zipCode":"9301456","prefectureKana":"ﾄﾔﾏｹﾝ","cityKana":"ﾄﾔﾏｼ","streetKana":"ｵﾐ","prefecture":"富山県","city":"富山市","street":"小見"},{"zipCode":"9301276","prefectureKana":"ﾄﾔﾏｹﾝ","cityKana":"ﾄﾔﾏｼ","streetKana":"ｵﾘﾀﾆ","prefecture":"富山県","city":"富山市","street":"折谷"},{"zipCode":"9300086","prefectureKana":"ﾄﾔﾏｹﾝ","cityKana":"ﾄﾔﾏｼ","streetKana":"ｶｼﾏﾁｮｳ","prefecture":"富山県","city":"富山市","street":"鹿島町"},{"zipCode":"9300926","prefectureKana":"ﾄﾔﾏｹﾝ","cityKana":"ﾄﾔﾏｼ","streetKana":"ｶﾅﾀﾞｲ","prefecture":"富山県","city":"富山市","street":"金代"},{"zipCode":"9300873","prefectureKana":"ﾄﾔﾏｹﾝ","cityKana":"ﾄﾔﾏｼ","streetKana":"ｶﾅﾔ","prefecture":"富山県","city":"富山市","street":"金屋"},{"zipCode":"9302206","prefectureKana":"ﾄﾔﾏｹﾝ","cityKana":"ﾄﾔﾏｼ","streetKana":"ｶﾅﾔﾏｼﾝ","prefecture":"富山県","city":"富山市","street":"金山新"},{"zipCode":"9302204","prefectureKana":"ﾄﾔﾏｹﾝ","cityKana":"ﾄﾔﾏｼ","streetKana":"ｶﾅﾔﾏｼﾝｻｸﾗｶﾞｵｶ","prefecture":"富山県","city":"富山市","street":"金山新桜ケ丘"},{"zipCode":"9302206","prefectureKana":"ﾄﾔﾏｹﾝ","cityKana":"ﾄﾔﾏｼ","streetKana":"ｶﾅﾔﾏｼﾝﾅｶ","prefecture":"富山県","city":"富山市","street":"金山新中"},{"zipCode":"9302205","prefectureKana":"ﾄﾔﾏｹﾝ","cityKana":"ﾄﾔﾏｼ","streetKana":"ｶﾅﾔﾏｼﾝﾋｶﾞｼ","prefecture":"富山県","city":"富山市","street":"金山新東"},{"zipCode":"9302206","prefectureKana":"ﾄﾔﾏｹﾝ","cityKana":"ﾄﾔﾏｼ","streetKana":"ｶﾅﾔﾏｼﾝﾆｼ","prefecture":"富山県","city":"富山市","street":"金山新西"},{"zipCode":"9302206","prefectureKana":"ﾄﾔﾏｹﾝ","cityKana":"ﾄﾔﾏｼ","streetKana":"ｶﾅﾔﾏｼﾝﾐﾅﾐ","prefecture":"富山県","city":"富山市","street":"金山新南"},{"zipCode":"9302206","prefectureKana":"ﾄﾔﾏｹﾝ","cityKana":"ﾄﾔﾏｼ","streetKana":"ｶﾅﾔﾏｼﾝｷﾀ","prefecture":"富山県","city":"富山市","street":"金山新北"},{"zipCode":"9300837","prefectureKana":"ﾄﾔﾏｹﾝ","cityKana":"ﾄﾔﾏｼ","streetKana":"ｶﾐｱｶｴ","prefecture":"富山県","city":"富山市","street":"上赤江"},{"zipCode":"9300816","prefectureKana":"ﾄﾔﾏｹﾝ","cityKana":"ﾄﾔﾏｼ","streetKana":"ｶﾐｱｶｴﾏﾁ","prefecture":"富山県","city":"富山市","street":"上赤江町"},{"zipCode":"9300827","prefectureKana":"ﾄﾔﾏｹﾝ","cityKana":"ﾄﾔﾏｼ","streetKana":"ｶﾐｲｲﾉ","prefecture":"富山県","city":"富山市","street":"上飯野"},{"zipCode":"9300825","prefectureKana":"ﾄﾔﾏｹﾝ","cityKana":"ﾄﾔﾏｼ","streetKana":"ｶﾐｲｲﾉｼﾝﾏﾁ","prefecture":"富山県","city":"富山市","street":"上飯野新町"},{"zipCode":"9301333","prefectureKana":"ﾄﾔﾏｹﾝ","cityKana":"ﾄﾔﾏｼ","streetKana":"ｶﾐｵｵｳﾗ","prefecture":"富山県","city":"富山市","street":"上大浦"},{"zipCode":"9300826","prefectureKana":"ﾄﾔﾏｹﾝ","cityKana":"ﾄﾔﾏｼ","streetKana":"ｶﾐｼｮｳﾏﾁ","prefecture":"富山県","city":"富山市","street":"上庄町"},{"zipCode":"9301312","prefectureKana":"ﾄﾔﾏｹﾝ","cityKana":"ﾄﾔﾏｼ","streetKana":"ｶﾐﾀﾞｷ","prefecture":"富山県","city":"富山市","street":"上滝"},{"zipCode":"9300835","prefectureKana":"ﾄﾔﾏｹﾝ","cityKana":"ﾄﾔﾏｼ","streetKana":"ｶﾐﾌｺﾞ","prefecture":"富山県","city":"富山市","street":"上冨居"},{"zipCode":"9300836","prefectureKana":"ﾄﾔﾏｹﾝ","cityKana":"ﾄﾔﾏｼ","streetKana":"ｶﾐﾌｺﾞｼﾝﾏﾁ","prefecture":"富山県","city":"富山市","street":"上冨居新町"},{"zipCode":"9300057","prefectureKana":"ﾄﾔﾏｹﾝ","cityKana":"ﾄﾔﾏｼ","streetKana":"ｶﾐﾎﾝﾏﾁ","prefecture":"富山県","city":"富山市","street":"上本町"},{"zipCode":"9301459","prefectureKana":"ﾄﾔﾏｹﾝ","cityKana":"ﾄﾔﾏｼ","streetKana":"ｶﾒｶﾞｲ","prefecture":"富山県","city":"富山市","street":"亀谷"},{"zipCode":"9300175","prefectureKana":"ﾄﾔﾏｹﾝ","cityKana":"ﾄﾔﾏｼ","streetKana":"ｶﾞﾝｶｲｼﾞ","prefecture":"富山県","city":"富山市","street":"願海寺"},{"zipCode":"9300176","prefectureKana":"ﾄﾔﾏｹﾝ","cityKana":"ﾄﾔﾏｼ","streetKana":"ｶﾞﾝｶｲｼﾞｼﾝﾏﾁ","prefecture":"富山県","city":"富山市","street":"願海寺新町"},{"zipCode":"9300164","prefectureKana":"ﾄﾔﾏｹﾝ","cityKana":"ﾄﾔﾏｼ","streetKana":"ｷﾀｵｼｶﾜ","prefecture":"富山県","city":"富山市","street":"北押川"},{"zipCode":"9300023","prefectureKana":"ﾄﾔﾏｹﾝ","cityKana":"ﾄﾔﾏｼ","streetKana":"ｷﾀｼﾝﾏﾁ","prefecture":"富山県","city":"富山市","street":"北新町"},{"zipCode":"9300103","prefectureKana":"ﾄﾔﾏｹﾝ","cityKana":"ﾄﾔﾏｼ","streetKana":"ｷﾀﾀﾞｲ","prefecture":"富山県","city":"富山市","street":"北代"},{"zipCode":"9300104","prefectureKana":"ﾄﾔﾏｹﾝ","cityKana":"ﾄﾔﾏｼ","streetKana":"ｷﾀﾀﾞｲｼﾝ","prefecture":"富山県","city":"富山市","street":"北代新"},{"zipCode":"9300103","prefectureKana":"ﾄﾔﾏｹﾝ","cityKana":"ﾄﾔﾏｼ","streetKana":"ｷﾀﾀﾞｲﾁｭｳﾌﾞ","prefecture":"富山県","city":"富山市","street":"北代中部"},{"zipCode":"9300103","prefectureKana":"ﾄﾔﾏｹﾝ","cityKana":"ﾄﾔﾏｼ","streetKana":"ｷﾀﾀﾞｲﾄｳﾌﾞ","prefecture":"富山県","city":"富山市","street":"北代東部"},{"zipCode":"9300105","prefectureKana":"ﾄﾔﾏｹﾝ","cityKana":"ﾄﾔﾏｼ","streetKana":"ｷﾀﾀﾞｲﾌｼﾞｶﾞｵｶ","prefecture":"富山県","city":"富山市","street":"北代藤ケ丘"},{"zipCode":"9300103","prefectureKana":"ﾄﾔﾏｹﾝ","cityKana":"ﾄﾔﾏｼ","streetKana":"ｷﾀﾀﾞｲﾎｸﾌﾞ","prefecture":"富山県","city":"富山市","street":"北代北部"},{"zipCode":"9300172","prefectureKana":"ﾄﾔﾏｹﾝ","cityKana":"ﾄﾔﾏｼ","streetKana":"ｷﾀﾌﾀﾂﾔ","prefecture":"富山県","city":"富山市","street":"北二ツ屋"},{"zipCode":"9300806","prefectureKana":"ﾄﾔﾏｹﾝ","cityKana":"ﾄﾔﾏｼ","streetKana":"ｷﾊﾞﾏﾁ","prefecture":"富山県","city":"富山市","street":"木場町"},{"zipCode":"9300951","prefectureKana":"ﾄﾔﾏｹﾝ","cityKana":"ﾄﾔﾏｼ","streetKana":"ｷｮｳﾄﾞｳ","prefecture":"富山県","city":"富山市","street":"経堂"},{"zipCode":"9300956","prefectureKana":"ﾄﾔﾏｹﾝ","cityKana":"ﾄﾔﾏｼ","streetKana":"ｷｮｳﾄﾞｳｼﾝﾏﾁ","prefecture":"富山県","city":"富山市","street":"経堂新町"},{"zipCode":"9300906","prefectureKana":"ﾄﾔﾏｹﾝ","cityKana":"ﾄﾔﾏｼ","streetKana":"ｷﾝｾﾝｼﾞ","prefecture":"富山県","city":"富山市","street":"金泉寺"},{"zipCode":"9300865","prefectureKana":"ﾄﾔﾏｹﾝ","cityKana":"ﾄﾔﾏｼ","streetKana":"ｸｺﾞｳ","prefecture":"富山県","city":"富山市","street":"久郷"},{"zipCode":"9302201","prefectureKana":"ﾄﾔﾏｹﾝ","cityKana":"ﾄﾔﾏｼ","streetKana":"ｸｻｼﾞﾏ","prefecture":"富山県","city":"富山市","street":"草島"},{"zipCode":"9302207","prefectureKana":"ﾄﾔﾏｹﾝ","cityKana":"ﾄﾔﾏｼ","streetKana":"ｸｻｼﾞﾏｼﾝﾏﾁ","prefecture":"富山県","city":"富山市","street":"草島新町"},{"zipCode":"9300842","prefectureKana":"ﾄﾔﾏｹﾝ","cityKana":"ﾄﾔﾏｼ","streetKana":"ｸﾎﾞｼﾝﾏﾁ","prefecture":"富山県","city":"富山市","street":"窪新町"},{"zipCode":"9300843","prefectureKana":"ﾄﾔﾏｹﾝ","cityKana":"ﾄﾔﾏｼ","streetKana":"ｸﾎﾞﾓﾄﾏﾁ","prefecture":"富山県","city":"富山市","street":"窪本町"},{"zipCode":"9301268","prefectureKana":"ﾄﾔﾏｹﾝ","cityKana":"ﾄﾔﾏｼ","streetKana":"ｸﾙﾐｶﾞﾊﾗ","prefecture":"富山県","city":"富山市","street":"楜ケ原"},{"zipCode":"9300121","prefectureKana":"ﾄﾔﾏｹﾝ","cityKana":"ﾄﾔﾏｼ","streetKana":"ｸﾚﾊｴﾝ","prefecture":"富山県","city":"富山市","street":"呉羽苑"},{"zipCode":"9300133","prefectureKana":"ﾄﾔﾏｹﾝ","cityKana":"ﾄﾔﾏｼ","streetKana":"ｸﾚﾊｶﾜﾆｼ","prefecture":"富山県","city":"富山市","street":"呉羽川西"},{"zipCode":"9300134","prefectureKana":"ﾄﾔﾏｹﾝ","cityKana":"ﾄﾔﾏｼ","streetKana":"ｸﾚﾊｷﾌﾈﾏｷ","prefecture":"富山県","city":"富山市","street":"呉羽貴船巻"},{"zipCode":"9300131","prefectureKana":"ﾄﾔﾏｹﾝ","cityKana":"ﾄﾔﾏｼ","streetKana":"ｸﾚﾊｼｮｳﾜﾏﾁ","prefecture":"富山県","city":"富山市","street":"呉羽昭和町"},{"zipCode":"9300122","prefectureKana":"ﾄﾔﾏｹﾝ","cityKana":"ﾄﾔﾏｼ","streetKana":"ｸﾚﾊｼﾝﾄﾐﾀﾏﾁ","prefecture":"富山県","city":"富山市","street":"呉羽新富田町"},{"zipCode":"9300125","prefectureKana":"ﾄﾔﾏｹﾝ","cityKana":"ﾄﾔﾏｼ","streetKana":"ｸﾚﾊﾂﾂｼﾞｶﾞｵｶ","prefecture":"富山県","city":"富山市","street":"呉羽つつじが丘"},{"zipCode":"9300123","prefectureKana":"ﾄﾔﾏｹﾝ","cityKana":"ﾄﾔﾏｼ","streetKana":"ｸﾚﾊﾄﾐﾀﾏﾁ","prefecture":"富山県","city":"富山市","street":"呉羽富田町"},{"zipCode":"9300135","prefectureKana":"ﾄﾔﾏｹﾝ","cityKana":"ﾄﾔﾏｼ","streetKana":"ｸﾚﾊﾅｶﾉﾁｮｳ","prefecture":"富山県","city":"富山市","street":"呉羽中の町"},{"zipCode":"9300102","prefectureKana":"ﾄﾔﾏｹﾝ","cityKana":"ﾄﾔﾏｼ","streetKana":"ｸﾚﾊﾉﾀﾞ","prefecture":"富山県","city":"富山市","street":"呉羽野田"},{"zipCode":"9300126","prefectureKana":"ﾄﾔﾏｹﾝ","cityKana":"ﾄﾔﾏｼ","streetKana":"ｸﾚﾊﾋｶﾞｼﾏﾁ","prefecture":"富山県","city":"富山市","street":"呉羽東町"},{"zipCode":"9300132","prefectureKana":"ﾄﾔﾏｹﾝ","cityKana":"ﾄﾔﾏｼ","streetKana":"ｸﾚﾊﾋﾒﾓﾄ","prefecture":"富山県","city":"富山市","street":"呉羽姫本"},{"zipCode":"9300137","prefectureKana":"ﾄﾔﾏｹﾝ","cityKana":"ﾄﾔﾏｼ","streetKana":"ｸﾚﾊﾎﾝﾏﾁ","prefecture":"富山県","city":"富山市","street":"呉羽本町"},{"zipCode":"9300138","prefectureKana":"ﾄﾔﾏｹﾝ","cityKana":"ﾄﾔﾏｼ","streetKana":"ｸﾚﾊﾏﾁ","prefecture":"富山県","city":"富山市","street":"呉羽町"},{"zipCode":"9300138","prefectureKana":"ﾄﾔﾏｹﾝ","cityKana":"ﾄﾔﾏｼ","streetKana":"ｸﾚﾊﾏﾁﾆｼ","prefecture":"富山県","city":"富山市","street":"呉羽町西"},{"zipCode":"9300138","prefectureKana":"ﾄﾔﾏｹﾝ","cityKana":"ﾄﾔﾏｼ","streetKana":"ｸﾚﾊﾏﾁｷﾀ","prefecture":"富山県","city":"富山市","street":"呉羽町北"},{"zipCode":"9300127","prefectureKana":"ﾄﾔﾏｹﾝ","cityKana":"ﾄﾔﾏｼ","streetKana":"ｸﾚﾊﾏﾙﾄﾐﾁｮｳ","prefecture":"富山県","city":"富山市","street":"呉羽丸富町"},{"zipCode":"9300124","prefectureKana":"ﾄﾔﾏｹﾝ","cityKana":"ﾄﾔﾏｼ","streetKana":"ｸﾚﾊﾐｽﾞｶﾐﾁｮｳ","prefecture":"富山県","city":"富山市","street":"呉羽水上町"},{"zipCode":"9300136","prefectureKana":"ﾄﾔﾏｹﾝ","cityKana":"ﾄﾔﾏｼ","streetKana":"ｸﾚﾊﾐﾂﾂﾞｶ","prefecture":"富山県","city":"富山市","street":"呉羽三ツ塚"},{"zipCode":"9301336","prefectureKana":"ﾄﾔﾏｹﾝ","cityKana":"ﾄﾔﾏｼ","streetKana":"ｸﾜﾊﾗ","prefecture":"富山県","city":"富山市","street":"桑原"},{"zipCode":"9300809","prefectureKana":"ﾄﾔﾏｹﾝ","cityKana":"ﾄﾔﾏｼ","streetKana":"ｺｳｼﾞﾝﾏﾁ","prefecture":"富山県","city":"富山市","street":"興人町"},{"zipCode":"9301273","prefectureKana":"ﾄﾔﾏｹﾝ","cityKana":"ﾄﾔﾏｼ","streetKana":"ｺｻｶ","prefecture":"富山県","city":"富山市","street":"小坂"},{"zipCode":"9300022","prefectureKana":"ﾄﾔﾏｹﾝ","cityKana":"ﾄﾔﾏｼ","streetKana":"ｺｼﾞﾏﾁｮｳ","prefecture":"富山県","city":"富山市","street":"小島町"},{"zipCode":"9300882","prefectureKana":"ﾄﾔﾏｹﾝ","cityKana":"ﾄﾔﾏｼ","streetKana":"ｺﾞｿｳ","prefecture":"富山県","city":"富山市","street":"五艘"},{"zipCode":"9300895","prefectureKana":"ﾄﾔﾏｹﾝ","cityKana":"ﾄﾔﾏｼ","streetKana":"ｺﾏﾐ","prefecture":"富山県","city":"富山市","street":"駒見"},{"zipCode":"9300052","prefectureKana":"ﾄﾔﾏｹﾝ","cityKana":"ﾄﾔﾏｼ","streetKana":"ｺﾞﾊﾞﾝﾏﾁ","prefecture":"富山県","city":"富山市","street":"五番町"},{"zipCode":"9300887","prefectureKana":"ﾄﾔﾏｹﾝ","cityKana":"ﾄﾔﾏｼ","streetKana":"ｺﾞﾌｸ","prefecture":"富山県","city":"富山市","street":"五福"},{"zipCode":"9300883","prefectureKana":"ﾄﾔﾏｹﾝ","cityKana":"ﾄﾔﾏｼ","streetKana":"ｺﾞﾌｸｼﾝﾏﾁ","prefecture":"富山県","city":"富山市","street":"五福新町"},{"zipCode":"9300884","prefectureKana":"ﾄﾔﾏｹﾝ","cityKana":"ﾄﾔﾏｼ","streetKana":"ｺﾞﾌｸｽｴﾋﾛﾁｮｳ","prefecture":"富山県","city":"富山市","street":"五福末広町"},{"zipCode":"9300905","prefectureKana":"ﾄﾔﾏｹﾝ","cityKana":"ﾄﾔﾏｼ","streetKana":"ｺﾞﾎﾝｴﾉｷ","prefecture":"富山県","city":"富山市","street":"五本榎"},{"zipCode":"9301464","prefectureKana":"ﾄﾔﾏｹﾝ","cityKana":"ﾄﾔﾏｼ","streetKana":"ｻｲｶｸﾁ","prefecture":"富山県","city":"富山市","street":"才覚地"},{"zipCode":"9300153","prefectureKana":"ﾄﾔﾏｹﾝ","cityKana":"ﾄﾔﾏｼ","streetKana":"ｻｶｲﾉｼﾝ","prefecture":"富山県","city":"富山市","street":"境野新"},{"zipCode":"9300925","prefectureKana":"ﾄﾔﾏｹﾝ","cityKana":"ﾄﾔﾏｼ","streetKana":"ｻｶｴｼﾝﾏﾁ","prefecture":"富山県","city":"富山市","street":"栄新町"},{"zipCode":"9300032","prefectureKana":"ﾄﾔﾏｹﾝ","cityKana":"ﾄﾔﾏｼ","streetKana":"ｻｶｴﾏﾁ","prefecture":"富山県","city":"富山市","street":"栄町"},{"zipCode":"9300156","prefectureKana":"ﾄﾔﾏｹﾝ","cityKana":"ﾄﾔﾏｼ","streetKana":"ｻｶｼﾀｼﾝ","prefecture":"富山県","city":"富山市","street":"坂下新"},{"zipCode":"9300082","prefectureKana":"ﾄﾔﾏｹﾝ","cityKana":"ﾄﾔﾏｼ","streetKana":"ｻｸﾗｷﾞﾁｮｳ","prefecture":"富山県","city":"富山市","street":"桜木町"},{"zipCode":"9300898","prefectureKana":"ﾄﾔﾏｹﾝ","cityKana":"ﾄﾔﾏｼ","streetKana":"ｻｸﾗﾀﾞﾆﾐﾄﾞﾘﾁｮｳ","prefecture":"富山県","city":"富山市","street":"桜谷みどり町"},{"zipCode":"9300004","prefectureKana":"ﾄﾔﾏｹﾝ","cityKana":"ﾄﾔﾏｼ","streetKana":"ｻｸﾗﾊﾞｼﾄﾞｵﾘ","prefecture":"富山県","city":"富山市","street":"桜橋通り"},{"zipCode":"9300003","prefectureKana":"ﾄﾔﾏｹﾝ","cityKana":"ﾄﾔﾏｼ","streetKana":"ｻｸﾗﾏﾁ","prefecture":"富山県","city":"富山市","street":"桜町"},{"zipCode":"9300064","prefectureKana":"ﾄﾔﾏｹﾝ","cityKana":"ﾄﾔﾏｼ","streetKana":"ｻﾝﾉｳﾏﾁ","prefecture":"富山県","city":"富山市","street":"山王町"},{"zipCode":"9300155","prefectureKana":"ﾄﾔﾏｹﾝ","cityKana":"ﾄﾔﾏｼ","streetKana":"ｻﾝﾉｸﾏ","prefecture":"富山県","city":"富山市","street":"三熊"},{"zipCode":"9300059","prefectureKana":"ﾄﾔﾏｹﾝ","cityKana":"ﾄﾔﾏｼ","streetKana":"ｻﾝﾊﾞﾝﾏﾁ","prefecture":"富山県","city":"富山市","street":"三番町"},{"zipCode":"9300089","prefectureKana":"ﾄﾔﾏｹﾝ","cityKana":"ﾄﾔﾏｼ","streetKana":"ｼﾁｹﾝﾏﾁ","prefecture":"富山県","city":"富山市","street":"七軒町"},{"zipCode":"9300097","prefectureKana":"ﾄﾔﾏｹﾝ","cityKana":"ﾄﾔﾏｼ","streetKana":"ｼﾊﾞｿﾞﾉﾁｮｳ","prefecture":"富山県","city":"富山市","street":"芝園町"},{"zipCode":"9300035","prefectureKana":"ﾄﾔﾏｹﾝ","cityKana":"ﾄﾔﾏｼ","streetKana":"ｼﾐｽﾞﾅｶﾏﾁ","prefecture":"富山県","city":"富山市","street":"清水中町"},{"zipCode":"9300036","prefectureKana":"ﾄﾔﾏｹﾝ","cityKana":"ﾄﾔﾏｼ","streetKana":"ｼﾐｽﾞﾏﾁ","prefecture":"富山県","city":"富山市","street":"清水町"},{"zipCode":"9300034","prefectureKana":"ﾄﾔﾏｹﾝ","cityKana":"ﾄﾔﾏｼ","streetKana":"ｼﾐｽﾞﾓﾄﾏﾁ","prefecture":"富山県","city":"富山市","street":"清水元町"},{"zipCode":"9300838","prefectureKana":"ﾄﾔﾏｹﾝ","cityKana":"ﾄﾔﾏｼ","streetKana":"ｼﾓｱｶｴ","prefecture":"富山県","city":"富山市","street":"下赤江"},{"zipCode":"9300813","prefectureKana":"ﾄﾔﾏｹﾝ","cityKana":"ﾄﾔﾏｼ","streetKana":"ｼﾓｱｶｴﾏﾁ","prefecture":"富山県","city":"富山市","street":"下赤江町"},{"zipCode":"9301335","prefectureKana":"ﾄﾔﾏｹﾝ","cityKana":"ﾄﾔﾏｼ","streetKana":"ｼﾓｵｵｳﾗ","prefecture":"富山県","city":"富山市","street":"下大浦"},{"zipCode":"9300817","prefectureKana":"ﾄﾔﾏｹﾝ","cityKana":"ﾄﾔﾏｼ","streetKana":"ｼﾓｵｸｲ","prefecture":"富山県","city":"富山市","street":"下奥井"},{"zipCode":"9300807","prefectureKana":"ﾄﾔﾏｹﾝ","cityKana":"ﾄﾔﾏｼ","streetKana":"ｼﾓｼﾝﾆｼﾁｮｳ","prefecture":"富山県","city":"富山市","street":"下新西町"},{"zipCode":"9300802","prefectureKana":"ﾄﾔﾏｹﾝ","cityKana":"ﾄﾔﾏｼ","streetKana":"ｼﾓｼﾝｷﾀﾏﾁ","prefecture":"富山県","city":"富山市","street":"下新北町"},{"zipCode":"9300808","prefectureKana":"ﾄﾔﾏｹﾝ","cityKana":"ﾄﾔﾏｼ","streetKana":"ｼﾓｼﾝﾆｯｿｳﾏﾁ","prefecture":"富山県","city":"富山市","street":"下新日曹町"},{"zipCode":"9300803","prefectureKana":"ﾄﾔﾏｹﾝ","cityKana":"ﾄﾔﾏｼ","streetKana":"ｼﾓｼﾝﾎﾝﾏﾁ","prefecture":"富山県","city":"富山市","street":"下新本町"},{"zipCode":"9300804","prefectureKana":"ﾄﾔﾏｹﾝ","cityKana":"ﾄﾔﾏｼ","streetKana":"ｼﾓｼﾝﾏﾁ","prefecture":"富山県","city":"富山市","street":"下新町"},{"zipCode":"9301272","prefectureKana":"ﾄﾔﾏｹﾝ","cityKana":"ﾄﾔﾏｼ","streetKana":"ｼﾓｿﾞｳﾚｲ","prefecture":"富山県","city":"富山市","street":"下双嶺"},{"zipCode":"9300871","prefectureKana":"ﾄﾔﾏｹﾝ","cityKana":"ﾄﾔﾏｼ","streetKana":"ｼﾓﾉ","prefecture":"富山県","city":"富山市","street":"下野"},{"zipCode":"9300872","prefectureKana":"ﾄﾔﾏｹﾝ","cityKana":"ﾄﾔﾏｼ","streetKana":"ｼﾓﾉｼﾝ","prefecture":"富山県","city":"富山市","street":"下野新"},{"zipCode":"9301305","prefectureKana":"ﾄﾔﾏｹﾝ","cityKana":"ﾄﾔﾏｼ","streetKana":"ｼﾓﾉﾊﾞﾝ","prefecture":"富山県","city":"富山市","street":"下番"},{"zipCode":"9300814","prefectureKana":"ﾄﾔﾏｹﾝ","cityKana":"ﾄﾔﾏｼ","streetKana":"ｼﾓﾌｺﾞ","prefecture":"富山県","city":"富山市","street":"下冨居"},{"zipCode":"9300867","prefectureKana":"ﾄﾔﾏｹﾝ","cityKana":"ﾄﾔﾏｼ","streetKana":"ｼｮｳﾀｶﾀ","prefecture":"富山県","city":"富山市","street":"庄高田"},{"zipCode":"9300854","prefectureKana":"ﾄﾔﾏｹﾝ","cityKana":"ﾄﾔﾏｼ","streetKana":"ｼﾞｮｳﾎｸﾏﾁ","prefecture":"富山県","city":"富山市","street":"城北町"},{"zipCode":"9300048","prefectureKana":"ﾄﾔﾏｹﾝ","cityKana":"ﾄﾔﾏｼ","streetKana":"ｼﾛｶﾞﾈﾁｮｳ","prefecture":"富山県","city":"富山市","street":"白銀町"},{"zipCode":"9300924","prefectureKana":"ﾄﾔﾏｹﾝ","cityKana":"ﾄﾔﾏｼ","streetKana":"ｼﾝｶﾅﾀﾞｲ","prefecture":"富山県","city":"富山市","street":"新金代"},{"zipCode":"9300024","prefectureKana":"ﾄﾔﾏｹﾝ","cityKana":"ﾄﾔﾏｼ","streetKana":"ｼﾝｶﾜﾗﾏﾁ","prefecture":"富山県","city":"富山市","street":"新川原町"},{"zipCode":"9300005","prefectureKana":"ﾄﾔﾏｹﾝ","cityKana":"ﾄﾔﾏｼ","streetKana":"ｼﾝｻｸﾗﾏﾁ","prefecture":"富山県","city":"富山市","street":"新桜町"},{"zipCode":"9300997","prefectureKana":"ﾄﾔﾏｹﾝ","cityKana":"ﾄﾔﾏｼ","streetKana":"ｼﾝｼﾞｮｳｷﾀﾏﾁ","prefecture":"富山県","city":"富山市","street":"新庄北町"},{"zipCode":"9300991","prefectureKana":"ﾄﾔﾏｹﾝ","cityKana":"ﾄﾔﾏｼ","streetKana":"ｼﾝｼﾞｮｳｷﾞﾝｻﾞ","prefecture":"富山県","city":"富山市","street":"新庄銀座"},{"zipCode":"9300994","prefectureKana":"ﾄﾔﾏｹﾝ","cityKana":"ﾄﾔﾏｼ","streetKana":"ｼﾝｼﾞｮｳｼﾝﾏﾁ","prefecture":"富山県","city":"富山市","street":"新庄新町"},{"zipCode":"9300995","prefectureKana":"ﾄﾔﾏｹﾝ","cityKana":"ﾄﾔﾏｼ","streetKana":"ｼﾝｼﾞｮｳﾁｭｳｵｳﾏﾁ","prefecture":"富山県","city":"富山市","street":"新庄中央町"},{"zipCode":"9300996","prefectureKana":"ﾄﾔﾏｹﾝ","cityKana":"ﾄﾔﾏｼ","streetKana":"ｼﾝｼﾞｮｳﾎﾝﾏﾁ","prefecture":"富山県","city":"富山市","street":"新庄本町"},{"zipCode":"9300992","prefectureKana":"ﾄﾔﾏｹﾝ","cityKana":"ﾄﾔﾏｼ","streetKana":"ｼﾝｼﾞｮｳﾏﾁ","prefecture":"富山県","city":"富山市","street":"新庄町"},{"zipCode":"9300006","prefectureKana":"ﾄﾔﾏｹﾝ","cityKana":"ﾄﾔﾏｼ","streetKana":"ｼﾝｿｳｶﾞﾜ","prefecture":"富山県","city":"富山市","street":"新総曲輪"},{"zipCode":"9300993","prefectureKana":"ﾄﾔﾏｹﾝ","cityKana":"ﾄﾔﾏｼ","streetKana":"ｼﾝｿﾉﾏﾁ","prefecture":"富山県","city":"富山市","street":"新園町"},{"zipCode":"9302203","prefectureKana":"ﾄﾔﾏｹﾝ","cityKana":"ﾄﾔﾏｼ","streetKana":"ｼﾝﾁﾊﾗｻﾞｷ","prefecture":"富山県","city":"富山市","street":"新千原崎"},{"zipCode":"9300008","prefectureKana":"ﾄﾔﾏｹﾝ","cityKana":"ﾄﾔﾏｼ","streetKana":"ｼﾞﾝﾂﾞｳﾎﾝﾏﾁ","prefecture":"富山県","city":"富山市","street":"神通本町"},{"zipCode":"9300009","prefectureKana":"ﾄﾔﾏｹﾝ","cityKana":"ﾄﾔﾏｼ","streetKana":"ｼﾞﾝﾂﾞｳﾏﾁ","prefecture":"富山県","city":"富山市","street":"神通町"},{"zipCode":"9300002","prefectureKana":"ﾄﾔﾏｹﾝ","cityKana":"ﾄﾔﾏｼ","streetKana":"ｼﾝﾄﾐﾁｮｳ","prefecture":"富山県","city":"富山市","street":"新富町"},{"zipCode":"9300839","prefectureKana":"ﾄﾔﾏｹﾝ","cityKana":"ﾄﾔﾏｼ","streetKana":"ｼﾝﾌｺﾞ","prefecture":"富山県","city":"富山市","street":"新冨居"},{"zipCode":"9300152","prefectureKana":"ﾄﾔﾏｹﾝ","cityKana":"ﾄﾔﾏｼ","streetKana":"ｽｷﾞﾀﾆ","prefecture":"富山県","city":"富山市","street":"杉谷"},{"zipCode":"9300045","prefectureKana":"ﾄﾔﾏｹﾝ","cityKana":"ﾄﾔﾏｼ","streetKana":"ｽﾅﾏﾁ","prefecture":"富山県","city":"富山市","street":"砂町"},{"zipCode":"9301266","prefectureKana":"ﾄﾔﾏｹﾝ","cityKana":"ﾄﾔﾏｼ","streetKana":"ｽﾅﾐ","prefecture":"富山県","city":"富山市","street":"砂見"},{"zipCode":"9301267","prefectureKana":"ﾄﾔﾏｹﾝ","cityKana":"ﾄﾔﾏｼ","streetKana":"ｽﾅﾐ(ｲﾓﾋﾗ)","prefecture":"富山県","city":"富山市","street":"砂見（芋平）"},{"zipCode":"9300144","prefectureKana":"ﾄﾔﾏｹﾝ","cityKana":"ﾄﾔﾏｼ","streetKana":"ｽﾐﾖｼ","prefecture":"富山県","city":"富山市","street":"住吉"},{"zipCode":"9300031","prefectureKana":"ﾄﾔﾏｹﾝ","cityKana":"ﾄﾔﾏｼ","streetKana":"ｽﾐﾖｼﾁｮｳ","prefecture":"富山県","city":"富山市","street":"住吉町"},{"zipCode":"9300088","prefectureKana":"ﾄﾔﾏｹﾝ","cityKana":"ﾄﾔﾏｼ","streetKana":"ｽﾜﾉｶﾜﾗ","prefecture":"富山県","city":"富山市","street":"諏訪川原"},{"zipCode":"9301285","prefectureKana":"ﾄﾔﾏｹﾝ","cityKana":"ﾄﾔﾏｼ","streetKana":"ｾﾄ","prefecture":"富山県","city":"富山市","street":"瀬戸"},{"zipCode":"9300066","prefectureKana":"ﾄﾔﾏｹﾝ","cityKana":"ﾄﾔﾏｼ","streetKana":"ｾﾝｺﾞｸﾏﾁ","prefecture":"富山県","city":"富山市","street":"千石町"},{"zipCode":"9301303","prefectureKana":"ﾄﾔﾏｹﾝ","cityKana":"ﾄﾔﾏｼ","streetKana":"ｾﾞﾝﾅ","prefecture":"富山県","city":"富山市","street":"善名"},{"zipCode":"9300815","prefectureKana":"ﾄﾔﾏｹﾝ","cityKana":"ﾄﾔﾏｼ","streetKana":"ｾﾝﾅﾘﾏﾁ","prefecture":"富山県","city":"富山市","street":"千成町"},{"zipCode":"9300083","prefectureKana":"ﾄﾔﾏｹﾝ","cityKana":"ﾄﾔﾏｼ","streetKana":"ｿｳｶﾞﾜ","prefecture":"富山県","city":"富山市","street":"総曲輪"},{"zipCode":"9300971","prefectureKana":"ﾄﾔﾏｹﾝ","cityKana":"ﾄﾔﾏｼ","streetKana":"ｿｳﾀｲﾏﾁ","prefecture":"富山県","city":"富山市","street":"双代町"},{"zipCode":"9300106","prefectureKana":"ﾄﾔﾏｹﾝ","cityKana":"ﾄﾔﾏｼ","streetKana":"ﾀｶｷﾞ","prefecture":"富山県","city":"富山市","street":"高木"},{"zipCode":"9300106","prefectureKana":"ﾄﾔﾏｹﾝ","cityKana":"ﾄﾔﾏｼ","streetKana":"ﾀｶｷﾞﾋｶﾞｼ","prefecture":"富山県","city":"富山市","street":"高木東"},{"zipCode":"9300106","prefectureKana":"ﾄﾔﾏｹﾝ","cityKana":"ﾄﾔﾏｼ","streetKana":"ﾀｶｷﾞﾆｼ","prefecture":"富山県","city":"富山市","street":"高木西"},{"zipCode":"9300106","prefectureKana":"ﾄﾔﾏｹﾝ","cityKana":"ﾄﾔﾏｼ","streetKana":"ﾀｶｷﾞﾐﾅﾐ","prefecture":"富山県","city":"富山市","street":"高木南"},{"zipCode":"9300866","prefectureKana":"ﾄﾔﾏｹﾝ","cityKana":"ﾄﾔﾏｼ","streetKana":"ﾀｶﾀ","prefecture":"富山県","city":"富山市","street":"高田"},{"zipCode":"9300007","prefectureKana":"ﾄﾔﾏｹﾝ","cityKana":"ﾄﾔﾏｼ","streetKana":"ﾀｶﾗﾏﾁ","prefecture":"富山県","city":"富山市","street":"宝町"},{"zipCode":"9300897","prefectureKana":"ﾄﾔﾏｹﾝ","cityKana":"ﾄﾔﾏｼ","streetKana":"ﾀｶﾘﾔ","prefecture":"富山県","city":"富山市","street":"田刈屋"},{"zipCode":"9300894","prefectureKana":"ﾄﾔﾏｹﾝ","cityKana":"ﾄﾔﾏｼ","streetKana":"ﾀｶﾘﾔｼﾝﾏﾁ","prefecture":"富山県","city":"富山市","street":"田刈屋新町"},{"zipCode":"9300014","prefectureKana":"ﾄﾔﾏｹﾝ","cityKana":"ﾄﾔﾏｼ","streetKana":"ﾀﾁｲﾃﾞﾏﾁ","prefecture":"富山県","city":"富山市","street":"館出町"},{"zipCode":"9300053","prefectureKana":"ﾄﾔﾏｹﾝ","cityKana":"ﾄﾔﾏｼ","streetKana":"ﾀﾂﾐﾁｮｳ","prefecture":"富山県","city":"富山市","street":"辰巳町"},{"zipCode":"9300985","prefectureKana":"ﾄﾔﾏｹﾝ","cityKana":"ﾄﾔﾏｼ","streetKana":"ﾀﾅｶﾏﾁ","prefecture":"富山県","city":"富山市","street":"田中町"},{"zipCode":"9302224","prefectureKana":"ﾄﾔﾏｹﾝ","cityKana":"ﾄﾔﾏｼ","streetKana":"ﾀﾉｼﾘ","prefecture":"富山県","city":"富山市","street":"田尻"},{"zipCode":"9302224","prefectureKana":"ﾄﾔﾏｹﾝ","cityKana":"ﾄﾔﾏｼ","streetKana":"ﾀﾉｼﾘﾋｶﾞｼ","prefecture":"富山県","city":"富山市","street":"田尻東"},{"zipCode":"9302224","prefectureKana":"ﾄﾔﾏｹﾝ","cityKana":"ﾄﾔﾏｼ","streetKana":"ﾀﾉｼﾘﾆｼ","prefecture":"富山県","city":"富山市","street":"田尻西"},{"zipCode":"9302224","prefectureKana":"ﾄﾔﾏｹﾝ","cityKana":"ﾄﾔﾏｼ","streetKana":"ﾀﾉｼﾘﾐﾅﾐ","prefecture":"富山県","city":"富山市","street":"田尻南"},{"zipCode":"9301331","prefectureKana":"ﾄﾔﾏｹﾝ","cityKana":"ﾄﾔﾏｼ","streetKana":"ﾀﾊﾞﾀｹ","prefecture":"富山県","city":"富山市","street":"田畠"},{"zipCode":"9301338","prefectureKana":"ﾄﾔﾏｹﾝ","cityKana":"ﾄﾔﾏｼ","streetKana":"ﾀﾊﾞﾀｹ(ｱｽﾐﾉ)","prefecture":"富山県","city":"富山市","street":"田畠（明日美野）"},{"zipCode":"9301337","prefectureKana":"ﾄﾔﾏｹﾝ","cityKana":"ﾄﾔﾏｼ","streetKana":"ﾀﾊﾞﾀｹ(ｶｻﾞﾐﾀﾞｲ)","prefecture":"富山県","city":"富山市","street":"田畠（風見台）"},{"zipCode":"9300901","prefectureKana":"ﾄﾔﾏｹﾝ","cityKana":"ﾄﾔﾏｼ","streetKana":"ﾀﾔ","prefecture":"富山県","city":"富山市","street":"手屋"},{"zipCode":"9300018","prefectureKana":"ﾄﾔﾏｹﾝ","cityKana":"ﾄﾔﾏｼ","streetKana":"ﾁﾄｾﾏﾁ","prefecture":"富山県","city":"富山市","street":"千歳町"},{"zipCode":"9300114","prefectureKana":"ﾄﾔﾏｹﾝ","cityKana":"ﾄﾔﾏｼ","streetKana":"ﾁｬﾔｼﾝﾏﾁ","prefecture":"富山県","city":"富山市","street":"茶屋新町"},{"zipCode":"9300115","prefectureKana":"ﾄﾔﾏｹﾝ","cityKana":"ﾄﾔﾏｼ","streetKana":"ﾁｬﾔﾏﾁ","prefecture":"富山県","city":"富山市","street":"茶屋町"},{"zipCode":"9300044","prefectureKana":"ﾄﾔﾏｹﾝ","cityKana":"ﾄﾔﾏｼ","streetKana":"ﾁｭｳｵｳﾄﾞｵﾘ","prefecture":"富山県","city":"富山市","street":"中央通り"},{"zipCode":"9300921","prefectureKana":"ﾄﾔﾏｹﾝ","cityKana":"ﾄﾔﾏｼ","streetKana":"ﾁｭｳｹﾞﾝｼﾞﾏ","prefecture":"富山県","city":"富山市","street":"中間島"},{"zipCode":"9300811","prefectureKana":"ﾄﾔﾏｹﾝ","cityKana":"ﾄﾔﾏｼ","streetKana":"ﾁﾖﾀﾞﾏﾁ","prefecture":"富山県","city":"富山市","street":"千代田町"},{"zipCode":"9300046","prefectureKana":"ﾄﾔﾏｹﾝ","cityKana":"ﾄﾔﾏｼ","streetKana":"ﾂﾂﾐﾁｮｳﾄﾞｵﾘ","prefecture":"富山県","city":"富山市","street":"堤町通り"},{"zipCode":"9302239","prefectureKana":"ﾄﾔﾏｹﾝ","cityKana":"ﾄﾔﾏｼ","streetKana":"ﾂﾊﾞﾒﾉ","prefecture":"富山県","city":"富山市","street":"つばめ野"},{"zipCode":"9300824","prefectureKana":"ﾄﾔﾏｹﾝ","cityKana":"ﾄﾔﾏｼ","streetKana":"ﾂﾙｶﾞｵｶﾏﾁ","prefecture":"富山県","city":"富山市","street":"鶴ケ丘町"},{"zipCode":"9301332","prefectureKana":"ﾄﾔﾏｹﾝ","cityKana":"ﾄﾔﾏｼ","streetKana":"ﾂﾜﾐ","prefecture":"富山県","city":"富山市","street":"津羽見"},{"zipCode":"9302225","prefectureKana":"ﾄﾔﾏｹﾝ","cityKana":"ﾄﾔﾏｼ","streetKana":"ﾃﾗｼﾏ","prefecture":"富山県","city":"富山市","street":"寺島"},{"zipCode":"9300874","prefectureKana":"ﾄﾔﾏｹﾝ","cityKana":"ﾄﾔﾏｼ","streetKana":"ﾃﾗﾏﾁ","prefecture":"富山県","city":"富山市","street":"寺町"},{"zipCode":"9300875","prefectureKana":"ﾄﾔﾏｹﾝ","cityKana":"ﾄﾔﾏｼ","streetKana":"ﾃﾗﾏﾁｹﾔｷﾀﾞｲ","prefecture":"富山県","city":"富山市","street":"寺町けや木台"},{"zipCode":"9300955","prefectureKana":"ﾄﾔﾏｹﾝ","cityKana":"ﾄﾔﾏｼ","streetKana":"ﾃﾝｼｮｳｼﾞ","prefecture":"富山県","city":"富山市","street":"天正寺"},{"zipCode":"9300078","prefectureKana":"ﾄﾔﾏｹﾝ","cityKana":"ﾄﾔﾏｼ","streetKana":"ﾄﾞｲﾊﾗﾏﾁ","prefecture":"富山県","city":"富山市","street":"土居原町"},{"zipCode":"9300834","prefectureKana":"ﾄﾔﾏｹﾝ","cityKana":"ﾄﾔﾏｼ","streetKana":"ﾄｲﾔﾏﾁ","prefecture":"富山県","city":"富山市","street":"問屋町"},{"zipCode":"9300983","prefectureKana":"ﾄﾔﾏｹﾝ","cityKana":"ﾄﾔﾏｼ","streetKana":"ﾄｷﾜﾀﾞｲ","prefecture":"富山県","city":"富山市","street":"常盤台"},{"zipCode":"9300047","prefectureKana":"ﾄﾔﾏｹﾝ","cityKana":"ﾄﾔﾏｼ","streetKana":"ﾄｷﾜﾁｮｳ","prefecture":"富山県","city":"富山市","street":"常盤町"},{"zipCode":"9300163","prefectureKana":"ﾄﾔﾏｹﾝ","cityKana":"ﾄﾔﾏｼ","streetKana":"ﾄﾁﾀﾞﾆ","prefecture":"富山県","city":"富山市","street":"栃谷"},{"zipCode":"9302227","prefectureKana":"ﾄﾔﾏｹﾝ","cityKana":"ﾄﾔﾏｼ","streetKana":"ﾄﾅﾐ","prefecture":"富山県","city":"富山市","street":"利波"},{"zipCode":"9302202","prefectureKana":"ﾄﾔﾏｹﾝ","cityKana":"ﾄﾔﾏｼ","streetKana":"ﾄﾐｳﾗﾏﾁ","prefecture":"富山県","city":"富山市","street":"富浦町"},{"zipCode":"9300928","prefectureKana":"ﾄﾔﾏｹﾝ","cityKana":"ﾄﾔﾏｼ","streetKana":"ﾄﾐｵｶﾁｮｳ","prefecture":"富山県","city":"富山市","street":"富岡町"},{"zipCode":"9300049","prefectureKana":"ﾄﾔﾏｹﾝ","cityKana":"ﾄﾔﾏｼ","streetKana":"ﾄﾖｶﾜﾁｮｳ","prefecture":"富山県","city":"富山市","street":"豊川町"},{"zipCode":"9300974","prefectureKana":"ﾄﾔﾏｹﾝ","cityKana":"ﾄﾔﾏｼ","streetKana":"ﾅｶﾞｴ","prefecture":"富山県","city":"富山市","street":"長江"},{"zipCode":"9300972","prefectureKana":"ﾄﾔﾏｹﾝ","cityKana":"ﾄﾔﾏｼ","streetKana":"ﾅｶﾞｴｼﾝﾏﾁ","prefecture":"富山県","city":"富山市","street":"長江新町"},{"zipCode":"9300973","prefectureKana":"ﾄﾔﾏｹﾝ","cityKana":"ﾄﾔﾏｼ","streetKana":"ﾅｶﾞｴﾋｶﾞｼﾏﾁ","prefecture":"富山県","city":"富山市","street":"長江東町"},{"zipCode":"9300962","prefectureKana":"ﾄﾔﾏｹﾝ","cityKana":"ﾄﾔﾏｼ","streetKana":"ﾅｶﾞｴﾎﾝﾏﾁ","prefecture":"富山県","city":"富山市","street":"長江本町"},{"zipCode":"9300076","prefectureKana":"ﾄﾔﾏｹﾝ","cityKana":"ﾄﾔﾏｼ","streetKana":"ﾅｶﾞｴﾏﾁ","prefecture":"富山県","city":"富山市","street":"長柄町"},{"zipCode":"9300166","prefectureKana":"ﾄﾔﾏｹﾝ","cityKana":"ﾄﾔﾏｼ","streetKana":"ﾅｶｵｲﾀﾞ","prefecture":"富山県","city":"富山市","street":"中老田"},{"zipCode":"9301334","prefectureKana":"ﾄﾔﾏｹﾝ","cityKana":"ﾄﾔﾏｼ","streetKana":"ﾅｶｵｵｳﾗ","prefecture":"富山県","city":"富山市","street":"中大浦"},{"zipCode":"9300111","prefectureKana":"ﾄﾔﾏｹﾝ","cityKana":"ﾄﾔﾏｼ","streetKana":"ﾅｶﾞｵｶ","prefecture":"富山県","city":"富山市","street":"長岡"},{"zipCode":"9300113","prefectureKana":"ﾄﾔﾏｹﾝ","cityKana":"ﾄﾔﾏｼ","streetKana":"ﾅｶﾞｵｶｼﾝ","prefecture":"富山県","city":"富山市","street":"長岡新"},{"zipCode":"9300101","prefectureKana":"ﾄﾔﾏｹﾝ","cityKana":"ﾄﾔﾏｼ","streetKana":"ﾅｶｵｷ","prefecture":"富山県","city":"富山市","street":"中沖"},{"zipCode":"9300801","prefectureKana":"ﾄﾔﾏｹﾝ","cityKana":"ﾄﾔﾏｼ","streetKana":"ﾅｶｼﾞﾏ","prefecture":"富山県","city":"富山市","street":"中島"},{"zipCode":"9301313","prefectureKana":"ﾄﾔﾏｹﾝ","cityKana":"ﾄﾔﾏｼ","streetKana":"ﾅｶﾀﾞｷ","prefecture":"富山県","city":"富山市","street":"中滝"},{"zipCode":"9301462","prefectureKana":"ﾄﾔﾏｹﾝ","cityKana":"ﾄﾔﾏｼ","streetKana":"ﾅｶﾁﾔﾏ","prefecture":"富山県","city":"富山市","street":"中地山"},{"zipCode":"9300903","prefectureKana":"ﾄﾔﾏｹﾝ","cityKana":"ﾄﾔﾏｼ","streetKana":"ﾅｶﾉｼﾝ","prefecture":"富山県","city":"富山市","street":"中野新"},{"zipCode":"9301315","prefectureKana":"ﾄﾔﾏｹﾝ","cityKana":"ﾄﾔﾏｼ","streetKana":"ﾅｶﾉﾊﾞﾝ","prefecture":"富山県","city":"富山市","street":"中番"},{"zipCode":"9301316","prefectureKana":"ﾄﾔﾏｹﾝ","cityKana":"ﾄﾔﾏｼ","streetKana":"ﾅｶﾉﾊﾞﾝ(ｼﾝｻｶｴﾏﾁ)","prefecture":"富山県","city":"富山市","street":"中番（新栄町）"},{"zipCode":"9300832","prefectureKana":"ﾄﾔﾏｹﾝ","cityKana":"ﾄﾔﾏｼ","streetKana":"ﾅｶﾌｺﾞ","prefecture":"富山県","city":"富山市","street":"中冨居"},{"zipCode":"9300830","prefectureKana":"ﾄﾔﾏｹﾝ","cityKana":"ﾄﾔﾏｼ","streetKana":"ﾅｶﾌｺﾞｼﾝﾏﾁ","prefecture":"富山県","city":"富山市","street":"中冨居新町"},{"zipCode":"9300831","prefectureKana":"ﾄﾔﾏｹﾝ","cityKana":"ﾄﾔﾏｼ","streetKana":"ﾅﾍﾞﾀ","prefecture":"富山県","city":"富山市","street":"鍋田"},{"zipCode":"9300068","prefectureKana":"ﾄﾔﾏｹﾝ","cityKana":"ﾄﾔﾏｼ","streetKana":"ﾆｼｱｲﾓﾝﾁｮｳ","prefecture":"富山県","city":"富山市","street":"西四十物町"},{"zipCode":"9300165","prefectureKana":"ﾄﾔﾏｹﾝ","cityKana":"ﾄﾔﾏｼ","streetKana":"ﾆｼｵｼｶﾜ","prefecture":"富山県","city":"富山市","street":"西押川"},{"zipCode":"9301324","prefectureKana":"ﾄﾔﾏｹﾝ","cityKana":"ﾄﾔﾏｼ","streetKana":"ﾆｼｵﾏﾀ","prefecture":"富山県","city":"富山市","street":"西小俣"},{"zipCode":"9300143","prefectureKana":"ﾄﾔﾏｹﾝ","cityKana":"ﾄﾔﾏｼ","streetKana":"ﾆｼｶﾅﾔ","prefecture":"富山県","city":"富山市","street":"西金屋"},{"zipCode":"9300073","prefectureKana":"ﾄﾔﾏｹﾝ","cityKana":"ﾄﾔﾏｼ","streetKana":"ﾆｼｻﾝﾉｳﾏﾁ","prefecture":"富山県","city":"富山市","street":"西山王町"},{"zipCode":"9300981","prefectureKana":"ﾄﾔﾏｹﾝ","cityKana":"ﾄﾔﾏｼ","streetKana":"ﾆｼｼﾝｼﾞｮｳ","prefecture":"富山県","city":"富山市","street":"西新庄"},{"zipCode":"9300062","prefectureKana":"ﾄﾔﾏｹﾝ","cityKana":"ﾄﾔﾏｼ","streetKana":"ﾆｼﾁｮｳ","prefecture":"富山県","city":"富山市","street":"西町"},{"zipCode":"9300975","prefectureKana":"ﾄﾔﾏｹﾝ","cityKana":"ﾄﾔﾏｼ","streetKana":"ﾆｼﾅｶﾞｴ","prefecture":"富山県","city":"富山市","street":"西長江"},{"zipCode":"9300961","prefectureKana":"ﾄﾔﾏｹﾝ","cityKana":"ﾄﾔﾏｼ","streetKana":"ﾆｼﾅｶﾞｴﾎﾝﾏﾁ","prefecture":"富山県","city":"富山市","street":"西長江本町"},{"zipCode":"9300177","prefectureKana":"ﾄﾔﾏｹﾝ","cityKana":"ﾄﾔﾏｼ","streetKana":"ﾆｼﾌﾀﾏﾀ","prefecture":"富山県","city":"富山市","street":"西二俣"},{"zipCode":"9302233","prefectureKana":"ﾄﾔﾏｹﾝ","cityKana":"ﾄﾔﾏｼ","streetKana":"ﾇﾉﾒ","prefecture":"富山県","city":"富山市","street":"布目"},{"zipCode":"9302236","prefectureKana":"ﾄﾔﾏｹﾝ","cityKana":"ﾄﾔﾏｼ","streetKana":"ﾇﾉﾒｱｻﾋ","prefecture":"富山県","city":"富山市","street":"布目旭"},{"zipCode":"9302235","prefectureKana":"ﾄﾔﾏｹﾝ","cityKana":"ﾄﾔﾏｼ","streetKana":"ﾇﾉﾒｼﾝﾏﾁ","prefecture":"富山県","city":"富山市","street":"布目新町"},{"zipCode":"9302233","prefectureKana":"ﾄﾔﾏｹﾝ","cityKana":"ﾄﾔﾏｼ","streetKana":"ﾇﾉﾒﾆｼ","prefecture":"富山県","city":"富山市","street":"布目西"},{"zipCode":"9302233","prefectureKana":"ﾄﾔﾏｹﾝ","cityKana":"ﾄﾔﾏｼ","streetKana":"ﾇﾉﾒｷﾀ","prefecture":"富山県","city":"富山市","street":"布目北"},{"zipCode":"9302231","prefectureKana":"ﾄﾔﾏｹﾝ","cityKana":"ﾄﾔﾏｼ","streetKana":"ﾇﾉﾒﾋｶﾞｼﾏﾁ","prefecture":"富山県","city":"富山市","street":"布目東町"},{"zipCode":"9302234","prefectureKana":"ﾄﾔﾏｹﾝ","cityKana":"ﾄﾔﾏｼ","streetKana":"ﾇﾉﾒﾐﾄﾞﾘﾏﾁ","prefecture":"富山県","city":"富山市","street":"布目緑町"},{"zipCode":"9302232","prefectureKana":"ﾄﾔﾏｹﾝ","cityKana":"ﾄﾔﾏｼ","streetKana":"ﾇﾉﾒﾐﾅﾐﾏﾁ","prefecture":"富山県","city":"富山市","street":"布目南町"},{"zipCode":"9300173","prefectureKana":"ﾄﾔﾏｹﾝ","cityKana":"ﾄﾔﾏｼ","streetKana":"ﾉｸﾞﾁ","prefecture":"富山県","city":"富山市","street":"野口"},{"zipCode":"9300173","prefectureKana":"ﾄﾔﾏｹﾝ","cityKana":"ﾄﾔﾏｼ","streetKana":"ﾉｸﾞﾁﾅﾝﾌﾞ","prefecture":"富山県","city":"富山市","street":"野口南部"},{"zipCode":"9300173","prefectureKana":"ﾄﾔﾏｹﾝ","cityKana":"ﾄﾔﾏｼ","streetKana":"ﾉｸﾞﾁﾎｸﾌﾞ","prefecture":"富山県","city":"富山市","street":"野口北部"},{"zipCode":"9300171","prefectureKana":"ﾄﾔﾏｹﾝ","cityKana":"ﾄﾔﾏｼ","streetKana":"ﾉﾉｳｴ","prefecture":"富山県","city":"富山市","street":"野々上"},{"zipCode":"9300174","prefectureKana":"ﾄﾔﾏｹﾝ","cityKana":"ﾄﾔﾏｼ","streetKana":"ﾉﾏﾁ","prefecture":"富山県","city":"富山市","street":"野町"},{"zipCode":"9300069","prefectureKana":"ﾄﾔﾏｹﾝ","cityKana":"ﾄﾔﾏｼ","streetKana":"ﾊﾀｺﾞﾏﾁ","prefecture":"富山県","city":"富山市","street":"旅籠町"},{"zipCode":"9300896","prefectureKana":"ﾄﾔﾏｹﾝ","cityKana":"ﾄﾔﾏｼ","streetKana":"ﾊﾀﾅｶ","prefecture":"富山県","city":"富山市","street":"畑中"},{"zipCode":"9300026","prefectureKana":"ﾄﾔﾏｹﾝ","cityKana":"ﾄﾔﾏｼ","streetKana":"ﾊﾁﾆﾝﾏﾁ","prefecture":"富山県","city":"富山市","street":"八人町"},{"zipCode":"9300112","prefectureKana":"ﾄﾔﾏｹﾝ","cityKana":"ﾄﾔﾏｼ","streetKana":"ﾊｯｶﾔﾏ","prefecture":"富山県","city":"富山市","street":"八ケ山"},{"zipCode":"9302226","prefectureKana":"ﾄﾔﾏｹﾝ","cityKana":"ﾄﾔﾏｼ","streetKana":"ﾊｯﾁｮｳ","prefecture":"富山県","city":"富山市","street":"八町"},{"zipCode":"9302226","prefectureKana":"ﾄﾔﾏｹﾝ","cityKana":"ﾄﾔﾏｼ","streetKana":"ﾊｯﾁｮｳﾅｶ","prefecture":"富山県","city":"富山市","street":"八町中"},{"zipCode":"9302226","prefectureKana":"ﾄﾔﾏｹﾝ","cityKana":"ﾄﾔﾏｼ","streetKana":"ﾊｯﾁｮｳﾋｶﾞｼ","prefecture":"富山県","city":"富山市","street":"八町東"},{"zipCode":"9302226","prefectureKana":"ﾄﾔﾏｹﾝ","cityKana":"ﾄﾔﾏｼ","streetKana":"ﾊｯﾁｮｳﾆｼ","prefecture":"富山県","city":"富山市","street":"八町西"},{"zipCode":"9302226","prefectureKana":"ﾄﾔﾏｹﾝ","cityKana":"ﾄﾔﾏｼ","streetKana":"ﾊｯﾁｮｳﾐﾅﾐ","prefecture":"富山県","city":"富山市","street":"八町南"},{"zipCode":"9301326","prefectureKana":"ﾄﾔﾏｹﾝ","cityKana":"ﾄﾔﾏｼ","streetKana":"ﾊﾅｻｷ","prefecture":"富山県","city":"富山市","street":"花崎"},{"zipCode":"9302226","prefectureKana":"ﾄﾔﾏｹﾝ","cityKana":"ﾄﾔﾏｼ","streetKana":"ﾊｯﾁｮｳｷﾀ","prefecture":"富山県","city":"富山市","street":"八町北"},{"zipCode":"9300162","prefectureKana":"ﾄﾔﾏｹﾝ","cityKana":"ﾄﾔﾏｼ","streetKana":"ﾊﾅﾉｷ","prefecture":"富山県","city":"富山市","street":"花木"},{"zipCode":"9300864","prefectureKana":"ﾄﾔﾏｹﾝ","cityKana":"ﾄﾔﾏｼ","streetKana":"ﾊﾈ","prefecture":"富山県","city":"富山市","street":"羽根"},{"zipCode":"9301454","prefectureKana":"ﾄﾔﾏｹﾝ","cityKana":"ﾄﾔﾏｼ","streetKana":"ﾊﾗ","prefecture":"富山県","city":"富山市","street":"原"},{"zipCode":"9301453","prefectureKana":"ﾄﾔﾏｹﾝ","cityKana":"ﾄﾔﾏｼ","streetKana":"ﾊﾗ(ｺﾞｸﾗｸｻﾞｶ)","prefecture":"富山県","city":"富山市","street":"原（極楽坂）"},{"zipCode":"9301283","prefectureKana":"ﾄﾔﾏｹﾝ","cityKana":"ﾄﾔﾏｼ","streetKana":"ﾋｵ","prefecture":"富山県","city":"富山市","street":"日尾"},{"zipCode":"9300964","prefectureKana":"ﾄﾔﾏｹﾝ","cityKana":"ﾄﾔﾏｼ","streetKana":"ﾋｶﾞｼｲｼｶﾞﾈﾏﾁ","prefecture":"富山県","city":"富山市","street":"東石金町"},{"zipCode":"9300161","prefectureKana":"ﾄﾔﾏｹﾝ","cityKana":"ﾄﾔﾏｼ","streetKana":"ﾋｶﾞｼｵｲﾀﾞ","prefecture":"富山県","city":"富山市","street":"東老田"},{"zipCode":"9301323","prefectureKana":"ﾄﾔﾏｹﾝ","cityKana":"ﾄﾔﾏｼ","streetKana":"ﾋｶﾞｼｵﾏﾀ","prefecture":"富山県","city":"富山市","street":"東小俣"},{"zipCode":"9301262","prefectureKana":"ﾄﾔﾏｹﾝ","cityKana":"ﾄﾔﾏｼ","streetKana":"ﾋｶﾞｼｸﾛﾏｷ","prefecture":"富山県","city":"富山市","street":"東黒牧"},{"zipCode":"9301263","prefectureKana":"ﾄﾔﾏｹﾝ","cityKana":"ﾄﾔﾏｼ","streetKana":"ﾋｶﾞｼｸﾛﾏｷ(ｳﾜﾉ)","prefecture":"富山県","city":"富山市","street":"東黒牧（上野）"},{"zipCode":"9300017","prefectureKana":"ﾄﾔﾏｹﾝ","cityKana":"ﾄﾔﾏｼ","streetKana":"ﾋｶﾞｼﾃﾞﾝﾁﾞｶﾞﾀﾏﾁ","prefecture":"富山県","city":"富山市","street":"東田地方町"},{"zipCode":"9301281","prefectureKana":"ﾄﾔﾏｹﾝ","cityKana":"ﾄﾔﾏｼ","streetKana":"ﾋｶﾞｼﾌｸｻﾜ","prefecture":"富山県","city":"富山市","street":"東福沢"},{"zipCode":"9301261","prefectureKana":"ﾄﾔﾏｹﾝ","cityKana":"ﾄﾔﾏｼ","streetKana":"ﾋｶﾞｼﾌｸｻﾜ(ﾂｹﾞ)","prefecture":"富山県","city":"富山市","street":"東福沢（津毛）"},{"zipCode":"9301287","prefectureKana":"ﾄﾔﾏｹﾝ","cityKana":"ﾄﾔﾏｼ","streetKana":"ﾋｶﾞｼﾌｸｻﾜ(ﾋﾄﾞﾛ)","prefecture":"富山県","city":"富山市","street":"東福沢（火土呂）"},{"zipCode":"9300039","prefectureKana":"ﾄﾔﾏｹﾝ","cityKana":"ﾄﾔﾏｼ","streetKana":"ﾋｶﾞｼﾏﾁ","prefecture":"富山県","city":"富山市","street":"東町"},{"zipCode":"9300848","prefectureKana":"ﾄﾔﾏｹﾝ","cityKana":"ﾄﾔﾏｼ","streetKana":"ﾋｻｶﾀﾁｮｳ","prefecture":"富山県","city":"富山市","street":"久方町"},{"zipCode":"9300025","prefectureKana":"ﾄﾔﾏｹﾝ","cityKana":"ﾄﾔﾏｼ","streetKana":"ﾋﾉﾃﾞﾏﾁ","prefecture":"富山県","city":"富山市","street":"日之出町"},{"zipCode":"9300912","prefectureKana":"ﾄﾔﾏｹﾝ","cityKana":"ﾄﾔﾏｼ","streetKana":"ﾋﾏﾀ","prefecture":"富山県","city":"富山市","street":"日俣"},{"zipCode":"9302214","prefectureKana":"ﾄﾔﾏｹﾝ","cityKana":"ﾄﾔﾏｼ","streetKana":"ﾋｬｸﾂﾞｶ","prefecture":"富山県","city":"富山市","street":"百塚"},{"zipCode":"9300885","prefectureKana":"ﾄﾔﾏｹﾝ","cityKana":"ﾄﾔﾏｼ","streetKana":"ﾋﾖﾄﾞﾘｼﾞﾏ","prefecture":"富山県","city":"富山市","street":"鵯島"},{"zipCode":"9300886","prefectureKana":"ﾄﾔﾏｹﾝ","cityKana":"ﾄﾔﾏｼ","streetKana":"ﾋﾖﾄﾞﾘﾐﾅﾐﾀﾞｲ","prefecture":"富山県","city":"富山市","street":"ひよどり南台"},{"zipCode":"9300154","prefectureKana":"ﾄﾔﾏｹﾝ","cityKana":"ﾄﾔﾏｼ","streetKana":"ﾋﾗｵｶ","prefecture":"富山県","city":"富山市","street":"平岡"},{"zipCode":"9300944","prefectureKana":"ﾄﾔﾏｹﾝ","cityKana":"ﾄﾔﾏｼ","streetKana":"ﾋﾗｷ","prefecture":"富山県","city":"富山市","street":"開"},{"zipCode":"9300157","prefectureKana":"ﾄﾔﾏｹﾝ","cityKana":"ﾄﾔﾏｼ","streetKana":"ﾋﾗｷｶﾞｵｶ","prefecture":"富山県","city":"富山市","street":"開ケ丘"},{"zipCode":"9300071","prefectureKana":"ﾄﾔﾏｹﾝ","cityKana":"ﾄﾔﾏｼ","streetKana":"ﾋﾗｷﾏﾁ","prefecture":"富山県","city":"富山市","street":"平吹町"},{"zipCode":"9300833","prefectureKana":"ﾄﾔﾏｹﾝ","cityKana":"ﾄﾔﾏｼ","streetKana":"ﾌｺﾞｻｶｴﾏﾁ","prefecture":"富山県","city":"富山市","street":"冨居栄町"},{"zipCode":"9300965","prefectureKana":"ﾄﾔﾏｹﾝ","cityKana":"ﾄﾔﾏｼ","streetKana":"ﾌｼﾞｺｼﾎﾝﾏﾁ","prefecture":"富山県","city":"富山市","street":"不二越本町"},{"zipCode":"9300963","prefectureKana":"ﾄﾔﾏｹﾝ","cityKana":"ﾄﾔﾏｼ","streetKana":"ﾌｼﾞｺｼﾏﾁ","prefecture":"富山県","city":"富山市","street":"不二越町"},{"zipCode":"9300943","prefectureKana":"ﾄﾔﾏｹﾝ","cityKana":"ﾄﾔﾏｼ","streetKana":"ﾌｼﾞｼﾛﾁｮｳ","prefecture":"富山県","city":"富山市","street":"藤代町"},{"zipCode":"9300936","prefectureKana":"ﾄﾔﾏｹﾝ","cityKana":"ﾄﾔﾏｼ","streetKana":"ﾌｼﾞﾉｷ","prefecture":"富山県","city":"富山市","street":"藤木"},{"zipCode":"9300933","prefectureKana":"ﾄﾔﾏｹﾝ","cityKana":"ﾄﾔﾏｼ","streetKana":"ﾌｼﾞﾉｷｼﾝ","prefecture":"富山県","city":"富山市","street":"藤木新"},{"zipCode":"9300932","prefectureKana":"ﾄﾔﾏｹﾝ","cityKana":"ﾄﾔﾏｼ","streetKana":"ﾌｼﾞﾉｷｼﾝﾏﾁ","prefecture":"富山県","city":"富山市","street":"藤木新町"},{"zipCode":"9300942","prefectureKana":"ﾄﾔﾏｹﾝ","cityKana":"ﾄﾔﾏｼ","streetKana":"ﾌｼﾞﾉｷｿﾉﾏﾁ","prefecture":"富山県","city":"富山市","street":"藤の木園町"},{"zipCode":"9300934","prefectureKana":"ﾄﾔﾏｹﾝ","cityKana":"ﾄﾔﾏｼ","streetKana":"ﾌｼﾞﾉｷﾀﾞｲ","prefecture":"富山県","city":"富山市","street":"藤の木台"},{"zipCode":"9300941","prefectureKana":"ﾄﾔﾏｹﾝ","cityKana":"ﾄﾔﾏｼ","streetKana":"ﾌｼﾞﾉｷﾅｶﾏﾁ","prefecture":"富山県","city":"富山市","street":"藤木中町"},{"zipCode":"9300935","prefectureKana":"ﾄﾔﾏｹﾝ","cityKana":"ﾄﾔﾏｼ","streetKana":"ﾌｼﾞﾐﾁｮｳ","prefecture":"富山県","city":"富山市","street":"藤見町"},{"zipCode":"9300098","prefectureKana":"ﾄﾔﾏｹﾝ","cityKana":"ﾄﾔﾏｼ","streetKana":"ﾌﾅﾊｼｲﾏﾏﾁ","prefecture":"富山県","city":"富山市","street":"舟橋今町"},{"zipCode":"9300096","prefectureKana":"ﾄﾔﾏｹﾝ","cityKana":"ﾄﾔﾏｼ","streetKana":"ﾌﾅﾊｼｷﾀﾏﾁ","prefecture":"富山県","city":"富山市","street":"舟橋北町"},{"zipCode":"9300095","prefectureKana":"ﾄﾔﾏｹﾝ","cityKana":"ﾄﾔﾏｼ","streetKana":"ﾌﾅﾊｼﾐﾅﾐﾁｮｳ","prefecture":"富山県","city":"富山市","street":"舟橋南町"},{"zipCode":"9300058","prefectureKana":"ﾄﾔﾏｹﾝ","cityKana":"ﾄﾔﾏｼ","streetKana":"ﾌﾙｶｼﾞﾏﾁ","prefecture":"富山県","city":"富山市","street":"古鍛冶町"},{"zipCode":"9302208","prefectureKana":"ﾄﾔﾏｹﾝ","cityKana":"ﾄﾔﾏｼ","streetKana":"ﾌﾙｶﾜ","prefecture":"富山県","city":"富山市","street":"古川"},{"zipCode":"9300151","prefectureKana":"ﾄﾔﾏｹﾝ","cityKana":"ﾄﾔﾏｼ","streetKana":"ﾌﾙｻﾜ","prefecture":"富山県","city":"富山市","street":"古沢"},{"zipCode":"9300876","prefectureKana":"ﾄﾔﾏｹﾝ","cityKana":"ﾄﾔﾏｼ","streetKana":"ﾌﾞﾝｷｮｳﾏﾁ","prefecture":"富山県","city":"富山市","street":"文京町"},{"zipCode":"9300065","prefectureKana":"ﾄﾔﾏｹﾝ","cityKana":"ﾄﾔﾏｼ","streetKana":"ﾎｼｲﾁｮｳ","prefecture":"富山県","city":"富山市","street":"星井町"},{"zipCode":"9300074","prefectureKana":"ﾄﾔﾏｹﾝ","cityKana":"ﾄﾔﾏｼ","streetKana":"ﾎﾘﾊﾀﾏﾁ","prefecture":"富山県","city":"富山市","street":"堀端町"},{"zipCode":"9301455","prefectureKana":"ﾄﾔﾏｹﾝ","cityKana":"ﾄﾔﾏｼ","streetKana":"ﾎﾝｸﾞｳ","prefecture":"富山県","city":"富山市","street":"本宮"},{"zipCode":"9301451","prefectureKana":"ﾄﾔﾏｹﾝ","cityKana":"ﾄﾔﾏｼ","streetKana":"ﾎﾝｸﾞｳ(ｱﾜｽﾉ)","prefecture":"富山県","city":"富山市","street":"本宮（粟巣野）"},{"zipCode":"9301452","prefectureKana":"ﾄﾔﾏｹﾝ","cityKana":"ﾄﾔﾏｼ","streetKana":"ﾎﾝｸﾞｳ(ﾊﾅｷﾘﾜﾘ)","prefecture":"富山県","city":"富山市","street":"本宮（花切割）"},{"zipCode":"9300108","prefectureKana":"ﾄﾔﾏｹﾝ","cityKana":"ﾄﾔﾏｼ","streetKana":"ﾎﾝｺﾞｳ","prefecture":"富山県","city":"富山市","street":"本郷"},{"zipCode":"9300911","prefectureKana":"ﾄﾔﾏｹﾝ","cityKana":"ﾄﾔﾏｼ","streetKana":"ﾎﾝｺﾞｳｼﾞﾏ","prefecture":"富山県","city":"富山市","street":"本郷島"},{"zipCode":"9300108","prefectureKana":"ﾄﾔﾏｹﾝ","cityKana":"ﾄﾔﾏｼ","streetKana":"ﾎﾝｺﾞｳﾁｭｳﾌﾞ","prefecture":"富山県","city":"富山市","street":"本郷中部"},{"zipCode":"9300108","prefectureKana":"ﾄﾔﾏｹﾝ","cityKana":"ﾄﾔﾏｼ","streetKana":"ﾎﾝｺﾞｳﾄｳﾌﾞ","prefecture":"富山県","city":"富山市","street":"本郷東部"},{"zipCode":"9300108","prefectureKana":"ﾄﾔﾏｹﾝ","cityKana":"ﾄﾔﾏｼ","streetKana":"ﾎﾝｺﾞｳｾｲﾌﾞ","prefecture":"富山県","city":"富山市","street":"本郷西部"},{"zipCode":"9300108","prefectureKana":"ﾄﾔﾏｹﾝ","cityKana":"ﾄﾔﾏｼ","streetKana":"ﾎﾝｺﾞｳﾎｸﾌﾞ","prefecture":"富山県","city":"富山市","street":"本郷北部"},{"zipCode":"9300029","prefectureKana":"ﾄﾔﾏｹﾝ","cityKana":"ﾄﾔﾏｼ","streetKana":"ﾎﾝﾏﾁ","prefecture":"富山県","city":"富山市","street":"本町"},{"zipCode":"9300081","prefectureKana":"ﾄﾔﾏｹﾝ","cityKana":"ﾄﾔﾏｼ","streetKana":"ﾎﾝﾏﾙ","prefecture":"富山県","city":"富山市","street":"本丸"},{"zipCode":"9301465","prefectureKana":"ﾄﾔﾏｹﾝ","cityKana":"ﾄﾔﾏｼ","streetKana":"ﾏｷ","prefecture":"富山県","city":"富山市","street":"牧"},{"zipCode":"9301282","prefectureKana":"ﾄﾔﾏｹﾝ","cityKana":"ﾄﾔﾏｼ","streetKana":"ﾏｷﾉ","prefecture":"富山県","city":"富山市","street":"牧野"},{"zipCode":"9301301","prefectureKana":"ﾄﾔﾏｹﾝ","cityKana":"ﾄﾔﾏｼ","streetKana":"ﾏｾｸﾞﾁ","prefecture":"富山県","city":"富山市","street":"馬瀬口"},{"zipCode":"9301302","prefectureKana":"ﾄﾔﾏｹﾝ","cityKana":"ﾄﾔﾏｼ","streetKana":"ﾏｾｸﾞﾁ(ﾄﾉｻﾏﾊﾞﾔｼ)","prefecture":"富山県","city":"富山市","street":"馬瀬口（殿様林）"},{"zipCode":"9300923","prefectureKana":"ﾄﾔﾏｹﾝ","cityKana":"ﾄﾔﾏｼ","streetKana":"ﾏﾁｼﾝ","prefecture":"富山県","city":"富山市","street":"町新"},{"zipCode":"9300952","prefectureKana":"ﾄﾔﾏｹﾝ","cityKana":"ﾄﾔﾏｼ","streetKana":"ﾏﾁﾑﾗ","prefecture":"富山県","city":"富山市","street":"町村"},{"zipCode":"9302213","prefectureKana":"ﾄﾔﾏｹﾝ","cityKana":"ﾄﾔﾏｼ","streetKana":"ﾏﾂﾉｷ","prefecture":"富山県","city":"富山市","street":"松木"},{"zipCode":"9302212","prefectureKana":"ﾄﾔﾏｹﾝ","cityKana":"ﾄﾔﾏｼ","streetKana":"ﾏﾂﾉｷｼﾝ","prefecture":"富山県","city":"富山市","street":"松木新"},{"zipCode":"9300812","prefectureKana":"ﾄﾔﾏｹﾝ","cityKana":"ﾄﾔﾏｼ","streetKana":"ﾏﾂﾜｶﾁｮｳ","prefecture":"富山県","city":"富山市","street":"松若町"},{"zipCode":"9300085","prefectureKana":"ﾄﾔﾏｹﾝ","cityKana":"ﾄﾔﾏｼ","streetKana":"ﾏﾙﾉｳﾁ","prefecture":"富山県","city":"富山市","street":"丸の内"},{"zipCode":"9301463","prefectureKana":"ﾄﾔﾏｹﾝ","cityKana":"ﾄﾔﾏｼ","streetKana":"ﾐｽﾞｽ","prefecture":"富山県","city":"富山市","street":"水須"},{"zipCode":"9300038","prefectureKana":"ﾄﾔﾏｹﾝ","cityKana":"ﾄﾔﾏｼ","streetKana":"ﾐﾄﾞﾘﾁｮｳ","prefecture":"富山県","city":"富山市","street":"緑町"},{"zipCode":"9300805","prefectureKana":"ﾄﾔﾏｹﾝ","cityKana":"ﾄﾔﾏｼ","streetKana":"ﾐﾅﾄｲﾘﾌﾈﾁｮｳ","prefecture":"富山県","city":"富山市","street":"湊入船町"},{"zipCode":"9301304","prefectureKana":"ﾄﾔﾏｹﾝ","cityKana":"ﾄﾔﾏｼ","streetKana":"ﾐﾅﾐｵｵﾊﾞ","prefecture":"富山県","city":"富山市","street":"南大場"},{"zipCode":"9300054","prefectureKana":"ﾄﾔﾏｹﾝ","cityKana":"ﾄﾔﾏｼ","streetKana":"ﾐﾅﾐｼﾝﾏﾁ","prefecture":"富山県","city":"富山市","street":"南新町"},{"zipCode":"9300056","prefectureKana":"ﾄﾔﾏｹﾝ","cityKana":"ﾄﾔﾏｼ","streetKana":"ﾐﾅﾐﾀﾞﾏﾁ","prefecture":"富山県","city":"富山市","street":"南田町"},{"zipCode":"9301314","prefectureKana":"ﾄﾔﾏｹﾝ","cityKana":"ﾄﾔﾏｼ","streetKana":"ﾐﾑﾛｱﾗﾔ","prefecture":"富山県","city":"富山市","street":"三室荒屋"},{"zipCode":"9301316","prefectureKana":"ﾄﾔﾏｹﾝ","cityKana":"ﾄﾔﾏｼ","streetKana":"ﾐﾑﾛｱﾗﾔ(ｼﾝｻｶｴﾏﾁ)","prefecture":"富山県","city":"富山市","street":"三室荒屋（新栄町）"},{"zipCode":"9302211","prefectureKana":"ﾄﾔﾏｹﾝ","cityKana":"ﾄﾔﾏｼ","streetKana":"ﾐﾔｵ","prefecture":"富山県","city":"富山市","street":"宮尾"},{"zipCode":"9300902","prefectureKana":"ﾄﾔﾏｹﾝ","cityKana":"ﾄﾔﾏｼ","streetKana":"ﾐﾔﾅﾘｼﾝ","prefecture":"富山県","city":"富山市","street":"宮成新"},{"zipCode":"9300916","prefectureKana":"ﾄﾔﾏｹﾝ","cityKana":"ﾄﾔﾏｼ","streetKana":"ﾑｶｲｼﾝｼﾞｮｳ","prefecture":"富山県","city":"富山市","street":"向新庄"},{"zipCode":"9300916","prefectureKana":"ﾄﾔﾏｹﾝ","cityKana":"ﾄﾔﾏｼ","streetKana":"ﾑｶｲｼﾝｼﾞｮｳﾏﾁ","prefecture":"富山県","city":"富山市","street":"向新庄町"},{"zipCode":"9300041","prefectureKana":"ﾄﾔﾏｹﾝ","cityKana":"ﾄﾔﾏｼ","streetKana":"ﾑｺｳｶﾞﾜﾗﾏﾁ","prefecture":"富山県","city":"富山市","street":"向川原町"},{"zipCode":"9300051","prefectureKana":"ﾄﾔﾏｹﾝ","cityKana":"ﾄﾔﾏｼ","streetKana":"ﾑﾛﾏﾁﾄﾞｵﾘ","prefecture":"富山県","city":"富山市","street":"室町通り"},{"zipCode":"9300001","prefectureKana":"ﾄﾔﾏｹﾝ","cityKana":"ﾄﾔﾏｼ","streetKana":"ﾒｲﾘﾝﾁｮｳ","prefecture":"富山県","city":"富山市","street":"明輪町"},{"zipCode":"9300033","prefectureKana":"ﾄﾔﾏｹﾝ","cityKana":"ﾄﾔﾏｼ","streetKana":"ﾓﾄﾏﾁ","prefecture":"富山県","city":"富山市","street":"元町"},{"zipCode":"9300072","prefectureKana":"ﾄﾔﾏｹﾝ","cityKana":"ﾄﾔﾏｼ","streetKana":"ﾓﾓﾉｲﾁｮｳ","prefecture":"富山県","city":"富山市","street":"桃井町"},{"zipCode":"9301325","prefectureKana":"ﾄﾔﾏｹﾝ","cityKana":"ﾄﾔﾏｼ","streetKana":"ﾓﾝｼﾞｭｼﾞ","prefecture":"富山県","city":"富山市","street":"文珠寺"},{"zipCode":"9300092","prefectureKana":"ﾄﾔﾏｹﾝ","cityKana":"ﾄﾔﾏｼ","streetKana":"ﾔｽﾀﾞﾏﾁ","prefecture":"富山県","city":"富山市","street":"安田町"},{"zipCode":"9300087","prefectureKana":"ﾄﾔﾏｹﾝ","cityKana":"ﾄﾔﾏｼ","streetKana":"ﾔｽﾉﾔﾁｮｳ","prefecture":"富山県","city":"富山市","street":"安野屋町"},{"zipCode":"9300016","prefectureKana":"ﾄﾔﾏｹﾝ","cityKana":"ﾄﾔﾏｼ","streetKana":"ﾔﾅｷﾞﾏﾁ","prefecture":"富山県","city":"富山市","street":"柳町"},{"zipCode":"9302222","prefectureKana":"ﾄﾔﾏｹﾝ","cityKana":"ﾄﾔﾏｼ","streetKana":"ﾔﾊﾀ","prefecture":"富山県","city":"富山市","street":"八幡"},{"zipCode":"9302223","prefectureKana":"ﾄﾔﾏｹﾝ","cityKana":"ﾄﾔﾏｼ","streetKana":"ﾔﾊﾀｼﾝﾏﾁ","prefecture":"富山県","city":"富山市","street":"八幡新町"},{"zipCode":"9302215","prefectureKana":"ﾄﾔﾏｹﾝ","cityKana":"ﾄﾔﾏｼ","streetKana":"ﾔﾏｷﾞｼ","prefecture":"富山県","city":"富山市","street":"山岸"},{"zipCode":"9302117","prefectureKana":"ﾄﾔﾏｹﾝ","cityKana":"ﾄﾔﾏｼ","streetKana":"ﾔﾏﾀﾞｱｶﾒﾀﾞﾆ","prefecture":"富山県","city":"富山市","street":"山田赤目谷"},{"zipCode":"9302114","prefectureKana":"ﾄﾔﾏｹﾝ","cityKana":"ﾄﾔﾏｼ","streetKana":"ﾔﾏﾀﾞｲﾌﾞﾈ","prefecture":"富山県","city":"富山市","street":"山田居舟"},{"zipCode":"9302125","prefectureKana":"ﾄﾔﾏｹﾝ","cityKana":"ﾄﾔﾏｼ","streetKana":"ﾔﾏﾀﾞｲﾏﾔﾏﾀﾞ","prefecture":"富山県","city":"富山市","street":"山田今山田"},{"zipCode":"9302111","prefectureKana":"ﾄﾔﾏｹﾝ","cityKana":"ﾄﾔﾏｼ","streetKana":"ﾔﾏﾀﾞｶﾏｸﾗ","prefecture":"富山県","city":"富山市","street":"山田鎌倉"},{"zipCode":"9302106","prefectureKana":"ﾄﾔﾏｹﾝ","cityKana":"ﾄﾔﾏｼ","streetKana":"ﾔﾏﾀﾞｷﾀﾔﾏ","prefecture":"富山県","city":"富山市","street":"山田北山"},{"zipCode":"9302123","prefectureKana":"ﾄﾔﾏｹﾝ","cityKana":"ﾄﾔﾏｼ","streetKana":"ﾔﾏﾀﾞｺｼﾞﾏ","prefecture":"富山県","city":"富山市","street":"山田小島"},{"zipCode":"9302122","prefectureKana":"ﾄﾔﾏｹﾝ","cityKana":"ﾄﾔﾏｼ","streetKana":"ﾔﾏﾀﾞｺｼﾞﾏ(ｼﾞｮｳﾔﾏ)","prefecture":"富山県","city":"富山市","street":"山田小島（城山）"},{"zipCode":"9302115","prefectureKana":"ﾄﾔﾏｹﾝ","cityKana":"ﾄﾔﾏｼ","streetKana":"ﾔﾏﾀﾞｺﾀﾞﾆ","prefecture":"富山県","city":"富山市","street":"山田小谷"},{"zipCode":"9302116","prefectureKana":"ﾄﾔﾏｹﾝ","cityKana":"ﾄﾔﾏｼ","streetKana":"ﾔﾏﾀﾞｺﾀﾞﾆ(ﾅｶﾈ)","prefecture":"富山県","city":"富山市","street":"山田小谷（中根）"},{"zipCode":"9302126","prefectureKana":"ﾄﾔﾏｹﾝ","cityKana":"ﾄﾔﾏｼ","streetKana":"ﾔﾏﾀﾞｼｮｳｽﾞ","prefecture":"富山県","city":"富山市","street":"山田清水"},{"zipCode":"9302121","prefectureKana":"ﾄﾔﾏｹﾝ","cityKana":"ﾄﾔﾏｼ","streetKana":"ﾔﾏﾀﾞｼﾛｲﾀﾞﾆ","prefecture":"富山県","city":"富山市","street":"山田白井谷"},{"zipCode":"9302102","prefectureKana":"ﾄﾔﾏｹﾝ","cityKana":"ﾄﾔﾏｼ","streetKana":"ﾔﾏﾀﾞｽｸﾎﾞｳ","prefecture":"富山県","city":"富山市","street":"山田宿坊"},{"zipCode":"9302104","prefectureKana":"ﾄﾔﾏｹﾝ","cityKana":"ﾄﾔﾏｼ","streetKana":"ﾔﾏﾀﾞｽｸﾎﾞｳ(ｿｳﾚ)","prefecture":"富山県","city":"富山市","street":"山田宿坊（沢連）"},{"zipCode":"9302103","prefectureKana":"ﾄﾔﾏｹﾝ","cityKana":"ﾄﾔﾏｼ","streetKana":"ﾔﾏﾀﾞｽｸﾎﾞｳ(ﾔﾅｲｺﾞ)","prefecture":"富山県","city":"富山市","street":"山田宿坊（柳川）"},{"zipCode":"9302113","prefectureKana":"ﾄﾔﾏｹﾝ","cityKana":"ﾄﾔﾏｼ","streetKana":"ﾔﾏﾀﾞﾀﾆ","prefecture":"富山県","city":"富山市","street":"山田谷"},{"zipCode":"9302101","prefectureKana":"ﾄﾔﾏｹﾝ","cityKana":"ﾄﾔﾏｼ","streetKana":"ﾔﾏﾀﾞﾅｶﾉｾ","prefecture":"富山県","city":"富山市","street":"山田中瀬"},{"zipCode":"9302108","prefectureKana":"ﾄﾔﾏｹﾝ","cityKana":"ﾄﾔﾏｼ","streetKana":"ﾔﾏﾀﾞﾅｶﾉｾ(ｶﾐﾅｶﾉｾ)","prefecture":"富山県","city":"富山市","street":"山田中瀬（上中瀬）"},{"zipCode":"9302107","prefectureKana":"ﾄﾔﾏｹﾝ","cityKana":"ﾄﾔﾏｼ","streetKana":"ﾔﾏﾀﾞﾅｶﾉｾ(ﾀｹﾉｳﾁ)","prefecture":"富山県","city":"富山市","street":"山田中瀬（竹の内）"},{"zipCode":"9302124","prefectureKana":"ﾄﾔﾏｹﾝ","cityKana":"ﾄﾔﾏｼ","streetKana":"ﾔﾏﾀﾞﾅｶﾑﾗ","prefecture":"富山県","city":"富山市","street":"山田中村"},{"zipCode":"9302114","prefectureKana":"ﾄﾔﾏｹﾝ","cityKana":"ﾄﾔﾏｼ","streetKana":"ﾔﾏﾀﾞﾅﾍﾞﾀﾆ","prefecture":"富山県","city":"富山市","street":"山田鍋谷"},{"zipCode":"9302128","prefectureKana":"ﾄﾔﾏｹﾝ","cityKana":"ﾄﾔﾏｼ","streetKana":"ﾔﾏﾀﾞﾇﾏﾉﾏﾀ","prefecture":"富山県","city":"富山市","street":"山田沼又"},{"zipCode":"9302127","prefectureKana":"ﾄﾔﾏｹﾝ","cityKana":"ﾄﾔﾏｼ","streetKana":"ﾔﾏﾀﾞﾏｷ","prefecture":"富山県","city":"富山市","street":"山田牧"},{"zipCode":"9302105","prefectureKana":"ﾄﾔﾏｹﾝ","cityKana":"ﾄﾔﾏｼ","streetKana":"ﾔﾏﾀﾞﾕ","prefecture":"富山県","city":"富山市","street":"山田湯"},{"zipCode":"9302112","prefectureKana":"ﾄﾔﾏｹﾝ","cityKana":"ﾄﾔﾏｼ","streetKana":"ﾔﾏﾀﾞﾜｶﾂﾞﾁ","prefecture":"富山県","city":"富山市","street":"山田若土"},{"zipCode":"9300156","prefectureKana":"ﾄﾔﾏｹﾝ","cityKana":"ﾄﾔﾏｼ","streetKana":"ﾔﾏﾓﾄ","prefecture":"富山県","city":"富山市","street":"山本"},{"zipCode":"9300019","prefectureKana":"ﾄﾔﾏｹﾝ","cityKana":"ﾄﾔﾏｼ","streetKana":"ﾔﾖｲﾁｮｳ","prefecture":"富山県","city":"富山市","street":"弥生町"},{"zipCode":"9302243","prefectureKana":"ﾄﾔﾏｹﾝ","cityKana":"ﾄﾔﾏｼ","streetKana":"ﾖｶﾀ","prefecture":"富山県","city":"富山市","street":"四方"},{"zipCode":"9302243","prefectureKana":"ﾄﾔﾏｹﾝ","cityKana":"ﾄﾔﾏｼ","streetKana":"ﾖｶﾀｱﾗﾔ","prefecture":"富山県","city":"富山市","street":"四方荒屋"},{"zipCode":"9302255","prefectureKana":"ﾄﾔﾏｹﾝ","cityKana":"ﾄﾔﾏｼ","streetKana":"ﾖｶﾀｲﾁﾊﾞﾝﾏﾁ","prefecture":"富山県","city":"富山市","street":"四方一番町"},{"zipCode":"9302245","prefectureKana":"ﾄﾔﾏｹﾝ","cityKana":"ﾄﾔﾏｼ","streetKana":"ﾖｶﾀｴﾀﾞｲﾏﾁ","prefecture":"富山県","city":"富山市","street":"四方江代町"},{"zipCode":"9302258","prefectureKana":"ﾄﾔﾏｹﾝ","cityKana":"ﾄﾔﾏｼ","streetKana":"ﾖｶﾀｴﾋﾞｽﾏﾁ","prefecture":"富山県","city":"富山市","street":"四方恵比須町"},{"zipCode":"9302242","prefectureKana":"ﾄﾔﾏｹﾝ","cityKana":"ﾄﾔﾏｼ","streetKana":"ﾖｶﾀｷﾀｸﾎﾞ","prefecture":"富山県","city":"富山市","street":"四方北窪"},{"zipCode":"9302246","prefectureKana":"ﾄﾔﾏｹﾝ","cityKana":"ﾄﾔﾏｼ","streetKana":"ﾖｶﾀｼﾝ","prefecture":"富山県","city":"富山市","street":"四方新"},{"zipCode":"9302247","prefectureKana":"ﾄﾔﾏｹﾝ","cityKana":"ﾄﾔﾏｼ","streetKana":"ﾖｶﾀｼﾝﾃﾞﾏﾁ","prefecture":"富山県","city":"富山市","street":"四方新出町"},{"zipCode":"9302254","prefectureKana":"ﾄﾔﾏｹﾝ","cityKana":"ﾄﾔﾏｼ","streetKana":"ﾖｶﾀｼﾝﾒｲﾏﾁ","prefecture":"富山県","city":"富山市","street":"四方神明町"},{"zipCode":"9302253","prefectureKana":"ﾄﾔﾏｹﾝ","cityKana":"ﾄﾔﾏｼ","streetKana":"ﾖｶﾀﾀﾏﾁ","prefecture":"富山県","city":"富山市","street":"四方田町"},{"zipCode":"9302244","prefectureKana":"ﾄﾔﾏｹﾝ","cityKana":"ﾄﾔﾏｼ","streetKana":"ﾖｶﾀﾁｬｴﾝﾏﾁ","prefecture":"富山県","city":"富山市","street":"四方茶園町"},{"zipCode":"9302241","prefectureKana":"ﾄﾔﾏｹﾝ","cityKana":"ﾄﾔﾏｼ","streetKana":"ﾖｶﾀﾆｼｲﾜｾ","prefecture":"富山県","city":"富山市","street":"四方西岩瀬"},{"zipCode":"9302252","prefectureKana":"ﾄﾔﾏｹﾝ","cityKana":"ﾄﾔﾏｼ","streetKana":"ﾖｶﾀﾆｼﾉﾜﾘﾏﾁ","prefecture":"富山県","city":"富山市","street":"四方西野割町"},{"zipCode":"9302257","prefectureKana":"ﾄﾔﾏｹﾝ","cityKana":"ﾄﾔﾏｼ","streetKana":"ﾖｶﾀﾆﾊﾞﾝﾏﾁ","prefecture":"富山県","city":"富山市","street":"四方二番町"},{"zipCode":"9302252","prefectureKana":"ﾄﾔﾏｹﾝ","cityKana":"ﾄﾔﾏｼ","streetKana":"ﾖｶﾀﾉﾜﾘﾏﾁ","prefecture":"富山県","city":"富山市","street":"四方野割町"},{"zipCode":"9302251","prefectureKana":"ﾄﾔﾏｹﾝ","cityKana":"ﾄﾔﾏｼ","streetKana":"ﾖｶﾀﾋｶﾞｼﾉﾜﾘﾏﾁ","prefecture":"富山県","city":"富山市","street":"四方東野割町"},{"zipCode":"9302256","prefectureKana":"ﾄﾔﾏｹﾝ","cityKana":"ﾄﾔﾏｼ","streetKana":"ﾖｶﾀﾐﾅﾄﾏﾁ","prefecture":"富山県","city":"富山市","street":"四方港町"},{"zipCode":"9302248","prefectureKana":"ﾄﾔﾏｹﾝ","cityKana":"ﾄﾔﾏｼ","streetKana":"ﾖｶﾀﾐﾅﾐﾏﾁ","prefecture":"富山県","city":"富山市","street":"四方南町"},{"zipCode":"9300142","prefectureKana":"ﾄﾔﾏｹﾝ","cityKana":"ﾄﾔﾏｼ","streetKana":"ﾖｼﾂﾞｸﾘ","prefecture":"富山県","city":"富山市","street":"吉作"},{"zipCode":"9300141","prefectureKana":"ﾄﾔﾏｹﾝ","cityKana":"ﾄﾔﾏｼ","streetKana":"ﾖｼﾂﾞｸﾘｼﾝﾏﾁ","prefecture":"富山県","city":"富山市","street":"吉作新町"},{"zipCode":"9300841","prefectureKana":"ﾄﾔﾏｹﾝ","cityKana":"ﾄﾔﾏｼ","streetKana":"ﾖﾂﾊﾞﾁｮｳ","prefecture":"富山県","city":"富山市","street":"四ツ葉町"},{"zipCode":"9301461","prefectureKana":"ﾄﾔﾏｹﾝ","cityKana":"ﾄﾔﾏｼ","streetKana":"ﾜﾀﾞ","prefecture":"富山県","city":"富山市","street":"和田"},{"zipCode":"9300200","prefectureKana":"ﾄﾔﾏｹﾝ","cityKana":"ﾅｶﾆｲｶﾜｸﾞﾝﾌﾅﾊｼﾑﾗ","streetKana":"ｲｶﾆｹｲｻｲｶﾞﾅｲﾊﾞｱｲ","prefecture":"富山県","city":"中新川郡舟橋村","street":"以下に掲載がない場合"},{"zipCode":"9300287","prefectureKana":"ﾄﾔﾏｹﾝ","cityKana":"ﾅｶﾆｲｶﾜｸﾞﾝﾌﾅﾊｼﾑﾗ","streetKana":"ｲﾅﾘ","prefecture":"富山県","city":"中新川郡舟橋村","street":"稲荷"},{"zipCode":"9300283","prefectureKana":"ﾄﾔﾏｹﾝ","cityKana":"ﾅｶﾆｲｶﾜｸﾞﾝﾌﾅﾊｼﾑﾗ","streetKana":"ｴﾋﾞｴ","prefecture":"富山県","city":"中新川郡舟橋村","street":"海老江"},{"zipCode":"9300288","prefectureKana":"ﾄﾔﾏｹﾝ","cityKana":"ﾅｶﾆｲｶﾜｸﾞﾝﾌﾅﾊｼﾑﾗ","streetKana":"ｸﾆｼｹﾞ","prefecture":"富山県","city":"中新川郡舟橋村","street":"国重"},{"zipCode":"9300289","prefectureKana":"ﾄﾔﾏｹﾝ","cityKana":"ﾅｶﾆｲｶﾜｸﾞﾝﾌﾅﾊｼﾑﾗ","streetKana":"ﾀｹﾉｳﾁ","prefecture":"富山県","city":"中新川郡舟橋村","street":"竹内"},{"zipCode":"9300284","prefectureKana":"ﾄﾔﾏｹﾝ","cityKana":"ﾅｶﾆｲｶﾜｸﾞﾝﾌﾅﾊｼﾑﾗ","streetKana":"ﾀｹﾊﾅ","prefecture":"富山県","city":"中新川郡舟橋村","street":"竹鼻"},{"zipCode":"9300286","prefectureKana":"ﾄﾔﾏｹﾝ","cityKana":"ﾅｶﾆｲｶﾜｸﾞﾝﾌﾅﾊｼﾑﾗ","streetKana":"ﾋｶﾞｼｱｼﾊﾗ","prefecture":"富山県","city":"中新川郡舟橋村","street":"東芦原"},{"zipCode":"9300282","prefectureKana":"ﾄﾔﾏｹﾝ","cityKana":"ﾅｶﾆｲｶﾜｸﾞﾝﾌﾅﾊｼﾑﾗ","streetKana":"ﾌﾞｯｼｮｳｼﾞ","prefecture":"富山県","city":"中新川郡舟橋村","street":"仏生寺"},{"zipCode":"9300281","prefectureKana":"ﾄﾔﾏｹﾝ","cityKana":"ﾅｶﾆｲｶﾜｸﾞﾝﾌﾅﾊｼﾑﾗ","streetKana":"ﾌﾅﾊｼ","prefecture":"富山県","city":"中新川郡舟橋村","street":"舟橋"},{"zipCode":"9300285","prefectureKana":"ﾄﾔﾏｹﾝ","cityKana":"ﾅｶﾆｲｶﾜｸﾞﾝﾌﾅﾊｼﾑﾗ","streetKana":"ﾌﾙｴﾋﾞｴ","prefecture":"富山県","city":"中新川郡舟橋村","street":"古海老江"},{"zipCode":"9300300","prefectureKana":"ﾄﾔﾏｹﾝ","cityKana":"ﾅｶﾆｲｶﾜｸﾞﾝｶﾐｲﾁﾏﾁ","streetKana":"ｲｶﾆｹｲｻｲｶﾞﾅｲﾊﾞｱｲ","prefecture":"富山県","city":"中新川郡上市町","street":"以下に掲載がない場合"},{"zipCode":"9300374","prefectureKana":"ﾄﾔﾏｹﾝ","cityKana":"ﾅｶﾆｲｶﾜｸﾞﾝｶﾐｲﾁﾏﾁ","streetKana":"ｱｲﾉｷｼﾝﾏﾁ","prefecture":"富山県","city":"中新川郡上市町","street":"相ノ木新町"},{"zipCode":"9300384","prefectureKana":"ﾄﾔﾏｹﾝ","cityKana":"ﾅｶﾆｲｶﾜｸﾞﾝｶﾐｲﾁﾏﾁ","streetKana":"ｱｵｲﾃﾞｼﾝ","prefecture":"富山県","city":"中新川郡上市町","street":"青出新"},{"zipCode":"9300331","prefectureKana":"ﾄﾔﾏｹﾝ","cityKana":"ﾅｶﾆｲｶﾜｸﾞﾝｶﾐｲﾁﾏﾁ","streetKana":"ｱｻﾋﾏﾁ","prefecture":"富山県","city":"中新川郡上市町","street":"旭町"},{"zipCode":"9300464","prefectureKana":"ﾄﾔﾏｹﾝ","cityKana":"ﾅｶﾆｲｶﾜｸﾞﾝｶﾐｲﾁﾏﾁ","streetKana":"ｱｿ","prefecture":"富山県","city":"中新川郡上市町","street":"浅生"},{"zipCode":"9300377","prefectureKana":"ﾄﾔﾏｹﾝ","cityKana":"ﾅｶﾆｲｶﾜｸﾞﾝｶﾐｲﾁﾏﾁ","streetKana":"ｱﾗｼﾐｽﾞ","prefecture":"富山県","city":"中新川郡上市町","street":"新清水"},{"zipCode":"9300471","prefectureKana":"ﾄﾔﾏｹﾝ","cityKana":"ﾅｶﾆｲｶﾜｸﾞﾝｶﾐｲﾁﾏﾁ","streetKana":"ｱﾗﾔ","prefecture":"富山県","city":"中新川郡上市町","street":"新屋"},{"zipCode":"9300305","prefectureKana":"ﾄﾔﾏｹﾝ","cityKana":"ﾅｶﾆｲｶﾜｸﾞﾝｶﾐｲﾁﾏﾁ","streetKana":"ｱﾚﾀ","prefecture":"富山県","city":"中新川郡上市町","street":"荒田"},{"zipCode":"9300385","prefectureKana":"ﾄﾔﾏｹﾝ","cityKana":"ﾅｶﾆｲｶﾜｸﾞﾝｶﾐｲﾁﾏﾁ","streetKana":"ｲｲｻﾞｶ","prefecture":"富山県","city":"中新川郡上市町","street":"飯坂"},{"zipCode":"9300387","prefectureKana":"ﾄﾔﾏｹﾝ","cityKana":"ﾅｶﾆｲｶﾜｸﾞﾝｶﾐｲﾁﾏﾁ","streetKana":"ｲｲｻﾞｶｼﾝ","prefecture":"富山県","city":"中新川郡上市町","street":"飯坂新"},{"zipCode":"9300437","prefectureKana":"ﾄﾔﾏｹﾝ","cityKana":"ﾅｶﾆｲｶﾜｸﾞﾝｶﾐｲﾁﾏﾁ","streetKana":"ｲｵﾘ","prefecture":"富山県","city":"中新川郡上市町","street":"伊折"},{"zipCode":"9300332","prefectureKana":"ﾄﾔﾏｹﾝ","cityKana":"ﾅｶﾆｲｶﾜｸﾞﾝｶﾐｲﾁﾏﾁ","streetKana":"ｲｼｳﾗﾁｮｳ","prefecture":"富山県","city":"中新川郡上市町","street":"石浦町"},{"zipCode":"9300302","prefectureKana":"ﾄﾔﾏｹﾝ","cityKana":"ﾅｶﾆｲｶﾜｸﾞﾝｶﾐｲﾁﾏﾁ","streetKana":"ｲｼﾎﾞﾄｹ","prefecture":"富山県","city":"中新川郡上市町","street":"石仏"},{"zipCode":"9300413","prefectureKana":"ﾄﾔﾏｹﾝ","cityKana":"ﾅｶﾆｲｶﾜｸﾞﾝｶﾐｲﾁﾏﾁ","streetKana":"ｲﾁﾉｺｼ","prefecture":"富山県","city":"中新川郡上市町","street":"一の越"},{"zipCode":"9300432","prefectureKana":"ﾄﾔﾏｹﾝ","cityKana":"ﾅｶﾆｲｶﾜｸﾞﾝｶﾐｲﾁﾏﾁ","streetKana":"ｲﾅﾑﾗ","prefecture":"富山県","city":"中新川郡上市町","street":"稲村"},{"zipCode":"9300414","prefectureKana":"ﾄﾔﾏｹﾝ","cityKana":"ﾅｶﾆｲｶﾜｸﾞﾝｶﾐｲﾁﾏﾁ","streetKana":"ｴｲﾀｲ","prefecture":"富山県","city":"中新川郡上市町","street":"永代"},{"zipCode":"9300318","prefectureKana":"ﾄﾔﾏｹﾝ","cityKana":"ﾅｶﾆｲｶﾜｸﾞﾝｶﾐｲﾁﾏﾁ","streetKana":"ｴｶﾞﾐ","prefecture":"富山県","city":"中新川郡上市町","street":"江上"},{"zipCode":"9300317","prefectureKana":"ﾄﾔﾏｹﾝ","cityKana":"ﾅｶﾆｲｶﾜｸﾞﾝｶﾐｲﾁﾏﾁ","streetKana":"ｴﾏﾀ","prefecture":"富山県","city":"中新川郡上市町","street":"江又"},{"zipCode":"9300463","prefectureKana":"ﾄﾔﾏｹﾝ","cityKana":"ﾅｶﾆｲｶﾜｸﾞﾝｶﾐｲﾁﾏﾁ","streetKana":"ｵｵｲﾜ","prefecture":"富山県","city":"中新川郡上市町","street":"大岩"},{"zipCode":"9300465","prefectureKana":"ﾄﾔﾏｹﾝ","cityKana":"ﾅｶﾆｲｶﾜｸﾞﾝｶﾐｲﾁﾏﾁ","streetKana":"ｵｵｻﾜ","prefecture":"富山県","city":"中新川郡上市町","street":"大沢"},{"zipCode":"9300354","prefectureKana":"ﾄﾔﾏｹﾝ","cityKana":"ﾅｶﾆｲｶﾜｸﾞﾝｶﾐｲﾁﾏﾁ","streetKana":"ｵｵﾂﾎﾞ","prefecture":"富山県","city":"中新川郡上市町","street":"大坪"},{"zipCode":"9300462","prefectureKana":"ﾄﾔﾏｹﾝ","cityKana":"ﾅｶﾆｲｶﾜｸﾞﾝｶﾐｲﾁﾏﾁ","streetKana":"ｵｵﾏﾂ","prefecture":"富山県","city":"中新川郡上市町","street":"大松"},{"zipCode":"9300461","prefectureKana":"ﾄﾔﾏｹﾝ","cityKana":"ﾅｶﾆｲｶﾜｸﾞﾝｶﾐｲﾁﾏﾁ","streetKana":"ｵｵﾏﾂｼﾝ","prefecture":"富山県","city":"中新川郡上市町","street":"大松新"},{"zipCode":"9300303","prefectureKana":"ﾄﾔﾏｹﾝ","cityKana":"ﾅｶﾆｲｶﾜｸﾞﾝｶﾐｲﾁﾏﾁ","streetKana":"ｵﾅｶﾞﾀ","prefecture":"富山県","city":"中新川郡上市町","street":"大永田"},{"zipCode":"9300472","prefectureKana":"ﾄﾔﾏｹﾝ","cityKana":"ﾅｶﾆｲｶﾜｸﾞﾝｶﾐｲﾁﾏﾁ","streetKana":"ｵﾅｶﾞﾜ","prefecture":"富山県","city":"中新川郡上市町","street":"女川"},{"zipCode":"9300435","prefectureKana":"ﾄﾔﾏｹﾝ","cityKana":"ﾅｶﾆｲｶﾜｸﾞﾝｶﾐｲﾁﾏﾁ","streetKana":"ｵﾘﾄ","prefecture":"富山県","city":"中新川郡上市町","street":"折戸"},{"zipCode":"9300473","prefectureKana":"ﾄﾔﾏｹﾝ","cityKana":"ﾅｶﾆｲｶﾜｸﾞﾝｶﾐｲﾁﾏﾁ","streetKana":"ｶｷｻﾞﾜ","prefecture":"富山県","city":"中新川郡上市町","street":"柿沢"},{"zipCode":"9300406","prefectureKana":"ﾄﾔﾏｹﾝ","cityKana":"ﾅｶﾆｲｶﾜｸﾞﾝｶﾐｲﾁﾏﾁ","streetKana":"ｶｷｻﾞﾜｼﾝ","prefecture":"富山県","city":"中新川郡上市町","street":"柿沢新"},{"zipCode":"9300346","prefectureKana":"ﾄﾔﾏｹﾝ","cityKana":"ﾅｶﾆｲｶﾜｸﾞﾝｶﾐｲﾁﾏﾁ","streetKana":"ｶｷﾞﾁｮｳ","prefecture":"富山県","city":"中新川郡上市町","street":"鍵町"},{"zipCode":"9300421","prefectureKana":"ﾄﾔﾏｹﾝ","cityKana":"ﾅｶﾆｲｶﾜｸﾞﾝｶﾐｲﾁﾏﾁ","streetKana":"ｶﾀｼﾞ","prefecture":"富山県","city":"中新川郡上市町","street":"片地"},{"zipCode":"9300375","prefectureKana":"ﾄﾔﾏｹﾝ","cityKana":"ﾅｶﾆｲｶﾜｸﾞﾝｶﾐｲﾁﾏﾁ","streetKana":"ｶﾐｱﾗﾏﾀ","prefecture":"富山県","city":"中新川郡上市町","street":"上荒又"},{"zipCode":"9300372","prefectureKana":"ﾄﾔﾏｹﾝ","cityKana":"ﾅｶﾆｲｶﾜｸﾞﾝｶﾐｲﾁﾏﾁ","streetKana":"ｶﾐｷｮｳﾃﾞﾝ","prefecture":"富山県","city":"中新川郡上市町","street":"上経田"},{"zipCode":"9300356","prefectureKana":"ﾄﾔﾏｹﾝ","cityKana":"ﾅｶﾆｲｶﾜｸﾞﾝｶﾐｲﾁﾏﾁ","streetKana":"ｶﾐｼｮｳ","prefecture":"富山県","city":"中新川郡上市町","street":"上正"},{"zipCode":"9300333","prefectureKana":"ﾄﾔﾏｹﾝ","cityKana":"ﾅｶﾆｲｶﾜｸﾞﾝｶﾐｲﾁﾏﾁ","streetKana":"ｶﾐﾅｶﾏﾁ","prefecture":"富山県","city":"中新川郡上市町","street":"上中町"},{"zipCode":"9300352","prefectureKana":"ﾄﾔﾏｹﾝ","cityKana":"ﾅｶﾆｲｶﾜｸﾞﾝｶﾐｲﾁﾏﾁ","streetKana":"ｶﾐﾎｳｵﾝｼﾞ","prefecture":"富山県","city":"中新川郡上市町","street":"上法音寺"},{"zipCode":"9300368","prefectureKana":"ﾄﾔﾏｹﾝ","cityKana":"ﾅｶﾆｲｶﾜｸﾞﾝｶﾐｲﾁﾏﾁ","streetKana":"ｶﾜﾊﾗﾀﾞ","prefecture":"富山県","city":"中新川郡上市町","street":"川原田"},{"zipCode":"9300351","prefectureKana":"ﾄﾔﾏｹﾝ","cityKana":"ﾅｶﾆｲｶﾜｸﾞﾝｶﾐｲﾁﾏﾁ","streetKana":"ｷﾀｼﾞﾏ","prefecture":"富山県","city":"中新川郡上市町","street":"北島"},{"zipCode":"9300347","prefectureKana":"ﾄﾔﾏｹﾝ","cityKana":"ﾅｶﾆｲｶﾜｸﾞﾝｶﾐｲﾁﾏﾁ","streetKana":"ｸﾏﾉﾏﾁ","prefecture":"富山県","city":"中新川郡上市町","street":"熊野町"},{"zipCode":"9300416","prefectureKana":"ﾄﾔﾏｹﾝ","cityKana":"ﾅｶﾆｲｶﾜｸﾞﾝｶﾐｲﾁﾏﾁ","streetKana":"ｸﾛｶﾜ","prefecture":"富山県","city":"中新川郡上市町","street":"黒川"},{"zipCode":"9300434","prefectureKana":"ﾄﾔﾏｹﾝ","cityKana":"ﾅｶﾆｲｶﾜｸﾞﾝｶﾐｲﾁﾏﾁ","streetKana":"ｹﾞﾀﾞ","prefecture":"富山県","city":"中新川郡上市町","street":"下田"},{"zipCode":"9300417","prefectureKana":"ﾄﾔﾏｹﾝ","cityKana":"ﾅｶﾆｲｶﾜｸﾞﾝｶﾐｲﾁﾏﾁ","streetKana":"ｺﾞｲｵ","prefecture":"富山県","city":"中新川郡上市町","street":"五位尾"},{"zipCode":"9300405","prefectureKana":"ﾄﾔﾏｹﾝ","cityKana":"ﾅｶﾆｲｶﾜｸﾞﾝｶﾐｲﾁﾏﾁ","streetKana":"ｺﾞｳｶｷｻﾞﾜ","prefecture":"富山県","city":"中新川郡上市町","street":"郷柿沢"},{"zipCode":"9300451","prefectureKana":"ﾄﾔﾏｹﾝ","cityKana":"ﾅｶﾆｲｶﾜｸﾞﾝｶﾐｲﾁﾏﾁ","streetKana":"ｺﾞｸﾗｸｼﾞ","prefecture":"富山県","city":"中新川郡上市町","street":"極楽寺"},{"zipCode":"9300443","prefectureKana":"ﾄﾔﾏｹﾝ","cityKana":"ﾅｶﾆｲｶﾜｸﾞﾝｶﾐｲﾁﾏﾁ","streetKana":"ｺﾂﾊﾗ","prefecture":"富山県","city":"中新川郡上市町","street":"骨原"},{"zipCode":"9300424","prefectureKana":"ﾄﾔﾏｹﾝ","cityKana":"ﾅｶﾆｲｶﾜｸﾞﾝｶﾐｲﾁﾏﾁ","streetKana":"ｻｲﾉｶﾐｼﾝ","prefecture":"富山県","city":"中新川郡上市町","street":"斉ノ神新"},{"zipCode":"9300335","prefectureKana":"ﾄﾔﾏｹﾝ","cityKana":"ﾅｶﾆｲｶﾜｸﾞﾝｶﾐｲﾁﾏﾁ","streetKana":"ｻｲﾜｲﾁｮｳ","prefecture":"富山県","city":"中新川郡上市町","street":"幸町"},{"zipCode":"9300322","prefectureKana":"ﾄﾔﾏｹﾝ","cityKana":"ﾅｶﾆｲｶﾜｸﾞﾝｶﾐｲﾁﾏﾁ","streetKana":"ｻｶｴﾁｮｳ","prefecture":"富山県","city":"中新川郡上市町","street":"栄町"},{"zipCode":"9300422","prefectureKana":"ﾄﾔﾏｹﾝ","cityKana":"ﾅｶﾆｲｶﾜｸﾞﾝｶﾐｲﾁﾏﾁ","streetKana":"ｻｯｶ","prefecture":"富山県","city":"中新川郡上市町","street":"眼目"},{"zipCode":"9300458","prefectureKana":"ﾄﾔﾏｹﾝ","cityKana":"ﾅｶﾆｲｶﾜｸﾞﾝｶﾐｲﾁﾏﾁ","streetKana":"ｻｯｶｼﾝ","prefecture":"富山県","city":"中新川郡上市町","street":"眼目新"},{"zipCode":"9300467","prefectureKana":"ﾄﾔﾏｹﾝ","cityKana":"ﾅｶﾆｲｶﾜｸﾞﾝｶﾐｲﾁﾏﾁ","streetKana":"ｼｵﾉﾀﾆ","prefecture":"富山県","city":"中新川郡上市町","street":"塩谷"},{"zipCode":"9300382","prefectureKana":"ﾄﾔﾏｹﾝ","cityKana":"ﾅｶﾆｲｶﾜｸﾞﾝｶﾐｲﾁﾏﾁ","streetKana":"ｼﾓｱｵｲﾃﾞ","prefecture":"富山県","city":"中新川郡上市町","street":"下青出"},{"zipCode":"9300376","prefectureKana":"ﾄﾔﾏｹﾝ","cityKana":"ﾅｶﾆｲｶﾜｸﾞﾝｶﾐｲﾁﾏﾁ","streetKana":"ｼﾓｱﾗﾏﾀ","prefecture":"富山県","city":"中新川郡上市町","street":"下荒又"},{"zipCode":"9300373","prefectureKana":"ﾄﾔﾏｹﾝ","cityKana":"ﾅｶﾆｲｶﾜｸﾞﾝｶﾐｲﾁﾏﾁ","streetKana":"ｼﾓｷｮｳﾃﾞﾝ","prefecture":"富山県","city":"中新川郡上市町","street":"下経田"},{"zipCode":"9300431","prefectureKana":"ﾄﾔﾏｹﾝ","cityKana":"ﾅｶﾆｲｶﾜｸﾞﾝｶﾐｲﾁﾏﾁ","streetKana":"ｼｬｸｾﾝｼﾞ","prefecture":"富山県","city":"中新川郡上市町","street":"釈泉寺"},{"zipCode":"9300357","prefectureKana":"ﾄﾔﾏｹﾝ","cityKana":"ﾅｶﾆｲｶﾜｸﾞﾝｶﾐｲﾁﾏﾁ","streetKana":"ｼｮｲﾝ","prefecture":"富山県","city":"中新川郡上市町","street":"正印"},{"zipCode":"9300358","prefectureKana":"ﾄﾔﾏｹﾝ","cityKana":"ﾅｶﾆｲｶﾜｸﾞﾝｶﾐｲﾁﾏﾁ","streetKana":"ｼｮｲﾝｼﾝ","prefecture":"富山県","city":"中新川郡上市町","street":"正印新"},{"zipCode":"9300383","prefectureKana":"ﾄﾔﾏｹﾝ","cityKana":"ﾅｶﾆｲｶﾜｸﾞﾝｶﾐｲﾁﾏﾁ","streetKana":"ｼﾞｮｳｼﾞｮｳｵｷ","prefecture":"富山県","city":"中新川郡上市町","street":"上条沖"},{"zipCode":"9300365","prefectureKana":"ﾄﾔﾏｹﾝ","cityKana":"ﾅｶﾆｲｶﾜｸﾞﾝｶﾐｲﾁﾏﾁ","streetKana":"ｼﾞﾝﾃﾞﾝ","prefecture":"富山県","city":"中新川郡上市町","street":"神田"},{"zipCode":"9300324","prefectureKana":"ﾄﾔﾏｹﾝ","cityKana":"ﾅｶﾆｲｶﾜｸﾞﾝｶﾐｲﾁﾏﾁ","streetKana":"ｼﾝﾏﾁ","prefecture":"富山県","city":"中新川郡上市町","street":"新町"},{"zipCode":"9300366","prefectureKana":"ﾄﾔﾏｹﾝ","cityKana":"ﾅｶﾆｲｶﾜｸﾞﾝｶﾐｲﾁﾏﾁ","streetKana":"ｼﾝﾑﾗ","prefecture":"富山県","city":"中新川郡上市町","street":"新村"},{"zipCode":"9300342","prefectureKana":"ﾄﾔﾏｹﾝ","cityKana":"ﾅｶﾆｲｶﾜｸﾞﾝｶﾐｲﾁﾏﾁ","streetKana":"ｼﾝﾒｲﾏﾁ","prefecture":"富山県","city":"中新川郡上市町","street":"神明町"},{"zipCode":"9300411","prefectureKana":"ﾄﾔﾏｹﾝ","cityKana":"ﾅｶﾆｲｶﾜｸﾞﾝｶﾐｲﾁﾏﾁ","streetKana":"ｽﾅﾊﾞﾔｼﾋﾞﾗｷ","prefecture":"富山県","city":"中新川郡上市町","street":"砂林開"},{"zipCode":"9300452","prefectureKana":"ﾄﾔﾏｹﾝ","cityKana":"ﾅｶﾆｲｶﾜｸﾞﾝｶﾐｲﾁﾏﾁ","streetKana":"ｽﾔﾏ","prefecture":"富山県","city":"中新川郡上市町","street":"須山"},{"zipCode":"9300442","prefectureKana":"ﾄﾔﾏｹﾝ","cityKana":"ﾅｶﾆｲｶﾜｸﾞﾝｶﾐｲﾁﾏﾁ","streetKana":"ｾﾝｺﾞｸ","prefecture":"富山県","city":"中新川郡上市町","street":"千石"},{"zipCode":"9300301","prefectureKana":"ﾄﾔﾏｹﾝ","cityKana":"ﾅｶﾆｲｶﾜｸﾞﾝｶﾐｲﾁﾏﾁ","streetKana":"ﾀｹﾊﾅ","prefecture":"富山県","city":"中新川郡上市町","street":"竹鼻"},{"zipCode":"9300425","prefectureKana":"ﾄﾔﾏｹﾝ","cityKana":"ﾅｶﾆｲｶﾜｸﾞﾝｶﾐｲﾁﾏﾁ","streetKana":"ﾀｼﾞﾏﾉ","prefecture":"富山県","city":"中新川郡上市町","street":"田島野"},{"zipCode":"9300474","prefectureKana":"ﾄﾔﾏｹﾝ","cityKana":"ﾅｶﾆｲｶﾜｸﾞﾝｶﾐｲﾁﾏﾁ","streetKana":"ﾀﾁ","prefecture":"富山県","city":"中新川郡上市町","street":"舘"},{"zipCode":"9300453","prefectureKana":"ﾄﾔﾏｹﾝ","cityKana":"ﾅｶﾆｲｶﾜｸﾞﾝｶﾐｲﾁﾏﾁ","streetKana":"ﾂﾂﾐﾀﾞﾆ","prefecture":"富山県","city":"中新川郡上市町","street":"堤谷"},{"zipCode":"9300321","prefectureKana":"ﾄﾔﾏｹﾝ","cityKana":"ﾅｶﾆｲｶﾜｸﾞﾝｶﾐｲﾁﾏﾁ","streetKana":"ﾃﾝｼﾞﾝﾏﾁ","prefecture":"富山県","city":"中新川郡上市町","street":"天神町"},{"zipCode":"9300386","prefectureKana":"ﾄﾔﾏｹﾝ","cityKana":"ﾅｶﾆｲｶﾜｸﾞﾝｶﾐｲﾁﾏﾁ","streetKana":"ﾅｶｱｵｲﾃﾞ","prefecture":"富山県","city":"中新川郡上市町","street":"中青出"},{"zipCode":"9300313","prefectureKana":"ﾄﾔﾏｹﾝ","cityKana":"ﾅｶﾆｲｶﾜｸﾞﾝｶﾐｲﾁﾏﾁ","streetKana":"ﾅｶｴｶﾞﾐ","prefecture":"富山県","city":"中新川郡上市町","street":"中江上"},{"zipCode":"9300371","prefectureKana":"ﾄﾔﾏｹﾝ","cityKana":"ﾅｶﾆｲｶﾜｸﾞﾝｶﾐｲﾁﾏﾁ","streetKana":"ﾅｶｶｲﾎﾂ","prefecture":"富山県","city":"中新川郡上市町","street":"中開発"},{"zipCode":"9300316","prefectureKana":"ﾄﾔﾏｹﾝ","cityKana":"ﾅｶﾆｲｶﾜｸﾞﾝｶﾐｲﾁﾏﾁ","streetKana":"ﾅｶｺｲｽﾞﾐ","prefecture":"富山県","city":"中新川郡上市町","street":"中小泉"},{"zipCode":"9300433","prefectureKana":"ﾄﾔﾏｹﾝ","cityKana":"ﾅｶﾆｲｶﾜｸﾞﾝｶﾐｲﾁﾏﾁ","streetKana":"ﾅｶﾑﾗ","prefecture":"富山県","city":"中新川郡上市町","street":"中村"},{"zipCode":"9300341","prefectureKana":"ﾄﾔﾏｹﾝ","cityKana":"ﾅｶﾆｲｶﾜｸﾞﾝｶﾐｲﾁﾏﾁ","streetKana":"ﾆｼｷﾁｮｳ","prefecture":"富山県","city":"中新川郡上市町","street":"錦町"},{"zipCode":"9300444","prefectureKana":"ﾄﾔﾏｹﾝ","cityKana":"ﾅｶﾆｲｶﾜｸﾞﾝｶﾐｲﾁﾏﾁ","streetKana":"ﾆｼﾀﾈ","prefecture":"富山県","city":"中新川郡上市町","street":"西種"},{"zipCode":"9300323","prefectureKana":"ﾄﾔﾏｹﾝ","cityKana":"ﾅｶﾆｲｶﾜｸﾞﾝｶﾐｲﾁﾏﾁ","streetKana":"ﾆｼﾁｮｳ","prefecture":"富山県","city":"中新川郡上市町","street":"西町"},{"zipCode":"9300334","prefectureKana":"ﾄﾔﾏｹﾝ","cityKana":"ﾅｶﾆｲｶﾜｸﾞﾝｶﾐｲﾁﾏﾁ","streetKana":"ﾆｼﾅｶﾏﾁ","prefecture":"富山県","city":"中新川郡上市町","street":"西中町"},{"zipCode":"9300403","prefectureKana":"ﾄﾔﾏｹﾝ","cityKana":"ﾅｶﾆｲｶﾜｸﾞﾝｶﾐｲﾁﾏﾁ","streetKana":"ﾉｶｲﾎﾂ","prefecture":"富山県","city":"中新川郡上市町","street":"野開発"},{"zipCode":"9300423","prefectureKana":"ﾄﾔﾏｹﾝ","cityKana":"ﾅｶﾆｲｶﾜｸﾞﾝｶﾐｲﾁﾏﾁ","streetKana":"ﾉｼﾞﾏ","prefecture":"富山県","city":"中新川郡上市町","street":"野島"},{"zipCode":"9300367","prefectureKana":"ﾄﾔﾏｹﾝ","cityKana":"ﾅｶﾆｲｶﾜｸﾞﾝｶﾐｲﾁﾏﾁ","streetKana":"ﾉﾌｸ","prefecture":"富山県","city":"中新川郡上市町","street":"野福"},{"zipCode":"9300438","prefectureKana":"ﾄﾔﾏｹﾝ","cityKana":"ﾅｶﾆｲｶﾜｸﾞﾝｶﾐｲﾁﾏﾁ","streetKana":"ﾊﾞﾝﾊﾞｼﾞﾏ","prefecture":"富山県","city":"中新川郡上市町","street":"馬場島"},{"zipCode":"9300362","prefectureKana":"ﾄﾔﾏｹﾝ","cityKana":"ﾅｶﾆｲｶﾜｸﾞﾝｶﾐｲﾁﾏﾁ","streetKana":"ﾋｴﾀﾞ","prefecture":"富山県","city":"中新川郡上市町","street":"稗田"},{"zipCode":"9300312","prefectureKana":"ﾄﾔﾏｹﾝ","cityKana":"ﾅｶﾆｲｶﾜｸﾞﾝｶﾐｲﾁﾏﾁ","streetKana":"ﾋｶﾞｼｴｶﾞﾐ","prefecture":"富山県","city":"中新川郡上市町","street":"東江上"},{"zipCode":"9300441","prefectureKana":"ﾄﾔﾏｹﾝ","cityKana":"ﾅｶﾆｲｶﾜｸﾞﾝｶﾐｲﾁﾏﾁ","streetKana":"ﾋｶﾞｼﾀﾈ","prefecture":"富山県","city":"中新川郡上市町","street":"東種"},{"zipCode":"9300343","prefectureKana":"ﾄﾔﾏｹﾝ","cityKana":"ﾅｶﾆｲｶﾜｸﾞﾝｶﾐｲﾁﾏﾁ","streetKana":"ﾋｶﾞｼﾏﾁ","prefecture":"富山県","city":"中新川郡上市町","street":"東町"},{"zipCode":"9300381","prefectureKana":"ﾄﾔﾏｹﾝ","cityKana":"ﾅｶﾆｲｶﾜｸﾞﾝｶﾐｲﾁﾏﾁ","streetKana":"ﾋｻｶﾞﾈ","prefecture":"富山県","city":"中新川郡上市町","street":"久金"},{"zipCode":"9300388","prefectureKana":"ﾄﾔﾏｹﾝ","cityKana":"ﾅｶﾆｲｶﾜｸﾞﾝｶﾐｲﾁﾏﾁ","streetKana":"ﾋｻｶﾞﾈｼﾝ","prefecture":"富山県","city":"中新川郡上市町","street":"久金新"},{"zipCode":"9300466","prefectureKana":"ﾄﾔﾏｹﾝ","cityKana":"ﾅｶﾆｲｶﾜｸﾞﾝｶﾐｲﾁﾏﾁ","streetKana":"ﾋﾉﾀﾆ","prefecture":"富山県","city":"中新川郡上市町","street":"桧谷"},{"zipCode":"9300402","prefectureKana":"ﾄﾔﾏｹﾝ","cityKana":"ﾅｶﾆｲｶﾜｸﾞﾝｶﾐｲﾁﾏﾁ","streetKana":"ﾋﾛｲﾁｼﾝ","prefecture":"富山県","city":"中新川郡上市町","street":"広市新"},{"zipCode":"9300412","prefectureKana":"ﾄﾔﾏｹﾝ","cityKana":"ﾅｶﾆｲｶﾜｸﾞﾝｶﾐｲﾁﾏﾁ","streetKana":"ﾋﾛﾉ","prefecture":"富山県","city":"中新川郡上市町","street":"広野"},{"zipCode":"9300401","prefectureKana":"ﾄﾔﾏｹﾝ","cityKana":"ﾅｶﾆｲｶﾜｸﾞﾝｶﾐｲﾁﾏﾁ","streetKana":"ﾋﾛﾉｼﾝ","prefecture":"富山県","city":"中新川郡上市町","street":"広野新"},{"zipCode":"9300353","prefectureKana":"ﾄﾔﾏｹﾝ","cityKana":"ﾅｶﾆｲｶﾜｸﾞﾝｶﾐｲﾁﾏﾁ","streetKana":"ﾎｳｵﾝｼﾞ","prefecture":"富山県","city":"中新川郡上市町","street":"法音寺"},{"zipCode":"9300378","prefectureKana":"ﾄﾔﾏｹﾝ","cityKana":"ﾅｶﾆｲｶﾜｸﾞﾝｶﾐｲﾁﾏﾁ","streetKana":"ﾎｳｼﾞｶﾞｾ","prefecture":"富山県","city":"中新川郡上市町","street":"放士ケ瀬"},{"zipCode":"9300379","prefectureKana":"ﾄﾔﾏｹﾝ","cityKana":"ﾅｶﾆｲｶﾜｸﾞﾝｶﾐｲﾁﾏﾁ","streetKana":"ﾎｳｼﾞｶﾞｾｼﾝ","prefecture":"富山県","city":"中新川郡上市町","street":"放士ケ瀬新"},{"zipCode":"9300415","prefectureKana":"ﾄﾔﾏｹﾝ","cityKana":"ﾅｶﾆｲｶﾜｸﾞﾝｶﾐｲﾁﾏﾁ","streetKana":"ﾏﾂﾊﾞﾗﾉ","prefecture":"富山県","city":"中新川郡上市町","street":"松原野"},{"zipCode":"9300336","prefectureKana":"ﾄﾔﾏｹﾝ","cityKana":"ﾅｶﾆｲｶﾜｸﾞﾝｶﾐｲﾁﾏﾁ","streetKana":"ﾏﾂﾜﾁｮｳ","prefecture":"富山県","city":"中新川郡上市町","street":"松和町"},{"zipCode":"9300456","prefectureKana":"ﾄﾔﾏｹﾝ","cityKana":"ﾅｶﾆｲｶﾜｸﾞﾝｶﾐｲﾁﾏﾁ","streetKana":"ﾏﾙﾔﾏ","prefecture":"富山県","city":"中新川郡上市町","street":"丸山"},{"zipCode":"9300445","prefectureKana":"ﾄﾔﾏｹﾝ","cityKana":"ﾅｶﾆｲｶﾜｸﾞﾝｶﾐｲﾁﾏﾁ","streetKana":"ﾐｽﾞｶﾐ","prefecture":"富山県","city":"中新川郡上市町","street":"水上"},{"zipCode":"9300404","prefectureKana":"ﾄﾔﾏｹﾝ","cityKana":"ﾅｶﾆｲｶﾜｸﾞﾝｶﾐｲﾁﾏﾁ","streetKana":"ﾐｽｷﾞﾏﾁ","prefecture":"富山県","city":"中新川郡上市町","street":"三杉町"},{"zipCode":"9300325","prefectureKana":"ﾄﾔﾏｹﾝ","cityKana":"ﾅｶﾆｲｶﾜｸﾞﾝｶﾐｲﾁﾏﾁ","streetKana":"ﾐｯｶｲﾁ","prefecture":"富山県","city":"中新川郡上市町","street":"三日市"},{"zipCode":"9300345","prefectureKana":"ﾄﾔﾏｹﾝ","cityKana":"ﾅｶﾆｲｶﾜｸﾞﾝｶﾐｲﾁﾏﾁ","streetKana":"ﾐﾅﾐﾁｮｳ","prefecture":"富山県","city":"中新川郡上市町","street":"南町"},{"zipCode":"9300304","prefectureKana":"ﾄﾔﾏｹﾝ","cityKana":"ﾅｶﾆｲｶﾜｸﾞﾝｶﾐｲﾁﾏﾁ","streetKana":"ﾓﾘｼﾞﾘ","prefecture":"富山県","city":"中新川郡上市町","street":"森尻"},{"zipCode":"9300344","prefectureKana":"ﾄﾔﾏｹﾝ","cityKana":"ﾅｶﾆｲｶﾜｸﾞﾝｶﾐｲﾁﾏﾁ","streetKana":"ﾓﾘﾓﾄﾁｮｳ","prefecture":"富山県","city":"中新川郡上市町","street":"森元町"},{"zipCode":"9300311","prefectureKana":"ﾄﾔﾏｹﾝ","cityKana":"ﾅｶﾆｲｶﾜｸﾞﾝｶﾐｲﾁﾏﾁ","streetKana":"ﾔｲﾁ","prefecture":"富山県","city":"中新川郡上市町","street":"弥市"},{"zipCode":"9300326","prefectureKana":"ﾄﾔﾏｹﾝ","cityKana":"ﾅｶﾆｲｶﾜｸﾞﾝｶﾐｲﾁﾏﾁ","streetKana":"ﾔﾅｷﾞﾏﾁ","prefecture":"富山県","city":"中新川郡上市町","street":"柳町"},{"zipCode":"9300361","prefectureKana":"ﾄﾔﾏｹﾝ","cityKana":"ﾅｶﾆｲｶﾜｸﾞﾝｶﾐｲﾁﾏﾁ","streetKana":"ﾕｳﾜﾉ","prefecture":"富山県","city":"中新川郡上市町","street":"湯上野"},{"zipCode":"9300455","prefectureKana":"ﾄﾔﾏｹﾝ","cityKana":"ﾅｶﾆｲｶﾜｸﾞﾝｶﾐｲﾁﾏﾁ","streetKana":"ﾕｻｷﾉ","prefecture":"富山県","city":"中新川郡上市町","street":"湯崎野"},{"zipCode":"9300454","prefectureKana":"ﾄﾔﾏｹﾝ","cityKana":"ﾅｶﾆｲｶﾜｸﾞﾝｶﾐｲﾁﾏﾁ","streetKana":"ﾕﾉﾐｺ","prefecture":"富山県","city":"中新川郡上市町","street":"湯神子"},{"zipCode":"9300457","prefectureKana":"ﾄﾔﾏｹﾝ","cityKana":"ﾅｶﾆｲｶﾜｸﾞﾝｶﾐｲﾁﾏﾁ","streetKana":"ﾕﾉﾐｺﾉ","prefecture":"富山県","city":"中新川郡上市町","street":"湯神子野"},{"zipCode":"9300364","prefectureKana":"ﾄﾔﾏｹﾝ","cityKana":"ﾅｶﾆｲｶﾜｸﾞﾝｶﾐｲﾁﾏﾁ","streetKana":"ﾖｺｺﾞｼ","prefecture":"富山県","city":"中新川郡上市町","street":"横越"},{"zipCode":"9300355","prefectureKana":"ﾄﾔﾏｹﾝ","cityKana":"ﾅｶﾆｲｶﾜｸﾞﾝｶﾐｲﾁﾏﾁ","streetKana":"ﾖｺﾎｳｵﾝｼﾞ","prefecture":"富山県","city":"中新川郡上市町","street":"横法音寺"},{"zipCode":"9300359","prefectureKana":"ﾄﾔﾏｹﾝ","cityKana":"ﾅｶﾆｲｶﾜｸﾞﾝｶﾐｲﾁﾏﾁ","streetKana":"ﾖﾂﾊﾞﾀﾞｲ","prefecture":"富山県","city":"中新川郡上市町","street":"四葉台"},{"zipCode":"9300436","prefectureKana":"ﾄﾔﾏｹﾝ","cityKana":"ﾅｶﾆｲｶﾜｸﾞﾝｶﾐｲﾁﾏﾁ","streetKana":"ﾖﾓｷﾞｻﾞﾜ","prefecture":"富山県","city":"中新川郡上市町","street":"蓬沢"},{"zipCode":"9300314","prefectureKana":"ﾄﾔﾏｹﾝ","cityKana":"ﾅｶﾆｲｶﾜｸﾞﾝｶﾐｲﾁﾏﾁ","streetKana":"ﾜｶｽｷﾞ","prefecture":"富山県","city":"中新川郡上市町","street":"若杉"},{"zipCode":"9300315","prefectureKana":"ﾄﾔﾏｹﾝ","cityKana":"ﾅｶﾆｲｶﾜｸﾞﾝｶﾐｲﾁﾏﾁ","streetKana":"ﾜｶｽｷﾞｼﾝ","prefecture":"富山県","city":"中新川郡上市町","street":"若杉新"},{"zipCode":"9300363","prefectureKana":"ﾄﾔﾏｹﾝ","cityKana":"ﾅｶﾆｲｶﾜｸﾞﾝｶﾐｲﾁﾏﾁ","streetKana":"ﾜｺﾞｳ","prefecture":"富山県","city":"中新川郡上市町","street":"和合"},{"zipCode":"9300200","prefectureKana":"ﾄﾔﾏｹﾝ","cityKana":"ﾅｶﾆｲｶﾜｸﾞﾝﾀﾃﾔﾏﾏﾁ","streetKana":"ｲｶﾆｹｲｻｲｶﾞﾅｲﾊﾞｱｲ","prefecture":"富山県","city":"中新川郡立山町","street":"以下に掲載がない場合"},{"zipCode":"9301406","prefectureKana":"ﾄﾔﾏｹﾝ","cityKana":"ﾅｶﾆｲｶﾜｸﾞﾝﾀﾃﾔﾏﾏﾁ","streetKana":"ｱｼｸﾗｼﾞ","prefecture":"富山県","city":"中新川郡立山町","street":"芦峅寺"},{"zipCode":"9303242","prefectureKana":"ﾄﾔﾏｹﾝ","cityKana":"ﾅｶﾆｲｶﾜｸﾞﾝﾀﾃﾔﾏﾏﾁ","streetKana":"ｱｼﾐ","prefecture":"富山県","city":"中新川郡立山町","street":"芦見"},{"zipCode":"9300271","prefectureKana":"ﾄﾔﾏｹﾝ","cityKana":"ﾅｶﾆｲｶﾜｸﾞﾝﾀﾃﾔﾏﾏﾁ","streetKana":"ｱｿ","prefecture":"富山県","city":"中新川郡立山町","street":"浅生"},{"zipCode":"9303239","prefectureKana":"ﾄﾔﾏｹﾝ","cityKana":"ﾅｶﾆｲｶﾜｸﾞﾝﾀﾃﾔﾏﾏﾁ","streetKana":"ｲｹﾀﾞ","prefecture":"富山県","city":"中新川郡立山町","street":"池田"},{"zipCode":"9303215","prefectureKana":"ﾄﾔﾏｹﾝ","cityKana":"ﾅｶﾆｲｶﾜｸﾞﾝﾀﾃﾔﾏﾏﾁ","streetKana":"ｲｼｻﾞｶ","prefecture":"富山県","city":"中新川郡立山町","street":"石坂"},{"zipCode":"9301361","prefectureKana":"ﾄﾔﾏｹﾝ","cityKana":"ﾅｶﾆｲｶﾜｸﾞﾝﾀﾃﾔﾏﾏﾁ","streetKana":"ｲｽﾞﾊﾞﾔｼ","prefecture":"富山県","city":"中新川郡立山町","street":"伊豆林"},{"zipCode":"9300201","prefectureKana":"ﾄﾔﾏｹﾝ","cityKana":"ﾅｶﾆｲｶﾜｸﾞﾝﾀﾃﾔﾏﾏﾁ","streetKana":"ｲｽﾞﾐ","prefecture":"富山県","city":"中新川郡立山町","street":"泉"},{"zipCode":"9303234","prefectureKana":"ﾄﾔﾏｹﾝ","cityKana":"ﾅｶﾆｲｶﾜｸﾞﾝﾀﾃﾔﾏﾏﾁ","streetKana":"ｲｾﾔ","prefecture":"富山県","city":"中新川郡立山町","street":"伊勢屋"},{"zipCode":"9300256","prefectureKana":"ﾄﾔﾏｹﾝ","cityKana":"ﾅｶﾆｲｶﾜｸﾞﾝﾀﾃﾔﾏﾏﾁ","streetKana":"ｲｯﾎﾟﾝｷﾞ","prefecture":"富山県","city":"中新川郡立山町","street":"一本木"},{"zipCode":"9300246","prefectureKana":"ﾄﾔﾏｹﾝ","cityKana":"ﾅｶﾆｲｶﾜｸﾞﾝﾀﾃﾔﾏﾏﾁ","streetKana":"ｲﾓﾉｼｻﾞﾜ","prefecture":"富山県","city":"中新川郡立山町","street":"鋳物師沢"},{"zipCode":"9301368","prefectureKana":"ﾄﾔﾏｹﾝ","cityKana":"ﾅｶﾆｲｶﾜｸﾞﾝﾀﾃﾔﾏﾏﾁ","streetKana":"ｲﾜｸﾗｼﾞ","prefecture":"富山県","city":"中新川郡立山町","street":"岩峅寺"},{"zipCode":"9301369","prefectureKana":"ﾄﾔﾏｹﾝ","cityKana":"ﾅｶﾆｲｶﾜｸﾞﾝﾀﾃﾔﾏﾏﾁ","streetKana":"ｲﾜｸﾗﾉ","prefecture":"富山県","city":"中新川郡立山町","street":"岩峅野"},{"zipCode":"9300208","prefectureKana":"ﾄﾔﾏｹﾝ","cityKana":"ﾅｶﾆｲｶﾜｸﾞﾝﾀﾃﾔﾏﾏﾁ","streetKana":"ｳﾗﾀﾞ","prefecture":"富山県","city":"中新川郡立山町","street":"浦田"},{"zipCode":"9300207","prefectureKana":"ﾄﾔﾏｹﾝ","cityKana":"ﾅｶﾆｲｶﾜｸﾞﾝﾀﾃﾔﾏﾏﾁ","streetKana":"ｳﾗﾀﾞｼﾝ","prefecture":"富山県","city":"中新川郡立山町","street":"浦田新"},{"zipCode":"9303245","prefectureKana":"ﾄﾔﾏｹﾝ","cityKana":"ﾅｶﾆｲｶﾜｸﾞﾝﾀﾃﾔﾏﾏﾁ","streetKana":"ｳﾜｽﾞｴ","prefecture":"富山県","city":"中新川郡立山町","street":"上末"},{"zipCode":"9303267","prefectureKana":"ﾄﾔﾏｹﾝ","cityKana":"ﾅｶﾆｲｶﾜｸﾞﾝﾀﾃﾔﾏﾏﾁ","streetKana":"ｴｻｷ","prefecture":"富山県","city":"中新川郡立山町","street":"江崎"},{"zipCode":"9300235","prefectureKana":"ﾄﾔﾏｹﾝ","cityKana":"ﾅｶﾆｲｶﾜｸﾞﾝﾀﾃﾔﾏﾏﾁ","streetKana":"ｴﾉｷ","prefecture":"富山県","city":"中新川郡立山町","street":"榎"},{"zipCode":"9300261","prefectureKana":"ﾄﾔﾏｹﾝ","cityKana":"ﾅｶﾆｲｶﾜｸﾞﾝﾀﾃﾔﾏﾏﾁ","streetKana":"ｵｵｲｼﾊﾗ","prefecture":"富山県","city":"中新川郡立山町","street":"大石原"},{"zipCode":"9300216","prefectureKana":"ﾄﾔﾏｹﾝ","cityKana":"ﾅｶﾆｲｶﾜｸﾞﾝﾀﾃﾔﾏﾏﾁ","streetKana":"ｵｵｸﾎﾞ","prefecture":"富山県","city":"中新川郡立山町","street":"大窪"},{"zipCode":"9300253","prefectureKana":"ﾄﾔﾏｹﾝ","cityKana":"ﾅｶﾆｲｶﾜｸﾞﾝﾀﾃﾔﾏﾏﾁ","streetKana":"ｵｵｸﾎﾞﾋﾞﾗｷ","prefecture":"富山県","city":"中新川郡立山町","street":"大窪開"},{"zipCode":"9300251","prefectureKana":"ﾄﾔﾏｹﾝ","cityKana":"ﾅｶﾆｲｶﾜｸﾞﾝﾀﾃﾔﾏﾏﾁ","streetKana":"ｵｵｼﾏ","prefecture":"富山県","city":"中新川郡立山町","street":"大島"},{"zipCode":"9300263","prefectureKana":"ﾄﾔﾏｹﾝ","cityKana":"ﾅｶﾆｲｶﾜｸﾞﾝﾀﾃﾔﾏﾏﾁ","streetKana":"ｵｵｼｮｳｽﾞ","prefecture":"富山県","city":"中新川郡立山町","street":"大清水"},{"zipCode":"9303202","prefectureKana":"ﾄﾔﾏｹﾝ","cityKana":"ﾅｶﾆｲｶﾜｸﾞﾝﾀﾃﾔﾏﾏﾁ","streetKana":"ｵﾅｶﾞﾜｼﾝ","prefecture":"富山県","city":"中新川郡立山町","street":"女川新"},{"zipCode":"9303236","prefectureKana":"ﾄﾔﾏｹﾝ","cityKana":"ﾅｶﾆｲｶﾜｸﾞﾝﾀﾃﾔﾏﾏﾁ","streetKana":"ｵﾏﾀ","prefecture":"富山県","city":"中新川郡立山町","street":"小又"},{"zipCode":"9300237","prefectureKana":"ﾄﾔﾏｹﾝ","cityKana":"ﾅｶﾆｲｶﾜｸﾞﾝﾀﾃﾔﾏﾏﾁ","streetKana":"ｶｷﾉｷｻﾞﾜ","prefecture":"富山県","city":"中新川郡立山町","street":"柿の木沢"},{"zipCode":"9301402","prefectureKana":"ﾄﾔﾏｹﾝ","cityKana":"ﾅｶﾆｲｶﾜｸﾞﾝﾀﾃﾔﾏﾏﾁ","streetKana":"ｶﾂﾗﾀﾞｲ","prefecture":"富山県","city":"中新川郡立山町","street":"桂台"},{"zipCode":"9300233","prefectureKana":"ﾄﾔﾏｹﾝ","cityKana":"ﾅｶﾆｲｶﾜｸﾞﾝﾀﾃﾔﾏﾏﾁ","streetKana":"ｶﾐｺﾝｺﾞｳｼﾞ","prefecture":"富山県","city":"中新川郡立山町","street":"上金剛寺"},{"zipCode":"9303244","prefectureKana":"ﾄﾔﾏｹﾝ","cityKana":"ﾅｶﾆｲｶﾜｸﾞﾝﾀﾃﾔﾏﾏﾁ","streetKana":"ｶﾐｾﾄ","prefecture":"富山県","city":"中新川郡立山町","street":"上瀬戸"},{"zipCode":"9303251","prefectureKana":"ﾄﾔﾏｹﾝ","cityKana":"ﾅｶﾆｲｶﾜｸﾞﾝﾀﾃﾔﾏﾏﾁ","streetKana":"ｶﾐﾅｶ","prefecture":"富山県","city":"中新川郡立山町","street":"上中"},{"zipCode":"9303203","prefectureKana":"ﾄﾔﾏｹﾝ","cityKana":"ﾅｶﾆｲｶﾜｸﾞﾝﾀﾃﾔﾏﾏﾁ","streetKana":"ｶﾐﾌｸﾗｲ","prefecture":"富山県","city":"中新川郡立山町","street":"上福来"},{"zipCode":"9300223","prefectureKana":"ﾄﾔﾏｹﾝ","cityKana":"ﾅｶﾆｲｶﾜｸﾞﾝﾀﾃﾔﾏﾏﾁ","streetKana":"ｶﾐﾎｺﾉｷ","prefecture":"富山県","city":"中新川郡立山町","street":"上鉾木"},{"zipCode":"9303254","prefectureKana":"ﾄﾔﾏｹﾝ","cityKana":"ﾅｶﾆｲｶﾜｸﾞﾝﾀﾃﾔﾏﾏﾁ","streetKana":"ｶﾐﾐﾔ","prefecture":"富山県","city":"中新川郡立山町","street":"上宮"},{"zipCode":"9300257","prefectureKana":"ﾄﾔﾏｹﾝ","cityKana":"ﾅｶﾆｲｶﾜｸﾞﾝﾀﾃﾔﾏﾏﾁ","streetKana":"ｶﾜﾗｷﾞ","prefecture":"富山県","city":"中新川郡立山町","street":"川原木"},{"zipCode":"9300227","prefectureKana":"ﾄﾔﾏｹﾝ","cityKana":"ﾅｶﾆｲｶﾜｸﾞﾝﾀﾃﾔﾏﾏﾁ","streetKana":"ｸｻﾉ","prefecture":"富山県","city":"中新川郡立山町","street":"草野"},{"zipCode":"9300262","prefectureKana":"ﾄﾔﾏｹﾝ","cityKana":"ﾅｶﾆｲｶﾜｸﾞﾝﾀﾃﾔﾏﾏﾁ","streetKana":"ｸﾗﾓﾄｼﾝ","prefecture":"富山県","city":"中新川郡立山町","street":"蔵本新"},{"zipCode":"9303255","prefectureKana":"ﾄﾔﾏｹﾝ","cityKana":"ﾅｶﾆｲｶﾜｸﾞﾝﾀﾃﾔﾏﾏﾁ","streetKana":"ｺﾊﾞﾔｼ","prefecture":"富山県","city":"中新川郡立山町","street":"小林"},{"zipCode":"9300214","prefectureKana":"ﾄﾔﾏｹﾝ","cityKana":"ﾅｶﾆｲｶﾜｸﾞﾝﾀﾃﾔﾏﾏﾁ","streetKana":"ｺﾞﾋｬｸｺｸ","prefecture":"富山県","city":"中新川郡立山町","street":"五百石"},{"zipCode":"9300274","prefectureKana":"ﾄﾔﾏｹﾝ","cityKana":"ﾅｶﾆｲｶﾜｸﾞﾝﾀﾃﾔﾏﾏﾁ","streetKana":"ｺﾞﾛｳﾏﾙ","prefecture":"富山県","city":"中新川郡立山町","street":"五郎丸"},{"zipCode":"9300232","prefectureKana":"ﾄﾔﾏｹﾝ","cityKana":"ﾅｶﾆｲｶﾜｸﾞﾝﾀﾃﾔﾏﾏﾁ","streetKana":"ｺﾝｺﾞｳｼﾞ","prefecture":"富山県","city":"中新川郡立山町","street":"金剛寺"},{"zipCode":"9303262","prefectureKana":"ﾄﾔﾏｹﾝ","cityKana":"ﾅｶﾆｲｶﾜｸﾞﾝﾀﾃﾔﾏﾏﾁ","streetKana":"ｺﾝｺﾞｳｼﾝ","prefecture":"富山県","city":"中新川郡立山町","street":"金剛新"},{"zipCode":"9300231","prefectureKana":"ﾄﾔﾏｹﾝ","cityKana":"ﾅｶﾆｲｶﾜｸﾞﾝﾀﾃﾔﾏﾏﾁ","streetKana":"ｻｶｲｻﾞﾜ","prefecture":"富山県","city":"中新川郡立山町","street":"坂井沢"},{"zipCode":"9303238","prefectureKana":"ﾄﾔﾏｹﾝ","cityKana":"ﾅｶﾆｲｶﾜｸﾞﾝﾀﾃﾔﾏﾏﾁ","streetKana":"ｻﾞｼｭｳﾎﾞｳ","prefecture":"富山県","city":"中新川郡立山町","street":"座主坊"},{"zipCode":"9303264","prefectureKana":"ﾄﾔﾏｹﾝ","cityKana":"ﾅｶﾆｲｶﾜｸﾞﾝﾀﾃﾔﾏﾏﾁ","streetKana":"ｻﾜｼﾝ","prefecture":"富山県","city":"中新川郡立山町","street":"沢新"},{"zipCode":"9300245","prefectureKana":"ﾄﾔﾏｹﾝ","cityKana":"ﾅｶﾆｲｶﾜｸﾞﾝﾀﾃﾔﾏﾏﾁ","streetKana":"ｻﾜﾅｶﾔﾏ","prefecture":"富山県","city":"中新川郡立山町","street":"沢中山"},{"zipCode":"9300212","prefectureKana":"ﾄﾔﾏｹﾝ","cityKana":"ﾅｶﾆｲｶﾜｸﾞﾝﾀﾃﾔﾏﾏﾁ","streetKana":"ｻﾜﾊﾀ","prefecture":"富山県","city":"中新川郡立山町","street":"沢端"},{"zipCode":"9300234","prefectureKana":"ﾄﾔﾏｹﾝ","cityKana":"ﾅｶﾆｲｶﾜｸﾞﾝﾀﾃﾔﾏﾏﾁ","streetKana":"ｼﾀﾀﾞﾝ","prefecture":"富山県","city":"中新川郡立山町","street":"下段"},{"zipCode":"9303221","prefectureKana":"ﾄﾔﾏｹﾝ","cityKana":"ﾅｶﾆｲｶﾜｸﾞﾝﾀﾃﾔﾏﾏﾁ","streetKana":"ｼﾀﾞﾆｵ","prefecture":"富山県","city":"中新川郡立山町","street":"四谷尾"},{"zipCode":"9303212","prefectureKana":"ﾄﾔﾏｹﾝ","cityKana":"ﾅｶﾆｲｶﾜｸﾞﾝﾀﾃﾔﾏﾏﾁ","streetKana":"ｼﾊﾞﾔﾏ","prefecture":"富山県","city":"中新川郡立山町","street":"柴山"},{"zipCode":"9303241","prefectureKana":"ﾄﾔﾏｹﾝ","cityKana":"ﾅｶﾆｲｶﾜｸﾞﾝﾀﾃﾔﾏﾏﾁ","streetKana":"ｼﾓｻﾞﾜ","prefecture":"富山県","city":"中新川郡立山町","street":"下沢"},{"zipCode":"9303214","prefectureKana":"ﾄﾔﾏｹﾝ","cityKana":"ﾅｶﾆｲｶﾜｸﾞﾝﾀﾃﾔﾏﾏﾁ","streetKana":"ｼﾓｼﾗｲﾜ","prefecture":"富山県","city":"中新川郡立山町","street":"下白岩"},{"zipCode":"9303208","prefectureKana":"ﾄﾔﾏｹﾝ","cityKana":"ﾅｶﾆｲｶﾜｸﾞﾝﾀﾃﾔﾏﾏﾁ","streetKana":"ｼﾓｼﾝ","prefecture":"富山県","city":"中新川郡立山町","street":"下新"},{"zipCode":"9303243","prefectureKana":"ﾄﾔﾏｹﾝ","cityKana":"ﾅｶﾆｲｶﾜｸﾞﾝﾀﾃﾔﾏﾏﾁ","streetKana":"ｼﾓｾﾄ","prefecture":"富山県","city":"中新川郡立山町","street":"下瀬戸"},{"zipCode":"9301401","prefectureKana":"ﾄﾔﾏｹﾝ","cityKana":"ﾅｶﾆｲｶﾜｸﾞﾝﾀﾃﾔﾏﾏﾁ","streetKana":"ｼｮｳﾐｮｳ","prefecture":"富山県","city":"中新川郡立山町","street":"称名"},{"zipCode":"9303224","prefectureKana":"ﾄﾔﾏｹﾝ","cityKana":"ﾅｶﾆｲｶﾜｸﾞﾝﾀﾃﾔﾏﾏﾁ","streetKana":"ｼﾗｲﾜ","prefecture":"富山県","city":"中新川郡立山町","street":"白岩"},{"zipCode":"9303248","prefectureKana":"ﾄﾔﾏｹﾝ","cityKana":"ﾅｶﾆｲｶﾜｸﾞﾝﾀﾃﾔﾏﾏﾁ","streetKana":"ｼﾝｾﾄ","prefecture":"富山県","city":"中新川郡立山町","street":"新瀬戸"},{"zipCode":"9300236","prefectureKana":"ﾄﾔﾏｹﾝ","cityKana":"ﾅｶﾆｲｶﾜｸﾞﾝﾀﾃﾔﾏﾏﾁ","streetKana":"ｼﾝﾎﾞﾘ","prefecture":"富山県","city":"中新川郡立山町","street":"新堀"},{"zipCode":"9303252","prefectureKana":"ﾄﾔﾏｹﾝ","cityKana":"ﾅｶﾆｲｶﾜｸﾞﾝﾀﾃﾔﾏﾏﾁ","streetKana":"ｽｴｳﾜﾉ","prefecture":"富山県","city":"中新川郡立山町","street":"末上野"},{"zipCode":"9300247","prefectureKana":"ﾄﾔﾏｹﾝ","cityKana":"ﾅｶﾆｲｶﾜｸﾞﾝﾀﾃﾔﾏﾏﾁ","streetKana":"ｽｴｻﾝｶﾞ","prefecture":"富山県","city":"中新川郡立山町","street":"末三賀"},{"zipCode":"9300244","prefectureKana":"ﾄﾔﾏｹﾝ","cityKana":"ﾅｶﾆｲｶﾜｸﾞﾝﾀﾃﾔﾏﾏﾁ","streetKana":"ｽｴﾀﾆｸﾞﾁ","prefecture":"富山県","city":"中新川郡立山町","street":"末谷口"},{"zipCode":"9303247","prefectureKana":"ﾄﾔﾏｹﾝ","cityKana":"ﾅｶﾆｲｶﾜｸﾞﾝﾀﾃﾔﾏﾏﾁ","streetKana":"ｾﾄｼﾝ","prefecture":"富山県","city":"中新川郡立山町","street":"瀬戸新"},{"zipCode":"9301405","prefectureKana":"ﾄﾔﾏｹﾝ","cityKana":"ﾅｶﾆｲｶﾜｸﾞﾝﾀﾃﾔﾏﾏﾁ","streetKana":"ｾﾝｼﾞｭｶﾞﾊﾗ","prefecture":"富山県","city":"中新川郡立山町","street":"千寿ケ原"},{"zipCode":"9303201","prefectureKana":"ﾄﾔﾏｹﾝ","cityKana":"ﾅｶﾆｲｶﾜｸﾞﾝﾀﾃﾔﾏﾏﾁ","streetKana":"ﾀｶﾊﾗ","prefecture":"富山県","city":"中新川郡立山町","street":"高原"},{"zipCode":"9300268","prefectureKana":"ﾄﾔﾏｹﾝ","cityKana":"ﾅｶﾆｲｶﾜｸﾞﾝﾀﾃﾔﾏﾏﾁ","streetKana":"ﾀｶﾊﾗﾔﾂﾔ","prefecture":"富山県","city":"中新川郡立山町","street":"高原八ツ屋"},{"zipCode":"9300206","prefectureKana":"ﾄﾔﾏｹﾝ","cityKana":"ﾅｶﾆｲｶﾜｸﾞﾝﾀﾃﾔﾏﾏﾁ","streetKana":"ﾀｹﾊﾅｼﾝ","prefecture":"富山県","city":"中新川郡立山町","street":"竹鼻新"},{"zipCode":"9303206","prefectureKana":"ﾄﾔﾏｹﾝ","cityKana":"ﾅｶﾆｲｶﾜｸﾞﾝﾀﾃﾔﾏﾏﾁ","streetKana":"ﾀｹﾊﾞﾔｼ","prefecture":"富山県","city":"中新川郡立山町","street":"竹林"},{"zipCode":"9300219","prefectureKana":"ﾄﾔﾏｹﾝ","cityKana":"ﾅｶﾆｲｶﾜｸﾞﾝﾀﾃﾔﾏﾏﾁ","streetKana":"ﾀｿﾞｴ","prefecture":"富山県","city":"中新川郡立山町","street":"田添"},{"zipCode":"9301418","prefectureKana":"ﾄﾔﾏｹﾝ","cityKana":"ﾅｶﾆｲｶﾜｸﾞﾝﾀﾃﾔﾏﾏﾁ","streetKana":"ﾀﾃﾔﾏﾁｮｳｼﾞｮｳ","prefecture":"富山県","city":"中新川郡立山町","street":"立山頂上"},{"zipCode":"9303233","prefectureKana":"ﾄﾔﾏｹﾝ","cityKana":"ﾅｶﾆｲｶﾜｸﾞﾝﾀﾃﾔﾏﾏﾁ","streetKana":"ﾀﾆ","prefecture":"富山県","city":"中新川郡立山町","street":"谷"},{"zipCode":"9303222","prefectureKana":"ﾄﾔﾏｹﾝ","cityKana":"ﾅｶﾆｲｶﾜｸﾞﾝﾀﾃﾔﾏﾏﾁ","streetKana":"ﾀﾆｸﾞﾁ","prefecture":"富山県","city":"中新川郡立山町","street":"谷口"},{"zipCode":"9300228","prefectureKana":"ﾄﾔﾏｹﾝ","cityKana":"ﾅｶﾆｲｶﾜｸﾞﾝﾀﾃﾔﾏﾏﾁ","streetKana":"ﾀﾔ","prefecture":"富山県","city":"中新川郡立山町","street":"手屋"},{"zipCode":"9301408","prefectureKana":"ﾄﾔﾏｹﾝ","cityKana":"ﾅｶﾆｲｶﾜｸﾞﾝﾀﾃﾔﾏﾏﾁ","streetKana":"ﾁｶﾞｷ","prefecture":"富山県","city":"中新川郡立山町","street":"千垣"},{"zipCode":"9300272","prefectureKana":"ﾄﾔﾏｹﾝ","cityKana":"ﾅｶﾆｲｶﾜｸﾞﾝﾀﾃﾔﾏﾏﾁ","streetKana":"ﾂｶｺﾞｼ","prefecture":"富山県","city":"中新川郡立山町","street":"塚越"},{"zipCode":"9300211","prefectureKana":"ﾄﾔﾏｹﾝ","cityKana":"ﾅｶﾆｲｶﾜｸﾞﾝﾀﾃﾔﾏﾏﾁ","streetKana":"ﾂｼﾞ","prefecture":"富山県","city":"中新川郡立山町","street":"辻"},{"zipCode":"9301416","prefectureKana":"ﾄﾔﾏｹﾝ","cityKana":"ﾅｶﾆｲｶﾜｸﾞﾝﾀﾃﾔﾏﾏﾁ","streetKana":"ﾂﾙｷﾞｺﾞｾﾞﾝ","prefecture":"富山県","city":"中新川郡立山町","street":"剣御前"},{"zipCode":"9301417","prefectureKana":"ﾄﾔﾏｹﾝ","cityKana":"ﾅｶﾆｲｶﾜｸﾞﾝﾀﾃﾔﾏﾏﾁ","streetKana":"ﾂﾙｷﾞｻﾜ","prefecture":"富山県","city":"中新川郡立山町","street":"剣沢"},{"zipCode":"9300204","prefectureKana":"ﾄﾔﾏｹﾝ","cityKana":"ﾅｶﾆｲｶﾜｸﾞﾝﾀﾃﾔﾏﾏﾁ","streetKana":"ﾃﾗﾀﾞ","prefecture":"富山県","city":"中新川郡立山町","street":"寺田"},{"zipCode":"9300209","prefectureKana":"ﾄﾔﾏｹﾝ","cityKana":"ﾅｶﾆｲｶﾜｸﾞﾝﾀﾃﾔﾏﾏﾁ","streetKana":"ﾃﾗﾀﾞｺﾄﾌﾞｷﾁｮｳ","prefecture":"富山県","city":"中新川郡立山町","street":"寺田ことぶき町"},{"zipCode":"9300205","prefectureKana":"ﾄﾔﾏｹﾝ","cityKana":"ﾅｶﾆｲｶﾜｸﾞﾝﾀﾃﾔﾏﾏﾁ","streetKana":"ﾃﾗﾀﾞｼﾝ","prefecture":"富山県","city":"中新川郡立山町","street":"寺田新"},{"zipCode":"9300242","prefectureKana":"ﾄﾔﾏｹﾝ","cityKana":"ﾅｶﾆｲｶﾜｸﾞﾝﾀﾃﾔﾏﾏﾁ","streetKana":"ﾃﾗﾂﾎﾞ","prefecture":"富山県","city":"中新川郡立山町","street":"寺坪"},{"zipCode":"9301413","prefectureKana":"ﾄﾔﾏｹﾝ","cityKana":"ﾅｶﾆｲｶﾜｸﾞﾝﾀﾃﾔﾏﾏﾁ","streetKana":"ﾃﾝｸﾞﾀﾞｲﾗ","prefecture":"富山県","city":"中新川郡立山町","street":"天狗平"},{"zipCode":"9301364","prefectureKana":"ﾄﾔﾏｹﾝ","cityKana":"ﾅｶﾆｲｶﾜｸﾞﾝﾀﾃﾔﾏﾏﾁ","streetKana":"ﾃﾝﾊﾞﾔｼ","prefecture":"富山県","city":"中新川郡立山町","street":"天林"},{"zipCode":"9300241","prefectureKana":"ﾄﾔﾏｹﾝ","cityKana":"ﾅｶﾆｲｶﾜｸﾞﾝﾀﾃﾔﾏﾏﾁ","streetKana":"ﾄﾞｳｹﾞﾝｼﾞ","prefecture":"富山県","city":"中新川郡立山町","street":"道源寺"},{"zipCode":"9300226","prefectureKana":"ﾄﾔﾏｹﾝ","cityKana":"ﾅｶﾆｲｶﾜｸﾞﾝﾀﾃﾔﾏﾏﾁ","streetKana":"ﾄﾞｳｼﾝ","prefecture":"富山県","city":"中新川郡立山町","street":"道新"},{"zipCode":"9301363","prefectureKana":"ﾄﾔﾏｹﾝ","cityKana":"ﾅｶﾆｲｶﾜｸﾞﾝﾀﾃﾔﾏﾏﾁ","streetKana":"ﾄﾁﾂﾞ","prefecture":"富山県","city":"中新川郡立山町","street":"栃津"},{"zipCode":"9300265","prefectureKana":"ﾄﾔﾏｹﾝ","cityKana":"ﾅｶﾆｲｶﾜｸﾞﾝﾀﾃﾔﾏﾏﾁ","streetKana":"ﾄﾏﾘｼﾝ","prefecture":"富山県","city":"中新川郡立山町","street":"泊新"},{"zipCode":"9303235","prefectureKana":"ﾄﾔﾏｹﾝ","cityKana":"ﾅｶﾆｲｶﾜｸﾞﾝﾀﾃﾔﾏﾏﾁ","streetKana":"ﾅｶﾞｸﾗ","prefecture":"富山県","city":"中新川郡立山町","street":"長倉"},{"zipCode":"9303246","prefectureKana":"ﾄﾔﾏｹﾝ","cityKana":"ﾅｶﾆｲｶﾜｸﾞﾝﾀﾃﾔﾏﾏﾁ","streetKana":"ﾅｶﾊﾞﾔｼ","prefecture":"富山県","city":"中新川郡立山町","street":"中林"},{"zipCode":"9303253","prefectureKana":"ﾄﾔﾏｹﾝ","cityKana":"ﾅｶﾆｲｶﾜｸﾞﾝﾀﾃﾔﾏﾏﾁ","streetKana":"ﾅｶﾞﾔ","prefecture":"富山県","city":"中新川郡立山町","street":"長屋"},{"zipCode":"9300245","prefectureKana":"ﾄﾔﾏｹﾝ","cityKana":"ﾅｶﾆｲｶﾜｸﾞﾝﾀﾃﾔﾏﾏﾁ","streetKana":"ﾅｶﾔﾏ","prefecture":"富山県","city":"中新川郡立山町","street":"中山"},{"zipCode":"9300269","prefectureKana":"ﾄﾔﾏｹﾝ","cityKana":"ﾅｶﾆｲｶﾜｸﾞﾝﾀﾃﾔﾏﾏﾁ","streetKana":"ﾅｶﾘﾔ","prefecture":"富山県","city":"中新川郡立山町","street":"半屋"},{"zipCode":"9300224","prefectureKana":"ﾄﾔﾏｹﾝ","cityKana":"ﾅｶﾆｲｶﾜｸﾞﾝﾀﾃﾔﾏﾏﾁ","streetKana":"ﾆｼｱｼﾊﾗ","prefecture":"富山県","city":"中新川郡立山町","street":"西芦原"},{"zipCode":"9300267","prefectureKana":"ﾄﾔﾏｹﾝ","cityKana":"ﾅｶﾆｲｶﾜｸﾞﾝﾀﾃﾔﾏﾏﾁ","streetKana":"ﾆｼｵｵﾓﾘ","prefecture":"富山県","city":"中新川郡立山町","street":"西大森"},{"zipCode":"9303211","prefectureKana":"ﾄﾔﾏｹﾝ","cityKana":"ﾅｶﾆｲｶﾜｸﾞﾝﾀﾃﾔﾏﾏﾁ","streetKana":"ﾆｯﾁｭｳ","prefecture":"富山県","city":"中新川郡立山町","street":"日中"},{"zipCode":"9303213","prefectureKana":"ﾄﾔﾏｹﾝ","cityKana":"ﾅｶﾆｲｶﾜｸﾞﾝﾀﾃﾔﾏﾏﾁ","streetKana":"ﾆｯﾁｭｳｳﾜﾉ","prefecture":"富山県","city":"中新川郡立山町","street":"日中上野"},{"zipCode":"9300222","prefectureKana":"ﾄﾔﾏｹﾝ","cityKana":"ﾅｶﾆｲｶﾜｸﾞﾝﾀﾃﾔﾏﾏﾁ","streetKana":"ﾇｷﾀ","prefecture":"富山県","city":"中新川郡立山町","street":"貫田"},{"zipCode":"9300217","prefectureKana":"ﾄﾔﾏｹﾝ","cityKana":"ﾅｶﾆｲｶﾜｸﾞﾝﾀﾃﾔﾏﾏﾁ","streetKana":"ﾉｸﾞﾁ","prefecture":"富山県","city":"中新川郡立山町","street":"野口"},{"zipCode":"9300213","prefectureKana":"ﾄﾔﾏｹﾝ","cityKana":"ﾅｶﾆｲｶﾜｸﾞﾝﾀﾃﾔﾏﾏﾁ","streetKana":"ﾉｸﾞﾁｼﾝ","prefecture":"富山県","city":"中新川郡立山町","street":"野口新"},{"zipCode":"9303217","prefectureKana":"ﾄﾔﾏｹﾝ","cityKana":"ﾅｶﾆｲｶﾜｸﾞﾝﾀﾃﾔﾏﾏﾁ","streetKana":"ﾉｻﾞﾜ","prefecture":"富山県","city":"中新川郡立山町","street":"野沢"},{"zipCode":"9303261","prefectureKana":"ﾄﾔﾏｹﾝ","cityKana":"ﾅｶﾆｲｶﾜｸﾞﾝﾀﾃﾔﾏﾏﾁ","streetKana":"ﾉﾏﾁ","prefecture":"富山県","city":"中新川郡立山町","street":"野町"},{"zipCode":"9300248","prefectureKana":"ﾄﾔﾏｹﾝ","cityKana":"ﾅｶﾆｲｶﾜｸﾞﾝﾀﾃﾔﾏﾏﾁ","streetKana":"ﾉﾑﾗ","prefecture":"富山県","city":"中新川郡立山町","street":"野村"},{"zipCode":"9300264","prefectureKana":"ﾄﾔﾏｹﾝ","cityKana":"ﾅｶﾆｲｶﾜｸﾞﾝﾀﾃﾔﾏﾏﾁ","streetKana":"ﾋｶﾞｼｵｵﾓﾘ","prefecture":"富山県","city":"中新川郡立山町","street":"東大森"},{"zipCode":"9301365","prefectureKana":"ﾄﾔﾏｹﾝ","cityKana":"ﾅｶﾆｲｶﾜｸﾞﾝﾀﾃﾔﾏﾏﾁ","streetKana":"ﾋｶﾞｼﾅｶﾉｼﾝ","prefecture":"富山県","city":"中新川郡立山町","street":"東中野新"},{"zipCode":"9303204","prefectureKana":"ﾄﾔﾏｹﾝ","cityKana":"ﾅｶﾆｲｶﾜｸﾞﾝﾀﾃﾔﾏﾏﾁ","streetKana":"ﾋｶﾞｼﾉ","prefecture":"富山県","city":"中新川郡立山町","street":"東野"},{"zipCode":"9301411","prefectureKana":"ﾄﾔﾏｹﾝ","cityKana":"ﾅｶﾆｲｶﾜｸﾞﾝﾀﾃﾔﾏﾏﾁ","streetKana":"ﾋﾞｼﾞｮﾀﾞｲﾗ","prefecture":"富山県","city":"中新川郡立山町","street":"美女平"},{"zipCode":"9300252","prefectureKana":"ﾄﾔﾏｹﾝ","cityKana":"ﾅｶﾆｲｶﾜｸﾞﾝﾀﾃﾔﾏﾏﾁ","streetKana":"ﾋﾏﾀ","prefecture":"富山県","city":"中新川郡立山町","street":"日俣"},{"zipCode":"9303216","prefectureKana":"ﾄﾔﾏｹﾝ","cityKana":"ﾅｶﾆｲｶﾜｸﾞﾝﾀﾃﾔﾏﾏﾁ","streetKana":"ﾌｸﾀ","prefecture":"富山県","city":"中新川郡立山町","street":"福田"},{"zipCode":"9303205","prefectureKana":"ﾄﾔﾏｹﾝ","cityKana":"ﾅｶﾆｲｶﾜｸﾞﾝﾀﾃﾔﾏﾏﾁ","streetKana":"ﾌｸﾗｲ","prefecture":"富山県","city":"中新川郡立山町","street":"福来"},{"zipCode":"9301404","prefectureKana":"ﾄﾔﾏｹﾝ","cityKana":"ﾅｶﾆｲｶﾜｸﾞﾝﾀﾃﾔﾏﾏﾁ","streetKana":"ﾌｼﾞﾊﾞｼ","prefecture":"富山県","city":"中新川郡立山町","street":"藤橋"},{"zipCode":"9300218","prefectureKana":"ﾄﾔﾏｹﾝ","cityKana":"ﾅｶﾆｲｶﾜｸﾞﾝﾀﾃﾔﾏﾏﾁ","streetKana":"ﾌﾀﾂﾂﾞｶ","prefecture":"富山県","city":"中新川郡立山町","street":"二ツ塚"},{"zipCode":"9303263","prefectureKana":"ﾄﾔﾏｹﾝ","cityKana":"ﾅｶﾆｲｶﾜｸﾞﾝﾀﾃﾔﾏﾏﾁ","streetKana":"ﾌﾁｶﾞﾐ","prefecture":"富山県","city":"中新川郡立山町","street":"渕上"},{"zipCode":"9301403","prefectureKana":"ﾄﾔﾏｹﾝ","cityKana":"ﾅｶﾆｲｶﾜｸﾞﾝﾀﾃﾔﾏﾏﾁ","streetKana":"ﾌﾞﾅｻﾞｶ","prefecture":"富山県","city":"中新川郡立山町","street":"ブナ坂"},{"zipCode":"9300254","prefectureKana":"ﾄﾔﾏｹﾝ","cityKana":"ﾅｶﾆｲｶﾜｸﾞﾝﾀﾃﾔﾏﾏﾁ","streetKana":"ﾌﾙｶﾜ","prefecture":"富山県","city":"中新川郡立山町","street":"古川"},{"zipCode":"9300276","prefectureKana":"ﾄﾔﾏｹﾝ","cityKana":"ﾅｶﾆｲｶﾜｸﾞﾝﾀﾃﾔﾏﾏﾁ","streetKana":"ﾎｺﾉｷ","prefecture":"富山県","city":"中新川郡立山町","street":"鉾木"},{"zipCode":"9300225","prefectureKana":"ﾄﾔﾏｹﾝ","cityKana":"ﾅｶﾆｲｶﾜｸﾞﾝﾀﾃﾔﾏﾏﾁ","streetKana":"ﾎﾝｺﾞｳｼﾞﾏ","prefecture":"富山県","city":"中新川郡立山町","street":"本郷島"},{"zipCode":"9300221","prefectureKana":"ﾄﾔﾏｹﾝ","cityKana":"ﾅｶﾆｲｶﾜｸﾞﾝﾀﾃﾔﾏﾏﾁ","streetKana":"ﾏｴｻﾞﾜ","prefecture":"富山県","city":"中新川郡立山町","street":"前沢"},{"zipCode":"9303266","prefectureKana":"ﾄﾔﾏｹﾝ","cityKana":"ﾅｶﾆｲｶﾜｸﾞﾝﾀﾃﾔﾏﾏﾁ","streetKana":"ﾏｴｻﾞﾜｼﾝ","prefecture":"富山県","city":"中新川郡立山町","street":"前沢新"},{"zipCode":"9300229","prefectureKana":"ﾄﾔﾏｹﾝ","cityKana":"ﾅｶﾆｲｶﾜｸﾞﾝﾀﾃﾔﾏﾏﾁ","streetKana":"ﾏｴｻﾞﾜｼﾝﾏﾁ","prefecture":"富山県","city":"中新川郡立山町","street":"前沢新町"},{"zipCode":"9300220","prefectureKana":"ﾄﾔﾏｹﾝ","cityKana":"ﾅｶﾆｲｶﾜｸﾞﾝﾀﾃﾔﾏﾏﾁ","streetKana":"ﾏｴｻﾞﾜﾁｭｳｵｳﾏﾁ","prefecture":"富山県","city":"中新川郡立山町","street":"前沢中央町"},{"zipCode":"9301407","prefectureKana":"ﾄﾔﾏｹﾝ","cityKana":"ﾅｶﾆｲｶﾜｸﾞﾝﾀﾃﾔﾏﾏﾁ","streetKana":"ﾏｴﾀﾆ","prefecture":"富山県","city":"中新川郡立山町","street":"前谷"},{"zipCode":"9303237","prefectureKana":"ﾄﾔﾏｹﾝ","cityKana":"ﾅｶﾆｲｶﾜｸﾞﾝﾀﾃﾔﾏﾏﾁ","streetKana":"ﾏﾂｸﾗ","prefecture":"富山県","city":"中新川郡立山町","street":"松倉"},{"zipCode":"9301361","prefectureKana":"ﾄﾔﾏｹﾝ","cityKana":"ﾅｶﾆｲｶﾜｸﾞﾝﾀﾃﾔﾏﾏﾁ","streetKana":"ﾐｻﾀﾞ","prefecture":"富山県","city":"中新川郡立山町","street":"下田"},{"zipCode":"9301412","prefectureKana":"ﾄﾔﾏｹﾝ","cityKana":"ﾅｶﾆｲｶﾜｸﾞﾝﾀﾃﾔﾏﾏﾁ","streetKana":"ﾐﾀﾞｶﾞﾊﾗ","prefecture":"富山県","city":"中新川郡立山町","street":"弥陀ケ原"},{"zipCode":"9300266","prefectureKana":"ﾄﾔﾏｹﾝ","cityKana":"ﾅｶﾆｲｶﾜｸﾞﾝﾀﾃﾔﾏﾏﾁ","streetKana":"ﾐﾂﾂﾞｶ","prefecture":"富山県","city":"中新川郡立山町","street":"三ツ塚"},{"zipCode":"9300266","prefectureKana":"ﾄﾔﾏｹﾝ","cityKana":"ﾅｶﾆｲｶﾜｸﾞﾝﾀﾃﾔﾏﾏﾁ","streetKana":"ﾐﾂﾂﾞｶｼﾝ","prefecture":"富山県","city":"中新川郡立山町","street":"三ツ塚新"},{"zipCode":"9301367","prefectureKana":"ﾄﾔﾏｹﾝ","cityKana":"ﾅｶﾆｲｶﾜｸﾞﾝﾀﾃﾔﾏﾏﾁ","streetKana":"ﾐﾔｼﾞ","prefecture":"富山県","city":"中新川郡立山町","street":"宮路"},{"zipCode":"9300215","prefectureKana":"ﾄﾔﾏｹﾝ","cityKana":"ﾅｶﾆｲｶﾜｸﾞﾝﾀﾃﾔﾏﾏﾁ","streetKana":"ﾐﾔﾅﾘ","prefecture":"富山県","city":"中新川郡立山町","street":"宮成"},{"zipCode":"9300255","prefectureKana":"ﾄﾔﾏｹﾝ","cityKana":"ﾅｶﾆｲｶﾜｸﾞﾝﾀﾃﾔﾏﾏﾁ","streetKana":"ﾑｶｲｼﾝｼﾞｮｳ","prefecture":"富山県","city":"中新川郡立山町","street":"向新庄"},{"zipCode":"9303223","prefectureKana":"ﾄﾔﾏｹﾝ","cityKana":"ﾅｶﾆｲｶﾜｸﾞﾝﾀﾃﾔﾏﾏﾁ","streetKana":"ﾑｼﾀﾆ","prefecture":"富山県","city":"中新川郡立山町","street":"虫谷"},{"zipCode":"9301414","prefectureKana":"ﾄﾔﾏｹﾝ","cityKana":"ﾅｶﾆｲｶﾜｸﾞﾝﾀﾃﾔﾏﾏﾁ","streetKana":"ﾑﾛﾄﾞｳ","prefecture":"富山県","city":"中新川郡立山町","street":"室堂"},{"zipCode":"9303232","prefectureKana":"ﾄﾔﾏｹﾝ","cityKana":"ﾅｶﾆｲｶﾜｸﾞﾝﾀﾃﾔﾏﾏﾁ","streetKana":"ﾒｯｶ","prefecture":"富山県","city":"中新川郡立山町","street":"目桑"},{"zipCode":"9303277","prefectureKana":"ﾄﾔﾏｹﾝ","cityKana":"ﾅｶﾆｲｶﾜｸﾞﾝﾀﾃﾔﾏﾏﾁ","streetKana":"ﾖｺｴ(ﾀｶﾉﾁｸ)","prefecture":"富山県","city":"中新川郡立山町","street":"横江（高野地区）"},{"zipCode":"9301377","prefectureKana":"ﾄﾔﾏｹﾝ","cityKana":"ﾅｶﾆｲｶﾜｸﾞﾝﾀﾃﾔﾏﾏﾁ","streetKana":"ﾖｺｴ(ﾀﾃﾔﾏﾁｸ)","prefecture":"富山県","city":"中新川郡立山町","street":"横江（立山地区）"},{"zipCode":"9301366","prefectureKana":"ﾄﾔﾏｹﾝ","cityKana":"ﾅｶﾆｲｶﾜｸﾞﾝﾀﾃﾔﾏﾏﾁ","streetKana":"ﾖｺｴﾉﾋﾞﾗｷ","prefecture":"富山県","city":"中新川郡立山町","street":"横江野開"},{"zipCode":"9300273","prefectureKana":"ﾄﾔﾏｹﾝ","cityKana":"ﾅｶﾆｲｶﾜｸﾞﾝﾀﾃﾔﾏﾏﾁ","streetKana":"ﾖｺｻﾞﾜ","prefecture":"富山県","city":"中新川郡立山町","street":"横沢"},{"zipCode":"9301362","prefectureKana":"ﾄﾔﾏｹﾝ","cityKana":"ﾅｶﾆｲｶﾜｸﾞﾝﾀﾃﾔﾏﾏﾁ","streetKana":"ﾖｼﾐﾈﾉﾋﾞﾗｷ","prefecture":"富山県","city":"中新川郡立山町","street":"吉峰野開"},{"zipCode":"9303265","prefectureKana":"ﾄﾔﾏｹﾝ","cityKana":"ﾅｶﾆｲｶﾜｸﾞﾝﾀﾃﾔﾏﾏﾁ","streetKana":"ﾖﾈｻﾞﾜ","prefecture":"富山県","city":"中新川郡立山町","street":"米沢"},{"zipCode":"9301362","prefectureKana":"ﾄﾔﾏｹﾝ","cityKana":"ﾅｶﾆｲｶﾜｸﾞﾝﾀﾃﾔﾏﾏﾁ","streetKana":"ﾖﾈﾐﾁ(ﾀﾆｳﾁ､ﾋｶﾞｼﾀﾞﾆ)","prefecture":"富山県","city":"中新川郡立山町","street":"米道（谷内、東谷）"},{"zipCode":"9300243","prefectureKana":"ﾄﾔﾏｹﾝ","cityKana":"ﾅｶﾆｲｶﾜｸﾞﾝﾀﾃﾔﾏﾏﾁ","streetKana":"ﾖﾈﾐﾁ(ｿﾉﾀ)","prefecture":"富山県","city":"中新川郡立山町","street":"米道（その他）"},{"zipCode":"9301415","prefectureKana":"ﾄﾔﾏｹﾝ","cityKana":"ﾅｶﾆｲｶﾜｸﾞﾝﾀﾃﾔﾏﾏﾁ","streetKana":"ﾗｲﾁｮｳｻﾞﾜ","prefecture":"富山県","city":"中新川郡立山町","street":"雷鳥沢"},{"zipCode":"9300275","prefectureKana":"ﾄﾔﾏｹﾝ","cityKana":"ﾅｶﾆｲｶﾜｸﾞﾝﾀﾃﾔﾏﾏﾁ","streetKana":"ﾘﾀ","prefecture":"富山県","city":"中新川郡立山町","street":"利田"},{"zipCode":"9303231","prefectureKana":"ﾄﾔﾏｹﾝ","cityKana":"ﾅｶﾆｲｶﾜｸﾞﾝﾀﾃﾔﾏﾏﾁ","streetKana":"ﾛｸﾛｳﾀﾞﾆ","prefecture":"富山県","city":"中新川郡立山町","street":"六郎谷"},{"zipCode":"9300203","prefectureKana":"ﾄﾔﾏｹﾝ","cityKana":"ﾅｶﾆｲｶﾜｸﾞﾝﾀﾃﾔﾏﾏﾁ","streetKana":"ﾜｶﾊﾞﾔｼ","prefecture":"富山県","city":"中新川郡立山町","street":"若林"},{"zipCode":"9300202","prefectureKana":"ﾄﾔﾏｹﾝ","cityKana":"ﾅｶﾆｲｶﾜｸﾞﾝﾀﾃﾔﾏﾏﾁ","streetKana":"ﾜｶﾐﾔ","prefecture":"富山県","city":"中新川郡立山町","street":"若宮"}]