[{"zipCode":"9370000","prefectureKana":"ﾄﾔﾏｹﾝ","cityKana":"ｳｵﾂﾞｼ","streetKana":"ｲｶﾆｹｲｻｲｶﾞﾅｲﾊﾞｱｲ","prefecture":"富山県","city":"魚津市","street":"以下に掲載がない場合"},{"zipCode":"9370045","prefectureKana":"ﾄﾔﾏｹﾝ","cityKana":"ｳｵﾂﾞｼ","streetKana":"ｱｲﾉｷ","prefecture":"富山県","city":"魚津市","street":"相木"},{"zipCode":"9370047","prefectureKana":"ﾄﾔﾏｹﾝ","cityKana":"ｳｵﾂﾞｼ","streetKana":"ｱｲﾉｷｼﾝ","prefecture":"富山県","city":"魚津市","street":"相木新"},{"zipCode":"9370063","prefectureKana":"ﾄﾔﾏｹﾝ","cityKana":"ｳｵﾂﾞｼ","streetKana":"ｱｵｼﾞﾏ","prefecture":"富山県","city":"魚津市","street":"青島"},{"zipCode":"9370014","prefectureKana":"ﾄﾔﾏｹﾝ","cityKana":"ｳｵﾂﾞｼ","streetKana":"ｱｵﾔﾅｷﾞ","prefecture":"富山県","city":"魚津市","street":"青柳"},{"zipCode":"9370036","prefectureKana":"ﾄﾔﾏｹﾝ","cityKana":"ｳｵﾂﾞｼ","streetKana":"ｱｹﾋﾞ","prefecture":"富山県","city":"魚津市","street":"山女"},{"zipCode":"9370847","prefectureKana":"ﾄﾔﾏｹﾝ","cityKana":"ｳｵﾂﾞｼ","streetKana":"ｱｿｳ","prefecture":"富山県","city":"魚津市","street":"浅生"},{"zipCode":"9370846","prefectureKana":"ﾄﾔﾏｹﾝ","cityKana":"ｳｵﾂﾞｼ","streetKana":"ｱﾘﾔﾏ","prefecture":"富山県","city":"魚津市","street":"有山"},{"zipCode":"9370828","prefectureKana":"ﾄﾔﾏｹﾝ","cityKana":"ｳｵﾂﾞｼ","streetKana":"ｲｹﾀﾞﾆ","prefecture":"富山県","city":"魚津市","street":"池谷"},{"zipCode":"9370814","prefectureKana":"ﾄﾔﾏｹﾝ","cityKana":"ｳｵﾂﾞｼ","streetKana":"ｲｼｶﾞｷ","prefecture":"富山県","city":"魚津市","street":"石垣"},{"zipCode":"9370813","prefectureKana":"ﾄﾔﾏｹﾝ","cityKana":"ｳｵﾂﾞｼ","streetKana":"ｲｼｶﾞｷｼﾝ","prefecture":"富山県","city":"魚津市","street":"石垣新"},{"zipCode":"9370821","prefectureKana":"ﾄﾔﾏｹﾝ","cityKana":"ｳｵﾂﾞｼ","streetKana":"ｲﾃﾞ","prefecture":"富山県","city":"魚津市","street":"出"},{"zipCode":"9370812","prefectureKana":"ﾄﾔﾏｹﾝ","cityKana":"ｳｵﾂﾞｼ","streetKana":"ｲﾝﾃﾞﾝ","prefecture":"富山県","city":"魚津市","street":"印田"},{"zipCode":"9370843","prefectureKana":"ﾄﾔﾏｹﾝ","cityKana":"ｳｵﾂﾞｼ","streetKana":"ｳﾜﾉ","prefecture":"富山県","city":"魚津市","street":"上野"},{"zipCode":"9370051","prefectureKana":"ﾄﾔﾏｹﾝ","cityKana":"ｳｵﾂﾞｼ","streetKana":"ｴｷﾏｴｼﾝﾏﾁ","prefecture":"富山県","city":"魚津市","street":"駅前新町"},{"zipCode":"9370017","prefectureKana":"ﾄﾔﾏｹﾝ","cityKana":"ｳｵﾂﾞｼ","streetKana":"ｴｸﾞﾁ","prefecture":"富山県","city":"魚津市","street":"江口"},{"zipCode":"9370835","prefectureKana":"ﾄﾔﾏｹﾝ","cityKana":"ｳｵﾂﾞｼ","streetKana":"ｵｵｸﾏ","prefecture":"富山県","city":"魚津市","street":"大熊"},{"zipCode":"9370026","prefectureKana":"ﾄﾔﾏｹﾝ","cityKana":"ｳｵﾂﾞｼ","streetKana":"ｵｵｻﾜ","prefecture":"富山県","city":"魚津市","street":"大沢"},{"zipCode":"9370039","prefectureKana":"ﾄﾔﾏｹﾝ","cityKana":"ｳｵﾂﾞｼ","streetKana":"ｵｵｽｶﾞﾇﾏ","prefecture":"富山県","city":"魚津市","street":"大菅沼"},{"zipCode":"9370004","prefectureKana":"ﾄﾔﾏｹﾝ","cityKana":"ｳｵﾂﾞｼ","streetKana":"ｵｶｷｮｳﾃﾞﾝ","prefecture":"富山県","city":"魚津市","street":"岡経田"},{"zipCode":"9370022","prefectureKana":"ﾄﾔﾏｹﾝ","cityKana":"ｳｵﾂﾞｼ","streetKana":"ｵｶﾞﾜｼﾞ","prefecture":"富山県","city":"魚津市","street":"小川寺"},{"zipCode":"9370032","prefectureKana":"ﾄﾔﾏｹﾝ","cityKana":"ｳｵﾂﾞｼ","streetKana":"ｶｲﾀﾞｼﾝ","prefecture":"富山県","city":"魚津市","street":"貝田新"},{"zipCode":"9370834","prefectureKana":"ﾄﾔﾏｹﾝ","cityKana":"ｳｵﾂﾞｼ","streetKana":"ｶｸﾏ","prefecture":"富山県","city":"魚津市","street":"鹿熊"},{"zipCode":"9370054","prefectureKana":"ﾄﾔﾏｹﾝ","cityKana":"ｳｵﾂﾞｼ","streetKana":"ｶﾅｳﾗﾏﾁ","prefecture":"富山県","city":"魚津市","street":"金浦町"},{"zipCode":"9370832","prefectureKana":"ﾄﾔﾏｹﾝ","cityKana":"ｳｵﾂﾞｼ","streetKana":"ｶﾅﾔﾏﾀﾞﾆ","prefecture":"富山県","city":"魚津市","street":"金山谷"},{"zipCode":"9370865","prefectureKana":"ﾄﾔﾏｹﾝ","cityKana":"ｳｵﾂﾞｼ","streetKana":"ｶﾐｸﾞﾁ","prefecture":"富山県","city":"魚津市","street":"上口"},{"zipCode":"9370046","prefectureKana":"ﾄﾔﾏｹﾝ","cityKana":"ｳｵﾂﾞｼ","streetKana":"ｶﾐﾑﾗｷ","prefecture":"富山県","city":"魚津市","street":"上村木"},{"zipCode":"9370861","prefectureKana":"ﾄﾔﾏｹﾝ","cityKana":"ｳｵﾂﾞｼ","streetKana":"ｶﾓｶﾞﾜﾏﾁ","prefecture":"富山県","city":"魚津市","street":"鴨川町"},{"zipCode":"9370855","prefectureKana":"ﾄﾔﾏｹﾝ","cityKana":"ｳｵﾂﾞｼ","streetKana":"ｶﾜﾊﾗ","prefecture":"富山県","city":"魚津市","street":"川原"},{"zipCode":"9370856","prefectureKana":"ﾄﾔﾏｹﾝ","cityKana":"ｳｵﾂﾞｼ","streetKana":"ｶﾜﾍﾞﾘ","prefecture":"富山県","city":"魚津市","street":"川縁"},{"zipCode":"9370831","prefectureKana":"ﾄﾔﾏｹﾝ","cityKana":"ｳｵﾂﾞｼ","streetKana":"ｶﾝﾉﾝﾄﾞｳ","prefecture":"富山県","city":"魚津市","street":"観音堂"},{"zipCode":"9370066","prefectureKana":"ﾄﾔﾏｹﾝ","cityKana":"ｳｵﾂﾞｼ","streetKana":"ｷﾀｵﾆｴ","prefecture":"富山県","city":"魚津市","street":"北鬼江"},{"zipCode":"9370065","prefectureKana":"ﾄﾔﾏｹﾝ","cityKana":"ｳｵﾂﾞｼ","streetKana":"ｷﾀﾅｶ","prefecture":"富山県","city":"魚津市","street":"北中"},{"zipCode":"9370826","prefectureKana":"ﾄﾔﾏｹﾝ","cityKana":"ｳｵﾂﾞｼ","streetKana":"ｷﾀﾔﾏ","prefecture":"富山県","city":"魚津市","street":"北山"},{"zipCode":"9370041","prefectureKana":"ﾄﾔﾏｹﾝ","cityKana":"ｳｵﾂﾞｼ","streetKana":"ｷﾁｼﾞﾏ","prefecture":"富山県","city":"魚津市","street":"吉島"},{"zipCode":"9370011","prefectureKana":"ﾄﾔﾏｹﾝ","cityKana":"ｳｵﾂﾞｼ","streetKana":"ｷﾉｼﾀｼﾝ","prefecture":"富山県","city":"魚津市","street":"木下新"},{"zipCode":"9370007","prefectureKana":"ﾄﾔﾏｹﾝ","cityKana":"ｳｵﾂﾞｼ","streetKana":"ｷｮｳﾃﾞﾝﾅｶﾏﾁ","prefecture":"富山県","city":"魚津市","street":"経田中町"},{"zipCode":"9370006","prefectureKana":"ﾄﾔﾏｹﾝ","cityKana":"ｳｵﾂﾞｼ","streetKana":"ｷｮｳﾃﾞﾝﾆｼﾏﾁ","prefecture":"富山県","city":"魚津市","street":"経田西町"},{"zipCode":"9370025","prefectureKana":"ﾄﾔﾏｹﾝ","cityKana":"ｳｵﾂﾞｼ","streetKana":"ｸﾛｻﾜ","prefecture":"富山県","city":"魚津市","street":"黒沢"},{"zipCode":"9370035","prefectureKana":"ﾄﾔﾏｹﾝ","cityKana":"ｳｵﾂﾞｼ","streetKana":"ｸﾛﾀﾞﾆ","prefecture":"富山県","city":"魚津市","street":"黒谷"},{"zipCode":"9370852","prefectureKana":"ﾄﾔﾏｹﾝ","cityKana":"ｳｵﾂﾞｼ","streetKana":"ｹｲﾉ","prefecture":"富山県","city":"魚津市","street":"慶野"},{"zipCode":"9370833","prefectureKana":"ﾄﾔﾏｹﾝ","cityKana":"ｳｵﾂﾞｼ","streetKana":"ｺｽｶﾞﾇﾏ","prefecture":"富山県","city":"魚津市","street":"小菅沼"},{"zipCode":"9370009","prefectureKana":"ﾄﾔﾏｹﾝ","cityKana":"ｳｵﾂﾞｼ","streetKana":"ｺﾄﾌﾞｷﾏﾁ","prefecture":"富山県","city":"魚津市","street":"寿町"},{"zipCode":"9370841","prefectureKana":"ﾄﾔﾏｹﾝ","cityKana":"ｳｵﾂﾞｼ","streetKana":"ｻｴｷ","prefecture":"富山県","city":"魚津市","street":"佐伯"},{"zipCode":"9370857","prefectureKana":"ﾄﾔﾏｹﾝ","cityKana":"ｳｵﾂﾞｼ","streetKana":"ｻﾝｶﾞ","prefecture":"富山県","city":"魚津市","street":"三ケ"},{"zipCode":"9370811","prefectureKana":"ﾄﾔﾏｹﾝ","cityKana":"ｳｵﾂﾞｼ","streetKana":"ｻﾝﾀﾞ","prefecture":"富山県","city":"魚津市","street":"三田"},{"zipCode":"9370003","prefectureKana":"ﾄﾔﾏｹﾝ","cityKana":"ｳｵﾂﾞｼ","streetKana":"ｼﾞｺｳｼﾞ","prefecture":"富山県","city":"魚津市","street":"持光寺"},{"zipCode":"9370033","prefectureKana":"ﾄﾔﾏｹﾝ","cityKana":"ｳｵﾂﾞｼ","streetKana":"ｼﾏｼﾞﾘ","prefecture":"富山県","city":"魚津市","street":"島尻"},{"zipCode":"9370844","prefectureKana":"ﾄﾔﾏｹﾝ","cityKana":"ｳｵﾂﾞｼ","streetKana":"ｼﾓﾂﾊﾞｷ","prefecture":"富山県","city":"魚津市","street":"下椿"},{"zipCode":"9370802","prefectureKana":"ﾄﾔﾏｹﾝ","cityKana":"ｳｵﾂﾞｼ","streetKana":"ｼﾓﾑﾗｷﾏﾁ","prefecture":"富山県","city":"魚津市","street":"下村木町"},{"zipCode":"9370067","prefectureKana":"ﾄﾔﾏｹﾝ","cityKana":"ｳｵﾂﾞｼ","streetKana":"ｼｬｶﾄﾞｳ","prefecture":"富山県","city":"魚津市","street":"釈迦堂"},{"zipCode":"9370864","prefectureKana":"ﾄﾔﾏｹﾝ","cityKana":"ｳｵﾂﾞｼ","streetKana":"ｼﾝｶﾄﾞｶﾞﾜ","prefecture":"富山県","city":"魚津市","street":"新角川"},{"zipCode":"9370801","prefectureKana":"ﾄﾔﾏｹﾝ","cityKana":"ｳｵﾂﾞｼ","streetKana":"ｼﾝｶﾅﾔ","prefecture":"富山県","city":"魚津市","street":"新金屋"},{"zipCode":"9370010","prefectureKana":"ﾄﾔﾏｹﾝ","cityKana":"ｳｵﾂﾞｼ","streetKana":"ｼﾝｷｮｳﾃﾞﾝ","prefecture":"富山県","city":"魚津市","street":"新経田"},{"zipCode":"9370863","prefectureKana":"ﾄﾔﾏｹﾝ","cityKana":"ｳｵﾂﾞｼ","streetKana":"ｼﾝｼﾞｭｸ","prefecture":"富山県","city":"魚津市","street":"新宿"},{"zipCode":"9370867","prefectureKana":"ﾄﾔﾏｹﾝ","cityKana":"ｳｵﾂﾞｼ","streetKana":"ｼﾝｼﾞｮｳｼﾞﾏﾁ","prefecture":"富山県","city":"魚津市","street":"真成寺町"},{"zipCode":"9370059","prefectureKana":"ﾄﾔﾏｹﾝ","cityKana":"ｳｵﾂﾞｼ","streetKana":"ｽｴﾋﾛﾁｮｳ","prefecture":"富山県","city":"魚津市","street":"末広町"},{"zipCode":"9370851","prefectureKana":"ﾄﾔﾏｹﾝ","cityKana":"ｳｵﾂﾞｼ","streetKana":"ｽﾐﾖｼ","prefecture":"富山県","city":"魚津市","street":"住吉"},{"zipCode":"9370056","prefectureKana":"ﾄﾔﾏｹﾝ","cityKana":"ｳｵﾂﾞｼ","streetKana":"ｽﾜﾏﾁ","prefecture":"富山県","city":"魚津市","street":"諏訪町"},{"zipCode":"9370815","prefectureKana":"ﾄﾔﾏｹﾝ","cityKana":"ｳｵﾂﾞｼ","streetKana":"ﾀﾞｲｶｲｼﾞｼﾝ","prefecture":"富山県","city":"魚津市","street":"大海寺新"},{"zipCode":"9370816","prefectureKana":"ﾄﾔﾏｹﾝ","cityKana":"ｳｵﾂﾞｼ","streetKana":"ﾀﾞｲｶｲｼﾞﾉ","prefecture":"富山県","city":"魚津市","street":"大海寺野"},{"zipCode":"9370807","prefectureKana":"ﾄﾔﾏｹﾝ","cityKana":"ｳｵﾂﾞｼ","streetKana":"ﾀﾞｲｺｳｼﾞ","prefecture":"富山県","city":"魚津市","street":"大光寺"},{"zipCode":"9370064","prefectureKana":"ﾄﾔﾏｹﾝ","cityKana":"ｳｵﾂﾞｼ","streetKana":"ﾀｶﾊﾞﾀｹ","prefecture":"富山県","city":"魚津市","street":"高畠"},{"zipCode":"9370016","prefectureKana":"ﾄﾔﾏｹﾝ","cityKana":"ｳｵﾂﾞｼ","streetKana":"ﾀﾃｲｼ","prefecture":"富山県","city":"魚津市","street":"立石"},{"zipCode":"9370055","prefectureKana":"ﾄﾔﾏｹﾝ","cityKana":"ｳｵﾂﾞｼ","streetKana":"ﾁｭｳｵｳﾄﾞｵﾘ","prefecture":"富山県","city":"魚津市","street":"中央通り"},{"zipCode":"9370827","prefectureKana":"ﾄﾔﾏｹﾝ","cityKana":"ｳｵﾂﾞｼ","streetKana":"ﾂﾎﾞﾉ","prefecture":"富山県","city":"魚津市","street":"坪野"},{"zipCode":"9370013","prefectureKana":"ﾄﾔﾏｹﾝ","cityKana":"ｳｵﾂﾞｼ","streetKana":"ﾃﾝｼﾞﾝﾉｼﾝ","prefecture":"富山県","city":"魚津市","street":"天神野新"},{"zipCode":"9370005","prefectureKana":"ﾄﾔﾏｹﾝ","cityKana":"ｳｵﾂﾞｼ","streetKana":"ﾃﾝﾉｳ","prefecture":"富山県","city":"魚津市","street":"天王"},{"zipCode":"9370031","prefectureKana":"ﾄﾔﾏｹﾝ","cityKana":"ｳｵﾂﾞｼ","streetKana":"ﾄﾞｳｻﾞｶ","prefecture":"富山県","city":"魚津市","street":"道坂"},{"zipCode":"9370034","prefectureKana":"ﾄﾔﾏｹﾝ","cityKana":"ｳｵﾂﾞｼ","streetKana":"ﾄｳｼﾞｮｳ","prefecture":"富山県","city":"魚津市","street":"東城"},{"zipCode":"9370037","prefectureKana":"ﾄﾔﾏｹﾝ","cityKana":"ｳｵﾂﾞｼ","streetKana":"ﾄｳｿﾞｳ","prefecture":"富山県","city":"魚津市","street":"東蔵"},{"zipCode":"9370806","prefectureKana":"ﾄﾔﾏｹﾝ","cityKana":"ｳｵﾂﾞｼ","streetKana":"ﾄﾓﾐﾁ","prefecture":"富山県","city":"魚津市","street":"友道"},{"zipCode":"9370837","prefectureKana":"ﾄﾔﾏｹﾝ","cityKana":"ｳｵﾂﾞｼ","streetKana":"ﾄﾗﾀﾞﾆ","prefecture":"富山県","city":"魚津市","street":"虎谷"},{"zipCode":"9370023","prefectureKana":"ﾄﾔﾏｹﾝ","cityKana":"ｳｵﾂﾞｼ","streetKana":"ﾅｶﾞﾋﾞｷﾉ","prefecture":"富山県","city":"魚津市","street":"長引野"},{"zipCode":"9370804","prefectureKana":"ﾄﾔﾏｹﾝ","cityKana":"ｳｵﾂﾞｼ","streetKana":"ﾅﾐｷﾁｮｳ","prefecture":"富山県","city":"魚津市","street":"並木町"},{"zipCode":"9370018","prefectureKana":"ﾄﾔﾏｹﾝ","cityKana":"ｳｵﾂﾞｼ","streetKana":"ﾆｼｵｻｷ","prefecture":"富山県","city":"魚津市","street":"西尾崎"},{"zipCode":"9370836","prefectureKana":"ﾄﾔﾏｹﾝ","cityKana":"ｳｵﾂﾞｼ","streetKana":"ﾊﾁ","prefecture":"富山県","city":"魚津市","street":"鉢"},{"zipCode":"9370001","prefectureKana":"ﾄﾔﾏｹﾝ","cityKana":"ｳｵﾂﾞｼ","streetKana":"ﾊﾏｷｮｳﾃﾞﾝ","prefecture":"富山県","city":"魚津市","street":"浜経田"},{"zipCode":"9370825","prefectureKana":"ﾄﾔﾏｹﾝ","cityKana":"ｳｵﾂﾞｼ","streetKana":"ﾋｴﾊﾞﾀｹ","prefecture":"富山県","city":"魚津市","street":"稗畠"},{"zipCode":"9370028","prefectureKana":"ﾄﾔﾏｹﾝ","cityKana":"ｳｵﾂﾞｼ","streetKana":"ﾋｵ","prefecture":"富山県","city":"魚津市","street":"日尾"},{"zipCode":"9370012","prefectureKana":"ﾄﾔﾏｹﾝ","cityKana":"ｳｵﾂﾞｼ","streetKana":"ﾋｶﾞｼｵｻﾞｷ","prefecture":"富山県","city":"魚津市","street":"東尾崎"},{"zipCode":"9370008","prefectureKana":"ﾄﾔﾏｹﾝ","cityKana":"ｳｵﾂﾞｼ","streetKana":"ﾋｶﾞｼﾏﾁ","prefecture":"富山県","city":"魚津市","street":"東町"},{"zipCode":"9370015","prefectureKana":"ﾄﾔﾏｹﾝ","cityKana":"ｳｵﾂﾞｼ","streetKana":"ﾋｶﾞｼﾔﾏ","prefecture":"富山県","city":"魚津市","street":"東山"},{"zipCode":"9370058","prefectureKana":"ﾄﾔﾏｹﾝ","cityKana":"ｳｵﾂﾞｼ","streetKana":"ﾋﾉﾐﾔﾏﾁ","prefecture":"富山県","city":"魚津市","street":"火の宮町"},{"zipCode":"9370038","prefectureKana":"ﾄﾔﾏｹﾝ","cityKana":"ｳｵﾂﾞｼ","streetKana":"ﾋﾗｻﾜ","prefecture":"富山県","city":"魚津市","street":"平沢"},{"zipCode":"9370043","prefectureKana":"ﾄﾔﾏｹﾝ","cityKana":"ｳｵﾂﾞｼ","streetKana":"ﾌｸﾛ","prefecture":"富山県","city":"魚津市","street":"袋"},{"zipCode":"9370024","prefectureKana":"ﾄﾔﾏｹﾝ","cityKana":"ｳｵﾂﾞｼ","streetKana":"ﾌｾﾂﾞﾒ","prefecture":"富山県","city":"魚津市","street":"布施爪"},{"zipCode":"9370868","prefectureKana":"ﾄﾔﾏｹﾝ","cityKana":"ｳｵﾂﾞｼ","streetKana":"ﾌﾀﾊﾞﾁｮｳ","prefecture":"富山県","city":"魚津市","street":"双葉町"},{"zipCode":"9370061","prefectureKana":"ﾄﾔﾏｹﾝ","cityKana":"ｳｵﾂﾞｼ","streetKana":"ﾌﾞﾂﾃﾞﾝ","prefecture":"富山県","city":"魚津市","street":"仏田"},{"zipCode":"9370062","prefectureKana":"ﾄﾔﾏｹﾝ","cityKana":"ｳｵﾂﾞｼ","streetKana":"ﾌﾞﾂﾏﾀ","prefecture":"富山県","city":"魚津市","street":"仏又"},{"zipCode":"9370862","prefectureKana":"ﾄﾔﾏｹﾝ","cityKana":"ｳｵﾂﾞｼ","streetKana":"ﾌﾞﾝｶﾏﾁ","prefecture":"富山県","city":"魚津市","street":"文化町"},{"zipCode":"9370002","prefectureKana":"ﾄﾔﾏｹﾝ","cityKana":"ｳｵﾂﾞｼ","streetKana":"ﾍｲﾃﾞﾝｼﾞ","prefecture":"富山県","city":"魚津市","street":"平伝寺"},{"zipCode":"9370021","prefectureKana":"ﾄﾔﾏｹﾝ","cityKana":"ｳｵﾂﾞｼ","streetKana":"ﾍﾋﾞﾀ","prefecture":"富山県","city":"魚津市","street":"蛇田"},{"zipCode":"9370805","prefectureKana":"ﾄﾔﾏｹﾝ","cityKana":"ｳｵﾂﾞｼ","streetKana":"ﾎﾝｺﾞｳ","prefecture":"富山県","city":"魚津市","street":"本江"},{"zipCode":"9370803","prefectureKana":"ﾄﾔﾏｹﾝ","cityKana":"ｳｵﾂﾞｼ","streetKana":"ﾎﾝｺﾞｳｼﾝﾏﾁ","prefecture":"富山県","city":"魚津市","street":"本江新町"},{"zipCode":"9370866","prefectureKana":"ﾄﾔﾏｹﾝ","cityKana":"ｳｵﾂﾞｼ","streetKana":"ﾎﾝﾏﾁ","prefecture":"富山県","city":"魚津市","street":"本町"},{"zipCode":"9370845","prefectureKana":"ﾄﾔﾏｹﾝ","cityKana":"ｳｵﾂﾞｼ","streetKana":"ﾏｽｶﾀ","prefecture":"富山県","city":"魚津市","street":"舛方"},{"zipCode":"9370822","prefectureKana":"ﾄﾔﾏｹﾝ","cityKana":"ｳｵﾂﾞｼ","streetKana":"ﾏｽﾀﾞ","prefecture":"富山県","city":"魚津市","street":"舛田"},{"zipCode":"9370027","prefectureKana":"ﾄﾔﾏｹﾝ","cityKana":"ｳｵﾂﾞｼ","streetKana":"ﾐｶｹﾞ","prefecture":"富山県","city":"魚津市","street":"御影"},{"zipCode":"9370052","prefectureKana":"ﾄﾔﾏｹﾝ","cityKana":"ｳｵﾂﾞｼ","streetKana":"ﾐﾄﾞﾘﾁｮｳ","prefecture":"富山県","city":"魚津市","street":"緑町"},{"zipCode":"9370057","prefectureKana":"ﾄﾔﾏｹﾝ","cityKana":"ｳｵﾂﾞｼ","streetKana":"ﾐﾅﾄﾏﾁ","prefecture":"富山県","city":"魚津市","street":"港町"},{"zipCode":"9370853","prefectureKana":"ﾄﾔﾏｹﾝ","cityKana":"ｳｵﾂﾞｼ","streetKana":"ﾐﾔﾂﾞ","prefecture":"富山県","city":"魚津市","street":"宮津"},{"zipCode":"9370053","prefectureKana":"ﾄﾔﾏｹﾝ","cityKana":"ｳｵﾂﾞｼ","streetKana":"ﾑﾗｷﾏﾁ","prefecture":"富山県","city":"魚津市","street":"村木町"},{"zipCode":"9370824","prefectureKana":"ﾄﾔﾏｹﾝ","cityKana":"ｳｵﾂﾞｼ","streetKana":"ﾑﾛﾀﾞ","prefecture":"富山県","city":"魚津市","street":"室田"},{"zipCode":"9370068","prefectureKana":"ﾄﾔﾏｹﾝ","cityKana":"ｳｵﾂﾞｼ","streetKana":"ﾓﾄｼﾝ","prefecture":"富山県","city":"魚津市","street":"本新"},{"zipCode":"9370068","prefectureKana":"ﾄﾔﾏｹﾝ","cityKana":"ｳｵﾂﾞｼ","streetKana":"ﾓﾄｼﾝﾏﾁ","prefecture":"富山県","city":"魚津市","street":"本新町"},{"zipCode":"9370854","prefectureKana":"ﾄﾔﾏｹﾝ","cityKana":"ｳｵﾂﾞｼ","streetKana":"ﾔｹﾞﾝｼﾞ","prefecture":"富山県","city":"魚津市","street":"弥源寺"},{"zipCode":"9370823","prefectureKana":"ﾄﾔﾏｹﾝ","cityKana":"ｳｵﾂﾞｼ","streetKana":"ﾕﾉｴ","prefecture":"富山県","city":"魚津市","street":"湯上"},{"zipCode":"9370044","prefectureKana":"ﾄﾔﾏｹﾝ","cityKana":"ｳｵﾂﾞｼ","streetKana":"ﾖｺﾏｸﾗ","prefecture":"富山県","city":"魚津市","street":"横枕"},{"zipCode":"9370842","prefectureKana":"ﾄﾔﾏｹﾝ","cityKana":"ｳｵﾂﾞｼ","streetKana":"ﾖｼﾉ","prefecture":"富山県","city":"魚津市","street":"吉野"},{"zipCode":"9370042","prefectureKana":"ﾄﾔﾏｹﾝ","cityKana":"ｳｵﾂﾞｼ","streetKana":"ﾛｸﾛｳﾏﾙ","prefecture":"富山県","city":"魚津市","street":"六郎丸"}]