[{"zipCode":"9390000","prefectureKana":"ﾄﾔﾏｹﾝ","cityKana":"ﾄﾔﾏｼ","streetKana":"ｲｶﾆｹｲｻｲｶﾞﾅｲﾊﾞｱｲ","prefecture":"富山県","city":"富山市","street":"以下に掲載がない場合"},{"zipCode":"9398162","prefectureKana":"ﾄﾔﾏｹﾝ","cityKana":"ﾄﾔﾏｼ","streetKana":"ｱｵﾔﾅｷﾞ","prefecture":"富山県","city":"富山市","street":"青柳"},{"zipCode":"9398163","prefectureKana":"ﾄﾔﾏｹﾝ","cityKana":"ﾄﾔﾏｼ","streetKana":"ｱｵﾔﾅｷﾞｼﾝ","prefecture":"富山県","city":"富山市","street":"青柳新"},{"zipCode":"9398064","prefectureKana":"ﾄﾔﾏｹﾝ","cityKana":"ﾄﾔﾏｼ","streetKana":"ｱｶﾀﾞ","prefecture":"富山県","city":"富山市","street":"赤田"},{"zipCode":"9398065","prefectureKana":"ﾄﾔﾏｹﾝ","cityKana":"ﾄﾔﾏｼ","streetKana":"ｱｶﾀﾞｼﾝﾏﾁ","prefecture":"富山県","city":"富山市","street":"赤田新町"},{"zipCode":"9398252","prefectureKana":"ﾄﾔﾏｹﾝ","cityKana":"ﾄﾔﾏｼ","streetKana":"ｱｷｶﾞｼﾏ","prefecture":"富山県","city":"富山市","street":"秋ケ島"},{"zipCode":"9398182","prefectureKana":"ﾄﾔﾏｹﾝ","cityKana":"ﾄﾔﾏｼ","streetKana":"ｱｸｵｳｼﾞ","prefecture":"富山県","city":"富山市","street":"悪王寺"},{"zipCode":"9398066","prefectureKana":"ﾄﾔﾏｹﾝ","cityKana":"ﾄﾔﾏｼ","streetKana":"ｱｻﾅﾁｮｳ","prefecture":"富山県","city":"富山市","street":"朝菜町"},{"zipCode":"9398091","prefectureKana":"ﾄﾔﾏｹﾝ","cityKana":"ﾄﾔﾏｼ","streetKana":"ｱｻﾋﾏﾁ","prefecture":"富山県","city":"富山市","street":"旭町"},{"zipCode":"9392161","prefectureKana":"ﾄﾔﾏｹﾝ","cityKana":"ﾄﾔﾏｼ","streetKana":"ｱｼｭｳ","prefecture":"富山県","city":"富山市","street":"芦生"},{"zipCode":"9398177","prefectureKana":"ﾄﾔﾏｹﾝ","cityKana":"ﾄﾔﾏｼ","streetKana":"ｱﾝﾖｳｼﾞ","prefecture":"富山県","city":"富山市","street":"安養寺"},{"zipCode":"9392185","prefectureKana":"ﾄﾔﾏｹﾝ","cityKana":"ﾄﾔﾏｼ","streetKana":"ｲｵﾘﾀﾞﾆ","prefecture":"富山県","city":"富山市","street":"庵谷"},{"zipCode":"9398193","prefectureKana":"ﾄﾔﾏｹﾝ","cityKana":"ﾄﾔﾏｼ","streetKana":"ｲｼﾀﾞ","prefecture":"富山県","city":"富山市","street":"石田"},{"zipCode":"9398121","prefectureKana":"ﾄﾔﾏｹﾝ","cityKana":"ﾄﾔﾏｼ","streetKana":"ｲｼﾔ","prefecture":"富山県","city":"富山市","street":"石屋"},{"zipCode":"9392211","prefectureKana":"ﾄﾔﾏｹﾝ","cityKana":"ﾄﾔﾏｼ","streetKana":"ｲﾁﾊﾞ","prefecture":"富山県","city":"富山市","street":"市場"},{"zipCode":"9392231","prefectureKana":"ﾄﾔﾏｹﾝ","cityKana":"ﾄﾔﾏｼ","streetKana":"ｲﾅｼﾛ","prefecture":"富山県","city":"富山市","street":"稲代"},{"zipCode":"9392231","prefectureKana":"ﾄﾔﾏｹﾝ","cityKana":"ﾄﾔﾏｼ","streetKana":"ｲﾅｼﾛ(ｻｲﾜｲﾁｮｳ)","prefecture":"富山県","city":"富山市","street":"稲代（幸町）"},{"zipCode":"9392187","prefectureKana":"ﾄﾔﾏｹﾝ","cityKana":"ﾄﾔﾏｼ","streetKana":"ｲﾉﾀﾆ","prefecture":"富山県","city":"富山市","street":"猪谷"},{"zipCode":"9398075","prefectureKana":"ﾄﾔﾏｹﾝ","cityKana":"ﾄﾔﾏｼ","streetKana":"ｲﾏｲｽﾞﾐ","prefecture":"富山県","city":"富山市","street":"今泉"},{"zipCode":"9398281","prefectureKana":"ﾄﾔﾏｹﾝ","cityKana":"ﾄﾔﾏｼ","streetKana":"ｲﾏｲｽﾞﾐｾｲﾌﾞﾏﾁ","prefecture":"富山県","city":"富山市","street":"今泉西部町"},{"zipCode":"9398282","prefectureKana":"ﾄﾔﾏｹﾝ","cityKana":"ﾄﾔﾏｼ","streetKana":"ｲﾏｲｽﾞﾐﾎｸﾌﾞﾏﾁ","prefecture":"富山県","city":"富山市","street":"今泉北部町"},{"zipCode":"9392162","prefectureKana":"ﾄﾔﾏｹﾝ","cityKana":"ﾄﾔﾏｼ","streetKana":"ｲﾓﾂﾞ","prefecture":"富山県","city":"富山市","street":"今生津"},{"zipCode":"9392182","prefectureKana":"ﾄﾔﾏｹﾝ","cityKana":"ﾄﾔﾏｼ","streetKana":"ｲﾜｲﾈ","prefecture":"富山県","city":"富山市","street":"岩稲"},{"zipCode":"9392246","prefectureKana":"ﾄﾔﾏｹﾝ","cityKana":"ﾄﾔﾏｼ","streetKana":"ｲﾜｷ","prefecture":"富山県","city":"富山市","street":"岩木"},{"zipCode":"9392247","prefectureKana":"ﾄﾔﾏｹﾝ","cityKana":"ﾄﾔﾏｼ","streetKana":"ｲﾜｷｼﾝ","prefecture":"富山県","city":"富山市","street":"岩木新"},{"zipCode":"9392213","prefectureKana":"ﾄﾔﾏｹﾝ","cityKana":"ﾄﾔﾏｼ","streetKana":"ｳｼｶﾞﾏｾ","prefecture":"富山県","city":"富山市","street":"牛ケ増"},{"zipCode":"9392171","prefectureKana":"ﾄﾔﾏｹﾝ","cityKana":"ﾄﾔﾏｼ","streetKana":"ｳｽﾅﾐ","prefecture":"富山県","city":"富山市","street":"薄波"},{"zipCode":"9398195","prefectureKana":"ﾄﾔﾏｹﾝ","cityKana":"ﾄﾔﾏｼ","streetKana":"ｳﾜﾉ","prefecture":"富山県","city":"富山市","street":"上野"},{"zipCode":"9398197","prefectureKana":"ﾄﾔﾏｹﾝ","cityKana":"ﾄﾔﾏｼ","streetKana":"ｳﾜﾉｺﾄﾌﾞｷﾁｮｳ","prefecture":"富山県","city":"富山市","street":"上野寿町"},{"zipCode":"9398196","prefectureKana":"ﾄﾔﾏｹﾝ","cityKana":"ﾄﾔﾏｼ","streetKana":"ｳﾜﾉﾐﾅﾐﾏﾁ","prefecture":"富山県","city":"富山市","street":"上野南町"},{"zipCode":"9398155","prefectureKana":"ﾄﾔﾏｹﾝ","cityKana":"ﾄﾔﾏｼ","streetKana":"ｴﾉﾓﾄ","prefecture":"富山県","city":"富山市","street":"江本"},{"zipCode":"9398145","prefectureKana":"ﾄﾔﾏｹﾝ","cityKana":"ﾄﾔﾏｼ","streetKana":"ｵｵｲ","prefecture":"富山県","city":"富山市","street":"大井"},{"zipCode":"9398058","prefectureKana":"ﾄﾔﾏｹﾝ","cityKana":"ﾄﾔﾏｼ","streetKana":"ｵｵｲｽﾞﾐ","prefecture":"富山県","city":"富山市","street":"大泉"},{"zipCode":"9398052","prefectureKana":"ﾄﾔﾏｹﾝ","cityKana":"ﾄﾔﾏｼ","streetKana":"ｵｵｲｽﾞﾐ1ｸﾅﾝﾌﾞ","prefecture":"富山県","city":"富山市","street":"大泉１区南部"},{"zipCode":"9398097","prefectureKana":"ﾄﾔﾏｹﾝ","cityKana":"ﾄﾔﾏｼ","streetKana":"ｵｵｲｽﾞﾐｷﾀﾏﾁ","prefecture":"富山県","city":"富山市","street":"大泉北町"},{"zipCode":"9398001","prefectureKana":"ﾄﾔﾏｹﾝ","cityKana":"ﾄﾔﾏｼ","streetKana":"ｵｵｲｽﾞﾐﾄｳﾌﾞ","prefecture":"富山県","city":"富山市","street":"大泉東部"},{"zipCode":"9398051","prefectureKana":"ﾄﾔﾏｹﾝ","cityKana":"ﾄﾔﾏｼ","streetKana":"ｵｵｲｽﾞﾐﾁｭｳﾌﾞ","prefecture":"富山県","city":"富山市","street":"大泉中部"},{"zipCode":"9398095","prefectureKana":"ﾄﾔﾏｹﾝ","cityKana":"ﾄﾔﾏｼ","streetKana":"ｵｵｲｽﾞﾐﾅｶﾏﾁ","prefecture":"富山県","city":"富山市","street":"大泉中町"},{"zipCode":"9398093","prefectureKana":"ﾄﾔﾏｹﾝ","cityKana":"ﾄﾔﾏｼ","streetKana":"ｵｵｲｽﾞﾐﾋｶﾞｼﾏﾁ","prefecture":"富山県","city":"富山市","street":"大泉東町"},{"zipCode":"9398094","prefectureKana":"ﾄﾔﾏｹﾝ","cityKana":"ﾄﾔﾏｼ","streetKana":"ｵｵｲｽﾞﾐﾎﾝﾏﾁ","prefecture":"富山県","city":"富山市","street":"大泉本町"},{"zipCode":"9398087","prefectureKana":"ﾄﾔﾏｹﾝ","cityKana":"ﾄﾔﾏｼ","streetKana":"ｵｵｲｽﾞﾐﾏﾁ","prefecture":"富山県","city":"富山市","street":"大泉町"},{"zipCode":"9392251","prefectureKana":"ﾄﾔﾏｹﾝ","cityKana":"ﾄﾔﾏｼ","streetKana":"ｵｵｸﾎﾞｼﾝﾏﾁ","prefecture":"富山県","city":"富山市","street":"大久保新町"},{"zipCode":"9398025","prefectureKana":"ﾄﾔﾏｹﾝ","cityKana":"ﾄﾔﾏｼ","streetKana":"ｵｵｼﾏ","prefecture":"富山県","city":"富山市","street":"大島"},{"zipCode":"9398048","prefectureKana":"ﾄﾔﾏｹﾝ","cityKana":"ﾄﾔﾏｼ","streetKana":"ｵｵﾀ","prefecture":"富山県","city":"富山市","street":"太田"},{"zipCode":"9392171","prefectureKana":"ﾄﾔﾏｹﾝ","cityKana":"ﾄﾔﾏｼ","streetKana":"ｵｵﾀｳｽﾅﾐ","prefecture":"富山県","city":"富山市","street":"太田薄波"},{"zipCode":"9398042","prefectureKana":"ﾄﾔﾏｹﾝ","cityKana":"ﾄﾔﾏｼ","streetKana":"ｵｵﾀｷﾀｸ","prefecture":"富山県","city":"富山市","street":"太田北区"},{"zipCode":"9398043","prefectureKana":"ﾄﾔﾏｹﾝ","cityKana":"ﾄﾔﾏｼ","streetKana":"ｵｵﾀｺｳﾖｳﾀﾞｲ","prefecture":"富山県","city":"富山市","street":"太田向陽台"},{"zipCode":"9398041","prefectureKana":"ﾄﾔﾏｹﾝ","cityKana":"ﾄﾔﾏｼ","streetKana":"ｵｵﾀﾅｶｸ","prefecture":"富山県","city":"富山市","street":"太田中区"},{"zipCode":"9398044","prefectureKana":"ﾄﾔﾏｹﾝ","cityKana":"ﾄﾔﾏｼ","streetKana":"ｵｵﾀﾐﾅﾐﾁｮｳ","prefecture":"富山県","city":"富山市","street":"太田南町"},{"zipCode":"9392207","prefectureKana":"ﾄﾔﾏｹﾝ","cityKana":"ﾄﾔﾏｼ","streetKana":"ｵｵﾉ","prefecture":"富山県","city":"富山市","street":"大野"},{"zipCode":"9398103","prefectureKana":"ﾄﾔﾏｹﾝ","cityKana":"ﾄﾔﾏｼ","streetKana":"ｵｵﾊﾞ","prefecture":"富山県","city":"富山市","street":"大場"},{"zipCode":"9398073","prefectureKana":"ﾄﾔﾏｹﾝ","cityKana":"ﾄﾔﾏｼ","streetKana":"ｵｵﾏﾁ","prefecture":"富山県","city":"富山市","street":"大町"},{"zipCode":"9398074","prefectureKana":"ﾄﾔﾏｹﾝ","cityKana":"ﾄﾔﾏｼ","streetKana":"ｵｵﾏﾁﾐﾅﾐﾀﾞｲ","prefecture":"富山県","city":"富山市","street":"大町南台"},{"zipCode":"9398035","prefectureKana":"ﾄﾔﾏｹﾝ","cityKana":"ﾄﾔﾏｼ","streetKana":"ｵｵﾐﾔﾁｮｳ","prefecture":"富山県","city":"富山市","street":"大宮町"},{"zipCode":"9392202","prefectureKana":"ﾄﾔﾏｹﾝ","cityKana":"ﾄﾔﾏｼ","streetKana":"ｵｸﾞﾛ","prefecture":"富山県","city":"富山市","street":"小黒"},{"zipCode":"9398243","prefectureKana":"ﾄﾔﾏｹﾝ","cityKana":"ﾄﾔﾏｼ","streetKana":"ｵｼｱｹﾞ","prefecture":"富山県","city":"富山市","street":"押上"},{"zipCode":"9398092","prefectureKana":"ﾄﾔﾏｹﾝ","cityKana":"ﾄﾔﾏｼ","streetKana":"ｵﾔﾏﾁｮｳ","prefecture":"富山県","city":"富山市","street":"雄山町"},{"zipCode":"9398137","prefectureKana":"ﾄﾔﾏｹﾝ","cityKana":"ﾄﾔﾏｼ","streetKana":"ｶｲﾎﾂ","prefecture":"富山県","city":"富山市","street":"開発"},{"zipCode":"9392189","prefectureKana":"ﾄﾔﾏｹﾝ","cityKana":"ﾄﾔﾏｼ","streetKana":"ｶｶﾞｻﾜ","prefecture":"富山県","city":"富山市","street":"加賀沢"},{"zipCode":"9398215","prefectureKana":"ﾄﾔﾏｹﾝ","cityKana":"ﾄﾔﾏｼ","streetKana":"ｶｹｵｻｶｴﾏﾁ","prefecture":"富山県","city":"富山市","street":"掛尾栄町"},{"zipCode":"9398212","prefectureKana":"ﾄﾔﾏｹﾝ","cityKana":"ﾄﾔﾏｼ","streetKana":"ｶｹｵﾏﾁ","prefecture":"富山県","city":"富山市","street":"掛尾町"},{"zipCode":"9392224","prefectureKana":"ﾄﾔﾏｹﾝ","cityKana":"ﾄﾔﾏｼ","streetKana":"ｶｽｶﾞ","prefecture":"富山県","city":"富山市","street":"春日"},{"zipCode":"9398077","prefectureKana":"ﾄﾔﾏｹﾝ","cityKana":"ﾄﾔﾏｼ","streetKana":"ｶｽｶﾞﾁｮｳ","prefecture":"富山県","city":"富山市","street":"春日町"},{"zipCode":"9392186","prefectureKana":"ﾄﾔﾏｹﾝ","cityKana":"ﾄﾔﾏｼ","streetKana":"ｶﾀｶｹ","prefecture":"富山県","city":"富山市","street":"片掛"},{"zipCode":"9392188","prefectureKana":"ﾄﾔﾏｹﾝ","cityKana":"ﾄﾔﾏｼ","streetKana":"ｶﾆﾃﾞﾗ","prefecture":"富山県","city":"富山市","street":"蟹寺"},{"zipCode":"9392245","prefectureKana":"ﾄﾔﾏｹﾝ","cityKana":"ﾄﾔﾏｼ","streetKana":"ｶﾉｳ","prefecture":"富山県","city":"富山市","street":"加納"},{"zipCode":"9398144","prefectureKana":"ﾄﾔﾏｹﾝ","cityKana":"ﾄﾔﾏｼ","streetKana":"ｶﾐｲﾏﾏﾁ","prefecture":"富山県","city":"富山市","street":"上今町"},{"zipCode":"9392252","prefectureKana":"ﾄﾔﾏｹﾝ","cityKana":"ﾄﾔﾏｼ","streetKana":"ｶﾐｵｵｸﾎﾞ","prefecture":"富山県","city":"富山市","street":"上大久保"},{"zipCode":"9392252","prefectureKana":"ﾄﾔﾏｹﾝ","cityKana":"ﾄﾔﾏｼ","streetKana":"ｶﾐｵｵｸﾎﾞｲｽﾞﾐﾁｮｳ","prefecture":"富山県","city":"富山市","street":"上大久保泉町"},{"zipCode":"9392252","prefectureKana":"ﾄﾔﾏｹﾝ","cityKana":"ﾄﾔﾏｼ","streetKana":"ｶﾐｵｵｸﾎﾞｷﾀｼﾝﾏﾁ","prefecture":"富山県","city":"富山市","street":"上大久保北新町"},{"zipCode":"9392252","prefectureKana":"ﾄﾔﾏｹﾝ","cityKana":"ﾄﾔﾏｼ","streetKana":"ｶﾐｵｵｸﾎﾞｻｶｴﾏﾁ","prefecture":"富山県","city":"富山市","street":"上大久保栄町"},{"zipCode":"9392252","prefectureKana":"ﾄﾔﾏｹﾝ","cityKana":"ﾄﾔﾏｼ","streetKana":"ｶﾐｵｵｸﾎﾞﾋｶﾞｼｼﾝﾏﾁ","prefecture":"富山県","city":"富山市","street":"上大久保東新町"},{"zipCode":"9398166","prefectureKana":"ﾄﾔﾏｹﾝ","cityKana":"ﾄﾔﾏｼ","streetKana":"ｶﾐｸﾏﾉ","prefecture":"富山県","city":"富山市","street":"上熊野"},{"zipCode":"9398175","prefectureKana":"ﾄﾔﾏｹﾝ","cityKana":"ﾄﾔﾏｼ","streetKana":"ｶﾐｸﾘﾔﾏ","prefecture":"富山県","city":"富山市","street":"上栗山"},{"zipCode":"9398151","prefectureKana":"ﾄﾔﾏｹﾝ","cityKana":"ﾄﾔﾏｼ","streetKana":"ｶﾐｻｶｴ","prefecture":"富山県","city":"富山市","street":"上栄"},{"zipCode":"9398061","prefectureKana":"ﾄﾔﾏｹﾝ","cityKana":"ﾄﾔﾏｼ","streetKana":"ｶﾐｼﾝﾎﾞ","prefecture":"富山県","city":"富山市","street":"上新保"},{"zipCode":"9398138","prefectureKana":"ﾄﾔﾏｹﾝ","cityKana":"ﾄﾔﾏｼ","streetKana":"ｶﾐｾﾝﾋﾞｮｳ","prefecture":"富山県","city":"富山市","street":"上千俵"},{"zipCode":"9398134","prefectureKana":"ﾄﾔﾏｹﾝ","cityKana":"ﾄﾔﾏｼ","streetKana":"ｶﾐｾﾝﾋﾞｮｳﾏﾁ","prefecture":"富山県","city":"富山市","street":"上千俵町"},{"zipCode":"9398143","prefectureKana":"ﾄﾔﾏｹﾝ","cityKana":"ﾄﾔﾏｼ","streetKana":"ｶﾐﾇﾉﾒ","prefecture":"富山県","city":"富山市","street":"上布目"},{"zipCode":"9398071","prefectureKana":"ﾄﾔﾏｹﾝ","cityKana":"ﾄﾔﾏｼ","streetKana":"ｶﾐﾌｸﾛ","prefecture":"富山県","city":"富山市","street":"上袋"},{"zipCode":"9392256","prefectureKana":"ﾄﾔﾏｹﾝ","cityKana":"ﾄﾔﾏｼ","streetKana":"ｶﾐﾌﾀｽｷﾞ","prefecture":"富山県","city":"富山市","street":"上二杉"},{"zipCode":"9398056","prefectureKana":"ﾄﾔﾏｹﾝ","cityKana":"ﾄﾔﾏｼ","streetKana":"ｶﾐﾎﾘﾏﾁ","prefecture":"富山県","city":"富山市","street":"上堀町"},{"zipCode":"9398062","prefectureKana":"ﾄﾔﾏｹﾝ","cityKana":"ﾄﾔﾏｼ","streetKana":"ｶﾐﾎﾘﾐﾅﾐﾁｮｳ","prefecture":"富山県","city":"富山市","street":"上堀南町"},{"zipCode":"9398225","prefectureKana":"ﾄﾔﾏｹﾝ","cityKana":"ﾄﾔﾏｼ","streetKana":"ｶﾐﾖｳｶﾏﾁ","prefecture":"富山県","city":"富山市","street":"上八日町"},{"zipCode":"9398264","prefectureKana":"ﾄﾔﾏｹﾝ","cityKana":"ﾄﾔﾏｼ","streetKana":"ｷｮｳﾃﾞﾝ","prefecture":"富山県","city":"富山市","street":"経田"},{"zipCode":"9398152","prefectureKana":"ﾄﾔﾏｹﾝ","cityKana":"ﾄﾔﾏｼ","streetKana":"ｷｮｳﾘｷ","prefecture":"富山県","city":"富山市","street":"経力"},{"zipCode":"9398047","prefectureKana":"ﾄﾔﾏｹﾝ","cityKana":"ﾄﾔﾏｼ","streetKana":"ｷﾖｽﾞﾐﾁｮｳ","prefecture":"富山県","city":"富山市","street":"清住町"},{"zipCode":"9398002","prefectureKana":"ﾄﾔﾏｹﾝ","cityKana":"ﾄﾔﾏｼ","streetKana":"ｸﾓﾝﾐｮｳ","prefecture":"富山県","city":"富山市","street":"公文名"},{"zipCode":"9398178","prefectureKana":"ﾄﾔﾏｹﾝ","cityKana":"ﾄﾔﾏｼ","streetKana":"ｸﾘﾔﾏ","prefecture":"富山県","city":"富山市","street":"栗山"},{"zipCode":"9398214","prefectureKana":"ﾄﾔﾏｹﾝ","cityKana":"ﾄﾔﾏｼ","streetKana":"ｸﾛｻｷ","prefecture":"富山県","city":"富山市","street":"黒崎"},{"zipCode":"9398213","prefectureKana":"ﾄﾔﾏｹﾝ","cityKana":"ﾄﾔﾏｼ","streetKana":"ｸﾛｾ","prefecture":"富山県","city":"富山市","street":"黒瀬"},{"zipCode":"9398216","prefectureKana":"ﾄﾔﾏｹﾝ","cityKana":"ﾄﾔﾏｼ","streetKana":"ｸﾛｾｷﾀﾏﾁ","prefecture":"富山県","city":"富山市","street":"黒瀬北町"},{"zipCode":"9392235","prefectureKana":"ﾄﾔﾏｹﾝ","cityKana":"ﾄﾔﾏｼ","streetKana":"ｹﾞﾌﾞｾ","prefecture":"富山県","city":"富山市","street":"下伏"},{"zipCode":"9398082","prefectureKana":"ﾄﾔﾏｹﾝ","cityKana":"ﾄﾔﾏｼ","streetKana":"ｺｲｽﾞﾐﾁｮｳ","prefecture":"富山県","city":"富山市","street":"小泉町"},{"zipCode":"9392174","prefectureKana":"ﾄﾔﾏｹﾝ","cityKana":"ﾄﾔﾏｼ","streetKana":"ｺｲﾄ","prefecture":"富山県","city":"富山市","street":"小糸"},{"zipCode":"9392201","prefectureKana":"ﾄﾔﾏｹﾝ","cityKana":"ﾄﾔﾏｼ","streetKana":"ｺﾞｳﾀﾞ","prefecture":"富山県","city":"富山市","street":"合田"},{"zipCode":"9398063","prefectureKana":"ﾄﾔﾏｹﾝ","cityKana":"ﾄﾔﾏｼ","streetKana":"ｺｽｷﾞ","prefecture":"富山県","city":"富山市","street":"小杉"},{"zipCode":"9398183","prefectureKana":"ﾄﾔﾏｹﾝ","cityKana":"ﾄﾔﾏｼ","streetKana":"ｺﾅｶ","prefecture":"富山県","city":"富山市","street":"小中"},{"zipCode":"9392232","prefectureKana":"ﾄﾔﾏｹﾝ","cityKana":"ﾄﾔﾏｼ","streetKana":"ｺﾊﾞ","prefecture":"富山県","city":"富山市","street":"小羽"},{"zipCode":"9398263","prefectureKana":"ﾄﾔﾏｹﾝ","cityKana":"ﾄﾔﾏｼ","streetKana":"ｻｲｶｸｼﾞ","prefecture":"富山県","city":"富山市","street":"才覚寺"},{"zipCode":"9392206","prefectureKana":"ﾄﾔﾏｹﾝ","cityKana":"ﾄﾔﾏｼ","streetKana":"ｻｶﾓﾄ","prefecture":"富山県","city":"富山市","street":"坂本"},{"zipCode":"9392223","prefectureKana":"ﾄﾔﾏｹﾝ","cityKana":"ﾄﾔﾏｼ","streetKana":"ｻｻﾂﾞ","prefecture":"富山県","city":"富山市","street":"笹津"},{"zipCode":"9392222","prefectureKana":"ﾄﾔﾏｹﾝ","cityKana":"ﾄﾔﾏｼ","streetKana":"ｻｻﾂﾞ(ｵｼｱｹﾞ)","prefecture":"富山県","city":"富山市","street":"笹津（押上）"},{"zipCode":"9393548","prefectureKana":"ﾄﾔﾏｹﾝ","cityKana":"ﾄﾔﾏｼ","streetKana":"ｻﾝｺﾞｳ","prefecture":"富山県","city":"富山市","street":"三郷"},{"zipCode":"9392242","prefectureKana":"ﾄﾔﾏｹﾝ","cityKana":"ﾄﾔﾏｼ","streetKana":"ｼｵ","prefecture":"富山県","city":"富山市","street":"塩"},{"zipCode":"9392214","prefectureKana":"ﾄﾔﾏｹﾝ","cityKana":"ﾄﾔﾏｼ","streetKana":"ｼﾞｹ","prefecture":"富山県","city":"富山市","street":"寺家"},{"zipCode":"9392226","prefectureKana":"ﾄﾔﾏｹﾝ","cityKana":"ﾄﾔﾏｼ","streetKana":"ｼﾀﾊﾞﾔｼ","prefecture":"富山県","city":"富山市","street":"下タ林"},{"zipCode":"9398223","prefectureKana":"ﾄﾔﾏｹﾝ","cityKana":"ﾄﾔﾏｼ","streetKana":"ｼﾏﾀﾞ","prefecture":"富山県","city":"富山市","street":"島田"},{"zipCode":"9392251","prefectureKana":"ﾄﾔﾏｹﾝ","cityKana":"ﾄﾔﾏｼ","streetKana":"ｼﾓｵｵｸﾎﾞ","prefecture":"富山県","city":"富山市","street":"下大久保"},{"zipCode":"9392251","prefectureKana":"ﾄﾔﾏｹﾝ","cityKana":"ﾄﾔﾏｼ","streetKana":"ｼﾓｵｵｸﾎﾞ(ﾜｶｸｻﾁｮｳ)","prefecture":"富山県","city":"富山市","street":"下大久保（若草町）"},{"zipCode":"9392251","prefectureKana":"ﾄﾔﾏｹﾝ","cityKana":"ﾄﾔﾏｼ","streetKana":"ｼﾓｵｵｸﾎﾞｼﾝﾏﾁ","prefecture":"富山県","city":"富山市","street":"下大久保新町"},{"zipCode":"9392251","prefectureKana":"ﾄﾔﾏｹﾝ","cityKana":"ﾄﾔﾏｼ","streetKana":"ｼﾓｵｵｸﾎﾞﾋｶﾞｼｶﾞｵｶ","prefecture":"富山県","city":"富山市","street":"下大久保東ケ丘"},{"zipCode":"9392251","prefectureKana":"ﾄﾔﾏｹﾝ","cityKana":"ﾄﾔﾏｼ","streetKana":"ｼﾓｵｵｸﾎﾞﾐﾄﾞﾘﾁｮｳ","prefecture":"富山県","city":"富山市","street":"下大久保緑町"},{"zipCode":"9398231","prefectureKana":"ﾄﾔﾏｹﾝ","cityKana":"ﾄﾔﾏｼ","streetKana":"ｼﾓｸﾏﾉ","prefecture":"富山県","city":"富山市","street":"下熊野"},{"zipCode":"9398174","prefectureKana":"ﾄﾔﾏｹﾝ","cityKana":"ﾄﾔﾏｼ","streetKana":"ｼﾓｸﾘﾔﾏ","prefecture":"富山県","city":"富山市","street":"下栗山"},{"zipCode":"9398055","prefectureKana":"ﾄﾔﾏｹﾝ","cityKana":"ﾄﾔﾏｼ","streetKana":"ｼﾓﾎﾘ","prefecture":"富山県","city":"富山市","street":"下堀"},{"zipCode":"9398112","prefectureKana":"ﾄﾔﾏｹﾝ","cityKana":"ﾄﾔﾏｼ","streetKana":"ｼﾞｮｳｶﾞｵｶ","prefecture":"富山県","city":"富山市","street":"城ケ丘"},{"zipCode":"9398111","prefectureKana":"ﾄﾔﾏｹﾝ","cityKana":"ﾄﾔﾏｼ","streetKana":"ｼﾞｮｳｼﾝﾏﾁ","prefecture":"富山県","city":"富山市","street":"城新町"},{"zipCode":"9398114","prefectureKana":"ﾄﾔﾏｹﾝ","cityKana":"ﾄﾔﾏｼ","streetKana":"ｼﾞｮｳﾑﾗ","prefecture":"富山県","city":"富山市","street":"城村"},{"zipCode":"9398115","prefectureKana":"ﾄﾔﾏｹﾝ","cityKana":"ﾄﾔﾏｼ","streetKana":"ｼﾞｮｳﾑﾗｼﾝﾏﾁ","prefecture":"富山県","city":"富山市","street":"城村新町"},{"zipCode":"9398113","prefectureKana":"ﾄﾔﾏｹﾝ","cityKana":"ﾄﾔﾏｼ","streetKana":"ｼﾞｮｳﾜｶﾏﾁ","prefecture":"富山県","city":"富山市","street":"城若町"},{"zipCode":"9398102","prefectureKana":"ﾄﾔﾏｹﾝ","cityKana":"ﾄﾔﾏｼ","streetKana":"ｼｮｳﾜｼﾝﾏﾁ","prefecture":"富山県","city":"富山市","street":"昭和新町"},{"zipCode":"9392241","prefectureKana":"ﾄﾔﾏｹﾝ","cityKana":"ﾄﾔﾏｼ","streetKana":"ｼﾞﾝﾂﾞｳ","prefecture":"富山県","city":"富山市","street":"神通"},{"zipCode":"9398205","prefectureKana":"ﾄﾔﾏｹﾝ","cityKana":"ﾄﾔﾏｼ","streetKana":"ｼﾝﾈﾂﾞｶﾏﾁ","prefecture":"富山県","city":"富山市","street":"新根塚町"},{"zipCode":"9398253","prefectureKana":"ﾄﾔﾏｹﾝ","cityKana":"ﾄﾔﾏｼ","streetKana":"ｼﾝﾎﾞ","prefecture":"富山県","city":"富山市","street":"新保"},{"zipCode":"9398054","prefectureKana":"ﾄﾔﾏｹﾝ","cityKana":"ﾄﾔﾏｼ","streetKana":"ｼﾝﾎﾞﾘﾁｮｳ","prefecture":"富山県","city":"富山市","street":"新堀町"},{"zipCode":"9398122","prefectureKana":"ﾄﾔﾏｹﾝ","cityKana":"ﾄﾔﾏｼ","streetKana":"ｼﾝﾐｮｳ","prefecture":"富山県","city":"富山市","street":"新名"},{"zipCode":"9392201","prefectureKana":"ﾄﾔﾏｹﾝ","cityKana":"ﾄﾔﾏｼ","streetKana":"ｼﾝﾑﾗ","prefecture":"富山県","city":"富山市","street":"新村"},{"zipCode":"9398034","prefectureKana":"ﾄﾔﾏｹﾝ","cityKana":"ﾄﾔﾏｼ","streetKana":"ｼﾝﾖｺｳﾁﾏﾁ","prefecture":"富山県","city":"富山市","street":"新横内町"},{"zipCode":"9398165","prefectureKana":"ﾄﾔﾏｹﾝ","cityKana":"ﾄﾔﾏｼ","streetKana":"ｽｷﾞｾ","prefecture":"富山県","city":"富山市","street":"杉瀬"},{"zipCode":"9392215","prefectureKana":"ﾄﾔﾏｹﾝ","cityKana":"ﾄﾔﾏｼ","streetKana":"ｽｸﾞｻﾞｶ","prefecture":"富山県","city":"富山市","street":"直坂"},{"zipCode":"9392234","prefectureKana":"ﾄﾔﾏｹﾝ","cityKana":"ﾄﾔﾏｼ","streetKana":"ｽﾜﾗ","prefecture":"富山県","city":"富山市","street":"須原"},{"zipCode":"9398123","prefectureKana":"ﾄﾔﾏｹﾝ","cityKana":"ﾄﾔﾏｼ","streetKana":"ｾｷ","prefecture":"富山県","city":"富山市","street":"関"},{"zipCode":"9398135","prefectureKana":"ﾄﾔﾏｹﾝ","cityKana":"ﾄﾔﾏｼ","streetKana":"ｾﾝﾋﾞｮｳﾏﾁ","prefecture":"富山県","city":"富山市","street":"千俵町"},{"zipCode":"9398241","prefectureKana":"ﾄﾔﾏｹﾝ","cityKana":"ﾄﾔﾏｼ","streetKana":"ｿｳｻﾞｲｼﾞ","prefecture":"富山県","city":"富山市","street":"惣在寺"},{"zipCode":"9392254","prefectureKana":"ﾄﾔﾏｹﾝ","cityKana":"ﾄﾔﾏｼ","streetKana":"ﾀｶｳﾁ","prefecture":"富山県","city":"富山市","street":"高内"},{"zipCode":"9398012","prefectureKana":"ﾄﾔﾏｹﾝ","cityKana":"ﾄﾔﾏｼ","streetKana":"ﾀｶﾊﾗﾎﾝﾏﾁ","prefecture":"富山県","city":"富山市","street":"高原本町"},{"zipCode":"9398013","prefectureKana":"ﾄﾔﾏｹﾝ","cityKana":"ﾄﾔﾏｼ","streetKana":"ﾀｶﾊﾗﾏﾁ","prefecture":"富山県","city":"富山市","street":"高原町"},{"zipCode":"9398036","prefectureKana":"ﾄﾔﾏｹﾝ","cityKana":"ﾄﾔﾏｼ","streetKana":"ﾀｶﾔｼｷ","prefecture":"富山県","city":"富山市","street":"高屋敷"},{"zipCode":"9398172","prefectureKana":"ﾄﾔﾏｹﾝ","cityKana":"ﾄﾔﾏｼ","streetKana":"ﾀﾂｵ","prefecture":"富山県","city":"富山市","street":"辰尾"},{"zipCode":"9398173","prefectureKana":"ﾄﾔﾏｹﾝ","cityKana":"ﾄﾔﾏｼ","streetKana":"ﾀﾂｵｼﾝﾏﾁ","prefecture":"富山県","city":"富山市","street":"辰尾新町"},{"zipCode":"9398157","prefectureKana":"ﾄﾔﾏｹﾝ","cityKana":"ﾄﾔﾏｼ","streetKana":"ﾀﾏｲｽﾞﾐﾆｼﾏﾁ","prefecture":"富山県","city":"富山市","street":"珠泉西町"},{"zipCode":"9398156","prefectureKana":"ﾄﾔﾏｹﾝ","cityKana":"ﾄﾔﾏｼ","streetKana":"ﾀﾏｲｽﾞﾐﾋｶﾞｼﾏﾁ","prefecture":"富山県","city":"富山市","street":"珠泉東町"},{"zipCode":"9398076","prefectureKana":"ﾄﾔﾏｹﾝ","cityKana":"ﾄﾔﾏｼ","streetKana":"ﾀﾛｳﾏﾙ","prefecture":"富山県","city":"富山市","street":"太郎丸"},{"zipCode":"9398271","prefectureKana":"ﾄﾔﾏｹﾝ","cityKana":"ﾄﾔﾏｼ","streetKana":"ﾀﾛｳﾏﾙﾆｼﾏﾁ","prefecture":"富山県","city":"富山市","street":"太郎丸西町"},{"zipCode":"9398272","prefectureKana":"ﾄﾔﾏｹﾝ","cityKana":"ﾄﾔﾏｼ","streetKana":"ﾀﾛｳﾏﾙﾎﾝﾏﾁ","prefecture":"富山県","city":"富山市","street":"太郎丸本町"},{"zipCode":"9398262","prefectureKana":"ﾄﾔﾏｹﾝ","cityKana":"ﾄﾔﾏｼ","streetKana":"ﾂｶﾊﾗ","prefecture":"富山県","city":"富山市","street":"塚原"},{"zipCode":"9398139","prefectureKana":"ﾄﾔﾏｹﾝ","cityKana":"ﾄﾔﾏｼ","streetKana":"ﾂｷｵｶｼﾝ","prefecture":"富山県","city":"富山市","street":"月岡新"},{"zipCode":"9398141","prefectureKana":"ﾄﾔﾏｹﾝ","cityKana":"ﾄﾔﾏｼ","streetKana":"ﾂｷｵｶﾋｶﾞｼﾐﾄﾞﾘﾁｮｳ","prefecture":"富山県","city":"富山市","street":"月岡東緑町"},{"zipCode":"9398142","prefectureKana":"ﾄﾔﾏｹﾝ","cityKana":"ﾄﾔﾏｼ","streetKana":"ﾂｷｵｶﾆｼﾐﾄﾞﾘﾁｮｳ","prefecture":"富山県","city":"富山市","street":"月岡西緑町"},{"zipCode":"9398132","prefectureKana":"ﾄﾔﾏｹﾝ","cityKana":"ﾄﾔﾏｼ","streetKana":"ﾂｷｵｶﾏﾁ","prefecture":"富山県","city":"富山市","street":"月岡町"},{"zipCode":"9398133","prefectureKana":"ﾄﾔﾏｹﾝ","cityKana":"ﾄﾔﾏｼ","streetKana":"ﾂｷﾐｶﾞｵｶ","prefecture":"富山県","city":"富山市","street":"月見が丘"},{"zipCode":"9398136","prefectureKana":"ﾄﾔﾏｹﾝ","cityKana":"ﾄﾔﾏｼ","streetKana":"ﾂｷﾐﾁｮｳ","prefecture":"富山県","city":"富山市","street":"月見町"},{"zipCode":"9392238","prefectureKana":"ﾄﾔﾏｹﾝ","cityKana":"ﾄﾔﾏｼ","streetKana":"ﾂﾂﾞﾊﾗ","prefecture":"富山県","city":"富山市","street":"葛原"},{"zipCode":"9392165","prefectureKana":"ﾄﾔﾏｹﾝ","cityKana":"ﾄﾔﾏｼ","streetKana":"ﾃﾗﾂﾞ","prefecture":"富山県","city":"富山市","street":"寺津"},{"zipCode":"9392236","prefectureKana":"ﾄﾔﾏｹﾝ","cityKana":"ﾄﾔﾏｼ","streetKana":"ﾄﾞ","prefecture":"富山県","city":"富山市","street":"土"},{"zipCode":"9398233","prefectureKana":"ﾄﾔﾏｹﾝ","cityKana":"ﾄﾔﾏｼ","streetKana":"ﾄｳﾐ","prefecture":"富山県","city":"富山市","street":"任海"},{"zipCode":"9398224","prefectureKana":"ﾄﾔﾏｹﾝ","cityKana":"ﾄﾔﾏｼ","streetKana":"ﾄﾓｽｷﾞ","prefecture":"富山県","city":"富山市","street":"友杉"},{"zipCode":"9398005","prefectureKana":"ﾄﾔﾏｹﾝ","cityKana":"ﾄﾔﾏｼ","streetKana":"ﾅｶｲﾁ","prefecture":"富山県","city":"富山市","street":"中市"},{"zipCode":"9392243","prefectureKana":"ﾄﾔﾏｹﾝ","cityKana":"ﾄﾔﾏｼ","streetKana":"ﾅｶｵｵｸﾎﾞ","prefecture":"富山県","city":"富山市","street":"中大久保"},{"zipCode":"9398015","prefectureKana":"ﾄﾔﾏｹﾝ","cityKana":"ﾄﾔﾏｼ","streetKana":"ﾅｶｶﾞﾜﾗ","prefecture":"富山県","city":"富山市","street":"中川原"},{"zipCode":"9398014","prefectureKana":"ﾄﾔﾏｹﾝ","cityKana":"ﾄﾔﾏｼ","streetKana":"ﾅｶｶﾞﾜﾗｼﾝﾏﾁ","prefecture":"富山県","city":"富山市","street":"中川原新町"},{"zipCode":"9398016","prefectureKana":"ﾄﾔﾏｹﾝ","cityKana":"ﾄﾔﾏｼ","streetKana":"ﾅｶｶﾞﾜﾗﾀﾞｲ","prefecture":"富山県","city":"富山市","street":"中川原台"},{"zipCode":"9392225","prefectureKana":"ﾄﾔﾏｹﾝ","cityKana":"ﾄﾔﾏｼ","streetKana":"ﾅｶﾞｼﾘ","prefecture":"富山県","city":"富山市","street":"長走"},{"zipCode":"9392255","prefectureKana":"ﾄﾔﾏｹﾝ","cityKana":"ﾄﾔﾏｼ","streetKana":"ﾅｶﾞﾂｷ","prefecture":"富山県","city":"富山市","street":"長附"},{"zipCode":"9398146","prefectureKana":"ﾄﾔﾏｹﾝ","cityKana":"ﾄﾔﾏｼ","streetKana":"ﾅｶﾇﾉﾒ","prefecture":"富山県","city":"富山市","street":"中布目"},{"zipCode":"9398085","prefectureKana":"ﾄﾔﾏｹﾝ","cityKana":"ﾄﾔﾏｼ","streetKana":"ﾅｶﾉｼﾝﾏﾁ","prefecture":"富山県","city":"富山市","street":"中野新町"},{"zipCode":"9398131","prefectureKana":"ﾄﾔﾏｹﾝ","cityKana":"ﾄﾔﾏｼ","streetKana":"ﾅｶﾔ","prefecture":"富山県","city":"富山市","street":"中屋"},{"zipCode":"9398032","prefectureKana":"ﾄﾔﾏｹﾝ","cityKana":"ﾄﾔﾏｼ","streetKana":"ﾅｶﾞﾚｽｷﾞ","prefecture":"富山県","city":"富山市","street":"流杉"},{"zipCode":"9398232","prefectureKana":"ﾄﾔﾏｹﾝ","cityKana":"ﾄﾔﾏｼ","streetKana":"ﾅﾝｵｳﾁｮｳ","prefecture":"富山県","city":"富山市","street":"南央町"},{"zipCode":"9392233","prefectureKana":"ﾄﾔﾏｹﾝ","cityKana":"ﾄﾔﾏｼ","streetKana":"ﾅﾝｶﾜﾗ","prefecture":"富山県","city":"富山市","street":"長川原"},{"zipCode":"9398251","prefectureKana":"ﾄﾔﾏｹﾝ","cityKana":"ﾄﾔﾏｼ","streetKana":"ﾆｼｱﾗﾔ","prefecture":"富山県","city":"富山市","street":"西荒屋"},{"zipCode":"9398096","prefectureKana":"ﾄﾔﾏｹﾝ","cityKana":"ﾄﾔﾏｼ","streetKana":"ﾆｼｵｵｲｽﾞﾐ","prefecture":"富山県","city":"富山市","street":"西大泉"},{"zipCode":"9392221","prefectureKana":"ﾄﾔﾏｹﾝ","cityKana":"ﾄﾔﾏｼ","streetKana":"ﾆｼｵｵｻﾜ","prefecture":"富山県","city":"富山市","street":"西大沢"},{"zipCode":"9398004","prefectureKana":"ﾄﾔﾏｹﾝ","cityKana":"ﾄﾔﾏｼ","streetKana":"ﾆｼｸﾓﾝﾐｮｳ","prefecture":"富山県","city":"富山市","street":"西公文名"},{"zipCode":"9398003","prefectureKana":"ﾄﾔﾏｹﾝ","cityKana":"ﾄﾔﾏｼ","streetKana":"ﾆｼｸﾓﾝﾐｮｳﾏﾁ","prefecture":"富山県","city":"富山市","street":"西公文名町"},{"zipCode":"9392181","prefectureKana":"ﾄﾔﾏｹﾝ","cityKana":"ﾄﾔﾏｼ","streetKana":"ﾆｼｻｻﾂﾞ","prefecture":"富山県","city":"富山市","street":"西笹津"},{"zipCode":"9392244","prefectureKana":"ﾄﾔﾏｹﾝ","cityKana":"ﾄﾔﾏｼ","streetKana":"ﾆｼｼｵﾉ","prefecture":"富山県","city":"富山市","street":"西塩野"},{"zipCode":"9398203","prefectureKana":"ﾄﾔﾏｹﾝ","cityKana":"ﾄﾔﾏｼ","streetKana":"ﾆｼﾃﾞﾝｼﾞｶﾞﾀ","prefecture":"富山県","city":"富山市","street":"西田地方"},{"zipCode":"9398202","prefectureKana":"ﾄﾔﾏｹﾝ","cityKana":"ﾄﾔﾏｼ","streetKana":"ﾆｼﾃﾞﾝｼﾞｶﾞﾀﾏﾁ","prefecture":"富山県","city":"富山市","street":"西田地方町"},{"zipCode":"9398083","prefectureKana":"ﾄﾔﾏｹﾝ","cityKana":"ﾄﾔﾏｼ","streetKana":"ﾆｼﾅｶﾉﾎﾝﾏﾁ","prefecture":"富山県","city":"富山市","street":"西中野本町"},{"zipCode":"9398084","prefectureKana":"ﾄﾔﾏｹﾝ","cityKana":"ﾄﾔﾏｼ","streetKana":"ﾆｼﾅｶﾉﾏﾁ","prefecture":"富山県","city":"富山市","street":"西中野町"},{"zipCode":"9398101","prefectureKana":"ﾄﾔﾏｹﾝ","cityKana":"ﾄﾔﾏｼ","streetKana":"ﾆｼﾉｼﾝ","prefecture":"富山県","city":"富山市","street":"西野新"},{"zipCode":"9398104","prefectureKana":"ﾄﾔﾏｹﾝ","cityKana":"ﾄﾔﾏｼ","streetKana":"ﾆｼﾉﾊﾞﾝ","prefecture":"富山県","city":"富山市","street":"西番"},{"zipCode":"9398222","prefectureKana":"ﾄﾔﾏｹﾝ","cityKana":"ﾄﾔﾏｼ","streetKana":"ﾆﾅｶﾞﾜ","prefecture":"富山県","city":"富山市","street":"蜷川"},{"zipCode":"9392184","prefectureKana":"ﾄﾔﾏｹﾝ","cityKana":"ﾄﾔﾏｼ","streetKana":"ﾆﾚﾊﾗ","prefecture":"富山県","city":"富山市","street":"楡原"},{"zipCode":"9398191","prefectureKana":"ﾄﾔﾏｹﾝ","cityKana":"ﾄﾔﾏｼ","streetKana":"ﾇﾉｲﾁ","prefecture":"富山県","city":"富山市","street":"布市"},{"zipCode":"9398192","prefectureKana":"ﾄﾔﾏｹﾝ","cityKana":"ﾄﾔﾏｼ","streetKana":"ﾇﾉｲﾁｼﾝﾏﾁ","prefecture":"富山県","city":"富山市","street":"布市新町"},{"zipCode":"9392163","prefectureKana":"ﾄﾔﾏｹﾝ","cityKana":"ﾄﾔﾏｼ","streetKana":"ﾇﾉｼﾘ","prefecture":"富山県","city":"富山市","street":"布尻"},{"zipCode":"9398207","prefectureKana":"ﾄﾔﾏｹﾝ","cityKana":"ﾄﾔﾏｼ","streetKana":"ﾇﾉｾﾎﾝﾏﾁ","prefecture":"富山県","city":"富山市","street":"布瀬本町"},{"zipCode":"9398206","prefectureKana":"ﾄﾔﾏｹﾝ","cityKana":"ﾄﾔﾏｼ","streetKana":"ﾇﾉｾﾏﾁ","prefecture":"富山県","city":"富山市","street":"布瀬町"},{"zipCode":"9398208","prefectureKana":"ﾄﾔﾏｹﾝ","cityKana":"ﾄﾔﾏｼ","streetKana":"ﾇﾉｾﾏﾁﾐﾅﾐ","prefecture":"富山県","city":"富山市","street":"布瀬町南"},{"zipCode":"9398204","prefectureKana":"ﾄﾔﾏｹﾝ","cityKana":"ﾄﾔﾏｼ","streetKana":"ﾈﾂﾞｶﾏﾁ","prefecture":"富山県","city":"富山市","street":"根塚町"},{"zipCode":"9392237","prefectureKana":"ﾄﾔﾏｹﾝ","cityKana":"ﾄﾔﾏｼ","streetKana":"ﾈﾉｳｴ","prefecture":"富山県","city":"富山市","street":"根上"},{"zipCode":"9398261","prefectureKana":"ﾄﾔﾏｹﾝ","cityKana":"ﾄﾔﾏｼ","streetKana":"ﾊｷﾞﾊﾗ","prefecture":"富山県","city":"富山市","street":"萩原"},{"zipCode":"9398124","prefectureKana":"ﾄﾔﾏｹﾝ","cityKana":"ﾄﾔﾏｼ","streetKana":"ﾊﾁｶﾜ","prefecture":"富山県","city":"富山市","street":"八川"},{"zipCode":"9398201","prefectureKana":"ﾄﾔﾏｹﾝ","cityKana":"ﾄﾔﾏｼ","streetKana":"ﾊﾅｿﾞﾉﾁｮｳ","prefecture":"富山県","city":"富山市","street":"花園町"},{"zipCode":"9398164","prefectureKana":"ﾄﾔﾏｹﾝ","cityKana":"ﾄﾔﾏｼ","streetKana":"ﾊﾔｼｻﾞｷ","prefecture":"富山県","city":"富山市","street":"林崎"},{"zipCode":"9392175","prefectureKana":"ﾄﾔﾏｹﾝ","cityKana":"ﾄﾔﾏｼ","streetKana":"ﾋｶﾞｼｲﾉﾀﾆ","prefecture":"富山県","city":"富山市","street":"東猪谷"},{"zipCode":"9392209","prefectureKana":"ﾄﾔﾏｹﾝ","cityKana":"ﾄﾔﾏｼ","streetKana":"ﾋｶﾞｼｵｵｸﾎﾞ","prefecture":"富山県","city":"富山市","street":"東大久保"},{"zipCode":"9398086","prefectureKana":"ﾄﾔﾏｹﾝ","cityKana":"ﾄﾔﾏｼ","streetKana":"ﾋｶﾞｼﾅｶﾉﾏﾁ","prefecture":"富山県","city":"富山市","street":"東中野町"},{"zipCode":"9398031","prefectureKana":"ﾄﾔﾏｹﾝ","cityKana":"ﾄﾔﾏｼ","streetKana":"ﾋｶﾞｼﾅｶﾞﾚｽｷﾞ","prefecture":"富山県","city":"富山市","street":"東流杉"},{"zipCode":"9398242","prefectureKana":"ﾄﾔﾏｹﾝ","cityKana":"ﾄﾔﾏｼ","streetKana":"ﾌｸｲ","prefecture":"富山県","city":"富山市","street":"福居"},{"zipCode":"9392173","prefectureKana":"ﾄﾔﾏｹﾝ","cityKana":"ﾄﾔﾏｼ","streetKana":"ﾌｼｷ","prefecture":"富山県","city":"富山市","street":"伏木"},{"zipCode":"9398011","prefectureKana":"ﾄﾔﾏｹﾝ","cityKana":"ﾄﾔﾏｼ","streetKana":"ﾌｼﾞｻｶｴﾏﾁ","prefecture":"富山県","city":"富山市","street":"不二栄町"},{"zipCode":"9398211","prefectureKana":"ﾄﾔﾏｹﾝ","cityKana":"ﾄﾔﾏｼ","streetKana":"ﾌﾀｸﾁﾏﾁ","prefecture":"富山県","city":"富山市","street":"二口町"},{"zipCode":"9398185","prefectureKana":"ﾄﾔﾏｹﾝ","cityKana":"ﾄﾔﾏｼ","streetKana":"ﾌﾀﾏﾀ","prefecture":"富山県","city":"富山市","street":"二俣"},{"zipCode":"9398184","prefectureKana":"ﾄﾔﾏｹﾝ","cityKana":"ﾄﾔﾏｼ","streetKana":"ﾌﾀﾏﾀｼﾝﾏﾁ","prefecture":"富山県","city":"富山市","street":"二俣新町"},{"zipCode":"9392205","prefectureKana":"ﾄﾔﾏｹﾝ","cityKana":"ﾄﾔﾏｼ","streetKana":"ﾌﾀﾏﾂ","prefecture":"富山県","city":"富山市","street":"二松"},{"zipCode":"9392731","prefectureKana":"ﾄﾔﾏｹﾝ","cityKana":"ﾄﾔﾏｼ","streetKana":"ﾌﾁｭｳﾏﾁｱｵｼﾞﾏ","prefecture":"富山県","city":"富山市","street":"婦中町青島"},{"zipCode":"9392607","prefectureKana":"ﾄﾔﾏｹﾝ","cityKana":"ﾄﾔﾏｼ","streetKana":"ﾌﾁｭｳﾏﾁｱﾗﾏﾁ","prefecture":"富山県","city":"富山市","street":"婦中町新町"},{"zipCode":"9392734","prefectureKana":"ﾄﾔﾏｹﾝ","cityKana":"ﾄﾔﾏｼ","streetKana":"ﾌﾁｭｳﾏﾁｱﾗﾔ","prefecture":"富山県","city":"富山市","street":"婦中町新屋"},{"zipCode":"9392721","prefectureKana":"ﾄﾔﾏｹﾝ","cityKana":"ﾄﾔﾏｼ","streetKana":"ﾌﾁｭｳﾏﾁｲﾀｸﾗ","prefecture":"富山県","city":"富山市","street":"婦中町板倉"},{"zipCode":"9392721","prefectureKana":"ﾄﾔﾏｹﾝ","cityKana":"ﾄﾔﾏｼ","streetKana":"ﾌﾁｭｳﾏﾁｲﾀｸﾗｼﾝ","prefecture":"富山県","city":"富山市","street":"婦中町板倉新"},{"zipCode":"9392711","prefectureKana":"ﾄﾔﾏｹﾝ","cityKana":"ﾄﾔﾏｼ","streetKana":"ﾌﾁｭｳﾏﾁｳｻｶ","prefecture":"富山県","city":"富山市","street":"婦中町鵜坂"},{"zipCode":"9392634","prefectureKana":"ﾄﾔﾏｹﾝ","cityKana":"ﾄﾔﾏｼ","streetKana":"ﾌﾁｭｳﾏﾁｳｼﾅﾒﾘ","prefecture":"富山県","city":"富山市","street":"婦中町牛滑"},{"zipCode":"9392627","prefectureKana":"ﾄﾔﾏｹﾝ","cityKana":"ﾄﾔﾏｼ","streetKana":"ﾌﾁｭｳﾏﾁｳﾜﾉ","prefecture":"富山県","city":"富山市","street":"婦中町上野"},{"zipCode":"9392635","prefectureKana":"ﾄﾔﾏｹﾝ","cityKana":"ﾄﾔﾏｼ","streetKana":"ﾌﾁｭｳﾏﾁｵｵｾﾀﾞﾆ","prefecture":"富山県","city":"富山市","street":"婦中町大瀬谷"},{"zipCode":"9392616","prefectureKana":"ﾄﾔﾏｹﾝ","cityKana":"ﾄﾔﾏｼ","streetKana":"ﾌﾁｭｳﾏﾁｵｸﾞﾗ","prefecture":"富山県","city":"富山市","street":"婦中町小倉"},{"zipCode":"9392627","prefectureKana":"ﾄﾔﾏｹﾝ","cityKana":"ﾄﾔﾏｼ","streetKana":"ﾌﾁｭｳﾏﾁｶｲｼﾞｬｸ","prefecture":"富山県","city":"富山市","street":"婦中町皆杓"},{"zipCode":"9392611","prefectureKana":"ﾄﾔﾏｹﾝ","cityKana":"ﾄﾔﾏｼ","streetKana":"ﾌﾁｭｳﾏﾁｶﾀｶｺﾞﾀﾞｲ","prefecture":"富山県","city":"富山市","street":"婦中町かたかご台"},{"zipCode":"9392736","prefectureKana":"ﾄﾔﾏｹﾝ","cityKana":"ﾄﾔﾏｼ","streetKana":"ﾌﾁｭｳﾏﾁｶﾐｱﾗﾔ","prefecture":"富山県","city":"富山市","street":"婦中町上新屋"},{"zipCode":"9392614","prefectureKana":"ﾄﾔﾏｹﾝ","cityKana":"ﾄﾔﾏｼ","streetKana":"ﾌﾁｭｳﾏﾁｶﾐｲｻﾜ","prefecture":"富山県","city":"富山市","street":"婦中町上井沢"},{"zipCode":"9392713","prefectureKana":"ﾄﾔﾏｹﾝ","cityKana":"ﾄﾔﾏｼ","streetKana":"ﾌﾁｭｳﾏﾁｶﾐｸﾂﾜﾀﾞ","prefecture":"富山県","city":"富山市","street":"婦中町上轡田"},{"zipCode":"9392625","prefectureKana":"ﾄﾔﾏｹﾝ","cityKana":"ﾄﾔﾏｼ","streetKana":"ﾌﾁｭｳﾏﾁｶﾐｾﾞ","prefecture":"富山県","city":"富山市","street":"婦中町上瀬"},{"zipCode":"9392717","prefectureKana":"ﾄﾔﾏｹﾝ","cityKana":"ﾄﾔﾏｼ","streetKana":"ﾌﾁｭｳﾏﾁｶﾐﾀｼﾞﾏ","prefecture":"富山県","city":"富山市","street":"婦中町上田島"},{"zipCode":"9392612","prefectureKana":"ﾄﾔﾏｹﾝ","cityKana":"ﾄﾔﾏｼ","streetKana":"ﾌﾁｭｳﾏﾁｶﾐﾖｼｶﾜ","prefecture":"富山県","city":"富山市","street":"婦中町上吉川"},{"zipCode":"9392612","prefectureKana":"ﾄﾔﾏｹﾝ","cityKana":"ﾄﾔﾏｼ","streetKana":"ﾌﾁｭｳﾏﾁｶﾐﾖｼｶﾜﾆｭｰﾀｳﾝ","prefecture":"富山県","city":"富山市","street":"婦中町上吉川ニュータウン"},{"zipCode":"9392605","prefectureKana":"ﾄﾔﾏｹﾝ","cityKana":"ﾄﾔﾏｼ","streetKana":"ﾌﾁｭｳﾏﾁｶﾜﾗﾏﾁ","prefecture":"富山県","city":"富山市","street":"婦中町河原町"},{"zipCode":"9392703","prefectureKana":"ﾄﾔﾏｹﾝ","cityKana":"ﾄﾔﾏｼ","streetKana":"ﾌﾁｭｳﾏﾁｷﾎﾞｳｶﾞｵｶ","prefecture":"富山県","city":"富山市","street":"婦中町希望ケ丘"},{"zipCode":"9392758","prefectureKana":"ﾄﾔﾏｹﾝ","cityKana":"ﾄﾔﾏｼ","streetKana":"ﾌﾁｭｳﾏﾁｹﾞｼﾞｮｳ","prefecture":"富山県","city":"富山市","street":"婦中町下条"},{"zipCode":"9392752","prefectureKana":"ﾄﾔﾏｹﾝ","cityKana":"ﾄﾔﾏｼ","streetKana":"ﾌﾁｭｳﾏﾁｺｲｽﾞﾐ","prefecture":"富山県","city":"富山市","street":"婦中町小泉"},{"zipCode":"9392601","prefectureKana":"ﾄﾔﾏｹﾝ","cityKana":"ﾄﾔﾏｼ","streetKana":"ﾌﾁｭｳﾏﾁｺﾅｶﾞｻﾜ","prefecture":"富山県","city":"富山市","street":"婦中町小長沢"},{"zipCode":"9392604","prefectureKana":"ﾄﾔﾏｹﾝ","cityKana":"ﾄﾔﾏｼ","streetKana":"ﾌﾁｭｳﾏﾁｺﾉｼﾏ","prefecture":"富山県","city":"富山市","street":"婦中町小野島"},{"zipCode":"9392753","prefectureKana":"ﾄﾔﾏｹﾝ","cityKana":"ﾄﾔﾏｼ","streetKana":"ﾌﾁｭｳﾏﾁｻｻｸﾗ","prefecture":"富山県","city":"富山市","street":"婦中町笹倉"},{"zipCode":"9392622","prefectureKana":"ﾄﾔﾏｹﾝ","cityKana":"ﾄﾔﾏｼ","streetKana":"ﾌﾁｭｳﾏﾁｻﾜﾀﾞ","prefecture":"富山県","city":"富山市","street":"婦中町沢田"},{"zipCode":"9392625","prefectureKana":"ﾄﾔﾏｹﾝ","cityKana":"ﾄﾔﾏｼ","streetKana":"ﾌﾁｭｳﾏﾁｻﾝﾉｾ","prefecture":"富山県","city":"富山市","street":"婦中町三瀬"},{"zipCode":"9392744","prefectureKana":"ﾄﾔﾏｹﾝ","cityKana":"ﾄﾔﾏｼ","streetKana":"ﾌﾁｭｳﾏﾁｼﾞｶｸ","prefecture":"富山県","city":"富山市","street":"婦中町地角"},{"zipCode":"9392617","prefectureKana":"ﾄﾔﾏｹﾝ","cityKana":"ﾄﾔﾏｼ","streetKana":"ﾌﾁｭｳﾏﾁｼﾏﾀﾞ","prefecture":"富山県","city":"富山市","street":"婦中町島田"},{"zipCode":"9392708","prefectureKana":"ﾄﾔﾏｹﾝ","cityKana":"ﾄﾔﾏｼ","streetKana":"ﾌﾁｭｳﾏﾁｼﾏﾎﾝｺﾞｳ","prefecture":"富山県","city":"富山市","street":"婦中町島本郷"},{"zipCode":"9392743","prefectureKana":"ﾄﾔﾏｹﾝ","cityKana":"ﾄﾔﾏｼ","streetKana":"ﾌﾁｭｳﾏﾁｼﾐｽﾞｼﾏ","prefecture":"富山県","city":"富山市","street":"婦中町清水島"},{"zipCode":"9392756","prefectureKana":"ﾄﾔﾏｹﾝ","cityKana":"ﾄﾔﾏｼ","streetKana":"ﾌﾁｭｳﾏﾁｼﾓｲｻﾜ","prefecture":"富山県","city":"富山市","street":"婦中町下井沢"},{"zipCode":"9392716","prefectureKana":"ﾄﾔﾏｹﾝ","cityKana":"ﾄﾔﾏｼ","streetKana":"ﾌﾁｭｳﾏﾁｼﾓｸﾂﾜﾀﾞ","prefecture":"富山県","city":"富山市","street":"婦中町下轡田"},{"zipCode":"9392715","prefectureKana":"ﾄﾔﾏｹﾝ","cityKana":"ﾄﾔﾏｼ","streetKana":"ﾌﾁｭｳﾏﾁｼﾓｻｶｸﾗ","prefecture":"富山県","city":"富山市","street":"婦中町下坂倉"},{"zipCode":"9392624","prefectureKana":"ﾄﾔﾏｹﾝ","cityKana":"ﾄﾔﾏｼ","streetKana":"ﾌﾁｭｳﾏﾁｼﾓｾﾞ","prefecture":"富山県","city":"富山市","street":"婦中町下瀬"},{"zipCode":"9392602","prefectureKana":"ﾄﾔﾏｹﾝ","cityKana":"ﾄﾔﾏｼ","streetKana":"ﾌﾁｭｳﾏﾁｼﾓﾑﾗ","prefecture":"富山県","city":"富山市","street":"婦中町下邑"},{"zipCode":"9392611","prefectureKana":"ﾄﾔﾏｹﾝ","cityKana":"ﾄﾔﾏｼ","streetKana":"ﾌﾁｭｳﾏﾁｼﾓﾖｼｶﾜ","prefecture":"富山県","city":"富山市","street":"婦中町下吉川"},{"zipCode":"9392737","prefectureKana":"ﾄﾔﾏｹﾝ","cityKana":"ﾄﾔﾏｼ","streetKana":"ﾌﾁｭｳﾏﾁｼﾞｭｳｺﾞﾁｮｳ","prefecture":"富山県","city":"富山市","street":"婦中町十五丁"},{"zipCode":"9392727","prefectureKana":"ﾄﾔﾏｹﾝ","cityKana":"ﾄﾔﾏｼ","streetKana":"ﾌﾁｭｳﾏﾁｽﾅｺﾞﾀﾞ","prefecture":"富山県","city":"富山市","street":"婦中町砂子田"},{"zipCode":"9392726","prefectureKana":"ﾄﾔﾏｹﾝ","cityKana":"ﾄﾔﾏｼ","streetKana":"ﾌﾁｭｳﾏﾁｿﾞｳｼﾞﾏ","prefecture":"富山県","city":"富山市","street":"婦中町蔵島"},{"zipCode":"9392722","prefectureKana":"ﾄﾔﾏｹﾝ","cityKana":"ﾄﾔﾏｼ","streetKana":"ﾌﾁｭｳﾏﾁｿｴｼﾞﾏ","prefecture":"富山県","city":"富山市","street":"婦中町添島"},{"zipCode":"9392632","prefectureKana":"ﾄﾔﾏｹﾝ","cityKana":"ﾄﾔﾏｼ","streetKana":"ﾌﾁｭｳﾏﾁｿﾄﾜﾉ","prefecture":"富山県","city":"富山市","street":"婦中町外輪野"},{"zipCode":"9392639","prefectureKana":"ﾄﾔﾏｹﾝ","cityKana":"ﾄﾔﾏｼ","streetKana":"ﾌﾁｭｳﾏﾁﾀﾞｲﾗ","prefecture":"富山県","city":"富山市","street":"婦中町平等"},{"zipCode":"9392611","prefectureKana":"ﾄﾔﾏｹﾝ","cityKana":"ﾄﾔﾏｼ","streetKana":"ﾌﾁｭｳﾏﾁﾀｶﾀ","prefecture":"富山県","city":"富山市","street":"婦中町高田"},{"zipCode":"9392631","prefectureKana":"ﾄﾔﾏｹﾝ","cityKana":"ﾄﾔﾏｼ","streetKana":"ﾌﾁｭｳﾏﾁﾀｶﾂｶ","prefecture":"富山県","city":"富山市","street":"婦中町高塚"},{"zipCode":"9392613","prefectureKana":"ﾄﾔﾏｹﾝ","cityKana":"ﾄﾔﾏｼ","streetKana":"ﾌﾁｭｳﾏﾁﾀｶﾋﾂﾞｷ","prefecture":"富山県","city":"富山市","street":"婦中町高日附"},{"zipCode":"9392625","prefectureKana":"ﾄﾔﾏｹﾝ","cityKana":"ﾄﾔﾏｼ","streetKana":"ﾌﾁｭｳﾏﾁﾀｶﾔﾏ","prefecture":"富山県","city":"富山市","street":"婦中町高山"},{"zipCode":"9392702","prefectureKana":"ﾄﾔﾏｹﾝ","cityKana":"ﾄﾔﾏｼ","streetKana":"ﾌﾁｭｳﾏﾁﾀｼﾞﾏ","prefecture":"富山県","city":"富山市","street":"婦中町田島"},{"zipCode":"9392735","prefectureKana":"ﾄﾔﾏｹﾝ","cityKana":"ﾄﾔﾏｼ","streetKana":"ﾌﾁｭｳﾏﾁﾀﾒﾅﾘｼﾝ","prefecture":"富山県","city":"富山市","street":"婦中町為成新"},{"zipCode":"9392748","prefectureKana":"ﾄﾔﾏｹﾝ","cityKana":"ﾄﾔﾏｼ","streetKana":"ﾌﾁｭｳﾏﾁﾀﾔ","prefecture":"富山県","city":"富山市","street":"婦中町田屋"},{"zipCode":"9392748","prefectureKana":"ﾄﾔﾏｹﾝ","cityKana":"ﾄﾔﾏｼ","streetKana":"ﾌﾁｭｳﾏﾁﾀﾔｼﾝ","prefecture":"富山県","city":"富山市","street":"婦中町田屋新"},{"zipCode":"9392622","prefectureKana":"ﾄﾔﾏｹﾝ","cityKana":"ﾄﾔﾏｼ","streetKana":"ﾌﾁｭｳﾏﾁﾁｻﾄ","prefecture":"富山県","city":"富山市","street":"婦中町千里"},{"zipCode":"9392712","prefectureKana":"ﾄﾔﾏｹﾝ","cityKana":"ﾄﾔﾏｼ","streetKana":"ﾌﾁｭｳﾏﾁﾂｶﾊﾗ","prefecture":"富山県","city":"富山市","street":"婦中町塚原"},{"zipCode":"9392738","prefectureKana":"ﾄﾔﾏｹﾝ","cityKana":"ﾄﾔﾏｼ","streetKana":"ﾌﾁｭｳﾏﾁﾄﾞｳｷｼﾞﾏ","prefecture":"富山県","city":"富山市","street":"婦中町道喜島"},{"zipCode":"9392626","prefectureKana":"ﾄﾔﾏｹﾝ","cityKana":"ﾄﾔﾏｼ","streetKana":"ﾌﾁｭｳﾏﾁﾄﾞｳｼﾞﾏ","prefecture":"富山県","city":"富山市","street":"婦中町道島"},{"zipCode":"9392757","prefectureKana":"ﾄﾔﾏｹﾝ","cityKana":"ﾄﾔﾏｼ","streetKana":"ﾌﾁｭｳﾏﾁﾄﾞｳｼﾞｮｳ","prefecture":"富山県","city":"富山市","street":"婦中町道場"},{"zipCode":"9392604","prefectureKana":"ﾄﾔﾏｹﾝ","cityKana":"ﾄﾔﾏｼ","streetKana":"ﾌﾁｭｳﾏﾁﾄﾐｶﾜ","prefecture":"富山県","city":"富山市","street":"婦中町富川"},{"zipCode":"9392621","prefectureKana":"ﾄﾔﾏｹﾝ","cityKana":"ﾄﾔﾏｼ","streetKana":"ﾌﾁｭｳﾏﾁﾄﾐｻｷ","prefecture":"富山県","city":"富山市","street":"婦中町富崎"},{"zipCode":"9392759","prefectureKana":"ﾄﾔﾏｹﾝ","cityKana":"ﾄﾔﾏｼ","streetKana":"ﾌﾁｭｳﾏﾁﾄﾓｻｶ","prefecture":"富山県","city":"富山市","street":"婦中町友坂"},{"zipCode":"9392606","prefectureKana":"ﾄﾔﾏｹﾝ","cityKana":"ﾄﾔﾏｼ","streetKana":"ﾌﾁｭｳﾏﾁﾅｶﾞｻﾜ","prefecture":"富山県","city":"富山市","street":"婦中町長沢"},{"zipCode":"9392747","prefectureKana":"ﾄﾔﾏｹﾝ","cityKana":"ﾄﾔﾏｼ","streetKana":"ﾌﾁｭｳﾏﾁﾅｶｼﾞﾏ","prefecture":"富山県","city":"富山市","street":"婦中町中島"},{"zipCode":"9392741","prefectureKana":"ﾄﾔﾏｹﾝ","cityKana":"ﾄﾔﾏｼ","streetKana":"ﾌﾁｭｳﾏﾁﾅｶﾉﾐｮｳ","prefecture":"富山県","city":"富山市","street":"婦中町中名"},{"zipCode":"9392733","prefectureKana":"ﾄﾔﾏｹﾝ","cityKana":"ﾄﾔﾏｼ","streetKana":"ﾌﾁｭｳﾏﾁﾅﾙｺ","prefecture":"富山県","city":"富山市","street":"婦中町成子"},{"zipCode":"9392719","prefectureKana":"ﾄﾔﾏｹﾝ","cityKana":"ﾄﾔﾏｼ","streetKana":"ﾌﾁｭｳﾏﾁﾆｼｶﾞｵｶ","prefecture":"富山県","city":"富山市","street":"婦中町西ヶ丘"},{"zipCode":"9392701","prefectureKana":"ﾄﾔﾏｹﾝ","cityKana":"ﾄﾔﾏｼ","streetKana":"ﾌﾁｭｳﾏﾁﾆｼﾎﾝｺﾞｳ","prefecture":"富山県","city":"富山市","street":"婦中町西本郷"},{"zipCode":"9392724","prefectureKana":"ﾄﾔﾏｹﾝ","cityKana":"ﾄﾔﾏｼ","streetKana":"ﾌﾁｭｳﾏﾁﾈﾑﾉｷ","prefecture":"富山県","city":"富山市","street":"婦中町ねむの木"},{"zipCode":"9392723","prefectureKana":"ﾄﾔﾏｹﾝ","cityKana":"ﾄﾔﾏｼ","streetKana":"ﾌﾁｭｳﾏﾁﾊｷﾞﾉｼﾏ","prefecture":"富山県","city":"富山市","street":"婦中町萩島"},{"zipCode":"9392603","prefectureKana":"ﾄﾔﾏｹﾝ","cityKana":"ﾄﾔﾏｼ","streetKana":"ﾌﾁｭｳﾏﾁﾊﾈ","prefecture":"富山県","city":"富山市","street":"婦中町羽根"},{"zipCode":"9392704","prefectureKana":"ﾄﾔﾏｹﾝ","cityKana":"ﾄﾔﾏｼ","streetKana":"ﾌﾁｭｳﾏﾁﾊﾈｼﾝ","prefecture":"富山県","city":"富山市","street":"婦中町羽根新"},{"zipCode":"9392746","prefectureKana":"ﾄﾔﾏｹﾝ","cityKana":"ﾄﾔﾏｼ","streetKana":"ﾌﾁｭｳﾏﾁﾊﾏﾉｺ","prefecture":"富山県","city":"富山市","street":"婦中町浜子"},{"zipCode":"9392706","prefectureKana":"ﾄﾔﾏｹﾝ","cityKana":"ﾄﾔﾏｼ","streetKana":"ﾌﾁｭｳﾏﾁﾊﾔﾎｼ","prefecture":"富山県","city":"富山市","street":"婦中町速星"},{"zipCode":"9392633","prefectureKana":"ﾄﾔﾏｹﾝ","cityKana":"ﾄﾔﾏｼ","streetKana":"ﾌﾁｭｳﾏﾁﾋｶﾞｼﾀﾆ","prefecture":"富山県","city":"富山市","street":"婦中町東谷"},{"zipCode":"9392707","prefectureKana":"ﾄﾔﾏｹﾝ","cityKana":"ﾄﾔﾏｼ","streetKana":"ﾌﾁｭｳﾏﾁﾋｶﾞｼﾎﾝｺﾞｳ","prefecture":"富山県","city":"富山市","street":"婦中町東本郷"},{"zipCode":"9392636","prefectureKana":"ﾄﾔﾏｹﾝ","cityKana":"ﾄﾔﾏｼ","streetKana":"ﾌﾁｭｳﾏﾁﾋｶﾞｼﾔﾏ","prefecture":"富山県","city":"富山市","street":"婦中町東山"},{"zipCode":"9392729","prefectureKana":"ﾄﾔﾏｹﾝ","cityKana":"ﾄﾔﾏｼ","streetKana":"ﾌﾁｭｳﾏﾁﾋﾋﾞｷﾉﾓﾘ","prefecture":"富山県","city":"富山市","street":"婦中町響の杜"},{"zipCode":"9392606","prefectureKana":"ﾄﾔﾏｹﾝ","cityKana":"ﾄﾔﾏｼ","streetKana":"ﾌﾁｭｳﾏﾁﾋﾏﾜﾘﾀﾞｲ","prefecture":"富山県","city":"富山市","street":"婦中町ひまわり台"},{"zipCode":"9392745","prefectureKana":"ﾄﾔﾏｹﾝ","cityKana":"ﾄﾔﾏｼ","streetKana":"ﾌﾁｭｳﾏﾁﾋﾛﾀ","prefecture":"富山県","city":"富山市","street":"婦中町広田"},{"zipCode":"9392755","prefectureKana":"ﾄﾔﾏｹﾝ","cityKana":"ﾄﾔﾏｼ","streetKana":"ﾌﾁｭｳﾏﾁﾌｸﾛ","prefecture":"富山県","city":"富山市","street":"婦中町袋"},{"zipCode":"9392718","prefectureKana":"ﾄﾔﾏｹﾝ","cityKana":"ﾄﾔﾏｼ","streetKana":"ﾌﾁｭｳﾏﾁﾌﾞﾝﾃﾞﾝ","prefecture":"富山県","city":"富山市","street":"婦中町分田"},{"zipCode":"9392622","prefectureKana":"ﾄﾔﾏｹﾝ","cityKana":"ﾄﾔﾏｼ","streetKana":"ﾌﾁｭｳﾏﾁﾎｺﾉｷ","prefecture":"富山県","city":"富山市","street":"婦中町鉾木"},{"zipCode":"9392638","prefectureKana":"ﾄﾔﾏｹﾝ","cityKana":"ﾄﾔﾏｼ","streetKana":"ﾌﾁｭｳﾏﾁﾎｿﾀﾆ","prefecture":"富山県","city":"富山市","street":"婦中町細谷"},{"zipCode":"9392728","prefectureKana":"ﾄﾔﾏｹﾝ","cityKana":"ﾄﾔﾏｼ","streetKana":"ﾌﾁｭｳﾏﾁﾎﾀﾙｶﾞﾜ","prefecture":"富山県","city":"富山市","street":"婦中町蛍川"},{"zipCode":"9392742","prefectureKana":"ﾄﾔﾏｹﾝ","cityKana":"ﾄﾔﾏｼ","streetKana":"ﾌﾁｭｳﾏﾁﾎﾘ","prefecture":"富山県","city":"富山市","street":"婦中町堀"},{"zipCode":"9392714","prefectureKana":"ﾄﾔﾏｹﾝ","cityKana":"ﾄﾔﾏｼ","streetKana":"ﾌﾁｭｳﾏﾁﾏｽﾀﾞ","prefecture":"富山県","city":"富山市","street":"婦中町増田"},{"zipCode":"9392637","prefectureKana":"ﾄﾔﾏｹﾝ","cityKana":"ﾄﾔﾏｼ","streetKana":"ﾌﾁｭｳﾏﾁﾐｻｺﾞﾀﾞﾆ","prefecture":"富山県","city":"富山市","street":"婦中町鶚谷"},{"zipCode":"9392705","prefectureKana":"ﾄﾔﾏｹﾝ","cityKana":"ﾄﾔﾏｼ","streetKana":"ﾌﾁｭｳﾏﾁﾐﾔｶﾞｼﾏ","prefecture":"富山県","city":"富山市","street":"婦中町宮ケ島"},{"zipCode":"9392631","prefectureKana":"ﾄﾔﾏｹﾝ","cityKana":"ﾄﾔﾏｼ","streetKana":"ﾌﾁｭｳﾏﾁﾐﾔｶﾞﾀﾆ","prefecture":"富山県","city":"富山市","street":"婦中町宮ケ谷"},{"zipCode":"9392754","prefectureKana":"ﾄﾔﾏｹﾝ","cityKana":"ﾄﾔﾏｼ","streetKana":"ﾌﾁｭｳﾏﾁﾑｷﾞｼﾞﾏ","prefecture":"富山県","city":"富山市","street":"婦中町麦島"},{"zipCode":"9392636","prefectureKana":"ﾄﾔﾏｹﾝ","cityKana":"ﾄﾔﾏｼ","streetKana":"ﾌﾁｭｳﾏﾁﾑｸｶﾞﾊﾗ","prefecture":"富山県","city":"富山市","street":"婦中町葎原"},{"zipCode":"9392725","prefectureKana":"ﾄﾔﾏｹﾝ","cityKana":"ﾄﾔﾏｼ","streetKana":"ﾌﾁｭｳﾏﾁﾓﾁﾃﾞﾝ","prefecture":"富山県","city":"富山市","street":"婦中町持田"},{"zipCode":"9392751","prefectureKana":"ﾄﾔﾏｹﾝ","cityKana":"ﾄﾔﾏｼ","streetKana":"ﾌﾁｭｳﾏﾁﾔｽﾀﾞ","prefecture":"富山県","city":"富山市","street":"婦中町安田"},{"zipCode":"9392615","prefectureKana":"ﾄﾔﾏｹﾝ","cityKana":"ﾄﾔﾏｼ","streetKana":"ﾌﾁｭｳﾏﾁﾔﾝﾄﾞ","prefecture":"富山県","city":"富山市","street":"婦中町熊野道"},{"zipCode":"9392709","prefectureKana":"ﾄﾔﾏｹﾝ","cityKana":"ﾄﾔﾏｼ","streetKana":"ﾌﾁｭｳﾏﾁﾕﾒｶﾞｵｶ","prefecture":"富山県","city":"富山市","street":"婦中町夢ケ丘"},{"zipCode":"9392649","prefectureKana":"ﾄﾔﾏｹﾝ","cityKana":"ﾄﾔﾏｼ","streetKana":"ﾌﾁｭｳﾏﾁﾖｶﾜ(ﾆｼﾖｶﾜ)","prefecture":"富山県","city":"富山市","street":"婦中町余川（西余川）"},{"zipCode":"9392749","prefectureKana":"ﾄﾔﾏｹﾝ","cityKana":"ﾄﾔﾏｼ","streetKana":"ﾌﾁｭｳﾏﾁﾖｶﾜ(ﾋｶﾞｼﾖｶﾜ)","prefecture":"富山県","city":"富山市","street":"婦中町余川（東余川）"},{"zipCode":"9392732","prefectureKana":"ﾄﾔﾏｹﾝ","cityKana":"ﾄﾔﾏｼ","streetKana":"ﾌﾁｭｳﾏﾁﾖｺﾉ","prefecture":"富山県","city":"富山市","street":"婦中町横野"},{"zipCode":"9392632","prefectureKana":"ﾄﾔﾏｹﾝ","cityKana":"ﾄﾔﾏｼ","streetKana":"ﾌﾁｭｳﾏﾁﾖｼｽﾞﾐ","prefecture":"富山県","city":"富山市","street":"婦中町吉住"},{"zipCode":"9392638","prefectureKana":"ﾄﾔﾏｹﾝ","cityKana":"ﾄﾔﾏｼ","streetKana":"ﾌﾁｭｳﾏﾁﾖｼﾀﾆ","prefecture":"富山県","city":"富山市","street":"婦中町吉谷"},{"zipCode":"9392623","prefectureKana":"ﾄﾔﾏｹﾝ","cityKana":"ﾄﾔﾏｼ","streetKana":"ﾌﾁｭｳﾏﾁﾚﾝｹﾞｼﾞ","prefecture":"富山県","city":"富山市","street":"婦中町蓮花寺"},{"zipCode":"9392212","prefectureKana":"ﾄﾔﾏｹﾝ","cityKana":"ﾄﾔﾏｼ","streetKana":"ﾌﾅｸﾗ","prefecture":"富山県","city":"富山市","street":"舟倉"},{"zipCode":"9392176","prefectureKana":"ﾄﾔﾏｹﾝ","cityKana":"ﾄﾔﾏｼ","streetKana":"ﾌﾅﾄ","prefecture":"富山県","city":"富山市","street":"舟渡"},{"zipCode":"9398023","prefectureKana":"ﾄﾔﾏｹﾝ","cityKana":"ﾄﾔﾏｼ","streetKana":"ﾌﾙﾃﾞﾗ","prefecture":"富山県","city":"富山市","street":"古寺"},{"zipCode":"9398024","prefectureKana":"ﾄﾔﾏｹﾝ","cityKana":"ﾄﾔﾏｼ","streetKana":"ﾌﾙﾃﾞﾗｼﾝﾏﾁ","prefecture":"富山県","city":"富山市","street":"古寺新町"},{"zipCode":"9398254","prefectureKana":"ﾄﾔﾏｹﾝ","cityKana":"ﾄﾔﾏｼ","streetKana":"ﾍﾞﾂﾐｮｳ","prefecture":"富山県","city":"富山市","street":"別名"},{"zipCode":"9398057","prefectureKana":"ﾄﾔﾏｹﾝ","cityKana":"ﾄﾔﾏｼ","streetKana":"ﾎﾘ","prefecture":"富山県","city":"富山市","street":"堀"},{"zipCode":"9398081","prefectureKana":"ﾄﾔﾏｹﾝ","cityKana":"ﾄﾔﾏｼ","streetKana":"ﾎﾘｶﾜｺｲｽﾞﾐﾁｮｳ","prefecture":"富山県","city":"富山市","street":"堀川小泉町"},{"zipCode":"9398053","prefectureKana":"ﾄﾔﾏｹﾝ","cityKana":"ﾄﾔﾏｼ","streetKana":"ﾎﾘｶﾜﾃﾝｻﾞﾝﾏﾁ","prefecture":"富山県","city":"富山市","street":"堀川天山町"},{"zipCode":"9398049","prefectureKana":"ﾄﾔﾏｹﾝ","cityKana":"ﾄﾔﾏｼ","streetKana":"ﾎﾘｶﾜﾎﾝｺﾞｳ","prefecture":"富山県","city":"富山市","street":"堀川本郷"},{"zipCode":"9398072","prefectureKana":"ﾄﾔﾏｹﾝ","cityKana":"ﾄﾔﾏｼ","streetKana":"ﾎﾘｶﾜﾏﾁ","prefecture":"富山県","city":"富山市","street":"堀川町"},{"zipCode":"9398046","prefectureKana":"ﾄﾔﾏｹﾝ","cityKana":"ﾄﾔﾏｼ","streetKana":"ﾎﾝｺﾞｳｼﾝ","prefecture":"富山県","city":"富山市","street":"本郷新"},{"zipCode":"9398045","prefectureKana":"ﾄﾔﾏｹﾝ","cityKana":"ﾄﾔﾏｼ","streetKana":"ﾎﾝｺﾞｳﾏﾁ","prefecture":"富山県","city":"富山市","street":"本郷町"},{"zipCode":"9398161","prefectureKana":"ﾄﾔﾏｹﾝ","cityKana":"ﾄﾔﾏｼ","streetKana":"ﾏｷﾀﾞ","prefecture":"富山県","city":"富山市","street":"牧田"},{"zipCode":"9392164","prefectureKana":"ﾄﾔﾏｹﾝ","cityKana":"ﾄﾔﾏｼ","streetKana":"ﾏﾁﾅｶﾞ","prefecture":"富山県","city":"富山市","street":"町長"},{"zipCode":"9398017","prefectureKana":"ﾄﾔﾏｹﾝ","cityKana":"ﾄﾔﾏｼ","streetKana":"ﾏﾂｶﾞｵｶ","prefecture":"富山県","city":"富山市","street":"松ケ丘"},{"zipCode":"9392203","prefectureKana":"ﾄﾔﾏｹﾝ","cityKana":"ﾄﾔﾏｼ","streetKana":"ﾏﾂﾉ","prefecture":"富山県","city":"富山市","street":"松野"},{"zipCode":"9392204","prefectureKana":"ﾄﾔﾏｹﾝ","cityKana":"ﾄﾔﾏｼ","streetKana":"ﾏﾝｶﾞﾝｼﾞ","prefecture":"富山県","city":"富山市","street":"万願寺"},{"zipCode":"9390511","prefectureKana":"ﾄﾔﾏｹﾝ","cityKana":"ﾄﾔﾏｼ","streetKana":"ﾐｽﾞﾊｼｱｻﾋﾏﾁ","prefecture":"富山県","city":"富山市","street":"水橋朝日町"},{"zipCode":"9393516","prefectureKana":"ﾄﾔﾏｹﾝ","cityKana":"ﾄﾔﾏｼ","streetKana":"ﾐｽﾞﾊｼｱﾗﾏﾁ","prefecture":"富山県","city":"富山市","street":"水橋荒町"},{"zipCode":"9393523","prefectureKana":"ﾄﾔﾏｹﾝ","cityKana":"ﾄﾔﾏｼ","streetKana":"ﾐｽﾞﾊｼｲｹﾀﾞﾀﾁ","prefecture":"富山県","city":"富山市","street":"水橋池田舘"},{"zipCode":"9393531","prefectureKana":"ﾄﾔﾏｹﾝ","cityKana":"ﾄﾔﾏｼ","streetKana":"ﾐｽﾞﾊｼｲｹﾀﾞﾏﾁ","prefecture":"富山県","city":"富山市","street":"水橋池田町"},{"zipCode":"9390551","prefectureKana":"ﾄﾔﾏｹﾝ","cityKana":"ﾄﾔﾏｼ","streetKana":"ﾐｽﾞﾊｼｲｼﾏｻ","prefecture":"富山県","city":"富山市","street":"水橋石政"},{"zipCode":"9390561","prefectureKana":"ﾄﾔﾏｹﾝ","cityKana":"ﾄﾔﾏｼ","streetKana":"ﾐｽﾞﾊｼｲｼﾜﾘ","prefecture":"富山県","city":"富山市","street":"水橋石割"},{"zipCode":"9393524","prefectureKana":"ﾄﾔﾏｹﾝ","cityKana":"ﾄﾔﾏｼ","streetKana":"ﾐｽﾞﾊｼｲｾﾔ","prefecture":"富山県","city":"富山市","street":"水橋伊勢屋"},{"zipCode":"9390545","prefectureKana":"ﾄﾔﾏｹﾝ","cityKana":"ﾄﾔﾏｼ","streetKana":"ﾐｽﾞﾊｼｲｾﾘｮｳ","prefecture":"富山県","city":"富山市","street":"水橋伊勢領"},{"zipCode":"9390531","prefectureKana":"ﾄﾔﾏｹﾝ","cityKana":"ﾄﾔﾏｼ","streetKana":"ﾐｽﾞﾊｼｲﾁｴ","prefecture":"富山県","city":"富山市","street":"水橋市江"},{"zipCode":"9390532","prefectureKana":"ﾄﾔﾏｹﾝ","cityKana":"ﾄﾔﾏｼ","streetKana":"ﾐｽﾞﾊｼｲﾁｴｼﾝﾏﾁ","prefecture":"富山県","city":"富山市","street":"水橋市江新町"},{"zipCode":"9393555","prefectureKana":"ﾄﾔﾏｹﾝ","cityKana":"ﾄﾔﾏｼ","streetKana":"ﾐｽﾞﾊｼｲﾁﾀﾞﾌﾞｸﾛ","prefecture":"富山県","city":"富山市","street":"水橋市田袋"},{"zipCode":"9390514","prefectureKana":"ﾄﾔﾏｹﾝ","cityKana":"ﾄﾔﾏｼ","streetKana":"ﾐｽﾞﾊｼｲﾅﾘﾏﾁ","prefecture":"富山県","city":"富山市","street":"水橋稲荷町"},{"zipCode":"9393504","prefectureKana":"ﾄﾔﾏｹﾝ","cityKana":"ﾄﾔﾏｼ","streetKana":"ﾐｽﾞﾊｼｲﾏﾏﾁ","prefecture":"富山県","city":"富山市","street":"水橋今町"},{"zipCode":"9393544","prefectureKana":"ﾄﾔﾏｹﾝ","cityKana":"ﾄﾔﾏｼ","streetKana":"ﾐｽﾞﾊｼｲﾘｴ","prefecture":"富山県","city":"富山市","street":"水橋入江"},{"zipCode":"9393501","prefectureKana":"ﾄﾔﾏｹﾝ","cityKana":"ﾄﾔﾏｼ","streetKana":"ﾐｽﾞﾊｼｲﾝﾃﾞﾝﾏﾁ","prefecture":"富山県","city":"富山市","street":"水橋印田町"},{"zipCode":"9390511","prefectureKana":"ﾄﾔﾏｹﾝ","cityKana":"ﾄﾔﾏｼ","streetKana":"ﾐｽﾞﾊｼｳｵﾉﾐ","prefecture":"富山県","city":"富山市","street":"水橋魚躬"},{"zipCode":"9393525","prefectureKana":"ﾄﾔﾏｹﾝ","cityKana":"ﾄﾔﾏｼ","streetKana":"ﾐｽﾞﾊｼｴｷﾏｴ","prefecture":"富山県","city":"富山市","street":"水橋駅前"},{"zipCode":"9390506","prefectureKana":"ﾄﾔﾏｹﾝ","cityKana":"ﾄﾔﾏｼ","streetKana":"ﾐｽﾞﾊｼｵｵﾏﾁ(ﾁｭｳﾌﾞﾁｸ)","prefecture":"富山県","city":"富山市","street":"水橋大町（中部地区）"},{"zipCode":"9393512","prefectureKana":"ﾄﾔﾏｹﾝ","cityKana":"ﾄﾔﾏｼ","streetKana":"ﾐｽﾞﾊｼｵｵﾏﾁ(ｾｲﾌﾞﾁｸ)","prefecture":"富山県","city":"富山市","street":"水橋大町（西部地区）"},{"zipCode":"9393541","prefectureKana":"ﾄﾔﾏｹﾝ","cityKana":"ﾄﾔﾏｼ","streetKana":"ﾐｽﾞﾊｼｵｷ","prefecture":"富山県","city":"富山市","street":"水橋沖"},{"zipCode":"9393552","prefectureKana":"ﾄﾔﾏｹﾝ","cityKana":"ﾄﾔﾏｼ","streetKana":"ﾐｽﾞﾊｼｶｲﾅｻﾞｷ","prefecture":"富山県","city":"富山市","street":"水橋肘崎"},{"zipCode":"9393542","prefectureKana":"ﾄﾔﾏｹﾝ","cityKana":"ﾄﾔﾏｼ","streetKana":"ﾐｽﾞﾊｼｶｲﾎﾂ","prefecture":"富山県","city":"富山市","street":"水橋開発"},{"zipCode":"9390535","prefectureKana":"ﾄﾔﾏｹﾝ","cityKana":"ﾄﾔﾏｼ","streetKana":"ﾐｽﾞﾊｼｶｲﾎﾂﾏﾁ","prefecture":"富山県","city":"富山市","street":"水橋開発町"},{"zipCode":"9390541","prefectureKana":"ﾄﾔﾏｹﾝ","cityKana":"ﾄﾔﾏｼ","streetKana":"ﾐｽﾞﾊｼｶｶﾞﾐﾀﾞ","prefecture":"富山県","city":"富山市","street":"水橋鏡田"},{"zipCode":"9390542","prefectureKana":"ﾄﾔﾏｹﾝ","cityKana":"ﾄﾔﾏｼ","streetKana":"ﾐｽﾞﾊｼｶﾀﾀﾞ","prefecture":"富山県","city":"富山市","street":"水橋堅田"},{"zipCode":"9393534","prefectureKana":"ﾄﾔﾏｹﾝ","cityKana":"ﾄﾔﾏｼ","streetKana":"ﾐｽﾞﾊｼｶﾅｵ","prefecture":"富山県","city":"富山市","street":"水橋金尾"},{"zipCode":"9393536","prefectureKana":"ﾄﾔﾏｹﾝ","cityKana":"ﾄﾔﾏｼ","streetKana":"ﾐｽﾞﾊｼｶﾅｵｼﾝ","prefecture":"富山県","city":"富山市","street":"水橋金尾新"},{"zipCode":"9390565","prefectureKana":"ﾄﾔﾏｹﾝ","cityKana":"ﾄﾔﾏｼ","streetKana":"ﾐｽﾞﾊｼｶﾈﾋﾛ","prefecture":"富山県","city":"富山市","street":"水橋金広"},{"zipCode":"9390546","prefectureKana":"ﾄﾔﾏｹﾝ","cityKana":"ﾄﾔﾏｼ","streetKana":"ﾐｽﾞﾊｼｶﾐｻｸﾗｷﾞ","prefecture":"富山県","city":"富山市","street":"水橋上桜木"},{"zipCode":"9390544","prefectureKana":"ﾄﾔﾏｹﾝ","cityKana":"ﾄﾔﾏｼ","streetKana":"ﾐｽﾞﾊｼｶﾐｽﾅｺﾞｻﾞｶ","prefecture":"富山県","city":"富山市","street":"水橋上砂子坂"},{"zipCode":"9393553","prefectureKana":"ﾄﾔﾏｹﾝ","cityKana":"ﾄﾔﾏｼ","streetKana":"ﾐｽﾞﾊｼｶﾐﾏﾄﾊﾞ","prefecture":"富山県","city":"富山市","street":"水橋上的場"},{"zipCode":"9393502","prefectureKana":"ﾄﾔﾏｹﾝ","cityKana":"ﾄﾔﾏｼ","streetKana":"ﾐｽﾞﾊｼｶﾜﾗﾏﾁ","prefecture":"富山県","city":"富山市","street":"水橋川原町"},{"zipCode":"9390567","prefectureKana":"ﾄﾔﾏｹﾝ","cityKana":"ﾄﾔﾏｼ","streetKana":"ﾐｽﾞﾊｼｷﾀﾊﾞﾝﾊﾞ","prefecture":"富山県","city":"富山市","street":"水橋北馬場"},{"zipCode":"9390534","prefectureKana":"ﾄﾔﾏｹﾝ","cityKana":"ﾄﾔﾏｼ","streetKana":"ﾐｽﾞﾊｼｷﾂﾈﾂﾞｶ","prefecture":"富山県","city":"富山市","street":"水橋狐塚"},{"zipCode":"9390547","prefectureKana":"ﾄﾔﾏｹﾝ","cityKana":"ﾄﾔﾏｼ","streetKana":"ﾐｽﾞﾊｼｺｲｹ","prefecture":"富山県","city":"富山市","street":"水橋小池"},{"zipCode":"9390552","prefectureKana":"ﾄﾔﾏｹﾝ","cityKana":"ﾄﾔﾏｼ","streetKana":"ﾐｽﾞﾊｼｺｲﾂﾞｶ","prefecture":"富山県","city":"富山市","street":"水橋恋塚"},{"zipCode":"9390553","prefectureKana":"ﾄﾔﾏｹﾝ","cityKana":"ﾄﾔﾏｼ","streetKana":"ﾐｽﾞﾊｼｺｲﾃﾞ","prefecture":"富山県","city":"富山市","street":"水橋小出"},{"zipCode":"9390533","prefectureKana":"ﾄﾔﾏｹﾝ","cityKana":"ﾄﾔﾏｼ","streetKana":"ﾐｽﾞﾊｼｺｼｿﾞﾉﾁｮｳ","prefecture":"富山県","city":"富山市","street":"水橋高志園町"},{"zipCode":"9390543","prefectureKana":"ﾄﾔﾏｹﾝ","cityKana":"ﾄﾔﾏｼ","streetKana":"ﾐｽﾞﾊｼｺﾞﾛｳﾏﾙ","prefecture":"富山県","city":"富山市","street":"水橋五郎丸"},{"zipCode":"9390546","prefectureKana":"ﾄﾔﾏｹﾝ","cityKana":"ﾄﾔﾏｼ","streetKana":"ﾐｽﾞﾊｼｻｸﾗｷﾞ","prefecture":"富山県","city":"富山市","street":"水橋桜木"},{"zipCode":"9390563","prefectureKana":"ﾄﾔﾏｹﾝ","cityKana":"ﾄﾔﾏｼ","streetKana":"ﾐｽﾞﾊｼｻﾉﾀｹ","prefecture":"富山県","city":"富山市","street":"水橋佐野竹"},{"zipCode":"9393506","prefectureKana":"ﾄﾔﾏｹﾝ","cityKana":"ﾄﾔﾏｼ","streetKana":"ﾐｽﾞﾊｼｻﾝﾉｳﾏﾁ","prefecture":"富山県","city":"富山市","street":"水橋山王町"},{"zipCode":"9390521","prefectureKana":"ﾄﾔﾏｹﾝ","cityKana":"ﾄﾔﾏｼ","streetKana":"ﾐｽﾞﾊｼｼﾀﾀﾞﾝ","prefecture":"富山県","city":"富山市","street":"水橋下段"},{"zipCode":"9393547","prefectureKana":"ﾄﾔﾏｹﾝ","cityKana":"ﾄﾔﾏｼ","streetKana":"ﾐｽﾞﾊｼｼﾊﾞｸｻ","prefecture":"富山県","city":"富山市","street":"水橋柴草"},{"zipCode":"9390564","prefectureKana":"ﾄﾔﾏｹﾝ","cityKana":"ﾄﾔﾏｼ","streetKana":"ﾐｽﾞﾊｼｼﾐｽﾞﾄﾞｳ","prefecture":"富山県","city":"富山市","street":"水橋清水堂"},{"zipCode":"9390544","prefectureKana":"ﾄﾔﾏｹﾝ","cityKana":"ﾄﾔﾏｼ","streetKana":"ﾐｽﾞﾊｼｼﾓｽﾅｺﾞｻﾞｶ","prefecture":"富山県","city":"富山市","street":"水橋下砂子坂"},{"zipCode":"9390544","prefectureKana":"ﾄﾔﾏｹﾝ","cityKana":"ﾄﾔﾏｼ","streetKana":"ﾐｽﾞﾊｼｼﾓｽﾅｺﾞｻﾞｶｼﾝ","prefecture":"富山県","city":"富山市","street":"水橋下砂子坂新"},{"zipCode":"9393543","prefectureKana":"ﾄﾔﾏｹﾝ","cityKana":"ﾄﾔﾏｼ","streetKana":"ﾐｽﾞﾊｼｼﾞｮｳｶﾞﾝｼﾞ","prefecture":"富山県","city":"富山市","street":"水橋常願寺"},{"zipCode":"9393554","prefectureKana":"ﾄﾔﾏｹﾝ","cityKana":"ﾄﾔﾏｼ","streetKana":"ﾐｽﾞﾊｼｼｮｳｼﾞ","prefecture":"富山県","city":"富山市","street":"水橋小路"},{"zipCode":"9390558","prefectureKana":"ﾄﾔﾏｹﾝ","cityKana":"ﾄﾔﾏｼ","streetKana":"ﾐｽﾞﾊｼｼﾞｮｳｼﾞｮｳｼﾝﾏﾁ","prefecture":"富山県","city":"富山市","street":"水橋上条新町"},{"zipCode":"9393526","prefectureKana":"ﾄﾔﾏｹﾝ","cityKana":"ﾄﾔﾏｼ","streetKana":"ﾐｽﾞﾊｼｼｮｳﾜﾏﾁ","prefecture":"富山県","city":"富山市","street":"水橋昭和町"},{"zipCode":"9390527","prefectureKana":"ﾄﾔﾏｹﾝ","cityKana":"ﾄﾔﾏｼ","streetKana":"ﾐｽﾞﾊｼｼﾝｵｵﾏﾁ","prefecture":"富山県","city":"富山市","street":"水橋新大町"},{"zipCode":"9390525","prefectureKana":"ﾄﾔﾏｹﾝ","cityKana":"ﾄﾔﾏｼ","streetKana":"ﾐｽﾞﾊｼｼﾝﾀﾁﾏﾁ","prefecture":"富山県","city":"富山市","street":"水橋新舘町"},{"zipCode":"9393514","prefectureKana":"ﾄﾔﾏｹﾝ","cityKana":"ﾄﾔﾏｼ","streetKana":"ﾐｽﾞﾊｼｼﾝﾄﾞｳﾏﾁ","prefecture":"富山県","city":"富山市","street":"水橋新堂町"},{"zipCode":"9393557","prefectureKana":"ﾄﾔﾏｹﾝ","cityKana":"ﾄﾔﾏｼ","streetKana":"ﾐｽﾞﾊｼｼﾝﾎﾞ","prefecture":"富山県","city":"富山市","street":"水橋新保"},{"zipCode":"9393557","prefectureKana":"ﾄﾔﾏｹﾝ","cityKana":"ﾄﾔﾏｼ","streetKana":"ﾐｽﾞﾊｼｼﾝﾎﾞｼﾝﾏﾁ","prefecture":"富山県","city":"富山市","street":"水橋新保新町"},{"zipCode":"9393535","prefectureKana":"ﾄﾔﾏｹﾝ","cityKana":"ﾄﾔﾏｼ","streetKana":"ﾐｽﾞﾊｼｼﾝﾎﾞﾘ","prefecture":"富山県","city":"富山市","street":"水橋新堀"},{"zipCode":"9390515","prefectureKana":"ﾄﾔﾏｹﾝ","cityKana":"ﾄﾔﾏｼ","streetKana":"ﾐｽﾞﾊｼｼﾝﾏﾁ","prefecture":"富山県","city":"富山市","street":"水橋新町"},{"zipCode":"9390554","prefectureKana":"ﾄﾔﾏｹﾝ","cityKana":"ﾄﾔﾏｼ","streetKana":"ﾐｽﾞﾊｼｾﾝｺｳｼﾞ","prefecture":"富山県","city":"富山市","street":"水橋専光寺"},{"zipCode":"9390557","prefectureKana":"ﾄﾔﾏｹﾝ","cityKana":"ﾄﾔﾏｼ","streetKana":"ﾐｽﾞﾊｼﾀｲｼｮｳ","prefecture":"富山県","city":"富山市","street":"水橋大正"},{"zipCode":"9390557","prefectureKana":"ﾄﾔﾏｹﾝ","cityKana":"ﾄﾔﾏｼ","streetKana":"ﾐｽﾞﾊｼﾀｲｼｮｳﾅﾝﾌﾞ","prefecture":"富山県","city":"富山市","street":"水橋大正南部"},{"zipCode":"9390557","prefectureKana":"ﾄﾔﾏｹﾝ","cityKana":"ﾄﾔﾏｼ","streetKana":"ﾐｽﾞﾊｼﾀｲｼｮｳﾎｸﾌﾞ","prefecture":"富山県","city":"富山市","street":"水橋大正北部"},{"zipCode":"9393513","prefectureKana":"ﾄﾔﾏｹﾝ","cityKana":"ﾄﾔﾏｼ","streetKana":"ﾐｽﾞﾊｼﾀｲｼｮｳﾏﾁ","prefecture":"富山県","city":"富山市","street":"水橋大正町"},{"zipCode":"9390511","prefectureKana":"ﾄﾔﾏｹﾝ","cityKana":"ﾄﾔﾏｼ","streetKana":"ﾐｽﾞﾊｼﾀｶﾂｷ","prefecture":"富山県","city":"富山市","street":"水橋高月"},{"zipCode":"9390555","prefectureKana":"ﾄﾔﾏｹﾝ","cityKana":"ﾄﾔﾏｼ","streetKana":"ﾐｽﾞﾊｼﾀｶﾃﾞﾗ","prefecture":"富山県","city":"富山市","street":"水橋高寺"},{"zipCode":"9393533","prefectureKana":"ﾄﾔﾏｹﾝ","cityKana":"ﾄﾔﾏｼ","streetKana":"ﾐｽﾞﾊｼﾀｶﾄﾞｳ","prefecture":"富山県","city":"富山市","street":"水橋高堂"},{"zipCode":"9390526","prefectureKana":"ﾄﾔﾏｹﾝ","cityKana":"ﾄﾔﾏｼ","streetKana":"ﾐｽﾞﾊｼﾀﾁﾏﾁ","prefecture":"富山県","city":"富山市","street":"水橋舘町"},{"zipCode":"9393503","prefectureKana":"ﾄﾔﾏｹﾝ","cityKana":"ﾄﾔﾏｼ","streetKana":"ﾐｽﾞﾊｼﾀﾃﾔﾏﾁｮｳ","prefecture":"富山県","city":"富山市","street":"水橋立山町"},{"zipCode":"9390562","prefectureKana":"ﾄﾔﾏｹﾝ","cityKana":"ﾄﾔﾏｼ","streetKana":"ﾐｽﾞﾊｼﾀﾌﾞｾ","prefecture":"富山県","city":"富山市","street":"水橋田伏"},{"zipCode":"9390504","prefectureKana":"ﾄﾔﾏｹﾝ","cityKana":"ﾄﾔﾏｼ","streetKana":"ﾐｽﾞﾊｼﾀﾏﾁ","prefecture":"富山県","city":"富山市","street":"水橋田町"},{"zipCode":"9390502","prefectureKana":"ﾄﾔﾏｹﾝ","cityKana":"ﾄﾔﾏｼ","streetKana":"ﾐｽﾞﾊｼﾁﾞｿﾞｳﾏﾁ","prefecture":"富山県","city":"富山市","street":"水橋地蔵町"},{"zipCode":"9393515","prefectureKana":"ﾄﾔﾏｹﾝ","cityKana":"ﾄﾔﾏｼ","streetKana":"ﾐｽﾞﾊｼﾂｼﾞｶﾞﾄﾞｳ","prefecture":"富山県","city":"富山市","street":"水橋辻ケ堂"},{"zipCode":"9390506","prefectureKana":"ﾄﾔﾏｹﾝ","cityKana":"ﾄﾔﾏｼ","streetKana":"ﾐｽﾞﾊｼﾅｶｵｵﾏﾁ","prefecture":"富山県","city":"富山市","street":"水橋中大町"},{"zipCode":"9393556","prefectureKana":"ﾄﾔﾏｹﾝ","cityKana":"ﾄﾔﾏｼ","streetKana":"ﾐｽﾞﾊｼﾅｶｼﾝﾏﾁ","prefecture":"富山県","city":"富山市","street":"水橋中新町"},{"zipCode":"9390513","prefectureKana":"ﾄﾔﾏｹﾝ","cityKana":"ﾄﾔﾏｼ","streetKana":"ﾐｽﾞﾊｼﾅｶﾃﾞﾏﾁ","prefecture":"富山県","city":"富山市","street":"水橋中出町"},{"zipCode":"9390566","prefectureKana":"ﾄﾔﾏｹﾝ","cityKana":"ﾄﾔﾏｼ","streetKana":"ﾐｽﾞﾊｼﾅｶﾊﾞﾝﾊﾞ","prefecture":"富山県","city":"富山市","street":"水橋中馬場"},{"zipCode":"9393511","prefectureKana":"ﾄﾔﾏｹﾝ","cityKana":"ﾄﾔﾏｼ","streetKana":"ﾐｽﾞﾊｼﾅｶﾏﾁ","prefecture":"富山県","city":"富山市","street":"水橋中町"},{"zipCode":"9393551","prefectureKana":"ﾄﾔﾏｹﾝ","cityKana":"ﾄﾔﾏｼ","streetKana":"ﾐｽﾞﾊｼﾅｶﾑﾗ","prefecture":"富山県","city":"富山市","street":"水橋中村"},{"zipCode":"9390522","prefectureKana":"ﾄﾔﾏｹﾝ","cityKana":"ﾄﾔﾏｼ","streetKana":"ﾐｽﾞﾊｼﾅｶﾑﾗｻｶｴﾏﾁ","prefecture":"富山県","city":"富山市","street":"水橋中村栄町"},{"zipCode":"9390523","prefectureKana":"ﾄﾔﾏｹﾝ","cityKana":"ﾄﾔﾏｼ","streetKana":"ﾐｽﾞﾊｼﾅｶﾑﾗｼﾝﾏﾁ","prefecture":"富山県","city":"富山市","street":"水橋中村新町"},{"zipCode":"9390521","prefectureKana":"ﾄﾔﾏｹﾝ","cityKana":"ﾄﾔﾏｼ","streetKana":"ﾐｽﾞﾊｼﾅｶﾑﾗﾏﾁ","prefecture":"富山県","city":"富山市","street":"水橋中村町"},{"zipCode":"9393512","prefectureKana":"ﾄﾔﾏｹﾝ","cityKana":"ﾄﾔﾏｼ","streetKana":"ﾐｽﾞﾊｼﾆｼｵｵﾏﾁ","prefecture":"富山県","city":"富山市","street":"水橋西大町"},{"zipCode":"9390503","prefectureKana":"ﾄﾔﾏｹﾝ","cityKana":"ﾄﾔﾏｼ","streetKana":"ﾐｽﾞﾊｼﾆｼﾃﾞﾏﾁ","prefecture":"富山県","city":"富山市","street":"水橋西出町"},{"zipCode":"9390507","prefectureKana":"ﾄﾔﾏｹﾝ","cityKana":"ﾄﾔﾏｼ","streetKana":"ﾐｽﾞﾊｼﾆｼﾃﾝｼﾞﾝﾏﾁ","prefecture":"富山県","city":"富山市","street":"水橋西天神町"},{"zipCode":"9390508","prefectureKana":"ﾄﾔﾏｹﾝ","cityKana":"ﾄﾔﾏｼ","streetKana":"ﾐｽﾞﾊｼﾆｼﾊﾏﾏﾁ","prefecture":"富山県","city":"富山市","street":"水橋西浜町"},{"zipCode":"9393545","prefectureKana":"ﾄﾔﾏｹﾝ","cityKana":"ﾄﾔﾏｼ","streetKana":"ﾐｽﾞﾊｼﾆｭｳﾌﾞﾏﾁ","prefecture":"富山県","city":"富山市","street":"水橋入部町"},{"zipCode":"9393521","prefectureKana":"ﾄﾔﾏｹﾝ","cityKana":"ﾄﾔﾏｼ","streetKana":"ﾐｽﾞﾊｼﾊﾀｹﾗ","prefecture":"富山県","city":"富山市","street":"水橋畠等"},{"zipCode":"9393522","prefectureKana":"ﾄﾔﾏｹﾝ","cityKana":"ﾄﾔﾏｼ","streetKana":"ﾐｽﾞﾊｼﾊﾅﾉｲﾁｮｳ","prefecture":"富山県","city":"富山市","street":"水橋花の井町"},{"zipCode":"9393505","prefectureKana":"ﾄﾔﾏｹﾝ","cityKana":"ﾄﾔﾏｼ","streetKana":"ﾐｽﾞﾊｼﾊﾏﾏﾁ","prefecture":"富山県","city":"富山市","street":"水橋浜町"},{"zipCode":"9393534","prefectureKana":"ﾄﾔﾏｹﾝ","cityKana":"ﾄﾔﾏｼ","streetKana":"ﾐｽﾞﾊｼﾊﾞﾝﾄﾞｳﾐｮｳ","prefecture":"富山県","city":"富山市","street":"水橋番頭名"},{"zipCode":"9390524","prefectureKana":"ﾄﾔﾏｹﾝ","cityKana":"ﾄﾔﾏｼ","streetKana":"ﾐｽﾞﾊｼﾋｶﾞｼﾀﾁﾏﾁ","prefecture":"富山県","city":"富山市","street":"水橋東舘町"},{"zipCode":"9390512","prefectureKana":"ﾄﾔﾏｹﾝ","cityKana":"ﾄﾔﾏｼ","streetKana":"ﾐｽﾞﾊｼﾋｶﾞｼﾃﾞﾏﾁ","prefecture":"富山県","city":"富山市","street":"水橋東出町"},{"zipCode":"9390505","prefectureKana":"ﾄﾔﾏｹﾝ","cityKana":"ﾄﾔﾏｼ","streetKana":"ﾐｽﾞﾊｼﾋｶﾞｼﾃﾝｼﾞﾝﾏﾁ","prefecture":"富山県","city":"富山市","street":"水橋東天神町"},{"zipCode":"9390501","prefectureKana":"ﾄﾔﾏｹﾝ","cityKana":"ﾄﾔﾏｼ","streetKana":"ﾐｽﾞﾊｼﾋｶﾞｼﾊﾏﾏﾁ","prefecture":"富山県","city":"富山市","street":"水橋東浜町"},{"zipCode":"9393557","prefectureKana":"ﾄﾔﾏｹﾝ","cityKana":"ﾄﾔﾏｼ","streetKana":"ﾐｽﾞﾊｼﾋﾗｴﾉｷ","prefecture":"富山県","city":"富山市","street":"水橋平榎"},{"zipCode":"9390568","prefectureKana":"ﾄﾔﾏｹﾝ","cityKana":"ﾄﾔﾏｼ","streetKana":"ﾐｽﾞﾊｼﾋﾗﾂｶ","prefecture":"富山県","city":"富山市","street":"水橋平塚"},{"zipCode":"9393546","prefectureKana":"ﾄﾔﾏｹﾝ","cityKana":"ﾄﾔﾏｼ","streetKana":"ﾐｽﾞﾊｼﾌﾀｽｷﾞ","prefecture":"富山県","city":"富山市","street":"水橋二杉"},{"zipCode":"9393532","prefectureKana":"ﾄﾔﾏｹﾝ","cityKana":"ﾄﾔﾏｼ","streetKana":"ﾐｽﾞﾊｼﾌﾀﾂﾔ","prefecture":"富山県","city":"富山市","street":"水橋二ツ屋"},{"zipCode":"9390556","prefectureKana":"ﾄﾔﾏｹﾝ","cityKana":"ﾄﾔﾏｼ","streetKana":"ﾐｽﾞﾊｼﾏｶﾞﾘﾌﾞﾁ","prefecture":"富山県","city":"富山市","street":"水橋曲淵"},{"zipCode":"9390509","prefectureKana":"ﾄﾔﾏｹﾝ","cityKana":"ﾄﾔﾏｼ","streetKana":"ﾐｽﾞﾊｼﾏﾁ","prefecture":"富山県","city":"富山市","street":"水橋町"},{"zipCode":"9393557","prefectureKana":"ﾄﾔﾏｹﾝ","cityKana":"ﾄﾔﾏｼ","streetKana":"ﾐｽﾞﾊｼﾏﾁﾌﾞｸﾛ","prefecture":"富山県","city":"富山市","street":"水橋町袋"},{"zipCode":"9393553","prefectureKana":"ﾄﾔﾏｹﾝ","cityKana":"ﾄﾔﾏｼ","streetKana":"ﾐｽﾞﾊｼﾏﾄﾊﾞ","prefecture":"富山県","city":"富山市","street":"水橋的場"},{"zipCode":"9390528","prefectureKana":"ﾄﾔﾏｹﾝ","cityKana":"ﾄﾔﾏｼ","streetKana":"ﾐｽﾞﾊｼﾒｲｼﾞﾏﾁ","prefecture":"富山県","city":"富山市","street":"水橋明治町"},{"zipCode":"9390536","prefectureKana":"ﾄﾔﾏｹﾝ","cityKana":"ﾄﾔﾏｼ","streetKana":"ﾐｽﾞﾊｼﾔﾅｷﾞﾃﾞﾗ","prefecture":"富山県","city":"富山市","street":"水橋柳寺"},{"zipCode":"9398194","prefectureKana":"ﾄﾔﾏｹﾝ","cityKana":"ﾄﾔﾏｼ","streetKana":"ﾐﾅﾐｶﾅﾔ","prefecture":"富山県","city":"富山市","street":"南金屋"},{"zipCode":"9398176","prefectureKana":"ﾄﾔﾏｹﾝ","cityKana":"ﾄﾔﾏｼ","streetKana":"ﾐﾅﾐｸﾘﾔﾏ","prefecture":"富山県","city":"富山市","street":"南栗山"},{"zipCode":"9398234","prefectureKana":"ﾄﾔﾏｹﾝ","cityKana":"ﾄﾔﾏｼ","streetKana":"ﾐﾅﾐﾅｶﾀﾞ","prefecture":"富山県","city":"富山市","street":"南中田"},{"zipCode":"9392208","prefectureKana":"ﾄﾔﾏｹﾝ","cityKana":"ﾄﾔﾏｼ","streetKana":"ﾐﾅﾐﾉﾀﾞ","prefecture":"富山県","city":"富山市","street":"南野田"},{"zipCode":"9392257","prefectureKana":"ﾄﾔﾏｹﾝ","cityKana":"ﾄﾔﾏｼ","streetKana":"ﾐﾅﾐﾊﾅｿﾞﾉﾁｮｳ","prefecture":"富山県","city":"富山市","street":"南花園町"},{"zipCode":"9398171","prefectureKana":"ﾄﾔﾏｹﾝ","cityKana":"ﾄﾔﾏｼ","streetKana":"ﾐﾔﾉﾎ","prefecture":"富山県","city":"富山市","street":"宮保"},{"zipCode":"9398154","prefectureKana":"ﾄﾔﾏｹﾝ","cityKana":"ﾄﾔﾏｼ","streetKana":"ﾓﾘﾀ","prefecture":"富山県","city":"富山市","street":"森田"},{"zipCode":"9392253","prefectureKana":"ﾄﾔﾏｹﾝ","cityKana":"ﾄﾔﾏｼ","streetKana":"ﾔｷﾔﾏ","prefecture":"富山県","city":"富山市","street":"八木山"},{"zipCode":"9392405","prefectureKana":"ﾄﾔﾏｹﾝ","cityKana":"ﾄﾔﾏｼ","streetKana":"ﾔﾂｵﾏﾁｱｵﾈ","prefecture":"富山県","city":"富山市","street":"八尾町青根"},{"zipCode":"9392413","prefectureKana":"ﾄﾔﾏｹﾝ","cityKana":"ﾄﾔﾏｼ","streetKana":"ﾔﾂｵﾏﾁｱｶｲｼ","prefecture":"富山県","city":"富山市","street":"八尾町赤石"},{"zipCode":"9392475","prefectureKana":"ﾄﾔﾏｹﾝ","cityKana":"ﾄﾔﾏｼ","streetKana":"ﾔﾂｵﾏﾁｱｼﾀﾆ","prefecture":"富山県","city":"富山市","street":"八尾町足谷"},{"zipCode":"9392401","prefectureKana":"ﾄﾔﾏｹﾝ","cityKana":"ﾄﾔﾏｼ","streetKana":"ﾔﾂｵﾏﾁｱﾌﾞﾗ","prefecture":"富山県","city":"富山市","street":"八尾町油"},{"zipCode":"9392466","prefectureKana":"ﾄﾔﾏｹﾝ","cityKana":"ﾄﾔﾏｼ","streetKana":"ﾔﾂｵﾏﾁｱﾏｲｹ","prefecture":"富山県","city":"富山市","street":"八尾町天池"},{"zipCode":"9392423","prefectureKana":"ﾄﾔﾏｹﾝ","cityKana":"ﾄﾔﾏｼ","streetKana":"ﾔﾂｵﾏﾁｱﾗﾔ","prefecture":"富山県","city":"富山市","street":"八尾町新屋"},{"zipCode":"9392425","prefectureKana":"ﾄﾔﾏｹﾝ","cityKana":"ﾄﾔﾏｼ","streetKana":"ﾔﾂｵﾏﾁｲｵﾘﾀﾞﾆ","prefecture":"富山県","city":"富山市","street":"八尾町庵谷"},{"zipCode":"9392315","prefectureKana":"ﾄﾔﾏｹﾝ","cityKana":"ﾄﾔﾏｼ","streetKana":"ﾔﾂｵﾏﾁｲｸﾘﾀﾆ","prefecture":"富山県","city":"富山市","street":"八尾町井栗谷"},{"zipCode":"9392306","prefectureKana":"ﾄﾔﾏｹﾝ","cityKana":"ﾄﾔﾏｼ","streetKana":"ﾔﾂｵﾏﾁｲﾀﾞ","prefecture":"富山県","city":"富山市","street":"八尾町井田"},{"zipCode":"9392305","prefectureKana":"ﾄﾔﾏｹﾝ","cityKana":"ﾄﾔﾏｼ","streetKana":"ﾔﾂｵﾏﾁｲﾀﾞｼﾝ","prefecture":"富山県","city":"富山市","street":"八尾町井田新"},{"zipCode":"9392353","prefectureKana":"ﾄﾔﾏｹﾝ","cityKana":"ﾄﾔﾏｼ","streetKana":"ﾔﾂｵﾏﾁｲﾏﾏﾁ","prefecture":"富山県","city":"富山市","street":"八尾町今町"},{"zipCode":"9392445","prefectureKana":"ﾄﾔﾏｹﾝ","cityKana":"ﾄﾔﾏｼ","streetKana":"ﾔﾂｵﾏﾁｲﾘﾀﾆ","prefecture":"富山県","city":"富山市","street":"八尾町入谷"},{"zipCode":"9392405","prefectureKana":"ﾄﾔﾏｹﾝ","cityKana":"ﾄﾔﾏｼ","streetKana":"ﾔﾂｵﾏﾁｲﾜｼﾏ","prefecture":"富山県","city":"富山市","street":"八尾町岩島"},{"zipCode":"9392326","prefectureKana":"ﾄﾔﾏｹﾝ","cityKana":"ﾄﾔﾏｼ","streetKana":"ﾔﾂｵﾏﾁｲﾜﾔ","prefecture":"富山県","city":"富山市","street":"八尾町岩屋"},{"zipCode":"9392404","prefectureKana":"ﾄﾔﾏｹﾝ","cityKana":"ﾄﾔﾏｼ","streetKana":"ﾔﾂｵﾏﾁｳｴｶﾞｼﾏ","prefecture":"富山県","city":"富山市","street":"八尾町上ケ島"},{"zipCode":"9392473","prefectureKana":"ﾄﾔﾏｹﾝ","cityKana":"ﾄﾔﾏｼ","streetKana":"ﾔﾂｵﾏﾁｳｴﾉﾐｮｳ","prefecture":"富山県","city":"富山市","street":"八尾町上ノ名"},{"zipCode":"9392312","prefectureKana":"ﾄﾔﾏｹﾝ","cityKana":"ﾄﾔﾏｼ","streetKana":"ﾔﾂｵﾏﾁｳｽｼﾞﾏ","prefecture":"富山県","city":"富山市","street":"八尾町薄島"},{"zipCode":"9392436","prefectureKana":"ﾄﾔﾏｹﾝ","cityKana":"ﾄﾔﾏｼ","streetKana":"ﾔﾂｵﾏﾁｳﾁﾐｮｳ","prefecture":"富山県","city":"富山市","street":"八尾町内名"},{"zipCode":"9392337","prefectureKana":"ﾄﾔﾏｹﾝ","cityKana":"ﾄﾔﾏｼ","streetKana":"ﾔﾂｵﾏﾁｳﾒｿﾞﾉﾁｮｳ","prefecture":"富山県","city":"富山市","street":"八尾町梅苑町"},{"zipCode":"9392477","prefectureKana":"ﾄﾔﾏｹﾝ","cityKana":"ﾄﾔﾏｼ","streetKana":"ﾔﾂｵﾏﾁｳﾜﾉ","prefecture":"富山県","city":"富山市","street":"八尾町上野"},{"zipCode":"9392467","prefectureKana":"ﾄﾔﾏｹﾝ","cityKana":"ﾄﾔﾏｼ","streetKana":"ﾔﾂｵﾏﾁｵｲﾜｹ","prefecture":"富山県","city":"富山市","street":"八尾町追分"},{"zipCode":"9392441","prefectureKana":"ﾄﾔﾏｹﾝ","cityKana":"ﾄﾔﾏｼ","streetKana":"ﾔﾂｵﾏﾁｵｵｼﾓ","prefecture":"富山県","city":"富山市","street":"八尾町大下"},{"zipCode":"9392303","prefectureKana":"ﾄﾔﾏｹﾝ","cityKana":"ﾄﾔﾏｼ","streetKana":"ﾔﾂｵﾏﾁｵｵｽｷﾞ","prefecture":"富山県","city":"富山市","street":"八尾町大杉"},{"zipCode":"9392455","prefectureKana":"ﾄﾔﾏｹﾝ","cityKana":"ﾄﾔﾏｼ","streetKana":"ﾔﾂｵﾏﾁｵｵﾀﾞﾓｳ","prefecture":"富山県","city":"富山市","street":"八尾町大玉生"},{"zipCode":"9392465","prefectureKana":"ﾄﾔﾏｹﾝ","cityKana":"ﾄﾔﾏｼ","streetKana":"ﾔﾂｵﾏﾁｵｷﾞｭｳ","prefecture":"富山県","city":"富山市","street":"八尾町尾久"},{"zipCode":"9392362","prefectureKana":"ﾄﾔﾏｹﾝ","cityKana":"ﾄﾔﾏｼ","streetKana":"ﾔﾂｵﾏﾁｵｸﾀﾞ","prefecture":"富山県","city":"富山市","street":"八尾町奥田"},{"zipCode":"9392454","prefectureKana":"ﾄﾔﾏｹﾝ","cityKana":"ﾄﾔﾏｼ","streetKana":"ﾔﾂｵﾏﾁｵﾊﾞﾀｹ","prefecture":"富山県","city":"富山市","street":"八尾町尾畑"},{"zipCode":"9392341","prefectureKana":"ﾄﾔﾏｹﾝ","cityKana":"ﾄﾔﾏｼ","streetKana":"ﾔﾂｵﾏﾁｶｶﾞﾐﾏﾁ","prefecture":"富山県","city":"富山市","street":"八尾町鏡町"},{"zipCode":"9392336","prefectureKana":"ﾄﾔﾏｹﾝ","cityKana":"ﾄﾔﾏｼ","streetKana":"ﾔﾂｵﾏﾁｶｸﾏ","prefecture":"富山県","city":"富山市","street":"八尾町角間"},{"zipCode":"9392332","prefectureKana":"ﾄﾔﾏｹﾝ","cityKana":"ﾄﾔﾏｼ","streetKana":"ﾔﾂｵﾏﾁｶｹﾊﾀ","prefecture":"富山県","city":"富山市","street":"八尾町掛畑"},{"zipCode":"9392327","prefectureKana":"ﾄﾔﾏｹﾝ","cityKana":"ﾄﾔﾏｼ","streetKana":"ﾔﾂｵﾏﾁｶｼｵ","prefecture":"富山県","city":"富山市","street":"八尾町樫尾"},{"zipCode":"9392415","prefectureKana":"ﾄﾔﾏｹﾝ","cityKana":"ﾄﾔﾏｼ","streetKana":"ﾔﾂｵﾏﾁｶﾂﾗﾊﾗ","prefecture":"富山県","city":"富山市","street":"八尾町桂原"},{"zipCode":"9392332","prefectureKana":"ﾄﾔﾏｹﾝ","cityKana":"ﾄﾔﾏｼ","streetKana":"ﾔﾂｵﾏﾁｶﾐｸﾛｾﾞ","prefecture":"富山県","city":"富山市","street":"八尾町上黒瀬"},{"zipCode":"9392374","prefectureKana":"ﾄﾔﾏｹﾝ","cityKana":"ﾄﾔﾏｼ","streetKana":"ﾔﾂｵﾏﾁｶﾐｺｳｾﾞﾝｼﾞ","prefecture":"富山県","city":"富山市","street":"八尾町上高善寺"},{"zipCode":"9392334","prefectureKana":"ﾄﾔﾏｹﾝ","cityKana":"ﾄﾔﾏｼ","streetKana":"ﾔﾂｵﾏﾁｶﾐｻｻﾊﾗ","prefecture":"富山県","city":"富山市","street":"八尾町上笹原"},{"zipCode":"9392342","prefectureKana":"ﾄﾔﾏｹﾝ","cityKana":"ﾄﾔﾏｼ","streetKana":"ﾔﾂｵﾏﾁｶﾐｼﾝﾏﾁ","prefecture":"富山県","city":"富山市","street":"八尾町上新町"},{"zipCode":"9392402","prefectureKana":"ﾄﾔﾏｹﾝ","cityKana":"ﾄﾔﾏｼ","streetKana":"ﾔﾂｵﾏﾁｶﾐﾀｲｹ","prefecture":"富山県","city":"富山市","street":"八尾町上田池"},{"zipCode":"9392444","prefectureKana":"ﾄﾔﾏｹﾝ","cityKana":"ﾄﾔﾏｼ","streetKana":"ﾔﾂｵﾏﾁｶﾐﾆﾝﾌﾞ","prefecture":"富山県","city":"富山市","street":"八尾町上仁歩"},{"zipCode":"9392435","prefectureKana":"ﾄﾔﾏｹﾝ","cityKana":"ﾄﾔﾏｼ","streetKana":"ﾔﾂｵﾏﾁｶﾐﾏｷ","prefecture":"富山県","city":"富山市","street":"八尾町上牧"},{"zipCode":"9392417","prefectureKana":"ﾄﾔﾏｹﾝ","cityKana":"ﾄﾔﾏｼ","streetKana":"ﾔﾂｵﾏﾁｶﾜｽﾐ","prefecture":"富山県","city":"富山市","street":"八尾町川住"},{"zipCode":"9392324","prefectureKana":"ﾄﾔﾏｹﾝ","cityKana":"ﾄﾔﾏｼ","streetKana":"ﾔﾂｵﾏﾁｷﾀﾀﾞﾆ","prefecture":"富山県","city":"富山市","street":"八尾町北谷"},{"zipCode":"9392333","prefectureKana":"ﾄﾔﾏｹﾝ","cityKana":"ﾄﾔﾏｼ","streetKana":"ﾔﾂｵﾏﾁｷﾘﾀﾞﾆ","prefecture":"富山県","city":"富山市","street":"八尾町桐谷"},{"zipCode":"9392426","prefectureKana":"ﾄﾔﾏｹﾝ","cityKana":"ﾄﾔﾏｼ","streetKana":"ﾔﾂｵﾏﾁｷﾘﾂﾞﾒ","prefecture":"富山県","city":"富山市","street":"八尾町切詰"},{"zipCode":"9392465","prefectureKana":"ﾄﾔﾏｹﾝ","cityKana":"ﾄﾔﾏｼ","streetKana":"ﾔﾂｵﾏﾁｸﾎﾞ","prefecture":"富山県","city":"富山市","street":"八尾町窪"},{"zipCode":"9392453","prefectureKana":"ﾄﾔﾏｹﾝ","cityKana":"ﾄﾔﾏｼ","streetKana":"ﾔﾂｵﾏﾁｸﾗｶﾞﾀﾆ","prefecture":"富山県","city":"富山市","street":"八尾町倉ケ谷"},{"zipCode":"9392431","prefectureKana":"ﾄﾔﾏｹﾝ","cityKana":"ﾄﾔﾏｼ","streetKana":"ﾔﾂｵﾏﾁｸﾘｽ","prefecture":"富山県","city":"富山市","street":"八尾町栗須"},{"zipCode":"9392304","prefectureKana":"ﾄﾔﾏｹﾝ","cityKana":"ﾄﾔﾏｼ","streetKana":"ﾔﾂｵﾏﾁｸﾛﾀﾞ","prefecture":"富山県","city":"富山市","street":"八尾町黒田"},{"zipCode":"9392333","prefectureKana":"ﾄﾔﾏｹﾝ","cityKana":"ﾄﾔﾏｼ","streetKana":"ﾔﾂｵﾏﾁｺｲﾅﾐ","prefecture":"富山県","city":"富山市","street":"八尾町小井波"},{"zipCode":"9392373","prefectureKana":"ﾄﾔﾏｹﾝ","cityKana":"ﾄﾔﾏｼ","streetKana":"ﾔﾂｵﾏﾁｺｳｾﾞﾝｼﾞ","prefecture":"富山県","city":"富山市","street":"八尾町高善寺"},{"zipCode":"9392321","prefectureKana":"ﾄﾔﾏｹﾝ","cityKana":"ﾄﾔﾏｼ","streetKana":"ﾔﾂｵﾏﾁｺﾅｶﾞﾀﾆ","prefecture":"富山県","city":"富山市","street":"八尾町小長谷"},{"zipCode":"9392322","prefectureKana":"ﾄﾔﾏｹﾝ","cityKana":"ﾄﾔﾏｼ","streetKana":"ﾔﾂｵﾏﾁｺﾅｶﾞﾀﾆｼﾝ","prefecture":"富山県","city":"富山市","street":"八尾町小長谷新"},{"zipCode":"9392471","prefectureKana":"ﾄﾔﾏｹﾝ","cityKana":"ﾄﾔﾏｼ","streetKana":"ﾔﾂｵﾏﾁｻｶﾉｼﾀ","prefecture":"富山県","city":"富山市","street":"八尾町坂ノ下"},{"zipCode":"9392324","prefectureKana":"ﾄﾔﾏｹﾝ","cityKana":"ﾄﾔﾏｼ","streetKana":"ﾔﾂｵﾏﾁｻｺｷﾞ","prefecture":"富山県","city":"富山市","street":"八尾町東坂下"},{"zipCode":"9392301","prefectureKana":"ﾄﾔﾏｹﾝ","cityKana":"ﾄﾔﾏｼ","streetKana":"ﾔﾂｵﾏﾁｼﾞｹ","prefecture":"富山県","city":"富山市","street":"八尾町寺家"},{"zipCode":"9392352","prefectureKana":"ﾄﾔﾏｹﾝ","cityKana":"ﾄﾔﾏｼ","streetKana":"ﾔﾂｵﾏﾁｼﾀｼﾝﾏﾁ","prefecture":"富山県","city":"富山市","street":"八尾町下新町"},{"zipCode":"9392474","prefectureKana":"ﾄﾔﾏｹﾝ","cityKana":"ﾄﾔﾏｼ","streetKana":"ﾔﾂｵﾏﾁｼﾀﾉﾐｮｳ","prefecture":"富山県","city":"富山市","street":"八尾町下ノ名"},{"zipCode":"9392462","prefectureKana":"ﾄﾔﾏｹﾝ","cityKana":"ﾄﾔﾏｼ","streetKana":"ﾔﾂｵﾏﾁｼﾊﾞﾊｼ","prefecture":"富山県","city":"富山市","street":"八尾町柴橋"},{"zipCode":"9392434","prefectureKana":"ﾄﾔﾏｹﾝ","cityKana":"ﾄﾔﾏｼ","streetKana":"ﾔﾂｵﾏﾁｼﾏｼﾞ","prefecture":"富山県","city":"富山市","street":"八尾町島地"},{"zipCode":"9392331","prefectureKana":"ﾄﾔﾏｹﾝ","cityKana":"ﾄﾔﾏｼ","streetKana":"ﾔﾂｵﾏﾁｼﾓｻｻﾊﾗ","prefecture":"富山県","city":"富山市","street":"八尾町下笹原"},{"zipCode":"9392435","prefectureKana":"ﾄﾔﾏｹﾝ","cityKana":"ﾄﾔﾏｼ","streetKana":"ﾔﾂｵﾏﾁｼﾓｼﾞﾏ","prefecture":"富山県","city":"富山市","street":"八尾町下島"},{"zipCode":"9392402","prefectureKana":"ﾄﾔﾏｹﾝ","cityKana":"ﾄﾔﾏｼ","streetKana":"ﾔﾂｵﾏﾁｼﾓﾀｲｹ","prefecture":"富山県","city":"富山市","street":"八尾町下田池"},{"zipCode":"9392442","prefectureKana":"ﾄﾔﾏｹﾝ","cityKana":"ﾄﾔﾏｼ","streetKana":"ﾔﾂｵﾏﾁｼﾓﾆﾝﾌﾞ","prefecture":"富山県","city":"富山市","street":"八尾町下仁歩"},{"zipCode":"9392407","prefectureKana":"ﾄﾔﾏｹﾝ","cityKana":"ﾄﾔﾏｼ","streetKana":"ﾔﾂｵﾏﾁｼﾓﾉﾘﾐﾈ","prefecture":"富山県","city":"富山市","street":"八尾町下乗嶺"},{"zipCode":"9392417","prefectureKana":"ﾄﾔﾏｹﾝ","cityKana":"ﾄﾔﾏｼ","streetKana":"ﾔﾂｵﾏﾁｼﾓﾏｷ","prefecture":"富山県","city":"富山市","street":"八尾町下牧"},{"zipCode":"9392433","prefectureKana":"ﾄﾔﾏｹﾝ","cityKana":"ﾄﾔﾏｼ","streetKana":"ﾔﾂｵﾏﾁｼｮｳｽﾞ","prefecture":"富山県","city":"富山市","street":"八尾町清水"},{"zipCode":"9392314","prefectureKana":"ﾄﾔﾏｹﾝ","cityKana":"ﾄﾔﾏｼ","streetKana":"ﾔﾂｵﾏﾁｼﾞｮｳﾉｳ","prefecture":"富山県","city":"富山市","street":"八尾町城生"},{"zipCode":"9392363","prefectureKana":"ﾄﾔﾏｹﾝ","cityKana":"ﾄﾔﾏｼ","streetKana":"ﾔﾂｵﾏﾁｼﾝﾃﾞﾝ","prefecture":"富山県","city":"富山市","street":"八尾町新田"},{"zipCode":"9392407","prefectureKana":"ﾄﾔﾏｹﾝ","cityKana":"ﾄﾔﾏｼ","streetKana":"ﾔﾂｵﾏﾁｼﾝﾐｮｳ","prefecture":"富山県","city":"富山市","street":"八尾町新名"},{"zipCode":"9392302","prefectureKana":"ﾄﾔﾏｹﾝ","cityKana":"ﾄﾔﾏｼ","streetKana":"ﾔﾂｵﾏﾁｽｷﾞﾀ","prefecture":"富山県","city":"富山市","street":"八尾町杉田"},{"zipCode":"9392474","prefectureKana":"ﾄﾔﾏｹﾝ","cityKana":"ﾄﾔﾏｼ","streetKana":"ﾔﾂｵﾏﾁｽｺﾞｳ","prefecture":"富山県","city":"富山市","street":"八尾町須郷"},{"zipCode":"9392432","prefectureKana":"ﾄﾔﾏｹﾝ","cityKana":"ﾄﾔﾏｼ","streetKana":"ﾔﾂｵﾏﾁｽｽｷｵ","prefecture":"富山県","city":"富山市","street":"八尾町薄尾"},{"zipCode":"9392343","prefectureKana":"ﾄﾔﾏｹﾝ","cityKana":"ﾄﾔﾏｼ","streetKana":"ﾔﾂｵﾏﾁｽﾜﾏﾁ","prefecture":"富山県","city":"富山市","street":"八尾町諏訪町"},{"zipCode":"9392375","prefectureKana":"ﾄﾔﾏｹﾝ","cityKana":"ﾄﾔﾏｼ","streetKana":"ﾔﾂｵﾏﾁｾｷﾄﾞ","prefecture":"富山県","city":"富山市","street":"八尾町石戸"},{"zipCode":"9392446","prefectureKana":"ﾄﾔﾏｹﾝ","cityKana":"ﾄﾔﾏｼ","streetKana":"ﾔﾂｵﾏﾁｿｳﾚﾝｻﾞｶ","prefecture":"富山県","city":"富山市","street":"八尾町草連坂"},{"zipCode":"9392325","prefectureKana":"ﾄﾔﾏｹﾝ","cityKana":"ﾄﾔﾏｼ","streetKana":"ﾔﾂｵﾏﾁｿﾄﾎﾞﾘ","prefecture":"富山県","city":"富山市","street":"八尾町外堀"},{"zipCode":"9392471","prefectureKana":"ﾄﾔﾏｹﾝ","cityKana":"ﾄﾔﾏｼ","streetKana":"ﾔﾂｵﾏﾁﾀｶｵ","prefecture":"富山県","city":"富山市","street":"八尾町高尾"},{"zipCode":"9392461","prefectureKana":"ﾄﾔﾏｹﾝ","cityKana":"ﾄﾔﾏｼ","streetKana":"ﾔﾂｵﾏﾁﾀｶｸﾏ","prefecture":"富山県","city":"富山市","street":"八尾町高熊"},{"zipCode":"9392467","prefectureKana":"ﾄﾔﾏｹﾝ","cityKana":"ﾄﾔﾏｼ","streetKana":"ﾔﾂｵﾏﾁﾀｶｾ","prefecture":"富山県","city":"富山市","street":"八尾町高瀬"},{"zipCode":"9392437","prefectureKana":"ﾄﾔﾏｹﾝ","cityKana":"ﾄﾔﾏｼ","streetKana":"ﾔﾂｵﾏﾁﾀｶﾉ","prefecture":"富山県","city":"富山市","street":"八尾町高野"},{"zipCode":"9392462","prefectureKana":"ﾄﾔﾏｹﾝ","cityKana":"ﾄﾔﾏｼ","streetKana":"ﾔﾂｵﾏﾁﾀｶﾊｼ","prefecture":"富山県","city":"富山市","street":"八尾町高橋"},{"zipCode":"9392406","prefectureKana":"ﾄﾔﾏｹﾝ","cityKana":"ﾄﾔﾏｼ","streetKana":"ﾔﾂｵﾏﾁﾀｶﾐﾈ","prefecture":"富山県","city":"富山市","street":"八尾町高峯"},{"zipCode":"9392333","prefectureKana":"ﾄﾔﾏｹﾝ","cityKana":"ﾄﾔﾏｼ","streetKana":"ﾔﾂｵﾏﾁﾀｷﾉﾜｷ","prefecture":"富山県","city":"富山市","street":"八尾町滝脇"},{"zipCode":"9392464","prefectureKana":"ﾄﾔﾏｹﾝ","cityKana":"ﾄﾔﾏｼ","streetKana":"ﾔﾂｵﾏﾁﾀｹﾉｳﾁ","prefecture":"富山県","city":"富山市","street":"八尾町竹ノ内"},{"zipCode":"9392372","prefectureKana":"ﾄﾔﾏｹﾝ","cityKana":"ﾄﾔﾏｼ","streetKana":"ﾔﾂｵﾏﾁﾀﾁﾎﾝｺﾞｳ","prefecture":"富山県","city":"富山市","street":"八尾町舘本郷"},{"zipCode":"9392371","prefectureKana":"ﾄﾔﾏｹﾝ","cityKana":"ﾄﾔﾏｼ","streetKana":"ﾔﾂｵﾏﾁﾀﾅｶ","prefecture":"富山県","city":"富山市","street":"八尾町田中"},{"zipCode":"9392416","prefectureKana":"ﾄﾔﾏｹﾝ","cityKana":"ﾄﾔﾏｼ","streetKana":"ﾔﾂｵﾏﾁﾀﾆｵﾘ","prefecture":"富山県","city":"富山市","street":"八尾町谷折"},{"zipCode":"9392421","prefectureKana":"ﾄﾔﾏｹﾝ","cityKana":"ﾄﾔﾏｼ","streetKana":"ﾔﾂｵﾏﾁﾀﾉｶｼﾗ","prefecture":"富山県","city":"富山市","street":"八尾町田頭"},{"zipCode":"9392351","prefectureKana":"ﾄﾔﾏｹﾝ","cityKana":"ﾄﾔﾏｼ","streetKana":"ﾔﾂｵﾏﾁﾃﾝﾏﾝﾁｮｳ","prefecture":"富山県","city":"富山市","street":"八尾町天満町"},{"zipCode":"9392431","prefectureKana":"ﾄﾔﾏｹﾝ","cityKana":"ﾄﾔﾏｼ","streetKana":"ﾔﾂｵﾏﾁﾄﾁｵﾘ","prefecture":"富山県","city":"富山市","street":"八尾町栃折"},{"zipCode":"9392403","prefectureKana":"ﾄﾔﾏｹﾝ","cityKana":"ﾄﾔﾏｼ","streetKana":"ﾔﾂｵﾏﾁﾄﾞﾊﾞﾀｹｼﾓﾅｶﾔﾏ","prefecture":"富山県","city":"富山市","street":"八尾町道畑下中山"},{"zipCode":"9392463","prefectureKana":"ﾄﾔﾏｹﾝ","cityKana":"ﾄﾔﾏｼ","streetKana":"ﾔﾂｵﾏﾁﾅｶ","prefecture":"富山県","city":"富山市","street":"八尾町中"},{"zipCode":"9392436","prefectureKana":"ﾄﾔﾏｹﾝ","cityKana":"ﾄﾔﾏｼ","streetKana":"ﾔﾂｵﾏﾁﾅｶｼﾞﾏ","prefecture":"富山県","city":"富山市","street":"八尾町中島"},{"zipCode":"9392311","prefectureKana":"ﾄﾔﾏｹﾝ","cityKana":"ﾄﾔﾏｼ","streetKana":"ﾔﾂｵﾏﾁﾅｶｼﾞﾝﾂﾞｳ","prefecture":"富山県","city":"富山市","street":"八尾町中神通"},{"zipCode":"9392443","prefectureKana":"ﾄﾔﾏｹﾝ","cityKana":"ﾄﾔﾏｼ","streetKana":"ﾔﾂｵﾏﾁﾅｶﾆﾝﾌﾞ","prefecture":"富山県","city":"富山市","street":"八尾町中仁歩"},{"zipCode":"9392432","prefectureKana":"ﾄﾔﾏｹﾝ","cityKana":"ﾄﾔﾏｼ","streetKana":"ﾔﾂｵﾏﾁﾅｶﾔﾏ","prefecture":"富山県","city":"富山市","street":"八尾町中山"},{"zipCode":"9392422","prefectureKana":"ﾄﾔﾏｹﾝ","cityKana":"ﾄﾔﾏｼ","streetKana":"ﾔﾂｵﾏﾁﾆｼｶﾞﾊﾗ","prefecture":"富山県","city":"富山市","street":"八尾町西原"},{"zipCode":"9392417","prefectureKana":"ﾄﾔﾏｹﾝ","cityKana":"ﾄﾔﾏｼ","streetKana":"ﾔﾂｵﾏﾁﾆｼｶﾜｸﾗ","prefecture":"富山県","city":"富山市","street":"八尾町西川倉"},{"zipCode":"9392401","prefectureKana":"ﾄﾔﾏｹﾝ","cityKana":"ﾄﾔﾏｼ","streetKana":"ﾔﾂｵﾏﾁﾆｼｸｽﾞｻｶ","prefecture":"富山県","city":"富山市","street":"八尾町西葛坂"},{"zipCode":"9392311","prefectureKana":"ﾄﾔﾏｹﾝ","cityKana":"ﾄﾔﾏｼ","streetKana":"ﾔﾂｵﾏﾁﾆｼｼﾞﾝﾂﾞｳ","prefecture":"富山県","city":"富山市","street":"八尾町西神通"},{"zipCode":"9392345","prefectureKana":"ﾄﾔﾏｹﾝ","cityKana":"ﾄﾔﾏｼ","streetKana":"ﾔﾂｵﾏﾁﾆｼｼﾝﾏﾁ","prefecture":"富山県","city":"富山市","street":"八尾町西新町"},{"zipCode":"9392355","prefectureKana":"ﾄﾔﾏｹﾝ","cityKana":"ﾄﾔﾏｼ","streetKana":"ﾔﾂｵﾏﾁﾆｼﾏﾁ","prefecture":"富山県","city":"富山市","street":"八尾町西町"},{"zipCode":"9392415","prefectureKana":"ﾄﾔﾏｹﾝ","cityKana":"ﾄﾔﾏｼ","streetKana":"ﾔﾂｵﾏﾁﾆｼﾏﾂｾﾞ","prefecture":"富山県","city":"富山市","street":"八尾町西松瀬"},{"zipCode":"9392416","prefectureKana":"ﾄﾔﾏｹﾝ","cityKana":"ﾄﾔﾏｼ","streetKana":"ﾔﾂｵﾏﾁﾇﾉﾀﾆ","prefecture":"富山県","city":"富山市","street":"八尾町布谷"},{"zipCode":"9392314","prefectureKana":"ﾄﾔﾏｹﾝ","cityKana":"ﾄﾔﾏｼ","streetKana":"ﾔﾂｵﾏﾁﾉｶﾞｲ","prefecture":"富山県","city":"富山市","street":"八尾町野飼"},{"zipCode":"9392472","prefectureKana":"ﾄﾔﾏｹﾝ","cityKana":"ﾄﾔﾏｼ","streetKana":"ﾔﾂｵﾏﾁﾉｽｺﾞｳ","prefecture":"富山県","city":"富山市","street":"八尾町野須郷"},{"zipCode":"9392406","prefectureKana":"ﾄﾔﾏｹﾝ","cityKana":"ﾄﾔﾏｼ","streetKana":"ﾔﾂｵﾏﾁﾉﾘﾐﾈ","prefecture":"富山県","city":"富山市","street":"八尾町乗嶺"},{"zipCode":"9392433","prefectureKana":"ﾄﾔﾏｹﾝ","cityKana":"ﾄﾔﾏｼ","streetKana":"ﾔﾂｵﾏﾁﾊﾅﾌﾞｻ","prefecture":"富山県","city":"富山市","street":"八尾町花房"},{"zipCode":"9392411","prefectureKana":"ﾄﾔﾏｹﾝ","cityKana":"ﾄﾔﾏｼ","streetKana":"ﾔﾂｵﾏﾁﾋｶﾞｼｶﾜｸﾗ","prefecture":"富山県","city":"富山市","street":"八尾町東川倉"},{"zipCode":"9392401","prefectureKana":"ﾄﾔﾏｹﾝ","cityKana":"ﾄﾔﾏｼ","streetKana":"ﾔﾂｵﾏﾁﾋｶﾞｼｸｽﾞｻｶ","prefecture":"富山県","city":"富山市","street":"八尾町東葛坂"},{"zipCode":"9392344","prefectureKana":"ﾄﾔﾏｹﾝ","cityKana":"ﾄﾔﾏｼ","streetKana":"ﾔﾂｵﾏﾁﾋｶﾞｼｼﾝﾏﾁ","prefecture":"富山県","city":"富山市","street":"八尾町東新町"},{"zipCode":"9392412","prefectureKana":"ﾄﾔﾏｹﾝ","cityKana":"ﾄﾔﾏｼ","streetKana":"ﾔﾂｵﾏﾁﾋｶﾞｼﾇﾉﾀﾆ","prefecture":"富山県","city":"富山市","street":"八尾町東布谷"},{"zipCode":"9392424","prefectureKana":"ﾄﾔﾏｹﾝ","cityKana":"ﾄﾔﾏｼ","streetKana":"ﾔﾂｵﾏﾁﾋｶﾞｼﾊﾗ","prefecture":"富山県","city":"富山市","street":"八尾町東原"},{"zipCode":"9392354","prefectureKana":"ﾄﾔﾏｹﾝ","cityKana":"ﾄﾔﾏｼ","streetKana":"ﾔﾂｵﾏﾁﾋｶﾞｼﾏﾁ","prefecture":"富山県","city":"富山市","street":"八尾町東町"},{"zipCode":"9392414","prefectureKana":"ﾄﾔﾏｹﾝ","cityKana":"ﾄﾔﾏｼ","streetKana":"ﾔﾂｵﾏﾁﾋｶﾞｼﾏﾂｾﾞ","prefecture":"富山県","city":"富山市","street":"八尾町東松瀬"},{"zipCode":"9392451","prefectureKana":"ﾄﾔﾏｹﾝ","cityKana":"ﾄﾔﾏｼ","streetKana":"ﾔﾂｵﾏﾁﾋﾗｻﾜ","prefecture":"富山県","city":"富山市","street":"八尾町平沢"},{"zipCode":"9392367","prefectureKana":"ﾄﾔﾏｹﾝ","cityKana":"ﾄﾔﾏｼ","streetKana":"ﾔﾂｵﾏﾁﾋﾗﾊﾞﾔｼ","prefecture":"富山県","city":"富山市","street":"八尾町平林"},{"zipCode":"9392316","prefectureKana":"ﾄﾔﾏｹﾝ","cityKana":"ﾄﾔﾏｼ","streetKana":"ﾔﾂｵﾏﾁﾌｶﾀﾞﾆ","prefecture":"富山県","city":"富山市","street":"八尾町深谷"},{"zipCode":"9392376","prefectureKana":"ﾄﾔﾏｹﾝ","cityKana":"ﾄﾔﾏｼ","streetKana":"ﾔﾂｵﾏﾁﾌｸｼﾞﾏ","prefecture":"富山県","city":"富山市","street":"八尾町福島"},{"zipCode":"9392454","prefectureKana":"ﾄﾔﾏｹﾝ","cityKana":"ﾄﾔﾏｼ","streetKana":"ﾔﾂｵﾏﾁﾌﾞﾄﾞｳﾊﾗ","prefecture":"富山県","city":"富山市","street":"八尾町武道原"},{"zipCode":"9392476","prefectureKana":"ﾄﾔﾏｹﾝ","cityKana":"ﾄﾔﾏｼ","streetKana":"ﾔﾂｵﾏﾁﾎｿﾀﾞｷ","prefecture":"富山県","city":"富山市","street":"八尾町細滝"},{"zipCode":"9392456","prefectureKana":"ﾄﾔﾏｹﾝ","cityKana":"ﾄﾔﾏｼ","streetKana":"ﾔﾂｵﾏﾁﾏｻﾏ","prefecture":"富山県","city":"富山市","street":"八尾町正間"},{"zipCode":"9392367","prefectureKana":"ﾄﾔﾏｹﾝ","cityKana":"ﾄﾔﾏｼ","streetKana":"ﾔﾂｵﾏﾁﾏﾂﾊﾞﾗ","prefecture":"富山県","city":"富山市","street":"八尾町松原"},{"zipCode":"9392317","prefectureKana":"ﾄﾔﾏｹﾝ","cityKana":"ﾄﾔﾏｼ","streetKana":"ﾔﾂｵﾏﾁﾏﾙﾔﾏ","prefecture":"富山県","city":"富山市","street":"八尾町丸山"},{"zipCode":"9392371","prefectureKana":"ﾄﾔﾏｹﾝ","cityKana":"ﾄﾔﾏｼ","streetKana":"ﾔﾂｵﾏﾁﾐｽｵ","prefecture":"富山県","city":"富山市","street":"八尾町翠尾"},{"zipCode":"9392364","prefectureKana":"ﾄﾔﾏｹﾝ","cityKana":"ﾄﾔﾏｼ","streetKana":"ﾔﾂｵﾏﾁﾐｽﾞﾀﾆ","prefecture":"富山県","city":"富山市","street":"八尾町水谷"},{"zipCode":"9392437","prefectureKana":"ﾄﾔﾏｹﾝ","cityKana":"ﾄﾔﾏｼ","streetKana":"ﾔﾂｵﾏﾁﾐｽﾞﾅｼ","prefecture":"富山県","city":"富山市","street":"八尾町水無"},{"zipCode":"9392361","prefectureKana":"ﾄﾔﾏｹﾝ","cityKana":"ﾄﾔﾏｼ","streetKana":"ﾔﾂｵﾏﾁﾐﾀ","prefecture":"富山県","city":"富山市","street":"八尾町三田"},{"zipCode":"9392452","prefectureKana":"ﾄﾔﾏｹﾝ","cityKana":"ﾄﾔﾏｼ","streetKana":"ﾔﾂｵﾏﾁﾐﾂﾏﾂ","prefecture":"富山県","city":"富山市","street":"八尾町三ツ松"},{"zipCode":"9392404","prefectureKana":"ﾄﾔﾏｹﾝ","cityKana":"ﾄﾔﾏｼ","streetKana":"ﾔﾂｵﾏﾁﾐﾅｸﾁ","prefecture":"富山県","city":"富山市","street":"八尾町水口"},{"zipCode":"9392473","prefectureKana":"ﾄﾔﾏｹﾝ","cityKana":"ﾄﾔﾏｼ","streetKana":"ﾔﾂｵﾏﾁﾐﾈ","prefecture":"富山県","city":"富山市","street":"八尾町峯"},{"zipCode":"9392464","prefectureKana":"ﾄﾔﾏｹﾝ","cityKana":"ﾄﾔﾏｼ","streetKana":"ﾔﾂｵﾏﾁﾐﾔｶﾞｼﾏ","prefecture":"富山県","city":"富山市","street":"八尾町宮ケ島"},{"zipCode":"9392325","prefectureKana":"ﾄﾔﾏｹﾝ","cityKana":"ﾄﾔﾏｼ","streetKana":"ﾔﾂｵﾏﾁﾐﾔﾉｺｼ","prefecture":"富山県","city":"富山市","street":"八尾町宮腰"},{"zipCode":"9392403","prefectureKana":"ﾄﾔﾏｹﾝ","cityKana":"ﾄﾔﾏｼ","streetKana":"ﾔﾂｵﾏﾁﾐﾔﾉｼﾀ","prefecture":"富山県","city":"富山市","street":"八尾町宮ノ下"},{"zipCode":"9392456","prefectureKana":"ﾄﾔﾏｹﾝ","cityKana":"ﾄﾔﾏｼ","streetKana":"ﾔﾂｵﾏﾁﾐｮｳｶﾞｼﾞﾏ","prefecture":"富山県","city":"富山市","street":"八尾町茗ケ島"},{"zipCode":"9392335","prefectureKana":"ﾄﾔﾏｹﾝ","cityKana":"ﾄﾔﾏｼ","streetKana":"ﾔﾂｵﾏﾁﾐｮｳｶﾞﾊﾗ","prefecture":"富山県","city":"富山市","street":"八尾町茗ケ原"},{"zipCode":"9392365","prefectureKana":"ﾄﾔﾏｹﾝ","cityKana":"ﾄﾔﾏｼ","streetKana":"ﾔﾂｵﾏﾁﾐｮｳｾﾝｼﾞ","prefecture":"富山県","city":"富山市","street":"八尾町妙川寺"},{"zipCode":"9392323","prefectureKana":"ﾄﾔﾏｹﾝ","cityKana":"ﾄﾔﾏｼ","streetKana":"ﾔﾂｵﾏﾁﾑﾗｽｷﾞ","prefecture":"富山県","city":"富山市","street":"八尾町村杉"},{"zipCode":"9392313","prefectureKana":"ﾄﾔﾏｹﾝ","cityKana":"ﾄﾔﾏｼ","streetKana":"ﾔﾂｵﾏﾁﾒｯｷ","prefecture":"富山県","city":"富山市","street":"八尾町滅鬼"},{"zipCode":"9392366","prefectureKana":"ﾄﾔﾏｹﾝ","cityKana":"ﾄﾔﾏｼ","streetKana":"ﾔﾂｵﾏﾁﾔｽｳﾁ","prefecture":"富山県","city":"富山市","street":"八尾町保内"},{"zipCode":"9392463","prefectureKana":"ﾄﾔﾏｹﾝ","cityKana":"ﾄﾔﾏｼ","streetKana":"ﾔﾂｵﾏﾁﾔﾁ","prefecture":"富山県","city":"富山市","street":"八尾町谷内"},{"zipCode":"9392402","prefectureKana":"ﾄﾔﾏｹﾝ","cityKana":"ﾄﾔﾏｼ","streetKana":"ﾔﾂｵﾏﾁﾔﾄｼﾞﾏ","prefecture":"富山県","city":"富山市","street":"八尾町八十島"},{"zipCode":"9392475","prefectureKana":"ﾄﾔﾏｹﾝ","cityKana":"ﾄﾔﾏｼ","streetKana":"ﾔﾂｵﾏﾁﾕﾉｷ","prefecture":"富山県","city":"富山市","street":"八尾町柚木"},{"zipCode":"9392447","prefectureKana":"ﾄﾔﾏｹﾝ","cityKana":"ﾄﾔﾏｼ","streetKana":"ﾔﾂｵﾏﾁﾖﾒﾀﾞﾆ","prefecture":"富山県","city":"富山市","street":"八尾町鼠谷"},{"zipCode":"9392414","prefectureKana":"ﾄﾔﾏｹﾝ","cityKana":"ﾄﾔﾏｼ","streetKana":"ﾔﾂｵﾏﾁﾘｮｳｼｶﾞﾊﾗ","prefecture":"富山県","city":"富山市","street":"八尾町猟師ケ原"},{"zipCode":"9392472","prefectureKana":"ﾄﾔﾏｹﾝ","cityKana":"ﾄﾔﾏｼ","streetKana":"ﾔﾂｵﾏﾁﾜﾔﾏ","prefecture":"富山県","city":"富山市","street":"八尾町和山"},{"zipCode":"9398006","prefectureKana":"ﾄﾔﾏｹﾝ","cityKana":"ﾄﾔﾏｼ","streetKana":"ﾔﾏﾑﾛ","prefecture":"富山県","city":"富山市","street":"山室"},{"zipCode":"9398022","prefectureKana":"ﾄﾔﾏｹﾝ","cityKana":"ﾄﾔﾏｼ","streetKana":"ﾔﾏﾑﾛｱﾗﾔ","prefecture":"富山県","city":"富山市","street":"山室荒屋"},{"zipCode":"9398026","prefectureKana":"ﾄﾔﾏｹﾝ","cityKana":"ﾄﾔﾏｼ","streetKana":"ﾔﾏﾑﾛｱﾗﾔｼﾝﾏﾁ","prefecture":"富山県","city":"富山市","street":"山室荒屋新町"},{"zipCode":"9398007","prefectureKana":"ﾄﾔﾏｹﾝ","cityKana":"ﾄﾔﾏｼ","streetKana":"ﾔﾏﾑﾛｺｳﾖｳﾀﾞｲ","prefecture":"富山県","city":"富山市","street":"山室向陽台"},{"zipCode":"9398008","prefectureKana":"ﾄﾔﾏｹﾝ","cityKana":"ﾄﾔﾏｼ","streetKana":"ﾔﾏﾑﾛｼﾝﾏﾁ","prefecture":"富山県","city":"富山市","street":"山室新町"},{"zipCode":"9398221","prefectureKana":"ﾄﾔﾏｹﾝ","cityKana":"ﾄﾔﾏｼ","streetKana":"ﾖｳｶﾏﾁ","prefecture":"富山県","city":"富山市","street":"八日町"},{"zipCode":"9398033","prefectureKana":"ﾄﾔﾏｹﾝ","cityKana":"ﾄﾔﾏｼ","streetKana":"ﾖｺｳﾁ","prefecture":"富山県","city":"富山市","street":"横内"},{"zipCode":"9392216","prefectureKana":"ﾄﾔﾏｹﾝ","cityKana":"ﾄﾔﾏｼ","streetKana":"ﾖｺﾄﾞｲ","prefecture":"富山県","city":"富山市","street":"横樋"},{"zipCode":"9398153","prefectureKana":"ﾄﾔﾏｹﾝ","cityKana":"ﾄﾔﾏｼ","streetKana":"ﾖｼｵｶ","prefecture":"富山県","city":"富山市","street":"吉岡"},{"zipCode":"9398244","prefectureKana":"ﾄﾔﾏｹﾝ","cityKana":"ﾄﾔﾏｼ","streetKana":"ﾖｼｸﾗ","prefecture":"富山県","city":"富山市","street":"吉倉"},{"zipCode":"9392172","prefectureKana":"ﾄﾔﾏｹﾝ","cityKana":"ﾄﾔﾏｼ","streetKana":"ﾖｼﾉ","prefecture":"富山県","city":"富山市","street":"吉野"},{"zipCode":"9398181","prefectureKana":"ﾄﾔﾏｹﾝ","cityKana":"ﾄﾔﾏｼ","streetKana":"ﾜｶﾀｹﾁｮｳ","prefecture":"富山県","city":"富山市","street":"若竹町"},{"zipCode":"9398021","prefectureKana":"ﾄﾔﾏｹﾝ","cityKana":"ﾄﾔﾏｼ","streetKana":"ﾜｶﾊﾞﾀﾞｲ","prefecture":"富山県","city":"富山市","street":"若葉台"},{"zipCode":"9392183","prefectureKana":"ﾄﾔﾏｹﾝ","cityKana":"ﾄﾔﾏｼ","streetKana":"ﾜﾘﾔﾏ","prefecture":"富山県","city":"富山市","street":"割山"},{"zipCode":"9391110","prefectureKana":"ﾄﾔﾏｹﾝ","cityKana":"ﾀｶｵｶｼ","streetKana":"ｱｲｼｰﾊﾟｰｸ","prefecture":"富山県","city":"高岡市","street":"ＩＣパーク"},{"zipCode":"9391273","prefectureKana":"ﾄﾔﾏｹﾝ","cityKana":"ﾀｶｵｶｼ","streetKana":"ｱｼﾂｷ","prefecture":"富山県","city":"高岡市","street":"葦附"},{"zipCode":"9391267","prefectureKana":"ﾄﾔﾏｹﾝ","cityKana":"ﾀｶｵｶｼ","streetKana":"ｲﾏｲｽﾞﾐ","prefecture":"富山県","city":"高岡市","street":"今泉"},{"zipCode":"9391266","prefectureKana":"ﾄﾔﾏｹﾝ","cityKana":"ﾀｶｵｶｼ","streetKana":"ｲﾏｲｽﾞﾐｼﾝ","prefecture":"富山県","city":"高岡市","street":"今泉新"},{"zipCode":"9391119","prefectureKana":"ﾄﾔﾏｹﾝ","cityKana":"ﾀｶｵｶｼ","streetKana":"ｵﾌｨｽﾊﾟｰｸ","prefecture":"富山県","city":"高岡市","street":"オフィスパーク"},{"zipCode":"9391274","prefectureKana":"ﾄﾔﾏｹﾝ","cityKana":"ﾀｶｵｶｼ","streetKana":"ｶﾐｱｿ","prefecture":"富山県","city":"高岡市","street":"上麻生"},{"zipCode":"9391120","prefectureKana":"ﾄﾔﾏｹﾝ","cityKana":"ﾀｶｵｶｼ","streetKana":"ｸﾞﾘｰﾝﾊﾟｰｸ","prefecture":"富山県","city":"高岡市","street":"グリーンパーク"},{"zipCode":"9391261","prefectureKana":"ﾄﾔﾏｹﾝ","cityKana":"ﾀｶｵｶｼ","streetKana":"ｺｲｽﾞﾐｼﾝ","prefecture":"富山県","city":"高岡市","street":"小泉新"},{"zipCode":"9391263","prefectureKana":"ﾄﾔﾏｹﾝ","cityKana":"ﾀｶｵｶｼ","streetKana":"ｺﾞﾎﾞｳﾔﾏ","prefecture":"富山県","city":"高岡市","street":"御坊山"},{"zipCode":"9391262","prefectureKana":"ﾄﾔﾏｹﾝ","cityKana":"ﾀｶｵｶｼ","streetKana":"ｻﾝｶ","prefecture":"富山県","city":"高岡市","street":"山下"},{"zipCode":"9391263","prefectureKana":"ﾄﾔﾏｹﾝ","cityKana":"ﾀｶｵｶｼ","streetKana":"ｼﾏｼﾝ","prefecture":"富山県","city":"高岡市","street":"島新"},{"zipCode":"9391272","prefectureKana":"ﾄﾔﾏｹﾝ","cityKana":"ﾀｶｵｶｼ","streetKana":"ｼﾓｱｿ","prefecture":"富山県","city":"高岡市","street":"下麻生"},{"zipCode":"9391271","prefectureKana":"ﾄﾔﾏｹﾝ","cityKana":"ﾀｶｵｶｼ","streetKana":"ｼﾓｱｿｳｼﾝﾏﾁ","prefecture":"富山県","city":"高岡市","street":"下麻生伸町"},{"zipCode":"9391264","prefectureKana":"ﾄﾔﾏｹﾝ","cityKana":"ﾀｶｵｶｼ","streetKana":"ｼﾓﾔﾏﾀﾞ","prefecture":"富山県","city":"高岡市","street":"下山田"},{"zipCode":"9391131","prefectureKana":"ﾄﾔﾏｹﾝ","cityKana":"ﾀｶｵｶｼ","streetKana":"ﾀﾞｲｺﾞ","prefecture":"富山県","city":"高岡市","street":"醍醐"},{"zipCode":"9391255","prefectureKana":"ﾄﾔﾏｹﾝ","cityKana":"ﾀｶｵｶｼ","streetKana":"ﾀｷ","prefecture":"富山県","city":"高岡市","street":"滝"},{"zipCode":"9391254","prefectureKana":"ﾄﾔﾏｹﾝ","cityKana":"ﾀｶｵｶｼ","streetKana":"ﾀｷｼﾝ","prefecture":"富山県","city":"高岡市","street":"滝新"},{"zipCode":"9391251","prefectureKana":"ﾄﾔﾏｹﾝ","cityKana":"ﾀｶｵｶｼ","streetKana":"ﾂﾈｸﾆ","prefecture":"富山県","city":"高岡市","street":"常国"},{"zipCode":"9391252","prefectureKana":"ﾄﾔﾏｹﾝ","cityKana":"ﾀｶｵｶｼ","streetKana":"ﾂﾈｸﾆﾐﾄﾞﾘﾀﾞｲ","prefecture":"富山県","city":"高岡市","street":"常国みどり台"},{"zipCode":"9391121","prefectureKana":"ﾄﾔﾏｹﾝ","cityKana":"ﾀｶｵｶｼ","streetKana":"ﾄｲﾃﾞｱｵｲﾁｮｳ","prefecture":"富山県","city":"高岡市","street":"戸出葵町"},{"zipCode":"9391121","prefectureKana":"ﾄﾔﾏｹﾝ","cityKana":"ﾀｶｵｶｼ","streetKana":"ﾄｲﾃﾞｱｵｿﾞﾉﾁｮｳ","prefecture":"富山県","city":"高岡市","street":"戸出青園町"},{"zipCode":"9391102","prefectureKana":"ﾄﾔﾏｹﾝ","cityKana":"ﾀｶｵｶｼ","streetKana":"ﾄｲﾃﾞｱｹﾎﾞﾉﾁｮｳ","prefecture":"富山県","city":"高岡市","street":"戸出曙町"},{"zipCode":"9391103","prefectureKana":"ﾄﾔﾏｹﾝ","cityKana":"ﾀｶｵｶｼ","streetKana":"ﾄｲﾃﾞｲｹﾀﾞﾏﾁ","prefecture":"富山県","city":"高岡市","street":"戸出池田町"},{"zipCode":"9391105","prefectureKana":"ﾄﾔﾏｹﾝ","cityKana":"ﾀｶｵｶｼ","streetKana":"ﾄｲﾃﾞｲｾﾘｮｳ","prefecture":"富山県","city":"高岡市","street":"戸出伊勢領"},{"zipCode":"9391101","prefectureKana":"ﾄﾔﾏｹﾝ","cityKana":"ﾀｶｵｶｼ","streetKana":"ﾄｲﾃﾞｲﾁﾉｾ","prefecture":"富山県","city":"高岡市","street":"戸出市野瀬"},{"zipCode":"9391102","prefectureKana":"ﾄﾔﾏｹﾝ","cityKana":"ﾀｶｵｶｼ","streetKana":"ﾄｲﾃﾞｵｵｶﾐ","prefecture":"富山県","city":"高岡市","street":"戸出狼"},{"zipCode":"9391117","prefectureKana":"ﾄﾔﾏｹﾝ","cityKana":"ﾀｶｵｶｼ","streetKana":"ﾄｲﾃﾞｵｵｼﾐｽﾞ","prefecture":"富山県","city":"高岡市","street":"戸出大清水"},{"zipCode":"9391125","prefectureKana":"ﾄﾔﾏｹﾝ","cityKana":"ﾀｶｵｶｼ","streetKana":"ﾄｲﾃﾞｵｶｺﾞｼｮ","prefecture":"富山県","city":"高岡市","street":"戸出岡御所"},{"zipCode":"9391112","prefectureKana":"ﾄﾔﾏｹﾝ","cityKana":"ﾀｶｵｶｼ","streetKana":"ﾄｲﾃﾞｶｽｶﾞ","prefecture":"富山県","city":"高岡市","street":"戸出春日"},{"zipCode":"9391121","prefectureKana":"ﾄﾔﾏｹﾝ","cityKana":"ﾀｶｵｶｼ","streetKana":"ﾄｲﾃﾞｺｳﾐｮｳｼﾞ","prefecture":"富山県","city":"高岡市","street":"戸出光明寺"},{"zipCode":"9391113","prefectureKana":"ﾄﾔﾏｹﾝ","cityKana":"ﾀｶｵｶｼ","streetKana":"ﾄｲﾃﾞｺｸﾀﾞｲ","prefecture":"富山県","city":"高岡市","street":"戸出石代"},{"zipCode":"9391118","prefectureKana":"ﾄﾔﾏｹﾝ","cityKana":"ﾀｶｵｶｼ","streetKana":"ﾄｲﾃﾞｻｶｴﾏﾁ","prefecture":"富山県","city":"高岡市","street":"戸出栄町"},{"zipCode":"9391132","prefectureKana":"ﾄﾔﾏｹﾝ","cityKana":"ﾀｶｵｶｼ","streetKana":"ﾄｲﾃﾞﾀｹ","prefecture":"富山県","city":"高岡市","street":"戸出竹"},{"zipCode":"9391135","prefectureKana":"ﾄﾔﾏｹﾝ","cityKana":"ﾀｶｵｶｼ","streetKana":"ﾄｲﾃﾞﾀｹｷﾀ","prefecture":"富山県","city":"高岡市","street":"戸出竹北"},{"zipCode":"9391111","prefectureKana":"ﾄﾔﾏｹﾝ","cityKana":"ﾀｶｵｶｼ","streetKana":"ﾄｲﾃﾞﾄｸｲﾁ","prefecture":"富山県","city":"高岡市","street":"戸出徳市"},{"zipCode":"9391114","prefectureKana":"ﾄﾔﾏｹﾝ","cityKana":"ﾀｶｵｶｼ","streetKana":"ﾄｲﾃﾞﾆｼﾌﾞｶﾅﾔ","prefecture":"富山県","city":"高岡市","street":"戸出西部金屋"},{"zipCode":"9391136","prefectureKana":"ﾄﾔﾏｹﾝ","cityKana":"ﾀｶｵｶｼ","streetKana":"ﾄｲﾃﾞﾉﾍﾞｼﾞﾏ","prefecture":"富山県","city":"高岡市","street":"戸出延島"},{"zipCode":"9391122","prefectureKana":"ﾄﾔﾏｹﾝ","cityKana":"ﾀｶｵｶｼ","streetKana":"ﾄｲﾃﾞﾌﾙﾄｲﾃﾞ","prefecture":"富山県","city":"高岡市","street":"戸出古戸出"},{"zipCode":"9391133","prefectureKana":"ﾄﾔﾏｹﾝ","cityKana":"ﾀｶｵｶｼ","streetKana":"ﾄｲﾃﾞﾎｳｼﾞ","prefecture":"富山県","city":"高岡市","street":"戸出放寺"},{"zipCode":"9391134","prefectureKana":"ﾄﾔﾏｹﾝ","cityKana":"ﾀｶｵｶｼ","streetKana":"ﾄｲﾃﾞﾎｳｼﾞｼﾝ","prefecture":"富山県","city":"高岡市","street":"戸出放寺新"},{"zipCode":"9391123","prefectureKana":"ﾄﾔﾏｹﾝ","cityKana":"ﾀｶｵｶｼ","streetKana":"ﾄｲﾃﾞﾕｷｶﾈ","prefecture":"富山県","city":"高岡市","street":"戸出行兼"},{"zipCode":"9391116","prefectureKana":"ﾄﾔﾏｹﾝ","cityKana":"ﾀｶｵｶｼ","streetKana":"ﾄｲﾃﾞﾖｼｽﾞﾐ","prefecture":"富山県","city":"高岡市","street":"戸出吉住"},{"zipCode":"9391115","prefectureKana":"ﾄﾔﾏｹﾝ","cityKana":"ﾀｶｵｶｼ","streetKana":"ﾄｲﾃﾞﾖｼｽﾞﾐｼﾝ","prefecture":"富山県","city":"高岡市","street":"戸出吉住新"},{"zipCode":"9391124","prefectureKana":"ﾄﾔﾏｹﾝ","cityKana":"ﾀｶｵｶｼ","streetKana":"ﾄｲﾃﾞﾛｸｼﾞｭｳﾌﾞ","prefecture":"富山県","city":"高岡市","street":"戸出六十歩"},{"zipCode":"9391104","prefectureKana":"ﾄﾔﾏｹﾝ","cityKana":"ﾀｶｵｶｼ","streetKana":"ﾄｲﾃﾞﾏﾁ","prefecture":"富山県","city":"高岡市","street":"戸出町"},{"zipCode":"9391275","prefectureKana":"ﾄﾔﾏｹﾝ","cityKana":"ﾀｶｵｶｼ","streetKana":"ﾅｶﾀﾞ","prefecture":"富山県","city":"高岡市","street":"中田"},{"zipCode":"9391265","prefectureKana":"ﾄﾔﾏｹﾝ","cityKana":"ﾀｶｵｶｼ","streetKana":"ﾋｶﾞｼﾎﾞｼﾝ","prefecture":"富山県","city":"高岡市","street":"東保新"},{"zipCode":"9390101","prefectureKana":"ﾄﾔﾏｹﾝ","cityKana":"ﾀｶｵｶｼ","streetKana":"ﾌｸｵｶﾏﾁｱｶﾏﾙ","prefecture":"富山県","city":"高岡市","street":"福岡町赤丸"},{"zipCode":"9390131","prefectureKana":"ﾄﾔﾏｹﾝ","cityKana":"ﾀｶｵｶｼ","streetKana":"ﾌｸｵｶﾏﾁｱﾗﾔｼｷ","prefecture":"富山県","city":"高岡市","street":"福岡町荒屋敷"},{"zipCode":"9390112","prefectureKana":"ﾄﾔﾏｹﾝ","cityKana":"ﾀｶｵｶｼ","streetKana":"ﾌｸｵｶﾏﾁｱﾗﾔｼｷ(ｵﾓﾃﾓﾄﾏﾁ)","prefecture":"富山県","city":"高岡市","street":"福岡町荒屋敷（表元町）"},{"zipCode":"9390112","prefectureKana":"ﾄﾔﾏｹﾝ","cityKana":"ﾀｶｵｶｼ","streetKana":"ﾌｸｵｶﾏﾁｱﾗﾔｼｷ(ﾁｭｳｵｳﾄﾞｵﾘ)","prefecture":"富山県","city":"高岡市","street":"福岡町荒屋敷（中央通り）"},{"zipCode":"9390122","prefectureKana":"ﾄﾔﾏｹﾝ","cityKana":"ﾀｶｵｶｼ","streetKana":"ﾌｸｵｶﾏﾁｲﾁﾌﾞﾆﾌﾞ","prefecture":"富山県","city":"高岡市","street":"福岡町一歩二歩"},{"zipCode":"9390145","prefectureKana":"ﾄﾔﾏｹﾝ","cityKana":"ﾀｶｵｶｼ","streetKana":"ﾌｸｵｶﾏﾁｳﾜﾉ","prefecture":"富山県","city":"高岡市","street":"福岡町上野"},{"zipCode":"9390128","prefectureKana":"ﾄﾔﾏｹﾝ","cityKana":"ﾀｶｵｶｼ","streetKana":"ﾌｸｵｶﾏﾁｴｼﾞﾘ","prefecture":"富山県","city":"高岡市","street":"福岡町江尻"},{"zipCode":"9390132","prefectureKana":"ﾄﾔﾏｹﾝ","cityKana":"ﾀｶｵｶｼ","streetKana":"ﾌｸｵｶﾏﾁｵｵﾀｷ","prefecture":"富山県","city":"高岡市","street":"福岡町大滝"},{"zipCode":"9390112","prefectureKana":"ﾄﾔﾏｹﾝ","cityKana":"ﾀｶｵｶｼ","streetKana":"ﾌｸｵｶﾏﾁｵｵﾀｷ(ｵﾓﾃﾓﾄﾏﾁ)","prefecture":"富山県","city":"高岡市","street":"福岡町大滝（表元町）"},{"zipCode":"9390132","prefectureKana":"ﾄﾔﾏｹﾝ","cityKana":"ﾀｶｵｶｼ","streetKana":"ﾌｸｵｶﾏﾁｵｵﾀｷ(ｷﾌﾞﾈｼﾝ)","prefecture":"富山県","city":"高岡市","street":"福岡町大滝（木舟新）"},{"zipCode":"9390119","prefectureKana":"ﾄﾔﾏｹﾝ","cityKana":"ﾀｶｵｶｼ","streetKana":"ﾌｸｵｶﾏﾁｵｵﾀｷ(ﾊｼｶﾞﾐﾁｮｳ)","prefecture":"富山県","city":"高岡市","street":"福岡町大滝（橋上町）"},{"zipCode":"9390118","prefectureKana":"ﾄﾔﾏｹﾝ","cityKana":"ﾀｶｵｶｼ","streetKana":"ﾌｸｵｶﾏﾁｵｵﾉ","prefecture":"富山県","city":"高岡市","street":"福岡町大野"},{"zipCode":"9390117","prefectureKana":"ﾄﾔﾏｹﾝ","cityKana":"ﾀｶｵｶｼ","streetKana":"ﾌｸｵｶﾏﾁｵｵﾉ(ｻｸﾗｷﾞﾁｮｳ)","prefecture":"富山県","city":"高岡市","street":"福岡町大野（桜木町）"},{"zipCode":"9390117","prefectureKana":"ﾄﾔﾏｹﾝ","cityKana":"ﾀｶｵｶｼ","streetKana":"ﾌｸｵｶﾏﾁｵｵﾉ(ﾜｾﾀﾞﾏﾁ)","prefecture":"富山県","city":"高岡市","street":"福岡町大野（早稲田町）"},{"zipCode":"9390133","prefectureKana":"ﾄﾔﾏｹﾝ","cityKana":"ﾀｶｵｶｼ","streetKana":"ﾌｸｵｶﾏﾁｶｲﾎﾂ","prefecture":"富山県","city":"高岡市","street":"福岡町開ほつ"},{"zipCode":"9390127","prefectureKana":"ﾄﾔﾏｹﾝ","cityKana":"ﾀｶｵｶｼ","streetKana":"ﾌｸｵｶﾏﾁｶﾐﾐﾉ","prefecture":"富山県","city":"高岡市","street":"福岡町上蓑"},{"zipCode":"9390113","prefectureKana":"ﾄﾔﾏｹﾝ","cityKana":"ﾀｶｵｶｼ","streetKana":"ﾌｸｵｶﾏﾁｶﾐﾐﾉ(ｽｴﾋﾛﾁｮｳ)","prefecture":"富山県","city":"高岡市","street":"福岡町上蓑（末広町）"},{"zipCode":"9390144","prefectureKana":"ﾄﾔﾏｹﾝ","cityKana":"ﾀｶｵｶｼ","streetKana":"ﾌｸｵｶﾏﾁｶﾐﾑｸﾀ","prefecture":"富山県","city":"高岡市","street":"福岡町上向田"},{"zipCode":"9390104","prefectureKana":"ﾄﾔﾏｹﾝ","cityKana":"ﾀｶｵｶｼ","streetKana":"ﾌｸｵｶﾏﾁｶﾓ","prefecture":"富山県","city":"高岡市","street":"福岡町加茂"},{"zipCode":"9390134","prefectureKana":"ﾄﾔﾏｹﾝ","cityKana":"ﾀｶｵｶｼ","streetKana":"ﾌｸｵｶﾏﾁｷﾌﾞﾈ","prefecture":"富山県","city":"高岡市","street":"福岡町木舟"},{"zipCode":"9390152","prefectureKana":"ﾄﾔﾏｹﾝ","cityKana":"ﾀｶｵｶｼ","streetKana":"ﾌｸｵｶﾏﾁｺﾞｲ","prefecture":"富山県","city":"高岡市","street":"福岡町五位"},{"zipCode":"9390124","prefectureKana":"ﾄﾔﾏｹﾝ","cityKana":"ﾀｶｵｶｼ","streetKana":"ﾌｸｵｶﾏﾁｺｲｾﾘｮｳ","prefecture":"富山県","city":"高岡市","street":"福岡町小伊勢領"},{"zipCode":"9390156","prefectureKana":"ﾄﾔﾏｹﾝ","cityKana":"ﾀｶｵｶｼ","streetKana":"ﾌｸｵｶﾏﾁｺﾉ","prefecture":"富山県","city":"高岡市","street":"福岡町小野"},{"zipCode":"9390155","prefectureKana":"ﾄﾔﾏｹﾝ","cityKana":"ﾀｶｵｶｼ","streetKana":"ﾌｸｵｶﾏﾁｻｲﾐｮｳｼﾞ","prefecture":"富山県","city":"高岡市","street":"福岡町西明寺"},{"zipCode":"9390121","prefectureKana":"ﾄﾔﾏｹﾝ","cityKana":"ﾀｶｵｶｼ","streetKana":"ﾌｸｵｶﾏﾁｼﾓｵｲｺﾞ","prefecture":"富山県","city":"高岡市","street":"福岡町下老子"},{"zipCode":"9390116","prefectureKana":"ﾄﾔﾏｹﾝ","cityKana":"ﾀｶｵｶｼ","streetKana":"ﾌｸｵｶﾏﾁｼﾓﾐﾉ","prefecture":"富山県","city":"高岡市","street":"福岡町下蓑"},{"zipCode":"9390115","prefectureKana":"ﾄﾔﾏｹﾝ","cityKana":"ﾀｶｵｶｼ","streetKana":"ﾌｸｵｶﾏﾁｼﾓﾐﾉ(ｼﾝｻｶｴﾏﾁ)","prefecture":"富山県","city":"高岡市","street":"福岡町下蓑（新栄町）"},{"zipCode":"9390113","prefectureKana":"ﾄﾔﾏｹﾝ","cityKana":"ﾀｶｵｶｼ","streetKana":"ﾌｸｵｶﾏﾁｼﾓﾐﾉ(ｽｴﾋﾛﾁｮｳ)","prefecture":"富山県","city":"高岡市","street":"福岡町下蓑（末広町）"},{"zipCode":"9390113","prefectureKana":"ﾄﾔﾏｹﾝ","cityKana":"ﾀｶｵｶｼ","streetKana":"ﾌｸｵｶﾏﾁｼﾓﾐﾉ(ﾅｶｼﾞﾏﾏﾁ)","prefecture":"富山県","city":"高岡市","street":"福岡町下蓑（中島町）"},{"zipCode":"9390113","prefectureKana":"ﾄﾔﾏｹﾝ","cityKana":"ﾀｶｵｶｼ","streetKana":"ﾌｸｵｶﾏﾁｼﾓﾐﾉ(ﾓﾄﾏﾁ)","prefecture":"富山県","city":"高岡市","street":"福岡町下蓑（元町）"},{"zipCode":"9390115","prefectureKana":"ﾄﾔﾏｹﾝ","cityKana":"ﾀｶｵｶｼ","streetKana":"ﾌｸｵｶﾏﾁｼﾓﾐﾉｼﾝ","prefecture":"富山県","city":"高岡市","street":"福岡町下蓑新"},{"zipCode":"9390112","prefectureKana":"ﾄﾔﾏｹﾝ","cityKana":"ﾀｶｵｶｼ","streetKana":"ﾌｸｵｶﾏﾁｼﾓﾐﾉｼﾝ(ｵﾓﾃﾓﾄﾏﾁ)","prefecture":"富山県","city":"高岡市","street":"福岡町下蓑新（表元町）"},{"zipCode":"9390115","prefectureKana":"ﾄﾔﾏｹﾝ","cityKana":"ﾀｶｵｶｼ","streetKana":"ﾌｸｵｶﾏﾁｼﾓﾐﾉｼﾝ(ｼﾝｻｶｴﾏﾁ)","prefecture":"富山県","city":"高岡市","street":"福岡町下蓑新（新栄町）"},{"zipCode":"9390113","prefectureKana":"ﾄﾔﾏｹﾝ","cityKana":"ﾀｶｵｶｼ","streetKana":"ﾌｸｵｶﾏﾁｼﾓﾐﾉｼﾝ(ｽｴﾋﾛﾁｮｳ)","prefecture":"富山県","city":"高岡市","street":"福岡町下蓑新（末広町）"},{"zipCode":"9390143","prefectureKana":"ﾄﾔﾏｹﾝ","cityKana":"ﾀｶｵｶｼ","streetKana":"ﾌｸｵｶﾏﾁｼﾓﾑｸﾀ","prefecture":"富山県","city":"高岡市","street":"福岡町下向田"},{"zipCode":"9390151","prefectureKana":"ﾄﾔﾏｹﾝ","cityKana":"ﾀｶｵｶｼ","streetKana":"ﾌｸｵｶﾏﾁｿｳｺﾞｳ","prefecture":"富山県","city":"高岡市","street":"福岡町沢川"},{"zipCode":"9390142","prefectureKana":"ﾄﾔﾏｹﾝ","cityKana":"ﾀｶｵｶｼ","streetKana":"ﾌｸｵｶﾏﾁﾂﾁﾔ","prefecture":"富山県","city":"高岡市","street":"福岡町土屋"},{"zipCode":"9390154","prefectureKana":"ﾄﾔﾏｹﾝ","cityKana":"ﾀｶｵｶｼ","streetKana":"ﾌｸｵｶﾏﾁﾄﾁｵｶ","prefecture":"富山県","city":"高岡市","street":"福岡町栃丘"},{"zipCode":"9390141","prefectureKana":"ﾄﾔﾏｹﾝ","cityKana":"ﾀｶｵｶｼ","streetKana":"ﾌｸｵｶﾏﾁﾄﾘｸﾗ","prefecture":"富山県","city":"高岡市","street":"福岡町鳥倉"},{"zipCode":"9390103","prefectureKana":"ﾄﾔﾏｹﾝ","cityKana":"ﾀｶｵｶｼ","streetKana":"ﾌｸｵｶﾏﾁﾆｼ","prefecture":"富山県","city":"高岡市","street":"福岡町西"},{"zipCode":"9390123","prefectureKana":"ﾄﾔﾏｹﾝ","cityKana":"ﾀｶｵｶｼ","streetKana":"ﾌｸｵｶﾏﾁﾆｼｶﾜﾗｼﾞﾏ","prefecture":"富山県","city":"高岡市","street":"福岡町西川原島"},{"zipCode":"9390153","prefectureKana":"ﾄﾔﾏｹﾝ","cityKana":"ﾀｶｵｶｼ","streetKana":"ﾌｸｵｶﾏﾁﾊﾅｵ","prefecture":"富山県","city":"高岡市","street":"福岡町花尾"},{"zipCode":"9390105","prefectureKana":"ﾄﾔﾏｹﾝ","cityKana":"ﾀｶｵｶｼ","streetKana":"ﾌｸｵｶﾏﾁﾊﾞﾝﾊﾞ","prefecture":"富山県","city":"高岡市","street":"福岡町馬場"},{"zipCode":"9390111","prefectureKana":"ﾄﾔﾏｹﾝ","cityKana":"ﾀｶｵｶｼ","streetKana":"ﾌｸｵｶﾏﾁﾌｸｵｶ","prefecture":"富山県","city":"高岡市","street":"福岡町福岡"},{"zipCode":"9390111","prefectureKana":"ﾄﾔﾏｹﾝ","cityKana":"ﾀｶｵｶｼ","streetKana":"ﾌｸｵｶﾏﾁﾌｸｵｶ(ｱｻﾋﾏﾁ)","prefecture":"富山県","city":"高岡市","street":"福岡町福岡（旭町）"},{"zipCode":"9390111","prefectureKana":"ﾄﾔﾏｹﾝ","cityKana":"ﾀｶｵｶｼ","streetKana":"ﾌｸｵｶﾏﾁﾌｸｵｶ(ｵｵｸﾗﾁｮｳ)","prefecture":"富山県","city":"高岡市","street":"福岡町福岡（大蔵町）"},{"zipCode":"9390112","prefectureKana":"ﾄﾔﾏｹﾝ","cityKana":"ﾀｶｵｶｼ","streetKana":"ﾌｸｵｶﾏﾁﾌｸｵｶ(ｵﾓﾃﾓﾄﾏﾁ)","prefecture":"富山県","city":"高岡市","street":"福岡町福岡（表元町）"},{"zipCode":"9390111","prefectureKana":"ﾄﾔﾏｹﾝ","cityKana":"ﾀｶｵｶｼ","streetKana":"ﾌｸｵｶﾏﾁﾌｸｵｶ(ｼﾐｽﾞﾁｮｳ)","prefecture":"富山県","city":"高岡市","street":"福岡町福岡（清水町）"},{"zipCode":"9390113","prefectureKana":"ﾄﾔﾏｹﾝ","cityKana":"ﾀｶｵｶｼ","streetKana":"ﾌｸｵｶﾏﾁﾌｸｵｶ(ﾅｶｼﾞﾏﾏﾁ)","prefecture":"富山県","city":"高岡市","street":"福岡町福岡（中島町）"},{"zipCode":"9390111","prefectureKana":"ﾄﾔﾏｹﾝ","cityKana":"ﾀｶｵｶｼ","streetKana":"ﾌｸｵｶﾏﾁﾌｸｵｶ(ﾅｶﾏﾁ)","prefecture":"富山県","city":"高岡市","street":"福岡町福岡（中町）"},{"zipCode":"9390119","prefectureKana":"ﾄﾔﾏｹﾝ","cityKana":"ﾀｶｵｶｼ","streetKana":"ﾌｸｵｶﾏﾁﾌｸｵｶ(ﾆｼﾁｮｳ)","prefecture":"富山県","city":"高岡市","street":"福岡町福岡（西町）"},{"zipCode":"9390119","prefectureKana":"ﾄﾔﾏｹﾝ","cityKana":"ﾀｶｵｶｼ","streetKana":"ﾌｸｵｶﾏﾁﾌｸｵｶ(ﾎﾘｶﾜﾁｮｳ)","prefecture":"富山県","city":"高岡市","street":"福岡町福岡（堀川町）"},{"zipCode":"9390117","prefectureKana":"ﾄﾔﾏｹﾝ","cityKana":"ﾀｶｵｶｼ","streetKana":"ﾌｸｵｶﾏﾁﾌｸｵｶｼﾝ","prefecture":"富山県","city":"高岡市","street":"福岡町福岡新"},{"zipCode":"9390111","prefectureKana":"ﾄﾔﾏｹﾝ","cityKana":"ﾀｶｵｶｼ","streetKana":"ﾌｸｵｶﾏﾁﾌｸｵｶｼﾝ(ｱｻﾋﾏﾁ)","prefecture":"富山県","city":"高岡市","street":"福岡町福岡新（旭町）"},{"zipCode":"9390111","prefectureKana":"ﾄﾔﾏｹﾝ","cityKana":"ﾀｶｵｶｼ","streetKana":"ﾌｸｵｶﾏﾁﾌｸｵｶｼﾝ(ｵｵｸﾗﾁｮｳ)","prefecture":"富山県","city":"高岡市","street":"福岡町福岡新（大蔵町）"},{"zipCode":"9390117","prefectureKana":"ﾄﾔﾏｹﾝ","cityKana":"ﾀｶｵｶｼ","streetKana":"ﾌｸｵｶﾏﾁﾌｸｵｶｼﾝ(ｻｸﾗｷﾞﾁｮｳ)","prefecture":"富山県","city":"高岡市","street":"福岡町福岡新（桜木町）"},{"zipCode":"9390111","prefectureKana":"ﾄﾔﾏｹﾝ","cityKana":"ﾀｶｵｶｼ","streetKana":"ﾌｸｵｶﾏﾁﾌｸｵｶｼﾝ(ｼﾐｽﾞﾁｮｳ)","prefecture":"富山県","city":"高岡市","street":"福岡町福岡新（清水町）"},{"zipCode":"9390115","prefectureKana":"ﾄﾔﾏｹﾝ","cityKana":"ﾀｶｵｶｼ","streetKana":"ﾌｸｵｶﾏﾁﾌｸｵｶｼﾝ(ｼﾝｻｶｴﾏﾁ)","prefecture":"富山県","city":"高岡市","street":"福岡町福岡新（新栄町）"},{"zipCode":"9390112","prefectureKana":"ﾄﾔﾏｹﾝ","cityKana":"ﾀｶｵｶｼ","streetKana":"ﾌｸｵｶﾏﾁﾌｸｵｶｼﾝ(ﾁｭｳｵｳﾄﾞｵﾘ)","prefecture":"富山県","city":"高岡市","street":"福岡町福岡新（中央通り）"},{"zipCode":"9390119","prefectureKana":"ﾄﾔﾏｹﾝ","cityKana":"ﾀｶｵｶｼ","streetKana":"ﾌｸｵｶﾏﾁﾌｸｵｶｼﾝ(ﾆｼﾁｮｳ)","prefecture":"富山県","city":"高岡市","street":"福岡町福岡新（西町）"},{"zipCode":"9390117","prefectureKana":"ﾄﾔﾏｹﾝ","cityKana":"ﾀｶｵｶｼ","streetKana":"ﾌｸｵｶﾏﾁﾌｸｵｶｼﾝ(ﾆｼﾎｼﾊﾞ)","prefecture":"富山県","city":"高岡市","street":"福岡町福岡新（西干場）"},{"zipCode":"9390119","prefectureKana":"ﾄﾔﾏｹﾝ","cityKana":"ﾀｶｵｶｼ","streetKana":"ﾌｸｵｶﾏﾁﾌｸｵｶｼﾝ(ﾊｼｶﾞﾐﾁｮｳ)","prefecture":"富山県","city":"高岡市","street":"福岡町福岡新（橋上町）"},{"zipCode":"9390119","prefectureKana":"ﾄﾔﾏｹﾝ","cityKana":"ﾀｶｵｶｼ","streetKana":"ﾌｸｵｶﾏﾁﾌｸｵｶｼﾝ(ﾎﾘｶﾜﾁｮｳ)","prefecture":"富山県","city":"高岡市","street":"福岡町福岡新（堀川町）"},{"zipCode":"9390117","prefectureKana":"ﾄﾔﾏｹﾝ","cityKana":"ﾀｶｵｶｼ","streetKana":"ﾌｸｵｶﾏﾁﾌｸｵｶｼﾝ(ﾜｾﾀﾞﾏﾁ)","prefecture":"富山県","city":"高岡市","street":"福岡町福岡新（早稲田町）"},{"zipCode":"9390135","prefectureKana":"ﾄﾔﾏｹﾝ","cityKana":"ﾀｶｵｶｼ","streetKana":"ﾌｸｵｶﾏﾁﾎﾝﾘｮｳ","prefecture":"富山県","city":"高岡市","street":"福岡町本領"},{"zipCode":"9390106","prefectureKana":"ﾄﾔﾏｹﾝ","cityKana":"ﾀｶｵｶｼ","streetKana":"ﾌｸｵｶﾏﾁﾏｲﾉﾔ","prefecture":"富山県","city":"高岡市","street":"福岡町舞谷"},{"zipCode":"9390102","prefectureKana":"ﾄﾔﾏｹﾝ","cityKana":"ﾀｶｵｶｼ","streetKana":"ﾌｸｵｶﾏﾁﾐｯｶｲﾁ","prefecture":"富山県","city":"高岡市","street":"福岡町三日市"},{"zipCode":"9390126","prefectureKana":"ﾄﾔﾏｹﾝ","cityKana":"ﾀｶｵｶｼ","streetKana":"ﾌｸｵｶﾏﾁﾐﾉｼﾞﾏ","prefecture":"富山県","city":"高岡市","street":"福岡町蓑島"},{"zipCode":"9390125","prefectureKana":"ﾄﾔﾏｹﾝ","cityKana":"ﾀｶｵｶｼ","streetKana":"ﾌｸｵｶﾏﾁﾔﾍﾞ","prefecture":"富山県","city":"高岡市","street":"福岡町矢部"},{"zipCode":"9391253","prefectureKana":"ﾄﾔﾏｹﾝ","cityKana":"ﾀｶｵｶｼ","streetKana":"ﾜｶｽｷﾞ","prefecture":"富山県","city":"高岡市","street":"若杉"},{"zipCode":"9391300","prefectureKana":"ﾄﾔﾏｹﾝ","cityKana":"ﾄﾅﾐｼ","streetKana":"ｲｶﾆｹｲｻｲｶﾞﾅｲﾊﾞｱｲ","prefecture":"富山県","city":"砺波市","street":"以下に掲載がない場合"},{"zipCode":"9391304","prefectureKana":"ﾄﾔﾏｹﾝ","cityKana":"ﾄﾅﾐｼ","streetKana":"ｱｷﾓﾄ","prefecture":"富山県","city":"砺波市","street":"秋元"},{"zipCode":"9391422","prefectureKana":"ﾄﾔﾏｹﾝ","cityKana":"ﾄﾅﾐｼ","streetKana":"ｱｻﾝﾀﾆ","prefecture":"富山県","city":"砺波市","street":"浅谷"},{"zipCode":"9391324","prefectureKana":"ﾄﾔﾏｹﾝ","cityKana":"ﾄﾅﾐｼ","streetKana":"ｱﾗﾀﾞｶﾔ","prefecture":"富山県","city":"砺波市","street":"荒高屋"},{"zipCode":"9391372","prefectureKana":"ﾄﾔﾏｹﾝ","cityKana":"ﾄﾅﾐｼ","streetKana":"ｱﾗﾏﾀ","prefecture":"富山県","city":"砺波市","street":"新又"},{"zipCode":"9391425","prefectureKana":"ﾄﾔﾏｹﾝ","cityKana":"ﾄﾅﾐｼ","streetKana":"ｲｸﾞﾘﾀﾞﾆ","prefecture":"富山県","city":"砺波市","street":"井栗谷"},{"zipCode":"9391415","prefectureKana":"ﾄﾔﾏｹﾝ","cityKana":"ﾄﾅﾐｼ","streetKana":"ｲｹﾉﾊﾗ","prefecture":"富山県","city":"砺波市","street":"池原"},{"zipCode":"9391301","prefectureKana":"ﾄﾔﾏｹﾝ","cityKana":"ﾄﾅﾐｼ","streetKana":"ｲｼﾏﾙ","prefecture":"富山県","city":"砺波市","street":"石丸"},{"zipCode":"9391413","prefectureKana":"ﾄﾔﾏｹﾝ","cityKana":"ﾄﾅﾐｼ","streetKana":"ｲﾁﾉﾀﾆ","prefecture":"富山県","city":"砺波市","street":"市谷"},{"zipCode":"9391373","prefectureKana":"ﾄﾔﾏｹﾝ","cityKana":"ﾄﾅﾐｼ","streetKana":"ｲﾁﾊﾞﾝﾏﾁ","prefecture":"富山県","city":"砺波市","street":"一番町"},{"zipCode":"9391332","prefectureKana":"ﾄﾔﾏｹﾝ","cityKana":"ﾄﾅﾐｼ","streetKana":"ｴｲﾌｸﾁｮｳ","prefecture":"富山県","city":"砺波市","street":"永福町"},{"zipCode":"9391316","prefectureKana":"ﾄﾔﾏｹﾝ","cityKana":"ﾄﾅﾐｼ","streetKana":"ｵｵｶﾄﾞ","prefecture":"富山県","city":"砺波市","street":"大門"},{"zipCode":"9391303","prefectureKana":"ﾄﾔﾏｹﾝ","cityKana":"ﾄﾅﾐｼ","streetKana":"ｵｵｸﾎﾞ","prefecture":"富山県","city":"砺波市","street":"大窪"},{"zipCode":"9391315","prefectureKana":"ﾄﾔﾏｹﾝ","cityKana":"ﾄﾅﾐｼ","streetKana":"ｵｵﾀ","prefecture":"富山県","city":"砺波市","street":"太田"},{"zipCode":"9391328","prefectureKana":"ﾄﾔﾏｹﾝ","cityKana":"ﾄﾅﾐｼ","streetKana":"ｵｵﾂｼﾞ","prefecture":"富山県","city":"砺波市","street":"大辻"},{"zipCode":"9391342","prefectureKana":"ﾄﾔﾏｹﾝ","cityKana":"ﾄﾅﾐｼ","streetKana":"ｵｼﾞﾏ","prefecture":"富山県","city":"砺波市","street":"小島"},{"zipCode":"9391366","prefectureKana":"ﾄﾔﾏｹﾝ","cityKana":"ﾄﾅﾐｼ","streetKana":"ｵﾓﾃﾏﾁ","prefecture":"富山県","city":"砺波市","street":"表町"},{"zipCode":"9391326","prefectureKana":"ﾄﾔﾏｹﾝ","cityKana":"ﾄﾅﾐｼ","streetKana":"ｶﾉｼﾏ","prefecture":"富山県","city":"砺波市","street":"鹿島"},{"zipCode":"9391337","prefectureKana":"ﾄﾔﾏｹﾝ","cityKana":"ﾄﾅﾐｼ","streetKana":"ｶﾐｼﾞﾏ","prefecture":"富山県","city":"砺波市","street":"神島"},{"zipCode":"9391323","prefectureKana":"ﾄﾔﾏｹﾝ","cityKana":"ﾄﾅﾐｼ","streetKana":"ｶﾐﾅｶﾉ","prefecture":"富山県","city":"砺波市","street":"上中野"},{"zipCode":"9391411","prefectureKana":"ﾄﾔﾏｹﾝ","cityKana":"ﾄﾅﾐｼ","streetKana":"ｶﾐﾜﾀﾞ","prefecture":"富山県","city":"砺波市","street":"上和田"},{"zipCode":"9391346","prefectureKana":"ﾄﾔﾏｹﾝ","cityKana":"ﾄﾅﾐｼ","streetKana":"ｷﾂﾈｼﾞﾏ","prefecture":"富山県","city":"砺波市","street":"狐島"},{"zipCode":"9391358","prefectureKana":"ﾄﾔﾏｹﾝ","cityKana":"ﾄﾅﾐｼ","streetKana":"ｷﾉｼﾀ","prefecture":"富山県","city":"砺波市","street":"木下"},{"zipCode":"9391426","prefectureKana":"ﾄﾔﾏｹﾝ","cityKana":"ﾄﾅﾐｼ","streetKana":"ｺｳﾁ","prefecture":"富山県","city":"砺波市","street":"川内"},{"zipCode":"9391357","prefectureKana":"ﾄﾔﾏｹﾝ","cityKana":"ﾄﾅﾐｼ","streetKana":"ｺｽｷﾞ","prefecture":"富山県","city":"砺波市","street":"小杉"},{"zipCode":"9391428","prefectureKana":"ﾄﾔﾏｹﾝ","cityKana":"ﾄﾅﾐｼ","streetKana":"ｺﾞﾀﾆ","prefecture":"富山県","city":"砺波市","street":"五谷"},{"zipCode":"9391377","prefectureKana":"ﾄﾔﾏｹﾝ","cityKana":"ﾄﾅﾐｼ","streetKana":"ｺﾄﾌﾞｷﾁｮｳ","prefecture":"富山県","city":"砺波市","street":"寿町"},{"zipCode":"9391327","prefectureKana":"ﾄﾔﾏｹﾝ","cityKana":"ﾄﾅﾐｼ","streetKana":"ｺﾞﾛﾏﾙ","prefecture":"富山県","city":"砺波市","street":"五郎丸"},{"zipCode":"9391407","prefectureKana":"ﾄﾔﾏｹﾝ","cityKana":"ﾄﾅﾐｼ","streetKana":"ｺﾞﾝｼｮｳｼﾞ","prefecture":"富山県","city":"砺波市","street":"権正寺"},{"zipCode":"9391386","prefectureKana":"ﾄﾔﾏｹﾝ","cityKana":"ﾄﾅﾐｼ","streetKana":"ｻｲﾜｲﾁｮｳ","prefecture":"富山県","city":"砺波市","street":"幸町"},{"zipCode":"9391371","prefectureKana":"ﾄﾔﾏｹﾝ","cityKana":"ﾄﾅﾐｼ","streetKana":"ｻｶｴﾏﾁ","prefecture":"富山県","city":"砺波市","street":"栄町"},{"zipCode":"9391308","prefectureKana":"ﾄﾔﾏｹﾝ","cityKana":"ﾄﾅﾐｼ","streetKana":"ｻﾌﾞﾛﾏﾙ","prefecture":"富山県","city":"砺波市","street":"三郎丸"},{"zipCode":"9391374","prefectureKana":"ﾄﾔﾏｹﾝ","cityKana":"ﾄﾅﾐｼ","streetKana":"ｻﾝﾉｳﾏﾁ","prefecture":"富山県","city":"砺波市","street":"山王町"},{"zipCode":"9391347","prefectureKana":"ﾄﾔﾏｹﾝ","cityKana":"ﾄﾅﾐｼ","streetKana":"ｼﾓﾅｶ","prefecture":"富山県","city":"砺波市","street":"下中"},{"zipCode":"9391311","prefectureKana":"ﾄﾔﾏｹﾝ","cityKana":"ﾄﾅﾐｼ","streetKana":"ｼﾓﾅｶｼﾞｮｳ","prefecture":"富山県","city":"砺波市","street":"下中条"},{"zipCode":"9391353","prefectureKana":"ﾄﾔﾏｹﾝ","cityKana":"ﾄﾅﾐｼ","streetKana":"ｼﾞｭｳﾈﾝﾐｮｳ","prefecture":"富山県","city":"砺波市","street":"十年明"},{"zipCode":"9391412","prefectureKana":"ﾄﾔﾏｹﾝ","cityKana":"ﾄﾅﾐｼ","streetKana":"ｼｮｳｺﾞﾝｼﾞ","prefecture":"富山県","city":"砺波市","street":"正権寺"},{"zipCode":"9391354","prefectureKana":"ﾄﾔﾏｹﾝ","cityKana":"ﾄﾅﾐｼ","streetKana":"ｼﾝｻｶｴﾏﾁ","prefecture":"富山県","city":"砺波市","street":"新栄町"},{"zipCode":"9391343","prefectureKana":"ﾄﾔﾏｹﾝ","cityKana":"ﾄﾅﾐｼ","streetKana":"ｼﾝﾄﾐﾁｮｳ","prefecture":"富山県","city":"砺波市","street":"新富町"},{"zipCode":"9391321","prefectureKana":"ﾄﾔﾏｹﾝ","cityKana":"ﾄﾅﾐｼ","streetKana":"ｼﾝﾐｮｳ","prefecture":"富山県","city":"砺波市","street":"新明"},{"zipCode":"9391355","prefectureKana":"ﾄﾔﾏｹﾝ","cityKana":"ﾄﾅﾐｼ","streetKana":"ｽｷﾞﾉｷ","prefecture":"富山県","city":"砺波市","street":"杉木"},{"zipCode":"9391416","prefectureKana":"ﾄﾔﾏｹﾝ","cityKana":"ﾄﾅﾐｼ","streetKana":"ｾﾘﾀﾞﾆ","prefecture":"富山県","city":"砺波市","street":"芹谷"},{"zipCode":"9391351","prefectureKana":"ﾄﾔﾏｹﾝ","cityKana":"ﾄﾅﾐｼ","streetKana":"ｾﾝﾀﾞｲ","prefecture":"富山県","city":"砺波市","street":"千代"},{"zipCode":"9391305","prefectureKana":"ﾄﾔﾏｹﾝ","cityKana":"ﾄﾅﾐｼ","streetKana":"ｾﾝﾎﾞ","prefecture":"富山県","city":"砺波市","street":"千保"},{"zipCode":"9391318","prefectureKana":"ﾄﾔﾏｹﾝ","cityKana":"ﾄﾅﾐｼ","streetKana":"ｿｲｽﾞﾐ","prefecture":"富山県","city":"砺波市","street":"祖泉"},{"zipCode":"9391341","prefectureKana":"ﾄﾔﾏｹﾝ","cityKana":"ﾄﾅﾐｼ","streetKana":"ﾀｶﾅﾐ","prefecture":"富山県","city":"砺波市","street":"高波"},{"zipCode":"9391335","prefectureKana":"ﾄﾔﾏｹﾝ","cityKana":"ﾄﾅﾐｼ","streetKana":"ﾀｶﾉｽ","prefecture":"富山県","city":"砺波市","street":"鷹栖"},{"zipCode":"9391338","prefectureKana":"ﾄﾔﾏｹﾝ","cityKana":"ﾄﾅﾐｼ","streetKana":"ﾀｶﾉｽﾃﾞ","prefecture":"富山県","city":"砺波市","street":"鷹栖出"},{"zipCode":"9391383","prefectureKana":"ﾄﾔﾏｹﾝ","cityKana":"ﾄﾅﾐｼ","streetKana":"ﾀｶﾝﾄﾞ","prefecture":"富山県","city":"砺波市","street":"高道"},{"zipCode":"9391363","prefectureKana":"ﾄﾔﾏｹﾝ","cityKana":"ﾄﾅﾐｼ","streetKana":"ﾀﾛｳﾏﾙ","prefecture":"富山県","city":"砺波市","street":"太郎丸"},{"zipCode":"9391437","prefectureKana":"ﾄﾔﾏｹﾝ","cityKana":"ﾄﾅﾐｼ","streetKana":"ﾁｬﾉｷ","prefecture":"富山県","city":"砺波市","street":"茶ノ木"},{"zipCode":"9391375","prefectureKana":"ﾄﾔﾏｹﾝ","cityKana":"ﾄﾅﾐｼ","streetKana":"ﾁｭｳｵｳﾏﾁ","prefecture":"富山県","city":"砺波市","street":"中央町"},{"zipCode":"9391414","prefectureKana":"ﾄﾔﾏｹﾝ","cityKana":"ﾄﾅﾐｼ","streetKana":"ﾂﾎﾞﾉ","prefecture":"富山県","city":"砺波市","street":"坪野"},{"zipCode":"9391384","prefectureKana":"ﾄﾔﾏｹﾝ","cityKana":"ﾄﾅﾐｼ","streetKana":"ﾂﾎﾞﾉｳﾁ","prefecture":"富山県","city":"砺波市","street":"坪内"},{"zipCode":"9391379","prefectureKana":"ﾄﾔﾏｹﾝ","cityKana":"ﾄﾅﾐｼ","streetKana":"ﾃﾞﾏﾁﾁｭｳｵｳ","prefecture":"富山県","city":"砺波市","street":"出町中央"},{"zipCode":"9391429","prefectureKana":"ﾄﾔﾏｹﾝ","cityKana":"ﾄﾅﾐｼ","streetKana":"ﾃﾗｵ","prefecture":"富山県","city":"砺波市","street":"寺尾"},{"zipCode":"9391432","prefectureKana":"ﾄﾔﾏｹﾝ","cityKana":"ﾄﾅﾐｼ","streetKana":"ﾄｸﾏﾝ","prefecture":"富山県","city":"砺波市","street":"徳万"},{"zipCode":"9391433","prefectureKana":"ﾄﾔﾏｹﾝ","cityKana":"ﾄﾅﾐｼ","streetKana":"ﾄｸﾏﾝｼﾝ","prefecture":"富山県","city":"砺波市","street":"徳万新"},{"zipCode":"9391424","prefectureKana":"ﾄﾔﾏｹﾝ","cityKana":"ﾄﾅﾐｼ","streetKana":"ﾄﾁｱｹﾞ","prefecture":"富山県","city":"砺波市","street":"栃上"},{"zipCode":"9391387","prefectureKana":"ﾄﾔﾏｹﾝ","cityKana":"ﾄﾅﾐｼ","streetKana":"ﾄﾅﾐﾏﾁ","prefecture":"富山県","city":"砺波市","street":"となみ町"},{"zipCode":"9391344","prefectureKana":"ﾄﾔﾏｹﾝ","cityKana":"ﾄﾅﾐｼ","streetKana":"ﾅｶｶﾞﾐ","prefecture":"富山県","city":"砺波市","street":"中神"},{"zipCode":"9391322","prefectureKana":"ﾄﾔﾏｹﾝ","cityKana":"ﾄﾅﾐｼ","streetKana":"ﾅｶﾉ","prefecture":"富山県","city":"砺波市","street":"中野"},{"zipCode":"9391381","prefectureKana":"ﾄﾔﾏｹﾝ","cityKana":"ﾄﾅﾐｼ","streetKana":"ﾅｶﾑﾗ","prefecture":"富山県","city":"砺波市","street":"中村"},{"zipCode":"9391362","prefectureKana":"ﾄﾔﾏｹﾝ","cityKana":"ﾄﾅﾐｼ","streetKana":"ﾅﾍﾞｼﾏ","prefecture":"富山県","city":"砺波市","street":"鍋島"},{"zipCode":"9391336","prefectureKana":"ﾄﾔﾏｹﾝ","cityKana":"ﾄﾅﾐｼ","streetKana":"ﾆｼﾅｶ","prefecture":"富山県","city":"砺波市","street":"西中"},{"zipCode":"9391333","prefectureKana":"ﾄﾔﾏｹﾝ","cityKana":"ﾄﾅﾐｼ","streetKana":"ﾉｳｶ","prefecture":"富山県","city":"砺波市","street":"苗加"},{"zipCode":"9391334","prefectureKana":"ﾄﾔﾏｹﾝ","cityKana":"ﾄﾅﾐｼ","streetKana":"ﾉﾑﾗｼﾞﾏ","prefecture":"富山県","city":"砺波市","street":"野村島"},{"zipCode":"9391408","prefectureKana":"ﾄﾔﾏｹﾝ","cityKana":"ﾄﾅﾐｼ","streetKana":"ﾊﾁｼﾞｭｳﾌﾞ","prefecture":"富山県","city":"砺波市","street":"八十歩"},{"zipCode":"9391325","prefectureKana":"ﾄﾔﾏｹﾝ","cityKana":"ﾄﾅﾐｼ","streetKana":"ﾊﾅｼﾞﾏ","prefecture":"富山県","city":"砺波市","street":"花島"},{"zipCode":"9391382","prefectureKana":"ﾄﾔﾏｹﾝ","cityKana":"ﾄﾅﾐｼ","streetKana":"ﾊﾅｿﾞﾉﾏﾁ","prefecture":"富山県","city":"砺波市","street":"花園町"},{"zipCode":"9391345","prefectureKana":"ﾄﾔﾏｹﾝ","cityKana":"ﾄﾅﾐｼ","streetKana":"ﾊﾔｼ","prefecture":"富山県","city":"砺波市","street":"林"},{"zipCode":"9391378","prefectureKana":"ﾄﾔﾏｹﾝ","cityKana":"ﾄﾅﾐｼ","streetKana":"ﾊﾙﾋﾏﾁ","prefecture":"富山県","city":"砺波市","street":"春日町"},{"zipCode":"9391302","prefectureKana":"ﾄﾔﾏｹﾝ","cityKana":"ﾄﾅﾐｼ","streetKana":"ﾋｶﾞｼｲｼﾏﾙ","prefecture":"富山県","city":"砺波市","street":"東石丸"},{"zipCode":"9391312","prefectureKana":"ﾄﾔﾏｹﾝ","cityKana":"ﾄﾅﾐｼ","streetKana":"ﾋｶﾞｼｶｲﾎﾂ","prefecture":"富山県","city":"砺波市","street":"東開発"},{"zipCode":"9391385","prefectureKana":"ﾄﾔﾏｹﾝ","cityKana":"ﾄﾅﾐｼ","streetKana":"ﾋｶﾞｼｻｲﾜｲﾁｮｳ","prefecture":"富山県","city":"砺波市","street":"東幸町"},{"zipCode":"9391348","prefectureKana":"ﾄﾔﾏｹﾝ","cityKana":"ﾄﾅﾐｼ","streetKana":"ﾋｶﾞｼﾅｶ","prefecture":"富山県","city":"砺波市","street":"東中"},{"zipCode":"9391423","prefectureKana":"ﾄﾔﾏｹﾝ","cityKana":"ﾄﾅﾐｼ","streetKana":"ﾋｶﾞｼﾍﾞｯｼｮ","prefecture":"富山県","city":"砺波市","street":"東別所"},{"zipCode":"9391421","prefectureKana":"ﾄﾔﾏｹﾝ","cityKana":"ﾄﾅﾐｼ","streetKana":"ﾋｶﾞｼﾍﾞｯｼｮｼﾝ","prefecture":"富山県","city":"砺波市","street":"東別所新"},{"zipCode":"9391401","prefectureKana":"ﾄﾔﾏｹﾝ","cityKana":"ﾄﾅﾐｼ","streetKana":"ﾋｶﾞｼﾎﾞ","prefecture":"富山県","city":"砺波市","street":"東保"},{"zipCode":"9391314","prefectureKana":"ﾄﾔﾏｹﾝ","cityKana":"ﾄﾅﾐｼ","streetKana":"ﾋｻｲｽﾞﾐ","prefecture":"富山県","city":"砺波市","street":"久泉"},{"zipCode":"9391367","prefectureKana":"ﾄﾔﾏｹﾝ","cityKana":"ﾄﾅﾐｼ","streetKana":"ﾋﾛｶﾐﾁｮｳ","prefecture":"富山県","city":"砺波市","street":"広上町"},{"zipCode":"9391331","prefectureKana":"ﾄﾔﾏｹﾝ","cityKana":"ﾄﾅﾐｼ","streetKana":"ﾌｶｴ","prefecture":"富山県","city":"砺波市","street":"深江"},{"zipCode":"9391405","prefectureKana":"ﾄﾔﾏｹﾝ","cityKana":"ﾄﾅﾐｼ","streetKana":"ﾌｸｵｶ","prefecture":"富山県","city":"砺波市","street":"福岡"},{"zipCode":"9391436","prefectureKana":"ﾄﾔﾏｹﾝ","cityKana":"ﾄﾅﾐｼ","streetKana":"ﾌｸﾔﾏ","prefecture":"富山県","city":"砺波市","street":"福山"},{"zipCode":"9391427","prefectureKana":"ﾄﾔﾏｹﾝ","cityKana":"ﾄﾅﾐｼ","streetKana":"ﾌｼｷﾀﾞﾆ","prefecture":"富山県","city":"砺波市","street":"伏木谷"},{"zipCode":"9391361","prefectureKana":"ﾄﾔﾏｹﾝ","cityKana":"ﾄﾅﾐｼ","streetKana":"ﾍｲｾｲﾁｮｳ","prefecture":"富山県","city":"砺波市","street":"平成町"},{"zipCode":"9391376","prefectureKana":"ﾄﾔﾏｹﾝ","cityKana":"ﾄﾅﾐｼ","streetKana":"ﾍｲﾜﾏﾁ","prefecture":"富山県","city":"砺波市","street":"平和町"},{"zipCode":"9391307","prefectureKana":"ﾄﾔﾏｹﾝ","cityKana":"ﾄﾅﾐｼ","streetKana":"ﾎﾘﾉｳﾁ","prefecture":"富山県","city":"砺波市","street":"堀内"},{"zipCode":"9391368","prefectureKana":"ﾄﾔﾏｹﾝ","cityKana":"ﾄﾅﾐｼ","streetKana":"ﾎﾝﾏﾁ","prefecture":"富山県","city":"砺波市","street":"本町"},{"zipCode":"9391402","prefectureKana":"ﾄﾔﾏｹﾝ","cityKana":"ﾄﾅﾐｼ","streetKana":"ﾏｽﾔﾏ","prefecture":"富山県","city":"砺波市","street":"増山"},{"zipCode":"9391434","prefectureKana":"ﾄﾔﾏｹﾝ","cityKana":"ﾄﾅﾐｼ","streetKana":"ﾐｱｲ","prefecture":"富山県","city":"砺波市","street":"三合"},{"zipCode":"9391435","prefectureKana":"ﾄﾔﾏｹﾝ","cityKana":"ﾄﾅﾐｼ","streetKana":"ﾐｱｲｼﾝ","prefecture":"富山県","city":"砺波市","street":"三合新"},{"zipCode":"9391365","prefectureKana":"ﾄﾔﾏｹﾝ","cityKana":"ﾄﾅﾐｼ","streetKana":"ﾐｼﾏﾏﾁ","prefecture":"富山県","city":"砺波市","street":"三島町"},{"zipCode":"9391388","prefectureKana":"ﾄﾔﾏｹﾝ","cityKana":"ﾄﾅﾐｼ","streetKana":"ﾐﾔｻﾞﾜﾁｮｳ","prefecture":"富山県","city":"砺波市","street":"宮沢町"},{"zipCode":"9391403","prefectureKana":"ﾄﾔﾏｹﾝ","cityKana":"ﾄﾅﾐｼ","streetKana":"ﾐﾔｼﾝ","prefecture":"富山県","city":"砺波市","street":"宮新"},{"zipCode":"9391352","prefectureKana":"ﾄﾔﾏｹﾝ","cityKana":"ﾄﾅﾐｼ","streetKana":"ﾐﾔﾏﾙ","prefecture":"富山県","city":"砺波市","street":"宮丸"},{"zipCode":"9391306","prefectureKana":"ﾄﾔﾏｹﾝ","cityKana":"ﾄﾅﾐｼ","streetKana":"ﾐﾔﾑﾗ","prefecture":"富山県","city":"砺波市","street":"宮村"},{"zipCode":"9391406","prefectureKana":"ﾄﾔﾏｹﾝ","cityKana":"ﾄﾅﾐｼ","streetKana":"ﾐﾔﾓﾘ","prefecture":"富山県","city":"砺波市","street":"宮森"},{"zipCode":"9391404","prefectureKana":"ﾄﾔﾏｹﾝ","cityKana":"ﾄﾅﾐｼ","streetKana":"ﾐﾔﾓﾘｼﾝ","prefecture":"富山県","city":"砺波市","street":"宮森新"},{"zipCode":"9391401","prefectureKana":"ﾄﾔﾏｹﾝ","cityKana":"ﾄﾅﾐｼ","streetKana":"ﾓﾄｺﾊﾞﾔｼ","prefecture":"富山県","city":"砺波市","street":"本小林"},{"zipCode":"9391317","prefectureKana":"ﾄﾔﾏｹﾝ","cityKana":"ﾄﾅﾐｼ","streetKana":"ﾔｷﾞ","prefecture":"富山県","city":"砺波市","street":"矢木"},{"zipCode":"9391438","prefectureKana":"ﾄﾔﾏｹﾝ","cityKana":"ﾄﾅﾐｼ","streetKana":"ﾔｽｶﾜ","prefecture":"富山県","city":"砺波市","street":"安川"},{"zipCode":"9391313","prefectureKana":"ﾄﾔﾏｹﾝ","cityKana":"ﾄﾅﾐｼ","streetKana":"ﾔﾅｾﾞ","prefecture":"富山県","city":"砺波市","street":"柳瀬"},{"zipCode":"9391364","prefectureKana":"ﾄﾔﾏｹﾝ","cityKana":"ﾄﾅﾐｼ","streetKana":"ﾕﾀｶﾏﾁ","prefecture":"富山県","city":"砺波市","street":"豊町"},{"zipCode":"9391431","prefectureKana":"ﾄﾔﾏｹﾝ","cityKana":"ﾄﾅﾐｼ","streetKana":"ﾗﾝｼﾞｮｳ","prefecture":"富山県","city":"砺波市","street":"頼成"},{"zipCode":"9391417","prefectureKana":"ﾄﾔﾏｹﾝ","cityKana":"ﾄﾅﾐｼ","streetKana":"ﾗﾝｼﾞｮｳｼﾝ","prefecture":"富山県","city":"砺波市","street":"頼成新"},{"zipCode":"9391356","prefectureKana":"ﾄﾔﾏｹﾝ","cityKana":"ﾄﾅﾐｼ","streetKana":"ﾜｶｸｻﾏﾁ","prefecture":"富山県","city":"砺波市","street":"若草町"},{"zipCode":"9391600","prefectureKana":"ﾄﾔﾏｹﾝ","cityKana":"ﾅﾝﾄｼ","streetKana":"ｲｶﾆｹｲｻｲｶﾞﾅｲﾊﾞｱｲ","prefecture":"富山県","city":"南砺市","street":"以下に掲載がない場合"},{"zipCode":"9391915","prefectureKana":"ﾄﾔﾏｹﾝ","cityKana":"ﾅﾝﾄｼ","streetKana":"ｱｲﾉｸﾗ","prefecture":"富山県","city":"南砺市","street":"相倉"},{"zipCode":"9391751","prefectureKana":"ﾄﾔﾏｹﾝ","cityKana":"ﾅﾝﾄｼ","streetKana":"ｱｶｻｶ","prefecture":"富山県","city":"南砺市","street":"赤坂"},{"zipCode":"9391701","prefectureKana":"ﾄﾔﾏｹﾝ","cityKana":"ﾅﾝﾄｼ","streetKana":"ｱｿﾌﾞ","prefecture":"富山県","city":"南砺市","street":"遊部"},{"zipCode":"9391622","prefectureKana":"ﾄﾔﾏｹﾝ","cityKana":"ﾅﾝﾄｼ","streetKana":"ｱｿﾌﾞｶﾜﾗ","prefecture":"富山県","city":"南砺市","street":"遊部川原"},{"zipCode":"9391976","prefectureKana":"ﾄﾔﾏｹﾝ","cityKana":"ﾅﾝﾄｼ","streetKana":"ｱﾀﾗｼﾔ","prefecture":"富山県","city":"南砺市","street":"新屋"},{"zipCode":"9391744","prefectureKana":"ﾄﾔﾏｹﾝ","cityKana":"ﾅﾝﾄｼ","streetKana":"ｱﾏｲｹ","prefecture":"富山県","city":"南砺市","street":"天池"},{"zipCode":"9391524","prefectureKana":"ﾄﾔﾏｹﾝ","cityKana":"ﾅﾝﾄｼ","streetKana":"ｱﾒｸｸﾞﾘ","prefecture":"富山県","city":"南砺市","street":"雨潜"},{"zipCode":"9391732","prefectureKana":"ﾄﾔﾏｹﾝ","cityKana":"ﾅﾝﾄｼ","streetKana":"ｱﾗｷ","prefecture":"富山県","city":"南砺市","street":"荒木"},{"zipCode":"9391716","prefectureKana":"ﾄﾔﾏｹﾝ","cityKana":"ﾅﾝﾄｼ","streetKana":"ｱﾗﾐｻｷ","prefecture":"富山県","city":"南砺市","street":"荒見崎"},{"zipCode":"9391711","prefectureKana":"ﾄﾔﾏｹﾝ","cityKana":"ﾅﾝﾄｼ","streetKana":"ｱﾘﾌｻ","prefecture":"富山県","city":"南砺市","street":"在房"},{"zipCode":"9391873","prefectureKana":"ﾄﾔﾏｹﾝ","cityKana":"ﾅﾝﾄｼ","streetKana":"ｲｹﾀﾞ","prefecture":"富山県","city":"南砺市","street":"池田"},{"zipCode":"9391871","prefectureKana":"ﾄﾔﾏｹﾝ","cityKana":"ﾅﾝﾄｼ","streetKana":"ｲｹﾉｼﾘ","prefecture":"富山県","city":"南砺市","street":"池尻"},{"zipCode":"9391535","prefectureKana":"ﾄﾔﾏｹﾝ","cityKana":"ﾅﾝﾄｼ","streetKana":"ｲｼﾀﾞ","prefecture":"富山県","city":"南砺市","street":"石田"},{"zipCode":"9391621","prefectureKana":"ﾄﾔﾏｹﾝ","cityKana":"ﾅﾝﾄｼ","streetKana":"ｲｽﾞﾐ","prefecture":"富山県","city":"南砺市","street":"和泉"},{"zipCode":"9391821","prefectureKana":"ﾄﾔﾏｹﾝ","cityKana":"ﾅﾝﾄｼ","streetKana":"ｲｽﾞﾐｻﾞﾜ","prefecture":"富山県","city":"南砺市","street":"泉沢"},{"zipCode":"9391673","prefectureKana":"ﾄﾔﾏｹﾝ","cityKana":"ﾅﾝﾄｼ","streetKana":"ｲﾄﾀﾞﾆｼﾝ","prefecture":"富山県","city":"南砺市","street":"糸谷新"},{"zipCode":"9391877","prefectureKana":"ﾄﾔﾏｹﾝ","cityKana":"ﾅﾝﾄｼ","streetKana":"ｲﾉｸﾁ","prefecture":"富山県","city":"南砺市","street":"井口"},{"zipCode":"9391962","prefectureKana":"ﾄﾔﾏｹﾝ","cityKana":"ﾅﾝﾄｼ","streetKana":"ｲﾉﾀﾆ","prefecture":"富山県","city":"南砺市","street":"猪谷"},{"zipCode":"9391904","prefectureKana":"ﾄﾔﾏｹﾝ","cityKana":"ﾅﾝﾄｼ","streetKana":"ｲﾘﾀﾆ","prefecture":"富山県","city":"南砺市","street":"入谷"},{"zipCode":"9391612","prefectureKana":"ﾄﾔﾏｹﾝ","cityKana":"ﾅﾝﾄｼ","streetKana":"ｲﾜｷ","prefecture":"富山県","city":"南砺市","street":"岩木"},{"zipCode":"9391503","prefectureKana":"ﾄﾔﾏｹﾝ","cityKana":"ﾅﾝﾄｼ","streetKana":"ｲﾜﾀｹｼﾝ","prefecture":"富山県","city":"南砺市","street":"岩武新"},{"zipCode":"9391611","prefectureKana":"ﾄﾔﾏｹﾝ","cityKana":"ﾅﾝﾄｼ","streetKana":"ｲﾜﾔｽ","prefecture":"富山県","city":"南砺市","street":"岩安"},{"zipCode":"9391531","prefectureKana":"ﾄﾔﾏｹﾝ","cityKana":"ﾅﾝﾄｼ","streetKana":"ｲﾝﾊﾞﾔｼ","prefecture":"富山県","city":"南砺市","street":"院林"},{"zipCode":"9391824","prefectureKana":"ﾄﾔﾏｹﾝ","cityKana":"ﾅﾝﾄｼ","streetKana":"ｳｴﾀﾞ","prefecture":"富山県","city":"南砺市","street":"上田"},{"zipCode":"9391512","prefectureKana":"ﾄﾔﾏｹﾝ","cityKana":"ﾅﾝﾄｼ","streetKana":"ｳｴﾉ","prefecture":"富山県","city":"南砺市","street":"上野"},{"zipCode":"9391823","prefectureKana":"ﾄﾔﾏｹﾝ","cityKana":"ﾅﾝﾄｼ","streetKana":"ｳﾁｵ","prefecture":"富山県","city":"南砺市","street":"打尾"},{"zipCode":"9391542","prefectureKana":"ﾄﾔﾏｹﾝ","cityKana":"ﾅﾝﾄｼ","streetKana":"ｳﾒｶﾞｼﾏ","prefecture":"富山県","city":"南砺市","street":"梅ケ島"},{"zipCode":"9391724","prefectureKana":"ﾄﾔﾏｹﾝ","cityKana":"ﾅﾝﾄｼ","streetKana":"ｳﾒﾉ","prefecture":"富山県","city":"南砺市","street":"梅野"},{"zipCode":"9391716","prefectureKana":"ﾄﾔﾏｹﾝ","cityKana":"ﾅﾝﾄｼ","streetKana":"ｳﾒﾊﾗ","prefecture":"富山県","city":"南砺市","street":"梅原"},{"zipCode":"9391979","prefectureKana":"ﾄﾔﾏｹﾝ","cityKana":"ﾅﾝﾄｼ","streetKana":"ｳﾙｼﾀﾆ","prefecture":"富山県","city":"南砺市","street":"漆谷"},{"zipCode":"9391833","prefectureKana":"ﾄﾔﾏｹﾝ","cityKana":"ﾅﾝﾄｼ","streetKana":"ｳﾜﾐ","prefecture":"富山県","city":"南砺市","street":"上見"},{"zipCode":"9391526","prefectureKana":"ﾄﾔﾏｹﾝ","cityKana":"ﾅﾝﾄｼ","streetKana":"ｴﾀﾞ","prefecture":"富山県","city":"南砺市","street":"江田"},{"zipCode":"9391824","prefectureKana":"ﾄﾔﾏｹﾝ","cityKana":"ﾅﾝﾄｼ","streetKana":"ｵｶﾞﾔ","prefecture":"富山県","city":"南砺市","street":"大鋸屋"},{"zipCode":"9391902","prefectureKana":"ﾄﾔﾏｹﾝ","cityKana":"ﾅﾝﾄｼ","streetKana":"ｵｵｸｽﾞｼﾏ","prefecture":"富山県","city":"南砺市","street":"大崩島"},{"zipCode":"9391855","prefectureKana":"ﾄﾔﾏｹﾝ","cityKana":"ﾅﾝﾄｼ","streetKana":"ｵｵｸﾎﾞ","prefecture":"富山県","city":"南砺市","street":"大窪"},{"zipCode":"9391912","prefectureKana":"ﾄﾔﾏｹﾝ","cityKana":"ﾅﾝﾄｼ","streetKana":"ｵｵｼﾏ","prefecture":"富山県","city":"南砺市","street":"大島"},{"zipCode":"9391825","prefectureKana":"ﾄﾔﾏｹﾝ","cityKana":"ﾅﾝﾄｼ","streetKana":"ｵｶﾞﾔ(ｵｵﾀﾆｼﾞﾏ)","prefecture":"富山県","city":"南砺市","street":"大鋸屋（大谷島）"},{"zipCode":"9391743","prefectureKana":"ﾄﾔﾏｹﾝ","cityKana":"ﾅﾝﾄｼ","streetKana":"ｵｵﾂｶ","prefecture":"富山県","city":"南砺市","street":"大塚"},{"zipCode":"9391752","prefectureKana":"ﾄﾔﾏｹﾝ","cityKana":"ﾅﾝﾄｼ","streetKana":"ｵｵﾆｼ","prefecture":"富山県","city":"南砺市","street":"大西"},{"zipCode":"9391875","prefectureKana":"ﾄﾔﾏｹﾝ","cityKana":"ﾅﾝﾄｼ","streetKana":"ｵｵﾉ","prefecture":"富山県","city":"南砺市","street":"大野"},{"zipCode":"9391814","prefectureKana":"ﾄﾔﾏｹﾝ","cityKana":"ﾅﾝﾄｼ","streetKana":"ｵｵﾐﾔﾉ","prefecture":"富山県","city":"南砺市","street":"大宮野"},{"zipCode":"9391837","prefectureKana":"ﾄﾔﾏｹﾝ","cityKana":"ﾅﾝﾄｼ","streetKana":"ｵｵﾐﾔﾉｼﾝ","prefecture":"富山県","city":"南砺市","street":"大宮野新"},{"zipCode":"9391971","prefectureKana":"ﾄﾔﾏｹﾝ","cityKana":"ﾅﾝﾄｼ","streetKana":"ｵｾﾞ","prefecture":"富山県","city":"南砺市","street":"小瀬"},{"zipCode":"9391967","prefectureKana":"ﾄﾔﾏｹﾝ","cityKana":"ﾅﾝﾄｼ","streetKana":"ｵﾊﾗ","prefecture":"富山県","city":"南砺市","street":"小原"},{"zipCode":"9391605","prefectureKana":"ﾄﾔﾏｹﾝ","cityKana":"ﾅﾝﾄｼ","streetKana":"ｵﾏﾀ","prefecture":"富山県","city":"南砺市","street":"小又"},{"zipCode":"9391667","prefectureKana":"ﾄﾔﾏｹﾝ","cityKana":"ﾅﾝﾄｼ","streetKana":"ｶｲﾎﾂ","prefecture":"富山県","city":"南砺市","street":"開発"},{"zipCode":"9391961","prefectureKana":"ﾄﾔﾏｹﾝ","cityKana":"ﾅﾝﾄｼ","streetKana":"ｶｲﾑｸﾗ","prefecture":"富山県","city":"南砺市","street":"皆葎"},{"zipCode":"9391911","prefectureKana":"ﾄﾔﾏｹﾝ","cityKana":"ﾅﾝﾄｼ","streetKana":"ｶｺﾞﾄﾞ","prefecture":"富山県","city":"南砺市","street":"篭渡"},{"zipCode":"9391725","prefectureKana":"ﾄﾔﾏｹﾝ","cityKana":"ﾅﾝﾄｼ","streetKana":"ｶｼﾞ","prefecture":"富山県","city":"南砺市","street":"鍛治"},{"zipCode":"9391969","prefectureKana":"ﾄﾔﾏｹﾝ","cityKana":"ﾅﾝﾄｼ","streetKana":"ｶﾂﾗ","prefecture":"富山県","city":"南砺市","street":"桂"},{"zipCode":"9391843","prefectureKana":"ﾄﾔﾏｹﾝ","cityKana":"ﾅﾝﾄｼ","streetKana":"ｶﾈﾄ","prefecture":"富山県","city":"南砺市","street":"金戸"},{"zipCode":"9391553","prefectureKana":"ﾄﾔﾏｹﾝ","cityKana":"ﾅﾝﾄｼ","streetKana":"ｶﾐｶﾜｻｷ","prefecture":"富山県","city":"南砺市","street":"上川崎"},{"zipCode":"9391968","prefectureKana":"ﾄﾔﾏｹﾝ","cityKana":"ﾅﾝﾄｼ","streetKana":"ｶﾐﾀｲﾗﾎｿｼﾞﾏ","prefecture":"富山県","city":"南砺市","street":"上平細島"},{"zipCode":"9391975","prefectureKana":"ﾄﾔﾏｹﾝ","cityKana":"ﾅﾝﾄｼ","streetKana":"ｶﾐﾅｶﾀﾞ","prefecture":"富山県","city":"南砺市","street":"上中田"},{"zipCode":"9391914","prefectureKana":"ﾄﾔﾏｹﾝ","cityKana":"ﾅﾝﾄｼ","streetKana":"ｶﾐﾅｼ","prefecture":"富山県","city":"南砺市","street":"上梨"},{"zipCode":"9391713","prefectureKana":"ﾄﾔﾏｹﾝ","cityKana":"ﾅﾝﾄｼ","streetKana":"ｶﾐﾅﾘ","prefecture":"富山県","city":"南砺市","street":"神成"},{"zipCode":"9391834","prefectureKana":"ﾄﾔﾏｹﾝ","cityKana":"ﾅﾝﾄｼ","streetKana":"ｶﾐﾊﾗ","prefecture":"富山県","city":"南砺市","street":"上原"},{"zipCode":"9391878","prefectureKana":"ﾄﾔﾏｹﾝ","cityKana":"ﾅﾝﾄｼ","streetKana":"ｶﾐﾋﾛﾔｽ","prefecture":"富山県","city":"南砺市","street":"上広安"},{"zipCode":"9391928","prefectureKana":"ﾄﾔﾏｹﾝ","cityKana":"ﾅﾝﾄｼ","streetKana":"ｶﾐﾏﾂｵ","prefecture":"富山県","city":"南砺市","street":"上松尾"},{"zipCode":"9391575","prefectureKana":"ﾄﾔﾏｹﾝ","cityKana":"ﾅﾝﾄｼ","streetKana":"ｶﾐﾐｯｶｲﾁ","prefecture":"富山県","city":"南砺市","street":"上三日市"},{"zipCode":"9391876","prefectureKana":"ﾄﾔﾏｹﾝ","cityKana":"ﾅﾝﾄｼ","streetKana":"ｶﾜｶﾐﾅｶ","prefecture":"富山県","city":"南砺市","street":"川上中"},{"zipCode":"9391613","prefectureKana":"ﾄﾔﾏｹﾝ","cityKana":"ﾅﾝﾄｼ","streetKana":"ｶﾜﾆｼ","prefecture":"富山県","city":"南砺市","street":"川西"},{"zipCode":"9391504","prefectureKana":"ﾄﾔﾏｹﾝ","cityKana":"ﾅﾝﾄｼ","streetKana":"ｶﾜﾖｹｼﾝ","prefecture":"富山県","city":"南砺市","street":"川除新"},{"zipCode":"9391836","prefectureKana":"ﾄﾔﾏｹﾝ","cityKana":"ﾅﾝﾄｼ","streetKana":"ｶﾞﾝﾏｷｼﾞﾏ","prefecture":"富山県","city":"南砺市","street":"雁巻島"},{"zipCode":"9391807","prefectureKana":"ﾄﾔﾏｹﾝ","cityKana":"ﾅﾝﾄｼ","streetKana":"ｷﾀﾉ","prefecture":"富山県","city":"南砺市","street":"北野"},{"zipCode":"9391802","prefectureKana":"ﾄﾔﾏｹﾝ","cityKana":"ﾅﾝﾄｼ","streetKana":"ｷﾀﾉ(ｼﾞﾛｳﾏﾙ)","prefecture":"富山県","city":"南砺市","street":"北野（次郎丸）"},{"zipCode":"9391801","prefectureKana":"ﾄﾔﾏｹﾝ","cityKana":"ﾅﾝﾄｼ","streetKana":"ｷﾀﾉ(ﾁｮｳﾗｸｼﾞ)","prefecture":"富山県","city":"南砺市","street":"北野（長楽寺）"},{"zipCode":"9391806","prefectureKana":"ﾄﾔﾏｹﾝ","cityKana":"ﾅﾝﾄｼ","streetKana":"ｷﾀﾉ(ﾖｼﾏﾂ)","prefecture":"富山県","city":"南砺市","street":"北野（吉松）"},{"zipCode":"9391835","prefectureKana":"ﾄﾔﾏｹﾝ","cityKana":"ﾅﾝﾄｼ","streetKana":"ｷｮｳﾂﾞｶ","prefecture":"富山県","city":"南砺市","street":"京塚"},{"zipCode":"9391846","prefectureKana":"ﾄﾔﾏｹﾝ","cityKana":"ﾅﾝﾄｼ","streetKana":"ｷｮｳﾂﾞｶﾉ","prefecture":"富山県","city":"南砺市","street":"経塚野"},{"zipCode":"9391548","prefectureKana":"ﾄﾔﾏｹﾝ","cityKana":"ﾅﾝﾄｼ","streetKana":"ｷﾘﾉｷ","prefecture":"富山県","city":"南砺市","street":"桐木"},{"zipCode":"9391846","prefectureKana":"ﾄﾔﾏｹﾝ","cityKana":"ﾅﾝﾄｼ","streetKana":"ｸﾆﾋﾛ","prefecture":"富山県","city":"南砺市","street":"国広"},{"zipCode":"9391872","prefectureKana":"ﾄﾔﾏｹﾝ","cityKana":"ﾅﾝﾄｼ","streetKana":"ｸﾎﾞ","prefecture":"富山県","city":"南砺市","street":"久保"},{"zipCode":"9391614","prefectureKana":"ﾄﾔﾏｹﾝ","cityKana":"ﾅﾝﾄｼ","streetKana":"ｸﾗﾊﾗ","prefecture":"富山県","city":"南砺市","street":"蔵原"},{"zipCode":"9391925","prefectureKana":"ﾄﾔﾏｹﾝ","cityKana":"ﾅﾝﾄｼ","streetKana":"ｸﾙｽ","prefecture":"富山県","city":"南砺市","street":"来栖"},{"zipCode":"9391684","prefectureKana":"ﾄﾔﾏｹﾝ","cityKana":"ﾅﾝﾄｼ","streetKana":"ｺｲﾝｾﾞﾐ","prefecture":"富山県","city":"南砺市","street":"小院瀬見"},{"zipCode":"9391674","prefectureKana":"ﾄﾔﾏｹﾝ","cityKana":"ﾅﾝﾄｼ","streetKana":"ｺｳｼﾞｮｳｼﾞ","prefecture":"富山県","city":"南砺市","street":"香城寺"},{"zipCode":"9391964","prefectureKana":"ﾄﾔﾏｹﾝ","cityKana":"ﾅﾝﾄｼ","streetKana":"ｺｳｽﾞ","prefecture":"富山県","city":"南砺市","street":"楮"},{"zipCode":"9391926","prefectureKana":"ﾄﾔﾏｹﾝ","cityKana":"ﾅﾝﾄｼ","streetKana":"ｺｸﾞﾙｽ","prefecture":"富山県","city":"南砺市","street":"小来栖"},{"zipCode":"9391671","prefectureKana":"ﾄﾔﾏｹﾝ","cityKana":"ﾅﾝﾄｼ","streetKana":"ｺｻﾞｶ","prefecture":"富山県","city":"南砺市","street":"小坂"},{"zipCode":"9391735","prefectureKana":"ﾄﾔﾏｹﾝ","cityKana":"ﾅﾝﾄｼ","streetKana":"ｺﾊﾞﾔｼ","prefecture":"富山県","city":"南砺市","street":"小林"},{"zipCode":"9391682","prefectureKana":"ﾄﾔﾏｹﾝ","cityKana":"ﾅﾝﾄｼ","streetKana":"ｺﾌﾞﾀﾏﾀ","prefecture":"富山県","city":"南砺市","street":"小二又"},{"zipCode":"9391665","prefectureKana":"ﾄﾔﾏｹﾝ","cityKana":"ﾅﾝﾄｼ","streetKana":"ｺﾔﾏ","prefecture":"富山県","city":"南砺市","street":"小山"},{"zipCode":"9391852","prefectureKana":"ﾄﾔﾏｹﾝ","cityKana":"ﾅﾝﾄｼ","streetKana":"ｺﾚﾔｽ","prefecture":"富山県","city":"南砺市","street":"是安"},{"zipCode":"9391856","prefectureKana":"ﾄﾔﾏｹﾝ","cityKana":"ﾅﾝﾄｼ","streetKana":"ｺﾚﾔｽ(ｽｴﾋﾛﾁｮｳ)","prefecture":"富山県","city":"南砺市","street":"是安（末広町）"},{"zipCode":"9391681","prefectureKana":"ﾄﾔﾏｹﾝ","cityKana":"ﾅﾝﾄｼ","streetKana":"ｻｲｶﾜｼﾁ","prefecture":"富山県","city":"南砺市","street":"才川七"},{"zipCode":"9391804","prefectureKana":"ﾄﾔﾏｹﾝ","cityKana":"ﾅﾝﾄｼ","streetKana":"ｻｲﾐｮｳ","prefecture":"富山県","city":"南砺市","street":"西明"},{"zipCode":"9391655","prefectureKana":"ﾄﾔﾏｹﾝ","cityKana":"ﾅﾝﾄｼ","streetKana":"ｻｶﾓﾄ","prefecture":"富山県","city":"南砺市","street":"坂本"},{"zipCode":"9391525","prefectureKana":"ﾄﾔﾏｹﾝ","cityKana":"ﾅﾝﾄｼ","streetKana":"ｻﾝｷﾖﾆｼ","prefecture":"富山県","city":"南砺市","street":"三清西"},{"zipCode":"9391532","prefectureKana":"ﾄﾔﾏｹﾝ","cityKana":"ﾅﾝﾄｼ","streetKana":"ｼﾞｹ","prefecture":"富山県","city":"南砺市","street":"寺家"},{"zipCode":"9391577","prefectureKana":"ﾄﾔﾏｹﾝ","cityKana":"ﾅﾝﾄｼ","streetKana":"ｼﾞｹｱﾗﾔｼｷ","prefecture":"富山県","city":"南砺市","street":"寺家新屋敷"},{"zipCode":"9391978","prefectureKana":"ﾄﾔﾏｹﾝ","cityKana":"ﾅﾝﾄｼ","streetKana":"ｼﾀｼﾞﾏ","prefecture":"富山県","city":"南砺市","street":"下島"},{"zipCode":"9391733","prefectureKana":"ﾄﾔﾏｹﾝ","cityKana":"ﾅﾝﾄｼ","streetKana":"ｼﾀﾉ","prefecture":"富山県","city":"南砺市","street":"下野"},{"zipCode":"9391703","prefectureKana":"ﾄﾔﾏｹﾝ","cityKana":"ﾅﾝﾄｼ","streetKana":"ｼﾃｲﾁ","prefecture":"富山県","city":"南砺市","street":"一日市"},{"zipCode":"9391552","prefectureKana":"ﾄﾔﾏｹﾝ","cityKana":"ﾅﾝﾄｼ","streetKana":"ｼﾊﾞﾀﾔ","prefecture":"富山県","city":"南砺市","street":"柴田屋"},{"zipCode":"9391845","prefectureKana":"ﾄﾔﾏｹﾝ","cityKana":"ﾅﾝﾄｼ","streetKana":"ｼﾒﾉ","prefecture":"富山県","city":"南砺市","street":"示野"},{"zipCode":"9391908","prefectureKana":"ﾄﾔﾏｹﾝ","cityKana":"ﾅﾝﾄｼ","streetKana":"ｼﾓﾃﾞ","prefecture":"富山県","city":"南砺市","street":"下出"},{"zipCode":"9391923","prefectureKana":"ﾄﾔﾏｹﾝ","cityKana":"ﾅﾝﾄｼ","streetKana":"ｼﾓﾅｼ","prefecture":"富山県","city":"南砺市","street":"下梨"},{"zipCode":"9391543","prefectureKana":"ﾄﾔﾏｹﾝ","cityKana":"ﾅﾝﾄｼ","streetKana":"ｼﾓﾖｼｴ","prefecture":"富山県","city":"南砺市","street":"下吉江"},{"zipCode":"9391874","prefectureKana":"ﾄﾔﾏｹﾝ","cityKana":"ﾅﾝﾄｼ","streetKana":"ｼﾞｬﾊﾞﾐ","prefecture":"富山県","city":"南砺市","street":"蛇喰"},{"zipCode":"9391551","prefectureKana":"ﾄﾔﾏｹﾝ","cityKana":"ﾅﾝﾄｼ","streetKana":"ｼﾞｮｳﾂﾞ","prefecture":"富山県","city":"南砺市","street":"上津"},{"zipCode":"9391861","prefectureKana":"ﾄﾔﾏｹﾝ","cityKana":"ﾅﾝﾄｼ","streetKana":"ｼﾞｮｳﾊﾅ","prefecture":"富山県","city":"南砺市","street":"城端"},{"zipCode":"9391818","prefectureKana":"ﾄﾔﾏｹﾝ","cityKana":"ﾅﾝﾄｼ","streetKana":"ｼﾞｮｳﾊﾅ(ｶﾜｼﾏ)","prefecture":"富山県","city":"南砺市","street":"城端（川島）"},{"zipCode":"9391854","prefectureKana":"ﾄﾔﾏｹﾝ","cityKana":"ﾅﾝﾄｼ","streetKana":"ｼﾞｮｳﾊﾅ(ｻｶｴﾏﾁ)","prefecture":"富山県","city":"南砺市","street":"城端（栄町）"},{"zipCode":"9391865","prefectureKana":"ﾄﾔﾏｹﾝ","cityKana":"ﾅﾝﾄｼ","streetKana":"ｼﾞｮｳﾊﾅ(ｼﾝﾏﾁ)","prefecture":"富山県","city":"南砺市","street":"城端（新町）"},{"zipCode":"9391864","prefectureKana":"ﾄﾔﾏｹﾝ","cityKana":"ﾅﾝﾄｼ","streetKana":"ｼﾞｮｳﾊﾅ(ﾀﾞｲｸﾏﾁ)","prefecture":"富山県","city":"南砺市","street":"城端（大工町）"},{"zipCode":"9391853","prefectureKana":"ﾄﾔﾏｹﾝ","cityKana":"ﾅﾝﾄｼ","streetKana":"ｼﾞｮｳﾊﾅ(ﾃﾞﾏﾙ)","prefecture":"富山県","city":"南砺市","street":"城端（出丸）"},{"zipCode":"9391863","prefectureKana":"ﾄﾔﾏｹﾝ","cityKana":"ﾅﾝﾄｼ","streetKana":"ｼﾞｮｳﾊﾅ(ﾆｼｶﾐ)","prefecture":"富山県","city":"南砺市","street":"城端（西上）"},{"zipCode":"9391862","prefectureKana":"ﾄﾔﾏｹﾝ","cityKana":"ﾅﾝﾄｼ","streetKana":"ｼﾞｮｳﾊﾅ(ﾆｼｼﾓ)","prefecture":"富山県","city":"南砺市","street":"城端（西下）"},{"zipCode":"9391868","prefectureKana":"ﾄﾔﾏｹﾝ","cityKana":"ﾅﾝﾄｼ","streetKana":"ｼﾞｮｳﾊﾅ(ﾆｼｼﾝﾃﾞﾝ)","prefecture":"富山県","city":"南砺市","street":"城端（西新田）"},{"zipCode":"9391867","prefectureKana":"ﾄﾔﾏｹﾝ","cityKana":"ﾅﾝﾄｼ","streetKana":"ｼﾞｮｳﾊﾅ(ﾉｹﾞ)","prefecture":"富山県","city":"南砺市","street":"城端（野下）"},{"zipCode":"9391816","prefectureKana":"ﾄﾔﾏｹﾝ","cityKana":"ﾅﾝﾄｼ","streetKana":"ｼﾞｮｳﾊﾅ(ﾋｶﾞｼｶﾐ)","prefecture":"富山県","city":"南砺市","street":"城端（東上）"},{"zipCode":"9391817","prefectureKana":"ﾄﾔﾏｹﾝ","cityKana":"ﾅﾝﾄｼ","streetKana":"ｼﾞｮｳﾊﾅ(ﾋｶﾞｼｼﾓ)","prefecture":"富山県","city":"南砺市","street":"城端（東下）"},{"zipCode":"9391815","prefectureKana":"ﾄﾔﾏｹﾝ","cityKana":"ﾅﾝﾄｼ","streetKana":"ｼﾞｮｳﾊﾅ(ﾋｶﾞｼｼﾝﾃﾞﾝ)","prefecture":"富山県","city":"南砺市","street":"城端（東新田）"},{"zipCode":"9391866","prefectureKana":"ﾄﾔﾏｹﾝ","cityKana":"ﾅﾝﾄｼ","streetKana":"ｼﾞｮｳﾊﾅ(ﾐﾅﾐﾁｮｳ)","prefecture":"富山県","city":"南砺市","street":"城端（南町）"},{"zipCode":"9391735","prefectureKana":"ﾄﾔﾏｹﾝ","cityKana":"ﾅﾝﾄｼ","streetKana":"ｼﾞﾝｸﾞｳｼﾞ","prefecture":"富山県","city":"南砺市","street":"神宮寺"},{"zipCode":"9391544","prefectureKana":"ﾄﾔﾏｹﾝ","cityKana":"ﾅﾝﾄｼ","streetKana":"ｼﾝﾃｲ","prefecture":"富山県","city":"南砺市","street":"新邸"},{"zipCode":"9391973","prefectureKana":"ﾄﾔﾏｹﾝ","cityKana":"ﾅﾝﾄｼ","streetKana":"ｽｶﾞﾇﾏ","prefecture":"富山県","city":"南砺市","street":"菅沼"},{"zipCode":"9391903","prefectureKana":"ﾄﾔﾏｹﾝ","cityKana":"ﾅﾝﾄｼ","streetKana":"ｽｶﾞﾜ","prefecture":"富山県","city":"南砺市","street":"寿川"},{"zipCode":"9391921","prefectureKana":"ﾄﾔﾏｹﾝ","cityKana":"ﾅﾝﾄｼ","streetKana":"ｽｷﾞｵ","prefecture":"富山県","city":"南砺市","street":"杉尾"},{"zipCode":"9391603","prefectureKana":"ﾄﾔﾏｹﾝ","cityKana":"ﾅﾝﾄｼ","streetKana":"ｽﾅｺﾞﾀﾞﾆ","prefecture":"富山県","city":"南砺市","street":"砂子谷"},{"zipCode":"9391826","prefectureKana":"ﾄﾔﾏｹﾝ","cityKana":"ﾅﾝﾄｼ","streetKana":"ｾﾄ","prefecture":"富山県","city":"南砺市","street":"瀬戸"},{"zipCode":"9391831","prefectureKana":"ﾄﾔﾏｹﾝ","cityKana":"ﾅﾝﾄｼ","streetKana":"ｾﾝﾌﾟｸ","prefecture":"富山県","city":"南砺市","street":"千福"},{"zipCode":"9391831","prefectureKana":"ﾄﾔﾏｹﾝ","cityKana":"ﾅﾝﾄｼ","streetKana":"ｾﾝﾌﾟｸｼﾝ","prefecture":"富山県","city":"南砺市","street":"千福新"},{"zipCode":"9391675","prefectureKana":"ﾄﾔﾏｹﾝ","cityKana":"ﾅﾝﾄｼ","streetKana":"ｿﾀﾞﾆ","prefecture":"富山県","city":"南砺市","street":"祖谷"},{"zipCode":"9391901","prefectureKana":"ﾄﾔﾏｹﾝ","cityKana":"ﾅﾝﾄｼ","streetKana":"ｿﾔﾏ","prefecture":"富山県","city":"南砺市","street":"祖山"},{"zipCode":"9391506","prefectureKana":"ﾄﾔﾏｹﾝ","cityKana":"ﾅﾝﾄｼ","streetKana":"ﾀｶｷﾞ","prefecture":"富山県","city":"南砺市","street":"高儀"},{"zipCode":"9391602","prefectureKana":"ﾄﾔﾏｹﾝ","cityKana":"ﾅﾝﾄｼ","streetKana":"ﾀｶｸﾎﾞ","prefecture":"富山県","city":"南砺市","street":"高窪"},{"zipCode":"9391906","prefectureKana":"ﾄﾔﾏｹﾝ","cityKana":"ﾅﾝﾄｼ","streetKana":"ﾀｶｿｳﾚｲ","prefecture":"富山県","city":"南砺市","street":"高草嶺"},{"zipCode":"9391714","prefectureKana":"ﾄﾔﾏｹﾝ","cityKana":"ﾅﾝﾄｼ","streetKana":"ﾀｶﾊﾞﾀｹ","prefecture":"富山県","city":"南砺市","street":"高畠"},{"zipCode":"9391511","prefectureKana":"ﾄﾔﾏｹﾝ","cityKana":"ﾅﾝﾄｼ","streetKana":"ﾀｶﾎﾘ","prefecture":"富山県","city":"南砺市","street":"高堀"},{"zipCode":"9391741","prefectureKana":"ﾄﾔﾏｹﾝ","cityKana":"ﾅﾝﾄｼ","streetKana":"ﾀｶﾐﾔ","prefecture":"富山県","city":"南砺市","street":"高宮"},{"zipCode":"9391664","prefectureKana":"ﾄﾔﾏｹﾝ","cityKana":"ﾅﾝﾄｼ","streetKana":"ﾀｹｳﾁ","prefecture":"富山県","city":"南砺市","street":"竹内"},{"zipCode":"9391734","prefectureKana":"ﾄﾔﾏｹﾝ","cityKana":"ﾅﾝﾄｼ","streetKana":"ﾀｹﾊﾞﾔｼ","prefecture":"富山県","city":"南砺市","street":"竹林"},{"zipCode":"9391538","prefectureKana":"ﾄﾔﾏｹﾝ","cityKana":"ﾅﾝﾄｼ","streetKana":"ﾀｼﾞﾘ","prefecture":"富山県","city":"南砺市","street":"田尻"},{"zipCode":"9391676","prefectureKana":"ﾄﾔﾏｹﾝ","cityKana":"ﾅﾝﾄｼ","streetKana":"ﾀﾁ","prefecture":"富山県","city":"南砺市","street":"舘"},{"zipCode":"9391755","prefectureKana":"ﾄﾔﾏｹﾝ","cityKana":"ﾅﾝﾄｼ","streetKana":"ﾀﾃﾉｶﾞﾊﾗﾆｼ","prefecture":"富山県","city":"南砺市","street":"立野原西"},{"zipCode":"9391835","prefectureKana":"ﾄﾔﾏｹﾝ","cityKana":"ﾅﾝﾄｼ","streetKana":"ﾀﾃﾉﾊﾗﾋｶﾞｼ","prefecture":"富山県","city":"南砺市","street":"立野原東"},{"zipCode":"9391766","prefectureKana":"ﾄﾔﾏｹﾝ","cityKana":"ﾅﾝﾄｼ","streetKana":"ﾀﾃﾉﾜｷ","prefecture":"富山県","city":"南砺市","street":"立野脇"},{"zipCode":"9391704","prefectureKana":"ﾄﾔﾏｹﾝ","cityKana":"ﾅﾝﾄｼ","streetKana":"ﾀﾅｶ","prefecture":"富山県","city":"南砺市","street":"田中"},{"zipCode":"9391974","prefectureKana":"ﾄﾔﾏｹﾝ","cityKana":"ﾅﾝﾄｼ","streetKana":"ﾀﾉｼﾀ","prefecture":"富山県","city":"南砺市","street":"田下"},{"zipCode":"9391913","prefectureKana":"ﾄﾔﾏｹﾝ","cityKana":"ﾅﾝﾄｼ","streetKana":"ﾀﾑｶｲ","prefecture":"富山県","city":"南砺市","street":"田向"},{"zipCode":"9391537","prefectureKana":"ﾄﾔﾏｹﾝ","cityKana":"ﾅﾝﾄｼ","streetKana":"ﾀﾔ","prefecture":"富山県","city":"南砺市","street":"田屋"},{"zipCode":"9391505","prefectureKana":"ﾄﾔﾏｹﾝ","cityKana":"ﾅﾝﾄｼ","streetKana":"ﾁｮｳｹﾞﾝｼﾞ","prefecture":"富山県","city":"南砺市","street":"長源寺"},{"zipCode":"9391765","prefectureKana":"ﾄﾔﾏｹﾝ","cityKana":"ﾅﾝﾄｼ","streetKana":"ﾂﾅｶｹ","prefecture":"富山県","city":"南砺市","street":"綱掛"},{"zipCode":"9391746","prefectureKana":"ﾄﾔﾏｹﾝ","cityKana":"ﾅﾝﾄｼ","streetKana":"ﾃﾞﾑﾗ","prefecture":"富山県","city":"南砺市","street":"出村"},{"zipCode":"9391661","prefectureKana":"ﾄﾔﾏｹﾝ","cityKana":"ﾅﾝﾄｼ","streetKana":"ﾃﾝｼﾞﾝ","prefecture":"富山県","city":"南砺市","street":"天神"},{"zipCode":"9391832","prefectureKana":"ﾄﾔﾏｹﾝ","cityKana":"ﾅﾝﾄｼ","streetKana":"ﾄｳﾉ","prefecture":"富山県","city":"南砺市","street":"塔尾"},{"zipCode":"9391766","prefectureKana":"ﾄﾔﾏｹﾝ","cityKana":"ﾅﾝﾄｼ","streetKana":"ﾄｳﾘ","prefecture":"富山県","city":"南砺市","street":"刀利"},{"zipCode":"9392507","prefectureKana":"ﾄﾔﾏｹﾝ","cityKana":"ﾅﾝﾄｼ","streetKana":"ﾄｶﾞﾑﾗ","prefecture":"富山県","city":"南砺市","street":"利賀村"},{"zipCode":"9392517","prefectureKana":"ﾄﾔﾏｹﾝ","cityKana":"ﾅﾝﾄｼ","streetKana":"ﾄｶﾞﾑﾗｱﾍﾞｯﾄｳ","prefecture":"富山県","city":"南砺市","street":"利賀村阿別当"},{"zipCode":"9392508","prefectureKana":"ﾄﾔﾏｹﾝ","cityKana":"ﾅﾝﾄｼ","streetKana":"ﾄｶﾞﾑﾗｲﾜﾌﾞﾁ","prefecture":"富山県","city":"南砺市","street":"利賀村岩渕"},{"zipCode":"9392514","prefectureKana":"ﾄﾔﾏｹﾝ","cityKana":"ﾅﾝﾄｼ","streetKana":"ﾄｶﾞﾑﾗｳｴﾊﾞﾀｹ","prefecture":"富山県","city":"南砺市","street":"利賀村上畠"},{"zipCode":"9392506","prefectureKana":"ﾄﾔﾏｹﾝ","cityKana":"ﾅﾝﾄｼ","streetKana":"ﾄｶﾞﾑﾗｵｵﾏﾒﾀﾞﾆ","prefecture":"富山県","city":"南砺市","street":"利賀村大豆谷"},{"zipCode":"9392504","prefectureKana":"ﾄﾔﾏｹﾝ","cityKana":"ﾅﾝﾄｼ","streetKana":"ﾄｶﾞﾑﾗｵｼﾊﾞ","prefecture":"富山県","city":"南砺市","street":"利賀村押場"},{"zipCode":"9392513","prefectureKana":"ﾄﾔﾏｹﾝ","cityKana":"ﾅﾝﾄｼ","streetKana":"ﾄｶﾞﾑﾗｶﾐﾓﾓｾ","prefecture":"富山県","city":"南砺市","street":"利賀村上百瀬"},{"zipCode":"9392509","prefectureKana":"ﾄﾔﾏｹﾝ","cityKana":"ﾅﾝﾄｼ","streetKana":"ﾄｶﾞﾑﾗｷﾀｼﾞﾏ","prefecture":"富山県","city":"南砺市","street":"利賀村北島"},{"zipCode":"9392505","prefectureKana":"ﾄﾔﾏｹﾝ","cityKana":"ﾅﾝﾄｼ","streetKana":"ﾄｶﾞﾑﾗｷﾀﾏﾒﾀﾞﾆ","prefecture":"富山県","city":"南砺市","street":"利賀村北豆谷"},{"zipCode":"9392501","prefectureKana":"ﾄﾔﾏｹﾝ","cityKana":"ﾅﾝﾄｼ","streetKana":"ﾄｶﾞﾑﾗｸﾘﾄｳ","prefecture":"富山県","city":"南砺市","street":"利賀村栗当"},{"zipCode":"9392516","prefectureKana":"ﾄﾔﾏｹﾝ","cityKana":"ﾅﾝﾄｼ","streetKana":"ﾄｶﾞﾑﾗｻｶｳｴ","prefecture":"富山県","city":"南砺市","street":"利賀村坂上"},{"zipCode":"9392503","prefectureKana":"ﾄﾔﾏｹﾝ","cityKana":"ﾅﾝﾄｼ","streetKana":"ﾄｶﾞﾑﾗｿｳﾚｲ","prefecture":"富山県","city":"南砺市","street":"利賀村草嶺"},{"zipCode":"9392518","prefectureKana":"ﾄﾔﾏｹﾝ","cityKana":"ﾅﾝﾄｼ","streetKana":"ﾄｶﾞﾑﾗﾀｲｶﾝﾊﾞ","prefecture":"富山県","city":"南砺市","street":"利賀村大勘場"},{"zipCode":"9392502","prefectureKana":"ﾄﾔﾏｹﾝ","cityKana":"ﾅﾝﾄｼ","streetKana":"ﾄｶﾞﾑﾗﾀｶﾇﾏ","prefecture":"富山県","city":"南砺市","street":"利賀村高沼"},{"zipCode":"9392512","prefectureKana":"ﾄﾔﾏｹﾝ","cityKana":"ﾅﾝﾄｼ","streetKana":"ﾄｶﾞﾑﾗﾅｶﾑﾗ","prefecture":"富山県","city":"南砺市","street":"利賀村中村"},{"zipCode":"9392515","prefectureKana":"ﾄﾔﾏｹﾝ","cityKana":"ﾅﾝﾄｼ","streetKana":"ﾄｶﾞﾑﾗﾎｿｼﾞﾏ","prefecture":"富山県","city":"南砺市","street":"利賀村細島"},{"zipCode":"9392519","prefectureKana":"ﾄﾔﾏｹﾝ","cityKana":"ﾅﾝﾄｼ","streetKana":"ﾄｶﾞﾑﾗﾐｽﾞﾅｼ","prefecture":"富山県","city":"南砺市","street":"利賀村水無"},{"zipCode":"9392511","prefectureKana":"ﾄﾔﾏｹﾝ","cityKana":"ﾅﾝﾄｼ","streetKana":"ﾄｶﾞﾑﾗﾓﾓｾｶﾞﾜ","prefecture":"富山県","city":"南砺市","street":"利賀村百瀬川"},{"zipCode":"9391722","prefectureKana":"ﾄﾔﾏｹﾝ","cityKana":"ﾅﾝﾄｼ","streetKana":"ﾄｸﾅﾘ","prefecture":"富山県","city":"南砺市","street":"徳成"},{"zipCode":"9391758","prefectureKana":"ﾄﾔﾏｹﾝ","cityKana":"ﾅﾝﾄｼ","streetKana":"ﾄﾉ","prefecture":"富山県","city":"南砺市","street":"殿"},{"zipCode":"9391723","prefectureKana":"ﾄﾔﾏｹﾝ","cityKana":"ﾅﾝﾄｼ","streetKana":"ﾄﾉｺﾞ","prefecture":"富山県","city":"南砺市","street":"利波河"},{"zipCode":"9391922","prefectureKana":"ﾄﾔﾏｹﾝ","cityKana":"ﾅﾝﾄｼ","streetKana":"ﾄﾞﾉﾊﾗ","prefecture":"富山県","city":"南砺市","street":"渡原"},{"zipCode":"9391604","prefectureKana":"ﾄﾔﾏｹﾝ","cityKana":"ﾅﾝﾄｼ","streetKana":"ﾄﾞﾔﾏ","prefecture":"富山県","city":"南砺市","street":"土山"},{"zipCode":"9391828","prefectureKana":"ﾄﾔﾏｹﾝ","cityKana":"ﾅﾝﾄｼ","streetKana":"ﾅｶｵ","prefecture":"富山県","city":"南砺市","street":"中尾"},{"zipCode":"9391625","prefectureKana":"ﾄﾔﾏｹﾝ","cityKana":"ﾅﾝﾄｼ","streetKana":"ﾅｶﾉｺﾞ","prefecture":"富山県","city":"南砺市","street":"中ノ江"},{"zipCode":"9391924","prefectureKana":"ﾄﾔﾏｹﾝ","cityKana":"ﾅﾝﾄｼ","streetKana":"ﾅｶﾊﾞﾀｹ","prefecture":"富山県","city":"南砺市","street":"中畑"},{"zipCode":"9391927","prefectureKana":"ﾄﾔﾏｹﾝ","cityKana":"ﾅﾝﾄｼ","streetKana":"ﾅｼﾀﾆ","prefecture":"富山県","city":"南砺市","street":"梨谷"},{"zipCode":"9391907","prefectureKana":"ﾄﾔﾏｹﾝ","cityKana":"ﾅﾝﾄｼ","streetKana":"ﾅﾂﾔｹ","prefecture":"富山県","city":"南砺市","street":"夏焼"},{"zipCode":"9391762","prefectureKana":"ﾄﾔﾏｹﾝ","cityKana":"ﾅﾝﾄｼ","streetKana":"ﾅﾅﾏｶﾞﾘ","prefecture":"富山県","city":"南砺市","street":"七曲"},{"zipCode":"9391555","prefectureKana":"ﾄﾔﾏｹﾝ","cityKana":"ﾅﾝﾄｼ","streetKana":"ﾅﾅﾑﾗﾀｷﾃﾞﾗ","prefecture":"富山県","city":"南砺市","street":"七村滝寺"},{"zipCode":"9391963","prefectureKana":"ﾄﾔﾏｹﾝ","cityKana":"ﾅﾝﾄｼ","streetKana":"ﾅﾙﾃﾞ","prefecture":"富山県","city":"南砺市","street":"成出"},{"zipCode":"9391745","prefectureKana":"ﾄﾔﾏｹﾝ","cityKana":"ﾅﾝﾄｼ","streetKana":"ﾅﾜｸﾞﾗ","prefecture":"富山県","city":"南砺市","street":"縄蔵"},{"zipCode":"9391977","prefectureKana":"ﾄﾔﾏｹﾝ","cityKana":"ﾅﾝﾄｼ","streetKana":"ﾆｼｱｶｵﾏﾁ","prefecture":"富山県","city":"南砺市","street":"西赤尾町"},{"zipCode":"9391837","prefectureKana":"ﾄﾔﾏｹﾝ","cityKana":"ﾅﾝﾄｼ","streetKana":"ﾆｼﾊﾗ","prefecture":"富山県","city":"南砺市","street":"西原"},{"zipCode":"9391514","prefectureKana":"ﾄﾔﾏｹﾝ","cityKana":"ﾅﾝﾄｼ","streetKana":"ﾈﾝﾀﾞｲ","prefecture":"富山県","city":"南砺市","street":"年代"},{"zipCode":"9391844","prefectureKana":"ﾄﾔﾏｹﾝ","cityKana":"ﾅﾝﾄｼ","streetKana":"ﾉｸﾞﾁ","prefecture":"富山県","city":"南砺市","street":"野口"},{"zipCode":"9391521","prefectureKana":"ﾄﾔﾏｹﾝ","cityKana":"ﾅﾝﾄｼ","streetKana":"ﾉｼﾞﾏ","prefecture":"富山県","city":"南砺市","street":"苗島"},{"zipCode":"9391502","prefectureKana":"ﾄﾔﾏｹﾝ","cityKana":"ﾅﾝﾄｼ","streetKana":"ﾉｼﾞﾘ","prefecture":"富山県","city":"南砺市","street":"野尻"},{"zipCode":"9391513","prefectureKana":"ﾄﾔﾏｹﾝ","cityKana":"ﾅﾝﾄｼ","streetKana":"ﾉｼﾞﾘﾉ","prefecture":"富山県","city":"南砺市","street":"野尻野"},{"zipCode":"9391522","prefectureKana":"ﾄﾔﾏｹﾝ","cityKana":"ﾅﾝﾄｼ","streetKana":"ﾉｼﾝ","prefecture":"富山県","city":"南砺市","street":"野新"},{"zipCode":"9391842","prefectureKana":"ﾄﾔﾏｹﾝ","cityKana":"ﾅﾝﾄｼ","streetKana":"ﾉﾀﾞ","prefecture":"富山県","city":"南砺市","street":"野田"},{"zipCode":"9391523","prefectureKana":"ﾄﾔﾏｹﾝ","cityKana":"ﾅﾝﾄｼ","streetKana":"ﾉﾊﾗ","prefecture":"富山県","city":"南砺市","street":"野原"},{"zipCode":"9391851","prefectureKana":"ﾄﾔﾏｹﾝ","cityKana":"ﾅﾝﾄｼ","streetKana":"ﾉﾌﾞｽｴ","prefecture":"富山県","city":"南砺市","street":"信末"},{"zipCode":"9391606","prefectureKana":"ﾄﾔﾏｹﾝ","cityKana":"ﾅﾝﾄｼ","streetKana":"ﾉﾐ","prefecture":"富山県","city":"南砺市","street":"能美"},{"zipCode":"9391624","prefectureKana":"ﾄﾔﾏｹﾝ","cityKana":"ﾅﾝﾄｼ","streetKana":"ﾊﾁﾏﾝ","prefecture":"富山県","city":"南砺市","street":"八幡"},{"zipCode":"9391757","prefectureKana":"ﾄﾔﾏｹﾝ","cityKana":"ﾅﾝﾄｼ","streetKana":"ﾊﾌﾞ","prefecture":"富山県","city":"南砺市","street":"土生"},{"zipCode":"9391756","prefectureKana":"ﾄﾔﾏｹﾝ","cityKana":"ﾅﾝﾄｼ","streetKana":"ﾊﾌﾞｼﾝ","prefecture":"富山県","city":"南砺市","street":"土生新"},{"zipCode":"9391541","prefectureKana":"ﾄﾔﾏｹﾝ","cityKana":"ﾅﾝﾄｼ","streetKana":"ﾊﾞﾝﾃﾞ","prefecture":"富山県","city":"南砺市","street":"晩田"},{"zipCode":"9391966","prefectureKana":"ﾄﾔﾏｹﾝ","cityKana":"ﾅﾝﾄｼ","streetKana":"ﾋｶﾞｼｱｶｵ","prefecture":"富山県","city":"南砺市","street":"東赤尾"},{"zipCode":"9391536","prefectureKana":"ﾄﾔﾏｹﾝ","cityKana":"ﾅﾝﾄｼ","streetKana":"ﾋｶﾞｼｲｼﾀﾞ","prefecture":"富山県","city":"南砺市","street":"東石田"},{"zipCode":"9391721","prefectureKana":"ﾄﾔﾏｹﾝ","cityKana":"ﾅﾝﾄｼ","streetKana":"ﾋｶﾞｼﾄﾉ","prefecture":"富山県","city":"南砺市","street":"東殿"},{"zipCode":"9391905","prefectureKana":"ﾄﾔﾏｹﾝ","cityKana":"ﾅﾝﾄｼ","streetKana":"ﾋｶﾞｼﾅｶｴ","prefecture":"富山県","city":"南砺市","street":"東中江"},{"zipCode":"9391803","prefectureKana":"ﾄﾔﾏｹﾝ","cityKana":"ﾅﾝﾄｼ","streetKana":"ﾋｶﾞｼﾆｼﾊﾗ","prefecture":"富山県","city":"南砺市","street":"東西原"},{"zipCode":"9391712","prefectureKana":"ﾄﾔﾏｹﾝ","cityKana":"ﾅﾝﾄｼ","streetKana":"ﾋｻﾄ","prefecture":"富山県","city":"南砺市","street":"久戸"},{"zipCode":"9391601","prefectureKana":"ﾄﾔﾏｹﾝ","cityKana":"ﾅﾝﾄｼ","streetKana":"ﾋﾄﾌﾞ","prefecture":"富山県","city":"南砺市","street":"人母"},{"zipCode":"9391763","prefectureKana":"ﾄﾔﾏｹﾝ","cityKana":"ﾅﾝﾄｼ","streetKana":"ﾋﾉｾﾄ","prefecture":"富山県","city":"南砺市","street":"樋瀬戸"},{"zipCode":"9391517","prefectureKana":"ﾄﾔﾏｹﾝ","cityKana":"ﾅﾝﾄｼ","streetKana":"ﾋｬｸﾁｮｳ","prefecture":"富山県","city":"南砺市","street":"百町"},{"zipCode":"9391672","prefectureKana":"ﾄﾔﾏｹﾝ","cityKana":"ﾅﾝﾄｼ","streetKana":"ﾋﾛﾀﾆ","prefecture":"富山県","city":"南砺市","street":"広谷"},{"zipCode":"9391534","prefectureKana":"ﾄﾔﾏｹﾝ","cityKana":"ﾅﾝﾄｼ","streetKana":"ﾋﾛﾔｽ","prefecture":"富山県","city":"南砺市","street":"広安"},{"zipCode":"9391561","prefectureKana":"ﾄﾔﾏｹﾝ","cityKana":"ﾅﾝﾄｼ","streetKana":"ﾌｸﾉ","prefecture":"富山県","city":"南砺市","street":"福野"},{"zipCode":"9391562","prefectureKana":"ﾄﾔﾏｹﾝ","cityKana":"ﾅﾝﾄｼ","streetKana":"ﾌｸﾉ(ｳﾗﾏﾁ)","prefecture":"富山県","city":"南砺市","street":"福野（浦町）"},{"zipCode":"9391572","prefectureKana":"ﾄﾔﾏｹﾝ","cityKana":"ﾅﾝﾄｼ","streetKana":"ﾌｸﾉ(ｴｷﾏｴﾄﾞｵﾘ)","prefecture":"富山県","city":"南砺市","street":"福野（駅前通り）"},{"zipCode":"9391564","prefectureKana":"ﾄﾔﾏｹﾝ","cityKana":"ﾅﾝﾄｼ","streetKana":"ﾌｸﾉ(ｵｸﾗﾏﾁ)","prefecture":"富山県","city":"南砺市","street":"福野（御蔵町）"},{"zipCode":"9391567","prefectureKana":"ﾄﾔﾏｹﾝ","cityKana":"ﾅﾝﾄｼ","streetKana":"ﾌｸﾉ(ｶﾝﾏﾁ)","prefecture":"富山県","city":"南砺市","street":"福野（上町）"},{"zipCode":"9391565","prefectureKana":"ﾄﾔﾏｹﾝ","cityKana":"ﾅﾝﾄｼ","streetKana":"ﾌｸﾉ(ｼﾝﾏﾁ)","prefecture":"富山県","city":"南砺市","street":"福野（新町）"},{"zipCode":"9391563","prefectureKana":"ﾄﾔﾏｹﾝ","cityKana":"ﾅﾝﾄｼ","streetKana":"ﾌｸﾉ(ﾀﾂﾐﾏﾁ)","prefecture":"富山県","city":"南砺市","street":"福野（辰巳町）"},{"zipCode":"9391566","prefectureKana":"ﾄﾔﾏｹﾝ","cityKana":"ﾅﾝﾄｼ","streetKana":"ﾌｸﾉ(ﾀﾅｶﾏﾁ)","prefecture":"富山県","city":"南砺市","street":"福野（田中町）"},{"zipCode":"9391574","prefectureKana":"ﾄﾔﾏｹﾝ","cityKana":"ﾅﾝﾄｼ","streetKana":"ﾌｸﾉ(ﾅﾅﾂﾔ)","prefecture":"富山県","city":"南砺市","street":"福野（七ツ屋）"},{"zipCode":"9391573","prefectureKana":"ﾄﾔﾏｹﾝ","cityKana":"ﾅﾝﾄｼ","streetKana":"ﾌｸﾉ(ﾐﾅﾐﾏﾁ)","prefecture":"富山県","city":"南砺市","street":"福野（南町）"},{"zipCode":"9391568","prefectureKana":"ﾄﾔﾏｹﾝ","cityKana":"ﾅﾝﾄｼ","streetKana":"ﾌｸﾉ(ﾖｺﾏﾁ)","prefecture":"富山県","city":"南砺市","street":"福野（横町）"},{"zipCode":"9391515","prefectureKana":"ﾄﾔﾏｹﾝ","cityKana":"ﾅﾝﾄｼ","streetKana":"ﾌｸﾉｼﾞｸﾔ","prefecture":"富山県","city":"南砺市","street":"福野軸屋"},{"zipCode":"9391610","prefectureKana":"ﾄﾔﾏｹﾝ","cityKana":"ﾅﾝﾄｼ","streetKana":"ﾌｸﾐﾂ","prefecture":"富山県","city":"南砺市","street":"福光"},{"zipCode":"9391631","prefectureKana":"ﾄﾔﾏｹﾝ","cityKana":"ﾅﾝﾄｼ","streetKana":"ﾌｸﾐﾂ(ｱｻﾋﾏﾁ)","prefecture":"富山県","city":"南砺市","street":"福光（旭町）"},{"zipCode":"9391646","prefectureKana":"ﾄﾔﾏｹﾝ","cityKana":"ﾅﾝﾄｼ","streetKana":"ﾌｸﾐﾂ(ｱﾗﾏﾁ)","prefecture":"富山県","city":"南砺市","street":"福光（荒町）"},{"zipCode":"9391641","prefectureKana":"ﾄﾔﾏｹﾝ","cityKana":"ﾅﾝﾄｼ","streetKana":"ﾌｸﾐﾂ(ｶﾜﾊﾗﾏﾁ)","prefecture":"富山県","city":"南砺市","street":"福光（川原町）"},{"zipCode":"9391636","prefectureKana":"ﾄﾔﾏｹﾝ","cityKana":"ﾅﾝﾄｼ","streetKana":"ﾌｸﾐﾂ(ｶﾝﾀﾞﾏﾁ)","prefecture":"富山県","city":"南砺市","street":"福光（神田町）"},{"zipCode":"9391632","prefectureKana":"ﾄﾔﾏｹﾝ","cityKana":"ﾅﾝﾄｼ","streetKana":"ﾌｸﾐﾂ(ｶﾝﾉﾝﾏﾁ)","prefecture":"富山県","city":"南砺市","street":"福光（観音町）"},{"zipCode":"9391644","prefectureKana":"ﾄﾔﾏｹﾝ","cityKana":"ﾅﾝﾄｼ","streetKana":"ﾌｸﾐﾂ(ｺﾞﾎｳﾏﾁ)","prefecture":"富山県","city":"南砺市","street":"福光（五宝町）"},{"zipCode":"9391654","prefectureKana":"ﾄﾔﾏｹﾝ","cityKana":"ﾅﾝﾄｼ","streetKana":"ﾌｸﾐﾂ(ｻｶｴﾏﾁ)","prefecture":"富山県","city":"南砺市","street":"福光（栄町）"},{"zipCode":"9391635","prefectureKana":"ﾄﾔﾏｹﾝ","cityKana":"ﾅﾝﾄｼ","streetKana":"ﾌｸﾐﾂ(ﾁｭｳｵｳﾄﾞｵﾘ)","prefecture":"富山県","city":"南砺市","street":"福光（中央通り）"},{"zipCode":"9391634","prefectureKana":"ﾄﾔﾏｹﾝ","cityKana":"ﾅﾝﾄｼ","streetKana":"ﾌｸﾐﾂ(ﾃﾗﾏﾁ)","prefecture":"富山県","city":"南砺市","street":"福光（寺町）"},{"zipCode":"9391662","prefectureKana":"ﾄﾔﾏｹﾝ","cityKana":"ﾅﾝﾄｼ","streetKana":"ﾌｸﾐﾂ(ﾃﾝｼﾞﾝﾏﾁ)","prefecture":"富山県","city":"南砺市","street":"福光（天神町）"},{"zipCode":"9391645","prefectureKana":"ﾄﾔﾏｹﾝ","cityKana":"ﾅﾝﾄｼ","streetKana":"ﾌｸﾐﾂ(ﾅｶｱﾗﾏﾁ)","prefecture":"富山県","city":"南砺市","street":"福光（中荒町）"},{"zipCode":"9391637","prefectureKana":"ﾄﾔﾏｹﾝ","cityKana":"ﾅﾝﾄｼ","streetKana":"ﾌｸﾐﾂ(ﾆｼﾏﾁ)","prefecture":"富山県","city":"南砺市","street":"福光（西町）"},{"zipCode":"9391651","prefectureKana":"ﾄﾔﾏｹﾝ","cityKana":"ﾅﾝﾄｼ","streetKana":"ﾌｸﾐﾂ(ﾋｶﾞｼｼﾝﾏﾁ)","prefecture":"富山県","city":"南砺市","street":"福光（東新町）"},{"zipCode":"9391633","prefectureKana":"ﾄﾔﾏｹﾝ","cityKana":"ﾅﾝﾄｼ","streetKana":"ﾌｸﾐﾂ(ﾋｶﾞｼﾏﾁ)","prefecture":"富山県","city":"南砺市","street":"福光（東町）"},{"zipCode":"9391643","prefectureKana":"ﾄﾔﾏｹﾝ","cityKana":"ﾅﾝﾄｼ","streetKana":"ﾌｸﾐﾂ(ﾎﾝﾏﾁ)","prefecture":"富山県","city":"南砺市","street":"福光（本町）"},{"zipCode":"9391642","prefectureKana":"ﾄﾔﾏｹﾝ","cityKana":"ﾅﾝﾄｼ","streetKana":"ﾌｸﾐﾂ(ﾐｿﾔﾁｮｳ)","prefecture":"富山県","city":"南砺市","street":"福光（味噌屋町）"},{"zipCode":"9391653","prefectureKana":"ﾄﾔﾏｹﾝ","cityKana":"ﾅﾝﾄｼ","streetKana":"ﾌｸﾐﾂ(ﾐﾔﾜｷﾁｮｳ)","prefecture":"富山県","city":"南砺市","street":"福光（宮脇町）"},{"zipCode":"9391652","prefectureKana":"ﾄﾔﾏｹﾝ","cityKana":"ﾅﾝﾄｼ","streetKana":"ﾌｸﾐﾂｼﾝﾏﾁ","prefecture":"富山県","city":"南砺市","street":"福光新町"},{"zipCode":"9391507","prefectureKana":"ﾄﾔﾏｹﾝ","cityKana":"ﾅﾝﾄｼ","streetKana":"ﾌﾂｶﾏﾁ","prefecture":"富山県","city":"南砺市","street":"二日町"},{"zipCode":"9391761","prefectureKana":"ﾄﾔﾏｹﾝ","cityKana":"ﾅﾝﾄｼ","streetKana":"ﾌﾄﾐ","prefecture":"富山県","city":"南砺市","street":"太美"},{"zipCode":"9391626","prefectureKana":"ﾄﾔﾏｹﾝ","cityKana":"ﾅﾝﾄｼ","streetKana":"ﾎｳﾘﾝｼﾞ","prefecture":"富山県","city":"南砺市","street":"法林寺"},{"zipCode":"9391841","prefectureKana":"ﾄﾔﾏｹﾝ","cityKana":"ﾅﾝﾄｼ","streetKana":"ﾎｿｷ","prefecture":"富山県","city":"南砺市","street":"細木"},{"zipCode":"9391805","prefectureKana":"ﾄﾔﾏｹﾝ","cityKana":"ﾅﾝﾄｼ","streetKana":"ﾎｿﾉ","prefecture":"富山県","city":"南砺市","street":"細野"},{"zipCode":"9391545","prefectureKana":"ﾄﾔﾏｹﾝ","cityKana":"ﾅﾝﾄｼ","streetKana":"ﾎﾃｲ","prefecture":"富山県","city":"南砺市","street":"布袋"},{"zipCode":"9391501","prefectureKana":"ﾄﾔﾏｹﾝ","cityKana":"ﾅﾝﾄｼ","streetKana":"ﾎﾝｺﾞｳ","prefecture":"富山県","city":"南砺市","street":"本江"},{"zipCode":"9391549","prefectureKana":"ﾄﾔﾏｹﾝ","cityKana":"ﾅﾝﾄｼ","streetKana":"ﾏｴﾀﾞ","prefecture":"富山県","city":"南砺市","street":"前田"},{"zipCode":"9391965","prefectureKana":"ﾄﾔﾏｹﾝ","cityKana":"ﾅﾝﾄｼ","streetKana":"ﾏｷ","prefecture":"富山県","city":"南砺市","street":"真木"},{"zipCode":"9391813","prefectureKana":"ﾄﾔﾏｹﾝ","cityKana":"ﾅﾝﾄｼ","streetKana":"ﾏｻﾀﾆ","prefecture":"富山県","city":"南砺市","street":"正谷"},{"zipCode":"9391623","prefectureKana":"ﾄﾔﾏｹﾝ","cityKana":"ﾅﾝﾄｼ","streetKana":"ﾏﾂﾉｷ","prefecture":"富山県","city":"南砺市","street":"松木"},{"zipCode":"9391518","prefectureKana":"ﾄﾔﾏｹﾝ","cityKana":"ﾅﾝﾄｼ","streetKana":"ﾏﾂﾊﾞﾗ","prefecture":"富山県","city":"南砺市","street":"松原"},{"zipCode":"9391571","prefectureKana":"ﾄﾔﾏｹﾝ","cityKana":"ﾅﾝﾄｼ","streetKana":"ﾏﾂﾊﾞﾗｼﾝ","prefecture":"富山県","city":"南砺市","street":"松原新"},{"zipCode":"9391916","prefectureKana":"ﾄﾔﾏｹﾝ","cityKana":"ﾅﾝﾄｼ","streetKana":"ﾐｻﾞ","prefecture":"富山県","city":"南砺市","street":"見座"},{"zipCode":"9391547","prefectureKana":"ﾄﾔﾏｹﾝ","cityKana":"ﾅﾝﾄｼ","streetKana":"ﾐﾂﾔ","prefecture":"富山県","city":"南砺市","street":"三ツ屋"},{"zipCode":"9391835","prefectureKana":"ﾄﾔﾏｹﾝ","cityKana":"ﾅﾝﾄｼ","streetKana":"ﾐﾅﾐﾊﾗ","prefecture":"富山県","city":"南砺市","street":"南原"},{"zipCode":"9391812","prefectureKana":"ﾄﾔﾏｹﾝ","cityKana":"ﾅﾝﾄｼ","streetKana":"ﾐﾉﾀﾞﾆ","prefecture":"富山県","city":"南砺市","street":"蓑谷"},{"zipCode":"9391879","prefectureKana":"ﾄﾔﾏｹﾝ","cityKana":"ﾅﾝﾄｼ","streetKana":"ﾐﾔﾉｳｼﾛ","prefecture":"富山県","city":"南砺市","street":"宮後"},{"zipCode":"9391972","prefectureKana":"ﾄﾔﾏｹﾝ","cityKana":"ﾅﾝﾄｼ","streetKana":"ﾑｸﾗｼﾞﾏ","prefecture":"富山県","city":"南砺市","street":"葎島"},{"zipCode":"9391715","prefectureKana":"ﾄﾔﾏｹﾝ","cityKana":"ﾅﾝﾄｼ","streetKana":"ﾑﾈﾓﾘ","prefecture":"富山県","city":"南砺市","street":"宗守"},{"zipCode":"9391546","prefectureKana":"ﾄﾔﾏｹﾝ","cityKana":"ﾅﾝﾄｼ","streetKana":"ﾓﾘ","prefecture":"富山県","city":"南砺市","street":"森"},{"zipCode":"9391527","prefectureKana":"ﾄﾔﾏｹﾝ","cityKana":"ﾅﾝﾄｼ","streetKana":"ﾓﾘｷﾖ","prefecture":"富山県","city":"南砺市","street":"森清"},{"zipCode":"9391827","prefectureKana":"ﾄﾔﾏｹﾝ","cityKana":"ﾅﾝﾄｼ","streetKana":"ﾓﾘｼﾝ","prefecture":"富山県","city":"南砺市","street":"盛新"},{"zipCode":"9391576","prefectureKana":"ﾄﾔﾏｹﾝ","cityKana":"ﾅﾝﾄｼ","streetKana":"ﾔｶﾀ","prefecture":"富山県","city":"南砺市","street":"やかた"},{"zipCode":"9391516","prefectureKana":"ﾄﾔﾏｹﾝ","cityKana":"ﾅﾝﾄｼ","streetKana":"ﾔｹﾉ","prefecture":"富山県","city":"南砺市","street":"焼野"},{"zipCode":"9391554","prefectureKana":"ﾄﾔﾏｹﾝ","cityKana":"ﾅﾝﾄｼ","streetKana":"ﾔｽｲ","prefecture":"富山県","city":"南砺市","street":"安居"},{"zipCode":"9391528","prefectureKana":"ﾄﾔﾏｹﾝ","cityKana":"ﾅﾝﾄｼ","streetKana":"ﾔｽｷﾖ","prefecture":"富山県","city":"南砺市","street":"安清"},{"zipCode":"9391533","prefectureKana":"ﾄﾔﾏｹﾝ","cityKana":"ﾅﾝﾄｼ","streetKana":"ﾔﾂﾂﾞｶ","prefecture":"富山県","city":"南砺市","street":"八塚"},{"zipCode":"9391747","prefectureKana":"ﾄﾔﾏｹﾝ","cityKana":"ﾅﾝﾄｼ","streetKana":"ﾔﾏﾀﾞ","prefecture":"富山県","city":"南砺市","street":"山田"},{"zipCode":"9391666","prefectureKana":"ﾄﾔﾏｹﾝ","cityKana":"ﾅﾝﾄｼ","streetKana":"ﾔﾏﾓﾄ","prefecture":"富山県","city":"南砺市","street":"山本"},{"zipCode":"9391615","prefectureKana":"ﾄﾔﾏｹﾝ","cityKana":"ﾅﾝﾄｼ","streetKana":"ﾕﾀﾞﾆ","prefecture":"富山県","city":"南砺市","street":"湯谷"},{"zipCode":"9391702","prefectureKana":"ﾄﾔﾏｹﾝ","cityKana":"ﾅﾝﾄｼ","streetKana":"ﾖｼｴﾅｶ","prefecture":"富山県","city":"南砺市","street":"吉江中"},{"zipCode":"9391742","prefectureKana":"ﾄﾔﾏｹﾝ","cityKana":"ﾅﾝﾄｼ","streetKana":"ﾖｼｴﾉ","prefecture":"富山県","city":"南砺市","street":"吉江野"},{"zipCode":"9391764","prefectureKana":"ﾄﾔﾏｹﾝ","cityKana":"ﾅﾝﾄｼ","streetKana":"ﾖｼﾐ","prefecture":"富山県","city":"南砺市","street":"吉見"},{"zipCode":"9391754","prefectureKana":"ﾄﾔﾏｹﾝ","cityKana":"ﾅﾝﾄｼ","streetKana":"ﾖﾒｶﾞﾈ","prefecture":"富山県","city":"南砺市","street":"嫁兼"},{"zipCode":"9391811","prefectureKana":"ﾄﾔﾏｹﾝ","cityKana":"ﾅﾝﾄｼ","streetKana":"ﾘｷｭｳ","prefecture":"富山県","city":"南砺市","street":"理休"},{"zipCode":"9391822","prefectureKana":"ﾄﾔﾏｹﾝ","cityKana":"ﾅﾝﾄｼ","streetKana":"ﾘﾝﾄﾞｳ","prefecture":"富山県","city":"南砺市","street":"林道"},{"zipCode":"9390300","prefectureKana":"ﾄﾔﾏｹﾝ","cityKana":"ｲﾐｽﾞｼ","streetKana":"ｲｶﾆｹｲｻｲｶﾞﾅｲﾊﾞｱｲ","prefecture":"富山県","city":"射水市","street":"以下に掲載がない場合"},{"zipCode":"9390321","prefectureKana":"ﾄﾔﾏｹﾝ","cityKana":"ｲﾐｽﾞｼ","streetKana":"ｱｵｲﾀﾞﾆ","prefecture":"富山県","city":"射水市","street":"青井谷"},{"zipCode":"9390321","prefectureKana":"ﾄﾔﾏｹﾝ","cityKana":"ｲﾐｽﾞｼ","streetKana":"ｱｵｲﾀﾞﾆ(ｱﾗﾔｼｷ)","prefecture":"富山県","city":"射水市","street":"青井谷（新屋敷）"},{"zipCode":"9390321","prefectureKana":"ﾄﾔﾏｹﾝ","cityKana":"ｲﾐｽﾞｼ","streetKana":"ｱｵｲﾀﾞﾆ(ｺﾞｶﾝﾉ)","prefecture":"富山県","city":"射水市","street":"青井谷（五官野）"},{"zipCode":"9390321","prefectureKana":"ﾄﾔﾏｹﾝ","cityKana":"ｲﾐｽﾞｼ","streetKana":"ｱｵｲﾀﾞﾆ(ｻﾝﾉ)","prefecture":"富山県","city":"射水市","street":"青井谷（三野）"},{"zipCode":"9390321","prefectureKana":"ﾄﾔﾏｹﾝ","cityKana":"ｲﾐｽﾞｼ","streetKana":"ｱｵｲﾀﾞﾆ(ﾆｼﾀﾆ)","prefecture":"富山県","city":"射水市","street":"青井谷（西谷）"},{"zipCode":"9390321","prefectureKana":"ﾄﾔﾏｹﾝ","cityKana":"ｲﾐｽﾞｼ","streetKana":"ｱｵｲﾀﾞﾆ(ﾐｽﾞｶﾐﾀﾆ)","prefecture":"富山県","city":"射水市","street":"青井谷（水上谷）"},{"zipCode":"9390247","prefectureKana":"ﾄﾔﾏｹﾝ","cityKana":"ｲﾐｽﾞｼ","streetKana":"ｱｵﾊﾞﾀﾞｲ","prefecture":"富山県","city":"射水市","street":"あおば台"},{"zipCode":"9390287","prefectureKana":"ﾄﾔﾏｹﾝ","cityKana":"ｲﾐｽﾞｼ","streetKana":"ｱｶｲ","prefecture":"富山県","city":"射水市","street":"赤井"},{"zipCode":"9390412","prefectureKana":"ﾄﾔﾏｹﾝ","cityKana":"ｲﾐｽﾞｼ","streetKana":"ｱﾗﾏﾁ","prefecture":"富山県","city":"射水市","street":"荒町"},{"zipCode":"9390318","prefectureKana":"ﾄﾔﾏｹﾝ","cityKana":"ｲﾐｽﾞｼ","streetKana":"ｲｹﾀﾞ","prefecture":"富山県","city":"射水市","street":"池多"},{"zipCode":"9390333","prefectureKana":"ﾄﾔﾏｹﾝ","cityKana":"ｲﾐｽﾞｼ","streetKana":"ｲﾁｼﾞｮｳ","prefecture":"富山県","city":"射水市","street":"一条"},{"zipCode":"9390404","prefectureKana":"ﾄﾔﾏｹﾝ","cityKana":"ｲﾐｽﾞｼ","streetKana":"ｲﾁﾉｲ","prefecture":"富山県","city":"射水市","street":"市井"},{"zipCode":"9390301","prefectureKana":"ﾄﾔﾏｹﾝ","cityKana":"ｲﾐｽﾞｼ","streetKana":"ｲﾅﾂﾞﾐ","prefecture":"富山県","city":"射水市","street":"稲積"},{"zipCode":"9390286","prefectureKana":"ﾄﾔﾏｹﾝ","cityKana":"ｲﾐｽﾞｼ","streetKana":"ｲﾏｶｲﾎﾂ","prefecture":"富山県","city":"射水市","street":"今開発"},{"zipCode":"9390231","prefectureKana":"ﾄﾔﾏｹﾝ","cityKana":"ｲﾐｽﾞｼ","streetKana":"ｲﾝﾅｲ","prefecture":"富山県","city":"射水市","street":"犬内"},{"zipCode":"9390415","prefectureKana":"ﾄﾔﾏｹﾝ","cityKana":"ｲﾐｽﾞｼ","streetKana":"ｳﾒﾉｷ","prefecture":"富山県","city":"射水市","street":"梅木"},{"zipCode":"9390322","prefectureKana":"ﾄﾔﾏｹﾝ","cityKana":"ｲﾐｽﾞｼ","streetKana":"ｳﾜﾉ","prefecture":"富山県","city":"射水市","street":"上野"},{"zipCode":"9390302","prefectureKana":"ﾄﾔﾏｹﾝ","cityKana":"ｲﾐｽﾞｼ","streetKana":"ｵｵｺﾞｳ","prefecture":"富山県","city":"射水市","street":"大江"},{"zipCode":"9390271","prefectureKana":"ﾄﾔﾏｹﾝ","cityKana":"ｲﾐｽﾞｼ","streetKana":"ｵｵｼﾏｷﾀﾉ","prefecture":"富山県","city":"射水市","street":"大島北野"},{"zipCode":"9390406","prefectureKana":"ﾄﾔﾏｹﾝ","cityKana":"ｲﾐｽﾞｼ","streetKana":"ｶｲｸﾞﾁ","prefecture":"富山県","city":"射水市","street":"開口"},{"zipCode":"9390281","prefectureKana":"ﾄﾔﾏｹﾝ","cityKana":"ｲﾐｽﾞｼ","streetKana":"ｷﾀﾀｶｷ","prefecture":"富山県","city":"射水市","street":"北高木"},{"zipCode":"9390276","prefectureKana":"ﾄﾔﾏｹﾝ","cityKana":"ｲﾐｽﾞｼ","streetKana":"ｷﾀﾉ","prefecture":"富山県","city":"射水市","street":"北野"},{"zipCode":"9390413","prefectureKana":"ﾄﾔﾏｹﾝ","cityKana":"ｲﾐｽﾞｼ","streetKana":"ｸｼﾀ","prefecture":"富山県","city":"射水市","street":"串田"},{"zipCode":"9390416","prefectureKana":"ﾄﾔﾏｹﾝ","cityKana":"ｲﾐｽﾞｼ","streetKana":"ｸｼﾀｼﾝ","prefecture":"富山県","city":"射水市","street":"串田新"},{"zipCode":"9390311","prefectureKana":"ﾄﾔﾏｹﾝ","cityKana":"ｲﾐｽﾞｼ","streetKana":"ｸﾛｶﾜ","prefecture":"富山県","city":"射水市","street":"黒河"},{"zipCode":"9390311","prefectureKana":"ﾄﾔﾏｹﾝ","cityKana":"ｲﾐｽﾞｼ","streetKana":"ｸﾛｶﾜｼﾝ","prefecture":"富山県","city":"射水市","street":"黒河新"},{"zipCode":"9390252","prefectureKana":"ﾄﾔﾏｹﾝ","cityKana":"ｲﾐｽﾞｼ","streetKana":"ｹﾞｼﾞｮｳ","prefecture":"富山県","city":"射水市","street":"下条"},{"zipCode":"9390331","prefectureKana":"ﾄﾔﾏｹﾝ","cityKana":"ｲﾐｽﾞｼ","streetKana":"ｹﾞｼﾞｮｳｼﾝ","prefecture":"富山県","city":"射水市","street":"下条新"},{"zipCode":"9390417","prefectureKana":"ﾄﾔﾏｹﾝ","cityKana":"ｲﾐｽﾞｼ","streetKana":"ｺｲｽﾞﾐ","prefecture":"富山県","city":"射水市","street":"小泉"},{"zipCode":"9390274","prefectureKana":"ﾄﾔﾏｹﾝ","cityKana":"ｲﾐｽﾞｼ","streetKana":"ｺｼﾞﾏ","prefecture":"富山県","city":"射水市","street":"小島"},{"zipCode":"9390316","prefectureKana":"ﾄﾔﾏｹﾝ","cityKana":"ｲﾐｽﾞｼ","streetKana":"ｺｽｷﾞｷﾀﾉ","prefecture":"富山県","city":"射水市","street":"小杉北野"},{"zipCode":"9390304","prefectureKana":"ﾄﾔﾏｹﾝ","cityKana":"ｲﾐｽﾞｼ","streetKana":"ｺｽｷﾞｼﾗｲｼ","prefecture":"富山県","city":"射水市","street":"小杉白石"},{"zipCode":"9390304","prefectureKana":"ﾄﾔﾏｹﾝ","cityKana":"ｲﾐｽﾞｼ","streetKana":"ｺｽｷﾞｼﾗｲｼ(ｺｼﾗｲｼ)","prefecture":"富山県","city":"射水市","street":"小杉白石（小白石）"},{"zipCode":"9390288","prefectureKana":"ﾄﾔﾏｹﾝ","cityKana":"ｲﾐｽﾞｼ","streetKana":"ｺﾊﾞﾔｼ","prefecture":"富山県","city":"射水市","street":"小林"},{"zipCode":"9390341","prefectureKana":"ﾄﾔﾏｹﾝ","cityKana":"ｲﾐｽﾞｼ","streetKana":"ｻﾝｶﾞ","prefecture":"富山県","city":"射水市","street":"三ケ"},{"zipCode":"9390341","prefectureKana":"ﾄﾔﾏｹﾝ","cityKana":"ｲﾐｽﾞｼ","streetKana":"ｻﾝｶﾞ(ｱﾀｺﾞ)","prefecture":"富山県","city":"射水市","street":"三ケ（愛宕）"},{"zipCode":"9390341","prefectureKana":"ﾄﾔﾏｹﾝ","cityKana":"ｲﾐｽﾞｼ","streetKana":"ｻﾝｶﾞ(ｲｾﾘｮ)","prefecture":"富山県","city":"射水市","street":"三ケ（伊勢領）"},{"zipCode":"9390341","prefectureKana":"ﾄﾔﾏｹﾝ","cityKana":"ｲﾐｽﾞｼ","streetKana":"ｻﾝｶﾞ(ｲﾁﾊﾞﾝﾏﾁ)","prefecture":"富山県","city":"射水市","street":"三ケ（一番町）"},{"zipCode":"9390341","prefectureKana":"ﾄﾔﾏｹﾝ","cityKana":"ｲﾐｽﾞｼ","streetKana":"ｻﾝｶﾞ(ｶｲﾂﾞｶﾏﾁ)","prefecture":"富山県","city":"射水市","street":"三ケ（貝塚町）"},{"zipCode":"9390341","prefectureKana":"ﾄﾔﾏｹﾝ","cityKana":"ｲﾐｽﾞｼ","streetKana":"ｻﾝｶﾞ(ｶﾐｼﾝﾏﾁ)","prefecture":"富山県","city":"射水市","street":"三ケ（上新町）"},{"zipCode":"9390341","prefectureKana":"ﾄﾔﾏｹﾝ","cityKana":"ｲﾐｽﾞｼ","streetKana":"ｻﾝｶﾞ(ｻｸﾗﾏﾁ)","prefecture":"富山県","city":"射水市","street":"三ケ（さくら町）"},{"zipCode":"9390341","prefectureKana":"ﾄﾔﾏｹﾝ","cityKana":"ｲﾐｽﾞｼ","streetKana":"ｻﾝｶﾞ(ｼﾛｶﾞﾈﾁｮｳ)","prefecture":"富山県","city":"射水市","street":"三ケ（白銀町）"},{"zipCode":"9390341","prefectureKana":"ﾄﾔﾏｹﾝ","cityKana":"ｲﾐｽﾞｼ","streetKana":"ｻﾝｶﾞ(ｼﾝｻﾝｶﾞ)","prefecture":"富山県","city":"射水市","street":"三ケ（新三ケ）"},{"zipCode":"9390341","prefectureKana":"ﾄﾔﾏｹﾝ","cityKana":"ｲﾐｽﾞｼ","streetKana":"ｻﾝｶﾞ(ｼﾝﾄﾐﾁｮｳ)","prefecture":"富山県","city":"射水市","street":"三ケ（新富町）"},{"zipCode":"9390341","prefectureKana":"ﾄﾔﾏｹﾝ","cityKana":"ｲﾐｽﾞｼ","streetKana":"ｻﾝｶﾞ(ｽｲｹﾞﾝﾁｮｳ)","prefecture":"富山県","city":"射水市","street":"三ケ（水源町）"},{"zipCode":"9390341","prefectureKana":"ﾄﾔﾏｹﾝ","cityKana":"ｲﾐｽﾞｼ","streetKana":"ｻﾝｶﾞ(ｽﾜﾁｮｳ)","prefecture":"富山県","city":"射水市","street":"三ケ（諏訪町）"},{"zipCode":"9390341","prefectureKana":"ﾄﾔﾏｹﾝ","cityKana":"ｲﾐｽﾞｼ","streetKana":"ｻﾝｶﾞ(ﾀｶﾃﾞﾗ)","prefecture":"富山県","city":"射水市","street":"三ケ（高寺）"},{"zipCode":"9390341","prefectureKana":"ﾄﾔﾏｹﾝ","cityKana":"ｲﾐｽﾞｼ","streetKana":"ｻﾝｶﾞ(ﾀﾏﾁ)","prefecture":"富山県","city":"射水市","street":"三ケ（田町）"},{"zipCode":"9390341","prefectureKana":"ﾄﾔﾏｹﾝ","cityKana":"ｲﾐｽﾞｼ","streetKana":"ｻﾝｶﾞ(ﾄｷﾜﾁｮｳ)","prefecture":"富山県","city":"射水市","street":"三ケ（常盤町）"},{"zipCode":"9390341","prefectureKana":"ﾄﾔﾏｹﾝ","cityKana":"ｲﾐｽﾞｼ","streetKana":"ｻﾝｶﾞ(ﾆｼｷﾁｮｳ)","prefecture":"富山県","city":"射水市","street":"三ケ（錦町）"},{"zipCode":"9390341","prefectureKana":"ﾄﾔﾏｹﾝ","cityKana":"ｲﾐｽﾞｼ","streetKana":"ｻﾝｶﾞ(ﾆｼﾁｮｳ)","prefecture":"富山県","city":"射水市","street":"三ケ（西町）"},{"zipCode":"9390341","prefectureKana":"ﾄﾔﾏｹﾝ","cityKana":"ｲﾐｽﾞｼ","streetKana":"ｻﾝｶﾞ(ﾊﾂﾈﾁｮｳ)","prefecture":"富山県","city":"射水市","street":"三ケ（初音町）"},{"zipCode":"9390341","prefectureKana":"ﾄﾔﾏｹﾝ","cityKana":"ｲﾐｽﾞｼ","streetKana":"ｻﾝｶﾞ(ﾎﾝﾅｶﾏﾁ)","prefecture":"富山県","city":"射水市","street":"三ケ（本中町）"},{"zipCode":"9390341","prefectureKana":"ﾄﾔﾏｹﾝ","cityKana":"ｲﾐｽﾞｼ","streetKana":"ｻﾝｶﾞ(ﾎﾝﾏﾙﾏﾁ)","prefecture":"富山県","city":"射水市","street":"三ケ（本丸町）"},{"zipCode":"9390341","prefectureKana":"ﾄﾔﾏｹﾝ","cityKana":"ｲﾐｽﾞｼ","streetKana":"ｻﾝｶﾞ(ﾐｽﾞｶﾐ)","prefecture":"富山県","city":"射水市","street":"三ケ（水上）"},{"zipCode":"9390341","prefectureKana":"ﾄﾔﾏｹﾝ","cityKana":"ｲﾐｽﾞｼ","streetKana":"ｻﾝｶﾞ(ﾓﾄﾏﾁ)","prefecture":"富山県","city":"射水市","street":"三ケ（元町）"},{"zipCode":"9390315","prefectureKana":"ﾄﾔﾏｹﾝ","cityKana":"ｲﾐｽﾞｼ","streetKana":"ｼｲﾄﾞ","prefecture":"富山県","city":"射水市","street":"椎土"},{"zipCode":"9390254","prefectureKana":"ﾄﾔﾏｹﾝ","cityKana":"ｲﾐｽﾞｼ","streetKana":"ｼﾏ","prefecture":"富山県","city":"射水市","street":"島"},{"zipCode":"9390243","prefectureKana":"ﾄﾔﾏｹﾝ","cityKana":"ｲﾐｽﾞｼ","streetKana":"ｼﾓﾜｶ","prefecture":"富山県","city":"射水市","street":"下若"},{"zipCode":"9390321","prefectureKana":"ﾄﾔﾏｹﾝ","cityKana":"ｲﾐｽﾞｼ","streetKana":"ｼｭｸﾔ","prefecture":"富山県","city":"射水市","street":"宿屋"},{"zipCode":"9390403","prefectureKana":"ﾄﾔﾏｹﾝ","cityKana":"ｲﾐｽﾞｼ","streetKana":"ｼｮｳｹﾞﾝｼﾞ","prefecture":"富山県","city":"射水市","street":"生源寺"},{"zipCode":"9390414","prefectureKana":"ﾄﾔﾏｹﾝ","cityKana":"ｲﾐｽﾞｼ","streetKana":"ｼｮｳｹﾞﾝｼﾞｼﾝ","prefecture":"富山県","city":"射水市","street":"生源寺新"},{"zipCode":"9390255","prefectureKana":"ﾄﾔﾏｹﾝ","cityKana":"ｲﾐｽﾞｼ","streetKana":"ｼﾞｮｳｼﾞｮｳ","prefecture":"富山県","city":"射水市","street":"上条"},{"zipCode":"9390321","prefectureKana":"ﾄﾔﾏｹﾝ","cityKana":"ｲﾐｽﾞｼ","streetKana":"ｼﾞｮｳﾄﾞｼﾞ","prefecture":"富山県","city":"射水市","street":"浄土寺"},{"zipCode":"9390321","prefectureKana":"ﾄﾔﾏｹﾝ","cityKana":"ｲﾐｽﾞｼ","streetKana":"ｼﾞｮｳﾄﾞｼﾞ(ﾊﾔｼﾃﾞﾗ)","prefecture":"富山県","city":"射水市","street":"浄土寺（林寺）"},{"zipCode":"9390321","prefectureKana":"ﾄﾔﾏｹﾝ","cityKana":"ｲﾐｽﾞｼ","streetKana":"ｼﾞｮｳﾄﾞｼﾞ(ﾋｶﾞｼﾀﾆ)","prefecture":"富山県","city":"射水市","street":"浄土寺（東谷）"},{"zipCode":"9390284","prefectureKana":"ﾄﾔﾏｹﾝ","cityKana":"ｲﾐｽﾞｼ","streetKana":"ｼﾝｶｲﾎﾂ","prefecture":"富山県","city":"射水市","street":"新開発"},{"zipCode":"9390361","prefectureKana":"ﾄﾔﾏｹﾝ","cityKana":"ｲﾐｽﾞｼ","streetKana":"ﾀｲｺｳﾏﾁ","prefecture":"富山県","city":"射水市","street":"太閤町"},{"zipCode":"9390362","prefectureKana":"ﾄﾔﾏｹﾝ","cityKana":"ｲﾐｽﾞｼ","streetKana":"ﾀｲｺｳﾔﾏ","prefecture":"富山県","city":"射水市","street":"太閤山"},{"zipCode":"9390232","prefectureKana":"ﾄﾔﾏｹﾝ","cityKana":"ｲﾐｽﾞｼ","streetKana":"ﾀﾞｲﾓﾝ","prefecture":"富山県","city":"射水市","street":"大門"},{"zipCode":"9390233","prefectureKana":"ﾄﾔﾏｹﾝ","cityKana":"ｲﾐｽﾞｼ","streetKana":"ﾀﾞｲﾓﾝｼﾝ","prefecture":"富山県","city":"射水市","street":"大門新"},{"zipCode":"9390246","prefectureKana":"ﾄﾔﾏｹﾝ","cityKana":"ｲﾐｽﾞｼ","streetKana":"ﾀﾞｲﾓﾝﾎﾝｺﾞｳ","prefecture":"富山県","city":"射水市","street":"大門本江"},{"zipCode":"9390407","prefectureKana":"ﾄﾔﾏｹﾝ","cityKana":"ｲﾐｽﾞｼ","streetKana":"ﾀｹﾊﾅ","prefecture":"富山県","city":"射水市","street":"竹鼻"},{"zipCode":"9390245","prefectureKana":"ﾄﾔﾏｹﾝ","cityKana":"ｲﾐｽﾞｼ","streetKana":"ﾀﾅﾀﾞ","prefecture":"富山県","city":"射水市","street":"棚田"},{"zipCode":"9390313","prefectureKana":"ﾄﾔﾏｹﾝ","cityKana":"ｲﾐｽﾞｼ","streetKana":"ﾂｶｺﾞｼ","prefecture":"富山県","city":"射水市","street":"塚越"},{"zipCode":"9390411","prefectureKana":"ﾄﾔﾏｹﾝ","cityKana":"ｲﾐｽﾞｼ","streetKana":"ﾂﾌﾞﾗｲｹ","prefecture":"富山県","city":"射水市","street":"円池"},{"zipCode":"9390306","prefectureKana":"ﾄﾔﾏｹﾝ","cityKana":"ｲﾐｽﾞｼ","streetKana":"ﾃｻｷ","prefecture":"富山県","city":"射水市","street":"手崎"},{"zipCode":"9390251","prefectureKana":"ﾄﾔﾏｹﾝ","cityKana":"ｲﾐｽﾞｼ","streetKana":"ﾄﾞｱｲ","prefecture":"富山県","city":"射水市","street":"土合"},{"zipCode":"9390314","prefectureKana":"ﾄﾔﾏｹﾝ","cityKana":"ｲﾐｽﾞｼ","streetKana":"ﾄﾞﾀﾞｲ","prefecture":"富山県","city":"射水市","street":"土代"},{"zipCode":"9390283","prefectureKana":"ﾄﾔﾏｹﾝ","cityKana":"ｲﾐｽﾞｼ","streetKana":"ﾄｯﾄﾘ","prefecture":"富山県","city":"射水市","street":"鳥取"},{"zipCode":"9390312","prefectureKana":"ﾄﾔﾏｹﾝ","cityKana":"ｲﾐｽﾞｼ","streetKana":"ﾅｶｵｲﾀｼﾝ","prefecture":"富山県","city":"射水市","street":"中老田新"},{"zipCode":"9390363","prefectureKana":"ﾄﾔﾏｹﾝ","cityKana":"ｲﾐｽﾞｼ","streetKana":"ﾅｶﾀｲｺｳﾔﾏ","prefecture":"富山県","city":"射水市","street":"中太閤山"},{"zipCode":"9390273","prefectureKana":"ﾄﾔﾏｹﾝ","cityKana":"ｲﾐｽﾞｼ","streetKana":"ﾅｶﾉ","prefecture":"富山県","city":"射水市","street":"中野"},{"zipCode":"9390241","prefectureKana":"ﾄﾔﾏｹﾝ","cityKana":"ｲﾐｽﾞｼ","streetKana":"ﾅｶﾑﾗ","prefecture":"富山県","city":"射水市","street":"中村"},{"zipCode":"9390303","prefectureKana":"ﾄﾔﾏｹﾝ","cityKana":"ｲﾐｽﾞｼ","streetKana":"ﾆｼﾀｶｷﾞ","prefecture":"富山県","city":"射水市","street":"西高木"},{"zipCode":"9390257","prefectureKana":"ﾄﾔﾏｹﾝ","cityKana":"ｲﾐｽﾞｼ","streetKana":"ﾆｼﾋﾛｶﾐ","prefecture":"富山県","city":"射水市","street":"西広上"},{"zipCode":"9390321","prefectureKana":"ﾄﾔﾏｹﾝ","cityKana":"ｲﾐｽﾞｼ","streetKana":"ﾆｭｳｶｲﾁ","prefecture":"富山県","city":"射水市","street":"入会地"},{"zipCode":"9390418","prefectureKana":"ﾄﾔﾏｹﾝ","cityKana":"ｲﾐｽﾞｼ","streetKana":"ﾇﾉﾒｻﾞﾜ","prefecture":"富山県","city":"射水市","street":"布目沢"},{"zipCode":"9390321","prefectureKana":"ﾄﾔﾏｹﾝ","cityKana":"ｲﾐｽﾞｼ","streetKana":"ﾉﾃﾞ","prefecture":"富山県","city":"射水市","street":"野手"},{"zipCode":"9390332","prefectureKana":"ﾄﾔﾏｹﾝ","cityKana":"ｲﾐｽﾞｼ","streetKana":"ﾊｼｹﾞｼﾞｮｳ","prefecture":"富山県","city":"射水市","street":"橋下条"},{"zipCode":"9390332","prefectureKana":"ﾄﾔﾏｹﾝ","cityKana":"ｲﾐｽﾞｼ","streetKana":"ﾊｼｹﾞｼﾞｮｳ(ｱｶﾀ)","prefecture":"富山県","city":"射水市","street":"橋下条（赤田）"},{"zipCode":"9390332","prefectureKana":"ﾄﾔﾏｹﾝ","cityKana":"ｲﾐｽﾞｼ","streetKana":"ﾊｼｹﾞｼﾞｮｳ(ｴｷﾅﾝﾄﾞｵﾘ)","prefecture":"富山県","city":"射水市","street":"橋下条（駅南通り）"},{"zipCode":"9390332","prefectureKana":"ﾄﾔﾏｹﾝ","cityKana":"ｲﾐｽﾞｼ","streetKana":"ﾊｼｹﾞｼﾞｮｳ(ｶｺｲﾔﾏ)","prefecture":"富山県","city":"射水市","street":"橋下条（囲山）"},{"zipCode":"9390332","prefectureKana":"ﾄﾔﾏｹﾝ","cityKana":"ｲﾐｽﾞｼ","streetKana":"ﾊｼｹﾞｼﾞｮｳ(ｺﾞﾌｲﾁ)","prefecture":"富山県","city":"射水市","street":"橋下条（五歩一）"},{"zipCode":"9390332","prefectureKana":"ﾄﾔﾏｹﾝ","cityKana":"ｲﾐｽﾞｼ","streetKana":"ﾊｼｹﾞｼﾞｮｳ(ﾀﾞｲﾊｸ)","prefecture":"富山県","city":"射水市","street":"橋下条（大白）"},{"zipCode":"9390332","prefectureKana":"ﾄﾔﾏｹﾝ","cityKana":"ｲﾐｽﾞｼ","streetKana":"ﾊｼｹﾞｼﾞｮｳ(ﾆﾉｲ)","prefecture":"富山県","city":"射水市","street":"橋下条（二の井）"},{"zipCode":"9390319","prefectureKana":"ﾄﾔﾏｹﾝ","cityKana":"ｲﾐｽﾞｼ","streetKana":"ﾋｶﾞｼﾀｲｺｳﾔﾏ","prefecture":"富山県","city":"射水市","street":"東太閤山"},{"zipCode":"9390332","prefectureKana":"ﾄﾔﾏｹﾝ","cityKana":"ｲﾐｽﾞｼ","streetKana":"ﾋﾉﾐﾔ","prefecture":"富山県","city":"射水市","street":"日宮"},{"zipCode":"9390351","prefectureKana":"ﾄﾔﾏｹﾝ","cityKana":"ｲﾐｽﾞｼ","streetKana":"ﾋﾊﾞﾘ","prefecture":"富山県","city":"射水市","street":"戸破"},{"zipCode":"9390351","prefectureKana":"ﾄﾔﾏｹﾝ","cityKana":"ｲﾐｽﾞｼ","streetKana":"ﾋﾊﾞﾘ(ｱﾗﾏﾁ)","prefecture":"富山県","city":"射水市","street":"戸破（荒町）"},{"zipCode":"9390351","prefectureKana":"ﾄﾔﾏｹﾝ","cityKana":"ｲﾐｽﾞｼ","streetKana":"ﾋﾊﾞﾘ(ｴｶﾞﾐ)","prefecture":"富山県","city":"射水市","street":"戸破（江上）"},{"zipCode":"9390351","prefectureKana":"ﾄﾔﾏｹﾝ","cityKana":"ｲﾐｽﾞｼ","streetKana":"ﾋﾊﾞﾘ(ｶｼﾞﾔﾊﾞｼ)","prefecture":"富山県","city":"射水市","street":"戸破（鍛治屋橋）"},{"zipCode":"9390351","prefectureKana":"ﾄﾔﾏｹﾝ","cityKana":"ｲﾐｽﾞｼ","streetKana":"ﾋﾊﾞﾘ(ｶﾐｶﾜﾁｮｳ)","prefecture":"富山県","city":"射水市","street":"戸破（神川町）"},{"zipCode":"9390351","prefectureKana":"ﾄﾔﾏｹﾝ","cityKana":"ｲﾐｽﾞｼ","streetKana":"ﾋﾊﾞﾘ(ｷﾀﾃｻｷ)","prefecture":"富山県","city":"射水市","street":"戸破（北手崎）"},{"zipCode":"9390351","prefectureKana":"ﾄﾔﾏｹﾝ","cityKana":"ｲﾐｽﾞｼ","streetKana":"ﾋﾊﾞﾘ(ｷﾌﾞﾈﾏﾁ)","prefecture":"富山県","city":"射水市","street":"戸破（木舟町）"},{"zipCode":"9390351","prefectureKana":"ﾄﾔﾏｹﾝ","cityKana":"ｲﾐｽﾞｼ","streetKana":"ﾋﾊﾞﾘ(ｻｶｴﾏﾁ)","prefecture":"富山県","city":"射水市","street":"戸破（栄町）"},{"zipCode":"9390351","prefectureKana":"ﾄﾔﾏｹﾝ","cityKana":"ｲﾐｽﾞｼ","streetKana":"ﾋﾊﾞﾘ(ｻｸﾗﾏﾁ)","prefecture":"富山県","city":"射水市","street":"戸破（さくら町）"},{"zipCode":"9390351","prefectureKana":"ﾄﾔﾏｹﾝ","cityKana":"ｲﾐｽﾞｼ","streetKana":"ﾋﾊﾞﾘ(ｼｮｳﾜﾄﾞｵﾘ)","prefecture":"富山県","city":"射水市","street":"戸破（昭和通り）"},{"zipCode":"9390351","prefectureKana":"ﾄﾔﾏｹﾝ","cityKana":"ｲﾐｽﾞｼ","streetKana":"ﾋﾊﾞﾘ(ｼﾝｻｶｴﾏﾁ)","prefecture":"富山県","city":"射水市","street":"戸破（新栄町）"},{"zipCode":"9390351","prefectureKana":"ﾄﾔﾏｹﾝ","cityKana":"ｲﾐｽﾞｼ","streetKana":"ﾋﾊﾞﾘ(ｼﾝﾏﾁ)","prefecture":"富山県","city":"射水市","street":"戸破（新町）"},{"zipCode":"9390351","prefectureKana":"ﾄﾔﾏｹﾝ","cityKana":"ｲﾐｽﾞｼ","streetKana":"ﾋﾊﾞﾘ(ｽｴﾅｶﾞﾁｮｳ)","prefecture":"富山県","city":"射水市","street":"戸破（末永町）"},{"zipCode":"9390351","prefectureKana":"ﾄﾔﾏｹﾝ","cityKana":"ｲﾐｽﾞｼ","streetKana":"ﾋﾊﾞﾘ(ﾀｶﾃﾞﾗ)","prefecture":"富山県","city":"射水市","street":"戸破（高寺）"},{"zipCode":"9390351","prefectureKana":"ﾄﾔﾏｹﾝ","cityKana":"ｲﾐｽﾞｼ","streetKana":"ﾋﾊﾞﾘ(ﾀｶﾎﾁｮｳ)","prefecture":"富山県","city":"射水市","street":"戸破（高穂町）"},{"zipCode":"9390351","prefectureKana":"ﾄﾔﾏｹﾝ","cityKana":"ｲﾐｽﾞｼ","streetKana":"ﾋﾊﾞﾘ(ﾀｶﾗﾏﾁ)","prefecture":"富山県","city":"射水市","street":"戸破（宝町）"},{"zipCode":"9390351","prefectureKana":"ﾄﾔﾏｹﾝ","cityKana":"ｲﾐｽﾞｼ","streetKana":"ﾋﾊﾞﾘ(ﾁｬﾔﾏﾁ)","prefecture":"富山県","city":"射水市","street":"戸破（茶屋町）"},{"zipCode":"9390351","prefectureKana":"ﾄﾔﾏｹﾝ","cityKana":"ｲﾐｽﾞｼ","streetKana":"ﾋﾊﾞﾘ(ﾁｭｳｵｳﾄﾞｵﾘ)","prefecture":"富山県","city":"射水市","street":"戸破（中央通り）"},{"zipCode":"9390351","prefectureKana":"ﾄﾔﾏｹﾝ","cityKana":"ｲﾐｽﾞｼ","streetKana":"ﾋﾊﾞﾘ(ﾅｶﾏﾁ)","prefecture":"富山県","city":"射水市","street":"戸破（中町）"},{"zipCode":"9390351","prefectureKana":"ﾄﾔﾏｹﾝ","cityKana":"ｲﾐｽﾞｼ","streetKana":"ﾋﾊﾞﾘ(ﾆｼｸｽﾉｷﾁｮｳ)","prefecture":"富山県","city":"射水市","street":"戸破（西楠町）"},{"zipCode":"9390351","prefectureKana":"ﾄﾔﾏｹﾝ","cityKana":"ｲﾐｽﾞｼ","streetKana":"ﾋﾊﾞﾘ(ﾉﾘﾌﾞﾈﾁｮｳ)","prefecture":"富山県","city":"射水市","street":"戸破（乗舟町）"},{"zipCode":"9390307","prefectureKana":"ﾄﾔﾏｹﾝ","cityKana":"ｲﾐｽﾞｼ","streetKana":"ﾋﾊﾞﾘ(ﾊﾘﾊﾗ)","prefecture":"富山県","city":"射水市","street":"戸破（針原）"},{"zipCode":"9390351","prefectureKana":"ﾄﾔﾏｹﾝ","cityKana":"ｲﾐｽﾞｼ","streetKana":"ﾋﾊﾞﾘ(ﾍｲｾｲﾏﾁ)","prefecture":"富山県","city":"射水市","street":"戸破（平成町）"},{"zipCode":"9390351","prefectureKana":"ﾄﾔﾏｹﾝ","cityKana":"ｲﾐｽﾞｼ","streetKana":"ﾋﾊﾞﾘ(ﾐﾅﾐﾄﾞｵﾘ)","prefecture":"富山県","city":"射水市","street":"戸破（南通り）"},{"zipCode":"9390351","prefectureKana":"ﾄﾔﾏｹﾝ","cityKana":"ｲﾐｽﾞｼ","streetKana":"ﾋﾊﾞﾘ(ﾓﾄﾏﾁ)","prefecture":"富山県","city":"射水市","street":"戸破（元町）"},{"zipCode":"9390351","prefectureKana":"ﾄﾔﾏｹﾝ","cityKana":"ｲﾐｽﾞｼ","streetKana":"ﾋﾊﾞﾘ(ﾜｶﾊﾞﾁｮｳ)","prefecture":"富山県","city":"射水市","street":"戸破（若葉町）"},{"zipCode":"9390351","prefectureKana":"ﾄﾔﾏｹﾝ","cityKana":"ｲﾐｽﾞｼ","streetKana":"ﾋﾊﾞﾘ(ﾜｶﾐﾔﾁｮｳ)","prefecture":"富山県","city":"射水市","street":"戸破（若宮町）"},{"zipCode":"9390323","prefectureKana":"ﾄﾔﾏｹﾝ","cityKana":"ｲﾐｽﾞｼ","streetKana":"ﾋﾗﾉ","prefecture":"富山県","city":"射水市","street":"平野"},{"zipCode":"9390256","prefectureKana":"ﾄﾔﾏｹﾝ","cityKana":"ｲﾐｽﾞｼ","streetKana":"ﾋﾛｶﾐ","prefecture":"富山県","city":"射水市","street":"広上"},{"zipCode":"9390235","prefectureKana":"ﾄﾔﾏｹﾝ","cityKana":"ｲﾐｽﾞｼ","streetKana":"ﾋﾞﾜｸﾋﾞ","prefecture":"富山県","city":"射水市","street":"枇杷首"},{"zipCode":"9390405","prefectureKana":"ﾄﾔﾏｹﾝ","cityKana":"ｲﾐｽﾞｼ","streetKana":"ﾌｼﾞﾏｷ","prefecture":"富山県","city":"射水市","street":"藤巻"},{"zipCode":"9390234","prefectureKana":"ﾄﾔﾏｹﾝ","cityKana":"ｲﾐｽﾞｼ","streetKana":"ﾌﾀｸﾁ","prefecture":"富山県","city":"射水市","street":"二口"},{"zipCode":"9390253","prefectureKana":"ﾄﾔﾏｹﾝ","cityKana":"ｲﾐｽﾞｼ","streetKana":"ﾎﾘｳﾁ","prefecture":"富山県","city":"射水市","street":"堀内"},{"zipCode":"9390285","prefectureKana":"ﾄﾔﾏｹﾝ","cityKana":"ｲﾐｽﾞｼ","streetKana":"ﾎﾝｶｲﾎﾂ","prefecture":"富山県","city":"射水市","street":"本開発"},{"zipCode":"9390244","prefectureKana":"ﾄﾔﾏｹﾝ","cityKana":"ｲﾐｽﾞｼ","streetKana":"ﾎﾝﾃﾞﾝ","prefecture":"富山県","city":"射水市","street":"本田"},{"zipCode":"9390401","prefectureKana":"ﾄﾔﾏｹﾝ","cityKana":"ｲﾐｽﾞｼ","streetKana":"ﾐﾄﾀﾞ","prefecture":"富山県","city":"射水市","street":"水戸田"},{"zipCode":"9390364","prefectureKana":"ﾄﾔﾏｹﾝ","cityKana":"ｲﾐｽﾞｼ","streetKana":"ﾐﾅﾐﾀｲｺｳﾔﾏ","prefecture":"富山県","city":"射水市","street":"南太閤山"},{"zipCode":"9390282","prefectureKana":"ﾄﾔﾏｹﾝ","cityKana":"ｲﾐｽﾞｼ","streetKana":"ﾐﾅﾐﾀｶｷ","prefecture":"富山県","city":"射水市","street":"南高木"},{"zipCode":"9390242","prefectureKana":"ﾄﾔﾏｹﾝ","cityKana":"ｲﾐｽﾞｼ","streetKana":"ﾔｽﾖｼ","prefecture":"富山県","city":"射水市","street":"安吉"},{"zipCode":"9390275","prefectureKana":"ﾄﾔﾏｹﾝ","cityKana":"ｲﾐｽﾞｼ","streetKana":"ﾔﾂﾂﾞｶ","prefecture":"富山県","city":"射水市","street":"八塚"},{"zipCode":"9390317","prefectureKana":"ﾄﾔﾏｹﾝ","cityKana":"ｲﾐｽﾞｼ","streetKana":"ﾔﾏﾓﾄｼﾝ","prefecture":"富山県","city":"射水市","street":"山本新"},{"zipCode":"9390402","prefectureKana":"ﾄﾔﾏｹﾝ","cityKana":"ｲﾐｽﾞｼ","streetKana":"ﾘｭｳﾂｳｾﾝﾀｰﾐﾄﾀﾞ","prefecture":"富山県","city":"射水市","street":"流通センター水戸田"},{"zipCode":"9390321","prefectureKana":"ﾄﾔﾏｹﾝ","cityKana":"ｲﾐｽﾞｼ","streetKana":"ﾘｭｳﾂｳｾﾝﾀｰ(ｱｵｲﾀﾞﾆ1､2ﾁｮｳﾒ)","prefecture":"富山県","city":"射水市","street":"流通センター（青井谷１、２丁目）"},{"zipCode":"9390272","prefectureKana":"ﾄﾔﾏｹﾝ","cityKana":"ｲﾐｽﾞｼ","streetKana":"ﾜｶｽｷﾞ","prefecture":"富山県","city":"射水市","street":"若杉"},{"zipCode":"9390408","prefectureKana":"ﾄﾔﾏｹﾝ","cityKana":"ｲﾐｽﾞｼ","streetKana":"ﾜｶﾊﾞﾔｼ","prefecture":"富山県","city":"射水市","street":"若林"},{"zipCode":"9390305","prefectureKana":"ﾄﾔﾏｹﾝ","cityKana":"ｲﾐｽﾞｼ","streetKana":"ﾜｼﾂﾞｶ","prefecture":"富山県","city":"射水市","street":"鷲塚"},{"zipCode":"9390600","prefectureKana":"ﾄﾔﾏｹﾝ","cityKana":"ｼﾓﾆｲｶﾜｸﾞﾝﾆｭｳｾﾞﾝﾏﾁ","streetKana":"ｲｶﾆｹｲｻｲｶﾞﾅｲﾊﾞｱｲ","prefecture":"富山県","city":"下新川郡入善町","street":"以下に掲載がない場合"},{"zipCode":"9390643","prefectureKana":"ﾄﾔﾏｹﾝ","cityKana":"ｼﾓﾆｲｶﾜｸﾞﾝﾆｭｳｾﾞﾝﾏﾁ","streetKana":"ｱｵｷ","prefecture":"富山県","city":"下新川郡入善町","street":"青木"},{"zipCode":"9390646","prefectureKana":"ﾄﾔﾏｹﾝ","cityKana":"ｼﾓﾆｲｶﾜｸﾞﾝﾆｭｳｾﾞﾝﾏﾁ","streetKana":"ｱｵｷｼﾝ","prefecture":"富山県","city":"下新川郡入善町","street":"青木新"},{"zipCode":"9390624","prefectureKana":"ﾄﾔﾏｹﾝ","cityKana":"ｼﾓﾆｲｶﾜｸﾞﾝﾆｭｳｾﾞﾝﾏﾁ","streetKana":"ｱｵｼﾏ","prefecture":"富山県","city":"下新川郡入善町","street":"青島"},{"zipCode":"9390667","prefectureKana":"ﾄﾔﾏｹﾝ","cityKana":"ｼﾓﾆｲｶﾜｸﾞﾝﾆｭｳｾﾞﾝﾏﾁ","streetKana":"ｱｼｻﾞｷ","prefecture":"富山県","city":"下新川郡入善町","street":"芦崎"},{"zipCode":"9390621","prefectureKana":"ﾄﾔﾏｹﾝ","cityKana":"ｼﾓﾆｲｶﾜｸﾞﾝﾆｭｳｾﾞﾝﾏﾁ","streetKana":"ｱﾗﾏﾀ","prefecture":"富山県","city":"下新川郡入善町","street":"荒又"},{"zipCode":"9390637","prefectureKana":"ﾄﾔﾏｹﾝ","cityKana":"ｼﾓﾆｲｶﾜｸﾞﾝﾆｭｳｾﾞﾝﾏﾁ","streetKana":"ｱﾗﾔ","prefecture":"富山県","city":"下新川郡入善町","street":"新屋"},{"zipCode":"9390679","prefectureKana":"ﾄﾔﾏｹﾝ","cityKana":"ｼﾓﾆｲｶﾜｸﾞﾝﾆｭｳｾﾞﾝﾏﾁ","streetKana":"ｲｶﾘ","prefecture":"富山県","city":"下新川郡入善町","street":"五十里"},{"zipCode":"9390654","prefectureKana":"ﾄﾔﾏｹﾝ","cityKana":"ｼﾓﾆｲｶﾜｸﾞﾝﾆｭｳｾﾞﾝﾏﾁ","streetKana":"ｲﾀﾔ","prefecture":"富山県","city":"下新川郡入善町","street":"板屋"},{"zipCode":"9390636","prefectureKana":"ﾄﾔﾏｹﾝ","cityKana":"ｼﾓﾆｲｶﾜｸﾞﾝﾆｭｳｾﾞﾝﾏﾁ","streetKana":"ｲﾁﾔﾄﾞﾘ","prefecture":"富山県","city":"下新川郡入善町","street":"一宿"},{"zipCode":"9390633","prefectureKana":"ﾄﾔﾏｹﾝ","cityKana":"ｼﾓﾆｲｶﾜｸﾞﾝﾆｭｳｾﾞﾝﾏﾁ","streetKana":"ｳﾗﾔﾏｼﾝ","prefecture":"富山県","city":"下新川郡入善町","street":"浦山新"},{"zipCode":"9390642","prefectureKana":"ﾄﾔﾏｹﾝ","cityKana":"ｼﾓﾆｲｶﾜｸﾞﾝﾆｭｳｾﾞﾝﾏﾁ","streetKana":"ｳﾜﾉ","prefecture":"富山県","city":"下新川郡入善町","street":"上野"},{"zipCode":"9390617","prefectureKana":"ﾄﾔﾏｹﾝ","cityKana":"ｼﾓﾆｲｶﾜｸﾞﾝﾆｭｳｾﾞﾝﾏﾁ","streetKana":"ｶｽｶﾞ","prefecture":"富山県","city":"下新川郡入善町","street":"春日"},{"zipCode":"9390653","prefectureKana":"ﾄﾔﾏｹﾝ","cityKana":"ｼﾓﾆｲｶﾜｸﾞﾝﾆｭｳｾﾞﾝﾏﾁ","streetKana":"ｶﾐｲｲﾉ","prefecture":"富山県","city":"下新川郡入善町","street":"上飯野"},{"zipCode":"9390651","prefectureKana":"ﾄﾔﾏｹﾝ","cityKana":"ｼﾓﾆｲｶﾜｸﾞﾝﾆｭｳｾﾞﾝﾏﾁ","streetKana":"ｶﾐｲｲﾉｼﾝ","prefecture":"富山県","city":"下新川郡入善町","street":"上飯野新"},{"zipCode":"9390625","prefectureKana":"ﾄﾔﾏｹﾝ","cityKana":"ｼﾓﾆｲｶﾜｸﾞﾝﾆｭｳｾﾞﾝﾏﾁ","streetKana":"ｶﾝﾊﾞﾔｼ","prefecture":"富山県","city":"下新川郡入善町","street":"神林"},{"zipCode":"9390677","prefectureKana":"ﾄﾔﾏｹﾝ","cityKana":"ｼﾓﾆｲｶﾜｸﾞﾝﾆｭｳｾﾞﾝﾏﾁ","streetKana":"ｷﾉﾈ","prefecture":"富山県","city":"下新川郡入善町","street":"木根"},{"zipCode":"9390614","prefectureKana":"ﾄﾔﾏｹﾝ","cityKana":"ｼﾓﾆｲｶﾜｸﾞﾝﾆｭｳｾﾞﾝﾏﾁ","streetKana":"ｷﾐｼﾞﾏ","prefecture":"富山県","city":"下新川郡入善町","street":"君島"},{"zipCode":"9390627","prefectureKana":"ﾄﾔﾏｹﾝ","cityKana":"ｼﾓﾆｲｶﾜｸﾞﾝﾆｭｳｾﾞﾝﾏﾁ","streetKana":"ｸﾇｷﾞﾔﾏ","prefecture":"富山県","city":"下新川郡入善町","street":"椚山"},{"zipCode":"9390628","prefectureKana":"ﾄﾔﾏｹﾝ","cityKana":"ｼﾓﾆｲｶﾜｸﾞﾝﾆｭｳｾﾞﾝﾏﾁ","streetKana":"ｸﾇｷﾞﾔﾏｼﾝ","prefecture":"富山県","city":"下新川郡入善町","street":"椚山新"},{"zipCode":"9390623","prefectureKana":"ﾄﾔﾏｹﾝ","cityKana":"ｼﾓﾆｲｶﾜｸﾞﾝﾆｭｳｾﾞﾝﾏﾁ","streetKana":"ｺｽｷﾞ","prefecture":"富山県","city":"下新川郡入善町","street":"小杉"},{"zipCode":"9390634","prefectureKana":"ﾄﾔﾏｹﾝ","cityKana":"ｼﾓﾆｲｶﾜｸﾞﾝﾆｭｳｾﾞﾝﾏﾁ","streetKana":"ｺｽﾘﾄﾞ","prefecture":"富山県","city":"下新川郡入善町","street":"小摺戸"},{"zipCode":"9390655","prefectureKana":"ﾄﾔﾏｹﾝ","cityKana":"ｼﾓﾆｲｶﾜｸﾞﾝﾆｭｳｾﾞﾝﾏﾁ","streetKana":"ｺﾞﾛｳﾊﾁ","prefecture":"富山県","city":"下新川郡入善町","street":"五郎八"},{"zipCode":"9390656","prefectureKana":"ﾄﾔﾏｹﾝ","cityKana":"ｼﾓﾆｲｶﾜｸﾞﾝﾆｭｳｾﾞﾝﾏﾁ","streetKana":"ｻｻﾜﾗ","prefecture":"富山県","city":"下新川郡入善町","street":"笹原"},{"zipCode":"9390663","prefectureKana":"ﾄﾔﾏｹﾝ","cityKana":"ｼﾓﾆｲｶﾜｸﾞﾝﾆｭｳｾﾞﾝﾏﾁ","streetKana":"ｼﾓｲｲﾉ","prefecture":"富山県","city":"下新川郡入善町","street":"下飯野"},{"zipCode":"9390662","prefectureKana":"ﾄﾔﾏｹﾝ","cityKana":"ｼﾓﾆｲｶﾜｸﾞﾝﾆｭｳｾﾞﾝﾏﾁ","streetKana":"ｼﾓｲｲﾉｼﾝ","prefecture":"富山県","city":"下新川郡入善町","street":"下飯野新"},{"zipCode":"9390641","prefectureKana":"ﾄﾔﾏｹﾝ","cityKana":"ｼﾓﾆｲｶﾜｸﾞﾝﾆｭｳｾﾞﾝﾏﾁ","streetKana":"ｼﾓｳﾜﾉ","prefecture":"富山県","city":"下新川郡入善町","street":"下上野"},{"zipCode":"9390652","prefectureKana":"ﾄﾔﾏｹﾝ","cityKana":"ｼﾓﾆｲｶﾜｸﾞﾝﾆｭｳｾﾞﾝﾏﾁ","streetKana":"ｿﾃﾞｻﾞﾜ","prefecture":"富山県","city":"下新川郡入善町","street":"袖沢"},{"zipCode":"9390661","prefectureKana":"ﾄﾔﾏｹﾝ","cityKana":"ｼﾓﾆｲｶﾜｸﾞﾝﾆｭｳｾﾞﾝﾏﾁ","streetKana":"ﾀｶｾ","prefecture":"富山県","city":"下新川郡入善町","street":"高瀬"},{"zipCode":"9390666","prefectureKana":"ﾄﾔﾏｹﾝ","cityKana":"ｼﾓﾆｲｶﾜｸﾞﾝﾆｭｳｾﾞﾝﾏﾁ","streetKana":"ﾀｶﾊﾞﾀｹ","prefecture":"富山県","city":"下新川郡入善町","street":"高畠"},{"zipCode":"9390672","prefectureKana":"ﾄﾔﾏｹﾝ","cityKana":"ｼﾓﾆｲｶﾜｸﾞﾝﾆｭｳｾﾞﾝﾏﾁ","streetKana":"ﾀﾅｶ","prefecture":"富山県","city":"下新川郡入善町","street":"田中"},{"zipCode":"9390613","prefectureKana":"ﾄﾔﾏｹﾝ","cityKana":"ｼﾓﾆｲｶﾜｸﾞﾝﾆｭｳｾﾞﾝﾏﾁ","streetKana":"ﾀﾉﾏﾀ","prefecture":"富山県","city":"下新川郡入善町","street":"田の又"},{"zipCode":"9390675","prefectureKana":"ﾄﾔﾏｹﾝ","cityKana":"ｼﾓﾆｲｶﾜｸﾞﾝﾆｭｳｾﾞﾝﾏﾁ","streetKana":"ﾄﾞｲﾁ","prefecture":"富山県","city":"下新川郡入善町","street":"道市"},{"zipCode":"9390647","prefectureKana":"ﾄﾔﾏｹﾝ","cityKana":"ｼﾓﾆｲｶﾜｸﾞﾝﾆｭｳｾﾞﾝﾏﾁ","streetKana":"ﾄﾞｳｺ","prefecture":"富山県","city":"下新川郡入善町","street":"道古"},{"zipCode":"9390657","prefectureKana":"ﾄﾔﾏｹﾝ","cityKana":"ｼﾓﾆｲｶﾜｸﾞﾝﾆｭｳｾﾞﾝﾏﾁ","streetKana":"ﾄｯｺ","prefecture":"富山県","city":"下新川郡入善町","street":"東狐"},{"zipCode":"9390631","prefectureKana":"ﾄﾔﾏｹﾝ","cityKana":"ｼﾓﾆｲｶﾜｸﾞﾝﾆｭｳｾﾞﾝﾏﾁ","streetKana":"ﾆｻﾞﾔﾏ","prefecture":"富山県","city":"下新川郡入善町","street":"下山"},{"zipCode":"9390626","prefectureKana":"ﾄﾔﾏｹﾝ","cityKana":"ｼﾓﾆｲｶﾜｸﾞﾝﾆｭｳｾﾞﾝﾏﾁ","streetKana":"ﾆｭｳｾﾞﾝ","prefecture":"富山県","city":"下新川郡入善町","street":"入膳"},{"zipCode":"9390632","prefectureKana":"ﾄﾔﾏｹﾝ","cityKana":"ｼﾓﾆｲｶﾜｸﾞﾝﾆｭｳｾﾞﾝﾏﾁ","streetKana":"ﾊｶﾉｷ","prefecture":"富山県","city":"下新川郡入善町","street":"墓ノ木"},{"zipCode":"9390671","prefectureKana":"ﾄﾔﾏｹﾝ","cityKana":"ｼﾓﾆｲｶﾜｸﾞﾝﾆｭｳｾﾞﾝﾏﾁ","streetKana":"ﾋｶﾞｼｲｶﾘ","prefecture":"富山県","city":"下新川郡入善町","street":"東五十里"},{"zipCode":"9390622","prefectureKana":"ﾄﾔﾏｹﾝ","cityKana":"ｼﾓﾆｲｶﾜｸﾞﾝﾆｭｳｾﾞﾝﾏﾁ","streetKana":"ﾋﾖｼ","prefecture":"富山県","city":"下新川郡入善町","street":"日吉"},{"zipCode":"9390645","prefectureKana":"ﾄﾔﾏｹﾝ","cityKana":"ｼﾓﾆｲｶﾜｸﾞﾝﾆｭｳｾﾞﾝﾏﾁ","streetKana":"ﾌｸｼﾞﾏ","prefecture":"富山県","city":"下新川郡入善町","street":"福島"},{"zipCode":"9390644","prefectureKana":"ﾄﾔﾏｹﾝ","cityKana":"ｼﾓﾆｲｶﾜｸﾞﾝﾆｭｳｾﾞﾝﾏﾁ","streetKana":"ﾌｸｼﾞﾏｼﾝ","prefecture":"富山県","city":"下新川郡入善町","street":"福島新"},{"zipCode":"9390612","prefectureKana":"ﾄﾔﾏｹﾝ","cityKana":"ｼﾓﾆｲｶﾜｸﾞﾝﾆｭｳｾﾞﾝﾏﾁ","streetKana":"ﾌｼﾞﾜﾗ","prefecture":"富山県","city":"下新川郡入善町","street":"藤原"},{"zipCode":"9390611","prefectureKana":"ﾄﾔﾏｹﾝ","cityKana":"ｼﾓﾆｲｶﾜｸﾞﾝﾆｭｳｾﾞﾝﾏﾁ","streetKana":"ﾌﾙｸﾛﾍﾞ","prefecture":"富山県","city":"下新川郡入善町","street":"古黒部"},{"zipCode":"9390664","prefectureKana":"ﾄﾔﾏｹﾝ","cityKana":"ｼﾓﾆｲｶﾜｸﾞﾝﾆｭｳｾﾞﾝﾏﾁ","streetKana":"ﾍﾋﾞｻﾜ","prefecture":"富山県","city":"下新川郡入善町","street":"蛇沢"},{"zipCode":"9390665","prefectureKana":"ﾄﾔﾏｹﾝ","cityKana":"ｼﾓﾆｲｶﾜｸﾞﾝﾆｭｳｾﾞﾝﾏﾁ","streetKana":"ﾎﾝﾑﾗ","prefecture":"富山県","city":"下新川郡入善町","street":"本村"},{"zipCode":"9390678","prefectureKana":"ﾄﾔﾏｹﾝ","cityKana":"ｼﾓﾆｲｶﾜｸﾞﾝﾆｭｳｾﾞﾝﾏﾁ","streetKana":"ﾐｺｻﾞﾜ","prefecture":"富山県","city":"下新川郡入善町","street":"神子沢"},{"zipCode":"9390676","prefectureKana":"ﾄﾔﾏｹﾝ","cityKana":"ｼﾓﾆｲｶﾜｸﾞﾝﾆｭｳｾﾞﾝﾏﾁ","streetKana":"ﾒｶﾞﾜ","prefecture":"富山県","city":"下新川郡入善町","street":"目川"},{"zipCode":"9390615","prefectureKana":"ﾄﾔﾏｹﾝ","cityKana":"ｼﾓﾆｲｶﾜｸﾞﾝﾆｭｳｾﾞﾝﾏﾁ","streetKana":"ﾔﾊﾀ","prefecture":"富山県","city":"下新川郡入善町","street":"八幡"},{"zipCode":"9390616","prefectureKana":"ﾄﾔﾏｹﾝ","cityKana":"ｼﾓﾆｲｶﾜｸﾞﾝﾆｭｳｾﾞﾝﾏﾁ","streetKana":"ﾖｺﾔﾏ","prefecture":"富山県","city":"下新川郡入善町","street":"横山"},{"zipCode":"9390674","prefectureKana":"ﾄﾔﾏｹﾝ","cityKana":"ｼﾓﾆｲｶﾜｸﾞﾝﾆｭｳｾﾞﾝﾏﾁ","streetKana":"ﾖｼﾜﾗ","prefecture":"富山県","city":"下新川郡入善町","street":"吉原"},{"zipCode":"9390673","prefectureKana":"ﾄﾔﾏｹﾝ","cityKana":"ｼﾓﾆｲｶﾜｸﾞﾝﾆｭｳｾﾞﾝﾏﾁ","streetKana":"ﾖｼﾜﾗﾋｶﾞｼ","prefecture":"富山県","city":"下新川郡入善町","street":"吉原東"},{"zipCode":"9390635","prefectureKana":"ﾄﾔﾏｹﾝ","cityKana":"ｼﾓﾆｲｶﾜｸﾞﾝﾆｭｳｾﾞﾝﾏﾁ","streetKana":"ﾜｶｸﾞﾘｼﾝ","prefecture":"富山県","city":"下新川郡入善町","street":"若栗新"},{"zipCode":"9390700","prefectureKana":"ﾄﾔﾏｹﾝ","cityKana":"ｼﾓﾆｲｶﾜｸﾞﾝｱｻﾋﾏﾁ","streetKana":"ｲｶﾆｹｲｻｲｶﾞﾅｲﾊﾞｱｲ","prefecture":"富山県","city":"下新川郡朝日町","street":"以下に掲載がない場合"},{"zipCode":"9390735","prefectureKana":"ﾄﾔﾏｹﾝ","cityKana":"ｼﾓﾆｲｶﾜｸﾞﾝｱｻﾋﾏﾁ","streetKana":"ｱｶｶﾞﾜ","prefecture":"富山県","city":"下新川郡朝日町","street":"赤川"},{"zipCode":"9390746","prefectureKana":"ﾄﾔﾏｹﾝ","cityKana":"ｼﾓﾆｲｶﾜｸﾞﾝｱｻﾋﾏﾁ","streetKana":"ｱﾗｶﾜ","prefecture":"富山県","city":"下新川郡朝日町","street":"荒川"},{"zipCode":"9390717","prefectureKana":"ﾄﾔﾏｹﾝ","cityKana":"ｼﾓﾆｲｶﾜｸﾞﾝｱｻﾋﾏﾁ","streetKana":"ｲｼﾀﾆ","prefecture":"富山県","city":"下新川郡朝日町","street":"石谷"},{"zipCode":"9390722","prefectureKana":"ﾄﾔﾏｹﾝ","cityKana":"ｼﾓﾆｲｶﾜｸﾞﾝｱｻﾋﾏﾁ","streetKana":"ｵｵｲｴﾉｼｮｳ","prefecture":"富山県","city":"下新川郡朝日町","street":"大家庄"},{"zipCode":"9390727","prefectureKana":"ﾄﾔﾏｹﾝ","cityKana":"ｼﾓﾆｲｶﾜｸﾞﾝｱｻﾋﾏﾁ","streetKana":"ｶﾅﾔﾏ","prefecture":"富山県","city":"下新川郡朝日町","street":"金山"},{"zipCode":"9390734","prefectureKana":"ﾄﾔﾏｹﾝ","cityKana":"ｼﾓﾆｲｶﾜｸﾞﾝｱｻﾋﾏﾁ","streetKana":"ｸｻﾉ","prefecture":"富山県","city":"下新川郡朝日町","street":"草野"},{"zipCode":"9390728","prefectureKana":"ﾄﾔﾏｹﾝ","cityKana":"ｼﾓﾆｲｶﾜｸﾞﾝｱｻﾋﾏﾁ","streetKana":"ｸﾎﾞﾀ","prefecture":"富山県","city":"下新川郡朝日町","street":"窪田"},{"zipCode":"9390704","prefectureKana":"ﾄﾔﾏｹﾝ","cityKana":"ｼﾓﾆｲｶﾜｸﾞﾝｱｻﾋﾏﾁ","streetKana":"ｻｶｲ","prefecture":"富山県","city":"下新川郡朝日町","street":"境"},{"zipCode":"9390714","prefectureKana":"ﾄﾔﾏｹﾝ","cityKana":"ｼﾓﾆｲｶﾜｸﾞﾝｱｻﾋﾏﾁ","streetKana":"ｻｸﾗﾏﾁ","prefecture":"富山県","city":"下新川郡朝日町","street":"桜町"},{"zipCode":"9390711","prefectureKana":"ﾄﾔﾏｹﾝ","cityKana":"ｼﾓﾆｲｶﾜｸﾞﾝｱｻﾋﾏﾁ","streetKana":"ｻｻｶﾞﾜ","prefecture":"富山県","city":"下新川郡朝日町","street":"笹川"},{"zipCode":"9390721","prefectureKana":"ﾄﾔﾏｹﾝ","cityKana":"ｼﾓﾆｲｶﾜｸﾞﾝｱｻﾋﾏﾁ","streetKana":"ｻﾝﾏｲﾊﾞｼ","prefecture":"富山県","city":"下新川郡朝日町","street":"三枚橋"},{"zipCode":"9390747","prefectureKana":"ﾄﾔﾏｹﾝ","cityKana":"ｼﾓﾆｲｶﾜｸﾞﾝｱｻﾋﾏﾁ","streetKana":"ﾀﾞｲﾔ","prefecture":"富山県","city":"下新川郡朝日町","street":"大屋"},{"zipCode":"9390748","prefectureKana":"ﾄﾔﾏｹﾝ","cityKana":"ｼﾓﾆｲｶﾜｸﾞﾝｱｻﾋﾏﾁ","streetKana":"ﾀﾞｲﾔｼﾝ","prefecture":"富山県","city":"下新川郡朝日町","street":"大屋新"},{"zipCode":"9390705","prefectureKana":"ﾄﾔﾏｹﾝ","cityKana":"ｼﾓﾆｲｶﾜｸﾞﾝｱｻﾋﾏﾁ","streetKana":"ﾀﾞｲﾗ","prefecture":"富山県","city":"下新川郡朝日町","street":"大平"},{"zipCode":"9390725","prefectureKana":"ﾄﾔﾏｹﾝ","cityKana":"ｼﾓﾆｲｶﾜｸﾞﾝｱｻﾋﾏﾁ","streetKana":"ﾀｶﾊｼ","prefecture":"富山県","city":"下新川郡朝日町","street":"高橋"},{"zipCode":"9390733","prefectureKana":"ﾄﾔﾏｹﾝ","cityKana":"ｼﾓﾆｲｶﾜｸﾞﾝｱｻﾋﾏﾁ","streetKana":"ﾂｷﾔﾏ","prefecture":"富山県","city":"下新川郡朝日町","street":"月山"},{"zipCode":"9390737","prefectureKana":"ﾄﾔﾏｹﾝ","cityKana":"ｼﾓﾆｲｶﾜｸﾞﾝｱｻﾋﾏﾁ","streetKana":"ﾂｷﾔﾏｼﾝ","prefecture":"富山県","city":"下新川郡朝日町","street":"月山新"},{"zipCode":"9390743","prefectureKana":"ﾄﾔﾏｹﾝ","cityKana":"ｼﾓﾆｲｶﾜｸﾞﾝｱｻﾋﾏﾁ","streetKana":"ﾄﾞｳｹﾞ","prefecture":"富山県","city":"下新川郡朝日町","street":"道下"},{"zipCode":"9390741","prefectureKana":"ﾄﾔﾏｹﾝ","cityKana":"ｼﾓﾆｲｶﾜｸﾞﾝｱｻﾋﾏﾁ","streetKana":"ﾄﾏﾘ","prefecture":"富山県","city":"下新川郡朝日町","street":"泊"},{"zipCode":"9390749","prefectureKana":"ﾄﾔﾏｹﾝ","cityKana":"ｼﾓﾆｲｶﾜｸﾞﾝｱｻﾋﾏﾁ","streetKana":"ﾄﾏﾘｼﾝ","prefecture":"富山県","city":"下新川郡朝日町","street":"泊新"},{"zipCode":"9390732","prefectureKana":"ﾄﾔﾏｹﾝ","cityKana":"ｼﾓﾆｲｶﾜｸﾞﾝｱｻﾋﾏﾁ","streetKana":"ﾅｶｸｻﾉ","prefecture":"富山県","city":"下新川郡朝日町","street":"中草野"},{"zipCode":"9390713","prefectureKana":"ﾄﾔﾏｹﾝ","cityKana":"ｼﾓﾆｲｶﾜｸﾞﾝｱｻﾋﾏﾁ","streetKana":"ﾅｶﾞﾉ","prefecture":"富山県","city":"下新川郡朝日町","street":"長野"},{"zipCode":"9390715","prefectureKana":"ﾄﾔﾏｹﾝ","cityKana":"ｼﾓﾆｲｶﾜｸﾞﾝｱｻﾋﾏﾁ","streetKana":"ﾅﾝﾎﾞ","prefecture":"富山県","city":"下新川郡朝日町","street":"南保"},{"zipCode":"9390716","prefectureKana":"ﾄﾔﾏｹﾝ","cityKana":"ｼﾓﾆｲｶﾜｸﾞﾝｱｻﾋﾏﾁ","streetKana":"ﾅﾝﾎﾞﾏﾁ","prefecture":"富山県","city":"下新川郡朝日町","street":"南保町"},{"zipCode":"9390726","prefectureKana":"ﾄﾔﾏｹﾝ","cityKana":"ｼﾓﾆｲｶﾜｸﾞﾝｱｻﾋﾏﾁ","streetKana":"ﾆｻﾞﾔﾏｼﾝ","prefecture":"富山県","city":"下新川郡朝日町","street":"下山新"},{"zipCode":"9390745","prefectureKana":"ﾄﾔﾏｹﾝ","cityKana":"ｼﾓﾆｲｶﾜｸﾞﾝｱｻﾋﾏﾁ","streetKana":"ﾆｼﾏﾁ","prefecture":"富山県","city":"下新川郡朝日町","street":"西町"},{"zipCode":"9390742","prefectureKana":"ﾄﾔﾏｹﾝ","cityKana":"ｼﾓﾆｲｶﾜｸﾞﾝｱｻﾋﾏﾁ","streetKana":"ﾇﾏﾎ","prefecture":"富山県","city":"下新川郡朝日町","street":"沼保"},{"zipCode":"9390751","prefectureKana":"ﾄﾔﾏｹﾝ","cityKana":"ｼﾓﾆｲｶﾜｸﾞﾝｱｻﾋﾏﾁ","streetKana":"ﾉｼﾝ","prefecture":"富山県","city":"下新川郡朝日町","street":"野新"},{"zipCode":"9390736","prefectureKana":"ﾄﾔﾏｹﾝ","cityKana":"ｼﾓﾆｲｶﾜｸﾞﾝｱｻﾋﾏﾁ","streetKana":"ﾊﾏｸｻﾉ","prefecture":"富山県","city":"下新川郡朝日町","street":"浜草野"},{"zipCode":"9390731","prefectureKana":"ﾄﾔﾏｹﾝ","cityKana":"ｼﾓﾆｲｶﾜｸﾞﾝｱｻﾋﾏﾁ","streetKana":"ﾋｶﾞｼｸｻﾉ","prefecture":"富山県","city":"下新川郡朝日町","street":"東草野"},{"zipCode":"9390744","prefectureKana":"ﾄﾔﾏｹﾝ","cityKana":"ｼﾓﾆｲｶﾜｸﾞﾝｱｻﾋﾏﾁ","streetKana":"ﾋﾗﾔﾅｷﾞ","prefecture":"富山県","city":"下新川郡朝日町","street":"平柳"},{"zipCode":"9390712","prefectureKana":"ﾄﾔﾏｹﾝ","cityKana":"ｼﾓﾆｲｶﾜｸﾞﾝｱｻﾋﾏﾁ","streetKana":"ﾋﾞﾙﾀﾆ","prefecture":"富山県","city":"下新川郡朝日町","street":"蛭谷"},{"zipCode":"9390723","prefectureKana":"ﾄﾔﾏｹﾝ","cityKana":"ｼﾓﾆｲｶﾜｸﾞﾝｱｻﾋﾏﾁ","streetKana":"ﾌﾄﾞｳﾄﾞｳ","prefecture":"富山県","city":"下新川郡朝日町","street":"不動堂"},{"zipCode":"9390729","prefectureKana":"ﾄﾔﾏｹﾝ","cityKana":"ｼﾓﾆｲｶﾜｸﾞﾝｱｻﾋﾏﾁ","streetKana":"ﾌﾅｶﾞﾜｼﾝ","prefecture":"富山県","city":"下新川郡朝日町","street":"舟川新"},{"zipCode":"9390703","prefectureKana":"ﾄﾔﾏｹﾝ","cityKana":"ｼﾓﾆｲｶﾜｸﾞﾝｱｻﾋﾏﾁ","streetKana":"ﾐﾔｻﾞｷ","prefecture":"富山県","city":"下新川郡朝日町","street":"宮崎"},{"zipCode":"9390702","prefectureKana":"ﾄﾔﾏｹﾝ","cityKana":"ｼﾓﾆｲｶﾜｸﾞﾝｱｻﾋﾏﾁ","streetKana":"ﾓﾄﾔｼｷ","prefecture":"富山県","city":"下新川郡朝日町","street":"元屋敷"},{"zipCode":"9390701","prefectureKana":"ﾄﾔﾏｹﾝ","cityKana":"ｼﾓﾆｲｶﾜｸﾞﾝｱｻﾋﾏﾁ","streetKana":"ﾖｺｵ","prefecture":"富山県","city":"下新川郡朝日町","street":"横尾"},{"zipCode":"9390724","prefectureKana":"ﾄﾔﾏｹﾝ","cityKana":"ｼﾓﾆｲｶﾜｸﾞﾝｱｻﾋﾏﾁ","streetKana":"ﾖｺﾐｽﾞ","prefecture":"富山県","city":"下新川郡朝日町","street":"横水"},{"zipCode":"9390171","prefectureKana":"ｲｼｶﾜｹﾝ","cityKana":"ﾊｸｲｸﾞﾝﾎｳﾀﾞﾂｼﾐｽﾞﾁｮｳ","streetKana":"ｿｳｺﾞｳ","prefecture":"石川県","city":"羽咋郡宝達志水町","street":"沢川"}]