[{"zipCode":"9480000","prefectureKana":"ﾆｲｶﾞﾀｹﾝ","cityKana":"ﾄｵｶﾏﾁｼ","streetKana":"ｲｶﾆｹｲｻｲｶﾞﾅｲﾊﾞｱｲ","prefecture":"新潟県","city":"十日町市","street":"以下に掲載がない場合"},{"zipCode":"9480046","prefectureKana":"ﾆｲｶﾞﾀｹﾝ","cityKana":"ﾄｵｶﾏﾁｼ","streetKana":"ｱｶｼﾁｮｳ","prefecture":"新潟県","city":"十日町市","street":"明石町"},{"zipCode":"9480213","prefectureKana":"ﾆｲｶﾞﾀｹﾝ","cityKana":"ﾄｵｶﾏﾁｼ","streetKana":"ｱｶﾀﾆ","prefecture":"新潟県","city":"十日町市","street":"赤谷"},{"zipCode":"9480045","prefectureKana":"ﾆｲｶﾞﾀｹﾝ","cityKana":"ﾄｵｶﾏﾁｼ","streetKana":"ｱｻﾊﾞﾀｹ","prefecture":"新潟県","city":"十日町市","street":"麻畑"},{"zipCode":"9480079","prefectureKana":"ﾆｲｶﾞﾀｹﾝ","cityKana":"ﾄｵｶﾏﾁｼ","streetKana":"ｱｻﾋﾁｮｳ","prefecture":"新潟県","city":"十日町市","street":"旭町"},{"zipCode":"9480121","prefectureKana":"ﾆｲｶﾞﾀｹﾝ","cityKana":"ﾄｵｶﾏﾁｼ","streetKana":"ｱﾗﾏﾁｼﾝﾃﾞﾝ","prefecture":"新潟県","city":"十日町市","street":"新町新田"},{"zipCode":"9480062","prefectureKana":"ﾆｲｶﾞﾀｹﾝ","cityKana":"ﾄｵｶﾏﾁｼ","streetKana":"ｲｽﾞﾐﾁｮｳ","prefecture":"新潟県","city":"十日町市","street":"泉町"},{"zipCode":"9480131","prefectureKana":"ﾆｲｶﾞﾀｹﾝ","cityKana":"ﾄｵｶﾏﾁｼ","streetKana":"ｲｾﾍｲｼﾞ","prefecture":"新潟県","city":"十日町市","street":"伊勢平治"},{"zipCode":"9480101","prefectureKana":"ﾆｲｶﾞﾀｹﾝ","cityKana":"ﾄｵｶﾏﾁｼ","streetKana":"ｲﾅﾊﾞ","prefecture":"新潟県","city":"十日町市","street":"稲葉"},{"zipCode":"9480073","prefectureKana":"ﾆｲｶﾞﾀｹﾝ","cityKana":"ﾄｵｶﾏﾁｼ","streetKana":"ｲﾅﾘﾁｮｳ(3ﾁｮｳﾒﾎﾝﾄﾞｵﾘ)","prefecture":"新潟県","city":"十日町市","street":"稲荷町（３丁目本通り）"},{"zipCode":"9480073","prefectureKana":"ﾆｲｶﾞﾀｹﾝ","cityKana":"ﾄｵｶﾏﾁｼ","streetKana":"ｲﾅﾘﾁｮｳｲｯﾁｮｳﾒ","prefecture":"新潟県","city":"十日町市","street":"稲荷町一丁目"},{"zipCode":"9480073","prefectureKana":"ﾆｲｶﾞﾀｹﾝ","cityKana":"ﾄｵｶﾏﾁｼ","streetKana":"ｲﾅﾘﾁｮｳﾆﾁｮｳﾒ","prefecture":"新潟県","city":"十日町市","street":"稲荷町二丁目"},{"zipCode":"9480091","prefectureKana":"ﾆｲｶﾞﾀｹﾝ","cityKana":"ﾄｵｶﾏﾁｼ","streetKana":"ｲﾅﾘﾁｮｳｻﾝﾁｮｳﾒ","prefecture":"新潟県","city":"十日町市","street":"稲荷町三丁目"},{"zipCode":"9480092","prefectureKana":"ﾆｲｶﾞﾀｹﾝ","cityKana":"ﾄｵｶﾏﾁｼ","streetKana":"ｲﾅﾘﾁｮｳｻﾝﾁｮｳﾒｷﾀ","prefecture":"新潟県","city":"十日町市","street":"稲荷町三丁目北"},{"zipCode":"9480073","prefectureKana":"ﾆｲｶﾞﾀｹﾝ","cityKana":"ﾄｵｶﾏﾁｼ","streetKana":"ｲﾅﾘﾁｮｳｻﾝﾁｮｳﾒﾋｶﾞｼ","prefecture":"新潟県","city":"十日町市","street":"稲荷町三丁目東"},{"zipCode":"9480093","prefectureKana":"ﾆｲｶﾞﾀｹﾝ","cityKana":"ﾄｵｶﾏﾁｼ","streetKana":"ｲﾅﾘﾁｮｳｻﾝﾁｮｳﾒﾐﾅﾐ","prefecture":"新潟県","city":"十日町市","street":"稲荷町三丁目南"},{"zipCode":"9480073","prefectureKana":"ﾆｲｶﾞﾀｹﾝ","cityKana":"ﾄｵｶﾏﾁｼ","streetKana":"ｲﾅﾘﾁｮｳｻﾝﾁｮｳﾒﾎﾝﾄﾞｵﾘ","prefecture":"新潟県","city":"十日町市","street":"稲荷町三丁目本通り"},{"zipCode":"9480073","prefectureKana":"ﾆｲｶﾞﾀｹﾝ","cityKana":"ﾄｵｶﾏﾁｼ","streetKana":"ｲﾅﾘﾁｮｳﾖﾝﾁｮｳﾒ","prefecture":"新潟県","city":"十日町市","street":"稲荷町四丁目"},{"zipCode":"9480073","prefectureKana":"ﾆｲｶﾞﾀｹﾝ","cityKana":"ﾄｵｶﾏﾁｼ","streetKana":"ｲﾅﾘﾁｮｳﾆｼ","prefecture":"新潟県","city":"十日町市","street":"稲荷町西"},{"zipCode":"9480212","prefectureKana":"ﾆｲｶﾞﾀｹﾝ","cityKana":"ﾄｵｶﾏﾁｼ","streetKana":"ｲﾜｾ","prefecture":"新潟県","city":"十日町市","street":"岩瀬"},{"zipCode":"9480122","prefectureKana":"ﾆｲｶﾞﾀｹﾝ","cityKana":"ﾄｵｶﾏﾁｼ","streetKana":"ｳｴﾉ","prefecture":"新潟県","city":"十日町市","street":"上野"},{"zipCode":"9480096","prefectureKana":"ﾆｲｶﾞﾀｹﾝ","cityKana":"ﾄｵｶﾏﾁｼ","streetKana":"ｳﾁｼﾞﾏ","prefecture":"新潟県","city":"十日町市","street":"内島"},{"zipCode":"9480088","prefectureKana":"ﾆｲｶﾞﾀｹﾝ","cityKana":"ﾄｵｶﾏﾁｼ","streetKana":"ｴｷﾄﾞｵﾘ","prefecture":"新潟県","city":"十日町市","street":"駅通り"},{"zipCode":"9480014","prefectureKana":"ﾆｲｶﾞﾀｹﾝ","cityKana":"ﾄｵｶﾏﾁｼ","streetKana":"ｴﾄﾞｳ","prefecture":"新潟県","city":"十日町市","street":"江道"},{"zipCode":"9480018","prefectureKana":"ﾆｲｶﾞﾀｹﾝ","cityKana":"ﾄｵｶﾏﾁｼ","streetKana":"ｵｵｲｹ","prefecture":"新潟県","city":"十日町市","street":"大池"},{"zipCode":"9480211","prefectureKana":"ﾆｲｶﾞﾀｹﾝ","cityKana":"ﾄｵｶﾏﾁｼ","streetKana":"ｵｵｸﾗ","prefecture":"新潟県","city":"十日町市","street":"大倉"},{"zipCode":"9480305","prefectureKana":"ﾆｲｶﾞﾀｹﾝ","cityKana":"ﾄｵｶﾏﾁｼ","streetKana":"ｵｵｼﾞﾗｸﾗ","prefecture":"新潟県","city":"十日町市","street":"大白倉"},{"zipCode":"9480133","prefectureKana":"ﾆｲｶﾞﾀｹﾝ","cityKana":"ﾄｵｶﾏﾁｼ","streetKana":"ｵｷﾀﾞﾃ","prefecture":"新潟県","city":"十日町市","street":"沖立"},{"zipCode":"9480008","prefectureKana":"ﾆｲｶﾞﾀｹﾝ","cityKana":"ﾄｵｶﾏﾁｼ","streetKana":"ｵｻｷ","prefecture":"新潟県","city":"十日町市","street":"尾崎"},{"zipCode":"9480086","prefectureKana":"ﾆｲｶﾞﾀｹﾝ","cityKana":"ﾄｵｶﾏﾁｼ","streetKana":"ｶｶﾞｲﾄﾔﾁｮｳ","prefecture":"新潟県","city":"十日町市","street":"加賀糸屋町"},{"zipCode":"9480057","prefectureKana":"ﾆｲｶﾞﾀｹﾝ","cityKana":"ﾄｵｶﾏﾁｼ","streetKana":"ｶｽｶﾞﾁｮｳ","prefecture":"新潟県","city":"十日町市","street":"春日町"},{"zipCode":"9480022","prefectureKana":"ﾆｲｶﾞﾀｹﾝ","cityKana":"ﾄｵｶﾏﾁｼ","streetKana":"ｶﾞｯｺｳﾁｮｳ","prefecture":"新潟県","city":"十日町市","street":"学校町"},{"zipCode":"9480134","prefectureKana":"ﾆｲｶﾞﾀｹﾝ","cityKana":"ﾄｵｶﾏﾁｼ","streetKana":"ｶﾐｱﾗｲ","prefecture":"新潟県","city":"十日町市","street":"上新井"},{"zipCode":"9480029","prefectureKana":"ﾆｲｶﾞﾀｹﾝ","cityKana":"ﾄｵｶﾏﾁｼ","streetKana":"ｶﾐｶﾜﾁｮｳ","prefecture":"新潟県","city":"十日町市","street":"上川町"},{"zipCode":"9480094","prefectureKana":"ﾆｲｶﾞﾀｹﾝ","cityKana":"ﾄｵｶﾏﾁｼ","streetKana":"ｶﾐｼﾞﾏ","prefecture":"新潟県","city":"十日町市","street":"上島"},{"zipCode":"9480038","prefectureKana":"ﾆｲｶﾞﾀｹﾝ","cityKana":"ﾄｵｶﾏﾁｼ","streetKana":"ｶﾜｳﾁﾁｮｳ","prefecture":"新潟県","city":"十日町市","street":"河内町"},{"zipCode":"9480036","prefectureKana":"ﾆｲｶﾞﾀｹﾝ","cityKana":"ﾄｵｶﾏﾁｼ","streetKana":"ｶﾜｼﾞ","prefecture":"新潟県","city":"十日町市","street":"川治"},{"zipCode":"9480035","prefectureKana":"ﾆｲｶﾞﾀｹﾝ","cityKana":"ﾄｵｶﾏﾁｼ","streetKana":"ｶﾜｼﾞｼﾓﾁｮｳ","prefecture":"新潟県","city":"十日町市","street":"川治下町"},{"zipCode":"9480013","prefectureKana":"ﾆｲｶﾞﾀｹﾝ","cityKana":"ﾄｵｶﾏﾁｼ","streetKana":"ｶﾜﾊﾗﾁｮｳ","prefecture":"新潟県","city":"十日町市","street":"川原町"},{"zipCode":"9480304","prefectureKana":"ﾆｲｶﾞﾀｹﾝ","cityKana":"ﾄｵｶﾏﾁｼ","streetKana":"ｷｵﾄｼ","prefecture":"新潟県","city":"十日町市","street":"木落"},{"zipCode":"9480105","prefectureKana":"ﾆｲｶﾞﾀｹﾝ","cityKana":"ﾄｵｶﾏﾁｼ","streetKana":"ｷﾀｱﾌﾞｻﾞｶ","prefecture":"新潟県","city":"十日町市","street":"北鐙坂"},{"zipCode":"9480041","prefectureKana":"ﾆｲｶﾞﾀｹﾝ","cityKana":"ﾄｵｶﾏﾁｼ","streetKana":"ｷﾀｼﾝﾃﾞﾝ","prefecture":"新潟県","city":"十日町市","street":"北新田"},{"zipCode":"9480103","prefectureKana":"ﾆｲｶﾞﾀｹﾝ","cityKana":"ﾄｵｶﾏﾁｼ","streetKana":"ｺｲｽﾞﾐ","prefecture":"新潟県","city":"十日町市","street":"小泉"},{"zipCode":"9480001","prefectureKana":"ﾆｲｶﾞﾀｹﾝ","cityKana":"ﾄｵｶﾏﾁｼ","streetKana":"ｺﾞｹﾝｼﾝﾃﾞﾝ","prefecture":"新潟県","city":"十日町市","street":"五軒新田"},{"zipCode":"9480219","prefectureKana":"ﾆｲｶﾞﾀｹﾝ","cityKana":"ﾄｵｶﾏﾁｼ","streetKana":"ｺｼｶﾞｻﾜ","prefecture":"新潟県","city":"十日町市","street":"越ケ沢"},{"zipCode":"9480306","prefectureKana":"ﾆｲｶﾞﾀｹﾝ","cityKana":"ﾄｵｶﾏﾁｼ","streetKana":"ｺｼﾞﾗｸﾗ","prefecture":"新潟県","city":"十日町市","street":"小白倉"},{"zipCode":"9480051","prefectureKana":"ﾆｲｶﾞﾀｹﾝ","cityKana":"ﾄｵｶﾏﾁｼ","streetKana":"ｺﾄﾌﾞｷﾁｮｳ","prefecture":"新潟県","city":"十日町市","street":"寿町"},{"zipCode":"9480125","prefectureKana":"ﾆｲｶﾞﾀｹﾝ","cityKana":"ﾄｵｶﾏﾁｼ","streetKana":"ｺﾈｷﾞｼ","prefecture":"新潟県","city":"十日町市","street":"小根岸"},{"zipCode":"9480218","prefectureKana":"ﾆｲｶﾞﾀｹﾝ","cityKana":"ﾄｵｶﾏﾁｼ","streetKana":"ｺﾜｷ","prefecture":"新潟県","city":"十日町市","street":"小脇"},{"zipCode":"9480068","prefectureKana":"ﾆｲｶﾞﾀｹﾝ","cityKana":"ﾄｵｶﾏﾁｼ","streetKana":"ｻｶｴﾁｮｳ","prefecture":"新潟県","city":"十日町市","street":"栄町"},{"zipCode":"9480058","prefectureKana":"ﾆｲｶﾞﾀｹﾝ","cityKana":"ﾄｵｶﾏﾁｼ","streetKana":"ｻｸﾗｷﾞﾁｮｳ","prefecture":"新潟県","city":"十日町市","street":"桜木町"},{"zipCode":"9480112","prefectureKana":"ﾆｲｶﾞﾀｹﾝ","cityKana":"ﾄｵｶﾏﾁｼ","streetKana":"ｻﾅﾀﾞｵﾂ","prefecture":"新潟県","city":"十日町市","street":"真田乙"},{"zipCode":"9480111","prefectureKana":"ﾆｲｶﾞﾀｹﾝ","cityKana":"ﾄｵｶﾏﾁｼ","streetKana":"ｻﾅﾀﾞｺｳ","prefecture":"新潟県","city":"十日町市","street":"真田甲"},{"zipCode":"9480113","prefectureKana":"ﾆｲｶﾞﾀｹﾝ","cityKana":"ﾄｵｶﾏﾁｼ","streetKana":"ｻﾅﾀﾞﾃｲ","prefecture":"新潟県","city":"十日町市","street":"真田丁"},{"zipCode":"9480114","prefectureKana":"ﾆｲｶﾞﾀｹﾝ","cityKana":"ﾄｵｶﾏﾁｼ","streetKana":"ｻﾅﾀﾞﾍｲ","prefecture":"新潟県","city":"十日町市","street":"真田丙"},{"zipCode":"9480015","prefectureKana":"ﾆｲｶﾞﾀｹﾝ","cityKana":"ﾄｵｶﾏﾁｼ","streetKana":"ｻﾙｸﾗ","prefecture":"新潟県","city":"十日町市","street":"猿倉"},{"zipCode":"9480124","prefectureKana":"ﾆｲｶﾞﾀｹﾝ","cityKana":"ﾄｵｶﾏﾁｼ","streetKana":"ｻﾝﾘｮｳ","prefecture":"新潟県","city":"十日町市","street":"三領"},{"zipCode":"9480002","prefectureKana":"ﾆｲｶﾞﾀｹﾝ","cityKana":"ﾄｵｶﾏﾁｼ","streetKana":"ｻﾝﾜﾁｮｳ","prefecture":"新潟県","city":"十日町市","street":"三和町"},{"zipCode":"9480039","prefectureKana":"ﾆｲｶﾞﾀｹﾝ","cityKana":"ﾄｵｶﾏﾁｼ","streetKana":"ｼｵﾉﾏﾀ","prefecture":"新潟県","city":"十日町市","street":"塩ノ又"},{"zipCode":"9480095","prefectureKana":"ﾆｲｶﾞﾀｹﾝ","cityKana":"ﾄｵｶﾏﾁｼ","streetKana":"ｼﾀｼﾞﾏ","prefecture":"新潟県","city":"十日町市","street":"下島"},{"zipCode":"9480123","prefectureKana":"ﾆｲｶﾞﾀｹﾝ","cityKana":"ﾄｵｶﾏﾁｼ","streetKana":"ｼﾀﾀﾞｲﾗｼﾝﾃﾞﾝ","prefecture":"新潟県","city":"十日町市","street":"下平新田"},{"zipCode":"9480084","prefectureKana":"ﾆｲｶﾞﾀｹﾝ","cityKana":"ﾄｵｶﾏﾁｼ","streetKana":"ｼﾁｹﾝﾁｮｳ","prefecture":"新潟県","city":"十日町市","street":"七軒町"},{"zipCode":"9480004","prefectureKana":"ﾆｲｶﾞﾀｹﾝ","cityKana":"ﾄｵｶﾏﾁｼ","streetKana":"ｼﾓｶﾞﾜﾗﾁｮｳ","prefecture":"新潟県","city":"十日町市","street":"下川原町"},{"zipCode":"9480141","prefectureKana":"ﾆｲｶﾞﾀｹﾝ","cityKana":"ﾄｵｶﾏﾁｼ","streetKana":"ｼﾓｼﾞｮｳ","prefecture":"新潟県","city":"十日町市","street":"霜条"},{"zipCode":"9480061","prefectureKana":"ﾆｲｶﾞﾀｹﾝ","cityKana":"ﾄｵｶﾏﾁｼ","streetKana":"ｼｮｳﾜﾁｮｳ","prefecture":"新潟県","city":"十日町市","street":"昭和町"},{"zipCode":"9480012","prefectureKana":"ﾆｲｶﾞﾀｹﾝ","cityKana":"ﾄｵｶﾏﾁｼ","streetKana":"ｼﾝｻﾞ(ﾀﾞｲ1､2)","prefecture":"新潟県","city":"十日町市","street":"新座（第１、２）"},{"zipCode":"9480011","prefectureKana":"ﾆｲｶﾞﾀｹﾝ","cityKana":"ﾄｵｶﾏﾁｼ","streetKana":"ｼﾝｻﾞ(ﾀﾞｲ3､4)","prefecture":"新潟県","city":"十日町市","street":"新座（第３、４）"},{"zipCode":"9480025","prefectureKana":"ﾆｲｶﾞﾀｹﾝ","cityKana":"ﾄｵｶﾏﾁｼ","streetKana":"ｼﾝﾒｲﾁｮｳ","prefecture":"新潟県","city":"十日町市","street":"神明町"},{"zipCode":"9480017","prefectureKana":"ﾆｲｶﾞﾀｹﾝ","cityKana":"ﾄｵｶﾏﾁｼ","streetKana":"ｽｶﾞﾇﾏ","prefecture":"新潟県","city":"十日町市","street":"菅沼"},{"zipCode":"9480076","prefectureKana":"ﾆｲｶﾞﾀｹﾝ","cityKana":"ﾄｵｶﾏﾁｼ","streetKana":"ｽﾐﾖｼﾁｮｳ","prefecture":"新潟県","city":"十日町市","street":"住吉町"},{"zipCode":"9480024","prefectureKana":"ﾆｲｶﾞﾀｹﾝ","cityKana":"ﾄｵｶﾏﾁｼ","streetKana":"ｽﾜﾁｮｳ","prefecture":"新潟県","city":"十日町市","street":"諏訪町"},{"zipCode":"9480087","prefectureKana":"ﾆｲｶﾞﾀｹﾝ","cityKana":"ﾄｵｶﾏﾁｼ","streetKana":"ｾｷｸﾞﾁﾋｸﾞﾁﾁｮｳ","prefecture":"新潟県","city":"十日町市","street":"関口樋口町"},{"zipCode":"9480032","prefectureKana":"ﾆｲｶﾞﾀｹﾝ","cityKana":"ﾄｵｶﾏﾁｼ","streetKana":"ｾｷﾈ","prefecture":"新潟県","city":"十日町市","street":"関根"},{"zipCode":"9480217","prefectureKana":"ﾆｲｶﾞﾀｹﾝ","cityKana":"ﾄｵｶﾏﾁｼ","streetKana":"ﾀｶｸﾗ","prefecture":"新潟県","city":"十日町市","street":"高倉"},{"zipCode":"9480107","prefectureKana":"ﾆｲｶﾞﾀｹﾝ","cityKana":"ﾄｵｶﾏﾁｼ","streetKana":"ﾀｶｼﾏ","prefecture":"新潟県","city":"十日町市","street":"高島"},{"zipCode":"9480063","prefectureKana":"ﾆｲｶﾞﾀｹﾝ","cityKana":"ﾄｵｶﾏﾁｼ","streetKana":"ﾀｶﾀﾞﾁｮｳｲｯﾁｮｳﾒ","prefecture":"新潟県","city":"十日町市","street":"高田町一丁目"},{"zipCode":"9480064","prefectureKana":"ﾆｲｶﾞﾀｹﾝ","cityKana":"ﾄｵｶﾏﾁｼ","streetKana":"ﾀｶﾀﾞﾁｮｳﾆﾁｮｳﾒ","prefecture":"新潟県","city":"十日町市","street":"高田町二丁目"},{"zipCode":"9480065","prefectureKana":"ﾆｲｶﾞﾀｹﾝ","cityKana":"ﾄｵｶﾏﾁｼ","streetKana":"ﾀｶﾀﾞﾁｮｳｻﾝﾁｮｳﾒ","prefecture":"新潟県","city":"十日町市","street":"高田町三丁目"},{"zipCode":"9480065","prefectureKana":"ﾆｲｶﾞﾀｹﾝ","cityKana":"ﾄｵｶﾏﾁｼ","streetKana":"ﾀｶﾀﾞﾁｮｳｻﾝﾁｮｳﾒﾆｼ","prefecture":"新潟県","city":"十日町市","street":"高田町三丁目西"},{"zipCode":"9480065","prefectureKana":"ﾆｲｶﾞﾀｹﾝ","cityKana":"ﾄｵｶﾏﾁｼ","streetKana":"ﾀｶﾀﾞﾁｮｳｻﾝﾁｮｳﾒﾐﾅﾐ","prefecture":"新潟県","city":"十日町市","street":"高田町三丁目南"},{"zipCode":"9480056","prefectureKana":"ﾆｲｶﾞﾀｹﾝ","cityKana":"ﾄｵｶﾏﾁｼ","streetKana":"ﾀｶﾀﾞﾁｮｳﾖﾝﾁｮｳﾒ","prefecture":"新潟県","city":"十日町市","street":"高田町四丁目"},{"zipCode":"9480056","prefectureKana":"ﾆｲｶﾞﾀｹﾝ","cityKana":"ﾄｵｶﾏﾁｼ","streetKana":"ﾀｶﾀﾞﾁｮｳｺﾞﾁｮｳﾒ","prefecture":"新潟県","city":"十日町市","street":"高田町五丁目"},{"zipCode":"9480056","prefectureKana":"ﾆｲｶﾞﾀｹﾝ","cityKana":"ﾄｵｶﾏﾁｼ","streetKana":"ﾀｶﾀﾞﾁｮｳﾛｸﾁｮｳﾒ","prefecture":"新潟県","city":"十日町市","street":"高田町六丁目"},{"zipCode":"9480136","prefectureKana":"ﾆｲｶﾞﾀｹﾝ","cityKana":"ﾄｵｶﾏﾁｼ","streetKana":"ﾀｶﾊﾗﾀﾞ","prefecture":"新潟県","city":"十日町市","street":"高原田"},{"zipCode":"9480055","prefectureKana":"ﾆｲｶﾞﾀｹﾝ","cityKana":"ﾄｵｶﾏﾁｼ","streetKana":"ﾀｶﾔﾏ","prefecture":"新潟県","city":"十日町市","street":"高山"},{"zipCode":"9480021","prefectureKana":"ﾆｲｶﾞﾀｹﾝ","cityKana":"ﾄｵｶﾏﾁｼ","streetKana":"ﾀｶﾞﾜﾁｮｳ","prefecture":"新潟県","city":"十日町市","street":"田川町"},{"zipCode":"9480047","prefectureKana":"ﾆｲｶﾞﾀｹﾝ","cityKana":"ﾄｵｶﾏﾁｼ","streetKana":"ﾀﾃﾉｺｼ","prefecture":"新潟県","city":"十日町市","street":"城之古"},{"zipCode":"9480215","prefectureKana":"ﾆｲｶﾞﾀｹﾝ","cityKana":"ﾄｵｶﾏﾁｼ","streetKana":"ﾀﾄﾞ","prefecture":"新潟県","city":"十日町市","street":"田戸"},{"zipCode":"9480028","prefectureKana":"ﾆｲｶﾞﾀｹﾝ","cityKana":"ﾄｵｶﾏﾁｼ","streetKana":"ﾀﾅｶﾁｮｳﾆｼ","prefecture":"新潟県","city":"十日町市","street":"田中町西"},{"zipCode":"9480028","prefectureKana":"ﾆｲｶﾞﾀｹﾝ","cityKana":"ﾄｵｶﾏﾁｼ","streetKana":"ﾀﾅｶﾁｮｳﾋｶﾞｼ","prefecture":"新潟県","city":"十日町市","street":"田中町東"},{"zipCode":"9480028","prefectureKana":"ﾆｲｶﾞﾀｹﾝ","cityKana":"ﾄｵｶﾏﾁｼ","streetKana":"ﾀﾅｶﾁｮｳﾎﾝﾄﾞｵﾘ","prefecture":"新潟県","city":"十日町市","street":"田中町本通り"},{"zipCode":"9480044","prefectureKana":"ﾆｲｶﾞﾀｹﾝ","cityKana":"ﾄｵｶﾏﾁｼ","streetKana":"ﾀﾑｷﾞ","prefecture":"新潟県","city":"十日町市","street":"田麦"},{"zipCode":"9480104","prefectureKana":"ﾆｲｶﾞﾀｹﾝ","cityKana":"ﾄｵｶﾏﾁｼ","streetKana":"ﾀﾙｻﾜ","prefecture":"新潟県","city":"十日町市","street":"樽沢"},{"zipCode":"9480067","prefectureKana":"ﾆｲｶﾞﾀｹﾝ","cityKana":"ﾄｵｶﾏﾁｼ","streetKana":"ﾁﾄｾﾁｮｳ","prefecture":"新潟県","city":"十日町市","street":"千歳町"},{"zipCode":"9480078","prefectureKana":"ﾆｲｶﾞﾀｹﾝ","cityKana":"ﾄｵｶﾏﾁｼ","streetKana":"ﾁﾖﾀﾞﾁｮｳ","prefecture":"新潟県","city":"十日町市","street":"千代田町"},{"zipCode":"9480016","prefectureKana":"ﾆｲｶﾞﾀｹﾝ","cityKana":"ﾄｵｶﾏﾁｼ","streetKana":"ﾂｲｹ","prefecture":"新潟県","city":"十日町市","street":"津池"},{"zipCode":"9480054","prefectureKana":"ﾆｲｶﾞﾀｹﾝ","cityKana":"ﾄｵｶﾏﾁｼ","streetKana":"ﾂｶﾊﾗﾁｮｳ","prefecture":"新潟県","city":"十日町市","street":"塚原町"},{"zipCode":"9480145","prefectureKana":"ﾆｲｶﾞﾀｹﾝ","cityKana":"ﾄｵｶﾏﾁｼ","streetKana":"ﾂﾎﾞﾔﾏ","prefecture":"新潟県","city":"十日町市","street":"坪山"},{"zipCode":"9480037","prefectureKana":"ﾆｲｶﾞﾀｹﾝ","cityKana":"ﾄｵｶﾏﾁｼ","streetKana":"ﾂﾏﾘﾁｮｳ","prefecture":"新潟県","city":"十日町市","street":"妻有町"},{"zipCode":"9480146","prefectureKana":"ﾆｲｶﾞﾀｹﾝ","cityKana":"ﾄｵｶﾏﾁｼ","streetKana":"ﾂﾙﾖｼ","prefecture":"新潟県","city":"十日町市","street":"鶴吉"},{"zipCode":"9480303","prefectureKana":"ﾆｲｶﾞﾀｹﾝ","cityKana":"ﾄｵｶﾏﾁｼ","streetKana":"ﾃﾗｶﾞｻｷ","prefecture":"新潟県","city":"十日町市","street":"寺ケ崎"},{"zipCode":"9480142","prefectureKana":"ﾆｲｶﾞﾀｹﾝ","cityKana":"ﾄｵｶﾏﾁｼ","streetKana":"ﾄｳｾﾞﾝｼﾞ","prefecture":"新潟県","city":"十日町市","street":"東善寺"},{"zipCode":"9480019","prefectureKana":"ﾆｲｶﾞﾀｹﾝ","cityKana":"ﾄｵｶﾏﾁｼ","streetKana":"ﾄｵｶﾏﾁｱｶｸﾗ","prefecture":"新潟県","city":"十日町市","street":"十日町赤倉"},{"zipCode":"9480132","prefectureKana":"ﾆｲｶﾞﾀｹﾝ","cityKana":"ﾄｵｶﾏﾁｼ","streetKana":"ﾄﾓｼｹﾞ","prefecture":"新潟県","city":"十日町市","street":"友重"},{"zipCode":"9480214","prefectureKana":"ﾆｲｶﾞﾀｹﾝ","cityKana":"ﾄｵｶﾏﾁｼ","streetKana":"ﾅｶｾﾝﾀﾞ","prefecture":"新潟県","city":"十日町市","street":"中仙田"},{"zipCode":"9480042","prefectureKana":"ﾆｲｶﾞﾀｹﾝ","cityKana":"ﾄｵｶﾏﾁｼ","streetKana":"ﾅｶﾑﾗ","prefecture":"新潟県","city":"十日町市","street":"中村"},{"zipCode":"9480135","prefectureKana":"ﾆｲｶﾞﾀｹﾝ","cityKana":"ﾄｵｶﾏﾁｼ","streetKana":"ﾅｶﾔｼｷ","prefecture":"新潟県","city":"十日町市","street":"中屋敷"},{"zipCode":"9480074","prefectureKana":"ﾆｲｶﾞﾀｹﾝ","cityKana":"ﾄｵｶﾏﾁｼ","streetKana":"ﾆｼｳﾗﾁｮｳﾆｼ","prefecture":"新潟県","city":"十日町市","street":"西浦町西"},{"zipCode":"9480074","prefectureKana":"ﾆｲｶﾞﾀｹﾝ","cityKana":"ﾄｵｶﾏﾁｼ","streetKana":"ﾆｼｳﾗﾁｮｳﾋｶﾞｼ","prefecture":"新潟県","city":"十日町市","street":"西浦町東"},{"zipCode":"9480053","prefectureKana":"ﾆｲｶﾞﾀｹﾝ","cityKana":"ﾄｵｶﾏﾁｼ","streetKana":"ﾆｼｷﾁｮｳ","prefecture":"新潟県","city":"十日町市","street":"錦町"},{"zipCode":"9480085","prefectureKana":"ﾆｲｶﾞﾀｹﾝ","cityKana":"ﾄｵｶﾏﾁｼ","streetKana":"ﾆｼﾃﾞﾗﾁｮｳ","prefecture":"新潟県","city":"十日町市","street":"西寺町"},{"zipCode":"9480072","prefectureKana":"ﾆｲｶﾞﾀｹﾝ","cityKana":"ﾄｵｶﾏﾁｼ","streetKana":"ﾆｼﾎﾝﾁｮｳ","prefecture":"新潟県","city":"十日町市","street":"西本町"},{"zipCode":"9480302","prefectureKana":"ﾆｲｶﾞﾀｹﾝ","cityKana":"ﾄｵｶﾏﾁｼ","streetKana":"ﾆﾀ","prefecture":"新潟県","city":"十日町市","street":"仁田"},{"zipCode":"9480301","prefectureKana":"ﾆｲｶﾞﾀｹﾝ","cityKana":"ﾄｵｶﾏﾁｼ","streetKana":"ﾉｸﾞﾁ","prefecture":"新潟県","city":"十日町市","street":"野口"},{"zipCode":"9480071","prefectureKana":"ﾆｲｶﾞﾀｹﾝ","cityKana":"ﾄｵｶﾏﾁｼ","streetKana":"ﾊﾁﾏﾝﾀﾞﾁｮｳ","prefecture":"新潟県","city":"十日町市","street":"八幡田町"},{"zipCode":"9480033","prefectureKana":"ﾆｲｶﾞﾀｹﾝ","cityKana":"ﾄｵｶﾏﾁｼ","streetKana":"ﾊｯｶ","prefecture":"新潟県","city":"十日町市","street":"八箇"},{"zipCode":"9480066","prefectureKana":"ﾆｲｶﾞﾀｹﾝ","cityKana":"ﾄｵｶﾏﾁｼ","streetKana":"ﾌｸﾛﾁｮｳﾅｶ","prefecture":"新潟県","city":"十日町市","street":"袋町中"},{"zipCode":"9480066","prefectureKana":"ﾆｲｶﾞﾀｹﾝ","cityKana":"ﾄｵｶﾏﾁｼ","streetKana":"ﾌｸﾛﾁｮｳﾆｼ","prefecture":"新潟県","city":"十日町市","street":"袋町西"},{"zipCode":"9480066","prefectureKana":"ﾆｲｶﾞﾀｹﾝ","cityKana":"ﾄｵｶﾏﾁｼ","streetKana":"ﾌｸﾛﾁｮｳﾋｶﾞｼ","prefecture":"新潟県","city":"十日町市","street":"袋町東"},{"zipCode":"9480034","prefectureKana":"ﾆｲｶﾞﾀｹﾝ","cityKana":"ﾄｵｶﾏﾁｼ","streetKana":"ﾌﾀﾂﾔ","prefecture":"新潟県","city":"十日町市","street":"二ツ屋"},{"zipCode":"9480049","prefectureKana":"ﾆｲｶﾞﾀｹﾝ","cityKana":"ﾄｵｶﾏﾁｼ","streetKana":"ﾌﾅｻﾞｶ","prefecture":"新潟県","city":"十日町市","street":"船坂"},{"zipCode":"9480003","prefectureKana":"ﾆｲｶﾞﾀｹﾝ","cityKana":"ﾄｵｶﾏﾁｼ","streetKana":"ﾎﾝﾁｮｳ(7ﾁｮｳﾒ)","prefecture":"新潟県","city":"十日町市","street":"本町（７丁目）"},{"zipCode":"9480083","prefectureKana":"ﾆｲｶﾞﾀｹﾝ","cityKana":"ﾄｵｶﾏﾁｼ","streetKana":"ﾎﾝﾁｮｳｲｯﾁｮｳﾒｶﾐ","prefecture":"新潟県","city":"十日町市","street":"本町一丁目上"},{"zipCode":"9480083","prefectureKana":"ﾆｲｶﾞﾀｹﾝ","cityKana":"ﾄｵｶﾏﾁｼ","streetKana":"ﾎﾝﾁｮｳｲｯﾁｮｳﾒｼﾓ","prefecture":"新潟県","city":"十日町市","street":"本町一丁目下"},{"zipCode":"9480082","prefectureKana":"ﾆｲｶﾞﾀｹﾝ","cityKana":"ﾄｵｶﾏﾁｼ","streetKana":"ﾎﾝﾁｮｳﾆﾁｮｳﾒ","prefecture":"新潟県","city":"十日町市","street":"本町二丁目"},{"zipCode":"9480082","prefectureKana":"ﾆｲｶﾞﾀｹﾝ","cityKana":"ﾄｵｶﾏﾁｼ","streetKana":"ﾎﾝﾁｮｳｻﾝﾁｮｳﾒ","prefecture":"新潟県","city":"十日町市","street":"本町三丁目"},{"zipCode":"9480082","prefectureKana":"ﾆｲｶﾞﾀｹﾝ","cityKana":"ﾄｵｶﾏﾁｼ","streetKana":"ﾎﾝﾁｮｳﾖﾝﾁｮｳﾒ","prefecture":"新潟県","city":"十日町市","street":"本町四丁目"},{"zipCode":"9480081","prefectureKana":"ﾆｲｶﾞﾀｹﾝ","cityKana":"ﾄｵｶﾏﾁｼ","streetKana":"ﾎﾝﾁｮｳｺﾞﾁｮｳﾒ","prefecture":"新潟県","city":"十日町市","street":"本町五丁目"},{"zipCode":"9480003","prefectureKana":"ﾆｲｶﾞﾀｹﾝ","cityKana":"ﾄｵｶﾏﾁｼ","streetKana":"ﾎﾝﾁｮｳﾛｸﾉｲｯﾁｮｳﾒ","prefecture":"新潟県","city":"十日町市","street":"本町六の一丁目"},{"zipCode":"9480003","prefectureKana":"ﾆｲｶﾞﾀｹﾝ","cityKana":"ﾄｵｶﾏﾁｼ","streetKana":"ﾎﾝﾁｮｳﾛｸﾉﾆﾁｮｳﾒ","prefecture":"新潟県","city":"十日町市","street":"本町六の二丁目"},{"zipCode":"9480003","prefectureKana":"ﾆｲｶﾞﾀｹﾝ","cityKana":"ﾄｵｶﾏﾁｼ","streetKana":"ﾎﾝﾁｮｳﾛｸﾉｻﾝﾁｮｳﾒ","prefecture":"新潟県","city":"十日町市","street":"本町六の三丁目"},{"zipCode":"9480083","prefectureKana":"ﾆｲｶﾞﾀｹﾝ","cityKana":"ﾄｵｶﾏﾁｼ","streetKana":"ﾎﾝﾁｮｳﾆｼｲｯﾁｮｳﾒ","prefecture":"新潟県","city":"十日町市","street":"本町西一丁目"},{"zipCode":"9480083","prefectureKana":"ﾆｲｶﾞﾀｹﾝ","cityKana":"ﾄｵｶﾏﾁｼ","streetKana":"ﾎﾝﾁｮｳﾋｶﾞｼｲｯﾁｮｳﾒ","prefecture":"新潟県","city":"十日町市","street":"本町東一丁目"},{"zipCode":"9480075","prefectureKana":"ﾆｲｶﾞﾀｹﾝ","cityKana":"ﾄｵｶﾏﾁｼ","streetKana":"ﾏﾙﾔﾏﾁｮｳ","prefecture":"新潟県","city":"十日町市","street":"丸山町"},{"zipCode":"9480026","prefectureKana":"ﾆｲｶﾞﾀｹﾝ","cityKana":"ﾄｵｶﾏﾁｼ","streetKana":"ﾐｽﾞﾉﾁｮｳ","prefecture":"新潟県","city":"十日町市","street":"水野町"},{"zipCode":"9480144","prefectureKana":"ﾆｲｶﾞﾀｹﾝ","cityKana":"ﾄｵｶﾏﾁｼ","streetKana":"ﾐﾅｸﾁｻﾞﾜ","prefecture":"新潟県","city":"十日町市","street":"水口沢"},{"zipCode":"9480106","prefectureKana":"ﾆｲｶﾞﾀｹﾝ","cityKana":"ﾄｵｶﾏﾁｼ","streetKana":"ﾐﾅﾐｱﾌﾞｻﾞｶ","prefecture":"新潟県","city":"十日町市","street":"南鐙坂"},{"zipCode":"9480005","prefectureKana":"ﾆｲｶﾞﾀｹﾝ","cityKana":"ﾄｵｶﾏﾁｼ","streetKana":"ﾐﾅﾐｼﾝﾃﾞﾝﾁｮｳ","prefecture":"新潟県","city":"十日町市","street":"南新田町"},{"zipCode":"9480023","prefectureKana":"ﾆｲｶﾞﾀｹﾝ","cityKana":"ﾄｵｶﾏﾁｼ","streetKana":"ﾐﾔｼﾀﾁｮｳﾆｼ","prefecture":"新潟県","city":"十日町市","street":"宮下町西"},{"zipCode":"9480023","prefectureKana":"ﾆｲｶﾞﾀｹﾝ","cityKana":"ﾄｵｶﾏﾁｼ","streetKana":"ﾐﾔｼﾀﾁｮｳﾋｶﾞｼ","prefecture":"新潟県","city":"十日町市","street":"宮下町東"},{"zipCode":"9480052","prefectureKana":"ﾆｲｶﾞﾀｹﾝ","cityKana":"ﾄｵｶﾏﾁｼ","streetKana":"ﾐﾕｷﾁｮｳ","prefecture":"新潟県","city":"十日町市","street":"美雪町"},{"zipCode":"9480216","prefectureKana":"ﾆｲｶﾞﾀｹﾝ","cityKana":"ﾄｵｶﾏﾁｼ","streetKana":"ﾑﾛｼﾞﾏ","prefecture":"新潟県","city":"十日町市","street":"室島"},{"zipCode":"9480048","prefectureKana":"ﾆｲｶﾞﾀｹﾝ","cityKana":"ﾄｵｶﾏﾁｼ","streetKana":"ﾔﾁｳｼ","prefecture":"新潟県","city":"十日町市","street":"谷内丑"},{"zipCode":"9480143","prefectureKana":"ﾆｲｶﾞﾀｹﾝ","cityKana":"ﾄｵｶﾏﾁｼ","streetKana":"ﾔﾏﾉﾀ","prefecture":"新潟県","city":"十日町市","street":"山野田"},{"zipCode":"9480031","prefectureKana":"ﾆｲｶﾞﾀｹﾝ","cityKana":"ﾄｵｶﾏﾁｼ","streetKana":"ﾔﾏﾓﾄﾁｮｳ","prefecture":"新潟県","city":"十日町市","street":"山本町"},{"zipCode":"9480102","prefectureKana":"ﾆｲｶﾞﾀｹﾝ","cityKana":"ﾄｵｶﾏﾁｼ","streetKana":"ﾔﾏﾔ","prefecture":"新潟県","city":"十日町市","street":"山谷"},{"zipCode":"9480006","prefectureKana":"ﾆｲｶﾞﾀｹﾝ","cityKana":"ﾄｵｶﾏﾁｼ","streetKana":"ﾖｯｶﾏﾁ","prefecture":"新潟県","city":"十日町市","street":"四日町"},{"zipCode":"9480007","prefectureKana":"ﾆｲｶﾞﾀｹﾝ","cityKana":"ﾄｵｶﾏﾁｼ","streetKana":"ﾖｯｶﾏﾁｼﾝﾃﾞﾝ","prefecture":"新潟県","city":"十日町市","street":"四日町新田"},{"zipCode":"9480043","prefectureKana":"ﾆｲｶﾞﾀｹﾝ","cityKana":"ﾄｵｶﾏﾁｼ","streetKana":"ﾛｯｶﾔﾏﾔ","prefecture":"新潟県","city":"十日町市","street":"六箇山谷"},{"zipCode":"9480027","prefectureKana":"ﾆｲｶﾞﾀｹﾝ","cityKana":"ﾄｵｶﾏﾁｼ","streetKana":"ﾜｶﾐﾔﾁｮｳ","prefecture":"新潟県","city":"十日町市","street":"若宮町"}]