[{"zipCode":"9495412","prefectureKana":"ﾆｲｶﾞﾀｹﾝ","cityKana":"ﾅｶﾞｵｶｼ","streetKana":"ｱｻﾋ","prefecture":"新潟県","city":"長岡市","street":"朝日"},{"zipCode":"9494513","prefectureKana":"ﾆｲｶﾞﾀｹﾝ","cityKana":"ﾅｶﾞｵｶｼ","streetKana":"ｱﾐﾀﾞｾ","prefecture":"新潟県","city":"長岡市","street":"阿弥陀瀬"},{"zipCode":"9494506","prefectureKana":"ﾆｲｶﾞﾀｹﾝ","cityKana":"ﾅｶﾞｵｶｼ","streetKana":"ｱﾗﾏｷ","prefecture":"新潟県","city":"長岡市","street":"荒巻"},{"zipCode":"9495401","prefectureKana":"ﾆｲｶﾞﾀｹﾝ","cityKana":"ﾅｶﾞｵｶｼ","streetKana":"ｲｲｼﾞﾏ","prefecture":"新潟県","city":"長岡市","street":"飯島"},{"zipCode":"9495414","prefectureKana":"ﾆｲｶﾞﾀｹﾝ","cityKana":"ﾅｶﾞｵｶｼ","streetKana":"ｲｲﾂﾞｶ","prefecture":"新潟県","city":"長岡市","street":"飯塚"},{"zipCode":"9495415","prefectureKana":"ﾆｲｶﾞﾀｹﾝ","cityKana":"ﾅｶﾞｵｶｼ","streetKana":"ｲﾜﾀﾞ","prefecture":"新潟県","city":"長岡市","street":"岩田"},{"zipCode":"9495405","prefectureKana":"ﾆｲｶﾞﾀｹﾝ","cityKana":"ﾅｶﾞｵｶｼ","streetKana":"ｲﾜﾉ(ｿﾉﾀ)","prefecture":"新潟県","city":"長岡市","street":"岩野（その他）"},{"zipCode":"9494517","prefectureKana":"ﾆｲｶﾞﾀｹﾝ","cityKana":"ﾅｶﾞｵｶｼ","streetKana":"ｳﾒﾀﾞ","prefecture":"新潟県","city":"長岡市","street":"梅田"},{"zipCode":"9495406","prefectureKana":"ﾆｲｶﾞﾀｹﾝ","cityKana":"ﾅｶﾞｵｶｼ","streetKana":"ｳﾗ","prefecture":"新潟県","city":"長岡市","street":"浦"},{"zipCode":"9495216","prefectureKana":"ﾆｲｶﾞﾀｹﾝ","cityKana":"ﾅｶﾞｵｶｼ","streetKana":"ｵｸﾞﾆﾏﾁｱｲﾉﾊﾗ","prefecture":"新潟県","city":"長岡市","street":"小国町相野原"},{"zipCode":"9495215","prefectureKana":"ﾆｲｶﾞﾀｹﾝ","cityKana":"ﾅｶﾞｵｶｼ","streetKana":"ｵｸﾞﾆﾏﾁｱﾗﾏﾁ","prefecture":"新潟県","city":"長岡市","street":"小国町新町"},{"zipCode":"9495346","prefectureKana":"ﾆｲｶﾞﾀｹﾝ","cityKana":"ﾅｶﾞｵｶｼ","streetKana":"ｵｸﾞﾆﾏﾁｵｵｶﾞｲ","prefecture":"新潟県","city":"長岡市","street":"小国町大貝"},{"zipCode":"9495333","prefectureKana":"ﾆｲｶﾞﾀｹﾝ","cityKana":"ﾅｶﾞｵｶｼ","streetKana":"ｵｸﾞﾆﾏﾁｵｸﾞﾆｻﾜ","prefecture":"新潟県","city":"長岡市","street":"小国町小国沢"},{"zipCode":"9495332","prefectureKana":"ﾆｲｶﾞﾀｹﾝ","cityKana":"ﾅｶﾞｵｶｼ","streetKana":"ｵｸﾞﾆﾏﾁｶﾐｲﾜﾀ","prefecture":"新潟県","city":"長岡市","street":"小国町上岩田"},{"zipCode":"9495214","prefectureKana":"ﾆｲｶﾞﾀｹﾝ","cityKana":"ﾅｶﾞｵｶｼ","streetKana":"ｵｸﾞﾆﾏﾁｶﾐﾔｳﾁｼﾝﾃﾞﾝ","prefecture":"新潟県","city":"長岡市","street":"小国町上谷内新田"},{"zipCode":"9495212","prefectureKana":"ﾆｲｶﾞﾀｹﾝ","cityKana":"ﾅｶﾞｵｶｼ","streetKana":"ｵｸﾞﾆﾏﾁｷﾘｻﾜ","prefecture":"新潟県","city":"長岡市","street":"小国町桐沢"},{"zipCode":"9495341","prefectureKana":"ﾆｲｶﾞﾀｹﾝ","cityKana":"ﾅｶﾞｵｶｼ","streetKana":"ｵｸﾞﾆﾏﾁｺｸﾞﾘﾔﾏ","prefecture":"新潟県","city":"長岡市","street":"小国町小栗山"},{"zipCode":"9495344","prefectureKana":"ﾆｲｶﾞﾀｹﾝ","cityKana":"ﾅｶﾞｵｶｼ","streetKana":"ｵｸﾞﾆﾏﾁｺｹﾉｼﾏ","prefecture":"新潟県","city":"長岡市","street":"小国町苔野島"},{"zipCode":"9495336","prefectureKana":"ﾆｲｶﾞﾀｹﾝ","cityKana":"ﾅｶﾞｵｶｼ","streetKana":"ｵｸﾞﾆﾏﾁｽﾜｲ","prefecture":"新潟県","city":"長岡市","street":"小国町諏訪井"},{"zipCode":"9495221","prefectureKana":"ﾆｲｶﾞﾀｹﾝ","cityKana":"ﾅｶﾞｵｶｼ","streetKana":"ｵｸﾞﾆﾏﾁﾀｹｲｼ","prefecture":"新潟県","city":"長岡市","street":"小国町武石"},{"zipCode":"9495335","prefectureKana":"ﾆｲｶﾞﾀｹﾝ","cityKana":"ﾅｶﾞｵｶｼ","streetKana":"ｵｸﾞﾆﾏﾁﾀﾛｳﾏﾙ","prefecture":"新潟県","city":"長岡市","street":"小国町太郎丸"},{"zipCode":"9495201","prefectureKana":"ﾆｲｶﾞﾀｹﾝ","cityKana":"ﾅｶﾞｵｶｼ","streetKana":"ｵｸﾞﾆﾏﾁﾁﾔｻﾞﾜ","prefecture":"新潟県","city":"長岡市","street":"小国町千谷沢"},{"zipCode":"9495211","prefectureKana":"ﾆｲｶﾞﾀｹﾝ","cityKana":"ﾅｶﾞｵｶｼ","streetKana":"ｵｸﾞﾆﾏﾁﾅﾉｶﾏﾁ","prefecture":"新潟県","city":"長岡市","street":"小国町七日町"},{"zipCode":"9495331","prefectureKana":"ﾆｲｶﾞﾀｹﾝ","cityKana":"ﾅｶﾞｵｶｼ","streetKana":"ｵｸﾞﾆﾏﾁﾅﾗｻﾜ","prefecture":"新潟県","city":"長岡市","street":"小国町楢沢"},{"zipCode":"9495217","prefectureKana":"ﾆｲｶﾞﾀｹﾝ","cityKana":"ﾅｶﾞｵｶｼ","streetKana":"ｵｸﾞﾆﾏﾁﾆﾎﾝﾔﾅｷﾞ","prefecture":"新潟県","city":"長岡市","street":"小国町二本柳"},{"zipCode":"9495223","prefectureKana":"ﾆｲｶﾞﾀｹﾝ","cityKana":"ﾅｶﾞｵｶｼ","streetKana":"ｵｸﾞﾆﾏﾁﾊﾁｵｳｼﾞ","prefecture":"新潟県","city":"長岡市","street":"小国町八王子"},{"zipCode":"9495343","prefectureKana":"ﾆｲｶﾞﾀｹﾝ","cityKana":"ﾅｶﾞｵｶｼ","streetKana":"ｵｸﾞﾆﾏﾁﾊﾗ","prefecture":"新潟県","city":"長岡市","street":"小国町原"},{"zipCode":"9495213","prefectureKana":"ﾆｲｶﾞﾀｹﾝ","cityKana":"ﾅｶﾞｵｶｼ","streetKana":"ｵｸﾞﾆﾏﾁﾎｳｻﾞｶ","prefecture":"新潟県","city":"長岡市","street":"小国町法坂"},{"zipCode":"9495334","prefectureKana":"ﾆｲｶﾞﾀｹﾝ","cityKana":"ﾅｶﾞｵｶｼ","streetKana":"ｵｸﾞﾆﾏﾁﾎｳｽｴ","prefecture":"新潟県","city":"長岡市","street":"小国町法末"},{"zipCode":"9495345","prefectureKana":"ﾆｲｶﾞﾀｹﾝ","cityKana":"ﾅｶﾞｵｶｼ","streetKana":"ｵｸﾞﾆﾏﾁﾐｵｹ","prefecture":"新潟県","city":"長岡市","street":"小国町三桶"},{"zipCode":"9495342","prefectureKana":"ﾆｲｶﾞﾀｹﾝ","cityKana":"ﾅｶﾞｵｶｼ","streetKana":"ｵｸﾞﾆﾏﾁﾓﾘﾐﾂ","prefecture":"新潟県","city":"長岡市","street":"小国町森光"},{"zipCode":"9495347","prefectureKana":"ﾆｲｶﾞﾀｹﾝ","cityKana":"ﾅｶﾞｵｶｼ","streetKana":"ｵｸﾞﾆﾏﾁﾔﾏﾉﾀ","prefecture":"新潟県","city":"長岡市","street":"小国町山野田"},{"zipCode":"9495222","prefectureKana":"ﾆｲｶﾞﾀｹﾝ","cityKana":"ﾅｶﾞｵｶｼ","streetKana":"ｵｸﾞﾆﾏﾁﾖｺｻﾜ","prefecture":"新潟県","city":"長岡市","street":"小国町横沢"},{"zipCode":"9494511","prefectureKana":"ﾆｲｶﾞﾀｹﾝ","cityKana":"ﾅｶﾞｵｶｼ","streetKana":"ｵｼﾞﾏﾔ","prefecture":"新潟県","city":"長岡市","street":"小島谷"},{"zipCode":"9495404","prefectureKana":"ﾆｲｶﾞﾀｹﾝ","cityKana":"ﾅｶﾞｵｶｼ","streetKana":"ｶﾏｶﾞｼﾏ(ｿﾉﾀ)","prefecture":"新潟県","city":"長岡市","street":"釜ケ島（その他）"},{"zipCode":"9494501","prefectureKana":"ﾆｲｶﾞﾀｹﾝ","cityKana":"ﾅｶﾞｵｶｼ","streetKana":"ｶﾐｷﾞﾘ","prefecture":"新潟県","city":"長岡市","street":"上桐"},{"zipCode":"9495407","prefectureKana":"ﾆｲｶﾞﾀｹﾝ","cityKana":"ﾅｶﾞｵｶｼ","streetKana":"ｶﾐﾔ","prefecture":"新潟県","city":"長岡市","street":"神谷"},{"zipCode":"9497507","prefectureKana":"ﾆｲｶﾞﾀｹﾝ","cityKana":"ﾅｶﾞｵｶｼ","streetKana":"ｶﾜｸﾞﾁｱｲｶﾜ","prefecture":"新潟県","city":"長岡市","street":"川口相川"},{"zipCode":"9497508","prefectureKana":"ﾆｲｶﾞﾀｹﾝ","cityKana":"ﾅｶﾞｵｶｼ","streetKana":"ｶﾜｸﾞﾁｱﾗﾔ","prefecture":"新潟県","city":"長岡市","street":"川口荒谷"},{"zipCode":"9498731","prefectureKana":"ﾆｲｶﾞﾀｹﾝ","cityKana":"ﾅｶﾞｵｶｼ","streetKana":"ｶﾜｸﾞﾁｳｼｶﾞｼﾏ(ﾜｼｽﾞ)","prefecture":"新潟県","city":"長岡市","street":"川口牛ケ島（鷲巣）"},{"zipCode":"9497505","prefectureKana":"ﾆｲｶﾞﾀｹﾝ","cityKana":"ﾅｶﾞｵｶｼ","streetKana":"ｶﾜｸﾞﾁｳｼｶﾞｼﾏ(ｿﾉﾀ)","prefecture":"新潟県","city":"長岡市","street":"川口牛ケ島（その他）"},{"zipCode":"9497502","prefectureKana":"ﾆｲｶﾞﾀｹﾝ","cityKana":"ﾅｶﾞｵｶｼ","streetKana":"ｶﾜｸﾞﾁｷｻﾞﾜ","prefecture":"新潟県","city":"長岡市","street":"川口木沢"},{"zipCode":"9497512","prefectureKana":"ﾆｲｶﾞﾀｹﾝ","cityKana":"ﾅｶﾞｵｶｼ","streetKana":"ｶﾜｸﾞﾁﾀﾑｷﾞﾔﾏ","prefecture":"新潟県","city":"長岡市","street":"川口田麦山"},{"zipCode":"9497501","prefectureKana":"ﾆｲｶﾞﾀｹﾝ","cityKana":"ﾅｶﾞｵｶｼ","streetKana":"ｶﾜｸﾞﾁﾄｳｹﾞ","prefecture":"新潟県","city":"長岡市","street":"川口峠"},{"zipCode":"9497503","prefectureKana":"ﾆｲｶﾞﾀｹﾝ","cityKana":"ﾅｶﾞｵｶｼ","streetKana":"ｶﾜｸﾞﾁﾅｶﾔﾏ","prefecture":"新潟県","city":"長岡市","street":"川口中山"},{"zipCode":"9497506","prefectureKana":"ﾆｲｶﾞﾀｹﾝ","cityKana":"ﾅｶﾞｵｶｼ","streetKana":"ｶﾜｸﾞﾁﾌﾞﾄﾞｳｸﾎﾞ","prefecture":"新潟県","city":"長岡市","street":"川口武道窪"},{"zipCode":"9497511","prefectureKana":"ﾆｲｶﾞﾀｹﾝ","cityKana":"ﾅｶﾞｵｶｼ","streetKana":"ｶﾜｸﾞﾁﾜﾅﾂﾞ","prefecture":"新潟県","city":"長岡市","street":"川口和南津"},{"zipCode":"9494502","prefectureKana":"ﾆｲｶﾞﾀｹﾝ","cityKana":"ﾅｶﾞｵｶｼ","streetKana":"ｸﾛｻｶ","prefecture":"新潟県","city":"長岡市","street":"黒坂"},{"zipCode":"9495408","prefectureKana":"ﾆｲｶﾞﾀｹﾝ","cityKana":"ﾅｶﾞｵｶｼ","streetKana":"ｺｼｼﾞﾅｶｻﾞﾜ","prefecture":"新潟県","city":"長岡市","street":"越路中沢"},{"zipCode":"9495403","prefectureKana":"ﾆｲｶﾞﾀｹﾝ","cityKana":"ﾅｶﾞｵｶｼ","streetKana":"ｺｼｼﾞﾅｶｼﾞﾏ","prefecture":"新潟県","city":"長岡市","street":"越路中島"},{"zipCode":"9495402","prefectureKana":"ﾆｲｶﾞﾀｹﾝ","cityKana":"ﾅｶﾞｵｶｼ","streetKana":"ｻｻﾊﾞﾅ","prefecture":"新潟県","city":"長岡市","street":"篠花"},{"zipCode":"9495413","prefectureKana":"ﾆｲｶﾞﾀｹﾝ","cityKana":"ﾅｶﾞｵｶｼ","streetKana":"ｻﾜｹﾞｼﾞｮｳ","prefecture":"新潟県","city":"長岡市","street":"沢下条"},{"zipCode":"9494504","prefectureKana":"ﾆｲｶﾞﾀｹﾝ","cityKana":"ﾅｶﾞｵｶｼ","streetKana":"ｻﾝｾﾞｶﾞﾔ","prefecture":"新潟県","city":"長岡市","street":"三瀬ケ谷"},{"zipCode":"9494525","prefectureKana":"ﾆｲｶﾞﾀｹﾝ","cityKana":"ﾅｶﾞｵｶｼ","streetKana":"ｼﾏｻﾞｷ","prefecture":"新潟県","city":"長岡市","street":"島崎"},{"zipCode":"9494507","prefectureKana":"ﾆｲｶﾞﾀｹﾝ","cityKana":"ﾅｶﾞｵｶｼ","streetKana":"ｼﾓﾄﾐｵｶ","prefecture":"新潟県","city":"長岡市","street":"下富岡"},{"zipCode":"9494523","prefectureKana":"ﾆｲｶﾞﾀｹﾝ","cityKana":"ﾅｶﾞｵｶｼ","streetKana":"ｼﾞｮｳﾉｵｶ","prefecture":"新潟県","city":"長岡市","street":"城之丘"},{"zipCode":"9495124","prefectureKana":"ﾆｲｶﾞﾀｹﾝ","cityKana":"ﾅｶﾞｵｶｼ","streetKana":"ﾁﾔｻﾞﾜ","prefecture":"新潟県","city":"長岡市","street":"千谷沢"},{"zipCode":"9495123","prefectureKana":"ﾆｲｶﾞﾀｹﾝ","cityKana":"ﾅｶﾞｵｶｼ","streetKana":"ﾂｶﾉﾔﾏ","prefecture":"新潟県","city":"長岡市","street":"塚野山"},{"zipCode":"9497513","prefectureKana":"ﾆｲｶﾞﾀｹﾝ","cityKana":"ﾅｶﾞｵｶｼ","streetKana":"ﾆｼｶﾜｸﾞﾁ","prefecture":"新潟県","city":"長岡市","street":"西川口"},{"zipCode":"9495121","prefectureKana":"ﾆｲｶﾞﾀｹﾝ","cityKana":"ﾅｶﾞｵｶｼ","streetKana":"ﾆｼﾀﾞﾆ","prefecture":"新潟県","city":"長岡市","street":"西谷"},{"zipCode":"9495409","prefectureKana":"ﾆｲｶﾞﾀｹﾝ","cityKana":"ﾅｶﾞｵｶｼ","streetKana":"ﾆｼﾉ","prefecture":"新潟県","city":"長岡市","street":"西野"},{"zipCode":"9494505","prefectureKana":"ﾆｲｶﾞﾀｹﾝ","cityKana":"ﾅｶﾞｵｶｼ","streetKana":"ﾈｺﾞﾔ","prefecture":"新潟県","city":"長岡市","street":"根小屋"},{"zipCode":"9497504","prefectureKana":"ﾆｲｶﾞﾀｹﾝ","cityKana":"ﾅｶﾞｵｶｼ","streetKana":"ﾋｶﾞｼｶﾜｸﾞﾁ","prefecture":"新潟県","city":"長岡市","street":"東川口"},{"zipCode":"9495122","prefectureKana":"ﾆｲｶﾞﾀｹﾝ","cityKana":"ﾅｶﾞｵｶｼ","streetKana":"ﾋｶﾞｼﾀﾞﾆ","prefecture":"新潟県","city":"長岡市","street":"東谷"},{"zipCode":"9494521","prefectureKana":"ﾆｲｶﾞﾀｹﾝ","cityKana":"ﾅｶﾞｵｶｼ","streetKana":"ﾋｶﾞｼﾎﾅｲ","prefecture":"新潟県","city":"長岡市","street":"東保内"},{"zipCode":"9494514","prefectureKana":"ﾆｲｶﾞﾀｹﾝ","cityKana":"ﾅｶﾞｵｶｼ","streetKana":"ﾋﾉｳﾗ","prefecture":"新潟県","city":"長岡市","street":"日野浦"},{"zipCode":"9495416","prefectureKana":"ﾆｲｶﾞﾀｹﾝ","cityKana":"ﾅｶﾞｵｶｼ","streetKana":"ﾌﾄﾞｳｻﾜ","prefecture":"新潟県","city":"長岡市","street":"不動沢"},{"zipCode":"9494522","prefectureKana":"ﾆｲｶﾞﾀｹﾝ","cityKana":"ﾅｶﾞｵｶｼ","streetKana":"ﾑﾗﾀ","prefecture":"新潟県","city":"長岡市","street":"村田"},{"zipCode":"9495411","prefectureKana":"ﾆｲｶﾞﾀｹﾝ","cityKana":"ﾅｶﾞｵｶｼ","streetKana":"ﾗｲｺｳｼﾞ","prefecture":"新潟県","city":"長岡市","street":"来迎寺"},{"zipCode":"9494524","prefectureKana":"ﾆｲｶﾞﾀｹﾝ","cityKana":"ﾅｶﾞｵｶｼ","streetKana":"ﾘｮｳﾀｶ","prefecture":"新潟県","city":"長岡市","street":"両高"},{"zipCode":"9494512","prefectureKana":"ﾆｲｶﾞﾀｹﾝ","cityKana":"ﾅｶﾞｵｶｼ","streetKana":"ﾜｶﾉｳﾗ","prefecture":"新潟県","city":"長岡市","street":"若野浦"},{"zipCode":"9494503","prefectureKana":"ﾆｲｶﾞﾀｹﾝ","cityKana":"ﾅｶﾞｵｶｼ","streetKana":"ﾜｼﾏｷﾀﾉ","prefecture":"新潟県","city":"長岡市","street":"和島北野"},{"zipCode":"9494515","prefectureKana":"ﾆｲｶﾞﾀｹﾝ","cityKana":"ﾅｶﾞｵｶｼ","streetKana":"ﾜｼﾏﾀｶﾊﾞﾀｹ","prefecture":"新潟県","city":"長岡市","street":"和島高畑"},{"zipCode":"9494516","prefectureKana":"ﾆｲｶﾞﾀｹﾝ","cityKana":"ﾅｶﾞｵｶｼ","streetKana":"ﾜｼﾏﾅｶｻﾜ","prefecture":"新潟県","city":"長岡市","street":"和島中沢"},{"zipCode":"9493664","prefectureKana":"ﾆｲｶﾞﾀｹﾝ","cityKana":"ｶｼﾜｻﾞｷｼ","streetKana":"ｱｹﾞﾜ","prefecture":"新潟県","city":"柏崎市","street":"上輪"},{"zipCode":"9493663","prefectureKana":"ﾆｲｶﾞﾀｹﾝ","cityKana":"ｶｼﾜｻﾞｷｼ","streetKana":"ｱｹﾞﾜｼﾝﾃﾞﾝ","prefecture":"新潟県","city":"柏崎市","street":"上輪新田"},{"zipCode":"9493661","prefectureKana":"ﾆｲｶﾞﾀｹﾝ","cityKana":"ｶｼﾜｻﾞｷｼ","streetKana":"ｵｳﾐｶﾞﾜ","prefecture":"新潟県","city":"柏崎市","street":"青海川"},{"zipCode":"9493674","prefectureKana":"ﾆｲｶﾞﾀｹﾝ","cityKana":"ｶｼﾜｻﾞｷｼ","streetKana":"ｵｵｼﾐｽﾞ","prefecture":"新潟県","city":"柏崎市","street":"大清水"},{"zipCode":"9493672","prefectureKana":"ﾆｲｶﾞﾀｹﾝ","cityKana":"ｶｼﾜｻﾞｷｼ","streetKana":"ｵｵﾀﾞｲﾗ","prefecture":"新潟県","city":"柏崎市","street":"大平"},{"zipCode":"9493724","prefectureKana":"ﾆｲｶﾞﾀｹﾝ","cityKana":"ｶｼﾜｻﾞｷｼ","streetKana":"ｵｵﾋﾛﾀ","prefecture":"新潟県","city":"柏崎市","street":"大広田"},{"zipCode":"9493662","prefectureKana":"ﾆｲｶﾞﾀｹﾝ","cityKana":"ｶｼﾜｻﾞｷｼ","streetKana":"ｶｻｼﾏ","prefecture":"新潟県","city":"柏崎市","street":"笠島"},{"zipCode":"9493732","prefectureKana":"ﾆｲｶﾞﾀｹﾝ","cityKana":"ｶｼﾜｻﾞｷｼ","streetKana":"ｷﾀｼﾞｮｳ","prefecture":"新潟県","city":"柏崎市","street":"北条"},{"zipCode":"9493725","prefectureKana":"ﾆｲｶﾞﾀｹﾝ","cityKana":"ｶｼﾜｻﾞｷｼ","streetKana":"ｷｭｳﾋﾛﾀ","prefecture":"新潟県","city":"柏崎市","street":"旧広田"},{"zipCode":"9493735","prefectureKana":"ﾆｲｶﾞﾀｹﾝ","cityKana":"ｶｼﾜｻﾞｷｼ","streetKana":"ｺｼﾞﾏ","prefecture":"新潟県","city":"柏崎市","street":"小島"},{"zipCode":"9493673","prefectureKana":"ﾆｲｶﾞﾀｹﾝ","cityKana":"ｶｼﾜｻﾞｷｼ","streetKana":"ﾀｶｾﾞ","prefecture":"新潟県","city":"柏崎市","street":"高畔"},{"zipCode":"9493731","prefectureKana":"ﾆｲｶﾞﾀｹﾝ","cityKana":"ｶｼﾜｻﾞｷｼ","streetKana":"ﾄｳｼﾞｮｳ","prefecture":"新潟県","city":"柏崎市","street":"東条"},{"zipCode":"9493723","prefectureKana":"ﾆｲｶﾞﾀｹﾝ","cityKana":"ｶｼﾜｻﾞｷｼ","streetKana":"ﾆｼﾅｶﾞﾄﾘ","prefecture":"新潟県","city":"柏崎市","street":"西長鳥"},{"zipCode":"9494123","prefectureKana":"ﾆｲｶﾞﾀｹﾝ","cityKana":"ｶｼﾜｻﾞｷｼ","streetKana":"ﾆｼﾔﾏﾁｮｳｲｹｳﾗ","prefecture":"新潟県","city":"柏崎市","street":"西山町池浦"},{"zipCode":"9494201","prefectureKana":"ﾆｲｶﾞﾀｹﾝ","cityKana":"ｶｼﾜｻﾞｷｼ","streetKana":"ﾆｼﾔﾏﾁｮｳｲｼｼﾞ","prefecture":"新潟県","city":"柏崎市","street":"西山町石地"},{"zipCode":"9494149","prefectureKana":"ﾆｲｶﾞﾀｹﾝ","cityKana":"ｶｼﾜｻﾞｷｼ","streetKana":"ﾆｼﾔﾏﾁｮｳｲﾂｶｲﾁ","prefecture":"新潟県","city":"柏崎市","street":"西山町五日市"},{"zipCode":"9494128","prefectureKana":"ﾆｲｶﾞﾀｹﾝ","cityKana":"ｶｼﾜｻﾞｷｼ","streetKana":"ﾆｼﾔﾏﾁｮｳｲﾓ","prefecture":"新潟県","city":"柏崎市","street":"西山町伊毛"},{"zipCode":"9494131","prefectureKana":"ﾆｲｶﾞﾀｹﾝ","cityKana":"ｶｼﾜｻﾞｷｼ","streetKana":"ﾆｼﾔﾏﾁｮｳｳｼﾛﾀﾞﾆ","prefecture":"新潟県","city":"柏崎市","street":"西山町後谷"},{"zipCode":"9494148","prefectureKana":"ﾆｲｶﾞﾀｹﾝ","cityKana":"ｶｼﾜｻﾞｷｼ","streetKana":"ﾆｼﾔﾏﾁｮｳｳﾁｶﾀ","prefecture":"新潟県","city":"柏崎市","street":"西山町内方"},{"zipCode":"9494204","prefectureKana":"ﾆｲｶﾞﾀｹﾝ","cityKana":"ｶｼﾜｻﾞｷｼ","streetKana":"ﾆｼﾔﾏﾁｮｳｵｵｻｷ","prefecture":"新潟県","city":"柏崎市","street":"西山町大崎"},{"zipCode":"9494203","prefectureKana":"ﾆｲｶﾞﾀｹﾝ","cityKana":"ｶｼﾜｻﾞｷｼ","streetKana":"ﾆｼﾔﾏﾁｮｳｵｵﾂﾞ","prefecture":"新潟県","city":"柏崎市","street":"西山町大津"},{"zipCode":"9494147","prefectureKana":"ﾆｲｶﾞﾀｹﾝ","cityKana":"ｶｼﾜｻﾞｷｼ","streetKana":"ﾆｼﾔﾏﾁｮｳｵｵﾂﾎﾞ","prefecture":"新潟県","city":"柏崎市","street":"西山町大坪"},{"zipCode":"9494133","prefectureKana":"ﾆｲｶﾞﾀｹﾝ","cityKana":"ｶｼﾜｻﾞｷｼ","streetKana":"ﾆｼﾔﾏﾁｮｳｵﾆｵ","prefecture":"新潟県","city":"柏崎市","street":"西山町鬼王"},{"zipCode":"9494112","prefectureKana":"ﾆｲｶﾞﾀｹﾝ","cityKana":"ｶｼﾜｻﾞｷｼ","streetKana":"ﾆｼﾔﾏﾁｮｳｵﾉｳﾁ","prefecture":"新潟県","city":"柏崎市","street":"西山町尾野内"},{"zipCode":"9494202","prefectureKana":"ﾆｲｶﾞﾀｹﾝ","cityKana":"ｶｼﾜｻﾞｷｼ","streetKana":"ﾆｼﾔﾏﾁｮｳｵﾏﾁ","prefecture":"新潟県","city":"柏崎市","street":"西山町尾町"},{"zipCode":"9494127","prefectureKana":"ﾆｲｶﾞﾀｹﾝ","cityKana":"ｶｼﾜｻﾞｷｼ","streetKana":"ﾆｼﾔﾏﾁｮｳｶﾏﾀ","prefecture":"新潟県","city":"柏崎市","street":"西山町鎌田"},{"zipCode":"9494113","prefectureKana":"ﾆｲｶﾞﾀｹﾝ","cityKana":"ｶｼﾜｻﾞｷｼ","streetKana":"ﾆｼﾔﾏﾁｮｳｶﾐﾔﾏﾀﾞ","prefecture":"新潟県","city":"柏崎市","street":"西山町上山田"},{"zipCode":"9494145","prefectureKana":"ﾆｲｶﾞﾀｹﾝ","cityKana":"ｶｼﾜｻﾞｷｼ","streetKana":"ﾆｼﾔﾏﾁｮｳｷﾀﾉ","prefecture":"新潟県","city":"柏崎市","street":"西山町北野"},{"zipCode":"9494142","prefectureKana":"ﾆｲｶﾞﾀｹﾝ","cityKana":"ｶｼﾜｻﾞｷｼ","streetKana":"ﾆｼﾔﾏﾁｮｳｸﾛﾍﾞ","prefecture":"新潟県","city":"柏崎市","street":"西山町黒部"},{"zipCode":"9494206","prefectureKana":"ﾆｲｶﾞﾀｹﾝ","cityKana":"ｶｼﾜｻﾞｷｼ","streetKana":"ﾆｼﾔﾏﾁｮｳｺｳﾀﾞ","prefecture":"新潟県","city":"柏崎市","street":"西山町甲田"},{"zipCode":"9494135","prefectureKana":"ﾆｲｶﾞﾀｹﾝ","cityKana":"ｶｼﾜｻﾞｷｼ","streetKana":"ﾆｼﾔﾏﾁｮｳｻｶﾀ","prefecture":"新潟県","city":"柏崎市","street":"西山町坂田"},{"zipCode":"9494126","prefectureKana":"ﾆｲｶﾞﾀｹﾝ","cityKana":"ｶｼﾜｻﾞｷｼ","streetKana":"ﾆｼﾔﾏﾁｮｳｼﾓﾔﾏﾀﾞ","prefecture":"新潟県","city":"柏崎市","street":"西山町下山田"},{"zipCode":"9494144","prefectureKana":"ﾆｲｶﾞﾀｹﾝ","cityKana":"ｶｼﾜｻﾞｷｼ","streetKana":"ﾆｼﾔﾏﾁｮｳｼﾝﾎﾞ","prefecture":"新潟県","city":"柏崎市","street":"西山町新保"},{"zipCode":"9494121","prefectureKana":"ﾆｲｶﾞﾀｹﾝ","cityKana":"ｶｼﾜｻﾞｷｼ","streetKana":"ﾆｼﾔﾏﾁｮｳﾀｻﾞﾜ","prefecture":"新潟県","city":"柏崎市","street":"西山町田沢"},{"zipCode":"9494125","prefectureKana":"ﾆｲｶﾞﾀｹﾝ","cityKana":"ｶｼﾜｻﾞｷｼ","streetKana":"ﾆｼﾔﾏﾁｮｳﾁｭｳｵｳﾀﾞｲ","prefecture":"新潟県","city":"柏崎市","street":"西山町中央台"},{"zipCode":"9494132","prefectureKana":"ﾆｲｶﾞﾀｹﾝ","cityKana":"ｶｼﾜｻﾞｷｼ","streetKana":"ﾆｼﾔﾏﾁｮｳﾅｶﾞﾐﾈ","prefecture":"新潟県","city":"柏崎市","street":"西山町長嶺"},{"zipCode":"9494141","prefectureKana":"ﾆｲｶﾞﾀｹﾝ","cityKana":"ｶｼﾜｻﾞｷｼ","streetKana":"ﾆｼﾔﾏﾁｮｳﾆｼﾔﾏ","prefecture":"新潟県","city":"柏崎市","street":"西山町西山"},{"zipCode":"9494114","prefectureKana":"ﾆｲｶﾞﾀｹﾝ","cityKana":"ｶｼﾜｻﾞｷｼ","streetKana":"ﾆｼﾔﾏﾁｮｳﾊｲﾂﾞﾒ","prefecture":"新潟県","city":"柏崎市","street":"西山町灰爪"},{"zipCode":"9494205","prefectureKana":"ﾆｲｶﾞﾀｹﾝ","cityKana":"ｶｼﾜｻﾞｷｼ","streetKana":"ﾆｼﾔﾏﾁｮｳﾊﾏﾂﾀﾞ","prefecture":"新潟県","city":"柏崎市","street":"西山町浜忠"},{"zipCode":"9494122","prefectureKana":"ﾆｲｶﾞﾀｹﾝ","cityKana":"ｶｼﾜｻﾞｷｼ","streetKana":"ﾆｼﾔﾏﾁｮｳﾌｼﾞｶｹ","prefecture":"新潟県","city":"柏崎市","street":"西山町藤掛"},{"zipCode":"9494134","prefectureKana":"ﾆｲｶﾞﾀｹﾝ","cityKana":"ｶｼﾜｻﾞｷｼ","streetKana":"ﾆｼﾔﾏﾁｮｳﾌﾀﾀﾞ","prefecture":"新潟県","city":"柏崎市","street":"西山町二田"},{"zipCode":"9494111","prefectureKana":"ﾆｲｶﾞﾀｹﾝ","cityKana":"ｶｼﾜｻﾞｷｼ","streetKana":"ﾆｼﾔﾏﾁｮｳﾍﾞﾂﾔﾏ","prefecture":"新潟県","city":"柏崎市","street":"西山町別山"},{"zipCode":"9494136","prefectureKana":"ﾆｲｶﾞﾀｹﾝ","cityKana":"ｶｼﾜｻﾞｷｼ","streetKana":"ﾆｼﾔﾏﾁｮｳﾐﾄﾞﾘｶﾞｵｶ","prefecture":"新潟県","city":"柏崎市","street":"西山町緑が丘"},{"zipCode":"9494146","prefectureKana":"ﾆｲｶﾞﾀｹﾝ","cityKana":"ｶｼﾜｻﾞｷｼ","streetKana":"ﾆｼﾔﾏﾁｮｳﾐｮｳﾎｳｼﾞ","prefecture":"新潟県","city":"柏崎市","street":"西山町妙法寺"},{"zipCode":"9494124","prefectureKana":"ﾆｲｶﾞﾀｹﾝ","cityKana":"ｶｼﾜｻﾞｷｼ","streetKana":"ﾆｼﾔﾏﾁｮｳﾗｲﾊｲ","prefecture":"新潟県","city":"柏崎市","street":"西山町礼拝"},{"zipCode":"9494143","prefectureKana":"ﾆｲｶﾞﾀｹﾝ","cityKana":"ｶｼﾜｻﾞｷｼ","streetKana":"ﾆｼﾔﾏﾁｮｳﾜﾀﾞ","prefecture":"新潟県","city":"柏崎市","street":"西山町和田"},{"zipCode":"9493722","prefectureKana":"ﾆｲｶﾞﾀｹﾝ","cityKana":"ｶｼﾜｻﾞｷｼ","streetKana":"ﾋｶﾞｼﾅｶﾞﾄﾘ","prefecture":"新潟県","city":"柏崎市","street":"東長鳥"},{"zipCode":"9493733","prefectureKana":"ﾆｲｶﾞﾀｹﾝ","cityKana":"ｶｼﾜｻﾞｷｼ","streetKana":"ﾎﾝｼﾞｮｳ","prefecture":"新潟県","city":"柏崎市","street":"本条"},{"zipCode":"9493734","prefectureKana":"ﾆｲｶﾞﾀｹﾝ","cityKana":"ｶｼﾜｻﾞｷｼ","streetKana":"ﾐﾅﾐｼﾞｮｳ","prefecture":"新潟県","city":"柏崎市","street":"南条"},{"zipCode":"9493726","prefectureKana":"ﾆｲｶﾞﾀｹﾝ","cityKana":"ｶｼﾜｻﾞｷｼ","streetKana":"ﾔﾏﾀﾞﾆ","prefecture":"新潟県","city":"柏崎市","street":"山澗"},{"zipCode":"9493721","prefectureKana":"ﾆｲｶﾞﾀｹﾝ","cityKana":"ｶｼﾜｻﾞｷｼ","streetKana":"ﾖｼｲｸﾛｶﾜ","prefecture":"新潟県","city":"柏崎市","street":"吉井黒川"},{"zipCode":"9493675","prefectureKana":"ﾆｲｶﾞﾀｹﾝ","cityKana":"ｶｼﾜｻﾞｷｼ","streetKana":"ﾖﾈﾔﾏﾁｮｳ","prefecture":"新潟県","city":"柏崎市","street":"米山町"},{"zipCode":"9493671","prefectureKana":"ﾆｲｶﾞﾀｹﾝ","cityKana":"ｶｼﾜｻﾞｷｼ","streetKana":"ﾜﾗﾋﾞﾉ","prefecture":"新潟県","city":"柏崎市","street":"蕨野"},{"zipCode":"9498728","prefectureKana":"ﾆｲｶﾞﾀｹﾝ","cityKana":"ｵﾁﾞﾔｼ","streetKana":"ｲｹｶﾞﾊﾗ","prefecture":"新潟県","city":"小千谷市","street":"池ケ原"},{"zipCode":"9498727","prefectureKana":"ﾆｲｶﾞﾀｹﾝ","cityKana":"ｵﾁﾞﾔｼ","streetKana":"ｲｹﾅｶｼﾝﾃﾞﾝ","prefecture":"新潟県","city":"小千谷市","street":"池中新田"},{"zipCode":"9498724","prefectureKana":"ﾆｲｶﾞﾀｹﾝ","cityKana":"ｵﾁﾞﾔｼ","streetKana":"ｲﾜｻﾜ","prefecture":"新潟県","city":"小千谷市","street":"岩沢"},{"zipCode":"9498722","prefectureKana":"ﾆｲｶﾞﾀｹﾝ","cityKana":"ｵﾁﾞﾔｼ","streetKana":"ｶﾜｲ","prefecture":"新潟県","city":"小千谷市","street":"川井"},{"zipCode":"9498723","prefectureKana":"ﾆｲｶﾞﾀｹﾝ","cityKana":"ｵﾁﾞﾔｼ","streetKana":"ｶﾜｲｼﾝﾃﾞﾝ","prefecture":"新潟県","city":"小千谷市","street":"川井新田"},{"zipCode":"9498721","prefectureKana":"ﾆｲｶﾞﾀｹﾝ","cityKana":"ｵﾁﾞﾔｼ","streetKana":"ｼｵﾄﾞﾉ","prefecture":"新潟県","city":"小千谷市","street":"塩殿"},{"zipCode":"9498725","prefectureKana":"ﾆｲｶﾞﾀｹﾝ","cityKana":"ｵﾁﾞﾔｼ","streetKana":"ﾎｳｷｭｳｼﾝﾃﾞﾝ","prefecture":"新潟県","city":"小千谷市","street":"豊久新田"},{"zipCode":"9498726","prefectureKana":"ﾆｲｶﾞﾀｹﾝ","cityKana":"ｵﾁﾞﾔｼ","streetKana":"ﾏｯﾄﾁｮｳ","prefecture":"新潟県","city":"小千谷市","street":"真人町"},{"zipCode":"9498544","prefectureKana":"ﾆｲｶﾞﾀｹﾝ","cityKana":"ﾄｵｶﾏﾁｼ","streetKana":"ｱﾃﾏ","prefecture":"新潟県","city":"十日町市","street":"当間"},{"zipCode":"9498531","prefectureKana":"ﾆｲｶﾞﾀｹﾝ","cityKana":"ﾄｵｶﾏﾁｼ","streetKana":"ｱﾏｲｹ","prefecture":"新潟県","city":"十日町市","street":"天池"},{"zipCode":"9498445","prefectureKana":"ﾆｲｶﾞﾀｹﾝ","cityKana":"ﾄｵｶﾏﾁｼ","streetKana":"ｱﾗｻﾄ","prefecture":"新潟県","city":"十日町市","street":"新里"},{"zipCode":"9498414","prefectureKana":"ﾆｲｶﾞﾀｹﾝ","cityKana":"ﾄｵｶﾏﾁｼ","streetKana":"ｱﾗﾔ","prefecture":"新潟県","city":"十日町市","street":"荒屋"},{"zipCode":"9498502","prefectureKana":"ﾆｲｶﾞﾀｹﾝ","cityKana":"ﾄｵｶﾏﾁｼ","streetKana":"ｱﾗﾔｼｷ","prefecture":"新潟県","city":"十日町市","street":"新屋敷"},{"zipCode":"9498562","prefectureKana":"ﾆｲｶﾞﾀｹﾝ","cityKana":"ﾄｵｶﾏﾁｼ","streetKana":"ｱﾝﾖｳｼﾞ","prefecture":"新潟県","city":"十日町市","street":"安養寺"},{"zipCode":"9498541","prefectureKana":"ﾆｲｶﾞﾀｹﾝ","cityKana":"ﾄｵｶﾏﾁｼ","streetKana":"ｲｹｻﾞﾜ","prefecture":"新潟県","city":"十日町市","street":"池沢"},{"zipCode":"9498532","prefectureKana":"ﾆｲｶﾞﾀｹﾝ","cityKana":"ﾄｵｶﾏﾁｼ","streetKana":"ｲｹﾉｼﾘ","prefecture":"新潟県","city":"十日町市","street":"池之尻"},{"zipCode":"9498422","prefectureKana":"ﾆｲｶﾞﾀｹﾝ","cityKana":"ﾄｵｶﾏﾁｼ","streetKana":"ｲﾁﾉｺｼ","prefecture":"新潟県","city":"十日町市","street":"市之越"},{"zipCode":"9498441","prefectureKana":"ﾆｲｶﾞﾀｹﾝ","cityKana":"ﾄｵｶﾏﾁｼ","streetKana":"ｲﾓｶﾞﾜ","prefecture":"新潟県","city":"十日町市","street":"芋川"},{"zipCode":"9498421","prefectureKana":"ﾆｲｶﾞﾀｹﾝ","cityKana":"ﾄｵｶﾏﾁｼ","streetKana":"ｲﾓｶﾞﾜｼﾝﾃﾞﾝ","prefecture":"新潟県","city":"十日町市","street":"芋川新田"},{"zipCode":"9498405","prefectureKana":"ﾆｲｶﾞﾀｹﾝ","cityKana":"ﾄｵｶﾏﾁｼ","streetKana":"ｲﾓｻﾞﾜ","prefecture":"新潟県","city":"十日町市","street":"芋沢"},{"zipCode":"9498533","prefectureKana":"ﾆｲｶﾞﾀｹﾝ","cityKana":"ﾄｵｶﾏﾁｼ","streetKana":"ｳﾙｼｼﾞﾏ","prefecture":"新潟県","city":"十日町市","street":"漆島"},{"zipCode":"9498401","prefectureKana":"ﾆｲｶﾞﾀｹﾝ","cityKana":"ﾄｵｶﾏﾁｼ","streetKana":"ｳﾜﾔﾏ","prefecture":"新潟県","city":"十日町市","street":"上山"},{"zipCode":"9498555","prefectureKana":"ﾆｲｶﾞﾀｹﾝ","cityKana":"ﾄｵｶﾏﾁｼ","streetKana":"ｵｵｲｼ","prefecture":"新潟県","city":"十日町市","street":"大石"},{"zipCode":"9498521","prefectureKana":"ﾆｲｶﾞﾀｹﾝ","cityKana":"ﾄｵｶﾏﾁｼ","streetKana":"ｵｵｸﾞﾛｻﾜ","prefecture":"新潟県","city":"十日町市","street":"大黒沢"},{"zipCode":"9498524","prefectureKana":"ﾆｲｶﾞﾀｹﾝ","cityKana":"ﾄｵｶﾏﾁｼ","streetKana":"ｵｵﾀｼﾞﾏ","prefecture":"新潟県","city":"十日町市","street":"太田島"},{"zipCode":"9498435","prefectureKana":"ﾆｲｶﾞﾀｹﾝ","cityKana":"ﾄｵｶﾏﾁｼ","streetKana":"ｶｸﾏ","prefecture":"新潟県","city":"十日町市","street":"角間"},{"zipCode":"9498402","prefectureKana":"ﾆｲｶﾞﾀｹﾝ","cityKana":"ﾄｵｶﾏﾁｼ","streetKana":"ｶﾂﾗ","prefecture":"新潟県","city":"十日町市","street":"桂"},{"zipCode":"9498602","prefectureKana":"ﾆｲｶﾞﾀｹﾝ","cityKana":"ﾄｵｶﾏﾁｼ","streetKana":"ｶﾐｸﾞﾐ","prefecture":"新潟県","city":"十日町市","street":"上組"},{"zipCode":"9498419","prefectureKana":"ﾆｲｶﾞﾀｹﾝ","cityKana":"ﾄｵｶﾏﾁｼ","streetKana":"ｷｷｮｳﾊﾗ","prefecture":"新潟県","city":"十日町市","street":"桔梗原"},{"zipCode":"9498432","prefectureKana":"ﾆｲｶﾞﾀｹﾝ","cityKana":"ﾄｵｶﾏﾁｼ","streetKana":"ｸﾗｼﾀ","prefecture":"新潟県","city":"十日町市","street":"倉下"},{"zipCode":"9498412","prefectureKana":"ﾆｲｶﾞﾀｹﾝ","cityKana":"ﾄｵｶﾏﾁｼ","streetKana":"ｸﾗﾏﾀ","prefecture":"新潟県","city":"十日町市","street":"倉俣"},{"zipCode":"9498543","prefectureKana":"ﾆｲｶﾞﾀｹﾝ","cityKana":"ﾄｵｶﾏﾁｼ","streetKana":"ｸﾜｶﾞﾗｻﾞﾜ","prefecture":"新潟県","city":"十日町市","street":"鍬柄沢"},{"zipCode":"9498603","prefectureKana":"ﾆｲｶﾞﾀｹﾝ","cityKana":"ﾄｵｶﾏﾁｼ","streetKana":"ｹﾞｼﾞｮｳ","prefecture":"新潟県","city":"十日町市","street":"下条"},{"zipCode":"9498542","prefectureKana":"ﾆｲｶﾞﾀｹﾝ","cityKana":"ﾄｵｶﾏﾁｼ","streetKana":"ｹﾞﾝﾀ","prefecture":"新潟県","city":"十日町市","street":"源田"},{"zipCode":"9498433","prefectureKana":"ﾆｲｶﾞﾀｹﾝ","cityKana":"ﾄｵｶﾏﾁｼ","streetKana":"ｺｲﾃﾞ","prefecture":"新潟県","city":"十日町市","street":"小出"},{"zipCode":"9498416","prefectureKana":"ﾆｲｶﾞﾀｹﾝ","cityKana":"ﾄｵｶﾏﾁｼ","streetKana":"ｺｳﾐﾁﾔﾏ","prefecture":"新潟県","city":"十日町市","street":"高道山"},{"zipCode":"9498527","prefectureKana":"ﾆｲｶﾞﾀｹﾝ","cityKana":"ﾄｵｶﾏﾁｼ","streetKana":"ｺｸﾞﾛｻﾜ","prefecture":"新潟県","city":"十日町市","street":"小黒沢"},{"zipCode":"9498409","prefectureKana":"ﾆｲｶﾞﾀｹﾝ","cityKana":"ﾄｵｶﾏﾁｼ","streetKana":"ｺﾊﾗ","prefecture":"新潟県","city":"十日町市","street":"小原"},{"zipCode":"9498436","prefectureKana":"ﾆｲｶﾞﾀｹﾝ","cityKana":"ﾄｵｶﾏﾁｼ","streetKana":"ｻｲﾎｳ","prefecture":"新潟県","city":"十日町市","street":"西方"},{"zipCode":"9498525","prefectureKana":"ﾆｲｶﾞﾀｹﾝ","cityKana":"ﾄｵｶﾏﾁｼ","streetKana":"ｻｲﾜｲﾁｮｳ","prefecture":"新潟県","city":"十日町市","street":"幸町"},{"zipCode":"9498604","prefectureKana":"ﾆｲｶﾞﾀｹﾝ","cityKana":"ﾄｵｶﾏﾁｼ","streetKana":"ｼﾓｸﾞﾐ","prefecture":"新潟県","city":"十日町市","street":"下組"},{"zipCode":"9498442","prefectureKana":"ﾆｲｶﾞﾀｹﾝ","cityKana":"ﾄｵｶﾏﾁｼ","streetKana":"ｼﾞｭｳｼﾞ","prefecture":"新潟県","city":"十日町市","street":"重地"},{"zipCode":"9498427","prefectureKana":"ﾆｲｶﾞﾀｹﾝ","cityKana":"ﾄｵｶﾏﾁｼ","streetKana":"ｼﾗﾊｹ","prefecture":"新潟県","city":"十日町市","street":"白羽毛"},{"zipCode":"9498612","prefectureKana":"ﾆｲｶﾞﾀｹﾝ","cityKana":"ﾄｵｶﾏﾁｼ","streetKana":"ｼﾝｻﾞｵﾂ","prefecture":"新潟県","city":"十日町市","street":"新座乙"},{"zipCode":"9498526","prefectureKana":"ﾆｲｶﾞﾀｹﾝ","cityKana":"ﾄｵｶﾏﾁｼ","streetKana":"ｼﾝﾐﾔ","prefecture":"新潟県","city":"十日町市","street":"新宮"},{"zipCode":"9498561","prefectureKana":"ﾆｲｶﾞﾀｹﾝ","cityKana":"ﾄｵｶﾏﾁｼ","streetKana":"ｽｶﾞﾀ","prefecture":"新潟県","city":"十日町市","street":"姿"},{"zipCode":"9498444","prefectureKana":"ﾆｲｶﾞﾀｹﾝ","cityKana":"ﾄｵｶﾏﾁｼ","streetKana":"ｾｲﾀﾞﾔﾏ","prefecture":"新潟県","city":"十日町市","street":"清田山"},{"zipCode":"9498423","prefectureKana":"ﾆｲｶﾞﾀｹﾝ","cityKana":"ﾄｵｶﾏﾁｼ","streetKana":"ﾀｶﾊﾞ","prefecture":"新潟県","city":"十日町市","street":"鷹羽"},{"zipCode":"9498403","prefectureKana":"ﾆｲｶﾞﾀｹﾝ","cityKana":"ﾄｵｶﾏﾁｼ","streetKana":"ﾀｻﾞﾜﾎﾝｿﾝ","prefecture":"新潟県","city":"十日町市","street":"田沢本村"},{"zipCode":"9498413","prefectureKana":"ﾆｲｶﾞﾀｹﾝ","cityKana":"ﾄｵｶﾏﾁｼ","streetKana":"ﾀｼﾛ","prefecture":"新潟県","city":"十日町市","street":"田代"},{"zipCode":"9498522","prefectureKana":"ﾆｲｶﾞﾀｹﾝ","cityKana":"ﾄｵｶﾏﾁｼ","streetKana":"ﾀﾞﾃ","prefecture":"新潟県","city":"十日町市","street":"伊達"},{"zipCode":"9498407","prefectureKana":"ﾆｲｶﾞﾀｹﾝ","cityKana":"ﾄｵｶﾏﾁｼ","streetKana":"ﾀﾅｶ","prefecture":"新潟県","city":"十日町市","street":"田中"},{"zipCode":"9498556","prefectureKana":"ﾆｲｶﾞﾀｹﾝ","cityKana":"ﾄｵｶﾏﾁｼ","streetKana":"ﾀﾏｶﾞﾜ","prefecture":"新潟県","city":"十日町市","street":"珠川"},{"zipCode":"9498431","prefectureKana":"ﾆｲｶﾞﾀｹﾝ","cityKana":"ﾄｵｶﾏﾁｼ","streetKana":"ﾂﾁｸﾗ","prefecture":"新潟県","city":"十日町市","street":"土倉"},{"zipCode":"9498523","prefectureKana":"ﾆｲｶﾞﾀｹﾝ","cityKana":"ﾄｵｶﾏﾁｼ","streetKana":"ﾄﾞｲﾁ","prefecture":"新潟県","city":"十日町市","street":"土市"},{"zipCode":"9498415","prefectureKana":"ﾆｲｶﾞﾀｹﾝ","cityKana":"ﾄｵｶﾏﾁｼ","streetKana":"ﾄｵﾘﾔﾏ","prefecture":"新潟県","city":"十日町市","street":"通り山"},{"zipCode":"9498552","prefectureKana":"ﾆｲｶﾞﾀｹﾝ","cityKana":"ﾄｵｶﾏﾁｼ","streetKana":"ﾅｶｻﾞｲｹ","prefecture":"新潟県","city":"十日町市","street":"中在家"},{"zipCode":"9498443","prefectureKana":"ﾆｲｶﾞﾀｹﾝ","cityKana":"ﾄｵｶﾏﾁｼ","streetKana":"ﾅｶｻﾄｼﾓﾔﾏ","prefecture":"新潟県","city":"十日町市","street":"中里下山"},{"zipCode":"9498616","prefectureKana":"ﾆｲｶﾞﾀｹﾝ","cityKana":"ﾄｵｶﾏﾁｼ","streetKana":"ﾅｶｼﾞｮｳｵﾂ","prefecture":"新潟県","city":"十日町市","street":"中条乙"},{"zipCode":"9498613","prefectureKana":"ﾆｲｶﾞﾀｹﾝ","cityKana":"ﾄｵｶﾏﾁｼ","streetKana":"ﾅｶｼﾞｮｳｶﾉｴ","prefecture":"新潟県","city":"十日町市","street":"中条庚"},{"zipCode":"9498617","prefectureKana":"ﾆｲｶﾞﾀｹﾝ","cityKana":"ﾄｵｶﾏﾁｼ","streetKana":"ﾅｶｼﾞｮｳｷ","prefecture":"新潟県","city":"十日町市","street":"中条己"},{"zipCode":"9498615","prefectureKana":"ﾆｲｶﾞﾀｹﾝ","cityKana":"ﾄｵｶﾏﾁｼ","streetKana":"ﾅｶｼﾞｮｳｺｳ","prefecture":"新潟県","city":"十日町市","street":"中条甲"},{"zipCode":"9498611","prefectureKana":"ﾆｲｶﾞﾀｹﾝ","cityKana":"ﾄｵｶﾏﾁｼ","streetKana":"ﾅｶｼﾞｮｳﾃｲ","prefecture":"新潟県","city":"十日町市","street":"中条丁"},{"zipCode":"9498614","prefectureKana":"ﾆｲｶﾞﾀｹﾝ","cityKana":"ﾄｵｶﾏﾁｼ","streetKana":"ﾅｶｼﾞｮｳﾍｲ","prefecture":"新潟県","city":"十日町市","street":"中条丙"},{"zipCode":"9498618","prefectureKana":"ﾆｲｶﾞﾀｹﾝ","cityKana":"ﾄｵｶﾏﾁｼ","streetKana":"ﾅｶｼﾞｮｳﾎﾞ","prefecture":"新潟県","city":"十日町市","street":"中条戊"},{"zipCode":"9498554","prefectureKana":"ﾆｲｶﾞﾀｹﾝ","cityKana":"ﾄｵｶﾏﾁｼ","streetKana":"ﾅｸﾞﾓ","prefecture":"新潟県","city":"十日町市","street":"南雲"},{"zipCode":"9498437","prefectureKana":"ﾆｲｶﾞﾀｹﾝ","cityKana":"ﾄｵｶﾏﾁｼ","streetKana":"ﾆｼﾀｼﾞﾘ","prefecture":"新潟県","city":"十日町市","street":"西田尻"},{"zipCode":"9498404","prefectureKana":"ﾆｲｶﾞﾀｹﾝ","cityKana":"ﾄｵｶﾏﾁｼ","streetKana":"ﾆｮﾗｲｼﾞ","prefecture":"新潟県","city":"十日町市","street":"如来寺"},{"zipCode":"9498545","prefectureKana":"ﾆｲｶﾞﾀｹﾝ","cityKana":"ﾄｵｶﾏﾁｼ","streetKana":"ﾉﾅｶ","prefecture":"新潟県","city":"十日町市","street":"野中"},{"zipCode":"9498551","prefectureKana":"ﾆｲｶﾞﾀｹﾝ","cityKana":"ﾄｵｶﾏﾁｼ","streetKana":"ﾊﾞﾊﾞ","prefecture":"新潟県","city":"十日町市","street":"馬場"},{"zipCode":"9498446","prefectureKana":"ﾆｲｶﾞﾀｹﾝ","cityKana":"ﾄｵｶﾏﾁｼ","streetKana":"ﾊﾗﾏﾁ","prefecture":"新潟県","city":"十日町市","street":"原町"},{"zipCode":"9498601","prefectureKana":"ﾆｲｶﾞﾀｹﾝ","cityKana":"ﾄｵｶﾏﾁｼ","streetKana":"ﾋｶﾞｼｼﾓｸﾞﾐ","prefecture":"新潟県","city":"十日町市","street":"東下組"},{"zipCode":"9498424","prefectureKana":"ﾆｲｶﾞﾀｹﾝ","cityKana":"ﾄｵｶﾏﾁｼ","streetKana":"ﾋｶﾞｼﾀｻﾞﾜ","prefecture":"新潟県","city":"十日町市","street":"東田沢"},{"zipCode":"9498425","prefectureKana":"ﾆｲｶﾞﾀｹﾝ","cityKana":"ﾄｵｶﾏﾁｼ","streetKana":"ﾋｶﾞｼﾀｼﾞﾘ","prefecture":"新潟県","city":"十日町市","street":"東田尻"},{"zipCode":"9498408","prefectureKana":"ﾆｲｶﾞﾀｹﾝ","cityKana":"ﾄｵｶﾏﾁｼ","streetKana":"ﾋﾐｿﾞ","prefecture":"新潟県","city":"十日町市","street":"干溝"},{"zipCode":"9498417","prefectureKana":"ﾆｲｶﾞﾀｹﾝ","cityKana":"ﾄｵｶﾏﾁｼ","streetKana":"ﾎｷｻﾞﾜ","prefecture":"新潟県","city":"十日町市","street":"朴木沢"},{"zipCode":"9498534","prefectureKana":"ﾆｲｶﾞﾀｹﾝ","cityKana":"ﾄｵｶﾏﾁｼ","streetKana":"ﾎｿｵ","prefecture":"新潟県","city":"十日町市","street":"細尾"},{"zipCode":"9498426","prefectureKana":"ﾆｲｶﾞﾀｹﾝ","cityKana":"ﾄｵｶﾏﾁｼ","streetKana":"ﾎﾄｼﾞﾏ","prefecture":"新潟県","city":"十日町市","street":"程島"},{"zipCode":"9498504","prefectureKana":"ﾆｲｶﾞﾀｹﾝ","cityKana":"ﾄｵｶﾏﾁｼ","streetKana":"ﾎﾘﾉｳﾁ","prefecture":"新潟県","city":"十日町市","street":"堀之内"},{"zipCode":"9498558","prefectureKana":"ﾆｲｶﾞﾀｹﾝ","cityKana":"ﾄｵｶﾏﾁｼ","streetKana":"ﾐｽﾞｻﾜ","prefecture":"新潟県","city":"十日町市","street":"水沢"},{"zipCode":"9498557","prefectureKana":"ﾆｲｶﾞﾀｹﾝ","cityKana":"ﾄｵｶﾏﾁｼ","streetKana":"ﾐｽﾞｻﾜｲﾁﾉｻﾜ","prefecture":"新潟県","city":"十日町市","street":"水沢市之沢"},{"zipCode":"9498418","prefectureKana":"ﾆｲｶﾞﾀｹﾝ","cityKana":"ﾄｵｶﾏﾁｼ","streetKana":"ﾐﾔｻﾞﾜ","prefecture":"新潟県","city":"十日町市","street":"宮沢"},{"zipCode":"9498505","prefectureKana":"ﾆｲｶﾞﾀｹﾝ","cityKana":"ﾄｵｶﾏﾁｼ","streetKana":"ﾐﾔﾅｶ","prefecture":"新潟県","city":"十日町市","street":"宮中"},{"zipCode":"9498434","prefectureKana":"ﾆｲｶﾞﾀｹﾝ","cityKana":"ﾄｵｶﾏﾁｼ","streetKana":"ﾑｸﾞﾗｻﾜ","prefecture":"新潟県","city":"十日町市","street":"葎沢"},{"zipCode":"9498503","prefectureKana":"ﾆｲｶﾞﾀｹﾝ","cityKana":"ﾄｵｶﾏﾁｼ","streetKana":"ﾓﾄﾔｼｷ","prefecture":"新潟県","city":"十日町市","street":"本屋敷"},{"zipCode":"9498406","prefectureKana":"ﾆｲｶﾞﾀｹﾝ","cityKana":"ﾄｵｶﾏﾁｼ","streetKana":"ﾔﾏｻﾞｷ","prefecture":"新潟県","city":"十日町市","street":"山崎"},{"zipCode":"9490112","prefectureKana":"ﾆｲｶﾞﾀｹﾝ","cityKana":"ｲﾄｲｶﾞﾜｼ","streetKana":"ｱｹﾞﾛ","prefecture":"新潟県","city":"糸魚川市","street":"上路"},{"zipCode":"9491211","prefectureKana":"ﾆｲｶﾞﾀｹﾝ","cityKana":"ｲﾄｲｶﾞﾜｼ","streetKana":"ｲｶﾊﾗ","prefecture":"新潟県","city":"糸魚川市","street":"五十原"},{"zipCode":"9490534","prefectureKana":"ﾆｲｶﾞﾀｹﾝ","cityKana":"ｲﾄｲｶﾞﾜｼ","streetKana":"ｲｽﾞﾐ","prefecture":"新潟県","city":"糸魚川市","street":"和泉"},{"zipCode":"9490111","prefectureKana":"ﾆｲｶﾞﾀｹﾝ","cityKana":"ｲﾄｲｶﾞﾜｼ","streetKana":"ｲﾁﾌﾞﾘ","prefecture":"新潟県","city":"糸魚川市","street":"市振"},{"zipCode":"9490302","prefectureKana":"ﾆｲｶﾞﾀｹﾝ","cityKana":"ｲﾄｲｶﾞﾜｼ","streetKana":"ｲﾏﾑﾗｼﾝﾃﾞﾝ","prefecture":"新潟県","city":"糸魚川市","street":"今村新田"},{"zipCode":"9490551","prefectureKana":"ﾆｲｶﾞﾀｹﾝ","cityKana":"ｲﾄｲｶﾞﾜｼ","streetKana":"ｳｴﾉﾔﾏ","prefecture":"新潟県","city":"糸魚川市","street":"上野山"},{"zipCode":"9490553","prefectureKana":"ﾆｲｶﾞﾀｹﾝ","cityKana":"ｲﾄｲｶﾞﾜｼ","streetKana":"ｳｴﾖｺ","prefecture":"新潟県","city":"糸魚川市","street":"上横"},{"zipCode":"9491336","prefectureKana":"ﾆｲｶﾞﾀｹﾝ","cityKana":"ｲﾄｲｶﾞﾜｼ","streetKana":"ｳｽﾞﾗｲｼ","prefecture":"新潟県","city":"糸魚川市","street":"鶉石"},{"zipCode":"9490307","prefectureKana":"ﾆｲｶﾞﾀｹﾝ","cityKana":"ｲﾄｲｶﾞﾜｼ","streetKana":"ｳﾀ","prefecture":"新潟県","city":"糸魚川市","street":"歌"},{"zipCode":"9490532","prefectureKana":"ﾆｲｶﾞﾀｹﾝ","cityKana":"ｲﾄｲｶﾞﾜｼ","streetKana":"ｳﾜﾉ","prefecture":"新潟県","city":"糸魚川市","street":"上野"},{"zipCode":"9490305","prefectureKana":"ﾆｲｶﾞﾀｹﾝ","cityKana":"ｲﾄｲｶﾞﾜｼ","streetKana":"ｵｳﾐ","prefecture":"新潟県","city":"糸魚川市","street":"青海"},{"zipCode":"9490545","prefectureKana":"ﾆｲｶﾞﾀｹﾝ","cityKana":"ｲﾄｲｶﾞﾜｼ","streetKana":"ｵｵｸﾎﾞ","prefecture":"新潟県","city":"糸魚川市","street":"大久保"},{"zipCode":"9491331","prefectureKana":"ﾆｲｶﾞﾀｹﾝ","cityKana":"ｲﾄｲｶﾞﾜｼ","streetKana":"ｵｵｻﾜ","prefecture":"新潟県","city":"糸魚川市","street":"大沢"},{"zipCode":"9491221","prefectureKana":"ﾆｲｶﾞﾀｹﾝ","cityKana":"ｲﾄｲｶﾞﾜｼ","streetKana":"ｵｵﾀﾞｲﾗ","prefecture":"新潟県","city":"糸魚川市","street":"大平"},{"zipCode":"9490464","prefectureKana":"ﾆｲｶﾞﾀｹﾝ","cityKana":"ｲﾄｲｶﾞﾜｼ","streetKana":"ｵｵﾄｺﾛ","prefecture":"新潟県","city":"糸魚川市","street":"大所"},{"zipCode":"9491303","prefectureKana":"ﾆｲｶﾞﾀｹﾝ","cityKana":"ｲﾄｲｶﾞﾜｼ","streetKana":"ｵｵﾎﾗ","prefecture":"新潟県","city":"糸魚川市","street":"大洞"},{"zipCode":"9491343","prefectureKana":"ﾆｲｶﾞﾀｹﾝ","cityKana":"ｲﾄｲｶﾞﾜｼ","streetKana":"ｵﾆﾌﾞｼ","prefecture":"新潟県","city":"糸魚川市","street":"鬼伏"},{"zipCode":"9491335","prefectureKana":"ﾆｲｶﾞﾀｹﾝ","cityKana":"ｲﾄｲｶﾞﾜｼ","streetKana":"ｵﾐ","prefecture":"新潟県","city":"糸魚川市","street":"小見"},{"zipCode":"9491225","prefectureKana":"ﾆｲｶﾞﾀｹﾝ","cityKana":"ｲﾄｲｶﾞﾜｼ","streetKana":"ｶｸﾏ","prefecture":"新潟県","city":"糸魚川市","street":"角間"},{"zipCode":"9490544","prefectureKana":"ﾆｲｶﾞﾀｹﾝ","cityKana":"ｲﾄｲｶﾞﾜｼ","streetKana":"ｶｼﾞﾔﾏ","prefecture":"新潟県","city":"糸魚川市","street":"梶山"},{"zipCode":"9491337","prefectureKana":"ﾆｲｶﾞﾀｹﾝ","cityKana":"ｲﾄｲｶﾞﾜｼ","streetKana":"ｶﾂﾗ","prefecture":"新潟県","city":"糸魚川市","street":"桂"},{"zipCode":"9490552","prefectureKana":"ﾆｲｶﾞﾀｹﾝ","cityKana":"ｲﾄｲｶﾞﾜｼ","streetKana":"ｶﾞﾏｲｹ","prefecture":"新潟県","city":"糸魚川市","street":"蒲池"},{"zipCode":"9490541","prefectureKana":"ﾆｲｶﾞﾀｹﾝ","cityKana":"ｲﾄｲｶﾞﾜｼ","streetKana":"ｶﾐｻﾞﾜ","prefecture":"新潟県","city":"糸魚川市","street":"上沢"},{"zipCode":"9491329","prefectureKana":"ﾆｲｶﾞﾀｹﾝ","cityKana":"ｲﾄｲｶﾞﾜｼ","streetKana":"ｶﾜﾂﾞﾒ","prefecture":"新潟県","city":"糸魚川市","street":"川詰"},{"zipCode":"9491226","prefectureKana":"ﾆｲｶﾞﾀｹﾝ","cityKana":"ｲﾄｲｶﾞﾜｼ","streetKana":"ｷﾀﾔﾏ","prefecture":"新潟県","city":"糸魚川市","street":"北山"},{"zipCode":"9491344","prefectureKana":"ﾆｲｶﾞﾀｹﾝ","cityKana":"ｲﾄｲｶﾞﾜｼ","streetKana":"ｷﾌﾞ","prefecture":"新潟県","city":"糸魚川市","street":"鬼舞"},{"zipCode":"9491325","prefectureKana":"ﾆｲｶﾞﾀｹﾝ","cityKana":"ｲﾄｲｶﾞﾜｼ","streetKana":"ｸｽﾞﾚ","prefecture":"新潟県","city":"糸魚川市","street":"崩"},{"zipCode":"9490535","prefectureKana":"ﾆｲｶﾞﾀｹﾝ","cityKana":"ｲﾄｲｶﾞﾜｼ","streetKana":"ｸﾘﾔﾏ","prefecture":"新潟県","city":"糸魚川市","street":"栗山"},{"zipCode":"9491201","prefectureKana":"ﾆｲｶﾞﾀｹﾝ","cityKana":"ｲﾄｲｶﾞﾜｼ","streetKana":"ｺｼ","prefecture":"新潟県","city":"糸魚川市","street":"越"},{"zipCode":"9490462","prefectureKana":"ﾆｲｶﾞﾀｹﾝ","cityKana":"ｲﾄｲｶﾞﾜｼ","streetKana":"ｺﾀｷ","prefecture":"新潟県","city":"糸魚川市","street":"小滝"},{"zipCode":"9491342","prefectureKana":"ﾆｲｶﾞﾀｹﾝ","cityKana":"ｲﾄｲｶﾞﾜｼ","streetKana":"ｺﾉｳﾗ","prefecture":"新潟県","city":"糸魚川市","street":"木浦"},{"zipCode":"9491353","prefectureKana":"ﾆｲｶﾞﾀｹﾝ","cityKana":"ｲﾄｲｶﾞﾜｼ","streetKana":"ｻｶｴ","prefecture":"新潟県","city":"糸魚川市","street":"栄"},{"zipCode":"9491354","prefectureKana":"ﾆｲｶﾞﾀｹﾝ","cityKana":"ｲﾄｲｶﾞﾜｼ","streetKana":"ｻｸﾗｷﾞ","prefecture":"新潟県","city":"糸魚川市","street":"桜木"},{"zipCode":"9491315","prefectureKana":"ﾆｲｶﾞﾀｹﾝ","cityKana":"ｲﾄｲｶﾞﾜｼ","streetKana":"ｻｼｵ","prefecture":"新潟県","city":"糸魚川市","street":"指塩"},{"zipCode":"9491206","prefectureKana":"ﾆｲｶﾞﾀｹﾝ","cityKana":"ｲﾄｲｶﾞﾜｼ","streetKana":"ｻﾙｸﾗ","prefecture":"新潟県","city":"糸魚川市","street":"猿倉"},{"zipCode":"9491313","prefectureKana":"ﾆｲｶﾞﾀｹﾝ","cityKana":"ｲﾄｲｶﾞﾜｼ","streetKana":"ｼﾀｸﾗ","prefecture":"新潟県","city":"糸魚川市","street":"下倉"},{"zipCode":"9491333","prefectureKana":"ﾆｲｶﾞﾀｹﾝ","cityKana":"ｲﾄｲｶﾞﾜｼ","streetKana":"ｼﾏﾐﾁ","prefecture":"新潟県","city":"糸魚川市","street":"島道"},{"zipCode":"9491327","prefectureKana":"ﾆｲｶﾞﾀｹﾝ","cityKana":"ｲﾄｲｶﾞﾜｼ","streetKana":"ｽｶﾞﾜ","prefecture":"新潟県","city":"糸魚川市","street":"須川"},{"zipCode":"9490556","prefectureKana":"ﾆｲｶﾞﾀｹﾝ","cityKana":"ｲﾄｲｶﾞﾜｼ","streetKana":"ｽｷﾞﾉﾄｳ","prefecture":"新潟県","city":"糸魚川市","street":"杉之当"},{"zipCode":"9490301","prefectureKana":"ﾆｲｶﾞﾀｹﾝ","cityKana":"ｲﾄｲｶﾞﾜｼ","streetKana":"ｽｻﾞﾜ","prefecture":"新潟県","city":"糸魚川市","street":"須沢"},{"zipCode":"9491224","prefectureKana":"ﾆｲｶﾞﾀｹﾝ","cityKana":"ｲﾄｲｶﾞﾜｼ","streetKana":"ｽﾅﾊﾞ","prefecture":"新潟県","city":"糸魚川市","street":"砂場"},{"zipCode":"9491302","prefectureKana":"ﾆｲｶﾞﾀｹﾝ","cityKana":"ｲﾄｲｶﾞﾜｼ","streetKana":"ｾﾝﾉｳ","prefecture":"新潟県","city":"糸魚川市","street":"仙納"},{"zipCode":"9491319","prefectureKana":"ﾆｲｶﾞﾀｹﾝ","cityKana":"ｲﾄｲｶﾞﾜｼ","streetKana":"ﾀｲｵｳ","prefecture":"新潟県","city":"糸魚川市","street":"大王"},{"zipCode":"9490533","prefectureKana":"ﾆｲｶﾞﾀｹﾝ","cityKana":"ｲﾄｲｶﾞﾜｼ","streetKana":"ﾀﾞｲｸﾔｼｷ","prefecture":"新潟県","city":"糸魚川市","street":"大工屋敷"},{"zipCode":"9490542","prefectureKana":"ﾆｲｶﾞﾀｹﾝ","cityKana":"ｲﾄｲｶﾞﾜｼ","streetKana":"ﾀﾞｲｼﾞﾝﾄﾞｳ","prefecture":"新潟県","city":"糸魚川市","street":"大神堂"},{"zipCode":"9491317","prefectureKana":"ﾆｲｶﾞﾀｹﾝ","cityKana":"ｲﾄｲｶﾞﾜｼ","streetKana":"ﾀﾞｲﾄﾞｳｼﾞ","prefecture":"新潟県","city":"糸魚川市","street":"大道寺"},{"zipCode":"9491341","prefectureKana":"ﾆｲｶﾞﾀｹﾝ","cityKana":"ｲﾄｲｶﾞﾜｼ","streetKana":"ﾀｲﾍｲｼﾞ","prefecture":"新潟県","city":"糸魚川市","street":"大平寺"},{"zipCode":"9491334","prefectureKana":"ﾆｲｶﾞﾀｹﾝ","cityKana":"ｲﾄｲｶﾞﾜｼ","streetKana":"ﾀｲﾗ","prefecture":"新潟県","city":"糸魚川市","street":"平"},{"zipCode":"9491311","prefectureKana":"ﾆｲｶﾞﾀｹﾝ","cityKana":"ｲﾄｲｶﾞﾜｼ","streetKana":"ﾀｶｸﾗ","prefecture":"新潟県","city":"糸魚川市","street":"高倉"},{"zipCode":"9491323","prefectureKana":"ﾆｲｶﾞﾀｹﾝ","cityKana":"ｲﾄｲｶﾞﾜｼ","streetKana":"ﾀﾑｷﾞﾀﾞｲﾗ","prefecture":"新潟県","city":"糸魚川市","street":"田麦平"},{"zipCode":"9491215","prefectureKana":"ﾆｲｶﾞﾀｹﾝ","cityKana":"ｲﾄｲｶﾞﾜｼ","streetKana":"ﾀﾝﾈ","prefecture":"新潟県","city":"糸魚川市","street":"谷根"},{"zipCode":"9491222","prefectureKana":"ﾆｲｶﾞﾀｹﾝ","cityKana":"ｲﾄｲｶﾞﾜｼ","streetKana":"ﾂﾁｸﾗ","prefecture":"新潟県","city":"糸魚川市","street":"土倉"},{"zipCode":"9491205","prefectureKana":"ﾆｲｶﾞﾀｹﾝ","cityKana":"ｲﾄｲｶﾞﾜｼ","streetKana":"ﾂﾁｼｵ","prefecture":"新潟県","city":"糸魚川市","street":"土塩"},{"zipCode":"9491306","prefectureKana":"ﾆｲｶﾞﾀｹﾝ","cityKana":"ｲﾄｲｶﾞﾜｼ","streetKana":"ﾂﾂｲｼ","prefecture":"新潟県","city":"糸魚川市","street":"筒石"},{"zipCode":"9491208","prefectureKana":"ﾆｲｶﾞﾀｹﾝ","cityKana":"ｲﾄｲｶﾞﾜｼ","streetKana":"ﾂﾎﾞﾉ","prefecture":"新潟県","city":"糸魚川市","street":"坪野"},{"zipCode":"9490304","prefectureKana":"ﾆｲｶﾞﾀｹﾝ","cityKana":"ｲﾄｲｶﾞﾜｼ","streetKana":"ﾃﾗｼﾞ","prefecture":"新潟県","city":"糸魚川市","street":"寺地"},{"zipCode":"9491338","prefectureKana":"ﾆｲｶﾞﾀｹﾝ","cityKana":"ｲﾄｲｶﾞﾜｼ","streetKana":"ﾃﾗﾔﾏ","prefecture":"新潟県","city":"糸魚川市","street":"寺山"},{"zipCode":"9491332","prefectureKana":"ﾆｲｶﾞﾀｹﾝ","cityKana":"ｲﾄｲｶﾞﾜｼ","streetKana":"ﾄｳｺﾞ","prefecture":"新潟県","city":"糸魚川市","street":"藤後"},{"zipCode":"9491305","prefectureKana":"ﾆｲｶﾞﾀｹﾝ","cityKana":"ｲﾄｲｶﾞﾜｼ","streetKana":"ﾄｳｻﾞｷ","prefecture":"新潟県","city":"糸魚川市","street":"藤崎"},{"zipCode":"9490303","prefectureKana":"ﾆｲｶﾞﾀｹﾝ","cityKana":"ｲﾄｲｶﾞﾜｼ","streetKana":"ﾄｳﾐ","prefecture":"新潟県","city":"糸魚川市","street":"田海"},{"zipCode":"9491301","prefectureKana":"ﾆｲｶﾞﾀｹﾝ","cityKana":"ｲﾄｲｶﾞﾜｼ","streetKana":"ﾄｸｱｲ","prefecture":"新潟県","city":"糸魚川市","street":"徳合"},{"zipCode":"9490308","prefectureKana":"ﾆｲｶﾞﾀｹﾝ","cityKana":"ｲﾄｲｶﾞﾜｼ","streetKana":"ﾄﾅﾐ","prefecture":"新潟県","city":"糸魚川市","street":"外波"},{"zipCode":"9491223","prefectureKana":"ﾆｲｶﾞﾀｹﾝ","cityKana":"ｲﾄｲｶﾞﾜｼ","streetKana":"ﾅｶｶﾞﾜﾗｼﾝﾃﾞﾝ","prefecture":"新潟県","city":"糸魚川市","street":"中川原新田"},{"zipCode":"9491203","prefectureKana":"ﾆｲｶﾞﾀｹﾝ","cityKana":"ｲﾄｲｶﾞﾜｼ","streetKana":"ﾅｶﾉ","prefecture":"新潟県","city":"糸魚川市","street":"中野"},{"zipCode":"9491314","prefectureKana":"ﾆｲｶﾞﾀｹﾝ","cityKana":"ｲﾄｲｶﾞﾜｼ","streetKana":"ﾅｶﾉｸﾁ","prefecture":"新潟県","city":"糸魚川市","street":"中野口"},{"zipCode":"9491204","prefectureKana":"ﾆｲｶﾞﾀｹﾝ","cityKana":"ｲﾄｲｶﾞﾜｼ","streetKana":"ﾅｶﾊﾞﾔｼ","prefecture":"新潟県","city":"糸魚川市","street":"中林"},{"zipCode":"9491213","prefectureKana":"ﾆｲｶﾞﾀｹﾝ","cityKana":"ｲﾄｲｶﾞﾜｼ","streetKana":"ﾆｼﾂｶ","prefecture":"新潟県","city":"糸魚川市","street":"西塚"},{"zipCode":"9491322","prefectureKana":"ﾆｲｶﾞﾀｹﾝ","cityKana":"ｲﾄｲｶﾞﾜｼ","streetKana":"ﾆｼﾋﾔﾏ","prefecture":"新潟県","city":"糸魚川市","street":"西飛山"},{"zipCode":"9490461","prefectureKana":"ﾆｲｶﾞﾀｹﾝ","cityKana":"ｲﾄｲｶﾞﾜｼ","streetKana":"ﾆｼﾔﾏ(ｵｵﾏｴ)","prefecture":"新潟県","city":"糸魚川市","street":"西山（大前）"},{"zipCode":"9490557","prefectureKana":"ﾆｲｶﾞﾀｹﾝ","cityKana":"ｲﾄｲｶﾞﾜｼ","streetKana":"ﾆｼﾔﾏ(ｿﾉﾀ)","prefecture":"新潟県","city":"糸魚川市","street":"西山（その他）"},{"zipCode":"9490536","prefectureKana":"ﾆｲｶﾞﾀｹﾝ","cityKana":"ｲﾄｲｶﾞﾜｼ","streetKana":"ﾈｺﾞﾔ","prefecture":"新潟県","city":"糸魚川市","street":"根小屋"},{"zipCode":"9491352","prefectureKana":"ﾆｲｶﾞﾀｹﾝ","cityKana":"ｲﾄｲｶﾞﾜｼ","streetKana":"ﾉｳ","prefecture":"新潟県","city":"糸魚川市","street":"能生"},{"zipCode":"9491351","prefectureKana":"ﾆｲｶﾞﾀｹﾝ","cityKana":"ｲﾄｲｶﾞﾜｼ","streetKana":"ﾉｳｺﾄﾞﾏﾘ","prefecture":"新潟県","city":"糸魚川市","street":"能生小泊"},{"zipCode":"9490306","prefectureKana":"ﾆｲｶﾞﾀｹﾝ","cityKana":"ｲﾄｲｶﾞﾜｼ","streetKana":"ﾊｼﾀﾞﾃ","prefecture":"新潟県","city":"糸魚川市","street":"橋立"},{"zipCode":"9491316","prefectureKana":"ﾆｲｶﾞﾀｹﾝ","cityKana":"ｲﾄｲｶﾞﾜｼ","streetKana":"ﾊｼﾗﾐﾁ","prefecture":"新潟県","city":"糸魚川市","street":"柱道"},{"zipCode":"9491321","prefectureKana":"ﾆｲｶﾞﾀｹﾝ","cityKana":"ｲﾄｲｶﾞﾜｼ","streetKana":"ﾋｶﾞｼﾀﾆｳﾁ","prefecture":"新潟県","city":"糸魚川市","street":"東谷内"},{"zipCode":"9491212","prefectureKana":"ﾆｲｶﾞﾀｹﾝ","cityKana":"ｲﾄｲｶﾞﾜｼ","streetKana":"ﾋｶﾞｼﾂｶ","prefecture":"新潟県","city":"糸魚川市","street":"東塚"},{"zipCode":"9490531","prefectureKana":"ﾆｲｶﾞﾀｹﾝ","cityKana":"ｲﾄｲｶﾞﾜｼ","streetKana":"ﾋｶﾞｼﾅｶ","prefecture":"新潟県","city":"糸魚川市","street":"東中"},{"zipCode":"9491207","prefectureKana":"ﾆｲｶﾞﾀｹﾝ","cityKana":"ｲﾄｲｶﾞﾜｼ","streetKana":"ﾌｷﾊﾗ","prefecture":"新潟県","city":"糸魚川市","street":"吹原"},{"zipCode":"9490555","prefectureKana":"ﾆｲｶﾞﾀｹﾝ","cityKana":"ｲﾄｲｶﾞﾜｼ","streetKana":"ﾍﾞｯｼｮ","prefecture":"新潟県","city":"糸魚川市","street":"別所"},{"zipCode":"9491312","prefectureKana":"ﾆｲｶﾞﾀｹﾝ","cityKana":"ｲﾄｲｶﾞﾜｼ","streetKana":"ﾏｷ","prefecture":"新潟県","city":"糸魚川市","street":"槙"},{"zipCode":"9491324","prefectureKana":"ﾆｲｶﾞﾀｹﾝ","cityKana":"ｲﾄｲｶﾞﾜｼ","streetKana":"ﾏｾｸﾞﾁ","prefecture":"新潟県","city":"糸魚川市","street":"柵口"},{"zipCode":"9491328","prefectureKana":"ﾆｲｶﾞﾀｹﾝ","cityKana":"ｲﾄｲｶﾞﾜｼ","streetKana":"ﾐｿﾞｵ","prefecture":"新潟県","city":"糸魚川市","street":"溝尾"},{"zipCode":"9491214","prefectureKana":"ﾆｲｶﾞﾀｹﾝ","cityKana":"ｲﾄｲｶﾞﾜｼ","streetKana":"ﾐﾀｷ","prefecture":"新潟県","city":"糸魚川市","street":"見滝"},{"zipCode":"9491202","prefectureKana":"ﾆｲｶﾞﾀｹﾝ","cityKana":"ｲﾄｲｶﾞﾜｼ","streetKana":"ﾐﾔﾀﾞｲﾗ","prefecture":"新潟県","city":"糸魚川市","street":"宮平"},{"zipCode":"9491326","prefectureKana":"ﾆｲｶﾞﾀｹﾝ","cityKana":"ｲﾄｲｶﾞﾜｼ","streetKana":"ﾓﾉｲﾃﾞ","prefecture":"新潟県","city":"糸魚川市","street":"物出"},{"zipCode":"9491304","prefectureKana":"ﾆｲｶﾞﾀｹﾝ","cityKana":"ｲﾄｲｶﾞﾜｼ","streetKana":"ﾓﾓｶﾞﾜ","prefecture":"新潟県","city":"糸魚川市","street":"百川"},{"zipCode":"9490554","prefectureKana":"ﾆｲｶﾞﾀｹﾝ","cityKana":"ｲﾄｲｶﾞﾜｼ","streetKana":"ﾔﾏｸﾞﾁ","prefecture":"新潟県","city":"糸魚川市","street":"山口"},{"zipCode":"9490543","prefectureKana":"ﾆｲｶﾞﾀｹﾝ","cityKana":"ｲﾄｲｶﾞﾜｼ","streetKana":"ﾔﾏﾃﾞﾗ","prefecture":"新潟県","city":"糸魚川市","street":"山寺"},{"zipCode":"9490463","prefectureKana":"ﾆｲｶﾞﾀｹﾝ","cityKana":"ｲﾄｲｶﾞﾜｼ","streetKana":"ﾔﾏﾉﾎﾞｳ","prefecture":"新潟県","city":"糸魚川市","street":"山之坊"},{"zipCode":"9490558","prefectureKana":"ﾆｲｶﾞﾀｹﾝ","cityKana":"ｲﾄｲｶﾞﾜｼ","streetKana":"ﾖｼｮ","prefecture":"新潟県","city":"糸魚川市","street":"余所"},{"zipCode":"9491318","prefectureKana":"ﾆｲｶﾞﾀｹﾝ","cityKana":"ｲﾄｲｶﾞﾜｼ","streetKana":"ﾜｼｵ","prefecture":"新潟県","city":"糸魚川市","street":"鷲尾"},{"zipCode":"9492111","prefectureKana":"ﾆｲｶﾞﾀｹﾝ","cityKana":"ﾐｮｳｺｳｼ","streetKana":"ｱｶｸﾗ","prefecture":"新潟県","city":"妙高市","street":"赤倉"},{"zipCode":"9492208","prefectureKana":"ﾆｲｶﾞﾀｹﾝ","cityKana":"ﾐｮｳｺｳｼ","streetKana":"ｲﾏﾌﾞ","prefecture":"新潟県","city":"妙高市","street":"今府"},{"zipCode":"9492221","prefectureKana":"ﾆｲｶﾞﾀｹﾝ","cityKana":"ﾐｮｳｺｳｼ","streetKana":"ｵｵｼｶ","prefecture":"新潟県","city":"妙高市","street":"大鹿"},{"zipCode":"9492225","prefectureKana":"ﾆｲｶﾞﾀｹﾝ","cityKana":"ﾐｮｳｺｳｼ","streetKana":"ｵｵﾀﾆ","prefecture":"新潟県","city":"妙高市","street":"大谷"},{"zipCode":"9492212","prefectureKana":"ﾆｲｶﾞﾀｹﾝ","cityKana":"ﾐｮｳｺｳｼ","streetKana":"ｵｶｼﾝﾃﾞﾝ","prefecture":"新潟県","city":"妙高市","street":"岡新田"},{"zipCode":"9492224","prefectureKana":"ﾆｲｶﾞﾀｹﾝ","cityKana":"ﾐｮｳｺｳｼ","streetKana":"ｵｹﾐ","prefecture":"新潟県","city":"妙高市","street":"桶海"},{"zipCode":"9492104","prefectureKana":"ﾆｲｶﾞﾀｹﾝ","cityKana":"ﾐｮｳｺｳｼ","streetKana":"ｶﾈﾏﾀ","prefecture":"新潟県","city":"妙高市","street":"兼俣"},{"zipCode":"9492205","prefectureKana":"ﾆｲｶﾞﾀｹﾝ","cityKana":"ﾐｮｳｺｳｼ","streetKana":"ｶﾐｵｵﾂｶｼﾝﾃﾞﾝ","prefecture":"新潟県","city":"妙高市","street":"上大塚新田"},{"zipCode":"9492233","prefectureKana":"ﾆｲｶﾞﾀｹﾝ","cityKana":"ﾐｮｳｺｳｼ","streetKana":"ｶﾐﾅｶﾑﾗｼﾝﾃﾞﾝ","prefecture":"新潟県","city":"妙高市","street":"上中村新田"},{"zipCode":"9492203","prefectureKana":"ﾆｲｶﾞﾀｹﾝ","cityKana":"ﾐｮｳｺｳｼ","streetKana":"ｷﾀﾀﾔｼﾝﾃﾞﾝ","prefecture":"新潟県","city":"妙高市","street":"北田屋新田"},{"zipCode":"9492207","prefectureKana":"ﾆｲｶﾞﾀｹﾝ","cityKana":"ﾐｮｳｺｳｼ","streetKana":"ｸﾎﾞﾀｼﾝﾃﾞﾝ","prefecture":"新潟県","city":"妙高市","street":"窪田新田"},{"zipCode":"9492105","prefectureKana":"ﾆｲｶﾞﾀｹﾝ","cityKana":"ﾐｮｳｺｳｼ","streetKana":"ｹﾜｲｻﾞｶ","prefecture":"新潟県","city":"妙高市","street":"毛祝坂"},{"zipCode":"9492234","prefectureKana":"ﾆｲｶﾞﾀｹﾝ","cityKana":"ﾐｮｳｺｳｼ","streetKana":"ｻｶｸﾞﾁｼﾝﾃﾞﾝ","prefecture":"新潟県","city":"妙高市","street":"坂口新田"},{"zipCode":"9492202","prefectureKana":"ﾆｲｶﾞﾀｹﾝ","cityKana":"ﾐｮｳｺｳｼ","streetKana":"ｻｶｼﾀｼﾝﾃﾞﾝ","prefecture":"新潟県","city":"妙高市","street":"坂下新田"},{"zipCode":"9492113","prefectureKana":"ﾆｲｶﾞﾀｹﾝ","cityKana":"ﾐｮｳｺｳｼ","streetKana":"ｽｷﾞﾉｻﾜ","prefecture":"新潟県","city":"妙高市","street":"杉野沢"},{"zipCode":"9492226","prefectureKana":"ﾆｲｶﾞﾀｹﾝ","cityKana":"ﾐｮｳｺｳｼ","streetKana":"ｽﾐﾖｼ","prefecture":"新潟県","city":"妙高市","street":"住吉"},{"zipCode":"9492112","prefectureKana":"ﾆｲｶﾞﾀｹﾝ","cityKana":"ﾐｮｳｺｳｼ","streetKana":"ｾｷｶﾞﾜ","prefecture":"新潟県","city":"妙高市","street":"関川"},{"zipCode":"9492141","prefectureKana":"ﾆｲｶﾞﾀｹﾝ","cityKana":"ﾐｮｳｺｳｼ","streetKana":"ｾｷﾔﾏ(ｸﾏﾄﾞｳﾔﾏ､ﾐｮｳｺｳｻﾝｺｸﾕｳﾘﾝﾀﾞｲ28ﾊﾝ)","prefecture":"新潟県","city":"妙高市","street":"関山（熊堂山、妙高山国有林第２８班）"},{"zipCode":"9492235","prefectureKana":"ﾆｲｶﾞﾀｹﾝ","cityKana":"ﾐｮｳｺｳｼ","streetKana":"ｾｷﾔﾏ(ｿﾉﾀ)","prefecture":"新潟県","city":"妙高市","street":"関山（その他）"},{"zipCode":"9492103","prefectureKana":"ﾆｲｶﾞﾀｹﾝ","cityKana":"ﾐｮｳｺｳｼ","streetKana":"ｿﾞｳｿﾞｳ","prefecture":"新潟県","city":"妙高市","street":"蔵々"},{"zipCode":"9492209","prefectureKana":"ﾆｲｶﾞﾀｹﾝ","cityKana":"ﾐｮｳｺｳｼ","streetKana":"ｿﾌﾀｹ","prefecture":"新潟県","city":"妙高市","street":"祖父竹"},{"zipCode":"9492102","prefectureKana":"ﾆｲｶﾞﾀｹﾝ","cityKana":"ﾐｮｳｺｳｼ","streetKana":"ﾀｷﾞﾘ","prefecture":"新潟県","city":"妙高市","street":"田切"},{"zipCode":"9492106","prefectureKana":"ﾆｲｶﾞﾀｹﾝ","cityKana":"ﾐｮｳｺｳｼ","streetKana":"ﾀｸﾞﾁ","prefecture":"新潟県","city":"妙高市","street":"田口"},{"zipCode":"9492211","prefectureKana":"ﾆｲｶﾞﾀｹﾝ","cityKana":"ﾐｮｳｺｳｼ","streetKana":"ﾀﾅｶﾑﾗｼﾝﾃﾞﾝ","prefecture":"新潟県","city":"妙高市","street":"田中村新田"},{"zipCode":"9492223","prefectureKana":"ﾆｲｶﾞﾀｹﾝ","cityKana":"ﾐｮｳｺｳｼ","streetKana":"ﾀﾙﾓﾄ(ｿﾉﾀ)","prefecture":"新潟県","city":"妙高市","street":"樽本（その他）"},{"zipCode":"9492201","prefectureKana":"ﾆｲｶﾞﾀｹﾝ","cityKana":"ﾐｮｳｺｳｼ","streetKana":"ﾃﾗｵ","prefecture":"新潟県","city":"妙高市","street":"寺尾"},{"zipCode":"9492222","prefectureKana":"ﾆｲｶﾞﾀｹﾝ","cityKana":"ﾐｮｳｺｳｼ","streetKana":"ﾄﾞﾛ","prefecture":"新潟県","city":"妙高市","street":"土路"},{"zipCode":"9492214","prefectureKana":"ﾆｲｶﾞﾀｹﾝ","cityKana":"ﾐｮｳｺｳｼ","streetKana":"ﾅｶｼﾞﾏｼﾝﾃﾞﾝ","prefecture":"新潟県","city":"妙高市","street":"中島新田"},{"zipCode":"9492204","prefectureKana":"ﾆｲｶﾞﾀｹﾝ","cityKana":"ﾐｮｳｺｳｼ","streetKana":"ﾅｶﾊﾞﾗｼﾝﾃﾞﾝ","prefecture":"新潟県","city":"妙高市","street":"中原新田"},{"zipCode":"9492206","prefectureKana":"ﾆｲｶﾞﾀｹﾝ","cityKana":"ﾐｮｳｺｳｼ","streetKana":"ﾆｼﾀﾔｼﾝﾃﾞﾝ","prefecture":"新潟県","city":"妙高市","street":"西田屋新田"},{"zipCode":"9492215","prefectureKana":"ﾆｲｶﾞﾀｹﾝ","cityKana":"ﾐｮｳｺｳｼ","streetKana":"ﾊｼﾓﾄｼﾝﾃﾞﾝ","prefecture":"新潟県","city":"妙高市","street":"橋本新田"},{"zipCode":"9492218","prefectureKana":"ﾆｲｶﾞﾀｹﾝ","cityKana":"ﾐｮｳｺｳｼ","streetKana":"ﾊﾅﾌﾞｻ","prefecture":"新潟県","city":"妙高市","street":"花房"},{"zipCode":"9492219","prefectureKana":"ﾆｲｶﾞﾀｹﾝ","cityKana":"ﾐｮｳｺｳｼ","streetKana":"ﾊﾗﾄﾞｵﾘ","prefecture":"新潟県","city":"妙高市","street":"原通"},{"zipCode":"9492213","prefectureKana":"ﾆｲｶﾞﾀｹﾝ","cityKana":"ﾐｮｳｺｳｼ","streetKana":"ﾋｶﾞｼﾀﾔｼﾝﾃﾞﾝ","prefecture":"新潟県","city":"妙高市","street":"東田屋新田"},{"zipCode":"9492217","prefectureKana":"ﾆｲｶﾞﾀｹﾝ","cityKana":"ﾐｮｳｺｳｼ","streetKana":"ﾋｶﾞｼﾌｸﾀﾞｼﾝﾃﾞﾝ","prefecture":"新潟県","city":"妙高市","street":"東福田新田"},{"zipCode":"9492216","prefectureKana":"ﾆｲｶﾞﾀｹﾝ","cityKana":"ﾐｮｳｺｳｼ","streetKana":"ﾋｶﾞｼﾖﾂﾔｼﾝﾃﾞﾝ","prefecture":"新潟県","city":"妙高市","street":"東四ツ屋新田"},{"zipCode":"9492101","prefectureKana":"ﾆｲｶﾞﾀｹﾝ","cityKana":"ﾐｮｳｺｳｼ","streetKana":"ﾌﾀﾏﾀ","prefecture":"新潟県","city":"妙高市","street":"二俣"},{"zipCode":"9492232","prefectureKana":"ﾆｲｶﾞﾀｹﾝ","cityKana":"ﾐｮｳｺｳｼ","streetKana":"ﾓｸﾞﾛｳ","prefecture":"新潟県","city":"妙高市","street":"葎生"},{"zipCode":"9492231","prefectureKana":"ﾆｲｶﾞﾀｹﾝ","cityKana":"ﾐｮｳｺｳｼ","streetKana":"ﾖﾈｼﾞﾏｼﾝﾃﾞﾝ","prefecture":"新潟県","city":"妙高市","street":"米島新田"},{"zipCode":"9491702","prefectureKana":"ﾆｲｶﾞﾀｹﾝ","cityKana":"ｼﾞｮｳｴﾂｼ","streetKana":"ｱﾘﾏｶﾞﾜ","prefecture":"新潟県","city":"上越市","street":"有間川"},{"zipCode":"9491723","prefectureKana":"ﾆｲｶﾞﾀｹﾝ","cityKana":"ｼﾞｮｳｴﾂｼ","streetKana":"ｵｲｹ","prefecture":"新潟県","city":"上越市","street":"小池"},{"zipCode":"9491724","prefectureKana":"ﾆｲｶﾞﾀｹﾝ","cityKana":"ｼﾞｮｳｴﾂｼ","streetKana":"ｵｲｹｼﾝﾃﾞﾝ","prefecture":"新潟県","city":"上越市","street":"小池新田"},{"zipCode":"9493134","prefectureKana":"ﾆｲｶﾞﾀｹﾝ","cityKana":"ｼﾞｮｳｴﾂｼ","streetKana":"ｵｵｶﾞﾀｸｲｽﾞﾐｼﾝﾃﾞﾝ","prefecture":"新潟県","city":"上越市","street":"大潟区和泉新田"},{"zipCode":"9493122","prefectureKana":"ﾆｲｶﾞﾀｹﾝ","cityKana":"ｼﾞｮｳｴﾂｼ","streetKana":"ｵｵｶﾞﾀｸｲﾜﾉｺｼﾝﾃﾞﾝ","prefecture":"新潟県","city":"上越市","street":"大潟区岩野古新田"},{"zipCode":"9493135","prefectureKana":"ﾆｲｶﾞﾀｹﾝ","cityKana":"ｼﾞｮｳｴﾂｼ","streetKana":"ｵｵｶﾞﾀｸｳﾁｶﾞﾝｺﾞ","prefecture":"新潟県","city":"上越市","street":"大潟区内雁子"},{"zipCode":"9493136","prefectureKana":"ﾆｲｶﾞﾀｹﾝ","cityKana":"ｼﾞｮｳｴﾂｼ","streetKana":"ｵｵｶﾞﾀｸｳﾁｶﾞﾝｺﾞｼﾝﾃﾞﾝ","prefecture":"新潟県","city":"上越市","street":"大潟区内雁子新田"},{"zipCode":"9493121","prefectureKana":"ﾆｲｶﾞﾀｹﾝ","cityKana":"ｼﾞｮｳｴﾂｼ","streetKana":"ｵｵｶﾞﾀｸｶﾀﾀﾞ","prefecture":"新潟県","city":"上越市","street":"大潟区潟田"},{"zipCode":"9493103","prefectureKana":"ﾆｲｶﾞﾀｹﾝ","cityKana":"ｼﾞｮｳｴﾂｼ","streetKana":"ｵｵｶﾞﾀｸｶﾀﾏﾁ","prefecture":"新潟県","city":"上越市","street":"大潟区潟町"},{"zipCode":"9493137","prefectureKana":"ﾆｲｶﾞﾀｹﾝ","cityKana":"ｼﾞｮｳｴﾂｼ","streetKana":"ｵｵｶﾞﾀｸｶﾀﾓﾘｼﾝﾃﾞﾝ(ｿﾉﾀ)","prefecture":"新潟県","city":"上越市","street":"大潟区潟守新田（その他）"},{"zipCode":"9493114","prefectureKana":"ﾆｲｶﾞﾀｹﾝ","cityKana":"ｼﾞｮｳｴﾂｼ","streetKana":"ｵｵｶﾞﾀｸｶﾐｺﾌﾞﾅﾂﾊﾏ","prefecture":"新潟県","city":"上越市","street":"大潟区上小船津浜"},{"zipCode":"9493101","prefectureKana":"ﾆｲｶﾞﾀｹﾝ","cityKana":"ｼﾞｮｳｴﾂｼ","streetKana":"ｵｵｶﾞﾀｸｶﾞﾝｺﾊﾏ","prefecture":"新潟県","city":"上越市","street":"大潟区雁子浜"},{"zipCode":"9493102","prefectureKana":"ﾆｲｶﾞﾀｹﾝ","cityKana":"ｼﾞｮｳｴﾂｼ","streetKana":"ｵｵｶﾞﾀｸｸﾄﾞﾊﾏ","prefecture":"新潟県","city":"上越市","street":"大潟区九戸浜"},{"zipCode":"9493117","prefectureKana":"ﾆｲｶﾞﾀｹﾝ","cityKana":"ｼﾞｮｳｴﾂｼ","streetKana":"ｵｵｶﾞﾀｸｸﾓｶﾞｲｹ","prefecture":"新潟県","city":"上越市","street":"大潟区蜘ケ池"},{"zipCode":"9493116","prefectureKana":"ﾆｲｶﾞﾀｹﾝ","cityKana":"ｼﾞｮｳｴﾂｼ","streetKana":"ｵｵｶﾞﾀｸｻｲｶﾞﾀ","prefecture":"新潟県","city":"上越市","street":"大潟区犀潟"},{"zipCode":"9493131","prefectureKana":"ﾆｲｶﾞﾀｹﾝ","cityKana":"ｼﾞｮｳｴﾂｼ","streetKana":"ｵｵｶﾞﾀｸｻﾄｳｼﾞﾏｼﾝﾃﾞﾝ","prefecture":"新潟県","city":"上越市","street":"大潟区里鵜島新田"},{"zipCode":"9493115","prefectureKana":"ﾆｲｶﾞﾀｹﾝ","cityKana":"ｼﾞｮｳｴﾂｼ","streetKana":"ｵｵｶﾞﾀｸｼﾌﾞｶｷﾊﾏ","prefecture":"新潟県","city":"上越市","street":"大潟区渋柿浜"},{"zipCode":"9493113","prefectureKana":"ﾆｲｶﾞﾀｹﾝ","cityKana":"ｼﾞｮｳｴﾂｼ","streetKana":"ｵｵｶﾞﾀｸｼﾓｺﾌﾞﾅﾂﾊﾏ","prefecture":"新潟県","city":"上越市","street":"大潟区下小船津浜"},{"zipCode":"9493133","prefectureKana":"ﾆｲｶﾞﾀｹﾝ","cityKana":"ｼﾞｮｳｴﾂｼ","streetKana":"ｵｵｶﾞﾀｸﾀｶﾊｼｼﾝﾃﾞﾝ","prefecture":"新潟県","city":"上越市","street":"大潟区高橋新田"},{"zipCode":"9493112","prefectureKana":"ﾆｲｶﾞﾀｹﾝ","cityKana":"ｼﾞｮｳｴﾂｼ","streetKana":"ｵｵｶﾞﾀｸﾄﾞｿｺﾊﾏ","prefecture":"新潟県","city":"上越市","street":"大潟区土底浜"},{"zipCode":"9493123","prefectureKana":"ﾆｲｶﾞﾀｹﾝ","cityKana":"ｼﾞｮｳｴﾂｼ","streetKana":"ｵｵｶﾞﾀｸﾅｶﾞｻｷ","prefecture":"新潟県","city":"上越市","street":"大潟区長崎"},{"zipCode":"9493125","prefectureKana":"ﾆｲｶﾞﾀｹﾝ","cityKana":"ｼﾞｮｳｴﾂｼ","streetKana":"ｵｵｶﾞﾀｸﾔﾏｳｼﾞﾏｼﾝﾃﾞﾝ","prefecture":"新潟県","city":"上越市","street":"大潟区山鵜島新田"},{"zipCode":"9493124","prefectureKana":"ﾆｲｶﾞﾀｹﾝ","cityKana":"ｼﾞｮｳｴﾂｼ","streetKana":"ｵｵｶﾞﾀｸﾖｼｻﾞｷｼﾝﾃﾞﾝ","prefecture":"新潟県","city":"上越市","street":"大潟区吉崎新田"},{"zipCode":"9493111","prefectureKana":"ﾆｲｶﾞﾀｹﾝ","cityKana":"ｼﾞｮｳｴﾂｼ","streetKana":"ｵｵｶﾞﾀｸﾖﾂﾔﾊﾏ","prefecture":"新潟県","city":"上越市","street":"大潟区四ツ屋浜"},{"zipCode":"9493132","prefectureKana":"ﾆｲｶﾞﾀｹﾝ","cityKana":"ｼﾞｮｳｴﾂｼ","streetKana":"ｵｵｶﾞﾀｸﾖﾈｸﾞﾗｼﾝﾃﾞﾝ","prefecture":"新潟県","city":"上越市","street":"大潟区米倉新田"},{"zipCode":"9491733","prefectureKana":"ﾆｲｶﾞﾀｹﾝ","cityKana":"ｼﾞｮｳｴﾂｼ","streetKana":"ｵｵﾌﾞﾁ","prefecture":"新潟県","city":"上越市","street":"大渕"},{"zipCode":"9493363","prefectureKana":"ﾆｲｶﾞﾀｹﾝ","cityKana":"ｼﾞｮｳｴﾂｼ","streetKana":"ｶｷｻﾞｷｸｱｻﾋﾀﾞｲﾗ","prefecture":"新潟県","city":"上越市","street":"柿崎区旭平"},{"zipCode":"9493236","prefectureKana":"ﾆｲｶﾞﾀｹﾝ","cityKana":"ｼﾞｮｳｴﾂｼ","streetKana":"ｶｷｻﾞｷｸｱﾐﾀﾞｾ","prefecture":"新潟県","city":"上越市","street":"柿崎区阿弥陀瀬"},{"zipCode":"9493374","prefectureKana":"ﾆｲｶﾞﾀｹﾝ","cityKana":"ｼﾞｮｳｴﾂｼ","streetKana":"ｶｷｻﾞｷｸｲﾓﾉｼﾏ","prefecture":"新潟県","city":"上越市","street":"柿崎区芋島"},{"zipCode":"9493376","prefectureKana":"ﾆｲｶﾞﾀｹﾝ","cityKana":"ｼﾞｮｳｴﾂｼ","streetKana":"ｶｷｻﾞｷｸｲﾜﾃﾞ","prefecture":"新潟県","city":"上越市","street":"柿崎区岩手"},{"zipCode":"9493378","prefectureKana":"ﾆｲｶﾞﾀｹﾝ","cityKana":"ｼﾞｮｳｴﾂｼ","streetKana":"ｶｷｻﾞｷｸｲﾜﾉ","prefecture":"新潟県","city":"上越市","street":"柿崎区岩野"},{"zipCode":"9493253","prefectureKana":"ﾆｲｶﾞﾀｹﾝ","cityKana":"ｼﾞｮｳｴﾂｼ","streetKana":"ｶｷｻﾞｷｸｴｼﾞﾏｼﾝﾃﾞﾝ","prefecture":"新潟県","city":"上越市","street":"柿崎区江島新田"},{"zipCode":"9493221","prefectureKana":"ﾆｲｶﾞﾀｹﾝ","cityKana":"ｼﾞｮｳｴﾂｼ","streetKana":"ｶｷｻﾞｷｸｵｶﾞﾔ","prefecture":"新潟県","city":"上越市","street":"柿崎区小萱"},{"zipCode":"9493235","prefectureKana":"ﾆｲｶﾞﾀｹﾝ","cityKana":"ｼﾞｮｳｴﾂｼ","streetKana":"ｶｷｻﾞｷｸｵｷﾞﾉﾀﾆ","prefecture":"新潟県","city":"上越市","street":"柿崎区荻谷"},{"zipCode":"9493246","prefectureKana":"ﾆｲｶﾞﾀｹﾝ","cityKana":"ｼﾞｮｳｴﾂｼ","streetKana":"ｶｷｻﾞｷｸｵﾁｱｲ","prefecture":"新潟県","city":"上越市","street":"柿崎区落合"},{"zipCode":"9493216","prefectureKana":"ﾆｲｶﾞﾀｹﾝ","cityKana":"ｼﾞｮｳｴﾂｼ","streetKana":"ｶｷｻﾞｷｸｶｷｻﾞｷ","prefecture":"新潟県","city":"上越市","street":"柿崎区柿崎"},{"zipCode":"9493225","prefectureKana":"ﾆｲｶﾞﾀｹﾝ","cityKana":"ｼﾞｮｳｴﾂｼ","streetKana":"ｶｷｻﾞｷｸｶﾅﾔ","prefecture":"新潟県","city":"上越市","street":"柿崎区金谷"},{"zipCode":"9493231","prefectureKana":"ﾆｲｶﾞﾀｹﾝ","cityKana":"ｼﾞｮｳｴﾂｼ","streetKana":"ｶｷｻﾞｷｸｶﾐｵﾉ","prefecture":"新潟県","city":"上越市","street":"柿崎区上小野"},{"zipCode":"9493243","prefectureKana":"ﾆｲｶﾞﾀｹﾝ","cityKana":"ｼﾞｮｳｴﾂｼ","streetKana":"ｶｷｻﾞｷｸｶﾐｶﾅﾊﾗ","prefecture":"新潟県","city":"上越市","street":"柿崎区上金原"},{"zipCode":"9493366","prefectureKana":"ﾆｲｶﾞﾀｹﾝ","cityKana":"ｼﾞｮｳｴﾂｼ","streetKana":"ｶｷｻﾞｷｸｶﾐﾅｶﾔﾏ","prefecture":"新潟県","city":"上越市","street":"柿崎区上中山"},{"zipCode":"9493252","prefectureKana":"ﾆｲｶﾞﾀｹﾝ","cityKana":"ｼﾞｮｳｴﾂｼ","streetKana":"ｶｷｻﾞｷｸｶﾐﾉｳﾐ","prefecture":"新潟県","city":"上越市","street":"柿崎区上直海"},{"zipCode":"9493213","prefectureKana":"ﾆｲｶﾞﾀｹﾝ","cityKana":"ｼﾞｮｳｴﾂｼ","streetKana":"ｶｷｻﾞｷｸｶﾜｲ","prefecture":"新潟県","city":"上越市","street":"柿崎区川井"},{"zipCode":"9493237","prefectureKana":"ﾆｲｶﾞﾀｹﾝ","cityKana":"ｼﾞｮｳｴﾂｼ","streetKana":"ｶｷｻﾞｷｸｶﾜﾀ","prefecture":"新潟県","city":"上越市","street":"柿崎区川田"},{"zipCode":"9493223","prefectureKana":"ﾆｲｶﾞﾀｹﾝ","cityKana":"ｼﾞｮｳｴﾂｼ","streetKana":"ｶｷｻﾞｷｸｶﾞﾝｶｲ","prefecture":"新潟県","city":"上越市","street":"柿崎区雁海"},{"zipCode":"9493245","prefectureKana":"ﾆｲｶﾞﾀｹﾝ","cityKana":"ｼﾞｮｳｴﾂｼ","streetKana":"ｶｷｻﾞｷｸｷﾞｮｳﾎｳ","prefecture":"新潟県","city":"上越市","street":"柿崎区行法"},{"zipCode":"9493362","prefectureKana":"ﾆｲｶﾞﾀｹﾝ","cityKana":"ｼﾞｮｳｴﾂｼ","streetKana":"ｶｷｻﾞｷｸｸﾛｲﾜ","prefecture":"新潟県","city":"上越市","street":"柿崎区黒岩"},{"zipCode":"9493251","prefectureKana":"ﾆｲｶﾞﾀｹﾝ","cityKana":"ｼﾞｮｳｴﾂｼ","streetKana":"ｶｷｻﾞｷｸｹﾞｼﾞｮｳ","prefecture":"新潟県","city":"上越市","street":"柿崎区下条"},{"zipCode":"9493254","prefectureKana":"ﾆｲｶﾞﾀｹﾝ","cityKana":"ｼﾞｮｳｴﾂｼ","streetKana":"ｶｷｻﾞｷｸｻｶﾀｼﾝﾃﾞﾝ","prefecture":"新潟県","city":"上越市","street":"柿崎区坂田新田"},{"zipCode":"9493242","prefectureKana":"ﾆｲｶﾞﾀｹﾝ","cityKana":"ｼﾞｮｳｴﾂｼ","streetKana":"ｶｷｻﾞｷｸｻｸﾗﾏﾁｼﾝﾃﾞﾝ","prefecture":"新潟県","city":"上越市","street":"柿崎区桜町新田"},{"zipCode":"9493367","prefectureKana":"ﾆｲｶﾞﾀｹﾝ","cityKana":"ｼﾞｮｳｴﾂｼ","streetKana":"ｶｷｻﾞｷｸｻﾙｹﾞ","prefecture":"新潟県","city":"上越市","street":"柿崎区猿毛"},{"zipCode":"9493232","prefectureKana":"ﾆｲｶﾞﾀｹﾝ","cityKana":"ｼﾞｮｳｴﾂｼ","streetKana":"ｶｷｻﾞｷｸｼﾓｵﾉ","prefecture":"新潟県","city":"上越市","street":"柿崎区下小野"},{"zipCode":"9493244","prefectureKana":"ﾆｲｶﾞﾀｹﾝ","cityKana":"ｼﾞｮｳｴﾂｼ","streetKana":"ｶｷｻﾞｷｸｼﾓｶﾅﾊﾗ","prefecture":"新潟県","city":"上越市","street":"柿崎区下金原"},{"zipCode":"9493226","prefectureKana":"ﾆｲｶﾞﾀｹﾝ","cityKana":"ｼﾞｮｳｴﾂｼ","streetKana":"ｶｷｻﾞｷｸｼﾓﾅｶﾔﾏ","prefecture":"新潟県","city":"上越市","street":"柿崎区下中山"},{"zipCode":"9493375","prefectureKana":"ﾆｲｶﾞﾀｹﾝ","cityKana":"ｼﾞｮｳｴﾂｼ","streetKana":"ｶｷｻﾞｷｸｼﾓﾊｲﾆﾜｼﾝﾃﾞﾝ","prefecture":"新潟県","city":"上越市","street":"柿崎区下灰庭新田"},{"zipCode":"9493371","prefectureKana":"ﾆｲｶﾞﾀｹﾝ","cityKana":"ｼﾞｮｳｴﾂｼ","streetKana":"ｶｷｻﾞｷｸｼﾓﾏｷ","prefecture":"新潟県","city":"上越市","street":"柿崎区下牧"},{"zipCode":"9493255","prefectureKana":"ﾆｲｶﾞﾀｹﾝ","cityKana":"ｼﾞｮｳｴﾂｼ","streetKana":"ｶｷｻﾞｷｸｼﾞｮｳｹﾞﾊﾏ","prefecture":"新潟県","city":"上越市","street":"柿崎区上下浜"},{"zipCode":"9493361","prefectureKana":"ﾆｲｶﾞﾀｹﾝ","cityKana":"ｼﾞｮｳｴﾂｼ","streetKana":"ｶｷｻﾞｷｸｼﾞｮｳﾉｺｼ","prefecture":"新潟県","city":"上越市","street":"柿崎区城腰"},{"zipCode":"9493234","prefectureKana":"ﾆｲｶﾞﾀｹﾝ","cityKana":"ｼﾞｮｳｴﾂｼ","streetKana":"ｶｷｻﾞｷｸﾀｶﾃﾗ","prefecture":"新潟県","city":"上越市","street":"柿崎区高寺"},{"zipCode":"9493377","prefectureKana":"ﾆｲｶﾞﾀｹﾝ","cityKana":"ｼﾞｮｳｴﾂｼ","streetKana":"ｶｷｻﾞｷｸﾀｶﾊﾞﾀｹ","prefecture":"新潟県","city":"上越市","street":"柿崎区高畑"},{"zipCode":"9493201","prefectureKana":"ﾆｲｶﾞﾀｹﾝ","cityKana":"ｼﾞｮｳｴﾂｼ","streetKana":"ｶｷｻﾞｷｸﾀｹｶﾞﾊﾅ","prefecture":"新潟県","city":"上越市","street":"柿崎区竹鼻"},{"zipCode":"9493247","prefectureKana":"ﾆｲｶﾞﾀｹﾝ","cityKana":"ｼﾞｮｳｴﾂｼ","streetKana":"ｶｷｻﾞｷｸﾂﾉﾄﾞﾘ","prefecture":"新潟県","city":"上越市","street":"柿崎区角取"},{"zipCode":"9493222","prefectureKana":"ﾆｲｶﾞﾀｹﾝ","cityKana":"ｼﾞｮｳｴﾂｼ","streetKana":"ｶｷｻﾞｷｸﾄﾁｸﾎﾞ","prefecture":"新潟県","city":"上越市","street":"柿崎区栃窪"},{"zipCode":"9493215","prefectureKana":"ﾆｲｶﾞﾀｹﾝ","cityKana":"ｼﾞｮｳｴﾂｼ","streetKana":"ｶｷｻﾞｷｸﾉｳﾐﾊﾏ","prefecture":"新潟県","city":"上越市","street":"柿崎区直海浜"},{"zipCode":"9493214","prefectureKana":"ﾆｲｶﾞﾀｹﾝ","cityKana":"ｼﾞｮｳｴﾂｼ","streetKana":"ｶｷｻﾞｷｸﾊﾞｼｮｳﾒﾝ","prefecture":"新潟県","city":"上越市","street":"柿崎区馬正面"},{"zipCode":"9493224","prefectureKana":"ﾆｲｶﾞﾀｹﾝ","cityKana":"ｼﾞｮｳｴﾂｼ","streetKana":"ｶｷｻﾞｷｸﾋｶﾞｼﾔﾁ","prefecture":"新潟県","city":"上越市","street":"柿崎区東谷内"},{"zipCode":"9493364","prefectureKana":"ﾆｲｶﾞﾀｹﾝ","cityKana":"ｼﾞｮｳｴﾂｼ","streetKana":"ｶｷｻﾞｷｸﾋｶﾞｼﾖｺﾔﾏ","prefecture":"新潟県","city":"上越市","street":"柿崎区東横山"},{"zipCode":"9493379","prefectureKana":"ﾆｲｶﾞﾀｹﾝ","cityKana":"ｼﾞｮｳｴﾂｼ","streetKana":"ｶｷｻﾞｷｸﾋﾗｻﾜ","prefecture":"新潟県","city":"上越市","street":"柿崎区平沢"},{"zipCode":"9493373","prefectureKana":"ﾆｲｶﾞﾀｹﾝ","cityKana":"ｼﾞｮｳｴﾂｼ","streetKana":"ｶｷｻﾞｷｸﾍﾞｲｻﾝｼﾞ","prefecture":"新潟県","city":"上越市","street":"柿崎区米山寺"},{"zipCode":"9493211","prefectureKana":"ﾆｲｶﾞﾀｹﾝ","cityKana":"ｼﾞｮｳｴﾂｼ","streetKana":"ｶｷｻﾞｷｸﾎｳｵﾝｼﾞ","prefecture":"新潟県","city":"上越市","street":"柿崎区法音寺"},{"zipCode":"9493365","prefectureKana":"ﾆｲｶﾞﾀｹﾝ","cityKana":"ｼﾞｮｳｴﾂｼ","streetKana":"ｶｷｻﾞｷｸﾏﾂﾄﾞﾒ","prefecture":"新潟県","city":"上越市","street":"柿崎区松留"},{"zipCode":"9493372","prefectureKana":"ﾆｲｶﾞﾀｹﾝ","cityKana":"ｼﾞｮｳｴﾂｼ","streetKana":"ｶｷｻﾞｷｸﾐｽﾞﾉ","prefecture":"新潟県","city":"上越市","street":"柿崎区水野"},{"zipCode":"9493256","prefectureKana":"ﾆｲｶﾞﾀｹﾝ","cityKana":"ｼﾞｮｳｴﾂｼ","streetKana":"ｶｷｻﾞｷｸﾐﾂﾔﾊﾏ","prefecture":"新潟県","city":"上越市","street":"柿崎区三ツ屋浜"},{"zipCode":"9493241","prefectureKana":"ﾆｲｶﾞﾀｹﾝ","cityKana":"ｼﾞｮｳｴﾂｼ","streetKana":"ｶｷｻﾞｷｸﾓﾓｷ","prefecture":"新潟県","city":"上越市","street":"柿崎区百木"},{"zipCode":"9493233","prefectureKana":"ﾆｲｶﾞﾀｹﾝ","cityKana":"ｼﾞｮｳｴﾂｼ","streetKana":"ｶｷｻﾞｷｸﾔﾅｶﾞｻｷ","prefecture":"新潟県","city":"上越市","street":"柿崎区柳ケ崎"},{"zipCode":"9493212","prefectureKana":"ﾆｲｶﾞﾀｹﾝ","cityKana":"ｼﾞｮｳｴﾂｼ","streetKana":"ｶｷｻﾞｷｸﾔﾏﾔ","prefecture":"新潟県","city":"上越市","street":"柿崎区山谷"},{"zipCode":"9491712","prefectureKana":"ﾆｲｶﾞﾀｹﾝ","cityKana":"ｼﾞｮｳｴﾂｼ","streetKana":"ｶｼﾞﾒﾝﾌﾞﾝ","prefecture":"新潟県","city":"上越市","street":"鍛冶免分"},{"zipCode":"9491741","prefectureKana":"ﾆｲｶﾞﾀｹﾝ","cityKana":"ｼﾞｮｳｴﾂｼ","streetKana":"ｶﾐﾂﾅｺﾞ","prefecture":"新潟県","city":"上越市","street":"上綱子"},{"zipCode":"9491736","prefectureKana":"ﾆｲｶﾞﾀｹﾝ","cityKana":"ｼﾞｮｳｴﾂｼ","streetKana":"ｷﾀﾀﾞﾆ","prefecture":"新潟県","city":"上越市","street":"北谷"},{"zipCode":"9491714","prefectureKana":"ﾆｲｶﾞﾀｹﾝ","cityKana":"ｼﾞｮｳｴﾂｼ","streetKana":"ｻﾝﾃﾞﾝ","prefecture":"新潟県","city":"上越市","street":"三伝"},{"zipCode":"9491721","prefectureKana":"ﾆｲｶﾞﾀｹﾝ","cityKana":"ｼﾞｮｳｴﾂｼ","streetKana":"ｼﾓﾂﾅｺﾞ","prefecture":"新潟県","city":"上越市","street":"下綱子"},{"zipCode":"9491726","prefectureKana":"ﾆｲｶﾞﾀｹﾝ","cityKana":"ｼﾞｮｳｴﾂｼ","streetKana":"ｽﾜﾌﾞﾝ","prefecture":"新潟県","city":"上越市","street":"諏訪分"},{"zipCode":"9491716","prefectureKana":"ﾆｲｶﾞﾀｹﾝ","cityKana":"ｼﾞｮｳｴﾂｼ","streetKana":"ﾀｶｽﾐ","prefecture":"新潟県","city":"上越市","street":"高住"},{"zipCode":"9491703","prefectureKana":"ﾆｲｶﾞﾀｹﾝ","cityKana":"ｼﾞｮｳｴﾂｼ","streetKana":"ﾀﾝﾊﾞﾗ","prefecture":"新潟県","city":"上越市","street":"丹原"},{"zipCode":"9491706","prefectureKana":"ﾆｲｶﾞﾀｹﾝ","cityKana":"ｼﾞｮｳｴﾂｼ","streetKana":"ﾁｬﾔｶﾞﾊﾗ","prefecture":"新潟県","city":"上越市","street":"茶屋ケ原"},{"zipCode":"9491735","prefectureKana":"ﾆｲｶﾞﾀｹﾝ","cityKana":"ｼﾞｮｳｴﾂｼ","streetKana":"ﾄﾞｸﾞﾁ","prefecture":"新潟県","city":"上越市","street":"土口"},{"zipCode":"9491715","prefectureKana":"ﾆｲｶﾞﾀｹﾝ","cityKana":"ｼﾞｮｳｴﾂｼ","streetKana":"ﾅｶｸﾜﾄﾞﾘ","prefecture":"新潟県","city":"上越市","street":"中桑取"},{"zipCode":"9492301","prefectureKana":"ﾆｲｶﾞﾀｹﾝ","cityKana":"ｼﾞｮｳｴﾂｼ","streetKana":"ﾅｶｺﾞｳｸｲﾀﾊﾞｼ","prefecture":"新潟県","city":"上越市","street":"中郷区板橋"},{"zipCode":"9492317","prefectureKana":"ﾆｲｶﾞﾀｹﾝ","cityKana":"ｼﾞｮｳｴﾂｼ","streetKana":"ﾅｶｺﾞｳｸｲﾁﾔ","prefecture":"新潟県","city":"上越市","street":"中郷区市屋"},{"zipCode":"9492315","prefectureKana":"ﾆｲｶﾞﾀｹﾝ","cityKana":"ｼﾞｮｳｴﾂｼ","streetKana":"ﾅｶｺﾞｳｸｲﾅﾘﾔﾏ","prefecture":"新潟県","city":"上越市","street":"中郷区稲荷山"},{"zipCode":"9492316","prefectureKana":"ﾆｲｶﾞﾀｹﾝ","cityKana":"ｼﾞｮｳｴﾂｼ","streetKana":"ﾅｶｺﾞｳｸｴｸﾞﾁ","prefecture":"新潟県","city":"上越市","street":"中郷区江口"},{"zipCode":"9492318","prefectureKana":"ﾆｲｶﾞﾀｹﾝ","cityKana":"ｼﾞｮｳｴﾂｼ","streetKana":"ﾅｶｺﾞｳｸｵｶｶﾜ","prefecture":"新潟県","city":"上越市","street":"中郷区岡川"},{"zipCode":"9492322","prefectureKana":"ﾆｲｶﾞﾀｹﾝ","cityKana":"ｼﾞｮｳｴﾂｼ","streetKana":"ﾅｶｺﾞｳｸｵｶｻﾞﾜ","prefecture":"新潟県","city":"上越市","street":"中郷区岡沢"},{"zipCode":"9492312","prefectureKana":"ﾆｲｶﾞﾀｹﾝ","cityKana":"ｼﾞｮｳｴﾂｼ","streetKana":"ﾅｶｺﾞｳｸｶﾀｶｲ","prefecture":"新潟県","city":"上越市","street":"中郷区片貝"},{"zipCode":"9492303","prefectureKana":"ﾆｲｶﾞﾀｹﾝ","cityKana":"ｼﾞｮｳｴﾂｼ","streetKana":"ﾅｶｺﾞｳｸｻｶﾓﾄ","prefecture":"新潟県","city":"上越市","street":"中郷区坂本"},{"zipCode":"9492304","prefectureKana":"ﾆｲｶﾞﾀｹﾝ","cityKana":"ｼﾞｮｳｴﾂｼ","streetKana":"ﾅｶｺﾞｳｸﾆﾎﾝｷﾞ","prefecture":"新潟県","city":"上越市","street":"中郷区二本木"},{"zipCode":"9492306","prefectureKana":"ﾆｲｶﾞﾀｹﾝ","cityKana":"ｼﾞｮｳｴﾂｼ","streetKana":"ﾅｶｺﾞｳｸﾊﾂﾄｳﾏｷ","prefecture":"新潟県","city":"上越市","street":"中郷区八斗蒔"},{"zipCode":"9492313","prefectureKana":"ﾆｲｶﾞﾀｹﾝ","cityKana":"ｼﾞｮｳｴﾂｼ","streetKana":"ﾅｶｺﾞｳｸﾌｸｻﾞｷ","prefecture":"新潟県","city":"上越市","street":"中郷区福崎"},{"zipCode":"9492321","prefectureKana":"ﾆｲｶﾞﾀｹﾝ","cityKana":"ｼﾞｮｳｴﾂｼ","streetKana":"ﾅｶｺﾞｳｸﾌｸﾀﾞ","prefecture":"新潟県","city":"上越市","street":"中郷区福田"},{"zipCode":"9492302","prefectureKana":"ﾆｲｶﾞﾀｹﾝ","cityKana":"ｼﾞｮｳｴﾂｼ","streetKana":"ﾅｶｺﾞｳｸﾌｼﾞｻﾜ","prefecture":"新潟県","city":"上越市","street":"中郷区藤沢"},{"zipCode":"9492311","prefectureKana":"ﾆｲｶﾞﾀｹﾝ","cityKana":"ｼﾞｮｳｴﾂｼ","streetKana":"ﾅｶｺﾞｳｸﾏﾂｻﾞｷ","prefecture":"新潟県","city":"上越市","street":"中郷区松崎"},{"zipCode":"9492314","prefectureKana":"ﾆｲｶﾞﾀｹﾝ","cityKana":"ｼﾞｮｳｴﾂｼ","streetKana":"ﾅｶｺﾞｳｸﾐﾔﾉﾊﾗ","prefecture":"新潟県","city":"上越市","street":"中郷区宮野原"},{"zipCode":"9492305","prefectureKana":"ﾆｲｶﾞﾀｹﾝ","cityKana":"ｼﾞｮｳｴﾂｼ","streetKana":"ﾅｶｺﾞｳｸﾖﾂﾔ","prefecture":"新潟県","city":"上越市","street":"中郷区四ツ屋"},{"zipCode":"9491742","prefectureKana":"ﾆｲｶﾞﾀｹﾝ","cityKana":"ｼﾞｮｳｴﾂｼ","streetKana":"ﾅｶﾉﾏﾀ","prefecture":"新潟県","city":"上越市","street":"中ノ俣"},{"zipCode":"9491701","prefectureKana":"ﾆｲｶﾞﾀｹﾝ","cityKana":"ｼﾞｮｳｴﾂｼ","streetKana":"ﾅｶﾞﾊﾏ","prefecture":"新潟県","city":"上越市","street":"長浜"},{"zipCode":"9491604","prefectureKana":"ﾆｲｶﾞﾀｹﾝ","cityKana":"ｼﾞｮｳｴﾂｼ","streetKana":"ﾅﾀﾞﾁｸｱｶﾉﾏﾀ","prefecture":"新潟県","city":"上越市","street":"名立区赤野俣"},{"zipCode":"9491616","prefectureKana":"ﾆｲｶﾞﾀｹﾝ","cityKana":"ｼﾞｮｳｴﾂｼ","streetKana":"ﾅﾀﾞﾁｸｲｹﾀﾞ","prefecture":"新潟県","city":"上越市","street":"名立区池田"},{"zipCode":"9491605","prefectureKana":"ﾆｲｶﾞﾀｹﾝ","cityKana":"ｼﾞｮｳｴﾂｼ","streetKana":"ﾅﾀﾞﾁｸｵｵｽｶﾞ","prefecture":"新潟県","city":"上越市","street":"名立区大菅"},{"zipCode":"9491622","prefectureKana":"ﾆｲｶﾞﾀｹﾝ","cityKana":"ｼﾞｮｳｴﾂｼ","streetKana":"ﾅﾀﾞﾁｸｵﾀﾞｼﾞﾏ","prefecture":"新潟県","city":"上越市","street":"名立区小田島"},{"zipCode":"9491614","prefectureKana":"ﾆｲｶﾞﾀｹﾝ","cityKana":"ｼﾞｮｳｴﾂｼ","streetKana":"ﾅﾀﾞﾁｸｵﾘｲ","prefecture":"新潟県","city":"上越市","street":"名立区折居"},{"zipCode":"9491621","prefectureKana":"ﾆｲｶﾞﾀｹﾝ","cityKana":"ｼﾞｮｳｴﾂｼ","streetKana":"ﾅﾀﾞﾁｸｵﾘﾄ","prefecture":"新潟県","city":"上越市","street":"名立区折戸"},{"zipCode":"9491618","prefectureKana":"ﾆｲｶﾞﾀｹﾝ","cityKana":"ｼﾞｮｳｴﾂｼ","streetKana":"ﾅﾀﾞﾁｸｶﾂﾗﾀﾞﾆ","prefecture":"新潟県","city":"上越市","street":"名立区桂谷"},{"zipCode":"9491607","prefectureKana":"ﾆｲｶﾞﾀｹﾝ","cityKana":"ｼﾞｮｳｴﾂｼ","streetKana":"ﾅﾀﾞﾁｸｸﾙﾏｼﾞ","prefecture":"新潟県","city":"上越市","street":"名立区車路"},{"zipCode":"9491611","prefectureKana":"ﾆｲｶﾞﾀｹﾝ","cityKana":"ｼﾞｮｳｴﾂｼ","streetKana":"ﾅﾀﾞﾁｸｽｷﾞﾉｾ","prefecture":"新潟県","city":"上越市","street":"名立区杉野瀬"},{"zipCode":"9491625","prefectureKana":"ﾆｲｶﾞﾀｹﾝ","cityKana":"ｼﾞｮｳｴﾂｼ","streetKana":"ﾅﾀﾞﾁｸｾﾄ","prefecture":"新潟県","city":"上越市","street":"名立区瀬戸"},{"zipCode":"9491608","prefectureKana":"ﾆｲｶﾞﾀｹﾝ","cityKana":"ｼﾞｮｳｴﾂｼ","streetKana":"ﾅﾀﾞﾁｸﾀｲﾊﾞﾀｹ","prefecture":"新潟県","city":"上越市","street":"名立区躰畑"},{"zipCode":"9491606","prefectureKana":"ﾆｲｶﾞﾀｹﾝ","cityKana":"ｼﾞｮｳｴﾂｼ","streetKana":"ﾅﾀﾞﾁｸﾀﾆｸﾞﾁ","prefecture":"新潟県","city":"上越市","street":"名立区谷口"},{"zipCode":"9491609","prefectureKana":"ﾆｲｶﾞﾀｹﾝ","cityKana":"ｼﾞｮｳｴﾂｼ","streetKana":"ﾅﾀﾞﾁｸﾀﾉｳｴ","prefecture":"新潟県","city":"上越市","street":"名立区田野上"},{"zipCode":"9491603","prefectureKana":"ﾆｲｶﾞﾀｹﾝ","cityKana":"ｼﾞｮｳｴﾂｼ","streetKana":"ﾅﾀﾞﾁｸﾂﾎﾞﾔﾏ","prefecture":"新潟県","city":"上越市","street":"名立区坪山"},{"zipCode":"9491615","prefectureKana":"ﾆｲｶﾞﾀｹﾝ","cityKana":"ｼﾞｮｳｴﾂｼ","streetKana":"ﾅﾀﾞﾁｸﾄｳｹﾞ","prefecture":"新潟県","city":"上越市","street":"名立区峠"},{"zipCode":"9491602","prefectureKana":"ﾆｲｶﾞﾀｹﾝ","cityKana":"ｼﾞｮｳｴﾂｼ","streetKana":"ﾅﾀﾞﾁｸﾅﾀﾞﾁｵｵﾏﾁ","prefecture":"新潟県","city":"上越市","street":"名立区名立大町"},{"zipCode":"9491601","prefectureKana":"ﾆｲｶﾞﾀｹﾝ","cityKana":"ｼﾞｮｳｴﾂｼ","streetKana":"ﾅﾀﾞﾁｸﾅﾀﾞﾁｺﾄﾞﾏﾘ","prefecture":"新潟県","city":"上越市","street":"名立区名立小泊"},{"zipCode":"9491613","prefectureKana":"ﾆｲｶﾞﾀｹﾝ","cityKana":"ｼﾞｮｳｴﾂｼ","streetKana":"ﾅﾀﾞﾁｸﾆｺﾞﾘｻﾜ","prefecture":"新潟県","city":"上越市","street":"名立区濁沢"},{"zipCode":"9491624","prefectureKana":"ﾆｲｶﾞﾀｹﾝ","cityKana":"ｼﾞｮｳｴﾂｼ","streetKana":"ﾅﾀﾞﾁｸﾆｼｶﾓｳﾀﾞ","prefecture":"新潟県","city":"上越市","street":"名立区西蒲生田"},{"zipCode":"9491623","prefectureKana":"ﾆｲｶﾞﾀｹﾝ","cityKana":"ｼﾞｮｳｴﾂｼ","streetKana":"ﾅﾀﾞﾁｸﾋｶﾞｼｶﾓｳﾀﾞ","prefecture":"新潟県","city":"上越市","street":"名立区東蒲生田"},{"zipCode":"9491626","prefectureKana":"ﾆｲｶﾞﾀｹﾝ","cityKana":"ｼﾞｮｳｴﾂｼ","streetKana":"ﾅﾀﾞﾁｸﾋｶﾞｼﾋﾔﾏ","prefecture":"新潟県","city":"上越市","street":"名立区東飛山"},{"zipCode":"9491619","prefectureKana":"ﾆｲｶﾞﾀｹﾝ","cityKana":"ｼﾞｮｳｴﾂｼ","streetKana":"ﾅﾀﾞﾁｸﾋﾗﾀﾆ","prefecture":"新潟県","city":"上越市","street":"名立区平谷"},{"zipCode":"9491612","prefectureKana":"ﾆｲｶﾞﾀｹﾝ","cityKana":"ｼﾞｮｳｴﾂｼ","streetKana":"ﾅﾀﾞﾁｸﾏﾙﾀﾞ","prefecture":"新潟県","city":"上越市","street":"名立区丸田"},{"zipCode":"9491617","prefectureKana":"ﾆｲｶﾞﾀｹﾝ","cityKana":"ｼﾞｮｳｴﾂｼ","streetKana":"ﾅﾀﾞﾁｸﾓﾘ","prefecture":"新潟県","city":"上越市","street":"名立区森"},{"zipCode":"9491704","prefectureKana":"ﾆｲｶﾞﾀｹﾝ","cityKana":"ｼﾞｮｳｴﾂｼ","streetKana":"ﾅﾍﾞｶﾞｳﾗ","prefecture":"新潟県","city":"上越市","street":"鍋ケ浦"},{"zipCode":"9491711","prefectureKana":"ﾆｲｶﾞﾀｹﾝ","cityKana":"ｼﾞｮｳｴﾂｼ","streetKana":"ﾆｼﾄﾉ","prefecture":"新潟県","city":"上越市","street":"西戸野"},{"zipCode":"9491725","prefectureKana":"ﾆｲｶﾞﾀｹﾝ","cityKana":"ｼﾞｮｳｴﾂｼ","streetKana":"ﾆｼﾄﾘｺﾞｴ","prefecture":"新潟県","city":"上越市","street":"西鳥越"},{"zipCode":"9491737","prefectureKana":"ﾆｲｶﾞﾀｹﾝ","cityKana":"ｼﾞｮｳｴﾂｼ","streetKana":"ﾆｼﾔﾁ","prefecture":"新潟県","city":"上越市","street":"西谷内"},{"zipCode":"9491722","prefectureKana":"ﾆｲｶﾞﾀｹﾝ","cityKana":"ｼﾞｮｳｴﾂｼ","streetKana":"ﾆｼﾔﾏﾃﾞﾗ","prefecture":"新潟県","city":"上越市","street":"西山寺"},{"zipCode":"9491727","prefectureKana":"ﾆｲｶﾞﾀｹﾝ","cityKana":"ｼﾞｮｳｴﾂｼ","streetKana":"ﾆｼﾖｺﾔﾏ","prefecture":"新潟県","city":"上越市","street":"西横山"},{"zipCode":"9491731","prefectureKana":"ﾆｲｶﾞﾀｹﾝ","cityKana":"ｼﾞｮｳｴﾂｼ","streetKana":"ﾆｼﾖｼｵ","prefecture":"新潟県","city":"上越市","street":"西吉尾"},{"zipCode":"9491713","prefectureKana":"ﾆｲｶﾞﾀｹﾝ","cityKana":"ｼﾞｮｳｴﾂｼ","streetKana":"ﾊﾅﾀﾃ","prefecture":"新潟県","city":"上越市","street":"花立"},{"zipCode":"9491732","prefectureKana":"ﾆｲｶﾞﾀｹﾝ","cityKana":"ｼﾞｮｳｴﾂｼ","streetKana":"ﾋｶﾞｼﾖｼｵ","prefecture":"新潟県","city":"上越市","street":"東吉尾"},{"zipCode":"9491734","prefectureKana":"ﾆｲｶﾞﾀｹﾝ","cityKana":"ｼﾞｮｳｴﾂｼ","streetKana":"ﾏｽｻﾞﾜ","prefecture":"新潟県","city":"上越市","street":"増沢"},{"zipCode":"9491738","prefectureKana":"ﾆｲｶﾞﾀｹﾝ","cityKana":"ｼﾞｮｳｴﾂｼ","streetKana":"ﾐﾅｸﾁ","prefecture":"新潟県","city":"上越市","street":"皆口"},{"zipCode":"9491739","prefectureKana":"ﾆｲｶﾞﾀｹﾝ","cityKana":"ｼﾞｮｳｴﾂｼ","streetKana":"ﾖｺﾊﾞﾀｹ","prefecture":"新潟県","city":"上越市","street":"横畑"},{"zipCode":"9491705","prefectureKana":"ﾆｲｶﾞﾀｹﾝ","cityKana":"ｼﾞｮｳｴﾂｼ","streetKana":"ﾖｼｳﾗ","prefecture":"新潟県","city":"上越市","street":"吉浦"},{"zipCode":"9493408","prefectureKana":"ﾆｲｶﾞﾀｹﾝ","cityKana":"ｼﾞｮｳｴﾂｼ","streetKana":"ﾖｼｶﾜｸｱｶｻﾜ","prefecture":"新潟県","city":"上越市","street":"吉川区赤沢"},{"zipCode":"9493554","prefectureKana":"ﾆｲｶﾞﾀｹﾝ","cityKana":"ｼﾞｮｳｴﾂｼ","streetKana":"ﾖｼｶﾜｸｲｼﾀﾞﾆ","prefecture":"新潟県","city":"上越市","street":"吉川区石谷"},{"zipCode":"9493409","prefectureKana":"ﾆｲｶﾞﾀｹﾝ","cityKana":"ｼﾞｮｳｴﾂｼ","streetKana":"ﾖｼｶﾜｸｲｽﾞﾐ","prefecture":"新潟県","city":"上越市","street":"吉川区泉"},{"zipCode":"9493412","prefectureKana":"ﾆｲｶﾞﾀｹﾝ","cityKana":"ｼﾞｮｳｴﾂｼ","streetKana":"ﾖｼｶﾜｸｲｽﾞﾐﾀﾞﾆ","prefecture":"新潟県","city":"上越市","street":"吉川区泉谷"},{"zipCode":"9493421","prefectureKana":"ﾆｲｶﾞﾀｹﾝ","cityKana":"ｼﾞｮｳｴﾂｼ","streetKana":"ﾖｼｶﾜｸｲﾘｺｳｿﾞｳ","prefecture":"新潟県","city":"上越市","street":"吉川区入河沢"},{"zipCode":"9493564","prefectureKana":"ﾆｲｶﾞﾀｹﾝ","cityKana":"ｼﾞｮｳｴﾂｼ","streetKana":"ﾖｼｶﾜｸｲﾜｻﾜ","prefecture":"新潟県","city":"上越市","street":"吉川区岩沢"},{"zipCode":"9493563","prefectureKana":"ﾆｲｶﾞﾀｹﾝ","cityKana":"ｼﾞｮｳｴﾂｼ","streetKana":"ﾖｼｶﾜｸｵｵｶﾞ","prefecture":"新潟県","city":"上越市","street":"吉川区大賀"},{"zipCode":"9493552","prefectureKana":"ﾆｲｶﾞﾀｹﾝ","cityKana":"ｼﾞｮｳｴﾂｼ","streetKana":"ﾖｼｶﾜｸｵｶﾐ","prefecture":"新潟県","city":"上越市","street":"吉川区尾神"},{"zipCode":"9493442","prefectureKana":"ﾆｲｶﾞﾀｹﾝ","cityKana":"ｼﾞｮｳｴﾂｼ","streetKana":"ﾖｼｶﾜｸｵﾅﾜｼﾛ","prefecture":"新潟県","city":"上越市","street":"吉川区小苗代"},{"zipCode":"9493402","prefectureKana":"ﾆｲｶﾞﾀｹﾝ","cityKana":"ｼﾞｮｳｴﾂｼ","streetKana":"ﾖｼｶﾜｸｵﾊﾞｶﾞｻﾜ","prefecture":"新潟県","city":"上越市","street":"吉川区伯母ケ沢"},{"zipCode":"9493437","prefectureKana":"ﾆｲｶﾞﾀｹﾝ","cityKana":"ｼﾞｮｳｴﾂｼ","streetKana":"ﾖｼｶﾜｸｶｼﾞ","prefecture":"新潟県","city":"上越市","street":"吉川区梶"},{"zipCode":"9493418","prefectureKana":"ﾆｲｶﾞﾀｹﾝ","cityKana":"ｼﾞｮｳｴﾂｼ","streetKana":"ﾖｼｶﾜｸｶﾀﾀ","prefecture":"新潟県","city":"上越市","street":"吉川区片田"},{"zipCode":"9493555","prefectureKana":"ﾆｲｶﾞﾀｹﾝ","cityKana":"ｼﾞｮｳｴﾂｼ","streetKana":"ﾖｼｶﾜｸｶﾐﾅｷﾞ","prefecture":"新潟県","city":"上越市","street":"吉川区上名木"},{"zipCode":"9493411","prefectureKana":"ﾆｲｶﾞﾀｹﾝ","cityKana":"ｼﾞｮｳｴﾂｼ","streetKana":"ﾖｼｶﾜｸｶﾜｻｷ","prefecture":"新潟県","city":"上越市","street":"吉川区川崎"},{"zipCode":"9493553","prefectureKana":"ﾆｲｶﾞﾀｹﾝ","cityKana":"ｼﾞｮｳｴﾂｼ","streetKana":"ﾖｼｶﾜｸｶﾜﾀﾞﾆ","prefecture":"新潟県","city":"上越市","street":"吉川区川谷"},{"zipCode":"9493438","prefectureKana":"ﾆｲｶﾞﾀｹﾝ","cityKana":"ｼﾞｮｳｴﾂｼ","streetKana":"ﾖｼｶﾜｸｶﾝﾀﾞﾏﾁ","prefecture":"新潟県","city":"上越市","street":"吉川区神田町"},{"zipCode":"9493427","prefectureKana":"ﾆｲｶﾞﾀｹﾝ","cityKana":"ｼﾞｮｳｴﾂｼ","streetKana":"ﾖｼｶﾜｸｹﾝﾎﾟｳｼﾞ","prefecture":"新潟県","city":"上越市","street":"吉川区顕法寺"},{"zipCode":"9493429","prefectureKana":"ﾆｲｶﾞﾀｹﾝ","cityKana":"ｼﾞｮｳｴﾂｼ","streetKana":"ﾖｼｶﾜｸｺｳｿﾞｳ","prefecture":"新潟県","city":"上越市","street":"吉川区河沢"},{"zipCode":"9493422","prefectureKana":"ﾆｲｶﾞﾀｹﾝ","cityKana":"ｼﾞｮｳｴﾂｼ","streetKana":"ﾖｼｶﾜｸｺｸﾀ","prefecture":"新潟県","city":"上越市","street":"吉川区国田"},{"zipCode":"9493401","prefectureKana":"ﾆｲｶﾞﾀｹﾝ","cityKana":"ｼﾞｮｳｴﾂｼ","streetKana":"ﾖｼｶﾜｸｺﾞｼｮｳｼﾞ","prefecture":"新潟県","city":"上越市","street":"吉川区後生寺"},{"zipCode":"9493565","prefectureKana":"ﾆｲｶﾞﾀｹﾝ","cityKana":"ｼﾞｮｳｴﾂｼ","streetKana":"ﾖｼｶﾜｸｺﾒﾔﾏ","prefecture":"新潟県","city":"上越市","street":"吉川区米山"},{"zipCode":"9493443","prefectureKana":"ﾆｲｶﾞﾀｹﾝ","cityKana":"ｼﾞｮｳｴﾂｼ","streetKana":"ﾖｼｶﾜｸｼﾀﾏﾁ","prefecture":"新潟県","city":"上越市","street":"吉川区下町"},{"zipCode":"9493428","prefectureKana":"ﾆｲｶﾞﾀｹﾝ","cityKana":"ｼﾞｮｳｴﾂｼ","streetKana":"ﾖｼｶﾜｸｼﾞｯﾁｮｳﾌﾞ","prefecture":"新潟県","city":"上越市","street":"吉川区十町歩"},{"zipCode":"9493406","prefectureKana":"ﾆｲｶﾞﾀｹﾝ","cityKana":"ｼﾞｮｳｴﾂｼ","streetKana":"ﾖｼｶﾜｸｼﾓｵｻﾞﾜ","prefecture":"新潟県","city":"上越市","street":"吉川区下小沢"},{"zipCode":"9493407","prefectureKana":"ﾆｲｶﾞﾀｹﾝ","cityKana":"ｼﾞｮｳｴﾂｼ","streetKana":"ﾖｼｶﾜｸｼﾓﾁｭｳｼﾞｮｳ","prefecture":"新潟県","city":"上越市","street":"吉川区下中条"},{"zipCode":"9493435","prefectureKana":"ﾆｲｶﾞﾀｹﾝ","cityKana":"ｼﾞｮｳｴﾂｼ","streetKana":"ﾖｼｶﾜｸｼﾓﾊﾁﾏﾝ","prefecture":"新潟県","city":"上越市","street":"吉川区下八幡"},{"zipCode":"9493417","prefectureKana":"ﾆｲｶﾞﾀｹﾝ","cityKana":"ｼﾞｮｳｴﾂｼ","streetKana":"ﾖｼｶﾜｸｼﾓﾌｶｻﾜ","prefecture":"新潟県","city":"上越市","street":"吉川区下深沢"},{"zipCode":"9493441","prefectureKana":"ﾆｲｶﾞﾀｹﾝ","cityKana":"ｼﾞｮｳｴﾂｼ","streetKana":"ﾖｼｶﾜｸﾀｲｼ","prefecture":"新潟県","city":"上越市","street":"吉川区代石"},{"zipCode":"9493444","prefectureKana":"ﾆｲｶﾞﾀｹﾝ","cityKana":"ｼﾞｮｳｴﾂｼ","streetKana":"ﾖｼｶﾜｸﾀﾞｲｼﾞｮｳｼﾞ","prefecture":"新潟県","city":"上越市","street":"吉川区大乗寺"},{"zipCode":"9493557","prefectureKana":"ﾆｲｶﾞﾀｹﾝ","cityKana":"ｼﾞｮｳｴﾂｼ","streetKana":"ﾖｼｶﾜｸﾀｶｻﾜｲﾘ","prefecture":"新潟県","city":"上越市","street":"吉川区高沢入"},{"zipCode":"9493447","prefectureKana":"ﾆｲｶﾞﾀｹﾝ","cityKana":"ｼﾞｮｳｴﾂｼ","streetKana":"ﾖｼｶﾜｸﾀｹﾅｵ","prefecture":"新潟県","city":"上越市","street":"吉川区竹直"},{"zipCode":"9493431","prefectureKana":"ﾆｲｶﾞﾀｹﾝ","cityKana":"ｼﾞｮｳｴﾂｼ","streetKana":"ﾖｼｶﾜｸﾀｼﾞﾘ","prefecture":"新潟県","city":"上越市","street":"吉川区田尻"},{"zipCode":"9493551","prefectureKana":"ﾆｲｶﾞﾀｹﾝ","cityKana":"ｼﾞｮｳｴﾂｼ","streetKana":"ﾖｼｶﾜｸﾂﾎﾞﾉ","prefecture":"新潟県","city":"上越市","street":"吉川区坪野"},{"zipCode":"9493436","prefectureKana":"ﾆｲｶﾞﾀｹﾝ","cityKana":"ｼﾞｮｳｴﾂｼ","streetKana":"ﾖｼｶﾜｸﾂﾎﾞﾉｳﾁ","prefecture":"新潟県","city":"上越市","street":"吉川区坪野内"},{"zipCode":"9493414","prefectureKana":"ﾆｲｶﾞﾀｹﾝ","cityKana":"ｼﾞｮｳｴﾂｼ","streetKana":"ﾖｼｶﾜｸﾃﾝﾘﾝｼﾞ","prefecture":"新潟県","city":"上越市","street":"吉川区天林寺"},{"zipCode":"9493404","prefectureKana":"ﾆｲｶﾞﾀｹﾝ","cityKana":"ｼﾞｮｳｴﾂｼ","streetKana":"ﾖｼｶﾜｸﾄｳｼﾞ","prefecture":"新潟県","city":"上越市","street":"吉川区東寺"},{"zipCode":"9493449","prefectureKana":"ﾆｲｶﾞﾀｹﾝ","cityKana":"ｼﾞｮｳｴﾂｼ","streetKana":"ﾖｼｶﾜｸﾄｳｼﾞﾉｻﾄ","prefecture":"新潟県","city":"上越市","street":"吉川区杜氏の郷"},{"zipCode":"9493426","prefectureKana":"ﾆｲｶﾞﾀｹﾝ","cityKana":"ｼﾞｮｳｴﾂｼ","streetKana":"ﾖｼｶﾜｸﾄﾞｳﾉｼﾀ","prefecture":"新潟県","city":"上越市","street":"吉川区道之下"},{"zipCode":"9493413","prefectureKana":"ﾆｲｶﾞﾀｹﾝ","cityKana":"ｼﾞｮｳｴﾂｼ","streetKana":"ﾖｼｶﾜｸﾄﾞｼﾞﾘ","prefecture":"新潟県","city":"上越市","street":"吉川区土尻"},{"zipCode":"9493425","prefectureKana":"ﾆｲｶﾞﾀｹﾝ","cityKana":"ｼﾞｮｳｴﾂｼ","streetKana":"ﾖｼｶﾜｸﾅｶﾞｻｶ","prefecture":"新潟県","city":"上越市","street":"吉川区長坂"},{"zipCode":"9493439","prefectureKana":"ﾆｲｶﾞﾀｹﾝ","cityKana":"ｼﾞｮｳｴﾂｼ","streetKana":"ﾖｼｶﾜｸﾅｶﾞｻﾜ","prefecture":"新潟県","city":"上越市","street":"吉川区長沢"},{"zipCode":"9493448","prefectureKana":"ﾆｲｶﾞﾀｹﾝ","cityKana":"ｼﾞｮｳｴﾂｼ","streetKana":"ﾖｼｶﾜｸﾅｶﾞﾐﾈ","prefecture":"新潟県","city":"上越市","street":"吉川区長峰"},{"zipCode":"9493416","prefectureKana":"ﾆｲｶﾞﾀｹﾝ","cityKana":"ｼﾞｮｳｴﾂｼ","streetKana":"ﾖｼｶﾜｸﾅｶﾔﾁ","prefecture":"新潟県","city":"上越市","street":"吉川区中谷内"},{"zipCode":"9493556","prefectureKana":"ﾆｲｶﾞﾀｹﾝ","cityKana":"ｼﾞｮｳｴﾂｼ","streetKana":"ﾖｼｶﾜｸﾅｷﾞﾔﾏ","prefecture":"新潟県","city":"上越市","street":"吉川区名木山"},{"zipCode":"9493434","prefectureKana":"ﾆｲｶﾞﾀｹﾝ","cityKana":"ｼﾞｮｳｴﾂｼ","streetKana":"ﾖｼｶﾜｸﾆｼﾉｼﾏ","prefecture":"新潟県","city":"上越市","street":"吉川区西野島"},{"zipCode":"9493445","prefectureKana":"ﾆｲｶﾞﾀｹﾝ","cityKana":"ｼﾞｮｳｴﾂｼ","streetKana":"ﾖｼｶﾜｸﾊﾗﾉﾏﾁ","prefecture":"新潟県","city":"上越市","street":"吉川区原之町"},{"zipCode":"9493423","prefectureKana":"ﾆｲｶﾞﾀｹﾝ","cityKana":"ｼﾞｮｳｴﾂｼ","streetKana":"ﾖｼｶﾜｸﾋｶﾞｼﾀﾅｶ","prefecture":"新潟県","city":"上越市","street":"吉川区東田中"},{"zipCode":"9493419","prefectureKana":"ﾆｲｶﾞﾀｹﾝ","cityKana":"ｼﾞｮｳｴﾂｼ","streetKana":"ﾖｼｶﾜｸﾋｶﾞｼﾄﾘｺﾞｴ","prefecture":"新潟県","city":"上越市","street":"吉川区東鳥越"},{"zipCode":"9493403","prefectureKana":"ﾆｲｶﾞﾀｹﾝ","cityKana":"ｼﾞｮｳｴﾂｼ","streetKana":"ﾖｼｶﾜｸﾋﾞｮｳﾄﾞｳｼﾞ","prefecture":"新潟県","city":"上越市","street":"吉川区平等寺"},{"zipCode":"9493424","prefectureKana":"ﾆｲｶﾞﾀｹﾝ","cityKana":"ｼﾞｮｳｴﾂｼ","streetKana":"ﾖｼｶﾜｸﾌｸﾀﾞｲﾗ","prefecture":"新潟県","city":"上越市","street":"吉川区福平"},{"zipCode":"9493433","prefectureKana":"ﾆｲｶﾞﾀｹﾝ","cityKana":"ｼﾞｮｳｴﾂｼ","streetKana":"ﾖｼｶﾜｸﾏﾁﾀﾞ","prefecture":"新潟県","city":"上越市","street":"吉川区町田"},{"zipCode":"9493446","prefectureKana":"ﾆｲｶﾞﾀｹﾝ","cityKana":"ｼﾞｮｳｴﾂｼ","streetKana":"ﾖｼｶﾜｸﾔﾏｶﾞﾀ","prefecture":"新潟県","city":"上越市","street":"吉川区山方"},{"zipCode":"9493415","prefectureKana":"ﾆｲｶﾞﾀｹﾝ","cityKana":"ｼﾞｮｳｴﾂｼ","streetKana":"ﾖｼｶﾜｸﾔﾏｸﾞﾁ","prefecture":"新潟県","city":"上越市","street":"吉川区山口"},{"zipCode":"9493561","prefectureKana":"ﾆｲｶﾞﾀｹﾝ","cityKana":"ｼﾞｮｳｴﾂｼ","streetKana":"ﾖｼｶﾜｸﾔﾏﾅｶ","prefecture":"新潟県","city":"上越市","street":"吉川区山中"},{"zipCode":"9493562","prefectureKana":"ﾆｲｶﾞﾀｹﾝ","cityKana":"ｼﾞｮｳｴﾂｼ","streetKana":"ﾖｼｶﾜｸﾔﾏﾉｳﾐ","prefecture":"新潟県","city":"上越市","street":"吉川区山直海"},{"zipCode":"9493405","prefectureKana":"ﾆｲｶﾞﾀｹﾝ","cityKana":"ｼﾞｮｳｴﾂｼ","streetKana":"ﾖｼｶﾜｸﾖｼｲ","prefecture":"新潟県","city":"上越市","street":"吉川区吉井"},{"zipCode":"9493432","prefectureKana":"ﾆｲｶﾞﾀｹﾝ","cityKana":"ｼﾞｮｳｴﾂｼ","streetKana":"ﾖｼｶﾜｸﾛｸﾏﾝﾌﾞ","prefecture":"新潟県","city":"上越市","street":"吉川区六万部"},{"zipCode":"9497423","prefectureKana":"ﾆｲｶﾞﾀｹﾝ","cityKana":"ｳｵﾇﾏｼ","streetKana":"ｳｵﾉｼﾞ","prefecture":"新潟県","city":"魚沼市","street":"魚野地"},{"zipCode":"9497411","prefectureKana":"ﾆｲｶﾞﾀｹﾝ","cityKana":"ｳｵﾇﾏｼ","streetKana":"ｵｵｲｼ","prefecture":"新潟県","city":"魚沼市","street":"大石"},{"zipCode":"9497401","prefectureKana":"ﾆｲｶﾞﾀｹﾝ","cityKana":"ｳｵﾇﾏｼ","streetKana":"ｼﾀｸﾞﾗ","prefecture":"新潟県","city":"魚沼市","street":"下倉"},{"zipCode":"9497416","prefectureKana":"ﾆｲｶﾞﾀｹﾝ","cityKana":"ｳｵﾇﾏｼ","streetKana":"ｼﾓｼﾞﾏ","prefecture":"新潟県","city":"魚沼市","street":"下島"},{"zipCode":"9497417","prefectureKana":"ﾆｲｶﾞﾀｹﾝ","cityKana":"ｳｵﾇﾏｼ","streetKana":"ｼﾓｼﾝﾃﾞﾝ","prefecture":"新潟県","city":"魚沼市","street":"下新田"},{"zipCode":"9497405","prefectureKana":"ﾆｲｶﾞﾀｹﾝ","cityKana":"ｳｵﾇﾏｼ","streetKana":"ｼﾝﾄﾞｳｼﾞﾏ","prefecture":"新潟県","city":"魚沼市","street":"新道島"},{"zipCode":"9497415","prefectureKana":"ﾆｲｶﾞﾀｹﾝ","cityKana":"ｳｵﾇﾏｼ","streetKana":"ﾀｶﾞﾜ","prefecture":"新潟県","city":"魚沼市","street":"田川"},{"zipCode":"9497402","prefectureKana":"ﾆｲｶﾞﾀｹﾝ","cityKana":"ｳｵﾇﾏｼ","streetKana":"ﾀﾄﾞ","prefecture":"新潟県","city":"魚沼市","street":"田戸"},{"zipCode":"9497418","prefectureKana":"ﾆｲｶﾞﾀｹﾝ","cityKana":"ｳｵﾇﾏｼ","streetKana":"ﾄｸﾀﾞ","prefecture":"新潟県","city":"魚沼市","street":"徳田"},{"zipCode":"9497403","prefectureKana":"ﾆｲｶﾞﾀｹﾝ","cityKana":"ｳｵﾇﾏｼ","streetKana":"ﾈｺﾞﾔ","prefecture":"新潟県","city":"魚沼市","street":"根小屋"},{"zipCode":"9497422","prefectureKana":"ﾆｲｶﾞﾀｹﾝ","cityKana":"ｳｵﾇﾏｼ","streetKana":"ﾊﾗ","prefecture":"新潟県","city":"魚沼市","street":"原"},{"zipCode":"9497413","prefectureKana":"ﾆｲｶﾞﾀｹﾝ","cityKana":"ｳｵﾇﾏｼ","streetKana":"ﾎﾘﾉｳﾁ","prefecture":"新潟県","city":"魚沼市","street":"堀之内"},{"zipCode":"9497424","prefectureKana":"ﾆｲｶﾞﾀｹﾝ","cityKana":"ｳｵﾇﾏｼ","streetKana":"ﾐｮｳｼﾞﾝ","prefecture":"新潟県","city":"魚沼市","street":"明神"},{"zipCode":"9497412","prefectureKana":"ﾆｲｶﾞﾀｹﾝ","cityKana":"ｳｵﾇﾏｼ","streetKana":"ﾖｺﾞﾛｳｼﾝﾃﾞﾝ","prefecture":"新潟県","city":"魚沼市","street":"与五郎新田"},{"zipCode":"9497421","prefectureKana":"ﾆｲｶﾞﾀｹﾝ","cityKana":"ｳｵﾇﾏｼ","streetKana":"ﾖｼﾐｽﾞ","prefecture":"新潟県","city":"魚沼市","street":"吉水"},{"zipCode":"9497404","prefectureKana":"ﾆｲｶﾞﾀｹﾝ","cityKana":"ｳｵﾇﾏｼ","streetKana":"ﾘｭｳｺｳ","prefecture":"新潟県","city":"魚沼市","street":"竜光"},{"zipCode":"9497414","prefectureKana":"ﾆｲｶﾞﾀｹﾝ","cityKana":"ｳｵﾇﾏｼ","streetKana":"ﾜﾅｶﾞｼﾏ","prefecture":"新潟県","city":"魚沼市","street":"和長島"},{"zipCode":"9496600","prefectureKana":"ﾆｲｶﾞﾀｹﾝ","cityKana":"ﾐﾅﾐｳｵﾇﾏｼ","streetKana":"ｲｶﾆｹｲｻｲｶﾞﾅｲﾊﾞｱｲ","prefecture":"新潟県","city":"南魚沼市","street":"以下に掲載がない場合"},{"zipCode":"9496605","prefectureKana":"ﾆｲｶﾞﾀｹﾝ","cityKana":"ﾐﾅﾐｳｵﾇﾏｼ","streetKana":"ｱｵｷｼﾝﾃﾞﾝ(695､729､992-1074ﾊﾞﾝﾁ)","prefecture":"新潟県","city":"南魚沼市","street":"青木新田（６９５、７２９、９９２～１０７４番地）"},{"zipCode":"9497141","prefectureKana":"ﾆｲｶﾞﾀｹﾝ","cityKana":"ﾐﾅﾐｳｵﾇﾏｼ","streetKana":"ｱｵｷｼﾝﾃﾞﾝ(ｿﾉﾀ)","prefecture":"新潟県","city":"南魚沼市","street":"青木新田（その他）"},{"zipCode":"9496746","prefectureKana":"ﾆｲｶﾞﾀｹﾝ","cityKana":"ﾐﾅﾐｳｵﾇﾏｼ","streetKana":"ｱｾﾞﾁ","prefecture":"新潟県","city":"南魚沼市","street":"畔地"},{"zipCode":"9496751","prefectureKana":"ﾆｲｶﾞﾀｹﾝ","cityKana":"ﾐﾅﾐｳｵﾇﾏｼ","streetKana":"ｱｾﾞﾁｼﾝﾃﾞﾝ","prefecture":"新潟県","city":"南魚沼市","street":"畔地新田"},{"zipCode":"9497245","prefectureKana":"ﾆｲｶﾞﾀｹﾝ","cityKana":"ﾐﾅﾐｳｵﾇﾏｼ","streetKana":"ｱﾅｼﾞ","prefecture":"新潟県","city":"南魚沼市","street":"穴地"},{"zipCode":"9497246","prefectureKana":"ﾆｲｶﾞﾀｹﾝ","cityKana":"ﾐﾅﾐｳｵﾇﾏｼ","streetKana":"ｱﾅｼﾞｼﾝﾃﾞﾝ","prefecture":"新潟県","city":"南魚沼市","street":"穴地新田"},{"zipCode":"9497256","prefectureKana":"ﾆｲｶﾞﾀｹﾝ","cityKana":"ﾐﾅﾐｳｵﾇﾏｼ","streetKana":"ｱﾏｶﾞｼﾏｼﾝﾃﾞﾝ","prefecture":"新潟県","city":"南魚沼市","street":"海士ケ島新田"},{"zipCode":"9496434","prefectureKana":"ﾆｲｶﾞﾀｹﾝ","cityKana":"ﾐﾅﾐｳｵﾇﾏｼ","streetKana":"ｱﾏﾉｻﾜ","prefecture":"新潟県","city":"南魚沼市","street":"天野沢"},{"zipCode":"9497235","prefectureKana":"ﾆｲｶﾞﾀｹﾝ","cityKana":"ﾐﾅﾐｳｵﾇﾏｼ","streetKana":"ｱﾗｶﾈ","prefecture":"新潟県","city":"南魚沼市","street":"荒金"},{"zipCode":"9497234","prefectureKana":"ﾆｲｶﾞﾀｹﾝ","cityKana":"ﾐﾅﾐｳｵﾇﾏｼ","streetKana":"ｱﾗﾔﾏ","prefecture":"新潟県","city":"南魚沼市","street":"荒山"},{"zipCode":"9497228","prefectureKana":"ﾆｲｶﾞﾀｹﾝ","cityKana":"ﾐﾅﾐｳｵﾇﾏｼ","streetKana":"ｲｶﾂﾞﾁ","prefecture":"新潟県","city":"南魚沼市","street":"雷土"},{"zipCode":"9497227","prefectureKana":"ﾆｲｶﾞﾀｹﾝ","cityKana":"ﾐﾅﾐｳｵﾇﾏｼ","streetKana":"ｲｶﾂﾞﾁｼﾝﾃﾞﾝ","prefecture":"新潟県","city":"南魚沼市","street":"雷土新田"},{"zipCode":"9496372","prefectureKana":"ﾆｲｶﾞﾀｹﾝ","cityKana":"ﾐﾅﾐｳｵﾇﾏｼ","streetKana":"ｲｼｳﾁ","prefecture":"新潟県","city":"南魚沼市","street":"石打"},{"zipCode":"9497114","prefectureKana":"ﾆｲｶﾞﾀｹﾝ","cityKana":"ﾐﾅﾐｳｵﾇﾏｼ","streetKana":"ｲｽﾞﾐ","prefecture":"新潟県","city":"南魚沼市","street":"泉"},{"zipCode":"9497115","prefectureKana":"ﾆｲｶﾞﾀｹﾝ","cityKana":"ﾐﾅﾐｳｵﾇﾏｼ","streetKana":"ｲｽﾞﾐｼﾝﾃﾞﾝ","prefecture":"新潟県","city":"南魚沼市","street":"泉新田"},{"zipCode":"9497318","prefectureKana":"ﾆｲｶﾞﾀｹﾝ","cityKana":"ﾐﾅﾐｳｵﾇﾏｼ","streetKana":"ｲﾁﾉｴｵﾂ(ｳｼﾛﾔﾏ)","prefecture":"新潟県","city":"南魚沼市","street":"市野江乙（後山）"},{"zipCode":"9497317","prefectureKana":"ﾆｲｶﾞﾀｹﾝ","cityKana":"ﾐﾅﾐｳｵﾇﾏｼ","streetKana":"ｲﾁﾉｴｺｳ","prefecture":"新潟県","city":"南魚沼市","street":"市野江甲"},{"zipCode":"9497319","prefectureKana":"ﾆｲｶﾞﾀｹﾝ","cityKana":"ﾐﾅﾐｳｵﾇﾏｼ","streetKana":"ｲﾁﾉｴﾍｲ(ﾂｼﾞﾏﾀ)","prefecture":"新潟県","city":"南魚沼市","street":"市野江丙（辻又）"},{"zipCode":"9496554","prefectureKana":"ﾆｲｶﾞﾀｹﾝ","cityKana":"ﾐﾅﾐｳｵﾇﾏｼ","streetKana":"ｲﾁﾉｻﾜ","prefecture":"新潟県","city":"南魚沼市","street":"一之沢"},{"zipCode":"9497101","prefectureKana":"ﾆｲｶﾞﾀｹﾝ","cityKana":"ﾐﾅﾐｳｵﾇﾏｼ","streetKana":"ｲﾂｶﾏﾁ","prefecture":"新潟県","city":"南魚沼市","street":"五日町"},{"zipCode":"9497313","prefectureKana":"ﾆｲｶﾞﾀｹﾝ","cityKana":"ﾐﾅﾐｳｵﾇﾏｼ","streetKana":"ｲﾏﾏﾁ","prefecture":"新潟県","city":"南魚沼市","street":"今町"},{"zipCode":"9497254","prefectureKana":"ﾆｲｶﾞﾀｹﾝ","cityKana":"ﾐﾅﾐｳｵﾇﾏｼ","streetKana":"ｲﾏﾏﾁｼﾝﾃﾞﾝ","prefecture":"新潟県","city":"南魚沼市","street":"今町新田"},{"zipCode":"9497222","prefectureKana":"ﾆｲｶﾞﾀｹﾝ","cityKana":"ﾐﾅﾐｳｵﾇﾏｼ","streetKana":"ｲﾓｱｶ","prefecture":"新潟県","city":"南魚沼市","street":"芋赤"},{"zipCode":"9496765","prefectureKana":"ﾆｲｶﾞﾀｹﾝ","cityKana":"ﾐﾅﾐｳｵﾇﾏｼ","streetKana":"ｲﾜｻｷ","prefecture":"新潟県","city":"南魚沼市","street":"岩崎"},{"zipCode":"9496607","prefectureKana":"ﾆｲｶﾞﾀｹﾝ","cityKana":"ﾐﾅﾐｳｵﾇﾏｼ","streetKana":"ｳﾂﾉｼﾝﾃﾞﾝ(717､718ﾊﾞﾝﾁ)","prefecture":"新潟県","city":"南魚沼市","street":"宇津野新田（７１７、７１８番地）"},{"zipCode":"9497142","prefectureKana":"ﾆｲｶﾞﾀｹﾝ","cityKana":"ﾐﾅﾐｳｵﾇﾏｼ","streetKana":"ｳﾂﾉｼﾝﾃﾞﾝ(ｿﾉﾀ)","prefecture":"新潟県","city":"南魚沼市","street":"宇津野新田（その他）"},{"zipCode":"9496551","prefectureKana":"ﾆｲｶﾞﾀｹﾝ","cityKana":"ﾐﾅﾐｳｵﾇﾏｼ","streetKana":"ｳﾊﾞｻﾜｼﾝﾃﾞﾝ","prefecture":"新潟県","city":"南魚沼市","street":"姥沢新田"},{"zipCode":"9496425","prefectureKana":"ﾆｲｶﾞﾀｹﾝ","cityKana":"ﾐﾅﾐｳｵﾇﾏｼ","streetKana":"ｳﾊﾞｼﾏｼﾝﾃﾞﾝ","prefecture":"新潟県","city":"南魚沼市","street":"姥島新田"},{"zipCode":"9497302","prefectureKana":"ﾆｲｶﾞﾀｹﾝ","cityKana":"ﾐﾅﾐｳｵﾇﾏｼ","streetKana":"ｳﾗｻ","prefecture":"新潟県","city":"南魚沼市","street":"浦佐"},{"zipCode":"9496373","prefectureKana":"ﾆｲｶﾞﾀｹﾝ","cityKana":"ﾐﾅﾐｳｵﾇﾏｼ","streetKana":"ｳﾜﾉ","prefecture":"新潟県","city":"南魚沼市","street":"上野"},{"zipCode":"9496542","prefectureKana":"ﾆｲｶﾞﾀｹﾝ","cityKana":"ﾐﾅﾐｳｵﾇﾏｼ","streetKana":"ｳﾝﾄｳ","prefecture":"新潟県","city":"南魚沼市","street":"雲洞"},{"zipCode":"9496544","prefectureKana":"ﾆｲｶﾞﾀｹﾝ","cityKana":"ﾐﾅﾐｳｵﾇﾏｼ","streetKana":"ｴﾀﾞﾖｼ","prefecture":"新潟県","city":"南魚沼市","street":"枝吉"},{"zipCode":"9496416","prefectureKana":"ﾆｲｶﾞﾀｹﾝ","cityKana":"ﾐﾅﾐｳｵﾇﾏｼ","streetKana":"ｵｵｷﾛｸ","prefecture":"新潟県","city":"南魚沼市","street":"大木六"},{"zipCode":"9496438","prefectureKana":"ﾆｲｶﾞﾀｹﾝ","cityKana":"ﾐﾅﾐｳｵﾇﾏｼ","streetKana":"ｵｵｷﾛｸｼﾝﾃﾞﾝ","prefecture":"新潟県","city":"南魚沼市","street":"大木六新田"},{"zipCode":"9497243","prefectureKana":"ﾆｲｶﾞﾀｹﾝ","cityKana":"ﾐﾅﾐｳｵﾇﾏｼ","streetKana":"ｵｵｸﾗ","prefecture":"新潟県","city":"南魚沼市","street":"大倉"},{"zipCode":"9497224","prefectureKana":"ﾆｲｶﾞﾀｹﾝ","cityKana":"ﾐﾅﾐｳｵﾇﾏｼ","streetKana":"ｵｵｸﾜﾊﾞﾗ","prefecture":"新潟県","city":"南魚沼市","street":"大桑原"},{"zipCode":"9497251","prefectureKana":"ﾆｲｶﾞﾀｹﾝ","cityKana":"ﾐﾅﾐｳｵﾇﾏｼ","streetKana":"ｵｵｻｷ","prefecture":"新潟県","city":"南魚沼市","street":"大崎"},{"zipCode":"9496412","prefectureKana":"ﾆｲｶﾞﾀｹﾝ","cityKana":"ﾐﾅﾐｳｵﾇﾏｼ","streetKana":"ｵｵｻﾞﾄ","prefecture":"新潟県","city":"南魚沼市","street":"大里"},{"zipCode":"9496361","prefectureKana":"ﾆｲｶﾞﾀｹﾝ","cityKana":"ﾐﾅﾐｳｵﾇﾏｼ","streetKana":"ｵｵｻﾜ","prefecture":"新潟県","city":"南魚沼市","street":"大沢"},{"zipCode":"9497103","prefectureKana":"ﾆｲｶﾞﾀｹﾝ","cityKana":"ﾐﾅﾐｳｵﾇﾏｼ","streetKana":"ｵｵｽｷﾞｼﾝﾃﾞﾝ","prefecture":"新潟県","city":"南魚沼市","street":"大杉新田"},{"zipCode":"9496682","prefectureKana":"ﾆｲｶﾞﾀｹﾝ","cityKana":"ﾐﾅﾐｳｵﾇﾏｼ","streetKana":"ｵｵﾂﾞｷ","prefecture":"新潟県","city":"南魚沼市","street":"大月"},{"zipCode":"9497122","prefectureKana":"ﾆｲｶﾞﾀｹﾝ","cityKana":"ﾐﾅﾐｳｵﾇﾏｼ","streetKana":"ｵｶ","prefecture":"新潟県","city":"南魚沼市","street":"岡"},{"zipCode":"9496745","prefectureKana":"ﾆｲｶﾞﾀｹﾝ","cityKana":"ﾐﾅﾐｳｵﾇﾏｼ","streetKana":"ｵｶﾞﾜ","prefecture":"新潟県","city":"南魚沼市","street":"小川"},{"zipCode":"9497102","prefectureKana":"ﾆｲｶﾞﾀｹﾝ","cityKana":"ﾐﾅﾐｳｵﾇﾏｼ","streetKana":"ｵｸ","prefecture":"新潟県","city":"南魚沼市","street":"奥"},{"zipCode":"9496403","prefectureKana":"ﾆｲｶﾞﾀｹﾝ","cityKana":"ﾐﾅﾐｳｵﾇﾏｼ","streetKana":"ｵﾓｲｶﾞﾜ","prefecture":"新潟県","city":"南魚沼市","street":"思川"},{"zipCode":"9496602","prefectureKana":"ﾆｲｶﾞﾀｹﾝ","cityKana":"ﾐﾅﾐｳｵﾇﾏｼ","streetKana":"ｶｹﾉｳｴ","prefecture":"新潟県","city":"南魚沼市","street":"欠之上"},{"zipCode":"9496404","prefectureKana":"ﾆｲｶﾞﾀｹﾝ","cityKana":"ﾐﾅﾐｳｵﾇﾏｼ","streetKana":"ｶﾀﾀ","prefecture":"新潟県","city":"南魚沼市","street":"片田"},{"zipCode":"9496552","prefectureKana":"ﾆｲｶﾞﾀｹﾝ","cityKana":"ﾐﾅﾐｳｵﾇﾏｼ","streetKana":"ｶﾆｻﾜｼﾝﾃﾞﾝ","prefecture":"新潟県","city":"南魚沼市","street":"蟹沢新田"},{"zipCode":"9496431","prefectureKana":"ﾆｲｶﾞﾀｹﾝ","cityKana":"ﾐﾅﾐｳｵﾇﾏｼ","streetKana":"ｶﾊﾞﾉｻﾜ","prefecture":"新潟県","city":"南魚沼市","street":"樺野沢"},{"zipCode":"9496432","prefectureKana":"ﾆｲｶﾞﾀｹﾝ","cityKana":"ﾐﾅﾐｳｵﾇﾏｼ","streetKana":"ｶﾊﾞﾉｻﾜｼﾝﾃﾞﾝ","prefecture":"新潟県","city":"南魚沼市","street":"樺野沢新田"},{"zipCode":"9497126","prefectureKana":"ﾆｲｶﾞﾀｹﾝ","cityKana":"ﾐﾅﾐｳｵﾇﾏｼ","streetKana":"ｶﾐｲｽﾞﾅ","prefecture":"新潟県","city":"南魚沼市","street":"上出浦"},{"zipCode":"9496411","prefectureKana":"ﾆｲｶﾞﾀｹﾝ","cityKana":"ﾐﾅﾐｳｵﾇﾏｼ","streetKana":"ｶﾐﾄｵｶﾏﾁ","prefecture":"新潟県","city":"南魚沼市","street":"上十日町"},{"zipCode":"9497137","prefectureKana":"ﾆｲｶﾞﾀｹﾝ","cityKana":"ﾐﾅﾐｳｵﾇﾏｼ","streetKana":"ｶﾐﾊﾗ","prefecture":"新潟県","city":"南魚沼市","street":"上原"},{"zipCode":"9497138","prefectureKana":"ﾆｲｶﾞﾀｹﾝ","cityKana":"ﾐﾅﾐｳｵﾇﾏｼ","streetKana":"ｶﾐﾊﾗｼﾝﾃﾞﾝ","prefecture":"新潟県","city":"南魚沼市","street":"上原新田"},{"zipCode":"9496364","prefectureKana":"ﾆｲｶﾞﾀｹﾝ","cityKana":"ﾐﾅﾐｳｵﾇﾏｼ","streetKana":"ｶﾐﾋﾄｲﾁ","prefecture":"新潟県","city":"南魚沼市","street":"上一日市"},{"zipCode":"9497124","prefectureKana":"ﾆｲｶﾞﾀｹﾝ","cityKana":"ﾐﾅﾐｳｵﾇﾏｼ","streetKana":"ｶﾐﾔｸｼﾄﾞｳ","prefecture":"新潟県","city":"南魚沼市","street":"上薬師堂"},{"zipCode":"9496603","prefectureKana":"ﾆｲｶﾞﾀｹﾝ","cityKana":"ﾐﾅﾐｳｵﾇﾏｼ","streetKana":"ｶﾜｸﾎﾞ","prefecture":"新潟県","city":"南魚沼市","street":"川窪"},{"zipCode":"9497143","prefectureKana":"ﾆｲｶﾞﾀｹﾝ","cityKana":"ﾐﾅﾐｳｵﾇﾏｼ","streetKana":"ｷﾀﾀﾅｶ","prefecture":"新潟県","city":"南魚沼市","street":"北田中"},{"zipCode":"9496601","prefectureKana":"ﾆｲｶﾞﾀｹﾝ","cityKana":"ﾐﾅﾐｳｵﾇﾏｼ","streetKana":"ｷﾐｶﾞｴﾘ","prefecture":"新潟県","city":"南魚沼市","street":"君帰"},{"zipCode":"9496366","prefectureKana":"ﾆｲｶﾞﾀｹﾝ","cityKana":"ﾐﾅﾐｳｵﾇﾏｼ","streetKana":"ｷﾐｻﾞﾜ","prefecture":"新潟県","city":"南魚沼市","street":"君沢"},{"zipCode":"9496756","prefectureKana":"ﾆｲｶﾞﾀｹﾝ","cityKana":"ﾐﾅﾐｳｵﾇﾏｼ","streetKana":"ｷｮｳｵｶ","prefecture":"新潟県","city":"南魚沼市","street":"京岡"},{"zipCode":"9496757","prefectureKana":"ﾆｲｶﾞﾀｹﾝ","cityKana":"ﾐﾅﾐｳｵﾇﾏｼ","streetKana":"ｷｮｳｵｶｼﾝﾃﾞﾝ","prefecture":"新潟県","city":"南魚沼市","street":"京岡新田"},{"zipCode":"9497233","prefectureKana":"ﾆｲｶﾞﾀｹﾝ","cityKana":"ﾐﾅﾐｳｵﾇﾏｼ","streetKana":"ｷﾘｻﾜ","prefecture":"新潟県","city":"南魚沼市","street":"桐沢"},{"zipCode":"9497242","prefectureKana":"ﾆｲｶﾞﾀｹﾝ","cityKana":"ﾐﾅﾐｳｵﾇﾏｼ","streetKana":"ｸﾛﾂﾁ","prefecture":"新潟県","city":"南魚沼市","street":"黒土"},{"zipCode":"9497241","prefectureKana":"ﾆｲｶﾞﾀｹﾝ","cityKana":"ﾐﾅﾐｳｵﾇﾏｼ","streetKana":"ｸﾛﾂﾁｼﾝﾃﾞﾝ","prefecture":"新潟県","city":"南魚沼市","street":"黒土新田"},{"zipCode":"9497301","prefectureKana":"ﾆｲｶﾞﾀｹﾝ","cityKana":"ﾐﾅﾐｳｵﾇﾏｼ","streetKana":"ｺﾞｶ","prefecture":"新潟県","city":"南魚沼市","street":"五箇"},{"zipCode":"9496413","prefectureKana":"ﾆｲｶﾞﾀｹﾝ","cityKana":"ﾐﾅﾐｳｵﾇﾏｼ","streetKana":"ｺｷﾞﾛｸ","prefecture":"新潟県","city":"南魚沼市","street":"小木六"},{"zipCode":"9497248","prefectureKana":"ﾆｲｶﾞﾀｹﾝ","cityKana":"ﾐﾅﾐｳｵﾇﾏｼ","streetKana":"ｺｸｻｲﾁｮｳ","prefecture":"新潟県","city":"南魚沼市","street":"国際町"},{"zipCode":"9496636","prefectureKana":"ﾆｲｶﾞﾀｹﾝ","cityKana":"ﾐﾅﾐｳｵﾇﾏｼ","streetKana":"ｺｸﾞﾘﾔﾏ","prefecture":"新潟県","city":"南魚沼市","street":"小栗山"},{"zipCode":"9497312","prefectureKana":"ﾆｲｶﾞﾀｹﾝ","cityKana":"ﾐﾅﾐｳｵﾇﾏｼ","streetKana":"ｺｺﾉｶﾏﾁ","prefecture":"新潟県","city":"南魚沼市","street":"九日町"},{"zipCode":"9496415","prefectureKana":"ﾆｲｶﾞﾀｹﾝ","cityKana":"ﾐﾅﾐｳｵﾇﾏｼ","streetKana":"ｺｽｷﾞｼﾝﾃﾞﾝ","prefecture":"新潟県","city":"南魚沼市","street":"小杉新田"},{"zipCode":"9496556","prefectureKana":"ﾆｲｶﾞﾀｹﾝ","cityKana":"ﾐﾅﾐｳｵﾇﾏｼ","streetKana":"ｺﾏﾂｻﾞﾜ","prefecture":"新潟県","city":"南魚沼市","street":"小松沢"},{"zipCode":"9496428","prefectureKana":"ﾆｲｶﾞﾀｹﾝ","cityKana":"ﾐﾅﾐｳｵﾇﾏｼ","streetKana":"ｺﾞﾛｳﾏﾙ","prefecture":"新潟県","city":"南魚沼市","street":"五郎丸"},{"zipCode":"9496611","prefectureKana":"ﾆｲｶﾞﾀｹﾝ","cityKana":"ﾐﾅﾐｳｵﾇﾏｼ","streetKana":"ｻｶﾄﾞ","prefecture":"新潟県","city":"南魚沼市","street":"坂戸"},{"zipCode":"9496541","prefectureKana":"ﾆｲｶﾞﾀｹﾝ","cityKana":"ﾐﾅﾐｳｵﾇﾏｼ","streetKana":"ｻﾌﾞﾛｳﾏﾙ","prefecture":"新潟県","city":"南魚沼市","street":"三郎丸"},{"zipCode":"9496408","prefectureKana":"ﾆｲｶﾞﾀｹﾝ","cityKana":"ﾐﾅﾐｳｵﾇﾏｼ","streetKana":"ｼｵｻﾞﾜ","prefecture":"新潟県","city":"南魚沼市","street":"塩沢"},{"zipCode":"9497145","prefectureKana":"ﾆｲｶﾞﾀｹﾝ","cityKana":"ﾐﾅﾐｳｵﾇﾏｼ","streetKana":"ｼﾄｶ","prefecture":"新潟県","city":"南魚沼市","street":"四十日"},{"zipCode":"9496407","prefectureKana":"ﾆｲｶﾞﾀｹﾝ","cityKana":"ﾐﾅﾐｳｵﾇﾏｼ","streetKana":"ｼﾏｼﾝﾃﾞﾝ","prefecture":"新潟県","city":"南魚沼市","street":"島新田"},{"zipCode":"9496553","prefectureKana":"ﾆｲｶﾞﾀｹﾝ","cityKana":"ﾐﾅﾐｳｵﾇﾏｼ","streetKana":"ｼﾐｽﾞ","prefecture":"新潟県","city":"南魚沼市","street":"清水"},{"zipCode":"9496741","prefectureKana":"ﾆｲｶﾞﾀｹﾝ","cityKana":"ﾐﾅﾐｳｵﾇﾏｼ","streetKana":"ｼﾐｽﾞｾ","prefecture":"新潟県","city":"南魚沼市","street":"清水瀬"},{"zipCode":"9497127","prefectureKana":"ﾆｲｶﾞﾀｹﾝ","cityKana":"ﾐﾅﾐｳｵﾇﾏｼ","streetKana":"ｼﾓｲｽﾞﾅ","prefecture":"新潟県","city":"南魚沼市","street":"下出浦"},{"zipCode":"9497113","prefectureKana":"ﾆｲｶﾞﾀｹﾝ","cityKana":"ﾐﾅﾐｳｵﾇﾏｼ","streetKana":"ｼﾓﾊﾗ","prefecture":"新潟県","city":"南魚沼市","street":"下原"},{"zipCode":"9497116","prefectureKana":"ﾆｲｶﾞﾀｹﾝ","cityKana":"ﾐﾅﾐｳｵﾇﾏｼ","streetKana":"ｼﾓﾊﾗｼﾝﾃﾞﾝ","prefecture":"新潟県","city":"南魚沼市","street":"下原新田"},{"zipCode":"9496363","prefectureKana":"ﾆｲｶﾞﾀｹﾝ","cityKana":"ﾐﾅﾐｳｵﾇﾏｼ","streetKana":"ｼﾓﾋﾄｲﾁ","prefecture":"新潟県","city":"南魚沼市","street":"下一日市"},{"zipCode":"9497125","prefectureKana":"ﾆｲｶﾞﾀｹﾝ","cityKana":"ﾐﾅﾐｳｵﾇﾏｼ","streetKana":"ｼﾓﾔｸｼﾄﾞｳ","prefecture":"新潟県","city":"南魚沼市","street":"下薬師堂"},{"zipCode":"9497314","prefectureKana":"ﾆｲｶﾞﾀｹﾝ","cityKana":"ﾐﾅﾐｳｵﾇﾏｼ","streetKana":"ｼﾞｮｳﾔﾏｼﾝﾃﾞﾝ","prefecture":"新潟県","city":"南魚沼市","street":"城山新田"},{"zipCode":"9496371","prefectureKana":"ﾆｲｶﾞﾀｹﾝ","cityKana":"ﾐﾅﾐｳｵﾇﾏｼ","streetKana":"ｾｷ","prefecture":"新潟県","city":"南魚沼市","street":"関"},{"zipCode":"9497311","prefectureKana":"ﾆｲｶﾞﾀｹﾝ","cityKana":"ﾐﾅﾐｳｵﾇﾏｼ","streetKana":"ｾﾘﾀﾞ","prefecture":"新潟県","city":"南魚沼市","street":"芹田"},{"zipCode":"9496418","prefectureKana":"ﾆｲｶﾞﾀｹﾝ","cityKana":"ﾐﾅﾐｳｵﾇﾏｼ","streetKana":"ｾﾝｺﾞｸ","prefecture":"新潟県","city":"南魚沼市","street":"仙石"},{"zipCode":"9496433","prefectureKana":"ﾆｲｶﾞﾀｹﾝ","cityKana":"ﾐﾅﾐｳｵﾇﾏｼ","streetKana":"ｾﾝｼﾞｮｳｼﾞ","prefecture":"新潟県","city":"南魚沼市","street":"泉盛寺"},{"zipCode":"9496557","prefectureKana":"ﾆｲｶﾞﾀｹﾝ","cityKana":"ﾐﾅﾐｳｵﾇﾏｼ","streetKana":"ﾀﾞｲｳｴ","prefecture":"新潟県","city":"南魚沼市","street":"台上"},{"zipCode":"9496555","prefectureKana":"ﾆｲｶﾞﾀｹﾝ","cityKana":"ﾐﾅﾐｳｵﾇﾏｼ","streetKana":"ﾀｷﾔ","prefecture":"新潟県","city":"南魚沼市","street":"滝谷"},{"zipCode":"9496405","prefectureKana":"ﾆｲｶﾞﾀｹﾝ","cityKana":"ﾐﾅﾐｳｵﾇﾏｼ","streetKana":"ﾀｹﾏﾀ","prefecture":"新潟県","city":"南魚沼市","street":"竹俣"},{"zipCode":"9496406","prefectureKana":"ﾆｲｶﾞﾀｹﾝ","cityKana":"ﾐﾅﾐｳｵﾇﾏｼ","streetKana":"ﾀｹﾏﾀｼﾝﾃﾞﾝ","prefecture":"新潟県","city":"南魚沼市","street":"竹俣新田"},{"zipCode":"9497134","prefectureKana":"ﾆｲｶﾞﾀｹﾝ","cityKana":"ﾐﾅﾐｳｵﾇﾏｼ","streetKana":"ﾀｻﾞｷ","prefecture":"新潟県","city":"南魚沼市","street":"田崎"},{"zipCode":"9496771","prefectureKana":"ﾆｲｶﾞﾀｹﾝ","cityKana":"ﾐﾅﾐｳｵﾇﾏｼ","streetKana":"ﾂｸﾉ","prefecture":"新潟県","city":"南魚沼市","street":"津久野"},{"zipCode":"9496766","prefectureKana":"ﾆｲｶﾞﾀｹﾝ","cityKana":"ﾐﾅﾐｳｵﾇﾏｼ","streetKana":"ﾂｸﾉｶﾐｼﾝﾃﾞﾝ","prefecture":"新潟県","city":"南魚沼市","street":"津久野上新田"},{"zipCode":"9496773","prefectureKana":"ﾆｲｶﾞﾀｹﾝ","cityKana":"ﾐﾅﾐｳｵﾇﾏｼ","streetKana":"ﾂｸﾉｼﾓｼﾝﾃﾞﾝ","prefecture":"新潟県","city":"南魚沼市","street":"津久野下新田"},{"zipCode":"9496744","prefectureKana":"ﾆｲｶﾞﾀｹﾝ","cityKana":"ﾐﾅﾐｳｵﾇﾏｼ","streetKana":"ﾂﾁｻﾜ","prefecture":"新潟県","city":"南魚沼市","street":"土沢"},{"zipCode":"9497104","prefectureKana":"ﾆｲｶﾞﾀｹﾝ","cityKana":"ﾐﾅﾐｳｵﾇﾏｼ","streetKana":"ﾃﾗｵ","prefecture":"新潟県","city":"南魚沼市","street":"寺尾"},{"zipCode":"9497232","prefectureKana":"ﾆｲｶﾞﾀｹﾝ","cityKana":"ﾐﾅﾐｳｵﾇﾏｼ","streetKana":"ﾄﾞｳｼﾞﾏｼﾝﾃﾞﾝ","prefecture":"新潟県","city":"南魚沼市","street":"堂島新田"},{"zipCode":"9496422","prefectureKana":"ﾆｲｶﾞﾀｹﾝ","cityKana":"ﾐﾅﾐｳｵﾇﾏｼ","streetKana":"ﾄｸﾀﾞｼﾝﾃﾞﾝ","prefecture":"新潟県","city":"南魚沼市","street":"徳田新田"},{"zipCode":"9496401","prefectureKana":"ﾆｲｶﾞﾀｹﾝ","cityKana":"ﾐﾅﾐｳｵﾇﾏｼ","streetKana":"ﾄﾁｸﾎﾞ","prefecture":"新潟県","city":"南魚沼市","street":"栃窪"},{"zipCode":"9496436","prefectureKana":"ﾆｲｶﾞﾀｹﾝ","cityKana":"ﾐﾅﾐｳｵﾇﾏｼ","streetKana":"ﾅｶ","prefecture":"新潟県","city":"南魚沼市","street":"中"},{"zipCode":"9496761","prefectureKana":"ﾆｲｶﾞﾀｹﾝ","cityKana":"ﾐﾅﾐｳｵﾇﾏｼ","streetKana":"ﾅｶｶﾞﾜ","prefecture":"新潟県","city":"南魚沼市","street":"中川"},{"zipCode":"9496762","prefectureKana":"ﾆｲｶﾞﾀｹﾝ","cityKana":"ﾐﾅﾐｳｵﾇﾏｼ","streetKana":"ﾅｶｶﾞﾜｼﾝﾃﾞﾝ","prefecture":"新潟県","city":"南魚沼市","street":"中川新田"},{"zipCode":"9496427","prefectureKana":"ﾆｲｶﾞﾀｹﾝ","cityKana":"ﾐﾅﾐｳｵﾇﾏｼ","streetKana":"ﾅｶｺﾞｼﾝﾃﾞﾝｵﾂ","prefecture":"新潟県","city":"南魚沼市","street":"中子新田乙"},{"zipCode":"9496421","prefectureKana":"ﾆｲｶﾞﾀｹﾝ","cityKana":"ﾐﾅﾐｳｵﾇﾏｼ","streetKana":"ﾅｶｺﾞｼﾝﾃﾞﾝｺｳ","prefecture":"新潟県","city":"南魚沼市","street":"中子新田甲"},{"zipCode":"9496545","prefectureKana":"ﾆｲｶﾞﾀｹﾝ","cityKana":"ﾐﾅﾐｳｵﾇﾏｼ","streetKana":"ﾅｶﾞｻｷ","prefecture":"新潟県","city":"南魚沼市","street":"長崎"},{"zipCode":"9496437","prefectureKana":"ﾆｲｶﾞﾀｹﾝ","cityKana":"ﾐﾅﾐｳｵﾇﾏｼ","streetKana":"ﾅｶﾉ","prefecture":"新潟県","city":"南魚沼市","street":"中野"},{"zipCode":"9496754","prefectureKana":"ﾆｲｶﾞﾀｹﾝ","cityKana":"ﾐﾅﾐｳｵﾇﾏｼ","streetKana":"ﾅｶﾞﾏﾂ","prefecture":"新潟県","city":"南魚沼市","street":"永松"},{"zipCode":"9497112","prefectureKana":"ﾆｲｶﾞﾀｹﾝ","cityKana":"ﾐﾅﾐｳｵﾇﾏｼ","streetKana":"ﾅｶﾞﾓﾘ","prefecture":"新潟県","city":"南魚沼市","street":"長森"},{"zipCode":"9497117","prefectureKana":"ﾆｲｶﾞﾀｹﾝ","cityKana":"ﾐﾅﾐｳｵﾇﾏｼ","streetKana":"ﾅｶﾞﾓﾘｼﾝﾃﾞﾝ","prefecture":"新潟県","city":"南魚沼市","street":"長森新田"},{"zipCode":"9497315","prefectureKana":"ﾆｲｶﾞﾀｹﾝ","cityKana":"ﾐﾅﾐｳｵﾇﾏｼ","streetKana":"ﾅｷﾞｻﾜ","prefecture":"新潟県","city":"南魚沼市","street":"名木沢"},{"zipCode":"9497136","prefectureKana":"ﾆｲｶﾞﾀｹﾝ","cityKana":"ﾐﾅﾐｳｵﾇﾏｼ","streetKana":"ﾆｲﾎﾞﾘ","prefecture":"新潟県","city":"南魚沼市","street":"新堀"},{"zipCode":"9497135","prefectureKana":"ﾆｲｶﾞﾀｹﾝ","cityKana":"ﾐﾅﾐｳｵﾇﾏｼ","streetKana":"ﾆｲﾎﾞﾘｼﾝﾃﾞﾝ","prefecture":"新潟県","city":"南魚沼市","street":"新堀新田"},{"zipCode":"9496615","prefectureKana":"ﾆｲｶﾞﾀｹﾝ","cityKana":"ﾐﾅﾐｳｵﾇﾏｼ","streetKana":"ﾆｼｲｽﾞﾐﾀﾞ","prefecture":"新潟県","city":"南魚沼市","street":"西泉田"},{"zipCode":"9497131","prefectureKana":"ﾆｲｶﾞﾀｹﾝ","cityKana":"ﾐﾅﾐｳｵﾇﾏｼ","streetKana":"ﾉｷﾞﾜ","prefecture":"新潟県","city":"南魚沼市","street":"野際"},{"zipCode":"9497144","prefectureKana":"ﾆｲｶﾞﾀｹﾝ","cityKana":"ﾐﾅﾐｳｵﾇﾏｼ","streetKana":"ﾉﾀﾞ","prefecture":"新潟県","city":"南魚沼市","street":"野田"},{"zipCode":"9496742","prefectureKana":"ﾆｲｶﾞﾀｹﾝ","cityKana":"ﾐﾅﾐｳｵﾇﾏｼ","streetKana":"ﾉﾅｶ","prefecture":"新潟県","city":"南魚沼市","street":"野中"},{"zipCode":"9496414","prefectureKana":"ﾆｲｶﾞﾀｹﾝ","cityKana":"ﾐﾅﾐｳｵﾇﾏｼ","streetKana":"ﾊﾁﾘｭｳｼﾝﾃﾞﾝ","prefecture":"新潟県","city":"南魚沼市","street":"八竜新田"},{"zipCode":"9496543","prefectureKana":"ﾆｲｶﾞﾀｹﾝ","cityKana":"ﾐﾅﾐｳｵﾇﾏｼ","streetKana":"ﾊﾔｶﾜ","prefecture":"新潟県","city":"南魚沼市","street":"早川"},{"zipCode":"9496755","prefectureKana":"ﾆｲｶﾞﾀｹﾝ","cityKana":"ﾐﾅﾐｳｵﾇﾏｼ","streetKana":"ﾊﾗ","prefecture":"新潟県","city":"南魚沼市","street":"原"},{"zipCode":"9496612","prefectureKana":"ﾆｲｶﾞﾀｹﾝ","cityKana":"ﾐﾅﾐｳｵﾇﾏｼ","streetKana":"ﾋｶﾞｼｲｽﾞﾐﾀﾞ","prefecture":"新潟県","city":"南魚沼市","street":"東泉田"},{"zipCode":"9497316","prefectureKana":"ﾆｲｶﾞﾀｹﾝ","cityKana":"ﾐﾅﾐｳｵﾇﾏｼ","streetKana":"ﾋﾄﾑﾗｵ","prefecture":"新潟県","city":"南魚沼市","street":"一村尾"},{"zipCode":"9496753","prefectureKana":"ﾆｲｶﾞﾀｹﾝ","cityKana":"ﾐﾅﾐｳｵﾇﾏｼ","streetKana":"ﾋﾙｸﾎﾞ","prefecture":"新潟県","city":"南魚沼市","street":"蛭窪"},{"zipCode":"9496774","prefectureKana":"ﾆｲｶﾞﾀｹﾝ","cityKana":"ﾐﾅﾐｳｵﾇﾏｼ","streetKana":"ﾌｶｻﾜ","prefecture":"新潟県","city":"南魚沼市","street":"深沢"},{"zipCode":"9497132","prefectureKana":"ﾆｲｶﾞﾀｹﾝ","cityKana":"ﾐﾅﾐｳｵﾇﾏｼ","streetKana":"ﾌｼﾞﾊﾗ","prefecture":"新潟県","city":"南魚沼市","street":"藤原"},{"zipCode":"9496743","prefectureKana":"ﾆｲｶﾞﾀｹﾝ","cityKana":"ﾐﾅﾐｳｵﾇﾏｼ","streetKana":"ﾌﾞﾀｲ","prefecture":"新潟県","city":"南魚沼市","street":"舞台"},{"zipCode":"9496772","prefectureKana":"ﾆｲｶﾞﾀｹﾝ","cityKana":"ﾐﾅﾐｳｵﾇﾏｼ","streetKana":"ﾌﾂｶﾏﾁ","prefecture":"新潟県","city":"南魚沼市","street":"二日町"},{"zipCode":"9497244","prefectureKana":"ﾆｲｶﾞﾀｹﾝ","cityKana":"ﾐﾅﾐｳｵﾇﾏｼ","streetKana":"ﾌﾈｶﾞｻﾜｼﾝﾃﾞﾝ","prefecture":"新潟県","city":"南魚沼市","street":"船ケ沢新田"},{"zipCode":"9497111","prefectureKana":"ﾆｲｶﾞﾀｹﾝ","cityKana":"ﾐﾅﾐｳｵﾇﾏｼ","streetKana":"ﾌﾓﾄ","prefecture":"新潟県","city":"南魚沼市","street":"麓"},{"zipCode":"9497133","prefectureKana":"ﾆｲｶﾞﾀｹﾝ","cityKana":"ﾐﾅﾐｳｵﾇﾏｼ","streetKana":"ﾎｳｵﾝｼﾞ","prefecture":"新潟県","city":"南魚沼市","street":"法音寺"},{"zipCode":"9496423","prefectureKana":"ﾆｲｶﾞﾀｹﾝ","cityKana":"ﾐﾅﾐｳｵﾇﾏｼ","streetKana":"ﾏｲｺﾞ","prefecture":"新潟県","city":"南魚沼市","street":"舞子"},{"zipCode":"9497229","prefectureKana":"ﾆｲｶﾞﾀｹﾝ","cityKana":"ﾐﾅﾐｳｵﾇﾏｼ","streetKana":"ﾏｴﾊﾗﾁｮｳ","prefecture":"新潟県","city":"南魚沼市","street":"前原町"},{"zipCode":"9496426","prefectureKana":"ﾆｲｶﾞﾀｹﾝ","cityKana":"ﾐﾅﾐｳｵﾇﾏｼ","streetKana":"ﾏﾙｲｹｼﾝﾃﾞﾝ","prefecture":"新潟県","city":"南魚沼市","street":"丸池新田"},{"zipCode":"9496424","prefectureKana":"ﾆｲｶﾞﾀｹﾝ","cityKana":"ﾐﾅﾐｳｵﾇﾏｼ","streetKana":"ﾏﾝｼﾞｮｳｼﾝﾃﾞﾝ","prefecture":"新潟県","city":"南魚沼市","street":"万条新田"},{"zipCode":"9496608","prefectureKana":"ﾆｲｶﾞﾀｹﾝ","cityKana":"ﾐﾅﾐｳｵﾇﾏｼ","streetKana":"ﾐｻｼﾏ","prefecture":"新潟県","city":"南魚沼市","street":"美佐島"},{"zipCode":"9497252","prefectureKana":"ﾆｲｶﾞﾀｹﾝ","cityKana":"ﾐﾅﾐｳｵﾇﾏｼ","streetKana":"ﾐｽﾞｵ","prefecture":"新潟県","city":"南魚沼市","street":"水尾"},{"zipCode":"9497253","prefectureKana":"ﾆｲｶﾞﾀｹﾝ","cityKana":"ﾐﾅﾐｳｵﾇﾏｼ","streetKana":"ﾐｽﾞｵｼﾝﾃﾞﾝ","prefecture":"新潟県","city":"南魚沼市","street":"水尾新田"},{"zipCode":"9496362","prefectureKana":"ﾆｲｶﾞﾀｹﾝ","cityKana":"ﾐﾅﾐｳｵﾇﾏｼ","streetKana":"ﾐﾅﾐﾀﾅｶ","prefecture":"新潟県","city":"南魚沼市","street":"南田中"},{"zipCode":"9496775","prefectureKana":"ﾆｲｶﾞﾀｹﾝ","cityKana":"ﾐﾅﾐｳｵﾇﾏｼ","streetKana":"ﾐﾔ","prefecture":"新潟県","city":"南魚沼市","street":"宮"},{"zipCode":"9496365","prefectureKana":"ﾆｲｶﾞﾀｹﾝ","cityKana":"ﾐﾅﾐｳｵﾇﾏｼ","streetKana":"ﾐﾔﾉｼﾀ","prefecture":"新潟県","city":"南魚沼市","street":"宮野下"},{"zipCode":"9496764","prefectureKana":"ﾆｲｶﾞﾀｹﾝ","cityKana":"ﾐﾅﾐｳｵﾇﾏｼ","streetKana":"ﾐﾔﾑﾗｼﾓｼﾝﾃﾞﾝ","prefecture":"新潟県","city":"南魚沼市","street":"宮村下新田"},{"zipCode":"9497123","prefectureKana":"ﾆｲｶﾞﾀｹﾝ","cityKana":"ﾐﾅﾐｳｵﾇﾏｼ","streetKana":"ﾐｮｳｵﾝｼﾞ","prefecture":"新潟県","city":"南魚沼市","street":"妙音寺"},{"zipCode":"9497231","prefectureKana":"ﾆｲｶﾞﾀｹﾝ","cityKana":"ﾐﾅﾐｳｵﾇﾏｼ","streetKana":"ﾐｮｳｶﾞｻﾜ","prefecture":"新潟県","city":"南魚沼市","street":"茗荷沢"},{"zipCode":"9497236","prefectureKana":"ﾆｲｶﾞﾀｹﾝ","cityKana":"ﾐﾅﾐｳｵﾇﾏｼ","streetKana":"ﾐｮｳｶﾞｻﾜｼﾝﾃﾞﾝ","prefecture":"新潟県","city":"南魚沼市","street":"茗荷沢新田"},{"zipCode":"9496680","prefectureKana":"ﾆｲｶﾞﾀｹﾝ","cityKana":"ﾐﾅﾐｳｵﾇﾏｼ","streetKana":"ﾑｲｶﾏﾁ","prefecture":"新潟県","city":"南魚沼市","street":"六日町"},{"zipCode":"9496435","prefectureKana":"ﾆｲｶﾞﾀｹﾝ","cityKana":"ﾐﾅﾐｳｵﾇﾏｼ","streetKana":"ﾓｸﾗｲﾃﾞﾝ","prefecture":"新潟県","city":"南魚沼市","street":"目来田"},{"zipCode":"9497223","prefectureKana":"ﾆｲｶﾞﾀｹﾝ","cityKana":"ﾐﾅﾐｳｵﾇﾏｼ","streetKana":"ﾓﾝｾﾞﾝ","prefecture":"新潟県","city":"南魚沼市","street":"門前"},{"zipCode":"9497247","prefectureKana":"ﾆｲｶﾞﾀｹﾝ","cityKana":"ﾐﾅﾐｳｵﾇﾏｼ","streetKana":"ﾔｲﾛﾊﾗ","prefecture":"新潟県","city":"南魚沼市","street":"八色原"},{"zipCode":"9497121","prefectureKana":"ﾆｲｶﾞﾀｹﾝ","cityKana":"ﾐﾅﾐｳｵﾇﾏｼ","streetKana":"ﾔﾏｸﾞﾁ","prefecture":"新潟県","city":"南魚沼市","street":"山口"},{"zipCode":"9497225","prefectureKana":"ﾆｲｶﾞﾀｹﾝ","cityKana":"ﾐﾅﾐｳｵﾇﾏｼ","streetKana":"ﾔﾏｻﾞｷ","prefecture":"新潟県","city":"南魚沼市","street":"山崎"},{"zipCode":"9497226","prefectureKana":"ﾆｲｶﾞﾀｹﾝ","cityKana":"ﾐﾅﾐｳｵﾇﾏｼ","streetKana":"ﾔﾏｻﾞｷｼﾝﾃﾞﾝ","prefecture":"新潟県","city":"南魚沼市","street":"山崎新田"},{"zipCode":"9496763","prefectureKana":"ﾆｲｶﾞﾀｹﾝ","cityKana":"ﾐﾅﾐｳｵﾇﾏｼ","streetKana":"ﾔﾏﾔ","prefecture":"新潟県","city":"南魚沼市","street":"山谷"},{"zipCode":"9496609","prefectureKana":"ﾆｲｶﾞﾀｹﾝ","cityKana":"ﾐﾅﾐｳｵﾇﾏｼ","streetKana":"ﾔﾜﾀ","prefecture":"新潟県","city":"南魚沼市","street":"八幡"},{"zipCode":"9497221","prefectureKana":"ﾆｲｶﾞﾀｹﾝ","cityKana":"ﾐﾅﾐｳｵﾇﾏｼ","streetKana":"ﾕﾔ","prefecture":"新潟県","city":"南魚沼市","street":"湯谷"},{"zipCode":"9496681","prefectureKana":"ﾆｲｶﾞﾀｹﾝ","cityKana":"ﾐﾅﾐｳｵﾇﾏｼ","streetKana":"ﾖｶﾜ","prefecture":"新潟県","city":"南魚沼市","street":"余川"},{"zipCode":"9496402","prefectureKana":"ﾆｲｶﾞﾀｹﾝ","cityKana":"ﾐﾅﾐｳｵﾇﾏｼ","streetKana":"ﾖｼｻﾞﾄ","prefecture":"新潟県","city":"南魚沼市","street":"吉里"},{"zipCode":"9496417","prefectureKana":"ﾆｲｶﾞﾀｹﾝ","cityKana":"ﾐﾅﾐｳｵﾇﾏｼ","streetKana":"ﾖｼﾔﾏｼﾝﾃﾞﾝ","prefecture":"新潟県","city":"南魚沼市","street":"吉山新田"},{"zipCode":"9497255","prefectureKana":"ﾆｲｶﾞﾀｹﾝ","cityKana":"ﾐﾅﾐｳｵﾇﾏｼ","streetKana":"ﾘｭｳｺｼﾝﾃﾞﾝ","prefecture":"新潟県","city":"南魚沼市","street":"柳古新田"},{"zipCode":"9494300","prefectureKana":"ﾆｲｶﾞﾀｹﾝ","cityKana":"ｻﾝﾄｳｸﾞﾝｲｽﾞﾓｻﾞｷﾏﾁ","streetKana":"ｲｶﾆｹｲｻｲｶﾞﾅｲﾊﾞｱｲ","prefecture":"新潟県","city":"三島郡出雲崎町","street":"以下に掲載がない場合"},{"zipCode":"9494325","prefectureKana":"ﾆｲｶﾞﾀｹﾝ","cityKana":"ｻﾝﾄｳｸﾞﾝｲｽﾞﾓｻﾞｷﾏﾁ","streetKana":"ｱｲﾀﾞ","prefecture":"新潟県","city":"三島郡出雲崎町","street":"相田"},{"zipCode":"9494308","prefectureKana":"ﾆｲｶﾞﾀｹﾝ","cityKana":"ｻﾝﾄｳｸﾞﾝｲｽﾞﾓｻﾞｷﾏﾁ","streetKana":"ｱﾏｾﾞ","prefecture":"新潟県","city":"三島郡出雲崎町","street":"尼瀬"},{"zipCode":"9494306","prefectureKana":"ﾆｲｶﾞﾀｹﾝ","cityKana":"ｻﾝﾄｳｸﾞﾝｲｽﾞﾓｻﾞｷﾏﾁ","streetKana":"ｲｼｲﾁｮｳ","prefecture":"新潟県","city":"三島郡出雲崎町","street":"石井町"},{"zipCode":"9494335","prefectureKana":"ﾆｲｶﾞﾀｹﾝ","cityKana":"ｻﾝﾄｳｸﾞﾝｲｽﾞﾓｻﾞｷﾏﾁ","streetKana":"ｲﾁﾉﾂﾎﾞ","prefecture":"新潟県","city":"三島郡出雲崎町","street":"市野坪"},{"zipCode":"9494331","prefectureKana":"ﾆｲｶﾞﾀｹﾝ","cityKana":"ｻﾝﾄｳｸﾞﾝｲｽﾞﾓｻﾞｷﾏﾁ","streetKana":"ｲﾅｶﾞﾜ","prefecture":"新潟県","city":"三島郡出雲崎町","street":"稲川"},{"zipCode":"9494302","prefectureKana":"ﾆｲｶﾞﾀｹﾝ","cityKana":"ｻﾝﾄｳｸﾞﾝｲｽﾞﾓｻﾞｷﾏﾁ","streetKana":"ｲﾉﾊﾅ","prefecture":"新潟県","city":"三島郡出雲崎町","street":"井鼻"},{"zipCode":"9494346","prefectureKana":"ﾆｲｶﾞﾀｹﾝ","cityKana":"ｻﾝﾄｳｸﾞﾝｲｽﾞﾓｻﾞｷﾏﾁ","streetKana":"ｳｴﾉﾔﾏ","prefecture":"新潟県","city":"三島郡出雲崎町","street":"上野山"},{"zipCode":"9494323","prefectureKana":"ﾆｲｶﾞﾀｹﾝ","cityKana":"ｻﾝﾄｳｸﾞﾝｲｽﾞﾓｻﾞｷﾏﾁ","streetKana":"ｵｵｶﾞﾏﾔ","prefecture":"新潟県","city":"三島郡出雲崎町","street":"大釜谷"},{"zipCode":"9494312","prefectureKana":"ﾆｲｶﾞﾀｹﾝ","cityKana":"ｻﾝﾄｳｸﾞﾝｲｽﾞﾓｻﾞｷﾏﾁ","streetKana":"ｵｵﾃﾗ","prefecture":"新潟県","city":"三島郡出雲崎町","street":"大寺"},{"zipCode":"9494332","prefectureKana":"ﾆｲｶﾞﾀｹﾝ","cityKana":"ｻﾝﾄｳｸﾞﾝｲｽﾞﾓｻﾞｷﾏﾁ","streetKana":"ｵｷﾞ","prefecture":"新潟県","city":"三島郡出雲崎町","street":"小木"},{"zipCode":"9494311","prefectureKana":"ﾆｲｶﾞﾀｹﾝ","cityKana":"ｻﾝﾄｳｸﾞﾝｲｽﾞﾓｻﾞｷﾏﾁ","streetKana":"ｵﾄﾓ","prefecture":"新潟県","city":"三島郡出雲崎町","street":"乙茂"},{"zipCode":"9494315","prefectureKana":"ﾆｲｶﾞﾀｹﾝ","cityKana":"ｻﾝﾄｳｸﾞﾝｲｽﾞﾓｻﾞｷﾏﾁ","streetKana":"ｶｷﾉｷ","prefecture":"新潟県","city":"三島郡出雲崎町","street":"柿木"},{"zipCode":"9494309","prefectureKana":"ﾆｲｶﾞﾀｹﾝ","cityKana":"ｻﾝﾄｳｸﾞﾝｲｽﾞﾓｻﾞｷﾏﾁ","streetKana":"ｶﾂﾐ","prefecture":"新潟県","city":"三島郡出雲崎町","street":"勝見"},{"zipCode":"9494326","prefectureKana":"ﾆｲｶﾞﾀｹﾝ","cityKana":"ｻﾝﾄｳｸﾞﾝｲｽﾞﾓｻﾞｷﾏﾁ","streetKana":"ｶﾂﾗｻﾜ","prefecture":"新潟県","city":"三島郡出雲崎町","street":"桂沢"},{"zipCode":"9494318","prefectureKana":"ﾆｲｶﾞﾀｹﾝ","cityKana":"ｻﾝﾄｳｸﾞﾝｲｽﾞﾓｻﾞｷﾏﾁ","streetKana":"ｶﾐｼﾞｮｳ","prefecture":"新潟県","city":"三島郡出雲崎町","street":"神条"},{"zipCode":"9494341","prefectureKana":"ﾆｲｶﾞﾀｹﾝ","cityKana":"ｻﾝﾄｳｸﾞﾝｲｽﾞﾓｻﾞｷﾏﾁ","streetKana":"ｶﾐﾅｶｼﾞｮｳ","prefecture":"新潟県","city":"三島郡出雲崎町","street":"上中条"},{"zipCode":"9494353","prefectureKana":"ﾆｲｶﾞﾀｹﾝ","cityKana":"ｻﾝﾄｳｸﾞﾝｲｽﾞﾓｻﾞｷﾏﾁ","streetKana":"ｶﾜﾆｼ","prefecture":"新潟県","city":"三島郡出雲崎町","street":"川西"},{"zipCode":"9494303","prefectureKana":"ﾆｲｶﾞﾀｹﾝ","cityKana":"ｻﾝﾄｳｸﾞﾝｲｽﾞﾓｻﾞｷﾏﾁ","streetKana":"ｷｵﾘﾁｮｳ","prefecture":"新潟県","city":"三島郡出雲崎町","street":"木折町"},{"zipCode":"9494301","prefectureKana":"ﾆｲｶﾞﾀｹﾝ","cityKana":"ｻﾝﾄｳｸﾞﾝｲｽﾞﾓｻﾞｷﾏﾁ","streetKana":"ｸｯﾀ","prefecture":"新潟県","city":"三島郡出雲崎町","street":"久田"},{"zipCode":"9494322","prefectureKana":"ﾆｲｶﾞﾀｹﾝ","cityKana":"ｻﾝﾄｳｸﾞﾝｲｽﾞﾓｻﾞｷﾏﾁ","streetKana":"ｺｶﾞﾏﾔ","prefecture":"新潟県","city":"三島郡出雲崎町","street":"小釜谷"},{"zipCode":"9494344","prefectureKana":"ﾆｲｶﾞﾀｹﾝ","cityKana":"ｻﾝﾄｳｸﾞﾝｲｽﾞﾓｻﾞｷﾏﾁ","streetKana":"ｺﾀﾞｹ","prefecture":"新潟県","city":"三島郡出雲崎町","street":"小竹"},{"zipCode":"9494342","prefectureKana":"ﾆｲｶﾞﾀｹﾝ","cityKana":"ｻﾝﾄｳｸﾞﾝｲｽﾞﾓｻﾞｷﾏﾁ","streetKana":"ｺﾒﾀﾞ","prefecture":"新潟県","city":"三島郡出雲崎町","street":"米田"},{"zipCode":"9494351","prefectureKana":"ﾆｲｶﾞﾀｹﾝ","cityKana":"ｻﾝﾄｳｸﾞﾝｲｽﾞﾓｻﾞｷﾏﾁ","streetKana":"ｻﾜﾀﾞ","prefecture":"新潟県","city":"三島郡出雲崎町","street":"沢田"},{"zipCode":"9494333","prefectureKana":"ﾆｲｶﾞﾀｹﾝ","cityKana":"ｻﾝﾄｳｸﾞﾝｲｽﾞﾓｻﾞｷﾏﾁ","streetKana":"ｼﾞｮｳﾗｸｼﾞ","prefecture":"新潟県","city":"三島郡出雲崎町","street":"常楽寺"},{"zipCode":"9494307","prefectureKana":"ﾆｲｶﾞﾀｹﾝ","cityKana":"ｻﾝﾄｳｸﾞﾝｲｽﾞﾓｻﾞｷﾏﾁ","streetKana":"ｽﾐﾖｼﾁｮｳ","prefecture":"新潟県","city":"三島郡出雲崎町","street":"住吉町"},{"zipCode":"9494352","prefectureKana":"ﾆｲｶﾞﾀｹﾝ","cityKana":"ｻﾝﾄｳｸﾞﾝｲｽﾞﾓｻﾞｷﾏﾁ","streetKana":"ﾀﾞｲﾓﾝ","prefecture":"新潟県","city":"三島郡出雲崎町","street":"大門"},{"zipCode":"9494316","prefectureKana":"ﾆｲｶﾞﾀｹﾝ","cityKana":"ｻﾝﾄｳｸﾞﾝｲｽﾞﾓｻﾞｷﾏﾁ","streetKana":"ﾀｷﾔ","prefecture":"新潟県","city":"三島郡出雲崎町","street":"滝谷"},{"zipCode":"9494343","prefectureKana":"ﾆｲｶﾞﾀｹﾝ","cityKana":"ｻﾝﾄｳｸﾞﾝｲｽﾞﾓｻﾞｷﾏﾁ","streetKana":"ﾀﾃｲｼ","prefecture":"新潟県","city":"三島郡出雲崎町","street":"立石"},{"zipCode":"9494337","prefectureKana":"ﾆｲｶﾞﾀｹﾝ","cityKana":"ｻﾝﾄｳｸﾞﾝｲｽﾞﾓｻﾞｷﾏﾁ","streetKana":"ﾀﾅｶ","prefecture":"新潟県","city":"三島郡出雲崎町","street":"田中"},{"zipCode":"9494334","prefectureKana":"ﾆｲｶﾞﾀｹﾝ","cityKana":"ｻﾝﾄｳｸﾞﾝｲｽﾞﾓｻﾞｷﾏﾁ","streetKana":"ﾄﾖﾊﾞｼ","prefecture":"新潟県","city":"三島郡出雲崎町","street":"豊橋"},{"zipCode":"9494345","prefectureKana":"ﾆｲｶﾞﾀｹﾝ","cityKana":"ｻﾝﾄｳｸﾞﾝｲｽﾞﾓｻﾞｷﾏﾁ","streetKana":"ﾅｶﾔﾏ","prefecture":"新潟県","city":"三島郡出雲崎町","street":"中山"},{"zipCode":"9494304","prefectureKana":"ﾆｲｶﾞﾀｹﾝ","cityKana":"ｻﾝﾄｳｸﾞﾝｲｽﾞﾓｻﾞｷﾏﾁ","streetKana":"ﾅﾙﾀｷﾁｮｳ","prefecture":"新潟県","city":"三島郡出雲崎町","street":"鳴滝町"},{"zipCode":"9494305","prefectureKana":"ﾆｲｶﾞﾀｹﾝ","cityKana":"ｻﾝﾄｳｸﾞﾝｲｽﾞﾓｻﾞｷﾏﾁ","streetKana":"ﾊｸﾞﾛﾁｮｳ","prefecture":"新潟県","city":"三島郡出雲崎町","street":"羽黒町"},{"zipCode":"9494314","prefectureKana":"ﾆｲｶﾞﾀｹﾝ","cityKana":"ｻﾝﾄｳｸﾞﾝｲｽﾞﾓｻﾞｷﾏﾁ","streetKana":"ﾌｼﾞﾏｷ","prefecture":"新潟県","city":"三島郡出雲崎町","street":"藤巻"},{"zipCode":"9494336","prefectureKana":"ﾆｲｶﾞﾀｹﾝ","cityKana":"ｻﾝﾄｳｸﾞﾝｲｽﾞﾓｻﾞｷﾏﾁ","streetKana":"ﾌﾅﾊﾞｼ","prefecture":"新潟県","city":"三島郡出雲崎町","street":"船橋"},{"zipCode":"9494327","prefectureKana":"ﾆｲｶﾞﾀｹﾝ","cityKana":"ｻﾝﾄｳｸﾞﾝｲｽﾞﾓｻﾞｷﾏﾁ","streetKana":"ﾍﾞﾂｶﾞﾀﾆ","prefecture":"新潟県","city":"三島郡出雲崎町","street":"別ケ谷"},{"zipCode":"9494313","prefectureKana":"ﾆｲｶﾞﾀｹﾝ","cityKana":"ｻﾝﾄｳｸﾞﾝｲｽﾞﾓｻﾞｷﾏﾁ","streetKana":"ﾏｸﾞｻ","prefecture":"新潟県","city":"三島郡出雲崎町","street":"馬草"},{"zipCode":"9494321","prefectureKana":"ﾆｲｶﾞﾀｹﾝ","cityKana":"ｻﾝﾄｳｸﾞﾝｲｽﾞﾓｻﾞｷﾏﾁ","streetKana":"ﾏﾂﾓﾄ","prefecture":"新潟県","city":"三島郡出雲崎町","street":"松本"},{"zipCode":"9494328","prefectureKana":"ﾆｲｶﾞﾀｹﾝ","cityKana":"ｻﾝﾄｳｸﾞﾝｲｽﾞﾓｻﾞｷﾏﾁ","streetKana":"ﾔﾏﾔ","prefecture":"新潟県","city":"三島郡出雲崎町","street":"山谷"},{"zipCode":"9494317","prefectureKana":"ﾆｲｶﾞﾀｹﾝ","cityKana":"ｻﾝﾄｳｸﾞﾝｲｽﾞﾓｻﾞｷﾏﾁ","streetKana":"ﾖｼｶﾜ","prefecture":"新潟県","city":"三島郡出雲崎町","street":"吉川"},{"zipCode":"9494324","prefectureKana":"ﾆｲｶﾞﾀｹﾝ","cityKana":"ｻﾝﾄｳｸﾞﾝｲｽﾞﾓｻﾞｷﾏﾁ","streetKana":"ﾖｼﾐｽﾞ","prefecture":"新潟県","city":"三島郡出雲崎町","street":"吉水"},{"zipCode":"9496100","prefectureKana":"ﾆｲｶﾞﾀｹﾝ","cityKana":"ﾐﾅﾐｳｵﾇﾏｸﾞﾝﾕｻﾞﾜﾏﾁ","streetKana":"ｲｶﾆｹｲｻｲｶﾞﾅｲﾊﾞｱｲ","prefecture":"新潟県","city":"南魚沼郡湯沢町","street":"以下に掲載がない場合"},{"zipCode":"9496102","prefectureKana":"ﾆｲｶﾞﾀｹﾝ","cityKana":"ﾐﾅﾐｳｵﾇﾏｸﾞﾝﾕｻﾞﾜﾏﾁ","streetKana":"ｶﾝﾀﾞﾂ","prefecture":"新潟県","city":"南魚沼郡湯沢町","street":"神立"},{"zipCode":"9496103","prefectureKana":"ﾆｲｶﾞﾀｹﾝ","cityKana":"ﾐﾅﾐｳｵﾇﾏｸﾞﾝﾕｻﾞﾜﾏﾁ","streetKana":"ﾂﾁﾀﾞﾙ","prefecture":"新潟県","city":"南魚沼郡湯沢町","street":"土樽"},{"zipCode":"9496212","prefectureKana":"ﾆｲｶﾞﾀｹﾝ","cityKana":"ﾐﾅﾐｳｵﾇﾏｸﾞﾝﾕｻﾞﾜﾏﾁ","streetKana":"ﾐｸﾆ","prefecture":"新潟県","city":"南魚沼郡湯沢町","street":"三国"},{"zipCode":"9496211","prefectureKana":"ﾆｲｶﾞﾀｹﾝ","cityKana":"ﾐﾅﾐｳｵﾇﾏｸﾞﾝﾕｻﾞﾜﾏﾁ","streetKana":"ﾐﾂﾏﾀ","prefecture":"新潟県","city":"南魚沼郡湯沢町","street":"三俣"},{"zipCode":"9496101","prefectureKana":"ﾆｲｶﾞﾀｹﾝ","cityKana":"ﾐﾅﾐｳｵﾇﾏｸﾞﾝﾕｻﾞﾜﾏﾁ","streetKana":"ﾕｻﾞﾜ","prefecture":"新潟県","city":"南魚沼郡湯沢町","street":"湯沢"},{"zipCode":"9498200","prefectureKana":"ﾆｲｶﾞﾀｹﾝ","cityKana":"ﾅｶｳｵﾇﾏｸﾞﾝﾂﾅﾝﾏﾁ","streetKana":"ｲｶﾆｹｲｻｲｶﾞﾅｲﾊﾞｱｲ","prefecture":"新潟県","city":"中魚沼郡津南町","street":"以下に掲載がない場合"},{"zipCode":"9498203","prefectureKana":"ﾆｲｶﾞﾀｹﾝ","cityKana":"ﾅｶｳｵﾇﾏｸﾞﾝﾂﾅﾝﾏﾁ","streetKana":"ｱｶｻﾜ","prefecture":"新潟県","city":"中魚沼郡津南町","street":"赤沢"},{"zipCode":"9498313","prefectureKana":"ﾆｲｶﾞﾀｹﾝ","cityKana":"ﾅｶｳｵﾇﾏｸﾞﾝﾂﾅﾝﾏﾁ","streetKana":"ｱｷﾅﾘ","prefecture":"新潟県","city":"中魚沼郡津南町","street":"秋成"},{"zipCode":"9498314","prefectureKana":"ﾆｲｶﾞﾀｹﾝ","cityKana":"ﾅｶｳｵﾇﾏｸﾞﾝﾂﾅﾝﾏﾁ","streetKana":"ｱｼｶﾞｻｷ(ｲｼｻﾞｶ)","prefecture":"新潟県","city":"中魚沼郡津南町","street":"芦ケ崎（石坂）"},{"zipCode":"9498202","prefectureKana":"ﾆｲｶﾞﾀｹﾝ","cityKana":"ﾅｶｳｵﾇﾏｸﾞﾝﾂﾅﾝﾏﾁ","streetKana":"ｱｼｶﾞｻｷ(ｿﾉﾀ)","prefecture":"新潟県","city":"中魚沼郡津南町","street":"芦ケ崎（その他）"},{"zipCode":"9498317","prefectureKana":"ﾆｲｶﾞﾀｹﾝ","cityKana":"ﾅｶｳｵﾇﾏｸﾞﾝﾂﾅﾝﾏﾁ","streetKana":"ｵｵｱｶｻﾜ","prefecture":"新潟県","city":"中魚沼郡津南町","street":"大赤沢"},{"zipCode":"9498122","prefectureKana":"ﾆｲｶﾞﾀｹﾝ","cityKana":"ﾅｶｳｵﾇﾏｸﾞﾝﾂﾅﾝﾏﾁ","streetKana":"ｶﾐｺﾞｳｳｴﾀﾞｺｳ","prefecture":"新潟県","city":"中魚沼郡津南町","street":"上郷上田甲"},{"zipCode":"9498121","prefectureKana":"ﾆｲｶﾞﾀｹﾝ","cityKana":"ﾅｶｳｵﾇﾏｸﾞﾝﾂﾅﾝﾏﾁ","streetKana":"ｶﾐｺﾞｳｳｴﾀﾞｵﾂ(3244-3750ﾊﾞﾝﾁ)","prefecture":"新潟県","city":"中魚沼郡津南町","street":"上郷上田乙（３２４４～３７５０番地）"},{"zipCode":"9498205","prefectureKana":"ﾆｲｶﾞﾀｹﾝ","cityKana":"ﾅｶｳｵﾇﾏｸﾞﾝﾂﾅﾝﾏﾁ","streetKana":"ｶﾐｺﾞｳｳｴﾀﾞｵﾂ(ｿﾉﾀ)","prefecture":"新潟県","city":"中魚沼郡津南町","street":"上郷上田乙（その他）"},{"zipCode":"9498123","prefectureKana":"ﾆｲｶﾞﾀｹﾝ","cityKana":"ﾅｶｳｵﾇﾏｸﾞﾝﾂﾅﾝﾏﾁ","streetKana":"ｶﾐｺﾞｳｵｵｲﾀﾞｲﾗ","prefecture":"新潟県","city":"中魚沼郡津南町","street":"上郷大井平"},{"zipCode":"9498124","prefectureKana":"ﾆｲｶﾞﾀｹﾝ","cityKana":"ﾅｶｳｵﾇﾏｸﾞﾝﾂﾅﾝﾏﾁ","streetKana":"ｶﾐｺﾞｳｺﾀﾈｼﾝﾃﾞﾝ","prefecture":"新潟県","city":"中魚沼郡津南町","street":"上郷子種新田"},{"zipCode":"9498126","prefectureKana":"ﾆｲｶﾞﾀｹﾝ","cityKana":"ﾅｶｳｵﾇﾏｸﾞﾝﾂﾅﾝﾏﾁ","streetKana":"ｶﾐｺﾞｳﾃﾗｲｼ","prefecture":"新潟県","city":"中魚沼郡津南町","street":"上郷寺石"},{"zipCode":"9498125","prefectureKana":"ﾆｲｶﾞﾀｹﾝ","cityKana":"ﾅｶｳｵﾇﾏｸﾞﾝﾂﾅﾝﾏﾁ","streetKana":"ｶﾐｺﾞｳﾐﾔﾉﾊﾗ","prefecture":"新潟県","city":"中魚沼郡津南町","street":"上郷宮野原"},{"zipCode":"9498315","prefectureKana":"ﾆｲｶﾞﾀｹﾝ","cityKana":"ﾅｶｳｵﾇﾏｸﾞﾝﾂﾅﾝﾏﾁ","streetKana":"ｹｯﾄｳ","prefecture":"新潟県","city":"中魚沼郡津南町","street":"穴藤"},{"zipCode":"9498316","prefectureKana":"ﾆｲｶﾞﾀｹﾝ","cityKana":"ﾅｶｳｵﾇﾏｸﾞﾝﾂﾅﾝﾏﾁ","streetKana":"ｹｯﾄｳ(ｻｶｻﾏｷ･ﾏｴｸﾗ･ｹｯﾄｳ)","prefecture":"新潟県","city":"中魚沼郡津南町","street":"結東（逆巻・前倉・結東）"},{"zipCode":"9498127","prefectureKana":"ﾆｲｶﾞﾀｹﾝ","cityKana":"ﾅｶｳｵﾇﾏｸﾞﾝﾂﾅﾝﾏﾁ","streetKana":"ｹｯﾄｳ(ｿﾉﾀ)","prefecture":"新潟県","city":"中魚沼郡津南町","street":"結東（その他）"},{"zipCode":"9498207","prefectureKana":"ﾆｲｶﾞﾀｹﾝ","cityKana":"ﾅｶｳｵﾇﾏｸﾞﾝﾂﾅﾝﾏﾁ","streetKana":"ｻﾝｶﾞ","prefecture":"新潟県","city":"中魚沼郡津南町","street":"三箇"},{"zipCode":"9498201","prefectureKana":"ﾆｲｶﾞﾀｹﾝ","cityKana":"ﾅｶｳｵﾇﾏｸﾞﾝﾂﾅﾝﾏﾁ","streetKana":"ｼﾓﾌﾅﾄ","prefecture":"新潟県","city":"中魚沼郡津南町","street":"下船渡"},{"zipCode":"9498206","prefectureKana":"ﾆｲｶﾞﾀｹﾝ","cityKana":"ﾅｶｳｵﾇﾏｸﾞﾝﾂﾅﾝﾏﾁ","streetKana":"ﾄﾏﾙ","prefecture":"新潟県","city":"中魚沼郡津南町","street":"外丸"},{"zipCode":"9498311","prefectureKana":"ﾆｲｶﾞﾀｹﾝ","cityKana":"ﾅｶｳｵﾇﾏｸﾞﾝﾂﾅﾝﾏﾁ","streetKana":"ﾅｶﾌｶﾐ","prefecture":"新潟県","city":"中魚沼郡津南町","street":"中深見"},{"zipCode":"9498312","prefectureKana":"ﾆｲｶﾞﾀｹﾝ","cityKana":"ﾅｶｳｵﾇﾏｸﾞﾝﾂﾅﾝﾏﾁ","streetKana":"ﾏｲﾊﾞﾗ","prefecture":"新潟県","city":"中魚沼郡津南町","street":"米原"},{"zipCode":"9498204","prefectureKana":"ﾆｲｶﾞﾀｹﾝ","cityKana":"ﾅｶｳｵﾇﾏｸﾞﾝﾂﾅﾝﾏﾁ","streetKana":"ﾔﾁ","prefecture":"新潟県","city":"中魚沼郡津南町","street":"谷内"},{"zipCode":"9498321","prefectureKana":"ﾅｶﾞﾉｹﾝ","cityKana":"ｼﾓﾐﾉﾁｸﾞﾝｻｶｴﾑﾗ","streetKana":"ｻｶｲ(17500-18560ﾊﾞﾝﾁ)","prefecture":"長野県","city":"下水内郡栄村","street":"堺（１７５００～１８５６０番地）"}]