[{"zipCode":"9500000","prefectureKana":"ﾆｲｶﾞﾀｹﾝ","cityKana":"ﾆｲｶﾞﾀｼｷﾀｸ","streetKana":"ｲｶﾆｹｲｻｲｶﾞﾅｲﾊﾞｱｲ","prefecture":"新潟県","city":"新潟市北区","street":"以下に掲載がない場合"},{"zipCode":"9503315","prefectureKana":"ﾆｲｶﾞﾀｹﾝ","cityKana":"ﾆｲｶﾞﾀｼｷﾀｸ","streetKana":"ｱｻﾋﾏﾁ","prefecture":"新潟県","city":"新潟市北区","street":"朝日町"},{"zipCode":"9503377","prefectureKana":"ﾆｲｶﾞﾀｹﾝ","cityKana":"ﾆｲｶﾞﾀｼｷﾀｸ","streetKana":"ｱﾔﾉ","prefecture":"新潟県","city":"新潟市北区","street":"彩野"},{"zipCode":"9503327","prefectureKana":"ﾆｲｶﾞﾀｹﾝ","cityKana":"ﾆｲｶﾞﾀｼｷﾀｸ","streetKana":"ｲｽﾙｷﾞ","prefecture":"新潟県","city":"新潟市北区","street":"石動"},{"zipCode":"9503306","prefectureKana":"ﾆｲｶﾞﾀｹﾝ","cityKana":"ﾆｲｶﾞﾀｼｷﾀｸ","streetKana":"ｳﾁｼﾏﾐ","prefecture":"新潟県","city":"新潟市北区","street":"内島見"},{"zipCode":"9503333","prefectureKana":"ﾆｲｶﾞﾀｹﾝ","cityKana":"ﾆｲｶﾞﾀｼｷﾀｸ","streetKana":"ｳﾁﾇﾏ","prefecture":"新潟県","city":"新潟市北区","street":"内沼"},{"zipCode":"9503381","prefectureKana":"ﾆｲｶﾞﾀｹﾝ","cityKana":"ﾆｲｶﾞﾀｼｷﾀｸ","streetKana":"ｳﾁﾇﾏｵｷ","prefecture":"新潟県","city":"新潟市北区","street":"内沼沖"},{"zipCode":"9503344","prefectureKana":"ﾆｲｶﾞﾀｹﾝ","cityKana":"ﾆｲｶﾞﾀｼｷﾀｸ","streetKana":"ｳﾗｷﾞ","prefecture":"新潟県","city":"新潟市北区","street":"浦木"},{"zipCode":"9503305","prefectureKana":"ﾆｲｶﾞﾀｹﾝ","cityKana":"ﾆｲｶﾞﾀｼｷﾀｸ","streetKana":"ｳﾗﾉｲﾘ","prefecture":"新潟県","city":"新潟市北区","street":"浦ノ入"},{"zipCode":"9503363","prefectureKana":"ﾆｲｶﾞﾀｹﾝ","cityKana":"ﾆｲｶﾞﾀｼｷﾀｸ","streetKana":"ｵｵｸﾎﾞ","prefecture":"新潟県","city":"新潟市北区","street":"大久保"},{"zipCode":"9503351","prefectureKana":"ﾆｲｶﾞﾀｹﾝ","cityKana":"ﾆｲｶﾞﾀｼｷﾀｸ","streetKana":"ｵｵｾﾔﾅｷﾞ","prefecture":"新潟県","city":"新潟市北区","street":"大瀬柳"},{"zipCode":"9503313","prefectureKana":"ﾆｲｶﾞﾀｹﾝ","cityKana":"ﾆｲｶﾞﾀｼｷﾀｸ","streetKana":"ｵｵﾀ","prefecture":"新潟県","city":"新潟市北区","street":"太田"},{"zipCode":"9503334","prefectureKana":"ﾆｲｶﾞﾀｹﾝ","cityKana":"ﾆｲｶﾞﾀｼｷﾀｸ","streetKana":"ｵｵﾂﾞｷ","prefecture":"新潟県","city":"新潟市北区","street":"大月"},{"zipCode":"9503364","prefectureKana":"ﾆｲｶﾞﾀｹﾝ","cityKana":"ﾆｲｶﾞﾀｼｷﾀｸ","streetKana":"ｵｵﾑｶｴ","prefecture":"新潟県","city":"新潟市北区","street":"大迎"},{"zipCode":"9503336","prefectureKana":"ﾆｲｶﾞﾀｹﾝ","cityKana":"ﾆｲｶﾞﾀｼｷﾀｸ","streetKana":"ｵｶｼﾝﾃﾞﾝ","prefecture":"新潟県","city":"新潟市北区","street":"岡新田"},{"zipCode":"9503312","prefectureKana":"ﾆｲｶﾞﾀｹﾝ","cityKana":"ﾆｲｶﾞﾀｼｷﾀｸ","streetKana":"ｶｻﾔﾅｷﾞ","prefecture":"新潟県","city":"新潟市北区","street":"笠柳"},{"zipCode":"9503317","prefectureKana":"ﾆｲｶﾞﾀｹﾝ","cityKana":"ﾆｲｶﾞﾀｼｷﾀｸ","streetKana":"ｶﾌﾞﾄﾔﾏ","prefecture":"新潟県","city":"新潟市北区","street":"かぶとやま"},{"zipCode":"9503335","prefectureKana":"ﾆｲｶﾞﾀｹﾝ","cityKana":"ﾆｲｶﾞﾀｼｷﾀｸ","streetKana":"ｶﾐｵｵﾂﾞｷ","prefecture":"新潟県","city":"新潟市北区","street":"上大月"},{"zipCode":"9503343","prefectureKana":"ﾆｲｶﾞﾀｹﾝ","cityKana":"ﾆｲｶﾞﾀｼｷﾀｸ","streetKana":"ｶﾐﾄﾞﾁｶﾞﾒ","prefecture":"新潟県","city":"新潟市北区","street":"上土地亀"},{"zipCode":"9503355","prefectureKana":"ﾆｲｶﾞﾀｹﾝ","cityKana":"ﾆｲｶﾞﾀｼｷﾀｸ","streetKana":"ｶﾐﾎﾘﾀﾞ","prefecture":"新潟県","city":"新潟市北区","street":"上堀田"},{"zipCode":"9503116","prefectureKana":"ﾆｲｶﾞﾀｹﾝ","cityKana":"ﾆｲｶﾞﾀｼｷﾀｸ","streetKana":"ｶﾐﾔﾁ","prefecture":"新潟県","city":"新潟市北区","street":"神谷内"},{"zipCode":"9503322","prefectureKana":"ﾆｲｶﾞﾀｹﾝ","cityKana":"ﾆｲｶﾞﾀｼｷﾀｸ","streetKana":"ｶﾔﾏ","prefecture":"新潟県","city":"新潟市北区","street":"嘉山"},{"zipCode":"9503341","prefectureKana":"ﾆｲｶﾞﾀｹﾝ","cityKana":"ﾆｲｶﾞﾀｼｷﾀｸ","streetKana":"ｶﾜﾆｼ","prefecture":"新潟県","city":"新潟市北区","street":"川西"},{"zipCode":"9503304","prefectureKana":"ﾆｲｶﾞﾀｹﾝ","cityKana":"ﾆｲｶﾞﾀｼｷﾀｸ","streetKana":"ｷｻﾞｷ","prefecture":"新潟県","city":"新潟市北区","street":"木崎"},{"zipCode":"9503321","prefectureKana":"ﾆｲｶﾞﾀｹﾝ","cityKana":"ﾆｲｶﾞﾀｼｷﾀｸ","streetKana":"ｸｽﾞﾂｶ","prefecture":"新潟県","city":"新潟市北区","street":"葛塚"},{"zipCode":"9503360","prefectureKana":"ﾆｲｶﾞﾀｹﾝ","cityKana":"ﾆｲｶﾞﾀｼｷﾀｸ","streetKana":"ｺｽｷﾞ","prefecture":"新潟県","city":"新潟市北区","street":"小杉"},{"zipCode":"9503301","prefectureKana":"ﾆｲｶﾞﾀｹﾝ","cityKana":"ﾆｲｶﾞﾀｼｷﾀｸ","streetKana":"ｻｻﾔﾏ","prefecture":"新潟県","city":"新潟市北区","street":"笹山"},{"zipCode":"9503337","prefectureKana":"ﾆｲｶﾞﾀｹﾝ","cityKana":"ﾆｲｶﾞﾀｼｷﾀｸ","streetKana":"ｻﾄｲｲﾉ","prefecture":"新潟県","city":"新潟市北区","street":"里飯野"},{"zipCode":"9503124","prefectureKana":"ﾆｲｶﾞﾀｹﾝ","cityKana":"ﾆｲｶﾞﾀｼｷﾀｸ","streetKana":"ｻﾝｹﾞﾝﾔﾁｮｳ","prefecture":"新潟県","city":"新潟市北区","street":"三軒屋町"},{"zipCode":"9503102","prefectureKana":"ﾆｲｶﾞﾀｹﾝ","cityKana":"ﾆｲｶﾞﾀｼｷﾀｸ","streetKana":"ｼﾏﾐﾁｮｳ","prefecture":"新潟県","city":"新潟市北区","street":"島見町"},{"zipCode":"9503308","prefectureKana":"ﾆｲｶﾞﾀｹﾝ","cityKana":"ﾆｲｶﾞﾀｼｷﾀｸ","streetKana":"ｼﾓｵｵﾔﾁ","prefecture":"新潟県","city":"新潟市北区","street":"下大谷内"},{"zipCode":"9503346","prefectureKana":"ﾆｲｶﾞﾀｹﾝ","cityKana":"ﾆｲｶﾞﾀｼｷﾀｸ","streetKana":"ｼﾓﾄﾞﾁｶﾞﾒ","prefecture":"新潟県","city":"新潟市北区","street":"下土地亀"},{"zipCode":"9503371","prefectureKana":"ﾆｲｶﾞﾀｹﾝ","cityKana":"ﾆｲｶﾞﾀｼｷﾀｸ","streetKana":"ｼﾓﾊﾔﾄﾞｵﾘ","prefecture":"新潟県","city":"新潟市北区","street":"下早通"},{"zipCode":"9503354","prefectureKana":"ﾆｲｶﾞﾀｹﾝ","cityKana":"ﾆｲｶﾞﾀｼｷﾀｸ","streetKana":"ｼﾞｭｳﾆ","prefecture":"新潟県","city":"新潟市北区","street":"十二"},{"zipCode":"9503359","prefectureKana":"ﾆｲｶﾞﾀｹﾝ","cityKana":"ﾆｲｶﾞﾀｼｷﾀｸ","streetKana":"ｼﾞｭｳﾆﾏｴ","prefecture":"新潟県","city":"新潟市北区","street":"十二前"},{"zipCode":"9503103","prefectureKana":"ﾆｲｶﾞﾀｹﾝ","cityKana":"ﾆｲｶﾞﾀｼｷﾀｸ","streetKana":"ｼﾛｾﾁｮｳ","prefecture":"新潟県","city":"新潟市北区","street":"白勢町"},{"zipCode":"9503105","prefectureKana":"ﾆｲｶﾞﾀｹﾝ","cityKana":"ﾆｲｶﾞﾀｼｷﾀｸ","streetKana":"ｼﾝﾄﾐﾁｮｳ","prefecture":"新潟県","city":"新潟市北区","street":"新富町"},{"zipCode":"9503331","prefectureKana":"ﾆｲｶﾞﾀｹﾝ","cityKana":"ﾆｲｶﾞﾀｼｷﾀｸ","streetKana":"ｼﾝﾊﾞﾅ","prefecture":"新潟県","city":"新潟市北区","street":"新鼻"},{"zipCode":"9503339","prefectureKana":"ﾆｲｶﾞﾀｹﾝ","cityKana":"ﾆｲｶﾞﾀｼｷﾀｸ","streetKana":"ｼﾝﾊﾞﾅｵﾂ","prefecture":"新潟県","city":"新潟市北区","street":"新鼻乙"},{"zipCode":"9503332","prefectureKana":"ﾆｲｶﾞﾀｹﾝ","cityKana":"ﾆｲｶﾞﾀｼｷﾀｸ","streetKana":"ｼﾝﾊﾞﾅｺｳ","prefecture":"新潟県","city":"新潟市北区","street":"新鼻甲"},{"zipCode":"9503123","prefectureKana":"ﾆｲｶﾞﾀｹﾝ","cityKana":"ﾆｲｶﾞﾀｼｷﾀｸ","streetKana":"ｼﾝﾓﾄｼﾞﾏﾁｮｳ","prefecture":"新潟県","city":"新潟市北区","street":"新元島町"},{"zipCode":"9503373","prefectureKana":"ﾆｲｶﾞﾀｹﾝ","cityKana":"ﾆｲｶﾞﾀｼｷﾀｸ","streetKana":"ｽﾄﾞ","prefecture":"新潟県","city":"新潟市北区","street":"須戸"},{"zipCode":"9503133","prefectureKana":"ﾆｲｶﾞﾀｹﾝ","cityKana":"ﾆｲｶﾞﾀｼｷﾀｸ","streetKana":"ｽﾐﾚﾉ","prefecture":"新潟県","city":"新潟市北区","street":"すみれ野"},{"zipCode":"9503365","prefectureKana":"ﾆｲｶﾞﾀｹﾝ","cityKana":"ﾆｲｶﾞﾀｼｷﾀｸ","streetKana":"ﾀｲｼﾄﾞｳ","prefecture":"新潟県","city":"新潟市北区","street":"太子堂"},{"zipCode":"9503367","prefectureKana":"ﾆｲｶﾞﾀｹﾝ","cityKana":"ﾆｲｶﾞﾀｼｷﾀｸ","streetKana":"ﾀｶﾓﾘ","prefecture":"新潟県","city":"新潟市北区","street":"高森"},{"zipCode":"9503362","prefectureKana":"ﾆｲｶﾞﾀｹﾝ","cityKana":"ﾆｲｶﾞﾀｼｷﾀｸ","streetKana":"ﾀｶﾓﾘｼﾝﾃﾞﾝ","prefecture":"新潟県","city":"新潟市北区","street":"高森新田"},{"zipCode":"9503112","prefectureKana":"ﾆｲｶﾞﾀｹﾝ","cityKana":"ﾆｲｶﾞﾀｼｷﾀｸ","streetKana":"ﾀﾕｳﾊﾏ","prefecture":"新潟県","city":"新潟市北区","street":"太夫浜"},{"zipCode":"9503111","prefectureKana":"ﾆｲｶﾞﾀｹﾝ","cityKana":"ﾆｲｶﾞﾀｼｷﾀｸ","streetKana":"ﾀﾕｳﾊﾏｼﾝﾏﾁ","prefecture":"新潟県","city":"新潟市北区","street":"太夫浜新町"},{"zipCode":"9503101","prefectureKana":"ﾆｲｶﾞﾀｹﾝ","cityKana":"ﾆｲｶﾞﾀｼｷﾀｸ","streetKana":"ﾀﾛｳﾀﾞｲ","prefecture":"新潟県","city":"新潟市北区","street":"太郎代"},{"zipCode":"9503135","prefectureKana":"ﾆｲｶﾞﾀｹﾝ","cityKana":"ﾆｲｶﾞﾀｼｷﾀｸ","streetKana":"ﾂｸｼﾉ","prefecture":"新潟県","city":"新潟市北区","street":"つくし野"},{"zipCode":"9503323","prefectureKana":"ﾆｲｶﾞﾀｹﾝ","cityKana":"ﾆｲｶﾞﾀｼｷﾀｸ","streetKana":"ﾄｳｴｲﾁｮｳ","prefecture":"新潟県","city":"新潟市北区","street":"東栄町"},{"zipCode":"9503307","prefectureKana":"ﾆｲｶﾞﾀｹﾝ","cityKana":"ﾆｲｶﾞﾀｼｷﾀｸ","streetKana":"ﾄﾞﾉｲﾘ","prefecture":"新潟県","city":"新潟市北区","street":"樋ノ入"},{"zipCode":"9503316","prefectureKana":"ﾆｲｶﾞﾀｹﾝ","cityKana":"ﾆｲｶﾞﾀｼｷﾀｸ","streetKana":"ﾄﾔ","prefecture":"新潟県","city":"新潟市北区","street":"鳥屋"},{"zipCode":"9503345","prefectureKana":"ﾆｲｶﾞﾀｹﾝ","cityKana":"ﾆｲｶﾞﾀｼｷﾀｸ","streetKana":"ﾅｶﾞﾄ","prefecture":"新潟県","city":"新潟市北区","street":"長戸"},{"zipCode":"9503353","prefectureKana":"ﾆｲｶﾞﾀｹﾝ","cityKana":"ﾆｲｶﾞﾀｼｷﾀｸ","streetKana":"ﾅｶﾞﾄﾛ","prefecture":"新潟県","city":"新潟市北区","street":"長戸呂"},{"zipCode":"9503352","prefectureKana":"ﾆｲｶﾞﾀｹﾝ","cityKana":"ﾆｲｶﾞﾀｼｷﾀｸ","streetKana":"ﾅｶﾞﾄﾛｼﾝﾃﾞﾝ","prefecture":"新潟県","city":"新潟市北区","street":"長戸呂新田"},{"zipCode":"9503338","prefectureKana":"ﾆｲｶﾞﾀｹﾝ","cityKana":"ﾆｲｶﾞﾀｼｷﾀｸ","streetKana":"ﾅｶﾞﾊﾞ","prefecture":"新潟県","city":"新潟市北区","street":"長場"},{"zipCode":"9503114","prefectureKana":"ﾆｲｶﾞﾀｹﾝ","cityKana":"ﾆｲｶﾞﾀｼｷﾀｸ","streetKana":"ﾅﾒﾄｺﾛ","prefecture":"新潟県","city":"新潟市北区","street":"名目所"},{"zipCode":"9503361","prefectureKana":"ﾆｲｶﾞﾀｹﾝ","cityKana":"ﾆｲｶﾞﾀｼｷﾀｸ","streetKana":"ﾆｲｺﾞｳ","prefecture":"新潟県","city":"新潟市北区","street":"新井郷"},{"zipCode":"9503134","prefectureKana":"ﾆｲｶﾞﾀｹﾝ","cityKana":"ﾆｲｶﾞﾀｼｷﾀｸ","streetKana":"ﾆｲｻﾞｷ","prefecture":"新潟県","city":"新潟市北区","street":"新崎"},{"zipCode":"9503131","prefectureKana":"ﾆｲｶﾞﾀｹﾝ","cityKana":"ﾆｲｶﾞﾀｼｷﾀｸ","streetKana":"ﾆｺﾞﾘｶﾜ","prefecture":"新潟県","city":"新潟市北区","street":"濁川"},{"zipCode":"9503122","prefectureKana":"ﾆｲｶﾞﾀｹﾝ","cityKana":"ﾆｲｶﾞﾀｼｷﾀｸ","streetKana":"ﾆｼﾅﾒﾄｺﾛ","prefecture":"新潟県","city":"新潟市北区","street":"西名目所"},{"zipCode":"9503358","prefectureKana":"ﾆｲｶﾞﾀｹﾝ","cityKana":"ﾆｲｶﾞﾀｼｷﾀｸ","streetKana":"ﾊｲｽﾞｶ","prefecture":"新潟県","city":"新潟市北区","street":"灰塚"},{"zipCode":"9503325","prefectureKana":"ﾆｲｶﾞﾀｹﾝ","cityKana":"ﾆｲｶﾞﾀｼｷﾀｸ","streetKana":"ﾊｸｼﾝﾁｮｳ","prefecture":"新潟県","city":"新潟市北区","street":"白新町"},{"zipCode":"9503302","prefectureKana":"ﾆｲｶﾞﾀｹﾝ","cityKana":"ﾆｲｶﾞﾀｼｷﾀｸ","streetKana":"ﾊﾏｳﾗ","prefecture":"新潟県","city":"新潟市北区","street":"浜浦"},{"zipCode":"9503372","prefectureKana":"ﾆｲｶﾞﾀｹﾝ","cityKana":"ﾆｲｶﾞﾀｼｷﾀｸ","streetKana":"ﾊﾔﾄﾞｵﾘ","prefecture":"新潟県","city":"新潟市北区","street":"早通"},{"zipCode":"9503376","prefectureKana":"ﾆｲｶﾞﾀｹﾝ","cityKana":"ﾆｲｶﾞﾀｼｷﾀｸ","streetKana":"ﾊﾔﾄﾞｵﾘｷﾀ","prefecture":"新潟県","city":"新潟市北区","street":"早通北"},{"zipCode":"9503375","prefectureKana":"ﾆｲｶﾞﾀｹﾝ","cityKana":"ﾆｲｶﾞﾀｼｷﾀｸ","streetKana":"ﾊﾔﾄﾞｵﾘﾐﾅﾐ","prefecture":"新潟県","city":"新潟市北区","street":"早通南"},{"zipCode":"9503104","prefectureKana":"ﾆｲｶﾞﾀｹﾝ","cityKana":"ﾆｲｶﾞﾀｼｷﾀｸ","streetKana":"ﾋｶﾞｼｻｶｴﾏﾁ","prefecture":"新潟県","city":"新潟市北区","street":"東栄町"},{"zipCode":"9503357","prefectureKana":"ﾆｲｶﾞﾀｹﾝ","cityKana":"ﾆｲｶﾞﾀｼｷﾀｸ","streetKana":"ﾋﾗﾊﾞﾔｼ","prefecture":"新潟県","city":"新潟市北区","street":"平林"},{"zipCode":"9503374","prefectureKana":"ﾆｲｶﾞﾀｹﾝ","cityKana":"ﾆｲｶﾞﾀｼｷﾀｸ","streetKana":"ﾌﾞﾂﾃﾞﾝ","prefecture":"新潟県","city":"新潟市北区","street":"仏伝"},{"zipCode":"9503309","prefectureKana":"ﾆｲｶﾞﾀｹﾝ","cityKana":"ﾆｲｶﾞﾀｼｷﾀｸ","streetKana":"ﾎｸﾖｳ","prefecture":"新潟県","city":"新潟市北区","street":"北陽"},{"zipCode":"9500102","prefectureKana":"ﾆｲｶﾞﾀｹﾝ","cityKana":"ﾆｲｶﾞﾀｼｷﾀｸ","streetKana":"ﾎｿﾔﾏ","prefecture":"新潟県","city":"新潟市北区","street":"細山"},{"zipCode":"9503324","prefectureKana":"ﾆｲｶﾞﾀｹﾝ","cityKana":"ﾆｲｶﾞﾀｼｷﾀｸ","streetKana":"ﾏｴｼﾝﾃﾞﾝ","prefecture":"新潟県","city":"新潟市北区","street":"前新田"},{"zipCode":"9503328","prefectureKana":"ﾆｲｶﾞﾀｹﾝ","cityKana":"ﾆｲｶﾞﾀｼｷﾀｸ","streetKana":"ﾏｴｼﾝﾃﾞﾝｵｷ","prefecture":"新潟県","city":"新潟市北区","street":"前新田沖"},{"zipCode":"9503113","prefectureKana":"ﾆｲｶﾞﾀｹﾝ","cityKana":"ﾆｲｶﾞﾀｼｷﾀｸ","streetKana":"ﾏﾂｴｲﾁｮｳ","prefecture":"新潟県","city":"新潟市北区","street":"松栄町"},{"zipCode":"9503132","prefectureKana":"ﾆｲｶﾞﾀｹﾝ","cityKana":"ﾆｲｶﾞﾀｼｷﾀｸ","streetKana":"ﾏﾂｶﾀ","prefecture":"新潟県","city":"新潟市北区","street":"松潟"},{"zipCode":"9503126","prefectureKana":"ﾆｲｶﾞﾀｹﾝ","cityKana":"ﾆｲｶﾞﾀｼｷﾀｸ","streetKana":"ﾏﾂﾊﾏ","prefecture":"新潟県","city":"新潟市北区","street":"松浜"},{"zipCode":"9503115","prefectureKana":"ﾆｲｶﾞﾀｹﾝ","cityKana":"ﾆｲｶﾞﾀｼｷﾀｸ","streetKana":"ﾏﾂﾊﾏｼﾝﾏﾁ","prefecture":"新潟県","city":"新潟市北区","street":"松浜新町"},{"zipCode":"9503121","prefectureKana":"ﾆｲｶﾞﾀｹﾝ","cityKana":"ﾆｲｶﾞﾀｼｷﾀｸ","streetKana":"ﾏﾂﾊﾏﾁｮｳ","prefecture":"新潟県","city":"新潟市北区","street":"松浜町"},{"zipCode":"9503128","prefectureKana":"ﾆｲｶﾞﾀｹﾝ","cityKana":"ﾆｲｶﾞﾀｼｷﾀｸ","streetKana":"ﾏﾂﾊﾏﾋｶﾞｼﾏﾁ","prefecture":"新潟県","city":"新潟市北区","street":"松浜東町"},{"zipCode":"9503125","prefectureKana":"ﾆｲｶﾞﾀｹﾝ","cityKana":"ﾆｲｶﾞﾀｼｷﾀｸ","streetKana":"ﾏﾂﾊﾏﾎﾝﾁｮｳ","prefecture":"新潟県","city":"新潟市北区","street":"松浜本町"},{"zipCode":"9503127","prefectureKana":"ﾆｲｶﾞﾀｹﾝ","cityKana":"ﾆｲｶﾞﾀｼｷﾀｸ","streetKana":"ﾏﾂﾊﾏﾐﾅﾄ","prefecture":"新潟県","city":"新潟市北区","street":"松浜みなと"},{"zipCode":"9503342","prefectureKana":"ﾆｲｶﾞﾀｹﾝ","cityKana":"ﾆｲｶﾞﾀｼｷﾀｸ","streetKana":"ﾐｻﾄ","prefecture":"新潟県","city":"新潟市北区","street":"美里"},{"zipCode":"9503369","prefectureKana":"ﾆｲｶﾞﾀｹﾝ","cityKana":"ﾆｲｶﾞﾀｼｷﾀｸ","streetKana":"ﾐﾂﾓﾘｶﾜﾗ","prefecture":"新潟県","city":"新潟市北区","street":"三ツ森川原"},{"zipCode":"9503366","prefectureKana":"ﾆｲｶﾞﾀｹﾝ","cityKana":"ﾆｲｶﾞﾀｼｷﾀｸ","streetKana":"ﾐﾂﾔ","prefecture":"新潟県","city":"新潟市北区","street":"三ツ屋"},{"zipCode":"9503314","prefectureKana":"ﾆｲｶﾞﾀｹﾝ","cityKana":"ﾆｲｶﾞﾀｼｷﾀｸ","streetKana":"ﾑﾗｼﾝﾃﾞﾝ","prefecture":"新潟県","city":"新潟市北区","street":"村新田"},{"zipCode":"9503368","prefectureKana":"ﾆｲｶﾞﾀｹﾝ","cityKana":"ﾆｲｶﾞﾀｼｷﾀｸ","streetKana":"ﾓﾘｼﾀ","prefecture":"新潟県","city":"新潟市北区","street":"森下"},{"zipCode":"9503326","prefectureKana":"ﾆｲｶﾞﾀｹﾝ","cityKana":"ﾆｲｶﾞﾀｼｷﾀｸ","streetKana":"ﾔﾅｷﾞﾊﾗ","prefecture":"新潟県","city":"新潟市北区","street":"柳原"},{"zipCode":"9503356","prefectureKana":"ﾆｲｶﾞﾀｹﾝ","cityKana":"ﾆｲｶﾞﾀｼｷﾀｸ","streetKana":"ﾔﾏｲｲﾉ","prefecture":"新潟県","city":"新潟市北区","street":"山飯野"},{"zipCode":"9503311","prefectureKana":"ﾆｲｶﾞﾀｹﾝ","cityKana":"ﾆｲｶﾞﾀｼｷﾀｸ","streetKana":"ﾖｺｲ","prefecture":"新潟県","city":"新潟市北区","street":"横井"},{"zipCode":"9503350","prefectureKana":"ﾆｲｶﾞﾀｹﾝ","cityKana":"ﾆｲｶﾞﾀｼｷﾀｸ","streetKana":"ﾖｺｺﾞｼ","prefecture":"新潟県","city":"新潟市北区","street":"横越"},{"zipCode":"9503303","prefectureKana":"ﾆｲｶﾞﾀｹﾝ","cityKana":"ﾆｲｶﾞﾀｼｷﾀｸ","streetKana":"ﾖｺﾄﾞｲ","prefecture":"新潟県","city":"新潟市北区","street":"横土居"},{"zipCode":"9500000","prefectureKana":"ﾆｲｶﾞﾀｹﾝ","cityKana":"ﾆｲｶﾞﾀｼﾋｶﾞｼｸ","streetKana":"ｲｶﾆｹｲｻｲｶﾞﾅｲﾊﾞｱｲ","prefecture":"新潟県","city":"新潟市東区","street":"以下に掲載がない場合"},{"zipCode":"9500054","prefectureKana":"ﾆｲｶﾞﾀｹﾝ","cityKana":"ﾆｲｶﾞﾀｼﾋｶﾞｼｸ","streetKana":"ｱｷﾊﾞ","prefecture":"新潟県","city":"新潟市東区","street":"秋葉"},{"zipCode":"9500052","prefectureKana":"ﾆｲｶﾞﾀｹﾝ","cityKana":"ﾆｲｶﾞﾀｼﾋｶﾞｼｸ","streetKana":"ｱｷﾊﾞﾄﾞｵﾘ","prefecture":"新潟県","city":"新潟市東区","street":"秋葉通"},{"zipCode":"9500843","prefectureKana":"ﾆｲｶﾞﾀｹﾝ","cityKana":"ﾆｲｶﾞﾀｼﾋｶﾞｼｸ","streetKana":"ｱﾜﾔﾏ","prefecture":"新潟県","city":"新潟市東区","street":"粟山"},{"zipCode":"9500852","prefectureKana":"ﾆｲｶﾞﾀｹﾝ","cityKana":"ﾆｲｶﾞﾀｼﾋｶﾞｼｸ","streetKana":"ｲｼﾔﾏ","prefecture":"新潟県","city":"新潟市東区","street":"石山"},{"zipCode":"9500834","prefectureKana":"ﾆｲｶﾞﾀｹﾝ","cityKana":"ﾆｲｶﾞﾀｼﾋｶﾞｼｸ","streetKana":"ｲｼﾔﾏﾀﾞﾝﾁ","prefecture":"新潟県","city":"新潟市東区","street":"石山団地"},{"zipCode":"9500805","prefectureKana":"ﾆｲｶﾞﾀｹﾝ","cityKana":"ﾆｲｶﾞﾀｼﾋｶﾞｼｸ","streetKana":"ｲｽﾙｷﾞ","prefecture":"新潟県","city":"新潟市東区","street":"石動"},{"zipCode":"9500101","prefectureKana":"ﾆｲｶﾞﾀｹﾝ","cityKana":"ﾆｲｶﾞﾀｼﾋｶﾞｼｸ","streetKana":"ｴｸﾞﾁ","prefecture":"新潟県","city":"新潟市東区","street":"江口"},{"zipCode":"9500884","prefectureKana":"ﾆｲｶﾞﾀｹﾝ","cityKana":"ﾆｲｶﾞﾀｼﾋｶﾞｼｸ","streetKana":"ｴﾉｷ","prefecture":"新潟県","city":"新潟市東区","street":"榎"},{"zipCode":"9500881","prefectureKana":"ﾆｲｶﾞﾀｹﾝ","cityKana":"ﾆｲｶﾞﾀｼﾋｶﾞｼｸ","streetKana":"ｴﾉｷﾁｮｳ","prefecture":"新潟県","city":"新潟市東区","street":"榎町"},{"zipCode":"9500806","prefectureKana":"ﾆｲｶﾞﾀｹﾝ","cityKana":"ﾆｲｶﾞﾀｼﾋｶﾞｼｸ","streetKana":"ｴﾋﾞｶﾞｾ","prefecture":"新潟県","city":"新潟市東区","street":"海老ケ瀬"},{"zipCode":"9500808","prefectureKana":"ﾆｲｶﾞﾀｹﾝ","cityKana":"ﾆｲｶﾞﾀｼﾋｶﾞｼｸ","streetKana":"ｴﾋﾞｶﾞｾｼﾝﾏﾁ","prefecture":"新潟県","city":"新潟市東区","street":"海老ケ瀬新町"},{"zipCode":"9500882","prefectureKana":"ﾆｲｶﾞﾀｹﾝ","cityKana":"ﾆｲｶﾞﾀｼﾋｶﾞｼｸ","streetKana":"ｵｳｾｼﾝﾏﾁ","prefecture":"新潟県","city":"新潟市東区","street":"王瀬新町"},{"zipCode":"9500814","prefectureKana":"ﾆｲｶﾞﾀｹﾝ","cityKana":"ﾆｲｶﾞﾀｼﾋｶﾞｼｸ","streetKana":"ｵｳﾔﾁ","prefecture":"新潟県","city":"新潟市東区","street":"逢谷内"},{"zipCode":"9500813","prefectureKana":"ﾆｲｶﾞﾀｹﾝ","cityKana":"ﾆｲｶﾞﾀｼﾋｶﾞｼｸ","streetKana":"ｵｵｶﾞﾀﾎﾝﾁｮｳ","prefecture":"新潟県","city":"新潟市東区","street":"大形本町"},{"zipCode":"9500067","prefectureKana":"ﾆｲｶﾞﾀｹﾝ","cityKana":"ﾆｲｶﾞﾀｼﾋｶﾞｼｸ","streetKana":"ｵｵﾔﾏ","prefecture":"新潟県","city":"新潟市東区","street":"大山"},{"zipCode":"9500821","prefectureKana":"ﾆｲｶﾞﾀｹﾝ","cityKana":"ﾆｲｶﾞﾀｼﾋｶﾞｼｸ","streetKana":"ｵｶﾔﾏ","prefecture":"新潟県","city":"新潟市東区","street":"岡山"},{"zipCode":"9500863","prefectureKana":"ﾆｲｶﾞﾀｹﾝ","cityKana":"ﾆｲｶﾞﾀｼﾋｶﾞｼｸ","streetKana":"ｵﾛｼｼﾝﾏﾁ","prefecture":"新潟県","city":"新潟市東区","street":"卸新町"},{"zipCode":"9500063","prefectureKana":"ﾆｲｶﾞﾀｹﾝ","cityKana":"ﾆｲｶﾞﾀｼﾋｶﾞｼｸ","streetKana":"ｶﾐｵｳｾﾏﾁ","prefecture":"新潟県","city":"新潟市東区","street":"上王瀬町"},{"zipCode":"9500891","prefectureKana":"ﾆｲｶﾞﾀｹﾝ","cityKana":"ﾆｲｶﾞﾀｼﾋｶﾞｼｸ","streetKana":"ｶﾐｷﾄﾞ","prefecture":"新潟県","city":"新潟市東区","street":"上木戸"},{"zipCode":"9500161","prefectureKana":"ﾆｲｶﾞﾀｹﾝ","cityKana":"ﾆｲｶﾞﾀｼﾋｶﾞｼｸ","streetKana":"ｶﾒﾀﾞﾅｶｼﾞﾏ","prefecture":"新潟県","city":"新潟市東区","street":"亀田中島"},{"zipCode":"9500883","prefectureKana":"ﾆｲｶﾞﾀｹﾝ","cityKana":"ﾆｲｶﾞﾀｼﾋｶﾞｼｸ","streetKana":"ｶﾓﾒｼﾞﾏﾁｮｳ","prefecture":"新潟県","city":"新潟市東区","street":"鴎島町"},{"zipCode":"9500055","prefectureKana":"ﾆｲｶﾞﾀｹﾝ","cityKana":"ﾆｲｶﾞﾀｼﾋｶﾞｼｸ","streetKana":"ｷﾀﾊﾞﾁｮｳ","prefecture":"新潟県","city":"新潟市東区","street":"北葉町"},{"zipCode":"9500116","prefectureKana":"ﾆｲｶﾞﾀｹﾝ","cityKana":"ﾆｲｶﾞﾀｼﾋｶﾞｼｸ","streetKana":"ｷﾀﾔﾏ","prefecture":"新潟県","city":"新潟市東区","street":"北山"},{"zipCode":"9500036","prefectureKana":"ﾆｲｶﾞﾀｹﾝ","cityKana":"ﾆｲｶﾞﾀｼﾋｶﾞｼｸ","streetKana":"ｸｳｺｳﾆｼ","prefecture":"新潟県","city":"新潟市東区","street":"空港西"},{"zipCode":"9500831","prefectureKana":"ﾆｲｶﾞﾀｹﾝ","cityKana":"ﾆｲｶﾞﾀｼﾋｶﾞｼｸ","streetKana":"ｹﾞﾊﾞ","prefecture":"新潟県","city":"新潟市東区","street":"下場"},{"zipCode":"9500832","prefectureKana":"ﾆｲｶﾞﾀｹﾝ","cityKana":"ﾆｲｶﾞﾀｼﾋｶﾞｼｸ","streetKana":"ｹﾞﾊﾞｼﾝﾏﾁ","prefecture":"新潟県","city":"新潟市東区","street":"下場新町"},{"zipCode":"9500833","prefectureKana":"ﾆｲｶﾞﾀｹﾝ","cityKana":"ﾆｲｶﾞﾀｼﾋｶﾞｼｸ","streetKana":"ｹﾞﾊﾞﾎﾝﾁｮｳ","prefecture":"新潟県","city":"新潟市東区","street":"下場本町"},{"zipCode":"9500022","prefectureKana":"ﾆｲｶﾞﾀｹﾝ","cityKana":"ﾆｲｶﾞﾀｼﾋｶﾞｼｸ","streetKana":"ｺｳｴｲ","prefecture":"新潟県","city":"新潟市東区","street":"幸栄"},{"zipCode":"9500024","prefectureKana":"ﾆｲｶﾞﾀｹﾝ","cityKana":"ﾆｲｶﾞﾀｼﾋｶﾞｼｸ","streetKana":"ｺｳﾄﾞ","prefecture":"新潟県","city":"新潟市東区","street":"河渡"},{"zipCode":"9500015","prefectureKana":"ﾆｲｶﾞﾀｹﾝ","cityKana":"ﾆｲｶﾞﾀｼﾋｶﾞｼｸ","streetKana":"ｺｳﾄﾞｶﾉｴ","prefecture":"新潟県","city":"新潟市東区","street":"河渡庚"},{"zipCode":"9500032","prefectureKana":"ﾆｲｶﾞﾀｹﾝ","cityKana":"ﾆｲｶﾞﾀｼﾋｶﾞｼｸ","streetKana":"ｺｳﾄﾞｺｳ","prefecture":"新潟県","city":"新潟市東区","street":"河渡甲"},{"zipCode":"9500033","prefectureKana":"ﾆｲｶﾞﾀｹﾝ","cityKana":"ﾆｲｶﾞﾀｼﾋｶﾞｼｸ","streetKana":"ｺｳﾄﾞｼﾝﾏﾁ","prefecture":"新潟県","city":"新潟市東区","street":"河渡新町"},{"zipCode":"9500016","prefectureKana":"ﾆｲｶﾞﾀｹﾝ","cityKana":"ﾆｲｶﾞﾀｼﾋｶﾞｼｸ","streetKana":"ｺｳﾄﾞﾎﾝﾁｮｳ","prefecture":"新潟県","city":"新潟市東区","street":"河渡本町"},{"zipCode":"9500855","prefectureKana":"ﾆｲｶﾞﾀｹﾝ","cityKana":"ﾆｲｶﾞﾀｼﾋｶﾞｼｸ","streetKana":"ｺｳﾅﾝ","prefecture":"新潟県","city":"新潟市東区","street":"江南"},{"zipCode":"9500011","prefectureKana":"ﾆｲｶﾞﾀｹﾝ","cityKana":"ﾆｲｶﾞﾀｼﾋｶﾞｼｸ","streetKana":"ｺｳﾖｳ","prefecture":"新潟県","city":"新潟市東区","street":"向陽"},{"zipCode":"9500028","prefectureKana":"ﾆｲｶﾞﾀｹﾝ","cityKana":"ﾆｲｶﾞﾀｼﾋｶﾞｼｸ","streetKana":"ｺｶﾞﾈﾀﾞｲ","prefecture":"新潟県","city":"新潟市東区","street":"小金台"},{"zipCode":"9500026","prefectureKana":"ﾆｲｶﾞﾀｹﾝ","cityKana":"ﾆｲｶﾞﾀｼﾋｶﾞｼｸ","streetKana":"ｺｶﾞﾈﾁｮｳ","prefecture":"新潟県","city":"新潟市東区","street":"小金町"},{"zipCode":"9500811","prefectureKana":"ﾆｲｶﾞﾀｹﾝ","cityKana":"ﾆｲｶﾞﾀｼﾋｶﾞｼｸ","streetKana":"ｻﾞｲﾓｸﾁｮｳ","prefecture":"新潟県","city":"新潟市東区","street":"材木町"},{"zipCode":"9500835","prefectureKana":"ﾆｲｶﾞﾀｹﾝ","cityKana":"ﾆｲｶﾞﾀｼﾋｶﾞｼｸ","streetKana":"ｻﾙｶﾞﾊﾞﾊﾞ","prefecture":"新潟県","city":"新潟市東区","street":"猿ケ馬場"},{"zipCode":"9500003","prefectureKana":"ﾆｲｶﾞﾀｹﾝ","cityKana":"ﾆｲｶﾞﾀｼﾋｶﾞｼｸ","streetKana":"ｼﾀﾔﾏ","prefecture":"新潟県","city":"新潟市東区","street":"下山"},{"zipCode":"9500864","prefectureKana":"ﾆｲｶﾞﾀｹﾝ","cityKana":"ﾆｲｶﾞﾀｼﾋｶﾞｼｸ","streetKana":"ｼﾁｸ","prefecture":"新潟県","city":"新潟市東区","street":"紫竹"},{"zipCode":"9500868","prefectureKana":"ﾆｲｶﾞﾀｹﾝ","cityKana":"ﾆｲｶﾞﾀｼﾋｶﾞｼｸ","streetKana":"ｼﾁｸｵﾛｼｼﾝﾏﾁ","prefecture":"新潟県","city":"新潟市東区","street":"紫竹卸新町"},{"zipCode":"9500914","prefectureKana":"ﾆｲｶﾞﾀｹﾝ","cityKana":"ﾆｲｶﾞﾀｼﾋｶﾞｼｸ","streetKana":"ｼﾁｸﾔﾏ","prefecture":"新潟県","city":"新潟市東区","street":"紫竹山"},{"zipCode":"9500885","prefectureKana":"ﾆｲｶﾞﾀｹﾝ","cityKana":"ﾆｲｶﾞﾀｼﾋｶﾞｼｸ","streetKana":"ｼﾓｷﾄﾞ","prefecture":"新潟県","city":"新潟市東区","street":"下木戸"},{"zipCode":"9500013","prefectureKana":"ﾆｲｶﾞﾀｹﾝ","cityKana":"ﾆｲｶﾞﾀｼﾋｶﾞｼｸ","streetKana":"ｼﾛｶﾞﾈ","prefecture":"新潟県","city":"新潟市東区","street":"白銀"},{"zipCode":"9500851","prefectureKana":"ﾆｲｶﾞﾀｹﾝ","cityKana":"ﾆｲｶﾞﾀｼﾋｶﾞｼｸ","streetKana":"ｼﾝｲｼﾔﾏ","prefecture":"新潟県","city":"新潟市東区","street":"新石山"},{"zipCode":"9500822","prefectureKana":"ﾆｲｶﾞﾀｹﾝ","cityKana":"ﾆｲｶﾞﾀｼﾋｶﾞｼｸ","streetKana":"ｼﾝｵｶﾔﾏ","prefecture":"新潟県","city":"新潟市東区","street":"新岡山"},{"zipCode":"9500004","prefectureKana":"ﾆｲｶﾞﾀｹﾝ","cityKana":"ﾆｲｶﾞﾀｼﾋｶﾞｼｸ","streetKana":"ｼﾝｶﾜﾁｮｳ","prefecture":"新潟県","city":"新潟市東区","street":"新川町"},{"zipCode":"9500017","prefectureKana":"ﾆｲｶﾞﾀｹﾝ","cityKana":"ﾆｲｶﾞﾀｼﾋｶﾞｼｸ","streetKana":"ｼﾝﾏﾂｻｷ","prefecture":"新潟県","city":"新潟市東区","street":"新松崎"},{"zipCode":"9500045","prefectureKana":"ﾆｲｶﾞﾀｹﾝ","cityKana":"ﾆｲｶﾞﾀｼﾋｶﾞｼｸ","streetKana":"ｼﾝﾒｲﾁｮｳ","prefecture":"新潟県","city":"新潟市東区","street":"神明町"},{"zipCode":"9500071","prefectureKana":"ﾆｲｶﾞﾀｹﾝ","cityKana":"ﾆｲｶﾞﾀｼﾋｶﾞｼｸ","streetKana":"ｽｴﾋﾛﾁｮｳ","prefecture":"新潟県","city":"新潟市東区","street":"末広町"},{"zipCode":"9500005","prefectureKana":"ﾆｲｶﾞﾀｹﾝ","cityKana":"ﾆｲｶﾞﾀｼﾋｶﾞｼｸ","streetKana":"ﾀｲﾍｲ","prefecture":"新潟県","city":"新潟市東区","street":"太平"},{"zipCode":"9500053","prefectureKana":"ﾆｲｶﾞﾀｹﾝ","cityKana":"ﾆｲｶﾞﾀｼﾋｶﾞｼｸ","streetKana":"ﾀｶﾗﾏﾁ","prefecture":"新潟県","city":"新潟市東区","street":"宝町"},{"zipCode":"9500862","prefectureKana":"ﾆｲｶﾞﾀｹﾝ","cityKana":"ﾆｲｶﾞﾀｼﾋｶﾞｼｸ","streetKana":"ﾀｹｵ","prefecture":"新潟県","city":"新潟市東区","street":"竹尾"},{"zipCode":"9500867","prefectureKana":"ﾆｲｶﾞﾀｹﾝ","cityKana":"ﾆｲｶﾞﾀｼﾋｶﾞｼｸ","streetKana":"ﾀｹｵｵﾛｼｼﾝﾏﾁ","prefecture":"新潟県","city":"新潟市東区","street":"竹尾卸新町"},{"zipCode":"9500825","prefectureKana":"ﾆｲｶﾞﾀｹﾝ","cityKana":"ﾆｲｶﾞﾀｼﾋｶﾞｼｸ","streetKana":"ﾁｺﾞｲｹ","prefecture":"新潟県","city":"新潟市東区","street":"児池"},{"zipCode":"9500066","prefectureKana":"ﾆｲｶﾞﾀｹﾝ","cityKana":"ﾆｲｶﾞﾀｼﾋｶﾞｼｸ","streetKana":"ﾁｮｳｼﾞｬﾏﾁ","prefecture":"新潟県","city":"新潟市東区","street":"長者町"},{"zipCode":"9500061","prefectureKana":"ﾆｲｶﾞﾀｹﾝ","cityKana":"ﾆｲｶﾞﾀｼﾋｶﾞｼｸ","streetKana":"ﾂｷﾐﾁｮｳ","prefecture":"新潟県","city":"新潟市東区","street":"月見町"},{"zipCode":"9500801","prefectureKana":"ﾆｲｶﾞﾀｹﾝ","cityKana":"ﾆｲｶﾞﾀｼﾋｶﾞｼｸ","streetKana":"ﾂｼﾏﾔ","prefecture":"新潟県","city":"新潟市東区","street":"津島屋"},{"zipCode":"9500892","prefectureKana":"ﾆｲｶﾞﾀｹﾝ","cityKana":"ﾆｲｶﾞﾀｼﾋｶﾞｼｸ","streetKana":"ﾃﾗﾔﾏ","prefecture":"新潟県","city":"新潟市東区","street":"寺山"},{"zipCode":"9500065","prefectureKana":"ﾆｲｶﾞﾀｹﾝ","cityKana":"ﾆｲｶﾞﾀｼﾋｶﾞｼｸ","streetKana":"ﾄｳｼﾝﾁｮｳ","prefecture":"新潟県","city":"新潟市東区","street":"東新町"},{"zipCode":"9500853","prefectureKana":"ﾆｲｶﾞﾀｹﾝ","cityKana":"ﾆｲｶﾞﾀｼﾋｶﾞｼｸ","streetKana":"ﾄｳﾒｲ","prefecture":"新潟県","city":"新潟市東区","street":"東明"},{"zipCode":"9500886","prefectureKana":"ﾆｲｶﾞﾀｹﾝ","cityKana":"ﾆｲｶﾞﾀｼﾋｶﾞｼｸ","streetKana":"ﾅｶｷﾄﾞ","prefecture":"新潟県","city":"新潟市東区","street":"中木戸"},{"zipCode":"9500803","prefectureKana":"ﾆｲｶﾞﾀｹﾝ","cityKana":"ﾆｲｶﾞﾀｼﾋｶﾞｼｸ","streetKana":"ﾅｶｺﾞｳﾔ","prefecture":"新潟県","city":"新潟市東区","street":"中興野"},{"zipCode":"9500824","prefectureKana":"ﾆｲｶﾞﾀｹﾝ","cityKana":"ﾆｲｶﾞﾀｼﾋｶﾞｼｸ","streetKana":"ﾅｶｼﾞﾏ","prefecture":"新潟県","city":"新潟市東区","street":"中島"},{"zipCode":"9500841","prefectureKana":"ﾆｲｶﾞﾀｹﾝ","cityKana":"ﾆｲｶﾞﾀｼﾋｶﾞｼｸ","streetKana":"ﾅｶﾉﾔﾏ","prefecture":"新潟県","city":"新潟市東区","street":"中野山"},{"zipCode":"9500861","prefectureKana":"ﾆｲｶﾞﾀｹﾝ","cityKana":"ﾆｲｶﾞﾀｼﾋｶﾞｼｸ","streetKana":"ﾅｶﾔﾏ","prefecture":"新潟県","city":"新潟市東区","street":"中山"},{"zipCode":"9500062","prefectureKana":"ﾆｲｶﾞﾀｹﾝ","cityKana":"ﾆｲｶﾞﾀｼﾋｶﾞｼｸ","streetKana":"ﾆｼｷﾏﾁ","prefecture":"新潟県","city":"新潟市東区","street":"錦町"},{"zipCode":"9500106","prefectureKana":"ﾆｲｶﾞﾀｹﾝ","cityKana":"ﾆｲｶﾞﾀｼﾋｶﾞｼｸ","streetKana":"ﾆｼﾉ","prefecture":"新潟県","city":"新潟市東区","street":"西野"},{"zipCode":"9500002","prefectureKana":"ﾆｲｶﾞﾀｹﾝ","cityKana":"ﾆｲｶﾞﾀｼﾋｶﾞｼｸ","streetKana":"ﾈﾑﾛｼﾝﾏﾁ","prefecture":"新潟県","city":"新潟市東区","street":"根室新町"},{"zipCode":"9500893","prefectureKana":"ﾆｲｶﾞﾀｹﾝ","cityKana":"ﾆｲｶﾞﾀｼﾋｶﾞｼｸ","streetKana":"ﾊﾅﾐｽﾞｷ","prefecture":"新潟県","city":"新潟市東区","street":"はなみずき"},{"zipCode":"9500046","prefectureKana":"ﾆｲｶﾞﾀｹﾝ","cityKana":"ﾆｲｶﾞﾀｼﾋｶﾞｼｸ","streetKana":"ﾊﾏﾁｮｳ","prefecture":"新潟県","city":"新潟市東区","street":"浜町"},{"zipCode":"9500034","prefectureKana":"ﾆｲｶﾞﾀｹﾝ","cityKana":"ﾆｲｶﾞﾀｼﾋｶﾞｼｸ","streetKana":"ﾊﾏﾔﾁｮｳ","prefecture":"新潟県","city":"新潟市東区","street":"浜谷町"},{"zipCode":"9500823","prefectureKana":"ﾆｲｶﾞﾀｹﾝ","cityKana":"ﾆｲｶﾞﾀｼﾋｶﾞｼｸ","streetKana":"ﾋｶﾞｼﾅｶｼﾞﾏ","prefecture":"新潟県","city":"新潟市東区","street":"東中島"},{"zipCode":"9500836","prefectureKana":"ﾆｲｶﾞﾀｹﾝ","cityKana":"ﾆｲｶﾞﾀｼﾋｶﾞｼｸ","streetKana":"ﾋｶﾞｼﾅｶﾉﾔﾏ","prefecture":"新潟県","city":"新潟市東区","street":"東中野山"},{"zipCode":"9500042","prefectureKana":"ﾆｲｶﾞﾀｹﾝ","cityKana":"ﾆｲｶﾞﾀｼﾋｶﾞｼｸ","streetKana":"ﾋｶﾞｼﾘﾝｺｳﾁｮｳ","prefecture":"新潟県","city":"新潟市東区","street":"東臨港町"},{"zipCode":"9500802","prefectureKana":"ﾆｲｶﾞﾀｹﾝ","cityKana":"ﾆｲｶﾞﾀｼﾋｶﾞｼｸ","streetKana":"ﾋﾄｲﾁ","prefecture":"新潟県","city":"新潟市東区","street":"一日市"},{"zipCode":"9500025","prefectureKana":"ﾆｲｶﾞﾀｹﾝ","cityKana":"ﾆｲｶﾞﾀｼﾋｶﾞｼｸ","streetKana":"ﾌｼﾞﾐﾁｮｳ","prefecture":"新潟県","city":"新潟市東区","street":"藤見町"},{"zipCode":"9500031","prefectureKana":"ﾆｲｶﾞﾀｹﾝ","cityKana":"ﾆｲｶﾞﾀｼﾋｶﾞｼｸ","streetKana":"ﾌﾅｴﾁｮｳ","prefecture":"新潟県","city":"新潟市東区","street":"船江町"},{"zipCode":"9500056","prefectureKana":"ﾆｲｶﾞﾀｹﾝ","cityKana":"ﾆｲｶﾞﾀｼﾋｶﾞｼｸ","streetKana":"ﾌﾙｶﾜﾁｮｳ","prefecture":"新潟県","city":"新潟市東区","street":"古川町"},{"zipCode":"9500044","prefectureKana":"ﾆｲｶﾞﾀｹﾝ","cityKana":"ﾆｲｶﾞﾀｼﾋｶﾞｼｸ","streetKana":"ﾌﾙﾐﾅﾄﾏﾁ","prefecture":"新潟県","city":"新潟市東区","street":"古湊町"},{"zipCode":"9500035","prefectureKana":"ﾆｲｶﾞﾀｹﾝ","cityKana":"ﾆｲｶﾞﾀｼﾋｶﾞｼｸ","streetKana":"ﾍｲﾜﾁｮｳ","prefecture":"新潟県","city":"新潟市東区","street":"平和町"},{"zipCode":"9500872","prefectureKana":"ﾆｲｶﾞﾀｹﾝ","cityKana":"ﾆｲｶﾞﾀｼﾋｶﾞｼｸ","streetKana":"ﾎﾞﾀﾝﾔﾏ","prefecture":"新潟県","city":"新潟市東区","street":"牡丹山"},{"zipCode":"9500804","prefectureKana":"ﾆｲｶﾞﾀｹﾝ","cityKana":"ﾆｲｶﾞﾀｼﾋｶﾞｼｸ","streetKana":"ﾎﾝｼﾞｮ","prefecture":"新潟県","city":"新潟市東区","street":"本所"},{"zipCode":"9500014","prefectureKana":"ﾆｲｶﾞﾀｹﾝ","cityKana":"ﾆｲｶﾞﾀｼﾋｶﾞｼｸ","streetKana":"ﾏﾂｻｷ","prefecture":"新潟県","city":"新潟市東区","street":"松崎"},{"zipCode":"9500064","prefectureKana":"ﾆｲｶﾞﾀｹﾝ","cityKana":"ﾆｲｶﾞﾀｼﾋｶﾞｼｸ","streetKana":"ﾏﾂｼﾏ","prefecture":"新潟県","city":"新潟市東区","street":"松島"},{"zipCode":"9500023","prefectureKana":"ﾆｲｶﾞﾀｹﾝ","cityKana":"ﾆｲｶﾞﾀｼﾋｶﾞｼｸ","streetKana":"ﾏﾂｿﾞﾉ","prefecture":"新潟県","city":"新潟市東区","street":"松園"},{"zipCode":"9500001","prefectureKana":"ﾆｲｶﾞﾀｹﾝ","cityKana":"ﾆｲｶﾞﾀｼﾋｶﾞｼｸ","streetKana":"ﾏﾂﾊﾏﾁｮｳ","prefecture":"新潟県","city":"新潟市東区","street":"松浜町"},{"zipCode":"9500027","prefectureKana":"ﾆｲｶﾞﾀｹﾝ","cityKana":"ﾆｲｶﾞﾀｼﾋｶﾞｼｸ","streetKana":"ﾏﾂﾜﾁｮｳ","prefecture":"新潟県","city":"新潟市東区","street":"松和町"},{"zipCode":"9500854","prefectureKana":"ﾆｲｶﾞﾀｹﾝ","cityKana":"ﾆｲｶﾞﾀｼﾋｶﾞｼｸ","streetKana":"ﾐﾅﾐｼﾁｸ","prefecture":"新潟県","city":"新潟市東区","street":"南紫竹"},{"zipCode":"9500842","prefectureKana":"ﾆｲｶﾞﾀｹﾝ","cityKana":"ﾆｲｶﾞﾀｼﾋｶﾞｼｸ","streetKana":"ﾓｴｷﾞﾉ","prefecture":"新潟県","city":"新潟市東区","street":"もえぎ野"},{"zipCode":"9500807","prefectureKana":"ﾆｲｶﾞﾀｹﾝ","cityKana":"ﾆｲｶﾞﾀｼﾋｶﾞｼｸ","streetKana":"ﾓｯｺｳｼﾝﾏﾁ","prefecture":"新潟県","city":"新潟市東区","street":"木工新町"},{"zipCode":"9500021","prefectureKana":"ﾆｲｶﾞﾀｹﾝ","cityKana":"ﾆｲｶﾞﾀｼﾋｶﾞｼｸ","streetKana":"ﾓﾉﾐﾔﾏ","prefecture":"新潟県","city":"新潟市東区","street":"物見山"},{"zipCode":"9500051","prefectureKana":"ﾆｲｶﾞﾀｹﾝ","cityKana":"ﾆｲｶﾞﾀｼﾋｶﾞｼｸ","streetKana":"ﾓﾓﾔﾏﾁｮｳ","prefecture":"新潟県","city":"新潟市東区","street":"桃山町"},{"zipCode":"9500809","prefectureKana":"ﾆｲｶﾞﾀｹﾝ","cityKana":"ﾆｲｶﾞﾀｼﾋｶﾞｼｸ","streetKana":"ﾔﾅｷﾞｶﾞｵｶ","prefecture":"新潟県","city":"新潟市東区","street":"柳ケ丘"},{"zipCode":"9500871","prefectureKana":"ﾆｲｶﾞﾀｹﾝ","cityKana":"ﾆｲｶﾞﾀｼﾋｶﾞｼｸ","streetKana":"ﾔﾏｷﾄﾞ","prefecture":"新潟県","city":"新潟市東区","street":"山木戸"},{"zipCode":"9500057","prefectureKana":"ﾆｲｶﾞﾀｹﾝ","cityKana":"ﾆｲｶﾞﾀｼﾋｶﾞｼｸ","streetKana":"ﾔﾏﾉｼﾀﾏﾁ","prefecture":"新潟県","city":"新潟市東区","street":"山の下町"},{"zipCode":"9500012","prefectureKana":"ﾆｲｶﾞﾀｹﾝ","cityKana":"ﾆｲｶﾞﾀｼﾋｶﾞｼｸ","streetKana":"ﾕｳﾗｸ","prefecture":"新潟県","city":"新潟市東区","street":"有楽"},{"zipCode":"9500812","prefectureKana":"ﾆｲｶﾞﾀｹﾝ","cityKana":"ﾆｲｶﾞﾀｼﾋｶﾞｼｸ","streetKana":"ﾕﾀｶ","prefecture":"新潟県","city":"新潟市東区","street":"豊"},{"zipCode":"9500047","prefectureKana":"ﾆｲｶﾞﾀｹﾝ","cityKana":"ﾆｲｶﾞﾀｼﾋｶﾞｼｸ","streetKana":"ﾘﾝｶｲﾁｮｳ","prefecture":"新潟県","city":"新潟市東区","street":"臨海町"},{"zipCode":"9500043","prefectureKana":"ﾆｲｶﾞﾀｹﾝ","cityKana":"ﾆｲｶﾞﾀｼﾋｶﾞｼｸ","streetKana":"ﾘﾝｺｳ","prefecture":"新潟県","city":"新潟市東区","street":"臨港"},{"zipCode":"9500041","prefectureKana":"ﾆｲｶﾞﾀｹﾝ","cityKana":"ﾆｲｶﾞﾀｼﾋｶﾞｼｸ","streetKana":"ﾘﾝｺｳﾁｮｳ","prefecture":"新潟県","city":"新潟市東区","street":"臨港町"},{"zipCode":"9500837","prefectureKana":"ﾆｲｶﾞﾀｹﾝ","cityKana":"ﾆｲｶﾞﾀｼﾋｶﾞｼｸ","streetKana":"ﾜｶﾊﾞﾁｮｳ","prefecture":"新潟県","city":"新潟市東区","street":"若葉町"},{"zipCode":"9500000","prefectureKana":"ﾆｲｶﾞﾀｹﾝ","cityKana":"ﾆｲｶﾞﾀｼﾁｭｳｵｳｸ","streetKana":"ｲｶﾆｹｲｻｲｶﾞﾅｲﾊﾞｱｲ","prefecture":"新潟県","city":"新潟市中央区","street":"以下に掲載がない場合"},{"zipCode":"9500084","prefectureKana":"ﾆｲｶﾞﾀｹﾝ","cityKana":"ﾆｲｶﾞﾀｼﾁｭｳｵｳｸ","streetKana":"ｱｶｼ","prefecture":"新潟県","city":"新潟市中央区","street":"明石"},{"zipCode":"9500944","prefectureKana":"ﾆｲｶﾞﾀｹﾝ","cityKana":"ﾆｲｶﾞﾀｼﾁｭｳｵｳｸ","streetKana":"ｱﾀｺﾞ","prefecture":"新潟県","city":"新潟市中央区","street":"愛宕"},{"zipCode":"9500913","prefectureKana":"ﾆｲｶﾞﾀｹﾝ","cityKana":"ﾆｲｶﾞﾀｼﾁｭｳｵｳｸ","streetKana":"ｱﾌﾞﾐ","prefecture":"新潟県","city":"新潟市中央区","street":"鐙"},{"zipCode":"9500915","prefectureKana":"ﾆｲｶﾞﾀｹﾝ","cityKana":"ﾆｲｶﾞﾀｼﾁｭｳｵｳｸ","streetKana":"ｱﾌﾞﾐﾆｼ","prefecture":"新潟県","city":"新潟市中央区","street":"鐙西"},{"zipCode":"9500964","prefectureKana":"ﾆｲｶﾞﾀｹﾝ","cityKana":"ﾆｲｶﾞﾀｼﾁｭｳｵｳｸ","streetKana":"ｱﾐｶﾞﾜﾗ","prefecture":"新潟県","city":"新潟市中央区","street":"網川原"},{"zipCode":"9500157","prefectureKana":"ﾆｲｶﾞﾀｹﾝ","cityKana":"ﾆｲｶﾞﾀｼﾁｭｳｵｳｸ","streetKana":"ｳﾉｺ","prefecture":"新潟県","city":"新潟市中央区","street":"鵜ノ子"},{"zipCode":"9500923","prefectureKana":"ﾆｲｶﾞﾀｹﾝ","cityKana":"ﾆｲｶﾞﾀｼﾁｭｳｵｳｸ","streetKana":"ｳﾊﾞｶﾞﾔﾏ","prefecture":"新潟県","city":"新潟市中央区","street":"姥ケ山"},{"zipCode":"9501148","prefectureKana":"ﾆｲｶﾞﾀｹﾝ","cityKana":"ﾆｲｶﾞﾀｼﾁｭｳｵｳｸ","streetKana":"ｳﾜﾇﾏ","prefecture":"新潟県","city":"新潟市中央区","street":"上沼"},{"zipCode":"9500971","prefectureKana":"ﾆｲｶﾞﾀｹﾝ","cityKana":"ﾆｲｶﾞﾀｼﾁｭｳｵｳｸ","streetKana":"ｵｳﾐ","prefecture":"新潟県","city":"新潟市中央区","street":"近江"},{"zipCode":"9500953","prefectureKana":"ﾆｲｶﾞﾀｹﾝ","cityKana":"ﾆｲｶﾞﾀｼﾁｭｳｵｳｸ","streetKana":"ｵｵｼﾞﾏ","prefecture":"新潟県","city":"新潟市中央区","street":"大島"},{"zipCode":"9501144","prefectureKana":"ﾆｲｶﾞﾀｹﾝ","cityKana":"ﾆｲｶﾞﾀｼﾁｭｳｵｳｸ","streetKana":"ｵｼﾞｺﾞﾔ","prefecture":"新潟県","city":"新潟市中央区","street":"祖父興野"},{"zipCode":"9500952","prefectureKana":"ﾆｲｶﾞﾀｹﾝ","cityKana":"ﾆｲｶﾞﾀｼﾁｭｳｵｳｸ","streetKana":"ｵﾔﾏﾂ","prefecture":"新潟県","city":"新潟市中央区","street":"親松"},{"zipCode":"9500074","prefectureKana":"ﾆｲｶﾞﾀｹﾝ","cityKana":"ﾆｲｶﾞﾀｼﾁｭｳｵｳｸ","streetKana":"ｶｶﾞﾐｶﾞｵｶ","prefecture":"新潟県","city":"新潟市中央区","street":"鏡が岡"},{"zipCode":"9501133","prefectureKana":"ﾆｲｶﾞﾀｹﾝ","cityKana":"ﾆｲｶﾞﾀｼﾁｭｳｵｳｸ","streetKana":"ｶｷﾞ","prefecture":"新潟県","city":"新潟市中央区","street":"嘉木"},{"zipCode":"9500903","prefectureKana":"ﾆｲｶﾞﾀｹﾝ","cityKana":"ﾆｲｶﾞﾀｼﾁｭｳｵｳｸ","streetKana":"ｶｽｶﾞﾁｮｳ","prefecture":"新潟県","city":"新潟市中央区","street":"春日町"},{"zipCode":"9500973","prefectureKana":"ﾆｲｶﾞﾀｹﾝ","cityKana":"ﾆｲｶﾞﾀｼﾁｭｳｵｳｸ","streetKana":"ｶﾐｵｳﾐ","prefecture":"新潟県","city":"新潟市中央区","street":"上近江"},{"zipCode":"9500994","prefectureKana":"ﾆｲｶﾞﾀｹﾝ","cityKana":"ﾆｲｶﾞﾀｼﾁｭｳｵｳｸ","streetKana":"ｶﾐﾄｺﾛ","prefecture":"新潟県","city":"新潟市中央区","street":"上所"},{"zipCode":"9500992","prefectureKana":"ﾆｲｶﾞﾀｹﾝ","cityKana":"ﾆｲｶﾞﾀｼﾁｭｳｵｳｸ","streetKana":"ｶﾐﾄｺﾛｶﾐ","prefecture":"新潟県","city":"新潟市中央区","street":"上所上"},{"zipCode":"9500993","prefectureKana":"ﾆｲｶﾞﾀｹﾝ","cityKana":"ﾆｲｶﾞﾀｼﾁｭｳｵｳｸ","streetKana":"ｶﾐﾄｺﾛﾅｶ","prefecture":"新潟県","city":"新潟市中央区","street":"上所中"},{"zipCode":"9500145","prefectureKana":"ﾆｲｶﾞﾀｹﾝ","cityKana":"ﾆｲｶﾞﾀｼﾁｭｳｵｳｸ","streetKana":"ｶﾒﾀﾞﾊﾔﾄﾞｵﾘ","prefecture":"新潟県","city":"新潟市中央区","street":"亀田早通"},{"zipCode":"9500983","prefectureKana":"ﾆｲｶﾞﾀｹﾝ","cityKana":"ﾆｲｶﾞﾀｼﾁｭｳｵｳｸ","streetKana":"ｶﾝﾄﾞｳｼﾞ","prefecture":"新潟県","city":"新潟市中央区","street":"神道寺"},{"zipCode":"9500986","prefectureKana":"ﾆｲｶﾞﾀｹﾝ","cityKana":"ﾆｲｶﾞﾀｼﾁｭｳｵｳｸ","streetKana":"ｶﾝﾄﾞｳｼﾞﾐﾅﾐ","prefecture":"新潟県","city":"新潟市中央区","street":"神道寺南"},{"zipCode":"9500083","prefectureKana":"ﾆｲｶﾞﾀｹﾝ","cityKana":"ﾆｲｶﾞﾀｼﾁｭｳｵｳｸ","streetKana":"ｶﾝﾊﾞﾗﾏﾁ","prefecture":"新潟県","city":"新潟市中央区","street":"蒲原町"},{"zipCode":"9501145","prefectureKana":"ﾆｲｶﾞﾀｹﾝ","cityKana":"ﾆｲｶﾞﾀｼﾁｭｳｵｳｸ","streetKana":"ｷｭｳｿﾞｳｺﾞﾔ","prefecture":"新潟県","city":"新潟市中央区","street":"久蔵興野"},{"zipCode":"9500921","prefectureKana":"ﾆｲｶﾞﾀｹﾝ","cityKana":"ﾆｲｶﾞﾀｼﾁｭｳｵｳｸ","streetKana":"ｹｲｵｳ","prefecture":"新潟県","city":"新潟市中央区","street":"京王"},{"zipCode":"9500926","prefectureKana":"ﾆｲｶﾞﾀｹﾝ","cityKana":"ﾆｲｶﾞﾀｼﾁｭｳｵｳｸ","streetKana":"ｺｳｼ","prefecture":"新潟県","city":"新潟市中央区","street":"高志"},{"zipCode":"9501151","prefectureKana":"ﾆｲｶﾞﾀｹﾝ","cityKana":"ﾆｲｶﾞﾀｼﾁｭｳｵｳｸ","streetKana":"ｺﾅﾝ","prefecture":"新潟県","city":"新潟市中央区","street":"湖南"},{"zipCode":"9500942","prefectureKana":"ﾆｲｶﾞﾀｹﾝ","cityKana":"ﾆｲｶﾞﾀｼﾁｭｳｵｳｸ","streetKana":"ｺﾊﾞﾘﾉｷ","prefecture":"新潟県","city":"新潟市中央区","street":"小張木"},{"zipCode":"9500907","prefectureKana":"ﾆｲｶﾞﾀｹﾝ","cityKana":"ﾆｲｶﾞﾀｼﾁｭｳｵｳｸ","streetKana":"ｻｲﾜｲﾁｮｳ","prefecture":"新潟県","city":"新潟市中央区","street":"幸町"},{"zipCode":"9500908","prefectureKana":"ﾆｲｶﾞﾀｹﾝ","cityKana":"ﾆｲｶﾞﾀｼﾁｭｳｵｳｸ","streetKana":"ｻｲﾜｲﾆｼ","prefecture":"新潟県","city":"新潟市中央区","street":"幸西"},{"zipCode":"9500949","prefectureKana":"ﾆｲｶﾞﾀｹﾝ","cityKana":"ﾆｲｶﾞﾀｼﾁｭｳｵｳｸ","streetKana":"ｻｸﾗｷﾞﾁｮｳ","prefecture":"新潟県","city":"新潟市中央区","street":"桜木町"},{"zipCode":"9500911","prefectureKana":"ﾆｲｶﾞﾀｹﾝ","cityKana":"ﾆｲｶﾞﾀｼﾁｭｳｵｳｸ","streetKana":"ｻｻｸﾞﾁ","prefecture":"新潟県","city":"新潟市中央区","street":"笹口"},{"zipCode":"9500081","prefectureKana":"ﾆｲｶﾞﾀｹﾝ","cityKana":"ﾆｲｶﾞﾀｼﾁｭｳｵｳｸ","streetKana":"ｻﾝﾜﾁｮｳ","prefecture":"新潟県","city":"新潟市中央区","street":"三和町"},{"zipCode":"9500864","prefectureKana":"ﾆｲｶﾞﾀｹﾝ","cityKana":"ﾆｲｶﾞﾀｼﾁｭｳｵｳｸ","streetKana":"ｼﾁｸ","prefecture":"新潟県","city":"新潟市中央区","street":"紫竹"},{"zipCode":"9500914","prefectureKana":"ﾆｲｶﾞﾀｹﾝ","cityKana":"ﾆｲｶﾞﾀｼﾁｭｳｵｳｸ","streetKana":"ｼﾁｸﾔﾏ","prefecture":"新潟県","city":"新潟市中央区","street":"紫竹山"},{"zipCode":"9500991","prefectureKana":"ﾆｲｶﾞﾀｹﾝ","cityKana":"ﾆｲｶﾞﾀｼﾁｭｳｵｳｸ","streetKana":"ｼﾓﾄｺﾛｼﾞﾏ","prefecture":"新潟県","city":"新潟市中央区","street":"下所島"},{"zipCode":"9501141","prefectureKana":"ﾆｲｶﾞﾀｹﾝ","cityKana":"ﾆｲｶﾞﾀｼﾁｭｳｵｳｸ","streetKana":"ｼｭﾓｸ","prefecture":"新潟県","city":"新潟市中央区","street":"鐘木"},{"zipCode":"9500965","prefectureKana":"ﾆｲｶﾞﾀｹﾝ","cityKana":"ﾆｲｶﾞﾀｼﾁｭｳｵｳｸ","streetKana":"ｼﾝｺｳﾁｮｳ","prefecture":"新潟県","city":"新潟市中央区","street":"新光町"},{"zipCode":"9500972","prefectureKana":"ﾆｲｶﾞﾀｹﾝ","cityKana":"ﾆｲｶﾞﾀｼﾁｭｳｵｳｸ","streetKana":"ｼﾝﾜ","prefecture":"新潟県","city":"新潟市中央区","street":"新和"},{"zipCode":"9500933","prefectureKana":"ﾆｲｶﾞﾀｹﾝ","cityKana":"ﾆｲｶﾞﾀｼﾁｭｳｵｳｸ","streetKana":"ｾｲｺﾞﾛｳ","prefecture":"新潟県","city":"新潟市中央区","street":"清五郎"},{"zipCode":"9501136","prefectureKana":"ﾆｲｶﾞﾀｹﾝ","cityKana":"ﾆｲｶﾞﾀｼﾁｭｳｵｳｸ","streetKana":"ｿｶﾞﾜ","prefecture":"新潟県","city":"新潟市中央区","street":"曽川"},{"zipCode":"9501146","prefectureKana":"ﾆｲｶﾞﾀｹﾝ","cityKana":"ﾆｲｶﾞﾀｼﾁｭｳｵｳｸ","streetKana":"ﾀｳｴﾓﾝｼﾝﾃﾞﾝ","prefecture":"新潟県","city":"新潟市中央区","street":"太右エ門新田"},{"zipCode":"9501147","prefectureKana":"ﾆｲｶﾞﾀｹﾝ","cityKana":"ﾆｲｶﾞﾀｼﾁｭｳｵｳｸ","streetKana":"ﾀｶﾐﾁｮｳ","prefecture":"新潟県","city":"新潟市中央区","street":"高美町"},{"zipCode":"9501143","prefectureKana":"ﾆｲｶﾞﾀｹﾝ","cityKana":"ﾆｲｶﾞﾀｼﾁｭｳｵｳｸ","streetKana":"ﾀﾜﾗﾔﾅｷﾞ","prefecture":"新潟県","city":"新潟市中央区","street":"俵柳"},{"zipCode":"9500962","prefectureKana":"ﾆｲｶﾞﾀｹﾝ","cityKana":"ﾆｲｶﾞﾀｼﾁｭｳｵｳｸ","streetKana":"ﾃﾞｷｼﾞﾏ","prefecture":"新潟県","city":"新潟市中央区","street":"出来島"},{"zipCode":"9500917","prefectureKana":"ﾆｲｶﾞﾀｹﾝ","cityKana":"ﾆｲｶﾞﾀｼﾁｭｳｵｳｸ","streetKana":"ﾃﾝｼﾞﾝ","prefecture":"新潟県","city":"新潟市中央区","street":"天神"},{"zipCode":"9500905","prefectureKana":"ﾆｲｶﾞﾀｹﾝ","cityKana":"ﾆｲｶﾞﾀｼﾁｭｳｵｳｸ","streetKana":"ﾃﾝｼﾞﾝｵ","prefecture":"新潟県","city":"新潟市中央区","street":"天神尾"},{"zipCode":"9500077","prefectureKana":"ﾆｲｶﾞﾀｹﾝ","cityKana":"ﾆｲｶﾞﾀｼﾁｭｳｵｳｸ","streetKana":"ﾃﾝﾒｲﾁｮｳ","prefecture":"新潟県","city":"新潟市中央区","street":"天明町"},{"zipCode":"9500951","prefectureKana":"ﾆｲｶﾞﾀｹﾝ","cityKana":"ﾆｲｶﾞﾀｼﾁｭｳｵｳｸ","streetKana":"ﾄﾔﾉ","prefecture":"新潟県","city":"新潟市中央区","street":"鳥屋野"},{"zipCode":"9500950","prefectureKana":"ﾆｲｶﾞﾀｹﾝ","cityKana":"ﾆｲｶﾞﾀｼﾁｭｳｵｳｸ","streetKana":"ﾄﾔﾉﾐﾅﾐ","prefecture":"新潟県","city":"新潟市中央区","street":"鳥屋野南"},{"zipCode":"9500932","prefectureKana":"ﾆｲｶﾞﾀｹﾝ","cityKana":"ﾆｲｶﾞﾀｼﾁｭｳｵｳｸ","streetKana":"ﾅｶﾞﾀ","prefecture":"新潟県","city":"新潟市中央区","street":"長潟"},{"zipCode":"9500085","prefectureKana":"ﾆｲｶﾞﾀｹﾝ","cityKana":"ﾆｲｶﾞﾀｼﾁｭｳｵｳｸ","streetKana":"ﾅｶﾞﾐﾈﾏﾁ","prefecture":"新潟県","city":"新潟市中央区","street":"長嶺町"},{"zipCode":"9501131","prefectureKana":"ﾆｲｶﾞﾀｹﾝ","cityKana":"ﾆｲｶﾞﾀｼﾁｭｳｵｳｸ","streetKana":"ﾅﾍﾞｶﾞﾀｼﾝﾃﾞﾝ","prefecture":"新潟県","city":"新潟市中央区","street":"鍋潟新田"},{"zipCode":"9500866","prefectureKana":"ﾆｲｶﾞﾀｹﾝ","cityKana":"ﾆｲｶﾞﾀｼﾁｭｳｵｳｸ","streetKana":"ﾆｼｳﾏｺｼ","prefecture":"新潟県","city":"新潟市中央区","street":"西馬越"},{"zipCode":"9500076","prefectureKana":"ﾆｲｶﾞﾀｹﾝ","cityKana":"ﾆｲｶﾞﾀｼﾁｭｳｵｳｸ","streetKana":"ﾇｯﾀﾘﾆｼ","prefecture":"新潟県","city":"新潟市中央区","street":"沼垂西"},{"zipCode":"9500075","prefectureKana":"ﾆｲｶﾞﾀｹﾝ","cityKana":"ﾆｲｶﾞﾀｼﾁｭｳｵｳｸ","streetKana":"ﾇｯﾀﾘﾋｶﾞｼ","prefecture":"新潟県","city":"新潟市中央区","street":"沼垂東"},{"zipCode":"9500086","prefectureKana":"ﾆｲｶﾞﾀｹﾝ","cityKana":"ﾆｲｶﾞﾀｼﾁｭｳｵｳｸ","streetKana":"ﾊﾅｿﾞﾉ","prefecture":"新潟県","city":"新潟市中央区","street":"花園"},{"zipCode":"9500088","prefectureKana":"ﾆｲｶﾞﾀｹﾝ","cityKana":"ﾆｲｶﾞﾀｼﾁｭｳｵｳｸ","streetKana":"ﾊﾞﾝﾀﾞｲ","prefecture":"新潟県","city":"新潟市中央区","street":"万代"},{"zipCode":"9500078","prefectureKana":"ﾆｲｶﾞﾀｹﾝ","cityKana":"ﾆｲｶﾞﾀｼﾁｭｳｵｳｸ","streetKana":"ﾊﾞﾝﾀﾞｲｼﾞﾏ","prefecture":"新潟県","city":"新潟市中央区","street":"万代島"},{"zipCode":"9500087","prefectureKana":"ﾆｲｶﾞﾀｹﾝ","cityKana":"ﾆｲｶﾞﾀｼﾁｭｳｵｳｸ","streetKana":"ﾋｶﾞｼｵｵﾄﾞｵﾘ","prefecture":"新潟県","city":"新潟市中央区","street":"東大通"},{"zipCode":"9500906","prefectureKana":"ﾆｲｶﾞﾀｹﾝ","cityKana":"ﾆｲｶﾞﾀｼﾁｭｳｵｳｸ","streetKana":"ﾋｶﾞｼｻｲﾜｲﾁｮｳ","prefecture":"新潟県","city":"新潟市中央区","street":"東幸町"},{"zipCode":"9500961","prefectureKana":"ﾆｲｶﾞﾀｹﾝ","cityKana":"ﾆｲｶﾞﾀｼﾁｭｳｵｳｸ","streetKana":"ﾋｶﾞｼﾃﾞｷｼﾞﾏ","prefecture":"新潟県","city":"新潟市中央区","street":"東出来島"},{"zipCode":"9500082","prefectureKana":"ﾆｲｶﾞﾀｹﾝ","cityKana":"ﾆｲｶﾞﾀｼﾁｭｳｵｳｸ","streetKana":"ﾋｶﾞｼﾊﾞﾝﾀﾞｲﾁｮｳ","prefecture":"新潟県","city":"新潟市中央区","street":"東万代町"},{"zipCode":"9500073","prefectureKana":"ﾆｲｶﾞﾀｹﾝ","cityKana":"ﾆｲｶﾞﾀｼﾁｭｳｵｳｸ","streetKana":"ﾋﾉﾃﾞ","prefecture":"新潟県","city":"新潟市中央区","street":"日の出"},{"zipCode":"9500901","prefectureKana":"ﾆｲｶﾞﾀｹﾝ","cityKana":"ﾆｲｶﾞﾀｼﾁｭｳｵｳｸ","streetKana":"ﾍﾞﾝﾃﾝ","prefecture":"新潟県","city":"新潟市中央区","street":"弁天"},{"zipCode":"9500925","prefectureKana":"ﾆｲｶﾞﾀｹﾝ","cityKana":"ﾆｲｶﾞﾀｼﾁｭｳｵｳｸ","streetKana":"ﾍﾞﾝﾃﾝﾊﾞｼﾄﾞｵﾘ","prefecture":"新潟県","city":"新潟市中央区","street":"弁天橋通"},{"zipCode":"9500981","prefectureKana":"ﾆｲｶﾞﾀｹﾝ","cityKana":"ﾆｲｶﾞﾀｼﾁｭｳｵｳｸ","streetKana":"ﾎﾘﾉｳﾁ","prefecture":"新潟県","city":"新潟市中央区","street":"堀之内"},{"zipCode":"9500982","prefectureKana":"ﾆｲｶﾞﾀｹﾝ","cityKana":"ﾆｲｶﾞﾀｼﾁｭｳｵｳｸ","streetKana":"ﾎﾘﾉｳﾁﾐﾅﾐ","prefecture":"新潟県","city":"新潟市中央区","street":"堀之内南"},{"zipCode":"9501132","prefectureKana":"ﾆｲｶﾞﾀｹﾝ","cityKana":"ﾆｲｶﾞﾀｼﾁｭｳｵｳｸ","streetKana":"ﾏﾙｶﾞﾀｼﾝﾃﾞﾝ","prefecture":"新潟県","city":"新潟市中央区","street":"丸潟新田"},{"zipCode":"9500954","prefectureKana":"ﾆｲｶﾞﾀｹﾝ","cityKana":"ﾆｲｶﾞﾀｼﾁｭｳｵｳｸ","streetKana":"ﾐｻｷﾁｮｳ","prefecture":"新潟県","city":"新潟市中央区","street":"美咲町"},{"zipCode":"9500904","prefectureKana":"ﾆｲｶﾞﾀｹﾝ","cityKana":"ﾆｲｶﾞﾀｼﾁｭｳｵｳｸ","streetKana":"ﾐｽﾞｼﾏﾁｮｳ","prefecture":"新潟県","city":"新潟市中央区","street":"水島町"},{"zipCode":"9500912","prefectureKana":"ﾆｲｶﾞﾀｹﾝ","cityKana":"ﾆｲｶﾞﾀｼﾁｭｳｵｳｸ","streetKana":"ﾐﾅﾐｻｻｸﾞﾁ","prefecture":"新潟県","city":"新潟市中央区","street":"南笹口"},{"zipCode":"9500963","prefectureKana":"ﾆｲｶﾞﾀｹﾝ","cityKana":"ﾆｲｶﾞﾀｼﾁｭｳｵｳｸ","streetKana":"ﾐﾅﾐﾃﾞｷｼﾞﾏ","prefecture":"新潟県","city":"新潟市中央区","street":"南出来島"},{"zipCode":"9500931","prefectureKana":"ﾆｲｶﾞﾀｹﾝ","cityKana":"ﾆｲｶﾞﾀｼﾁｭｳｵｳｸ","streetKana":"ﾐﾅﾐﾅｶﾞﾀ","prefecture":"新潟県","city":"新潟市中央区","street":"南長潟"},{"zipCode":"9500902","prefectureKana":"ﾆｲｶﾞﾀｹﾝ","cityKana":"ﾆｲｶﾞﾀｼﾁｭｳｵｳｸ","streetKana":"ﾐﾅﾐﾊﾞﾝﾀﾞｲﾁｮｳ","prefecture":"新潟県","city":"新潟市中央区","street":"南万代町"},{"zipCode":"9500924","prefectureKana":"ﾆｲｶﾞﾀｹﾝ","cityKana":"ﾆｲｶﾞﾀｼﾁｭｳｵｳｸ","streetKana":"ﾐﾉﾘ","prefecture":"新潟県","city":"新潟市中央区","street":"美の里"},{"zipCode":"9500941","prefectureKana":"ﾆｲｶﾞﾀｹﾝ","cityKana":"ﾆｲｶﾞﾀｼﾁｭｳｵｳｸ","streetKana":"ﾒｲｹ","prefecture":"新潟県","city":"新潟市中央区","street":"女池"},{"zipCode":"9500945","prefectureKana":"ﾆｲｶﾞﾀｹﾝ","cityKana":"ﾆｲｶﾞﾀｼﾁｭｳｵｳｸ","streetKana":"ﾒｲｹｶﾐﾔﾏ","prefecture":"新潟県","city":"新潟市中央区","street":"女池上山"},{"zipCode":"9500947","prefectureKana":"ﾆｲｶﾞﾀｹﾝ","cityKana":"ﾆｲｶﾞﾀｼﾁｭｳｵｳｸ","streetKana":"ﾒｲｹｷﾀ","prefecture":"新潟県","city":"新潟市中央区","street":"女池北"},{"zipCode":"9500943","prefectureKana":"ﾆｲｶﾞﾀｹﾝ","cityKana":"ﾆｲｶﾞﾀｼﾁｭｳｵｳｸ","streetKana":"ﾒｲｹｼﾝﾒｲ","prefecture":"新潟県","city":"新潟市中央区","street":"女池神明"},{"zipCode":"9500946","prefectureKana":"ﾆｲｶﾞﾀｹﾝ","cityKana":"ﾆｲｶﾞﾀｼﾁｭｳｵｳｸ","streetKana":"ﾒｲｹﾆｼ","prefecture":"新潟県","city":"新潟市中央区","street":"女池西"},{"zipCode":"9500984","prefectureKana":"ﾆｲｶﾞﾀｹﾝ","cityKana":"ﾆｲｶﾞﾀｼﾁｭｳｵｳｸ","streetKana":"ﾒｲｹﾋｶﾞｼ","prefecture":"新潟県","city":"新潟市中央区","street":"女池東"},{"zipCode":"9500948","prefectureKana":"ﾆｲｶﾞﾀｹﾝ","cityKana":"ﾆｲｶﾞﾀｼﾁｭｳｵｳｸ","streetKana":"ﾒｲｹﾐﾅﾐ","prefecture":"新潟県","city":"新潟市中央区","street":"女池南"},{"zipCode":"9500865","prefectureKana":"ﾆｲｶﾞﾀｹﾝ","cityKana":"ﾆｲｶﾞﾀｼﾁｭｳｵｳｸ","streetKana":"ﾓﾄｳﾏｺｼ","prefecture":"新潟県","city":"新潟市中央区","street":"本馬越"},{"zipCode":"9500909","prefectureKana":"ﾆｲｶﾞﾀｹﾝ","cityKana":"ﾆｲｶﾞﾀｼﾁｭｳｵｳｸ","streetKana":"ﾔﾁﾖ","prefecture":"新潟県","city":"新潟市中央区","street":"八千代"},{"zipCode":"9500871","prefectureKana":"ﾆｲｶﾞﾀｹﾝ","cityKana":"ﾆｲｶﾞﾀｼﾁｭｳｵｳｸ","streetKana":"ﾔﾏｷﾄﾞ","prefecture":"新潟県","city":"新潟市中央区","street":"山木戸"},{"zipCode":"9500922","prefectureKana":"ﾆｲｶﾞﾀｹﾝ","cityKana":"ﾆｲｶﾞﾀｼﾁｭｳｵｳｸ","streetKana":"ﾔﾏﾌﾀﾂ","prefecture":"新潟県","city":"新潟市中央区","street":"山二ツ"},{"zipCode":"9500916","prefectureKana":"ﾆｲｶﾞﾀｹﾝ","cityKana":"ﾆｲｶﾞﾀｼﾁｭｳｵｳｸ","streetKana":"ﾖﾈﾔﾏ","prefecture":"新潟県","city":"新潟市中央区","street":"米山"},{"zipCode":"9500072","prefectureKana":"ﾆｲｶﾞﾀｹﾝ","cityKana":"ﾆｲｶﾞﾀｼﾁｭｳｵｳｸ","streetKana":"ﾘｭｳｶﾞｼﾏ","prefecture":"新潟県","city":"新潟市中央区","street":"竜が島"},{"zipCode":"9500985","prefectureKana":"ﾆｲｶﾞﾀｹﾝ","cityKana":"ﾆｲｶﾞﾀｼﾁｭｳｵｳｸ","streetKana":"ﾜｺﾞｳﾁｮｳ","prefecture":"新潟県","city":"新潟市中央区","street":"和合町"},{"zipCode":"9500000","prefectureKana":"ﾆｲｶﾞﾀｹﾝ","cityKana":"ﾆｲｶﾞﾀｼｺｳﾅﾝｸ","streetKana":"ｲｶﾆｹｲｻｲｶﾞﾅｲﾊﾞｱｲ","prefecture":"新潟県","city":"新潟市江南区","street":"以下に掲載がない場合"},{"zipCode":"9500212","prefectureKana":"ﾆｲｶﾞﾀｹﾝ","cityKana":"ﾆｲｶﾞﾀｼｺｳﾅﾝｸ","streetKana":"ｱｶﾈｶﾞｵｶ","prefecture":"新潟県","city":"新潟市江南区","street":"茜ケ丘"},{"zipCode":"9500217","prefectureKana":"ﾆｲｶﾞﾀｹﾝ","cityKana":"ﾆｲｶﾞﾀｼｺｳﾅﾝｸ","streetKana":"ｱｶﾞﾉ","prefecture":"新潟県","city":"新潟市江南区","street":"阿賀野"},{"zipCode":"9500134","prefectureKana":"ﾆｲｶﾞﾀｹﾝ","cityKana":"ﾆｲｶﾞﾀｼｺｳﾅﾝｸ","streetKana":"ｱｹﾎﾞﾉﾁｮｳ","prefecture":"新潟県","city":"新潟市江南区","street":"曙町"},{"zipCode":"9500166","prefectureKana":"ﾆｲｶﾞﾀｹﾝ","cityKana":"ﾆｲｶﾞﾀｼｺｳﾅﾝｸ","streetKana":"ｱｻﾋ","prefecture":"新潟県","city":"新潟市江南区","street":"旭"},{"zipCode":"9501134","prefectureKana":"ﾆｲｶﾞﾀｹﾝ","cityKana":"ﾆｲｶﾞﾀｼｺｳﾅﾝｸ","streetKana":"ｱﾏﾉ","prefecture":"新潟県","city":"新潟市江南区","street":"天野"},{"zipCode":"9500843","prefectureKana":"ﾆｲｶﾞﾀｹﾝ","cityKana":"ﾆｲｶﾞﾀｼｺｳﾅﾝｸ","streetKana":"ｱﾜﾔﾏ","prefecture":"新潟県","city":"新潟市江南区","street":"粟山"},{"zipCode":"9500155","prefectureKana":"ﾆｲｶﾞﾀｹﾝ","cityKana":"ﾆｲｶﾞﾀｼｺｳﾅﾝｸ","streetKana":"ｲｽﾞﾐﾁｮｳ","prefecture":"新潟県","city":"新潟市江南区","street":"泉町"},{"zipCode":"9500122","prefectureKana":"ﾆｲｶﾞﾀｹﾝ","cityKana":"ﾆｲｶﾞﾀｼｺｳﾅﾝｸ","streetKana":"ｲﾅﾊﾞ","prefecture":"新潟県","city":"新潟市江南区","street":"稲葉"},{"zipCode":"9500218","prefectureKana":"ﾆｲｶﾞﾀｹﾝ","cityKana":"ﾆｲｶﾞﾀｼｺｳﾅﾝｸ","streetKana":"ｲﾌﾞｷﾉ","prefecture":"新潟県","city":"新潟市江南区","street":"いぶき野"},{"zipCode":"9500214","prefectureKana":"ﾆｲｶﾞﾀｹﾝ","cityKana":"ﾆｲｶﾞﾀｼｺｳﾅﾝｸ","streetKana":"ｳｸﾞｲｽ","prefecture":"新潟県","city":"新潟市江南区","street":"うぐいす"},{"zipCode":"9500157","prefectureKana":"ﾆｲｶﾞﾀｹﾝ","cityKana":"ﾆｲｶﾞﾀｼｺｳﾅﾝｸ","streetKana":"ｳﾉｺ","prefecture":"新潟県","city":"新潟市江南区","street":"鵜ノ子"},{"zipCode":"9500923","prefectureKana":"ﾆｲｶﾞﾀｹﾝ","cityKana":"ﾆｲｶﾞﾀｼｺｳﾅﾝｸ","streetKana":"ｳﾊﾞｶﾞﾔﾏ","prefecture":"新潟県","city":"新潟市江南区","street":"姥ケ山"},{"zipCode":"9500140","prefectureKana":"ﾆｲｶﾞﾀｹﾝ","cityKana":"ﾆｲｶﾞﾀｼｺｳﾅﾝｸ","streetKana":"ｳﾒﾐﾀﾞｲ","prefecture":"新潟県","city":"新潟市江南区","street":"梅見台"},{"zipCode":"9500101","prefectureKana":"ﾆｲｶﾞﾀｹﾝ","cityKana":"ﾆｲｶﾞﾀｼｺｳﾅﾝｸ","streetKana":"ｴｸﾞﾁ","prefecture":"新潟県","city":"新潟市江南区","street":"江口"},{"zipCode":"9500105","prefectureKana":"ﾆｲｶﾞﾀｹﾝ","cityKana":"ﾆｲｶﾞﾀｼｺｳﾅﾝｸ","streetKana":"ｵｵﾌﾞﾁ","prefecture":"新潟県","city":"新潟市江南区","street":"大渕"},{"zipCode":"9500154","prefectureKana":"ﾆｲｶﾞﾀｹﾝ","cityKana":"ﾆｲｶﾞﾀｼｺｳﾅﾝｸ","streetKana":"ｵｷﾞｿﾞﾈ","prefecture":"新潟県","city":"新潟市江南区","street":"荻曽根"},{"zipCode":"9501144","prefectureKana":"ﾆｲｶﾞﾀｹﾝ","cityKana":"ﾆｲｶﾞﾀｼｺｳﾅﾝｸ","streetKana":"ｵｼﾞｺﾞﾔ","prefecture":"新潟県","city":"新潟市江南区","street":"祖父興野"},{"zipCode":"9501133","prefectureKana":"ﾆｲｶﾞﾀｹﾝ","cityKana":"ﾆｲｶﾞﾀｼｺｳﾅﾝｸ","streetKana":"ｶｷﾞ","prefecture":"新潟県","city":"新潟市江南区","street":"嘉木"},{"zipCode":"9500323","prefectureKana":"ﾆｲｶﾞﾀｹﾝ","cityKana":"ﾆｲｶﾞﾀｼｺｳﾅﾝｸ","streetKana":"ｶｾ","prefecture":"新潟県","city":"新潟市江南区","street":"嘉瀬"},{"zipCode":"9500326","prefectureKana":"ﾆｲｶﾞﾀｹﾝ","cityKana":"ﾆｲｶﾞﾀｼｺｳﾅﾝｸ","streetKana":"ｶﾐﾜﾀﾞ","prefecture":"新潟県","city":"新潟市江南区","street":"上和田"},{"zipCode":"9500124","prefectureKana":"ﾆｲｶﾞﾀｹﾝ","cityKana":"ﾆｲｶﾞﾀｼｺｳﾅﾝｸ","streetKana":"ｶﾒﾀﾞｱﾂﾞﾏﾁｮｳ","prefecture":"新潟県","city":"新潟市江南区","street":"亀田東町"},{"zipCode":"9500162","prefectureKana":"ﾆｲｶﾞﾀｹﾝ","cityKana":"ﾆｲｶﾞﾀｼｺｳﾅﾝｸ","streetKana":"ｶﾒﾀﾞｵｵﾂｷ","prefecture":"新潟県","city":"新潟市江南区","street":"亀田大月"},{"zipCode":"9500141","prefectureKana":"ﾆｲｶﾞﾀｹﾝ","cityKana":"ﾆｲｶﾞﾀｼｺｳﾅﾝｸ","streetKana":"ｶﾒﾀﾞｺｳｷﾞｮｳﾀﾞﾝﾁ","prefecture":"新潟県","city":"新潟市江南区","street":"亀田工業団地"},{"zipCode":"9500121","prefectureKana":"ﾆｲｶﾞﾀｹﾝ","cityKana":"ﾆｲｶﾞﾀｼｺｳﾅﾝｸ","streetKana":"ｶﾒﾀﾞｺｳﾖｳ","prefecture":"新潟県","city":"新潟市江南区","street":"亀田向陽"},{"zipCode":"9500125","prefectureKana":"ﾆｲｶﾞﾀｹﾝ","cityKana":"ﾆｲｶﾞﾀｼｺｳﾅﾝｸ","streetKana":"ｶﾒﾀﾞｼﾝﾒｲﾁｮｳ","prefecture":"新潟県","city":"新潟市江南区","street":"亀田新明町"},{"zipCode":"9500123","prefectureKana":"ﾆｲｶﾞﾀｹﾝ","cityKana":"ﾆｲｶﾞﾀｼｺｳﾅﾝｸ","streetKana":"ｶﾒﾀﾞｽｲﾄﾞｳﾁｮｳ","prefecture":"新潟県","city":"新潟市江南区","street":"亀田水道町"},{"zipCode":"9500161","prefectureKana":"ﾆｲｶﾞﾀｹﾝ","cityKana":"ﾆｲｶﾞﾀｼｺｳﾅﾝｸ","streetKana":"ｶﾒﾀﾞﾅｶｼﾞﾏ","prefecture":"新潟県","city":"新潟市江南区","street":"亀田中島"},{"zipCode":"9500169","prefectureKana":"ﾆｲｶﾞﾀｹﾝ","cityKana":"ﾆｲｶﾞﾀｼｺｳﾅﾝｸ","streetKana":"ｶﾒﾀﾞﾅｶﾞﾀ","prefecture":"新潟県","city":"新潟市江南区","street":"亀田長潟"},{"zipCode":"9500145","prefectureKana":"ﾆｲｶﾞﾀｹﾝ","cityKana":"ﾆｲｶﾞﾀｼｺｳﾅﾝｸ","streetKana":"ｶﾒﾀﾞﾊﾔﾄﾞｵﾘ","prefecture":"新潟県","city":"新潟市江南区","street":"亀田早通"},{"zipCode":"9500164","prefectureKana":"ﾆｲｶﾞﾀｹﾝ","cityKana":"ﾆｲｶﾞﾀｼｺｳﾅﾝｸ","streetKana":"ｶﾒﾀﾞﾎﾝﾁｮｳ","prefecture":"新潟県","city":"新潟市江南区","street":"亀田本町"},{"zipCode":"9500152","prefectureKana":"ﾆｲｶﾞﾀｹﾝ","cityKana":"ﾆｲｶﾞﾀｼｺｳﾅﾝｸ","streetKana":"ｶﾒﾀﾞﾐﾄﾞﾘﾁｮｳ","prefecture":"新潟県","city":"新潟市江南区","street":"亀田緑町"},{"zipCode":"9500151","prefectureKana":"ﾆｲｶﾞﾀｹﾝ","cityKana":"ﾆｲｶﾞﾀｼｺｳﾅﾝｸ","streetKana":"ｶﾒﾀﾞﾖﾂｺﾞﾔ","prefecture":"新潟県","city":"新潟市江南区","street":"亀田四ツ興野"},{"zipCode":"9500116","prefectureKana":"ﾆｲｶﾞﾀｹﾝ","cityKana":"ﾆｲｶﾞﾀｼｺｳﾅﾝｸ","streetKana":"ｷﾀﾔﾏ","prefecture":"新潟県","city":"新潟市江南区","street":"北山"},{"zipCode":"9500206","prefectureKana":"ﾆｲｶﾞﾀｹﾝ","cityKana":"ﾆｲｶﾞﾀｼｺｳﾅﾝｸ","streetKana":"ｷﾂ","prefecture":"新潟県","city":"新潟市江南区","street":"木津"},{"zipCode":"9500213","prefectureKana":"ﾆｲｶﾞﾀｹﾝ","cityKana":"ﾆｲｶﾞﾀｼｺｳﾅﾝｸ","streetKana":"ｷﾂｺｳｷﾞｮｳﾀﾞﾝﾁ","prefecture":"新潟県","city":"新潟市江南区","street":"木津工業団地"},{"zipCode":"9501145","prefectureKana":"ﾆｲｶﾞﾀｹﾝ","cityKana":"ﾆｲｶﾞﾀｼｺｳﾅﾝｸ","streetKana":"ｷｭｳｿﾞｳｺﾞﾔ","prefecture":"新潟県","city":"新潟市江南区","street":"久蔵興野"},{"zipCode":"9500103","prefectureKana":"ﾆｲｶﾞﾀｹﾝ","cityKana":"ﾆｲｶﾞﾀｼｺｳﾅﾝｸ","streetKana":"ｸﾗｵｶ","prefecture":"新潟県","city":"新潟市江南区","street":"蔵岡"},{"zipCode":"9500203","prefectureKana":"ﾆｲｶﾞﾀｹﾝ","cityKana":"ﾆｲｶﾞﾀｼｺｳﾅﾝｸ","streetKana":"ｺｽｷﾞ","prefecture":"新潟県","city":"新潟市江南区","street":"小杉"},{"zipCode":"9500201","prefectureKana":"ﾆｲｶﾞﾀｹﾝ","cityKana":"ﾆｲｶﾞﾀｼｺｳﾅﾝｸ","streetKana":"ｺﾏｺﾞﾐ","prefecture":"新潟県","city":"新潟市江南区","street":"駒込"},{"zipCode":"9500324","prefectureKana":"ﾆｲｶﾞﾀｹﾝ","cityKana":"ﾆｲｶﾞﾀｼｺｳﾅﾝｸ","streetKana":"ｻｶﾔﾁｮｳ","prefecture":"新潟県","city":"新潟市江南区","street":"酒屋町"},{"zipCode":"9500104","prefectureKana":"ﾆｲｶﾞﾀｹﾝ","cityKana":"ﾆｲｶﾞﾀｼｺｳﾅﾝｸ","streetKana":"ｻｻﾔﾏ","prefecture":"新潟県","city":"新潟市江南区","street":"笹山"},{"zipCode":"9500167","prefectureKana":"ﾆｲｶﾞﾀｹﾝ","cityKana":"ﾆｲｶﾞﾀｼｺｳﾅﾝｸ","streetKana":"ｻﾂｷﾁｮｳ","prefecture":"新潟県","city":"新潟市江南区","street":"五月町"},{"zipCode":"9500156","prefectureKana":"ﾆｲｶﾞﾀｹﾝ","cityKana":"ﾆｲｶﾞﾀｼｺｳﾅﾝｸ","streetKana":"ｻﾅｴ","prefecture":"新潟県","city":"新潟市江南区","street":"早苗"},{"zipCode":"9500129","prefectureKana":"ﾆｲｶﾞﾀｹﾝ","cityKana":"ﾆｲｶﾞﾀｼｺｳﾅﾝｸ","streetKana":"ｻﾝｼﾞｮｳｵｶ","prefecture":"新潟県","city":"新潟市江南区","street":"三條岡"},{"zipCode":"9500107","prefectureKana":"ﾆｲｶﾞﾀｹﾝ","cityKana":"ﾆｲｶﾞﾀｼｺｳﾅﾝｸ","streetKana":"ｻﾝﾋﾞｬｸｼﾞ","prefecture":"新潟県","city":"新潟市江南区","street":"三百地"},{"zipCode":"9500149","prefectureKana":"ﾆｲｶﾞﾀｹﾝ","cityKana":"ﾆｲｶﾞﾀｼｺｳﾅﾝｸ","streetKana":"ｼﾓﾊﾔﾄﾞｵﾘ","prefecture":"新潟県","city":"新潟市江南区","street":"下早通"},{"zipCode":"9500150","prefectureKana":"ﾆｲｶﾞﾀｹﾝ","cityKana":"ﾆｲｶﾞﾀｼｺｳﾅﾝｸ","streetKana":"ｼﾓﾊﾔﾄﾞｵﾘﾔﾅｷﾞﾀﾞ","prefecture":"新潟県","city":"新潟市江南区","street":"下早通柳田"},{"zipCode":"9501141","prefectureKana":"ﾆｲｶﾞﾀｹﾝ","cityKana":"ﾆｲｶﾞﾀｼｺｳﾅﾝｸ","streetKana":"ｼｭﾓｸ","prefecture":"新潟県","city":"新潟市江南区","street":"鐘木"},{"zipCode":"9500136","prefectureKana":"ﾆｲｶﾞﾀｹﾝ","cityKana":"ﾆｲｶﾞﾀｼｺｳﾅﾝｸ","streetKana":"ｼﾞｮｳｼｮ","prefecture":"新潟県","city":"新潟市江南区","street":"城所"},{"zipCode":"9500137","prefectureKana":"ﾆｲｶﾞﾀｹﾝ","cityKana":"ﾆｲｶﾞﾀｼｺｳﾅﾝｸ","streetKana":"ｼﾞｮｳﾔﾏ","prefecture":"新潟県","city":"新潟市江南区","street":"城山"},{"zipCode":"9500132","prefectureKana":"ﾆｲｶﾞﾀｹﾝ","cityKana":"ﾆｲｶﾞﾀｼｺｳﾅﾝｸ","streetKana":"ｽﾅｵｶ","prefecture":"新潟県","city":"新潟市江南区","street":"砂岡"},{"zipCode":"9500133","prefectureKana":"ﾆｲｶﾞﾀｹﾝ","cityKana":"ﾆｲｶﾞﾀｼｺｳﾅﾝｸ","streetKana":"ｽﾅｸｽﾞﾚ","prefecture":"新潟県","city":"新潟市江南区","street":"砂崩"},{"zipCode":"9500130","prefectureKana":"ﾆｲｶﾞﾀｹﾝ","cityKana":"ﾆｲｶﾞﾀｼｺｳﾅﾝｸ","streetKana":"ｽﾅﾔﾏ","prefecture":"新潟県","city":"新潟市江南区","street":"砂山"},{"zipCode":"9500127","prefectureKana":"ﾆｲｶﾞﾀｹﾝ","cityKana":"ﾆｲｶﾞﾀｼｺｳﾅﾝｸ","streetKana":"ｽﾜ","prefecture":"新潟県","city":"新潟市江南区","street":"諏訪"},{"zipCode":"9500933","prefectureKana":"ﾆｲｶﾞﾀｹﾝ","cityKana":"ﾆｲｶﾞﾀｼｺｳﾅﾝｸ","streetKana":"ｾｲｺﾞﾛｳ","prefecture":"新潟県","city":"新潟市江南区","street":"清五郎"},{"zipCode":"9500205","prefectureKana":"ﾆｲｶﾞﾀｹﾝ","cityKana":"ﾆｲｶﾞﾀｼｺｳﾅﾝｸ","streetKana":"ｿｳﾐ","prefecture":"新潟県","city":"新潟市江南区","street":"沢海"},{"zipCode":"9501136","prefectureKana":"ﾆｲｶﾞﾀｹﾝ","cityKana":"ﾆｲｶﾞﾀｼｺｳﾅﾝｸ","streetKana":"ｿｶﾞﾜ","prefecture":"新潟県","city":"新潟市江南区","street":"曽川"},{"zipCode":"9501142","prefectureKana":"ﾆｲｶﾞﾀｹﾝ","cityKana":"ﾆｲｶﾞﾀｼｺｳﾅﾝｸ","streetKana":"ｿｶﾞﾜ","prefecture":"新潟県","city":"新潟市江南区","street":"楚川"},{"zipCode":"9501135","prefectureKana":"ﾆｲｶﾞﾀｹﾝ","cityKana":"ﾆｲｶﾞﾀｼｺｳﾅﾝｸ","streetKana":"ｿﾉｷ","prefecture":"新潟県","city":"新潟市江南区","street":"曽野木"},{"zipCode":"9501146","prefectureKana":"ﾆｲｶﾞﾀｹﾝ","cityKana":"ﾆｲｶﾞﾀｼｺｳﾅﾝｸ","streetKana":"ﾀｳｴﾓﾝｼﾝﾃﾞﾝ","prefecture":"新潟県","city":"新潟市江南区","street":"太右エ門新田"},{"zipCode":"9501143","prefectureKana":"ﾆｲｶﾞﾀｹﾝ","cityKana":"ﾆｲｶﾞﾀｼｺｳﾅﾝｸ","streetKana":"ﾀﾜﾗﾔﾅｷﾞ","prefecture":"新潟県","city":"新潟市江南区","street":"俵柳"},{"zipCode":"9500144","prefectureKana":"ﾆｲｶﾞﾀｹﾝ","cityKana":"ﾆｲｶﾞﾀｼｺｳﾅﾝｸ","streetKana":"ﾁﾉﾔﾏ","prefecture":"新潟県","city":"新潟市江南区","street":"茅野山"},{"zipCode":"9500139","prefectureKana":"ﾆｲｶﾞﾀｹﾝ","cityKana":"ﾆｲｶﾞﾀｼｺｳﾅﾝｸ","streetKana":"ﾃｼﾛﾔﾏ","prefecture":"新潟県","city":"新潟市江南区","street":"手代山"},{"zipCode":"9500135","prefectureKana":"ﾆｲｶﾞﾀｹﾝ","cityKana":"ﾆｲｶﾞﾀｼｺｳﾅﾝｸ","streetKana":"ﾄｺﾛｼﾞﾏ","prefecture":"新潟県","city":"新潟市江南区","street":"所島"},{"zipCode":"9500142","prefectureKana":"ﾆｲｶﾞﾀｹﾝ","cityKana":"ﾆｲｶﾞﾀｼｺｳﾅﾝｸ","streetKana":"ﾄﾞﾛｶﾞﾀ","prefecture":"新潟県","city":"新潟市江南区","street":"泥潟"},{"zipCode":"9500111","prefectureKana":"ﾆｲｶﾞﾀｹﾝ","cityKana":"ﾆｲｶﾞﾀｼｺｳﾅﾝｸ","streetKana":"ﾅｵﾘﾔﾏ","prefecture":"新潟県","city":"新潟市江南区","street":"直り山"},{"zipCode":"9500147","prefectureKana":"ﾆｲｶﾞﾀｹﾝ","cityKana":"ﾆｲｶﾞﾀｼｺｳﾅﾝｸ","streetKana":"ﾅｶﾞﾀ(ﾁｮｳﾒ)","prefecture":"新潟県","city":"新潟市江南区","street":"長潟（丁目）"},{"zipCode":"9500932","prefectureKana":"ﾆｲｶﾞﾀｹﾝ","cityKana":"ﾆｲｶﾞﾀｼｺｳﾅﾝｸ","streetKana":"ﾅｶﾞﾀ(ﾊﾞﾝﾁ)","prefecture":"新潟県","city":"新潟市江南区","street":"長潟（番地）"},{"zipCode":"9500841","prefectureKana":"ﾆｲｶﾞﾀｹﾝ","cityKana":"ﾆｲｶﾞﾀｼｺｳﾅﾝｸ","streetKana":"ﾅｶﾉﾔﾏ","prefecture":"新潟県","city":"新潟市江南区","street":"中野山"},{"zipCode":"9501131","prefectureKana":"ﾆｲｶﾞﾀｹﾝ","cityKana":"ﾆｲｶﾞﾀｼｺｳﾅﾝｸ","streetKana":"ﾅﾍﾞｶﾞﾀｼﾝﾃﾞﾝ","prefecture":"新潟県","city":"新潟市江南区","street":"鍋潟新田"},{"zipCode":"9500106","prefectureKana":"ﾆｲｶﾞﾀｹﾝ","cityKana":"ﾆｲｶﾞﾀｼｺｳﾅﾝｸ","streetKana":"ﾆｼﾉ","prefecture":"新潟県","city":"新潟市江南区","street":"西野"},{"zipCode":"9500165","prefectureKana":"ﾆｲｶﾞﾀｹﾝ","cityKana":"ﾆｲｶﾞﾀｼｺｳﾅﾝｸ","streetKana":"ﾆｼﾏﾁ","prefecture":"新潟県","city":"新潟市江南区","street":"西町"},{"zipCode":"9500113","prefectureKana":"ﾆｲｶﾞﾀｹﾝ","cityKana":"ﾆｲｶﾞﾀｼｺｳﾅﾝｸ","streetKana":"ﾆｼﾔﾏ","prefecture":"新潟県","city":"新潟市江南区","street":"西山"},{"zipCode":"9500207","prefectureKana":"ﾆｲｶﾞﾀｹﾝ","cityKana":"ﾆｲｶﾞﾀｼｺｳﾅﾝｸ","streetKana":"ﾆﾎﾝｷﾞ","prefecture":"新潟県","city":"新潟市江南区","street":"二本木"},{"zipCode":"9500325","prefectureKana":"ﾆｲｶﾞﾀｹﾝ","cityKana":"ﾆｲｶﾞﾀｼｺｳﾅﾝｸ","streetKana":"ﾊﾅﾉﾏｷ","prefecture":"新潟県","city":"新潟市江南区","street":"花ノ牧"},{"zipCode":"9500168","prefectureKana":"ﾆｲｶﾞﾀｹﾝ","cityKana":"ﾆｲｶﾞﾀｼｺｳﾅﾝｸ","streetKana":"ﾊﾔﾄﾞｵﾘ","prefecture":"新潟県","city":"新潟市江南区","street":"早通"},{"zipCode":"9500148","prefectureKana":"ﾆｲｶﾞﾀｹﾝ","cityKana":"ﾆｲｶﾞﾀｼｺｳﾅﾝｸ","streetKana":"ﾋｶﾞｼﾊﾔﾄﾞｵﾘ","prefecture":"新潟県","city":"新潟市江南区","street":"東早通"},{"zipCode":"9500163","prefectureKana":"ﾆｲｶﾞﾀｹﾝ","cityKana":"ﾆｲｶﾞﾀｼｺｳﾅﾝｸ","streetKana":"ﾋｶﾞｼﾌﾅﾊﾞ","prefecture":"新潟県","city":"新潟市江南区","street":"東船場"},{"zipCode":"9500126","prefectureKana":"ﾆｲｶﾞﾀｹﾝ","cityKana":"ﾆｲｶﾞﾀｼｺｳﾅﾝｸ","streetKana":"ﾋｶﾞｼﾎﾝﾁｮｳ","prefecture":"新潟県","city":"新潟市江南区","street":"東本町"},{"zipCode":"9500138","prefectureKana":"ﾆｲｶﾞﾀｹﾝ","cityKana":"ﾆｲｶﾞﾀｼｺｳﾅﾝｸ","streetKana":"ﾋﾐｽﾞ","prefecture":"新潟県","city":"新潟市江南区","street":"日水"},{"zipCode":"9500329","prefectureKana":"ﾆｲｶﾞﾀｹﾝ","cityKana":"ﾆｲｶﾞﾀｼｺｳﾅﾝｸ","streetKana":"ﾋﾗｶﾞ","prefecture":"新潟県","city":"新潟市江南区","street":"平賀"},{"zipCode":"9500215","prefectureKana":"ﾆｲｶﾞﾀｹﾝ","cityKana":"ﾆｲｶﾞﾀｼｺｳﾅﾝｸ","streetKana":"ﾋﾗﾔﾏ","prefecture":"新潟県","city":"新潟市江南区","street":"平山"},{"zipCode":"9500131","prefectureKana":"ﾆｲｶﾞﾀｹﾝ","cityKana":"ﾆｲｶﾞﾀｼｺｳﾅﾝｸ","streetKana":"ﾌｸﾛﾂﾞ","prefecture":"新潟県","city":"新潟市江南区","street":"袋津"},{"zipCode":"9500202","prefectureKana":"ﾆｲｶﾞﾀｹﾝ","cityKana":"ﾆｲｶﾞﾀｼｺｳﾅﾝｸ","streetKana":"ﾌｼﾞﾔﾏ","prefecture":"新潟県","city":"新潟市江南区","street":"藤山"},{"zipCode":"9500153","prefectureKana":"ﾆｲｶﾞﾀｹﾝ","cityKana":"ﾆｲｶﾞﾀｼｺｳﾅﾝｸ","streetKana":"ﾌﾅﾄﾔﾏ","prefecture":"新潟県","city":"新潟市江南区","street":"船戸山"},{"zipCode":"9500102","prefectureKana":"ﾆｲｶﾞﾀｹﾝ","cityKana":"ﾆｲｶﾞﾀｼｺｳﾅﾝｸ","streetKana":"ﾎｿﾔﾏ","prefecture":"新潟県","city":"新潟市江南区","street":"細山"},{"zipCode":"9500328","prefectureKana":"ﾆｲｶﾞﾀｹﾝ","cityKana":"ﾆｲｶﾞﾀｼｺｳﾅﾝｸ","streetKana":"ﾏｲｶﾞﾀ","prefecture":"新潟県","city":"新潟市江南区","street":"舞潟"},{"zipCode":"9500112","prefectureKana":"ﾆｲｶﾞﾀｹﾝ","cityKana":"ﾆｲｶﾞﾀｼｺｳﾅﾝｸ","streetKana":"ﾏﾂﾔﾏ","prefecture":"新潟県","city":"新潟市江南区","street":"松山"},{"zipCode":"9500146","prefectureKana":"ﾆｲｶﾞﾀｹﾝ","cityKana":"ﾆｲｶﾞﾀｼｺｳﾅﾝｸ","streetKana":"ﾏﾙｶﾞﾀ","prefecture":"新潟県","city":"新潟市江南区","street":"丸潟"},{"zipCode":"9501132","prefectureKana":"ﾆｲｶﾞﾀｹﾝ","cityKana":"ﾆｲｶﾞﾀｼｺｳﾅﾝｸ","streetKana":"ﾏﾙｶﾞﾀｼﾝﾃﾞﾝ","prefecture":"新潟県","city":"新潟市江南区","street":"丸潟新田"},{"zipCode":"9500115","prefectureKana":"ﾆｲｶﾞﾀｹﾝ","cityKana":"ﾆｲｶﾞﾀｼｺｳﾅﾝｸ","streetKana":"ﾏﾙﾔﾏ","prefecture":"新潟県","city":"新潟市江南区","street":"丸山"},{"zipCode":"9500114","prefectureKana":"ﾆｲｶﾞﾀｹﾝ","cityKana":"ﾆｲｶﾞﾀｼｺｳﾅﾝｸ","streetKana":"ﾐｮｳｶﾞﾀﾞﾆ","prefecture":"新潟県","city":"新潟市江南区","street":"茗荷谷"},{"zipCode":"9500143","prefectureKana":"ﾆｲｶﾞﾀｹﾝ","cityKana":"ﾆｲｶﾞﾀｼｺｳﾅﾝｸ","streetKana":"ﾓﾄﾏﾁ","prefecture":"新潟県","city":"新潟市江南区","street":"元町"},{"zipCode":"9500922","prefectureKana":"ﾆｲｶﾞﾀｹﾝ","cityKana":"ﾆｲｶﾞﾀｼｺｳﾅﾝｸ","streetKana":"ﾔﾏﾌﾀﾂ","prefecture":"新潟県","city":"新潟市江南区","street":"山二ツ"},{"zipCode":"9500204","prefectureKana":"ﾆｲｶﾞﾀｹﾝ","cityKana":"ﾆｲｶﾞﾀｼｺｳﾅﾝｸ","streetKana":"ﾖｺｺﾞｼ","prefecture":"新潟県","city":"新潟市江南区","street":"横越"},{"zipCode":"9500210","prefectureKana":"ﾆｲｶﾞﾀｹﾝ","cityKana":"ﾆｲｶﾞﾀｼｺｳﾅﾝｸ","streetKana":"ﾖｺｺﾞｼｶﾐﾁｮｳ","prefecture":"新潟県","city":"新潟市江南区","street":"横越上町"},{"zipCode":"9500211","prefectureKana":"ﾆｲｶﾞﾀｹﾝ","cityKana":"ﾆｲｶﾞﾀｼｺｳﾅﾝｸ","streetKana":"ﾖｺｺﾞｼｶﾜﾈﾁｮｳ","prefecture":"新潟県","city":"新潟市江南区","street":"横越川根町"},{"zipCode":"9500208","prefectureKana":"ﾆｲｶﾞﾀｹﾝ","cityKana":"ﾆｲｶﾞﾀｼｺｳﾅﾝｸ","streetKana":"ﾖｺｺﾞｼﾁｭｳｵｳ","prefecture":"新潟県","city":"新潟市江南区","street":"横越中央"},{"zipCode":"9500209","prefectureKana":"ﾆｲｶﾞﾀｹﾝ","cityKana":"ﾆｲｶﾞﾀｼｺｳﾅﾝｸ","streetKana":"ﾖｺｺﾞｼﾋｶﾞｼﾁｮｳ","prefecture":"新潟県","city":"新潟市江南区","street":"横越東町"},{"zipCode":"9500322","prefectureKana":"ﾆｲｶﾞﾀｹﾝ","cityKana":"ﾆｲｶﾞﾀｼｺｳﾅﾝｸ","streetKana":"ﾘｮｳｶﾜ","prefecture":"新潟県","city":"新潟市江南区","street":"両川"},{"zipCode":"9500327","prefectureKana":"ﾆｲｶﾞﾀｹﾝ","cityKana":"ﾆｲｶﾞﾀｼｺｳﾅﾝｸ","streetKana":"ﾜﾀﾞ","prefecture":"新潟県","city":"新潟市江南区","street":"和田"},{"zipCode":"9500321","prefectureKana":"ﾆｲｶﾞﾀｹﾝ","cityKana":"ﾆｲｶﾞﾀｼｺｳﾅﾝｸ","streetKana":"ﾜﾘﾉ","prefecture":"新潟県","city":"新潟市江南区","street":"割野"},{"zipCode":"9501200","prefectureKana":"ﾆｲｶﾞﾀｹﾝ","cityKana":"ﾆｲｶﾞﾀｼﾐﾅﾐｸ","streetKana":"ｲｶﾆｹｲｻｲｶﾞﾅｲﾊﾞｱｲ","prefecture":"新潟県","city":"新潟市南区","street":"以下に掲載がない場合"},{"zipCode":"9501411","prefectureKana":"ﾆｲｶﾞﾀｹﾝ","cityKana":"ﾆｲｶﾞﾀｼﾐﾅﾐｸ","streetKana":"ｱｶｼﾌﾞ","prefecture":"新潟県","city":"新潟市南区","street":"赤渋"},{"zipCode":"9501413","prefectureKana":"ﾆｲｶﾞﾀｹﾝ","cityKana":"ﾆｲｶﾞﾀｼﾐﾅﾐｸ","streetKana":"ｱｻﾏｸﾘ","prefecture":"新潟県","city":"新潟市南区","street":"朝捲"},{"zipCode":"9501261","prefectureKana":"ﾆｲｶﾞﾀｹﾝ","cityKana":"ﾆｲｶﾞﾀｼﾐﾅﾐｸ","streetKana":"ｱｼﾞｶﾀ","prefecture":"新潟県","city":"新潟市南区","street":"味方"},{"zipCode":"9501227","prefectureKana":"ﾆｲｶﾞﾀｹﾝ","cityKana":"ﾆｲｶﾞﾀｼﾐﾅﾐｸ","streetKana":"ｱｼﾞｶﾞﾀ","prefecture":"新潟県","city":"新潟市南区","street":"鰺潟"},{"zipCode":"9501134","prefectureKana":"ﾆｲｶﾞﾀｹﾝ","cityKana":"ﾆｲｶﾞﾀｼﾐﾅﾐｸ","streetKana":"ｱﾏﾉ","prefecture":"新潟県","city":"新潟市南区","street":"天野"},{"zipCode":"9501447","prefectureKana":"ﾆｲｶﾞﾀｹﾝ","cityKana":"ﾆｲｶﾞﾀｼﾐﾅﾐｸ","streetKana":"ｲｲｼﾞﾏ","prefecture":"新潟県","city":"新潟市南区","street":"飯島"},{"zipCode":"9501251","prefectureKana":"ﾆｲｶﾞﾀｹﾝ","cityKana":"ﾆｲｶﾞﾀｼﾐﾅﾐｸ","streetKana":"ｲｼｭｸ","prefecture":"新潟県","city":"新潟市南区","street":"居宿"},{"zipCode":"9501471","prefectureKana":"ﾆｲｶﾞﾀｹﾝ","cityKana":"ﾆｲｶﾞﾀｼﾐﾅﾐｸ","streetKana":"ｲｽﾞﾐ","prefecture":"新潟県","city":"新潟市南区","street":"和泉"},{"zipCode":"9501403","prefectureKana":"ﾆｲｶﾞﾀｹﾝ","cityKana":"ﾆｲｶﾞﾀｼﾐﾅﾐｸ","streetKana":"ｲﾇｶｴﾘｼﾝﾃﾞﾝ","prefecture":"新潟県","city":"新潟市南区","street":"犬帰新田"},{"zipCode":"9501456","prefectureKana":"ﾆｲｶﾞﾀｹﾝ","cityKana":"ﾆｲｶﾞﾀｼﾐﾅﾐｸ","streetKana":"ｲﾊﾞﾗｿﾈ","prefecture":"新潟県","city":"新潟市南区","street":"茨曽根"},{"zipCode":"9501442","prefectureKana":"ﾆｲｶﾞﾀｹﾝ","cityKana":"ﾆｲｶﾞﾀｼﾐﾅﾐｸ","streetKana":"ｲﾓﾉｼｺﾞｳﾔ","prefecture":"新潟県","city":"新潟市南区","street":"鋳物師興野"},{"zipCode":"9501453","prefectureKana":"ﾆｲｶﾞﾀｹﾝ","cityKana":"ﾆｲｶﾞﾀｼﾐﾅﾐｸ","streetKana":"ｳｻｷﾞｼﾝﾃﾞﾝ","prefecture":"新潟県","city":"新潟市南区","street":"兎新田"},{"zipCode":"9501444","prefectureKana":"ﾆｲｶﾞﾀｹﾝ","cityKana":"ﾆｲｶﾞﾀｼﾐﾅﾐｸ","streetKana":"ｳｼｻﾞｷ","prefecture":"新潟県","city":"新潟市南区","street":"牛崎"},{"zipCode":"9501412","prefectureKana":"ﾆｲｶﾞﾀｹﾝ","cityKana":"ﾆｲｶﾞﾀｼﾐﾅﾐｸ","streetKana":"ｳｽｲ","prefecture":"新潟県","city":"新潟市南区","street":"臼井"},{"zipCode":"9501401","prefectureKana":"ﾆｲｶﾞﾀｹﾝ","cityKana":"ﾆｲｶﾞﾀｼﾐﾅﾐｸ","streetKana":"ｳｽｶﾞﾄﾞｵﾘ","prefecture":"新潟県","city":"新潟市南区","street":"獺ヶ通"},{"zipCode":"9501472","prefectureKana":"ﾆｲｶﾞﾀｹﾝ","cityKana":"ﾆｲｶﾞﾀｼﾐﾅﾐｸ","streetKana":"ｳﾗﾅｼ","prefecture":"新潟県","city":"新潟市南区","street":"浦梨"},{"zipCode":"9501252","prefectureKana":"ﾆｲｶﾞﾀｹﾝ","cityKana":"ﾆｲｶﾞﾀｼﾐﾅﾐｸ","streetKana":"ｵｵｸﾗ","prefecture":"新潟県","city":"新潟市南区","street":"大倉"},{"zipCode":"9501253","prefectureKana":"ﾆｲｶﾞﾀｹﾝ","cityKana":"ﾆｲｶﾞﾀｼﾐﾅﾐｸ","streetKana":"ｵｵｸﾗｼﾝﾃﾞﾝ","prefecture":"新潟県","city":"新潟市南区","street":"大倉新田"},{"zipCode":"9501201","prefectureKana":"ﾆｲｶﾞﾀｹﾝ","cityKana":"ﾆｲｶﾞﾀｼﾐﾅﾐｸ","streetKana":"ｵｵﾄﾞｵﾘ","prefecture":"新潟県","city":"新潟市南区","street":"大通"},{"zipCode":"9501203","prefectureKana":"ﾆｲｶﾞﾀｹﾝ","cityKana":"ﾆｲｶﾞﾀｼﾐﾅﾐｸ","streetKana":"ｵｵﾄﾞｵﾘｺｶﾞﾈ","prefecture":"新潟県","city":"新潟市南区","street":"大通黄金"},{"zipCode":"9501204","prefectureKana":"ﾆｲｶﾞﾀｹﾝ","cityKana":"ﾆｲｶﾞﾀｼﾐﾅﾐｸ","streetKana":"ｵｵﾄﾞｵﾘﾆｼ","prefecture":"新潟県","city":"新潟市南区","street":"大通西"},{"zipCode":"9501202","prefectureKana":"ﾆｲｶﾞﾀｹﾝ","cityKana":"ﾆｲｶﾞﾀｼﾐﾅﾐｸ","streetKana":"ｵｵﾄﾞｵﾘﾐﾅﾐ","prefecture":"新潟県","city":"新潟市南区","street":"大通南"},{"zipCode":"9501305","prefectureKana":"ﾆｲｶﾞﾀｹﾝ","cityKana":"ﾆｲｶﾞﾀｼﾐﾅﾐｸ","streetKana":"ｵｵﾍﾞﾂﾄｳ","prefecture":"新潟県","city":"新潟市南区","street":"大別當"},{"zipCode":"9501466","prefectureKana":"ﾆｲｶﾞﾀｹﾝ","cityKana":"ﾆｲｶﾞﾀｼﾐﾅﾐｸ","streetKana":"ｵｷｼﾝﾎﾞ","prefecture":"新潟県","city":"新潟市南区","street":"沖新保"},{"zipCode":"9501428","prefectureKana":"ﾆｲｶﾞﾀｹﾝ","cityKana":"ﾆｲｶﾞﾀｼﾐﾅﾐｸ","streetKana":"ｶﾐｳﾗ","prefecture":"新潟県","city":"新潟市南区","street":"上浦"},{"zipCode":"9501474","prefectureKana":"ﾆｲｶﾞﾀｹﾝ","cityKana":"ﾆｲｶﾞﾀｼﾐﾅﾐｸ","streetKana":"ｶﾐｷﾔﾏ","prefecture":"新潟県","city":"新潟市南区","street":"上木山"},{"zipCode":"9501244","prefectureKana":"ﾆｲｶﾞﾀｹﾝ","cityKana":"ﾆｲｶﾞﾀｼﾐﾅﾐｸ","streetKana":"ｶﾐｼｵﾀﾞﾜﾗ","prefecture":"新潟県","city":"新潟市南区","street":"上塩俵"},{"zipCode":"9501454","prefectureKana":"ﾆｲｶﾞﾀｹﾝ","cityKana":"ﾆｲｶﾞﾀｼﾐﾅﾐｸ","streetKana":"ｶﾐｼﾝﾃﾞﾝ","prefecture":"新潟県","city":"新潟市南区","street":"上新田"},{"zipCode":"9501465","prefectureKana":"ﾆｲｶﾞﾀｹﾝ","cityKana":"ﾆｲｶﾞﾀｼﾐﾅﾐｸ","streetKana":"ｶﾐﾄﾞｳｶﾞﾀ","prefecture":"新潟県","city":"新潟市南区","street":"上道潟"},{"zipCode":"9501431","prefectureKana":"ﾆｲｶﾞﾀｹﾝ","cityKana":"ﾆｲｶﾞﾀｼﾐﾅﾐｸ","streetKana":"ｶﾐﾊﾁﾏｲ","prefecture":"新潟県","city":"新潟市南区","street":"上八枚"},{"zipCode":"9501302","prefectureKana":"ﾆｲｶﾞﾀｹﾝ","cityKana":"ﾆｲｶﾞﾀｼﾐﾅﾐｸ","streetKana":"ｶﾐﾏｶﾞﾘﾄﾞｵﾘ","prefecture":"新潟県","city":"新潟市南区","street":"上曲通"},{"zipCode":"9501221","prefectureKana":"ﾆｲｶﾞﾀｹﾝ","cityKana":"ﾆｲｶﾞﾀｼﾐﾅﾐｸ","streetKana":"ｶﾐﾔ","prefecture":"新潟県","city":"新潟市南区","street":"神屋"},{"zipCode":"9501237","prefectureKana":"ﾆｲｶﾞﾀｹﾝ","cityKana":"ﾆｲｶﾞﾀｼﾐﾅﾐｸ","streetKana":"ｷﾀﾀﾅｶ","prefecture":"新潟県","city":"新潟市南区","street":"北田中"},{"zipCode":"9501311","prefectureKana":"ﾆｲｶﾞﾀｹﾝ","cityKana":"ﾆｲｶﾞﾀｼﾐﾅﾐｸ","streetKana":"ｷﾅﾒﾘ","prefecture":"新潟県","city":"新潟市南区","street":"木滑"},{"zipCode":"9501434","prefectureKana":"ﾆｲｶﾞﾀｹﾝ","cityKana":"ﾆｲｶﾞﾀｼﾐﾅﾐｸ","streetKana":"ｸｼｹﾞ","prefecture":"新潟県","city":"新潟市南区","street":"櫛笥"},{"zipCode":"9501441","prefectureKana":"ﾆｲｶﾞﾀｹﾝ","cityKana":"ﾆｲｶﾞﾀｼﾐﾅﾐｸ","streetKana":"ｸﾓﾃﾞｺｳﾔ","prefecture":"新潟県","city":"新潟市南区","street":"蜘手興野"},{"zipCode":"9501231","prefectureKana":"ﾆｲｶﾞﾀｹﾝ","cityKana":"ﾆｲｶﾞﾀｼﾐﾅﾐｸ","streetKana":"ｺｻｶ","prefecture":"新潟県","city":"新潟市南区","street":"小坂"},{"zipCode":"9501414","prefectureKana":"ﾆｲｶﾞﾀｹﾝ","cityKana":"ﾆｲｶﾞﾀｼﾐﾅﾐｸ","streetKana":"ｺｿﾞｳｽ","prefecture":"新潟県","city":"新潟市南区","street":"小蔵子"},{"zipCode":"9501255","prefectureKana":"ﾆｲｶﾞﾀｹﾝ","cityKana":"ﾆｲｶﾞﾀｼﾐﾅﾐｸ","streetKana":"ｻﾝﾉｳ","prefecture":"新潟県","city":"新潟市南区","street":"山王"},{"zipCode":"9501256","prefectureKana":"ﾆｲｶﾞﾀｹﾝ","cityKana":"ﾆｲｶﾞﾀｼﾐﾅﾐｸ","streetKana":"ｻﾝﾉｳｼﾝﾃﾞﾝ","prefecture":"新潟県","city":"新潟市南区","street":"山王新田"},{"zipCode":"9501212","prefectureKana":"ﾆｲｶﾞﾀｹﾝ","cityKana":"ﾆｲｶﾞﾀｼﾐﾅﾐｸ","streetKana":"ｼﾁｹﾝ","prefecture":"新潟県","city":"新潟市南区","street":"七軒"},{"zipCode":"9501225","prefectureKana":"ﾆｲｶﾞﾀｹﾝ","cityKana":"ﾆｲｶﾞﾀｼﾐﾅﾐｸ","streetKana":"ｼﾁｹﾝﾁｮｳ","prefecture":"新潟県","city":"新潟市南区","street":"七軒町"},{"zipCode":"9501457","prefectureKana":"ﾆｲｶﾞﾀｹﾝ","cityKana":"ﾆｲｶﾞﾀｼﾐﾅﾐｸ","streetKana":"ｼﾐｽﾞ","prefecture":"新潟県","city":"新潟市南区","street":"清水"},{"zipCode":"9501473","prefectureKana":"ﾆｲｶﾞﾀｹﾝ","cityKana":"ﾆｲｶﾞﾀｼﾐﾅﾐｸ","streetKana":"ｼﾓｷﾔﾏ","prefecture":"新潟県","city":"新潟市南区","street":"下木山"},{"zipCode":"9501241","prefectureKana":"ﾆｲｶﾞﾀｹﾝ","cityKana":"ﾆｲｶﾞﾀｼﾐﾅﾐｸ","streetKana":"ｼﾓｼｵﾀﾞﾜﾗ","prefecture":"新潟県","city":"新潟市南区","street":"下塩俵"},{"zipCode":"9501464","prefectureKana":"ﾆｲｶﾞﾀｹﾝ","cityKana":"ﾆｲｶﾞﾀｼﾐﾅﾐｸ","streetKana":"ｼﾓﾄﾞｳｶﾞﾀ","prefecture":"新潟県","city":"新潟市南区","street":"下道潟"},{"zipCode":"9501424","prefectureKana":"ﾆｲｶﾞﾀｹﾝ","cityKana":"ﾆｲｶﾞﾀｼﾐﾅﾐｸ","streetKana":"ｼﾓﾊﾁﾏｲ","prefecture":"新潟県","city":"新潟市南区","street":"下八枚"},{"zipCode":"9501301","prefectureKana":"ﾆｲｶﾞﾀｹﾝ","cityKana":"ﾆｲｶﾞﾀｼﾐﾅﾐｸ","streetKana":"ｼﾓﾏｶﾞﾘﾄﾞｵﾘ","prefecture":"新潟県","city":"新潟市南区","street":"下曲通"},{"zipCode":"9501246","prefectureKana":"ﾆｲｶﾞﾀｹﾝ","cityKana":"ﾆｲｶﾞﾀｼﾐﾅﾐｸ","streetKana":"ｼﾓﾔﾏｻﾞｷ","prefecture":"新潟県","city":"新潟市南区","street":"下山崎"},{"zipCode":"9501232","prefectureKana":"ﾆｲｶﾞﾀｹﾝ","cityKana":"ﾆｲｶﾞﾀｼﾐﾅﾐｸ","streetKana":"ｼﾞｭｳｺﾞｹﾝ","prefecture":"新潟県","city":"新潟市南区","street":"十五間"},{"zipCode":"9501432","prefectureKana":"ﾆｲｶﾞﾀｹﾝ","cityKana":"ﾆｲｶﾞﾀｼﾐﾅﾐｸ","streetKana":"ｼﾞｭｳﾆﾄﾞｳｼﾏ","prefecture":"新潟県","city":"新潟市南区","street":"十二道島"},{"zipCode":"9501214","prefectureKana":"ﾆｲｶﾞﾀｹﾝ","cityKana":"ﾆｲｶﾞﾀｼﾐﾅﾐｸ","streetKana":"ｼﾞｮｳｹﾞｽﾜﾉｷ","prefecture":"新潟県","city":"新潟市南区","street":"上下諏訪木"},{"zipCode":"9501446","prefectureKana":"ﾆｲｶﾞﾀｹﾝ","cityKana":"ﾆｲｶﾞﾀｼﾐﾅﾐｸ","streetKana":"ｼｮｳｾﾞ","prefecture":"新潟県","city":"新潟市南区","street":"庄瀬"},{"zipCode":"9501433","prefectureKana":"ﾆｲｶﾞﾀｹﾝ","cityKana":"ﾆｲｶﾞﾀｼﾐﾅﾐｸ","streetKana":"ｼﾞﾛｳｳｴﾓﾝｺｳﾔ","prefecture":"新潟県","city":"新潟市南区","street":"次郎右エ門興野"},{"zipCode":"9501217","prefectureKana":"ﾆｲｶﾞﾀｹﾝ","cityKana":"ﾆｲｶﾞﾀｼﾐﾅﾐｸ","streetKana":"ｼﾛﾈ","prefecture":"新潟県","city":"新潟市南区","street":"白根"},{"zipCode":"9501222","prefectureKana":"ﾆｲｶﾞﾀｹﾝ","cityKana":"ﾆｲｶﾞﾀｼﾐﾅﾐｸ","streetKana":"ｼﾛﾈｱｽﾞﾏﾁｮｳ","prefecture":"新潟県","city":"新潟市南区","street":"白根東町"},{"zipCode":"9501218","prefectureKana":"ﾆｲｶﾞﾀｹﾝ","cityKana":"ﾆｲｶﾞﾀｼﾐﾅﾐｸ","streetKana":"ｼﾛﾈｻｶﾅﾏﾁ","prefecture":"新潟県","city":"新潟市南区","street":"白根魚町"},{"zipCode":"9501224","prefectureKana":"ﾆｲｶﾞﾀｹﾝ","cityKana":"ﾆｲｶﾞﾀｼﾐﾅﾐｸ","streetKana":"ｼﾛﾈｽｲﾄﾞｳﾁｮｳ","prefecture":"新潟県","city":"新潟市南区","street":"白根水道町"},{"zipCode":"9501216","prefectureKana":"ﾆｲｶﾞﾀｹﾝ","cityKana":"ﾆｲｶﾞﾀｼﾐﾅﾐｸ","streetKana":"ｼﾛﾈﾉｳﾁｼﾁｹﾝ","prefecture":"新潟県","city":"新潟市南区","street":"白根ノ内七軒"},{"zipCode":"9501223","prefectureKana":"ﾆｲｶﾞﾀｹﾝ","cityKana":"ﾆｲｶﾞﾀｼﾐﾅﾐｸ","streetKana":"ｼﾛﾈﾋﾉﾃﾞﾁｮｳ","prefecture":"新潟県","city":"新潟市南区","street":"白根日の出町"},{"zipCode":"9501211","prefectureKana":"ﾆｲｶﾞﾀｹﾝ","cityKana":"ﾆｲｶﾞﾀｼﾐﾅﾐｸ","streetKana":"ｼﾛﾈﾌﾙｶﾜ","prefecture":"新潟県","city":"新潟市南区","street":"白根古川"},{"zipCode":"9501226","prefectureKana":"ﾆｲｶﾞﾀｹﾝ","cityKana":"ﾆｲｶﾞﾀｼﾐﾅﾐｸ","streetKana":"ｼﾛﾈﾖﾂｺﾞｳﾔ","prefecture":"新潟県","city":"新潟市南区","street":"白根四ツ興野"},{"zipCode":"9501426","prefectureKana":"ﾆｲｶﾞﾀｹﾝ","cityKana":"ﾆｲｶﾞﾀｼﾐﾅﾐｸ","streetKana":"ｼﾝｾｲﾁｮｳ","prefecture":"新潟県","city":"新潟市南区","street":"新生町"},{"zipCode":"9501245","prefectureKana":"ﾆｲｶﾞﾀｹﾝ","cityKana":"ﾆｲｶﾞﾀｼﾐﾅﾐｸ","streetKana":"ｼﾝﾔﾏｻﾞｷﾁｮｳ","prefecture":"新潟県","city":"新潟市南区","street":"新山崎町"},{"zipCode":"9501209","prefectureKana":"ﾆｲｶﾞﾀｹﾝ","cityKana":"ﾆｲｶﾞﾀｼﾐﾅﾐｸ","streetKana":"ｼﾝﾜﾁｮｳ","prefecture":"新潟県","city":"新潟市南区","street":"親和町"},{"zipCode":"9501208","prefectureKana":"ﾆｲｶﾞﾀｹﾝ","cityKana":"ﾆｲｶﾞﾀｼﾐﾅﾐｸ","streetKana":"ｽｷﾞﾅ","prefecture":"新潟県","city":"新潟市南区","street":"杉菜"},{"zipCode":"9501215","prefectureKana":"ﾆｲｶﾞﾀｹﾝ","cityKana":"ﾆｲｶﾞﾀｼﾐﾅﾐｸ","streetKana":"ｽｹｼﾞｳｴﾓﾝｸﾞﾐ","prefecture":"新潟県","city":"新潟市南区","street":"助次右エ門組"},{"zipCode":"9501462","prefectureKana":"ﾆｲｶﾞﾀｹﾝ","cityKana":"ﾆｲｶﾞﾀｼﾐﾅﾐｸ","streetKana":"ｿﾞｳｽ","prefecture":"新潟県","city":"新潟市南区","street":"蔵主"},{"zipCode":"9501404","prefectureKana":"ﾆｲｶﾞﾀｹﾝ","cityKana":"ﾆｲｶﾞﾀｼﾐﾅﾐｸ","streetKana":"ﾀﾞｲｺﾞｳ","prefecture":"新潟県","city":"新潟市南区","street":"大郷"},{"zipCode":"9501436","prefectureKana":"ﾆｲｶﾞﾀｹﾝ","cityKana":"ﾆｲｶﾞﾀｼﾐﾅﾐｸ","streetKana":"ﾀﾞｵ","prefecture":"新潟県","city":"新潟市南区","street":"田尾"},{"zipCode":"9501235","prefectureKana":"ﾆｲｶﾞﾀｹﾝ","cityKana":"ﾆｲｶﾞﾀｼﾐﾅﾐｸ","streetKana":"ﾀｶｲｺｳﾔ","prefecture":"新潟県","city":"新潟市南区","street":"高井興野"},{"zipCode":"9501236","prefectureKana":"ﾆｲｶﾞﾀｹﾝ","cityKana":"ﾆｲｶﾞﾀｼﾐﾅﾐｸ","streetKana":"ﾀｶｲﾋｶﾞｼ","prefecture":"新潟県","city":"新潟市南区","street":"高井東"},{"zipCode":"9501477","prefectureKana":"ﾆｲｶﾞﾀｹﾝ","cityKana":"ﾆｲｶﾞﾀｼﾐﾅﾐｸ","streetKana":"ﾀﾅｶ","prefecture":"新潟県","city":"新潟市南区","street":"田中"},{"zipCode":"9501304","prefectureKana":"ﾆｲｶﾞﾀｹﾝ","cityKana":"ﾆｲｶﾞﾀｼﾐﾅﾐｸ","streetKana":"ﾂｷｶﾞﾀ","prefecture":"新潟県","city":"新潟市南区","street":"月潟"},{"zipCode":"9501313","prefectureKana":"ﾆｲｶﾞﾀｹﾝ","cityKana":"ﾆｲｶﾞﾀｼﾐﾅﾐｸ","streetKana":"ﾂﾘﾖｾ","prefecture":"新潟県","city":"新潟市南区","street":"釣寄"},{"zipCode":"9501312","prefectureKana":"ﾆｲｶﾞﾀｹﾝ","cityKana":"ﾆｲｶﾞﾀｼﾐﾅﾐｸ","streetKana":"ﾂﾘﾖｾｼﾝ","prefecture":"新潟県","city":"新潟市南区","street":"釣寄新"},{"zipCode":"9501425","prefectureKana":"ﾆｲｶﾞﾀｹﾝ","cityKana":"ﾆｲｶﾞﾀｼﾐﾅﾐｸ","streetKana":"ﾄｲｼ","prefecture":"新潟県","city":"新潟市南区","street":"戸石"},{"zipCode":"9501475","prefectureKana":"ﾆｲｶﾞﾀｹﾝ","cityKana":"ﾆｲｶﾞﾀｼﾐﾅﾐｸ","streetKana":"ﾄｶﾞｼﾗ","prefecture":"新潟県","city":"新潟市南区","street":"戸頭"},{"zipCode":"9501423","prefectureKana":"ﾆｲｶﾞﾀｹﾝ","cityKana":"ﾆｲｶﾞﾀｼﾐﾅﾐｸ","streetKana":"ﾅｶｵﾐ","prefecture":"新潟県","city":"新潟市南区","street":"中小見"},{"zipCode":"9501242","prefectureKana":"ﾆｲｶﾞﾀｹﾝ","cityKana":"ﾆｲｶﾞﾀｼﾐﾅﾐｸ","streetKana":"ﾅｶｼｵﾀﾞﾜﾗ","prefecture":"新潟県","city":"新潟市南区","street":"中塩俵"},{"zipCode":"9501421","prefectureKana":"ﾆｲｶﾞﾀｹﾝ","cityKana":"ﾆｲｶﾞﾀｼﾐﾅﾐｸ","streetKana":"ﾅｶﾔﾏ","prefecture":"新潟県","city":"新潟市南区","street":"中山"},{"zipCode":"9501254","prefectureKana":"ﾆｲｶﾞﾀｹﾝ","cityKana":"ﾆｲｶﾞﾀｼﾐﾅﾐｸ","streetKana":"ﾅﾅﾎ","prefecture":"新潟県","city":"新潟市南区","street":"七穂"},{"zipCode":"9501437","prefectureKana":"ﾆｲｶﾞﾀｹﾝ","cityKana":"ﾆｲｶﾞﾀｼﾐﾅﾐｸ","streetKana":"ﾅﾍﾞｶﾞﾀ","prefecture":"新潟県","city":"新潟市南区","street":"鍋潟"},{"zipCode":"9501455","prefectureKana":"ﾆｲｶﾞﾀｹﾝ","cityKana":"ﾆｲｶﾞﾀｼﾐﾅﾐｸ","streetKana":"ﾆｲﾀﾞ","prefecture":"新潟県","city":"新潟市南区","street":"新飯田"},{"zipCode":"9501416","prefectureKana":"ﾆｲｶﾞﾀｹﾝ","cityKana":"ﾆｲｶﾞﾀｼﾐﾅﾐｸ","streetKana":"ﾆｼｶｻﾏｷ","prefecture":"新潟県","city":"新潟市南区","street":"西笠巻"},{"zipCode":"9501417","prefectureKana":"ﾆｲｶﾞﾀｹﾝ","cityKana":"ﾆｲｶﾞﾀｼﾐﾅﾐｸ","streetKana":"ﾆｼｶｻﾏｷｼﾝﾃﾞﾝ","prefecture":"新潟県","city":"新潟市南区","street":"西笠巻新田"},{"zipCode":"9501303","prefectureKana":"ﾆｲｶﾞﾀｹﾝ","cityKana":"ﾆｲｶﾞﾀｼﾐﾅﾐｸ","streetKana":"ﾆｼｶﾔﾊﾞ","prefecture":"新潟県","city":"新潟市南区","street":"西萱場"},{"zipCode":"9501402","prefectureKana":"ﾆｲｶﾞﾀｹﾝ","cityKana":"ﾆｲｶﾞﾀｼﾐﾅﾐｸ","streetKana":"ﾆｼｻｶﾔ","prefecture":"新潟県","city":"新潟市南区","street":"西酒屋"},{"zipCode":"9501262","prefectureKana":"ﾆｲｶﾞﾀｹﾝ","cityKana":"ﾆｲｶﾞﾀｼﾐﾅﾐｸ","streetKana":"ﾆｼｼﾛﾈ","prefecture":"新潟県","city":"新潟市南区","street":"西白根"},{"zipCode":"9501234","prefectureKana":"ﾆｲｶﾞﾀｹﾝ","cityKana":"ﾆｲｶﾞﾀｼﾐﾅﾐｸ","streetKana":"ﾈｷﾞｼ","prefecture":"新潟県","city":"新潟市南区","street":"根岸"},{"zipCode":"9501213","prefectureKana":"ﾆｲｶﾞﾀｹﾝ","cityKana":"ﾆｲｶﾞﾀｼﾐﾅﾐｸ","streetKana":"ﾉﾄ","prefecture":"新潟県","city":"新潟市南区","street":"能登"},{"zipCode":"9501405","prefectureKana":"ﾆｲｶﾞﾀｹﾝ","cityKana":"ﾆｲｶﾞﾀｼﾐﾅﾐｸ","streetKana":"ﾋｶﾞｼｶｻﾏｷ","prefecture":"新潟県","city":"新潟市南区","street":"東笠巻"},{"zipCode":"9501406","prefectureKana":"ﾆｲｶﾞﾀｹﾝ","cityKana":"ﾆｲｶﾞﾀｼﾐﾅﾐｸ","streetKana":"ﾋｶﾞｼｶｻﾏｷｼﾝﾃﾞﾝ","prefecture":"新潟県","city":"新潟市南区","street":"東笠巻新田"},{"zipCode":"9501467","prefectureKana":"ﾆｲｶﾞﾀｹﾝ","cityKana":"ﾆｲｶﾞﾀｼﾐﾅﾐｸ","streetKana":"ﾋｶﾞｼｶﾔﾊﾞ","prefecture":"新潟県","city":"新潟市南区","street":"東萱場"},{"zipCode":"9501314","prefectureKana":"ﾆｲｶﾞﾀｹﾝ","cityKana":"ﾆｲｶﾞﾀｼﾐﾅﾐｸ","streetKana":"ﾋｶﾞｼﾅｶﾞｼﾏ","prefecture":"新潟県","city":"新潟市南区","street":"東長嶋"},{"zipCode":"9501443","prefectureKana":"ﾆｲｶﾞﾀｹﾝ","cityKana":"ﾆｲｶﾞﾀｼﾐﾅﾐｸ","streetKana":"ﾋｼｶﾞﾀ","prefecture":"新潟県","city":"新潟市南区","street":"菱潟"},{"zipCode":"9501445","prefectureKana":"ﾆｲｶﾞﾀｹﾝ","cityKana":"ﾆｲｶﾞﾀｼﾐﾅﾐｸ","streetKana":"ﾋｼｶﾞﾀｼﾝﾃﾞﾝ","prefecture":"新潟県","city":"新潟市南区","street":"菱潟新田"},{"zipCode":"9501415","prefectureKana":"ﾆｲｶﾞﾀｹﾝ","cityKana":"ﾆｲｶﾞﾀｼﾐﾅﾐｸ","streetKana":"ﾋｯｺｼ","prefecture":"新潟県","city":"新潟市南区","street":"引越"},{"zipCode":"9501461","prefectureKana":"ﾆｲｶﾞﾀｹﾝ","cityKana":"ﾆｲｶﾞﾀｼﾐﾅﾐｸ","streetKana":"ﾋﾗｶﾀ","prefecture":"新潟県","city":"新潟市南区","street":"平潟"},{"zipCode":"9501463","prefectureKana":"ﾆｲｶﾞﾀｹﾝ","cityKana":"ﾆｲｶﾞﾀｼﾐﾅﾐｸ","streetKana":"ﾋﾗｶﾀｼﾝﾃﾞﾝ","prefecture":"新潟県","city":"新潟市南区","street":"平潟新田"},{"zipCode":"9501344","prefectureKana":"ﾆｲｶﾞﾀｹﾝ","cityKana":"ﾆｲｶﾞﾀｼﾐﾅﾐｸ","streetKana":"ﾌｸｼﾞﾏ","prefecture":"新潟県","city":"新潟市南区","street":"福島"},{"zipCode":"9501452","prefectureKana":"ﾆｲｶﾞﾀｹﾝ","cityKana":"ﾆｲｶﾞﾀｼﾐﾅﾐｸ","streetKana":"ﾌﾙｶﾜｼﾝﾃﾞﾝ","prefecture":"新潟県","city":"新潟市南区","street":"古川新田"},{"zipCode":"9501476","prefectureKana":"ﾆｲｶﾞﾀｹﾝ","cityKana":"ﾆｲｶﾞﾀｼﾐﾅﾐｸ","streetKana":"ﾍｲｾｲﾁｮｳ","prefecture":"新潟県","city":"新潟市南区","street":"平成町"},{"zipCode":"9501233","prefectureKana":"ﾆｲｶﾞﾀｹﾝ","cityKana":"ﾆｲｶﾞﾀｼﾐﾅﾐｸ","streetKana":"ﾎｻｶ","prefecture":"新潟県","city":"新潟市南区","street":"保坂"},{"zipCode":"9501422","prefectureKana":"ﾆｲｶﾞﾀｹﾝ","cityKana":"ﾆｲｶﾞﾀｼﾐﾅﾐｸ","streetKana":"ﾎｯｶｹ","prefecture":"新潟県","city":"新潟市南区","street":"堀掛"},{"zipCode":"9501451","prefectureKana":"ﾆｲｶﾞﾀｹﾝ","cityKana":"ﾆｲｶﾞﾀｼﾐﾅﾐｸ","streetKana":"ﾏｷ","prefecture":"新潟県","city":"新潟市南区","street":"真木"},{"zipCode":"9501243","prefectureKana":"ﾆｲｶﾞﾀｹﾝ","cityKana":"ﾆｲｶﾞﾀｼﾐﾅﾐｸ","streetKana":"ﾏﾂﾊｼ","prefecture":"新潟県","city":"新潟市南区","street":"松橋"},{"zipCode":"9501435","prefectureKana":"ﾆｲｶﾞﾀｹﾝ","cityKana":"ﾆｲｶﾞﾀｼﾐﾅﾐｸ","streetKana":"ﾏﾝﾈﾝ","prefecture":"新潟県","city":"新潟市南区","street":"万年"},{"zipCode":"9501247","prefectureKana":"ﾆｲｶﾞﾀｹﾝ","cityKana":"ﾆｲｶﾞﾀｼﾐﾅﾐｸ","streetKana":"ﾔﾏｻﾞｷｺｳﾔ","prefecture":"新潟県","city":"新潟市南区","street":"山崎興野"},{"zipCode":"9501258","prefectureKana":"ﾆｲｶﾞﾀｹﾝ","cityKana":"ﾆｲｶﾞﾀｼﾐﾅﾐｸ","streetKana":"ﾖｼｴ","prefecture":"新潟県","city":"新潟市南区","street":"吉江"},{"zipCode":"9501257","prefectureKana":"ﾆｲｶﾞﾀｹﾝ","cityKana":"ﾆｲｶﾞﾀｼﾐﾅﾐｸ","streetKana":"ﾖｼﾀﾞｼﾝﾃﾞﾝ","prefecture":"新潟県","city":"新潟市南区","street":"吉田新田"},{"zipCode":"9501407","prefectureKana":"ﾆｲｶﾞﾀｹﾝ","cityKana":"ﾆｲｶﾞﾀｼﾐﾅﾐｸ","streetKana":"ﾜｼﾉｷｼﾝﾃﾞﾝ","prefecture":"新潟県","city":"新潟市南区","street":"鷲ノ木新田"},{"zipCode":"9500000","prefectureKana":"ﾆｲｶﾞﾀｹﾝ","cityKana":"ﾆｲｶﾞﾀｼﾆｼｸ","streetKana":"ｲｶﾆｹｲｻｲｶﾞﾅｲﾊﾞｱｲ","prefecture":"新潟県","city":"新潟市西区","street":"以下に掲載がない場合"},{"zipCode":"9502002","prefectureKana":"ﾆｲｶﾞﾀｹﾝ","cityKana":"ﾆｲｶﾞﾀｼﾆｼｸ","streetKana":"ｱｵﾔﾏ","prefecture":"新潟県","city":"新潟市西区","street":"青山"},{"zipCode":"9502006","prefectureKana":"ﾆｲｶﾞﾀｹﾝ","cityKana":"ﾆｲｶﾞﾀｼﾆｼｸ","streetKana":"ｱｵﾔﾏｼﾝﾏﾁ","prefecture":"新潟県","city":"新潟市西区","street":"青山新町"},{"zipCode":"9502005","prefectureKana":"ﾆｲｶﾞﾀｹﾝ","cityKana":"ﾆｲｶﾞﾀｼﾆｼｸ","streetKana":"ｱｵﾔﾏｽｲﾄﾞｳ","prefecture":"新潟県","city":"新潟市西区","street":"青山水道"},{"zipCode":"9502261","prefectureKana":"ﾆｲｶﾞﾀｹﾝ","cityKana":"ﾆｲｶﾞﾀｼﾆｼｸ","streetKana":"ｱｶﾂｶ","prefecture":"新潟県","city":"新潟市西区","street":"赤塚"},{"zipCode":"9502073","prefectureKana":"ﾆｲｶﾞﾀｹﾝ","cityKana":"ﾆｲｶﾞﾀｼﾆｼｸ","streetKana":"ｱﾘｱｹﾁｮｳ","prefecture":"新潟県","city":"新潟市西区","street":"有明町"},{"zipCode":"9502101","prefectureKana":"ﾆｲｶﾞﾀｹﾝ","cityKana":"ﾆｲｶﾞﾀｼﾆｼｸ","streetKana":"ｲｶﾗｼ1ﾉﾁｮｳ","prefecture":"新潟県","city":"新潟市西区","street":"五十嵐一の町"},{"zipCode":"9502102","prefectureKana":"ﾆｲｶﾞﾀｹﾝ","cityKana":"ﾆｲｶﾞﾀｼﾆｼｸ","streetKana":"ｲｶﾗｼ2ﾉﾁｮｳ","prefecture":"新潟県","city":"新潟市西区","street":"五十嵐二の町"},{"zipCode":"9502171","prefectureKana":"ﾆｲｶﾞﾀｹﾝ","cityKana":"ﾆｲｶﾞﾀｼﾆｼｸ","streetKana":"ｲｶﾗｼ3ﾉﾁｮｳ","prefecture":"新潟県","city":"新潟市西区","street":"五十嵐三の町"},{"zipCode":"9502176","prefectureKana":"ﾆｲｶﾞﾀｹﾝ","cityKana":"ﾆｲｶﾞﾀｼﾆｼｸ","streetKana":"ｲｶﾗｼ3ﾉﾁｮｳｷﾀ","prefecture":"新潟県","city":"新潟市西区","street":"五十嵐三の町北"},{"zipCode":"9502177","prefectureKana":"ﾆｲｶﾞﾀｹﾝ","cityKana":"ﾆｲｶﾞﾀｼﾆｼｸ","streetKana":"ｲｶﾗｼ3ﾉﾁｮｳﾅｶ","prefecture":"新潟県","city":"新潟市西区","street":"五十嵐三の町中"},{"zipCode":"9502174","prefectureKana":"ﾆｲｶﾞﾀｹﾝ","cityKana":"ﾆｲｶﾞﾀｼﾆｼｸ","streetKana":"ｲｶﾗｼ3ﾉﾁｮｳﾆｼ","prefecture":"新潟県","city":"新潟市西区","street":"五十嵐三の町西"},{"zipCode":"9502173","prefectureKana":"ﾆｲｶﾞﾀｹﾝ","cityKana":"ﾆｲｶﾞﾀｼﾆｼｸ","streetKana":"ｲｶﾗｼ3ﾉﾁｮｳﾋｶﾞｼ","prefecture":"新潟県","city":"新潟市西区","street":"五十嵐三の町東"},{"zipCode":"9502175","prefectureKana":"ﾆｲｶﾞﾀｹﾝ","cityKana":"ﾆｲｶﾞﾀｼﾆｼｸ","streetKana":"ｲｶﾗｼ3ﾉﾁｮｳﾐﾅﾐ","prefecture":"新潟県","city":"新潟市西区","street":"五十嵐三の町南"},{"zipCode":"9502155","prefectureKana":"ﾆｲｶﾞﾀｹﾝ","cityKana":"ﾆｲｶﾞﾀｼﾆｼｸ","streetKana":"ｲｶﾗｼｶﾐｻｷﾔﾏ","prefecture":"新潟県","city":"新潟市西区","street":"五十嵐上崎山"},{"zipCode":"9502152","prefectureKana":"ﾆｲｶﾞﾀｹﾝ","cityKana":"ﾆｲｶﾞﾀｼﾆｼｸ","streetKana":"ｲｶﾗｼｼﾓｻｷﾔﾏ","prefecture":"新潟県","city":"新潟市西区","street":"五十嵐下崎山"},{"zipCode":"9502162","prefectureKana":"ﾆｲｶﾞﾀｹﾝ","cityKana":"ﾆｲｶﾞﾀｼﾆｼｸ","streetKana":"ｲｶﾗｼﾅｶｼﾞﾏ","prefecture":"新潟県","city":"新潟市西区","street":"五十嵐中島"},{"zipCode":"9502161","prefectureKana":"ﾆｲｶﾞﾀｹﾝ","cityKana":"ﾆｲｶﾞﾀｼﾆｼｸ","streetKana":"ｲｶﾗｼﾆｼ","prefecture":"新潟県","city":"新潟市西区","street":"五十嵐西"},{"zipCode":"9502045","prefectureKana":"ﾆｲｶﾞﾀｹﾝ","cityKana":"ﾆｲｶﾞﾀｼﾆｼｸ","streetKana":"ｲｶﾗｼﾋｶﾞｼ","prefecture":"新潟県","city":"新潟市西区","street":"五十嵐東"},{"zipCode":"9501121","prefectureKana":"ﾆｲｶﾞﾀｹﾝ","cityKana":"ﾆｲｶﾞﾀｼﾆｼｸ","streetKana":"ｲﾀｲ","prefecture":"新潟県","city":"新潟市西区","street":"板井"},{"zipCode":"9502141","prefectureKana":"ﾆｲｶﾞﾀｹﾝ","cityKana":"ﾆｲｶﾞﾀｼﾆｼｸ","streetKana":"ｳﾁﾉｶﾀﾊﾞﾀ","prefecture":"新潟県","city":"新潟市西区","street":"内野潟端"},{"zipCode":"9502154","prefectureKana":"ﾆｲｶﾞﾀｹﾝ","cityKana":"ﾆｲｶﾞﾀｼﾆｼｸ","streetKana":"ｳﾁﾉｶﾀﾑｶｲ","prefecture":"新潟県","city":"新潟市西区","street":"内野潟向"},{"zipCode":"9502172","prefectureKana":"ﾆｲｶﾞﾀｹﾝ","cityKana":"ﾆｲｶﾞﾀｼﾆｼｸ","streetKana":"ｳﾁﾉｶﾐｼﾝﾏﾁ","prefecture":"新潟県","city":"新潟市西区","street":"内野上新町"},{"zipCode":"9502153","prefectureKana":"ﾆｲｶﾞﾀｹﾝ","cityKana":"ﾆｲｶﾞﾀｼﾆｼｸ","streetKana":"ｳﾁﾉｻｷﾔﾏ","prefecture":"新潟県","city":"新潟市西区","street":"内野崎山"},{"zipCode":"9502156","prefectureKana":"ﾆｲｶﾞﾀｹﾝ","cityKana":"ﾆｲｶﾞﾀｼﾆｼｸ","streetKana":"ｳﾁﾉｾｷﾊﾞ","prefecture":"新潟県","city":"新潟市西区","street":"内野関場"},{"zipCode":"9502142","prefectureKana":"ﾆｲｶﾞﾀｹﾝ","cityKana":"ﾆｲｶﾞﾀｼﾆｼｸ","streetKana":"ｳﾁﾉﾄﾞﾅｶｻｲ","prefecture":"新潟県","city":"新潟市西区","street":"内野戸中才"},{"zipCode":"9502164","prefectureKana":"ﾆｲｶﾞﾀｹﾝ","cityKana":"ﾆｲｶﾞﾀｼﾆｼｸ","streetKana":"ｳﾁﾉﾅｶﾊﾏ","prefecture":"新潟県","city":"新潟市西区","street":"内野中浜"},{"zipCode":"9502151","prefectureKana":"ﾆｲｶﾞﾀｹﾝ","cityKana":"ﾆｲｶﾞﾀｼﾆｼｸ","streetKana":"ｳﾁﾉﾆｼ","prefecture":"新潟県","city":"新潟市西区","street":"内野西"},{"zipCode":"9502157","prefectureKana":"ﾆｲｶﾞﾀｹﾝ","cityKana":"ﾆｲｶﾞﾀｼﾆｼｸ","streetKana":"ｳﾁﾉﾆｼｶﾞｵｶ","prefecture":"新潟県","city":"新潟市西区","street":"内野西が丘"},{"zipCode":"9502143","prefectureKana":"ﾆｲｶﾞﾀｹﾝ","cityKana":"ﾆｲｶﾞﾀｼﾆｼｸ","streetKana":"ｳﾁﾉﾊﾔﾂﾉ","prefecture":"新潟県","city":"新潟市西区","street":"内野早角"},{"zipCode":"9502112","prefectureKana":"ﾆｲｶﾞﾀｹﾝ","cityKana":"ﾆｲｶﾞﾀｼﾆｼｸ","streetKana":"ｳﾁﾉﾏﾁ","prefecture":"新潟県","city":"新潟市西区","street":"内野町"},{"zipCode":"9502113","prefectureKana":"ﾆｲｶﾞﾀｹﾝ","cityKana":"ﾆｲｶﾞﾀｼﾆｼｸ","streetKana":"ｳﾁﾉﾔﾏﾃ","prefecture":"新潟県","city":"新潟市西区","street":"内野山手"},{"zipCode":"9502001","prefectureKana":"ﾆｲｶﾞﾀｹﾝ","cityKana":"ﾆｲｶﾞﾀｼﾆｼｸ","streetKana":"ｳﾗﾔﾏ","prefecture":"新潟県","city":"新潟市西区","street":"浦山"},{"zipCode":"9501127","prefectureKana":"ﾆｲｶﾞﾀｹﾝ","cityKana":"ﾆｲｶﾞﾀｼﾆｼｸ","streetKana":"ｵｵｶﾞﾀ","prefecture":"新潟県","city":"新潟市西区","street":"大潟"},{"zipCode":"9502126","prefectureKana":"ﾆｲｶﾞﾀｹﾝ","cityKana":"ﾆｲｶﾞﾀｼﾆｼｸ","streetKana":"ｵｵﾄﾓ","prefecture":"新潟県","city":"新潟市西区","street":"大友"},{"zipCode":"9502037","prefectureKana":"ﾆｲｶﾞﾀｹﾝ","cityKana":"ﾆｲｶﾞﾀｼﾆｼｸ","streetKana":"ｵｵﾉ","prefecture":"新潟県","city":"新潟市西区","street":"大野"},{"zipCode":"9501111","prefectureKana":"ﾆｲｶﾞﾀｹﾝ","cityKana":"ﾆｲｶﾞﾀｼﾆｼｸ","streetKana":"ｵｵﾉﾏﾁ","prefecture":"新潟県","city":"新潟市西区","street":"大野町"},{"zipCode":"9501124","prefectureKana":"ﾆｲｶﾞﾀｹﾝ","cityKana":"ﾆｲｶﾞﾀｼﾆｼｸ","streetKana":"ｵﾀﾃﾘｭｳﾂｳ","prefecture":"新潟県","city":"新潟市西区","street":"緒立流通"},{"zipCode":"9502137","prefectureKana":"ﾆｲｶﾞﾀｹﾝ","cityKana":"ﾆｲｶﾞﾀｼﾆｼｸ","streetKana":"ｵﾐｺﾞｳﾔ","prefecture":"新潟県","city":"新潟市西区","street":"小見郷屋"},{"zipCode":"9502123","prefectureKana":"ﾆｲｶﾞﾀｹﾝ","cityKana":"ﾆｲｶﾞﾀｼﾆｼｸ","streetKana":"ｶｻｷﾞ","prefecture":"新潟県","city":"新潟市西区","street":"笠木"},{"zipCode":"9501112","prefectureKana":"ﾆｲｶﾞﾀｹﾝ","cityKana":"ﾆｲｶﾞﾀｼﾆｼｸ","streetKana":"ｶﾈﾏｷ","prefecture":"新潟県","city":"新潟市西区","street":"金巻"},{"zipCode":"9502146","prefectureKana":"ﾆｲｶﾞﾀｹﾝ","cityKana":"ﾆｲｶﾞﾀｼﾆｼｸ","streetKana":"ｶﾈﾏｷｼﾝﾃﾞﾝ","prefecture":"新潟県","city":"新潟市西区","street":"金巻新田"},{"zipCode":"9502076","prefectureKana":"ﾆｲｶﾞﾀｹﾝ","cityKana":"ﾆｲｶﾞﾀｼﾆｼｸ","streetKana":"ｶﾐｼﾝｴｲﾁｮｳ","prefecture":"新潟県","city":"新潟市西区","street":"上新栄町"},{"zipCode":"9502255","prefectureKana":"ﾆｲｶﾞﾀｹﾝ","cityKana":"ﾆｲｶﾞﾀｼﾆｼｸ","streetKana":"ｶﾐﾔﾏ","prefecture":"新潟県","city":"新潟市西区","street":"神山"},{"zipCode":"9502033","prefectureKana":"ﾆｲｶﾞﾀｹﾝ","cityKana":"ﾆｲｶﾞﾀｼﾆｼｸ","streetKana":"ｶﾒｶﾞｲ","prefecture":"新潟県","city":"新潟市西区","street":"亀貝"},{"zipCode":"9502136","prefectureKana":"ﾆｲｶﾞﾀｹﾝ","cityKana":"ﾆｲｶﾞﾀｼﾆｼｸ","streetKana":"ｶﾝｽｹｺﾞｳﾔ","prefecture":"新潟県","city":"新潟市西区","street":"勘助郷屋"},{"zipCode":"9501126","prefectureKana":"ﾆｲｶﾞﾀｹﾝ","cityKana":"ﾆｲｶﾞﾀｼﾆｼｸ","streetKana":"ｷﾀﾊﾞ","prefecture":"新潟県","city":"新潟市西区","street":"北場"},{"zipCode":"9501122","prefectureKana":"ﾆｲｶﾞﾀｹﾝ","cityKana":"ﾆｲｶﾞﾀｼﾆｼｸ","streetKana":"ｷﾊﾞ","prefecture":"新潟県","city":"新潟市西区","street":"木場"},{"zipCode":"9502253","prefectureKana":"ﾆｲｶﾞﾀｹﾝ","cityKana":"ﾆｲｶﾞﾀｼﾆｼｸ","streetKana":"ｷﾔﾏ","prefecture":"新潟県","city":"新潟市西区","street":"木山"},{"zipCode":"9501123","prefectureKana":"ﾆｲｶﾞﾀｹﾝ","cityKana":"ﾆｲｶﾞﾀｼﾆｼｸ","streetKana":"ｸﾛﾄﾘ","prefecture":"新潟県","city":"新潟市西区","street":"黒鳥"},{"zipCode":"9502023","prefectureKana":"ﾆｲｶﾞﾀｹﾝ","cityKana":"ﾆｲｶﾞﾀｼﾆｼｸ","streetKana":"ｺｼﾝ","prefecture":"新潟県","city":"新潟市西区","street":"小新"},{"zipCode":"9502027","prefectureKana":"ﾆｲｶﾞﾀｹﾝ","cityKana":"ﾆｲｶﾞﾀｼﾆｼｸ","streetKana":"ｺｼﾝｵｵﾄﾞｵﾘ","prefecture":"新潟県","city":"新潟市西区","street":"小新大通"},{"zipCode":"9502024","prefectureKana":"ﾆｲｶﾞﾀｹﾝ","cityKana":"ﾆｲｶﾞﾀｼﾆｼｸ","streetKana":"ｺｼﾝﾆｼ","prefecture":"新潟県","city":"新潟市西区","street":"小新西"},{"zipCode":"9502028","prefectureKana":"ﾆｲｶﾞﾀｹﾝ","cityKana":"ﾆｲｶﾞﾀｼﾆｼｸ","streetKana":"ｺｼﾝﾐﾅﾐ","prefecture":"新潟県","city":"新潟市西区","street":"小新南"},{"zipCode":"9502132","prefectureKana":"ﾆｲｶﾞﾀｹﾝ","cityKana":"ﾆｲｶﾞﾀｼﾆｼｸ","streetKana":"ｺｾﾞ","prefecture":"新潟県","city":"新潟市西区","street":"小瀬"},{"zipCode":"9502022","prefectureKana":"ﾆｲｶﾞﾀｹﾝ","cityKana":"ﾆｲｶﾞﾀｼﾆｼｸ","streetKana":"ｺﾊﾞﾘ","prefecture":"新潟県","city":"新潟市西区","street":"小針"},{"zipCode":"9502013","prefectureKana":"ﾆｲｶﾞﾀｹﾝ","cityKana":"ﾆｲｶﾞﾀｼﾆｼｸ","streetKana":"ｺﾊﾞﾘｶﾞｵｶ","prefecture":"新潟県","city":"新潟市西区","street":"小針が丘"},{"zipCode":"9502011","prefectureKana":"ﾆｲｶﾞﾀｹﾝ","cityKana":"ﾆｲｶﾞﾀｼﾆｼｸ","streetKana":"ｺﾊﾞﾘｶﾐﾔﾏ","prefecture":"新潟県","city":"新潟市西区","street":"小針上山"},{"zipCode":"9502012","prefectureKana":"ﾆｲｶﾞﾀｹﾝ","cityKana":"ﾆｲｶﾞﾀｼﾆｼｸ","streetKana":"ｺﾊﾞﾘﾀﾞｲ","prefecture":"新潟県","city":"新潟市西区","street":"小針台"},{"zipCode":"9502014","prefectureKana":"ﾆｲｶﾞﾀｹﾝ","cityKana":"ﾆｲｶﾞﾀｼﾆｼｸ","streetKana":"ｺﾊﾞﾘﾆｼ","prefecture":"新潟県","city":"新潟市西区","street":"小針西"},{"zipCode":"9502021","prefectureKana":"ﾆｲｶﾞﾀｹﾝ","cityKana":"ﾆｲｶﾞﾀｼﾆｼｸ","streetKana":"ｺﾊﾞﾘﾌｼﾞﾔﾏ","prefecture":"新潟県","city":"新潟市西区","street":"小針藤山"},{"zipCode":"9502025","prefectureKana":"ﾆｲｶﾞﾀｹﾝ","cityKana":"ﾆｲｶﾞﾀｼﾆｼｸ","streetKana":"ｺﾊﾞﾘﾐﾅﾐ","prefecture":"新潟県","city":"新潟市西区","street":"小針南"},{"zipCode":"9502026","prefectureKana":"ﾆｲｶﾞﾀｹﾝ","cityKana":"ﾆｲｶﾞﾀｼﾆｼｸ","streetKana":"ｺﾊﾞﾘﾐﾅﾐﾀﾞｲ","prefecture":"新潟県","city":"新潟市西区","street":"小針南台"},{"zipCode":"9501114","prefectureKana":"ﾆｲｶﾞﾀｹﾝ","cityKana":"ﾆｲｶﾞﾀｼﾆｼｸ","streetKana":"ｺﾋﾗｶﾀ","prefecture":"新潟県","city":"新潟市西区","street":"小平方"},{"zipCode":"9502042","prefectureKana":"ﾆｲｶﾞﾀｹﾝ","cityKana":"ﾆｲｶﾞﾀｼﾆｼｸ","streetKana":"ｻｶｲ","prefecture":"新潟県","city":"新潟市西区","street":"坂井"},{"zipCode":"9502044","prefectureKana":"ﾆｲｶﾞﾀｹﾝ","cityKana":"ﾆｲｶﾞﾀｼﾆｼｸ","streetKana":"ｻｶｲｽﾅﾔﾏ","prefecture":"新潟県","city":"新潟市西区","street":"坂井砂山"},{"zipCode":"9502041","prefectureKana":"ﾆｲｶﾞﾀｹﾝ","cityKana":"ﾆｲｶﾞﾀｼﾆｼｸ","streetKana":"ｻｶｲﾋｶﾞｼ","prefecture":"新潟県","city":"新潟市西区","street":"坂井東"},{"zipCode":"9502263","prefectureKana":"ﾆｲｶﾞﾀｹﾝ","cityKana":"ﾆｲｶﾞﾀｼﾆｼｸ","streetKana":"ｻｶﾀ","prefecture":"新潟県","city":"新潟市西区","street":"坂田"},{"zipCode":"9502034","prefectureKana":"ﾆｲｶﾞﾀｹﾝ","cityKana":"ﾆｲｶﾞﾀｼﾆｼｸ","streetKana":"ｼﾝﾃﾞﾝ","prefecture":"新潟県","city":"新潟市西区","street":"新田"},{"zipCode":"9502035","prefectureKana":"ﾆｲｶﾞﾀｹﾝ","cityKana":"ﾆｲｶﾞﾀｼﾆｼｸ","streetKana":"ｼﾝﾄﾞｵﾘ","prefecture":"新潟県","city":"新潟市西区","street":"新通"},{"zipCode":"9502036","prefectureKana":"ﾆｲｶﾞﾀｹﾝ","cityKana":"ﾆｲｶﾞﾀｼﾆｼｸ","streetKana":"ｼﾝﾄﾞｵﾘﾆｼ","prefecture":"新潟県","city":"新潟市西区","street":"新通西"},{"zipCode":"9502038","prefectureKana":"ﾆｲｶﾞﾀｹﾝ","cityKana":"ﾆｲｶﾞﾀｼﾆｼｸ","streetKana":"ｼﾝﾄﾞｵﾘﾐﾅﾐ","prefecture":"新潟県","city":"新潟市西区","street":"新通南"},{"zipCode":"9502163","prefectureKana":"ﾆｲｶﾞﾀｹﾝ","cityKana":"ﾆｲｶﾞﾀｼﾆｼｸ","streetKana":"ｼﾝﾅｶﾊﾏ","prefecture":"新潟県","city":"新潟市西区","street":"新中浜"},{"zipCode":"9502043","prefectureKana":"ﾆｲｶﾞﾀｹﾝ","cityKana":"ﾆｲｶﾞﾀｼﾆｼｸ","streetKana":"ｽｶﾞ","prefecture":"新潟県","city":"新潟市西区","street":"須賀"},{"zipCode":"9501102","prefectureKana":"ﾆｲｶﾞﾀｹﾝ","cityKana":"ﾆｲｶﾞﾀｼﾆｼｸ","streetKana":"ｾﾞﾝｸ","prefecture":"新潟県","city":"新潟市西区","street":"善久"},{"zipCode":"9502144","prefectureKana":"ﾆｲｶﾞﾀｹﾝ","cityKana":"ﾆｲｶﾞﾀｼﾆｼｸ","streetKana":"ｿﾜ","prefecture":"新潟県","city":"新潟市西区","street":"曽和"},{"zipCode":"9502111","prefectureKana":"ﾆｲｶﾞﾀｹﾝ","cityKana":"ﾆｲｶﾞﾀｼﾆｼｸ","streetKana":"ﾀﾞｲｶﾞｸﾐﾅﾐ","prefecture":"新潟県","city":"新潟市西区","street":"大学南"},{"zipCode":"9502124","prefectureKana":"ﾆｲｶﾞﾀｹﾝ","cityKana":"ﾆｲｶﾞﾀｼﾆｼｸ","streetKana":"ﾀｶﾞﾀ","prefecture":"新潟県","city":"新潟市西区","street":"田潟"},{"zipCode":"9502122","prefectureKana":"ﾆｲｶﾞﾀｹﾝ","cityKana":"ﾆｲｶﾞﾀｼﾆｼｸ","streetKana":"ﾀｶﾔﾏ","prefecture":"新潟県","city":"新潟市西区","street":"高山"},{"zipCode":"9502145","prefectureKana":"ﾆｲｶﾞﾀｹﾝ","cityKana":"ﾆｲｶﾞﾀｼﾆｼｸ","streetKana":"ﾀｼﾞﾏ","prefecture":"新潟県","city":"新潟市西区","street":"田島"},{"zipCode":"9501103","prefectureKana":"ﾆｲｶﾞﾀｹﾝ","cityKana":"ﾆｲｶﾞﾀｼﾆｼｸ","streetKana":"ﾀﾁﾎﾞﾄｹ","prefecture":"新潟県","city":"新潟市西区","street":"立仏"},{"zipCode":"9502251","prefectureKana":"ﾆｲｶﾞﾀｹﾝ","cityKana":"ﾆｲｶﾞﾀｼﾆｼｸ","streetKana":"ﾁｭｳｺﾞﾝｼﾞ","prefecture":"新潟県","city":"新潟市西区","street":"中権寺"},{"zipCode":"9502052","prefectureKana":"ﾆｲｶﾞﾀｹﾝ","cityKana":"ﾆｲｶﾞﾀｼﾆｼｸ","streetKana":"ﾃﾗｵ","prefecture":"新潟県","city":"新潟市西区","street":"寺尾"},{"zipCode":"9502051","prefectureKana":"ﾆｲｶﾞﾀｹﾝ","cityKana":"ﾆｲｶﾞﾀｼﾆｼｸ","streetKana":"ﾃﾗｵｱｻﾋﾄﾞｵﾘ","prefecture":"新潟県","city":"新潟市西区","street":"寺尾朝日通"},{"zipCode":"9502055","prefectureKana":"ﾆｲｶﾞﾀｹﾝ","cityKana":"ﾆｲｶﾞﾀｼﾆｼｸ","streetKana":"ﾃﾗｵｶﾐ","prefecture":"新潟県","city":"新潟市西区","street":"寺尾上"},{"zipCode":"9502061","prefectureKana":"ﾆｲｶﾞﾀｹﾝ","cityKana":"ﾆｲｶﾞﾀｼﾆｼｸ","streetKana":"ﾃﾗｵｷﾀ","prefecture":"新潟県","city":"新潟市西区","street":"寺尾北"},{"zipCode":"9502063","prefectureKana":"ﾆｲｶﾞﾀｹﾝ","cityKana":"ﾆｲｶﾞﾀｼﾆｼｸ","streetKana":"ﾃﾗｵﾀﾞｲ","prefecture":"新潟県","city":"新潟市西区","street":"寺尾台"},{"zipCode":"9502062","prefectureKana":"ﾆｲｶﾞﾀｹﾝ","cityKana":"ﾆｲｶﾞﾀｼﾆｼｸ","streetKana":"ﾃﾗｵﾁｭｳｵｳｺｳｴﾝ","prefecture":"新潟県","city":"新潟市西区","street":"寺尾中央公園"},{"zipCode":"9502064","prefectureKana":"ﾆｲｶﾞﾀｹﾝ","cityKana":"ﾆｲｶﾞﾀｼﾆｼｸ","streetKana":"ﾃﾗｵﾆｼ","prefecture":"新潟県","city":"新潟市西区","street":"寺尾西"},{"zipCode":"9502054","prefectureKana":"ﾆｲｶﾞﾀｹﾝ","cityKana":"ﾆｲｶﾞﾀｼﾆｼｸ","streetKana":"ﾃﾗｵﾋｶﾞｼ","prefecture":"新潟県","city":"新潟市西区","street":"寺尾東"},{"zipCode":"9502053","prefectureKana":"ﾆｲｶﾞﾀｹﾝ","cityKana":"ﾆｲｶﾞﾀｼﾆｼｸ","streetKana":"ﾃﾗｵﾏｴﾄﾞｵﾘ","prefecture":"新潟県","city":"新潟市西区","street":"寺尾前通"},{"zipCode":"9501104","prefectureKana":"ﾆｲｶﾞﾀｹﾝ","cityKana":"ﾆｲｶﾞﾀｼﾆｼｸ","streetKana":"ﾃﾗｼﾞ","prefecture":"新潟県","city":"新潟市西区","street":"寺地"},{"zipCode":"9502147","prefectureKana":"ﾆｲｶﾞﾀｹﾝ","cityKana":"ﾆｲｶﾞﾀｼﾆｼｸ","streetKana":"ﾄﾞｳｶﾞﾜﾗ","prefecture":"新潟県","city":"新潟市西区","street":"道河原"},{"zipCode":"9502262","prefectureKana":"ﾆｲｶﾞﾀｹﾝ","cityKana":"ﾆｲｶﾞﾀｼﾆｼｸ","streetKana":"ﾄｳｿﾞｳｼﾝﾃﾞﾝ","prefecture":"新潟県","city":"新潟市西区","street":"藤蔵新田"},{"zipCode":"9501106","prefectureKana":"ﾆｲｶﾞﾀｹﾝ","cityKana":"ﾆｲｶﾞﾀｼﾆｼｸ","streetKana":"ﾄｷﾒｷﾆｼ","prefecture":"新潟県","city":"新潟市西区","street":"ときめき西"},{"zipCode":"9501105","prefectureKana":"ﾆｲｶﾞﾀｹﾝ","cityKana":"ﾆｲｶﾞﾀｼﾆｼｸ","streetKana":"ﾄｷﾒｷﾋｶﾞｼ","prefecture":"新潟県","city":"新潟市西区","street":"ときめき東"},{"zipCode":"9501115","prefectureKana":"ﾆｲｶﾞﾀｹﾝ","cityKana":"ﾆｲｶﾞﾀｼﾆｼｸ","streetKana":"ﾄｯﾊﾟﾗ","prefecture":"新潟県","city":"新潟市西区","street":"鳥原"},{"zipCode":"9501113","prefectureKana":"ﾆｲｶﾞﾀｹﾝ","cityKana":"ﾆｲｶﾞﾀｼﾆｼｸ","streetKana":"ﾄｯﾊﾟﾗｼﾝﾃﾞﾝ","prefecture":"新潟県","city":"新潟市西区","street":"鳥原新田"},{"zipCode":"9502125","prefectureKana":"ﾆｲｶﾞﾀｹﾝ","cityKana":"ﾆｲｶﾞﾀｼﾆｼｸ","streetKana":"ﾅｶﾉｺﾔ","prefecture":"新潟県","city":"新潟市西区","street":"中野小屋"},{"zipCode":"9502071","prefectureKana":"ﾆｲｶﾞﾀｹﾝ","cityKana":"ﾆｲｶﾞﾀｼﾆｼｸ","streetKana":"ﾆｼｱﾘｱｹﾁｮｳ","prefecture":"新潟県","city":"新潟市西区","street":"西有明町"},{"zipCode":"9502015","prefectureKana":"ﾆｲｶﾞﾀｹﾝ","cityKana":"ﾆｲｶﾞﾀｼﾆｼｸ","streetKana":"ﾆｼｺﾊﾞﾘﾀﾞｲ","prefecture":"新潟県","city":"新潟市西区","street":"西小針台"},{"zipCode":"9502131","prefectureKana":"ﾆｲｶﾞﾀｹﾝ","cityKana":"ﾆｲｶﾞﾀｼﾆｼｸ","streetKana":"ﾊﾔｶﾞﾀ","prefecture":"新潟県","city":"新潟市西区","street":"早潟"},{"zipCode":"9502003","prefectureKana":"ﾆｲｶﾞﾀｹﾝ","cityKana":"ﾆｲｶﾞﾀｼﾆｼｸ","streetKana":"ﾋｶﾞｼｱｵﾔﾏ","prefecture":"新潟県","city":"新潟市西区","street":"東青山"},{"zipCode":"9502254","prefectureKana":"ﾆｲｶﾞﾀｹﾝ","cityKana":"ﾆｲｶﾞﾀｼﾆｼｸ","streetKana":"ﾋｶﾞｼﾔﾏ","prefecture":"新潟県","city":"新潟市西区","street":"東山"},{"zipCode":"9502138","prefectureKana":"ﾆｲｶﾞﾀｹﾝ","cityKana":"ﾆｲｶﾞﾀｼﾆｼｸ","streetKana":"ﾌｼﾞﾉｷ","prefecture":"新潟県","city":"新潟市西区","street":"藤野木"},{"zipCode":"9502004","prefectureKana":"ﾆｲｶﾞﾀｹﾝ","cityKana":"ﾆｲｶﾞﾀｼﾆｼｸ","streetKana":"ﾍｲｼﾞﾏ","prefecture":"新潟県","city":"新潟市西区","street":"平島"},{"zipCode":"9502134","prefectureKana":"ﾆｲｶﾞﾀｹﾝ","cityKana":"ﾆｲｶﾞﾀｼﾆｼｸ","streetKana":"ﾎｺﾉｷ","prefecture":"新潟県","city":"新潟市西区","street":"保古野木"},{"zipCode":"9502133","prefectureKana":"ﾆｲｶﾞﾀｹﾝ","cityKana":"ﾆｲｶﾞﾀｼﾆｼｸ","streetKana":"ﾏｴﾉｿﾄｼﾝﾃﾞﾝ","prefecture":"新潟県","city":"新潟市西区","street":"前野外新田"},{"zipCode":"9502121","prefectureKana":"ﾆｲｶﾞﾀｹﾝ","cityKana":"ﾆｲｶﾞﾀｼﾆｼｸ","streetKana":"ﾏｷｵ","prefecture":"新潟県","city":"新潟市西区","street":"槇尾"},{"zipCode":"9502074","prefectureKana":"ﾆｲｶﾞﾀｹﾝ","cityKana":"ﾆｲｶﾞﾀｼﾆｼｸ","streetKana":"ﾏｻｺﾞ","prefecture":"新潟県","city":"新潟市西区","street":"真砂"},{"zipCode":"9502075","prefectureKana":"ﾆｲｶﾞﾀｹﾝ","cityKana":"ﾆｲｶﾞﾀｼﾆｼｸ","streetKana":"ﾏﾂﾐｶﾞｵｶ","prefecture":"新潟県","city":"新潟市西区","street":"松海が丘"},{"zipCode":"9502072","prefectureKana":"ﾆｲｶﾞﾀｹﾝ","cityKana":"ﾆｲｶﾞﾀｼﾆｼｸ","streetKana":"ﾏﾂﾐﾀﾞｲ","prefecture":"新潟県","city":"新潟市西区","street":"松美台"},{"zipCode":"9502032","prefectureKana":"ﾆｲｶﾞﾀｹﾝ","cityKana":"ﾆｲｶﾞﾀｼﾆｼｸ","streetKana":"ﾏﾄﾊﾞﾘｭｳﾂｳ","prefecture":"新潟県","city":"新潟市西区","street":"的場流通"},{"zipCode":"9502264","prefectureKana":"ﾆｲｶﾞﾀｹﾝ","cityKana":"ﾆｲｶﾞﾀｼﾆｼｸ","streetKana":"ﾐｽﾞｷﾉ","prefecture":"新潟県","city":"新潟市西区","street":"みずき野"},{"zipCode":"9502135","prefectureKana":"ﾆｲｶﾞﾀｹﾝ","cityKana":"ﾆｲｶﾞﾀｼﾆｼｸ","streetKana":"ﾐｮｳﾃﾞﾝ","prefecture":"新潟県","city":"新潟市西区","street":"明田"},{"zipCode":"9502252","prefectureKana":"ﾆｲｶﾞﾀｹﾝ","cityKana":"ﾆｲｶﾞﾀｼﾆｼｸ","streetKana":"ﾔﾁ","prefecture":"新潟県","city":"新潟市西区","street":"谷内"},{"zipCode":"9502256","prefectureKana":"ﾆｲｶﾞﾀｹﾝ","cityKana":"ﾆｲｶﾞﾀｼﾆｼｸ","streetKana":"ﾔﾏｻﾞｷ","prefecture":"新潟県","city":"新潟市西区","street":"山崎"},{"zipCode":"9501101","prefectureKana":"ﾆｲｶﾞﾀｹﾝ","cityKana":"ﾆｲｶﾞﾀｼﾆｼｸ","streetKana":"ﾔﾏﾀﾞ","prefecture":"新潟県","city":"新潟市西区","street":"山田"},{"zipCode":"9502201","prefectureKana":"ﾆｲｶﾞﾀｹﾝ","cityKana":"ﾆｲｶﾞﾀｼﾆｼｸ","streetKana":"ﾖﾂｺﾞｳﾔ","prefecture":"新潟県","city":"新潟市西区","street":"四ツ郷屋"},{"zipCode":"9501125","prefectureKana":"ﾆｲｶﾞﾀｹﾝ","cityKana":"ﾆｲｶﾞﾀｼﾆｼｸ","streetKana":"ﾘｭｳﾂｳ","prefecture":"新潟県","city":"新潟市西区","street":"流通"},{"zipCode":"9502031","prefectureKana":"ﾆｲｶﾞﾀｹﾝ","cityKana":"ﾆｲｶﾞﾀｼﾆｼｸ","streetKana":"ﾘｭｳﾂｳｾﾝﾀｰ","prefecture":"新潟県","city":"新潟市西区","street":"流通センター"},{"zipCode":"9500000","prefectureKana":"ﾆｲｶﾞﾀｹﾝ","cityKana":"ﾆｲｶﾞﾀｼﾆｼｶﾝｸ","streetKana":"ｲｶﾆｹｲｻｲｶﾞﾅｲﾊﾞｱｲ","prefecture":"新潟県","city":"新潟市西蒲区","street":"以下に掲載がない場合"},{"zipCode":"9501261","prefectureKana":"ﾆｲｶﾞﾀｹﾝ","cityKana":"ﾆｲｶﾞﾀｼﾆｼｶﾝｸ","streetKana":"ｱｼﾞｶﾀ","prefecture":"新潟県","city":"新潟市西蒲区","street":"味方"},{"zipCode":"9501348","prefectureKana":"ﾆｲｶﾞﾀｹﾝ","cityKana":"ﾆｲｶﾞﾀｼﾆｼｶﾝｸ","streetKana":"ｳﾁｺｼ","prefecture":"新潟県","city":"新潟市西蒲区","street":"打越"},{"zipCode":"9501347","prefectureKana":"ﾆｲｶﾞﾀｹﾝ","cityKana":"ﾆｲｶﾞﾀｼﾆｼｶﾝｸ","streetKana":"ｳﾊﾞｼﾞﾏ","prefecture":"新潟県","city":"新潟市西蒲区","street":"姥島"},{"zipCode":"9501333","prefectureKana":"ﾆｲｶﾞﾀｹﾝ","cityKana":"ﾆｲｶﾞﾀｼﾆｼｶﾝｸ","streetKana":"ｶﾀｳﾗｼﾝ","prefecture":"新潟県","city":"新潟市西蒲区","street":"潟浦新"},{"zipCode":"9501334","prefectureKana":"ﾆｲｶﾞﾀｹﾝ","cityKana":"ﾆｲｶﾞﾀｼﾆｼｶﾝｸ","streetKana":"ｶﾐｺﾖｼ","prefecture":"新潟県","city":"新潟市西蒲区","street":"上小吉"},{"zipCode":"9501324","prefectureKana":"ﾆｲｶﾞﾀｹﾝ","cityKana":"ﾆｲｶﾞﾀｼﾆｼｶﾝｸ","streetKana":"ｺｳﾉﾐﾔ","prefecture":"新潟県","city":"新潟市西蒲区","street":"高野宮"},{"zipCode":"9501342","prefectureKana":"ﾆｲｶﾞﾀｹﾝ","cityKana":"ﾆｲｶﾞﾀｼﾆｼｶﾝｸ","streetKana":"ｺｳﾏ","prefecture":"新潟県","city":"新潟市西蒲区","street":"河間"},{"zipCode":"9501325","prefectureKana":"ﾆｲｶﾞﾀｹﾝ","cityKana":"ﾆｲｶﾞﾀｼﾆｼｶﾝｸ","streetKana":"ｺﾖｼ","prefecture":"新潟県","city":"新潟市西蒲区","street":"小吉"},{"zipCode":"9501313","prefectureKana":"ﾆｲｶﾞﾀｹﾝ","cityKana":"ﾆｲｶﾞﾀｼﾆｼｶﾝｸ","streetKana":"ﾂﾘﾖｾ","prefecture":"新潟県","city":"新潟市西蒲区","street":"釣寄"},{"zipCode":"9501312","prefectureKana":"ﾆｲｶﾞﾀｹﾝ","cityKana":"ﾆｲｶﾞﾀｼﾆｼｶﾝｸ","streetKana":"ﾂﾘﾖｾｼﾝ","prefecture":"新潟県","city":"新潟市西蒲区","street":"釣寄新"},{"zipCode":"9501341","prefectureKana":"ﾆｲｶﾞﾀｹﾝ","cityKana":"ﾆｲｶﾞﾀｼﾆｼｶﾝｸ","streetKana":"ﾄﾞｳｼﾞｮｳ","prefecture":"新潟県","city":"新潟市西蒲区","street":"道上"},{"zipCode":"9501327","prefectureKana":"ﾆｲｶﾞﾀｹﾝ","cityKana":"ﾆｲｶﾞﾀｼﾆｼｶﾝｸ","streetKana":"ﾅｶﾉｸﾁ","prefecture":"新潟県","city":"新潟市西蒲区","street":"中之口"},{"zipCode":"9501332","prefectureKana":"ﾆｲｶﾞﾀｹﾝ","cityKana":"ﾆｲｶﾞﾀｼﾆｼｶﾝｸ","streetKana":"ﾅｶﾞﾊﾞ","prefecture":"新潟県","city":"新潟市西蒲区","street":"長場"},{"zipCode":"9501345","prefectureKana":"ﾆｲｶﾞﾀｹﾝ","cityKana":"ﾆｲｶﾞﾀｼﾆｼｶﾝｸ","streetKana":"ﾊｸﾞﾛ","prefecture":"新潟県","city":"新潟市西蒲区","street":"羽黒"},{"zipCode":"9501321","prefectureKana":"ﾆｲｶﾞﾀｹﾝ","cityKana":"ﾆｲｶﾞﾀｼﾆｼｶﾝｸ","streetKana":"ﾊﾘｶﾞｿﾈ","prefecture":"新潟県","city":"新潟市西蒲区","street":"針ケ曽根"},{"zipCode":"9501323","prefectureKana":"ﾆｲｶﾞﾀｹﾝ","cityKana":"ﾆｲｶﾞﾀｼﾆｼｶﾝｸ","streetKana":"ﾋｶﾞｼｺﾖｼ","prefecture":"新潟県","city":"新潟市西蒲区","street":"東小吉"},{"zipCode":"9501331","prefectureKana":"ﾆｲｶﾞﾀｹﾝ","cityKana":"ﾆｲｶﾞﾀｼﾆｼｶﾝｸ","streetKana":"ﾋｶﾞｼﾅｶ","prefecture":"新潟県","city":"新潟市西蒲区","street":"東中"},{"zipCode":"9501326","prefectureKana":"ﾆｲｶﾞﾀｹﾝ","cityKana":"ﾆｲｶﾞﾀｼﾆｼｶﾝｸ","streetKana":"ﾋｶﾞｼﾌﾅｺｼ","prefecture":"新潟県","city":"新潟市西蒲区","street":"東船越"},{"zipCode":"9501344","prefectureKana":"ﾆｲｶﾞﾀｹﾝ","cityKana":"ﾆｲｶﾞﾀｼﾆｼｶﾝｸ","streetKana":"ﾌｸｼﾞﾏ","prefecture":"新潟県","city":"新潟市西蒲区","street":"福島"},{"zipCode":"9501346","prefectureKana":"ﾆｲｶﾞﾀｹﾝ","cityKana":"ﾆｲｶﾞﾀｼﾆｼｶﾝｸ","streetKana":"ﾏｷ","prefecture":"新潟県","city":"新潟市西蒲区","street":"真木"},{"zipCode":"9501349","prefectureKana":"ﾆｲｶﾞﾀｹﾝ","cityKana":"ﾆｲｶﾞﾀｼﾆｼｶﾝｸ","streetKana":"ﾏｷｶﾞｼﾏ","prefecture":"新潟県","city":"新潟市西蒲区","street":"牧ケ島"},{"zipCode":"9501343","prefectureKana":"ﾆｲｶﾞﾀｹﾝ","cityKana":"ﾆｲｶﾞﾀｼﾆｼｶﾝｸ","streetKana":"ﾐﾂｶﾄﾞ","prefecture":"新潟県","city":"新潟市西蒲区","street":"三ツ門"},{"zipCode":"9501328","prefectureKana":"ﾆｲｶﾞﾀｹﾝ","cityKana":"ﾆｲｶﾞﾀｼﾆｼｶﾝｸ","streetKana":"ﾓﾝﾀ","prefecture":"新潟県","city":"新潟市西蒲区","street":"門田"},{"zipCode":"9501322","prefectureKana":"ﾆｲｶﾞﾀｹﾝ","cityKana":"ﾆｲｶﾞﾀｼﾆｼｶﾝｸ","streetKana":"ﾛｸﾌﾞ","prefecture":"新潟県","city":"新潟市西蒲区","street":"六分"}]