[{"zipCode":"9590401","prefectureKana":"ﾆｲｶﾞﾀｹﾝ","cityKana":"ﾆｲｶﾞﾀｼﾆｼｸ","streetKana":"ﾖﾍｴﾉｼﾝﾃﾞﾝ","prefecture":"新潟県","city":"新潟市西区","street":"與兵衛野新田"},{"zipCode":"9590501","prefectureKana":"ﾆｲｶﾞﾀｹﾝ","cityKana":"ﾆｲｶﾞﾀｼﾆｼｶﾝｸ","streetKana":"ｲｽﾞｲ","prefecture":"新潟県","city":"新潟市西蒲区","street":"井随"},{"zipCode":"9590513","prefectureKana":"ﾆｲｶﾞﾀｹﾝ","cityKana":"ﾆｲｶﾞﾀｼﾆｼｶﾝｸ","streetKana":"ｲﾊﾞﾗｼﾏ","prefecture":"新潟県","city":"新潟市西蒲区","street":"茨島"},{"zipCode":"9590515","prefectureKana":"ﾆｲｶﾞﾀｹﾝ","cityKana":"ﾆｲｶﾞﾀｼﾆｼｶﾝｸ","streetKana":"ｲﾏｲ","prefecture":"新潟県","city":"新潟市西蒲区","street":"今井"},{"zipCode":"9590507","prefectureKana":"ﾆｲｶﾞﾀｹﾝ","cityKana":"ﾆｲｶﾞﾀｼﾆｼｶﾝｸ","streetKana":"ｳﾊﾁﾛｳｳｹ","prefecture":"新潟県","city":"新潟市西蒲区","street":"卯八郎受"},{"zipCode":"9590416","prefectureKana":"ﾆｲｶﾞﾀｹﾝ","cityKana":"ﾆｲｶﾞﾀｼﾆｼｶﾝｸ","streetKana":"ｳﾗﾑﾗ","prefecture":"新潟県","city":"新潟市西蒲区","street":"浦村"},{"zipCode":"9590506","prefectureKana":"ﾆｲｶﾞﾀｹﾝ","cityKana":"ﾆｲｶﾞﾀｼﾆｼｶﾝｸ","streetKana":"ｴﾝﾄﾞｳ","prefecture":"新潟県","city":"新潟市西蒲区","street":"遠藤"},{"zipCode":"9590415","prefectureKana":"ﾆｲｶﾞﾀｹﾝ","cityKana":"ﾆｲｶﾞﾀｼﾆｼｶﾝｸ","streetKana":"ｵｵｶﾀ","prefecture":"新潟県","city":"新潟市西蒲区","street":"大潟"},{"zipCode":"9590417","prefectureKana":"ﾆｲｶﾞﾀｹﾝ","cityKana":"ﾆｲｶﾞﾀｼﾆｼｶﾝｸ","streetKana":"ｵｵｾｷ","prefecture":"新潟県","city":"新潟市西蒲区","street":"大関"},{"zipCode":"9590517","prefectureKana":"ﾆｲｶﾞﾀｹﾝ","cityKana":"ﾆｲｶﾞﾀｼﾆｼｶﾝｸ","streetKana":"ｵｵｿﾞﾈ","prefecture":"新潟県","city":"新潟市西蒲区","street":"大曽根"},{"zipCode":"9590511","prefectureKana":"ﾆｲｶﾞﾀｹﾝ","cityKana":"ﾆｲｶﾞﾀｼﾆｼｶﾝｸ","streetKana":"ｵｵﾊﾗ","prefecture":"新潟県","city":"新潟市西蒲区","street":"大原"},{"zipCode":"9590425","prefectureKana":"ﾆｲｶﾞﾀｹﾝ","cityKana":"ﾆｲｶﾞﾀｼﾆｼｶﾝｸ","streetKana":"ｵｼﾂｹ","prefecture":"新潟県","city":"新潟市西蒲区","street":"押付"},{"zipCode":"9590403","prefectureKana":"ﾆｲｶﾞﾀｹﾝ","cityKana":"ﾆｲｶﾞﾀｼﾆｼｶﾝｸ","streetKana":"ｶｲｶﾞﾗ","prefecture":"新潟県","city":"新潟市西蒲区","street":"貝柄"},{"zipCode":"9590404","prefectureKana":"ﾆｲｶﾞﾀｹﾝ","cityKana":"ﾆｲｶﾞﾀｼﾆｼｶﾝｸ","streetKana":"ｶｲｶﾞﾗｼﾝﾃﾞﾝ","prefecture":"新潟県","city":"新潟市西蒲区","street":"貝柄新田"},{"zipCode":"9590432","prefectureKana":"ﾆｲｶﾞﾀｹﾝ","cityKana":"ﾆｲｶﾞﾀｼﾆｼｶﾝｸ","streetKana":"ｶﾜｻｷ","prefecture":"新潟県","city":"新潟市西蒲区","street":"川崎"},{"zipCode":"9590516","prefectureKana":"ﾆｲｶﾞﾀｹﾝ","cityKana":"ﾆｲｶﾞﾀｼﾆｼｶﾝｸ","streetKana":"ｸﾆﾐ","prefecture":"新潟県","city":"新潟市西蒲区","street":"国見"},{"zipCode":"9590502","prefectureKana":"ﾆｲｶﾞﾀｹﾝ","cityKana":"ﾆｲｶﾞﾀｼﾆｼｶﾝｸ","streetKana":"ｸﾏｶﾞｲ","prefecture":"新潟県","city":"新潟市西蒲区","street":"熊谷"},{"zipCode":"9590412","prefectureKana":"ﾆｲｶﾞﾀｹﾝ","cityKana":"ﾆｲｶﾞﾀｼﾆｼｶﾝｸ","streetKana":"ｸﾜﾔﾏ","prefecture":"新潟県","city":"新潟市西蒲区","street":"桑山"},{"zipCode":"9590508","prefectureKana":"ﾆｲｶﾞﾀｹﾝ","cityKana":"ﾆｲｶﾞﾀｼﾆｼｶﾝｸ","streetKana":"ｺﾞﾉｶﾐ","prefecture":"新潟県","city":"新潟市西蒲区","street":"五之上"},{"zipCode":"9590435","prefectureKana":"ﾆｲｶﾞﾀｹﾝ","cityKana":"ﾆｲｶﾞﾀｼﾆｼｶﾝｸ","streetKana":"ｻﾅﾀﾞ","prefecture":"新潟県","city":"新潟市西蒲区","street":"真田"},{"zipCode":"9590402","prefectureKana":"ﾆｲｶﾞﾀｹﾝ","cityKana":"ﾆｲｶﾞﾀｼﾆｼｶﾝｸ","streetKana":"ｻﾝｶｸﾉｼﾝﾃﾞﾝ","prefecture":"新潟県","city":"新潟市西蒲区","street":"三角野新田"},{"zipCode":"9590505","prefectureKana":"ﾆｲｶﾞﾀｹﾝ","cityKana":"ﾆｲｶﾞﾀｼﾆｼｶﾝｸ","streetKana":"ｻﾝﾎﾞｳ","prefecture":"新潟県","city":"新潟市西蒲区","street":"三方"},{"zipCode":"9590438","prefectureKana":"ﾆｲｶﾞﾀｹﾝ","cityKana":"ﾆｲｶﾞﾀｼﾆｼｶﾝｸ","streetKana":"ｼﾓﾔﾏ","prefecture":"新潟県","city":"新潟市西蒲区","street":"下山"},{"zipCode":"9590514","prefectureKana":"ﾆｲｶﾞﾀｹﾝ","cityKana":"ﾆｲｶﾞﾀｼﾆｼｶﾝｸ","streetKana":"ｼｮｳﾐｮｳ","prefecture":"新潟県","city":"新潟市西蒲区","street":"称名"},{"zipCode":"9590421","prefectureKana":"ﾆｲｶﾞﾀｹﾝ","cityKana":"ﾆｲｶﾞﾀｼﾆｼｶﾝｸ","streetKana":"ｽｽﾞｷ","prefecture":"新潟県","city":"新潟市西蒲区","street":"鱸"},{"zipCode":"9590411","prefectureKana":"ﾆｲｶﾞﾀｹﾝ","cityKana":"ﾆｲｶﾞﾀｼﾆｼｶﾝｸ","streetKana":"ｾﾞﾝｺｳｼﾞ","prefecture":"新潟県","city":"新潟市西蒲区","street":"善光寺"},{"zipCode":"9590406","prefectureKana":"ﾆｲｶﾞﾀｹﾝ","cityKana":"ﾆｲｶﾞﾀｼﾆｼｶﾝｸ","streetKana":"ｾﾞﾝｺｳｼﾞﾑﾗｳｹ","prefecture":"新潟県","city":"新潟市西蒲区","street":"善光寺村受"},{"zipCode":"9590422","prefectureKana":"ﾆｲｶﾞﾀｹﾝ","cityKana":"ﾆｲｶﾞﾀｼﾆｼｶﾝｸ","streetKana":"ｿﾈ","prefecture":"新潟県","city":"新潟市西蒲区","street":"曽根"},{"zipCode":"9590434","prefectureKana":"ﾆｲｶﾞﾀｹﾝ","cityKana":"ﾆｲｶﾞﾀｼﾆｼｶﾝｸ","streetKana":"ﾃﾝｼﾞｸﾄﾞｳ","prefecture":"新潟県","city":"新潟市西蒲区","street":"天竺堂"},{"zipCode":"9590437","prefectureKana":"ﾆｲｶﾞﾀｹﾝ","cityKana":"ﾆｲｶﾞﾀｼﾆｼｶﾝｸ","streetKana":"ﾅｶｼﾞﾏ","prefecture":"新潟県","city":"新潟市西蒲区","street":"中島"},{"zipCode":"9590436","prefectureKana":"ﾆｲｶﾞﾀｹﾝ","cityKana":"ﾆｲｶﾞﾀｼﾆｼｶﾝｸ","streetKana":"ﾆｼﾖﾘｱｹﾞ","prefecture":"新潟県","city":"新潟市西蒲区","street":"西汰上"},{"zipCode":"9590423","prefectureKana":"ﾆｲｶﾞﾀｹﾝ","cityKana":"ﾆｲｶﾞﾀｼﾆｼｶﾝｸ","streetKana":"ﾊﾀﾔ","prefecture":"新潟県","city":"新潟市西蒲区","street":"旗屋"},{"zipCode":"9590407","prefectureKana":"ﾆｲｶﾞﾀｹﾝ","cityKana":"ﾆｲｶﾞﾀｼﾆｼｶﾝｸ","streetKana":"ﾊﾀﾔﾑﾗｳｹ","prefecture":"新潟県","city":"新潟市西蒲区","street":"旗屋村受"},{"zipCode":"9590512","prefectureKana":"ﾆｲｶﾞﾀｹﾝ","cityKana":"ﾆｲｶﾞﾀｼﾆｼｶﾝｸ","streetKana":"ﾊﾞﾝﾔ","prefecture":"新潟県","city":"新潟市西蒲区","street":"番屋"},{"zipCode":"9590414","prefectureKana":"ﾆｲｶﾞﾀｹﾝ","cityKana":"ﾆｲｶﾞﾀｼﾆｼｶﾝｸ","streetKana":"ﾋｮｳｳｴﾓﾝｼﾝﾃﾞﾝ","prefecture":"新潟県","city":"新潟市西蒲区","street":"兵右衛門新田"},{"zipCode":"9590431","prefectureKana":"ﾆｲｶﾞﾀｹﾝ","cityKana":"ﾆｲｶﾞﾀｼﾆｼｶﾝｸ","streetKana":"ﾋﾗﾉ","prefecture":"新潟県","city":"新潟市西蒲区","street":"平野"},{"zipCode":"9590405","prefectureKana":"ﾆｲｶﾞﾀｹﾝ","cityKana":"ﾆｲｶﾞﾀｼﾆｼｶﾝｸ","streetKana":"ﾎﾘｱｹﾞｼﾝﾃﾞﾝ","prefecture":"新潟県","city":"新潟市西蒲区","street":"堀上新田"},{"zipCode":"9590433","prefectureKana":"ﾆｲｶﾞﾀｹﾝ","cityKana":"ﾆｲｶﾞﾀｼﾆｼｶﾝｸ","streetKana":"ﾏｷｼﾞﾏ","prefecture":"新潟県","city":"新潟市西蒲区","street":"槇島"},{"zipCode":"9590418","prefectureKana":"ﾆｲｶﾞﾀｹﾝ","cityKana":"ﾆｲｶﾞﾀｼﾆｼｶﾝｸ","streetKana":"ﾏｽｵｶ","prefecture":"新潟県","city":"新潟市西蒲区","street":"升岡"},{"zipCode":"9590413","prefectureKana":"ﾆｲｶﾞﾀｹﾝ","cityKana":"ﾆｲｶﾞﾀｼﾆｼｶﾝｸ","streetKana":"ﾏｽｶﾞﾀ","prefecture":"新潟県","city":"新潟市西蒲区","street":"升潟"},{"zipCode":"9590424","prefectureKana":"ﾆｲｶﾞﾀｹﾝ","cityKana":"ﾆｲｶﾞﾀｼﾆｼｶﾝｸ","streetKana":"ﾏﾂｻｷ","prefecture":"新潟県","city":"新潟市西蒲区","street":"松崎"},{"zipCode":"9590519","prefectureKana":"ﾆｲｶﾞﾀｹﾝ","cityKana":"ﾆｲｶﾞﾀｼﾆｼｶﾝｸ","streetKana":"ﾐｻﾄ","prefecture":"新潟県","city":"新潟市西蒲区","street":"美里"},{"zipCode":"9590518","prefectureKana":"ﾆｲｶﾞﾀｹﾝ","cityKana":"ﾆｲｶﾞﾀｼﾆｼｶﾝｸ","streetKana":"ﾐﾅﾐ","prefecture":"新潟県","city":"新潟市西蒲区","street":"南"},{"zipCode":"9590426","prefectureKana":"ﾆｲｶﾞﾀｹﾝ","cityKana":"ﾆｲｶﾞﾀｼﾆｼｶﾝｸ","streetKana":"ﾔｼﾞﾏ","prefecture":"新潟県","city":"新潟市西蒲区","street":"矢島"},{"zipCode":"9590503","prefectureKana":"ﾆｲｶﾞﾀｹﾝ","cityKana":"ﾆｲｶﾞﾀｼﾆｼｶﾝｸ","streetKana":"ﾔﾏｸﾁｼﾝﾃﾞﾝ","prefecture":"新潟県","city":"新潟市西蒲区","street":"山口新田"},{"zipCode":"9590504","prefectureKana":"ﾆｲｶﾞﾀｹﾝ","cityKana":"ﾆｲｶﾞﾀｼﾆｼｶﾝｸ","streetKana":"ﾖｺﾄﾞ","prefecture":"新潟県","city":"新潟市西蒲区","street":"横戸"},{"zipCode":"9590401","prefectureKana":"ﾆｲｶﾞﾀｹﾝ","cityKana":"ﾆｲｶﾞﾀｼﾆｼｶﾝｸ","streetKana":"ﾖﾍｴﾉｼﾝﾃﾞﾝ","prefecture":"新潟県","city":"新潟市西蒲区","street":"與兵衛野新田"},{"zipCode":"9590521","prefectureKana":"ﾆｲｶﾞﾀｹﾝ","cityKana":"ﾆｲｶﾞﾀｼﾆｼｶﾝｸ","streetKana":"ﾖﾛｲｶﾞﾀ","prefecture":"新潟県","city":"新潟市西蒲区","street":"鎧潟"},{"zipCode":"9590162","prefectureKana":"ﾆｲｶﾞﾀｹﾝ","cityKana":"ﾅｶﾞｵｶｼ","streetKana":"ﾃﾗﾄﾞﾏﾘｱｽﾞｷｿﾈ","prefecture":"新潟県","city":"長岡市","street":"寺泊小豆曽根"},{"zipCode":"9590155","prefectureKana":"ﾆｲｶﾞﾀｹﾝ","cityKana":"ﾅｶﾞｵｶｼ","streetKana":"ﾃﾗﾄﾞﾏﾘｱﾘﾉﾌﾞ","prefecture":"新潟県","city":"長岡市","street":"寺泊有信"},{"zipCode":"9590149","prefectureKana":"ﾆｲｶﾞﾀｹﾝ","cityKana":"ﾅｶﾞｵｶｼ","streetKana":"ﾃﾗﾄﾞﾏﾘｲﾘｶﾙｲ","prefecture":"新潟県","city":"長岡市","street":"寺泊入軽井"},{"zipCode":"9590147","prefectureKana":"ﾆｲｶﾞﾀｹﾝ","cityKana":"ﾅｶﾞｵｶｼ","streetKana":"ﾃﾗﾄﾞﾏﾘｲﾜｶﾀ","prefecture":"新潟県","city":"長岡市","street":"寺泊岩方"},{"zipCode":"9590156","prefectureKana":"ﾆｲｶﾞﾀｹﾝ","cityKana":"ﾅｶﾞｵｶｼ","streetKana":"ﾃﾗﾄﾞﾏﾘｷｼﾞﾏ","prefecture":"新潟県","city":"長岡市","street":"寺泊木島"},{"zipCode":"9590165","prefectureKana":"ﾆｲｶﾞﾀｹﾝ","cityKana":"ﾅｶﾞｵｶｼ","streetKana":"ﾃﾗﾄﾞﾏﾘｷﾀｿﾞﾈ","prefecture":"新潟県","city":"長岡市","street":"寺泊北曽根"},{"zipCode":"9590154","prefectureKana":"ﾆｲｶﾞﾀｹﾝ","cityKana":"ﾅｶﾞｵｶｼ","streetKana":"ﾃﾗﾄﾞﾏﾘｺﾞﾌﾞｲﾁ","prefecture":"新潟県","city":"長岡市","street":"寺泊五分一"},{"zipCode":"9590152","prefectureKana":"ﾆｲｶﾞﾀｹﾝ","cityKana":"ﾅｶﾞｵｶｼ","streetKana":"ﾃﾗﾄﾞﾏﾘｼﾓｷﾞﾘ","prefecture":"新潟県","city":"長岡市","street":"寺泊下桐"},{"zipCode":"9590164","prefectureKana":"ﾆｲｶﾞﾀｹﾝ","cityKana":"ﾅｶﾞｵｶｼ","streetKana":"ﾃﾗﾄﾞﾏﾘｼﾓﾅｶｼﾞｮｳ","prefecture":"新潟県","city":"長岡市","street":"寺泊下中条"},{"zipCode":"9590163","prefectureKana":"ﾆｲｶﾞﾀｹﾝ","cityKana":"ﾅｶﾞｵｶｼ","streetKana":"ﾃﾗﾄﾞﾏﾘｼﾝﾁｮｳ","prefecture":"新潟県","city":"長岡市","street":"寺泊新長"},{"zipCode":"9590143","prefectureKana":"ﾆｲｶﾞﾀｹﾝ","cityKana":"ﾅｶﾞｵｶｼ","streetKana":"ﾃﾗﾄﾞﾏﾘﾀｶｳﾁ","prefecture":"新潟県","city":"長岡市","street":"寺泊高内"},{"zipCode":"9590161","prefectureKana":"ﾆｲｶﾞﾀｹﾝ","cityKana":"ﾅｶﾞｵｶｼ","streetKana":"ﾃﾗﾄﾞﾏﾘﾀｹﾓﾘ","prefecture":"新潟県","city":"長岡市","street":"寺泊竹森"},{"zipCode":"9590146","prefectureKana":"ﾆｲｶﾞﾀｹﾝ","cityKana":"ﾅｶﾞｵｶｼ","streetKana":"ﾃﾗﾄﾞﾏﾘﾀｼﾞﾘ","prefecture":"新潟県","city":"長岡市","street":"寺泊田尻"},{"zipCode":"9590141","prefectureKana":"ﾆｲｶﾞﾀｹﾝ","cityKana":"ﾅｶﾞｵｶｼ","streetKana":"ﾃﾗﾄﾞﾏﾘﾂﾙｶﾞｿﾈ","prefecture":"新潟県","city":"長岡市","street":"寺泊敦ケ曽根"},{"zipCode":"9590153","prefectureKana":"ﾆｲｶﾞﾀｹﾝ","cityKana":"ﾅｶﾞｵｶｼ","streetKana":"ﾃﾗﾄﾞﾏﾘﾊｻﾞﾏﾀﾞ","prefecture":"新潟県","city":"長岡市","street":"寺泊硲田"},{"zipCode":"9590142","prefectureKana":"ﾆｲｶﾞﾀｹﾝ","cityKana":"ﾅｶﾞｵｶｼ","streetKana":"ﾃﾗﾄﾞﾏﾘﾊﾞﾝｾﾞﾝｼﾞ","prefecture":"新潟県","city":"長岡市","street":"寺泊万善寺"},{"zipCode":"9590145","prefectureKana":"ﾆｲｶﾞﾀｹﾝ","cityKana":"ﾅｶﾞｵｶｼ","streetKana":"ﾃﾗﾄﾞﾏﾘﾋﾗﾉｼﾝﾑﾗｼﾝﾃﾞﾝ","prefecture":"新潟県","city":"長岡市","street":"寺泊平野新村新田"},{"zipCode":"9590144","prefectureKana":"ﾆｲｶﾞﾀｹﾝ","cityKana":"ﾅｶﾞｵｶｼ","streetKana":"ﾃﾗﾄﾞﾏﾘﾏﾁｶﾙｲ","prefecture":"新潟県","city":"長岡市","street":"寺泊町軽井"},{"zipCode":"9590151","prefectureKana":"ﾆｲｶﾞﾀｹﾝ","cityKana":"ﾅｶﾞｵｶｼ","streetKana":"ﾃﾗﾄﾞﾏﾘﾓﾄﾒｸﾞｻ","prefecture":"新潟県","city":"長岡市","street":"寺泊求草"},{"zipCode":"9590148","prefectureKana":"ﾆｲｶﾞﾀｹﾝ","cityKana":"ﾅｶﾞｵｶｼ","streetKana":"ﾃﾗﾄﾞﾏﾘﾔﾀﾞ","prefecture":"新潟県","city":"長岡市","street":"寺泊矢田"},{"zipCode":"9590157","prefectureKana":"ﾆｲｶﾞﾀｹﾝ","cityKana":"ﾅｶﾞｵｶｼ","streetKana":"ﾃﾗﾄﾞﾏﾘﾜﾆｸﾁ","prefecture":"新潟県","city":"長岡市","street":"寺泊鰐口"},{"zipCode":"9591143","prefectureKana":"ﾆｲｶﾞﾀｹﾝ","cityKana":"ｻﾝｼﾞｮｳｼ","streetKana":"ｲｽﾞﾐｼﾝﾃﾞﾝ","prefecture":"新潟県","city":"三条市","street":"泉新田"},{"zipCode":"9591151","prefectureKana":"ﾆｲｶﾞﾀｹﾝ","cityKana":"ｻﾝｼﾞｮｳｼ","streetKana":"ｲﾉｺﾊﾞｼﾝﾃﾞﾝ","prefecture":"新潟県","city":"三条市","street":"猪子場新田"},{"zipCode":"9591141","prefectureKana":"ﾆｲｶﾞﾀｹﾝ","cityKana":"ｻﾝｼﾞｮｳｼ","streetKana":"ｲﾏｲ","prefecture":"新潟県","city":"三条市","street":"今井"},{"zipCode":"9591142","prefectureKana":"ﾆｲｶﾞﾀｹﾝ","cityKana":"ｻﾝｼﾞｮｳｼ","streetKana":"ｲﾏｲﾉｼﾝﾃﾞﾝ","prefecture":"新潟県","city":"三条市","street":"今井野新田"},{"zipCode":"9591154","prefectureKana":"ﾆｲｶﾞﾀｹﾝ","cityKana":"ｻﾝｼﾞｮｳｼ","streetKana":"ｲﾜﾌﾁ","prefecture":"新潟県","city":"三条市","street":"岩淵"},{"zipCode":"9591113","prefectureKana":"ﾆｲｶﾞﾀｹﾝ","cityKana":"ｻﾝｼﾞｮｳｼ","streetKana":"ｵｵﾓ","prefecture":"新潟県","city":"三条市","street":"大面"},{"zipCode":"9591147","prefectureKana":"ﾆｲｶﾞﾀｹﾝ","cityKana":"ｻﾝｼﾞｮｳｼ","streetKana":"ｵｶﾉｼﾝﾃﾞﾝ","prefecture":"新潟県","city":"三条市","street":"岡野新田"},{"zipCode":"9591126","prefectureKana":"ﾆｲｶﾞﾀｹﾝ","cityKana":"ｻﾝｼﾞｮｳｼ","streetKana":"ｵｺﾞｾ","prefecture":"新潟県","city":"三条市","street":"小古瀬"},{"zipCode":"9591148","prefectureKana":"ﾆｲｶﾞﾀｹﾝ","cityKana":"ｻﾝｼﾞｮｳｼ","streetKana":"ｵｻｷ","prefecture":"新潟県","city":"三条市","street":"尾崎"},{"zipCode":"9591135","prefectureKana":"ﾆｲｶﾞﾀｹﾝ","cityKana":"ｻﾝｼﾞｮｳｼ","streetKana":"ｵﾆｷﾞ","prefecture":"新潟県","city":"三条市","street":"鬼木"},{"zipCode":"9591134","prefectureKana":"ﾆｲｶﾞﾀｹﾝ","cityKana":"ｻﾝｼﾞｮｳｼ","streetKana":"ｵﾆｷﾞｼﾝﾃﾞﾝ","prefecture":"新潟県","city":"三条市","street":"鬼木新田"},{"zipCode":"9591117","prefectureKana":"ﾆｲｶﾞﾀｹﾝ","cityKana":"ｻﾝｼﾞｮｳｼ","streetKana":"ｵﾋﾞｵﾘ","prefecture":"新潟県","city":"三条市","street":"帯織"},{"zipCode":"9591144","prefectureKana":"ﾆｲｶﾞﾀｹﾝ","cityKana":"ｻﾝｼﾞｮｳｼ","streetKana":"ｶｲﾊﾞﾐｼﾝﾃﾞﾝ","prefecture":"新潟県","city":"三条市","street":"貝喰新田"},{"zipCode":"9591136","prefectureKana":"ﾆｲｶﾞﾀｹﾝ","cityKana":"ｻﾝｼﾞｮｳｼ","streetKana":"ｶﾜﾄﾞｵﾘﾅｶﾏﾁ","prefecture":"新潟県","city":"三条市","street":"川通中町"},{"zipCode":"9591108","prefectureKana":"ﾆｲｶﾞﾀｹﾝ","cityKana":"ｻﾝｼﾞｮｳｼ","streetKana":"ｷﾀｶﾞﾀ","prefecture":"新潟県","city":"三条市","street":"北潟"},{"zipCode":"9591123","prefectureKana":"ﾆｲｶﾞﾀｹﾝ","cityKana":"ｻﾝｼﾞｮｳｼ","streetKana":"ｸﾉｿﾈ","prefecture":"新潟県","city":"三条市","street":"九之曽根"},{"zipCode":"9591109","prefectureKana":"ﾆｲｶﾞﾀｹﾝ","cityKana":"ｻﾝｼﾞｮｳｼ","streetKana":"ｸﾗｳﾁ","prefecture":"新潟県","city":"三条市","street":"蔵内"},{"zipCode":"9591114","prefectureKana":"ﾆｲｶﾞﾀｹﾝ","cityKana":"ｻﾝｼﾞｮｳｼ","streetKana":"ｺｳｱﾝｼﾞ","prefecture":"新潟県","city":"三条市","street":"高安寺"},{"zipCode":"9591115","prefectureKana":"ﾆｲｶﾞﾀｹﾝ","cityKana":"ｻﾝｼﾞｮｳｼ","streetKana":"ｺﾀﾞｷ","prefecture":"新潟県","city":"三条市","street":"小滝"},{"zipCode":"9591122","prefectureKana":"ﾆｲｶﾞﾀｹﾝ","cityKana":"ｻﾝｼﾞｮｳｼ","streetKana":"ｻｶｴｵｷﾞｼﾞﾏ","prefecture":"新潟県","city":"三条市","street":"栄荻島"},{"zipCode":"9591118","prefectureKana":"ﾆｲｶﾞﾀｹﾝ","cityKana":"ｻﾝｼﾞｮｳｼ","streetKana":"ｻﾝﾉｳ","prefecture":"新潟県","city":"三条市","street":"山王"},{"zipCode":"9591131","prefectureKana":"ﾆｲｶﾞﾀｹﾝ","cityKana":"ｻﾝｼﾞｮｳｼ","streetKana":"ｾﾘﾔﾏ","prefecture":"新潟県","city":"三条市","street":"芹山"},{"zipCode":"9591121","prefectureKana":"ﾆｲｶﾞﾀｹﾝ","cityKana":"ｻﾝｼﾞｮｳｼ","streetKana":"ｾﾞﾝｷｭｳｼﾞ","prefecture":"新潟県","city":"三条市","street":"善久寺"},{"zipCode":"9591124","prefectureKana":"ﾆｲｶﾞﾀｹﾝ","cityKana":"ｻﾝｼﾞｮｳｼ","streetKana":"ｾﾝﾊﾞﾉｼﾝﾃﾞﾝ","prefecture":"新潟県","city":"三条市","street":"千把野新田"},{"zipCode":"9591111","prefectureKana":"ﾆｲｶﾞﾀｹﾝ","cityKana":"ｻﾝｼﾞｮｳｼ","streetKana":"ﾁﾊﾗ","prefecture":"新潟県","city":"三条市","street":"茅原"},{"zipCode":"9591104","prefectureKana":"ﾆｲｶﾞﾀｹﾝ","cityKana":"ｻﾝｼﾞｮｳｼ","streetKana":"ﾄｳｺｳｼﾞ","prefecture":"新潟県","city":"三条市","street":"東光寺"},{"zipCode":"9591119","prefectureKana":"ﾆｲｶﾞﾀｹﾝ","cityKana":"ｻﾝｼﾞｮｳｼ","streetKana":"ﾄｸﾞﾁ","prefecture":"新潟県","city":"三条市","street":"戸口"},{"zipCode":"9591125","prefectureKana":"ﾆｲｶﾞﾀｹﾝ","cityKana":"ｻﾝｼﾞｮｳｼ","streetKana":"ﾅｶｼﾞﾏ","prefecture":"新潟県","city":"三条市","street":"中島"},{"zipCode":"9591133","prefectureKana":"ﾆｲｶﾞﾀｹﾝ","cityKana":"ｻﾝｼﾞｮｳｼ","streetKana":"ﾅｶｿﾞﾈｼﾝﾃﾞﾝ","prefecture":"新潟県","city":"三条市","street":"中曽根新田"},{"zipCode":"9591153","prefectureKana":"ﾆｲｶﾞﾀｹﾝ","cityKana":"ｻﾝｼﾞｮｳｼ","streetKana":"ﾆｲﾎﾞﾘ","prefecture":"新潟県","city":"三条市","street":"新堀"},{"zipCode":"9591146","prefectureKana":"ﾆｲｶﾞﾀｹﾝ","cityKana":"ｻﾝｼﾞｮｳｼ","streetKana":"ﾊﾝﾉｷ","prefecture":"新潟県","city":"三条市","street":"半ノ木"},{"zipCode":"9591152","prefectureKana":"ﾆｲｶﾞﾀｹﾝ","cityKana":"ｻﾝｼﾞｮｳｼ","streetKana":"ﾋﾄﾂﾔｼｷｼﾝﾃﾞﾝ","prefecture":"新潟県","city":"三条市","street":"一ツ屋敷新田"},{"zipCode":"9591156","prefectureKana":"ﾆｲｶﾞﾀｹﾝ","cityKana":"ｻﾝｼﾞｮｳｼ","streetKana":"ﾌｸｼﾞﾏｼﾝﾃﾞﾝ","prefecture":"新潟県","city":"三条市","street":"福島新田"},{"zipCode":"9591102","prefectureKana":"ﾆｲｶﾞﾀｹﾝ","cityKana":"ｻﾝｼﾞｮｳｼ","streetKana":"ﾌｸｼﾞﾏｼﾝﾃﾞﾝｵﾂ","prefecture":"新潟県","city":"三条市","street":"福島新田乙"},{"zipCode":"9591101","prefectureKana":"ﾆｲｶﾞﾀｹﾝ","cityKana":"ｻﾝｼﾞｮｳｼ","streetKana":"ﾌｸｼﾞﾏｼﾝﾃﾞﾝｺｳ","prefecture":"新潟県","city":"三条市","street":"福島新田甲"},{"zipCode":"9591155","prefectureKana":"ﾆｲｶﾞﾀｹﾝ","cityKana":"ｻﾝｼﾞｮｳｼ","streetKana":"ﾌｸｼﾞﾏｼﾝﾃﾞﾝﾃｲ","prefecture":"新潟県","city":"三条市","street":"福島新田丁"},{"zipCode":"9591145","prefectureKana":"ﾆｲｶﾞﾀｹﾝ","cityKana":"ｻﾝｼﾞｮｳｼ","streetKana":"ﾌｸｼﾞﾏｼﾝﾃﾞﾝﾍｲ","prefecture":"新潟県","city":"三条市","street":"福島新田丙"},{"zipCode":"9591103","prefectureKana":"ﾆｲｶﾞﾀｹﾝ","cityKana":"ｻﾝｼﾞｮｳｼ","streetKana":"ﾌｸｼﾞﾏｼﾝﾃﾞﾝﾎﾞ","prefecture":"新潟県","city":"三条市","street":"福島新田戊"},{"zipCode":"9591116","prefectureKana":"ﾆｲｶﾞﾀｹﾝ","cityKana":"ｻﾝｼﾞｮｳｼ","streetKana":"ﾏｴﾔﾁ","prefecture":"新潟県","city":"三条市","street":"前谷内"},{"zipCode":"9591112","prefectureKana":"ﾆｲｶﾞﾀｹﾝ","cityKana":"ｻﾝｼﾞｮｳｼ","streetKana":"ﾔｽｼﾛ","prefecture":"新潟県","city":"三条市","street":"安代"},{"zipCode":"9591107","prefectureKana":"ﾆｲｶﾞﾀｹﾝ","cityKana":"ｻﾝｼﾞｮｳｼ","streetKana":"ﾔﾀﾞ","prefecture":"新潟県","city":"三条市","street":"矢田"},{"zipCode":"9591106","prefectureKana":"ﾆｲｶﾞﾀｹﾝ","cityKana":"ｻﾝｼﾞｮｳｼ","streetKana":"ﾖｼﾉﾔ","prefecture":"新潟県","city":"三条市","street":"吉野屋"},{"zipCode":"9591105","prefectureKana":"ﾆｲｶﾞﾀｹﾝ","cityKana":"ｻﾝｼﾞｮｳｼ","streetKana":"ﾜｶﾐﾔｼﾝﾃﾞﾝ","prefecture":"新潟県","city":"三条市","street":"若宮新田"},{"zipCode":"9591132","prefectureKana":"ﾆｲｶﾞﾀｹﾝ","cityKana":"ｻﾝｼﾞｮｳｼ","streetKana":"ﾜﾀﾘﾏｴ","prefecture":"新潟県","city":"三条市","street":"渡前"},{"zipCode":"9592314","prefectureKana":"ﾆｲｶﾞﾀｹﾝ","cityKana":"ｼﾊﾞﾀｼ","streetKana":"ｱｶｲﾊﾞｼ","prefecture":"新潟県","city":"新発田市","street":"赤橋"},{"zipCode":"9592311","prefectureKana":"ﾆｲｶﾞﾀｹﾝ","cityKana":"ｼﾊﾞﾀｼ","streetKana":"ｱﾗﾏﾁ","prefecture":"新潟県","city":"新発田市","street":"荒町"},{"zipCode":"9592443","prefectureKana":"ﾆｲｶﾞﾀｹﾝ","cityKana":"ｼﾊﾞﾀｼ","streetKana":"ｱﾗﾔｼｷ","prefecture":"新潟県","city":"新発田市","street":"新屋敷"},{"zipCode":"9592321","prefectureKana":"ﾆｲｶﾞﾀｹﾝ","cityKana":"ｼﾊﾞﾀｼ","streetKana":"ｲｹﾉﾊﾀ","prefecture":"新潟県","city":"新発田市","street":"池ノ端"},{"zipCode":"9592406","prefectureKana":"ﾆｲｶﾞﾀｹﾝ","cityKana":"ｼﾊﾞﾀｼ","streetKana":"ｲﾅﾘ","prefecture":"新潟県","city":"新発田市","street":"稲荷"},{"zipCode":"9592461","prefectureKana":"ﾆｲｶﾞﾀｹﾝ","cityKana":"ｼﾊﾞﾀｼ","streetKana":"ｵｵﾉ","prefecture":"新潟県","city":"新発田市","street":"大野"},{"zipCode":"9592463","prefectureKana":"ﾆｲｶﾞﾀｹﾝ","cityKana":"ｼﾊﾞﾀｼ","streetKana":"ｵｶｼﾞﾏ","prefecture":"新潟県","city":"新発田市","street":"岡島"},{"zipCode":"9592333","prefectureKana":"ﾆｲｶﾞﾀｹﾝ","cityKana":"ｼﾊﾞﾀｼ","streetKana":"ｵｶﾔｼｷ","prefecture":"新潟県","city":"新発田市","street":"岡屋敷"},{"zipCode":"9592471","prefectureKana":"ﾆｲｶﾞﾀｹﾝ","cityKana":"ｼﾊﾞﾀｼ","streetKana":"ｵｸﾞﾆﾀﾞﾆ","prefecture":"新潟県","city":"新発田市","street":"小国谷"},{"zipCode":"9592402","prefectureKana":"ﾆｲｶﾞﾀｹﾝ","cityKana":"ｼﾊﾞﾀｼ","streetKana":"ｵｼﾞﾏ","prefecture":"新潟県","city":"新発田市","street":"小島"},{"zipCode":"9592434","prefectureKana":"ﾆｲｶﾞﾀｹﾝ","cityKana":"ｼﾊﾞﾀｼ","streetKana":"ｵｼﾏﾜｼ","prefecture":"新潟県","city":"新発田市","street":"押廻"},{"zipCode":"9592323","prefectureKana":"ﾆｲｶﾞﾀｹﾝ","cityKana":"ｼﾊﾞﾀｼ","streetKana":"ｵﾄｼﾞ","prefecture":"新潟県","city":"新発田市","street":"乙次"},{"zipCode":"9592476","prefectureKana":"ﾆｲｶﾞﾀｹﾝ","cityKana":"ｼﾊﾞﾀｼ","streetKana":"ｶｲﾂﾞｶ","prefecture":"新潟県","city":"新発田市","street":"貝塚"},{"zipCode":"9592472","prefectureKana":"ﾆｲｶﾞﾀｹﾝ","cityKana":"ｼﾊﾞﾀｼ","streetKana":"ｶｲﾔ","prefecture":"新潟県","city":"新発田市","street":"貝屋"},{"zipCode":"9592336","prefectureKana":"ﾆｲｶﾞﾀｹﾝ","cityKana":"ｼﾊﾞﾀｼ","streetKana":"ｶｼﾞﾊﾞﾝﾀﾞｲ","prefecture":"新潟県","city":"新発田市","street":"加治万代"},{"zipCode":"9592479","prefectureKana":"ﾆｲｶﾞﾀｹﾝ","cityKana":"ｼﾊﾞﾀｼ","streetKana":"ｶﾅｻﾞﾜ","prefecture":"新潟県","city":"新発田市","street":"金沢"},{"zipCode":"9592441","prefectureKana":"ﾆｲｶﾞﾀｹﾝ","cityKana":"ｼﾊﾞﾀｼ","streetKana":"ｶﾅﾂﾞ","prefecture":"新潟県","city":"新発田市","street":"金津"},{"zipCode":"9592464","prefectureKana":"ﾆｲｶﾞﾀｹﾝ","cityKana":"ｼﾊﾞﾀｼ","streetKana":"ｶﾅﾂﾞｶ","prefecture":"新潟県","city":"新発田市","street":"金塚"},{"zipCode":"9592473","prefectureKana":"ﾆｲｶﾞﾀｹﾝ","cityKana":"ｼﾊﾞﾀｼ","streetKana":"ｶﾅﾔﾏ","prefecture":"新潟県","city":"新発田市","street":"金山"},{"zipCode":"9592431","prefectureKana":"ﾆｲｶﾞﾀｹﾝ","cityKana":"ｼﾊﾞﾀｼ","streetKana":"ｶﾏｸﾞｲ","prefecture":"新潟県","city":"新発田市","street":"釜杭"},{"zipCode":"9592501","prefectureKana":"ﾆｲｶﾞﾀｹﾝ","cityKana":"ｼﾊﾞﾀｼ","streetKana":"ｶﾐｱﾗｻﾜ","prefecture":"新潟県","city":"新発田市","street":"上荒沢"},{"zipCode":"9592514","prefectureKana":"ﾆｲｶﾞﾀｹﾝ","cityKana":"ｼﾊﾞﾀｼ","streetKana":"ｶﾐｲｼｶﾜ","prefecture":"新潟県","city":"新発田市","street":"上石川"},{"zipCode":"9592421","prefectureKana":"ﾆｲｶﾞﾀｹﾝ","cityKana":"ｼﾊﾞﾀｼ","streetKana":"ｶﾐｲﾏｲｽﾞﾐ","prefecture":"新潟県","city":"新発田市","street":"上今泉"},{"zipCode":"9592455","prefectureKana":"ﾆｲｶﾞﾀｹﾝ","cityKana":"ｼﾊﾞﾀｼ","streetKana":"ｶﾐｺﾏﾂ","prefecture":"新潟県","city":"新発田市","street":"上小松"},{"zipCode":"9592504","prefectureKana":"ﾆｲｶﾞﾀｹﾝ","cityKana":"ｼﾊﾞﾀｼ","streetKana":"ｶﾐｼﾞﾅｲ","prefecture":"新潟県","city":"新発田市","street":"上寺内"},{"zipCode":"9592452","prefectureKana":"ﾆｲｶﾞﾀｹﾝ","cityKana":"ｼﾊﾞﾀｼ","streetKana":"ｶﾐﾀﾃ","prefecture":"新潟県","city":"新発田市","street":"上館"},{"zipCode":"9592523","prefectureKana":"ﾆｲｶﾞﾀｹﾝ","cityKana":"ｼﾊﾞﾀｼ","streetKana":"ｶﾐﾅｶｴ","prefecture":"新潟県","city":"新発田市","street":"上中江"},{"zipCode":"9592407","prefectureKana":"ﾆｲｶﾞﾀｹﾝ","cityKana":"ｼﾊﾞﾀｼ","streetKana":"ｶﾜｸﾞﾁ","prefecture":"新潟県","city":"新発田市","street":"川口"},{"zipCode":"9592435","prefectureKana":"ﾆｲｶﾞﾀｹﾝ","cityKana":"ｼﾊﾞﾀｼ","streetKana":"ｶﾜｼﾘ","prefecture":"新潟県","city":"新発田市","street":"川尻"},{"zipCode":"9592522","prefectureKana":"ﾆｲｶﾞﾀｹﾝ","cityKana":"ｼﾊﾞﾀｼ","streetKana":"ｷﾀﾅｶｴ","prefecture":"新潟県","city":"新発田市","street":"北中江"},{"zipCode":"9592303","prefectureKana":"ﾆｲｶﾞﾀｹﾝ","cityKana":"ｼﾊﾞﾀｼ","streetKana":"ｷﾘｳﾒ","prefecture":"新潟県","city":"新発田市","street":"切梅"},{"zipCode":"9592502","prefectureKana":"ﾆｲｶﾞﾀｹﾝ","cityKana":"ｼﾊﾞﾀｼ","streetKana":"ｸﾏｲﾃﾞ","prefecture":"新潟県","city":"新発田市","street":"熊出"},{"zipCode":"9592521","prefectureKana":"ﾆｲｶﾞﾀｹﾝ","cityKana":"ｼﾊﾞﾀｼ","streetKana":"ｸﾗﾐﾂ","prefecture":"新潟県","city":"新発田市","street":"蔵光"},{"zipCode":"9592527","prefectureKana":"ﾆｲｶﾞﾀｹﾝ","cityKana":"ｼﾊﾞﾀｼ","streetKana":"ｸﾛｲﾜ","prefecture":"新潟県","city":"新発田市","street":"黒岩"},{"zipCode":"9592512","prefectureKana":"ﾆｲｶﾞﾀｹﾝ","cityKana":"ｼﾊﾞﾀｼ","streetKana":"ｺｲﾃﾞ","prefecture":"新潟県","city":"新発田市","street":"小出"},{"zipCode":"9592437","prefectureKana":"ﾆｲｶﾞﾀｹﾝ","cityKana":"ｼﾊﾞﾀｼ","streetKana":"ｺｳｻﾝｼﾞ","prefecture":"新潟県","city":"新発田市","street":"高山寺"},{"zipCode":"9592315","prefectureKana":"ﾆｲｶﾞﾀｹﾝ","cityKana":"ｼﾊﾞﾀｼ","streetKana":"ｺｻｶ","prefecture":"新潟県","city":"新発田市","street":"小坂"},{"zipCode":"9592401","prefectureKana":"ﾆｲｶﾞﾀｹﾝ","cityKana":"ｼﾊﾞﾀｼ","streetKana":"ｺﾅﾝ","prefecture":"新潟県","city":"新発田市","street":"湖南"},{"zipCode":"9592474","prefectureKana":"ﾆｲｶﾞﾀｹﾝ","cityKana":"ｼﾊﾞﾀｼ","streetKana":"ｻｶｲ","prefecture":"新潟県","city":"新発田市","street":"境"},{"zipCode":"9592513","prefectureKana":"ﾆｲｶﾞﾀｹﾝ","cityKana":"ｼﾊﾞﾀｼ","streetKana":"ｼｹﾞﾔﾏ","prefecture":"新潟県","city":"新発田市","street":"繁山"},{"zipCode":"9592331","prefectureKana":"ﾆｲｶﾞﾀｹﾝ","cityKana":"ｼﾊﾞﾀｼ","streetKana":"ｼﾓｲｲﾂﾞｶ","prefecture":"新潟県","city":"新発田市","street":"下飯塚"},{"zipCode":"9592516","prefectureKana":"ﾆｲｶﾞﾀｹﾝ","cityKana":"ｼﾊﾞﾀｼ","streetKana":"ｼﾓｲｼｶﾜ","prefecture":"新潟県","city":"新発田市","street":"下石川"},{"zipCode":"9592457","prefectureKana":"ﾆｲｶﾞﾀｹﾝ","cityKana":"ｼﾊﾞﾀｼ","streetKana":"ｼﾓｲﾏｲｽﾞﾐ","prefecture":"新潟県","city":"新発田市","street":"下今泉"},{"zipCode":"9592477","prefectureKana":"ﾆｲｶﾞﾀｹﾝ","cityKana":"ｼﾊﾞﾀｼ","streetKana":"ｼﾓｺﾅｶﾔﾏ","prefecture":"新潟県","city":"新発田市","street":"下小中山"},{"zipCode":"9592456","prefectureKana":"ﾆｲｶﾞﾀｹﾝ","cityKana":"ｼﾊﾞﾀｼ","streetKana":"ｼﾓｺﾏﾂ","prefecture":"新潟県","city":"新発田市","street":"下小松"},{"zipCode":"9592478","prefectureKana":"ﾆｲｶﾞﾀｹﾝ","cityKana":"ｼﾊﾞﾀｼ","streetKana":"ｼﾓｻｶﾏﾁ","prefecture":"新潟県","city":"新発田市","street":"下坂町"},{"zipCode":"9592505","prefectureKana":"ﾆｲｶﾞﾀｹﾝ","cityKana":"ｼﾊﾞﾀｼ","streetKana":"ｼﾓｼﾞﾅｲ","prefecture":"新潟県","city":"新発田市","street":"下寺内"},{"zipCode":"9592404","prefectureKana":"ﾆｲｶﾞﾀｹﾝ","cityKana":"ｼﾊﾞﾀｼ","streetKana":"ｼﾓｼﾞｮｳ","prefecture":"新潟県","city":"新発田市","street":"下城"},{"zipCode":"9592451","prefectureKana":"ﾆｲｶﾞﾀｹﾝ","cityKana":"ｼﾊﾞﾀｼ","streetKana":"ｼﾓﾅｶ","prefecture":"新潟県","city":"新発田市","street":"下中"},{"zipCode":"9592524","prefectureKana":"ﾆｲｶﾞﾀｹﾝ","cityKana":"ｼﾊﾞﾀｼ","streetKana":"ｼﾓﾅｶｴ","prefecture":"新潟県","city":"新発田市","street":"下中江"},{"zipCode":"9592322","prefectureKana":"ﾆｲｶﾞﾀｹﾝ","cityKana":"ｼﾊﾞﾀｼ","streetKana":"ｼﾓﾅｶﾉﾒ","prefecture":"新潟県","city":"新発田市","street":"下中ノ目"},{"zipCode":"9592503","prefectureKana":"ﾆｲｶﾞﾀｹﾝ","cityKana":"ｼﾊﾞﾀｼ","streetKana":"ｼﾓﾅｶﾔﾏ","prefecture":"新潟県","city":"新発田市","street":"下中山"},{"zipCode":"9592417","prefectureKana":"ﾆｲｶﾞﾀｹﾝ","cityKana":"ｼﾊﾞﾀｼ","streetKana":"ｼﾓﾆｼﾔﾏ","prefecture":"新潟県","city":"新発田市","street":"下西山"},{"zipCode":"9592414","prefectureKana":"ﾆｲｶﾞﾀｹﾝ","cityKana":"ｼﾊﾞﾀｼ","streetKana":"ｼﾓﾔﾏﾀﾞ","prefecture":"新潟県","city":"新発田市","street":"下山田"},{"zipCode":"9592444","prefectureKana":"ﾆｲｶﾞﾀｹﾝ","cityKana":"ｼﾊﾞﾀｼ","streetKana":"ｼﾝﾎｺｳｼﾞ","prefecture":"新潟県","city":"新発田市","street":"新保小路"},{"zipCode":"9592511","prefectureKana":"ﾆｲｶﾞﾀｹﾝ","cityKana":"ｼﾊﾞﾀｼ","streetKana":"ｽｶﾞﾀﾆ","prefecture":"新潟県","city":"新発田市","street":"菅谷"},{"zipCode":"9592415","prefectureKana":"ﾆｲｶﾞﾀｹﾝ","cityKana":"ｼﾊﾞﾀｼ","streetKana":"ｽﾐﾀﾞ","prefecture":"新潟県","city":"新発田市","street":"住田"},{"zipCode":"9592422","prefectureKana":"ﾆｲｶﾞﾀｹﾝ","cityKana":"ｼﾊﾞﾀｼ","streetKana":"ｾｷﾂﾞﾏ","prefecture":"新潟県","city":"新発田市","street":"関妻"},{"zipCode":"9592436","prefectureKana":"ﾆｲｶﾞﾀｹﾝ","cityKana":"ｼﾊﾞﾀｼ","streetKana":"ｿｳｶ","prefecture":"新潟県","city":"新発田市","street":"草荷"},{"zipCode":"9592465","prefectureKana":"ﾆｲｶﾞﾀｹﾝ","cityKana":"ｼﾊﾞﾀｼ","streetKana":"ｿｳﾏ","prefecture":"新潟県","city":"新発田市","street":"相馬"},{"zipCode":"9592304","prefectureKana":"ﾆｲｶﾞﾀｹﾝ","cityKana":"ｼﾊﾞﾀｼ","streetKana":"ﾀﾞｲﾃﾞﾝ","prefecture":"新潟県","city":"新発田市","street":"大伝"},{"zipCode":"9592425","prefectureKana":"ﾆｲｶﾞﾀｹﾝ","cityKana":"ｼﾊﾞﾀｼ","streetKana":"ﾀｶﾀﾞ","prefecture":"新潟県","city":"新発田市","street":"高田"},{"zipCode":"9592518","prefectureKana":"ﾆｲｶﾞﾀｹﾝ","cityKana":"ｼﾊﾞﾀｼ","streetKana":"ﾀｷ","prefecture":"新潟県","city":"新発田市","street":"滝"},{"zipCode":"9592381","prefectureKana":"ﾆｲｶﾞﾀｹﾝ","cityKana":"ｼﾊﾞﾀｼ","streetKana":"ﾀｷｻﾞﾜ","prefecture":"新潟県","city":"新発田市","street":"滝沢"},{"zipCode":"9592301","prefectureKana":"ﾆｲｶﾞﾀｹﾝ","cityKana":"ｼﾊﾞﾀｼ","streetKana":"ﾀｹｶﾞﾊﾅ","prefecture":"新潟県","city":"新発田市","street":"竹ケ花"},{"zipCode":"9592337","prefectureKana":"ﾆｲｶﾞﾀｹﾝ","cityKana":"ｼﾊﾞﾀｼ","streetKana":"ﾀｹﾏﾀﾊﾞﾝﾀﾞｲ","prefecture":"新潟県","city":"新発田市","street":"竹俣万代"},{"zipCode":"9592312","prefectureKana":"ﾆｲｶﾞﾀｹﾝ","cityKana":"ｼﾊﾞﾀｼ","streetKana":"ﾀﾞｻｲ","prefecture":"新潟県","city":"新発田市","street":"太斎"},{"zipCode":"9592445","prefectureKana":"ﾆｲｶﾞﾀｹﾝ","cityKana":"ｼﾊﾞﾀｼ","streetKana":"ﾀﾃﾉｺｳｼﾞ","prefecture":"新潟県","city":"新発田市","street":"館野小路"},{"zipCode":"9592403","prefectureKana":"ﾆｲｶﾞﾀｹﾝ","cityKana":"ｼﾊﾞﾀｼ","streetKana":"ﾂｶﾀﾞ","prefecture":"新潟県","city":"新発田市","street":"塚田"},{"zipCode":"9592334","prefectureKana":"ﾆｲｶﾞﾀｹﾝ","cityKana":"ｼﾊﾞﾀｼ","streetKana":"ﾂｷｵｶ","prefecture":"新潟県","city":"新発田市","street":"月岡"},{"zipCode":"9592338","prefectureKana":"ﾆｲｶﾞﾀｹﾝ","cityKana":"ｼﾊﾞﾀｼ","streetKana":"ﾂｷｵｶｵﾝｾﾝ","prefecture":"新潟県","city":"新発田市","street":"月岡温泉"},{"zipCode":"9592475","prefectureKana":"ﾆｲｶﾞﾀｹﾝ","cityKana":"ｼﾊﾞﾀｼ","streetKana":"ﾃﾗｵ","prefecture":"新潟県","city":"新発田市","street":"寺尾"},{"zipCode":"9592325","prefectureKana":"ﾆｲｶﾞﾀｹﾝ","cityKana":"ｼﾊﾞﾀｼ","streetKana":"ﾃﾝﾉｳ","prefecture":"新潟県","city":"新発田市","street":"天王"},{"zipCode":"9592305","prefectureKana":"ﾆｲｶﾞﾀｹﾝ","cityKana":"ｼﾊﾞﾀｼ","streetKana":"ﾄｲﾀｻﾞﾜ","prefecture":"新潟県","city":"新発田市","street":"戸板沢"},{"zipCode":"9592462","prefectureKana":"ﾆｲｶﾞﾀｹﾝ","cityKana":"ｼﾊﾞﾀｼ","streetKana":"ﾄﾉﾐﾅﾄ","prefecture":"新潟県","city":"新発田市","street":"戸野港"},{"zipCode":"9592515","prefectureKana":"ﾆｲｶﾞﾀｹﾝ","cityKana":"ｼﾊﾞﾀｼ","streetKana":"ﾅｶｶﾞﾜ","prefecture":"新潟県","city":"新発田市","street":"中川"},{"zipCode":"9592525","prefectureKana":"ﾆｲｶﾞﾀｹﾝ","cityKana":"ｼﾊﾞﾀｼ","streetKana":"ﾅｶｸﾗ","prefecture":"新潟県","city":"新発田市","street":"中倉"},{"zipCode":"9592468","prefectureKana":"ﾆｲｶﾞﾀｹﾝ","cityKana":"ｼﾊﾞﾀｼ","streetKana":"ﾅｶﾀﾜﾗ","prefecture":"新潟県","city":"新発田市","street":"中俵"},{"zipCode":"9592526","prefectureKana":"ﾆｲｶﾞﾀｹﾝ","cityKana":"ｼﾊﾞﾀｼ","streetKana":"ﾅｶﾂﾞﾏ","prefecture":"新潟県","city":"新発田市","street":"中妻"},{"zipCode":"9592329","prefectureKana":"ﾆｲｶﾞﾀｹﾝ","cityKana":"ｼﾊﾞﾀｼ","streetKana":"ﾅｶﾉﾒｼﾝﾃﾞﾝ","prefecture":"新潟県","city":"新発田市","street":"中ノ目新田"},{"zipCode":"9592416","prefectureKana":"ﾆｲｶﾞﾀｹﾝ","cityKana":"ｼﾊﾞﾀｼ","streetKana":"ﾆｼｳﾗ","prefecture":"新潟県","city":"新発田市","street":"西浦"},{"zipCode":"9592432","prefectureKana":"ﾆｲｶﾞﾀｹﾝ","cityKana":"ｼﾊﾞﾀｼ","streetKana":"ﾆﾎﾝｷﾞ","prefecture":"新潟県","city":"新発田市","street":"二本木"},{"zipCode":"9592405","prefectureKana":"ﾆｲｶﾞﾀｹﾝ","cityKana":"ｼﾊﾞﾀｼ","streetKana":"ﾉﾅｶ","prefecture":"新潟県","city":"新発田市","street":"野中"},{"zipCode":"9592328","prefectureKana":"ﾆｲｶﾞﾀｹﾝ","cityKana":"ｼﾊﾞﾀｼ","streetKana":"ﾉﾘﾏﾜｼ","prefecture":"新潟県","city":"新発田市","street":"乗廻"},{"zipCode":"9592413","prefectureKana":"ﾆｲｶﾞﾀｹﾝ","cityKana":"ｼﾊﾞﾀｼ","streetKana":"ﾊｺｲﾜ","prefecture":"新潟県","city":"新発田市","street":"箱岩"},{"zipCode":"9592454","prefectureKana":"ﾆｲｶﾞﾀｹﾝ","cityKana":"ｼﾊﾞﾀｼ","streetKana":"ﾊﾔﾐﾁﾊﾞ","prefecture":"新潟県","city":"新発田市","street":"早道場"},{"zipCode":"9592332","prefectureKana":"ﾆｲｶﾞﾀｹﾝ","cityKana":"ｼﾊﾞﾀｼ","streetKana":"ﾊﾞﾝﾀﾞｲ","prefecture":"新潟県","city":"新発田市","street":"万代"},{"zipCode":"9592528","prefectureKana":"ﾆｲｶﾞﾀｹﾝ","cityKana":"ｼﾊﾞﾀｼ","streetKana":"ﾋｶﾞｼﾐﾔｳﾁ","prefecture":"新潟県","city":"新発田市","street":"東宮内"},{"zipCode":"9592412","prefectureKana":"ﾆｲｶﾞﾀｹﾝ","cityKana":"ｼﾊﾞﾀｼ","streetKana":"ﾋﾗﾔﾏ","prefecture":"新潟県","city":"新発田市","street":"平山"},{"zipCode":"9592327","prefectureKana":"ﾆｲｶﾞﾀｹﾝ","cityKana":"ｼﾊﾞﾀｼ","streetKana":"ﾌｸｼﾞﾏ","prefecture":"新潟県","city":"新発田市","street":"福島"},{"zipCode":"9592313","prefectureKana":"ﾆｲｶﾞﾀｹﾝ","cityKana":"ｼﾊﾞﾀｼ","streetKana":"ﾌｼﾞｶｹ","prefecture":"新潟県","city":"新発田市","street":"藤掛"},{"zipCode":"9592302","prefectureKana":"ﾆｲｶﾞﾀｹﾝ","cityKana":"ｼﾊﾞﾀｼ","streetKana":"ﾌﾀﾂﾄﾞｳ","prefecture":"新潟県","city":"新発田市","street":"二ツ堂"},{"zipCode":"9592517","prefectureKana":"ﾆｲｶﾞﾀｹﾝ","cityKana":"ｼﾊﾞﾀｼ","streetKana":"ﾌﾓﾄ","prefecture":"新潟県","city":"新発田市","street":"麓"},{"zipCode":"9592433","prefectureKana":"ﾆｲｶﾞﾀｹﾝ","cityKana":"ｼﾊﾞﾀｼ","streetKana":"ﾌﾙｶﾜ","prefecture":"新潟県","city":"新発田市","street":"古川"},{"zipCode":"9592409","prefectureKana":"ﾆｲｶﾞﾀｹﾝ","cityKana":"ｼﾊﾞﾀｼ","streetKana":"ﾌﾙﾀﾃ","prefecture":"新潟県","city":"新発田市","street":"古楯"},{"zipCode":"9592335","prefectureKana":"ﾆｲｶﾞﾀｹﾝ","cityKana":"ｼﾊﾞﾀｼ","streetKana":"ﾎﾝﾀﾞ","prefecture":"新潟県","city":"新発田市","street":"本田"},{"zipCode":"9592507","prefectureKana":"ﾆｲｶﾞﾀｹﾝ","cityKana":"ｼﾊﾞﾀｼ","streetKana":"ﾐｽﾞｵｼ","prefecture":"新潟県","city":"新発田市","street":"溝足"},{"zipCode":"9592453","prefectureKana":"ﾆｲｶﾞﾀｹﾝ","cityKana":"ｼﾊﾞﾀｼ","streetKana":"ﾐｯｶｲﾁ","prefecture":"新潟県","city":"新発田市","street":"三日市"},{"zipCode":"9592326","prefectureKana":"ﾆｲｶﾞﾀｹﾝ","cityKana":"ｼﾊﾞﾀｼ","streetKana":"ﾐﾂｸﾇｷﾞ","prefecture":"新潟県","city":"新発田市","street":"三ツ椡"},{"zipCode":"9592442","prefectureKana":"ﾆｲｶﾞﾀｹﾝ","cityKana":"ｼﾊﾞﾀｼ","streetKana":"ﾐｮｳｶﾞﾀﾆ","prefecture":"新潟県","city":"新発田市","street":"茗荷谷"},{"zipCode":"9592426","prefectureKana":"ﾆｲｶﾞﾀｹﾝ","cityKana":"ｼﾊﾞﾀｼ","streetKana":"ﾑｶｲﾅｶｼﾞｮｳ","prefecture":"新潟県","city":"新発田市","street":"向中条"},{"zipCode":"9592411","prefectureKana":"ﾆｲｶﾞﾀｹﾝ","cityKana":"ｼﾊﾞﾀｼ","streetKana":"ﾖｺｵｶ","prefecture":"新潟県","city":"新発田市","street":"横岡"},{"zipCode":"9592506","prefectureKana":"ﾆｲｶﾞﾀｹﾝ","cityKana":"ｼﾊﾞﾀｼ","streetKana":"ﾖｺﾔﾏ","prefecture":"新潟県","city":"新発田市","street":"横山"},{"zipCode":"9592324","prefectureKana":"ﾆｲｶﾞﾀｹﾝ","cityKana":"ｼﾊﾞﾀｼ","streetKana":"ﾖｼｳﾗ","prefecture":"新潟県","city":"新発田市","street":"吉浦"},{"zipCode":"9592408","prefectureKana":"ﾆｲｶﾞﾀｹﾝ","cityKana":"ｼﾊﾞﾀｼ","streetKana":"ﾖｼﾀﾞ","prefecture":"新潟県","city":"新発田市","street":"吉田"},{"zipCode":"9591300","prefectureKana":"ﾆｲｶﾞﾀｹﾝ","cityKana":"ｶﾓｼ","streetKana":"ｲｶﾆｹｲｻｲｶﾞﾅｲﾊﾞｱｲ","prefecture":"新潟県","city":"加茂市","street":"以下に掲載がない場合"},{"zipCode":"9591326","prefectureKana":"ﾆｲｶﾞﾀｹﾝ","cityKana":"ｶﾓｼ","streetKana":"ｱｵﾐﾁｮｳ","prefecture":"新潟県","city":"加茂市","street":"青海町"},{"zipCode":"9591324","prefectureKana":"ﾆｲｶﾞﾀｹﾝ","cityKana":"ｶﾓｼ","streetKana":"ｱｶﾀﾆ","prefecture":"新潟県","city":"加茂市","street":"赤谷"},{"zipCode":"9591356","prefectureKana":"ﾆｲｶﾞﾀｹﾝ","cityKana":"ｶﾓｼ","streetKana":"ｱｷﾌｻ","prefecture":"新潟県","city":"加茂市","street":"秋房"},{"zipCode":"9591383","prefectureKana":"ﾆｲｶﾞﾀｹﾝ","cityKana":"ｶﾓｼ","streetKana":"ｱｻﾋﾁｮｳ","prefecture":"新潟県","city":"加茂市","street":"旭町"},{"zipCode":"9591312","prefectureKana":"ﾆｲｶﾞﾀｹﾝ","cityKana":"ｶﾓｼ","streetKana":"ｲｼｶﾜ","prefecture":"新潟県","city":"加茂市","street":"石川"},{"zipCode":"9591306","prefectureKana":"ﾆｲｶﾞﾀｹﾝ","cityKana":"ｶﾓｼ","streetKana":"ｳﾉﾓﾘ","prefecture":"新潟県","city":"加茂市","street":"鵜森"},{"zipCode":"9591303","prefectureKana":"ﾆｲｶﾞﾀｹﾝ","cityKana":"ｶﾓｼ","streetKana":"ｳﾗｽﾀﾞ","prefecture":"新潟県","city":"加茂市","street":"後須田"},{"zipCode":"9591378","prefectureKana":"ﾆｲｶﾞﾀｹﾝ","cityKana":"ｶﾓｼ","streetKana":"ｴｷﾏｴ","prefecture":"新潟県","city":"加茂市","street":"駅前"},{"zipCode":"9591377","prefectureKana":"ﾆｲｶﾞﾀｹﾝ","cityKana":"ｶﾓｼ","streetKana":"ｵｶﾉﾏﾁ","prefecture":"新潟県","city":"加茂市","street":"岡ノ町"},{"zipCode":"9591322","prefectureKana":"ﾆｲｶﾞﾀｹﾝ","cityKana":"ｶﾓｼ","streetKana":"ｶﾞｯｺｳﾁｮｳ","prefecture":"新潟県","city":"加茂市","street":"学校町"},{"zipCode":"9591343","prefectureKana":"ﾆｲｶﾞﾀｹﾝ","cityKana":"ｶﾓｼ","streetKana":"ｶﾐｵｵﾀﾆ","prefecture":"新潟県","city":"加茂市","street":"上大谷"},{"zipCode":"9591347","prefectureKana":"ﾆｲｶﾞﾀｹﾝ","cityKana":"ｶﾓｼ","streetKana":"ｶﾐﾀｶﾔﾅｷﾞ","prefecture":"新潟県","city":"加茂市","street":"上高柳"},{"zipCode":"9591342","prefectureKana":"ﾆｲｶﾞﾀｹﾝ","cityKana":"ｶﾓｼ","streetKana":"ｶﾐﾂﾁｸﾗ","prefecture":"新潟県","city":"加茂市","street":"上土倉"},{"zipCode":"9591352","prefectureKana":"ﾆｲｶﾞﾀｹﾝ","cityKana":"ｶﾓｼ","streetKana":"ｶﾐﾏﾁ","prefecture":"新潟県","city":"加茂市","street":"上町"},{"zipCode":"9591311","prefectureKana":"ﾆｲｶﾞﾀｹﾝ","cityKana":"ｶﾓｼ","streetKana":"ｶﾓｼﾝﾃﾞﾝ","prefecture":"新潟県","city":"加茂市","street":"加茂新田"},{"zipCode":"9591301","prefectureKana":"ﾆｲｶﾞﾀｹﾝ","cityKana":"ｶﾓｼ","streetKana":"ｷﾀｶﾞﾀ","prefecture":"新潟県","city":"加茂市","street":"北潟"},{"zipCode":"9591321","prefectureKana":"ﾆｲｶﾞﾀｹﾝ","cityKana":"ｶﾓｼ","streetKana":"ｷﾎﾞｳｶﾞｵｶ","prefecture":"新潟県","city":"加茂市","street":"希望ケ丘"},{"zipCode":"9591336","prefectureKana":"ﾆｲｶﾞﾀｹﾝ","cityKana":"ｶﾓｼ","streetKana":"ｸﾛﾐｽﾞ","prefecture":"新潟県","city":"加茂市","street":"黒水"},{"zipCode":"9591361","prefectureKana":"ﾆｲｶﾞﾀｹﾝ","cityKana":"ｶﾓｼ","streetKana":"ｹﾞｼﾞｮｳ","prefecture":"新潟県","city":"加茂市","street":"下条"},{"zipCode":"9591371","prefectureKana":"ﾆｲｶﾞﾀｹﾝ","cityKana":"ｶﾓｼ","streetKana":"ｺｸﾁｮｳ","prefecture":"新潟県","city":"加茂市","street":"穀町"},{"zipCode":"9591302","prefectureKana":"ﾆｲｶﾞﾀｹﾝ","cityKana":"ｶﾓｼ","streetKana":"ｺﾞﾀﾝﾀﾞ","prefecture":"新潟県","city":"加茂市","street":"五反田"},{"zipCode":"9591384","prefectureKana":"ﾆｲｶﾞﾀｹﾝ","cityKana":"ｶﾓｼ","streetKana":"ｺﾄﾌﾞｷﾁｮｳ","prefecture":"新潟県","city":"加茂市","street":"寿町"},{"zipCode":"9591375","prefectureKana":"ﾆｲｶﾞﾀｹﾝ","cityKana":"ｶﾓｼ","streetKana":"ｺﾊﾞｼ","prefecture":"新潟県","city":"加茂市","street":"小橋"},{"zipCode":"9591353","prefectureKana":"ﾆｲｶﾞﾀｹﾝ","cityKana":"ｶﾓｼ","streetKana":"ｺﾞﾊﾞﾝﾁｮｳ","prefecture":"新潟県","city":"加茂市","street":"五番町"},{"zipCode":"9591313","prefectureKana":"ﾆｲｶﾞﾀｹﾝ","cityKana":"ｶﾓｼ","streetKana":"ｻｲﾜｲﾁｮｳ","prefecture":"新潟県","city":"加茂市","street":"幸町"},{"zipCode":"9591382","prefectureKana":"ﾆｲｶﾞﾀｹﾝ","cityKana":"ｶﾓｼ","streetKana":"ｻｶｴﾁｮｳ","prefecture":"新潟県","city":"加茂市","street":"栄町"},{"zipCode":"9591357","prefectureKana":"ﾆｲｶﾞﾀｹﾝ","cityKana":"ｶﾓｼ","streetKana":"ｻｸﾗｻﾞﾜ","prefecture":"新潟県","city":"加茂市","street":"桜沢"},{"zipCode":"9591363","prefectureKana":"ﾆｲｶﾞﾀｹﾝ","cityKana":"ｶﾓｼ","streetKana":"ｼﾊﾞﾉ","prefecture":"新潟県","city":"加茂市","street":"芝野"},{"zipCode":"9591344","prefectureKana":"ﾆｲｶﾞﾀｹﾝ","cityKana":"ｶﾓｼ","streetKana":"ｼﾓｵｵﾀﾆ","prefecture":"新潟県","city":"加茂市","street":"下大谷"},{"zipCode":"9591346","prefectureKana":"ﾆｲｶﾞﾀｹﾝ","cityKana":"ｶﾓｼ","streetKana":"ｼﾓﾀｶﾔﾅｷﾞ","prefecture":"新潟県","city":"加茂市","street":"下高柳"},{"zipCode":"9591341","prefectureKana":"ﾆｲｶﾞﾀｹﾝ","cityKana":"ｶﾓｼ","streetKana":"ｼﾓﾂﾁｸﾗ","prefecture":"新潟県","city":"加茂市","street":"下土倉"},{"zipCode":"9591332","prefectureKana":"ﾆｲｶﾞﾀｹﾝ","cityKana":"ｶﾓｼ","streetKana":"ｼﾞｮｳｼﾞｮｳ","prefecture":"新潟県","city":"加茂市","street":"上条"},{"zipCode":"9591381","prefectureKana":"ﾆｲｶﾞﾀｹﾝ","cityKana":"ｶﾓｼ","streetKana":"ｼﾝｴｲﾁｮｳ","prefecture":"新潟県","city":"加茂市","street":"新栄町"},{"zipCode":"9591328","prefectureKana":"ﾆｲｶﾞﾀｹﾝ","cityKana":"ｶﾓｼ","streetKana":"ｼﾞﾝｶﾞﾐﾈ","prefecture":"新潟県","city":"加茂市","street":"陣ケ峰"},{"zipCode":"9591354","prefectureKana":"ﾆｲｶﾞﾀｹﾝ","cityKana":"ｶﾓｼ","streetKana":"ｼﾝﾏﾁ","prefecture":"新潟県","city":"加茂市","street":"新町"},{"zipCode":"9591325","prefectureKana":"ﾆｲｶﾞﾀｹﾝ","cityKana":"ｶﾓｼ","streetKana":"ｼﾝﾒｲﾁｮｳ","prefecture":"新潟県","city":"加茂市","street":"神明町"},{"zipCode":"9591305","prefectureKana":"ﾆｲｶﾞﾀｹﾝ","cityKana":"ｶﾓｼ","streetKana":"ｽﾅｵｼｼﾝﾃﾞﾝ","prefecture":"新潟県","city":"加茂市","street":"砂押新田"},{"zipCode":"9591334","prefectureKana":"ﾆｲｶﾞﾀｹﾝ","cityKana":"ｶﾓｼ","streetKana":"ｾﾊﾞｸﾞﾁ","prefecture":"新潟県","city":"加茂市","street":"狭口"},{"zipCode":"9591327","prefectureKana":"ﾆｲｶﾞﾀｹﾝ","cityKana":"ｶﾓｼ","streetKana":"ｾﾝｶﾞﾘ","prefecture":"新潟県","city":"加茂市","street":"千刈"},{"zipCode":"9591385","prefectureKana":"ﾆｲｶﾞﾀｹﾝ","cityKana":"ｶﾓｼ","streetKana":"ﾀﾞｲｺﾞｳﾁｮｳ","prefecture":"新潟県","city":"加茂市","street":"大郷町"},{"zipCode":"9591387","prefectureKana":"ﾆｲｶﾞﾀｹﾝ","cityKana":"ｶﾓｼ","streetKana":"ﾀｶｽﾁｮｳ","prefecture":"新潟県","city":"加茂市","street":"高須町"},{"zipCode":"9591307","prefectureKana":"ﾆｲｶﾞﾀｹﾝ","cityKana":"ｶﾓｼ","streetKana":"ﾀﾅｶｼﾝﾃﾞﾝ","prefecture":"新潟県","city":"加茂市","street":"田中新田"},{"zipCode":"9591315","prefectureKana":"ﾆｲｶﾞﾀｹﾝ","cityKana":"ｶﾓｼ","streetKana":"ﾃﾝｼﾞﾝﾊﾞﾔｼ","prefecture":"新潟県","city":"加茂市","street":"天神林"},{"zipCode":"9591345","prefectureKana":"ﾆｲｶﾞﾀｹﾝ","cityKana":"ｶﾓｼ","streetKana":"ﾅｶｵｵﾀﾆ","prefecture":"新潟県","city":"加茂市","street":"中大谷"},{"zipCode":"9591335","prefectureKana":"ﾆｲｶﾞﾀｹﾝ","cityKana":"ｶﾓｼ","streetKana":"ﾅｶﾞﾀﾆ","prefecture":"新潟県","city":"加茂市","street":"長谷"},{"zipCode":"9591351","prefectureKana":"ﾆｲｶﾞﾀｹﾝ","cityKana":"ｶﾓｼ","streetKana":"ﾅｶﾏﾁ","prefecture":"新潟県","city":"加茂市","street":"仲町"},{"zipCode":"9591376","prefectureKana":"ﾆｲｶﾞﾀｹﾝ","cityKana":"ｶﾓｼ","streetKana":"ﾅｶﾑﾗ","prefecture":"新潟県","city":"加茂市","street":"中村"},{"zipCode":"9591337","prefectureKana":"ﾆｲｶﾞﾀｹﾝ","cityKana":"ｶﾓｼ","streetKana":"ﾆｼﾔﾏ","prefecture":"新潟県","city":"加茂市","street":"西山"},{"zipCode":"9591314","prefectureKana":"ﾆｲｶﾞﾀｹﾝ","cityKana":"ｶﾓｼ","streetKana":"ﾊﾞﾝﾃﾞﾝ","prefecture":"新潟県","city":"加茂市","street":"番田"},{"zipCode":"9591372","prefectureKana":"ﾆｲｶﾞﾀｹﾝ","cityKana":"ｶﾓｼ","streetKana":"ﾎﾝﾁｮｳ","prefecture":"新潟県","city":"加茂市","street":"本町"},{"zipCode":"9591304","prefectureKana":"ﾆｲｶﾞﾀｹﾝ","cityKana":"ｶﾓｼ","streetKana":"ﾏｴｽﾀﾞ","prefecture":"新潟県","city":"加茂市","street":"前須田"},{"zipCode":"9591373","prefectureKana":"ﾆｲｶﾞﾀｹﾝ","cityKana":"ｶﾓｼ","streetKana":"ﾏﾂｻｶﾁｮｳ","prefecture":"新潟県","city":"加茂市","street":"松坂町"},{"zipCode":"9591331","prefectureKana":"ﾆｲｶﾞﾀｹﾝ","cityKana":"ｶﾓｼ","streetKana":"ﾐﾅｶﾞﾜ","prefecture":"新潟県","city":"加茂市","street":"皆川"},{"zipCode":"9591323","prefectureKana":"ﾆｲｶﾞﾀｹﾝ","cityKana":"ｶﾓｼ","streetKana":"ﾐﾔｺｶﾞｵｶ","prefecture":"新潟県","city":"加茂市","street":"都ケ丘"},{"zipCode":"9591348","prefectureKana":"ﾆｲｶﾞﾀｹﾝ","cityKana":"ｶﾓｼ","streetKana":"ﾐﾔﾖﾘｶﾐ","prefecture":"新潟県","city":"加茂市","street":"宮寄上"},{"zipCode":"9591374","prefectureKana":"ﾆｲｶﾞﾀｹﾝ","cityKana":"ｶﾓｼ","streetKana":"ﾔﾀﾃ","prefecture":"新潟県","city":"加茂市","street":"矢立"},{"zipCode":"9591386","prefectureKana":"ﾆｲｶﾞﾀｹﾝ","cityKana":"ｶﾓｼ","streetKana":"ﾔﾅｷﾞﾁｮｳ","prefecture":"新潟県","city":"加茂市","street":"柳町"},{"zipCode":"9591316","prefectureKana":"ﾆｲｶﾞﾀｹﾝ","cityKana":"ｶﾓｼ","streetKana":"ﾔﾏｼﾞﾏｼﾝﾃﾞﾝ","prefecture":"新潟県","city":"加茂市","street":"山島新田"},{"zipCode":"9591333","prefectureKana":"ﾆｲｶﾞﾀｹﾝ","cityKana":"ｶﾓｼ","streetKana":"ﾔﾜﾀ","prefecture":"新潟県","city":"加茂市","street":"八幡"},{"zipCode":"9591362","prefectureKana":"ﾆｲｶﾞﾀｹﾝ","cityKana":"ｶﾓｼ","streetKana":"ﾖｺｴ","prefecture":"新潟県","city":"加茂市","street":"横江"},{"zipCode":"9591355","prefectureKana":"ﾆｲｶﾞﾀｹﾝ","cityKana":"ｶﾓｼ","streetKana":"ﾜｶﾐﾔﾁｮｳ","prefecture":"新潟県","city":"加茂市","street":"若宮町"},{"zipCode":"9593651","prefectureKana":"ﾆｲｶﾞﾀｹﾝ","cityKana":"ﾑﾗｶﾐｼ","streetKana":"ｱｼﾀﾞﾆ","prefecture":"新潟県","city":"村上市","street":"芦谷"},{"zipCode":"9593923","prefectureKana":"ﾆｲｶﾞﾀｹﾝ","cityKana":"ﾑﾗｶﾐｼ","streetKana":"ｱﾗｶﾜ","prefecture":"新潟県","city":"村上市","street":"荒川"},{"zipCode":"9593921","prefectureKana":"ﾆｲｶﾞﾀｹﾝ","cityKana":"ﾑﾗｶﾐｼ","streetKana":"ｱﾗｶﾜｸﾞﾁ","prefecture":"新潟県","city":"村上市","street":"荒川口"},{"zipCode":"9593125","prefectureKana":"ﾆｲｶﾞﾀｹﾝ","cityKana":"ﾑﾗｶﾐｼ","streetKana":"ｱﾗｶﾜﾍﾞﾘｼﾝﾃﾞﾝ","prefecture":"新潟県","city":"村上市","street":"荒川縁新田"},{"zipCode":"9593103","prefectureKana":"ﾆｲｶﾞﾀｹﾝ","cityKana":"ﾑﾗｶﾐｼ","streetKana":"ｱﾗｼﾏ","prefecture":"新潟県","city":"村上市","street":"荒島"},{"zipCode":"9593116","prefectureKana":"ﾆｲｶﾞﾀｹﾝ","cityKana":"ﾑﾗｶﾐｼ","streetKana":"ｱﾗﾔ","prefecture":"新潟県","city":"村上市","street":"荒屋"},{"zipCode":"9593414","prefectureKana":"ﾆｲｶﾞﾀｹﾝ","cityKana":"ﾑﾗｶﾐｼ","streetKana":"ｱﾘｱｹ","prefecture":"新潟県","city":"村上市","street":"有明"},{"zipCode":"9593422","prefectureKana":"ﾆｲｶﾞﾀｹﾝ","cityKana":"ﾑﾗｶﾐｼ","streetKana":"ｲｲｵｶ","prefecture":"新潟県","city":"村上市","street":"飯岡"},{"zipCode":"9593916","prefectureKana":"ﾆｲｶﾞﾀｹﾝ","cityKana":"ﾑﾗｶﾐｼ","streetKana":"ｲｶﾂﾞﾁ","prefecture":"新潟県","city":"村上市","street":"雷"},{"zipCode":"9593901","prefectureKana":"ﾆｲｶﾞﾀｹﾝ","cityKana":"ﾑﾗｶﾐｼ","streetKana":"ｲｸﾞﾚﾉ","prefecture":"新潟県","city":"村上市","street":"伊呉野"},{"zipCode":"9593663","prefectureKana":"ﾆｲｶﾞﾀｹﾝ","cityKana":"ﾑﾗｶﾐｼ","streetKana":"ｲﾀｶﾞｲ","prefecture":"新潟県","city":"村上市","street":"板貝"},{"zipCode":"9593937","prefectureKana":"ﾆｲｶﾞﾀｹﾝ","cityKana":"ﾑﾗｶﾐｼ","streetKana":"ｲﾀﾔｻﾜ","prefecture":"新潟県","city":"村上市","street":"板屋沢"},{"zipCode":"9593662","prefectureKana":"ﾆｲｶﾞﾀｹﾝ","cityKana":"ﾑﾗｶﾐｼ","streetKana":"ｲﾏｶﾞﾜ","prefecture":"新潟県","city":"村上市","street":"今川"},{"zipCode":"9593416","prefectureKana":"ﾆｲｶﾞﾀｹﾝ","cityKana":"ﾑﾗｶﾐｼ","streetKana":"ｲﾏｼﾞｭｸ","prefecture":"新潟県","city":"村上市","street":"今宿"},{"zipCode":"9593903","prefectureKana":"ﾆｲｶﾞﾀｹﾝ","cityKana":"ﾑﾗｶﾐｼ","streetKana":"ｲﾜｻｷ","prefecture":"新潟県","city":"村上市","street":"岩崎"},{"zipCode":"9593426","prefectureKana":"ﾆｲｶﾞﾀｹﾝ","cityKana":"ﾑﾗｶﾐｼ","streetKana":"ｲﾜﾉｻﾜ","prefecture":"新潟県","city":"村上市","street":"岩野沢"},{"zipCode":"9593449","prefectureKana":"ﾆｲｶﾞﾀｹﾝ","cityKana":"ﾑﾗｶﾐｼ","streetKana":"ｲﾜﾌﾈｴｷﾏｴ","prefecture":"新潟県","city":"村上市","street":"岩船駅前"},{"zipCode":"9593436","prefectureKana":"ﾆｲｶﾞﾀｹﾝ","cityKana":"ﾑﾗｶﾐｼ","streetKana":"ｳｼﾔ","prefecture":"新潟県","city":"村上市","street":"牛屋"},{"zipCode":"9593947","prefectureKana":"ﾆｲｶﾞﾀｹﾝ","cityKana":"ﾑﾗｶﾐｼ","streetKana":"ｳﾄﾞﾏﾘ","prefecture":"新潟県","city":"村上市","street":"鵜泊"},{"zipCode":"9593117","prefectureKana":"ﾆｲｶﾞﾀｹﾝ","cityKana":"ﾑﾗｶﾐｼ","streetKana":"ｴﾋﾞｴ","prefecture":"新潟県","city":"村上市","street":"海老江"},{"zipCode":"9593926","prefectureKana":"ﾆｲｶﾞﾀｹﾝ","cityKana":"ﾑﾗｶﾐｼ","streetKana":"ｵｵｺﾞﾄ","prefecture":"新潟県","city":"村上市","street":"大毎"},{"zipCode":"9593925","prefectureKana":"ﾆｲｶﾞﾀｹﾝ","cityKana":"ﾑﾗｶﾐｼ","streetKana":"ｵｵｻﾜ","prefecture":"新潟県","city":"村上市","street":"大沢"},{"zipCode":"9593915","prefectureKana":"ﾆｲｶﾞﾀｹﾝ","cityKana":"ﾑﾗｶﾐｼ","streetKana":"ｵｵﾀﾞｲ","prefecture":"新潟県","city":"村上市","street":"大代"},{"zipCode":"9593906","prefectureKana":"ﾆｲｶﾞﾀｹﾝ","cityKana":"ﾑﾗｶﾐｼ","streetKana":"ｵｵﾀﾆｻﾞﾜ","prefecture":"新潟県","city":"村上市","street":"大谷沢"},{"zipCode":"9593122","prefectureKana":"ﾆｲｶﾞﾀｹﾝ","cityKana":"ﾑﾗｶﾐｼ","streetKana":"ｵｵﾂ","prefecture":"新潟県","city":"村上市","street":"大津"},{"zipCode":"9593415","prefectureKana":"ﾆｲｶﾞﾀｹﾝ","cityKana":"ﾑﾗｶﾐｼ","streetKana":"ｵｵﾂｶ","prefecture":"新潟県","city":"村上市","street":"大塚"},{"zipCode":"9593912","prefectureKana":"ﾆｲｶﾞﾀｹﾝ","cityKana":"ﾑﾗｶﾐｼ","streetKana":"ｵｿﾉｺﾞｳ","prefecture":"新潟県","city":"村上市","street":"遅郷"},{"zipCode":"9593914","prefectureKana":"ﾆｲｶﾞﾀｹﾝ","cityKana":"ﾑﾗｶﾐｼ","streetKana":"ｵﾏﾀ","prefecture":"新潟県","city":"村上市","street":"小俣"},{"zipCode":"9593102","prefectureKana":"ﾆｲｶﾞﾀｹﾝ","cityKana":"ﾑﾗｶﾐｼ","streetKana":"ｶｲﾂｹ","prefecture":"新潟県","city":"村上市","street":"貝附"},{"zipCode":"9593932","prefectureKana":"ﾆｲｶﾞﾀｹﾝ","cityKana":"ﾑﾗｶﾐｼ","streetKana":"ｶｷﾉｳﾁ","prefecture":"新潟県","city":"村上市","street":"垣之内"},{"zipCode":"9593448","prefectureKana":"ﾆｲｶﾞﾀｹﾝ","cityKana":"ﾑﾗｶﾐｼ","streetKana":"ｶﾀﾊﾞﾀ","prefecture":"新潟県","city":"村上市","street":"潟端"},{"zipCode":"9593942","prefectureKana":"ﾆｲｶﾞﾀｹﾝ","cityKana":"ﾑﾗｶﾐｼ","streetKana":"ｶﾞﾂｷﾞ","prefecture":"新潟県","city":"村上市","street":"勝木"},{"zipCode":"9593124","prefectureKana":"ﾆｲｶﾞﾀｹﾝ","cityKana":"ﾑﾗｶﾐｼ","streetKana":"ｶﾅﾔ","prefecture":"新潟県","city":"村上市","street":"金屋"},{"zipCode":"9593948","prefectureKana":"ﾆｲｶﾞﾀｹﾝ","cityKana":"ﾑﾗｶﾐｼ","streetKana":"ｶﾐｵｵｸﾗ","prefecture":"新潟県","city":"村上市","street":"上大蔵"},{"zipCode":"9593934","prefectureKana":"ﾆｲｶﾞﾀｹﾝ","cityKana":"ﾑﾗｶﾐｼ","streetKana":"ｶﾐｵｵﾄﾘ","prefecture":"新潟県","city":"村上市","street":"上大鳥"},{"zipCode":"9593108","prefectureKana":"ﾆｲｶﾞﾀｹﾝ","cityKana":"ﾑﾗｶﾐｼ","streetKana":"ｶﾐｶｼﾞﾔ","prefecture":"新潟県","city":"村上市","street":"上鍜冶屋"},{"zipCode":"9593403","prefectureKana":"ﾆｲｶﾞﾀｹﾝ","cityKana":"ﾑﾗｶﾐｼ","streetKana":"ｶﾐｽｹﾌﾞﾁ","prefecture":"新潟県","city":"村上市","street":"上助渕"},{"zipCode":"9593417","prefectureKana":"ﾆｲｶﾞﾀｹﾝ","cityKana":"ﾑﾗｶﾐｼ","streetKana":"ｶﾜｳﾁ","prefecture":"新潟県","city":"村上市","street":"河内"},{"zipCode":"9593433","prefectureKana":"ﾆｲｶﾞﾀｹﾝ","cityKana":"ﾑﾗｶﾐｼ","streetKana":"ｶﾜﾍﾞ","prefecture":"新潟県","city":"村上市","street":"川部"},{"zipCode":"9593653","prefectureKana":"ﾆｲｶﾞﾀｹﾝ","cityKana":"ﾑﾗｶﾐｼ","streetKana":"ｶﾝｶﾞﾜ","prefecture":"新潟県","city":"村上市","street":"寒川"},{"zipCode":"9593913","prefectureKana":"ﾆｲｶﾞﾀｹﾝ","cityKana":"ﾑﾗｶﾐｼ","streetKana":"ｶﾞﾝｼﾞｷ","prefecture":"新潟県","city":"村上市","street":"岩石"},{"zipCode":"9593936","prefectureKana":"ﾆｲｶﾞﾀｹﾝ","cityKana":"ﾑﾗｶﾐｼ","streetKana":"ｷﾀｱｶﾀﾆ","prefecture":"新潟県","city":"村上市","street":"北赤谷"},{"zipCode":"9593924","prefectureKana":"ﾆｲｶﾞﾀｹﾝ","cityKana":"ﾑﾗｶﾐｼ","streetKana":"ｷﾀｸﾛｶﾜ","prefecture":"新潟県","city":"村上市","street":"北黒川"},{"zipCode":"9593443","prefectureKana":"ﾆｲｶﾞﾀｹﾝ","cityKana":"ﾑﾗｶﾐｼ","streetKana":"ｷﾀｼﾝﾎﾞ","prefecture":"新潟県","city":"村上市","street":"北新保"},{"zipCode":"9593935","prefectureKana":"ﾆｲｶﾞﾀｹﾝ","cityKana":"ﾑﾗｶﾐｼ","streetKana":"ｷﾀﾀﾅｶ","prefecture":"新潟県","city":"村上市","street":"北田中"},{"zipCode":"9593927","prefectureKana":"ﾆｲｶﾞﾀｹﾝ","cityKana":"ﾑﾗｶﾐｼ","streetKana":"ｷﾀﾅｶ","prefecture":"新潟県","city":"村上市","street":"北中"},{"zipCode":"9593106","prefectureKana":"ﾆｲｶﾞﾀｹﾝ","cityKana":"ﾑﾗｶﾐｼ","streetKana":"ｷｯﾀ","prefecture":"新潟県","city":"村上市","street":"切田"},{"zipCode":"9593665","prefectureKana":"ﾆｲｶﾞﾀｹﾝ","cityKana":"ﾑﾗｶﾐｼ","streetKana":"ｸﾜｶﾞﾜ","prefecture":"新潟県","city":"村上市","street":"桑川"},{"zipCode":"9593941","prefectureKana":"ﾆｲｶﾞﾀｹﾝ","cityKana":"ﾑﾗｶﾐｼ","streetKana":"ｺﾞｲｼ","prefecture":"新潟県","city":"村上市","street":"碁石"},{"zipCode":"9593413","prefectureKana":"ﾆｲｶﾞﾀｹﾝ","cityKana":"ﾑﾗｶﾐｼ","streetKana":"ｺｲﾃﾞ","prefecture":"新潟県","city":"村上市","street":"小出"},{"zipCode":"9593434","prefectureKana":"ﾆｲｶﾞﾀｹﾝ","cityKana":"ﾑﾗｶﾐｼ","streetKana":"ｺｲﾜｳﾁ","prefecture":"新潟県","city":"村上市","street":"小岩内"},{"zipCode":"9593652","prefectureKana":"ﾆｲｶﾞﾀｹﾝ","cityKana":"ﾑﾗｶﾐｼ","streetKana":"ｺｴｻﾜ","prefecture":"新潟県","city":"村上市","street":"越沢"},{"zipCode":"9593446","prefectureKana":"ﾆｲｶﾞﾀｹﾝ","cityKana":"ﾑﾗｶﾐｼ","streetKana":"ｺｸﾁｶﾞﾜ","prefecture":"新潟県","city":"村上市","street":"小口川"},{"zipCode":"9593423","prefectureKana":"ﾆｲｶﾞﾀｹﾝ","cityKana":"ﾑﾗｶﾐｼ","streetKana":"ｺｺﾉｶｲﾁ","prefecture":"新潟県","city":"村上市","street":"九日市"},{"zipCode":"9593132","prefectureKana":"ﾆｲｶﾞﾀｹﾝ","cityKana":"ﾑﾗｶﾐｼ","streetKana":"ｻｶﾏﾁ","prefecture":"新潟県","city":"村上市","street":"坂町"},{"zipCode":"9593664","prefectureKana":"ﾆｲｶﾞﾀｹﾝ","cityKana":"ﾑﾗｶﾐｼ","streetKana":"ｻｻｶﾞﾜ","prefecture":"新潟県","city":"村上市","street":"笹川"},{"zipCode":"9593121","prefectureKana":"ﾆｲｶﾞﾀｹﾝ","cityKana":"ﾑﾗｶﾐｼ","streetKana":"ｻｻｷ","prefecture":"新潟県","city":"村上市","street":"佐々木"},{"zipCode":"9593412","prefectureKana":"ﾆｲｶﾞﾀｹﾝ","cityKana":"ﾑﾗｶﾐｼ","streetKana":"ｻｼｱﾜｾ","prefecture":"新潟県","city":"村上市","street":"指合"},{"zipCode":"9593405","prefectureKana":"ﾆｲｶﾞﾀｹﾝ","cityKana":"ﾑﾗｶﾐｼ","streetKana":"ｻﾄﾎﾝｼﾞｮｳ","prefecture":"新潟県","city":"村上市","street":"里本庄"},{"zipCode":"9593441","prefectureKana":"ﾆｲｶﾞﾀｹﾝ","cityKana":"ﾑﾗｶﾐｼ","streetKana":"ｼｵﾔ","prefecture":"新潟県","city":"村上市","street":"塩谷"},{"zipCode":"9593402","prefectureKana":"ﾆｲｶﾞﾀｹﾝ","cityKana":"ﾑﾗｶﾐｼ","streetKana":"ｼﾀﾞﾉﾋﾗ","prefecture":"新潟県","city":"村上市","street":"志田平"},{"zipCode":"9593943","prefectureKana":"ﾆｲｶﾞﾀｹﾝ","cityKana":"ﾑﾗｶﾐｼ","streetKana":"ｼﾓｵｵｸﾗ","prefecture":"新潟県","city":"村上市","street":"下大蔵"},{"zipCode":"9593933","prefectureKana":"ﾆｲｶﾞﾀｹﾝ","cityKana":"ﾑﾗｶﾐｼ","streetKana":"ｼﾓｵｵﾄﾘ","prefecture":"新潟県","city":"村上市","street":"下大鳥"},{"zipCode":"9593107","prefectureKana":"ﾆｲｶﾞﾀｹﾝ","cityKana":"ﾑﾗｶﾐｼ","streetKana":"ｼﾓｶｼﾞﾔ","prefecture":"新潟県","city":"村上市","street":"下鍜冶屋"},{"zipCode":"9593406","prefectureKana":"ﾆｲｶﾞﾀｹﾝ","cityKana":"ﾑﾗｶﾐｼ","streetKana":"ｼﾓｽｹﾌﾞﾁ","prefecture":"新潟県","city":"村上市","street":"下助渕"},{"zipCode":"9593115","prefectureKana":"ﾆｲｶﾞﾀｹﾝ","cityKana":"ﾑﾗｶﾐｼ","streetKana":"ｼﾝｺｳｼﾞ","prefecture":"新潟県","city":"村上市","street":"新光寺"},{"zipCode":"9593911","prefectureKana":"ﾆｲｶﾞﾀｹﾝ","cityKana":"ﾑﾗｶﾐｼ","streetKana":"ｽｷﾞﾀｲﾗ","prefecture":"新潟県","city":"村上市","street":"杉平"},{"zipCode":"9593447","prefectureKana":"ﾆｲｶﾞﾀｹﾝ","cityKana":"ﾑﾗｶﾐｼ","streetKana":"ﾀｶﾐﾄﾞｳ","prefecture":"新潟県","city":"村上市","street":"高御堂"},{"zipCode":"9593944","prefectureKana":"ﾆｲｶﾞﾀｹﾝ","cityKana":"ﾑﾗｶﾐｼ","streetKana":"ﾀﾃｼﾏ","prefecture":"新潟県","city":"村上市","street":"立島"},{"zipCode":"9593432","prefectureKana":"ﾆｲｶﾞﾀｹﾝ","cityKana":"ﾑﾗｶﾐｼ","streetKana":"ﾂﾂﾞﾗﾔﾏ","prefecture":"新潟県","city":"村上市","street":"葛籠山"},{"zipCode":"9593919","prefectureKana":"ﾆｲｶﾞﾀｹﾝ","cityKana":"ﾑﾗｶﾐｼ","streetKana":"ﾄｳﾉｼﾀ","prefecture":"新潟県","city":"村上市","street":"塔下"},{"zipCode":"9593938","prefectureKana":"ﾆｲｶﾞﾀｹﾝ","cityKana":"ﾑﾗｶﾐｼ","streetKana":"ﾄｵﾔｻｷ","prefecture":"新潟県","city":"村上市","street":"遠矢崎"},{"zipCode":"9593407","prefectureKana":"ﾆｲｶﾞﾀｹﾝ","cityKana":"ﾑﾗｶﾐｼ","streetKana":"ﾄﾉｵｶ","prefecture":"新潟県","city":"村上市","street":"殿岡"},{"zipCode":"9593126","prefectureKana":"ﾆｲｶﾞﾀｹﾝ","cityKana":"ﾑﾗｶﾐｼ","streetKana":"ﾄﾘﾔ","prefecture":"新潟県","city":"村上市","street":"鳥屋"},{"zipCode":"9593123","prefectureKana":"ﾆｲｶﾞﾀｹﾝ","cityKana":"ﾑﾗｶﾐｼ","streetKana":"ﾅｶｸﾗ","prefecture":"新潟県","city":"村上市","street":"中倉"},{"zipCode":"9593931","prefectureKana":"ﾆｲｶﾞﾀｹﾝ","cityKana":"ﾑﾗｶﾐｼ","streetKana":"ﾅｶﾞｻｶ","prefecture":"新潟県","city":"村上市","street":"長坂"},{"zipCode":"9593918","prefectureKana":"ﾆｲｶﾞﾀｹﾝ","cityKana":"ﾑﾗｶﾐｼ","streetKana":"ﾅｶﾂｷﾞ","prefecture":"新潟県","city":"村上市","street":"中継"},{"zipCode":"9593928","prefectureKana":"ﾆｲｶﾞﾀｹﾝ","cityKana":"ﾑﾗｶﾐｼ","streetKana":"ﾅｶﾂﾊﾗ","prefecture":"新潟県","city":"村上市","street":"中津原"},{"zipCode":"9593112","prefectureKana":"ﾆｲｶﾞﾀｹﾝ","cityKana":"ﾑﾗｶﾐｼ","streetKana":"ﾅｶﾉ","prefecture":"新潟県","city":"村上市","street":"中野"},{"zipCode":"9593902","prefectureKana":"ﾆｲｶﾞﾀｹﾝ","cityKana":"ﾑﾗｶﾐｼ","streetKana":"ﾅｶﾊﾏ","prefecture":"新潟県","city":"村上市","street":"中浜"},{"zipCode":"9593111","prefectureKana":"ﾆｲｶﾞﾀｹﾝ","cityKana":"ﾑﾗｶﾐｼ","streetKana":"ﾅｶﾞﾏｻ","prefecture":"新潟県","city":"村上市","street":"長政"},{"zipCode":"9593442","prefectureKana":"ﾆｲｶﾞﾀｹﾝ","cityKana":"ﾑﾗｶﾐｼ","streetKana":"ﾅｶﾞﾏﾂ","prefecture":"新潟県","city":"村上市","street":"長松"},{"zipCode":"9593105","prefectureKana":"ﾆｲｶﾞﾀｹﾝ","cityKana":"ﾑﾗｶﾐｼ","streetKana":"ﾅｼﾉｷ","prefecture":"新潟県","city":"村上市","street":"梨木"},{"zipCode":"9593401","prefectureKana":"ﾆｲｶﾞﾀｹﾝ","cityKana":"ﾑﾗｶﾐｼ","streetKana":"ﾅﾅﾐﾅﾄ","prefecture":"新潟県","city":"村上市","street":"七湊"},{"zipCode":"9593113","prefectureKana":"ﾆｲｶﾞﾀｹﾝ","cityKana":"ﾑﾗｶﾐｼ","streetKana":"ﾅﾜﾘ","prefecture":"新潟県","city":"村上市","street":"名割"},{"zipCode":"9593445","prefectureKana":"ﾆｲｶﾞﾀｹﾝ","cityKana":"ﾑﾗｶﾐｼ","streetKana":"ﾆｲﾀﾞ","prefecture":"新潟県","city":"村上市","street":"新飯田"},{"zipCode":"9593904","prefectureKana":"ﾆｲｶﾞﾀｹﾝ","cityKana":"ﾑﾗｶﾐｼ","streetKana":"ﾇｸｲﾃﾞ","prefecture":"新潟県","city":"村上市","street":"温出"},{"zipCode":"9593946","prefectureKana":"ﾆｲｶﾞﾀｹﾝ","cityKana":"ﾑﾗｶﾐｼ","streetKana":"ﾈﾔ","prefecture":"新潟県","city":"村上市","street":"寝屋"},{"zipCode":"9593134","prefectureKana":"ﾆｲｶﾞﾀｹﾝ","cityKana":"ﾑﾗｶﾐｼ","streetKana":"ﾊｶﾞｴ","prefecture":"新潟県","city":"村上市","street":"羽ヶ榎"},{"zipCode":"9593101","prefectureKana":"ﾆｲｶﾞﾀｹﾝ","cityKana":"ﾑﾗｶﾐｼ","streetKana":"ﾊﾅﾀﾞﾃ","prefecture":"新潟県","city":"村上市","street":"花立"},{"zipCode":"9593666","prefectureKana":"ﾆｲｶﾞﾀｹﾝ","cityKana":"ﾑﾗｶﾐｼ","streetKana":"ﾊﾏｼﾝﾎﾞ","prefecture":"新潟県","city":"村上市","street":"浜新保"},{"zipCode":"9593104","prefectureKana":"ﾆｲｶﾞﾀｹﾝ","cityKana":"ﾑﾗｶﾐｼ","streetKana":"ﾊﾙｷﾔﾏ","prefecture":"新潟県","city":"村上市","street":"春木山"},{"zipCode":"9593431","prefectureKana":"ﾆｲｶﾞﾀｹﾝ","cityKana":"ﾑﾗｶﾐｼ","streetKana":"ﾋﾗﾊﾞﾔｼ","prefecture":"新潟県","city":"村上市","street":"平林"},{"zipCode":"9593437","prefectureKana":"ﾆｲｶﾞﾀｹﾝ","cityKana":"ﾑﾗｶﾐｼ","streetKana":"ﾌｸﾀﾞ","prefecture":"新潟県","city":"村上市","street":"福田"},{"zipCode":"9593131","prefectureKana":"ﾆｲｶﾞﾀｹﾝ","cityKana":"ﾑﾗｶﾐｼ","streetKana":"ﾌｼﾞｻﾜ","prefecture":"新潟県","city":"村上市","street":"藤沢"},{"zipCode":"9593907","prefectureKana":"ﾆｲｶﾞﾀｹﾝ","cityKana":"ﾑﾗｶﾐｼ","streetKana":"ﾌﾔ","prefecture":"新潟県","city":"村上市","street":"府屋"},{"zipCode":"9593922","prefectureKana":"ﾆｲｶﾞﾀｹﾝ","cityKana":"ﾑﾗｶﾐｼ","streetKana":"ﾎｳﾀﾞｲﾗ","prefecture":"新潟県","city":"村上市","street":"朴平"},{"zipCode":"9593905","prefectureKana":"ﾆｲｶﾞﾀｹﾝ","cityKana":"ﾑﾗｶﾐｼ","streetKana":"ﾎﾘﾉｳﾁ","prefecture":"新潟県","city":"村上市","street":"堀ノ内"},{"zipCode":"9593424","prefectureKana":"ﾆｲｶﾞﾀｹﾝ","cityKana":"ﾑﾗｶﾐｼ","streetKana":"ﾏｷﾉﾒ","prefecture":"新潟県","city":"村上市","street":"牧目"},{"zipCode":"9593945","prefectureKana":"ﾆｲｶﾞﾀｹﾝ","cityKana":"ﾑﾗｶﾐｼ","streetKana":"ﾏｾﾞ","prefecture":"新潟県","city":"村上市","street":"間瀬"},{"zipCode":"9593428","prefectureKana":"ﾆｲｶﾞﾀｹﾝ","cityKana":"ﾑﾗｶﾐｼ","streetKana":"ﾏﾂｷﾜ","prefecture":"新潟県","city":"村上市","street":"松喜和"},{"zipCode":"9593427","prefectureKana":"ﾆｲｶﾞﾀｹﾝ","cityKana":"ﾑﾗｶﾐｼ","streetKana":"ﾏﾂｻﾞﾜ","prefecture":"新潟県","city":"村上市","street":"松沢"},{"zipCode":"9593411","prefectureKana":"ﾆｲｶﾞﾀｹﾝ","cityKana":"ﾑﾗｶﾐｼ","streetKana":"ﾐﾅﾐｵｵﾀﾞｲﾗ","prefecture":"新潟県","city":"村上市","street":"南大平"},{"zipCode":"9593114","prefectureKana":"ﾆｲｶﾞﾀｹﾝ","cityKana":"ﾑﾗｶﾐｼ","streetKana":"ﾐﾅﾐｼﾝﾎﾞ","prefecture":"新潟県","city":"村上市","street":"南新保"},{"zipCode":"9593444","prefectureKana":"ﾆｲｶﾞﾀｹﾝ","cityKana":"ﾑﾗｶﾐｼ","streetKana":"ﾐﾅﾐﾀﾅｶ","prefecture":"新潟県","city":"村上市","street":"南田中"},{"zipCode":"9593421","prefectureKana":"ﾆｲｶﾞﾀｹﾝ","cityKana":"ﾑﾗｶﾐｼ","streetKana":"ﾓﾓｶﾜ","prefecture":"新潟県","city":"村上市","street":"桃川"},{"zipCode":"9593435","prefectureKana":"ﾆｲｶﾞﾀｹﾝ","cityKana":"ﾑﾗｶﾐｼ","streetKana":"ﾔｽﾞﾀ","prefecture":"新潟県","city":"村上市","street":"宿田"},{"zipCode":"9593133","prefectureKana":"ﾆｲｶﾞﾀｹﾝ","cityKana":"ﾑﾗｶﾐｼ","streetKana":"ﾔﾏｸﾞﾁ","prefecture":"新潟県","city":"村上市","street":"山口"},{"zipCode":"9593917","prefectureKana":"ﾆｲｶﾞﾀｹﾝ","cityKana":"ﾑﾗｶﾐｼ","streetKana":"ﾔﾏｸﾏﾀ","prefecture":"新潟県","city":"村上市","street":"山熊田"},{"zipCode":"9593425","prefectureKana":"ﾆｲｶﾞﾀｹﾝ","cityKana":"ﾑﾗｶﾐｼ","streetKana":"ﾔﾏﾀﾞ","prefecture":"新潟県","city":"村上市","street":"山田"},{"zipCode":"9593404","prefectureKana":"ﾆｲｶﾞﾀｹﾝ","cityKana":"ﾑﾗｶﾐｼ","streetKana":"ﾔﾏﾔ","prefecture":"新潟県","city":"村上市","street":"山屋"},{"zipCode":"9593661","prefectureKana":"ﾆｲｶﾞﾀｹﾝ","cityKana":"ﾑﾗｶﾐｼ","streetKana":"ﾜｷｶﾞﾜ","prefecture":"新潟県","city":"村上市","street":"脇川"},{"zipCode":"9591200","prefectureKana":"ﾆｲｶﾞﾀｹﾝ","cityKana":"ﾂﾊﾞﾒｼ","streetKana":"ｲｶﾆｹｲｻｲｶﾞﾅｲﾊﾞｱｲ","prefecture":"新潟県","city":"燕市","street":"以下に掲載がない場合"},{"zipCode":"9590227","prefectureKana":"ﾆｲｶﾞﾀｹﾝ","cityKana":"ﾂﾊﾞﾒｼ","streetKana":"ｱｵｳﾂﾞ","prefecture":"新潟県","city":"燕市","street":"粟生津"},{"zipCode":"9591261","prefectureKana":"ﾆｲｶﾞﾀｹﾝ","cityKana":"ﾂﾊﾞﾒｼ","streetKana":"ｱｷﾊﾞﾁｮｳ","prefecture":"新潟県","city":"燕市","street":"秋葉町"},{"zipCode":"9590131","prefectureKana":"ﾆｲｶﾞﾀｹﾝ","cityKana":"ﾂﾊﾞﾒｼ","streetKana":"ｲｽﾞﾐｼﾝ","prefecture":"新潟県","city":"燕市","street":"泉新"},{"zipCode":"9590114","prefectureKana":"ﾆｲｶﾞﾀｹﾝ","cityKana":"ﾂﾊﾞﾒｼ","streetKana":"ｲﾁﾉﾔﾏ","prefecture":"新潟県","city":"燕市","street":"一ノ山"},{"zipCode":"9591232","prefectureKana":"ﾆｲｶﾞﾀｹﾝ","cityKana":"ﾂﾊﾞﾒｼ","streetKana":"ｲﾄﾞﾏｷ","prefecture":"新潟県","city":"燕市","street":"井土巻"},{"zipCode":"9590113","prefectureKana":"ﾆｲｶﾞﾀｹﾝ","cityKana":"ﾂﾊﾞﾒｼ","streetKana":"ｵｲｶﾞｼﾏ","prefecture":"新潟県","city":"燕市","street":"笈ケ島"},{"zipCode":"9590123","prefectureKana":"ﾆｲｶﾞﾀｹﾝ","cityKana":"ﾂﾊﾞﾒｼ","streetKana":"ｵｵｶﾜﾂﾞ","prefecture":"新潟県","city":"燕市","street":"大川津"},{"zipCode":"9591287","prefectureKana":"ﾆｲｶﾞﾀｹﾝ","cityKana":"ﾂﾊﾞﾒｼ","streetKana":"ｵｵｾｷ","prefecture":"新潟県","city":"燕市","street":"大関"},{"zipCode":"9590108","prefectureKana":"ﾆｲｶﾞﾀｹﾝ","cityKana":"ﾂﾊﾞﾒｼ","streetKana":"ｵｵﾀ","prefecture":"新潟県","city":"燕市","street":"太田"},{"zipCode":"9590122","prefectureKana":"ﾆｲｶﾞﾀｹﾝ","cityKana":"ﾂﾊﾞﾒｼ","streetKana":"ｵｵﾀｹｼﾝﾃﾞﾝ","prefecture":"新潟県","city":"燕市","street":"大武新田"},{"zipCode":"9591212","prefectureKana":"ﾆｲｶﾞﾀｹﾝ","cityKana":"ﾂﾊﾞﾒｼ","streetKana":"ｵｵﾌﾅﾄ","prefecture":"新潟県","city":"燕市","street":"大船渡"},{"zipCode":"9591263","prefectureKana":"ﾆｲｶﾞﾀｹﾝ","cityKana":"ﾂﾊﾞﾒｼ","streetKana":"ｵｵﾏｶﾞﾘ","prefecture":"新潟県","city":"燕市","street":"大曲"},{"zipCode":"9590207","prefectureKana":"ﾆｲｶﾞﾀｹﾝ","cityKana":"ﾂﾊﾞﾒｼ","streetKana":"ｶﾈﾂﾞｶ","prefecture":"新潟県","city":"燕市","street":"庚塚"},{"zipCode":"9590225","prefectureKana":"ﾆｲｶﾞﾀｹﾝ","cityKana":"ﾂﾊﾞﾒｼ","streetKana":"ｶﾐｶﾞﾜﾗ","prefecture":"新潟県","city":"燕市","street":"上河原"},{"zipCode":"9590181","prefectureKana":"ﾆｲｶﾞﾀｹﾝ","cityKana":"ﾂﾊﾞﾒｼ","streetKana":"ｶﾐｽﾜ","prefecture":"新潟県","city":"燕市","street":"上諏訪"},{"zipCode":"9591223","prefectureKana":"ﾆｲｶﾞﾀｹﾝ","cityKana":"ﾂﾊﾞﾒｼ","streetKana":"ｶﾐﾁｺﾞﾉｷ","prefecture":"新潟県","city":"燕市","street":"上児木"},{"zipCode":"9591217","prefectureKana":"ﾆｲｶﾞﾀｹﾝ","cityKana":"ﾂﾊﾞﾒｼ","streetKana":"ｶﾝｼﾝ","prefecture":"新潟県","city":"燕市","street":"勘新"},{"zipCode":"9590136","prefectureKana":"ﾆｲｶﾞﾀｹﾝ","cityKana":"ﾂﾊﾞﾒｼ","streetKana":"ｸｶﾞﾐ","prefecture":"新潟県","city":"燕市","street":"国上"},{"zipCode":"9590112","prefectureKana":"ﾆｲｶﾞﾀｹﾝ","cityKana":"ﾂﾊﾞﾒｼ","streetKana":"ｸﾏﾉﾓﾘ","prefecture":"新潟県","city":"燕市","street":"熊森"},{"zipCode":"9591271","prefectureKana":"ﾆｲｶﾞﾀｹﾝ","cityKana":"ﾂﾊﾞﾒｼ","streetKana":"ｸﾗｾｷ","prefecture":"新潟県","city":"燕市","street":"蔵関"},{"zipCode":"9590137","prefectureKana":"ﾆｲｶﾞﾀｹﾝ","cityKana":"ﾂﾊﾞﾒｼ","streetKana":"ｹﾞﾝﾊﾟﾁｼﾝﾃﾞﾝ","prefecture":"新潟県","city":"燕市","street":"源八新田"},{"zipCode":"9591276","prefectureKana":"ﾆｲｶﾞﾀｹﾝ","cityKana":"ﾂﾊﾞﾒｼ","streetKana":"ｺｲｹ","prefecture":"新潟県","city":"燕市","street":"小池"},{"zipCode":"9591275","prefectureKana":"ﾆｲｶﾞﾀｹﾝ","cityKana":"ﾂﾊﾞﾒｼ","streetKana":"ｺｲｹｼﾝﾏﾁ","prefecture":"新潟県","city":"燕市","street":"小池新町"},{"zipCode":"9591256","prefectureKana":"ﾆｲｶﾞﾀｹﾝ","cityKana":"ﾂﾊﾞﾒｼ","streetKana":"ｺｸﾁｮｳ","prefecture":"新潟県","city":"燕市","street":"穀町"},{"zipCode":"9590203","prefectureKana":"ﾆｲｶﾞﾀｹﾝ","cityKana":"ﾂﾊﾞﾒｼ","streetKana":"ｺｼﾞﾏ","prefecture":"新潟県","city":"燕市","street":"小島"},{"zipCode":"9591286","prefectureKana":"ﾆｲｶﾞﾀｹﾝ","cityKana":"ﾂﾊﾞﾒｼ","streetKana":"ｺｾｷ","prefecture":"新潟県","city":"燕市","street":"小関"},{"zipCode":"9590124","prefectureKana":"ﾆｲｶﾞﾀｹﾝ","cityKana":"ﾂﾊﾞﾒｼ","streetKana":"ｺﾞｾﾝｺﾞｸ","prefecture":"新潟県","city":"燕市","street":"五千石"},{"zipCode":"9590124","prefectureKana":"ﾆｲｶﾞﾀｹﾝ","cityKana":"ﾂﾊﾞﾒｼ","streetKana":"ｺﾞｾﾝｺﾞｸｱﾗｶﾜ","prefecture":"新潟県","city":"燕市","street":"五千石荒川"},{"zipCode":"9591241","prefectureKana":"ﾆｲｶﾞﾀｹﾝ","cityKana":"ﾂﾊﾞﾒｼ","streetKana":"ｺﾀｶ","prefecture":"新潟県","city":"燕市","street":"小高"},{"zipCode":"9591252","prefectureKana":"ﾆｲｶﾞﾀｹﾝ","cityKana":"ﾂﾊﾞﾒｼ","streetKana":"ｺﾄﾌﾞｷﾁｮｳ","prefecture":"新潟県","city":"燕市","street":"寿町"},{"zipCode":"9591211","prefectureKana":"ﾆｲｶﾞﾀｹﾝ","cityKana":"ﾂﾊﾞﾒｼ","streetKana":"ｺﾅｶｶﾞﾜ","prefecture":"新潟県","city":"燕市","street":"小中川"},{"zipCode":"9591213","prefectureKana":"ﾆｲｶﾞﾀｹﾝ","cityKana":"ﾂﾊﾞﾒｼ","streetKana":"ｺﾌﾙﾂｼﾝ","prefecture":"新潟県","city":"燕市","street":"小古津新"},{"zipCode":"9591226","prefectureKana":"ﾆｲｶﾞﾀｹﾝ","cityKana":"ﾂﾊﾞﾒｼ","streetKana":"ｺﾏｷ","prefecture":"新潟県","city":"燕市","street":"小牧"},{"zipCode":"9591254","prefectureKana":"ﾆｲｶﾞﾀｹﾝ","cityKana":"ﾂﾊﾞﾒｼ","streetKana":"ｻｲﾜｲﾁｮｳ","prefecture":"新潟県","city":"燕市","street":"幸町"},{"zipCode":"9591281","prefectureKana":"ﾆｲｶﾞﾀｹﾝ","cityKana":"ﾂﾊﾞﾒｼ","streetKana":"ｻｸﾗﾏﾁ","prefecture":"新潟県","city":"燕市","street":"桜町"},{"zipCode":"9590117","prefectureKana":"ﾆｲｶﾞﾀｹﾝ","cityKana":"ﾂﾊﾞﾒｼ","streetKana":"ｻｻﾏｶﾞﾘ","prefecture":"新潟県","city":"燕市","street":"笹曲"},{"zipCode":"9590101","prefectureKana":"ﾆｲｶﾞﾀｹﾝ","cityKana":"ﾂﾊﾞﾒｼ","streetKana":"ｻｾﾞﾝ","prefecture":"新潟県","city":"燕市","street":"佐善"},{"zipCode":"9590202","prefectureKana":"ﾆｲｶﾞﾀｹﾝ","cityKana":"ﾂﾊﾞﾒｼ","streetKana":"ｻﾄﾞﾔﾏ","prefecture":"新潟県","city":"燕市","street":"佐渡山"},{"zipCode":"9591228","prefectureKana":"ﾆｲｶﾞﾀｹﾝ","cityKana":"ﾂﾊﾞﾒｼ","streetKana":"ｻﾜﾀﾘ","prefecture":"新潟県","city":"燕市","street":"佐渡"},{"zipCode":"9591207","prefectureKana":"ﾆｲｶﾞﾀｹﾝ","cityKana":"ﾂﾊﾞﾒｼ","streetKana":"ｻﾝﾉｳﾌﾁ","prefecture":"新潟県","city":"燕市","street":"三王渕"},{"zipCode":"9590121","prefectureKana":"ﾆｲｶﾞﾀｹﾝ","cityKana":"ﾂﾊﾞﾒｼ","streetKana":"ｼﾞｿﾞｳﾄﾞｳ","prefecture":"新潟県","city":"燕市","street":"地蔵堂"},{"zipCode":"9590129","prefectureKana":"ﾆｲｶﾞﾀｹﾝ","cityKana":"ﾂﾊﾞﾒｼ","streetKana":"ｼﾞｿﾞｳﾄﾞｳﾎﾝﾁｮｳ","prefecture":"新潟県","city":"燕市","street":"地蔵堂本町"},{"zipCode":"9590222","prefectureKana":"ﾆｲｶﾞﾀｹﾝ","cityKana":"ﾂﾊﾞﾒｼ","streetKana":"ｼﾓｱｵｳﾂﾞ","prefecture":"新潟県","city":"燕市","street":"下粟生津"},{"zipCode":"9590183","prefectureKana":"ﾆｲｶﾞﾀｹﾝ","cityKana":"ﾂﾊﾞﾒｼ","streetKana":"ｼﾓｽﾜ","prefecture":"新潟県","city":"燕市","street":"下諏訪"},{"zipCode":"9591223","prefectureKana":"ﾆｲｶﾞﾀｹﾝ","cityKana":"ﾂﾊﾞﾒｼ","streetKana":"ｼﾓﾁｺﾞﾉｷ","prefecture":"新潟県","city":"燕市","street":"下児木"},{"zipCode":"9591246","prefectureKana":"ﾆｲｶﾞﾀｹﾝ","cityKana":"ﾂﾊﾞﾒｼ","streetKana":"ｼﾝｴｲﾁｮｳ","prefecture":"新潟県","city":"燕市","street":"新栄町"},{"zipCode":"9590116","prefectureKana":"ﾆｲｶﾞﾀｹﾝ","cityKana":"ﾂﾊﾞﾒｼ","streetKana":"ｼﾝｺｳﾔ","prefecture":"新潟県","city":"燕市","street":"新興野"},{"zipCode":"9591214","prefectureKana":"ﾆｲｶﾞﾀｹﾝ","cityKana":"ﾂﾊﾞﾒｼ","streetKana":"ｼﾝｾｲﾁｮｳ","prefecture":"新潟県","city":"燕市","street":"新生町"},{"zipCode":"9590125","prefectureKana":"ﾆｲｶﾞﾀｹﾝ","cityKana":"ﾂﾊﾞﾒｼ","streetKana":"ｼﾝﾁｮｳ","prefecture":"新潟県","city":"燕市","street":"新長"},{"zipCode":"9591255","prefectureKana":"ﾆｲｶﾞﾀｹﾝ","cityKana":"ﾂﾊﾞﾒｼ","streetKana":"ｼﾝﾏﾁ","prefecture":"新潟県","city":"燕市","street":"新町"},{"zipCode":"9591262","prefectureKana":"ﾆｲｶﾞﾀｹﾝ","cityKana":"ﾂﾊﾞﾒｼ","streetKana":"ｽｲﾄﾞｳﾁｮｳ","prefecture":"新潟県","city":"燕市","street":"水道町"},{"zipCode":"9591273","prefectureKana":"ﾆｲｶﾞﾀｹﾝ","cityKana":"ﾂﾊﾞﾒｼ","streetKana":"ｽｷﾞﾅ","prefecture":"新潟県","city":"燕市","street":"杉名"},{"zipCode":"9591272","prefectureKana":"ﾆｲｶﾞﾀｹﾝ","cityKana":"ﾂﾊﾞﾒｼ","streetKana":"ｽｷﾞﾔﾅｷﾞ","prefecture":"新潟県","city":"燕市","street":"杉柳"},{"zipCode":"9590205","prefectureKana":"ﾆｲｶﾞﾀｹﾝ","cityKana":"ﾂﾊﾞﾒｼ","streetKana":"ｽｽﾞﾒﾓﾘ","prefecture":"新潟県","city":"燕市","street":"雀森"},{"zipCode":"9590103","prefectureKana":"ﾆｲｶﾞﾀｹﾝ","cityKana":"ﾂﾊﾞﾒｼ","streetKana":"ｽﾅｺﾂｶ","prefecture":"新潟県","city":"燕市","street":"砂子塚"},{"zipCode":"9591206","prefectureKana":"ﾆｲｶﾞﾀｹﾝ","cityKana":"ﾂﾊﾞﾒｼ","streetKana":"ｾｷｻｷ","prefecture":"新潟県","city":"燕市","street":"関崎"},{"zipCode":"9591284","prefectureKana":"ﾆｲｶﾞﾀｹﾝ","cityKana":"ﾂﾊﾞﾒｼ","streetKana":"ｿﾏｷﾞ","prefecture":"新潟県","city":"燕市","street":"杣木"},{"zipCode":"9590208","prefectureKana":"ﾆｲｶﾞﾀｹﾝ","cityKana":"ﾂﾊﾞﾒｼ","streetKana":"ﾀﾞｲﾎﾞ","prefecture":"新潟県","city":"燕市","street":"大保"},{"zipCode":"9590228","prefectureKana":"ﾆｲｶﾞﾀｹﾝ","cityKana":"ﾂﾊﾞﾒｼ","streetKana":"ﾀｶｷ","prefecture":"新潟県","city":"燕市","street":"高木"},{"zipCode":"9591203","prefectureKana":"ﾆｲｶﾞﾀｹﾝ","cityKana":"ﾂﾊﾞﾒｼ","streetKana":"ﾀﾃﾉ","prefecture":"新潟県","city":"燕市","street":"舘野"},{"zipCode":"9590223","prefectureKana":"ﾆｲｶﾞﾀｹﾝ","cityKana":"ﾂﾊﾞﾒｼ","streetKana":"ﾀﾅｶｼﾝ","prefecture":"新潟県","city":"燕市","street":"田中新"},{"zipCode":"9591244","prefectureKana":"ﾆｲｶﾞﾀｹﾝ","cityKana":"ﾂﾊﾞﾒｼ","streetKana":"ﾁｭｳｵｳﾄﾞｵﾘ","prefecture":"新潟県","city":"燕市","street":"中央通"},{"zipCode":"9591204","prefectureKana":"ﾆｲｶﾞﾀｹﾝ","cityKana":"ﾂﾊﾞﾒｼ","streetKana":"ﾁｮｳｼｮ","prefecture":"新潟県","city":"燕市","street":"長所"},{"zipCode":"9590139","prefectureKana":"ﾆｲｶﾞﾀｹﾝ","cityKana":"ﾂﾊﾞﾒｼ","streetKana":"ﾁｮｳｼﾝ","prefecture":"新潟県","city":"燕市","street":"長辰"},{"zipCode":"9591222","prefectureKana":"ﾆｲｶﾞﾀｹﾝ","cityKana":"ﾂﾊﾞﾒｼ","streetKana":"ﾂｷﾞｼﾝ","prefecture":"新潟県","city":"燕市","street":"次新"},{"zipCode":"9591288","prefectureKana":"ﾆｲｶﾞﾀｹﾝ","cityKana":"ﾂﾊﾞﾒｼ","streetKana":"ﾂﾊﾞﾒ","prefecture":"新潟県","city":"燕市","street":"燕"},{"zipCode":"9591265","prefectureKana":"ﾆｲｶﾞﾀｹﾝ","cityKana":"ﾂﾊﾞﾒｼ","streetKana":"ﾄﾞｳｷﾝ","prefecture":"新潟県","city":"燕市","street":"道金"},{"zipCode":"9591233","prefectureKana":"ﾆｲｶﾞﾀｹﾝ","cityKana":"ﾂﾊﾞﾒｼ","streetKana":"ﾄﾉｼﾏ","prefecture":"新潟県","city":"燕市","street":"殿島"},{"zipCode":"9590211","prefectureKana":"ﾆｲｶﾞﾀｹﾝ","cityKana":"ﾂﾊﾞﾒｼ","streetKana":"ﾄﾐﾅｶﾞ","prefecture":"新潟県","city":"燕市","street":"富永"},{"zipCode":"9590212","prefectureKana":"ﾆｲｶﾞﾀｹﾝ","cityKana":"ﾂﾊﾞﾒｼ","streetKana":"ﾄﾐﾅｶﾞｼﾞｭｳﾍﾞｴｼﾝﾃﾞﾝ","prefecture":"新潟県","city":"燕市","street":"富永十兵衛新田"},{"zipCode":"9591225","prefectureKana":"ﾆｲｶﾞﾀｹﾝ","cityKana":"ﾂﾊﾞﾒｼ","streetKana":"ﾅｶｶﾞﾜ","prefecture":"新潟県","city":"燕市","street":"中川"},{"zipCode":"9590105","prefectureKana":"ﾆｲｶﾞﾀｹﾝ","cityKana":"ﾂﾊﾞﾒｼ","streetKana":"ﾅｶｼﾞﾏ","prefecture":"新潟県","city":"燕市","street":"中島"},{"zipCode":"9590182","prefectureKana":"ﾆｲｶﾞﾀｹﾝ","cityKana":"ﾂﾊﾞﾒｼ","streetKana":"ﾅｶｽﾜ","prefecture":"新潟県","city":"燕市","street":"中諏訪"},{"zipCode":"9591258","prefectureKana":"ﾆｲｶﾞﾀｹﾝ","cityKana":"ﾂﾊﾞﾒｼ","streetKana":"ﾅｶﾏﾁ","prefecture":"新潟県","city":"燕市","street":"仲町"},{"zipCode":"9591205","prefectureKana":"ﾆｲｶﾞﾀｹﾝ","cityKana":"ﾂﾊﾞﾒｼ","streetKana":"ﾅｶﾞﾜﾀﾘ","prefecture":"新潟県","city":"燕市","street":"長渡"},{"zipCode":"9590133","prefectureKana":"ﾆｲｶﾞﾀｹﾝ","cityKana":"ﾂﾊﾞﾒｼ","streetKana":"ﾆｲﾎﾞﾘ","prefecture":"新潟県","city":"燕市","street":"新堀"},{"zipCode":"9591216","prefectureKana":"ﾆｲｶﾞﾀｹﾝ","cityKana":"ﾂﾊﾞﾒｼ","streetKana":"ﾆｶｲﾄﾞｳ","prefecture":"新潟県","city":"燕市","street":"二階堂"},{"zipCode":"9590201","prefectureKana":"ﾆｲｶﾞﾀｹﾝ","cityKana":"ﾂﾊﾞﾒｼ","streetKana":"ﾆｼﾏｷﾞ","prefecture":"新潟県","city":"燕市","street":"西槇"},{"zipCode":"9590126","prefectureKana":"ﾆｲｶﾞﾀｹﾝ","cityKana":"ﾂﾊﾞﾒｼ","streetKana":"ﾉﾅｶｻｲ","prefecture":"新潟県","city":"燕市","street":"野中才"},{"zipCode":"9590224","prefectureKana":"ﾆｲｶﾞﾀｹﾝ","cityKana":"ﾂﾊﾞﾒｼ","streetKana":"ﾉﾓﾄ","prefecture":"新潟県","city":"燕市","street":"野本"},{"zipCode":"9591201","prefectureKana":"ﾆｲｶﾞﾀｹﾝ","cityKana":"ﾂﾊﾞﾒｼ","streetKana":"ﾊｲｶﾞﾀ","prefecture":"新潟県","city":"燕市","street":"灰方"},{"zipCode":"9591251","prefectureKana":"ﾆｲｶﾞﾀｹﾝ","cityKana":"ﾂﾊﾞﾒｼ","streetKana":"ﾊｸｻﾝﾁｮｳ","prefecture":"新潟県","city":"燕市","street":"白山町"},{"zipCode":"9591264","prefectureKana":"ﾆｲｶﾞﾀｹﾝ","cityKana":"ﾂﾊﾞﾒｼ","streetKana":"ﾊﾁｵｳｼﾞ","prefecture":"新潟県","city":"燕市","street":"八王寺"},{"zipCode":"9591221","prefectureKana":"ﾆｲｶﾞﾀｹﾝ","cityKana":"ﾂﾊﾞﾒｼ","streetKana":"ﾊﾅｿﾞﾉﾁｮｳ","prefecture":"新潟県","city":"燕市","street":"花園町"},{"zipCode":"9591280","prefectureKana":"ﾆｲｶﾞﾀｹﾝ","cityKana":"ﾂﾊﾞﾒｼ","streetKana":"ﾊﾅﾐ","prefecture":"新潟県","city":"燕市","street":"花見"},{"zipCode":"9591289","prefectureKana":"ﾆｲｶﾞﾀｹﾝ","cityKana":"ﾂﾊﾞﾒｼ","streetKana":"ﾋｶﾞｼｵｵﾀ","prefecture":"新潟県","city":"燕市","street":"東太田"},{"zipCode":"9591242","prefectureKana":"ﾆｲｶﾞﾀｹﾝ","cityKana":"ﾂﾊﾞﾒｼ","streetKana":"ﾋﾉﾃﾞﾁｮｳ","prefecture":"新潟県","city":"燕市","street":"日之出町"},{"zipCode":"9591277","prefectureKana":"ﾆｲｶﾞﾀｹﾝ","cityKana":"ﾂﾊﾞﾒｼ","streetKana":"ﾌﾞﾂﾘｭｳｾﾝﾀｰ","prefecture":"新潟県","city":"燕市","street":"物流センター"},{"zipCode":"9590132","prefectureKana":"ﾆｲｶﾞﾀｹﾝ","cityKana":"ﾂﾊﾞﾒｼ","streetKana":"ﾌﾞﾝｽｲｱｹﾎﾞﾉ","prefecture":"新潟県","city":"燕市","street":"分水あけぼの"},{"zipCode":"9590107","prefectureKana":"ﾆｲｶﾞﾀｹﾝ","cityKana":"ﾂﾊﾞﾒｼ","streetKana":"ﾌﾞﾝｽｲｱｻﾋﾏﾁ","prefecture":"新潟県","city":"燕市","street":"分水旭町"},{"zipCode":"9590119","prefectureKana":"ﾆｲｶﾞﾀｹﾝ","cityKana":"ﾂﾊﾞﾒｼ","streetKana":"ﾌﾞﾝｽｲｵｵﾀｹ","prefecture":"新潟県","city":"燕市","street":"分水大武"},{"zipCode":"9590115","prefectureKana":"ﾆｲｶﾞﾀｹﾝ","cityKana":"ﾂﾊﾞﾒｼ","streetKana":"ﾌﾞﾝｽｲｶﾞｯｺｳﾁｮｳ","prefecture":"新潟県","city":"燕市","street":"分水学校町"},{"zipCode":"9590109","prefectureKana":"ﾆｲｶﾞﾀｹﾝ","cityKana":"ﾂﾊﾞﾒｼ","streetKana":"ﾌﾞﾝｽｲｺｳﾖｳ","prefecture":"新潟県","city":"燕市","street":"分水向陽"},{"zipCode":"9590120","prefectureKana":"ﾆｲｶﾞﾀｹﾝ","cityKana":"ﾂﾊﾞﾒｼ","streetKana":"ﾌﾞﾝｽｲｻｶｴﾁｮｳ","prefecture":"新潟県","city":"燕市","street":"分水栄町"},{"zipCode":"9590130","prefectureKana":"ﾆｲｶﾞﾀｹﾝ","cityKana":"ﾂﾊﾞﾒｼ","streetKana":"ﾌﾞﾝｽｲｻｸﾗﾏﾁ","prefecture":"新潟県","city":"燕市","street":"分水桜町"},{"zipCode":"9590128","prefectureKana":"ﾆｲｶﾞﾀｹﾝ","cityKana":"ﾂﾊﾞﾒｼ","streetKana":"ﾌﾞﾝｽｲｼﾝﾏﾁ","prefecture":"新潟県","city":"燕市","street":"分水新町"},{"zipCode":"9590106","prefectureKana":"ﾆｲｶﾞﾀｹﾝ","cityKana":"ﾂﾊﾞﾒｼ","streetKana":"ﾌﾞﾝｽｲﾋｶﾞｼｶﾞｯｺｳﾁｮｳ","prefecture":"新潟県","city":"燕市","street":"分水東学校町"},{"zipCode":"9590127","prefectureKana":"ﾆｲｶﾞﾀｹﾝ","cityKana":"ﾂﾊﾞﾒｼ","streetKana":"ﾌﾞﾝｽｲﾌﾞﾝｷｮｳﾁｮｳ","prefecture":"新潟県","city":"燕市","street":"分水文京町"},{"zipCode":"9590118","prefectureKana":"ﾆｲｶﾞﾀｹﾝ","cityKana":"ﾂﾊﾞﾒｼ","streetKana":"ﾌﾞﾝｽｲﾑｺｳﾔﾏ","prefecture":"新潟県","city":"燕市","street":"分水向山"},{"zipCode":"9590104","prefectureKana":"ﾆｲｶﾞﾀｹﾝ","cityKana":"ﾂﾊﾞﾒｼ","streetKana":"ﾌﾞﾝｽｲﾔﾖｲﾁｮｳ","prefecture":"新潟県","city":"燕市","street":"分水弥生町"},{"zipCode":"9591253","prefectureKana":"ﾆｲｶﾞﾀｹﾝ","cityKana":"ﾂﾊﾞﾒｼ","streetKana":"ﾎﾝﾁｮｳ","prefecture":"新潟県","city":"燕市","street":"本町"},{"zipCode":"9590102","prefectureKana":"ﾆｲｶﾞﾀｹﾝ","cityKana":"ﾂﾊﾞﾒｼ","streetKana":"ﾏｷｶﾞﾊﾅ","prefecture":"新潟県","city":"燕市","street":"牧ケ花"},{"zipCode":"9590134","prefectureKana":"ﾆｲｶﾞﾀｹﾝ","cityKana":"ﾂﾊﾞﾒｼ","streetKana":"ﾏｷﾞﾔﾏ","prefecture":"新潟県","city":"燕市","street":"真木山"},{"zipCode":"9590138","prefectureKana":"ﾆｲｶﾞﾀｹﾝ","cityKana":"ﾂﾊﾞﾒｼ","streetKana":"ﾏｸｼﾞﾏ","prefecture":"新潟県","city":"燕市","street":"幕島"},{"zipCode":"9591215","prefectureKana":"ﾆｲｶﾞﾀｹﾝ","cityKana":"ﾂﾊﾞﾒｼ","streetKana":"ﾏﾀｼﾝ","prefecture":"新潟県","city":"燕市","street":"又新"},{"zipCode":"9591202","prefectureKana":"ﾆｲｶﾞﾀｹﾝ","cityKana":"ﾂﾊﾞﾒｼ","streetKana":"ﾏﾂﾊｼ","prefecture":"新潟県","city":"燕市","street":"松橋"},{"zipCode":"9590172","prefectureKana":"ﾆｲｶﾞﾀｹﾝ","cityKana":"ﾂﾊﾞﾒｼ","streetKana":"ﾐｿﾞ","prefecture":"新潟県","city":"燕市","street":"溝"},{"zipCode":"9590171","prefectureKana":"ﾆｲｶﾞﾀｹﾝ","cityKana":"ﾂﾊﾞﾒｼ","streetKana":"ﾐｿﾞｺｼﾝ","prefecture":"新潟県","city":"燕市","street":"溝古新"},{"zipCode":"9591234","prefectureKana":"ﾆｲｶﾞﾀｹﾝ","cityKana":"ﾂﾊﾞﾒｼ","streetKana":"ﾐﾅﾐ","prefecture":"新潟県","city":"燕市","street":"南"},{"zipCode":"9591257","prefectureKana":"ﾆｲｶﾞﾀｹﾝ","cityKana":"ﾂﾊﾞﾒｼ","streetKana":"ﾐﾔﾁｮｳ","prefecture":"新潟県","city":"燕市","street":"宮町"},{"zipCode":"9591274","prefectureKana":"ﾆｲｶﾞﾀｹﾝ","cityKana":"ﾂﾊﾞﾒｼ","streetKana":"ﾔﾅｷﾞﾔﾏ","prefecture":"新潟県","city":"燕市","street":"柳山"},{"zipCode":"9590111","prefectureKana":"ﾆｲｶﾞﾀｹﾝ","cityKana":"ﾂﾊﾞﾒｼ","streetKana":"ﾖｺﾀ","prefecture":"新潟県","city":"燕市","street":"横田"},{"zipCode":"9590263","prefectureKana":"ﾆｲｶﾞﾀｹﾝ","cityKana":"ﾂﾊﾞﾒｼ","streetKana":"ﾖｼﾀﾞ(ﾖｼﾀﾞﾓﾓﾔﾏﾁｮｳ)","prefecture":"新潟県","city":"燕市","street":"吉田（吉田桃山町）"},{"zipCode":"9590264","prefectureKana":"ﾆｲｶﾞﾀｹﾝ","cityKana":"ﾂﾊﾞﾒｼ","streetKana":"ﾖｼﾀﾞ(ｿﾉﾀ)","prefecture":"新潟県","city":"燕市","street":"吉田（その他）"},{"zipCode":"9590217","prefectureKana":"ﾆｲｶﾞﾀｹﾝ","cityKana":"ﾂﾊﾞﾒｼ","streetKana":"ﾖｼﾀﾞｱｹﾎﾞﾉﾁｮｳ","prefecture":"新潟県","city":"燕市","street":"吉田曙町"},{"zipCode":"9590235","prefectureKana":"ﾆｲｶﾞﾀｹﾝ","cityKana":"ﾂﾊﾞﾒｼ","streetKana":"ﾖｼﾀﾞｱｻﾋﾁｮｳ","prefecture":"新潟県","city":"燕市","street":"吉田旭町"},{"zipCode":"9590265","prefectureKana":"ﾆｲｶﾞﾀｹﾝ","cityKana":"ﾂﾊﾞﾒｼ","streetKana":"ﾖｼﾀﾞｱﾂﾞﾏﾁｮｳ","prefecture":"新潟県","city":"燕市","street":"吉田東町"},{"zipCode":"9590216","prefectureKana":"ﾆｲｶﾞﾀｹﾝ","cityKana":"ﾂﾊﾞﾒｼ","streetKana":"ﾖｼﾀﾞｶｽｶﾞﾁｮｳ","prefecture":"新潟県","city":"燕市","street":"吉田春日町"},{"zipCode":"9590252","prefectureKana":"ﾆｲｶﾞﾀｹﾝ","cityKana":"ﾂﾊﾞﾒｼ","streetKana":"ﾖｼﾀﾞｶﾞｯｺｳﾁｮｳ","prefecture":"新潟県","city":"燕市","street":"吉田学校町"},{"zipCode":"9590241","prefectureKana":"ﾆｲｶﾞﾀｹﾝ","cityKana":"ﾂﾊﾞﾒｼ","streetKana":"ﾖｼﾀﾞｶﾝﾀﾞﾁｮｳ","prefecture":"新潟県","city":"燕市","street":"吉田神田町"},{"zipCode":"9590245","prefectureKana":"ﾆｲｶﾞﾀｹﾝ","cityKana":"ﾂﾊﾞﾒｼ","streetKana":"ﾖｼﾀﾞｶﾝﾏﾁ","prefecture":"新潟県","city":"燕市","street":"吉田上町"},{"zipCode":"9590261","prefectureKana":"ﾆｲｶﾞﾀｹﾝ","cityKana":"ﾂﾊﾞﾒｼ","streetKana":"ﾖｼﾀﾞｺｳﾉｽ","prefecture":"新潟県","city":"燕市","street":"吉田鴻巣"},{"zipCode":"9590256","prefectureKana":"ﾆｲｶﾞﾀｹﾝ","cityKana":"ﾂﾊﾞﾒｼ","streetKana":"ﾖｼﾀﾞｺﾄﾌﾞｷﾁｮｳ","prefecture":"新潟県","city":"燕市","street":"吉田寿町"},{"zipCode":"9590257","prefectureKana":"ﾆｲｶﾞﾀｹﾝ","cityKana":"ﾂﾊﾞﾒｼ","streetKana":"ﾖｼﾀﾞｻｲﾜｲﾁｮｳ","prefecture":"新潟県","city":"燕市","street":"吉田幸町"},{"zipCode":"9590233","prefectureKana":"ﾆｲｶﾞﾀｹﾝ","cityKana":"ﾂﾊﾞﾒｼ","streetKana":"ﾖｼﾀﾞｻｶｴﾁｮｳ","prefecture":"新潟県","city":"燕市","street":"吉田栄町"},{"zipCode":"9590215","prefectureKana":"ﾆｲｶﾞﾀｹﾝ","cityKana":"ﾂﾊﾞﾒｼ","streetKana":"ﾖｼﾀﾞｼﾓﾅｶﾉ","prefecture":"新潟県","city":"燕市","street":"吉田下中野"},{"zipCode":"9590253","prefectureKana":"ﾆｲｶﾞﾀｹﾝ","cityKana":"ﾂﾊﾞﾒｼ","streetKana":"ﾖｼﾀﾞｼﾓﾏﾁ","prefecture":"新潟県","city":"燕市","street":"吉田下町"},{"zipCode":"9590247","prefectureKana":"ﾆｲｶﾞﾀｹﾝ","cityKana":"ﾂﾊﾞﾒｼ","streetKana":"ﾖｼﾀﾞｼﾝﾃﾞﾝﾏﾁ","prefecture":"新潟県","city":"燕市","street":"吉田新田町"},{"zipCode":"9590246","prefectureKana":"ﾆｲｶﾞﾀｹﾝ","cityKana":"ﾂﾊﾞﾒｼ","streetKana":"ﾖｼﾀﾞｼﾝﾏﾁ","prefecture":"新潟県","city":"燕市","street":"吉田新町"},{"zipCode":"9590254","prefectureKana":"ﾆｲｶﾞﾀｹﾝ","cityKana":"ﾂﾊﾞﾒｼ","streetKana":"ﾖｼﾀﾞｼﾝﾒｲﾁｮｳ","prefecture":"新潟県","city":"燕市","street":"吉田神明町"},{"zipCode":"9590234","prefectureKana":"ﾆｲｶﾞﾀｹﾝ","cityKana":"ﾂﾊﾞﾒｼ","streetKana":"ﾖｼﾀﾞｽｲﾄﾞｳﾁｮｳ","prefecture":"新潟県","city":"燕市","street":"吉田水道町"},{"zipCode":"9590242","prefectureKana":"ﾆｲｶﾞﾀｹﾝ","cityKana":"ﾂﾊﾞﾒｼ","streetKana":"ﾖｼﾀﾞﾀﾞｲﾎﾞﾁｮｳ","prefecture":"新潟県","city":"燕市","street":"吉田大保町"},{"zipCode":"9590237","prefectureKana":"ﾆｲｶﾞﾀｹﾝ","cityKana":"ﾂﾊﾞﾒｼ","streetKana":"ﾖｼﾀﾞﾂﾂﾐﾁｮｳ","prefecture":"新潟県","city":"燕市","street":"吉田堤町"},{"zipCode":"9590244","prefectureKana":"ﾆｲｶﾞﾀｹﾝ","cityKana":"ﾂﾊﾞﾒｼ","streetKana":"ﾖｼﾀﾞﾅｶﾏﾁ","prefecture":"新潟県","city":"燕市","street":"吉田中町"},{"zipCode":"9590221","prefectureKana":"ﾆｲｶﾞﾀｹﾝ","cityKana":"ﾂﾊﾞﾒｼ","streetKana":"ﾖｼﾀﾞﾆｼｵｵﾀ","prefecture":"新潟県","city":"燕市","street":"吉田西太田"},{"zipCode":"9590248","prefectureKana":"ﾆｲｶﾞﾀｹﾝ","cityKana":"ﾂﾊﾞﾒｼ","streetKana":"ﾖｼﾀﾞﾊﾏｸﾋﾞ","prefecture":"新潟県","city":"燕市","street":"吉田浜首"},{"zipCode":"9590248","prefectureKana":"ﾆｲｶﾞﾀｹﾝ","cityKana":"ﾂﾊﾞﾒｼ","streetKana":"ﾖｼﾀﾞﾊﾏｸﾋﾞﾁｮｳ","prefecture":"新潟県","city":"燕市","street":"吉田浜首町"},{"zipCode":"9590232","prefectureKana":"ﾆｲｶﾞﾀｹﾝ","cityKana":"ﾂﾊﾞﾒｼ","streetKana":"ﾖｼﾀﾞﾋｶﾞｼｻｶｴﾁｮｳ","prefecture":"新潟県","city":"燕市","street":"吉田東栄町"},{"zipCode":"9590231","prefectureKana":"ﾆｲｶﾞﾀｹﾝ","cityKana":"ﾂﾊﾞﾒｼ","streetKana":"ﾖｼﾀﾞﾋﾉﾃﾞﾁｮｳ","prefecture":"新潟県","city":"燕市","street":"吉田日之出町"},{"zipCode":"9590266","prefectureKana":"ﾆｲｶﾞﾀｹﾝ","cityKana":"ﾂﾊﾞﾒｼ","streetKana":"ﾖｼﾀﾞﾌﾞﾝｷｮｳﾁｮｳ","prefecture":"新潟県","city":"燕市","street":"吉田文京町"},{"zipCode":"9590214","prefectureKana":"ﾆｲｶﾞﾀｹﾝ","cityKana":"ﾂﾊﾞﾒｼ","streetKana":"ﾖｼﾀﾞﾎｯｹﾄﾞｳ","prefecture":"新潟県","city":"燕市","street":"吉田法花堂"},{"zipCode":"9590251","prefectureKana":"ﾆｲｶﾞﾀｹﾝ","cityKana":"ﾂﾊﾞﾒｼ","streetKana":"ﾖｼﾀﾞﾎﾝｼﾞｮ","prefecture":"新潟県","city":"燕市","street":"吉田本所"},{"zipCode":"9590243","prefectureKana":"ﾆｲｶﾞﾀｹﾝ","cityKana":"ﾂﾊﾞﾒｼ","streetKana":"ﾖｼﾀﾞﾏﾂｵｶｼﾝﾃﾞﾝ","prefecture":"新潟県","city":"燕市","street":"吉田松岡新田"},{"zipCode":"9590236","prefectureKana":"ﾆｲｶﾞﾀｹﾝ","cityKana":"ﾂﾊﾞﾒｼ","streetKana":"ﾖｼﾀﾞﾏﾂｵｶﾁｮｳ","prefecture":"新潟県","city":"燕市","street":"吉田松岡町"},{"zipCode":"9590267","prefectureKana":"ﾆｲｶﾞﾀｹﾝ","cityKana":"ﾂﾊﾞﾒｼ","streetKana":"ﾖｼﾀﾞﾐﾔｺｳｼﾞ","prefecture":"新潟県","city":"燕市","street":"吉田宮小路"},{"zipCode":"9590268","prefectureKana":"ﾆｲｶﾞﾀｹﾝ","cityKana":"ﾂﾊﾞﾒｼ","streetKana":"ﾖｼﾀﾞﾓﾄﾏﾁ","prefecture":"新潟県","city":"燕市","street":"吉田本町"},{"zipCode":"9590250","prefectureKana":"ﾆｲｶﾞﾀｹﾝ","cityKana":"ﾂﾊﾞﾒｼ","streetKana":"ﾖｼﾀﾞﾔﾊｷﾞ","prefecture":"新潟県","city":"燕市","street":"吉田矢作"},{"zipCode":"9590255","prefectureKana":"ﾆｲｶﾞﾀｹﾝ","cityKana":"ﾂﾊﾞﾒｼ","streetKana":"ﾖｼﾀﾞﾔﾖｲﾁｮｳ","prefecture":"新潟県","city":"燕市","street":"吉田弥生町"},{"zipCode":"9590213","prefectureKana":"ﾆｲｶﾞﾀｹﾝ","cityKana":"ﾂﾊﾞﾒｼ","streetKana":"ﾖｼﾀﾞﾖｼｴｲ","prefecture":"新潟県","city":"燕市","street":"吉田吉栄"},{"zipCode":"9590262","prefectureKana":"ﾆｲｶﾞﾀｹﾝ","cityKana":"ﾂﾊﾞﾒｼ","streetKana":"ﾖｼﾀﾞﾜｺｳﾁｮｳ","prefecture":"新潟県","city":"燕市","street":"吉田若生町"},{"zipCode":"9591224","prefectureKana":"ﾆｲｶﾞﾀｹﾝ","cityKana":"ﾂﾊﾞﾒｼ","streetKana":"ﾖﾂﾔ","prefecture":"新潟県","city":"燕市","street":"四ツ屋"},{"zipCode":"9590206","prefectureKana":"ﾆｲｶﾞﾀｹﾝ","cityKana":"ﾂﾊﾞﾒｼ","streetKana":"ﾖﾉｳﾂﾞ","prefecture":"新潟県","city":"燕市","street":"米納津"},{"zipCode":"9590135","prefectureKana":"ﾆｲｶﾞﾀｹﾝ","cityKana":"ﾂﾊﾞﾒｼ","streetKana":"ﾜﾀﾍﾞ","prefecture":"新潟県","city":"燕市","street":"渡部"},{"zipCode":"9591600","prefectureKana":"ﾆｲｶﾞﾀｹﾝ","cityKana":"ｺﾞｾﾝｼ","streetKana":"ｲｶﾆｹｲｻｲｶﾞﾅｲﾊﾞｱｲ","prefecture":"新潟県","city":"五泉市","street":"以下に掲載がない場合"},{"zipCode":"9591755","prefectureKana":"ﾆｲｶﾞﾀｹﾝ","cityKana":"ｺﾞｾﾝｼ","streetKana":"ｱｵﾊｼ","prefecture":"新潟県","city":"五泉市","street":"青橋"},{"zipCode":"9591641","prefectureKana":"ﾆｲｶﾞﾀｹﾝ","cityKana":"ｺﾞｾﾝｼ","streetKana":"ｱｶﾊﾈ","prefecture":"新潟県","city":"五泉市","street":"赤羽"},{"zipCode":"9591831","prefectureKana":"ﾆｲｶﾞﾀｹﾝ","cityKana":"ｺﾞｾﾝｼ","streetKana":"ｱｹﾎﾞﾉﾁｮｳ","prefecture":"新潟県","city":"五泉市","street":"曙町"},{"zipCode":"9591821","prefectureKana":"ﾆｲｶﾞﾀｹﾝ","cityKana":"ｺﾞｾﾝｼ","streetKana":"ｱｺｳﾐ","prefecture":"新潟県","city":"五泉市","street":"赤海"},{"zipCode":"9591862","prefectureKana":"ﾆｲｶﾞﾀｹﾝ","cityKana":"ｺﾞｾﾝｼ","streetKana":"ｱｻﾋﾁｮｳ","prefecture":"新潟県","city":"五泉市","street":"旭町"},{"zipCode":"9591765","prefectureKana":"ﾆｲｶﾞﾀｹﾝ","cityKana":"ｺﾞｾﾝｼ","streetKana":"ｱﾀｺﾞ","prefecture":"新潟県","city":"五泉市","street":"愛宕"},{"zipCode":"9591717","prefectureKana":"ﾆｲｶﾞﾀｹﾝ","cityKana":"ｺﾞｾﾝｼ","streetKana":"ｱﾐﾀﾞｾ","prefecture":"新潟県","city":"五泉市","street":"阿弥陀瀬"},{"zipCode":"9591737","prefectureKana":"ﾆｲｶﾞﾀｹﾝ","cityKana":"ｺﾞｾﾝｼ","streetKana":"ｱﾗﾔ","prefecture":"新潟県","city":"五泉市","street":"新屋"},{"zipCode":"9591861","prefectureKana":"ﾆｲｶﾞﾀｹﾝ","cityKana":"ｺﾞｾﾝｼ","streetKana":"ｱﾜｼﾏ","prefecture":"新潟県","city":"五泉市","street":"粟島"},{"zipCode":"9591833","prefectureKana":"ﾆｲｶﾞﾀｹﾝ","cityKana":"ｺﾞｾﾝｼ","streetKana":"ｲｶﾞﾗｼｼﾝﾃﾞﾝ","prefecture":"新潟県","city":"五泉市","street":"五十嵐新田"},{"zipCode":"9591857","prefectureKana":"ﾆｲｶﾞﾀｹﾝ","cityKana":"ｺﾞｾﾝｼ","streetKana":"ｲｼｸﾗ","prefecture":"新潟県","city":"五泉市","street":"石倉"},{"zipCode":"9591701","prefectureKana":"ﾆｲｶﾞﾀｹﾝ","cityKana":"ｺﾞｾﾝｼ","streetKana":"ｲｼｿﾞﾈ","prefecture":"新潟県","city":"五泉市","street":"石曽根"},{"zipCode":"9591876","prefectureKana":"ﾆｲｶﾞﾀｹﾝ","cityKana":"ｺﾞｾﾝｼ","streetKana":"ｲｽﾞﾐﾁｮｳ","prefecture":"新潟県","city":"五泉市","street":"泉町"},{"zipCode":"9591813","prefectureKana":"ﾆｲｶﾞﾀｹﾝ","cityKana":"ｺﾞｾﾝｼ","streetKana":"ｲｾﾉｶﾜ","prefecture":"新潟県","city":"五泉市","street":"伊勢の川"},{"zipCode":"9591601","prefectureKana":"ﾆｲｶﾞﾀｹﾝ","cityKana":"ｺﾞｾﾝｼ","streetKana":"ｲｯﾎﾟﾝｽｷﾞ","prefecture":"新潟県","city":"五泉市","street":"一本杉"},{"zipCode":"9591835","prefectureKana":"ﾆｲｶﾞﾀｹﾝ","cityKana":"ｺﾞｾﾝｼ","streetKana":"ｲﾏｲｽﾞﾐ","prefecture":"新潟県","city":"五泉市","street":"今泉"},{"zipCode":"9591749","prefectureKana":"ﾆｲｶﾞﾀｹﾝ","cityKana":"ｺﾞｾﾝｼ","streetKana":"ｳｴﾉ","prefecture":"新潟県","city":"五泉市","street":"上野"},{"zipCode":"9591823","prefectureKana":"ﾆｲｶﾞﾀｹﾝ","cityKana":"ｺﾞｾﾝｼ","streetKana":"ｴｷﾏｴ","prefecture":"新潟県","city":"五泉市","street":"駅前"},{"zipCode":"9591867","prefectureKana":"ﾆｲｶﾞﾀｹﾝ","cityKana":"ｺﾞｾﾝｼ","streetKana":"ｵｵｶﾜﾏｴ","prefecture":"新潟県","city":"五泉市","street":"大川前"},{"zipCode":"9591731","prefectureKana":"ﾆｲｶﾞﾀｹﾝ","cityKana":"ｺﾞｾﾝｼ","streetKana":"ｵｵｸﾁ","prefecture":"新潟県","city":"五泉市","street":"大口"},{"zipCode":"9591636","prefectureKana":"ﾆｲｶﾞﾀｹﾝ","cityKana":"ｺﾞｾﾝｼ","streetKana":"ｵｵｸﾗ","prefecture":"新潟県","city":"五泉市","street":"大蔵"},{"zipCode":"9591845","prefectureKana":"ﾆｲｶﾞﾀｹﾝ","cityKana":"ｺﾞｾﾝｼ","streetKana":"ｵｵｻﾜ","prefecture":"新潟県","city":"五泉市","street":"大沢"},{"zipCode":"9591633","prefectureKana":"ﾆｲｶﾞﾀｹﾝ","cityKana":"ｺﾞｾﾝｼ","streetKana":"ｵｵｽｺﾞｳ","prefecture":"新潟県","city":"五泉市","street":"大須郷"},{"zipCode":"9591825","prefectureKana":"ﾆｲｶﾞﾀｹﾝ","cityKana":"ｺﾞｾﾝｼ","streetKana":"ｵｵﾀ","prefecture":"新潟県","city":"五泉市","street":"太田"},{"zipCode":"9591623","prefectureKana":"ﾆｲｶﾞﾀｹﾝ","cityKana":"ｺﾞｾﾝｼ","streetKana":"ｵｵﾀﾆ","prefecture":"新潟県","city":"五泉市","street":"大谷"},{"zipCode":"9591734","prefectureKana":"ﾆｲｶﾞﾀｹﾝ","cityKana":"ｺﾞｾﾝｼ","streetKana":"ｵｵﾊﾗ","prefecture":"新潟県","city":"五泉市","street":"大原"},{"zipCode":"9591852","prefectureKana":"ﾆｲｶﾞﾀｹﾝ","cityKana":"ｺﾞｾﾝｼ","streetKana":"ｵｷﾞｿﾈ","prefecture":"新潟県","city":"五泉市","street":"荻曽根"},{"zipCode":"9591603","prefectureKana":"ﾆｲｶﾞﾀｹﾝ","cityKana":"ｺﾞｾﾝｼ","streetKana":"ｵｷﾞﾉｼﾏ","prefecture":"新潟県","city":"五泉市","street":"荻野島"},{"zipCode":"9591855","prefectureKana":"ﾆｲｶﾞﾀｹﾝ","cityKana":"ｺﾞｾﾝｼ","streetKana":"ｵｸﾞﾏ","prefecture":"新潟県","city":"五泉市","street":"小熊"},{"zipCode":"9591621","prefectureKana":"ﾆｲｶﾞﾀｹﾝ","cityKana":"ｺﾞｾﾝｼ","streetKana":"ｵｼﾞﾛ","prefecture":"新潟県","city":"五泉市","street":"尾白"},{"zipCode":"9591624","prefectureKana":"ﾆｲｶﾞﾀｹﾝ","cityKana":"ｺﾞｾﾝｼ","streetKana":"ｵﾔﾏﾀﾞ","prefecture":"新潟県","city":"五泉市","street":"小山田"},{"zipCode":"9591866","prefectureKana":"ﾆｲｶﾞﾀｹﾝ","cityKana":"ｺﾞｾﾝｼ","streetKana":"ｶﾞｯｺｳﾁｮｳ","prefecture":"新潟県","city":"五泉市","street":"学校町"},{"zipCode":"9591744","prefectureKana":"ﾆｲｶﾞﾀｹﾝ","cityKana":"ｺﾞｾﾝｼ","streetKana":"ｶﾐｵｵｶﾝﾊﾞﾗ","prefecture":"新潟県","city":"五泉市","street":"上大蒲原"},{"zipCode":"9591708","prefectureKana":"ﾆｲｶﾞﾀｹﾝ","cityKana":"ｺﾞｾﾝｼ","streetKana":"ｶﾐｷｺﾞｼ","prefecture":"新潟県","city":"五泉市","street":"上木越"},{"zipCode":"9591726","prefectureKana":"ﾆｲｶﾞﾀｹﾝ","cityKana":"ｺﾞｾﾝｼ","streetKana":"ｶﾐｽｷﾞｶﾜ","prefecture":"新潟県","city":"五泉市","street":"上杉川"},{"zipCode":"9591746","prefectureKana":"ﾆｲｶﾞﾀｹﾝ","cityKana":"ｺﾞｾﾝｼ","streetKana":"ｶﾐﾄｸﾞﾗ","prefecture":"新潟県","city":"五泉市","street":"上戸倉"},{"zipCode":"9591635","prefectureKana":"ﾆｲｶﾞﾀｹﾝ","cityKana":"ｺﾞｾﾝｼ","streetKana":"ｶﾗｻﾜ","prefecture":"新潟県","city":"五泉市","street":"柄沢"},{"zipCode":"9591756","prefectureKana":"ﾆｲｶﾞﾀｹﾝ","cityKana":"ｺﾞｾﾝｼ","streetKana":"ｶﾘﾜ","prefecture":"新潟県","city":"五泉市","street":"刈羽"},{"zipCode":"9591832","prefectureKana":"ﾆｲｶﾞﾀｹﾝ","cityKana":"ｺﾞｾﾝｼ","streetKana":"ｶﾜｾﾞ","prefecture":"新潟県","city":"五泉市","street":"川瀬"},{"zipCode":"9591711","prefectureKana":"ﾆｲｶﾞﾀｹﾝ","cityKana":"ｺﾞｾﾝｼ","streetKana":"ｶﾜﾁ","prefecture":"新潟県","city":"五泉市","street":"川内"},{"zipCode":"9591834","prefectureKana":"ﾆｲｶﾞﾀｹﾝ","cityKana":"ｺﾞｾﾝｼ","streetKana":"ｷｺﾞｼ","prefecture":"新潟県","city":"五泉市","street":"木越"},{"zipCode":"9591709","prefectureKana":"ﾆｲｶﾞﾀｹﾝ","cityKana":"ｺﾞｾﾝｼ","streetKana":"ｷｺﾞｼｱﾗﾔ","prefecture":"新潟県","city":"五泉市","street":"木越荒屋"},{"zipCode":"9591814","prefectureKana":"ﾆｲｶﾞﾀｹﾝ","cityKana":"ｺﾞｾﾝｼ","streetKana":"ｷﾀｺﾞｾﾝｴｷﾏｴ","prefecture":"新潟県","city":"五泉市","street":"北五泉駅前"},{"zipCode":"9591625","prefectureKana":"ﾆｲｶﾞﾀｹﾝ","cityKana":"ｺﾞｾﾝｼ","streetKana":"ｷﾘﾊﾀ","prefecture":"新潟県","city":"五泉市","street":"切畑"},{"zipCode":"9591716","prefectureKana":"ﾆｲｶﾞﾀｹﾝ","cityKana":"ｺﾞｾﾝｼ","streetKana":"ｸﾏｻﾜ","prefecture":"新潟県","city":"五泉市","street":"熊沢"},{"zipCode":"9591763","prefectureKana":"ﾆｲｶﾞﾀｹﾝ","cityKana":"ｺﾞｾﾝｼ","streetKana":"ｸﾏﾉﾄﾞｳ","prefecture":"新潟県","city":"五泉市","street":"熊野堂"},{"zipCode":"9591721","prefectureKana":"ﾆｲｶﾞﾀｹﾝ","cityKana":"ｺﾞｾﾝｼ","streetKana":"ｸﾚﾂﾎﾞ","prefecture":"新潟県","city":"五泉市","street":"暮坪"},{"zipCode":"9591864","prefectureKana":"ﾆｲｶﾞﾀｹﾝ","cityKana":"ｺﾞｾﾝｼ","streetKana":"ｺｳﾔｶﾞﾜ","prefecture":"新潟県","city":"五泉市","street":"郷屋川"},{"zipCode":"9591612","prefectureKana":"ﾆｲｶﾞﾀｹﾝ","cityKana":"ｺﾞｾﾝｼ","streetKana":"ｺｶﾞﾗﾐ","prefecture":"新潟県","city":"五泉市","street":"小搦"},{"zipCode":"9591622","prefectureKana":"ﾆｲｶﾞﾀｹﾝ","cityKana":"ｺﾞｾﾝｼ","streetKana":"ｺｸﾞﾘﾔﾏ","prefecture":"新潟県","city":"五泉市","street":"小栗山"},{"zipCode":"9591851","prefectureKana":"ﾆｲｶﾞﾀｹﾝ","cityKana":"ｺﾞｾﾝｼ","streetKana":"ｺﾞｾﾝ","prefecture":"新潟県","city":"五泉市","street":"五泉"},{"zipCode":"9591725","prefectureKana":"ﾆｲｶﾞﾀｹﾝ","cityKana":"ｺﾞｾﾝｼ","streetKana":"ｺﾂﾗﾀﾞﾆ","prefecture":"新潟県","city":"五泉市","street":"小面谷"},{"zipCode":"9591613","prefectureKana":"ﾆｲｶﾞﾀｹﾝ","cityKana":"ｺﾞｾﾝｼ","streetKana":"ｺﾅｶﾞｼ","prefecture":"新潟県","city":"五泉市","street":"小流"},{"zipCode":"9591753","prefectureKana":"ﾆｲｶﾞﾀｹﾝ","cityKana":"ｺﾞｾﾝｼ","streetKana":"ｻｻﾉﾏﾁ","prefecture":"新潟県","city":"五泉市","street":"笹野町"},{"zipCode":"9591611","prefectureKana":"ﾆｲｶﾞﾀｹﾝ","cityKana":"ｺﾞｾﾝｼ","streetKana":"ｻｻﾎﾞﾘ","prefecture":"新潟県","city":"五泉市","street":"笹堀"},{"zipCode":"9591724","prefectureKana":"ﾆｲｶﾞﾀｹﾝ","cityKana":"ｺﾞｾﾝｼ","streetKana":"ｻｻﾒ","prefecture":"新潟県","city":"五泉市","street":"笹目"},{"zipCode":"9591615","prefectureKana":"ﾆｲｶﾞﾀｹﾝ","cityKana":"ｺﾞｾﾝｼ","streetKana":"ｻﾄﾞﾘ","prefecture":"新潟県","city":"五泉市","street":"佐取"},{"zipCode":"9591806","prefectureKana":"ﾆｲｶﾞﾀｹﾝ","cityKana":"ｺﾞｾﾝｼ","streetKana":"ｻﾙﾊｼ","prefecture":"新潟県","city":"五泉市","street":"猿橋"},{"zipCode":"9591631","prefectureKana":"ﾆｲｶﾞﾀｹﾝ","cityKana":"ｺﾞｾﾝｼ","streetKana":"ｻﾙﾜﾀﾞ","prefecture":"新潟県","city":"五泉市","street":"猿和田"},{"zipCode":"9591811","prefectureKana":"ﾆｲｶﾞﾀｹﾝ","cityKana":"ｺﾞｾﾝｼ","streetKana":"ｻﾝﾎﾞﾝｷﾞ","prefecture":"新潟県","city":"五泉市","street":"三本木"},{"zipCode":"9591718","prefectureKana":"ﾆｲｶﾞﾀｹﾝ","cityKana":"ｺﾞｾﾝｼ","streetKana":"ｼﾓｱﾐﾀﾞｾ","prefecture":"新潟県","city":"五泉市","street":"下阿弥陀瀬"},{"zipCode":"9591743","prefectureKana":"ﾆｲｶﾞﾀｹﾝ","cityKana":"ｺﾞｾﾝｼ","streetKana":"ｼﾓｵｵｶﾝﾊﾞﾗ","prefecture":"新潟県","city":"五泉市","street":"下大蒲原"},{"zipCode":"9591803","prefectureKana":"ﾆｲｶﾞﾀｹﾝ","cityKana":"ｺﾞｾﾝｼ","streetKana":"ｼﾓｼﾞｮｳ","prefecture":"新潟県","city":"五泉市","street":"下条"},{"zipCode":"9591802","prefectureKana":"ﾆｲｶﾞﾀｹﾝ","cityKana":"ｺﾞｾﾝｼ","streetKana":"ｼﾓｼﾝ","prefecture":"新潟県","city":"五泉市","street":"下新"},{"zipCode":"9591727","prefectureKana":"ﾆｲｶﾞﾀｹﾝ","cityKana":"ｺﾞｾﾝｼ","streetKana":"ｼﾓｽｷﾞｶﾜ","prefecture":"新潟県","city":"五泉市","street":"下杉川"},{"zipCode":"9591745","prefectureKana":"ﾆｲｶﾞﾀｹﾝ","cityKana":"ｺﾞｾﾝｼ","streetKana":"ｼﾓﾄｸﾞﾗ","prefecture":"新潟県","city":"五泉市","street":"下戸倉"},{"zipCode":"9591846","prefectureKana":"ﾆｲｶﾞﾀｹﾝ","cityKana":"ｺﾞｾﾝｼ","streetKana":"ｼﾘｱｶﾞﾘ","prefecture":"新潟県","city":"五泉市","street":"尻上"},{"zipCode":"9591758","prefectureKana":"ﾆｲｶﾞﾀｹﾝ","cityKana":"ｺﾞｾﾝｼ","streetKana":"ｼﾛｼﾀ","prefecture":"新潟県","city":"五泉市","street":"城下"},{"zipCode":"9591767","prefectureKana":"ﾆｲｶﾞﾀｹﾝ","cityKana":"ｺﾞｾﾝｼ","streetKana":"ｼﾝﾃﾞﾝﾏﾁ","prefecture":"新潟県","city":"五泉市","street":"新田町"},{"zipCode":"9591637","prefectureKana":"ﾆｲｶﾞﾀｹﾝ","cityKana":"ｺﾞｾﾝｼ","streetKana":"ｽｶﾞｲﾃﾞ","prefecture":"新潟県","city":"五泉市","street":"菅出"},{"zipCode":"9591847","prefectureKana":"ﾆｲｶﾞﾀｹﾝ","cityKana":"ｺﾞｾﾝｼ","streetKana":"ｽｹﾞｻﾜ","prefecture":"新潟県","city":"五泉市","street":"菅沢"},{"zipCode":"9591714","prefectureKana":"ﾆｲｶﾞﾀｹﾝ","cityKana":"ｺﾞｾﾝｼ","streetKana":"ｾﾝﾐﾀﾞﾆ","prefecture":"新潟県","city":"五泉市","street":"仙見谷"},{"zipCode":"9591747","prefectureKana":"ﾆｲｶﾞﾀｹﾝ","cityKana":"ｺﾞｾﾝｼ","streetKana":"ﾀｶﾏﾂ","prefecture":"新潟県","city":"五泉市","street":"高松"},{"zipCode":"9591602","prefectureKana":"ﾆｲｶﾞﾀｹﾝ","cityKana":"ｺﾞｾﾝｼ","streetKana":"ﾀｶﾔﾏ","prefecture":"新潟県","city":"五泉市","street":"高山"},{"zipCode":"9591804","prefectureKana":"ﾆｲｶﾞﾀｹﾝ","cityKana":"ｺﾞｾﾝｼ","streetKana":"ﾀﾔ","prefecture":"新潟県","city":"五泉市","street":"田屋"},{"zipCode":"9591751","prefectureKana":"ﾆｲｶﾞﾀｹﾝ","cityKana":"ｺﾞｾﾝｼ","streetKana":"ﾁｭｳﾅｻﾞﾜ","prefecture":"新潟県","city":"五泉市","street":"中名沢"},{"zipCode":"9591752","prefectureKana":"ﾆｲｶﾞﾀｹﾝ","cityKana":"ｺﾞｾﾝｼ","streetKana":"ﾁﾜﾗ","prefecture":"新潟県","city":"五泉市","street":"千原"},{"zipCode":"9591807","prefectureKana":"ﾆｲｶﾞﾀｹﾝ","cityKana":"ｺﾞｾﾝｼ","streetKana":"ﾂｷﾞﾔ","prefecture":"新潟県","city":"五泉市","street":"次屋"},{"zipCode":"9591643","prefectureKana":"ﾆｲｶﾞﾀｹﾝ","cityKana":"ｺﾞｾﾝｼ","streetKana":"ﾂﾁﾎﾞﾘ","prefecture":"新潟県","city":"五泉市","street":"土堀"},{"zipCode":"9591837","prefectureKana":"ﾆｲｶﾞﾀｹﾝ","cityKana":"ｺﾞｾﾝｼ","streetKana":"ﾃﾗｻﾞﾜ","prefecture":"新潟県","city":"五泉市","street":"寺沢"},{"zipCode":"9591742","prefectureKana":"ﾆｲｶﾞﾀｹﾝ","cityKana":"ｺﾞｾﾝｼ","streetKana":"ﾃﾗﾀﾞ","prefecture":"新潟県","city":"五泉市","street":"寺田"},{"zipCode":"9591853","prefectureKana":"ﾆｲｶﾞﾀｹﾝ","cityKana":"ｺﾞｾﾝｼ","streetKana":"ﾄﾞﾌﾞｹ","prefecture":"新潟県","city":"五泉市","street":"土深"},{"zipCode":"9591712","prefectureKana":"ﾆｲｶﾞﾀｹﾝ","cityKana":"ｺﾞｾﾝｼ","streetKana":"ﾄﾞﾌﾁ","prefecture":"新潟県","city":"五泉市","street":"土淵"},{"zipCode":"9591632","prefectureKana":"ﾆｲｶﾞﾀｹﾝ","cityKana":"ｺﾞｾﾝｼ","streetKana":"ﾅｶｶﾞﾜｼﾝ","prefecture":"新潟県","city":"五泉市","street":"中川新"},{"zipCode":"9591732","prefectureKana":"ﾆｲｶﾞﾀｹﾝ","cityKana":"ｺﾞｾﾝｼ","streetKana":"ﾅｶｼﾞﾏ","prefecture":"新潟県","city":"五泉市","street":"中島"},{"zipCode":"9591754","prefectureKana":"ﾆｲｶﾞﾀｹﾝ","cityKana":"ｺﾞｾﾝｼ","streetKana":"ﾅｶﾉﾊｼ","prefecture":"新潟県","city":"五泉市","street":"中野橋"},{"zipCode":"9591757","prefectureKana":"ﾆｲｶﾞﾀｹﾝ","cityKana":"ｺﾞｾﾝｼ","streetKana":"ﾅｶﾞﾊｼ","prefecture":"新潟県","city":"五泉市","street":"長橋"},{"zipCode":"9591715","prefectureKana":"ﾆｲｶﾞﾀｹﾝ","cityKana":"ｺﾞｾﾝｼ","streetKana":"ﾅﾂﾊﾘ","prefecture":"新潟県","city":"五泉市","street":"夏針"},{"zipCode":"9591873","prefectureKana":"ﾆｲｶﾞﾀｹﾝ","cityKana":"ｺﾞｾﾝｼ","streetKana":"ﾆｼｷﾁｮｳ","prefecture":"新潟県","city":"五泉市","street":"錦町"},{"zipCode":"9591844","prefectureKana":"ﾆｲｶﾞﾀｹﾝ","cityKana":"ｺﾞｾﾝｼ","streetKana":"ﾆｼﾖﾂﾔ","prefecture":"新潟県","city":"五泉市","street":"西四ツ屋"},{"zipCode":"9591842","prefectureKana":"ﾆｲｶﾞﾀｹﾝ","cityKana":"ｺﾞｾﾝｼ","streetKana":"ﾉｳﾀﾞｲ","prefecture":"新潟県","city":"五泉市","street":"能代"},{"zipCode":"9591801","prefectureKana":"ﾆｲｶﾞﾀｹﾝ","cityKana":"ｺﾞｾﾝｼ","streetKana":"ﾊｶﾞ","prefecture":"新潟県","city":"五泉市","street":"羽下"},{"zipCode":"9591871","prefectureKana":"ﾆｲｶﾞﾀｹﾝ","cityKana":"ｺﾞｾﾝｼ","streetKana":"ﾊｸｻﾝ","prefecture":"新潟県","city":"五泉市","street":"白山"},{"zipCode":"9591848","prefectureKana":"ﾆｲｶﾞﾀｹﾝ","cityKana":"ｺﾞｾﾝｼ","streetKana":"ﾊｼﾀ","prefecture":"新潟県","city":"五泉市","street":"橋田"},{"zipCode":"9591875","prefectureKana":"ﾆｲｶﾞﾀｹﾝ","cityKana":"ｺﾞｾﾝｼ","streetKana":"ﾊﾞﾊﾞﾁｮｳ","prefecture":"新潟県","city":"五泉市","street":"馬場町"},{"zipCode":"9591766","prefectureKana":"ﾆｲｶﾞﾀｹﾝ","cityKana":"ｺﾞｾﾝｼ","streetKana":"ﾊﾞﾝｻﾞｶ","prefecture":"新潟県","city":"五泉市","street":"番坂"},{"zipCode":"9591762","prefectureKana":"ﾆｲｶﾞﾀｹﾝ","cityKana":"ｺﾞｾﾝｼ","streetKana":"ﾋｶﾞｼｲｼｿﾞﾈ","prefecture":"新潟県","city":"五泉市","street":"東石曽根"},{"zipCode":"9591863","prefectureKana":"ﾆｲｶﾞﾀｹﾝ","cityKana":"ｺﾞｾﾝｼ","streetKana":"ﾋｶﾞｼﾎﾝﾁｮｳ","prefecture":"新潟県","city":"五泉市","street":"東本町"},{"zipCode":"9591644","prefectureKana":"ﾆｲｶﾞﾀｹﾝ","cityKana":"ｺﾞｾﾝｼ","streetKana":"ﾋｶﾞｼﾖﾂﾔ","prefecture":"新潟県","city":"五泉市","street":"東四ツ屋"},{"zipCode":"9591735","prefectureKana":"ﾆｲｶﾞﾀｹﾝ","cityKana":"ｺﾞｾﾝｼ","streetKana":"ﾋﾙﾉ","prefecture":"新潟県","city":"五泉市","street":"蛭野"},{"zipCode":"9591841","prefectureKana":"ﾆｲｶﾞﾀｹﾝ","cityKana":"ｺﾞｾﾝｼ","streetKana":"ﾌﾀﾂﾔﾅｷﾞ","prefecture":"新潟県","city":"五泉市","street":"二ツ柳"},{"zipCode":"9591634","prefectureKana":"ﾆｲｶﾞﾀｹﾝ","cityKana":"ｺﾞｾﾝｼ","streetKana":"ﾌﾄﾞｳﾄﾞｳ","prefecture":"新潟県","city":"五泉市","street":"不動堂"},{"zipCode":"9591805","prefectureKana":"ﾆｲｶﾞﾀｹﾝ","cityKana":"ｺﾞｾﾝｼ","streetKana":"ﾌﾅｺｼ","prefecture":"新潟県","city":"五泉市","street":"船越"},{"zipCode":"9591738","prefectureKana":"ﾆｲｶﾞﾀｹﾝ","cityKana":"ｺﾞｾﾝｼ","streetKana":"ﾍﾞｯｼｮ","prefecture":"新潟県","city":"五泉市","street":"別所"},{"zipCode":"9591865","prefectureKana":"ﾆｲｶﾞﾀｹﾝ","cityKana":"ｺﾞｾﾝｼ","streetKana":"ﾎﾝﾁｮｳ","prefecture":"新潟県","city":"五泉市","street":"本町"},{"zipCode":"9591614","prefectureKana":"ﾆｲｶﾞﾀｹﾝ","cityKana":"ｺﾞｾﾝｼ","streetKana":"ﾏｵﾛｼ","prefecture":"新潟県","city":"五泉市","street":"馬下"},{"zipCode":"9591748","prefectureKana":"ﾆｲｶﾞﾀｹﾝ","cityKana":"ｺﾞｾﾝｼ","streetKana":"ﾏｷ","prefecture":"新潟県","city":"五泉市","street":"牧"},{"zipCode":"9591843","prefectureKana":"ﾆｲｶﾞﾀｹﾝ","cityKana":"ｺﾞｾﾝｼ","streetKana":"ﾏﾁﾔ","prefecture":"新潟県","city":"五泉市","street":"町屋"},{"zipCode":"9591722","prefectureKana":"ﾆｲｶﾞﾀｹﾝ","cityKana":"ｺﾞｾﾝｼ","streetKana":"ﾏﾂﾉ","prefecture":"新潟県","city":"五泉市","street":"松野"},{"zipCode":"9591854","prefectureKana":"ﾆｲｶﾞﾀｹﾝ","cityKana":"ｺﾞｾﾝｼ","streetKana":"ﾏﾙﾀ","prefecture":"新潟県","city":"五泉市","street":"丸田"},{"zipCode":"9591759","prefectureKana":"ﾆｲｶﾞﾀｹﾝ","cityKana":"ｺﾞｾﾝｼ","streetKana":"ﾐｻﾄ","prefecture":"新潟県","city":"五泉市","street":"美郷"},{"zipCode":"9591812","prefectureKana":"ﾆｲｶﾞﾀｹﾝ","cityKana":"ｺﾞｾﾝｼ","streetKana":"ﾐｽﾞｼﾏﾁｮｳ","prefecture":"新潟県","city":"五泉市","street":"水島町"},{"zipCode":"9591713","prefectureKana":"ﾆｲｶﾞﾀｹﾝ","cityKana":"ｺﾞｾﾝｼ","streetKana":"ﾐﾄﾉ","prefecture":"新潟県","city":"五泉市","street":"水戸野"},{"zipCode":"9591822","prefectureKana":"ﾆｲｶﾞﾀｹﾝ","cityKana":"ｺﾞｾﾝｼ","streetKana":"ﾐﾄﾞﾘﾁｮｳ","prefecture":"新潟県","city":"五泉市","street":"緑町"},{"zipCode":"9591741","prefectureKana":"ﾆｲｶﾞﾀｹﾝ","cityKana":"ｺﾞｾﾝｼ","streetKana":"ﾐﾅﾐﾀﾅｶ","prefecture":"新潟県","city":"五泉市","street":"南田中"},{"zipCode":"9591836","prefectureKana":"ﾆｲｶﾞﾀｹﾝ","cityKana":"ｺﾞｾﾝｼ","streetKana":"ﾐﾅﾐﾎﾝﾁｮｳ","prefecture":"新潟県","city":"五泉市","street":"南本町"},{"zipCode":"9591872","prefectureKana":"ﾆｲｶﾞﾀｹﾝ","cityKana":"ｺﾞｾﾝｼ","streetKana":"ﾐﾔﾁｮｳ","prefecture":"新潟県","city":"五泉市","street":"宮町"},{"zipCode":"9591764","prefectureKana":"ﾆｲｶﾞﾀｹﾝ","cityKana":"ｺﾞｾﾝｼ","streetKana":"ﾐﾔﾉｼﾀ","prefecture":"新潟県","city":"五泉市","street":"宮野下"},{"zipCode":"9591707","prefectureKana":"ﾆｲｶﾞﾀｹﾝ","cityKana":"ｺﾞｾﾝｼ","streetKana":"ﾑﾗﾏﾂ","prefecture":"新潟県","city":"五泉市","street":"村松"},{"zipCode":"9591705","prefectureKana":"ﾆｲｶﾞﾀｹﾝ","cityKana":"ｺﾞｾﾝｼ","streetKana":"ﾑﾗﾏﾂｵﾂ","prefecture":"新潟県","city":"五泉市","street":"村松乙"},{"zipCode":"9591704","prefectureKana":"ﾆｲｶﾞﾀｹﾝ","cityKana":"ｺﾞｾﾝｼ","streetKana":"ﾑﾗﾏﾂｺｳ","prefecture":"新潟県","city":"五泉市","street":"村松甲"},{"zipCode":"9591706","prefectureKana":"ﾆｲｶﾞﾀｹﾝ","cityKana":"ｺﾞｾﾝｼ","streetKana":"ﾑﾗﾏﾂﾍｲ","prefecture":"新潟県","city":"五泉市","street":"村松丙"},{"zipCode":"9591739","prefectureKana":"ﾆｲｶﾞﾀｹﾝ","cityKana":"ｺﾞｾﾝｼ","streetKana":"ﾑﾗﾏﾂｺｳｷﾞｮｳﾀﾞﾝﾁ","prefecture":"新潟県","city":"五泉市","street":"村松工業団地"},{"zipCode":"9591761","prefectureKana":"ﾆｲｶﾞﾀｹﾝ","cityKana":"ｺﾞｾﾝｼ","streetKana":"ﾓﾄﾀﾞｲ","prefecture":"新潟県","city":"五泉市","street":"本田屋"},{"zipCode":"9591733","prefectureKana":"ﾆｲｶﾞﾀｹﾝ","cityKana":"ｺﾞｾﾝｼ","streetKana":"ﾔｽｲﾃﾞ","prefecture":"新潟県","city":"五泉市","street":"安出"},{"zipCode":"9591703","prefectureKana":"ﾆｲｶﾞﾀｹﾝ","cityKana":"ｺﾞｾﾝｼ","streetKana":"ﾔﾂﾞ","prefecture":"新潟県","city":"五泉市","street":"矢津"},{"zipCode":"9591856","prefectureKana":"ﾆｲｶﾞﾀｹﾝ","cityKana":"ｺﾞｾﾝｼ","streetKana":"ﾔﾏｻﾞｷ","prefecture":"新潟県","city":"五泉市","street":"山崎"},{"zipCode":"9591736","prefectureKana":"ﾆｲｶﾞﾀｹﾝ","cityKana":"ｺﾞｾﾝｼ","streetKana":"ﾔﾏﾔ","prefecture":"新潟県","city":"五泉市","street":"山谷"},{"zipCode":"9591874","prefectureKana":"ﾆｲｶﾞﾀｹﾝ","cityKana":"ｺﾞｾﾝｼ","streetKana":"ﾖｺﾏﾁ","prefecture":"新潟県","city":"五泉市","street":"横町"},{"zipCode":"9591723","prefectureKana":"ﾆｲｶﾞﾀｹﾝ","cityKana":"ｺﾞｾﾝｼ","streetKana":"ﾖｺﾜﾀｼ","prefecture":"新潟県","city":"五泉市","street":"横渡"},{"zipCode":"9591824","prefectureKana":"ﾆｲｶﾞﾀｹﾝ","cityKana":"ｺﾞｾﾝｼ","streetKana":"ﾖｼｻﾞﾜ","prefecture":"新潟県","city":"五泉市","street":"吉沢"},{"zipCode":"9591642","prefectureKana":"ﾆｲｶﾞﾀｹﾝ","cityKana":"ｺﾞｾﾝｼ","streetKana":"ﾖﾂﾔｼﾝ","prefecture":"新潟県","city":"五泉市","street":"四ツ屋新"},{"zipCode":"9591604","prefectureKana":"ﾆｲｶﾞﾀｹﾝ","cityKana":"ｺﾞｾﾝｼ","streetKana":"ﾛﾝｾﾞ","prefecture":"新潟県","city":"五泉市","street":"論瀬"},{"zipCode":"9592000","prefectureKana":"ﾆｲｶﾞﾀｹﾝ","cityKana":"ｱｶﾞﾉｼ","streetKana":"ｲｶﾆｹｲｻｲｶﾞﾅｲﾊﾞｱｲ","prefecture":"新潟県","city":"阿賀野市","street":"以下に掲載がない場合"},{"zipCode":"9591955","prefectureKana":"ﾆｲｶﾞﾀｹﾝ","cityKana":"ｱｶﾞﾉｼ","streetKana":"ｱｶﾐｽﾞ","prefecture":"新潟県","city":"阿賀野市","street":"赤水"},{"zipCode":"9592061","prefectureKana":"ﾆｲｶﾞﾀｹﾝ","cityKana":"ｱｶﾞﾉｼ","streetKana":"ｱﾗﾔ","prefecture":"新潟県","city":"阿賀野市","street":"荒屋"},{"zipCode":"9592003","prefectureKana":"ﾆｲｶﾞﾀｹﾝ","cityKana":"ｱｶﾞﾉｼ","streetKana":"ｱﾝﾉﾁｮｳ","prefecture":"新潟県","city":"阿賀野市","street":"安野町"},{"zipCode":"9592122","prefectureKana":"ﾆｲｶﾞﾀｹﾝ","cityKana":"ｱｶﾞﾉｼ","streetKana":"ｲｲﾓﾘｽｷﾞ","prefecture":"新潟県","city":"阿賀野市","street":"飯森杉"},{"zipCode":"9591902","prefectureKana":"ﾆｲｶﾞﾀｹﾝ","cityKana":"ｱｶﾞﾉｼ","streetKana":"ｲｲﾔﾏｼﾝ","prefecture":"新潟県","city":"阿賀野市","street":"飯山新"},{"zipCode":"9591959","prefectureKana":"ﾆｲｶﾞﾀｹﾝ","cityKana":"ｱｶﾞﾉｼ","streetKana":"ｲｽﾞﾐ","prefecture":"新潟県","city":"阿賀野市","street":"泉"},{"zipCode":"9592062","prefectureKana":"ﾆｲｶﾞﾀｹﾝ","cityKana":"ｱｶﾞﾉｼ","streetKana":"ｲﾁﾉﾔﾏ","prefecture":"新潟県","city":"阿賀野市","street":"市野山"},{"zipCode":"9592035","prefectureKana":"ﾆｲｶﾞﾀｹﾝ","cityKana":"ｱｶﾞﾉｼ","streetKana":"ｲﾅﾘﾁｮｳ","prefecture":"新潟県","city":"阿賀野市","street":"稲荷町"},{"zipCode":"9591927","prefectureKana":"ﾆｲｶﾞﾀｹﾝ","cityKana":"ｱｶﾞﾉｼ","streetKana":"ｲﾏｲﾀ","prefecture":"新潟県","city":"阿賀野市","street":"今板"},{"zipCode":"9592123","prefectureKana":"ﾆｲｶﾞﾀｹﾝ","cityKana":"ｱｶﾞﾉｼ","streetKana":"ｳﾊﾞｶﾞﾊｼ","prefecture":"新潟県","city":"阿賀野市","street":"姥ケ橋"},{"zipCode":"9591974","prefectureKana":"ﾆｲｶﾞﾀｹﾝ","cityKana":"ｱｶﾞﾉｼ","streetKana":"ｴﾉｷ","prefecture":"新潟県","city":"阿賀野市","street":"榎"},{"zipCode":"9591968","prefectureKana":"ﾆｲｶﾞﾀｹﾝ","cityKana":"ｱｶﾞﾉｼ","streetKana":"ｴﾉｷﾌﾅﾄ","prefecture":"新潟県","city":"阿賀野市","street":"榎船渡"},{"zipCode":"9591930","prefectureKana":"ﾆｲｶﾞﾀｹﾝ","cityKana":"ｱｶﾞﾉｼ","streetKana":"ｵｵﾐﾔ","prefecture":"新潟県","city":"阿賀野市","street":"大宮"},{"zipCode":"9591935","prefectureKana":"ﾆｲｶﾞﾀｹﾝ","cityKana":"ｱｶﾞﾉｼ","streetKana":"ｵｵﾑﾛ","prefecture":"新潟県","city":"阿賀野市","street":"大室"},{"zipCode":"9592043","prefectureKana":"ﾆｲｶﾞﾀｹﾝ","cityKana":"ｱｶﾞﾉｼ","streetKana":"ｵｵﾔﾁ","prefecture":"新潟県","city":"阿賀野市","street":"大野地"},{"zipCode":"9592025","prefectureKana":"ﾆｲｶﾞﾀｹﾝ","cityKana":"ｱｶﾞﾉｼ","streetKana":"ｵｶﾔﾏﾁｮｳ","prefecture":"新潟県","city":"阿賀野市","street":"岡山町"},{"zipCode":"9591964","prefectureKana":"ﾆｲｶﾞﾀｹﾝ","cityKana":"ｱｶﾞﾉｼ","streetKana":"ｵｷ","prefecture":"新潟県","city":"阿賀野市","street":"沖"},{"zipCode":"9591975","prefectureKana":"ﾆｲｶﾞﾀｹﾝ","cityKana":"ｱｶﾞﾉｼ","streetKana":"ｵｷﾞｼﾏ","prefecture":"新潟県","city":"阿賀野市","street":"荻島"},{"zipCode":"9592001","prefectureKana":"ﾆｲｶﾞﾀｹﾝ","cityKana":"ｱｶﾞﾉｼ","streetKana":"ｵｷﾄﾞｵﾘ","prefecture":"新潟県","city":"阿賀野市","street":"沖通"},{"zipCode":"9591977","prefectureKana":"ﾆｲｶﾞﾀｹﾝ","cityKana":"ｱｶﾞﾉｼ","streetKana":"ｵｷﾉﾀﾃ","prefecture":"新潟県","city":"阿賀野市","street":"沖ノ館"},{"zipCode":"9592121","prefectureKana":"ﾆｲｶﾞﾀｹﾝ","cityKana":"ｱｶﾞﾉｼ","streetKana":"ｵｻﾄ","prefecture":"新潟県","city":"阿賀野市","street":"小里"},{"zipCode":"9591946","prefectureKana":"ﾆｲｶﾞﾀｹﾝ","cityKana":"ｱｶﾞﾉｼ","streetKana":"ｵｼｷﾘ","prefecture":"新潟県","city":"阿賀野市","street":"押切"},{"zipCode":"9591921","prefectureKana":"ﾆｲｶﾞﾀｹﾝ","cityKana":"ｱｶﾞﾉｼ","streetKana":"ｵﾘｲ","prefecture":"新潟県","city":"阿賀野市","street":"折居"},{"zipCode":"9591914","prefectureKana":"ﾆｲｶﾞﾀｹﾝ","cityKana":"ｱｶﾞﾉｼ","streetKana":"ｵﾝﾅﾄﾞｳ","prefecture":"新潟県","city":"阿賀野市","street":"女堂"},{"zipCode":"9591938","prefectureKana":"ﾆｲｶﾞﾀｹﾝ","cityKana":"ｱｶﾞﾉｼ","streetKana":"ｶｲﾊﾞﾐ","prefecture":"新潟県","city":"阿賀野市","street":"貝喰"},{"zipCode":"9592206","prefectureKana":"ﾆｲｶﾞﾀｹﾝ","cityKana":"ｱｶﾞﾉｼ","streetKana":"ｶｶﾞﾔｷ","prefecture":"新潟県","city":"阿賀野市","street":"かがやき"},{"zipCode":"9592202","prefectureKana":"ﾆｲｶﾞﾀｹﾝ","cityKana":"ｱｶﾞﾉｼ","streetKana":"ｶｺﾞﾀ","prefecture":"新潟県","city":"阿賀野市","street":"籠田"},{"zipCode":"9592147","prefectureKana":"ﾆｲｶﾞﾀｹﾝ","cityKana":"ｱｶﾞﾉｼ","streetKana":"ｶｽｼﾞﾏ","prefecture":"新潟県","city":"阿賀野市","street":"粕島"},{"zipCode":"9592148","prefectureKana":"ﾆｲｶﾞﾀｹﾝ","cityKana":"ｱｶﾞﾉｼ","streetKana":"ｶｾｼﾞﾏ","prefecture":"新潟県","city":"阿賀野市","street":"嘉瀬島"},{"zipCode":"9592032","prefectureKana":"ﾆｲｶﾞﾀｹﾝ","cityKana":"ｱｶﾞﾉｼ","streetKana":"ｶﾞｯｺｳﾁｮｳ","prefecture":"新潟県","city":"阿賀野市","street":"学校町"},{"zipCode":"9591923","prefectureKana":"ﾆｲｶﾞﾀｹﾝ","cityKana":"ｱｶﾞﾉｼ","streetKana":"ｶﾂﾔ","prefecture":"新潟県","city":"阿賀野市","street":"勝屋"},{"zipCode":"9592044","prefectureKana":"ﾆｲｶﾞﾀｹﾝ","cityKana":"ｱｶﾞﾉｼ","streetKana":"ｶﾅｻﾞﾜ","prefecture":"新潟県","city":"阿賀野市","street":"金沢"},{"zipCode":"9591944","prefectureKana":"ﾆｲｶﾞﾀｹﾝ","cityKana":"ｱｶﾞﾉｼ","streetKana":"ｶﾅﾔ","prefecture":"新潟県","city":"阿賀野市","street":"金屋"},{"zipCode":"9592031","prefectureKana":"ﾆｲｶﾞﾀｹﾝ","cityKana":"ｱｶﾞﾉｼ","streetKana":"ｶﾈﾀﾞﾁｮｳ","prefecture":"新潟県","city":"阿賀野市","street":"金田町"},{"zipCode":"9592105","prefectureKana":"ﾆｲｶﾞﾀｹﾝ","cityKana":"ｱｶﾞﾉｼ","streetKana":"ｶﾈﾌﾞﾁｵﾂ","prefecture":"新潟県","city":"阿賀野市","street":"金渕乙"},{"zipCode":"9592103","prefectureKana":"ﾆｲｶﾞﾀｹﾝ","cityKana":"ｱｶﾞﾉｼ","streetKana":"ｶﾈﾌﾞﾁｺｳ","prefecture":"新潟県","city":"阿賀野市","street":"金渕甲"},{"zipCode":"9591975","prefectureKana":"ﾆｲｶﾞﾀｹﾝ","cityKana":"ｱｶﾞﾉｼ","streetKana":"ｶﾐｲｲﾂﾞｶ","prefecture":"新潟県","city":"阿賀野市","street":"上飯塚"},{"zipCode":"9591915","prefectureKana":"ﾆｲｶﾞﾀｹﾝ","cityKana":"ｱｶﾞﾉｼ","streetKana":"ｶﾐｲﾁﾌﾞ","prefecture":"新潟県","city":"阿賀野市","street":"上一分"},{"zipCode":"9592081","prefectureKana":"ﾆｲｶﾞﾀｹﾝ","cityKana":"ｱｶﾞﾉｼ","streetKana":"ｶﾐｴﾊﾞﾀ","prefecture":"新潟県","city":"阿賀野市","street":"上江端"},{"zipCode":"9591908","prefectureKana":"ﾆｲｶﾞﾀｹﾝ","cityKana":"ｱｶﾞﾉｼ","streetKana":"ｶﾐｸﾗﾉ","prefecture":"新潟県","city":"阿賀野市","street":"上蔵野"},{"zipCode":"9592116","prefectureKana":"ﾆｲｶﾞﾀｹﾝ","cityKana":"ｱｶﾞﾉｼ","streetKana":"ｶﾐｸﾛｾ","prefecture":"新潟県","city":"阿賀野市","street":"上黒瀬"},{"zipCode":"9591933","prefectureKana":"ﾆｲｶﾞﾀｹﾝ","cityKana":"ｱｶﾞﾉｼ","streetKana":"ｶﾐｺﾅｶﾔﾏ","prefecture":"新潟県","city":"阿賀野市","street":"上小中山"},{"zipCode":"9591942","prefectureKana":"ﾆｲｶﾞﾀｹﾝ","cityKana":"ｱｶﾞﾉｼ","streetKana":"ｶﾐｻｶﾏﾁ","prefecture":"新潟県","city":"阿賀野市","street":"上坂町"},{"zipCode":"9591962","prefectureKana":"ﾆｲｶﾞﾀｹﾝ","cityKana":"ｱｶﾞﾉｼ","streetKana":"ｶﾐｾｷｸﾞﾁ","prefecture":"新潟県","city":"阿賀野市","street":"上関口"},{"zipCode":"9591909","prefectureKana":"ﾆｲｶﾞﾀｹﾝ","cityKana":"ｱｶﾞﾉｼ","streetKana":"ｶﾐﾀｶｾｷ","prefecture":"新潟県","city":"阿賀野市","street":"上高関"},{"zipCode":"9591973","prefectureKana":"ﾆｲｶﾞﾀｹﾝ","cityKana":"ｱｶﾞﾉｼ","streetKana":"ｶﾐﾀｶﾀﾞ","prefecture":"新潟県","city":"阿賀野市","street":"上高田"},{"zipCode":"9592047","prefectureKana":"ﾆｲｶﾞﾀｹﾝ","cityKana":"ｱｶﾞﾉｼ","streetKana":"ｶﾐﾅｶ","prefecture":"新潟県","city":"阿賀野市","street":"上中"},{"zipCode":"9592048","prefectureKana":"ﾆｲｶﾞﾀｹﾝ","cityKana":"ｱｶﾞﾉｼ","streetKana":"ｶﾐﾅｶﾉﾒ","prefecture":"新潟県","city":"阿賀野市","street":"上中野目"},{"zipCode":"9591904","prefectureKana":"ﾆｲｶﾞﾀｹﾝ","cityKana":"ｱｶﾞﾉｼ","streetKana":"ｶﾐﾆｼﾉ","prefecture":"新潟県","city":"阿賀野市","street":"上西野"},{"zipCode":"9591921","prefectureKana":"ﾆｲｶﾞﾀｹﾝ","cityKana":"ｱｶﾞﾉｼ","streetKana":"ｶﾐﾆｼﾔﾏ","prefecture":"新潟県","city":"阿賀野市","street":"上西山"},{"zipCode":"9592073","prefectureKana":"ﾆｲｶﾞﾀｹﾝ","cityKana":"ｱｶﾞﾉｼ","streetKana":"ｶﾐﾌｸｵｶ","prefecture":"新潟県","city":"阿賀野市","street":"上福岡"},{"zipCode":"9591932","prefectureKana":"ﾆｲｶﾞﾀｹﾝ","cityKana":"ｱｶﾞﾉｼ","streetKana":"ｶﾐﾔﾏﾀﾞ","prefecture":"新潟県","city":"阿賀野市","street":"上山田"},{"zipCode":"9591945","prefectureKana":"ﾆｲｶﾞﾀｹﾝ","cityKana":"ｱｶﾞﾉｼ","streetKana":"ｶﾐﾔﾏﾔ","prefecture":"新潟県","city":"阿賀野市","street":"上山屋"},{"zipCode":"9591978","prefectureKana":"ﾆｲｶﾞﾀｹﾝ","cityKana":"ｱｶﾞﾉｼ","streetKana":"ｶﾜｵｶ","prefecture":"新潟県","city":"阿賀野市","street":"川岡"},{"zipCode":"9591949","prefectureKana":"ﾆｲｶﾞﾀｹﾝ","cityKana":"ｱｶﾞﾉｼ","streetKana":"ｶﾜｻｷ","prefecture":"新潟県","city":"阿賀野市","street":"川崎"},{"zipCode":"9592143","prefectureKana":"ﾆｲｶﾞﾀｹﾝ","cityKana":"ｱｶﾞﾉｼ","streetKana":"ｶﾜﾏｴ","prefecture":"新潟県","city":"阿賀野市","street":"川前"},{"zipCode":"9592014","prefectureKana":"ﾆｲｶﾞﾀｹﾝ","cityKana":"ｱｶﾞﾉｼ","streetKana":"ｷﾀｿﾞﾉﾁｮｳ","prefecture":"新潟県","city":"阿賀野市","street":"北園町"},{"zipCode":"9592015","prefectureKana":"ﾆｲｶﾞﾀｹﾝ","cityKana":"ｱｶﾞﾉｼ","streetKana":"ｷﾀﾎﾝﾁｮｳ","prefecture":"新潟県","city":"阿賀野市","street":"北本町"},{"zipCode":"9592125","prefectureKana":"ﾆｲｶﾞﾀｹﾝ","cityKana":"ｱｶﾞﾉｼ","streetKana":"ｷｮｳｶﾞｼﾏ","prefecture":"新潟県","city":"阿賀野市","street":"京ケ島"},{"zipCode":"9592136","prefectureKana":"ﾆｲｶﾞﾀｹﾝ","cityKana":"ｱｶﾞﾉｼ","streetKana":"ｷｮｳｶﾞｾｺｳｷﾞｮｳﾀﾞﾝﾁ","prefecture":"新潟県","city":"阿賀野市","street":"京ケ瀬工業団地"},{"zipCode":"9592082","prefectureKana":"ﾆｲｶﾞﾀｹﾝ","cityKana":"ｱｶﾞﾉｼ","streetKana":"ｷﾘｳﾒｼﾝﾃﾞﾝ","prefecture":"新潟県","city":"阿賀野市","street":"切梅新田"},{"zipCode":"9592214","prefectureKana":"ﾆｲｶﾞﾀｹﾝ","cityKana":"ｱｶﾞﾉｼ","streetKana":"ｸｿｳｽﾞ","prefecture":"新潟県","city":"阿賀野市","street":"草水"},{"zipCode":"9592212","prefectureKana":"ﾆｲｶﾞﾀｹﾝ","cityKana":"ｱｶﾞﾉｼ","streetKana":"ｸﾎﾞ","prefecture":"新潟県","city":"阿賀野市","street":"久保"},{"zipCode":"9592126","prefectureKana":"ﾆｲｶﾞﾀｹﾝ","cityKana":"ｱｶﾞﾉｼ","streetKana":"ｸﾎﾞｶﾞﾜﾗ","prefecture":"新潟県","city":"阿賀野市","street":"窪川原"},{"zipCode":"9592083","prefectureKana":"ﾆｲｶﾞﾀｹﾝ","cityKana":"ｱｶﾞﾉｼ","streetKana":"ｸﾏｲｼﾝﾃﾞﾝ","prefecture":"新潟県","city":"阿賀野市","street":"熊居新田"},{"zipCode":"9591907","prefectureKana":"ﾆｲｶﾞﾀｹﾝ","cityKana":"ｱｶﾞﾉｼ","streetKana":"ｸﾏﾄﾞｳ","prefecture":"新潟県","city":"阿賀野市","street":"熊堂"},{"zipCode":"9592002","prefectureKana":"ﾆｲｶﾞﾀｹﾝ","cityKana":"ｱｶﾞﾉｼ","streetKana":"ｹﾞｼﾞｮｳ","prefecture":"新潟県","city":"阿賀野市","street":"下条"},{"zipCode":"9592026","prefectureKana":"ﾆｲｶﾞﾀｹﾝ","cityKana":"ｱｶﾞﾉｼ","streetKana":"ｹﾞｼﾞｮｳﾁｮｳ","prefecture":"新潟県","city":"阿賀野市","street":"下条町"},{"zipCode":"9592222","prefectureKana":"ﾆｲｶﾞﾀｹﾝ","cityKana":"ｱｶﾞﾉｼ","streetKana":"ｺｳｹ","prefecture":"新潟県","city":"阿賀野市","street":"小浮"},{"zipCode":"9592134","prefectureKana":"ﾆｲｶﾞﾀｹﾝ","cityKana":"ｱｶﾞﾉｼ","streetKana":"ｺｶﾞﾜﾗ","prefecture":"新潟県","city":"阿賀野市","street":"小河原"},{"zipCode":"9591916","prefectureKana":"ﾆｲｶﾞﾀｹﾝ","cityKana":"ｱｶﾞﾉｼ","streetKana":"ｺｸﾞﾘﾔﾏ","prefecture":"新潟県","city":"阿賀野市","street":"小栗山"},{"zipCode":"9592065","prefectureKana":"ﾆｲｶﾞﾀｹﾝ","cityKana":"ｱｶﾞﾉｼ","streetKana":"ｺｻﾞｶｲ","prefecture":"新潟県","city":"阿賀野市","street":"小境"},{"zipCode":"9592146","prefectureKana":"ﾆｲｶﾞﾀｹﾝ","cityKana":"ｱｶﾞﾉｼ","streetKana":"ｺｼﾞﾏ","prefecture":"新潟県","city":"阿賀野市","street":"小島"},{"zipCode":"9592054","prefectureKana":"ﾆｲｶﾞﾀｹﾝ","cityKana":"ｱｶﾞﾉｼ","streetKana":"ｺｼﾐﾄﾞｳ","prefecture":"新潟県","city":"阿賀野市","street":"越御堂"},{"zipCode":"9592213","prefectureKana":"ﾆｲｶﾞﾀｹﾝ","cityKana":"ｱｶﾞﾉｼ","streetKana":"ｺﾏﾂ","prefecture":"新潟県","city":"阿賀野市","street":"小松"},{"zipCode":"9592101","prefectureKana":"ﾆｲｶﾞﾀｹﾝ","cityKana":"ｱｶﾞﾉｼ","streetKana":"ｺﾏﾊﾞﾔｼ","prefecture":"新潟県","city":"阿賀野市","street":"駒林"},{"zipCode":"9592102","prefectureKana":"ﾆｲｶﾞﾀｹﾝ","cityKana":"ｱｶﾞﾉｼ","streetKana":"ｺﾞﾛｳﾏｷ","prefecture":"新潟県","city":"阿賀野市","street":"五郎巻"},{"zipCode":"9592053","prefectureKana":"ﾆｲｶﾞﾀｹﾝ","cityKana":"ｱｶﾞﾉｼ","streetKana":"ｻｶｲｼﾝ","prefecture":"新潟県","city":"阿賀野市","street":"境新"},{"zipCode":"9592042","prefectureKana":"ﾆｲｶﾞﾀｹﾝ","cityKana":"ｱｶﾞﾉｼ","streetKana":"ｻｶｲｼﾝﾃﾞﾝ","prefecture":"新潟県","city":"阿賀野市","street":"境新田"},{"zipCode":"9592135","prefectureKana":"ﾆｲｶﾞﾀｹﾝ","cityKana":"ｱｶﾞﾉｼ","streetKana":"ｻｶﾞﾘ","prefecture":"新潟県","city":"阿賀野市","street":"下里"},{"zipCode":"9591918","prefectureKana":"ﾆｲｶﾞﾀｹﾝ","cityKana":"ｱｶﾞﾉｼ","streetKana":"ｻｻｵｶ","prefecture":"新潟県","city":"阿賀野市","street":"笹岡"},{"zipCode":"9592045","prefectureKana":"ﾆｲｶﾞﾀｹﾝ","cityKana":"ｱｶﾞﾉｼ","streetKana":"ｻﾄ","prefecture":"新潟県","city":"阿賀野市","street":"里"},{"zipCode":"9591913","prefectureKana":"ﾆｲｶﾞﾀｹﾝ","cityKana":"ｱｶﾞﾉｼ","streetKana":"ｻﾜｸﾞﾁ","prefecture":"新潟県","city":"阿賀野市","street":"沢口"},{"zipCode":"9592211","prefectureKana":"ﾆｲｶﾞﾀｹﾝ","cityKana":"ｱｶﾞﾉｼ","streetKana":"ｻﾜﾀﾞ","prefecture":"新潟県","city":"阿賀野市","street":"沢田"},{"zipCode":"9592205","prefectureKana":"ﾆｲｶﾞﾀｹﾝ","cityKana":"ｱｶﾞﾉｼ","streetKana":"ｼﾞｼｬ","prefecture":"新潟県","city":"阿賀野市","street":"寺社"},{"zipCode":"9592145","prefectureKana":"ﾆｲｶﾞﾀｹﾝ","cityKana":"ｱｶﾞﾉｼ","streetKana":"ｼﾞｼｬｼﾝ","prefecture":"新潟県","city":"阿賀野市","street":"寺社新"},{"zipCode":"9592051","prefectureKana":"ﾆｲｶﾞﾀｹﾝ","cityKana":"ｱｶﾞﾉｼ","streetKana":"ｼﾁｺｸ","prefecture":"新潟県","city":"阿賀野市","street":"七石"},{"zipCode":"9592225","prefectureKana":"ﾆｲｶﾞﾀｹﾝ","cityKana":"ｱｶﾞﾉｼ","streetKana":"ｼﾏｾﾞ","prefecture":"新潟県","city":"阿賀野市","street":"嶋瀬"},{"zipCode":"9591965","prefectureKana":"ﾆｲｶﾞﾀｹﾝ","cityKana":"ｱｶﾞﾉｼ","streetKana":"ｼﾏﾀﾞ","prefecture":"新潟県","city":"阿賀野市","street":"島田"},{"zipCode":"9591912","prefectureKana":"ﾆｲｶﾞﾀｹﾝ","cityKana":"ｱｶﾞﾉｼ","streetKana":"ｼﾓｲﾁﾌﾞ","prefecture":"新潟県","city":"阿賀野市","street":"下一分"},{"zipCode":"9592117","prefectureKana":"ﾆｲｶﾞﾀｹﾝ","cityKana":"ｱｶﾞﾉｼ","streetKana":"ｼﾓｸﾛｾ","prefecture":"新潟県","city":"阿賀野市","street":"下黒瀬"},{"zipCode":"9592124","prefectureKana":"ﾆｲｶﾞﾀｹﾝ","cityKana":"ｱｶﾞﾉｼ","streetKana":"ｼﾓﾉﾊｼ","prefecture":"新潟県","city":"阿賀野市","street":"下ノ橋"},{"zipCode":"9591951","prefectureKana":"ﾆｲｶﾞﾀｹﾝ","cityKana":"ｱｶﾞﾉｼ","streetKana":"ｼﾓﾌｸｵｶ","prefecture":"新潟県","city":"阿賀野市","street":"下福岡"},{"zipCode":"9591952","prefectureKana":"ﾆｲｶﾞﾀｹﾝ","cityKana":"ｱｶﾞﾉｼ","streetKana":"ｼﾓﾔﾏﾔ","prefecture":"新潟県","city":"阿賀野市","street":"下山屋"},{"zipCode":"9591936","prefectureKana":"ﾆｲｶﾞﾀｹﾝ","cityKana":"ｱｶﾞﾉｼ","streetKana":"ｼﾞｭｳﾆｼﾝ","prefecture":"新潟県","city":"阿賀野市","street":"十二神"},{"zipCode":"9592114","prefectureKana":"ﾆｲｶﾞﾀｹﾝ","cityKana":"ｱｶﾞﾉｼ","streetKana":"ｼﾞｮｳ","prefecture":"新潟県","city":"阿賀野市","street":"城"},{"zipCode":"9592046","prefectureKana":"ﾆｲｶﾞﾀｹﾝ","cityKana":"ｱｶﾞﾉｼ","streetKana":"ｼｮｳｶﾞﾐﾔ","prefecture":"新潟県","city":"阿賀野市","street":"庄ケ宮"},{"zipCode":"9591943","prefectureKana":"ﾆｲｶﾞﾀｹﾝ","cityKana":"ｱｶﾞﾉｼ","streetKana":"ｼﾞﾛｳﾏﾙ","prefecture":"新潟県","city":"阿賀野市","street":"次郎丸"},{"zipCode":"9591925","prefectureKana":"ﾆｲｶﾞﾀｹﾝ","cityKana":"ｱｶﾞﾉｼ","streetKana":"ｼﾝｺｳｼﾞｳﾞｨﾚｯｼﾞ","prefecture":"新潟県","city":"阿賀野市","street":"真光寺ヴィレッジ"},{"zipCode":"9592086","prefectureKana":"ﾆｲｶﾞﾀｹﾝ","cityKana":"ｱｶﾞﾉｼ","streetKana":"ｼﾝｻﾞ","prefecture":"新潟県","city":"阿賀野市","street":"新座"},{"zipCode":"9592217","prefectureKana":"ﾆｲｶﾞﾀｹﾝ","cityKana":"ｱｶﾞﾉｼ","streetKana":"ｼﾝﾎﾞ","prefecture":"新潟県","city":"阿賀野市","street":"新保"},{"zipCode":"9592013","prefectureKana":"ﾆｲｶﾞﾀｹﾝ","cityKana":"ｱｶﾞﾉｼ","streetKana":"ｽｲﾊﾞﾗ","prefecture":"新潟県","city":"阿賀野市","street":"水原"},{"zipCode":"9591956","prefectureKana":"ﾆｲｶﾞﾀｹﾝ","cityKana":"ｱｶﾞﾉｼ","streetKana":"ｽﾊﾞｼﾘ","prefecture":"新潟県","city":"阿賀野市","street":"須走"},{"zipCode":"9592144","prefectureKana":"ﾆｲｶﾞﾀｹﾝ","cityKana":"ｱｶﾞﾉｼ","streetKana":"ｾｲﾉ","prefecture":"新潟県","city":"阿賀野市","street":"清野"},{"zipCode":"9592133","prefectureKana":"ﾆｲｶﾞﾀｹﾝ","cityKana":"ｱｶﾞﾉｼ","streetKana":"ｾｷﾔ","prefecture":"新潟県","city":"阿賀野市","street":"関屋"},{"zipCode":"9592224","prefectureKana":"ﾆｲｶﾞﾀｹﾝ","cityKana":"ｱｶﾞﾉｼ","streetKana":"ｾﾝﾄｳｼﾞ","prefecture":"新潟県","city":"阿賀野市","street":"千唐仁"},{"zipCode":"9592112","prefectureKana":"ﾆｲｶﾞﾀｹﾝ","cityKana":"ｱｶﾞﾉｼ","streetKana":"ｿｳｺﾞｳ","prefecture":"新潟県","city":"阿賀野市","street":"曽郷"},{"zipCode":"9591929","prefectureKana":"ﾆｲｶﾞﾀｹﾝ","cityKana":"ｱｶﾞﾉｼ","streetKana":"ﾀﾞｲﾆﾁ","prefecture":"新潟県","city":"阿賀野市","street":"大日"},{"zipCode":"9591971","prefectureKana":"ﾆｲｶﾞﾀｹﾝ","cityKana":"ｱｶﾞﾉｼ","streetKana":"ﾀｶﾀﾞ","prefecture":"新潟県","city":"阿賀野市","street":"高田"},{"zipCode":"9591905","prefectureKana":"ﾆｲｶﾞﾀｹﾝ","cityKana":"ｱｶﾞﾉｼ","streetKana":"ﾀｷｻﾜ","prefecture":"新潟県","city":"阿賀野市","street":"滝沢"},{"zipCode":"9592052","prefectureKana":"ﾆｲｶﾞﾀｹﾝ","cityKana":"ｱｶﾞﾉｼ","streetKana":"ﾀﾅｶ","prefecture":"新潟県","city":"阿賀野市","street":"田中"},{"zipCode":"9592115","prefectureKana":"ﾆｲｶﾞﾀｹﾝ","cityKana":"ｱｶﾞﾉｼ","streetKana":"ﾀﾔﾏ","prefecture":"新潟県","city":"阿賀野市","street":"田山"},{"zipCode":"9592021","prefectureKana":"ﾆｲｶﾞﾀｹﾝ","cityKana":"ｱｶﾞﾉｼ","streetKana":"ﾁｭｳｵｳﾁｮｳ","prefecture":"新潟県","city":"阿賀野市","street":"中央町"},{"zipCode":"9592011","prefectureKana":"ﾆｲｶﾞﾀｹﾝ","cityKana":"ｱｶﾞﾉｼ","streetKana":"ﾁﾜﾗ","prefecture":"新潟県","city":"阿賀野市","street":"千原"},{"zipCode":"9591966","prefectureKana":"ﾆｲｶﾞﾀｹﾝ","cityKana":"ｱｶﾞﾉｼ","streetKana":"ﾂｶﾀﾞ","prefecture":"新潟県","city":"阿賀野市","street":"塚田"},{"zipCode":"9592131","prefectureKana":"ﾆｲｶﾞﾀｹﾝ","cityKana":"ｱｶﾞﾉｼ","streetKana":"ﾂｷｻﾞｷ","prefecture":"新潟県","city":"阿賀野市","street":"月崎"},{"zipCode":"9591917","prefectureKana":"ﾆｲｶﾞﾀｹﾝ","cityKana":"ｱｶﾞﾉｼ","streetKana":"ﾂﾂﾐ","prefecture":"新潟県","city":"阿賀野市","street":"堤"},{"zipCode":"9591926","prefectureKana":"ﾆｲｶﾞﾀｹﾝ","cityKana":"ｱｶﾞﾉｼ","streetKana":"ﾃﾞﾕ","prefecture":"新潟県","city":"阿賀野市","street":"出湯"},{"zipCode":"9592012","prefectureKana":"ﾆｲｶﾞﾀｹﾝ","cityKana":"ｱｶﾞﾉｼ","streetKana":"ﾃﾝｼﾞﾝﾄﾞｳ","prefecture":"新潟県","city":"阿賀野市","street":"天神堂"},{"zipCode":"9592022","prefectureKana":"ﾆｲｶﾞﾀｹﾝ","cityKana":"ｱｶﾞﾉｼ","streetKana":"ﾄｼﾞｮｳﾁｮｳ","prefecture":"新潟県","city":"阿賀野市","street":"外城町"},{"zipCode":"9592063","prefectureKana":"ﾆｲｶﾞﾀｹﾝ","cityKana":"ｱｶﾞﾉｼ","streetKana":"ﾄﾞﾊﾞｼ","prefecture":"新潟県","city":"阿賀野市","street":"土橋"},{"zipCode":"9591911","prefectureKana":"ﾆｲｶﾞﾀｹﾝ","cityKana":"ｱｶﾞﾉｼ","streetKana":"ﾅｶﾞｵｷ","prefecture":"新潟県","city":"阿賀野市","street":"長起"},{"zipCode":"9592066","prefectureKana":"ﾆｲｶﾞﾀｹﾝ","cityKana":"ｱｶﾞﾉｼ","streetKana":"ﾅｶｶﾞﾀ","prefecture":"新潟県","city":"阿賀野市","street":"中潟"},{"zipCode":"9592024","prefectureKana":"ﾆｲｶﾞﾀｹﾝ","cityKana":"ｱｶﾞﾉｼ","streetKana":"ﾅｶｼﾞﾏ","prefecture":"新潟県","city":"阿賀野市","street":"中島"},{"zipCode":"9592024","prefectureKana":"ﾆｲｶﾞﾀｹﾝ","cityKana":"ｱｶﾞﾉｼ","streetKana":"ﾅｶｼﾞﾏﾁｮｳ","prefecture":"新潟県","city":"阿賀野市","street":"中島町"},{"zipCode":"9591901","prefectureKana":"ﾆｲｶﾞﾀｹﾝ","cityKana":"ｱｶﾞﾉｼ","streetKana":"ﾅｶﾉﾄｵﾘ","prefecture":"新潟県","city":"阿賀野市","street":"中ノ通"},{"zipCode":"9591934","prefectureKana":"ﾆｲｶﾞﾀｹﾝ","cityKana":"ｱｶﾞﾉｼ","streetKana":"ﾅﾅｳﾗ","prefecture":"新潟県","city":"阿賀野市","street":"七浦"},{"zipCode":"9592141","prefectureKana":"ﾆｲｶﾞﾀｹﾝ","cityKana":"ｱｶﾞﾉｼ","streetKana":"ﾅﾅｼﾏ","prefecture":"新潟県","city":"阿賀野市","street":"七島"},{"zipCode":"9592072","prefectureKana":"ﾆｲｶﾞﾀｹﾝ","cityKana":"ｱｶﾞﾉｼ","streetKana":"ﾆｼｵｶ","prefecture":"新潟県","city":"阿賀野市","street":"西岡"},{"zipCode":"9592223","prefectureKana":"ﾆｲｶﾞﾀｹﾝ","cityKana":"ｱｶﾞﾉｼ","streetKana":"ﾇﾉﾒ","prefecture":"新潟県","city":"阿賀野市","street":"布目"},{"zipCode":"9592111","prefectureKana":"ﾆｲｶﾞﾀｹﾝ","cityKana":"ｱｶﾞﾉｼ","streetKana":"ﾈｺﾔﾏ","prefecture":"新潟県","city":"阿賀野市","street":"猫山"},{"zipCode":"9592226","prefectureKana":"ﾆｲｶﾞﾀｹﾝ","cityKana":"ｱｶﾞﾉｼ","streetKana":"ﾉﾀﾞ","prefecture":"新潟県","city":"阿賀野市","street":"野田"},{"zipCode":"9591958","prefectureKana":"ﾆｲｶﾞﾀｹﾝ","cityKana":"ｱｶﾞﾉｼ","streetKana":"ﾉﾑﾗ","prefecture":"新潟県","city":"阿賀野市","street":"野村"},{"zipCode":"9591941","prefectureKana":"ﾆｲｶﾞﾀｹﾝ","cityKana":"ｱｶﾞﾉｼ","streetKana":"ﾊｸﾞﾛ","prefecture":"新潟県","city":"阿賀野市","street":"羽黒"},{"zipCode":"9592142","prefectureKana":"ﾆｲｶﾞﾀｹﾝ","cityKana":"ｱｶﾞﾉｼ","streetKana":"ﾊｼｷﾒﾝ","prefecture":"新潟県","city":"阿賀野市","street":"箸木免"},{"zipCode":"9591924","prefectureKana":"ﾆｲｶﾞﾀｹﾝ","cityKana":"ｱｶﾞﾉｼ","streetKana":"ﾊﾀｴ","prefecture":"新潟県","city":"阿賀野市","street":"畑江"},{"zipCode":"9592201","prefectureKana":"ﾆｲｶﾞﾀｹﾝ","cityKana":"ｱｶﾞﾉｼ","streetKana":"ﾊﾀﾔ","prefecture":"新潟県","city":"阿賀野市","street":"羽多屋"},{"zipCode":"9592041","prefectureKana":"ﾆｲｶﾞﾀｹﾝ","cityKana":"ｱｶﾞﾉｼ","streetKana":"ﾊﾗ","prefecture":"新潟県","city":"阿賀野市","street":"原"},{"zipCode":"9592075","prefectureKana":"ﾆｲｶﾞﾀｹﾝ","cityKana":"ｱｶﾞﾉｼ","streetKana":"ﾋｶﾞｼﾏﾁ","prefecture":"新潟県","city":"阿賀野市","street":"東町"},{"zipCode":"9592023","prefectureKana":"ﾆｲｶﾞﾀｹﾝ","cityKana":"ｱｶﾞﾉｼ","streetKana":"ﾋﾉﾃﾞﾁｮｳ","prefecture":"新潟県","city":"阿賀野市","street":"日の出町"},{"zipCode":"9592107","prefectureKana":"ﾆｲｶﾞﾀｹﾝ","cityKana":"ｱｶﾞﾉｼ","streetKana":"ﾌｶﾎﾘ","prefecture":"新潟県","city":"阿賀野市","street":"深堀"},{"zipCode":"9592049","prefectureKana":"ﾆｲｶﾞﾀｹﾝ","cityKana":"ｱｶﾞﾉｼ","streetKana":"ﾌｶﾏﾁ","prefecture":"新潟県","city":"阿賀野市","street":"深町"},{"zipCode":"9591937","prefectureKana":"ﾆｲｶﾞﾀｹﾝ","cityKana":"ｱｶﾞﾉｼ","streetKana":"ﾌｸｲ","prefecture":"新潟県","city":"阿賀野市","street":"福井"},{"zipCode":"9592064","prefectureKana":"ﾆｲｶﾞﾀｹﾝ","cityKana":"ｱｶﾞﾉｼ","streetKana":"ﾌｸﾀﾞ","prefecture":"新潟県","city":"阿賀野市","street":"福田"},{"zipCode":"9592204","prefectureKana":"ﾆｲｶﾞﾀｹﾝ","cityKana":"ｱｶﾞﾉｼ","streetKana":"ﾌｸﾅｶﾞ","prefecture":"新潟県","city":"阿賀野市","street":"福永"},{"zipCode":"9591903","prefectureKana":"ﾆｲｶﾞﾀｹﾝ","cityKana":"ｱｶﾞﾉｼ","streetKana":"ﾌｼﾞﾔ","prefecture":"新潟県","city":"阿賀野市","street":"藤屋"},{"zipCode":"9591976","prefectureKana":"ﾆｲｶﾞﾀｹﾝ","cityKana":"ｱｶﾞﾉｼ","streetKana":"ﾌﾅｲ","prefecture":"新潟県","city":"阿賀野市","street":"船居"},{"zipCode":"9592074","prefectureKana":"ﾆｲｶﾞﾀｹﾝ","cityKana":"ｱｶﾞﾉｼ","streetKana":"ﾌﾞﾝﾀﾞ","prefecture":"新潟県","city":"阿賀野市","street":"分田"},{"zipCode":"9592106","prefectureKana":"ﾆｲｶﾞﾀｹﾝ","cityKana":"ｱｶﾞﾉｼ","streetKana":"ﾎｳﾔｷﾞ","prefecture":"新潟県","city":"阿賀野市","street":"法柳"},{"zipCode":"9592104","prefectureKana":"ﾆｲｶﾞﾀｹﾝ","cityKana":"ｱｶﾞﾉｼ","streetKana":"ﾎｳﾔｷﾞｼﾝﾃﾞﾝ","prefecture":"新潟県","city":"阿賀野市","street":"法柳新田"},{"zipCode":"9591953","prefectureKana":"ﾆｲｶﾞﾀｹﾝ","cityKana":"ｱｶﾞﾉｼ","streetKana":"ﾎｯｷｭｳ","prefecture":"新潟県","city":"阿賀野市","street":"発久"},{"zipCode":"9592055","prefectureKana":"ﾆｲｶﾞﾀｹﾝ","cityKana":"ｱｶﾞﾉｼ","streetKana":"ﾎﾘｺｼ","prefecture":"新潟県","city":"阿賀野市","street":"堀越"},{"zipCode":"9591967","prefectureKana":"ﾆｲｶﾞﾀｹﾝ","cityKana":"ｱｶﾞﾉｼ","streetKana":"ﾎﾝﾐｮｳ","prefecture":"新潟県","city":"阿賀野市","street":"本明"},{"zipCode":"9591954","prefectureKana":"ﾆｲｶﾞﾀｹﾝ","cityKana":"ｱｶﾞﾉｼ","streetKana":"ﾏｲﾀ","prefecture":"新潟県","city":"阿賀野市","street":"蒔田"},{"zipCode":"9592132","prefectureKana":"ﾆｲｶﾞﾀｹﾝ","cityKana":"ｱｶﾞﾉｼ","streetKana":"ﾏｴﾔﾏ","prefecture":"新潟県","city":"阿賀野市","street":"前山"},{"zipCode":"9592056","prefectureKana":"ﾆｲｶﾞﾀｹﾝ","cityKana":"ｱｶﾞﾉｼ","streetKana":"ﾏｷｼﾏ","prefecture":"新潟県","city":"阿賀野市","street":"牧島"},{"zipCode":"9592203","prefectureKana":"ﾆｲｶﾞﾀｹﾝ","cityKana":"ｱｶﾞﾉｼ","streetKana":"ﾏﾙﾔﾏ","prefecture":"新潟県","city":"阿賀野市","street":"丸山"},{"zipCode":"9592071","prefectureKana":"ﾆｲｶﾞﾀｹﾝ","cityKana":"ｱｶﾞﾉｼ","streetKana":"ﾐｽﾞｶﾞｿﾈ","prefecture":"新潟県","city":"阿賀野市","street":"水ケ曽根"},{"zipCode":"9592006","prefectureKana":"ﾆｲｶﾞﾀｹﾝ","cityKana":"ｱｶﾞﾉｼ","streetKana":"ﾐｿﾗﾉﾁｮｳ","prefecture":"新潟県","city":"阿賀野市","street":"みそら野町"},{"zipCode":"9592113","prefectureKana":"ﾆｲｶﾞﾀｹﾝ","cityKana":"ｱｶﾞﾉｼ","streetKana":"ﾐﾄﾞﾘｵｶ","prefecture":"新潟県","city":"阿賀野市","street":"緑岡"},{"zipCode":"9592034","prefectureKana":"ﾆｲｶﾞﾀｹﾝ","cityKana":"ｱｶﾞﾉｼ","streetKana":"ﾐﾄﾞﾘﾁｮｳ","prefecture":"新潟県","city":"阿賀野市","street":"緑町"},{"zipCode":"9592004","prefectureKana":"ﾆｲｶﾞﾀｹﾝ","cityKana":"ｱｶﾞﾉｼ","streetKana":"ﾐﾅﾐｱﾝﾉﾁｮｳ","prefecture":"新潟県","city":"阿賀野市","street":"南安野町"},{"zipCode":"9591963","prefectureKana":"ﾆｲｶﾞﾀｹﾝ","cityKana":"ｱｶﾞﾉｼ","streetKana":"ﾐﾅﾐｵｷﾔﾏ","prefecture":"新潟県","city":"阿賀野市","street":"南沖山"},{"zipCode":"9591948","prefectureKana":"ﾆｲｶﾞﾀｹﾝ","cityKana":"ｱｶﾞﾉｼ","streetKana":"ﾐﾔｼﾞﾏ","prefecture":"新潟県","city":"阿賀野市","street":"宮島"},{"zipCode":"9591947","prefectureKana":"ﾆｲｶﾞﾀｹﾝ","cityKana":"ｱｶﾞﾉｼ","streetKana":"ﾐﾔﾉｼﾀ","prefecture":"新潟県","city":"阿賀野市","street":"宮下"},{"zipCode":"9592130","prefectureKana":"ﾆｲｶﾞﾀｹﾝ","cityKana":"ｱｶﾞﾉｼ","streetKana":"ﾑｲｶﾉ","prefecture":"新潟県","city":"阿賀野市","street":"六日野"},{"zipCode":"9591910","prefectureKana":"ﾆｲｶﾞﾀｹﾝ","cityKana":"ｱｶﾞﾉｼ","streetKana":"ﾑｶｲﾅｶﾉﾄｵﾘ","prefecture":"新潟県","city":"阿賀野市","street":"向中ノ通"},{"zipCode":"9591906","prefectureKana":"ﾆｲｶﾞﾀｹﾝ","cityKana":"ｱｶﾞﾉｼ","streetKana":"ﾑﾗｵｶ","prefecture":"新潟県","city":"阿賀野市","street":"村岡"},{"zipCode":"9591928","prefectureKana":"ﾆｲｶﾞﾀｹﾝ","cityKana":"ｱｶﾞﾉｼ","streetKana":"ﾑﾗｽｷﾞ","prefecture":"新潟県","city":"阿賀野市","street":"村杉"},{"zipCode":"9592037","prefectureKana":"ﾆｲｶﾞﾀｹﾝ","cityKana":"ｱｶﾞﾉｼ","streetKana":"ﾓﾓﾂﾞ","prefecture":"新潟県","city":"阿賀野市","street":"百津"},{"zipCode":"9592033","prefectureKana":"ﾆｲｶﾞﾀｹﾝ","cityKana":"ｱｶﾞﾉｼ","streetKana":"ﾓﾓﾂﾞﾁｮｳ","prefecture":"新潟県","city":"阿賀野市","street":"百津町"},{"zipCode":"9592221","prefectureKana":"ﾆｲｶﾞﾀｹﾝ","cityKana":"ｱｶﾞﾉｼ","streetKana":"ﾔｽﾀﾞ","prefecture":"新潟県","city":"阿賀野市","street":"保田"},{"zipCode":"9592057","prefectureKana":"ﾆｲｶﾞﾀｹﾝ","cityKana":"ｱｶﾞﾉｼ","streetKana":"ﾔﾁｼﾞｮｳ","prefecture":"新潟県","city":"阿賀野市","street":"野地城"},{"zipCode":"9592007","prefectureKana":"ﾆｲｶﾞﾀｹﾝ","cityKana":"ｱｶﾞﾉｼ","streetKana":"ﾔﾏｸﾞﾁ","prefecture":"新潟県","city":"阿賀野市","street":"山口"},{"zipCode":"9592005","prefectureKana":"ﾆｲｶﾞﾀｹﾝ","cityKana":"ｱｶﾞﾉｼ","streetKana":"ﾔﾏｸﾞﾁﾁｮｳ","prefecture":"新潟県","city":"阿賀野市","street":"山口町"},{"zipCode":"9591961","prefectureKana":"ﾆｲｶﾞﾀｹﾝ","cityKana":"ｱｶﾞﾉｼ","streetKana":"ﾔﾏｸﾗ","prefecture":"新潟県","city":"阿賀野市","street":"山倉"},{"zipCode":"9591972","prefectureKana":"ﾆｲｶﾞﾀｹﾝ","cityKana":"ｱｶﾞﾉｼ","streetKana":"ﾔﾏｸﾗｼﾝﾃﾞﾝ","prefecture":"新潟県","city":"阿賀野市","street":"山倉新田"},{"zipCode":"9591919","prefectureKana":"ﾆｲｶﾞﾀｹﾝ","cityKana":"ｱｶﾞﾉｼ","streetKana":"ﾔﾏｻﾞｷ","prefecture":"新潟県","city":"阿賀野市","street":"山崎"},{"zipCode":"9591931","prefectureKana":"ﾆｲｶﾞﾀｹﾝ","cityKana":"ｱｶﾞﾉｼ","streetKana":"ﾔﾏﾃﾞﾗ","prefecture":"新潟県","city":"阿賀野市","street":"山寺"},{"zipCode":"9592227","prefectureKana":"ﾆｲｶﾞﾀｹﾝ","cityKana":"ｱｶﾞﾉｼ","streetKana":"ﾔﾏﾄ","prefecture":"新潟県","city":"阿賀野市","street":"大和"},{"zipCode":"9592085","prefectureKana":"ﾆｲｶﾞﾀｹﾝ","cityKana":"ｱｶﾞﾉｼ","streetKana":"ﾔﾏﾓﾄｼﾝ","prefecture":"新潟県","city":"阿賀野市","street":"山本新"},{"zipCode":"9591922","prefectureKana":"ﾆｲｶﾞﾀｹﾝ","cityKana":"ｱｶﾞﾉｼ","streetKana":"ﾕｻﾜ","prefecture":"新潟県","city":"阿賀野市","street":"湯沢"},{"zipCode":"9591957","prefectureKana":"ﾆｲｶﾞﾀｹﾝ","cityKana":"ｱｶﾞﾉｼ","streetKana":"ﾖｺﾔﾏ","prefecture":"新潟県","city":"阿賀野市","street":"横山"},{"zipCode":"9592215","prefectureKana":"ﾆｲｶﾞﾀｹﾝ","cityKana":"ｱｶﾞﾉｼ","streetKana":"ﾛｸﾉｾ","prefecture":"新潟県","city":"阿賀野市","street":"六野瀬"},{"zipCode":"9592036","prefectureKana":"ﾆｲｶﾞﾀｹﾝ","cityKana":"ｱｶﾞﾉｼ","streetKana":"ﾜｶﾊﾞﾁｮｳ","prefecture":"新潟県","city":"阿賀野市","street":"若葉町"},{"zipCode":"9592216","prefectureKana":"ﾆｲｶﾞﾀｹﾝ","cityKana":"ｱｶﾞﾉｼ","streetKana":"ﾜﾀﾘﾊﾞ","prefecture":"新潟県","city":"阿賀野市","street":"渡場"},{"zipCode":"9592600","prefectureKana":"ﾆｲｶﾞﾀｹﾝ","cityKana":"ﾀｲﾅｲｼ","streetKana":"ｲｶﾆｹｲｻｲｶﾞﾅｲﾊﾞｱｲ","prefecture":"新潟県","city":"胎内市","street":"以下に掲載がない場合"},{"zipCode":"9592661","prefectureKana":"ﾆｲｶﾞﾀｹﾝ","cityKana":"ﾀｲﾅｲｼ","streetKana":"ｱｶｶﾞﾜ","prefecture":"新潟県","city":"胎内市","street":"赤川"},{"zipCode":"9592659","prefectureKana":"ﾆｲｶﾞﾀｹﾝ","cityKana":"ﾀｲﾅｲｼ","streetKana":"ｱｶﾈﾁｮｳ","prefecture":"新潟県","city":"胎内市","street":"あかね町"},{"zipCode":"9592823","prefectureKana":"ﾆｲｶﾞﾀｹﾝ","cityKana":"ﾀｲﾅｲｼ","streetKana":"ｱﾂﾀｻﾞｶ","prefecture":"新潟県","city":"胎内市","street":"熱田坂"},{"zipCode":"9592609","prefectureKana":"ﾆｲｶﾞﾀｹﾝ","cityKana":"ﾀｲﾅｲｼ","streetKana":"ｱﾗｲﾊﾏ","prefecture":"新潟県","city":"胎内市","street":"荒井浜"},{"zipCode":"9592626","prefectureKana":"ﾆｲｶﾞﾀｹﾝ","cityKana":"ﾀｲﾅｲｼ","streetKana":"ｲｲｽﾞﾐ","prefecture":"新潟県","city":"胎内市","street":"飯角"},{"zipCode":"9592657","prefectureKana":"ﾆｲｶﾞﾀｹﾝ","cityKana":"ﾀｲﾅｲｼ","streetKana":"ｴｶﾞﾐ","prefecture":"新潟県","city":"胎内市","street":"江上"},{"zipCode":"9592605","prefectureKana":"ﾆｲｶﾞﾀｹﾝ","cityKana":"ﾀｲﾅｲｼ","streetKana":"ｴｼﾞﾘ","prefecture":"新潟県","city":"胎内市","street":"江尻"},{"zipCode":"9592622","prefectureKana":"ﾆｲｶﾞﾀｹﾝ","cityKana":"ﾀｲﾅｲｼ","streetKana":"ｵｲﾜｹ","prefecture":"新潟県","city":"胎内市","street":"追分"},{"zipCode":"9592801","prefectureKana":"ﾆｲｶﾞﾀｹﾝ","cityKana":"ﾀｲﾅｲｼ","streetKana":"ｵｳﾐｼﾝ","prefecture":"新潟県","city":"胎内市","street":"近江新"},{"zipCode":"9592604","prefectureKana":"ﾆｲｶﾞﾀｹﾝ","cityKana":"ﾀｲﾅｲｼ","streetKana":"ｵｵｲﾃﾞ","prefecture":"新潟県","city":"胎内市","street":"大出"},{"zipCode":"9592644","prefectureKana":"ﾆｲｶﾞﾀｹﾝ","cityKana":"ﾀｲﾅｲｼ","streetKana":"ｵｵｶﾜﾁｮｳ","prefecture":"新潟県","city":"胎内市","street":"大川町"},{"zipCode":"9592665","prefectureKana":"ﾆｲｶﾞﾀｹﾝ","cityKana":"ﾀｲﾅｲｼ","streetKana":"ｵｵﾂｶ","prefecture":"新潟県","city":"胎内市","street":"大塚"},{"zipCode":"9592813","prefectureKana":"ﾆｲｶﾞﾀｹﾝ","cityKana":"ﾀｲﾅｲｼ","streetKana":"ｵｵﾅｶﾞﾀﾆ","prefecture":"新潟県","city":"胎内市","street":"大長谷"},{"zipCode":"9592612","prefectureKana":"ﾆｲｶﾞﾀｹﾝ","cityKana":"ﾀｲﾅｲｼ","streetKana":"ｵｼﾞﾔ","prefecture":"新潟県","city":"胎内市","street":"小地谷"},{"zipCode":"9592631","prefectureKana":"ﾆｲｶﾞﾀｹﾝ","cityKana":"ﾀｲﾅｲｼ","streetKana":"ｵﾓﾃﾁｮｳ","prefecture":"新潟県","city":"胎内市","street":"表町"},{"zipCode":"9592676","prefectureKana":"ﾆｲｶﾞﾀｹﾝ","cityKana":"ﾀｲﾅｲｼ","streetKana":"ｶﾐｼﾞｮｳﾂﾞｶ","prefecture":"新潟県","city":"胎内市","street":"上城塚"},{"zipCode":"9592724","prefectureKana":"ﾆｲｶﾞﾀｹﾝ","cityKana":"ﾀｲﾅｲｼ","streetKana":"ｷﾀﾅﾘﾀ","prefecture":"新潟県","city":"胎内市","street":"北成田"},{"zipCode":"9592647","prefectureKana":"ﾆｲｶﾞﾀｹﾝ","cityKana":"ﾀｲﾅｲｼ","streetKana":"ｷﾀﾎﾝﾁｮｳ","prefecture":"新潟県","city":"胎内市","street":"北本町"},{"zipCode":"9592802","prefectureKana":"ﾆｲｶﾞﾀｹﾝ","cityKana":"ﾀｲﾅｲｼ","streetKana":"ｷｯﾀ","prefecture":"新潟県","city":"胎内市","street":"切田"},{"zipCode":"9592602","prefectureKana":"ﾆｲｶﾞﾀｹﾝ","cityKana":"ﾀｲﾅｲｼ","streetKana":"ｷﾉﾄ","prefecture":"新潟県","city":"胎内市","street":"乙"},{"zipCode":"9592652","prefectureKana":"ﾆｲｶﾞﾀｹﾝ","cityKana":"ﾀｲﾅｲｼ","streetKana":"ｷｮｳﾜﾁｮｳ","prefecture":"新潟県","city":"胎内市","street":"協和町"},{"zipCode":"9592663","prefectureKana":"ﾆｲｶﾞﾀｹﾝ","cityKana":"ﾀｲﾅｲｼ","streetKana":"ｸｻﾉ","prefecture":"新潟県","city":"胎内市","street":"草野"},{"zipCode":"9592653","prefectureKana":"ﾆｲｶﾞﾀｹﾝ","cityKana":"ﾀｲﾅｲｼ","streetKana":"ｸﾗｼｷﾁｮｳ","prefecture":"新潟県","city":"胎内市","street":"倉敷町"},{"zipCode":"9592827","prefectureKana":"ﾆｲｶﾞﾀｹﾝ","cityKana":"ﾀｲﾅｲｼ","streetKana":"ｸﾘｷﾉｼﾝﾃﾞﾝ","prefecture":"新潟県","city":"胎内市","street":"栗木野新田"},{"zipCode":"9592807","prefectureKana":"ﾆｲｶﾞﾀｹﾝ","cityKana":"ﾀｲﾅｲｼ","streetKana":"ｸﾛｶﾜ","prefecture":"新潟県","city":"胎内市","street":"黒川"},{"zipCode":"9592814","prefectureKana":"ﾆｲｶﾞﾀｹﾝ","cityKana":"ﾀｲﾅｲｼ","streetKana":"ｸﾛﾏﾀ","prefecture":"新潟県","city":"胎内市","street":"黒俣"},{"zipCode":"9592811","prefectureKana":"ﾆｲｶﾞﾀｹﾝ","cityKana":"ﾀｲﾅｲｼ","streetKana":"ｸﾜｴ","prefecture":"新潟県","city":"胎内市","street":"鍬江"},{"zipCode":"9592705","prefectureKana":"ﾆｲｶﾞﾀｹﾝ","cityKana":"ﾀｲﾅｲｼ","streetKana":"ｺｳﾉｽ","prefecture":"新潟県","city":"胎内市","street":"鴻ノ巣"},{"zipCode":"9592721","prefectureKana":"ﾆｲｶﾞﾀｹﾝ","cityKana":"ﾀｲﾅｲｼ","streetKana":"ｺｹﾉﾐ","prefecture":"新潟県","city":"胎内市","street":"苔実"},{"zipCode":"9592812","prefectureKana":"ﾆｲｶﾞﾀｹﾝ","cityKana":"ﾀｲﾅｲｼ","streetKana":"ｺﾅｶﾞﾀﾆ","prefecture":"新潟県","city":"胎内市","street":"小長谷"},{"zipCode":"9592674","prefectureKana":"ﾆｲｶﾞﾀｹﾝ","cityKana":"ﾀｲﾅｲｼ","streetKana":"ｺﾌﾞﾅﾄ","prefecture":"新潟県","city":"胎内市","street":"小舟戸"},{"zipCode":"9592634","prefectureKana":"ﾆｲｶﾞﾀｹﾝ","cityKana":"ﾀｲﾅｲｼ","streetKana":"ｺﾏｷﾀﾞｲ","prefecture":"新潟県","city":"胎内市","street":"小牧台"},{"zipCode":"9592803","prefectureKana":"ﾆｲｶﾞﾀｹﾝ","cityKana":"ﾀｲﾅｲｼ","streetKana":"ｻﾞｵｳ","prefecture":"新潟県","city":"胎内市","street":"蔵王"},{"zipCode":"9592825","prefectureKana":"ﾆｲｶﾞﾀｹﾝ","cityKana":"ﾀｲﾅｲｼ","streetKana":"ｻｶｲ","prefecture":"新潟県","city":"胎内市","street":"坂井"},{"zipCode":"9592701","prefectureKana":"ﾆｲｶﾞﾀｹﾝ","cityKana":"ﾀｲﾅｲｼ","streetKana":"ｻｻｸﾞﾁﾊﾏ","prefecture":"新潟県","city":"胎内市","street":"笹口浜"},{"zipCode":"9592706","prefectureKana":"ﾆｲｶﾞﾀｹﾝ","cityKana":"ﾀｲﾅｲｼ","streetKana":"ｻﾝﾉｳ","prefecture":"新潟県","city":"胎内市","street":"山王"},{"zipCode":"9592804","prefectureKana":"ﾆｲｶﾞﾀｹﾝ","cityKana":"ﾀｲﾅｲｼ","streetKana":"ｼｵｻﾞﾜ","prefecture":"新潟県","city":"胎内市","street":"塩沢"},{"zipCode":"9592669","prefectureKana":"ﾆｲｶﾞﾀｹﾝ","cityKana":"ﾀｲﾅｲｼ","streetKana":"ｼｵﾂﾞ","prefecture":"新潟県","city":"胎内市","street":"塩津"},{"zipCode":"9592664","prefectureKana":"ﾆｲｶﾞﾀｹﾝ","cityKana":"ﾀｲﾅｲｼ","streetKana":"ｼﾊﾞﾊｼ","prefecture":"新潟県","city":"胎内市","street":"柴橋"},{"zipCode":"9592806","prefectureKana":"ﾆｲｶﾞﾀｹﾝ","cityKana":"ﾀｲﾅｲｼ","streetKana":"ｼﾓｱｶﾀﾞﾆ","prefecture":"新潟県","city":"胎内市","street":"下赤谷"},{"zipCode":"9592816","prefectureKana":"ﾆｲｶﾞﾀｹﾝ","cityKana":"ﾀｲﾅｲｼ","streetKana":"ｼﾓｱﾗｻﾜ","prefecture":"新潟県","city":"胎内市","street":"下荒沢"},{"zipCode":"9592809","prefectureKana":"ﾆｲｶﾞﾀｹﾝ","cityKana":"ﾀｲﾅｲｼ","streetKana":"ｼﾓｴﾊﾞﾀ","prefecture":"新潟県","city":"胎内市","street":"下江端"},{"zipCode":"9592677","prefectureKana":"ﾆｲｶﾞﾀｹﾝ","cityKana":"ﾀｲﾅｲｼ","streetKana":"ｼﾓｼﾞｮｳﾂﾞｶ","prefecture":"新潟県","city":"胎内市","street":"下城塚"},{"zipCode":"9592707","prefectureKana":"ﾆｲｶﾞﾀｹﾝ","cityKana":"ﾀｲﾅｲｼ","streetKana":"ｼﾓﾀｶﾀﾞ","prefecture":"新潟県","city":"胎内市","street":"下高田"},{"zipCode":"9592805","prefectureKana":"ﾆｲｶﾞﾀｹﾝ","cityKana":"ﾀｲﾅｲｼ","streetKana":"ｼﾓﾀﾃ","prefecture":"新潟県","city":"胎内市","street":"下館"},{"zipCode":"9592607","prefectureKana":"ﾆｲｶﾞﾀｹﾝ","cityKana":"ﾀｲﾅｲｼ","streetKana":"ｼﾞﾓﾄ","prefecture":"新潟県","city":"胎内市","street":"地本"},{"zipCode":"9592619","prefectureKana":"ﾆｲｶﾞﾀｹﾝ","cityKana":"ﾀｲﾅｲｼ","streetKana":"ｼﾞｭｳﾆﾃﾝ","prefecture":"新潟県","city":"胎内市","street":"十二天"},{"zipCode":"9592632","prefectureKana":"ﾆｲｶﾞﾀｹﾝ","cityKana":"ﾀｲﾅｲｼ","streetKana":"ｼﾝｴｲﾁｮｳ","prefecture":"新潟県","city":"胎内市","street":"新栄町"},{"zipCode":"9592666","prefectureKana":"ﾆｲｶﾞﾀｹﾝ","cityKana":"ﾀｲﾅｲｼ","streetKana":"ｼﾝﾀﾞﾃ","prefecture":"新潟県","city":"胎内市","street":"新舘"},{"zipCode":"9592642","prefectureKana":"ﾆｲｶﾞﾀｹﾝ","cityKana":"ﾀｲﾅｲｼ","streetKana":"ｼﾝﾜﾁｮｳ","prefecture":"新潟県","city":"胎内市","street":"新和町"},{"zipCode":"9592603","prefectureKana":"ﾆｲｶﾞﾀｹﾝ","cityKana":"ﾀｲﾅｲｼ","streetKana":"ｽｹﾞﾀ","prefecture":"新潟県","city":"胎内市","street":"菅田"},{"zipCode":"9592817","prefectureKana":"ﾆｲｶﾞﾀｹﾝ","cityKana":"ﾀｲﾅｲｼ","streetKana":"ｽﾏｷ","prefecture":"新潟県","city":"胎内市","street":"須巻"},{"zipCode":"9592648","prefectureKana":"ﾆｲｶﾞﾀｹﾝ","cityKana":"ﾀｲﾅｲｼ","streetKana":"ｽﾐﾖｼﾁｮｳ","prefecture":"新潟県","city":"胎内市","street":"住吉町"},{"zipCode":"9592633","prefectureKana":"ﾆｲｶﾞﾀｹﾝ","cityKana":"ﾀｲﾅｲｼ","streetKana":"ｾｷｻﾞﾜ","prefecture":"新潟県","city":"胎内市","street":"関沢"},{"zipCode":"9592618","prefectureKana":"ﾆｲｶﾞﾀｹﾝ","cityKana":"ﾀｲﾅｲｼ","streetKana":"ﾀｶﾉ","prefecture":"新潟県","city":"胎内市","street":"高野"},{"zipCode":"9592662","prefectureKana":"ﾆｲｶﾞﾀｹﾝ","cityKana":"ﾀｲﾅｲｼ","streetKana":"ﾀｶﾉｽ","prefecture":"新潟県","city":"胎内市","street":"鷹ノ巣"},{"zipCode":"9592617","prefectureKana":"ﾆｲｶﾞﾀｹﾝ","cityKana":"ﾀｲﾅｲｼ","streetKana":"ﾀｶﾉﾑﾗｼﾝﾃﾞﾝ","prefecture":"新潟県","city":"胎内市","street":"高野村新田"},{"zipCode":"9592715","prefectureKana":"ﾆｲｶﾞﾀｹﾝ","cityKana":"ﾀｲﾅｲｼ","streetKana":"ﾀｶﾊｼ","prefecture":"新潟県","city":"胎内市","street":"高橋"},{"zipCode":"9592703","prefectureKana":"ﾆｲｶﾞﾀｹﾝ","cityKana":"ﾀｲﾅｲｼ","streetKana":"ﾀｶﾊﾞﾀｹ","prefecture":"新潟県","city":"胎内市","street":"高畑"},{"zipCode":"9592722","prefectureKana":"ﾆｲｶﾞﾀｹﾝ","cityKana":"ﾀｲﾅｲｼ","streetKana":"ﾀｹｼﾏ","prefecture":"新潟県","city":"胎内市","street":"竹島"},{"zipCode":"9592712","prefectureKana":"ﾆｲｶﾞﾀｹﾝ","cityKana":"ﾀｲﾅｲｼ","streetKana":"ﾂｲｼﾞ","prefecture":"新潟県","city":"胎内市","street":"築地"},{"zipCode":"9592713","prefectureKana":"ﾆｲｶﾞﾀｹﾝ","cityKana":"ﾀｲﾅｲｼ","streetKana":"ﾂｲｼﾞｼﾝ","prefecture":"新潟県","city":"胎内市","street":"築地新"},{"zipCode":"9592616","prefectureKana":"ﾆｲｶﾞﾀｹﾝ","cityKana":"ﾀｲﾅｲｼ","streetKana":"ﾂﾁﾂﾞｸﾘ","prefecture":"新潟県","city":"胎内市","street":"土作"},{"zipCode":"9592635","prefectureKana":"ﾆｲｶﾞﾀｹﾝ","cityKana":"ﾀｲﾅｲｼ","streetKana":"ﾂﾂｼﾞｶﾞｵｶ","prefecture":"新潟県","city":"胎内市","street":"つつじが丘"},{"zipCode":"9592826","prefectureKana":"ﾆｲｶﾞﾀｹﾝ","cityKana":"ﾀｲﾅｲｼ","streetKana":"ﾂﾂﾞﾐｵｶ","prefecture":"新潟県","city":"胎内市","street":"鼓岡"},{"zipCode":"9592821","prefectureKana":"ﾆｲｶﾞﾀｹﾝ","cityKana":"ﾀｲﾅｲｼ","streetKana":"ﾂﾎﾞｱﾅ","prefecture":"新潟県","city":"胎内市","street":"坪穴"},{"zipCode":"9592808","prefectureKana":"ﾆｲｶﾞﾀｹﾝ","cityKana":"ﾀｲﾅｲｼ","streetKana":"ﾄｳﾎﾞｸ","prefecture":"新潟県","city":"胎内市","street":"東牧"},{"zipCode":"9592608","prefectureKana":"ﾆｲｶﾞﾀｹﾝ","cityKana":"ﾀｲﾅｲｼ","streetKana":"ﾄﾐｵｶ","prefecture":"新潟県","city":"胎内市","street":"富岡"},{"zipCode":"9592673","prefectureKana":"ﾆｲｶﾞﾀｹﾝ","cityKana":"ﾀｲﾅｲｼ","streetKana":"ﾄﾗﾀﾞ","prefecture":"新潟県","city":"胎内市","street":"寅田"},{"zipCode":"9592716","prefectureKana":"ﾆｲｶﾞﾀｹﾝ","cityKana":"ﾀｲﾅｲｼ","streetKana":"ﾅｶｸﾗ","prefecture":"新潟県","city":"胎内市","street":"中倉"},{"zipCode":"9592629","prefectureKana":"ﾆｲｶﾞﾀｹﾝ","cityKana":"ﾀｲﾅｲｼ","streetKana":"ﾅｶｼﾞｮｳ","prefecture":"新潟県","city":"胎内市","street":"中条"},{"zipCode":"9592637","prefectureKana":"ﾆｲｶﾞﾀｹﾝ","cityKana":"ﾀｲﾅｲｼ","streetKana":"ﾅｶﾞﾊｼ","prefecture":"新潟県","city":"胎内市","street":"長橋"},{"zipCode":"9592708","prefectureKana":"ﾆｲｶﾞﾀｹﾝ","cityKana":"ﾀｲﾅｲｼ","streetKana":"ﾅｶﾑﾗﾊﾏ","prefecture":"新潟県","city":"胎内市","street":"中村浜"},{"zipCode":"9592822","prefectureKana":"ﾆｲｶﾞﾀｹﾝ","cityKana":"ﾀｲﾅｲｼ","streetKana":"ﾅﾂｲ","prefecture":"新潟県","city":"胎内市","street":"夏井"},{"zipCode":"9592621","prefectureKana":"ﾆｲｶﾞﾀｹﾝ","cityKana":"ﾀｲﾅｲｼ","streetKana":"ﾅﾐﾂｷ","prefecture":"新潟県","city":"胎内市","street":"並槻"},{"zipCode":"9592623","prefectureKana":"ﾆｲｶﾞﾀｹﾝ","cityKana":"ﾀｲﾅｲｼ","streetKana":"ﾆｲﾀﾞﾉ","prefecture":"新潟県","city":"胎内市","street":"仁谷野"},{"zipCode":"9592667","prefectureKana":"ﾆｲｶﾞﾀｹﾝ","cityKana":"ﾀｲﾅｲｼ","streetKana":"ﾆｼｶﾜｳﾁ","prefecture":"新潟県","city":"胎内市","street":"西川内"},{"zipCode":"9592646","prefectureKana":"ﾆｲｶﾞﾀｹﾝ","cityKana":"ﾀｲﾅｲｼ","streetKana":"ﾆｼｻｶｴﾁｮｳ","prefecture":"新潟県","city":"胎内市","street":"西栄町"},{"zipCode":"9592658","prefectureKana":"ﾆｲｶﾞﾀｹﾝ","cityKana":"ﾀｲﾅｲｼ","streetKana":"ﾆｼｼﾞｮｳ","prefecture":"新潟県","city":"胎内市","street":"西条"},{"zipCode":"9592651","prefectureKana":"ﾆｲｶﾞﾀｹﾝ","cityKana":"ﾀｲﾅｲｼ","streetKana":"ﾆｼｼﾞｮｳﾁｮｳ","prefecture":"新潟県","city":"胎内市","street":"西条町"},{"zipCode":"9592656","prefectureKana":"ﾆｲｶﾞﾀｹﾝ","cityKana":"ﾀｲﾅｲｼ","streetKana":"ﾆｼﾎﾝﾁｮｳ","prefecture":"新潟県","city":"胎内市","street":"西本町"},{"zipCode":"9592627","prefectureKana":"ﾆｲｶﾞﾀｹﾝ","cityKana":"ﾀｲﾅｲｼ","streetKana":"ﾉﾅｶ","prefecture":"新潟県","city":"胎内市","street":"野中"},{"zipCode":"9592624","prefectureKana":"ﾆｲｶﾞﾀｹﾝ","cityKana":"ﾀｲﾅｲｼ","streetKana":"ﾊｸﾞﾛ","prefecture":"新潟県","city":"胎内市","street":"羽黒"},{"zipCode":"9592606","prefectureKana":"ﾆｲｶﾞﾀｹﾝ","cityKana":"ﾀｲﾅｲｼ","streetKana":"ﾊﾁﾏﾝ","prefecture":"新潟県","city":"胎内市","street":"八幡"},{"zipCode":"9592672","prefectureKana":"ﾆｲｶﾞﾀｹﾝ","cityKana":"ﾀｲﾅｲｼ","streetKana":"ﾊｯﾀ","prefecture":"新潟県","city":"胎内市","street":"八田"},{"zipCode":"9592625","prefectureKana":"ﾆｲｶﾞﾀｹﾝ","cityKana":"ﾀｲﾅｲｼ","streetKana":"ﾊﾝﾔﾏ","prefecture":"新潟県","city":"胎内市","street":"半山"},{"zipCode":"9592671","prefectureKana":"ﾆｲｶﾞﾀｹﾝ","cityKana":"ﾀｲﾅｲｼ","streetKana":"ﾋｶﾞｼｶﾜｳﾁ","prefecture":"新潟県","city":"胎内市","street":"東川内"},{"zipCode":"9592643","prefectureKana":"ﾆｲｶﾞﾀｹﾝ","cityKana":"ﾀｲﾅｲｼ","streetKana":"ﾋｶﾞｼﾎﾝﾁｮｳ","prefecture":"新潟県","city":"胎内市","street":"東本町"},{"zipCode":"9592614","prefectureKana":"ﾆｲｶﾞﾀｹﾝ","cityKana":"ﾀｲﾅｲｼ","streetKana":"ﾋﾗｷﾀﾞ","prefecture":"新潟県","city":"胎内市","street":"平木田"},{"zipCode":"9592613","prefectureKana":"ﾆｲｶﾞﾀｹﾝ","cityKana":"ﾀｲﾅｲｼ","streetKana":"ﾋﾗｷﾀﾞｴｷﾏｴ","prefecture":"新潟県","city":"胎内市","street":"平木田駅前"},{"zipCode":"9592702","prefectureKana":"ﾆｲｶﾞﾀｹﾝ","cityKana":"ﾀｲﾅｲｼ","streetKana":"ﾋﾗﾈﾀﾞｲ","prefecture":"新潟県","city":"胎内市","street":"平根台"},{"zipCode":"9592628","prefectureKana":"ﾆｲｶﾞﾀｹﾝ","cityKana":"ﾀｲﾅｲｼ","streetKana":"ﾌﾀﾊﾞﾁｮｳ","prefecture":"新潟県","city":"胎内市","street":"二葉町"},{"zipCode":"9592675","prefectureKana":"ﾆｲｶﾞﾀｹﾝ","cityKana":"ﾀｲﾅｲｼ","streetKana":"ﾌﾅﾄ","prefecture":"新潟県","city":"胎内市","street":"船戸"},{"zipCode":"9592636","prefectureKana":"ﾆｲｶﾞﾀｹﾝ","cityKana":"ﾀｲﾅｲｼ","streetKana":"ﾎｼﾉﾐﾔﾁｮｳ","prefecture":"新潟県","city":"胎内市","street":"星の宮町"},{"zipCode":"9592714","prefectureKana":"ﾆｲｶﾞﾀｹﾝ","cityKana":"ﾀｲﾅｲｼ","streetKana":"ﾎﾘｸﾞﾁ","prefecture":"新潟県","city":"胎内市","street":"堀口"},{"zipCode":"9592655","prefectureKana":"ﾆｲｶﾞﾀｹﾝ","cityKana":"ﾀｲﾅｲｼ","streetKana":"ﾎﾝｺﾞｳ","prefecture":"新潟県","city":"胎内市","street":"本郷"},{"zipCode":"9592654","prefectureKana":"ﾆｲｶﾞﾀｹﾝ","cityKana":"ﾀｲﾅｲｼ","streetKana":"ﾎﾝｺﾞｳﾁｮｳ","prefecture":"新潟県","city":"胎内市","street":"本郷町"},{"zipCode":"9592645","prefectureKana":"ﾆｲｶﾞﾀｹﾝ","cityKana":"ﾀｲﾅｲｼ","streetKana":"ﾎﾝﾁｮｳ","prefecture":"新潟県","city":"胎内市","street":"本町"},{"zipCode":"9592638","prefectureKana":"ﾆｲｶﾞﾀｹﾝ","cityKana":"ﾀｲﾅｲｼ","streetKana":"ﾐｽﾞｻﾜﾁｮｳ","prefecture":"新潟県","city":"胎内市","street":"水沢町"},{"zipCode":"9592723","prefectureKana":"ﾆｲｶﾞﾀｹﾝ","cityKana":"ﾀｲﾅｲｼ","streetKana":"ﾐﾔｶﾞﾜ","prefecture":"新潟県","city":"胎内市","street":"宮川"},{"zipCode":"9592704","prefectureKana":"ﾆｲｶﾞﾀｹﾝ","cityKana":"ﾀｲﾅｲｼ","streetKana":"ﾐﾔｾﾞ","prefecture":"新潟県","city":"胎内市","street":"宮瀬"},{"zipCode":"9592824","prefectureKana":"ﾆｲｶﾞﾀｹﾝ","cityKana":"ﾀｲﾅｲｼ","streetKana":"ﾐﾔﾋｻ","prefecture":"新潟県","city":"胎内市","street":"宮久"},{"zipCode":"9592709","prefectureKana":"ﾆｲｶﾞﾀｹﾝ","cityKana":"ﾀｲﾅｲｼ","streetKana":"ﾑﾗﾏﾂﾊﾏ","prefecture":"新潟県","city":"胎内市","street":"村松浜"},{"zipCode":"9592815","prefectureKana":"ﾆｲｶﾞﾀｹﾝ","cityKana":"ﾀｲﾅｲｼ","streetKana":"ﾓﾁｸﾗ","prefecture":"新潟県","city":"胎内市","street":"持倉"},{"zipCode":"9592601","prefectureKana":"ﾆｲｶﾞﾀｹﾝ","cityKana":"ﾀｲﾅｲｼ","streetKana":"ﾓﾓｻﾞｷﾊﾏ","prefecture":"新潟県","city":"胎内市","street":"桃崎浜"},{"zipCode":"9592668","prefectureKana":"ﾆｲｶﾞﾀｹﾝ","cityKana":"ﾀｲﾅｲｼ","streetKana":"ﾔﾋｺｵｶ","prefecture":"新潟県","city":"胎内市","street":"弥彦岡"},{"zipCode":"9592611","prefectureKana":"ﾆｲｶﾞﾀｹﾝ","cityKana":"ﾀｲﾅｲｼ","streetKana":"ﾔﾏﾔ","prefecture":"新潟県","city":"胎内市","street":"山屋"},{"zipCode":"9592615","prefectureKana":"ﾆｲｶﾞﾀｹﾝ","cityKana":"ﾀｲﾅｲｼ","streetKana":"ﾖｺﾐﾁ","prefecture":"新潟県","city":"胎内市","street":"横道"},{"zipCode":"9592641","prefectureKana":"ﾆｲｶﾞﾀｹﾝ","cityKana":"ﾀｲﾅｲｼ","streetKana":"ﾜｶﾏﾂﾁｮｳ","prefecture":"新潟県","city":"胎内市","street":"若松町"},{"zipCode":"9590300","prefectureKana":"ﾆｲｶﾞﾀｹﾝ","cityKana":"ﾆｼｶﾝﾊﾞﾗｸﾞﾝﾔﾋｺﾑﾗ","streetKana":"ｲｶﾆｹｲｻｲｶﾞﾅｲﾊﾞｱｲ","prefecture":"新潟県","city":"西蒲原郡弥彦村","street":"以下に掲載がない場合"},{"zipCode":"9590311","prefectureKana":"ﾆｲｶﾞﾀｹﾝ","cityKana":"ﾆｼｶﾝﾊﾞﾗｸﾞﾝﾔﾋｺﾑﾗ","streetKana":"ｲﾀﾞ","prefecture":"新潟県","city":"西蒲原郡弥彦村","street":"井田"},{"zipCode":"9590301","prefectureKana":"ﾆｲｶﾞﾀｹﾝ","cityKana":"ﾆｼｶﾝﾊﾞﾗｸﾞﾝﾔﾋｺﾑﾗ","streetKana":"ｴﾋﾞｱﾅ","prefecture":"新潟県","city":"西蒲原郡弥彦村","street":"えび穴"},{"zipCode":"9590308","prefectureKana":"ﾆｲｶﾞﾀｹﾝ","cityKana":"ﾆｼｶﾝﾊﾞﾗｸﾞﾝﾔﾋｺﾑﾗ","streetKana":"ｵｵﾄﾞ","prefecture":"新潟県","city":"西蒲原郡弥彦村","street":"大戸"},{"zipCode":"9590304","prefectureKana":"ﾆｲｶﾞﾀｹﾝ","cityKana":"ﾆｼｶﾝﾊﾞﾗｸﾞﾝﾔﾋｺﾑﾗ","streetKana":"ｵｷﾞﾉ","prefecture":"新潟県","city":"西蒲原郡弥彦村","street":"荻野"},{"zipCode":"9590321","prefectureKana":"ﾆｲｶﾞﾀｹﾝ","cityKana":"ﾆｼｶﾝﾊﾞﾗｸﾞﾝﾔﾋｺﾑﾗ","streetKana":"ｶﾐｲｽﾞﾐ","prefecture":"新潟県","city":"西蒲原郡弥彦村","street":"上泉"},{"zipCode":"9590307","prefectureKana":"ﾆｲｶﾞﾀｹﾝ","cityKana":"ﾆｼｶﾝﾊﾞﾗｸﾞﾝﾔﾋｺﾑﾗ","streetKana":"ｶﾜｻｷ","prefecture":"新潟県","city":"西蒲原郡弥彦村","street":"川崎"},{"zipCode":"9590319","prefectureKana":"ﾆｲｶﾞﾀｹﾝ","cityKana":"ﾆｼｶﾝﾊﾞﾗｸﾞﾝﾔﾋｺﾑﾗ","streetKana":"ｶﾝｵﾝｼﾞ","prefecture":"新潟県","city":"西蒲原郡弥彦村","street":"観音寺"},{"zipCode":"9590317","prefectureKana":"ﾆｲｶﾞﾀｹﾝ","cityKana":"ﾆｼｶﾝﾊﾞﾗｸﾞﾝﾔﾋｺﾑﾗ","streetKana":"ｻｶｴ","prefecture":"新潟県","city":"西蒲原郡弥彦村","street":"境江"},{"zipCode":"9590302","prefectureKana":"ﾆｲｶﾞﾀｹﾝ","cityKana":"ﾆｼｶﾝﾊﾞﾗｸﾞﾝﾔﾋｺﾑﾗ","streetKana":"ﾀﾅｶｼﾝﾃﾞﾝ","prefecture":"新潟県","city":"西蒲原郡弥彦村","street":"田中新田"},{"zipCode":"9590312","prefectureKana":"ﾆｲｶﾞﾀｹﾝ","cityKana":"ﾆｼｶﾝﾊﾞﾗｸﾞﾝﾔﾋｺﾑﾗ","streetKana":"ﾅｶﾔﾏ","prefecture":"新潟県","city":"西蒲原郡弥彦村","street":"中山"},{"zipCode":"9590322","prefectureKana":"ﾆｲｶﾞﾀｹﾝ","cityKana":"ﾆｼｶﾝﾊﾞﾗｸﾞﾝﾔﾋｺﾑﾗ","streetKana":"ﾊｼﾘﾃﾞ","prefecture":"新潟県","city":"西蒲原郡弥彦村","street":"走出"},{"zipCode":"9590306","prefectureKana":"ﾆｲｶﾞﾀｹﾝ","cityKana":"ﾆｼｶﾝﾊﾞﾗｸﾞﾝﾔﾋｺﾑﾗ","streetKana":"ﾊﾏｸﾋﾞ","prefecture":"新潟県","city":"西蒲原郡弥彦村","street":"浜首"},{"zipCode":"9590303","prefectureKana":"ﾆｲｶﾞﾀｹﾝ","cityKana":"ﾆｼｶﾝﾊﾞﾗｸﾞﾝﾔﾋｺﾑﾗ","streetKana":"ﾋﾗﾉ","prefecture":"新潟県","city":"西蒲原郡弥彦村","street":"平野"},{"zipCode":"9590318","prefectureKana":"ﾆｲｶﾞﾀｹﾝ","cityKana":"ﾆｼｶﾝﾊﾞﾗｸﾞﾝﾔﾋｺﾑﾗ","streetKana":"ﾌﾓﾄ","prefecture":"新潟県","city":"西蒲原郡弥彦村","street":"麓"},{"zipCode":"9590315","prefectureKana":"ﾆｲｶﾞﾀｹﾝ","cityKana":"ﾆｼｶﾝﾊﾞﾗｸﾞﾝﾔﾋｺﾑﾗ","streetKana":"ﾌﾓﾄﾑﾗｼﾝﾃﾞﾝ","prefecture":"新潟県","city":"西蒲原郡弥彦村","street":"麓村新田"},{"zipCode":"9590309","prefectureKana":"ﾆｲｶﾞﾀｹﾝ","cityKana":"ﾆｼｶﾝﾊﾞﾗｸﾞﾝﾔﾋｺﾑﾗ","streetKana":"ﾐﾈﾐ","prefecture":"新潟県","city":"西蒲原郡弥彦村","street":"峰見"},{"zipCode":"9590310","prefectureKana":"ﾆｲｶﾞﾀｹﾝ","cityKana":"ﾆｼｶﾝﾊﾞﾗｸﾞﾝﾔﾋｺﾑﾗ","streetKana":"ﾐﾔﾏ","prefecture":"新潟県","city":"西蒲原郡弥彦村","street":"美山"},{"zipCode":"9590316","prefectureKana":"ﾆｲｶﾞﾀｹﾝ","cityKana":"ﾆｼｶﾝﾊﾞﾗｸﾞﾝﾔﾋｺﾑﾗ","streetKana":"ﾑﾗﾔﾏ","prefecture":"新潟県","city":"西蒲原郡弥彦村","street":"村山"},{"zipCode":"9590305","prefectureKana":"ﾆｲｶﾞﾀｹﾝ","cityKana":"ﾆｼｶﾝﾊﾞﾗｸﾞﾝﾔﾋｺﾑﾗ","streetKana":"ﾔﾊｷﾞ","prefecture":"新潟県","city":"西蒲原郡弥彦村","street":"矢作"},{"zipCode":"9590323","prefectureKana":"ﾆｲｶﾞﾀｹﾝ","cityKana":"ﾆｼｶﾝﾊﾞﾗｸﾞﾝﾔﾋｺﾑﾗ","streetKana":"ﾔﾋｺ","prefecture":"新潟県","city":"西蒲原郡弥彦村","street":"弥彦"},{"zipCode":"9590314","prefectureKana":"ﾆｲｶﾞﾀｹﾝ","cityKana":"ﾆｼｶﾝﾊﾞﾗｸﾞﾝﾔﾋｺﾑﾗ","streetKana":"ﾔﾏｷﾞｼ","prefecture":"新潟県","city":"西蒲原郡弥彦村","street":"山岸"},{"zipCode":"9590313","prefectureKana":"ﾆｲｶﾞﾀｹﾝ","cityKana":"ﾆｼｶﾝﾊﾞﾗｸﾞﾝﾔﾋｺﾑﾗ","streetKana":"ﾔﾏｻﾞｷ","prefecture":"新潟県","city":"西蒲原郡弥彦村","street":"山崎"},{"zipCode":"9591500","prefectureKana":"ﾆｲｶﾞﾀｹﾝ","cityKana":"ﾐﾅﾐｶﾝﾊﾞﾗｸﾞﾝﾀｶﾞﾐﾏﾁ","streetKana":"ｲｶﾆｹｲｻｲｶﾞﾅｲﾊﾞｱｲ","prefecture":"新潟県","city":"南蒲原郡田上町","street":"以下に掲載がない場合"},{"zipCode":"9591521","prefectureKana":"ﾆｲｶﾞﾀｹﾝ","cityKana":"ﾐﾅﾐｶﾝﾊﾞﾗｸﾞﾝﾀｶﾞﾐﾏﾁ","streetKana":"ｲｼﾀﾞｼﾝﾃﾞﾝ","prefecture":"新潟県","city":"南蒲原郡田上町","street":"石田新田"},{"zipCode":"9591513","prefectureKana":"ﾆｲｶﾞﾀｹﾝ","cityKana":"ﾐﾅﾐｶﾝﾊﾞﾗｸﾞﾝﾀｶﾞﾐﾏﾁ","streetKana":"ｶﾜﾌﾈｶﾞﾜ","prefecture":"新潟県","city":"南蒲原郡田上町","street":"川船河"},{"zipCode":"9591514","prefectureKana":"ﾆｲｶﾞﾀｹﾝ","cityKana":"ﾐﾅﾐｶﾝﾊﾞﾗｸﾞﾝﾀｶﾞﾐﾏﾁ","streetKana":"ｻｶﾀ","prefecture":"新潟県","city":"南蒲原郡田上町","street":"坂田"},{"zipCode":"9591522","prefectureKana":"ﾆｲｶﾞﾀｹﾝ","cityKana":"ﾐﾅﾐｶﾝﾊﾞﾗｸﾞﾝﾀｶﾞﾐﾏﾁ","streetKana":"ｾﾝｶﾞﾘｼﾝﾃﾞﾝ","prefecture":"新潟県","city":"南蒲原郡田上町","street":"千苅新田"},{"zipCode":"9591525","prefectureKana":"ﾆｲｶﾞﾀｹﾝ","cityKana":"ﾐﾅﾐｶﾝﾊﾞﾗｸﾞﾝﾀｶﾞﾐﾏﾁ","streetKana":"ｿﾈｼﾝﾃﾞﾝ","prefecture":"新潟県","city":"南蒲原郡田上町","street":"曽根新田"},{"zipCode":"9591502","prefectureKana":"ﾆｲｶﾞﾀｹﾝ","cityKana":"ﾐﾅﾐｶﾝﾊﾞﾗｸﾞﾝﾀｶﾞﾐﾏﾁ","streetKana":"ﾀｶﾞﾐ","prefecture":"新潟県","city":"南蒲原郡田上町","street":"田上"},{"zipCode":"9591512","prefectureKana":"ﾆｲｶﾞﾀｹﾝ","cityKana":"ﾐﾅﾐｶﾝﾊﾞﾗｸﾞﾝﾀｶﾞﾐﾏﾁ","streetKana":"ﾊﾆｭｳﾀﾞ","prefecture":"新潟県","city":"南蒲原郡田上町","street":"羽生田"},{"zipCode":"9591503","prefectureKana":"ﾆｲｶﾞﾀｹﾝ","cityKana":"ﾐﾅﾐｶﾝﾊﾞﾗｸﾞﾝﾀｶﾞﾐﾏﾁ","streetKana":"ﾊﾗｶﾞｻｷｼﾝﾃﾞﾝ","prefecture":"新潟県","city":"南蒲原郡田上町","street":"原ケ崎新田"},{"zipCode":"9591523","prefectureKana":"ﾆｲｶﾞﾀｹﾝ","cityKana":"ﾐﾅﾐｶﾝﾊﾞﾗｸﾞﾝﾀｶﾞﾐﾏﾁ","streetKana":"ﾎﾐｮｳｼﾝﾃﾞﾝ","prefecture":"新潟県","city":"南蒲原郡田上町","street":"保明新田"},{"zipCode":"9591501","prefectureKana":"ﾆｲｶﾞﾀｹﾝ","cityKana":"ﾐﾅﾐｶﾝﾊﾞﾗｸﾞﾝﾀｶﾞﾐﾏﾁ","streetKana":"ﾕｶﾞﾜ","prefecture":"新潟県","city":"南蒲原郡田上町","street":"湯川"},{"zipCode":"9591524","prefectureKana":"ﾆｲｶﾞﾀｹﾝ","cityKana":"ﾐﾅﾐｶﾝﾊﾞﾗｸﾞﾝﾀｶﾞﾐﾏﾁ","streetKana":"ﾖｺﾊﾞｼﾝﾃﾞﾝ","prefecture":"新潟県","city":"南蒲原郡田上町","street":"横場新田"},{"zipCode":"9591511","prefectureKana":"ﾆｲｶﾞﾀｹﾝ","cityKana":"ﾐﾅﾐｶﾝﾊﾞﾗｸﾞﾝﾀｶﾞﾐﾏﾁ","streetKana":"ﾖｼﾀﾞｼﾝﾃﾞﾝ","prefecture":"新潟県","city":"南蒲原郡田上町","street":"吉田新田"},{"zipCode":"9594400","prefectureKana":"ﾆｲｶﾞﾀｹﾝ","cityKana":"ﾋｶﾞｼｶﾝﾊﾞﾗｸﾞﾝｱｶﾞﾏﾁ","streetKana":"ｲｶﾆｹｲｻｲｶﾞﾅｲﾊﾞｱｲ","prefecture":"新潟県","city":"東蒲原郡阿賀町","street":"以下に掲載がない場合"},{"zipCode":"9594408","prefectureKana":"ﾆｲｶﾞﾀｹﾝ","cityKana":"ﾋｶﾞｼｶﾝﾊﾞﾗｸﾞﾝｱｶﾞﾏﾁ","streetKana":"ｱｶｲﾜ","prefecture":"新潟県","city":"東蒲原郡阿賀町","street":"赤岩"},{"zipCode":"9594621","prefectureKana":"ﾆｲｶﾞﾀｹﾝ","cityKana":"ﾋｶﾞｼｶﾝﾊﾞﾗｸﾞﾝｱｶﾞﾏﾁ","streetKana":"ｱｶﾞﾉｷﾀ","prefecture":"新潟県","city":"東蒲原郡阿賀町","street":"あが野北"},{"zipCode":"9594626","prefectureKana":"ﾆｲｶﾞﾀｹﾝ","cityKana":"ﾋｶﾞｼｶﾝﾊﾞﾗｸﾞﾝｱｶﾞﾏﾁ","streetKana":"ｱｶﾞﾉﾐﾅﾐ","prefecture":"新潟県","city":"東蒲原郡阿賀町","street":"あが野南"},{"zipCode":"9594603","prefectureKana":"ﾆｲｶﾞﾀｹﾝ","cityKana":"ﾋｶﾞｼｶﾝﾊﾞﾗｸﾞﾝｱｶﾞﾏﾁ","streetKana":"ｱﾗﾔ","prefecture":"新潟県","city":"東蒲原郡阿賀町","street":"新谷"},{"zipCode":"9594606","prefectureKana":"ﾆｲｶﾞﾀｹﾝ","cityKana":"ﾋｶﾞｼｶﾝﾊﾞﾗｸﾞﾝｱｶﾞﾏﾁ","streetKana":"ｲｶｻﾞﾜ","prefecture":"新潟県","city":"東蒲原郡阿賀町","street":"五十沢"},{"zipCode":"9594614","prefectureKana":"ﾆｲｶﾞﾀｹﾝ","cityKana":"ﾋｶﾞｼｶﾝﾊﾞﾗｸﾞﾝｱｶﾞﾏﾁ","streetKana":"ｲｶﾞｼﾏ","prefecture":"新潟県","city":"東蒲原郡阿賀町","street":"五十島"},{"zipCode":"9594632","prefectureKana":"ﾆｲｶﾞﾀｹﾝ","cityKana":"ﾋｶﾞｼｶﾝﾊﾞﾗｸﾞﾝｱｶﾞﾏﾁ","streetKana":"ｲｼﾄ","prefecture":"新潟県","city":"東蒲原郡阿賀町","street":"石戸"},{"zipCode":"9594636","prefectureKana":"ﾆｲｶﾞﾀｹﾝ","cityKana":"ﾋｶﾞｼｶﾝﾊﾞﾗｸﾞﾝｱｶﾞﾏﾁ","streetKana":"ｲｼﾏ","prefecture":"新潟県","city":"東蒲原郡阿賀町","street":"石間"},{"zipCode":"9594627","prefectureKana":"ﾆｲｶﾞﾀｹﾝ","cityKana":"ﾋｶﾞｼｶﾝﾊﾞﾗｸﾞﾝｱｶﾞﾏﾁ","streetKana":"ｲﾜﾔ","prefecture":"新潟県","city":"東蒲原郡阿賀町","street":"岩谷"},{"zipCode":"9594405","prefectureKana":"ﾆｲｶﾞﾀｹﾝ","cityKana":"ﾋｶﾞｼｶﾝﾊﾞﾗｸﾞﾝｱｶﾞﾏﾁ","streetKana":"ｳｴﾉﾔﾏ","prefecture":"新潟県","city":"東蒲原郡阿賀町","street":"上ノ山"},{"zipCode":"9594410","prefectureKana":"ﾆｲｶﾞﾀｹﾝ","cityKana":"ﾋｶﾞｼｶﾝﾊﾞﾗｸﾞﾝｱｶﾞﾏﾁ","streetKana":"ｵｵﾏｷ","prefecture":"新潟県","city":"東蒲原郡阿賀町","street":"大牧"},{"zipCode":"9594612","prefectureKana":"ﾆｲｶﾞﾀｹﾝ","cityKana":"ﾋｶﾞｼｶﾝﾊﾞﾗｸﾞﾝｱｶﾞﾏﾁ","streetKana":"ｵｶｻﾞﾜ","prefecture":"新潟県","city":"東蒲原郡阿賀町","street":"岡沢"},{"zipCode":"9594525","prefectureKana":"ﾆｲｶﾞﾀｹﾝ","cityKana":"ﾋｶﾞｼｶﾝﾊﾞﾗｸﾞﾝｱｶﾞﾏﾁ","streetKana":"ｵﾃﾓ","prefecture":"新潟県","city":"東蒲原郡阿賀町","street":"小手茂"},{"zipCode":"9594302","prefectureKana":"ﾆｲｶﾞﾀｹﾝ","cityKana":"ﾋｶﾞｼｶﾝﾊﾞﾗｸﾞﾝｱｶﾞﾏﾁ","streetKana":"ｶﾉｾ","prefecture":"新潟県","city":"東蒲原郡阿賀町","street":"鹿瀬"},{"zipCode":"9594617","prefectureKana":"ﾆｲｶﾞﾀｹﾝ","cityKana":"ﾋｶﾞｼｶﾝﾊﾞﾗｸﾞﾝｱｶﾞﾏﾁ","streetKana":"ｶﾐｼﾏ","prefecture":"新潟県","city":"東蒲原郡阿賀町","street":"上島"},{"zipCode":"9594534","prefectureKana":"ﾆｲｶﾞﾀｹﾝ","cityKana":"ﾋｶﾞｼｶﾝﾊﾞﾗｸﾞﾝｱｶﾞﾏﾁ","streetKana":"ｶﾐﾀﾆｵﾂ","prefecture":"新潟県","city":"東蒲原郡阿賀町","street":"神谷乙"},{"zipCode":"9594535","prefectureKana":"ﾆｲｶﾞﾀｹﾝ","cityKana":"ﾋｶﾞｼｶﾝﾊﾞﾗｸﾞﾝｱｶﾞﾏﾁ","streetKana":"ｶﾐﾀﾆｺｳ","prefecture":"新潟県","city":"東蒲原郡阿賀町","street":"神谷甲"},{"zipCode":"9594533","prefectureKana":"ﾆｲｶﾞﾀｹﾝ","cityKana":"ﾋｶﾞｼｶﾝﾊﾞﾗｸﾞﾝｱｶﾞﾏﾁ","streetKana":"ｶﾐﾀﾆﾍｲ","prefecture":"新潟県","city":"東蒲原郡阿賀町","street":"神谷丙"},{"zipCode":"9594618","prefectureKana":"ﾆｲｶﾞﾀｹﾝ","cityKana":"ﾋｶﾞｼｶﾝﾊﾞﾗｸﾞﾝｱｶﾞﾏﾁ","streetKana":"ｶﾜｸﾞﾁ","prefecture":"新潟県","city":"東蒲原郡阿賀町","street":"川口"},{"zipCode":"9594409","prefectureKana":"ﾆｲｶﾞﾀｹﾝ","cityKana":"ﾋｶﾞｼｶﾝﾊﾞﾗｸﾞﾝｱｶﾞﾏﾁ","streetKana":"ｷｮｳﾉｾ","prefecture":"新潟県","city":"東蒲原郡阿賀町","street":"京ノ瀬"},{"zipCode":"9594501","prefectureKana":"ﾆｲｶﾞﾀｹﾝ","cityKana":"ﾋｶﾞｼｶﾝﾊﾞﾗｸﾞﾝｱｶﾞﾏﾁ","streetKana":"ｸｼﾏ","prefecture":"新潟県","city":"東蒲原郡阿賀町","street":"九島"},{"zipCode":"9594634","prefectureKana":"ﾆｲｶﾞﾀｹﾝ","cityKana":"ﾋｶﾞｼｶﾝﾊﾞﾗｸﾞﾝｱｶﾞﾏﾁ","streetKana":"ｸﾏﾜﾀﾘ","prefecture":"新潟県","city":"東蒲原郡阿賀町","street":"熊渡"},{"zipCode":"9594406","prefectureKana":"ﾆｲｶﾞﾀｹﾝ","cityKana":"ﾋｶﾞｼｶﾝﾊﾞﾗｸﾞﾝｱｶﾞﾏﾁ","streetKana":"ｸﾓﾜﾀﾞ","prefecture":"新潟県","city":"東蒲原郡阿賀町","street":"雲和田"},{"zipCode":"9594413","prefectureKana":"ﾆｲｶﾞﾀｹﾝ","cityKana":"ﾋｶﾞｼｶﾝﾊﾞﾗｸﾞﾝｱｶﾞﾏﾁ","streetKana":"ｸﾗﾉﾀｲﾗ","prefecture":"新潟県","city":"東蒲原郡阿賀町","street":"倉ノ平"},{"zipCode":"9594623","prefectureKana":"ﾆｲｶﾞﾀｹﾝ","cityKana":"ﾋｶﾞｼｶﾝﾊﾞﾗｸﾞﾝｱｶﾞﾏﾁ","streetKana":"ｸﾛｲﾜ","prefecture":"新潟県","city":"東蒲原郡阿賀町","street":"黒岩"},{"zipCode":"9594502","prefectureKana":"ﾆｲｶﾞﾀｹﾝ","cityKana":"ﾋｶﾞｼｶﾝﾊﾞﾗｸﾞﾝｱｶﾞﾏﾁ","streetKana":"ｺｲﾃﾞ","prefecture":"新潟県","city":"東蒲原郡阿賀町","street":"小出"},{"zipCode":"9594608","prefectureKana":"ﾆｲｶﾞﾀｹﾝ","cityKana":"ﾋｶﾞｼｶﾝﾊﾞﾗｸﾞﾝｱｶﾞﾏﾁ","streetKana":"ｺﾊﾞﾅﾁ","prefecture":"新潟県","city":"東蒲原郡阿賀町","street":"小花地"},{"zipCode":"9594522","prefectureKana":"ﾆｲｶﾞﾀｹﾝ","cityKana":"ﾋｶﾞｼｶﾝﾊﾞﾗｸﾞﾝｱｶﾞﾏﾁ","streetKana":"ｻﾝﾎﾟｳﾌﾞﾝｵﾂ","prefecture":"新潟県","city":"東蒲原郡阿賀町","street":"三宝分乙"},{"zipCode":"9594521","prefectureKana":"ﾆｲｶﾞﾀｹﾝ","cityKana":"ﾋｶﾞｼｶﾝﾊﾞﾗｸﾞﾝｱｶﾞﾏﾁ","streetKana":"ｻﾝﾎﾟｳﾌﾞﾝｺｳ","prefecture":"新潟県","city":"東蒲原郡阿賀町","street":"三宝分甲"},{"zipCode":"9594523","prefectureKana":"ﾆｲｶﾞﾀｹﾝ","cityKana":"ﾋｶﾞｼｶﾝﾊﾞﾗｸﾞﾝｱｶﾞﾏﾁ","streetKana":"ｻﾝﾎﾟｳﾌﾞﾝﾍｲ","prefecture":"新潟県","city":"東蒲原郡阿賀町","street":"三宝分丙"},{"zipCode":"9594622","prefectureKana":"ﾆｲｶﾞﾀｹﾝ","cityKana":"ﾋｶﾞｼｶﾝﾊﾞﾗｸﾞﾝｱｶﾞﾏﾁ","streetKana":"ｼﾛｻｷ","prefecture":"新潟県","city":"東蒲原郡阿賀町","street":"白崎"},{"zipCode":"9594512","prefectureKana":"ﾆｲｶﾞﾀｹﾝ","cityKana":"ﾋｶﾞｼｶﾝﾊﾞﾗｸﾞﾝｱｶﾞﾏﾁ","streetKana":"ﾀﾞｲｸﾗｵﾂ","prefecture":"新潟県","city":"東蒲原郡阿賀町","street":"大倉乙"},{"zipCode":"9594513","prefectureKana":"ﾆｲｶﾞﾀｹﾝ","cityKana":"ﾋｶﾞｼｶﾝﾊﾞﾗｸﾞﾝｱｶﾞﾏﾁ","streetKana":"ﾀﾞｲｸﾗｺｳ","prefecture":"新潟県","city":"東蒲原郡阿賀町","street":"大倉甲"},{"zipCode":"9594416","prefectureKana":"ﾆｲｶﾞﾀｹﾝ","cityKana":"ﾋｶﾞｼｶﾝﾊﾞﾗｸﾞﾝｱｶﾞﾏﾁ","streetKana":"ﾀｻﾞﾜ","prefecture":"新潟県","city":"東蒲原郡阿賀町","street":"田沢"},{"zipCode":"9594402","prefectureKana":"ﾆｲｶﾞﾀｹﾝ","cityKana":"ﾋｶﾞｼｶﾝﾊﾞﾗｸﾞﾝｱｶﾞﾏﾁ","streetKana":"ﾂｶﾞﾜ","prefecture":"新潟県","city":"東蒲原郡阿賀町","street":"津川"},{"zipCode":"9594601","prefectureKana":"ﾆｲｶﾞﾀｹﾝ","cityKana":"ﾋｶﾞｼｶﾝﾊﾞﾗｸﾞﾝｱｶﾞﾏﾁ","streetKana":"ﾂﾅｷﾞ","prefecture":"新潟県","city":"東蒲原郡阿賀町","street":"綱木"},{"zipCode":"9594401","prefectureKana":"ﾆｲｶﾞﾀｹﾝ","cityKana":"ﾋｶﾞｼｶﾝﾊﾞﾗｸﾞﾝｱｶﾞﾏﾁ","streetKana":"ﾂﾉｼﾏ","prefecture":"新潟県","city":"東蒲原郡阿賀町","street":"角島"},{"zipCode":"9594635","prefectureKana":"ﾆｲｶﾞﾀｹﾝ","cityKana":"ﾋｶﾞｼｶﾝﾊﾞﾗｸﾞﾝｱｶﾞﾏﾁ","streetKana":"ﾂﾘﾊﾏ","prefecture":"新潟県","city":"東蒲原郡阿賀町","street":"釣浜"},{"zipCode":"9594411","prefectureKana":"ﾆｲｶﾞﾀｹﾝ","cityKana":"ﾋｶﾞｼｶﾝﾊﾞﾗｸﾞﾝｱｶﾞﾏﾁ","streetKana":"ﾃﾝﾏﾝ","prefecture":"新潟県","city":"東蒲原郡阿賀町","street":"天満"},{"zipCode":"9594503","prefectureKana":"ﾆｲｶﾞﾀｹﾝ","cityKana":"ﾋｶﾞｼｶﾝﾊﾞﾗｸﾞﾝｱｶﾞﾏﾁ","streetKana":"ﾄﾖｶﾜｵﾂ","prefecture":"新潟県","city":"東蒲原郡阿賀町","street":"豊川乙"},{"zipCode":"9594505","prefectureKana":"ﾆｲｶﾞﾀｹﾝ","cityKana":"ﾋｶﾞｼｶﾝﾊﾞﾗｸﾞﾝｱｶﾞﾏﾁ","streetKana":"ﾄﾖｶﾜｺｳ","prefecture":"新潟県","city":"東蒲原郡阿賀町","street":"豊川甲"},{"zipCode":"9594504","prefectureKana":"ﾆｲｶﾞﾀｹﾝ","cityKana":"ﾋｶﾞｼｶﾝﾊﾞﾗｸﾞﾝｱｶﾞﾏﾁ","streetKana":"ﾄﾖｶﾜﾍｲ","prefecture":"新潟県","city":"東蒲原郡阿賀町","street":"豊川丙"},{"zipCode":"9594304","prefectureKana":"ﾆｲｶﾞﾀｹﾝ","cityKana":"ﾋｶﾞｼｶﾝﾊﾞﾗｸﾞﾝｱｶﾞﾏﾁ","streetKana":"ﾄﾖﾐ","prefecture":"新潟県","city":"東蒲原郡阿賀町","street":"豊実"},{"zipCode":"9594631","prefectureKana":"ﾆｲｶﾞﾀｹﾝ","cityKana":"ﾋｶﾞｼｶﾝﾊﾞﾗｸﾞﾝｱｶﾞﾏﾁ","streetKana":"ﾄﾘｱｹﾞ","prefecture":"新潟県","city":"東蒲原郡阿賀町","street":"取上"},{"zipCode":"9594633","prefectureKana":"ﾆｲｶﾞﾀｹﾝ","cityKana":"ﾋｶﾞｼｶﾝﾊﾞﾗｸﾞﾝｱｶﾞﾏﾁ","streetKana":"ﾅｶﾞﾀﾆ","prefecture":"新潟県","city":"東蒲原郡阿賀町","street":"長谷"},{"zipCode":"9594611","prefectureKana":"ﾆｲｶﾞﾀｹﾝ","cityKana":"ﾋｶﾞｼｶﾝﾊﾞﾗｸﾞﾝｱｶﾞﾏﾁ","streetKana":"ﾅｶﾉｻﾜ","prefecture":"新潟県","city":"東蒲原郡阿賀町","street":"中ノ沢"},{"zipCode":"9594514","prefectureKana":"ﾆｲｶﾞﾀｹﾝ","cityKana":"ﾋｶﾞｼｶﾝﾊﾞﾗｸﾞﾝｱｶﾞﾏﾁ","streetKana":"ﾅﾅﾒｵﾂ","prefecture":"新潟県","city":"東蒲原郡阿賀町","street":"七名乙"},{"zipCode":"9594515","prefectureKana":"ﾆｲｶﾞﾀｹﾝ","cityKana":"ﾋｶﾞｼｶﾝﾊﾞﾗｸﾞﾝｱｶﾞﾏﾁ","streetKana":"ﾅﾅﾒｺｳ","prefecture":"新潟県","city":"東蒲原郡阿賀町","street":"七名甲"},{"zipCode":"9594407","prefectureKana":"ﾆｲｶﾞﾀｹﾝ","cityKana":"ﾋｶﾞｼｶﾝﾊﾞﾗｸﾞﾝｱｶﾞﾏﾁ","streetKana":"ﾆｼ","prefecture":"新潟県","city":"東蒲原郡阿賀町","street":"西"},{"zipCode":"9594418","prefectureKana":"ﾆｲｶﾞﾀｹﾝ","cityKana":"ﾋｶﾞｼｶﾝﾊﾞﾗｸﾞﾝｱｶﾞﾏﾁ","streetKana":"ﾉﾑﾗ","prefecture":"新潟県","city":"東蒲原郡阿賀町","street":"野村"},{"zipCode":"9594412","prefectureKana":"ﾆｲｶﾞﾀｹﾝ","cityKana":"ﾋｶﾞｼｶﾝﾊﾞﾗｸﾞﾝｱｶﾞﾏﾁ","streetKana":"ﾊﾅﾀﾞﾃ","prefecture":"新潟県","city":"東蒲原郡阿賀町","street":"花立"},{"zipCode":"9594441","prefectureKana":"ﾆｲｶﾞﾀｹﾝ","cityKana":"ﾋｶﾞｼｶﾝﾊﾞﾗｸﾞﾝｱｶﾞﾏﾁ","streetKana":"ﾊﾗｲｶﾞﾜ","prefecture":"新潟県","city":"東蒲原郡阿賀町","street":"払川"},{"zipCode":"9594511","prefectureKana":"ﾆｲｶﾞﾀｹﾝ","cityKana":"ﾋｶﾞｼｶﾝﾊﾞﾗｸﾞﾝｱｶﾞﾏﾁ","streetKana":"ﾋｶﾞｼﾔﾏ","prefecture":"新潟県","city":"東蒲原郡阿賀町","street":"東山"},{"zipCode":"9594303","prefectureKana":"ﾆｲｶﾞﾀｹﾝ","cityKana":"ﾋｶﾞｼｶﾝﾊﾞﾗｸﾞﾝｱｶﾞﾏﾁ","streetKana":"ﾋﾃﾞﾔ","prefecture":"新潟県","city":"東蒲原郡阿賀町","street":"日出谷"},{"zipCode":"9594539","prefectureKana":"ﾆｲｶﾞﾀｹﾝ","cityKana":"ﾋｶﾞｼｶﾝﾊﾞﾗｸﾞﾝｱｶﾞﾏﾁ","streetKana":"ﾋﾉｶﾜｵﾂ","prefecture":"新潟県","city":"東蒲原郡阿賀町","street":"日野川乙"},{"zipCode":"9594531","prefectureKana":"ﾆｲｶﾞﾀｹﾝ","cityKana":"ﾋｶﾞｼｶﾝﾊﾞﾗｸﾞﾝｱｶﾞﾏﾁ","streetKana":"ﾋﾉｶﾜｺｳ","prefecture":"新潟県","city":"東蒲原郡阿賀町","street":"日野川甲"},{"zipCode":"9594538","prefectureKana":"ﾆｲｶﾞﾀｹﾝ","cityKana":"ﾋｶﾞｼｶﾝﾊﾞﾗｸﾞﾝｱｶﾞﾏﾁ","streetKana":"ﾋﾉｶﾜﾍｲ","prefecture":"新潟県","city":"東蒲原郡阿賀町","street":"日野川丙"},{"zipCode":"9594403","prefectureKana":"ﾆｲｶﾞﾀｹﾝ","cityKana":"ﾋｶﾞｼｶﾝﾊﾞﾗｸﾞﾝｱｶﾞﾏﾁ","streetKana":"ﾋﾗﾎﾞﾘ","prefecture":"新潟県","city":"東蒲原郡阿賀町","street":"平堀"},{"zipCode":"9594404","prefectureKana":"ﾆｲｶﾞﾀｹﾝ","cityKana":"ﾋｶﾞｼｶﾝﾊﾞﾗｸﾞﾝｱｶﾞﾏﾁ","streetKana":"ﾋﾛｻﾜ","prefecture":"新潟県","city":"東蒲原郡阿賀町","street":"広沢"},{"zipCode":"9594537","prefectureKana":"ﾆｲｶﾞﾀｹﾝ","cityKana":"ﾋｶﾞｼｶﾝﾊﾞﾗｸﾞﾝｱｶﾞﾏﾁ","streetKana":"ﾋﾛﾀﾆｵﾂ","prefecture":"新潟県","city":"東蒲原郡阿賀町","street":"広谷乙"},{"zipCode":"9594536","prefectureKana":"ﾆｲｶﾞﾀｹﾝ","cityKana":"ﾋｶﾞｼｶﾝﾊﾞﾗｸﾞﾝｱｶﾞﾏﾁ","streetKana":"ﾋﾛﾀﾆｺｳ","prefecture":"新潟県","city":"東蒲原郡阿賀町","street":"広谷甲"},{"zipCode":"9594532","prefectureKana":"ﾆｲｶﾞﾀｹﾝ","cityKana":"ﾋｶﾞｼｶﾝﾊﾞﾗｸﾞﾝｱｶﾞﾏﾁ","streetKana":"ﾋﾛﾀﾆﾍｲ","prefecture":"新潟県","city":"東蒲原郡阿賀町","street":"広谷丙"},{"zipCode":"9594414","prefectureKana":"ﾆｲｶﾞﾀｹﾝ","cityKana":"ﾋｶﾞｼｶﾝﾊﾞﾗｸﾞﾝｱｶﾞﾏﾁ","streetKana":"ﾌｸﾄﾘ","prefecture":"新潟県","city":"東蒲原郡阿賀町","street":"福取"},{"zipCode":"9594602","prefectureKana":"ﾆｲｶﾞﾀｹﾝ","cityKana":"ﾋｶﾞｼｶﾝﾊﾞﾗｸﾞﾝｱｶﾞﾏﾁ","streetKana":"ﾌﾙﾏﾀ","prefecture":"新潟県","city":"東蒲原郡阿賀町","street":"古岐"},{"zipCode":"9594605","prefectureKana":"ﾆｲｶﾞﾀｹﾝ","cityKana":"ﾋｶﾞｼｶﾝﾊﾞﾗｸﾞﾝｱｶﾞﾏﾁ","streetKana":"ﾎｿｺﾞｴ","prefecture":"新潟県","city":"東蒲原郡阿賀町","street":"細越"},{"zipCode":"9594524","prefectureKana":"ﾆｲｶﾞﾀｹﾝ","cityKana":"ﾋｶﾞｼｶﾝﾊﾞﾗｸﾞﾝｱｶﾞﾏﾁ","streetKana":"ﾐｶﾀｵﾂ","prefecture":"新潟県","city":"東蒲原郡阿賀町","street":"三方乙"},{"zipCode":"9594526","prefectureKana":"ﾆｲｶﾞﾀｹﾝ","cityKana":"ﾋｶﾞｼｶﾝﾊﾞﾗｸﾞﾝｱｶﾞﾏﾁ","streetKana":"ﾐｶﾀｺｳ","prefecture":"新潟県","city":"東蒲原郡阿賀町","street":"三方甲"},{"zipCode":"9594301","prefectureKana":"ﾆｲｶﾞﾀｹﾝ","cityKana":"ﾋｶﾞｼｶﾝﾊﾞﾗｸﾞﾝｱｶﾞﾏﾁ","streetKana":"ﾑｶｲｶﾉｾ","prefecture":"新潟県","city":"東蒲原郡阿賀町","street":"向鹿瀬"},{"zipCode":"9594417","prefectureKana":"ﾆｲｶﾞﾀｹﾝ","cityKana":"ﾋｶﾞｼｶﾝﾊﾞﾗｸﾞﾝｱｶﾞﾏﾁ","streetKana":"ﾔｷﾔﾏ","prefecture":"新潟県","city":"東蒲原郡阿賀町","street":"八木山"},{"zipCode":"9594624","prefectureKana":"ﾆｲｶﾞﾀｹﾝ","cityKana":"ﾋｶﾞｼｶﾝﾊﾞﾗｸﾞﾝｱｶﾞﾏﾁ","streetKana":"ﾔｻﾞﾜ","prefecture":"新潟県","city":"東蒲原郡阿賀町","street":"谷沢"},{"zipCode":"9594415","prefectureKana":"ﾆｲｶﾞﾀｹﾝ","cityKana":"ﾋｶﾞｼｶﾝﾊﾞﾗｸﾞﾝｱｶﾞﾏﾁ","streetKana":"ﾔﾂﾀﾞ","prefecture":"新潟県","city":"東蒲原郡阿賀町","street":"八ツ田"},{"zipCode":"9594604","prefectureKana":"ﾆｲｶﾞﾀｹﾝ","cityKana":"ﾋｶﾞｼｶﾝﾊﾞﾗｸﾞﾝｱｶﾞﾏﾁ","streetKana":"ﾕｸｼﾞ","prefecture":"新潟県","city":"東蒲原郡阿賀町","street":"行地"},{"zipCode":"9594625","prefectureKana":"ﾆｲｶﾞﾀｹﾝ","cityKana":"ﾋｶﾞｼｶﾝﾊﾞﾗｸﾞﾝｱｶﾞﾏﾁ","streetKana":"ﾖｼﾂﾞ","prefecture":"新潟県","city":"東蒲原郡阿賀町","street":"吉津"},{"zipCode":"9594506","prefectureKana":"ﾆｲｶﾞﾀｹﾝ","cityKana":"ﾋｶﾞｼｶﾝﾊﾞﾗｸﾞﾝｱｶﾞﾏﾁ","streetKana":"ﾘｮｳｺﾞｳｵﾂ","prefecture":"新潟県","city":"東蒲原郡阿賀町","street":"両郷乙"},{"zipCode":"9594507","prefectureKana":"ﾆｲｶﾞﾀｹﾝ","cityKana":"ﾋｶﾞｼｶﾝﾊﾞﾗｸﾞﾝｱｶﾞﾏﾁ","streetKana":"ﾘｮｳｺﾞｳｺｳ","prefecture":"新潟県","city":"東蒲原郡阿賀町","street":"両郷甲"},{"zipCode":"9593200","prefectureKana":"ﾆｲｶﾞﾀｹﾝ","cityKana":"ｲﾜﾌﾈｸﾞﾝｾｷｶﾜﾑﾗ","streetKana":"ｲｶﾆｹｲｻｲｶﾞﾅｲﾊﾞｱｲ","prefecture":"新潟県","city":"岩船郡関川村","street":"以下に掲載がない場合"},{"zipCode":"9593235","prefectureKana":"ﾆｲｶﾞﾀｹﾝ","cityKana":"ｲﾜﾌﾈｸﾞﾝｾｷｶﾜﾑﾗ","streetKana":"ｱｽﾞﾐ","prefecture":"新潟県","city":"岩船郡関川村","street":"安角"},{"zipCode":"9593222","prefectureKana":"ﾆｲｶﾞﾀｹﾝ","cityKana":"ｲﾜﾌﾈｸﾞﾝｾｷｶﾜﾑﾗ","streetKana":"ｱﾗｶﾜﾀﾞｲ","prefecture":"新潟県","city":"岩船郡関川村","street":"荒川台"},{"zipCode":"9593245","prefectureKana":"ﾆｲｶﾞﾀｹﾝ","cityKana":"ｲﾜﾌﾈｸﾞﾝｾｷｶﾜﾑﾗ","streetKana":"ｲｸｼﾞ","prefecture":"新潟県","city":"岩船郡関川村","street":"幾地"},{"zipCode":"9593213","prefectureKana":"ﾆｲｶﾞﾀｹﾝ","cityKana":"ｲﾜﾌﾈｸﾞﾝｾｷｶﾜﾑﾗ","streetKana":"ｳｴﾉ","prefecture":"新潟県","city":"岩船郡関川村","street":"上野"},{"zipCode":"9593214","prefectureKana":"ﾆｲｶﾞﾀｹﾝ","cityKana":"ｲﾜﾌﾈｸﾞﾝｾｷｶﾜﾑﾗ","streetKana":"ｳｴﾉｼﾝ","prefecture":"新潟県","city":"岩船郡関川村","street":"上野新"},{"zipCode":"9593216","prefectureKana":"ﾆｲｶﾞﾀｹﾝ","cityKana":"ｲﾜﾌﾈｸﾞﾝｾｷｶﾜﾑﾗ","streetKana":"ｳｴﾉﾊﾗ","prefecture":"新潟県","city":"岩船郡関川村","street":"上野原"},{"zipCode":"9593257","prefectureKana":"ﾆｲｶﾞﾀｹﾝ","cityKana":"ｲﾜﾌﾈｸﾞﾝｾｷｶﾜﾑﾗ","streetKana":"ｳｴﾉﾔﾏ","prefecture":"新潟県","city":"岩船郡関川村","street":"上野山"},{"zipCode":"9593272","prefectureKana":"ﾆｲｶﾞﾀｹﾝ","cityKana":"ｲﾜﾌﾈｸﾞﾝｾｷｶﾜﾑﾗ","streetKana":"ｳﾁｱｹﾞ","prefecture":"新潟県","city":"岩船郡関川村","street":"打上"},{"zipCode":"9593275","prefectureKana":"ﾆｲｶﾞﾀｹﾝ","cityKana":"ｲﾜﾌﾈｸﾞﾝｾｷｶﾜﾑﾗ","streetKana":"ｳﾁｽｶﾞﾜ","prefecture":"新潟県","city":"岩船郡関川村","street":"内須川"},{"zipCode":"9593223","prefectureKana":"ﾆｲｶﾞﾀｹﾝ","cityKana":"ｲﾜﾌﾈｸﾞﾝｾｷｶﾜﾑﾗ","streetKana":"ｵｳﾁﾌﾞﾁ","prefecture":"新潟県","city":"岩船郡関川村","street":"大内淵"},{"zipCode":"9593256","prefectureKana":"ﾆｲｶﾞﾀｹﾝ","cityKana":"ｲﾜﾌﾈｸﾞﾝｾｷｶﾜﾑﾗ","streetKana":"ｵｳﾐ","prefecture":"新潟県","city":"岩船郡関川村","street":"小見"},{"zipCode":"9593254","prefectureKana":"ﾆｲｶﾞﾀｹﾝ","cityKana":"ｲﾜﾌﾈｸﾞﾝｾｷｶﾜﾑﾗ","streetKana":"ｵｳﾐﾏｴｼﾝﾃﾞﾝ","prefecture":"新潟県","city":"岩船郡関川村","street":"小見前新田"},{"zipCode":"9593236","prefectureKana":"ﾆｲｶﾞﾀｹﾝ","cityKana":"ｲﾜﾌﾈｸﾞﾝｾｷｶﾜﾑﾗ","streetKana":"ｵｵｲｼ","prefecture":"新潟県","city":"岩船郡関川村","street":"大石"},{"zipCode":"9593241","prefectureKana":"ﾆｲｶﾞﾀｹﾝ","cityKana":"ｲﾜﾌﾈｸﾞﾝｾｷｶﾜﾑﾗ","streetKana":"ｵｵｼﾏ","prefecture":"新潟県","city":"岩船郡関川村","street":"大島"},{"zipCode":"9593234","prefectureKana":"ﾆｲｶﾞﾀｹﾝ","cityKana":"ｲﾜﾌﾈｸﾞﾝｾｷｶﾜﾑﾗ","streetKana":"ｶｼﾞｶﾀﾞﾆ","prefecture":"新潟県","city":"岩船郡関川村","street":"鮖谷"},{"zipCode":"9593226","prefectureKana":"ﾆｲｶﾞﾀｹﾝ","cityKana":"ｲﾜﾌﾈｸﾞﾝｾｷｶﾜﾑﾗ","streetKana":"ｶﾀｶｲ","prefecture":"新潟県","city":"岩船郡関川村","street":"片貝"},{"zipCode":"9593251","prefectureKana":"ﾆｲｶﾞﾀｹﾝ","cityKana":"ｲﾜﾌﾈｸﾞﾝｾｷｶﾜﾑﾗ","streetKana":"ｶﾂﾗ","prefecture":"新潟県","city":"岩船郡関川村","street":"桂"},{"zipCode":"9593228","prefectureKana":"ﾆｲｶﾞﾀｹﾝ","cityKana":"ｲﾜﾌﾈｸﾞﾝｾｷｶﾜﾑﾗ","streetKana":"ｶﾅﾏﾙ","prefecture":"新潟県","city":"岩船郡関川村","street":"金丸"},{"zipCode":"9593237","prefectureKana":"ﾆｲｶﾞﾀｹﾝ","cityKana":"ｲﾜﾌﾈｸﾞﾝｾｷｶﾜﾑﾗ","streetKana":"ｶﾈﾏﾀ","prefecture":"新潟県","city":"岩船郡関川村","street":"金俣"},{"zipCode":"9593231","prefectureKana":"ﾆｲｶﾞﾀｹﾝ","cityKana":"ｲﾜﾌﾈｸﾞﾝｾｷｶﾜﾑﾗ","streetKana":"ｶﾐｶﾜｸﾁ","prefecture":"新潟県","city":"岩船郡関川村","street":"上川口"},{"zipCode":"9593205","prefectureKana":"ﾆｲｶﾞﾀｹﾝ","cityKana":"ｲﾜﾌﾈｸﾞﾝｾｷｶﾜﾑﾗ","streetKana":"ｶﾐｼﾝﾎﾞ","prefecture":"新潟県","city":"岩船郡関川村","street":"上新保"},{"zipCode":"9593264","prefectureKana":"ﾆｲｶﾞﾀｹﾝ","cityKana":"ｲﾜﾌﾈｸﾞﾝｾｷｶﾜﾑﾗ","streetKana":"ｶﾐｾｷ","prefecture":"新潟県","city":"岩船郡関川村","street":"上関"},{"zipCode":"9593246","prefectureKana":"ﾆｲｶﾞﾀｹﾝ","cityKana":"ｲﾜﾌﾈｸﾞﾝｾｷｶﾜﾑﾗ","streetKana":"ｶﾐﾂﾁｻﾞﾜ","prefecture":"新潟県","city":"岩船郡関川村","street":"上土沢"},{"zipCode":"9593224","prefectureKana":"ﾆｲｶﾞﾀｹﾝ","cityKana":"ｲﾜﾌﾈｸﾞﾝｾｷｶﾜﾑﾗ","streetKana":"ｷｹｲﾃﾞ","prefecture":"新潟県","city":"岩船郡関川村","street":"聞出"},{"zipCode":"9593233","prefectureKana":"ﾆｲｶﾞﾀｹﾝ","cityKana":"ｲﾜﾌﾈｸﾞﾝｾｷｶﾜﾑﾗ","streetKana":"ｸﾎﾞ","prefecture":"新潟県","city":"岩船郡関川村","street":"久保"},{"zipCode":"9593243","prefectureKana":"ﾆｲｶﾞﾀｹﾝ","cityKana":"ｲﾜﾌﾈｸﾞﾝｾｷｶﾜﾑﾗ","streetKana":"ｸﾜｴｻﾞﾜ","prefecture":"新潟県","city":"岩船郡関川村","street":"鍬江沢"},{"zipCode":"9593211","prefectureKana":"ﾆｲｶﾞﾀｹﾝ","cityKana":"ｲﾜﾌﾈｸﾞﾝｾｷｶﾜﾑﾗ","streetKana":"ｺﾜﾀﾞ","prefecture":"新潟県","city":"岩船郡関川村","street":"小和田"},{"zipCode":"9593262","prefectureKana":"ﾆｲｶﾞﾀｹﾝ","cityKana":"ｲﾜﾌﾈｸﾞﾝｾｷｶﾜﾑﾗ","streetKana":"ｻﾜ","prefecture":"新潟県","city":"岩船郡関川村","street":"沢"},{"zipCode":"9593221","prefectureKana":"ﾆｲｶﾞﾀｹﾝ","cityKana":"ｲﾜﾌﾈｸﾞﾝｾｷｶﾜﾑﾗ","streetKana":"ｼﾓｶﾜｸﾞﾁ","prefecture":"新潟県","city":"岩船郡関川村","street":"下川口"},{"zipCode":"9593265","prefectureKana":"ﾆｲｶﾞﾀｹﾝ","cityKana":"ｲﾜﾌﾈｸﾞﾝｾｷｶﾜﾑﾗ","streetKana":"ｼﾓｾｷ","prefecture":"新潟県","city":"岩船郡関川村","street":"下関"},{"zipCode":"9593242","prefectureKana":"ﾆｲｶﾞﾀｹﾝ","cityKana":"ｲﾜﾌﾈｸﾞﾝｾｷｶﾜﾑﾗ","streetKana":"ｼﾓﾂﾁｻﾞﾜ","prefecture":"新潟県","city":"岩船郡関川村","street":"下土沢"},{"zipCode":"9593204","prefectureKana":"ﾆｲｶﾞﾀｹﾝ","cityKana":"ｲﾜﾌﾈｸﾞﾝｾｷｶﾜﾑﾗ","streetKana":"ｼﾞｬﾊﾞﾐ","prefecture":"新潟県","city":"岩船郡関川村","street":"蛇喰"},{"zipCode":"9593273","prefectureKana":"ﾆｲｶﾞﾀｹﾝ","cityKana":"ｲﾜﾌﾈｸﾞﾝｾｷｶﾜﾑﾗ","streetKana":"ｼｮｳｿﾞｳ","prefecture":"新潟県","city":"岩船郡関川村","street":"勝蔵"},{"zipCode":"9593232","prefectureKana":"ﾆｲｶﾞﾀｹﾝ","cityKana":"ｲﾜﾌﾈｸﾞﾝｾｷｶﾜﾑﾗ","streetKana":"ｿｳﾀﾞｼﾏ","prefecture":"新潟県","city":"岩船郡関川村","street":"蔵田島"},{"zipCode":"9593263","prefectureKana":"ﾆｲｶﾞﾀｹﾝ","cityKana":"ｲﾜﾌﾈｸﾞﾝｾｷｶﾜﾑﾗ","streetKana":"ﾀｶｾ","prefecture":"新潟県","city":"岩船郡関川村","street":"高瀬"},{"zipCode":"9593252","prefectureKana":"ﾆｲｶﾞﾀｹﾝ","cityKana":"ｲﾜﾌﾈｸﾞﾝｾｷｶﾜﾑﾗ","streetKana":"ﾀｶﾀﾞ","prefecture":"新潟県","city":"岩船郡関川村","street":"高田"},{"zipCode":"9593258","prefectureKana":"ﾆｲｶﾞﾀｹﾝ","cityKana":"ｲﾜﾌﾈｸﾞﾝｾｷｶﾜﾑﾗ","streetKana":"ﾀｷﾊﾗ","prefecture":"新潟県","city":"岩船郡関川村","street":"滝原"},{"zipCode":"9593271","prefectureKana":"ﾆｲｶﾞﾀｹﾝ","cityKana":"ｲﾜﾌﾈｸﾞﾝｾｷｶﾜﾑﾗ","streetKana":"ﾀﾂﾀｼﾝ","prefecture":"新潟県","city":"岩船郡関川村","street":"辰田新"},{"zipCode":"9593208","prefectureKana":"ﾆｲｶﾞﾀｹﾝ","cityKana":"ｲﾜﾌﾈｸﾞﾝｾｷｶﾜﾑﾗ","streetKana":"ﾀﾑｷﾞﾁｶﾞﾘ","prefecture":"新潟県","city":"岩船郡関川村","street":"田麦千刈"},{"zipCode":"9593206","prefectureKana":"ﾆｲｶﾞﾀｹﾝ","cityKana":"ｲﾜﾌﾈｸﾞﾝｾｷｶﾜﾑﾗ","streetKana":"ﾅｶﾏﾙｹ","prefecture":"新潟県","city":"岩船郡関川村","street":"中束"},{"zipCode":"9593225","prefectureKana":"ﾆｲｶﾞﾀｹﾝ","cityKana":"ｲﾜﾌﾈｸﾞﾝｾｷｶﾜﾑﾗ","streetKana":"ﾇﾏ","prefecture":"新潟県","city":"岩船郡関川村","street":"沼"},{"zipCode":"9593215","prefectureKana":"ﾆｲｶﾞﾀｹﾝ","cityKana":"ｲﾜﾌﾈｸﾞﾝｾｷｶﾜﾑﾗ","streetKana":"ﾌｶｻﾞﾜ","prefecture":"新潟県","city":"岩船郡関川村","street":"深沢"},{"zipCode":"9593253","prefectureKana":"ﾆｲｶﾞﾀｹﾝ","cityKana":"ｲﾜﾌﾈｸﾞﾝｾｷｶﾜﾑﾗ","streetKana":"ﾍｲﾅｲｼﾝ","prefecture":"新潟県","city":"岩船郡関川村","street":"平内新"},{"zipCode":"9593201","prefectureKana":"ﾆｲｶﾞﾀｹﾝ","cityKana":"ｲﾜﾌﾈｸﾞﾝｾｷｶﾜﾑﾗ","streetKana":"ﾎｳｻｶ","prefecture":"新潟県","city":"岩船郡関川村","street":"朴坂"},{"zipCode":"9593255","prefectureKana":"ﾆｲｶﾞﾀｹﾝ","cityKana":"ｲﾜﾌﾈｸﾞﾝｾｷｶﾜﾑﾗ","streetKana":"ﾏﾂｶﾞｵｶ","prefecture":"新潟県","city":"岩船郡関川村","street":"松ケ丘"},{"zipCode":"9593259","prefectureKana":"ﾆｲｶﾞﾀｹﾝ","cityKana":"ｲﾜﾌﾈｸﾞﾝｾｷｶﾜﾑﾗ","streetKana":"ﾏﾂﾀﾞｲﾗ","prefecture":"新潟県","city":"岩船郡関川村","street":"松平"},{"zipCode":"9593274","prefectureKana":"ﾆｲｶﾞﾀｹﾝ","cityKana":"ｲﾜﾌﾈｸﾞﾝｾｷｶﾜﾑﾗ","streetKana":"ﾐﾅﾐｱｶﾀﾞﾆ","prefecture":"新潟県","city":"岩船郡関川村","street":"南赤谷"},{"zipCode":"9593203","prefectureKana":"ﾆｲｶﾞﾀｹﾝ","cityKana":"ｲﾜﾌﾈｸﾞﾝｾｷｶﾜﾑﾗ","streetKana":"ﾐﾅﾐﾅｶ","prefecture":"新潟県","city":"岩船郡関川村","street":"南中"},{"zipCode":"9593202","prefectureKana":"ﾆｲｶﾞﾀｹﾝ","cityKana":"ｲﾜﾌﾈｸﾞﾝｾｷｶﾜﾑﾗ","streetKana":"ﾐﾔﾉﾏｴ","prefecture":"新潟県","city":"岩船郡関川村","street":"宮前"},{"zipCode":"9593227","prefectureKana":"ﾆｲｶﾞﾀｹﾝ","cityKana":"ｲﾜﾌﾈｸﾞﾝｾｷｶﾜﾑﾗ","streetKana":"ﾔﾂｸﾁ","prefecture":"新潟県","city":"岩船郡関川村","street":"八ツ口"},{"zipCode":"9593244","prefectureKana":"ﾆｲｶﾞﾀｹﾝ","cityKana":"ｲﾜﾌﾈｸﾞﾝｾｷｶﾜﾑﾗ","streetKana":"ﾔﾏﾓﾄ","prefecture":"新潟県","city":"岩船郡関川村","street":"山本"},{"zipCode":"9593261","prefectureKana":"ﾆｲｶﾞﾀｹﾝ","cityKana":"ｲﾜﾌﾈｸﾞﾝｾｷｶﾜﾑﾗ","streetKana":"ﾕｻﾜ","prefecture":"新潟県","city":"岩船郡関川村","street":"湯沢"},{"zipCode":"9593212","prefectureKana":"ﾆｲｶﾞﾀｹﾝ","cityKana":"ｲﾜﾌﾈｸﾞﾝｾｷｶﾜﾑﾗ","streetKana":"ﾜｶﾔﾏ","prefecture":"新潟県","city":"岩船郡関川村","street":"若山"},{"zipCode":"9593207","prefectureKana":"ﾆｲｶﾞﾀｹﾝ","cityKana":"ｲﾜﾌﾈｸﾞﾝｾｷｶﾜﾑﾗ","streetKana":"ﾜﾗﾋﾞﾉ","prefecture":"新潟県","city":"岩船郡関川村","street":"蕨野"}]