[{"zipCode":"9660000","prefectureKana":"ﾌｸｼﾏｹﾝ","cityKana":"ｷﾀｶﾀｼ","streetKana":"ｲｶﾆｹｲｻｲｶﾞﾅｲﾊﾞｱｲ","prefecture":"福島県","city":"喜多方市","street":"以下に掲載がない場合"},{"zipCode":"9660819","prefectureKana":"ﾌｸｼﾏｹﾝ","cityKana":"ｷﾀｶﾀｼ","streetKana":"1ﾁｮｳﾒ","prefecture":"福島県","city":"喜多方市","street":"１丁目"},{"zipCode":"9660818","prefectureKana":"ﾌｸｼﾏｹﾝ","cityKana":"ｷﾀｶﾀｼ","streetKana":"2ﾁｮｳﾒ","prefecture":"福島県","city":"喜多方市","street":"２丁目"},{"zipCode":"9660817","prefectureKana":"ﾌｸｼﾏｹﾝ","cityKana":"ｷﾀｶﾀｼ","streetKana":"3ﾁｮｳﾒ","prefecture":"福島県","city":"喜多方市","street":"３丁目"},{"zipCode":"9660091","prefectureKana":"ﾌｸｼﾏｹﾝ","cityKana":"ｷﾀｶﾀｼ","streetKana":"ｱｵﾊﾞﾀﾞｲ","prefecture":"福島県","city":"喜多方市","street":"青葉台"},{"zipCode":"9660108","prefectureKana":"ﾌｸｼﾏｹﾝ","cityKana":"ｷﾀｶﾀｼ","streetKana":"ｱﾂｼｵｶﾉｳﾏﾁｱｲﾀ","prefecture":"福島県","city":"喜多方市","street":"熱塩加納町相田"},{"zipCode":"9660101","prefectureKana":"ﾌｸｼﾏｹﾝ","cityKana":"ｷﾀｶﾀｼ","streetKana":"ｱﾂｼｵｶﾉｳﾏﾁｱﾂｼｵ","prefecture":"福島県","city":"喜多方市","street":"熱塩加納町熱塩"},{"zipCode":"9660107","prefectureKana":"ﾌｸｼﾏｹﾝ","cityKana":"ｷﾀｶﾀｼ","streetKana":"ｱﾂｼｵｶﾉｳﾏﾁｲﾏﾜﾘ","prefecture":"福島県","city":"喜多方市","street":"熱塩加納町居廻"},{"zipCode":"9660103","prefectureKana":"ﾌｸｼﾏｹﾝ","cityKana":"ｷﾀｶﾀｼ","streetKana":"ｱﾂｼｵｶﾉｳﾏﾁｶﾉｳ","prefecture":"福島県","city":"喜多方市","street":"熱塩加納町加納"},{"zipCode":"9660106","prefectureKana":"ﾌｸｼﾏｹﾝ","cityKana":"ｷﾀｶﾀｼ","streetKana":"ｱﾂｼｵｶﾉｳﾏﾁﾊﾔｼｷﾞﾜ","prefecture":"福島県","city":"喜多方市","street":"熱塩加納町林際"},{"zipCode":"9660105","prefectureKana":"ﾌｸｼﾏｹﾝ","cityKana":"ｷﾀｶﾀｼ","streetKana":"ｱﾂｼｵｶﾉｳﾏﾁﾐﾔｶﾜ","prefecture":"福島県","city":"喜多方市","street":"熱塩加納町宮川"},{"zipCode":"9660102","prefectureKana":"ﾌｸｼﾏｹﾝ","cityKana":"ｷﾀｶﾀｼ","streetKana":"ｱﾂｼｵｶﾉｳﾏﾁﾔﾏﾀﾞ","prefecture":"福島県","city":"喜多方市","street":"熱塩加納町山田"},{"zipCode":"9660104","prefectureKana":"ﾌｸｼﾏｹﾝ","cityKana":"ｷﾀｶﾀｼ","streetKana":"ｱﾂｼｵｶﾉｳﾏﾁﾖﾈｵｶ","prefecture":"福島県","city":"喜多方市","street":"熱塩加納町米岡"},{"zipCode":"9660887","prefectureKana":"ﾌｸｼﾏｹﾝ","cityKana":"ｷﾀｶﾀｼ","streetKana":"ｲｲﾀﾞﾐﾁｳｴ","prefecture":"福島県","city":"喜多方市","street":"飯田道上"},{"zipCode":"9660053","prefectureKana":"ﾌｸｼﾏｹﾝ","cityKana":"ｷﾀｶﾀｼ","streetKana":"ｲｼﾀﾞ","prefecture":"福島県","city":"喜多方市","street":"石田"},{"zipCode":"9660868","prefectureKana":"ﾌｸｼﾏｹﾝ","cityKana":"ｷﾀｶﾀｼ","streetKana":"ｲﾁﾐﾁ","prefecture":"福島県","city":"喜多方市","street":"市道"},{"zipCode":"9660849","prefectureKana":"ﾌｸｼﾏｹﾝ","cityKana":"ｷﾀｶﾀｼ","streetKana":"ｲｯﾎﾟﾝｷﾞｳｴ","prefecture":"福島県","city":"喜多方市","street":"一本木上"},{"zipCode":"9660848","prefectureKana":"ﾌｸｼﾏｹﾝ","cityKana":"ｷﾀｶﾀｼ","streetKana":"ｲｯﾎﾟﾝｷﾞｼﾀ","prefecture":"福島県","city":"喜多方市","street":"一本木下"},{"zipCode":"9660057","prefectureKana":"ﾌｸｼﾏｹﾝ","cityKana":"ｷﾀｶﾀｼ","streetKana":"ｲﾄﾞｼﾞﾘ","prefecture":"福島県","city":"喜多方市","street":"井戸尻"},{"zipCode":"9660069","prefectureKana":"ﾌｸｼﾏｹﾝ","cityKana":"ｷﾀｶﾀｼ","streetKana":"ｲﾅｼﾐｽﾞ","prefecture":"福島県","city":"喜多方市","street":"稲清水"},{"zipCode":"9660087","prefectureKana":"ﾌｸｼﾏｹﾝ","cityKana":"ｷﾀｶﾀｼ","streetKana":"ｲﾅﾘﾉﾐﾔ","prefecture":"福島県","city":"喜多方市","street":"稲荷宮"},{"zipCode":"9660001","prefectureKana":"ﾌｸｼﾏｹﾝ","cityKana":"ｷﾀｶﾀｼ","streetKana":"ｲﾜﾂｷﾏﾁｲﾘﾀﾂｷ","prefecture":"福島県","city":"喜多方市","street":"岩月町入田付"},{"zipCode":"9660005","prefectureKana":"ﾌｸｼﾏｹﾝ","cityKana":"ｷﾀｶﾀｼ","streetKana":"ｲﾜﾂｷﾏﾁｵｵﾂ","prefecture":"福島県","city":"喜多方市","street":"岩月町大都"},{"zipCode":"9660003","prefectureKana":"ﾌｸｼﾏｹﾝ","cityKana":"ｷﾀｶﾀｼ","streetKana":"ｲﾜﾂｷﾏﾁｶｼﾜﾉ","prefecture":"福島県","city":"喜多方市","street":"岩月町橿野"},{"zipCode":"9660004","prefectureKana":"ﾌｸｼﾏｹﾝ","cityKana":"ｷﾀｶﾀｼ","streetKana":"ｲﾜﾂｷﾏﾁｷﾀｶﾀ","prefecture":"福島県","city":"喜多方市","street":"岩月町喜多方"},{"zipCode":"9660002","prefectureKana":"ﾌｸｼﾏｹﾝ","cityKana":"ｷﾀｶﾀｼ","streetKana":"ｲﾜﾂｷﾏﾁﾐﾔﾂ","prefecture":"福島県","city":"喜多方市","street":"岩月町宮津"},{"zipCode":"9660821","prefectureKana":"ﾌｸｼﾏｹﾝ","cityKana":"ｷﾀｶﾀｼ","streetKana":"ｳﾒﾀｹ","prefecture":"福島県","city":"喜多方市","street":"梅竹"},{"zipCode":"9660838","prefectureKana":"ﾌｸｼﾏｹﾝ","cityKana":"ｷﾀｶﾀｼ","streetKana":"ｴｲｷｭｳ","prefecture":"福島県","city":"喜多方市","street":"永久"},{"zipCode":"9660085","prefectureKana":"ﾌｸｼﾏｹﾝ","cityKana":"ｷﾀｶﾀｼ","streetKana":"ｴﾅｶｺ","prefecture":"福島県","city":"喜多方市","street":"江中子"},{"zipCode":"9660867","prefectureKana":"ﾌｸｼﾏｹﾝ","cityKana":"ｷﾀｶﾀｼ","streetKana":"ｵｳｷﾞﾀﾞ","prefecture":"福島県","city":"喜多方市","street":"扇田"},{"zipCode":"9660904","prefectureKana":"ﾌｸｼﾏｹﾝ","cityKana":"ｷﾀｶﾀｼ","streetKana":"ｵｵｱﾗｲ","prefecture":"福島県","city":"喜多方市","street":"大荒井"},{"zipCode":"9660836","prefectureKana":"ﾌｸｼﾏｹﾝ","cityKana":"ｷﾀｶﾀｼ","streetKana":"ｵｵﾂﾎﾞ","prefecture":"福島県","city":"喜多方市","street":"大坪"},{"zipCode":"9660037","prefectureKana":"ﾌｸｼﾏｹﾝ","cityKana":"ｷﾀｶﾀｼ","streetKana":"ｵｵﾏﾒﾀﾞ","prefecture":"福島県","city":"喜多方市","street":"大豆田"},{"zipCode":"9660839","prefectureKana":"ﾌｸｼﾏｹﾝ","cityKana":"ｷﾀｶﾀｼ","streetKana":"ｵｵﾐﾁﾀ","prefecture":"福島県","city":"喜多方市","street":"大道田"},{"zipCode":"9660915","prefectureKana":"ﾌｸｼﾏｹﾝ","cityKana":"ｷﾀｶﾀｼ","streetKana":"ｵｵﾔﾁ","prefecture":"福島県","city":"喜多方市","street":"大谷地"},{"zipCode":"9660054","prefectureKana":"ﾌｸｼﾏｹﾝ","cityKana":"ｷﾀｶﾀｼ","streetKana":"ｵｵﾔﾁﾀ","prefecture":"福島県","city":"喜多方市","street":"大谷地田"},{"zipCode":"9660094","prefectureKana":"ﾌｸｼﾏｹﾝ","cityKana":"ｷﾀｶﾀｼ","streetKana":"ｵｼｷﾘ","prefecture":"福島県","city":"喜多方市","street":"押切"},{"zipCode":"9660095","prefectureKana":"ﾌｸｼﾏｹﾝ","cityKana":"ｷﾀｶﾀｼ","streetKana":"ｵｼｷﾘﾋｶﾞｼ","prefecture":"福島県","city":"喜多方市","street":"押切東"},{"zipCode":"9660096","prefectureKana":"ﾌｸｼﾏｹﾝ","cityKana":"ｷﾀｶﾀｼ","streetKana":"ｵｼｷﾘﾐﾅﾐ","prefecture":"福島県","city":"喜多方市","street":"押切南"},{"zipCode":"9660814","prefectureKana":"ﾌｸｼﾏｹﾝ","cityKana":"ｷﾀｶﾀｼ","streetKana":"ｵｼﾐｽﾞ","prefecture":"福島県","city":"喜多方市","street":"御清水"},{"zipCode":"9660814","prefectureKana":"ﾌｸｼﾏｹﾝ","cityKana":"ｷﾀｶﾀｼ","streetKana":"ｵｼﾐｽﾞﾋｶﾞｼ","prefecture":"福島県","city":"喜多方市","street":"御清水東"},{"zipCode":"9660825","prefectureKana":"ﾌｸｼﾏｹﾝ","cityKana":"ｷﾀｶﾀｼ","streetKana":"ｵｼﾐｽﾞﾐﾅﾐ","prefecture":"福島県","city":"喜多方市","street":"御清水南"},{"zipCode":"9660831","prefectureKana":"ﾌｸｼﾏｹﾝ","cityKana":"ｷﾀｶﾀｼ","streetKana":"ｵﾀﾞ","prefecture":"福島県","city":"喜多方市","street":"小田"},{"zipCode":"9660805","prefectureKana":"ﾌｸｼﾏｹﾝ","cityKana":"ｷﾀｶﾀｼ","streetKana":"ｵﾀﾂﾞｷﾐﾁｳｴ","prefecture":"福島県","city":"喜多方市","street":"小田付道上"},{"zipCode":"9660813","prefectureKana":"ﾌｸｼﾏｹﾝ","cityKana":"ｷﾀｶﾀｼ","streetKana":"ｵﾀﾂﾞｷﾐﾁｼﾀ","prefecture":"福島県","city":"喜多方市","street":"小田付道下"},{"zipCode":"9660803","prefectureKana":"ﾌｸｼﾏｹﾝ","cityKana":"ｷﾀｶﾀｼ","streetKana":"ｵﾁｱｲ","prefecture":"福島県","city":"喜多方市","street":"落合"},{"zipCode":"9660894","prefectureKana":"ﾌｸｼﾏｹﾝ","cityKana":"ｷﾀｶﾀｼ","streetKana":"ｵﾁﾔﾔ","prefecture":"福島県","city":"喜多方市","street":"御茶屋"},{"zipCode":"9660039","prefectureKana":"ﾌｸｼﾏｹﾝ","cityKana":"ｷﾀｶﾀｼ","streetKana":"ｶﾄ","prefecture":"福島県","city":"喜多方市","street":"加登"},{"zipCode":"9660891","prefectureKana":"ﾌｸｼﾏｹﾝ","cityKana":"ｷﾀｶﾀｼ","streetKana":"ｶﾞﾏﾌﾞﾁ","prefecture":"福島県","city":"喜多方市","street":"蝦蟆渕"},{"zipCode":"9660043","prefectureKana":"ﾌｸｼﾏｹﾝ","cityKana":"ｷﾀｶﾀｼ","streetKana":"ｶﾐｴ","prefecture":"福島県","city":"喜多方市","street":"上江"},{"zipCode":"9660811","prefectureKana":"ﾌｸｼﾏｹﾝ","cityKana":"ｷﾀｶﾀｼ","streetKana":"ｶﾐｶﾜﾑｶｲ","prefecture":"福島県","city":"喜多方市","street":"上川向"},{"zipCode":"9660931","prefectureKana":"ﾌｸｼﾏｹﾝ","cityKana":"ｷﾀｶﾀｼ","streetKana":"ｶﾐｻﾝﾐﾔﾏﾁｶﾐｻﾝﾐﾔ","prefecture":"福島県","city":"喜多方市","street":"上三宮町上三宮"},{"zipCode":"9660933","prefectureKana":"ﾌｸｼﾏｹﾝ","cityKana":"ｷﾀｶﾀｼ","streetKana":"ｶﾐｻﾝﾐﾔﾏﾁﾐﾀﾆ","prefecture":"福島県","city":"喜多方市","street":"上三宮町三谷"},{"zipCode":"9660932","prefectureKana":"ﾌｸｼﾏｹﾝ","cityKana":"ｷﾀｶﾀｼ","streetKana":"ｶﾐｻﾝﾐﾔﾏﾁﾖｼｶﾜ","prefecture":"福島県","city":"喜多方市","street":"上三宮町吉川"},{"zipCode":"9660842","prefectureKana":"ﾌｸｼﾏｹﾝ","cityKana":"ｷﾀｶﾀｼ","streetKana":"ｶﾜｼﾓ","prefecture":"福島県","city":"喜多方市","street":"川下"},{"zipCode":"9660851","prefectureKana":"ﾌｸｼﾏｹﾝ","cityKana":"ｷﾀｶﾀｼ","streetKana":"ｷﾀﾊﾗ","prefecture":"福島県","city":"喜多方市","street":"北原"},{"zipCode":"9660072","prefectureKana":"ﾌｸｼﾏｹﾝ","cityKana":"ｷﾀｶﾀｼ","streetKana":"ｷﾀﾏﾁ","prefecture":"福島県","city":"喜多方市","street":"北町"},{"zipCode":"9660006","prefectureKana":"ﾌｸｼﾏｹﾝ","cityKana":"ｷﾀｶﾀｼ","streetKana":"ｷﾀﾏﾁｶﾐ","prefecture":"福島県","city":"喜多方市","street":"北町上"},{"zipCode":"9660835","prefectureKana":"ﾌｸｼﾏｹﾝ","cityKana":"ｷﾀｶﾀｼ","streetKana":"ｷﾞｮｳｻｸ","prefecture":"福島県","city":"喜多方市","street":"行作"},{"zipCode":"9660892","prefectureKana":"ﾌｸｼﾏｹﾝ","cityKana":"ｷﾀｶﾀｼ","streetKana":"ｷｮｳﾀﾞﾝ","prefecture":"福島県","city":"喜多方市","street":"経壇"},{"zipCode":"9660874","prefectureKana":"ﾌｸｼﾏｹﾝ","cityKana":"ｷﾀｶﾀｼ","streetKana":"ｸﾎﾞﾔｼｷ","prefecture":"福島県","city":"喜多方市","street":"窪屋敷"},{"zipCode":"9660022","prefectureKana":"ﾌｸｼﾏｹﾝ","cityKana":"ｷﾀｶﾀｼ","streetKana":"ｸﾏｸﾞﾗﾏﾁｵｸﾞﾆ","prefecture":"福島県","city":"喜多方市","street":"熊倉町雄国"},{"zipCode":"9660024","prefectureKana":"ﾌｸｼﾏｹﾝ","cityKana":"ｷﾀｶﾀｼ","streetKana":"ｸﾏｸﾞﾗﾏﾁｸﾏｸﾞﾗ","prefecture":"福島県","city":"喜多方市","street":"熊倉町熊倉"},{"zipCode":"9660023","prefectureKana":"ﾌｸｼﾏｹﾝ","cityKana":"ｷﾀｶﾀｼ","streetKana":"ｸﾏｸﾞﾗﾏﾁｼﾝｺﾞｳ","prefecture":"福島県","city":"喜多方市","street":"熊倉町新合"},{"zipCode":"9660021","prefectureKana":"ﾌｸｼﾏｹﾝ","cityKana":"ｷﾀｶﾀｼ","streetKana":"ｸﾏｸﾞﾗﾏﾁﾐﾔｺ","prefecture":"福島県","city":"喜多方市","street":"熊倉町都"},{"zipCode":"9660923","prefectureKana":"ﾌｸｼﾏｹﾝ","cityKana":"ｷﾀｶﾀｼ","streetKana":"ｹｲﾄｸﾏﾁｼﾝｸﾞｳ","prefecture":"福島県","city":"喜多方市","street":"慶徳町新宮"},{"zipCode":"9660922","prefectureKana":"ﾌｸｼﾏｹﾝ","cityKana":"ｷﾀｶﾀｼ","streetKana":"ｹｲﾄｸﾏﾁﾄﾖｵｶ","prefecture":"福島県","city":"喜多方市","street":"慶徳町豊岡"},{"zipCode":"9660921","prefectureKana":"ﾌｸｼﾏｹﾝ","cityKana":"ｷﾀｶﾀｼ","streetKana":"ｹｲﾄｸﾏﾁﾏﾂﾏｲｹ","prefecture":"福島県","city":"喜多方市","street":"慶徳町松舞家"},{"zipCode":"9660924","prefectureKana":"ﾌｸｼﾏｹﾝ","cityKana":"ｷﾀｶﾀｼ","streetKana":"ｹｲﾄｸﾏﾁﾔﾏｼﾅ","prefecture":"福島県","city":"喜多方市","street":"慶徳町山科"},{"zipCode":"9660872","prefectureKana":"ﾌｸｼﾏｹﾝ","cityKana":"ｷﾀｶﾀｼ","streetKana":"ｹｲﾄｸﾐﾁｳｴ","prefecture":"福島県","city":"喜多方市","street":"慶徳道上"},{"zipCode":"9660869","prefectureKana":"ﾌｸｼﾏｹﾝ","cityKana":"ｷﾀｶﾀｼ","streetKana":"ｹｲﾄｸﾐﾁｼﾀ","prefecture":"福島県","city":"喜多方市","street":"慶徳道下"},{"zipCode":"9660048","prefectureKana":"ﾌｸｼﾏｹﾝ","cityKana":"ｷﾀｶﾀｼ","streetKana":"ｺｼﾏｷ","prefecture":"福島県","city":"喜多方市","street":"越巻"},{"zipCode":"9660063","prefectureKana":"ﾌｸｼﾏｹﾝ","cityKana":"ｷﾀｶﾀｼ","streetKana":"ｺﾞﾉｶﾐ","prefecture":"福島県","city":"喜多方市","street":"五ノ神"},{"zipCode":"9660877","prefectureKana":"ﾌｸｼﾏｹﾝ","cityKana":"ｷﾀｶﾀｼ","streetKana":"ｻｶｲﾐﾁｳｴ","prefecture":"福島県","city":"喜多方市","street":"坂井道上"},{"zipCode":"9660802","prefectureKana":"ﾌｸｼﾏｹﾝ","cityKana":"ｷﾀｶﾀｼ","streetKana":"ｻｸﾗｶﾞｵｶ","prefecture":"福島県","city":"喜多方市","street":"桜ガ丘"},{"zipCode":"9660038","prefectureKana":"ﾌｸｼﾏｹﾝ","cityKana":"ｷﾀｶﾀｼ","streetKana":"ｻｸﾗﾁｮｳ","prefecture":"福島県","city":"喜多方市","street":"桜町"},{"zipCode":"9660841","prefectureKana":"ﾌｸｼﾏｹﾝ","cityKana":"ｷﾀｶﾀｼ","streetKana":"ｻﾂｷｶﾞｵｶ","prefecture":"福島県","city":"喜多方市","street":"さつきが丘"},{"zipCode":"9660044","prefectureKana":"ﾌｸｼﾏｹﾝ","cityKana":"ｷﾀｶﾀｼ","streetKana":"ｻﾜﾉﾒ","prefecture":"福島県","city":"喜多方市","street":"沢ノ目"},{"zipCode":"9660827","prefectureKana":"ﾌｸｼﾏｹﾝ","cityKana":"ｷﾀｶﾀｼ","streetKana":"ｻﾜﾉﾒﾝ","prefecture":"福島県","city":"喜多方市","street":"沢ノ免"},{"zipCode":"9660093","prefectureKana":"ﾌｸｼﾏｹﾝ","cityKana":"ｷﾀｶﾀｼ","streetKana":"ｼﾐｽﾞｶﾞｵｶ","prefecture":"福島県","city":"喜多方市","street":"清水が丘"},{"zipCode":"9660092","prefectureKana":"ﾌｸｼﾏｹﾝ","cityKana":"ｷﾀｶﾀｼ","streetKana":"ｼﾐｽﾞﾀﾞｲ","prefecture":"福島県","city":"喜多方市","street":"清水台"},{"zipCode":"9660042","prefectureKana":"ﾌｸｼﾏｹﾝ","cityKana":"ｷﾀｶﾀｼ","streetKana":"ｼﾓｴ","prefecture":"福島県","city":"喜多方市","street":"下江"},{"zipCode":"9660850","prefectureKana":"ﾌｸｼﾏｹﾝ","cityKana":"ｷﾀｶﾀｼ","streetKana":"ｼﾓｶﾜﾗ","prefecture":"福島県","city":"喜多方市","street":"下川原"},{"zipCode":"9660896","prefectureKana":"ﾌｸｼﾏｹﾝ","cityKana":"ｷﾀｶﾀｼ","streetKana":"ｽﾜ","prefecture":"福島県","city":"喜多方市","street":"諏訪"},{"zipCode":"9660015","prefectureKana":"ﾌｸｼﾏｹﾝ","cityKana":"ｷﾀｶﾀｼ","streetKana":"ｾｷｼﾊﾞﾏﾁｶﾐﾀｶﾋﾀｲ","prefecture":"福島県","city":"喜多方市","street":"関柴町上高額"},{"zipCode":"9660014","prefectureKana":"ﾌｸｼﾏｹﾝ","cityKana":"ｷﾀｶﾀｼ","streetKana":"ｾｷｼﾊﾞﾏﾁｻｲｶﾁ","prefecture":"福島県","city":"喜多方市","street":"関柴町西勝"},{"zipCode":"9660012","prefectureKana":"ﾌｸｼﾏｹﾝ","cityKana":"ｷﾀｶﾀｼ","streetKana":"ｾｷｼﾊﾞﾏﾁｼﾓｼﾊﾞ","prefecture":"福島県","city":"喜多方市","street":"関柴町下柴"},{"zipCode":"9660011","prefectureKana":"ﾌｸｼﾏｹﾝ","cityKana":"ｷﾀｶﾀｼ","streetKana":"ｾｷｼﾊﾞﾏﾁｾｷｼﾊﾞ","prefecture":"福島県","city":"喜多方市","street":"関柴町関柴"},{"zipCode":"9660013","prefectureKana":"ﾌｸｼﾏｹﾝ","cityKana":"ｷﾀｶﾀｼ","streetKana":"ｾｷｼﾊﾞﾏﾁﾄﾖｱｼ","prefecture":"福島県","city":"喜多方市","street":"関柴町豊芦"},{"zipCode":"9660016","prefectureKana":"ﾌｸｼﾏｹﾝ","cityKana":"ｷﾀｶﾀｼ","streetKana":"ｾｷｼﾊﾞﾏﾁﾋﾗﾊﾞﾔｼ","prefecture":"福島県","city":"喜多方市","street":"関柴町平林"},{"zipCode":"9660017","prefectureKana":"ﾌｸｼﾏｹﾝ","cityKana":"ｷﾀｶﾀｼ","streetKana":"ｾｷｼﾊﾞﾏﾁﾐﾂｲ","prefecture":"福島県","city":"喜多方市","street":"関柴町三津井"},{"zipCode":"9660033","prefectureKana":"ﾌｸｼﾏｹﾝ","cityKana":"ｷﾀｶﾀｼ","streetKana":"ｾﾄ","prefecture":"福島県","city":"喜多方市","street":"瀬戸"},{"zipCode":"9660047","prefectureKana":"ﾌｸｼﾏｹﾝ","cityKana":"ｷﾀｶﾀｼ","streetKana":"ｾﾞﾆﾀ","prefecture":"福島県","city":"喜多方市","street":"銭田"},{"zipCode":"9660853","prefectureKana":"ﾌｸｼﾏｹﾝ","cityKana":"ｷﾀｶﾀｼ","streetKana":"ｾﾝｶﾞﾘ","prefecture":"福島県","city":"喜多方市","street":"千苅"},{"zipCode":"9660854","prefectureKana":"ﾌｸｼﾏｹﾝ","cityKana":"ｷﾀｶﾀｼ","streetKana":"ｾﾝｶﾞﾘﾐﾁｳｴ","prefecture":"福島県","city":"喜多方市","street":"千苅道上"},{"zipCode":"9660064","prefectureKana":"ﾌｸｼﾏｹﾝ","cityKana":"ｷﾀｶﾀｼ","streetKana":"ｿｳｻﾞﾉﾐﾔ","prefecture":"福島県","city":"喜多方市","street":"惣座宮"},{"zipCode":"9660055","prefectureKana":"ﾌｸｼﾏｹﾝ","cityKana":"ｷﾀｶﾀｼ","streetKana":"ﾀﾞｲ","prefecture":"福島県","city":"喜多方市","street":"台"},{"zipCode":"9660855","prefectureKana":"ﾌｸｼﾏｹﾝ","cityKana":"ｷﾀｶﾀｼ","streetKana":"ﾀｲｼﾄﾞｳ","prefecture":"福島県","city":"喜多方市","street":"太子堂"},{"zipCode":"9660873","prefectureKana":"ﾌｸｼﾏｹﾝ","cityKana":"ｷﾀｶﾀｼ","streetKana":"ﾀﾃﾉ","prefecture":"福島県","city":"喜多方市","street":"舘野"},{"zipCode":"9660884","prefectureKana":"ﾌｸｼﾏｹﾝ","cityKana":"ｷﾀｶﾀｼ","streetKana":"ﾀﾞﾝﾉﾏｴ","prefecture":"福島県","city":"喜多方市","street":"壇ノ前"},{"zipCode":"9660856","prefectureKana":"ﾌｸｼﾏｹﾝ","cityKana":"ｷﾀｶﾀｼ","streetKana":"ﾁｮｳｹﾞﾝﾀﾞﾝ","prefecture":"福島県","city":"喜多方市","street":"長源段"},{"zipCode":"9660097","prefectureKana":"ﾌｸｼﾏｹﾝ","cityKana":"ｷﾀｶﾀｼ","streetKana":"ﾂｳｾﾝﾊﾞ","prefecture":"福島県","city":"喜多方市","street":"通船場"},{"zipCode":"9660875","prefectureKana":"ﾌｸｼﾏｹﾝ","cityKana":"ｷﾀｶﾀｼ","streetKana":"ﾂﾙﾏｷ","prefecture":"福島県","city":"喜多方市","street":"鶴巻"},{"zipCode":"9660865","prefectureKana":"ﾌｸｼﾏｹﾝ","cityKana":"ｷﾀｶﾀｼ","streetKana":"ﾃﾗﾀﾞ","prefecture":"福島県","city":"喜多方市","street":"寺田"},{"zipCode":"9660068","prefectureKana":"ﾌｸｼﾏｹﾝ","cityKana":"ｷﾀｶﾀｼ","streetKana":"ﾃﾗﾆｼ","prefecture":"福島県","city":"喜多方市","street":"寺西"},{"zipCode":"9660861","prefectureKana":"ﾌｸｼﾏｹﾝ","cityKana":"ｷﾀｶﾀｼ","streetKana":"ﾃﾗﾏﾁ","prefecture":"福島県","city":"喜多方市","street":"寺町"},{"zipCode":"9660871","prefectureKana":"ﾌｸｼﾏｹﾝ","cityKana":"ｷﾀｶﾀｼ","streetKana":"ﾃﾗﾏﾁﾐﾅﾐ","prefecture":"福島県","city":"喜多方市","street":"寺町南"},{"zipCode":"9660062","prefectureKana":"ﾌｸｼﾏｹﾝ","cityKana":"ｷﾀｶﾀｼ","streetKana":"ﾃﾗﾐﾅﾐ","prefecture":"福島県","city":"喜多方市","street":"寺南"},{"zipCode":"9660852","prefectureKana":"ﾌｸｼﾏｹﾝ","cityKana":"ｷﾀｶﾀｼ","streetKana":"ﾃﾝﾏﾝﾏｴ","prefecture":"福島県","city":"喜多方市","street":"天満前"},{"zipCode":"9660899","prefectureKana":"ﾌｸｼﾏｹﾝ","cityKana":"ｷﾀｶﾀｼ","streetKana":"ﾄｲｺﾞｼ","prefecture":"福島県","city":"喜多方市","street":"樋越"},{"zipCode":"9660801","prefectureKana":"ﾌｸｼﾏｹﾝ","cityKana":"ｷﾀｶﾀｼ","streetKana":"ﾄｷﾜﾀﾞｲ","prefecture":"福島県","city":"喜多方市","street":"常盤台"},{"zipCode":"9660862","prefectureKana":"ﾌｸｼﾏｹﾝ","cityKana":"ｷﾀｶﾀｼ","streetKana":"ﾄｷﾜﾁｮｳ","prefecture":"福島県","city":"喜多方市","street":"常盤町"},{"zipCode":"9660912","prefectureKana":"ﾌｸｼﾏｹﾝ","cityKana":"ｷﾀｶﾀｼ","streetKana":"ﾄﾖｶﾜﾏﾁｲﾁｲ","prefecture":"福島県","city":"喜多方市","street":"豊川町一井"},{"zipCode":"9660913","prefectureKana":"ﾌｸｼﾏｹﾝ","cityKana":"ｷﾀｶﾀｼ","streetKana":"ﾄﾖｶﾜﾏﾁｻﾜﾍﾞ","prefecture":"福島県","city":"喜多方市","street":"豊川町沢部"},{"zipCode":"9660911","prefectureKana":"ﾌｸｼﾏｹﾝ","cityKana":"ｷﾀｶﾀｼ","streetKana":"ﾄﾖｶﾜﾏﾁﾀｶﾄﾞｳﾀ","prefecture":"福島県","city":"喜多方市","street":"豊川町高堂太"},{"zipCode":"9660914","prefectureKana":"ﾌｸｼﾏｹﾝ","cityKana":"ｷﾀｶﾀｼ","streetKana":"ﾄﾖｶﾜﾏﾁﾖﾈﾑﾛ","prefecture":"福島県","city":"喜多方市","street":"豊川町米室"},{"zipCode":"9660845","prefectureKana":"ﾌｸｼﾏｹﾝ","cityKana":"ｷﾀｶﾀｼ","streetKana":"ﾅｶﾞｳﾁ","prefecture":"福島県","city":"喜多方市","street":"長内"},{"zipCode":"9660049","prefectureKana":"ﾌｸｼﾏｹﾝ","cityKana":"ｷﾀｶﾀｼ","streetKana":"ﾅｶﾞｵﾓﾃ","prefecture":"福島県","city":"喜多方市","street":"長面"},{"zipCode":"9660065","prefectureKana":"ﾌｸｼﾏｹﾝ","cityKana":"ｷﾀｶﾀｼ","streetKana":"ﾅｶｶﾞﾜﾗ","prefecture":"福島県","city":"喜多方市","street":"中川原"},{"zipCode":"9660833","prefectureKana":"ﾌｸｼﾏｹﾝ","cityKana":"ｷﾀｶﾀｼ","streetKana":"ﾅｶｼﾞﾏ","prefecture":"福島県","city":"喜多方市","street":"中島"},{"zipCode":"9660881","prefectureKana":"ﾌｸｼﾏｹﾝ","cityKana":"ｷﾀｶﾀｼ","streetKana":"ﾅｶｼﾐｽﾞ","prefecture":"福島県","city":"喜多方市","street":"中清水"},{"zipCode":"9660035","prefectureKana":"ﾌｸｼﾏｹﾝ","cityKana":"ｷﾀｶﾀｼ","streetKana":"ﾅｶﾀﾞｲ","prefecture":"福島県","city":"喜多方市","street":"中台"},{"zipCode":"9660882","prefectureKana":"ﾌｸｼﾏｹﾝ","cityKana":"ｷﾀｶﾀｼ","streetKana":"ﾅｶﾃﾞﾗ","prefecture":"福島県","city":"喜多方市","street":"中寺"},{"zipCode":"9660073","prefectureKana":"ﾌｸｼﾏｹﾝ","cityKana":"ｷﾀｶﾀｼ","streetKana":"ﾅｶﾏﾁ","prefecture":"福島県","city":"喜多方市","street":"中町"},{"zipCode":"9660032","prefectureKana":"ﾌｸｼﾏｹﾝ","cityKana":"ｷﾀｶﾀｼ","streetKana":"ﾅｼﾉｷ","prefecture":"福島県","city":"喜多方市","street":"梨子ノ木"},{"zipCode":"9660864","prefectureKana":"ﾌｸｼﾏｹﾝ","cityKana":"ｷﾀｶﾀｼ","streetKana":"ﾅﾅﾋｬｸｶﾞﾘ","prefecture":"福島県","city":"喜多方市","street":"七百苅"},{"zipCode":"9660082","prefectureKana":"ﾌｸｼﾏｹﾝ","cityKana":"ｷﾀｶﾀｼ","streetKana":"ﾅﾝｼﾞｮｳ","prefecture":"福島県","city":"喜多方市","street":"南條"},{"zipCode":"9660084","prefectureKana":"ﾌｸｼﾏｹﾝ","cityKana":"ｷﾀｶﾀｼ","streetKana":"ﾆｼｲﾄﾞｼﾞﾘ","prefecture":"福島県","city":"喜多方市","street":"西井戸尻"},{"zipCode":"9660844","prefectureKana":"ﾌｸｼﾏｹﾝ","cityKana":"ｷﾀｶﾀｼ","streetKana":"ﾆｼｶｺﾞﾀ","prefecture":"福島県","city":"喜多方市","street":"西籠田"},{"zipCode":"9660081","prefectureKana":"ﾌｸｼﾏｹﾝ","cityKana":"ｷﾀｶﾀｼ","streetKana":"ﾆｼﾏﾁ","prefecture":"福島県","city":"喜多方市","street":"西町"},{"zipCode":"9660086","prefectureKana":"ﾌｸｼﾏｹﾝ","cityKana":"ｷﾀｶﾀｼ","streetKana":"ﾆｼﾖﾂﾔ","prefecture":"福島県","city":"喜多方市","street":"西四ツ谷"},{"zipCode":"9660034","prefectureKana":"ﾌｸｼﾏｹﾝ","cityKana":"ｷﾀｶﾀｼ","streetKana":"ﾆﾎﾝｷﾞ","prefecture":"福島県","city":"喜多方市","street":"二本木"},{"zipCode":"9660804","prefectureKana":"ﾌｸｼﾏｹﾝ","cityKana":"ｷﾀｶﾀｼ","streetKana":"ﾇﾏﾀ","prefecture":"福島県","city":"喜多方市","street":"沼田"},{"zipCode":"9660035","prefectureKana":"ﾌｸｼﾏｹﾝ","cityKana":"ｷﾀｶﾀｼ","streetKana":"ﾊﾀｹﾀﾞｲ","prefecture":"福島県","city":"喜多方市","street":"畑台"},{"zipCode":"9660893","prefectureKana":"ﾌｸｼﾏｹﾝ","cityKana":"ｷﾀｶﾀｼ","streetKana":"ﾊﾅｿﾞﾉ","prefecture":"福島県","city":"喜多方市","street":"花園"},{"zipCode":"9660061","prefectureKana":"ﾌｸｼﾏｹﾝ","cityKana":"ｷﾀｶﾀｼ","streetKana":"ﾊﾞﾊﾞ","prefecture":"福島県","city":"喜多方市","street":"馬場"},{"zipCode":"9660046","prefectureKana":"ﾌｸｼﾏｹﾝ","cityKana":"ｷﾀｶﾀｼ","streetKana":"ﾊﾗﾀﾞ","prefecture":"福島県","city":"喜多方市","street":"原田"},{"zipCode":"9660859","prefectureKana":"ﾌｸｼﾏｹﾝ","cityKana":"ｷﾀｶﾀｼ","streetKana":"ﾊﾞﾝﾁｮｳﾒﾝ","prefecture":"福島県","city":"喜多方市","street":"番帳免"},{"zipCode":"9660895","prefectureKana":"ﾌｸｼﾏｹﾝ","cityKana":"ｷﾀｶﾀｼ","streetKana":"ﾋｶﾞｼｵﾊﾞﾗ","prefecture":"福島県","city":"喜多方市","street":"東小原"},{"zipCode":"9660843","prefectureKana":"ﾌｸｼﾏｹﾝ","cityKana":"ｷﾀｶﾀｼ","streetKana":"ﾋｶﾞｼｶｺﾞﾀ","prefecture":"福島県","city":"喜多方市","street":"東籠田"},{"zipCode":"9660823","prefectureKana":"ﾌｸｼﾏｹﾝ","cityKana":"ｷﾀｶﾀｼ","streetKana":"ﾋｶﾞｼｶﾜﾗﾀﾞ","prefecture":"福島県","city":"喜多方市","street":"東川原田"},{"zipCode":"9660007","prefectureKana":"ﾌｸｼﾏｹﾝ","cityKana":"ｷﾀｶﾀｼ","streetKana":"ﾋｶﾞｼｻｸﾗｶﾞｵｶ","prefecture":"福島県","city":"喜多方市","street":"東桜ガ丘"},{"zipCode":"9660051","prefectureKana":"ﾌｸｼﾏｹﾝ","cityKana":"ｷﾀｶﾀｼ","streetKana":"ﾋｶﾞｼﾏﾁ","prefecture":"福島県","city":"喜多方市","street":"東町"},{"zipCode":"9660832","prefectureKana":"ﾌｸｼﾏｹﾝ","cityKana":"ｷﾀｶﾀｼ","streetKana":"ﾋｬｸｶﾞﾘﾀﾞ","prefecture":"福島県","city":"喜多方市","street":"百苅田"},{"zipCode":"9660058","prefectureKana":"ﾌｸｼﾏｹﾝ","cityKana":"ｷﾀｶﾀｼ","streetKana":"ﾋﾛｵﾓﾃ","prefecture":"福島県","city":"喜多方市","street":"広面"},{"zipCode":"9660031","prefectureKana":"ﾌｸｼﾏｹﾝ","cityKana":"ｷﾀｶﾀｼ","streetKana":"ﾌﾞﾀｲﾀﾞ","prefecture":"福島県","city":"喜多方市","street":"舞台田"},{"zipCode":"9660866","prefectureKana":"ﾌｸｼﾏｹﾝ","cityKana":"ｷﾀｶﾀｼ","streetKana":"ﾌﾙﾃﾞﾗ","prefecture":"福島県","city":"喜多方市","street":"古寺"},{"zipCode":"9660816","prefectureKana":"ﾌｸｼﾏｹﾝ","cityKana":"ｷﾀｶﾀｼ","streetKana":"ﾎｿﾀﾞ","prefecture":"福島県","city":"喜多方市","street":"細田"},{"zipCode":"9660862","prefectureKana":"ﾌｸｼﾏｹﾝ","cityKana":"ｷﾀｶﾀｼ","streetKana":"ﾏｴﾀﾞ","prefecture":"福島県","city":"喜多方市","street":"前田"},{"zipCode":"9660837","prefectureKana":"ﾌｸｼﾏｹﾝ","cityKana":"ｷﾀｶﾀｼ","streetKana":"ﾏｴﾀﾞｶﾐ","prefecture":"福島県","city":"喜多方市","street":"前田上"},{"zipCode":"9660041","prefectureKana":"ﾌｸｼﾏｹﾝ","cityKana":"ｷﾀｶﾀｼ","streetKana":"ﾏｷﾀﾞ","prefecture":"福島県","city":"喜多方市","street":"蒔田"},{"zipCode":"9660858","prefectureKana":"ﾌｸｼﾏｹﾝ","cityKana":"ｷﾀｶﾀｼ","streetKana":"ﾏﾁｷﾀ","prefecture":"福島県","city":"喜多方市","street":"町北"},{"zipCode":"9660863","prefectureKana":"ﾌｸｼﾏｹﾝ","cityKana":"ｷﾀｶﾀｼ","streetKana":"ﾏﾁｼﾞﾘﾆｼ","prefecture":"福島県","city":"喜多方市","street":"町尻西"},{"zipCode":"9660826","prefectureKana":"ﾌｸｼﾏｹﾝ","cityKana":"ｷﾀｶﾀｼ","streetKana":"ﾏﾁｼﾞﾘﾋｶﾞｼ","prefecture":"福島県","city":"喜多方市","street":"町尻東"},{"zipCode":"9660847","prefectureKana":"ﾌｸｼﾏｹﾝ","cityKana":"ｷﾀｶﾀｼ","streetKana":"ﾏﾁﾀﾞ","prefecture":"福島県","city":"喜多方市","street":"町田"},{"zipCode":"9660846","prefectureKana":"ﾌｸｼﾏｹﾝ","cityKana":"ｷﾀｶﾀｼ","streetKana":"ﾏﾁﾀﾞｼﾀ","prefecture":"福島県","city":"喜多方市","street":"町田下"},{"zipCode":"9660857","prefectureKana":"ﾌｸｼﾏｹﾝ","cityKana":"ｷﾀｶﾀｼ","streetKana":"ﾏﾁﾆｼ","prefecture":"福島県","city":"喜多方市","street":"町西"},{"zipCode":"9660903","prefectureKana":"ﾌｸｼﾏｹﾝ","cityKana":"ｷﾀｶﾀｼ","streetKana":"ﾏﾂﾔﾏﾏﾁｵｵｲｲｻﾞｶ","prefecture":"福島県","city":"喜多方市","street":"松山町大飯坂"},{"zipCode":"9660901","prefectureKana":"ﾌｸｼﾏｹﾝ","cityKana":"ｷﾀｶﾀｼ","streetKana":"ﾏﾂﾔﾏﾏﾁﾄﾘﾐﾔﾏ","prefecture":"福島県","city":"喜多方市","street":"松山町鳥見山"},{"zipCode":"9660902","prefectureKana":"ﾌｸｼﾏｹﾝ","cityKana":"ｷﾀｶﾀｼ","streetKana":"ﾏﾂﾔﾏﾏﾁﾑﾗﾏﾂ","prefecture":"福島県","city":"喜多方市","street":"松山町村松"},{"zipCode":"9660898","prefectureKana":"ﾌｸｼﾏｹﾝ","cityKana":"ｷﾀｶﾀｼ","streetKana":"ﾐｺﾞﾛﾐﾁｳｴ","prefecture":"福島県","city":"喜多方市","street":"見頃道上"},{"zipCode":"9660806","prefectureKana":"ﾌｸｼﾏｹﾝ","cityKana":"ｷﾀｶﾀｼ","streetKana":"ﾐｽﾞｶﾐ","prefecture":"福島県","city":"喜多方市","street":"水上"},{"zipCode":"9660812","prefectureKana":"ﾌｸｼﾏｹﾝ","cityKana":"ｷﾀｶﾀｼ","streetKana":"ﾐﾄﾞﾘﾁｮｳ","prefecture":"福島県","city":"喜多方市","street":"緑町"},{"zipCode":"9660045","prefectureKana":"ﾌｸｼﾏｹﾝ","cityKana":"ｷﾀｶﾀｼ","streetKana":"ﾐﾅﾐﾊﾗ","prefecture":"福島県","city":"喜多方市","street":"南原"},{"zipCode":"9660074","prefectureKana":"ﾌｸｼﾏｹﾝ","cityKana":"ｷﾀｶﾀｼ","streetKana":"ﾐﾅﾐﾏﾁ","prefecture":"福島県","city":"喜多方市","street":"南町"},{"zipCode":"9660066","prefectureKana":"ﾌｸｼﾏｹﾝ","cityKana":"ｷﾀｶﾀｼ","streetKana":"ﾐﾔﾆｼ","prefecture":"福島県","city":"喜多方市","street":"宮西"},{"zipCode":"9660067","prefectureKana":"ﾌｸｼﾏｹﾝ","cityKana":"ｷﾀｶﾀｼ","streetKana":"ﾑﾗﾆｼ","prefecture":"福島県","city":"喜多方市","street":"村西"},{"zipCode":"9660056","prefectureKana":"ﾌｸｼﾏｹﾝ","cityKana":"ｷﾀｶﾀｼ","streetKana":"ﾔｼｷﾒﾝ","prefecture":"福島県","city":"喜多方市","street":"屋敷免"},{"zipCode":"9660815","prefectureKana":"ﾌｸｼﾏｹﾝ","cityKana":"ｷﾀｶﾀｼ","streetKana":"ﾔﾁﾀ","prefecture":"福島県","city":"喜多方市","street":"谷地田"},{"zipCode":"9660834","prefectureKana":"ﾌｸｼﾏｹﾝ","cityKana":"ｷﾀｶﾀｼ","streetKana":"ﾔﾁﾀﾞｶﾐ","prefecture":"福島県","city":"喜多方市","street":"谷地田上"},{"zipCode":"9660036","prefectureKana":"ﾌｸｼﾏｹﾝ","cityKana":"ｷﾀｶﾀｼ","streetKana":"ﾔﾅｷﾞｼﾐｽﾞ","prefecture":"福島県","city":"喜多方市","street":"柳清水"},{"zipCode":"9660822","prefectureKana":"ﾌｸｼﾏｹﾝ","cityKana":"ｷﾀｶﾀｼ","streetKana":"ﾔﾅｷﾞﾊﾗ","prefecture":"福島県","city":"喜多方市","street":"柳原"},{"zipCode":"9660071","prefectureKana":"ﾌｸｼﾏｹﾝ","cityKana":"ｷﾀｶﾀｼ","streetKana":"ﾔﾏﾉｶﾐ","prefecture":"福島県","city":"喜多方市","street":"山ノ神"},{"zipCode":"9660052","prefectureKana":"ﾌｸｼﾏｹﾝ","cityKana":"ｷﾀｶﾀｼ","streetKana":"ﾖﾝﾋｬｸｶﾞﾘ","prefecture":"福島県","city":"喜多方市","street":"四百苅"},{"zipCode":"9660083","prefectureKana":"ﾌｸｼﾏｹﾝ","cityKana":"ｷﾀｶﾀｼ","streetKana":"ﾛｸﾏｲｵｻ","prefecture":"福島県","city":"喜多方市","street":"六枚長"},{"zipCode":"9660824","prefectureKana":"ﾌｸｼﾏｹﾝ","cityKana":"ｷﾀｶﾀｼ","streetKana":"ﾛｯﾋﾟｬｸｶﾞﾘ","prefecture":"福島県","city":"喜多方市","street":"六百刈"},{"zipCode":"9660400","prefectureKana":"ﾌｸｼﾏｹﾝ","cityKana":"ﾔﾏｸﾞﾝｷﾀｼｵﾊﾞﾗﾑﾗ","streetKana":"ｲｶﾆｹｲｻｲｶﾞﾅｲﾊﾞｱｲ","prefecture":"福島県","city":"耶麻郡北塩原村","street":"以下に掲載がない場合"},{"zipCode":"9660402","prefectureKana":"ﾌｸｼﾏｹﾝ","cityKana":"ﾔﾏｸﾞﾝｷﾀｼｵﾊﾞﾗﾑﾗ","streetKana":"ｵｵｼｵ","prefecture":"福島県","city":"耶麻郡北塩原村","street":"大塩"},{"zipCode":"9660404","prefectureKana":"ﾌｸｼﾏｹﾝ","cityKana":"ﾔﾏｸﾞﾝｷﾀｼｵﾊﾞﾗﾑﾗ","streetKana":"ｷﾀﾔﾏ","prefecture":"福島県","city":"耶麻郡北塩原村","street":"北山"},{"zipCode":"9660405","prefectureKana":"ﾌｸｼﾏｹﾝ","cityKana":"ﾔﾏｸﾞﾝｷﾀｼｵﾊﾞﾗﾑﾗ","streetKana":"ｼﾓﾖｼ","prefecture":"福島県","city":"耶麻郡北塩原村","street":"下吉"},{"zipCode":"9660403","prefectureKana":"ﾌｸｼﾏｹﾝ","cityKana":"ﾔﾏｸﾞﾝｷﾀｼｵﾊﾞﾗﾑﾗ","streetKana":"ｾｷﾔ","prefecture":"福島県","city":"耶麻郡北塩原村","street":"関屋"},{"zipCode":"9660501","prefectureKana":"ﾌｸｼﾏｹﾝ","cityKana":"ﾔﾏｸﾞﾝｷﾀｼｵﾊﾞﾗﾑﾗ","streetKana":"ﾋﾊﾞﾗ(ｳﾊﾞﾀｻﾜ､ｶﾅﾔﾏ､ｺﾞｼﾞｭｳﾘｮｳﾊﾗ､ｽﾉﾔﾏ､ﾀｷﾉﾊﾗ､ﾄﾞｳｾﾞﾝﾊﾗ､ﾊｶｼﾀ､ﾋﾊﾞﾗ､ﾑｴﾝ","prefecture":"福島県","city":"耶麻郡北塩原村","street":"桧原（苧畑沢、金山、五十両原、巣ノ山、滝ノ原、道前原、墓下、桧原、無縁"},{"zipCode":"9660501","prefectureKana":"ﾌｸｼﾏｹﾝ","cityKana":"ﾔﾏｸﾞﾝｷﾀｼｵﾊﾞﾗﾑﾗ","streetKana":"ﾊﾗ､ﾜｾｻﾞﾜ､ｺﾔｻﾜ､ﾐｽﾞﾅｼﾊﾗ､ﾅｶﾊﾗ､ﾅﾗﾉｷﾀﾞｲﾗﾊﾗ､ﾔｹｶﾞﾂﾗﾔﾏ､ﾀﾃﾔﾏ)","prefecture":"福島県","city":"耶麻郡北塩原村","street":"原、早稲沢、小屋沢、水梨原、中原、楢木平原、焼桂山、館山）"},{"zipCode":"9660401","prefectureKana":"ﾌｸｼﾏｹﾝ","cityKana":"ﾔﾏｸﾞﾝｷﾀｼｵﾊﾞﾗﾑﾗ","streetKana":"ﾋﾊﾞﾗ(ｵｼｻﾞﾜ､ｵｼｻﾞﾜﾊﾗ､ﾎｿﾉ､ﾐﾅﾐｵｳﾚﾝｻﾜ､ﾐﾅﾐｵｳﾚﾝｻﾜﾔﾏ､ｵｳﾚﾝｻﾜﾔﾏ､ｵｳﾚﾝﾊﾗﾔﾏ)","prefecture":"福島県","city":"耶麻郡北塩原村","street":"桧原（雄子沢、雄子沢原、細野、南黄連沢、南黄連沢山、黄連沢山、黄連原山）"}]