[{"zipCode":"9700000","prefectureKana":"ﾌｸｼﾏｹﾝ","cityKana":"ｲﾜｷｼ","streetKana":"ｲｶﾆｹｲｻｲｶﾞﾅｲﾊﾞｱｲ","prefecture":"福島県","city":"いわき市","street":"以下に掲載がない場合"},{"zipCode":"9708017","prefectureKana":"ﾌｸｼﾏｹﾝ","cityKana":"ｲﾜｷｼ","streetKana":"ｲｼﾓﾘ","prefecture":"福島県","city":"いわき市","street":"石森"},{"zipCode":"9700229","prefectureKana":"ﾌｸｼﾏｹﾝ","cityKana":"ｲﾜｷｼ","streetKana":"ｳｽｲｿ","prefecture":"福島県","city":"いわき市","street":"薄磯"},{"zipCode":"9700311","prefectureKana":"ﾌｸｼﾏｹﾝ","cityKana":"ｲﾜｷｼ","streetKana":"ｴﾅ","prefecture":"福島県","city":"いわき市","street":"江名"},{"zipCode":"9700317","prefectureKana":"ﾌｸｼﾏｹﾝ","cityKana":"ｲﾜｷｼ","streetKana":"ｵﾅﾊﾏｶﾐｶｼﾞﾛ","prefecture":"福島県","city":"いわき市","street":"小名浜上神白"},{"zipCode":"9700316","prefectureKana":"ﾌｸｼﾏｹﾝ","cityKana":"ｲﾜｷｼ","streetKana":"ｵﾅﾊﾏｼﾓｶｼﾞﾛ","prefecture":"福島県","city":"いわき市","street":"小名浜下神白"},{"zipCode":"9700312","prefectureKana":"ﾌｸｼﾏｹﾝ","cityKana":"ｲﾜｷｼ","streetKana":"ｵﾘﾄ","prefecture":"福島県","city":"いわき市","street":"折戸"},{"zipCode":"9708045","prefectureKana":"ﾌｸｼﾏｹﾝ","cityKana":"ｲﾜｷｼ","streetKana":"ｻﾄｶﾞｵｶ","prefecture":"福島県","city":"いわき市","street":"郷ケ丘"},{"zipCode":"9708033","prefectureKana":"ﾌｸｼﾏｹﾝ","cityKana":"ｲﾜｷｼ","streetKana":"ｼﾞｭｳｶﾞｵｶ","prefecture":"福島県","city":"いわき市","street":"自由ケ丘"},{"zipCode":"9708026","prefectureKana":"ﾌｸｼﾏｹﾝ","cityKana":"ｲﾜｷｼ","streetKana":"ﾀｲﾗ","prefecture":"福島県","city":"いわき市","street":"平"},{"zipCode":"9700107","prefectureKana":"ﾌｸｼﾏｹﾝ","cityKana":"ｲﾜｷｼ","streetKana":"ﾀｲﾗｱｯﾀﾒ","prefecture":"福島県","city":"いわき市","street":"平荒田目"},{"zipCode":"9700112","prefectureKana":"ﾌｸｼﾏｹﾝ","cityKana":"ｲﾜｷｼ","streetKana":"ﾀｲﾗｲｽﾞﾐｻﾞｷ","prefecture":"福島県","city":"いわき市","street":"平泉崎"},{"zipCode":"9700223","prefectureKana":"ﾌｸｼﾏｹﾝ","cityKana":"ｲﾜｷｼ","streetKana":"ﾀｲﾗｳｽｲｿ","prefecture":"福島県","city":"いわき市","street":"平薄磯"},{"zipCode":"9708013","prefectureKana":"ﾌｸｼﾏｹﾝ","cityKana":"ｲﾜｷｼ","streetKana":"ﾀｲﾗｵｵﾑﾛ","prefecture":"福島県","city":"いわき市","street":"平大室"},{"zipCode":"9708023","prefectureKana":"ﾌｸｼﾏｹﾝ","cityKana":"ｲﾜｷｼ","streetKana":"ﾀｲﾗｶﾏﾀ","prefecture":"福島県","city":"いわき市","street":"平鎌田"},{"zipCode":"9708054","prefectureKana":"ﾌｸｼﾏｹﾝ","cityKana":"ｲﾜｷｼ","streetKana":"ﾀｲﾗｶﾏﾀﾏﾁ","prefecture":"福島県","city":"いわき市","street":"平鎌田町"},{"zipCode":"9708034","prefectureKana":"ﾌｸｼﾏｹﾝ","cityKana":"ｲﾜｷｼ","streetKana":"ﾀｲﾗｶﾐｱﾗｶﾜ","prefecture":"福島県","city":"いわき市","street":"平上荒川"},{"zipCode":"9708032","prefectureKana":"ﾌｸｼﾏｹﾝ","cityKana":"ｲﾜｷｼ","streetKana":"ﾀｲﾗｼﾓｱﾗｶﾜ","prefecture":"福島県","city":"いわき市","street":"平下荒川"},{"zipCode":"9700104","prefectureKana":"ﾌｸｼﾏｹﾝ","cityKana":"ｲﾜｷｼ","streetKana":"ﾀｲﾗｶﾐｵｵｺﾞｴ","prefecture":"福島県","city":"いわき市","street":"平上大越"},{"zipCode":"9700102","prefectureKana":"ﾌｸｼﾏｹﾝ","cityKana":"ｲﾜｷｼ","streetKana":"ﾀｲﾗｼﾓｵｵｺﾞｴ","prefecture":"福島県","city":"いわき市","street":"平下大越"},{"zipCode":"9708011","prefectureKana":"ﾌｸｼﾏｹﾝ","cityKana":"ｲﾜｷｼ","streetKana":"ﾀｲﾗｶﾐｶﾀﾖｾ","prefecture":"福島県","city":"いわき市","street":"平上片寄"},{"zipCode":"9708012","prefectureKana":"ﾌｸｼﾏｹﾝ","cityKana":"ｲﾜｷｼ","streetKana":"ﾀｲﾗｼﾓｶﾀﾖｾ","prefecture":"福島県","city":"いわき市","street":"平下片寄"},{"zipCode":"9708028","prefectureKana":"ﾌｸｼﾏｹﾝ","cityKana":"ｲﾜｷｼ","streetKana":"ﾀｲﾗｶﾐｶﾍﾞﾔ","prefecture":"福島県","city":"いわき市","street":"平上神谷"},{"zipCode":"9700101","prefectureKana":"ﾌｸｼﾏｹﾝ","cityKana":"ｲﾜｷｼ","streetKana":"ﾀｲﾗｼﾓｶﾍﾞﾔ","prefecture":"福島県","city":"いわき市","street":"平下神谷"},{"zipCode":"9708042","prefectureKana":"ﾌｸｼﾏｹﾝ","cityKana":"ｲﾜｷｼ","streetKana":"ﾀｲﾗｶﾐﾀｶｸ","prefecture":"福島県","city":"いわき市","street":"平上高久"},{"zipCode":"9700221","prefectureKana":"ﾌｸｼﾏｹﾝ","cityKana":"ｲﾜｷｼ","streetKana":"ﾀｲﾗｼﾓﾀｶｸ","prefecture":"福島県","city":"いわき市","street":"平下高久"},{"zipCode":"9708001","prefectureKana":"ﾌｸｼﾏｹﾝ","cityKana":"ｲﾜｷｼ","streetKana":"ﾀｲﾗｶﾐﾋﾗｸﾎﾞ","prefecture":"福島県","city":"いわき市","street":"平上平窪"},{"zipCode":"9708003","prefectureKana":"ﾌｸｼﾏｹﾝ","cityKana":"ｲﾜｷｼ","streetKana":"ﾀｲﾗｼﾓﾋﾗｸﾎﾞ","prefecture":"福島県","city":"いわき市","street":"平下平窪"},{"zipCode":"9700228","prefectureKana":"ﾌｸｼﾏｹﾝ","cityKana":"ｲﾜｷｼ","streetKana":"ﾀｲﾗｶﾐﾔｻｸ","prefecture":"福島県","city":"いわき市","street":"平神谷作"},{"zipCode":"9700225","prefectureKana":"ﾌｸｼﾏｹﾝ","cityKana":"ｲﾜｷｼ","streetKana":"ﾀｲﾗｶﾐﾔﾏｸﾞﾁ","prefecture":"福島県","city":"いわき市","street":"平上山口"},{"zipCode":"9700115","prefectureKana":"ﾌｸｼﾏｹﾝ","cityKana":"ｲﾜｷｼ","streetKana":"ﾀｲﾗｷﾀｶﾍﾞﾔ","prefecture":"福島県","city":"いわき市","street":"平北神谷"},{"zipCode":"9708024","prefectureKana":"ﾌｸｼﾏｹﾝ","cityKana":"ｲﾜｷｼ","streetKana":"ﾀｲﾗｷﾀｼﾗﾄﾞ","prefecture":"福島県","city":"いわき市","street":"平北白土"},{"zipCode":"9700113","prefectureKana":"ﾌｸｼﾏｹﾝ","cityKana":"ｲﾜｷｼ","streetKana":"ﾀｲﾗｷﾇﾔ","prefecture":"福島県","city":"いわき市","street":"平絹谷"},{"zipCode":"9708027","prefectureKana":"ﾌｸｼﾏｹﾝ","cityKana":"ｲﾜｷｼ","streetKana":"ﾀｲﾗｸｼﾞﾗｵｶ","prefecture":"福島県","city":"いわき市","street":"平鯨岡"},{"zipCode":"9708041","prefectureKana":"ﾌｸｼﾏｹﾝ","cityKana":"ｲﾜｷｼ","streetKana":"ﾀｲﾗｺｲｽﾞﾐ","prefecture":"福島県","city":"いわき市","street":"平小泉"},{"zipCode":"9708022","prefectureKana":"ﾌｸｼﾏｹﾝ","cityKana":"ｲﾜｷｼ","streetKana":"ﾀｲﾗｼｵ","prefecture":"福島県","city":"いわき市","street":"平塩"},{"zipCode":"9708004","prefectureKana":"ﾌｸｼﾏｹﾝ","cityKana":"ｲﾜｷｼ","streetKana":"ﾀｲﾗｼﾓﾋﾗｸﾎﾞﾅｶｼﾞﾏﾁｮｳ","prefecture":"福島県","city":"いわき市","street":"平下平窪中島町"},{"zipCode":"9708005","prefectureKana":"ﾌｸｼﾏｹﾝ","cityKana":"ｲﾜｷｼ","streetKana":"ﾀｲﾗｼﾓﾋﾗｸﾎﾞﾌﾙｶﾜﾁｮｳ","prefecture":"福島県","city":"いわき市","street":"平下平窪古川町"},{"zipCode":"9708006","prefectureKana":"ﾌｸｼﾏｹﾝ","cityKana":"ｲﾜｷｼ","streetKana":"ﾀｲﾗｼﾓﾋﾗｸﾎﾞﾔﾏﾄﾞｳﾁﾏﾁ","prefecture":"福島県","city":"いわき市","street":"平下平窪山土内町"},{"zipCode":"9700226","prefectureKana":"ﾌｸｼﾏｹﾝ","cityKana":"ｲﾜｷｼ","streetKana":"ﾀｲﾗｼﾓﾔﾏｸﾞﾁ","prefecture":"福島県","city":"いわき市","street":"平下山口"},{"zipCode":"9708053","prefectureKana":"ﾌｸｼﾏｹﾝ","cityKana":"ｲﾜｷｼ","streetKana":"ﾀｲﾗｼｮｳｶﾞﾂﾏﾁ","prefecture":"福島県","city":"いわき市","street":"平正月町"},{"zipCode":"9700105","prefectureKana":"ﾌｸｼﾏｹﾝ","cityKana":"ｲﾜｷｼ","streetKana":"ﾀｲﾗｽｷﾞﾅﾐ","prefecture":"福島県","city":"いわき市","street":"平菅波"},{"zipCode":"9700227","prefectureKana":"ﾌｸｼﾏｹﾝ","cityKana":"ｲﾜｷｼ","streetKana":"ﾀｲﾗﾂﾙｶﾞｲ","prefecture":"福島県","city":"いわき市","street":"平鶴ケ井"},{"zipCode":"9700224","prefectureKana":"ﾌｸｼﾏｹﾝ","cityKana":"ｲﾜｷｼ","streetKana":"ﾀｲﾗﾄﾖﾏ","prefecture":"福島県","city":"いわき市","street":"平豊間"},{"zipCode":"9708021","prefectureKana":"ﾌｸｼﾏｹﾝ","cityKana":"ｲﾜｷｼ","streetKana":"ﾀｲﾗﾅｶｶﾍﾞﾔ","prefecture":"福島県","city":"いわき市","street":"平中神谷"},{"zipCode":"9708016","prefectureKana":"ﾌｸｼﾏｹﾝ","cityKana":"ｲﾜｷｼ","streetKana":"ﾀｲﾗﾅｶｼｵ","prefecture":"福島県","city":"いわき市","street":"平中塩"},{"zipCode":"9708002","prefectureKana":"ﾌｸｼﾏｹﾝ","cityKana":"ｲﾜｷｼ","streetKana":"ﾀｲﾗﾅｶﾋﾗｸﾎﾞ","prefecture":"福島県","city":"いわき市","street":"平中平窪"},{"zipCode":"9708007","prefectureKana":"ﾌｸｼﾏｹﾝ","cityKana":"ｲﾜｷｼ","streetKana":"ﾀｲﾗﾅｶﾋﾗｸﾎﾞｼﾝﾏﾁ","prefecture":"福島県","city":"いわき市","street":"平中平窪新町"},{"zipCode":"9708008","prefectureKana":"ﾌｸｼﾏｹﾝ","cityKana":"ｲﾜｷｼ","streetKana":"ﾀｲﾗﾅｶﾋﾗｸﾎﾞﾎｿﾀﾞﾏﾁ","prefecture":"福島県","city":"いわき市","street":"平中平窪細田町"},{"zipCode":"9708031","prefectureKana":"ﾌｸｼﾏｹﾝ","cityKana":"ｲﾜｷｼ","streetKana":"ﾀｲﾗﾅｶﾔﾏ","prefecture":"福島県","city":"いわき市","street":"平中山"},{"zipCode":"9700222","prefectureKana":"ﾌｸｼﾏｹﾝ","cityKana":"ｲﾜｷｼ","streetKana":"ﾀｲﾗﾇﾏﾉｳﾁ","prefecture":"福島県","city":"いわき市","street":"平沼ノ内"},{"zipCode":"9700222","prefectureKana":"ﾌｸｼﾏｹﾝ","cityKana":"ｲﾜｷｼ","streetKana":"ﾀｲﾗﾇﾏﾉｳﾁｽﾜﾊﾗ","prefecture":"福島県","city":"いわき市","street":"平沼ノ内諏訪原"},{"zipCode":"9708052","prefectureKana":"ﾌｸｼﾏｹﾝ","cityKana":"ｲﾜｷｼ","streetKana":"ﾀｲﾗﾈｷﾞﾏﾁ","prefecture":"福島県","city":"いわき市","street":"平祢宜町"},{"zipCode":"9700111","prefectureKana":"ﾌｸｼﾏｹﾝ","cityKana":"ｲﾜｷｼ","streetKana":"ﾀｲﾗﾊﾗｺﾞﾔ","prefecture":"福島県","city":"いわき市","street":"平原高野"},{"zipCode":"9700103","prefectureKana":"ﾌｸｼﾏｹﾝ","cityKana":"ｲﾜｷｼ","streetKana":"ﾀｲﾗﾌｼﾞﾏ","prefecture":"福島県","city":"いわき市","street":"平藤間"},{"zipCode":"9708014","prefectureKana":"ﾌｸｼﾏｹﾝ","cityKana":"ｲﾜｷｼ","streetKana":"ﾀｲﾗﾏｸﾉｳﾁ","prefecture":"福島県","city":"いわき市","street":"平幕ノ内"},{"zipCode":"9700116","prefectureKana":"ﾌｸｼﾏｹﾝ","cityKana":"ｲﾜｷｼ","streetKana":"ﾀｲﾗﾏﾉﾒ","prefecture":"福島県","city":"いわき市","street":"平馬目"},{"zipCode":"9700114","prefectureKana":"ﾌｸｼﾏｹﾝ","cityKana":"ｲﾜｷｼ","streetKana":"ﾀｲﾗﾐｽﾞｼﾅ","prefecture":"福島県","city":"いわき市","street":"平水品"},{"zipCode":"9708025","prefectureKana":"ﾌｸｼﾏｹﾝ","cityKana":"ｲﾜｷｼ","streetKana":"ﾀｲﾗﾐﾅﾐｼﾗﾄﾞ","prefecture":"福島県","city":"いわき市","street":"平南白土"},{"zipCode":"9708036","prefectureKana":"ﾌｸｼﾏｹﾝ","cityKana":"ｲﾜｷｼ","streetKana":"ﾀｲﾗﾔｶﾞﾜｾ","prefecture":"福島県","city":"いわき市","street":"平谷川瀬"},{"zipCode":"9700106","prefectureKana":"ﾌｸｼﾏｹﾝ","cityKana":"ｲﾜｷｼ","streetKana":"ﾀｲﾗﾔﾏｻﾞｷ","prefecture":"福島県","city":"いわき市","street":"平山崎"},{"zipCode":"9708046","prefectureKana":"ﾌｸｼﾏｹﾝ","cityKana":"ｲﾜｷｼ","streetKana":"ﾀｲﾗﾖｼﾉﾔ","prefecture":"福島県","city":"いわき市","street":"平吉野谷"},{"zipCode":"9708018","prefectureKana":"ﾌｸｼﾏｹﾝ","cityKana":"ｲﾜｷｼ","streetKana":"ﾀｲﾗﾖﾂﾅﾐ","prefecture":"福島県","city":"いわき市","street":"平四ツ波"},{"zipCode":"9708051","prefectureKana":"ﾌｸｼﾏｹﾝ","cityKana":"ｲﾜｷｼ","streetKana":"ﾀｲﾗﾛｸﾁｮｳﾒ","prefecture":"福島県","city":"いわき市","street":"平六町目"},{"zipCode":"9708044","prefectureKana":"ﾌｸｼﾏｹﾝ","cityKana":"ｲﾜｷｼ","streetKana":"ﾁｭｳｵｳﾀﾞｲｲｲﾉ","prefecture":"福島県","city":"いわき市","street":"中央台飯野"},{"zipCode":"9708043","prefectureKana":"ﾌｸｼﾏｹﾝ","cityKana":"ｲﾜｷｼ","streetKana":"ﾁｭｳｵｳﾀﾞｲｶｼﾏ","prefecture":"福島県","city":"いわき市","street":"中央台鹿島"},{"zipCode":"9708047","prefectureKana":"ﾌｸｼﾏｹﾝ","cityKana":"ｲﾜｷｼ","streetKana":"ﾁｭｳｵｳﾀﾞｲﾀｶｸ","prefecture":"福島県","city":"いわき市","street":"中央台高久"},{"zipCode":"9700313","prefectureKana":"ﾌｸｼﾏｹﾝ","cityKana":"ｲﾜｷｼ","streetKana":"ﾅｶﾉｻｸ","prefecture":"福島県","city":"いわき市","street":"中之作"},{"zipCode":"9700315","prefectureKana":"ﾌｸｼﾏｹﾝ","cityKana":"ｲﾜｷｼ","streetKana":"ﾅｶﾞｻｷ","prefecture":"福島県","city":"いわき市","street":"永崎"},{"zipCode":"9701373","prefectureKana":"ﾌｸｼﾏｹﾝ","cityKana":"ｲﾜｷｼ","streetKana":"ﾐﾜﾏﾁｶﾐｲﾁｶﾞﾔ","prefecture":"福島県","city":"いわき市","street":"三和町上市萱"},{"zipCode":"9701372","prefectureKana":"ﾌｸｼﾏｹﾝ","cityKana":"ｲﾜｷｼ","streetKana":"ﾐﾜﾏﾁｼﾓｲﾁｶﾞﾔ","prefecture":"福島県","city":"いわき市","street":"三和町下市萱"},{"zipCode":"9701262","prefectureKana":"ﾌｸｼﾏｹﾝ","cityKana":"ｲﾜｷｼ","streetKana":"ﾐﾜﾏﾁｶﾐﾅｶﾞｲ","prefecture":"福島県","city":"いわき市","street":"三和町上永井"},{"zipCode":"9701263","prefectureKana":"ﾌｸｼﾏｹﾝ","cityKana":"ｲﾜｷｼ","streetKana":"ﾐﾜﾏﾁｼﾓﾅｶﾞｲ","prefecture":"福島県","city":"いわき市","street":"三和町下永井"},{"zipCode":"9701374","prefectureKana":"ﾌｸｼﾏｹﾝ","cityKana":"ｲﾜｷｼ","streetKana":"ﾐﾜﾏﾁｶﾐﾐｻｶ","prefecture":"福島県","city":"いわき市","street":"三和町上三坂"},{"zipCode":"9701375","prefectureKana":"ﾌｸｼﾏｹﾝ","cityKana":"ｲﾜｷｼ","streetKana":"ﾐﾜﾏﾁﾅｶﾐｻｶ","prefecture":"福島県","city":"いわき市","street":"三和町中三坂"},{"zipCode":"9701376","prefectureKana":"ﾌｸｼﾏｹﾝ","cityKana":"ｲﾜｷｼ","streetKana":"ﾐﾜﾏﾁｼﾓﾐｻｶ","prefecture":"福島県","city":"いわき市","street":"三和町下三坂"},{"zipCode":"9701264","prefectureKana":"ﾌｸｼﾏｹﾝ","cityKana":"ｲﾜｷｼ","streetKana":"ﾐﾜﾏﾁｺﾞｳﾄﾞ","prefecture":"福島県","city":"いわき市","street":"三和町合戸"},{"zipCode":"9701377","prefectureKana":"ﾌｸｼﾏｹﾝ","cityKana":"ｲﾜｷｼ","streetKana":"ﾐﾜﾏﾁｻｲｿ","prefecture":"福島県","city":"いわき市","street":"三和町差塩"},{"zipCode":"9701371","prefectureKana":"ﾌｸｼﾏｹﾝ","cityKana":"ｲﾜｷｼ","streetKana":"ﾐﾜﾏﾁﾅｶﾃﾞﾗ","prefecture":"福島県","city":"いわき市","street":"三和町中寺"},{"zipCode":"9701361","prefectureKana":"ﾌｸｼﾏｹﾝ","cityKana":"ｲﾜｷｼ","streetKana":"ﾐﾜﾏﾁﾜﾀﾄﾞ(ｶﾜﾏｴ)","prefecture":"福島県","city":"いわき市","street":"三和町渡戸（川前）"},{"zipCode":"9701261","prefectureKana":"ﾌｸｼﾏｹﾝ","cityKana":"ｲﾜｷｼ","streetKana":"ﾐﾜﾏﾁﾜﾀﾄﾞ(ｿﾉﾀ)","prefecture":"福島県","city":"いわき市","street":"三和町渡戸（その他）"},{"zipCode":"9708035","prefectureKana":"ﾌｸｼﾏｹﾝ","cityKana":"ｲﾜｷｼ","streetKana":"ﾒｲｼﾞﾀﾞﾝﾁ","prefecture":"福島県","city":"いわき市","street":"明治団地"},{"zipCode":"9700314","prefectureKana":"ﾌｸｼﾏｹﾝ","cityKana":"ｲﾜｷｼ","streetKana":"ﾖｳｺｳﾀﾞｲ","prefecture":"福島県","city":"いわき市","street":"洋向台"},{"zipCode":"9701144","prefectureKana":"ﾌｸｼﾏｹﾝ","cityKana":"ｲﾜｷｼ","streetKana":"ﾖｼﾏｺｳｷﾞｮｳﾀﾞﾝﾁ","prefecture":"福島県","city":"いわき市","street":"好間工業団地"},{"zipCode":"9701141","prefectureKana":"ﾌｸｼﾏｹﾝ","cityKana":"ｲﾜｷｼ","streetKana":"ﾖｼﾏﾏﾁｱｲﾔ","prefecture":"福島県","city":"いわき市","street":"好間町愛谷"},{"zipCode":"9701142","prefectureKana":"ﾌｸｼﾏｹﾝ","cityKana":"ｲﾜｷｼ","streetKana":"ﾖｼﾏﾏﾁｲﾏﾆｲﾀﾞ","prefecture":"福島県","city":"いわき市","street":"好間町今新田"},{"zipCode":"9701147","prefectureKana":"ﾌｸｼﾏｹﾝ","cityKana":"ｲﾜｷｼ","streetKana":"ﾖｼﾏﾏﾁｵｵﾘ","prefecture":"福島県","city":"いわき市","street":"好間町大利"},{"zipCode":"9701143","prefectureKana":"ﾌｸｼﾏｹﾝ","cityKana":"ｲﾜｷｼ","streetKana":"ﾖｼﾏﾏﾁｵﾔｻｸ","prefecture":"福島県","city":"いわき市","street":"好間町小谷作"},{"zipCode":"9701153","prefectureKana":"ﾌｸｼﾏｹﾝ","cityKana":"ｲﾜｷｼ","streetKana":"ﾖｼﾏﾏﾁｶﾐﾖｼﾏ","prefecture":"福島県","city":"いわき市","street":"好間町上好間"},{"zipCode":"9701152","prefectureKana":"ﾌｸｼﾏｹﾝ","cityKana":"ｲﾜｷｼ","streetKana":"ﾖｼﾏﾏﾁﾅｶﾖｼﾏ","prefecture":"福島県","city":"いわき市","street":"好間町中好間"},{"zipCode":"9701151","prefectureKana":"ﾌｸｼﾏｹﾝ","cityKana":"ｲﾜｷｼ","streetKana":"ﾖｼﾏﾏﾁｼﾓﾖｼﾏ","prefecture":"福島県","city":"いわき市","street":"好間町下好間"},{"zipCode":"9708015","prefectureKana":"ﾌｸｼﾏｹﾝ","cityKana":"ｲﾜｷｼ","streetKana":"ﾖｼﾏﾏﾁｶﾜﾅｺﾞ","prefecture":"福島県","city":"いわき市","street":"好間町川中子"},{"zipCode":"9701145","prefectureKana":"ﾌｸｼﾏｹﾝ","cityKana":"ｲﾜｷｼ","streetKana":"ﾖｼﾏﾏﾁｷﾀﾖｼﾏ","prefecture":"福島県","city":"いわき市","street":"好間町北好間"},{"zipCode":"9701146","prefectureKana":"ﾌｸｼﾏｹﾝ","cityKana":"ｲﾜｷｼ","streetKana":"ﾖｼﾏﾏﾁｻｶｷｺﾞﾔ","prefecture":"福島県","city":"いわき市","street":"好間町榊小屋"}]