[{"zipCode":"9718189","prefectureKana":"ﾌｸｼﾏｹﾝ","cityKana":"ｲﾜｷｼ","streetKana":"ｲｽﾞﾐﾀｷｼﾞﾘ","prefecture":"福島県","city":"いわき市","street":"泉滝尻"},{"zipCode":"9718172","prefectureKana":"ﾌｸｼﾏｹﾝ","cityKana":"ｲﾜｷｼ","streetKana":"ｲｽﾞﾐﾀﾏﾂﾕ","prefecture":"福島県","city":"いわき市","street":"泉玉露"},{"zipCode":"9718188","prefectureKana":"ﾌｸｼﾏｹﾝ","cityKana":"ｲﾜｷｼ","streetKana":"ｲｽﾞﾐﾓｴｷﾞﾀﾞｲ","prefecture":"福島県","city":"いわき市","street":"泉もえぎ台"},{"zipCode":"9718171","prefectureKana":"ﾌｸｼﾏｹﾝ","cityKana":"ｲﾜｷｼ","streetKana":"ｲｽﾞﾐｶﾞｵｶ","prefecture":"福島県","city":"いわき市","street":"泉ケ丘"},{"zipCode":"9718185","prefectureKana":"ﾌｸｼﾏｹﾝ","cityKana":"ｲﾜｷｼ","streetKana":"ｲｽﾞﾐﾏﾁ","prefecture":"福島県","city":"いわき市","street":"泉町"},{"zipCode":"9718184","prefectureKana":"ﾌｸｼﾏｹﾝ","cityKana":"ｲﾜｷｼ","streetKana":"ｲｽﾞﾐﾏﾁｸﾛｽﾉ","prefecture":"福島県","city":"いわき市","street":"泉町黒須野"},{"zipCode":"9718183","prefectureKana":"ﾌｸｼﾏｹﾝ","cityKana":"ｲﾜｷｼ","streetKana":"ｲｽﾞﾐﾏﾁｼﾓｶﾞﾜ","prefecture":"福島県","city":"いわき市","street":"泉町下川"},{"zipCode":"9718182","prefectureKana":"ﾌｸｼﾏｹﾝ","cityKana":"ｲﾜｷｼ","streetKana":"ｲｽﾞﾐﾏﾁﾀｷｼﾞﾘ","prefecture":"福島県","city":"いわき市","street":"泉町滝尻"},{"zipCode":"9718186","prefectureKana":"ﾌｸｼﾏｹﾝ","cityKana":"ｲﾜｷｼ","streetKana":"ｲｽﾞﾐﾏﾁﾀﾏﾂﾕ","prefecture":"福島県","city":"いわき市","street":"泉町玉露"},{"zipCode":"9718181","prefectureKana":"ﾌｸｼﾏｹﾝ","cityKana":"ｲﾜｷｼ","streetKana":"ｲｽﾞﾐﾏﾁﾎﾝﾔ","prefecture":"福島県","city":"いわき市","street":"泉町本谷"},{"zipCode":"9718101","prefectureKana":"ﾌｸｼﾏｹﾝ","cityKana":"ｲﾜｷｼ","streetKana":"ｵﾅﾊﾏ","prefecture":"福島県","city":"いわき市","street":"小名浜"},{"zipCode":"9718123","prefectureKana":"ﾌｸｼﾏｹﾝ","cityKana":"ｲﾜｷｼ","streetKana":"ｵﾅﾊﾏｱｲｺｼﾏ","prefecture":"福島県","city":"いわき市","street":"小名浜相子島"},{"zipCode":"9718166","prefectureKana":"ﾌｸｼﾏｹﾝ","cityKana":"ｲﾜｷｼ","streetKana":"ｵﾅﾊﾏｱﾀｺﾞｳｴ","prefecture":"福島県","city":"いわき市","street":"小名浜愛宕上"},{"zipCode":"9718165","prefectureKana":"ﾌｸｼﾏｹﾝ","cityKana":"ｲﾜｷｼ","streetKana":"ｵﾅﾊﾏｱﾀｺﾞﾁｮｳ","prefecture":"福島県","city":"いわき市","street":"小名浜愛宕町"},{"zipCode":"9718121","prefectureKana":"ﾌｸｼﾏｹﾝ","cityKana":"ｲﾜｷｼ","streetKana":"ｵﾅﾊﾏｲﾜﾃﾞ","prefecture":"福島県","city":"いわき市","street":"小名浜岩出"},{"zipCode":"9718111","prefectureKana":"ﾌｸｼﾏｹﾝ","cityKana":"ｲﾜｷｼ","streetKana":"ｵﾅﾊﾏｵｵﾊﾗ","prefecture":"福島県","city":"いわき市","street":"小名浜大原"},{"zipCode":"9718151","prefectureKana":"ﾌｸｼﾏｹﾝ","cityKana":"ｲﾜｷｼ","streetKana":"ｵﾅﾊﾏｵｶｵﾅ","prefecture":"福島県","city":"いわき市","street":"小名浜岡小名"},{"zipCode":"9718135","prefectureKana":"ﾌｸｼﾏｹﾝ","cityKana":"ｲﾜｷｼ","streetKana":"ｵﾅﾊﾏｶﾅﾘ","prefecture":"福島県","city":"いわき市","street":"小名浜金成"},{"zipCode":"9718168","prefectureKana":"ﾌｸｼﾏｹﾝ","cityKana":"ｲﾜｷｼ","streetKana":"ｵﾅﾊﾏｷﾐｶﾞﾂｶﾁｮｳ","prefecture":"福島県","city":"いわき市","street":"小名浜君ケ塚町"},{"zipCode":"9718125","prefectureKana":"ﾌｸｼﾏｹﾝ","cityKana":"ｲﾜｷｼ","streetKana":"ｵﾅﾊﾏｼﾏ","prefecture":"福島県","city":"いわき市","street":"小名浜島"},{"zipCode":"9718124","prefectureKana":"ﾌｸｼﾏｹﾝ","cityKana":"ｲﾜｷｼ","streetKana":"ｵﾅﾊﾏｽﾐﾖｼ","prefecture":"福島県","city":"いわき市","street":"小名浜住吉"},{"zipCode":"9718161","prefectureKana":"ﾌｸｼﾏｹﾝ","cityKana":"ｲﾜｷｼ","streetKana":"ｵﾅﾊﾏｽﾜﾁｮｳ","prefecture":"福島県","city":"いわき市","street":"小名浜諏訪町"},{"zipCode":"9718127","prefectureKana":"ﾌｸｼﾏｹﾝ","cityKana":"ｲﾜｷｼ","streetKana":"ｵﾅﾊﾏﾀﾏｶﾞﾜﾏﾁ","prefecture":"福島県","city":"いわき市","street":"小名浜玉川町"},{"zipCode":"9718164","prefectureKana":"ﾌｸｼﾏｹﾝ","cityKana":"ｲﾜｷｼ","streetKana":"ｵﾅﾊﾏﾃﾗﾏﾜﾘﾁｮｳ","prefecture":"福島県","city":"いわき市","street":"小名浜寺廻町"},{"zipCode":"9718163","prefectureKana":"ﾌｸｼﾏｹﾝ","cityKana":"ｲﾜｷｼ","streetKana":"ｵﾅﾊﾏﾅｶﾁｮｳｻﾞｶｲ","prefecture":"福島県","city":"いわき市","street":"小名浜中町境"},{"zipCode":"9718167","prefectureKana":"ﾌｸｼﾏｹﾝ","cityKana":"ｲﾜｷｼ","streetKana":"ｵﾅﾊﾏﾆｼｷﾐｶﾞﾂｶﾁｮｳ","prefecture":"福島県","city":"いわき市","street":"小名浜西君ケ塚町"},{"zipCode":"9718164","prefectureKana":"ﾌｸｼﾏｹﾝ","cityKana":"ｲﾜｷｼ","streetKana":"ｵﾅﾊﾏﾆｼﾁｮｳ","prefecture":"福島県","city":"いわき市","street":"小名浜西町"},{"zipCode":"9718126","prefectureKana":"ﾌｸｼﾏｹﾝ","cityKana":"ｲﾜｷｼ","streetKana":"ｵﾅﾊﾏﾉﾀﾞ","prefecture":"福島県","city":"いわき市","street":"小名浜野田"},{"zipCode":"9718162","prefectureKana":"ﾌｸｼﾏｹﾝ","cityKana":"ｲﾜｷｼ","streetKana":"ｵﾅﾊﾏﾊﾅﾊﾞﾀｹﾁｮｳ","prefecture":"福島県","city":"いわき市","street":"小名浜花畑町"},{"zipCode":"9718102","prefectureKana":"ﾌｸｼﾏｹﾝ","cityKana":"ｲﾜｷｼ","streetKana":"ｵﾅﾊﾏﾐﾅﾄｶﾞｵｶ","prefecture":"福島県","city":"いわき市","street":"小名浜港ケ丘"},{"zipCode":"9718169","prefectureKana":"ﾌｸｼﾏｹﾝ","cityKana":"ｲﾜｷｼ","streetKana":"ｵﾅﾊﾏﾐﾅﾐｷﾐｶﾞﾂｶﾁｮｳ","prefecture":"福島県","city":"いわき市","street":"小名浜南君ケ塚町"},{"zipCode":"9718112","prefectureKana":"ﾌｸｼﾏｹﾝ","cityKana":"ｲﾜｷｼ","streetKana":"ｵﾅﾊﾏﾐﾅﾐﾄﾐｵｶ","prefecture":"福島県","city":"いわき市","street":"小名浜南富岡"},{"zipCode":"9718122","prefectureKana":"ﾌｸｼﾏｹﾝ","cityKana":"ｲﾜｷｼ","streetKana":"ｵﾅﾊﾏﾘﾝｼﾞｮｳ","prefecture":"福島県","city":"いわき市","street":"小名浜林城"},{"zipCode":"9718134","prefectureKana":"ﾌｸｼﾏｹﾝ","cityKana":"ｲﾜｷｼ","streetKana":"ｶｼﾏﾏﾁｲｲﾀﾞ","prefecture":"福島県","city":"いわき市","street":"鹿島町飯田"},{"zipCode":"9718139","prefectureKana":"ﾌｸｼﾏｹﾝ","cityKana":"ｲﾜｷｼ","streetKana":"ｶｼﾏﾏﾁｶｼﾏ","prefecture":"福島県","city":"いわき市","street":"鹿島町鹿島"},{"zipCode":"9718142","prefectureKana":"ﾌｸｼﾏｹﾝ","cityKana":"ｲﾜｷｼ","streetKana":"ｶｼﾏﾏﾁｶﾐｸﾗﾓﾁ","prefecture":"福島県","city":"いわき市","street":"鹿島町上蔵持"},{"zipCode":"9718143","prefectureKana":"ﾌｸｼﾏｹﾝ","cityKana":"ｲﾜｷｼ","streetKana":"ｶｼﾏﾏﾁｼﾓｸﾗﾓﾁ","prefecture":"福島県","city":"いわき市","street":"鹿島町下蔵持"},{"zipCode":"9718144","prefectureKana":"ﾌｸｼﾏｹﾝ","cityKana":"ｲﾜｷｼ","streetKana":"ｶｼﾏﾏﾁｸﾎﾞ","prefecture":"福島県","city":"いわき市","street":"鹿島町久保"},{"zipCode":"9718133","prefectureKana":"ﾌｸｼﾏｹﾝ","cityKana":"ｲﾜｷｼ","streetKana":"ｶｼﾏﾏﾁｺﾓﾀﾞ","prefecture":"福島県","city":"いわき市","street":"鹿島町米田"},{"zipCode":"9718132","prefectureKana":"ﾌｸｼﾏｹﾝ","cityKana":"ｲﾜｷｼ","streetKana":"ｶｼﾏﾏﾁｼﾓﾔﾀﾞ","prefecture":"福島県","city":"いわき市","street":"鹿島町下矢田"},{"zipCode":"9718141","prefectureKana":"ﾌｸｼﾏｹﾝ","cityKana":"ｲﾜｷｼ","streetKana":"ｶｼﾏﾏﾁﾊｼﾘｸﾏ","prefecture":"福島県","city":"いわき市","street":"鹿島町走熊"},{"zipCode":"9718145","prefectureKana":"ﾌｸｼﾏｹﾝ","cityKana":"ｲﾜｷｼ","streetKana":"ｶｼﾏﾏﾁﾌﾅﾄﾞ","prefecture":"福島県","city":"いわき市","street":"鹿島町船戸"},{"zipCode":"9718146","prefectureKana":"ﾌｸｼﾏｹﾝ","cityKana":"ｲﾜｷｼ","streetKana":"ｶｼﾏﾏﾁﾐﾖ","prefecture":"福島県","city":"いわき市","street":"鹿島町御代"},{"zipCode":"9718152","prefectureKana":"ﾌｸｼﾏｹﾝ","cityKana":"ｲﾜｷｼ","streetKana":"ｼｮｳﾅﾝﾀﾞｲ","prefecture":"福島県","city":"いわき市","street":"湘南台"},{"zipCode":"9718131","prefectureKana":"ﾌｸｼﾏｹﾝ","cityKana":"ｲﾜｷｼ","streetKana":"ｼﾞｮｳﾊﾞﾝｶﾐﾔﾀﾞﾏﾁ","prefecture":"福島県","city":"いわき市","street":"常磐上矢田町"},{"zipCode":"9718137","prefectureKana":"ﾌｸｼﾏｹﾝ","cityKana":"ｲﾜｷｼ","streetKana":"ｼﾞｮｳﾊﾞﾝﾏﾂｸｽﾈﾏﾁ","prefecture":"福島県","city":"いわき市","street":"常磐松久須根町"},{"zipCode":"9718136","prefectureKana":"ﾌｸｼﾏｹﾝ","cityKana":"ｲﾜｷｼ","streetKana":"ｼﾞｮｳﾊﾞﾝﾐｻﾜﾏﾁ","prefecture":"福島県","city":"いわき市","street":"常磐三沢町"},{"zipCode":"9718187","prefectureKana":"ﾌｸｼﾏｹﾝ","cityKana":"ｲﾜｷｼ","streetKana":"ﾊﾔﾏ","prefecture":"福島県","city":"いわき市","street":"葉山"},{"zipCode":"9718138","prefectureKana":"ﾌｸｼﾏｹﾝ","cityKana":"ｲﾜｷｼ","streetKana":"ﾜｶﾊﾞﾀﾞｲ","prefecture":"福島県","city":"いわき市","street":"若葉台"}]