[{"zipCode":"9800000","prefectureKana":"ﾐﾔｷﾞｹﾝ","cityKana":"ｾﾝﾀﾞｲｼｱｵﾊﾞｸ","streetKana":"ｲｶﾆｹｲｻｲｶﾞﾅｲﾊﾞｱｲ","prefecture":"宮城県","city":"仙台市青葉区","street":"以下に掲載がない場合"},{"zipCode":"9800856","prefectureKana":"ﾐﾔｷﾞｹﾝ","cityKana":"ｾﾝﾀﾞｲｼｱｵﾊﾞｸ","streetKana":"ｱｵﾊﾞﾔﾏ","prefecture":"宮城県","city":"仙台市青葉区","street":"青葉山"},{"zipCode":"9800845","prefectureKana":"ﾐﾔｷﾞｹﾝ","cityKana":"ｾﾝﾀﾞｲｼｱｵﾊﾞｸ","streetKana":"ｱﾗﾏｷ(ｿﾉﾀ)","prefecture":"宮城県","city":"仙台市青葉区","street":"荒巻（その他）"},{"zipCode":"9800811","prefectureKana":"ﾐﾔｷﾞｹﾝ","cityKana":"ｾﾝﾀﾞｲｼｱｵﾊﾞｸ","streetKana":"ｲﾁﾊﾞﾝﾁｮｳ","prefecture":"宮城県","city":"仙台市青葉区","street":"一番町"},{"zipCode":"9800022","prefectureKana":"ﾐﾔｷﾞｹﾝ","cityKana":"ｾﾝﾀﾞｲｼｱｵﾊﾞｸ","streetKana":"ｲﾂﾂﾊﾞｼ(1､2ﾁｮｳﾒ)","prefecture":"宮城県","city":"仙台市青葉区","street":"五橋（１、２丁目）"},{"zipCode":"9800005","prefectureKana":"ﾐﾔｷﾞｹﾝ","cityKana":"ｾﾝﾀﾞｲｼｱｵﾊﾞｸ","streetKana":"ｳﾒﾀﾞﾏﾁ","prefecture":"宮城県","city":"仙台市青葉区","street":"梅田町"},{"zipCode":"9800805","prefectureKana":"ﾐﾔｷﾞｹﾝ","cityKana":"ｾﾝﾀﾞｲｼｱｵﾊﾞｸ","streetKana":"ｵｵﾃﾏﾁ","prefecture":"宮城県","city":"仙台市青葉区","street":"大手町"},{"zipCode":"9800804","prefectureKana":"ﾐﾔｷﾞｹﾝ","cityKana":"ｾﾝﾀﾞｲｼｱｵﾊﾞｸ","streetKana":"ｵｵﾏﾁ","prefecture":"宮城県","city":"仙台市青葉区","street":"大町"},{"zipCode":"9800814","prefectureKana":"ﾐﾔｷﾞｹﾝ","cityKana":"ｾﾝﾀﾞｲｼｱｵﾊﾞｸ","streetKana":"ｵﾀﾏﾔｼﾀ","prefecture":"宮城県","city":"仙台市青葉区","street":"霊屋下"},{"zipCode":"9800003","prefectureKana":"ﾐﾔｷﾞｹﾝ","cityKana":"ｾﾝﾀﾞｲｼｱｵﾊﾞｸ","streetKana":"ｵﾀﾞﾜﾗ(4ﾁｮｳﾒ-8ﾁｮｳﾒ)","prefecture":"宮城県","city":"仙台市青葉区","street":"小田原（４～８丁目）"},{"zipCode":"9800013","prefectureKana":"ﾐﾔｷﾞｹﾝ","cityKana":"ｾﾝﾀﾞｲｼｱｵﾊﾞｸ","streetKana":"ｶｷｮｳｲﾝ","prefecture":"宮城県","city":"仙台市青葉区","street":"花京院"},{"zipCode":"9800821","prefectureKana":"ﾐﾔｷﾞｹﾝ","cityKana":"ｾﾝﾀﾞｲｼｱｵﾊﾞｸ","streetKana":"ｶｽｶﾞﾏﾁ","prefecture":"宮城県","city":"仙台市青葉区","street":"春日町"},{"zipCode":"9800812","prefectureKana":"ﾐﾔｷﾞｹﾝ","cityKana":"ｾﾝﾀﾞｲｼｱｵﾊﾞｸ","streetKana":"ｶﾀﾋﾗ","prefecture":"宮城県","city":"仙台市青葉区","street":"片平"},{"zipCode":"9800815","prefectureKana":"ﾐﾔｷﾞｹﾝ","cityKana":"ｾﾝﾀﾞｲｼｱｵﾊﾞｸ","streetKana":"ｶﾀﾞﾝ","prefecture":"宮城県","city":"仙台市青葉区","street":"花壇"},{"zipCode":"9800011","prefectureKana":"ﾐﾔｷﾞｹﾝ","cityKana":"ｾﾝﾀﾞｲｼｱｵﾊﾞｸ","streetKana":"ｶﾐｽｷﾞ","prefecture":"宮城県","city":"仙台市青葉区","street":"上杉"},{"zipCode":"9800862","prefectureKana":"ﾐﾔｷﾞｹﾝ","cityKana":"ｾﾝﾀﾞｲｼｱｵﾊﾞｸ","streetKana":"ｶﾜｳﾁ","prefecture":"宮城県","city":"仙台市青葉区","street":"川内"},{"zipCode":"9800863","prefectureKana":"ﾐﾔｷﾞｹﾝ","cityKana":"ｾﾝﾀﾞｲｼｱｵﾊﾞｸ","streetKana":"ｶﾜｳﾁｵｲﾏﾜｼ","prefecture":"宮城県","city":"仙台市青葉区","street":"川内追廻"},{"zipCode":"9800867","prefectureKana":"ﾐﾔｷﾞｹﾝ","cityKana":"ｾﾝﾀﾞｲｼｱｵﾊﾞｸ","streetKana":"ｶﾜｳﾁｶﾒｵｶｷﾀｳﾗﾁｮｳ","prefecture":"宮城県","city":"仙台市青葉区","street":"川内亀岡北裏丁"},{"zipCode":"9800865","prefectureKana":"ﾐﾔｷﾞｹﾝ","cityKana":"ｾﾝﾀﾞｲｼｱｵﾊﾞｸ","streetKana":"ｶﾜｳﾁｶﾒｵｶﾁｮｳ","prefecture":"宮城県","city":"仙台市青葉区","street":"川内亀岡町"},{"zipCode":"9800852","prefectureKana":"ﾐﾔｷﾞｹﾝ","cityKana":"ｾﾝﾀﾞｲｼｱｵﾊﾞｸ","streetKana":"ｶﾜｳﾁｶﾜﾏｴﾁｮｳ","prefecture":"宮城県","city":"仙台市青葉区","street":"川内川前丁"},{"zipCode":"9800866","prefectureKana":"ﾐﾔｷﾞｹﾝ","cityKana":"ｾﾝﾀﾞｲｼｱｵﾊﾞｸ","streetKana":"ｶﾜｳﾁｻﾝｼﾞｭｳﾆﾝﾏﾁ","prefecture":"宮城県","city":"仙台市青葉区","street":"川内三十人町"},{"zipCode":"9800853","prefectureKana":"ﾐﾔｷﾞｹﾝ","cityKana":"ｾﾝﾀﾞｲｼｱｵﾊﾞｸ","streetKana":"ｶﾜｳﾁﾀﾞｲｸﾏﾁ","prefecture":"宮城県","city":"仙台市青葉区","street":"川内大工町"},{"zipCode":"9800854","prefectureKana":"ﾐﾔｷﾞｹﾝ","cityKana":"ｾﾝﾀﾞｲｼｱｵﾊﾞｸ","streetKana":"ｶﾜｳﾁﾅｶﾉｾﾏﾁ","prefecture":"宮城県","city":"仙台市青葉区","street":"川内中ノ瀬町"},{"zipCode":"9800851","prefectureKana":"ﾐﾔｷﾞｹﾝ","cityKana":"ｾﾝﾀﾞｲｼｱｵﾊﾞｸ","streetKana":"ｶﾜｳﾁﾐｮｳｼﾞﾝﾖｺﾁｮｳ","prefecture":"宮城県","city":"仙台市青葉区","street":"川内明神横丁"},{"zipCode":"9800861","prefectureKana":"ﾐﾔｷﾞｹﾝ","cityKana":"ｾﾝﾀﾞｲｼｱｵﾊﾞｸ","streetKana":"ｶﾜｳﾁﾓﾄﾊｾｸﾗ","prefecture":"宮城県","city":"仙台市青葉区","street":"川内元支倉"},{"zipCode":"9800864","prefectureKana":"ﾐﾔｷﾞｹﾝ","cityKana":"ｾﾝﾀﾞｲｼｱｵﾊﾞｸ","streetKana":"ｶﾜｳﾁﾔﾏﾔｼｷ","prefecture":"宮城県","city":"仙台市青葉区","street":"川内山屋敷"},{"zipCode":"9800855","prefectureKana":"ﾐﾔｷﾞｹﾝ","cityKana":"ｾﾝﾀﾞｲｼｱｵﾊﾞｸ","streetKana":"ｶﾜｳﾁﾖﾄﾞﾐﾊﾞｼﾄﾞｵﾘ","prefecture":"宮城県","city":"仙台市青葉区","street":"川内澱橋通"},{"zipCode":"9800023","prefectureKana":"ﾐﾔｷﾞｹﾝ","cityKana":"ｾﾝﾀﾞｲｼｱｵﾊﾞｸ","streetKana":"ｷﾀﾒﾏﾁ","prefecture":"宮城県","city":"仙台市青葉区","street":"北目町"},{"zipCode":"9800801","prefectureKana":"ﾐﾔｷﾞｹﾝ","cityKana":"ｾﾝﾀﾞｲｼｱｵﾊﾞｸ","streetKana":"ｷﾏﾁﾄﾞｵﾘ","prefecture":"宮城県","city":"仙台市青葉区","street":"木町通"},{"zipCode":"9800803","prefectureKana":"ﾐﾔｷﾞｹﾝ","cityKana":"ｾﾝﾀﾞｲｼｱｵﾊﾞｸ","streetKana":"ｺｸﾌﾞﾝﾁｮｳ","prefecture":"宮城県","city":"仙台市青葉区","street":"国分町"},{"zipCode":"9800813","prefectureKana":"ﾐﾔｷﾞｹﾝ","cityKana":"ｾﾝﾀﾞｲｼｱｵﾊﾞｸ","streetKana":"ｺﾒｶﾞﾌｸﾛ","prefecture":"宮城県","city":"仙台市青葉区","street":"米ケ袋"},{"zipCode":"9800823","prefectureKana":"ﾐﾔｷﾞｹﾝ","cityKana":"ｾﾝﾀﾞｲｼｱｵﾊﾞｸ","streetKana":"ｻｸﾗｶﾞｵｶｺｳｴﾝ","prefecture":"宮城県","city":"仙台市青葉区","street":"桜ケ岡公園"},{"zipCode":"9800872","prefectureKana":"ﾐﾔｷﾞｹﾝ","cityKana":"ｾﾝﾀﾞｲｼｱｵﾊﾞｸ","streetKana":"ｾｲﾘｮｳﾏﾁ","prefecture":"宮城県","city":"仙台市青葉区","street":"星陵町"},{"zipCode":"9800822","prefectureKana":"ﾐﾔｷﾞｹﾝ","cityKana":"ｾﾝﾀﾞｲｼｱｵﾊﾞｸ","streetKana":"ﾀﾁﾏﾁ","prefecture":"宮城県","city":"仙台市青葉区","street":"立町"},{"zipCode":"9800021","prefectureKana":"ﾐﾔｷﾞｹﾝ","cityKana":"ｾﾝﾀﾞｲｼｱｵﾊﾞｸ","streetKana":"ﾁｭｳｵｳ(ﾂｷﾞﾉﾋﾞﾙｦﾉｿﾞｸ)","prefecture":"宮城県","city":"仙台市青葉区","street":"中央（次のビルを除く）"},{"zipCode":"9806190","prefectureKana":"ﾐﾔｷﾞｹﾝ","cityKana":"ｾﾝﾀﾞｲｼｱｵﾊﾞｸ","streetKana":"ﾁｭｳｵｳｱｴﾙ(ﾁｶｲ･ｶｲｿｳﾌﾒｲ)","prefecture":"宮城県","city":"仙台市青葉区","street":"中央アエル（地階・階層不明）"},{"zipCode":"9806101","prefectureKana":"ﾐﾔｷﾞｹﾝ","cityKana":"ｾﾝﾀﾞｲｼｱｵﾊﾞｸ","streetKana":"ﾁｭｳｵｳｱｴﾙ(1ｶｲ)","prefecture":"宮城県","city":"仙台市青葉区","street":"中央アエル（１階）"},{"zipCode":"9806102","prefectureKana":"ﾐﾔｷﾞｹﾝ","cityKana":"ｾﾝﾀﾞｲｼｱｵﾊﾞｸ","streetKana":"ﾁｭｳｵｳｱｴﾙ(2ｶｲ)","prefecture":"宮城県","city":"仙台市青葉区","street":"中央アエル（２階）"},{"zipCode":"9806103","prefectureKana":"ﾐﾔｷﾞｹﾝ","cityKana":"ｾﾝﾀﾞｲｼｱｵﾊﾞｸ","streetKana":"ﾁｭｳｵｳｱｴﾙ(3ｶｲ)","prefecture":"宮城県","city":"仙台市青葉区","street":"中央アエル（３階）"},{"zipCode":"9806104","prefectureKana":"ﾐﾔｷﾞｹﾝ","cityKana":"ｾﾝﾀﾞｲｼｱｵﾊﾞｸ","streetKana":"ﾁｭｳｵｳｱｴﾙ(4ｶｲ)","prefecture":"宮城県","city":"仙台市青葉区","street":"中央アエル（４階）"},{"zipCode":"9806105","prefectureKana":"ﾐﾔｷﾞｹﾝ","cityKana":"ｾﾝﾀﾞｲｼｱｵﾊﾞｸ","streetKana":"ﾁｭｳｵｳｱｴﾙ(5ｶｲ)","prefecture":"宮城県","city":"仙台市青葉区","street":"中央アエル（５階）"},{"zipCode":"9806106","prefectureKana":"ﾐﾔｷﾞｹﾝ","cityKana":"ｾﾝﾀﾞｲｼｱｵﾊﾞｸ","streetKana":"ﾁｭｳｵｳｱｴﾙ(6ｶｲ)","prefecture":"宮城県","city":"仙台市青葉区","street":"中央アエル（６階）"},{"zipCode":"9806107","prefectureKana":"ﾐﾔｷﾞｹﾝ","cityKana":"ｾﾝﾀﾞｲｼｱｵﾊﾞｸ","streetKana":"ﾁｭｳｵｳｱｴﾙ(7ｶｲ)","prefecture":"宮城県","city":"仙台市青葉区","street":"中央アエル（７階）"},{"zipCode":"9806108","prefectureKana":"ﾐﾔｷﾞｹﾝ","cityKana":"ｾﾝﾀﾞｲｼｱｵﾊﾞｸ","streetKana":"ﾁｭｳｵｳｱｴﾙ(8ｶｲ)","prefecture":"宮城県","city":"仙台市青葉区","street":"中央アエル（８階）"},{"zipCode":"9806109","prefectureKana":"ﾐﾔｷﾞｹﾝ","cityKana":"ｾﾝﾀﾞｲｼｱｵﾊﾞｸ","streetKana":"ﾁｭｳｵｳｱｴﾙ(9ｶｲ)","prefecture":"宮城県","city":"仙台市青葉区","street":"中央アエル（９階）"},{"zipCode":"9806110","prefectureKana":"ﾐﾔｷﾞｹﾝ","cityKana":"ｾﾝﾀﾞｲｼｱｵﾊﾞｸ","streetKana":"ﾁｭｳｵｳｱｴﾙ(10ｶｲ)","prefecture":"宮城県","city":"仙台市青葉区","street":"中央アエル（１０階）"},{"zipCode":"9806111","prefectureKana":"ﾐﾔｷﾞｹﾝ","cityKana":"ｾﾝﾀﾞｲｼｱｵﾊﾞｸ","streetKana":"ﾁｭｳｵｳｱｴﾙ(11ｶｲ)","prefecture":"宮城県","city":"仙台市青葉区","street":"中央アエル（１１階）"},{"zipCode":"9806112","prefectureKana":"ﾐﾔｷﾞｹﾝ","cityKana":"ｾﾝﾀﾞｲｼｱｵﾊﾞｸ","streetKana":"ﾁｭｳｵｳｱｴﾙ(12ｶｲ)","prefecture":"宮城県","city":"仙台市青葉区","street":"中央アエル（１２階）"},{"zipCode":"9806113","prefectureKana":"ﾐﾔｷﾞｹﾝ","cityKana":"ｾﾝﾀﾞｲｼｱｵﾊﾞｸ","streetKana":"ﾁｭｳｵｳｱｴﾙ(13ｶｲ)","prefecture":"宮城県","city":"仙台市青葉区","street":"中央アエル（１３階）"},{"zipCode":"9806114","prefectureKana":"ﾐﾔｷﾞｹﾝ","cityKana":"ｾﾝﾀﾞｲｼｱｵﾊﾞｸ","streetKana":"ﾁｭｳｵｳｱｴﾙ(14ｶｲ)","prefecture":"宮城県","city":"仙台市青葉区","street":"中央アエル（１４階）"},{"zipCode":"9806115","prefectureKana":"ﾐﾔｷﾞｹﾝ","cityKana":"ｾﾝﾀﾞｲｼｱｵﾊﾞｸ","streetKana":"ﾁｭｳｵｳｱｴﾙ(15ｶｲ)","prefecture":"宮城県","city":"仙台市青葉区","street":"中央アエル（１５階）"},{"zipCode":"9806116","prefectureKana":"ﾐﾔｷﾞｹﾝ","cityKana":"ｾﾝﾀﾞｲｼｱｵﾊﾞｸ","streetKana":"ﾁｭｳｵｳｱｴﾙ(16ｶｲ)","prefecture":"宮城県","city":"仙台市青葉区","street":"中央アエル（１６階）"},{"zipCode":"9806117","prefectureKana":"ﾐﾔｷﾞｹﾝ","cityKana":"ｾﾝﾀﾞｲｼｱｵﾊﾞｸ","streetKana":"ﾁｭｳｵｳｱｴﾙ(17ｶｲ)","prefecture":"宮城県","city":"仙台市青葉区","street":"中央アエル（１７階）"},{"zipCode":"9806118","prefectureKana":"ﾐﾔｷﾞｹﾝ","cityKana":"ｾﾝﾀﾞｲｼｱｵﾊﾞｸ","streetKana":"ﾁｭｳｵｳｱｴﾙ(18ｶｲ)","prefecture":"宮城県","city":"仙台市青葉区","street":"中央アエル（１８階）"},{"zipCode":"9806119","prefectureKana":"ﾐﾔｷﾞｹﾝ","cityKana":"ｾﾝﾀﾞｲｼｱｵﾊﾞｸ","streetKana":"ﾁｭｳｵｳｱｴﾙ(19ｶｲ)","prefecture":"宮城県","city":"仙台市青葉区","street":"中央アエル（１９階）"},{"zipCode":"9806120","prefectureKana":"ﾐﾔｷﾞｹﾝ","cityKana":"ｾﾝﾀﾞｲｼｱｵﾊﾞｸ","streetKana":"ﾁｭｳｵｳｱｴﾙ(20ｶｲ)","prefecture":"宮城県","city":"仙台市青葉区","street":"中央アエル（２０階）"},{"zipCode":"9806121","prefectureKana":"ﾐﾔｷﾞｹﾝ","cityKana":"ｾﾝﾀﾞｲｼｱｵﾊﾞｸ","streetKana":"ﾁｭｳｵｳｱｴﾙ(21ｶｲ)","prefecture":"宮城県","city":"仙台市青葉区","street":"中央アエル（２１階）"},{"zipCode":"9806122","prefectureKana":"ﾐﾔｷﾞｹﾝ","cityKana":"ｾﾝﾀﾞｲｼｱｵﾊﾞｸ","streetKana":"ﾁｭｳｵｳｱｴﾙ(22ｶｲ)","prefecture":"宮城県","city":"仙台市青葉区","street":"中央アエル（２２階）"},{"zipCode":"9806123","prefectureKana":"ﾐﾔｷﾞｹﾝ","cityKana":"ｾﾝﾀﾞｲｼｱｵﾊﾞｸ","streetKana":"ﾁｭｳｵｳｱｴﾙ(23ｶｲ)","prefecture":"宮城県","city":"仙台市青葉区","street":"中央アエル（２３階）"},{"zipCode":"9806124","prefectureKana":"ﾐﾔｷﾞｹﾝ","cityKana":"ｾﾝﾀﾞｲｼｱｵﾊﾞｸ","streetKana":"ﾁｭｳｵｳｱｴﾙ(24ｶｲ)","prefecture":"宮城県","city":"仙台市青葉区","street":"中央アエル（２４階）"},{"zipCode":"9806125","prefectureKana":"ﾐﾔｷﾞｹﾝ","cityKana":"ｾﾝﾀﾞｲｼｱｵﾊﾞｸ","streetKana":"ﾁｭｳｵｳｱｴﾙ(25ｶｲ)","prefecture":"宮城県","city":"仙台市青葉区","street":"中央アエル（２５階）"},{"zipCode":"9806126","prefectureKana":"ﾐﾔｷﾞｹﾝ","cityKana":"ｾﾝﾀﾞｲｼｱｵﾊﾞｸ","streetKana":"ﾁｭｳｵｳｱｴﾙ(26ｶｲ)","prefecture":"宮城県","city":"仙台市青葉区","street":"中央アエル（２６階）"},{"zipCode":"9806127","prefectureKana":"ﾐﾔｷﾞｹﾝ","cityKana":"ｾﾝﾀﾞｲｼｱｵﾊﾞｸ","streetKana":"ﾁｭｳｵｳｱｴﾙ(27ｶｲ)","prefecture":"宮城県","city":"仙台市青葉区","street":"中央アエル（２７階）"},{"zipCode":"9806128","prefectureKana":"ﾐﾔｷﾞｹﾝ","cityKana":"ｾﾝﾀﾞｲｼｱｵﾊﾞｸ","streetKana":"ﾁｭｳｵｳｱｴﾙ(28ｶｲ)","prefecture":"宮城県","city":"仙台市青葉区","street":"中央アエル（２８階）"},{"zipCode":"9806129","prefectureKana":"ﾐﾔｷﾞｹﾝ","cityKana":"ｾﾝﾀﾞｲｼｱｵﾊﾞｸ","streetKana":"ﾁｭｳｵｳｱｴﾙ(29ｶｲ)","prefecture":"宮城県","city":"仙台市青葉区","street":"中央アエル（２９階）"},{"zipCode":"9806130","prefectureKana":"ﾐﾔｷﾞｹﾝ","cityKana":"ｾﾝﾀﾞｲｼｱｵﾊﾞｸ","streetKana":"ﾁｭｳｵｳｱｴﾙ(30ｶｲ)","prefecture":"宮城県","city":"仙台市青葉区","street":"中央アエル（３０階）"},{"zipCode":"9806131","prefectureKana":"ﾐﾔｷﾞｹﾝ","cityKana":"ｾﾝﾀﾞｲｼｱｵﾊﾞｸ","streetKana":"ﾁｭｳｵｳｱｴﾙ(31ｶｲ)","prefecture":"宮城県","city":"仙台市青葉区","street":"中央アエル（３１階）"},{"zipCode":"9806090","prefectureKana":"ﾐﾔｷﾞｹﾝ","cityKana":"ｾﾝﾀﾞｲｼｱｵﾊﾞｸ","streetKana":"ﾁｭｳｵｳSS30ｽﾐﾄﾓｾｲﾒｲｾﾝﾀﾞｲﾁｭｳｵｳﾋﾞﾙ(ﾁｶｲ･ｶｲｿｳﾌﾒｲ)","prefecture":"宮城県","city":"仙台市青葉区","street":"中央ＳＳ３０住友生命仙台中央ビル（地階・階層不明）"},{"zipCode":"9806001","prefectureKana":"ﾐﾔｷﾞｹﾝ","cityKana":"ｾﾝﾀﾞｲｼｱｵﾊﾞｸ","streetKana":"ﾁｭｳｵｳSS30ｽﾐﾄﾓｾｲﾒｲｾﾝﾀﾞｲﾁｭｳｵｳﾋﾞﾙ(1ｶｲ)","prefecture":"宮城県","city":"仙台市青葉区","street":"中央ＳＳ３０住友生命仙台中央ビル（１階）"},{"zipCode":"9806002","prefectureKana":"ﾐﾔｷﾞｹﾝ","cityKana":"ｾﾝﾀﾞｲｼｱｵﾊﾞｸ","streetKana":"ﾁｭｳｵｳSS30ｽﾐﾄﾓｾｲﾒｲｾﾝﾀﾞｲﾁｭｳｵｳﾋﾞﾙ(2ｶｲ)","prefecture":"宮城県","city":"仙台市青葉区","street":"中央ＳＳ３０住友生命仙台中央ビル（２階）"},{"zipCode":"9806003","prefectureKana":"ﾐﾔｷﾞｹﾝ","cityKana":"ｾﾝﾀﾞｲｼｱｵﾊﾞｸ","streetKana":"ﾁｭｳｵｳSS30ｽﾐﾄﾓｾｲﾒｲｾﾝﾀﾞｲﾁｭｳｵｳﾋﾞﾙ(3ｶｲ)","prefecture":"宮城県","city":"仙台市青葉区","street":"中央ＳＳ３０住友生命仙台中央ビル（３階）"},{"zipCode":"9806004","prefectureKana":"ﾐﾔｷﾞｹﾝ","cityKana":"ｾﾝﾀﾞｲｼｱｵﾊﾞｸ","streetKana":"ﾁｭｳｵｳSS30ｽﾐﾄﾓｾｲﾒｲｾﾝﾀﾞｲﾁｭｳｵｳﾋﾞﾙ(4ｶｲ)","prefecture":"宮城県","city":"仙台市青葉区","street":"中央ＳＳ３０住友生命仙台中央ビル（４階）"},{"zipCode":"9806005","prefectureKana":"ﾐﾔｷﾞｹﾝ","cityKana":"ｾﾝﾀﾞｲｼｱｵﾊﾞｸ","streetKana":"ﾁｭｳｵｳSS30ｽﾐﾄﾓｾｲﾒｲｾﾝﾀﾞｲﾁｭｳｵｳﾋﾞﾙ(5ｶｲ)","prefecture":"宮城県","city":"仙台市青葉区","street":"中央ＳＳ３０住友生命仙台中央ビル（５階）"},{"zipCode":"9806006","prefectureKana":"ﾐﾔｷﾞｹﾝ","cityKana":"ｾﾝﾀﾞｲｼｱｵﾊﾞｸ","streetKana":"ﾁｭｳｵｳSS30ｽﾐﾄﾓｾｲﾒｲｾﾝﾀﾞｲﾁｭｳｵｳﾋﾞﾙ(6ｶｲ)","prefecture":"宮城県","city":"仙台市青葉区","street":"中央ＳＳ３０住友生命仙台中央ビル（６階）"},{"zipCode":"9806007","prefectureKana":"ﾐﾔｷﾞｹﾝ","cityKana":"ｾﾝﾀﾞｲｼｱｵﾊﾞｸ","streetKana":"ﾁｭｳｵｳSS30ｽﾐﾄﾓｾｲﾒｲｾﾝﾀﾞｲﾁｭｳｵｳﾋﾞﾙ(7ｶｲ)","prefecture":"宮城県","city":"仙台市青葉区","street":"中央ＳＳ３０住友生命仙台中央ビル（７階）"},{"zipCode":"9806008","prefectureKana":"ﾐﾔｷﾞｹﾝ","cityKana":"ｾﾝﾀﾞｲｼｱｵﾊﾞｸ","streetKana":"ﾁｭｳｵｳSS30ｽﾐﾄﾓｾｲﾒｲｾﾝﾀﾞｲﾁｭｳｵｳﾋﾞﾙ(8ｶｲ)","prefecture":"宮城県","city":"仙台市青葉区","street":"中央ＳＳ３０住友生命仙台中央ビル（８階）"},{"zipCode":"9806009","prefectureKana":"ﾐﾔｷﾞｹﾝ","cityKana":"ｾﾝﾀﾞｲｼｱｵﾊﾞｸ","streetKana":"ﾁｭｳｵｳSS30ｽﾐﾄﾓｾｲﾒｲｾﾝﾀﾞｲﾁｭｳｵｳﾋﾞﾙ(9ｶｲ)","prefecture":"宮城県","city":"仙台市青葉区","street":"中央ＳＳ３０住友生命仙台中央ビル（９階）"},{"zipCode":"9806010","prefectureKana":"ﾐﾔｷﾞｹﾝ","cityKana":"ｾﾝﾀﾞｲｼｱｵﾊﾞｸ","streetKana":"ﾁｭｳｵｳSS30ｽﾐﾄﾓｾｲﾒｲｾﾝﾀﾞｲﾁｭｳｵｳﾋﾞﾙ(10ｶｲ)","prefecture":"宮城県","city":"仙台市青葉区","street":"中央ＳＳ３０住友生命仙台中央ビル（１０階）"},{"zipCode":"9806011","prefectureKana":"ﾐﾔｷﾞｹﾝ","cityKana":"ｾﾝﾀﾞｲｼｱｵﾊﾞｸ","streetKana":"ﾁｭｳｵｳSS30ｽﾐﾄﾓｾｲﾒｲｾﾝﾀﾞｲﾁｭｳｵｳﾋﾞﾙ(11ｶｲ)","prefecture":"宮城県","city":"仙台市青葉区","street":"中央ＳＳ３０住友生命仙台中央ビル（１１階）"},{"zipCode":"9806012","prefectureKana":"ﾐﾔｷﾞｹﾝ","cityKana":"ｾﾝﾀﾞｲｼｱｵﾊﾞｸ","streetKana":"ﾁｭｳｵｳSS30ｽﾐﾄﾓｾｲﾒｲｾﾝﾀﾞｲﾁｭｳｵｳﾋﾞﾙ(12ｶｲ)","prefecture":"宮城県","city":"仙台市青葉区","street":"中央ＳＳ３０住友生命仙台中央ビル（１２階）"},{"zipCode":"9806013","prefectureKana":"ﾐﾔｷﾞｹﾝ","cityKana":"ｾﾝﾀﾞｲｼｱｵﾊﾞｸ","streetKana":"ﾁｭｳｵｳSS30ｽﾐﾄﾓｾｲﾒｲｾﾝﾀﾞｲﾁｭｳｵｳﾋﾞﾙ(13ｶｲ)","prefecture":"宮城県","city":"仙台市青葉区","street":"中央ＳＳ３０住友生命仙台中央ビル（１３階）"},{"zipCode":"9806014","prefectureKana":"ﾐﾔｷﾞｹﾝ","cityKana":"ｾﾝﾀﾞｲｼｱｵﾊﾞｸ","streetKana":"ﾁｭｳｵｳSS30ｽﾐﾄﾓｾｲﾒｲｾﾝﾀﾞｲﾁｭｳｵｳﾋﾞﾙ(14ｶｲ)","prefecture":"宮城県","city":"仙台市青葉区","street":"中央ＳＳ３０住友生命仙台中央ビル（１４階）"},{"zipCode":"9806015","prefectureKana":"ﾐﾔｷﾞｹﾝ","cityKana":"ｾﾝﾀﾞｲｼｱｵﾊﾞｸ","streetKana":"ﾁｭｳｵｳSS30ｽﾐﾄﾓｾｲﾒｲｾﾝﾀﾞｲﾁｭｳｵｳﾋﾞﾙ(15ｶｲ)","prefecture":"宮城県","city":"仙台市青葉区","street":"中央ＳＳ３０住友生命仙台中央ビル（１５階）"},{"zipCode":"9806016","prefectureKana":"ﾐﾔｷﾞｹﾝ","cityKana":"ｾﾝﾀﾞｲｼｱｵﾊﾞｸ","streetKana":"ﾁｭｳｵｳSS30ｽﾐﾄﾓｾｲﾒｲｾﾝﾀﾞｲﾁｭｳｵｳﾋﾞﾙ(16ｶｲ)","prefecture":"宮城県","city":"仙台市青葉区","street":"中央ＳＳ３０住友生命仙台中央ビル（１６階）"},{"zipCode":"9806017","prefectureKana":"ﾐﾔｷﾞｹﾝ","cityKana":"ｾﾝﾀﾞｲｼｱｵﾊﾞｸ","streetKana":"ﾁｭｳｵｳSS30ｽﾐﾄﾓｾｲﾒｲｾﾝﾀﾞｲﾁｭｳｵｳﾋﾞﾙ(17ｶｲ)","prefecture":"宮城県","city":"仙台市青葉区","street":"中央ＳＳ３０住友生命仙台中央ビル（１７階）"},{"zipCode":"9806018","prefectureKana":"ﾐﾔｷﾞｹﾝ","cityKana":"ｾﾝﾀﾞｲｼｱｵﾊﾞｸ","streetKana":"ﾁｭｳｵｳSS30ｽﾐﾄﾓｾｲﾒｲｾﾝﾀﾞｲﾁｭｳｵｳﾋﾞﾙ(18ｶｲ)","prefecture":"宮城県","city":"仙台市青葉区","street":"中央ＳＳ３０住友生命仙台中央ビル（１８階）"},{"zipCode":"9806019","prefectureKana":"ﾐﾔｷﾞｹﾝ","cityKana":"ｾﾝﾀﾞｲｼｱｵﾊﾞｸ","streetKana":"ﾁｭｳｵｳSS30ｽﾐﾄﾓｾｲﾒｲｾﾝﾀﾞｲﾁｭｳｵｳﾋﾞﾙ(19ｶｲ)","prefecture":"宮城県","city":"仙台市青葉区","street":"中央ＳＳ３０住友生命仙台中央ビル（１９階）"},{"zipCode":"9806020","prefectureKana":"ﾐﾔｷﾞｹﾝ","cityKana":"ｾﾝﾀﾞｲｼｱｵﾊﾞｸ","streetKana":"ﾁｭｳｵｳSS30ｽﾐﾄﾓｾｲﾒｲｾﾝﾀﾞｲﾁｭｳｵｳﾋﾞﾙ(20ｶｲ)","prefecture":"宮城県","city":"仙台市青葉区","street":"中央ＳＳ３０住友生命仙台中央ビル（２０階）"},{"zipCode":"9806021","prefectureKana":"ﾐﾔｷﾞｹﾝ","cityKana":"ｾﾝﾀﾞｲｼｱｵﾊﾞｸ","streetKana":"ﾁｭｳｵｳSS30ｽﾐﾄﾓｾｲﾒｲｾﾝﾀﾞｲﾁｭｳｵｳﾋﾞﾙ(21ｶｲ)","prefecture":"宮城県","city":"仙台市青葉区","street":"中央ＳＳ３０住友生命仙台中央ビル（２１階）"},{"zipCode":"9806022","prefectureKana":"ﾐﾔｷﾞｹﾝ","cityKana":"ｾﾝﾀﾞｲｼｱｵﾊﾞｸ","streetKana":"ﾁｭｳｵｳSS30ｽﾐﾄﾓｾｲﾒｲｾﾝﾀﾞｲﾁｭｳｵｳﾋﾞﾙ(22ｶｲ)","prefecture":"宮城県","city":"仙台市青葉区","street":"中央ＳＳ３０住友生命仙台中央ビル（２２階）"},{"zipCode":"9806023","prefectureKana":"ﾐﾔｷﾞｹﾝ","cityKana":"ｾﾝﾀﾞｲｼｱｵﾊﾞｸ","streetKana":"ﾁｭｳｵｳSS30ｽﾐﾄﾓｾｲﾒｲｾﾝﾀﾞｲﾁｭｳｵｳﾋﾞﾙ(23ｶｲ)","prefecture":"宮城県","city":"仙台市青葉区","street":"中央ＳＳ３０住友生命仙台中央ビル（２３階）"},{"zipCode":"9806024","prefectureKana":"ﾐﾔｷﾞｹﾝ","cityKana":"ｾﾝﾀﾞｲｼｱｵﾊﾞｸ","streetKana":"ﾁｭｳｵｳSS30ｽﾐﾄﾓｾｲﾒｲｾﾝﾀﾞｲﾁｭｳｵｳﾋﾞﾙ(24ｶｲ)","prefecture":"宮城県","city":"仙台市青葉区","street":"中央ＳＳ３０住友生命仙台中央ビル（２４階）"},{"zipCode":"9806025","prefectureKana":"ﾐﾔｷﾞｹﾝ","cityKana":"ｾﾝﾀﾞｲｼｱｵﾊﾞｸ","streetKana":"ﾁｭｳｵｳSS30ｽﾐﾄﾓｾｲﾒｲｾﾝﾀﾞｲﾁｭｳｵｳﾋﾞﾙ(25ｶｲ)","prefecture":"宮城県","city":"仙台市青葉区","street":"中央ＳＳ３０住友生命仙台中央ビル（２５階）"},{"zipCode":"9806026","prefectureKana":"ﾐﾔｷﾞｹﾝ","cityKana":"ｾﾝﾀﾞｲｼｱｵﾊﾞｸ","streetKana":"ﾁｭｳｵｳSS30ｽﾐﾄﾓｾｲﾒｲｾﾝﾀﾞｲﾁｭｳｵｳﾋﾞﾙ(26ｶｲ)","prefecture":"宮城県","city":"仙台市青葉区","street":"中央ＳＳ３０住友生命仙台中央ビル（２６階）"},{"zipCode":"9806027","prefectureKana":"ﾐﾔｷﾞｹﾝ","cityKana":"ｾﾝﾀﾞｲｼｱｵﾊﾞｸ","streetKana":"ﾁｭｳｵｳSS30ｽﾐﾄﾓｾｲﾒｲｾﾝﾀﾞｲﾁｭｳｵｳﾋﾞﾙ(27ｶｲ)","prefecture":"宮城県","city":"仙台市青葉区","street":"中央ＳＳ３０住友生命仙台中央ビル（２７階）"},{"zipCode":"9806028","prefectureKana":"ﾐﾔｷﾞｹﾝ","cityKana":"ｾﾝﾀﾞｲｼｱｵﾊﾞｸ","streetKana":"ﾁｭｳｵｳSS30ｽﾐﾄﾓｾｲﾒｲｾﾝﾀﾞｲﾁｭｳｵｳﾋﾞﾙ(28ｶｲ)","prefecture":"宮城県","city":"仙台市青葉区","street":"中央ＳＳ３０住友生命仙台中央ビル（２８階）"},{"zipCode":"9806029","prefectureKana":"ﾐﾔｷﾞｹﾝ","cityKana":"ｾﾝﾀﾞｲｼｱｵﾊﾞｸ","streetKana":"ﾁｭｳｵｳSS30ｽﾐﾄﾓｾｲﾒｲｾﾝﾀﾞｲﾁｭｳｵｳﾋﾞﾙ(29ｶｲ)","prefecture":"宮城県","city":"仙台市青葉区","street":"中央ＳＳ３０住友生命仙台中央ビル（２９階）"},{"zipCode":"9806030","prefectureKana":"ﾐﾔｷﾞｹﾝ","cityKana":"ｾﾝﾀﾞｲｼｱｵﾊﾞｸ","streetKana":"ﾁｭｳｵｳSS30ｽﾐﾄﾓｾｲﾒｲｾﾝﾀﾞｲﾁｭｳｵｳﾋﾞﾙ(30ｶｲ)","prefecture":"宮城県","city":"仙台市青葉区","street":"中央ＳＳ３０住友生命仙台中央ビル（３０階）"},{"zipCode":"9800065","prefectureKana":"ﾐﾔｷﾞｹﾝ","cityKana":"ｾﾝﾀﾞｲｼｱｵﾊﾞｸ","streetKana":"ﾂﾁﾄｲ(1ﾁｮｳﾒ<11ｦﾉｿﾞｸ>)","prefecture":"宮城県","city":"仙台市青葉区","street":"土樋（１丁目「１１を除く」）"},{"zipCode":"9800874","prefectureKana":"ﾐﾔｷﾞｹﾝ","cityKana":"ｾﾝﾀﾞｲｼｱｵﾊﾞｸ","streetKana":"ﾂﾉｺﾞﾛｳ","prefecture":"宮城県","city":"仙台市青葉区","street":"角五郎"},{"zipCode":"9800001","prefectureKana":"ﾐﾔｷﾞｹﾝ","cityKana":"ｾﾝﾀﾞｲｼｱｵﾊﾞｸ","streetKana":"ﾅｶｴ","prefecture":"宮城県","city":"仙台市青葉区","street":"中江"},{"zipCode":"9800012","prefectureKana":"ﾐﾔｷﾞｹﾝ","cityKana":"ｾﾝﾀﾞｲｼｱｵﾊﾞｸ","streetKana":"ﾆｼｷﾁｮｳ","prefecture":"宮城県","city":"仙台市青葉区","street":"錦町"},{"zipCode":"9800824","prefectureKana":"ﾐﾔｷﾞｹﾝ","cityKana":"ｾﾝﾀﾞｲｼｱｵﾊﾞｸ","streetKana":"ﾊｾｸﾗﾏﾁ","prefecture":"宮城県","city":"仙台市青葉区","street":"支倉町"},{"zipCode":"9800871","prefectureKana":"ﾐﾔｷﾞｹﾝ","cityKana":"ｾﾝﾀﾞｲｼｱｵﾊﾞｸ","streetKana":"ﾊﾁﾏﾝ","prefecture":"宮城県","city":"仙台市青葉区","street":"八幡"},{"zipCode":"9800873","prefectureKana":"ﾐﾔｷﾞｹﾝ","cityKana":"ｾﾝﾀﾞｲｼｱｵﾊﾞｸ","streetKana":"ﾋﾛｾﾏﾁ","prefecture":"宮城県","city":"仙台市青葉区","street":"広瀬町"},{"zipCode":"9800002","prefectureKana":"ﾐﾔｷﾞｹﾝ","cityKana":"ｾﾝﾀﾞｲｼｱｵﾊﾞｸ","streetKana":"ﾌｸｻﾞﾜﾏﾁ","prefecture":"宮城県","city":"仙台市青葉区","street":"福沢町"},{"zipCode":"9800802","prefectureKana":"ﾐﾔｷﾞｹﾝ","cityKana":"ｾﾝﾀﾞｲｼｱｵﾊﾞｸ","streetKana":"ﾌﾂｶﾏﾁ","prefecture":"宮城県","city":"仙台市青葉区","street":"二日町"},{"zipCode":"9800014","prefectureKana":"ﾐﾔｷﾞｹﾝ","cityKana":"ｾﾝﾀﾞｲｼｱｵﾊﾞｸ","streetKana":"ﾎﾝﾁｮｳ","prefecture":"宮城県","city":"仙台市青葉区","street":"本町"},{"zipCode":"9800004","prefectureKana":"ﾐﾔｷﾞｹﾝ","cityKana":"ｾﾝﾀﾞｲｼｱｵﾊﾞｸ","streetKana":"ﾐﾔﾏﾁ","prefecture":"宮城県","city":"仙台市青葉区","street":"宮町"}]