[{"zipCode":"9893211","prefectureKana":"ﾐﾔｷﾞｹﾝ","cityKana":"ｾﾝﾀﾞｲｼｱｵﾊﾞｸ","streetKana":"ｱｶｻｶ","prefecture":"宮城県","city":"仙台市青葉区","street":"赤坂"},{"zipCode":"9893128","prefectureKana":"ﾐﾔｷﾞｹﾝ","cityKana":"ｾﾝﾀﾞｲｼｱｵﾊﾞｸ","streetKana":"ｱﾔｼﾁｭｳｵｳ","prefecture":"宮城県","city":"仙台市青葉区","street":"愛子中央"},{"zipCode":"9893127","prefectureKana":"ﾐﾔｷﾞｹﾝ","cityKana":"ｾﾝﾀﾞｲｼｱｵﾊﾞｸ","streetKana":"ｱﾔｼﾋｶﾞｼ","prefecture":"宮城県","city":"仙台市青葉区","street":"愛子東"},{"zipCode":"9893212","prefectureKana":"ﾐﾔｷﾞｹﾝ","cityKana":"ｾﾝﾀﾞｲｼｱｵﾊﾞｸ","streetKana":"ｲﾓｻﾞﾜ","prefecture":"宮城県","city":"仙台市青葉区","street":"芋沢"},{"zipCode":"9893213","prefectureKana":"ﾐﾔｷﾞｹﾝ","cityKana":"ｾﾝﾀﾞｲｼｱｵﾊﾞｸ","streetKana":"ｵｵｸﾗ","prefecture":"宮城県","city":"仙台市青葉区","street":"大倉"},{"zipCode":"9893126","prefectureKana":"ﾐﾔｷﾞｹﾝ","cityKana":"ｾﾝﾀﾞｲｼｱｵﾊﾞｸ","streetKana":"ｵﾁｱｲ","prefecture":"宮城県","city":"仙台市青葉区","street":"落合"},{"zipCode":"9893124","prefectureKana":"ﾐﾔｷﾞｹﾝ","cityKana":"ｾﾝﾀﾞｲｼｱｵﾊﾞｸ","streetKana":"ｶﾐｱﾔｼ","prefecture":"宮城県","city":"仙台市青葉区","street":"上愛子"},{"zipCode":"9893201","prefectureKana":"ﾐﾔｷﾞｹﾝ","cityKana":"ｾﾝﾀﾞｲｼｱｵﾊﾞｸ","streetKana":"ｸﾆﾐｶﾞｵｶ","prefecture":"宮城県","city":"仙台市青葉区","street":"国見ケ丘"},{"zipCode":"9893432","prefectureKana":"ﾐﾔｷﾞｹﾝ","cityKana":"ｾﾝﾀﾞｲｼｱｵﾊﾞｸ","streetKana":"ｸﾏｶﾞﾈ","prefecture":"宮城県","city":"仙台市青葉区","street":"熊ケ根"},{"zipCode":"9893122","prefectureKana":"ﾐﾔｷﾞｹﾝ","cityKana":"ｾﾝﾀﾞｲｼｱｵﾊﾞｸ","streetKana":"ｸﾘｭｳ","prefecture":"宮城県","city":"仙台市青葉区","street":"栗生"},{"zipCode":"9893121","prefectureKana":"ﾐﾔｷﾞｹﾝ","cityKana":"ｾﾝﾀﾞｲｼｱｵﾊﾞｸ","streetKana":"ｺﾞｳﾛｸ","prefecture":"宮城県","city":"仙台市青葉区","street":"郷六"},{"zipCode":"9893431","prefectureKana":"ﾐﾔｷﾞｹﾝ","cityKana":"ｾﾝﾀﾞｲｼｱｵﾊﾞｸ","streetKana":"ｻｸﾅﾐ","prefecture":"宮城県","city":"仙台市青葉区","street":"作並"},{"zipCode":"9893125","prefectureKana":"ﾐﾔｷﾞｹﾝ","cityKana":"ｾﾝﾀﾞｲｼｱｵﾊﾞｸ","streetKana":"ｼﾓｱﾔｼ","prefecture":"宮城県","city":"仙台市青葉区","street":"下愛子"},{"zipCode":"9893216","prefectureKana":"ﾐﾔｷﾞｹﾝ","cityKana":"ｾﾝﾀﾞｲｼｱｵﾊﾞｸ","streetKana":"ﾀｶﾉﾊﾗ","prefecture":"宮城県","city":"仙台市青葉区","street":"高野原"},{"zipCode":"9893202","prefectureKana":"ﾐﾔｷﾞｹﾝ","cityKana":"ｾﾝﾀﾞｲｼｱｵﾊﾞｸ","streetKana":"ﾅｶﾔﾏﾀﾞｲ","prefecture":"宮城県","city":"仙台市青葉区","street":"中山台"},{"zipCode":"9893207","prefectureKana":"ﾐﾔｷﾞｹﾝ","cityKana":"ｾﾝﾀﾞｲｼｱｵﾊﾞｸ","streetKana":"ﾅｶﾔﾏﾀﾞｲﾆｼ","prefecture":"宮城県","city":"仙台市青葉区","street":"中山台西"},{"zipCode":"9893203","prefectureKana":"ﾐﾔｷﾞｹﾝ","cityKana":"ｾﾝﾀﾞｲｼｱｵﾊﾞｸ","streetKana":"ﾅｶﾔﾏﾖｼﾅﾘ","prefecture":"宮城県","city":"仙台市青葉区","street":"中山吉成"},{"zipCode":"9893123","prefectureKana":"ﾐﾔｷﾞｹﾝ","cityKana":"ｾﾝﾀﾞｲｼｱｵﾊﾞｸ","streetKana":"ﾆｼｷｶﾞｵｶ","prefecture":"宮城県","city":"仙台市青葉区","street":"錦ケ丘"},{"zipCode":"9893433","prefectureKana":"ﾐﾔｷﾞｹﾝ","cityKana":"ｾﾝﾀﾞｲｼｱｵﾊﾞｸ","streetKana":"ﾆｯｶ","prefecture":"宮城県","city":"仙台市青葉区","street":"ニツカ"},{"zipCode":"9893434","prefectureKana":"ﾐﾔｷﾞｹﾝ","cityKana":"ｾﾝﾀﾞｲｼｱｵﾊﾞｸ","streetKana":"ﾆｯｶﾜ","prefecture":"宮城県","city":"仙台市青葉区","street":"新川"},{"zipCode":"9893204","prefectureKana":"ﾐﾔｷﾞｹﾝ","cityKana":"ｾﾝﾀﾞｲｼｱｵﾊﾞｸ","streetKana":"ﾐﾅﾐﾖｼﾅﾘ","prefecture":"宮城県","city":"仙台市青葉区","street":"南吉成"},{"zipCode":"9893214","prefectureKana":"ﾐﾔｷﾞｹﾝ","cityKana":"ｾﾝﾀﾞｲｼｱｵﾊﾞｸ","streetKana":"ﾐﾔｷﾞﾀﾞｲ","prefecture":"宮城県","city":"仙台市青葉区","street":"みやぎ台"},{"zipCode":"9893215","prefectureKana":"ﾐﾔｷﾞｹﾝ","cityKana":"ｾﾝﾀﾞｲｼｱｵﾊﾞｸ","streetKana":"ﾑｶｲﾀﾞ","prefecture":"宮城県","city":"仙台市青葉区","street":"向田"},{"zipCode":"9893205","prefectureKana":"ﾐﾔｷﾞｹﾝ","cityKana":"ｾﾝﾀﾞｲｼｱｵﾊﾞｸ","streetKana":"ﾖｼﾅﾘ","prefecture":"宮城県","city":"仙台市青葉区","street":"吉成"},{"zipCode":"9893206","prefectureKana":"ﾐﾔｷﾞｹﾝ","cityKana":"ｾﾝﾀﾞｲｼｱｵﾊﾞｸ","streetKana":"ﾖｼﾅﾘﾀﾞｲ","prefecture":"宮城県","city":"仙台市青葉区","street":"吉成台"},{"zipCode":"9890200","prefectureKana":"ﾐﾔｷﾞｹﾝ","cityKana":"ｼﾛｲｼｼ","streetKana":"ｲｶﾆｹｲｻｲｶﾞﾅｲﾊﾞｱｲ","prefecture":"宮城県","city":"白石市","street":"以下に掲載がない場合"},{"zipCode":"9890223","prefectureKana":"ﾐﾔｷﾞｹﾝ","cityKana":"ｼﾛｲｼｼ","streetKana":"ｱｻﾋﾁｮｳ","prefecture":"宮城県","city":"白石市","street":"旭町"},{"zipCode":"9890228","prefectureKana":"ﾐﾔｷﾞｹﾝ","cityKana":"ｼﾛｲｼｼ","streetKana":"ｳｻｷﾞｻｸ","prefecture":"宮城県","city":"白石市","street":"兎作"},{"zipCode":"9890267","prefectureKana":"ﾐﾔｷﾞｹﾝ","cityKana":"ｼﾛｲｼｼ","streetKana":"ｴﾝﾒｲｼﾞｷﾀ","prefecture":"宮城県","city":"白石市","street":"延命寺北"},{"zipCode":"9890254","prefectureKana":"ﾐﾔｷﾞｹﾝ","cityKana":"ｼﾛｲｼｼ","streetKana":"ｵｵｶﾜﾁｮｳ","prefecture":"宮城県","city":"白石市","street":"大川町"},{"zipCode":"9890212","prefectureKana":"ﾐﾔｷﾞｹﾝ","cityKana":"ｼﾛｲｼｼ","streetKana":"ｵｵﾀｶｻﾜｵｵﾏﾁ","prefecture":"宮城県","city":"白石市","street":"大鷹沢大町"},{"zipCode":"9890211","prefectureKana":"ﾐﾔｷﾞｹﾝ","cityKana":"ｼﾛｲｼｼ","streetKana":"ｵｵﾀｶｻﾜﾀｶﾉｽ","prefecture":"宮城県","city":"白石市","street":"大鷹沢鷹巣"},{"zipCode":"9890213","prefectureKana":"ﾐﾔｷﾞｹﾝ","cityKana":"ｼﾛｲｼｼ","streetKana":"ｵｵﾀｶｻﾜﾐｻﾜ","prefecture":"宮城県","city":"白石市","street":"大鷹沢三沢"},{"zipCode":"9890214","prefectureKana":"ﾐﾔｷﾞｹﾝ","cityKana":"ｼﾛｲｼｼ","streetKana":"ｵｵﾀﾞｲﾗｻｶﾔ","prefecture":"宮城県","city":"白石市","street":"大平坂谷"},{"zipCode":"9890216","prefectureKana":"ﾐﾔｷﾞｹﾝ","cityKana":"ｼﾛｲｼｼ","streetKana":"ｵｵﾀﾞｲﾗﾅｶﾉﾒ","prefecture":"宮城県","city":"白石市","street":"大平中目"},{"zipCode":"9890217","prefectureKana":"ﾐﾔｷﾞｹﾝ","cityKana":"ｼﾛｲｼｼ","streetKana":"ｵｵﾀﾞｲﾗﾓﾘｱｲ","prefecture":"宮城県","city":"白石市","street":"大平森合"},{"zipCode":"9890276","prefectureKana":"ﾐﾔｷﾞｹﾝ","cityKana":"ｼﾛｲｼｼ","streetKana":"ｵｵﾃﾏﾁ","prefecture":"宮城県","city":"白石市","street":"大手町"},{"zipCode":"9890208","prefectureKana":"ﾐﾔｷﾞｹﾝ","cityKana":"ｼﾛｲｼｼ","streetKana":"ｵｵﾊﾀ","prefecture":"宮城県","city":"白石市","street":"大畑"},{"zipCode":"9890233","prefectureKana":"ﾐﾔｷﾞｹﾝ","cityKana":"ｼﾛｲｼｼ","streetKana":"ｵﾊﾞﾗ","prefecture":"宮城県","city":"白石市","street":"小原"},{"zipCode":"9890244","prefectureKana":"ﾐﾔｷﾞｹﾝ","cityKana":"ｼﾛｲｼｼ","streetKana":"ｶﾐｸﾎﾞ","prefecture":"宮城県","city":"白石市","street":"上久保"},{"zipCode":"9890202","prefectureKana":"ﾐﾔｷﾞｹﾝ","cityKana":"ｼﾛｲｼｼ","streetKana":"ｶﾐｾﾞｷ","prefecture":"宮城県","city":"白石市","street":"上堰"},{"zipCode":"9890262","prefectureKana":"ﾐﾔｷﾞｹﾝ","cityKana":"ｼﾛｲｼｼ","streetKana":"ｷﾀｶﾞﾜﾗ","prefecture":"宮城県","city":"白石市","street":"北川原"},{"zipCode":"9890224","prefectureKana":"ﾐﾔｷﾞｹﾝ","cityKana":"ｼﾛｲｼｼ","streetKana":"ｷﾀﾑｿｳｻｸ","prefecture":"宮城県","city":"白石市","street":"北無双作"},{"zipCode":"9890203","prefectureKana":"ﾐﾔｷﾞｹﾝ","cityKana":"ｼﾛｲｼｼ","streetKana":"ｺｵﾘﾔﾏ","prefecture":"宮城県","city":"白石市","street":"郡山"},{"zipCode":"9890201","prefectureKana":"ﾐﾔｷﾞｹﾝ","cityKana":"ｼﾛｲｼｼ","streetKana":"ｺｼﾀｸﾞﾗ","prefecture":"宮城県","city":"白石市","street":"小下倉"},{"zipCode":"9890113","prefectureKana":"ﾐﾔｷﾞｹﾝ","cityKana":"ｼﾛｲｼｼ","streetKana":"ｺｽｺﾞｳ","prefecture":"宮城県","city":"白石市","street":"越河"},{"zipCode":"9890111","prefectureKana":"ﾐﾔｷﾞｹﾝ","cityKana":"ｼﾛｲｼｼ","streetKana":"ｺｽｺﾞｳｺﾞｶ","prefecture":"宮城県","city":"白石市","street":"越河五賀"},{"zipCode":"9890112","prefectureKana":"ﾐﾔｷﾞｹﾝ","cityKana":"ｼﾛｲｼｼ","streetKana":"ｺｽｺﾞｳﾀｲﾗ","prefecture":"宮城県","city":"白石市","street":"越河平"},{"zipCode":"9890241","prefectureKana":"ﾐﾔｷﾞｹﾝ","cityKana":"ｼﾛｲｼｼ","streetKana":"ｺﾄﾌﾞｷﾔﾏ","prefecture":"宮城県","city":"白石市","street":"寿山"},{"zipCode":"9890215","prefectureKana":"ﾐﾔｷﾞｹﾝ","cityKana":"ｼﾛｲｼｼ","streetKana":"ｻｲｶﾜ","prefecture":"宮城県","city":"白石市","street":"斎川"},{"zipCode":"9890264","prefectureKana":"ﾐﾔｷﾞｹﾝ","cityKana":"ｼﾛｲｼｼ","streetKana":"ｻｲﾜｲ","prefecture":"宮城県","city":"白石市","street":"幸"},{"zipCode":"9890278","prefectureKana":"ﾐﾔｷﾞｹﾝ","cityKana":"ｼﾛｲｼｼ","streetKana":"ｻﾜﾊﾞﾀ","prefecture":"宮城県","city":"白石市","street":"沢端"},{"zipCode":"9890277","prefectureKana":"ﾐﾔｷﾞｹﾝ","cityKana":"ｼﾛｲｼｼ","streetKana":"ｻﾜﾊﾞﾀﾁｮｳ","prefecture":"宮城県","city":"白石市","street":"沢端町"},{"zipCode":"9890243","prefectureKana":"ﾐﾔｷﾞｹﾝ","cityKana":"ｼﾛｲｼｼ","streetKana":"ｻﾜﾒ","prefecture":"宮城県","city":"白石市","street":"沢目"},{"zipCode":"9890272","prefectureKana":"ﾐﾔｷﾞｹﾝ","cityKana":"ｼﾛｲｼｼ","streetKana":"ｼﾐｽﾞｺｳｼﾞ","prefecture":"宮城県","city":"白石市","street":"清水小路"},{"zipCode":"9890266","prefectureKana":"ﾐﾔｷﾞｹﾝ","cityKana":"ｼﾛｲｼｼ","streetKana":"ｼﾞｭｳｵｳﾄﾞｳﾏｴ","prefecture":"宮城県","city":"白石市","street":"十王堂前"},{"zipCode":"9890265","prefectureKana":"ﾐﾔｷﾞｹﾝ","cityKana":"ｼﾛｲｼｼ","streetKana":"ｼﾞｭｳｵｳﾄﾞｳｷﾀ","prefecture":"宮城県","city":"白石市","street":"十王堂北"},{"zipCode":"9890245","prefectureKana":"ﾐﾔｷﾞｹﾝ","cityKana":"ｼﾛｲｼｼ","streetKana":"ｼﾞｮｳﾅﾝ","prefecture":"宮城県","city":"白石市","street":"城南"},{"zipCode":"9890255","prefectureKana":"ﾐﾔｷﾞｹﾝ","cityKana":"ｼﾛｲｼｼ","streetKana":"ｼﾞｮｳﾎｸﾁｮｳ","prefecture":"宮城県","city":"白石市","street":"城北町"},{"zipCode":"9891103","prefectureKana":"ﾐﾔｷﾞｹﾝ","cityKana":"ｼﾛｲｼｼ","streetKana":"ｼﾗｶﾜｲﾇｿﾄﾊﾞ","prefecture":"宮城県","city":"白石市","street":"白川犬卒都婆"},{"zipCode":"9891104","prefectureKana":"ﾐﾔｷﾞｹﾝ","cityKana":"ｼﾛｲｼｼ","streetKana":"ｼﾗｶﾜｳﾁｵﾔ","prefecture":"宮城県","city":"白石市","street":"白川内親"},{"zipCode":"9891101","prefectureKana":"ﾐﾔｷﾞｹﾝ","cityKana":"ｼﾛｲｼｼ","streetKana":"ｼﾗｶﾜｺｵｸ","prefecture":"宮城県","city":"白石市","street":"白川小奥"},{"zipCode":"9891102","prefectureKana":"ﾐﾔｷﾞｹﾝ","cityKana":"ｼﾛｲｼｼ","streetKana":"ｼﾗｶﾜﾂﾀﾞ","prefecture":"宮城県","city":"白石市","street":"白川津田"},{"zipCode":"9890734","prefectureKana":"ﾐﾔｷﾞｹﾝ","cityKana":"ｼﾛｲｼｼ","streetKana":"ｼﾗﾄﾘ","prefecture":"宮城県","city":"白石市","street":"白鳥"},{"zipCode":"9890226","prefectureKana":"ﾐﾔｷﾞｹﾝ","cityKana":"ｼﾛｲｼｼ","streetKana":"ｼﾛｲｼｵｷ","prefecture":"宮城県","city":"白石市","street":"白石沖"},{"zipCode":"9890246","prefectureKana":"ﾐﾔｷﾞｹﾝ","cityKana":"ｼﾛｲｼｼ","streetKana":"ｼﾝﾀﾞﾃﾁｮｳ","prefecture":"宮城県","city":"白石市","street":"新館町"},{"zipCode":"9890271","prefectureKana":"ﾐﾔｷﾞｹﾝ","cityKana":"ｼﾛｲｼｼ","streetKana":"ｽﾏｽﾞｶﾞｲｹ","prefecture":"宮城県","city":"白石市","street":"不澄ケ池"},{"zipCode":"9890261","prefectureKana":"ﾐﾔｷﾞｹﾝ","cityKana":"ｼﾛｲｼｼ","streetKana":"ｿﾄｶﾞﾜﾗ","prefecture":"宮城県","city":"白石市","street":"外川原"},{"zipCode":"9890222","prefectureKana":"ﾐﾔｷﾞｹﾝ","cityKana":"ｼﾛｲｼｼ","streetKana":"ﾀｶﾉｽ","prefecture":"宮城県","city":"白石市","street":"鷹巣"},{"zipCode":"9890218","prefectureKana":"ﾐﾔｷﾞｹﾝ","cityKana":"ｼﾛｲｼｼ","streetKana":"ﾀｶﾉｽﾋｶﾞｼ","prefecture":"宮城県","city":"白石市","street":"鷹巣東"},{"zipCode":"9890220","prefectureKana":"ﾐﾔｷﾞｹﾝ","cityKana":"ｼﾛｲｼｼ","streetKana":"ﾀｶﾉｽﾆｼ","prefecture":"宮城県","city":"白石市","street":"鷹巣西"},{"zipCode":"9890227","prefectureKana":"ﾐﾔｷﾞｹﾝ","cityKana":"ｼﾛｲｼｼ","streetKana":"ﾀﾏﾁ","prefecture":"宮城県","city":"白石市","street":"田町"},{"zipCode":"9890229","prefectureKana":"ﾐﾔｷﾞｹﾝ","cityKana":"ｼﾛｲｼｼ","streetKana":"ﾁｮｳｼｶﾞﾓﾘ","prefecture":"宮城県","city":"白石市","street":"銚子ケ森"},{"zipCode":"9890206","prefectureKana":"ﾐﾔｷﾞｹﾝ","cityKana":"ｼﾛｲｼｼ","streetKana":"ﾃﾗﾔｼｷﾏｴ","prefecture":"宮城県","city":"白石市","street":"寺屋敷前"},{"zipCode":"9890207","prefectureKana":"ﾐﾔｷﾞｹﾝ","cityKana":"ｼﾛｲｼｼ","streetKana":"ﾄﾞｳﾊﾞﾏｴ","prefecture":"宮城県","city":"白石市","street":"堂場前"},{"zipCode":"9890273","prefectureKana":"ﾐﾔｷﾞｹﾝ","cityKana":"ｼﾛｲｼｼ","streetKana":"ﾅｶﾏﾁ","prefecture":"宮城県","city":"白石市","street":"中町"},{"zipCode":"9890274","prefectureKana":"ﾐﾔｷﾞｹﾝ","cityKana":"ｼﾛｲｼｼ","streetKana":"ﾅｶﾞﾏﾁ","prefecture":"宮城県","city":"白石市","street":"長町"},{"zipCode":"9890252","prefectureKana":"ﾐﾔｷﾞｹﾝ","cityKana":"ｼﾛｲｼｼ","streetKana":"ﾆｼﾏｽｵｶﾁｮｳ","prefecture":"宮城県","city":"白石市","street":"西益岡町"},{"zipCode":"9890268","prefectureKana":"ﾐﾔｷﾞｹﾝ","cityKana":"ｼﾛｲｼｼ","streetKana":"ﾈｷﾞｳﾁ","prefecture":"宮城県","city":"白石市","street":"祢宜内"},{"zipCode":"9890247","prefectureKana":"ﾐﾔｷﾞｹﾝ","cityKana":"ｼﾛｲｼｼ","streetKana":"ﾊﾁﾏﾝﾁｮｳ","prefecture":"宮城県","city":"白石市","street":"八幡町"},{"zipCode":"9890259","prefectureKana":"ﾐﾔｷﾞｹﾝ","cityKana":"ｼﾛｲｼｼ","streetKana":"ﾊﾝｻﾞﾜﾔｼｷﾏｴ","prefecture":"宮城県","city":"白石市","street":"半沢屋敷前"},{"zipCode":"9890258","prefectureKana":"ﾐﾔｷﾞｹﾝ","cityKana":"ｼﾛｲｼｼ","streetKana":"ﾊﾝｻﾞﾜﾔｼｷﾆｼ","prefecture":"宮城県","city":"白石市","street":"半沢屋敷西"},{"zipCode":"9890205","prefectureKana":"ﾐﾔｷﾞｹﾝ","cityKana":"ｼﾛｲｼｼ","streetKana":"ﾋｶﾞｼｵｵﾊﾀ","prefecture":"宮城県","city":"白石市","street":"東大畑"},{"zipCode":"9890253","prefectureKana":"ﾐﾔｷﾞｹﾝ","cityKana":"ｼﾛｲｼｼ","streetKana":"ﾋｶﾞｼｺｳｼﾞ","prefecture":"宮城県","city":"白石市","street":"東小路"},{"zipCode":"9890225","prefectureKana":"ﾐﾔｷﾞｹﾝ","cityKana":"ｼﾛｲｼｼ","streetKana":"ﾋｶﾞｼﾁｮｳ","prefecture":"宮城県","city":"白石市","street":"東町"},{"zipCode":"9890231","prefectureKana":"ﾐﾔｷﾞｹﾝ","cityKana":"ｼﾛｲｼｼ","streetKana":"ﾌｸｵｶｸﾗﾓﾄ","prefecture":"宮城県","city":"白石市","street":"福岡蔵本"},{"zipCode":"9890731","prefectureKana":"ﾐﾔｷﾞｹﾝ","cityKana":"ｼﾛｲｼｼ","streetKana":"ﾌｸｵｶﾌｶﾔ","prefecture":"宮城県","city":"白石市","street":"福岡深谷"},{"zipCode":"9890733","prefectureKana":"ﾐﾔｷﾞｹﾝ","cityKana":"ｼﾛｲｼｼ","streetKana":"ﾌｸｵｶﾔﾂﾐﾔ","prefecture":"宮城県","city":"白石市","street":"福岡八宮"},{"zipCode":"9890732","prefectureKana":"ﾐﾔｷﾞｹﾝ","cityKana":"ｼﾛｲｼｼ","streetKana":"ﾌｸｵｶﾅｶﾞﾌｸﾛ(ｶﾜﾃﾗﾔﾏ､ｾﾘｻﾞﾜ)","prefecture":"宮城県","city":"白石市","street":"福岡長袋（川寺山、芹沢）"},{"zipCode":"9890232","prefectureKana":"ﾐﾔｷﾞｹﾝ","cityKana":"ｼﾛｲｼｼ","streetKana":"ﾌｸｵｶﾅｶﾞﾌｸﾛ(ｿﾉﾀ)","prefecture":"宮城県","city":"白石市","street":"福岡長袋（その他）"},{"zipCode":"9890251","prefectureKana":"ﾐﾔｷﾞｹﾝ","cityKana":"ｼﾛｲｼｼ","streetKana":"ﾏｽｵｶﾁｮｳ","prefecture":"宮城県","city":"白石市","street":"益岡町"},{"zipCode":"9890204","prefectureKana":"ﾐﾔｷﾞｹﾝ","cityKana":"ｼﾛｲｼｼ","streetKana":"ﾏﾂｶﾞｵｶ","prefecture":"宮城県","city":"白石市","street":"松ケ丘"},{"zipCode":"9890221","prefectureKana":"ﾐﾔｷﾞｹﾝ","cityKana":"ｼﾛｲｼｼ","streetKana":"ﾐﾄﾞﾘｶﾞｵｶ","prefecture":"宮城県","city":"白石市","street":"緑が丘"},{"zipCode":"9890248","prefectureKana":"ﾐﾔｷﾞｹﾝ","cityKana":"ｼﾛｲｼｼ","streetKana":"ﾐﾅﾐﾏﾁ","prefecture":"宮城県","city":"白石市","street":"南町"},{"zipCode":"9890256","prefectureKana":"ﾐﾔｷﾞｹﾝ","cityKana":"ｼﾛｲｼｼ","streetKana":"ﾓﾄｶｼﾞｺｳｼﾞ","prefecture":"宮城県","city":"白石市","street":"本鍛冶小路"},{"zipCode":"9890275","prefectureKana":"ﾐﾔｷﾞｹﾝ","cityKana":"ｼﾛｲｼｼ","streetKana":"ﾓﾄﾏﾁ","prefecture":"宮城県","city":"白石市","street":"本町"},{"zipCode":"9890263","prefectureKana":"ﾐﾔｷﾞｹﾝ","cityKana":"ｼﾛｲｼｼ","streetKana":"ﾔﾅｷﾞｶﾞﾜﾗ","prefecture":"宮城県","city":"白石市","street":"柳川原"},{"zipCode":"9890242","prefectureKana":"ﾐﾔｷﾞｹﾝ","cityKana":"ｼﾛｲｼｼ","streetKana":"ﾔﾅｷﾞﾏﾁ","prefecture":"宮城県","city":"白石市","street":"柳町"},{"zipCode":"9890257","prefectureKana":"ﾐﾔｷﾞｹﾝ","cityKana":"ｼﾛｲｼｼ","streetKana":"ﾜﾀﾘﾏﾁ","prefecture":"宮城県","city":"白石市","street":"亘理町"},{"zipCode":"9892401","prefectureKana":"ﾐﾔｷﾞｹﾝ","cityKana":"ﾅﾄﾘｼ","streetKana":"ｼﾓﾏｽﾀﾞ(ﾐﾅﾐﾊﾗﾑﾊﾞﾝﾁ､ｾﾝﾀﾞｲｸｳｺｳｶﾝｹｲｼｾﾂ)","prefecture":"宮城県","city":"名取市","street":"下増田（南原無番地、仙台空港関係施設）"},{"zipCode":"9892412","prefectureKana":"ﾐﾔｷﾞｹﾝ","cityKana":"ﾅﾄﾘｼ","streetKana":"ﾎﾘｳﾁ","prefecture":"宮城県","city":"名取市","street":"堀内"},{"zipCode":"9892411","prefectureKana":"ﾐﾔｷﾞｹﾝ","cityKana":"ﾅﾄﾘｼ","streetKana":"ﾎﾝｺﾞｳ","prefecture":"宮城県","city":"名取市","street":"本郷"},{"zipCode":"9892400","prefectureKana":"ﾐﾔｷﾞｹﾝ","cityKana":"ｲﾜﾇﾏｼ","streetKana":"ｲｶﾆｹｲｻｲｶﾞﾅｲﾊﾞｱｲ","prefecture":"宮城県","city":"岩沼市","street":"以下に掲載がない場合"},{"zipCode":"9892431","prefectureKana":"ﾐﾔｷﾞｹﾝ","cityKana":"ｲﾜﾇﾏｼ","streetKana":"ｱｲﾉﾊﾗ","prefecture":"宮城県","city":"岩沼市","street":"相の原"},{"zipCode":"9892474","prefectureKana":"ﾐﾔｷﾞｹﾝ","cityKana":"ｲﾜﾇﾏｼ","streetKana":"ｱｻﾋ","prefecture":"宮城県","city":"岩沼市","street":"朝日"},{"zipCode":"9892478","prefectureKana":"ﾐﾔｷﾞｹﾝ","cityKana":"ｲﾜﾇﾏｼ","streetKana":"ｱｻﾋﾉ","prefecture":"宮城県","city":"岩沼市","street":"あさひ野"},{"zipCode":"9892435","prefectureKana":"ﾐﾔｷﾞｹﾝ","cityKana":"ｲﾜﾇﾏｼ","streetKana":"ｱﾌﾞｸﾏ","prefecture":"宮城県","city":"岩沼市","street":"阿武隈"},{"zipCode":"9892463","prefectureKana":"ﾐﾔｷﾞｹﾝ","cityKana":"ｲﾜﾇﾏｼ","streetKana":"ｱﾗｲ","prefecture":"宮城県","city":"岩沼市","street":"荒井"},{"zipCode":"9892443","prefectureKana":"ﾐﾔｷﾞｹﾝ","cityKana":"ｲﾜﾇﾏｼ","streetKana":"ｲﾅﾘﾁｮｳ","prefecture":"宮城県","city":"岩沼市","street":"稲荷町"},{"zipCode":"9892442","prefectureKana":"ﾐﾔｷﾞｹﾝ","cityKana":"ｲﾜﾇﾏｼ","streetKana":"ｵｵﾃﾁｮｳ","prefecture":"宮城県","city":"岩沼市","street":"大手町"},{"zipCode":"9892471","prefectureKana":"ﾐﾔｷﾞｹﾝ","cityKana":"ｲﾜﾇﾏｼ","streetKana":"ｵｶﾞﾜ","prefecture":"宮城県","city":"岩沼市","street":"小川"},{"zipCode":"9892423","prefectureKana":"ﾐﾔｷﾞｹﾝ","cityKana":"ｲﾜﾇﾏｼ","streetKana":"ｵｼﾜｹ","prefecture":"宮城県","city":"岩沼市","street":"押分"},{"zipCode":"9892472","prefectureKana":"ﾐﾔｷﾞｹﾝ","cityKana":"ｲﾜﾇﾏｼ","streetKana":"ｶｼﾞﾊﾞｼ","prefecture":"宮城県","city":"岩沼市","street":"梶橋"},{"zipCode":"9892455","prefectureKana":"ﾐﾔｷﾞｹﾝ","cityKana":"ｲﾜﾇﾏｼ","streetKana":"ｷﾀﾊｾ","prefecture":"宮城県","city":"岩沼市","street":"北長谷"},{"zipCode":"9892420","prefectureKana":"ﾐﾔｷﾞｹﾝ","cityKana":"ｲﾜﾇﾏｼ","streetKana":"ｸｳｺｳﾆｼ","prefecture":"宮城県","city":"岩沼市","street":"空港西"},{"zipCode":"9892422","prefectureKana":"ﾐﾔｷﾞｹﾝ","cityKana":"ｲﾜﾇﾏｼ","streetKana":"ｸｳｺｳﾐﾅﾐ","prefecture":"宮城県","city":"岩沼市","street":"空港南"},{"zipCode":"9892445","prefectureKana":"ﾐﾔｷﾞｹﾝ","cityKana":"ｲﾜﾇﾏｼ","streetKana":"ｸﾜﾊﾞﾗ","prefecture":"宮城県","city":"岩沼市","street":"桑原"},{"zipCode":"9892447","prefectureKana":"ﾐﾔｷﾞｹﾝ","cityKana":"ｲﾜﾇﾏｼ","streetKana":"ｸﾜﾊﾞﾗﾆｼ","prefecture":"宮城県","city":"岩沼市","street":"桑原西"},{"zipCode":"9892473","prefectureKana":"ﾐﾔｷﾞｹﾝ","cityKana":"ｲﾜﾇﾏｼ","streetKana":"ｻｶｴﾁｮｳ","prefecture":"宮城県","city":"岩沼市","street":"栄町"},{"zipCode":"9892433","prefectureKana":"ﾐﾔｷﾞｹﾝ","cityKana":"ｲﾜﾇﾏｼ","streetKana":"ｻｸﾗ","prefecture":"宮城県","city":"岩沼市","street":"桜"},{"zipCode":"9892427","prefectureKana":"ﾐﾔｷﾞｹﾝ","cityKana":"ｲﾜﾇﾏｼ","streetKana":"ｻﾄﾉﾓﾘ","prefecture":"宮城県","city":"岩沼市","street":"里の杜"},{"zipCode":"9892465","prefectureKana":"ﾐﾔｷﾞｹﾝ","cityKana":"ｲﾜﾇﾏｼ","streetKana":"ｼｶﾞ","prefecture":"宮城県","city":"岩沼市","street":"志賀"},{"zipCode":"9892476","prefectureKana":"ﾐﾔｷﾞｹﾝ","cityKana":"ｲﾜﾇﾏｼ","streetKana":"ｼｷｼﾏ","prefecture":"宮城県","city":"岩沼市","street":"敷島"},{"zipCode":"9892421","prefectureKana":"ﾐﾔｷﾞｹﾝ","cityKana":"ｲﾜﾇﾏｼ","streetKana":"ｼﾓﾉｺﾞｳ","prefecture":"宮城県","city":"岩沼市","street":"下野郷"},{"zipCode":"9892426","prefectureKana":"ﾐﾔｷﾞｹﾝ","cityKana":"ｲﾜﾇﾏｼ","streetKana":"ｽｴﾋﾛ","prefecture":"宮城県","city":"岩沼市","street":"末広"},{"zipCode":"9892453","prefectureKana":"ﾐﾔｷﾞｹﾝ","cityKana":"ｲﾜﾇﾏｼ","streetKana":"ﾀﾞｲｼｮｳﾜ","prefecture":"宮城県","city":"岩沼市","street":"大昭和"},{"zipCode":"9892452","prefectureKana":"ﾐﾔｷﾞｹﾝ","cityKana":"ｲﾜﾇﾏｼ","streetKana":"ﾀｹｸﾏ","prefecture":"宮城県","city":"岩沼市","street":"武隈"},{"zipCode":"9892459","prefectureKana":"ﾐﾔｷﾞｹﾝ","cityKana":"ｲﾜﾇﾏｼ","streetKana":"ﾀｹｸﾏ","prefecture":"宮城県","city":"岩沼市","street":"たけくま"},{"zipCode":"9892458","prefectureKana":"ﾐﾔｷﾞｹﾝ","cityKana":"ｲﾜﾇﾏｼ","streetKana":"ﾀｹﾉｻﾄ","prefecture":"宮城県","city":"岩沼市","street":"竹の里"},{"zipCode":"9892441","prefectureKana":"ﾐﾔｷﾞｹﾝ","cityKana":"ｲﾜﾇﾏｼ","streetKana":"ﾀﾃｼﾀ","prefecture":"宮城県","city":"岩沼市","street":"館下"},{"zipCode":"9892428","prefectureKana":"ﾐﾔｷﾞｹﾝ","cityKana":"ｲﾜﾇﾏｼ","streetKana":"ﾀﾏｳﾗﾆｼ","prefecture":"宮城県","city":"岩沼市","street":"玉浦西"},{"zipCode":"9892432","prefectureKana":"ﾐﾔｷﾞｹﾝ","cityKana":"ｲﾜﾇﾏｼ","streetKana":"ﾁｭｳｵｳ","prefecture":"宮城県","city":"岩沼市","street":"中央"},{"zipCode":"9892425","prefectureKana":"ﾐﾔｷﾞｹﾝ","cityKana":"ｲﾜﾇﾏｼ","streetKana":"ﾃﾗｼﾏ","prefecture":"宮城県","city":"岩沼市","street":"寺島"},{"zipCode":"9892451","prefectureKana":"ﾐﾔｷﾞｹﾝ","cityKana":"ｲﾜﾇﾏｼ","streetKana":"ﾄﾞｶﾞｻｷ","prefecture":"宮城県","city":"岩沼市","street":"土ケ崎"},{"zipCode":"9892461","prefectureKana":"ﾐﾔｷﾞｹﾝ","cityKana":"ｲﾜﾇﾏｼ","streetKana":"ﾅｶﾞｵｶ","prefecture":"宮城県","city":"岩沼市","street":"長岡"},{"zipCode":"9892446","prefectureKana":"ﾐﾔｷﾞｹﾝ","cityKana":"ｲﾜﾇﾏｼ","streetKana":"ﾆｼﾛｯｶｸ","prefecture":"宮城県","city":"岩沼市","street":"西六角"},{"zipCode":"9892424","prefectureKana":"ﾐﾔｷﾞｹﾝ","cityKana":"ｲﾜﾇﾏｼ","streetKana":"ﾊﾔﾏﾀ","prefecture":"宮城県","city":"岩沼市","street":"早股"},{"zipCode":"9892477","prefectureKana":"ﾐﾔｷﾞｹﾝ","cityKana":"ｲﾜﾇﾏｼ","streetKana":"ﾋｶﾞｼﾔﾁ","prefecture":"宮城県","city":"岩沼市","street":"東谷地"},{"zipCode":"9892457","prefectureKana":"ﾐﾔｷﾞｹﾝ","cityKana":"ｲﾜﾇﾏｼ","streetKana":"ﾋﾞｮｳﾄﾞｳ","prefecture":"宮城県","city":"岩沼市","street":"平等"},{"zipCode":"9892436","prefectureKana":"ﾐﾔｷﾞｹﾝ","cityKana":"ｲﾜﾇﾏｼ","streetKana":"ﾌｷｱｹﾞ","prefecture":"宮城県","city":"岩沼市","street":"吹上"},{"zipCode":"9892437","prefectureKana":"ﾐﾔｷﾞｹﾝ","cityKana":"ｲﾜﾇﾏｼ","streetKana":"ﾌｷｱｹﾞﾆｼ","prefecture":"宮城県","city":"岩沼市","street":"吹上西"},{"zipCode":"9892434","prefectureKana":"ﾐﾔｷﾞｹﾝ","cityKana":"ｲﾜﾇﾏｼ","streetKana":"ﾌｼﾞﾅﾐ","prefecture":"宮城県","city":"岩沼市","street":"藤浪"},{"zipCode":"9892448","prefectureKana":"ﾐﾔｷﾞｹﾝ","cityKana":"ｲﾜﾇﾏｼ","streetKana":"ﾌﾀｷ","prefecture":"宮城県","city":"岩沼市","street":"二木"},{"zipCode":"9892444","prefectureKana":"ﾐﾔｷﾞｹﾝ","cityKana":"ｲﾜﾇﾏｼ","streetKana":"ﾎﾝﾁｮｳ","prefecture":"宮城県","city":"岩沼市","street":"本町"},{"zipCode":"9892456","prefectureKana":"ﾐﾔｷﾞｹﾝ","cityKana":"ｲﾜﾇﾏｼ","streetKana":"ﾏﾂｶﾞｵｶ","prefecture":"宮城県","city":"岩沼市","street":"松ケ丘"},{"zipCode":"9892464","prefectureKana":"ﾐﾔｷﾞｹﾝ","cityKana":"ｲﾜﾇﾏｼ","streetKana":"ﾐｲﾛﾖｼ","prefecture":"宮城県","city":"岩沼市","street":"三色吉"},{"zipCode":"9892454","prefectureKana":"ﾐﾔｷﾞｹﾝ","cityKana":"ｲﾜﾇﾏｼ","streetKana":"ﾐﾅﾐﾊｾ","prefecture":"宮城県","city":"岩沼市","street":"南長谷"},{"zipCode":"9892429","prefectureKana":"ﾐﾔｷﾞｹﾝ","cityKana":"ｲﾜﾇﾏｼ","streetKana":"ﾒｸﾞﾐﾉ","prefecture":"宮城県","city":"岩沼市","street":"恵み野"},{"zipCode":"9892462","prefectureKana":"ﾐﾔｷﾞｹﾝ","cityKana":"ｲﾜﾇﾏｼ","streetKana":"ﾔﾏｻﾞｸﾗ","prefecture":"宮城県","city":"岩沼市","street":"山桜"},{"zipCode":"9892475","prefectureKana":"ﾐﾔｷﾞｹﾝ","cityKana":"ｲﾜﾇﾏｼ","streetKana":"ﾔﾏﾄ","prefecture":"宮城県","city":"岩沼市","street":"大和"},{"zipCode":"9894701","prefectureKana":"ﾐﾔｷﾞｹﾝ","cityKana":"ﾄﾒｼ","streetKana":"ｲｼｺｼﾏﾁｷﾀｺﾞｳ","prefecture":"宮城県","city":"登米市","street":"石越町北郷"},{"zipCode":"9894702","prefectureKana":"ﾐﾔｷﾞｹﾝ","cityKana":"ﾄﾒｼ","streetKana":"ｲｼｺｼﾏﾁﾋｶﾞｼｺﾞｳ","prefecture":"宮城県","city":"登米市","street":"石越町東郷"},{"zipCode":"9894703","prefectureKana":"ﾐﾔｷﾞｹﾝ","cityKana":"ﾄﾒｼ","streetKana":"ｲｼｺｼﾏﾁﾐﾅﾐｺﾞｳ","prefecture":"宮城県","city":"登米市","street":"石越町南郷"},{"zipCode":"9894601","prefectureKana":"ﾐﾔｷﾞｹﾝ","cityKana":"ﾄﾒｼ","streetKana":"ﾊｻﾏﾁｮｳﾆｯﾀ","prefecture":"宮城県","city":"登米市","street":"迫町新田"},{"zipCode":"9895403","prefectureKana":"ﾐﾔｷﾞｹﾝ","cityKana":"ｸﾘﾊﾗｼ","streetKana":"ｳｸﾞｲｽｻﾞﾜｷﾀｺﾞｳ","prefecture":"宮城県","city":"栗原市","street":"鶯沢北郷"},{"zipCode":"9895402","prefectureKana":"ﾐﾔｷﾞｹﾝ","cityKana":"ｸﾘﾊﾗｼ","streetKana":"ｳｸﾞｲｽｻﾞﾜﾅﾝｺﾞｳ","prefecture":"宮城県","city":"栗原市","street":"鶯沢南郷"},{"zipCode":"9895401","prefectureKana":"ﾐﾔｷﾞｹﾝ","cityKana":"ｸﾘﾊﾗｼ","streetKana":"ｳｸﾞｲｽｻﾞﾜﾌｸﾛ","prefecture":"宮城県","city":"栗原市","street":"鶯沢袋"},{"zipCode":"9894807","prefectureKana":"ﾐﾔｷﾞｹﾝ","cityKana":"ｸﾘﾊﾗｼ","streetKana":"ｶﾝﾅﾘｱｶﾁｺﾞ","prefecture":"宮城県","city":"栗原市","street":"金成赤児"},{"zipCode":"9895172","prefectureKana":"ﾐﾔｷﾞｹﾝ","cityKana":"ｸﾘﾊﾗｼ","streetKana":"ｶﾝﾅﾘｱﾈﾊ","prefecture":"宮城県","city":"栗原市","street":"金成姉歯"},{"zipCode":"9894806","prefectureKana":"ﾐﾔｷﾞｹﾝ","cityKana":"ｸﾘﾊﾗｼ","streetKana":"ｶﾝﾅﾘｱﾘｶﾍﾞ","prefecture":"宮城県","city":"栗原市","street":"金成有壁"},{"zipCode":"9895127","prefectureKana":"ﾐﾔｷﾞｹﾝ","cityKana":"ｸﾘﾊﾗｼ","streetKana":"ｶﾝﾅﾘｲﾅﾘﾏｴ","prefecture":"宮城県","city":"栗原市","street":"金成稲荷前"},{"zipCode":"9895142","prefectureKana":"ﾐﾔｷﾞｹﾝ","cityKana":"ｸﾘﾊﾗｼ","streetKana":"ｶﾝﾅﾘｲﾘｳﾀﾞ","prefecture":"宮城県","city":"栗原市","street":"金成入生田"},{"zipCode":"9895118","prefectureKana":"ﾐﾔｷﾞｹﾝ","cityKana":"ｸﾘﾊﾗｼ","streetKana":"ｶﾝﾅﾘｲﾘﾉｻﾜ","prefecture":"宮城県","city":"栗原市","street":"金成入ノ沢"},{"zipCode":"9895146","prefectureKana":"ﾐﾔｷﾞｹﾝ","cityKana":"ｸﾘﾊﾗｼ","streetKana":"ｶﾝﾅﾘｲﾜｲ","prefecture":"宮城県","city":"栗原市","street":"金成祝"},{"zipCode":"9895112","prefectureKana":"ﾐﾔｷﾞｹﾝ","cityKana":"ｸﾘﾊﾗｼ","streetKana":"ｶﾝﾅﾘｳﾅﾝｻﾞｷ","prefecture":"宮城県","city":"栗原市","street":"金成宇南崎"},{"zipCode":"9895119","prefectureKana":"ﾐﾔｷﾞｹﾝ","cityKana":"ｸﾘﾊﾗｼ","streetKana":"ｶﾝﾅﾘｵｲﾉｻﾞﾜ","prefecture":"宮城県","city":"栗原市","street":"金成狼ノ沢"},{"zipCode":"9895163","prefectureKana":"ﾐﾔｷﾞｹﾝ","cityKana":"ｸﾘﾊﾗｼ","streetKana":"ｶﾝﾅﾘｵｵｸﾎﾞｻﾜ","prefecture":"宮城県","city":"栗原市","street":"金成大久保沢"},{"zipCode":"9895116","prefectureKana":"ﾐﾔｷﾞｹﾝ","cityKana":"ｸﾘﾊﾗｼ","streetKana":"ｶﾝﾅﾘｵｵﾅｼ","prefecture":"宮城県","city":"栗原市","street":"金成大梨"},{"zipCode":"9895185","prefectureKana":"ﾐﾔｷﾞｹﾝ","cityKana":"ｸﾘﾊﾗｼ","streetKana":"ｶﾝﾅﾘｵｵﾊﾗｷﾞ","prefecture":"宮城県","city":"栗原市","street":"金成大原木"},{"zipCode":"9895121","prefectureKana":"ﾐﾔｷﾞｹﾝ","cityKana":"ｸﾘﾊﾗｼ","streetKana":"ｶﾝﾅﾘｵｵﾋﾗ","prefecture":"宮城県","city":"栗原市","street":"金成大平"},{"zipCode":"9895138","prefectureKana":"ﾐﾔｷﾞｹﾝ","cityKana":"ｸﾘﾊﾗｼ","streetKana":"ｶﾝﾅﾘｵｷﾅｻﾞﾜ","prefecture":"宮城県","city":"栗原市","street":"金成翁沢"},{"zipCode":"9895141","prefectureKana":"ﾐﾔｷﾞｹﾝ","cityKana":"ｸﾘﾊﾗｼ","streetKana":"ｶﾝﾅﾘｵｷﾅﾄﾞﾒ","prefecture":"宮城県","city":"栗原市","street":"金成翁留"},{"zipCode":"9895183","prefectureKana":"ﾐﾔｷﾞｹﾝ","cityKana":"ｸﾘﾊﾗｼ","streetKana":"ｶﾝﾅﾘｵﾂﾂﾐ","prefecture":"宮城県","city":"栗原市","street":"金成小堤"},{"zipCode":"9895184","prefectureKana":"ﾐﾔｷﾞｹﾝ","cityKana":"ｸﾘﾊﾗｼ","streetKana":"ｶﾝﾅﾘｵﾊﾞｻﾏ","prefecture":"宮城県","city":"栗原市","street":"金成小迫"},{"zipCode":"9894805","prefectureKana":"ﾐﾔｷﾞｹﾝ","cityKana":"ｸﾘﾊﾗｼ","streetKana":"ｶﾝﾅﾘｶﾀﾏｾ","prefecture":"宮城県","city":"栗原市","street":"金成片馬合"},{"zipCode":"9895128","prefectureKana":"ﾐﾔｷﾞｹﾝ","cityKana":"ｸﾘﾊﾗｼ","streetKana":"ｶﾝﾅﾘｶﾅﾔﾏｻﾞﾜ","prefecture":"宮城県","city":"栗原市","street":"金成金山沢"},{"zipCode":"9895115","prefectureKana":"ﾐﾔｷﾞｹﾝ","cityKana":"ｸﾘﾊﾗｼ","streetKana":"ｶﾝﾅﾘｶﾐﾄﾐﾀﾞ","prefecture":"宮城県","city":"栗原市","street":"金成上富田"},{"zipCode":"9895137","prefectureKana":"ﾐﾔｷﾞｹﾝ","cityKana":"ｸﾘﾊﾗｼ","streetKana":"ｶﾝﾅﾘｶﾐﾅｶﾞ","prefecture":"宮城県","city":"栗原市","street":"金成髪長"},{"zipCode":"9895154","prefectureKana":"ﾐﾔｷﾞｹﾝ","cityKana":"ｸﾘﾊﾗｼ","streetKana":"ｶﾝﾅﾘｶﾐﾏﾁ","prefecture":"宮城県","city":"栗原市","street":"金成上町"},{"zipCode":"9895155","prefectureKana":"ﾐﾔｷﾞｹﾝ","cityKana":"ｸﾘﾊﾗｼ","streetKana":"ｶﾝﾅﾘｶﾐﾏﾁﾆｼｳﾗ","prefecture":"宮城県","city":"栗原市","street":"金成上町西裏"},{"zipCode":"9895153","prefectureKana":"ﾐﾔｷﾞｹﾝ","cityKana":"ｸﾘﾊﾗｼ","streetKana":"ｶﾝﾅﾘｶﾐﾏﾁﾋｶﾞｼｳﾗ","prefecture":"宮城県","city":"栗原市","street":"金成上町東裏"},{"zipCode":"9895164","prefectureKana":"ﾐﾔｷﾞｹﾝ","cityKana":"ｸﾘﾊﾗｼ","streetKana":"ｶﾝﾅﾘｷﾝｾｲ","prefecture":"宮城県","city":"栗原市","street":"金成金生"},{"zipCode":"9895136","prefectureKana":"ﾐﾔｷﾞｹﾝ","cityKana":"ｸﾘﾊﾗｼ","streetKana":"ｶﾝﾅﾘｸﾏﾉｼﾀ","prefecture":"宮城県","city":"栗原市","street":"金成熊ノ下"},{"zipCode":"9895139","prefectureKana":"ﾐﾔｷﾞｹﾝ","cityKana":"ｸﾘﾊﾗｼ","streetKana":"ｶﾝﾅﾘｺｶﾞﾈﾀﾞ","prefecture":"宮城県","city":"栗原市","street":"金成黄金田"},{"zipCode":"9895151","prefectureKana":"ﾐﾔｷﾞｹﾝ","cityKana":"ｸﾘﾊﾗｼ","streetKana":"ｶﾝﾅﾘｻｸﾗﾏﾁ","prefecture":"宮城県","city":"栗原市","street":"金成桜町"},{"zipCode":"9895171","prefectureKana":"ﾐﾔｷﾞｹﾝ","cityKana":"ｸﾘﾊﾗｼ","streetKana":"ｶﾝﾅﾘｻﾜﾍﾞ","prefecture":"宮城県","city":"栗原市","street":"金成沢辺"},{"zipCode":"9895130","prefectureKana":"ﾐﾔｷﾞｹﾝ","cityKana":"ｸﾘﾊﾗｼ","streetKana":"ｶﾝﾅﾘｼﾐｽﾞﾀ","prefecture":"宮城県","city":"栗原市","street":"金成清水田"},{"zipCode":"9895114","prefectureKana":"ﾐﾔｷﾞｹﾝ","cityKana":"ｸﾘﾊﾗｼ","streetKana":"ｶﾝﾅﾘｼﾓﾄﾐﾀﾞ","prefecture":"宮城県","city":"栗原市","street":"金成下富田"},{"zipCode":"9895133","prefectureKana":"ﾐﾔｷﾞｹﾝ","cityKana":"ｸﾘﾊﾗｼ","streetKana":"ｶﾝﾅﾘｼﾝﾏﾁ","prefecture":"宮城県","city":"栗原市","street":"金成新町"},{"zipCode":"9895134","prefectureKana":"ﾐﾔｷﾞｹﾝ","cityKana":"ｸﾘﾊﾗｼ","streetKana":"ｶﾝﾅﾘｼﾝﾏﾁｳﾗ","prefecture":"宮城県","city":"栗原市","street":"金成新町裏"},{"zipCode":"9894802","prefectureKana":"ﾐﾔｷﾞｹﾝ","cityKana":"ｸﾘﾊﾗｼ","streetKana":"ｶﾝﾅﾘｽｴﾉ","prefecture":"宮城県","city":"栗原市","street":"金成末野"},{"zipCode":"9895135","prefectureKana":"ﾐﾔｷﾞｹﾝ","cityKana":"ｸﾘﾊﾗｼ","streetKana":"ｶﾝﾅﾘﾀﾞｲﾊﾀ","prefecture":"宮城県","city":"栗原市","street":"金成台畑"},{"zipCode":"9895125","prefectureKana":"ﾐﾔｷﾞｹﾝ","cityKana":"ｸﾘﾊﾗｼ","streetKana":"ｶﾝﾅﾘﾀﾞｲﾘﾝｼﾞｻﾞﾜ","prefecture":"宮城県","city":"栗原市","street":"金成大林寺沢"},{"zipCode":"9895161","prefectureKana":"ﾐﾔｷﾞｹﾝ","cityKana":"ｸﾘﾊﾗｼ","streetKana":"ｶﾝﾅﾘﾀﾃｼﾀ","prefecture":"宮城県","city":"栗原市","street":"金成館下"},{"zipCode":"9895181","prefectureKana":"ﾐﾔｷﾞｹﾝ","cityKana":"ｸﾘﾊﾗｼ","streetKana":"ｶﾝﾅﾘﾂｸﾓ","prefecture":"宮城県","city":"栗原市","street":"金成津久毛"},{"zipCode":"9895126","prefectureKana":"ﾐﾔｷﾞｹﾝ","cityKana":"ｸﾘﾊﾗｼ","streetKana":"ｶﾝﾅﾘﾂﾊﾞﾉｶﾜﾗ","prefecture":"宮城県","city":"栗原市","street":"金成鍔ノ瓦"},{"zipCode":"9895165","prefectureKana":"ﾐﾔｷﾞｹﾝ","cityKana":"ｸﾘﾊﾗｼ","streetKana":"ｶﾝﾅﾘﾅｶﾞﾀﾃ","prefecture":"宮城県","city":"栗原市","street":"金成長館"},{"zipCode":"9895162","prefectureKana":"ﾐﾔｷﾞｹﾝ","cityKana":"ｸﾘﾊﾗｼ","streetKana":"ｶﾝﾅﾘﾅｶﾞﾈｻﾞﾜ","prefecture":"宮城県","city":"栗原市","street":"金成長根沢"},{"zipCode":"9895166","prefectureKana":"ﾐﾔｷﾞｹﾝ","cityKana":"ｸﾘﾊﾗｼ","streetKana":"ｶﾝﾅﾘﾅｶﾞﾈﾏｴ","prefecture":"宮城県","city":"栗原市","street":"金成長根前"},{"zipCode":"9895144","prefectureKana":"ﾐﾔｷﾞｹﾝ","cityKana":"ｸﾘﾊﾗｼ","streetKana":"ｶﾝﾅﾘﾅｶﾏﾁ","prefecture":"宮城県","city":"栗原市","street":"金成中町"},{"zipCode":"9895145","prefectureKana":"ﾐﾔｷﾞｹﾝ","cityKana":"ｸﾘﾊﾗｼ","streetKana":"ｶﾝﾅﾘﾅｶﾏﾁﾆｼｳﾗ","prefecture":"宮城県","city":"栗原市","street":"金成中町西裏"},{"zipCode":"9895173","prefectureKana":"ﾐﾔｷﾞｹﾝ","cityKana":"ｸﾘﾊﾗｼ","streetKana":"ｶﾝﾅﾘﾅｼｻﾞｷ","prefecture":"宮城県","city":"栗原市","street":"金成梨崎"},{"zipCode":"9895117","prefectureKana":"ﾐﾔｷﾞｹﾝ","cityKana":"ｸﾘﾊﾗｼ","streetKana":"ｶﾝﾅﾘﾊﾇｷｻﾞﾜ","prefecture":"宮城県","city":"栗原市","street":"金成柧木沢"},{"zipCode":"9895111","prefectureKana":"ﾐﾔｷﾞｹﾝ","cityKana":"ｸﾘﾊﾗｼ","streetKana":"ｶﾝﾅﾘﾋﾑｶｲ","prefecture":"宮城県","city":"栗原市","street":"金成日向"},{"zipCode":"9895131","prefectureKana":"ﾐﾔｷﾞｹﾝ","cityKana":"ｸﾘﾊﾗｼ","streetKana":"ｶﾝﾅﾘﾋﾑｶｲﾀﾞ","prefecture":"宮城県","city":"栗原市","street":"金成日向田"},{"zipCode":"9894808","prefectureKana":"ﾐﾔｷﾞｹﾝ","cityKana":"ｸﾘﾊﾗｼ","streetKana":"ｶﾝﾅﾘﾌｹﾞﾝﾄﾞｳ","prefecture":"宮城県","city":"栗原市","street":"金成普賢堂"},{"zipCode":"9894803","prefectureKana":"ﾐﾔｷﾞｹﾝ","cityKana":"ｸﾘﾊﾗｼ","streetKana":"ｶﾝﾅﾘﾌｼﾞﾜﾀﾄ","prefecture":"宮城県","city":"栗原市","street":"金成藤渡戸"},{"zipCode":"9895123","prefectureKana":"ﾐﾔｷﾞｹﾝ","cityKana":"ｸﾘﾊﾗｼ","streetKana":"ｶﾝﾅﾘﾍｲｼﾞﾔｼｷ","prefecture":"宮城県","city":"栗原市","street":"金成平治屋敷"},{"zipCode":"9895143","prefectureKana":"ﾐﾔｷﾞｹﾝ","cityKana":"ｸﾘﾊﾗｼ","streetKana":"ｶﾝﾅﾘﾎｳｺｳﾀﾞ","prefecture":"宮城県","city":"栗原市","street":"金成奉公田"},{"zipCode":"9895132","prefectureKana":"ﾐﾔｷﾞｹﾝ","cityKana":"ｸﾘﾊﾗｼ","streetKana":"ｶﾝﾅﾘﾎｼﾔｻﾞﾜ","prefecture":"宮城県","city":"栗原市","street":"金成干谷沢"},{"zipCode":"9895122","prefectureKana":"ﾐﾔｷﾞｹﾝ","cityKana":"ｸﾘﾊﾗｼ","streetKana":"ｶﾝﾅﾘﾐｻﾜ","prefecture":"宮城県","city":"栗原市","street":"金成三沢"},{"zipCode":"9895113","prefectureKana":"ﾐﾔｷﾞｹﾝ","cityKana":"ｸﾘﾊﾗｼ","streetKana":"ｶﾝﾅﾘﾐﾔﾏｴ","prefecture":"宮城県","city":"栗原市","street":"金成宮前"},{"zipCode":"9895124","prefectureKana":"ﾐﾔｷﾞｹﾝ","cityKana":"ｸﾘﾊﾗｼ","streetKana":"ｶﾝﾅﾘﾔﾏﾅｶﾂﾂﾐｼﾀ","prefecture":"宮城県","city":"栗原市","street":"金成山中堤下"},{"zipCode":"9895152","prefectureKana":"ﾐﾔｷﾞｹﾝ","cityKana":"ｸﾘﾊﾗｼ","streetKana":"ｶﾝﾅﾘﾖﾂﾔｼｷ","prefecture":"宮城県","city":"栗原市","street":"金成四ツ屋敷"},{"zipCode":"9895331","prefectureKana":"ﾐﾔｷﾞｹﾝ","cityKana":"ｸﾘﾊﾗｼ","streetKana":"ｸﾘｺﾏｲｽﾞﾐｻﾞﾜ","prefecture":"宮城県","city":"栗原市","street":"栗駒泉沢"},{"zipCode":"9895341","prefectureKana":"ﾐﾔｷﾞｹﾝ","cityKana":"ｸﾘﾊﾗｼ","streetKana":"ｸﾘｺﾏｲﾅﾔｼｷ","prefecture":"宮城県","city":"栗原市","street":"栗駒稲屋敷"},{"zipCode":"9895332","prefectureKana":"ﾐﾔｷﾞｹﾝ","cityKana":"ｸﾘﾊﾗｼ","streetKana":"ｸﾘｺﾏｲﾓｿﾞﾈ","prefecture":"宮城県","city":"栗原市","street":"栗駒芋埣"},{"zipCode":"9895301","prefectureKana":"ﾐﾔｷﾞｹﾝ","cityKana":"ｸﾘﾊﾗｼ","streetKana":"ｸﾘｺﾏｲﾜｶﾞｻｷ","prefecture":"宮城県","city":"栗原市","street":"栗駒岩ケ崎"},{"zipCode":"9895333","prefectureKana":"ﾐﾔｷﾞｹﾝ","cityKana":"ｸﾘﾊﾗｼ","streetKana":"ｸﾘｺﾏｶﾀｺﾞｻﾞﾜ","prefecture":"宮城県","city":"栗原市","street":"栗駒片子沢"},{"zipCode":"9895321","prefectureKana":"ﾐﾔｷﾞｹﾝ","cityKana":"ｸﾘﾊﾗｼ","streetKana":"ｸﾘｺﾏｸﾘﾊﾞﾗ","prefecture":"宮城県","city":"栗原市","street":"栗駒栗原"},{"zipCode":"9895322","prefectureKana":"ﾐﾔｷﾞｹﾝ","cityKana":"ｸﾘﾊﾗｼ","streetKana":"ｸﾘｺﾏｻｸﾗﾀﾞ","prefecture":"宮城県","city":"栗原市","street":"栗駒桜田"},{"zipCode":"9895312","prefectureKana":"ﾐﾔｷﾞｹﾝ","cityKana":"ｸﾘﾊﾗｼ","streetKana":"ｸﾘｺﾏｻｯﾋﾟﾗｲ","prefecture":"宮城県","city":"栗原市","street":"栗駒猿飛来"},{"zipCode":"9895311","prefectureKana":"ﾐﾔｷﾞｹﾝ","cityKana":"ｸﾘﾊﾗｼ","streetKana":"ｸﾘｺﾏｻﾄﾔ","prefecture":"宮城県","city":"栗原市","street":"栗駒里谷"},{"zipCode":"9895381","prefectureKana":"ﾐﾔｷﾞｹﾝ","cityKana":"ｸﾘﾊﾗｼ","streetKana":"ｸﾘｺﾏﾄﾘｻﾜ","prefecture":"宮城県","city":"栗原市","street":"栗駒鳥沢"},{"zipCode":"9895351","prefectureKana":"ﾐﾔｷﾞｹﾝ","cityKana":"ｸﾘﾊﾗｼ","streetKana":"ｸﾘｺﾏﾅｶﾉ","prefecture":"宮城県","city":"栗原市","street":"栗駒中野"},{"zipCode":"9895371","prefectureKana":"ﾐﾔｷﾞｹﾝ","cityKana":"ｸﾘﾊﾗｼ","streetKana":"ｸﾘｺﾏﾇﾏｸﾗ","prefecture":"宮城県","city":"栗原市","street":"栗駒沼倉"},{"zipCode":"9895323","prefectureKana":"ﾐﾔｷﾞｹﾝ","cityKana":"ｸﾘﾊﾗｼ","streetKana":"ｸﾘｺﾏﾋｼﾇﾏ","prefecture":"宮城県","city":"栗原市","street":"栗駒菱沼"},{"zipCode":"9895382","prefectureKana":"ﾐﾔｷﾞｹﾝ","cityKana":"ｸﾘﾊﾗｼ","streetKana":"ｸﾘｺﾏﾌｶﾔ","prefecture":"宮城県","city":"栗原市","street":"栗駒深谷"},{"zipCode":"9895372","prefectureKana":"ﾐﾔｷﾞｹﾝ","cityKana":"ｸﾘﾊﾗｼ","streetKana":"ｸﾘｺﾏﾏﾂｸﾗ","prefecture":"宮城県","city":"栗原市","street":"栗駒松倉"},{"zipCode":"9895334","prefectureKana":"ﾐﾔｷﾞｹﾝ","cityKana":"ｸﾘﾊﾗｼ","streetKana":"ｸﾘｺﾏﾐﾈｻﾞｷ","prefecture":"宮城県","city":"栗原市","street":"栗駒嶺崎"},{"zipCode":"9895361","prefectureKana":"ﾐﾔｷﾞｹﾝ","cityKana":"ｸﾘﾊﾗｼ","streetKana":"ｸﾘｺﾏﾓﾝｼﾞ","prefecture":"宮城県","city":"栗原市","street":"栗駒文字"},{"zipCode":"9895324","prefectureKana":"ﾐﾔｷﾞｹﾝ","cityKana":"ｸﾘﾊﾗｼ","streetKana":"ｸﾘｺﾏﾔﾊﾀ","prefecture":"宮城県","city":"栗原市","street":"栗駒八幡"},{"zipCode":"9895335","prefectureKana":"ﾐﾔｷﾞｹﾝ","cityKana":"ｸﾘﾊﾗｼ","streetKana":"ｸﾘｺﾏﾜﾀﾏﾙ","prefecture":"宮城県","city":"栗原市","street":"栗駒渡丸"},{"zipCode":"9895608","prefectureKana":"ﾐﾔｷﾞｹﾝ","cityKana":"ｸﾘﾊﾗｼ","streetKana":"ｼﾜﾋﾒｱﾗﾏﾁｷﾀ","prefecture":"宮城県","city":"栗原市","street":"志波姫荒町北"},{"zipCode":"9895606","prefectureKana":"ﾐﾔｷﾞｹﾝ","cityKana":"ｸﾘﾊﾗｼ","streetKana":"ｼﾜﾋﾒｱﾗﾏﾁﾐﾅﾐ","prefecture":"宮城県","city":"栗原市","street":"志波姫荒町南"},{"zipCode":"9895603","prefectureKana":"ﾐﾔｷﾞｹﾝ","cityKana":"ｸﾘﾊﾗｼ","streetKana":"ｼﾜﾋﾒｲｽﾞﾉ","prefecture":"宮城県","city":"栗原市","street":"志波姫伊豆野"},{"zipCode":"9895601","prefectureKana":"ﾐﾔｷﾞｹﾝ","cityKana":"ｸﾘﾊﾗｼ","streetKana":"ｼﾜﾋﾒｶﾘｼｷ","prefecture":"宮城県","city":"栗原市","street":"志波姫刈敷"},{"zipCode":"9895605","prefectureKana":"ﾐﾔｷﾞｹﾝ","cityKana":"ｸﾘﾊﾗｼ","streetKana":"ｼﾜﾋﾒｷﾀｺﾞｳ","prefecture":"宮城県","city":"栗原市","street":"志波姫北郷"},{"zipCode":"9895627","prefectureKana":"ﾐﾔｷﾞｹﾝ","cityKana":"ｸﾘﾊﾗｼ","streetKana":"ｼﾜﾋﾒｷﾀﾎﾘｸﾞﾁ","prefecture":"宮城県","city":"栗原市","street":"志波姫北堀口"},{"zipCode":"9895607","prefectureKana":"ﾐﾔｷﾞｹﾝ","cityKana":"ｸﾘﾊﾗｼ","streetKana":"ｼﾜﾋﾒｸﾗﾊﾞﾐﾅﾐ","prefecture":"宮城県","city":"栗原市","street":"志波姫蔵場南"},{"zipCode":"9895621","prefectureKana":"ﾐﾔｷﾞｹﾝ","cityKana":"ｸﾘﾊﾗｼ","streetKana":"ｼﾜﾋﾒｼﾓｻﾄ","prefecture":"宮城県","city":"栗原市","street":"志波姫下里"},{"zipCode":"9895602","prefectureKana":"ﾐﾔｷﾞｹﾝ","cityKana":"ｸﾘﾊﾗｼ","streetKana":"ｼﾜﾋﾒｼﾞｮｳﾅｲﾐﾅﾐ","prefecture":"宮城県","city":"栗原市","street":"志波姫城内南"},{"zipCode":"9895616","prefectureKana":"ﾐﾔｷﾞｹﾝ","cityKana":"ｸﾘﾊﾗｼ","streetKana":"ｼﾜﾋﾒｼﾝｱｶﾞﾄ","prefecture":"宮城県","city":"栗原市","street":"志波姫新上戸"},{"zipCode":"9895612","prefectureKana":"ﾐﾔｷﾞｹﾝ","cityKana":"ｸﾘﾊﾗｼ","streetKana":"ｼﾜﾋﾒｼﾝｸﾏﾔ","prefecture":"宮城県","city":"栗原市","street":"志波姫新熊谷"},{"zipCode":"9895613","prefectureKana":"ﾐﾔｷﾞｹﾝ","cityKana":"ｸﾘﾊﾗｼ","streetKana":"ｼﾜﾋﾒｼﾝﾇﾏｻﾞｷ","prefecture":"宮城県","city":"栗原市","street":"志波姫新沼崎"},{"zipCode":"9895617","prefectureKana":"ﾐﾔｷﾞｹﾝ","cityKana":"ｸﾘﾊﾗｼ","streetKana":"ｼﾜﾋﾒｼﾝﾊｼﾓﾄ","prefecture":"宮城県","city":"栗原市","street":"志波姫新橋本"},{"zipCode":"9895614","prefectureKana":"ﾐﾔｷﾞｹﾝ","cityKana":"ｸﾘﾊﾗｼ","streetKana":"ｼﾜﾋﾒｼﾝﾊﾗ","prefecture":"宮城県","city":"栗原市","street":"志波姫新原"},{"zipCode":"9895618","prefectureKana":"ﾐﾔｷﾞｹﾝ","cityKana":"ｸﾘﾊﾗｼ","streetKana":"ｼﾜﾋﾒｼﾝﾔﾂｸﾇｷﾞ","prefecture":"宮城県","city":"栗原市","street":"志波姫新八樟"},{"zipCode":"9895604","prefectureKana":"ﾐﾔｷﾞｹﾝ","cityKana":"ｸﾘﾊﾗｼ","streetKana":"ｼﾜﾋﾒﾀﾞｲﾓﾝﾐﾅﾐ","prefecture":"宮城県","city":"栗原市","street":"志波姫大門南"},{"zipCode":"9895626","prefectureKana":"ﾐﾔｷﾞｹﾝ","cityKana":"ｸﾘﾊﾗｼ","streetKana":"ｼﾜﾋﾒﾅｶｵｷ","prefecture":"宮城県","city":"栗原市","street":"志波姫中沖"},{"zipCode":"9895615","prefectureKana":"ﾐﾔｷﾞｹﾝ","cityKana":"ｸﾘﾊﾗｼ","streetKana":"ｼﾜﾋﾒﾇﾏｻﾞｷ","prefecture":"宮城県","city":"栗原市","street":"志波姫沼崎"},{"zipCode":"9895609","prefectureKana":"ﾐﾔｷﾞｹﾝ","cityKana":"ｸﾘﾊﾗｼ","streetKana":"ｼﾜﾋﾒﾊﾅｻｷﾆｼ","prefecture":"宮城県","city":"栗原市","street":"志波姫花崎西"},{"zipCode":"9895625","prefectureKana":"ﾐﾔｷﾞｹﾝ","cityKana":"ｸﾘﾊﾗｼ","streetKana":"ｼﾜﾋﾒﾎﾘｸﾞﾁ","prefecture":"宮城県","city":"栗原市","street":"志波姫堀口"},{"zipCode":"9895611","prefectureKana":"ﾐﾔｷﾞｹﾝ","cityKana":"ｸﾘﾊﾗｼ","streetKana":"ｼﾜﾋﾒﾐﾅﾐｺﾞｳ","prefecture":"宮城県","city":"栗原市","street":"志波姫南郷"},{"zipCode":"9895624","prefectureKana":"ﾐﾔｷﾞｹﾝ","cityKana":"ｸﾘﾊﾗｼ","streetKana":"ｼﾜﾋﾒﾐﾅﾐﾎﾘｸﾞﾁ","prefecture":"宮城県","city":"栗原市","street":"志波姫南堀口"},{"zipCode":"9895623","prefectureKana":"ﾐﾔｷﾞｹﾝ","cityKana":"ｸﾘﾊﾗｼ","streetKana":"ｼﾜﾋﾒﾐﾅﾐﾔﾂｸﾇｷﾞ","prefecture":"宮城県","city":"栗原市","street":"志波姫南八樟"},{"zipCode":"9895622","prefectureKana":"ﾐﾔｷﾞｹﾝ","cityKana":"ｸﾘﾊﾗｼ","streetKana":"ｼﾜﾋﾒﾔﾂｸﾇｷﾞ","prefecture":"宮城県","city":"栗原市","street":"志波姫八樟"},{"zipCode":"9895610","prefectureKana":"ﾐﾔｷﾞｹﾝ","cityKana":"ｸﾘﾊﾗｼ","streetKana":"ｼﾜﾋﾒﾖｳｶﾞｲﾋｶﾞｼ","prefecture":"宮城県","city":"栗原市","street":"志波姫要害東"},{"zipCode":"9895619","prefectureKana":"ﾐﾔｷﾞｹﾝ","cityKana":"ｸﾘﾊﾗｼ","streetKana":"ｼﾜﾋﾒﾖｺﾐﾈｳﾗ","prefecture":"宮城県","city":"栗原市","street":"志波姫横峰浦"},{"zipCode":"9894533","prefectureKana":"ﾐﾔｷﾞｹﾝ","cityKana":"ｸﾘﾊﾗｼ","streetKana":"ｾﾐﾈｱﾀｺﾞ","prefecture":"宮城県","city":"栗原市","street":"瀬峰愛宕"},{"zipCode":"9894549","prefectureKana":"ﾐﾔｷﾞｹﾝ","cityKana":"ｸﾘﾊﾗｼ","streetKana":"ｾﾐﾈｱﾗﾏﾁ","prefecture":"宮城県","city":"栗原市","street":"瀬峰荒町"},{"zipCode":"9894534","prefectureKana":"ﾐﾔｷﾞｹﾝ","cityKana":"ｸﾘﾊﾗｼ","streetKana":"ｾﾐﾈｲｽﾞﾐﾔ","prefecture":"宮城県","city":"栗原市","street":"瀬峰泉谷"},{"zipCode":"9894535","prefectureKana":"ﾐﾔｷﾞｹﾝ","cityKana":"ｸﾘﾊﾗｼ","streetKana":"ｾﾐﾈｲｽﾞﾐﾔﾐﾅﾐ","prefecture":"宮城県","city":"栗原市","street":"瀬峰泉谷南"},{"zipCode":"9894545","prefectureKana":"ﾐﾔｷﾞｹﾝ","cityKana":"ｸﾘﾊﾗｼ","streetKana":"ｾﾐﾈｲｾﾄﾞｳ","prefecture":"宮城県","city":"栗原市","street":"瀬峰伊勢堂"},{"zipCode":"9894541","prefectureKana":"ﾐﾔｷﾞｹﾝ","cityKana":"ｸﾘﾊﾗｼ","streetKana":"ｾﾐﾈｳｼﾌﾞﾁ","prefecture":"宮城県","city":"栗原市","street":"瀬峰牛渕"},{"zipCode":"9894540","prefectureKana":"ﾐﾔｷﾞｹﾝ","cityKana":"ｸﾘﾊﾗｼ","streetKana":"ｾﾐﾈｳｼﾌﾞﾁﾏｴ","prefecture":"宮城県","city":"栗原市","street":"瀬峰牛渕前"},{"zipCode":"9894580","prefectureKana":"ﾐﾔｷﾞｹﾝ","cityKana":"ｸﾘﾊﾗｼ","streetKana":"ｾﾐﾈｵｵｻｶｲﾏｴ","prefecture":"宮城県","city":"栗原市","street":"瀬峰大境前"},{"zipCode":"9894583","prefectureKana":"ﾐﾔｷﾞｹﾝ","cityKana":"ｸﾘﾊﾗｼ","streetKana":"ｾﾐﾈｵｵｻﾞｶｲﾔﾏ","prefecture":"宮城県","city":"栗原市","street":"瀬峰大境山"},{"zipCode":"9894568","prefectureKana":"ﾐﾔｷﾞｹﾝ","cityKana":"ｸﾘﾊﾗｼ","streetKana":"ｾﾐﾈｵｵﾔｼｷ","prefecture":"宮城県","city":"栗原市","street":"瀬峰大屋敷"},{"zipCode":"9894509","prefectureKana":"ﾐﾔｷﾞｹﾝ","cityKana":"ｸﾘﾊﾗｼ","streetKana":"ｾﾐﾈｵｵﾜﾆﾔ","prefecture":"宮城県","city":"栗原市","street":"瀬峰大鰐谷"},{"zipCode":"9894588","prefectureKana":"ﾐﾔｷﾞｹﾝ","cityKana":"ｸﾘﾊﾗｼ","streetKana":"ｾﾐﾈｶﾊﾞﾓﾘ","prefecture":"宮城県","city":"栗原市","street":"瀬峰蒲盛"},{"zipCode":"9894557","prefectureKana":"ﾐﾔｷﾞｹﾝ","cityKana":"ｸﾘﾊﾗｼ","streetKana":"ｾﾐﾈｶﾐｻﾜﾀﾞ","prefecture":"宮城県","city":"栗原市","street":"瀬峰上沢田"},{"zipCode":"9894547","prefectureKana":"ﾐﾔｷﾞｹﾝ","cityKana":"ｸﾘﾊﾗｼ","streetKana":"ｾﾐﾈｶﾐﾀ","prefecture":"宮城県","city":"栗原市","street":"瀬峰神田"},{"zipCode":"9894563","prefectureKana":"ﾐﾔｷﾞｹﾝ","cityKana":"ｸﾘﾊﾗｼ","streetKana":"ｾﾐﾈｶﾐﾄﾐﾏｴ","prefecture":"宮城県","city":"栗原市","street":"瀬峰上富前"},{"zipCode":"9894566","prefectureKana":"ﾐﾔｷﾞｹﾝ","cityKana":"ｸﾘﾊﾗｼ","streetKana":"ｾﾐﾈｶﾐﾔｼｷ","prefecture":"宮城県","city":"栗原市","street":"瀬峰上屋敷"},{"zipCode":"9894505","prefectureKana":"ﾐﾔｷﾞｹﾝ","cityKana":"ｸﾘﾊﾗｼ","streetKana":"ｾﾐﾈｶﾘﾔｽｻﾞﾜ","prefecture":"宮城県","city":"栗原市","street":"瀬峰刈安沢"},{"zipCode":"9894562","prefectureKana":"ﾐﾔｷﾞｹﾝ","cityKana":"ｸﾘﾊﾗｼ","streetKana":"ｾﾐﾈｶﾜﾉﾊﾀ","prefecture":"宮城県","city":"栗原市","street":"瀬峰川ノ畑"},{"zipCode":"9894574","prefectureKana":"ﾐﾔｷﾞｹﾝ","cityKana":"ｸﾘﾊﾗｼ","streetKana":"ｾﾐﾈｷﾀﾉｻﾜ","prefecture":"宮城県","city":"栗原市","street":"瀬峰北ノ沢"},{"zipCode":"9894523","prefectureKana":"ﾐﾔｷﾞｹﾝ","cityKana":"ｸﾘﾊﾗｼ","streetKana":"ｾﾐﾈｷﾀﾔﾁ","prefecture":"宮城県","city":"栗原市","street":"瀬峰北谷地"},{"zipCode":"9894577","prefectureKana":"ﾐﾔｷﾞｹﾝ","cityKana":"ｸﾘﾊﾗｼ","streetKana":"ｾﾐﾈｸｽﾘｻﾞﾜﾆｼ","prefecture":"宮城県","city":"栗原市","street":"瀬峰薬沢西"},{"zipCode":"9894578","prefectureKana":"ﾐﾔｷﾞｹﾝ","cityKana":"ｸﾘﾊﾗｼ","streetKana":"ｾﾐﾈｸｽﾘｻﾞﾜﾋｶﾞｼ","prefecture":"宮城県","city":"栗原市","street":"瀬峰薬沢東"},{"zipCode":"9894518","prefectureKana":"ﾐﾔｷﾞｹﾝ","cityKana":"ｸﾘﾊﾗｼ","streetKana":"ｾﾐﾈｺｳｼﾞﾝﾄﾞｳ","prefecture":"宮城県","city":"栗原市","street":"瀬峰荒神堂"},{"zipCode":"9894576","prefectureKana":"ﾐﾔｷﾞｹﾝ","cityKana":"ｸﾘﾊﾗｼ","streetKana":"ｾﾐﾈｺｳﾄﾞｻﾝ","prefecture":"宮城県","city":"栗原市","street":"瀬峰高土山"},{"zipCode":"9894504","prefectureKana":"ﾐﾔｷﾞｹﾝ","cityKana":"ｸﾘﾊﾗｼ","streetKana":"ｾﾐﾈｺﾌﾞｶｻﾜ","prefecture":"宮城県","city":"栗原市","street":"瀬峰小深沢"},{"zipCode":"9894582","prefectureKana":"ﾐﾔｷﾞｹﾝ","cityKana":"ｸﾘﾊﾗｼ","streetKana":"ｾﾐﾈｻｶﾉｼﾀｳﾗ","prefecture":"宮城県","city":"栗原市","street":"瀬峰坂ノ下浦"},{"zipCode":"9894585","prefectureKana":"ﾐﾔｷﾞｹﾝ","cityKana":"ｸﾘﾊﾗｼ","streetKana":"ｾﾐﾈｻｶﾉｼﾀﾏｴｷﾀ","prefecture":"宮城県","city":"栗原市","street":"瀬峰坂ノ下前北"},{"zipCode":"9894551","prefectureKana":"ﾐﾔｷﾞｹﾝ","cityKana":"ｸﾘﾊﾗｼ","streetKana":"ｾﾐﾈｻﾝﾀﾞｲ","prefecture":"宮城県","city":"栗原市","street":"瀬峰三代"},{"zipCode":"9894508","prefectureKana":"ﾐﾔｷﾞｹﾝ","cityKana":"ｸﾘﾊﾗｼ","streetKana":"ｾﾐﾈｼﾊﾞﾉﾜｷ","prefecture":"宮城県","city":"栗原市","street":"瀬峰柴ノ脇"},{"zipCode":"9894506","prefectureKana":"ﾐﾔｷﾞｹﾝ","cityKana":"ｸﾘﾊﾗｼ","streetKana":"ｾﾐﾈｼﾐｽﾞｻﾜ","prefecture":"宮城県","city":"栗原市","street":"瀬峰清水沢"},{"zipCode":"9894584","prefectureKana":"ﾐﾔｷﾞｹﾝ","cityKana":"ｸﾘﾊﾗｼ","streetKana":"ｾﾐﾈｼﾐｽﾞﾔﾏ","prefecture":"宮城県","city":"栗原市","street":"瀬峰清水山"},{"zipCode":"9894521","prefectureKana":"ﾐﾔｷﾞｹﾝ","cityKana":"ｸﾘﾊﾗｼ","streetKana":"ｾﾐﾈｼﾓﾀﾞ","prefecture":"宮城県","city":"栗原市","street":"瀬峰下田"},{"zipCode":"9894522","prefectureKana":"ﾐﾔｷﾞｹﾝ","cityKana":"ｸﾘﾊﾗｼ","streetKana":"ｾﾐﾈｼﾓﾉﾏｴ","prefecture":"宮城県","city":"栗原市","street":"瀬峰下の前"},{"zipCode":"9894512","prefectureKana":"ﾐﾔｷﾞｹﾝ","cityKana":"ｸﾘﾊﾗｼ","streetKana":"ｾﾐﾈｼﾓﾌｼﾞｻﾜ","prefecture":"宮城県","city":"栗原市","street":"瀬峰下藤沢"},{"zipCode":"9894525","prefectureKana":"ﾐﾔｷﾞｹﾝ","cityKana":"ｸﾘﾊﾗｼ","streetKana":"ｾﾐﾈｼﾓﾔﾁ","prefecture":"宮城県","city":"栗原市","street":"瀬峰下谷地"},{"zipCode":"9894573","prefectureKana":"ﾐﾔｷﾞｹﾝ","cityKana":"ｸﾘﾊﾗｼ","streetKana":"ｾﾐﾈｼﾞｭｳｵｳﾄﾞｳﾏｴ","prefecture":"宮城県","city":"栗原市","street":"瀬峰十王堂前"},{"zipCode":"9894510","prefectureKana":"ﾐﾔｷﾞｹﾝ","cityKana":"ｸﾘﾊﾗｼ","streetKana":"ｾﾐﾈｼﾝｼﾀﾌｼﾞｻﾜ","prefecture":"宮城県","city":"栗原市","street":"瀬峰新下藤沢"},{"zipCode":"9894529","prefectureKana":"ﾐﾔｷﾞｹﾝ","cityKana":"ｸﾘﾊﾗｼ","streetKana":"ｾﾐﾈｼﾝｼﾓﾀﾞ","prefecture":"宮城県","city":"栗原市","street":"瀬峰新下田"},{"zipCode":"9894560","prefectureKana":"ﾐﾔｷﾞｹﾝ","cityKana":"ｸﾘﾊﾗｼ","streetKana":"ｾﾐﾈｼﾝﾄﾞｳﾋｶﾞｼ","prefecture":"宮城県","city":"栗原市","street":"瀬峰新道東"},{"zipCode":"9894538","prefectureKana":"ﾐﾔｷﾞｹﾝ","cityKana":"ｸﾘﾊﾗｼ","streetKana":"ｾﾐﾈｽﾜﾊﾗ","prefecture":"宮城県","city":"栗原市","street":"瀬峰諏訪原"},{"zipCode":"9894586","prefectureKana":"ﾐﾔｷﾞｹﾝ","cityKana":"ｸﾘﾊﾗｼ","streetKana":"ｾﾐﾈｿﾞｳｵｳ","prefecture":"宮城県","city":"栗原市","street":"瀬峰蔵王"},{"zipCode":"9894536","prefectureKana":"ﾐﾔｷﾞｹﾝ","cityKana":"ｸﾘﾊﾗｼ","streetKana":"ｾﾐﾈﾀﾞﾝﾉｺｼ","prefecture":"宮城県","city":"栗原市","street":"瀬峰壇ノ越"},{"zipCode":"9894503","prefectureKana":"ﾐﾔｷﾞｹﾝ","cityKana":"ｸﾘﾊﾗｼ","streetKana":"ｾﾐﾈﾁｶﾗｲｼ","prefecture":"宮城県","city":"栗原市","street":"瀬峰力石"},{"zipCode":"9894516","prefectureKana":"ﾐﾔｷﾞｹﾝ","cityKana":"ｸﾘﾊﾗｼ","streetKana":"ｾﾐﾈﾁｮｳｼﾞｬﾊﾗ","prefecture":"宮城県","city":"栗原市","street":"瀬峰長者原"},{"zipCode":"9894572","prefectureKana":"ﾐﾔｷﾞｹﾝ","cityKana":"ｸﾘﾊﾗｼ","streetKana":"ｾﾐﾈﾃﾗｳﾗ","prefecture":"宮城県","city":"栗原市","street":"瀬峰寺浦"},{"zipCode":"9894571","prefectureKana":"ﾐﾔｷﾞｹﾝ","cityKana":"ｸﾘﾊﾗｼ","streetKana":"ｾﾐﾈﾃﾗｻﾜ","prefecture":"宮城県","city":"栗原市","street":"瀬峰寺沢"},{"zipCode":"9894565","prefectureKana":"ﾐﾔｷﾞｹﾝ","cityKana":"ｸﾘﾊﾗｼ","streetKana":"ｾﾐﾈﾃﾝｼﾞﾝｼﾀ","prefecture":"宮城県","city":"栗原市","street":"瀬峰天神下"},{"zipCode":"9894531","prefectureKana":"ﾐﾔｷﾞｹﾝ","cityKana":"ｸﾘﾊﾗｼ","streetKana":"ｾﾐﾈﾄﾞｶﾞｻｷ","prefecture":"宮城県","city":"栗原市","street":"瀬峰筒ケ崎"},{"zipCode":"9894569","prefectureKana":"ﾐﾔｷﾞｹﾝ","cityKana":"ｸﾘﾊﾗｼ","streetKana":"ｾﾐﾈﾄﾞﾊﾞ","prefecture":"宮城県","city":"栗原市","street":"瀬峰筒場"},{"zipCode":"9894589","prefectureKana":"ﾐﾔｷﾞｹﾝ","cityKana":"ｸﾘﾊﾗｼ","streetKana":"ｾﾐﾈﾄﾐﾖｳｶﾞｲ","prefecture":"宮城県","city":"栗原市","street":"瀬峰富要害"},{"zipCode":"9894548","prefectureKana":"ﾐﾔｷﾞｹﾝ","cityKana":"ｸﾘﾊﾗｼ","streetKana":"ｾﾐﾈﾅｶﾞﾈ","prefecture":"宮城県","city":"栗原市","street":"瀬峰長根"},{"zipCode":"9894542","prefectureKana":"ﾐﾔｷﾞｹﾝ","cityKana":"ｸﾘﾊﾗｼ","streetKana":"ｾﾐﾈﾆｲﾎﾞﾘ","prefecture":"宮城県","city":"栗原市","street":"瀬峰新井堀"},{"zipCode":"9894543","prefectureKana":"ﾐﾔｷﾞｹﾝ","cityKana":"ｸﾘﾊﾗｼ","streetKana":"ｾﾐﾈﾆｲﾔｼｷ","prefecture":"宮城県","city":"栗原市","street":"瀬峰新井屋敷"},{"zipCode":"9894507","prefectureKana":"ﾐﾔｷﾞｹﾝ","cityKana":"ｸﾘﾊﾗｼ","streetKana":"ｾﾐﾈﾆｼﾊﾗ","prefecture":"宮城県","city":"栗原市","street":"瀬峰西原"},{"zipCode":"9894567","prefectureKana":"ﾐﾔｷﾞｹﾝ","cityKana":"ｸﾘﾊﾗｼ","streetKana":"ｾﾐﾈﾆｼﾊﾗﾏｴ","prefecture":"宮城県","city":"栗原市","street":"瀬峰西原前"},{"zipCode":"9894511","prefectureKana":"ﾐﾔｷﾞｹﾝ","cityKana":"ｸﾘﾊﾗｼ","streetKana":"ｾﾐﾈﾆｯﾀｻﾞﾜ","prefecture":"宮城県","city":"栗原市","street":"瀬峰新田沢"},{"zipCode":"9894513","prefectureKana":"ﾐﾔｷﾞｹﾝ","cityKana":"ｸﾘﾊﾗｼ","streetKana":"ｾﾐﾈﾈｷﾞｼ","prefecture":"宮城県","city":"栗原市","street":"瀬峰根岸"},{"zipCode":"9894555","prefectureKana":"ﾐﾔｷﾞｹﾝ","cityKana":"ｸﾘﾊﾗｼ","streetKana":"ｾﾐﾈﾉｻﾞﾜ","prefecture":"宮城県","city":"栗原市","street":"瀬峰野沢"},{"zipCode":"9894544","prefectureKana":"ﾐﾔｷﾞｹﾝ","cityKana":"ｸﾘﾊﾗｼ","streetKana":"ｾﾐﾈﾉｿﾞｷ","prefecture":"宮城県","city":"栗原市","street":"瀬峰除"},{"zipCode":"9894579","prefectureKana":"ﾐﾔｷﾞｹﾝ","cityKana":"ｸﾘﾊﾗｼ","streetKana":"ｾﾐﾈﾊｼﾓﾄｳﾗ","prefecture":"宮城県","city":"栗原市","street":"瀬峰橋本浦"},{"zipCode":"9894554","prefectureKana":"ﾐﾔｷﾞｹﾝ","cityKana":"ｸﾘﾊﾗｼ","streetKana":"ｾﾐﾈﾊﾗﾀ","prefecture":"宮城県","city":"栗原市","street":"瀬峰原田"},{"zipCode":"9894532","prefectureKana":"ﾐﾔｷﾞｹﾝ","cityKana":"ｸﾘﾊﾗｼ","streetKana":"ｾﾐﾈﾋｸﾞﾁﾔﾏ","prefecture":"宮城県","city":"栗原市","street":"瀬峰樋口山"},{"zipCode":"9894561","prefectureKana":"ﾐﾔｷﾞｹﾝ","cityKana":"ｸﾘﾊﾗｼ","streetKana":"ｾﾐﾈﾋﾜﾀｼ","prefecture":"宮城県","city":"栗原市","street":"瀬峰樋渡"},{"zipCode":"9894556","prefectureKana":"ﾐﾔｷﾞｹﾝ","cityKana":"ｸﾘﾊﾗｼ","streetKana":"ｾﾐﾈﾌｸﾛｻﾜ","prefecture":"宮城県","city":"栗原市","street":"瀬峰袋沢"},{"zipCode":"9894517","prefectureKana":"ﾐﾔｷﾞｹﾝ","cityKana":"ｸﾘﾊﾗｼ","streetKana":"ｾﾐﾈﾌｼﾞｻﾜｾﾐﾈ","prefecture":"宮城県","city":"栗原市","street":"瀬峰藤沢瀬嶺"},{"zipCode":"9894581","prefectureKana":"ﾐﾔｷﾞｹﾝ","cityKana":"ｸﾘﾊﾗｼ","streetKana":"ｾﾐﾈﾌｼﾞｻﾜﾖｳｶﾞｲ","prefecture":"宮城県","city":"栗原市","street":"瀬峰藤沢要害"},{"zipCode":"9894524","prefectureKana":"ﾐﾔｷﾞｹﾝ","cityKana":"ｸﾘﾊﾗｼ","streetKana":"ｾﾐﾈﾌｼﾞﾀ","prefecture":"宮城県","city":"栗原市","street":"瀬峰藤田"},{"zipCode":"9894539","prefectureKana":"ﾐﾔｷﾞｹﾝ","cityKana":"ｸﾘﾊﾗｼ","streetKana":"ｾﾐﾈﾌﾀﾂﾔ","prefecture":"宮城県","city":"栗原市","street":"瀬峰二ツ谷"},{"zipCode":"9894553","prefectureKana":"ﾐﾔｷﾞｹﾝ","cityKana":"ｸﾘﾊﾗｼ","streetKana":"ｾﾐﾈﾌﾀﾏﾀ","prefecture":"宮城県","city":"栗原市","street":"瀬峰二又"},{"zipCode":"9894537","prefectureKana":"ﾐﾔｷﾞｹﾝ","cityKana":"ｸﾘﾊﾗｼ","streetKana":"ｾﾐﾈﾌﾅﾊﾞｼ","prefecture":"宮城県","city":"栗原市","street":"瀬峰船橋"},{"zipCode":"9894575","prefectureKana":"ﾐﾔｷﾞｹﾝ","cityKana":"ｸﾘﾊﾗｼ","streetKana":"ｾﾐﾈﾏﾁﾀﾞ","prefecture":"宮城県","city":"栗原市","street":"瀬峰町田"},{"zipCode":"9894570","prefectureKana":"ﾐﾔｷﾞｹﾝ","cityKana":"ｸﾘﾊﾗｼ","streetKana":"ｾﾐﾈﾏﾁﾀﾞﾏｴ","prefecture":"宮城県","city":"栗原市","street":"瀬峰町田前"},{"zipCode":"9894526","prefectureKana":"ﾐﾔｷﾞｹﾝ","cityKana":"ｸﾘﾊﾗｼ","streetKana":"ｾﾐﾈﾐﾔｺｳｼﾞﾊﾗﾆｼ","prefecture":"宮城県","city":"栗原市","street":"瀬峰宮小路原西"},{"zipCode":"9894527","prefectureKana":"ﾐﾔｷﾞｹﾝ","cityKana":"ｸﾘﾊﾗｼ","streetKana":"ｾﾐﾈﾐﾔｺｳｼﾞﾊﾗﾋｶﾞｼ","prefecture":"宮城県","city":"栗原市","street":"瀬峰宮小路原東"},{"zipCode":"9894552","prefectureKana":"ﾐﾔｷﾞｹﾝ","cityKana":"ｸﾘﾊﾗｼ","streetKana":"ｾﾐﾈﾐﾔﾀ","prefecture":"宮城県","city":"栗原市","street":"瀬峰宮田"},{"zipCode":"9894515","prefectureKana":"ﾐﾔｷﾞｹﾝ","cityKana":"ｸﾘﾊﾗｼ","streetKana":"ｾﾐﾈﾓﾉｳﾀ","prefecture":"宮城県","city":"栗原市","street":"瀬峰桃生田"},{"zipCode":"9894514","prefectureKana":"ﾐﾔｷﾞｹﾝ","cityKana":"ｸﾘﾊﾗｼ","streetKana":"ｾﾐﾈﾓﾉｳﾀﾏｴ","prefecture":"宮城県","city":"栗原市","street":"瀬峰桃生田前"},{"zipCode":"9894587","prefectureKana":"ﾐﾔｷﾞｹﾝ","cityKana":"ｸﾘﾊﾗｼ","streetKana":"ｾﾐﾈﾔｸｼﾄﾞｳﾏｴ","prefecture":"宮城県","city":"栗原市","street":"瀬峰薬師堂前"},{"zipCode":"9894564","prefectureKana":"ﾐﾔｷﾞｹﾝ","cityKana":"ｸﾘﾊﾗｼ","streetKana":"ｾﾐﾈﾔﾁﾀ","prefecture":"宮城県","city":"栗原市","street":"瀬峰谷地田"},{"zipCode":"9894528","prefectureKana":"ﾐﾔｷﾞｹﾝ","cityKana":"ｸﾘﾊﾗｼ","streetKana":"ｾﾐﾈﾔﾏｻﾞｷﾏｴ","prefecture":"宮城県","city":"栗原市","street":"瀬峰山崎前"},{"zipCode":"9894519","prefectureKana":"ﾐﾔｷﾞｹﾝ","cityKana":"ｸﾘﾊﾗｼ","streetKana":"ｾﾐﾈﾖｺﾓﾘﾏｴ","prefecture":"宮城県","city":"栗原市","street":"瀬峰横森前"},{"zipCode":"9894546","prefectureKana":"ﾐﾔｷﾞｹﾝ","cityKana":"ｸﾘﾊﾗｼ","streetKana":"ｾﾐﾈﾖﾂﾀﾞﾝ","prefecture":"宮城県","city":"栗原市","street":"瀬峰四ツ壇"},{"zipCode":"9896701","prefectureKana":"ﾐﾔｷﾞｹﾝ","cityKana":"ｸﾘﾊﾗｼ","streetKana":"ﾊﾅﾔﾏｸｻｷｻﾜｳﾜﾊﾗ","prefecture":"宮城県","city":"栗原市","street":"花山草木沢上原"},{"zipCode":"9895507","prefectureKana":"ﾐﾔｷﾞｹﾝ","cityKana":"ｸﾘﾊﾗｼ","streetKana":"ﾜｶﾔﾅｷﾞｱﾘｶﾞ","prefecture":"宮城県","city":"栗原市","street":"若柳有賀"},{"zipCode":"9895506","prefectureKana":"ﾐﾔｷﾞｹﾝ","cityKana":"ｸﾘﾊﾗｼ","streetKana":"ﾜｶﾔﾅｷﾞｵｵﾊﾔｼ","prefecture":"宮城県","city":"栗原市","street":"若柳大林"},{"zipCode":"9895509","prefectureKana":"ﾐﾔｷﾞｹﾝ","cityKana":"ｸﾘﾊﾗｼ","streetKana":"ﾜｶﾔﾅｷﾞｵｵﾊﾔｼｼﾝﾃﾗｳﾗ","prefecture":"宮城県","city":"栗原市","street":"若柳大林新寺浦"},{"zipCode":"9895504","prefectureKana":"ﾐﾔｷﾞｹﾝ","cityKana":"ｸﾘﾊﾗｼ","streetKana":"ﾜｶﾔﾅｷﾞｶﾐﾊﾀｵｶ","prefecture":"宮城県","city":"栗原市","street":"若柳上畑岡"},{"zipCode":"9895501","prefectureKana":"ﾐﾔｷﾞｹﾝ","cityKana":"ｸﾘﾊﾗｼ","streetKana":"ﾜｶﾔﾅｷﾞｶﾜｷﾀ","prefecture":"宮城県","city":"栗原市","street":"若柳川北"},{"zipCode":"9895502","prefectureKana":"ﾐﾔｷﾞｹﾝ","cityKana":"ｸﾘﾊﾗｼ","streetKana":"ﾜｶﾔﾅｷﾞｶﾜﾐﾅﾐ","prefecture":"宮城県","city":"栗原市","street":"若柳川南"},{"zipCode":"9895503","prefectureKana":"ﾐﾔｷﾞｹﾝ","cityKana":"ｸﾘﾊﾗｼ","streetKana":"ﾜｶﾔﾅｷﾞｼﾓﾊﾀｵｶ","prefecture":"宮城県","city":"栗原市","street":"若柳下畑岡"},{"zipCode":"9895505","prefectureKana":"ﾐﾔｷﾞｹﾝ","cityKana":"ｸﾘﾊﾗｼ","streetKana":"ﾜｶﾔﾅｷﾞﾌｸｵｶ","prefecture":"宮城県","city":"栗原市","street":"若柳福岡"},{"zipCode":"9895508","prefectureKana":"ﾐﾔｷﾞｹﾝ","cityKana":"ｸﾘﾊﾗｼ","streetKana":"ﾜｶﾔﾅｷﾞﾑﾔﾘ","prefecture":"宮城県","city":"栗原市","street":"若柳武鎗"},{"zipCode":"9896100","prefectureKana":"ﾐﾔｷﾞｹﾝ","cityKana":"ｵｵｻｷｼ","streetKana":"ｲｶﾆｹｲｻｲｶﾞﾅｲﾊﾞｱｲ","prefecture":"宮城県","city":"大崎市","street":"以下に掲載がない場合"},{"zipCode":"9896463","prefectureKana":"ﾐﾔｷﾞｹﾝ","cityKana":"ｵｵｻｷｼ","streetKana":"ｲﾜﾃﾞﾔﾏｱｹﾋﾞｻﾞﾜ","prefecture":"宮城県","city":"大崎市","street":"岩出山木通沢"},{"zipCode":"9896405","prefectureKana":"ﾐﾔｷﾞｹﾝ","cityKana":"ｵｵｻｷｼ","streetKana":"ｲﾜﾃﾞﾔﾏｲｹﾂｷ","prefecture":"宮城県","city":"大崎市","street":"岩出山池月"},{"zipCode":"9896435","prefectureKana":"ﾐﾔｷﾞｹﾝ","cityKana":"ｵｵｻｷｼ","streetKana":"ｲﾜﾃﾞﾔﾏｳﾗｺｳｼﾞ","prefecture":"宮城県","city":"大崎市","street":"岩出山浦小路"},{"zipCode":"9896447","prefectureKana":"ﾐﾔｷﾞｹﾝ","cityKana":"ｵｵｻｷｼ","streetKana":"ｲﾜﾃﾞﾔﾏｶﾐｶﾈｻﾞﾜ","prefecture":"宮城県","city":"大崎市","street":"岩出山上金沢"},{"zipCode":"9896432","prefectureKana":"ﾐﾔｷﾞｹﾝ","cityKana":"ｵｵｻｷｼ","streetKana":"ｲﾜﾃﾞﾔﾏｶﾐｶﾜﾗｷﾀ","prefecture":"宮城県","city":"大崎市","street":"岩出山上川原北"},{"zipCode":"9896433","prefectureKana":"ﾐﾔｷﾞｹﾝ","cityKana":"ｵｵｻｷｼ","streetKana":"ｲﾜﾃﾞﾔﾏｶﾐｶﾜﾗﾏﾁ","prefecture":"宮城県","city":"大崎市","street":"岩出山上川原町"},{"zipCode":"9896431","prefectureKana":"ﾐﾔｷﾞｹﾝ","cityKana":"ｵｵｻｷｼ","streetKana":"ｲﾜﾃﾞﾔﾏｶﾐｶﾜﾗﾐﾅﾐ","prefecture":"宮城県","city":"大崎市","street":"岩出山上川原南"},{"zipCode":"9896465","prefectureKana":"ﾐﾔｷﾞｹﾝ","cityKana":"ｵｵｻｷｼ","streetKana":"ｲﾜﾃﾞﾔﾏｶﾐﾄｳｼｮｳｼﾞｻﾞﾜ","prefecture":"宮城県","city":"大崎市","street":"岩出山上東昌寺沢"},{"zipCode":"9896421","prefectureKana":"ﾐﾔｷﾞｹﾝ","cityKana":"ｵｵｻｷｼ","streetKana":"ｲﾜﾃﾞﾔﾏｶﾐﾅｶｴ","prefecture":"宮城県","city":"大崎市","street":"岩出山上中江"},{"zipCode":"9896403","prefectureKana":"ﾐﾔｷﾞｹﾝ","cityKana":"ｵｵｻｷｼ","streetKana":"ｲﾜﾃﾞﾔﾏｶﾐﾉﾒ","prefecture":"宮城県","city":"大崎市","street":"岩出山上野目"},{"zipCode":"9896404","prefectureKana":"ﾐﾔｷﾞｹﾝ","cityKana":"ｵｵｻｷｼ","streetKana":"ｲﾜﾃﾞﾔﾏｼﾓｲﾁｸﾘ","prefecture":"宮城県","city":"大崎市","street":"岩出山下一栗"},{"zipCode":"9896442","prefectureKana":"ﾐﾔｷﾞｹﾝ","cityKana":"ｵｵｻｷｼ","streetKana":"ｲﾜﾃﾞﾔﾏｼﾓｶﾈｻﾞﾜ","prefecture":"宮城県","city":"大崎市","street":"岩出山下金沢"},{"zipCode":"9896414","prefectureKana":"ﾐﾔｷﾞｹﾝ","cityKana":"ｵｵｻｷｼ","streetKana":"ｲﾜﾃﾞﾔﾏｼﾓｶﾜﾗ","prefecture":"宮城県","city":"大崎市","street":"岩出山下川原"},{"zipCode":"9896434","prefectureKana":"ﾐﾔｷﾞｹﾝ","cityKana":"ｵｵｻｷｼ","streetKana":"ｲﾜﾃﾞﾔﾏｼﾓｶﾜﾗﾏﾁ","prefecture":"宮城県","city":"大崎市","street":"岩出山下川原町"},{"zipCode":"9896464","prefectureKana":"ﾐﾔｷﾞｹﾝ","cityKana":"ｵｵｻｷｼ","streetKana":"ｲﾜﾃﾞﾔﾏｼﾓﾄｳｼｮｳｼﾞｻﾜ","prefecture":"宮城県","city":"大崎市","street":"岩出山下東昌寺沢"},{"zipCode":"9896412","prefectureKana":"ﾐﾔｷﾞｹﾝ","cityKana":"ｵｵｻｷｼ","streetKana":"ｲﾜﾃﾞﾔﾏｼﾓﾉﾒ","prefecture":"宮城県","city":"大崎市","street":"岩出山下野目"},{"zipCode":"9896422","prefectureKana":"ﾐﾔｷﾞｹﾝ","cityKana":"ｵｵｻｷｼ","streetKana":"ｲﾜﾃﾞﾔﾏｼﾞｭｳｿﾞｳ","prefecture":"宮城県","city":"大崎市","street":"岩出山重蔵"},{"zipCode":"9896437","prefectureKana":"ﾐﾔｷﾞｹﾝ","cityKana":"ｵｵｻｷｼ","streetKana":"ｲﾜﾃﾞﾔﾏｼﾛﾔﾏ","prefecture":"宮城県","city":"大崎市","street":"岩出山城山"},{"zipCode":"9896446","prefectureKana":"ﾐﾔｷﾞｹﾝ","cityKana":"ｵｵｻｷｼ","streetKana":"ｲﾜﾃﾞﾔﾏﾀﾞｲｶﾞｸﾏﾁ","prefecture":"宮城県","city":"大崎市","street":"岩出山大学町"},{"zipCode":"9896441","prefectureKana":"ﾐﾔｷﾞｹﾝ","cityKana":"ｵｵｻｷｼ","streetKana":"ｲﾜﾃﾞﾔﾏﾄｵﾘﾁｮｳ","prefecture":"宮城県","city":"大崎市","street":"岩出山通丁"},{"zipCode":"9896443","prefectureKana":"ﾐﾔｷﾞｹﾝ","cityKana":"ｵｵｻｷｼ","streetKana":"ｲﾜﾃﾞﾔﾏﾄﾄﾞﾛｷ","prefecture":"宮城県","city":"大崎市","street":"岩出山轟"},{"zipCode":"9896425","prefectureKana":"ﾐﾔｷﾞｹﾝ","cityKana":"ｵｵｻｷｼ","streetKana":"ｲﾜﾃﾞﾔﾏﾆｼｵﾅｶｹ","prefecture":"宮城県","city":"大崎市","street":"岩出山西御名掛"},{"zipCode":"9896436","prefectureKana":"ﾐﾔｷﾞｹﾝ","cityKana":"ｵｵｻｷｼ","streetKana":"ｲﾜﾃﾞﾔﾏﾆﾉｶﾏｴ","prefecture":"宮城県","city":"大崎市","street":"岩出山二ノ構"},{"zipCode":"9896426","prefectureKana":"ﾐﾔｷﾞｹﾝ","cityKana":"ｵｵｻｷｼ","streetKana":"ｲﾜﾃﾞﾔﾏﾋｶﾞｼｵﾅｶｹ","prefecture":"宮城県","city":"大崎市","street":"岩出山東御名掛"},{"zipCode":"9896415","prefectureKana":"ﾐﾔｷﾞｹﾝ","cityKana":"ｵｵｻｷｼ","streetKana":"ｲﾜﾃﾞﾔﾏﾋｶﾞｼｶﾜﾗ","prefecture":"宮城県","city":"大崎市","street":"岩出山東川原"},{"zipCode":"9896413","prefectureKana":"ﾐﾔｷﾞｹﾝ","cityKana":"ｵｵｻｷｼ","streetKana":"ｲﾜﾃﾞﾔﾏﾋｶﾞｼｶﾜﾗﾏﾁ","prefecture":"宮城県","city":"大崎市","street":"岩出山東川原町"},{"zipCode":"9896462","prefectureKana":"ﾐﾔｷﾞｹﾝ","cityKana":"ｵｵｻｷｼ","streetKana":"ｲﾜﾃﾞﾔﾏﾋﾙｻﾜ","prefecture":"宮城県","city":"大崎市","street":"岩出山蛭沢"},{"zipCode":"9896411","prefectureKana":"ﾐﾔｷﾞｹﾝ","cityKana":"ｵｵｻｷｼ","streetKana":"ｲﾜﾃﾞﾔﾏﾌﾅﾊﾞ","prefecture":"宮城県","city":"大崎市","street":"岩出山船場"},{"zipCode":"9896444","prefectureKana":"ﾐﾔｷﾞｹﾝ","cityKana":"ｵｵｻｷｼ","streetKana":"ｲﾜﾃﾞﾔﾏﾎｿﾐﾈ","prefecture":"宮城県","city":"大崎市","street":"岩出山細峯"},{"zipCode":"9896466","prefectureKana":"ﾐﾔｷﾞｹﾝ","cityKana":"ｵｵｻｷｼ","streetKana":"ｲﾜﾃﾞﾔﾏﾎﾄﾞｻﾜ","prefecture":"宮城県","city":"大崎市","street":"岩出山保土沢"},{"zipCode":"9896423","prefectureKana":"ﾐﾔｷﾞｹﾝ","cityKana":"ｵｵｻｷｼ","streetKana":"ｲﾜﾃﾞﾔﾏﾏｴﾋﾞｼｬﾓﾝ","prefecture":"宮城県","city":"大崎市","street":"岩出山前毘沙門"},{"zipCode":"9896461","prefectureKana":"ﾐﾔｷﾞｹﾝ","cityKana":"ｵｵｻｷｼ","streetKana":"ｲﾜﾃﾞﾔﾏﾏﾂｻﾜ","prefecture":"宮城県","city":"大崎市","street":"岩出山松沢"},{"zipCode":"9896424","prefectureKana":"ﾐﾔｷﾞｹﾝ","cityKana":"ｵｵｻｷｼ","streetKana":"ｲﾜﾃﾞﾔﾏﾏﾙﾔﾏ","prefecture":"宮城県","city":"大崎市","street":"岩出山丸山"},{"zipCode":"9896445","prefectureKana":"ﾐﾔｷﾞｹﾝ","cityKana":"ｵｵｻｷｼ","streetKana":"ｲﾜﾃﾞﾔﾏﾐﾅﾐｻﾞﾜ","prefecture":"宮城県","city":"大崎市","street":"岩出山南沢"},{"zipCode":"9896402","prefectureKana":"ﾐﾔｷﾞｹﾝ","cityKana":"ｵｵｻｷｼ","streetKana":"ｲﾜﾃﾞﾔﾏ(ｲｿﾀﾞ､ｼﾓﾏﾔﾏ)","prefecture":"宮城県","city":"大崎市","street":"岩出山（磯田、下真山）"},{"zipCode":"9896401","prefectureKana":"ﾐﾔｷﾞｹﾝ","cityKana":"ｵｵｻｷｼ","streetKana":"ｲﾜﾃﾞﾔﾏ(ｶﾐﾏﾔﾏ､ｸｽﾞｵｶ)","prefecture":"宮城県","city":"大崎市","street":"岩出山（上真山、葛岡）"},{"zipCode":"9896471","prefectureKana":"ﾐﾔｷﾞｹﾝ","cityKana":"ｵｵｻｷｼ","streetKana":"ｲﾜﾃﾞﾔﾏ(ｿﾉﾀ)","prefecture":"宮城県","city":"大崎市","street":"岩出山（その他）"},{"zipCode":"9894106","prefectureKana":"ﾐﾔｷﾞｹﾝ","cityKana":"ｵｵｻｷｼ","streetKana":"ｶｼﾏﾀﾞｲｵｵﾊﾞｻﾏ","prefecture":"宮城県","city":"大崎市","street":"鹿島台大迫"},{"zipCode":"9894102","prefectureKana":"ﾐﾔｷﾞｹﾝ","cityKana":"ｵｵｻｷｼ","streetKana":"ｶｼﾏﾀﾞｲｷﾏﾂﾞｶ","prefecture":"宮城県","city":"大崎市","street":"鹿島台木間塚"},{"zipCode":"9894103","prefectureKana":"ﾐﾔｷﾞｹﾝ","cityKana":"ｵｵｻｷｼ","streetKana":"ｶｼﾏﾀﾞｲﾋﾗﾜﾀ","prefecture":"宮城県","city":"大崎市","street":"鹿島台平渡"},{"zipCode":"9894104","prefectureKana":"ﾐﾔｷﾞｹﾝ","cityKana":"ｵｵｻｷｼ","streetKana":"ｶｼﾏﾀﾞｲﾋﾛﾅｶﾞ","prefecture":"宮城県","city":"大崎市","street":"鹿島台広長"},{"zipCode":"9894105","prefectureKana":"ﾐﾔｷﾞｹﾝ","cityKana":"ｵｵｻｷｼ","streetKana":"ｶｼﾏﾀﾞｲﾌｶﾔ","prefecture":"宮城県","city":"大崎市","street":"鹿島台深谷"},{"zipCode":"9894101","prefectureKana":"ﾐﾔｷﾞｹﾝ","cityKana":"ｵｵｻｷｼ","streetKana":"ｶｼﾏﾀﾞｲﾌﾅｺｼ","prefecture":"宮城県","city":"大崎市","street":"鹿島台船越"},{"zipCode":"9896321","prefectureKana":"ﾐﾔｷﾞｹﾝ","cityKana":"ｵｵｻｷｼ","streetKana":"ｻﾝﾎﾞﾝｷﾞ","prefecture":"宮城県","city":"大崎市","street":"三本木"},{"zipCode":"9896304","prefectureKana":"ﾐﾔｷﾞｹﾝ","cityKana":"ｵｵｻｷｼ","streetKana":"ｻﾝﾎﾞﾝｷﾞｱｷﾀ","prefecture":"宮城県","city":"大崎市","street":"三本木秋田"},{"zipCode":"9896312","prefectureKana":"ﾐﾔｷﾞｹﾝ","cityKana":"ｵｵｻｷｼ","streetKana":"ｻﾝﾎﾞﾝｷﾞｱﾘｶﾞﾌｸﾛ","prefecture":"宮城県","city":"大崎市","street":"三本木蟻ケ袋"},{"zipCode":"9896305","prefectureKana":"ﾐﾔｷﾞｹﾝ","cityKana":"ｵｵｻｷｼ","streetKana":"ｻﾝﾎﾞﾝｷﾞｲｶﾞ","prefecture":"宮城県","city":"大崎市","street":"三本木伊賀"},{"zipCode":"9896303","prefectureKana":"ﾐﾔｷﾞｹﾝ","cityKana":"ｵｵｻｷｼ","streetKana":"ｻﾝﾎﾞﾝｷﾞｲﾊﾞﾉ","prefecture":"宮城県","city":"大崎市","street":"三本木伊場野"},{"zipCode":"9896313","prefectureKana":"ﾐﾔｷﾞｹﾝ","cityKana":"ｵｵｻｷｼ","streetKana":"ｻﾝﾎﾞﾝｷﾞｵﾄﾅｼ","prefecture":"宮城県","city":"大崎市","street":"三本木音無"},{"zipCode":"9896302","prefectureKana":"ﾐﾔｷﾞｹﾝ","cityKana":"ｵｵｻｷｼ","streetKana":"ｻﾝﾎﾞﾝｷﾞｶﾐｲﾊﾞﾉ","prefecture":"宮城県","city":"大崎市","street":"三本木上伊場野"},{"zipCode":"9896301","prefectureKana":"ﾐﾔｷﾞｹﾝ","cityKana":"ｵｵｻｷｼ","streetKana":"ｻﾝﾎﾞﾝｷﾞｺｵﾘ","prefecture":"宮城県","city":"大崎市","street":"三本木桑折"},{"zipCode":"9896314","prefectureKana":"ﾐﾔｷﾞｹﾝ","cityKana":"ｵｵｻｷｼ","streetKana":"ｻﾝﾎﾞﾝｷﾞｻｲﾀﾞ","prefecture":"宮城県","city":"大崎市","street":"三本木斉田"},{"zipCode":"9896311","prefectureKana":"ﾐﾔｷﾞｹﾝ","cityKana":"ｵｵｻｷｼ","streetKana":"ｻﾝﾎﾞﾝｷﾞｻｶﾓﾄ","prefecture":"宮城県","city":"大崎市","street":"三本木坂本"},{"zipCode":"9896306","prefectureKana":"ﾐﾔｷﾞｹﾝ","cityKana":"ｵｵｻｷｼ","streetKana":"ｻﾝﾎﾞﾝｷﾞｼﾝﾏﾁ","prefecture":"宮城県","city":"大崎市","street":"三本木新町"},{"zipCode":"9896316","prefectureKana":"ﾐﾔｷﾞｹﾝ","cityKana":"ｵｵｻｷｼ","streetKana":"ｻﾝﾎﾞﾝｷﾞﾀｶﾔﾅｷﾞ","prefecture":"宮城県","city":"大崎市","street":"三本木高柳"},{"zipCode":"9896315","prefectureKana":"ﾐﾔｷﾞｹﾝ","cityKana":"ｵｵｻｷｼ","streetKana":"ｻﾝﾎﾞﾝｷﾞﾆｲﾇﾏ","prefecture":"宮城県","city":"大崎市","street":"三本木新沼"},{"zipCode":"9896317","prefectureKana":"ﾐﾔｷﾞｹﾝ","cityKana":"ｵｵｻｷｼ","streetKana":"ｻﾝﾎﾞﾝｷﾞﾋﾙﾌﾞｸﾛ","prefecture":"宮城県","city":"大崎市","street":"三本木蒜袋"},{"zipCode":"9896322","prefectureKana":"ﾐﾔｷﾞｹﾝ","cityKana":"ｵｵｻｷｼ","streetKana":"ｻﾝﾎﾞﾝｷﾞﾐﾅﾐﾔﾁ","prefecture":"宮城県","city":"大崎市","street":"三本木南谷地"},{"zipCode":"9894415","prefectureKana":"ﾐﾔｷﾞｹﾝ","cityKana":"ｵｵｻｷｼ","streetKana":"ﾀｼﾞﾘ","prefecture":"宮城県","city":"大崎市","street":"田尻"},{"zipCode":"9894303","prefectureKana":"ﾐﾔｷﾞｹﾝ","cityKana":"ｵｵｻｷｼ","streetKana":"ﾀｼﾞﾘｵｵｻﾜ","prefecture":"宮城県","city":"大崎市","street":"田尻大沢"},{"zipCode":"9894302","prefectureKana":"ﾐﾔｷﾞｹﾝ","cityKana":"ｵｵｻｷｼ","streetKana":"ﾀｼﾞﾘｵｵﾇｷ","prefecture":"宮城県","city":"大崎市","street":"田尻大貫"},{"zipCode":"9894412","prefectureKana":"ﾐﾔｷﾞｹﾝ","cityKana":"ｵｵｻｷｼ","streetKana":"ﾀｼﾞﾘｵｵﾐﾈ","prefecture":"宮城県","city":"大崎市","street":"田尻大嶺"},{"zipCode":"9894305","prefectureKana":"ﾐﾔｷﾞｹﾝ","cityKana":"ｵｵｻｷｼ","streetKana":"ﾀｼﾞﾘｵｼｵ","prefecture":"宮城県","city":"大崎市","street":"田尻小塩"},{"zipCode":"9894301","prefectureKana":"ﾐﾔｷﾞｹﾝ","cityKana":"ｵｵｻｷｼ","streetKana":"ﾀｼﾞﾘｶﾌﾞｸﾘ","prefecture":"宮城県","city":"大崎市","street":"田尻蕪栗"},{"zipCode":"9894304","prefectureKana":"ﾐﾔｷﾞｹﾝ","cityKana":"ｵｵｻｷｼ","streetKana":"ﾀｼﾞﾘｷﾀｺｺﾞﾀ","prefecture":"宮城県","city":"大崎市","street":"田尻北小牛田"},{"zipCode":"9894307","prefectureKana":"ﾐﾔｷﾞｹﾝ","cityKana":"ｵｵｻｷｼ","streetKana":"ﾀｼﾞﾘｷﾀﾀｶｷﾞ","prefecture":"宮城県","city":"大崎市","street":"田尻北高城"},{"zipCode":"9894414","prefectureKana":"ﾐﾔｷﾞｹﾝ","cityKana":"ｵｵｻｷｼ","streetKana":"ﾀｼﾞﾘｷﾀﾏｷﾞﾉﾒ","prefecture":"宮城県","city":"大崎市","street":"田尻北牧目"},{"zipCode":"9894419","prefectureKana":"ﾐﾔｷﾞｹﾝ","cityKana":"ｵｵｻｷｼ","streetKana":"ﾀｼﾞﾘｺﾏﾂ","prefecture":"宮城県","city":"大崎市","street":"田尻小松"},{"zipCode":"9894306","prefectureKana":"ﾐﾔｷﾞｹﾝ","cityKana":"ｵｵｻｷｼ","streetKana":"ﾀｼﾞﾘｻｸﾗﾀﾞｺｳﾔ","prefecture":"宮城県","city":"大崎市","street":"田尻桜田高野"},{"zipCode":"9894418","prefectureKana":"ﾐﾔｷﾞｹﾝ","cityKana":"ｵｵｻｷｼ","streetKana":"ﾀｼﾞﾘｽﾜﾄｳｹﾞ","prefecture":"宮城県","city":"大崎市","street":"田尻諏訪峠"},{"zipCode":"9894413","prefectureKana":"ﾐﾔｷﾞｹﾝ","cityKana":"ｵｵｻｷｼ","streetKana":"ﾀｼﾞﾘﾄｵﾘｷ","prefecture":"宮城県","city":"大崎市","street":"田尻通木"},{"zipCode":"9894416","prefectureKana":"ﾐﾔｷﾞｹﾝ","cityKana":"ｵｵｻｷｼ","streetKana":"ﾀｼﾞﾘﾅｶﾉﾒ","prefecture":"宮城県","city":"大崎市","street":"田尻中目"},{"zipCode":"9894417","prefectureKana":"ﾐﾔｷﾞｹﾝ","cityKana":"ｵｵｻｷｼ","streetKana":"ﾀｼﾞﾘﾇﾏｷﾞ","prefecture":"宮城県","city":"大崎市","street":"田尻沼木"},{"zipCode":"9894308","prefectureKana":"ﾐﾔｷﾞｹﾝ","cityKana":"ｵｵｻｷｼ","streetKana":"ﾀｼﾞﾘﾇﾏﾍﾞ","prefecture":"宮城県","city":"大崎市","street":"田尻沼部"},{"zipCode":"9894411","prefectureKana":"ﾐﾔｷﾞｹﾝ","cityKana":"ｵｵｻｷｼ","streetKana":"ﾀｼﾞﾘﾔﾜﾀ","prefecture":"宮城県","city":"大崎市","street":"田尻八幡"},{"zipCode":"9896711","prefectureKana":"ﾐﾔｷﾞｹﾝ","cityKana":"ｵｵｻｷｼ","streetKana":"ﾅﾙｺｵﾝｾﾝｱｶﾊﾞｲ","prefecture":"宮城県","city":"大崎市","street":"鳴子温泉赤這"},{"zipCode":"9896811","prefectureKana":"ﾐﾔｷﾞｹﾝ","cityKana":"ｵｵｻｷｼ","streetKana":"ﾅﾙｺｵﾝｾﾝｱｶﾕ","prefecture":"宮城県","city":"大崎市","street":"鳴子温泉赤湯"},{"zipCode":"9896711","prefectureKana":"ﾐﾔｷﾞｹﾝ","cityKana":"ｵｵｻｷｼ","streetKana":"ﾅﾙｺｵﾝｾﾝｲｼﾉｳﾒ","prefecture":"宮城県","city":"大崎市","street":"鳴子温泉石ノ梅"},{"zipCode":"9896711","prefectureKana":"ﾐﾔｷﾞｹﾝ","cityKana":"ｵｵｻｷｼ","streetKana":"ﾅﾙｺｵﾝｾﾝｲﾘｻﾜ","prefecture":"宮城県","city":"大崎市","street":"鳴子温泉入沢"},{"zipCode":"9896806","prefectureKana":"ﾐﾔｷﾞｹﾝ","cityKana":"ｵｵｻｷｼ","streetKana":"ﾅﾙｺｵﾝｾﾝｲﾜﾌﾞﾁ","prefecture":"宮城県","city":"大崎市","street":"鳴子温泉岩渕"},{"zipCode":"9896805","prefectureKana":"ﾐﾔｷﾞｹﾝ","cityKana":"ｵｵｻｷｼ","streetKana":"ﾅﾙｺｵﾝｾﾝｲﾜﾌﾞﾁﾏｴ","prefecture":"宮城県","city":"大崎市","street":"鳴子温泉岩渕前"},{"zipCode":"9896711","prefectureKana":"ﾐﾔｷﾞｹﾝ","cityKana":"ｵｵｻｷｼ","streetKana":"ﾅﾙｺｵﾝｾﾝｳｴﾉﾊﾗ","prefecture":"宮城県","city":"大崎市","street":"鳴子温泉上ノ原"},{"zipCode":"9896838","prefectureKana":"ﾐﾔｷﾞｹﾝ","cityKana":"ｵｵｻｷｼ","streetKana":"ﾅﾙｺｵﾝｾﾝｵｵｳﾀﾞｹ","prefecture":"宮城県","city":"大崎市","street":"鳴子温泉奥羽岳"},{"zipCode":"9896803","prefectureKana":"ﾐﾔｷﾞｹﾝ","cityKana":"ｵｵｻｷｼ","streetKana":"ﾅﾙｺｵﾝｾﾝｵｵﾊﾞﾀｹ","prefecture":"宮城県","city":"大崎市","street":"鳴子温泉大畑"},{"zipCode":"9896941","prefectureKana":"ﾐﾔｷﾞｹﾝ","cityKana":"ｵｵｻｷｼ","streetKana":"ﾅﾙｺｵﾝｾﾝｵﾆｺｳﾍﾞ","prefecture":"宮城県","city":"大崎市","street":"鳴子温泉鬼首"},{"zipCode":"9896712","prefectureKana":"ﾐﾔｷﾞｹﾝ","cityKana":"ｵｵｻｷｼ","streetKana":"ﾅﾙｺｵﾝｾﾝｵﾐｶﾞﾜﾗ","prefecture":"宮城県","city":"大崎市","street":"鳴子温泉小身川原"},{"zipCode":"9896711","prefectureKana":"ﾐﾔｷﾞｹﾝ","cityKana":"ｵｵｻｷｼ","streetKana":"ﾅﾙｺｵﾝｾﾝｶﾐｶﾞﾜﾗ","prefecture":"宮城県","city":"大崎市","street":"鳴子温泉上川原"},{"zipCode":"9896825","prefectureKana":"ﾐﾔｷﾞｹﾝ","cityKana":"ｵｵｻｷｼ","streetKana":"ﾅﾙｺｵﾝｾﾝｶﾐﾅﾙｺ","prefecture":"宮城県","city":"大崎市","street":"鳴子温泉上鳴子"},{"zipCode":"9896711","prefectureKana":"ﾐﾔｷﾞｹﾝ","cityKana":"ｵｵｻｷｼ","streetKana":"ﾅﾙｺｵﾝｾﾝｶﾖﾊﾞﾗ","prefecture":"宮城県","city":"大崎市","street":"鳴子温泉通原"},{"zipCode":"9896711","prefectureKana":"ﾐﾔｷﾞｹﾝ","cityKana":"ｵｵｻｷｼ","streetKana":"ﾅﾙｺｵﾝｾﾝｶﾜﾀﾋﾞ","prefecture":"宮城県","city":"大崎市","street":"鳴子温泉川渡"},{"zipCode":"9896833","prefectureKana":"ﾐﾔｷﾞｹﾝ","cityKana":"ｵｵｻｷｼ","streetKana":"ﾅﾙｺｵﾝｾﾝｶﾜﾊﾀ","prefecture":"宮城県","city":"大崎市","street":"鳴子温泉川端"},{"zipCode":"9896712","prefectureKana":"ﾐﾔｷﾞｹﾝ","cityKana":"ｵｵｻｷｼ","streetKana":"ﾅﾙｺｵﾝｾﾝｶﾜﾌﾞｸﾛ","prefecture":"宮城県","city":"大崎市","street":"鳴子温泉川袋"},{"zipCode":"9896824","prefectureKana":"ﾐﾔｷﾞｹﾝ","cityKana":"ｵｵｻｷｼ","streetKana":"ﾅﾙｺｵﾝｾﾝｶﾜﾗﾕ","prefecture":"宮城県","city":"大崎市","street":"鳴子温泉河原湯"},{"zipCode":"9896711","prefectureKana":"ﾐﾔｷﾞｹﾝ","cityKana":"ｵｵｻｷｼ","streetKana":"ﾅﾙｺｵﾝｾﾝｷｻﾞﾜ","prefecture":"宮城県","city":"大崎市","street":"鳴子温泉築沢"},{"zipCode":"9896712","prefectureKana":"ﾐﾔｷﾞｹﾝ","cityKana":"ｵｵｻｷｼ","streetKana":"ﾅﾙｺｵﾝｾﾝｷﾄﾞﾜｷ","prefecture":"宮城県","city":"大崎市","street":"鳴子温泉木戸脇"},{"zipCode":"9896711","prefectureKana":"ﾐﾔｷﾞｹﾝ","cityKana":"ｵｵｻｷｼ","streetKana":"ﾅﾙｺｵﾝｾﾝｷｭｳﾃﾞﾝ","prefecture":"宮城県","city":"大崎市","street":"鳴子温泉久田"},{"zipCode":"9896821","prefectureKana":"ﾐﾔｷﾞｹﾝ","cityKana":"ｵｵｻｷｼ","streetKana":"ﾅﾙｺｵﾝｾﾝｸﾙﾏﾕ","prefecture":"宮城県","city":"大崎市","street":"鳴子温泉車湯"},{"zipCode":"9896712","prefectureKana":"ﾐﾔｷﾞｹﾝ","cityKana":"ｵｵｻｷｼ","streetKana":"ﾅﾙｺｵﾝｾﾝｸﾛｻｷ","prefecture":"宮城県","city":"大崎市","street":"鳴子温泉黒崎"},{"zipCode":"9896712","prefectureKana":"ﾐﾔｷﾞｹﾝ","cityKana":"ｵｵｻｷｼ","streetKana":"ﾅﾙｺｵﾝｾﾝｺﾑﾛ","prefecture":"宮城県","city":"大崎市","street":"鳴子温泉小室"},{"zipCode":"9896712","prefectureKana":"ﾐﾔｷﾞｹﾝ","cityKana":"ｵｵｻｷｼ","streetKana":"ﾅﾙｺｵﾝｾﾝｺﾑﾛﾔﾏ","prefecture":"宮城県","city":"大崎市","street":"鳴子温泉小室山"},{"zipCode":"9896712","prefectureKana":"ﾐﾔｷﾞｹﾝ","cityKana":"ｵｵｻｷｼ","streetKana":"ﾅﾙｺｵﾝｾﾝｻｶｲﾏﾂ","prefecture":"宮城県","city":"大崎市","street":"鳴子温泉境松"},{"zipCode":"9896712","prefectureKana":"ﾐﾔｷﾞｹﾝ","cityKana":"ｵｵｻｷｼ","streetKana":"ﾅﾙｺｵﾝｾﾝｻｶﾉｳｴ","prefecture":"宮城県","city":"大崎市","street":"鳴子温泉坂ノ上"},{"zipCode":"9896711","prefectureKana":"ﾐﾔｷﾞｹﾝ","cityKana":"ｵｵｻｷｼ","streetKana":"ﾅﾙｺｵﾝｾﾝｻﾜ","prefecture":"宮城県","city":"大崎市","street":"鳴子温泉沢"},{"zipCode":"9896712","prefectureKana":"ﾐﾔｷﾞｹﾝ","cityKana":"ｵｵｻｷｼ","streetKana":"ﾅﾙｺｵﾝｾﾝｻﾜﾒｷ","prefecture":"宮城県","city":"大崎市","street":"鳴子温泉沢目木"},{"zipCode":"9896827","prefectureKana":"ﾐﾔｷﾞｹﾝ","cityKana":"ｵｵｻｷｼ","streetKana":"ﾅﾙｺｵﾝｾﾝｼﾄﾏｴ","prefecture":"宮城県","city":"大崎市","street":"鳴子温泉尿前"},{"zipCode":"9896712","prefectureKana":"ﾐﾔｷﾞｹﾝ","cityKana":"ｵｵｻｷｼ","streetKana":"ﾅﾙｺｵﾝｾﾝｼﾝｵﾐｶﾞﾜﾗ","prefecture":"宮城県","city":"大崎市","street":"鳴子温泉新小身川原"},{"zipCode":"9896711","prefectureKana":"ﾐﾔｷﾞｹﾝ","cityKana":"ｵｵｻｷｼ","streetKana":"ﾅﾙｺｵﾝｾﾝｼﾝﾃﾞﾝ","prefecture":"宮城県","city":"大崎市","street":"鳴子温泉新田"},{"zipCode":"9896711","prefectureKana":"ﾐﾔｷﾞｹﾝ","cityKana":"ｵｵｻｷｼ","streetKana":"ﾅﾙｺｵﾝｾﾝｼﾝﾏﾁｼﾀ","prefecture":"宮城県","city":"大崎市","street":"鳴子温泉新町下"},{"zipCode":"9896822","prefectureKana":"ﾐﾔｷﾞｹﾝ","cityKana":"ｵｵｻｷｼ","streetKana":"ﾅﾙｺｵﾝｾﾝｼﾝﾔｼｷ","prefecture":"宮城県","city":"大崎市","street":"鳴子温泉新屋敷"},{"zipCode":"9896801","prefectureKana":"ﾐﾔｷﾞｹﾝ","cityKana":"ｵｵｻｷｼ","streetKana":"ﾅﾙｺｵﾝｾﾝｽｴｻﾞﾜ","prefecture":"宮城県","city":"大崎市","street":"鳴子温泉末沢"},{"zipCode":"9896802","prefectureKana":"ﾐﾔｷﾞｹﾝ","cityKana":"ｵｵｻｷｼ","streetKana":"ﾅﾙｺｵﾝｾﾝｽｴｻﾞﾜﾆｼ","prefecture":"宮城県","city":"大崎市","street":"鳴子温泉末沢西"},{"zipCode":"9896712","prefectureKana":"ﾐﾔｷﾞｹﾝ","cityKana":"ｵｵｻｷｼ","streetKana":"ﾅﾙｺｵﾝｾﾝｾｷｸﾞﾁ","prefecture":"宮城県","city":"大崎市","street":"鳴子温泉関口"},{"zipCode":"9896712","prefectureKana":"ﾐﾔｷﾞｹﾝ","cityKana":"ｵｵｻｷｼ","streetKana":"ﾅﾙｺｵﾝｾﾝﾀﾞｲｼｬｸ","prefecture":"宮城県","city":"大崎市","street":"鳴子温泉大尺"},{"zipCode":"9896712","prefectureKana":"ﾐﾔｷﾞｹﾝ","cityKana":"ｵｵｻｷｼ","streetKana":"ﾅﾙｺｵﾝｾﾝﾀｷｷﾞｼ","prefecture":"宮城県","city":"大崎市","street":"鳴子温泉滝岸"},{"zipCode":"9896712","prefectureKana":"ﾐﾔｷﾞｹﾝ","cityKana":"ｵｵｻｷｼ","streetKana":"ﾅﾙｺｵﾝｾﾝﾀｹﾊﾗ","prefecture":"宮城県","city":"大崎市","street":"鳴子温泉竹原"},{"zipCode":"9896712","prefectureKana":"ﾐﾔｷﾞｹﾝ","cityKana":"ｵｵｻｷｼ","streetKana":"ﾅﾙｺｵﾝｾﾝﾀﾅｶ","prefecture":"宮城県","city":"大崎市","street":"鳴子温泉田中"},{"zipCode":"9896711","prefectureKana":"ﾐﾔｷﾞｹﾝ","cityKana":"ｵｵｻｷｼ","streetKana":"ﾅﾙｺｵﾝｾﾝﾀﾏﾉｷ","prefecture":"宮城県","city":"大崎市","street":"鳴子温泉玉ノ木"},{"zipCode":"9896712","prefectureKana":"ﾐﾔｷﾞｹﾝ","cityKana":"ｵｵｻｷｼ","streetKana":"ﾅﾙｺｵﾝｾﾝﾂｷﾔﾏ","prefecture":"宮城県","city":"大崎市","street":"鳴子温泉月山"},{"zipCode":"9896712","prefectureKana":"ﾐﾔｷﾞｹﾝ","cityKana":"ｵｵｻｷｼ","streetKana":"ﾅﾙｺｵﾝｾﾝﾂﾂﾐｼﾀ","prefecture":"宮城県","city":"大崎市","street":"鳴子温泉堤下"},{"zipCode":"9896712","prefectureKana":"ﾐﾔｷﾞｹﾝ","cityKana":"ｵｵｻｷｼ","streetKana":"ﾅﾙｺｵﾝｾﾝﾂﾙﾀ","prefecture":"宮城県","city":"大崎市","street":"鳴子温泉鶴田"},{"zipCode":"9896712","prefectureKana":"ﾐﾔｷﾞｹﾝ","cityKana":"ｵｵｻｷｼ","streetKana":"ﾅﾙｺｵﾝｾﾝﾃﾝｼﾞﾝ","prefecture":"宮城県","city":"大崎市","street":"鳴子温泉天神"},{"zipCode":"9896711","prefectureKana":"ﾐﾔｷﾞｹﾝ","cityKana":"ｵｵｻｷｼ","streetKana":"ﾅﾙｺｵﾝｾﾝﾅｶﾉ","prefecture":"宮城県","city":"大崎市","street":"鳴子温泉中野"},{"zipCode":"9896712","prefectureKana":"ﾐﾔｷﾞｹﾝ","cityKana":"ｵｵｻｷｼ","streetKana":"ﾅﾙｺｵﾝｾﾝﾅｶﾐﾁ","prefecture":"宮城県","city":"大崎市","street":"鳴子温泉中道"},{"zipCode":"9896804","prefectureKana":"ﾐﾔｷﾞｹﾝ","cityKana":"ｵｵｻｷｼ","streetKana":"ﾅﾙｺｵﾝｾﾝﾅｶﾔｼｷ","prefecture":"宮城県","city":"大崎市","street":"鳴子温泉中屋敷"},{"zipCode":"9896834","prefectureKana":"ﾐﾔｷﾞｹﾝ","cityKana":"ｵｵｻｷｼ","streetKana":"ﾅﾙｺｵﾝｾﾝﾆｼﾊﾗ","prefecture":"宮城県","city":"大崎市","street":"鳴子温泉西原"},{"zipCode":"9896711","prefectureKana":"ﾐﾔｷﾞｹﾝ","cityKana":"ｵｵｻｷｼ","streetKana":"ﾅﾙｺｵﾝｾﾝﾇﾏｲ","prefecture":"宮城県","city":"大崎市","street":"鳴子温泉沼井"},{"zipCode":"9896712","prefectureKana":"ﾐﾔｷﾞｹﾝ","cityKana":"ｵｵｻｷｼ","streetKana":"ﾅﾙｺｵﾝｾﾝﾉｷﾞﾜ","prefecture":"宮城県","city":"大崎市","street":"鳴子温泉野際"},{"zipCode":"9896712","prefectureKana":"ﾐﾔｷﾞｹﾝ","cityKana":"ｵｵｻｷｼ","streetKana":"ﾅﾙｺｵﾝｾﾝﾊﾀﾔﾏ","prefecture":"宮城県","city":"大崎市","street":"鳴子温泉畑山"},{"zipCode":"9896711","prefectureKana":"ﾐﾔｷﾞｹﾝ","cityKana":"ｵｵｻｷｼ","streetKana":"ﾅﾙｺｵﾝｾﾝﾊﾞﾊﾞ","prefecture":"宮城県","city":"大崎市","street":"鳴子温泉馬場"},{"zipCode":"9896711","prefectureKana":"ﾐﾔｷﾞｹﾝ","cityKana":"ｵｵｻｷｼ","streetKana":"ﾅﾙｺｵﾝｾﾝﾊﾗ","prefecture":"宮城県","city":"大崎市","street":"鳴子温泉原"},{"zipCode":"9896712","prefectureKana":"ﾐﾔｷﾞｹﾝ","cityKana":"ｵｵｻｷｼ","streetKana":"ﾅﾙｺｵﾝｾﾝﾊﾗｻｷ","prefecture":"宮城県","city":"大崎市","street":"鳴子温泉原崎"},{"zipCode":"9896712","prefectureKana":"ﾐﾔｷﾞｹﾝ","cityKana":"ｵｵｻｷｼ","streetKana":"ﾅﾙｺｵﾝｾﾝﾋﾅﾀﾔﾏ","prefecture":"宮城県","city":"大崎市","street":"鳴子温泉日向山"},{"zipCode":"9896712","prefectureKana":"ﾐﾔｷﾞｹﾝ","cityKana":"ｵｵｻｷｼ","streetKana":"ﾅﾙｺｵﾝｾﾝﾌﾄﾞｳﾔﾏ","prefecture":"宮城県","city":"大崎市","street":"鳴子温泉不動山"},{"zipCode":"9896826","prefectureKana":"ﾐﾔｷﾞｹﾝ","cityKana":"ｵｵｻｷｼ","streetKana":"ﾅﾙｺｵﾝｾﾝﾌﾙﾄﾏｴ","prefecture":"宮城県","city":"大崎市","street":"鳴子温泉古戸前"},{"zipCode":"9896832","prefectureKana":"ﾐﾔｷﾞｹﾝ","cityKana":"ｵｵｻｷｼ","streetKana":"ﾅﾙｺｵﾝｾﾝﾎｼﾇﾏ","prefecture":"宮城県","city":"大崎市","street":"鳴子温泉星沼"},{"zipCode":"9896712","prefectureKana":"ﾐﾔｷﾞｹﾝ","cityKana":"ｵｵｻｷｼ","streetKana":"ﾅﾙｺｵﾝｾﾝﾏｴﾓﾘ","prefecture":"宮城県","city":"大崎市","street":"鳴子温泉前森"},{"zipCode":"9896712","prefectureKana":"ﾐﾔｷﾞｹﾝ","cityKana":"ｵｵｻｷｼ","streetKana":"ﾅﾙｺｵﾝｾﾝﾏｴﾔﾏ","prefecture":"宮城県","city":"大崎市","street":"鳴子温泉前山"},{"zipCode":"9896711","prefectureKana":"ﾐﾔｷﾞｹﾝ","cityKana":"ｵｵｻｷｼ","streetKana":"ﾅﾙｺｵﾝｾﾝﾏﾁ","prefecture":"宮城県","city":"大崎市","street":"鳴子温泉町"},{"zipCode":"9896711","prefectureKana":"ﾐﾔｷﾞｹﾝ","cityKana":"ｵｵｻｷｼ","streetKana":"ﾅﾙｺｵﾝｾﾝﾏﾁｼﾀ","prefecture":"宮城県","city":"大崎市","street":"鳴子温泉町下"},{"zipCode":"9896711","prefectureKana":"ﾐﾔｷﾞｹﾝ","cityKana":"ｵｵｻｷｼ","streetKana":"ﾅﾙｺｵﾝｾﾝﾏﾁﾆｼ","prefecture":"宮城県","city":"大崎市","street":"鳴子温泉町西"},{"zipCode":"9896712","prefectureKana":"ﾐﾔｷﾞｹﾝ","cityKana":"ｵｵｻｷｼ","streetKana":"ﾅﾙｺｵﾝｾﾝﾐｽﾞﾇﾏ","prefecture":"宮城県","city":"大崎市","street":"鳴子温泉水沼"},{"zipCode":"9896807","prefectureKana":"ﾐﾔｷﾞｹﾝ","cityKana":"ｵｵｻｷｼ","streetKana":"ﾅﾙｺｵﾝｾﾝﾐﾃﾉﾊﾗ","prefecture":"宮城県","city":"大崎市","street":"鳴子温泉見手野原"},{"zipCode":"9896835","prefectureKana":"ﾐﾔｷﾞｹﾝ","cityKana":"ｵｵｻｷｼ","streetKana":"ﾅﾙｺｵﾝｾﾝﾐﾅﾐﾊﾗ","prefecture":"宮城県","city":"大崎市","street":"鳴子温泉南原"},{"zipCode":"9896837","prefectureKana":"ﾐﾔｷﾞｹﾝ","cityKana":"ｵｵｻｷｼ","streetKana":"ﾅﾙｺｵﾝｾﾝﾐﾅﾐﾎｼﾇﾏ","prefecture":"宮城県","city":"大崎市","street":"鳴子温泉南星沼"},{"zipCode":"9896712","prefectureKana":"ﾐﾔｷﾞｹﾝ","cityKana":"ｵｵｻｷｼ","streetKana":"ﾅﾙｺｵﾝｾﾝﾐﾅﾐﾔﾏ","prefecture":"宮城県","city":"大崎市","street":"鳴子温泉南山"},{"zipCode":"9896831","prefectureKana":"ﾐﾔｷﾞｹﾝ","cityKana":"ｵｵｻｷｼ","streetKana":"ﾅﾙｺｵﾝｾﾝﾔｷﾞ","prefecture":"宮城県","city":"大崎市","street":"鳴子温泉柳木"},{"zipCode":"9896836","prefectureKana":"ﾐﾔｷﾞｹﾝ","cityKana":"ｵｵｻｷｼ","streetKana":"ﾅﾙｺｵﾝｾﾝﾔｷｲｼﾏﾀ","prefecture":"宮城県","city":"大崎市","street":"鳴子温泉焼石亦"},{"zipCode":"9896712","prefectureKana":"ﾐﾔｷﾞｹﾝ","cityKana":"ｵｵｻｷｼ","streetKana":"ﾅﾙｺｵﾝｾﾝﾔﾏｷﾞﾜ","prefecture":"宮城県","city":"大崎市","street":"鳴子温泉山際"},{"zipCode":"9896823","prefectureKana":"ﾐﾔｷﾞｹﾝ","cityKana":"ｵｵｻｷｼ","streetKana":"ﾅﾙｺｵﾝｾﾝﾕﾓﾄ","prefecture":"宮城県","city":"大崎市","street":"鳴子温泉湯元"},{"zipCode":"9896711","prefectureKana":"ﾐﾔｷﾞｹﾝ","cityKana":"ｵｵｻｷｼ","streetKana":"ﾅﾙｺｵﾝｾﾝﾖｳｶﾞｲ","prefecture":"宮城県","city":"大崎市","street":"鳴子温泉要害"},{"zipCode":"9896711","prefectureKana":"ﾐﾔｷﾞｹﾝ","cityKana":"ｵｵｻｷｼ","streetKana":"ﾅﾙｺｵﾝｾﾝﾖｺﾔﾏ","prefecture":"宮城県","city":"大崎市","street":"鳴子温泉横山"},{"zipCode":"9896711","prefectureKana":"ﾐﾔｷﾞｹﾝ","cityKana":"ｵｵｻｷｼ","streetKana":"ﾅﾙｺｵﾝｾﾝﾖﾓｷﾞﾀﾞ","prefecture":"宮城県","city":"大崎市","street":"鳴子温泉蓬田"},{"zipCode":"9896811","prefectureKana":"ﾐﾔｷﾞｹﾝ","cityKana":"ｵｵｻｷｼ","streetKana":"ﾅﾙｺｵﾝｾﾝﾜｼﾉｽ","prefecture":"宮城県","city":"大崎市","street":"鳴子温泉鷲ノ巣"},{"zipCode":"9896712","prefectureKana":"ﾐﾔｷﾞｹﾝ","cityKana":"ｵｵｻｷｼ","streetKana":"ﾅﾙｺｵﾝｾﾝﾜﾀﾞ","prefecture":"宮城県","city":"大崎市","street":"鳴子温泉和田"},{"zipCode":"9896223","prefectureKana":"ﾐﾔｷﾞｹﾝ","cityKana":"ｵｵｻｷｼ","streetKana":"ﾌﾙｶﾜ","prefecture":"宮城県","city":"大崎市","street":"古川"},{"zipCode":"9896117","prefectureKana":"ﾐﾔｷﾞｹﾝ","cityKana":"ｵｵｻｷｼ","streetKana":"ﾌﾙｶﾜｱｻﾋ","prefecture":"宮城県","city":"大崎市","street":"古川旭"},{"zipCode":"9896243","prefectureKana":"ﾐﾔｷﾞｹﾝ","cityKana":"ｵｵｻｷｼ","streetKana":"ﾌﾙｶﾜｱﾒｵｻﾞﾜ","prefecture":"宮城県","city":"大崎市","street":"古川雨生沢"},{"zipCode":"9896164","prefectureKana":"ﾐﾔｷﾞｹﾝ","cityKana":"ｵｵｻｷｼ","streetKana":"ﾌﾙｶﾜｱﾗｶﾜｺｶﾞﾈﾁｮｳ","prefecture":"宮城県","city":"大崎市","street":"古川荒川小金町"},{"zipCode":"9896212","prefectureKana":"ﾐﾔｷﾞｹﾝ","cityKana":"ｵｵｻｷｼ","streetKana":"ﾌﾙｶﾜｱﾗﾀﾉﾒ","prefecture":"宮城県","city":"大崎市","street":"古川荒田目"},{"zipCode":"9896252","prefectureKana":"ﾐﾔｷﾞｹﾝ","cityKana":"ｵｵｻｷｼ","streetKana":"ﾌﾙｶﾜｱﾗﾔ","prefecture":"宮城県","city":"大崎市","street":"古川荒谷"},{"zipCode":"9896203","prefectureKana":"ﾐﾔｷﾞｹﾝ","cityKana":"ｵｵｻｷｼ","streetKana":"ﾌﾙｶﾜｲｲｶﾞﾜ","prefecture":"宮城県","city":"大崎市","street":"古川飯川"},{"zipCode":"9896124","prefectureKana":"ﾐﾔｷﾞｹﾝ","cityKana":"ｵｵｻｷｼ","streetKana":"ﾌﾙｶﾜｲｼﾓﾘ","prefecture":"宮城県","city":"大崎市","street":"古川石森"},{"zipCode":"9896135","prefectureKana":"ﾐﾔｷﾞｹﾝ","cityKana":"ｵｵｻｷｼ","streetKana":"ﾌﾙｶﾜｲﾅﾊﾞ","prefecture":"宮城県","city":"大崎市","street":"古川稲葉"},{"zipCode":"9896173","prefectureKana":"ﾐﾔｷﾞｹﾝ","cityKana":"ｵｵｻｷｼ","streetKana":"ﾌﾙｶﾜｳﾗﾏﾁ","prefecture":"宮城県","city":"大崎市","street":"古川浦町"},{"zipCode":"9896103","prefectureKana":"ﾐﾔｷﾞｹﾝ","cityKana":"ｵｵｻｷｼ","streetKana":"ﾌﾙｶﾜｴｱｲｺﾄﾌﾞｷﾁｮｳ","prefecture":"宮城県","city":"大崎市","street":"古川江合寿町"},{"zipCode":"9896104","prefectureKana":"ﾐﾔｷﾞｹﾝ","cityKana":"ｵｵｻｷｼ","streetKana":"ﾌﾙｶﾜｴｱｲﾆｼｷﾁｮｳ","prefecture":"宮城県","city":"大崎市","street":"古川江合錦町"},{"zipCode":"9896102","prefectureKana":"ﾐﾔｷﾞｹﾝ","cityKana":"ｵｵｻｷｼ","streetKana":"ﾌﾙｶﾜｴｱｲﾎﾝﾁｮｳ","prefecture":"宮城県","city":"大崎市","street":"古川江合本町"},{"zipCode":"9896115","prefectureKana":"ﾐﾔｷﾞｹﾝ","cityKana":"ｵｵｻｷｼ","streetKana":"ﾌﾙｶﾜｴｷﾋｶﾞｼ","prefecture":"宮城県","city":"大崎市","street":"古川駅東"},{"zipCode":"9896162","prefectureKana":"ﾐﾔｷﾞｹﾝ","cityKana":"ｵｵｻｷｼ","streetKana":"ﾌﾙｶﾜｴｷﾏｴｵｵﾄﾞｵﾘ","prefecture":"宮城県","city":"大崎市","street":"古川駅前大通"},{"zipCode":"9896161","prefectureKana":"ﾐﾔｷﾞｹﾝ","cityKana":"ｵｵｻｷｼ","streetKana":"ﾌﾙｶﾜｴｷﾐﾅﾐ","prefecture":"宮城県","city":"大崎市","street":"古川駅南"},{"zipCode":"9896227","prefectureKana":"ﾐﾔｷﾞｹﾝ","cityKana":"ｵｵｻｷｼ","streetKana":"ﾌﾙｶﾜｵｵｻｷ","prefecture":"宮城県","city":"大崎市","street":"古川大崎"},{"zipCode":"9896114","prefectureKana":"ﾐﾔｷﾞｹﾝ","cityKana":"ｵｵｻｷｼ","streetKana":"ﾌﾙｶﾜｵｵﾊﾀ","prefecture":"宮城県","city":"大崎市","street":"古川大幡"},{"zipCode":"9896221","prefectureKana":"ﾐﾔｷﾞｹﾝ","cityKana":"ｵｵｻｷｼ","streetKana":"ﾌﾙｶﾜｵｵﾐﾔ","prefecture":"宮城県","city":"大崎市","street":"古川大宮"},{"zipCode":"9896234","prefectureKana":"ﾐﾔｷﾞｹﾝ","cityKana":"ｵｵｻｷｼ","streetKana":"ﾌﾙｶﾜｵﾊﾞﾔｼ","prefecture":"宮城県","city":"大崎市","street":"古川小林"},{"zipCode":"9896216","prefectureKana":"ﾐﾔｷﾞｹﾝ","cityKana":"ｵｵｻｷｼ","streetKana":"ﾌﾙｶﾜｶｼﾜｻﾞｷ","prefecture":"宮城県","city":"大崎市","street":"古川柏崎"},{"zipCode":"9896131","prefectureKana":"ﾐﾔｷﾞｹﾝ","cityKana":"ｵｵｻｷｼ","streetKana":"ﾌﾙｶﾜｶﾅｺﾞﾘﾝ","prefecture":"宮城県","city":"大崎市","street":"古川金五輪"},{"zipCode":"9896264","prefectureKana":"ﾐﾔｷﾞｹﾝ","cityKana":"ｵｵｻｷｼ","streetKana":"ﾌﾙｶﾜｶﾐｿﾞﾈ","prefecture":"宮城県","city":"大崎市","street":"古川上埣"},{"zipCode":"9896202","prefectureKana":"ﾐﾔｷﾞｹﾝ","cityKana":"ｵｵｻｷｼ","streetKana":"ﾌﾙｶﾜｶﾐﾅｶﾉﾒ","prefecture":"宮城県","city":"大崎市","street":"古川上中目"},{"zipCode":"9896236","prefectureKana":"ﾐﾔｷﾞｹﾝ","cityKana":"ｵｵｻｷｼ","streetKana":"ﾌﾙｶﾜｶﾜｸﾏ","prefecture":"宮城県","city":"大崎市","street":"古川川熊"},{"zipCode":"9896167","prefectureKana":"ﾐﾔｷﾞｹﾝ","cityKana":"ｵｵｻｷｼ","streetKana":"ﾌﾙｶﾜｶﾜﾊﾀ","prefecture":"宮城県","city":"大崎市","street":"古川川端"},{"zipCode":"9896145","prefectureKana":"ﾐﾔｷﾞｹﾝ","cityKana":"ｵｵｻｷｼ","streetKana":"ﾌﾙｶﾜｷﾀｲﾅﾊﾞ","prefecture":"宮城県","city":"大崎市","street":"古川北稲葉"},{"zipCode":"9896171","prefectureKana":"ﾐﾔｷﾞｹﾝ","cityKana":"ｵｵｻｷｼ","streetKana":"ﾌﾙｶﾜｷﾀﾏﾁ","prefecture":"宮城県","city":"大崎市","street":"古川北町"},{"zipCode":"9896242","prefectureKana":"ﾐﾔｷﾞｹﾝ","cityKana":"ｵｵｻｷｼ","streetKana":"ﾌﾙｶﾜｷﾀﾐﾔｻﾞﾜ","prefecture":"宮城県","city":"大崎市","street":"古川北宮沢"},{"zipCode":"9896254","prefectureKana":"ﾐﾔｷﾞｹﾝ","cityKana":"ｵｵｻｷｼ","streetKana":"ﾌﾙｶﾜｷﾂﾈﾂﾞｶ","prefecture":"宮城県","city":"大崎市","street":"古川狐塚"},{"zipCode":"9896244","prefectureKana":"ﾐﾔｷﾞｹﾝ","cityKana":"ｵｵｻｷｼ","streetKana":"ﾌﾙｶﾜｷﾖﾀｷ","prefecture":"宮城県","city":"大崎市","street":"古川清滝"},{"zipCode":"9896122","prefectureKana":"ﾐﾔｷﾞｹﾝ","cityKana":"ｵｵｻｷｼ","streetKana":"ﾌﾙｶﾜｸﾜﾊﾞﾘ","prefecture":"宮城県","city":"大崎市","street":"古川桑針"},{"zipCode":"9896224","prefectureKana":"ﾐﾔｷﾞｹﾝ","cityKana":"ｵｵｻｷｼ","streetKana":"ﾌﾙｶﾜｺｲｽﾞﾐ","prefecture":"宮城県","city":"大崎市","street":"古川小泉"},{"zipCode":"9896144","prefectureKana":"ﾐﾔｷﾞｹﾝ","cityKana":"ｵｵｻｷｼ","streetKana":"ﾌﾙｶﾜｺｲﾅﾊﾞﾁｮｳ","prefecture":"宮城県","city":"大崎市","street":"古川小稲葉町"},{"zipCode":"9896251","prefectureKana":"ﾐﾔｷﾞｹﾝ","cityKana":"ｵｵｻｷｼ","streetKana":"ﾌﾙｶﾜｺﾉ","prefecture":"宮城県","city":"大崎市","street":"古川小野"},{"zipCode":"9896211","prefectureKana":"ﾐﾔｷﾞｹﾝ","cityKana":"ｵｵｻｷｼ","streetKana":"ﾌﾙｶﾜｻｲｹﾞ","prefecture":"宮城県","city":"大崎市","street":"古川斎下"},{"zipCode":"9896106","prefectureKana":"ﾐﾔｷﾞｹﾝ","cityKana":"ｵｵｻｷｼ","streetKana":"ﾌﾙｶﾜｻｲﾜｲﾁｮｳ","prefecture":"宮城県","city":"大崎市","street":"古川幸町"},{"zipCode":"9896128","prefectureKana":"ﾐﾔｷﾞｹﾝ","cityKana":"ｵｵｻｷｼ","streetKana":"ﾌﾙｶﾜｻｶｲﾉﾐﾔ","prefecture":"宮城県","city":"大崎市","street":"古川境野宮"},{"zipCode":"9896157","prefectureKana":"ﾐﾔｷﾞｹﾝ","cityKana":"ｵｵｻｷｼ","streetKana":"ﾌﾙｶﾜｻｶｴﾁｮｳ","prefecture":"宮城県","city":"大崎市","street":"古川栄町"},{"zipCode":"9896233","prefectureKana":"ﾐﾔｷﾞｹﾝ","cityKana":"ｵｵｻｷｼ","streetKana":"ﾌﾙｶﾜｻｸﾗﾉﾒ","prefecture":"宮城県","city":"大崎市","street":"古川桜ノ目"},{"zipCode":"9896232","prefectureKana":"ﾐﾔｷﾞｹﾝ","cityKana":"ｵｵｻｷｼ","streetKana":"ﾌﾙｶﾜｻﾜﾀﾞ","prefecture":"宮城県","city":"大崎市","street":"古川沢田"},{"zipCode":"9896201","prefectureKana":"ﾐﾔｷﾞｹﾝ","cityKana":"ｵｵｻｷｼ","streetKana":"ﾌﾙｶﾜｼﾌﾞｲ","prefecture":"宮城県","city":"大崎市","street":"古川渋井"},{"zipCode":"9896228","prefectureKana":"ﾐﾔｷﾞｹﾝ","cityKana":"ｵｵｻｷｼ","streetKana":"ﾌﾙｶﾜｼﾐｽﾞ","prefecture":"宮城県","city":"大崎市","street":"古川清水"},{"zipCode":"9896241","prefectureKana":"ﾐﾔｷﾞｹﾝ","cityKana":"ｵｵｻｷｼ","streetKana":"ﾌﾙｶﾜｼﾐｽﾞｻﾜ","prefecture":"宮城県","city":"大崎市","street":"古川清水沢"},{"zipCode":"9896123","prefectureKana":"ﾐﾔｷﾞｹﾝ","cityKana":"ｵｵｻｷｼ","streetKana":"ﾌﾙｶﾜｼﾓﾅｶﾉﾒ","prefecture":"宮城県","city":"大崎市","street":"古川下中目"},{"zipCode":"9896263","prefectureKana":"ﾐﾔｷﾞｹﾝ","cityKana":"ｵｵｻｷｼ","streetKana":"ﾌﾙｶﾜｼﾓﾔﾁ","prefecture":"宮城県","city":"大崎市","street":"古川下谷地"},{"zipCode":"9896151","prefectureKana":"ﾐﾔｷﾞｹﾝ","cityKana":"ｵｵｻｷｼ","streetKana":"ﾌﾙｶﾜｼﾛﾆｼ","prefecture":"宮城県","city":"大崎市","street":"古川城西"},{"zipCode":"9896116","prefectureKana":"ﾐﾔｷﾞｹﾝ","cityKana":"ｵｵｻｷｼ","streetKana":"ﾌﾙｶﾜｽﾓｿﾞﾈ","prefecture":"宮城県","city":"大崎市","street":"古川李埣"},{"zipCode":"9896175","prefectureKana":"ﾐﾔｷﾞｹﾝ","cityKana":"ｵｵｻｷｼ","streetKana":"ﾌﾙｶﾜｽﾜ","prefecture":"宮城県","city":"大崎市","street":"古川諏訪"},{"zipCode":"9896174","prefectureKana":"ﾐﾔｷﾞｹﾝ","cityKana":"ｵｵｻｷｼ","streetKana":"ﾌﾙｶﾜｾﾝｼﾞｭｳｼﾞﾁｮｳ","prefecture":"宮城県","city":"大崎市","street":"古川千手寺町"},{"zipCode":"9896163","prefectureKana":"ﾐﾔｷﾞｹﾝ","cityKana":"ｵｵｻｷｼ","streetKana":"ﾌﾙｶﾜﾀﾞｲﾏﾁ","prefecture":"宮城県","city":"大崎市","street":"古川台町"},{"zipCode":"9896126","prefectureKana":"ﾐﾔｷﾞｹﾝ","cityKana":"ｵｵｻｷｼ","streetKana":"ﾌﾙｶﾜﾀﾏﾉｷ","prefecture":"宮城県","city":"大崎市","street":"古川楡木"},{"zipCode":"9896225","prefectureKana":"ﾐﾔｷﾞｹﾝ","cityKana":"ｵｵｻｷｼ","streetKana":"ﾌﾙｶﾜﾂｶﾉﾒ","prefecture":"宮城県","city":"大崎市","street":"古川塚目"},{"zipCode":"9896207","prefectureKana":"ﾐﾔｷﾞｹﾝ","cityKana":"ｵｵｻｷｼ","streetKana":"ﾌﾙｶﾜﾂﾂﾐﾈ","prefecture":"宮城県","city":"大崎市","street":"古川堤根"},{"zipCode":"9896111","prefectureKana":"ﾐﾔｷﾞｹﾝ","cityKana":"ｵｵｻｷｼ","streetKana":"ﾌﾙｶﾜﾂﾙｶﾞｿﾈ","prefecture":"宮城県","city":"大崎市","street":"古川鶴ケ埣"},{"zipCode":"9896165","prefectureKana":"ﾐﾔｷﾞｹﾝ","cityKana":"ｵｵｻｷｼ","streetKana":"ﾌﾙｶﾜﾄｵｶﾏﾁ","prefecture":"宮城県","city":"大崎市","street":"古川十日町"},{"zipCode":"9896266","prefectureKana":"ﾐﾔｷﾞｹﾝ","cityKana":"ｵｵｻｷｼ","streetKana":"ﾌﾙｶﾜﾄﾐﾅｶﾞ","prefecture":"宮城県","city":"大崎市","street":"古川富長"},{"zipCode":"9896231","prefectureKana":"ﾐﾔｷﾞｹﾝ","cityKana":"ｵｵｻｷｼ","streetKana":"ﾌﾙｶﾜﾅｶﾞｵｶ","prefecture":"宮城県","city":"大崎市","street":"古川長岡"},{"zipCode":"9896261","prefectureKana":"ﾐﾔｷﾞｹﾝ","cityKana":"ｵｵｻｷｼ","streetKana":"ﾌﾙｶﾜﾅｶﾞｵｶﾊﾘ","prefecture":"宮城県","city":"大崎市","street":"古川長岡針"},{"zipCode":"9896143","prefectureKana":"ﾐﾔｷﾞｹﾝ","cityKana":"ｵｵｻｷｼ","streetKana":"ﾌﾙｶﾜﾅｶｻﾞﾄ","prefecture":"宮城県","city":"大崎市","street":"古川中里"},{"zipCode":"9896206","prefectureKana":"ﾐﾔｷﾞｹﾝ","cityKana":"ｵｵｻｷｼ","streetKana":"ﾌﾙｶﾜﾅｶｻﾞﾜ","prefecture":"宮城県","city":"大崎市","street":"古川中沢"},{"zipCode":"9896142","prefectureKana":"ﾐﾔｷﾞｹﾝ","cityKana":"ｵｵｻｷｼ","streetKana":"ﾌﾙｶﾜﾅｶｼﾞﾏﾁｮｳ","prefecture":"宮城県","city":"大崎市","street":"古川中島町"},{"zipCode":"9896153","prefectureKana":"ﾐﾔｷﾞｹﾝ","cityKana":"ｵｵｻｷｼ","streetKana":"ﾌﾙｶﾜﾅﾉｶﾏﾁ","prefecture":"宮城県","city":"大崎市","street":"古川七日町"},{"zipCode":"9896226","prefectureKana":"ﾐﾔｷﾞｹﾝ","cityKana":"ｵｵｻｷｼ","streetKana":"ﾌﾙｶﾜﾆｲﾀﾞ","prefecture":"宮城県","city":"大崎市","street":"古川新田"},{"zipCode":"9896205","prefectureKana":"ﾐﾔｷﾞｹﾝ","cityKana":"ｵｵｻｷｼ","streetKana":"ﾌﾙｶﾜﾆｲﾇﾏ","prefecture":"宮城県","city":"大崎市","street":"古川新沼"},{"zipCode":"9896214","prefectureKana":"ﾐﾔｷﾞｹﾝ","cityKana":"ｵｵｻｷｼ","streetKana":"ﾌﾙｶﾜﾆｲﾎﾞﾘ","prefecture":"宮城県","city":"大崎市","street":"古川新堀"},{"zipCode":"9896133","prefectureKana":"ﾐﾔｷﾞｹﾝ","cityKana":"ｵｵｻｷｼ","streetKana":"ﾌﾙｶﾜﾆｼｱﾗｲ","prefecture":"宮城県","city":"大崎市","street":"古川西荒井"},{"zipCode":"9896156","prefectureKana":"ﾐﾔｷﾞｹﾝ","cityKana":"ｵｵｻｷｼ","streetKana":"ﾌﾙｶﾜﾆｼﾀﾞﾃ","prefecture":"宮城県","city":"大崎市","street":"古川西館"},{"zipCode":"9896152","prefectureKana":"ﾐﾔｷﾞｹﾝ","cityKana":"ｵｵｻｷｼ","streetKana":"ﾌﾙｶﾜﾆﾉｶﾏｴ","prefecture":"宮城県","city":"大崎市","street":"古川二ノ構"},{"zipCode":"9896166","prefectureKana":"ﾐﾔｷﾞｹﾝ","cityKana":"ｵｵｻｷｼ","streetKana":"ﾌﾙｶﾜﾋｶﾞｼﾏﾁ","prefecture":"宮城県","city":"大崎市","street":"古川東町"},{"zipCode":"9896208","prefectureKana":"ﾐﾔｷﾞｹﾝ","cityKana":"ｵｵｻｷｼ","streetKana":"ﾌﾙｶﾜﾋｷﾀ","prefecture":"宮城県","city":"大崎市","street":"古川引田"},{"zipCode":"9896121","prefectureKana":"ﾐﾔｷﾞｹﾝ","cityKana":"ｵｵｻｷｼ","streetKana":"ﾌﾙｶﾜﾌｶﾇﾏ","prefecture":"宮城県","city":"大崎市","street":"古川深沼"},{"zipCode":"9896101","prefectureKana":"ﾐﾔｷﾞｹﾝ","cityKana":"ｵｵｻｷｼ","streetKana":"ﾌﾙｶﾜﾌｸｳﾗ","prefecture":"宮城県","city":"大崎市","street":"古川福浦"},{"zipCode":"9896105","prefectureKana":"ﾐﾔｷﾞｹﾝ","cityKana":"ｵｵｻｷｼ","streetKana":"ﾌﾙｶﾜﾌｸﾇﾏ","prefecture":"宮城県","city":"大崎市","street":"古川福沼"},{"zipCode":"9896265","prefectureKana":"ﾐﾔｷﾞｹﾝ","cityKana":"ｵｵｻｷｼ","streetKana":"ﾌﾙｶﾜﾌﾁｼﾞﾘ","prefecture":"宮城県","city":"大崎市","street":"古川渕尻"},{"zipCode":"9896136","prefectureKana":"ﾐﾔｷﾞｹﾝ","cityKana":"ｵｵｻｷｼ","streetKana":"ﾌﾙｶﾜﾎﾅﾐ","prefecture":"宮城県","city":"大崎市","street":"古川穂波"},{"zipCode":"9896213","prefectureKana":"ﾐﾔｷﾞｹﾝ","cityKana":"ｵｵｻｷｼ","streetKana":"ﾌﾙｶﾜﾎﾔﾅｷﾞ","prefecture":"宮城県","city":"大崎市","street":"古川保柳"},{"zipCode":"9896172","prefectureKana":"ﾐﾔｷﾞｹﾝ","cityKana":"ｵｵｻｷｼ","streetKana":"ﾌﾙｶﾜﾏｴﾀﾞﾁｮｳ","prefecture":"宮城県","city":"大崎市","street":"古川前田町"},{"zipCode":"9896262","prefectureKana":"ﾐﾔｷﾞｹﾝ","cityKana":"ｵｵｻｷｼ","streetKana":"ﾌﾙｶﾜﾏｸﾞｼ","prefecture":"宮城県","city":"大崎市","street":"古川馬櫛"},{"zipCode":"9896253","prefectureKana":"ﾐﾔｷﾞｹﾝ","cityKana":"ｵｵｻｷｼ","streetKana":"ﾌﾙｶﾜﾏﾊﾅｼ","prefecture":"宮城県","city":"大崎市","street":"古川馬放"},{"zipCode":"9896112","prefectureKana":"ﾐﾔｷﾞｹﾝ","cityKana":"ｵｵｻｷｼ","streetKana":"ﾌﾙｶﾜﾏﾖｾ","prefecture":"宮城県","city":"大崎市","street":"古川馬寄"},{"zipCode":"9896154","prefectureKana":"ﾐﾔｷﾞｹﾝ","cityKana":"ｵｵｻｷｼ","streetKana":"ﾌﾙｶﾜﾐｯｶﾏﾁ","prefecture":"宮城県","city":"大崎市","street":"古川三日町"},{"zipCode":"9896217","prefectureKana":"ﾐﾔｷﾞｹﾝ","cityKana":"ｵｵｻｷｼ","streetKana":"ﾌﾙｶﾜﾐﾅﾐｻﾞﾜ","prefecture":"宮城県","city":"大崎市","street":"古川南沢"},{"zipCode":"9896141","prefectureKana":"ﾐﾔｷﾞｹﾝ","cityKana":"ｵｵｻｷｼ","streetKana":"ﾌﾙｶﾜﾐﾅﾐｼﾝﾏﾁ","prefecture":"宮城県","city":"大崎市","street":"古川南新町"},{"zipCode":"9896155","prefectureKana":"ﾐﾔｷﾞｹﾝ","cityKana":"ｵｵｻｷｼ","streetKana":"ﾌﾙｶﾜﾐﾅﾐﾏﾁ","prefecture":"宮城県","city":"大崎市","street":"古川南町"},{"zipCode":"9896113","prefectureKana":"ﾐﾔｷﾞｹﾝ","cityKana":"ｵｵｻｷｼ","streetKana":"ﾌﾙｶﾜﾐﾉｸﾁﾇﾏ","prefecture":"宮城県","city":"大崎市","street":"古川蓑口沼"},{"zipCode":"9896215","prefectureKana":"ﾐﾔｷﾞｹﾝ","cityKana":"ｵｵｻｷｼ","streetKana":"ﾌﾙｶﾜﾐﾐﾄﾘ","prefecture":"宮城県","city":"大崎市","street":"古川耳取"},{"zipCode":"9896127","prefectureKana":"ﾐﾔｷﾞｹﾝ","cityKana":"ｵｵｻｷｼ","streetKana":"ﾌﾙｶﾜﾐﾔｳﾁ","prefecture":"宮城県","city":"大崎市","street":"古川宮内"},{"zipCode":"9896235","prefectureKana":"ﾐﾔｷﾞｹﾝ","cityKana":"ｵｵｻｷｼ","streetKana":"ﾌﾙｶﾜﾐﾔｻﾞﾜ","prefecture":"宮城県","city":"大崎市","street":"古川宮沢"},{"zipCode":"9896125","prefectureKana":"ﾐﾔｷﾞｹﾝ","cityKana":"ｵｵｻｷｼ","streetKana":"ﾌﾙｶﾜﾓﾛﾔﾏ","prefecture":"宮城県","city":"大崎市","street":"古川師山"},{"zipCode":"9896255","prefectureKana":"ﾐﾔｷﾞｹﾝ","cityKana":"ｵｵｻｷｼ","streetKana":"ﾌﾙｶﾜﾔｽﾐﾂﾞｶ","prefecture":"宮城県","city":"大崎市","street":"古川休塚"},{"zipCode":"9896204","prefectureKana":"ﾐﾔｷﾞｹﾝ","cityKana":"ｵｵｻｷｼ","streetKana":"ﾌﾙｶﾜﾔﾉﾒ","prefecture":"宮城県","city":"大崎市","street":"古川矢目"},{"zipCode":"9896134","prefectureKana":"ﾐﾔｷﾞｹﾝ","cityKana":"ｵｵｻｷｼ","streetKana":"ﾌﾙｶﾜﾖﾈｸﾗ","prefecture":"宮城県","city":"大崎市","street":"古川米倉"},{"zipCode":"9896132","prefectureKana":"ﾐﾔｷﾞｹﾝ","cityKana":"ｵｵｻｷｼ","streetKana":"ﾌﾙｶﾜﾖﾈﾌﾞｸﾛ","prefecture":"宮城県","city":"大崎市","street":"古川米袋"},{"zipCode":"9896222","prefectureKana":"ﾐﾔｷﾞｹﾝ","cityKana":"ｵｵｻｷｼ","streetKana":"ﾌﾙｶﾜﾜｶﾊﾞﾁｮｳ","prefecture":"宮城県","city":"大崎市","street":"古川若葉町"},{"zipCode":"9890800","prefectureKana":"ﾐﾔｷﾞｹﾝ","cityKana":"ｶｯﾀｸﾞﾝｻﾞｵｳﾏﾁ","streetKana":"ｲｶﾆｹｲｻｲｶﾞﾅｲﾊﾞｱｲ","prefecture":"宮城県","city":"刈田郡蔵王町","street":"以下に掲載がない場合"},{"zipCode":"9890921","prefectureKana":"ﾐﾔｷﾞｹﾝ","cityKana":"ｶｯﾀｸﾞﾝｻﾞｵｳﾏﾁ","streetKana":"ｴﾝﾀﾞ(ｶﾏｻﾞﾜ､ｾﾞﾝﾌﾞﾓﾘ､ﾄﾞﾌﾞﾔﾁ､ﾄﾞﾌﾞﾔﾏ2-5ﾊﾞﾝﾁ)","prefecture":"宮城県","city":"刈田郡蔵王町","street":"円田（釜沢、善舞森、土浮谷地、土浮山２～５番地）"},{"zipCode":"9890821","prefectureKana":"ﾐﾔｷﾞｹﾝ","cityKana":"ｶｯﾀｸﾞﾝｻﾞｵｳﾏﾁ","streetKana":"ｴﾝﾀﾞ(ｿﾉﾀ)","prefecture":"宮城県","city":"刈田郡蔵王町","street":"円田（その他）"},{"zipCode":"9890841","prefectureKana":"ﾐﾔｷﾞｹﾝ","cityKana":"ｶｯﾀｸﾞﾝｻﾞｵｳﾏﾁ","streetKana":"ｺﾑﾗｻｷ","prefecture":"宮城県","city":"刈田郡蔵王町","street":"小村崎"},{"zipCode":"9890842","prefectureKana":"ﾐﾔｷﾞｹﾝ","cityKana":"ｶｯﾀｸﾞﾝｻﾞｵｳﾏﾁ","streetKana":"ｼｵｻﾞﾜ","prefecture":"宮城県","city":"刈田郡蔵王町","street":"塩沢"},{"zipCode":"9890916","prefectureKana":"ﾐﾔｷﾞｹﾝ","cityKana":"ｶｯﾀｸﾞﾝｻﾞｵｳﾏﾁ","streetKana":"ﾄｵｶﾞｯﾀｵﾝｾﾝ","prefecture":"宮城県","city":"刈田郡蔵王町","street":"遠刈田温泉"},{"zipCode":"9890914","prefectureKana":"ﾐﾔｷﾞｹﾝ","cityKana":"ｶｯﾀｸﾞﾝｻﾞｵｳﾏﾁ","streetKana":"ﾄｵｶﾞｯﾀｵﾝｾﾝｱｻﾋﾁｮｳ","prefecture":"宮城県","city":"刈田郡蔵王町","street":"遠刈田温泉旭町"},{"zipCode":"9890915","prefectureKana":"ﾐﾔｷﾞｹﾝ","cityKana":"ｶｯﾀｸﾞﾝｻﾞｵｳﾏﾁ","streetKana":"ﾄｵｶﾞｯﾀｵﾝｾﾝｺﾄﾌﾞｷﾁｮｳ","prefecture":"宮城県","city":"刈田郡蔵王町","street":"遠刈田温泉寿町"},{"zipCode":"9890911","prefectureKana":"ﾐﾔｷﾞｹﾝ","cityKana":"ｶｯﾀｸﾞﾝｻﾞｵｳﾏﾁ","streetKana":"ﾄｵｶﾞｯﾀｵﾝｾﾝｻｶｴﾁｮｳ","prefecture":"宮城県","city":"刈田郡蔵王町","street":"遠刈田温泉栄町"},{"zipCode":"9890912","prefectureKana":"ﾐﾔｷﾞｹﾝ","cityKana":"ｶｯﾀｸﾞﾝｻﾞｵｳﾏﾁ","streetKana":"ﾄｵｶﾞｯﾀｵﾝｾﾝﾅｶﾏﾁ","prefecture":"宮城県","city":"刈田郡蔵王町","street":"遠刈田温泉仲町"},{"zipCode":"9890913","prefectureKana":"ﾐﾔｷﾞｹﾝ","cityKana":"ｶｯﾀｸﾞﾝｻﾞｵｳﾏﾁ","streetKana":"ﾄｵｶﾞｯﾀｵﾝｾﾝﾓﾄﾏﾁ","prefecture":"宮城県","city":"刈田郡蔵王町","street":"遠刈田温泉本町"},{"zipCode":"9890831","prefectureKana":"ﾐﾔｷﾞｹﾝ","cityKana":"ｶｯﾀｸﾞﾝｻﾞｵｳﾏﾁ","streetKana":"ﾋﾗｻﾜ","prefecture":"宮城県","city":"刈田郡蔵王町","street":"平沢"},{"zipCode":"9890851","prefectureKana":"ﾐﾔｷﾞｹﾝ","cityKana":"ｶｯﾀｸﾞﾝｻﾞｵｳﾏﾁ","streetKana":"ﾏｶﾞﾀｹ","prefecture":"宮城県","city":"刈田郡蔵王町","street":"曲竹"},{"zipCode":"9890701","prefectureKana":"ﾐﾔｷﾞｹﾝ","cityKana":"ｶｯﾀｸﾞﾝｻﾞｵｳﾏﾁ","streetKana":"ﾐﾔ","prefecture":"宮城県","city":"刈田郡蔵王町","street":"宮"},{"zipCode":"9890843","prefectureKana":"ﾐﾔｷﾞｹﾝ","cityKana":"ｶｯﾀｸﾞﾝｻﾞｵｳﾏﾁ","streetKana":"ﾔﾂﾞｷ","prefecture":"宮城県","city":"刈田郡蔵王町","street":"矢附"},{"zipCode":"9890500","prefectureKana":"ﾐﾔｷﾞｹﾝ","cityKana":"ｶｯﾀｸﾞﾝｼﾁｶｼｭｸﾏﾁ","streetKana":"ｲｶﾆｹｲｻｲｶﾞﾅｲﾊﾞｱｲ","prefecture":"宮城県","city":"刈田郡七ヶ宿町","street":"以下に掲載がない場合"},{"zipCode":"9890662","prefectureKana":"ﾐﾔｷﾞｹﾝ","cityKana":"ｶｯﾀｸﾞﾝｼﾁｶｼｭｸﾏﾁ","streetKana":"ｱｶﾁ","prefecture":"宮城県","city":"刈田郡七ヶ宿町","street":"赤地"},{"zipCode":"9890556","prefectureKana":"ﾐﾔｷﾞｹﾝ","cityKana":"ｶｯﾀｸﾞﾝｼﾁｶｼｭｸﾏﾁ","streetKana":"ｱﾀｺﾞｼﾀ","prefecture":"宮城県","city":"刈田郡七ヶ宿町","street":"愛宕下"},{"zipCode":"9890506","prefectureKana":"ﾐﾔｷﾞｹﾝ","cityKana":"ｶｯﾀｸﾞﾝｼﾁｶｼｭｸﾏﾁ","streetKana":"ｱﾌﾞﾗﾊﾀ","prefecture":"宮城県","city":"刈田郡七ヶ宿町","street":"油畑"},{"zipCode":"9890635","prefectureKana":"ﾐﾔｷﾞｹﾝ","cityKana":"ｶｯﾀｸﾞﾝｼﾁｶｼｭｸﾏﾁ","streetKana":"ｲﾀｷﾞ","prefecture":"宮城県","city":"刈田郡七ヶ宿町","street":"板木"},{"zipCode":"9890522","prefectureKana":"ﾐﾔｷﾞｹﾝ","cityKana":"ｶｯﾀｸﾞﾝｼﾁｶｼｭｸﾏﾁ","streetKana":"ｲﾁﾏｲﾀﾞ","prefecture":"宮城県","city":"刈田郡七ヶ宿町","street":"一枚田"},{"zipCode":"9890643","prefectureKana":"ﾐﾔｷﾞｹﾝ","cityKana":"ｶｯﾀｸﾞﾝｼﾁｶｼｭｸﾏﾁ","streetKana":"ｲﾅｺﾞ","prefecture":"宮城県","city":"刈田郡七ヶ宿町","street":"稲子"},{"zipCode":"9890644","prefectureKana":"ﾐﾔｷﾞｹﾝ","cityKana":"ｶｯﾀｸﾞﾝｼﾁｶｼｭｸﾏﾁ","streetKana":"ｲﾅｺﾞﾔﾏ","prefecture":"宮城県","city":"刈田郡七ヶ宿町","street":"稲子山"},{"zipCode":"9890537","prefectureKana":"ﾐﾔｷﾞｹﾝ","cityKana":"ｶｯﾀｸﾞﾝｼﾁｶｼｭｸﾏﾁ","streetKana":"ｳﾜﾉ","prefecture":"宮城県","city":"刈田郡七ヶ宿町","street":"上野"},{"zipCode":"9890631","prefectureKana":"ﾐﾔｷﾞｹﾝ","cityKana":"ｶｯﾀｸﾞﾝｼﾁｶｼｭｸﾏﾁ","streetKana":"ｵｵｲｼｶﾜﾗ","prefecture":"宮城県","city":"刈田郡七ヶ宿町","street":"大石川原"},{"zipCode":"9890507","prefectureKana":"ﾐﾔｷﾞｹﾝ","cityKana":"ｶｯﾀｸﾞﾝｼﾁｶｼｭｸﾏﾁ","streetKana":"ｵｵｶﾞﾔ","prefecture":"宮城県","city":"刈田郡七ヶ宿町","street":"大萱"},{"zipCode":"9890529","prefectureKana":"ﾐﾔｷﾞｹﾝ","cityKana":"ｶｯﾀｸﾞﾝｼﾁｶｼｭｸﾏﾁ","streetKana":"ｵｵｽｷﾞ","prefecture":"宮城県","city":"刈田郡七ヶ宿町","street":"大杉"},{"zipCode":"9890516","prefectureKana":"ﾐﾔｷﾞｹﾝ","cityKana":"ｶｯﾀｸﾞﾝｼﾁｶｼｭｸﾏﾁ","streetKana":"ｵｵﾇｷﾀﾞｲﾗ","prefecture":"宮城県","city":"刈田郡七ヶ宿町","street":"大貫平"},{"zipCode":"9890553","prefectureKana":"ﾐﾔｷﾞｹﾝ","cityKana":"ｶｯﾀｸﾞﾝｼﾁｶｼｭｸﾏﾁ","streetKana":"ｵｵﾑｶｴ","prefecture":"宮城県","city":"刈田郡七ヶ宿町","street":"大迎"},{"zipCode":"9890501","prefectureKana":"ﾐﾔｷﾞｹﾝ","cityKana":"ｶｯﾀｸﾞﾝｼﾁｶｼｭｸﾏﾁ","streetKana":"ｶｼﾜｷﾞﾔﾏ","prefecture":"宮城県","city":"刈田郡七ヶ宿町","street":"柏木山"},{"zipCode":"9890543","prefectureKana":"ﾐﾔｷﾞｹﾝ","cityKana":"ｶｯﾀｸﾞﾝｼﾁｶｼｭｸﾏﾁ","streetKana":"ｶﾊﾞﾉｷ","prefecture":"宮城県","city":"刈田郡七ヶ宿町","street":"蒲木"},{"zipCode":"9890524","prefectureKana":"ﾐﾔｷﾞｹﾝ","cityKana":"ｶｯﾀｸﾞﾝｼﾁｶｼｭｸﾏﾁ","streetKana":"ｶﾐｶﾗｽｶﾞﾜ","prefecture":"宮城県","city":"刈田郡七ヶ宿町","street":"上烏川"},{"zipCode":"9890613","prefectureKana":"ﾐﾔｷﾞｹﾝ","cityKana":"ｶｯﾀｸﾞﾝｼﾁｶｼｭｸﾏﾁ","streetKana":"ｶﾐｶﾜﾗ","prefecture":"宮城県","city":"刈田郡七ヶ宿町","street":"上川原"},{"zipCode":"9890516","prefectureKana":"ﾐﾔｷﾞｹﾝ","cityKana":"ｶｯﾀｸﾞﾝｼﾁｶｼｭｸﾏﾁ","streetKana":"ｶﾐｼﾏﾀﾞﾊﾗ","prefecture":"宮城県","city":"刈田郡七ヶ宿町","street":"上島田原"},{"zipCode":"9890504","prefectureKana":"ﾐﾔｷﾞｹﾝ","cityKana":"ｶｯﾀｸﾞﾝｼﾁｶｼｭｸﾏﾁ","streetKana":"ｶﾐﾉﾀｲﾗ","prefecture":"宮城県","city":"刈田郡七ヶ宿町","street":"上ノ平"},{"zipCode":"9890505","prefectureKana":"ﾐﾔｷﾞｹﾝ","cityKana":"ｶｯﾀｸﾞﾝｼﾁｶｼｭｸﾏﾁ","streetKana":"ｶﾐﾉﾀｲﾗﾔﾏ","prefecture":"宮城県","city":"刈田郡七ヶ宿町","street":"上ノ平山"},{"zipCode":"9890623","prefectureKana":"ﾐﾔｷﾞｹﾝ","cityKana":"ｶｯﾀｸﾞﾝｼﾁｶｼｭｸﾏﾁ","streetKana":"ｶﾐﾉﾀﾞｲ","prefecture":"宮城県","city":"刈田郡七ヶ宿町","street":"上ノ台"},{"zipCode":"9890517","prefectureKana":"ﾐﾔｷﾞｹﾝ","cityKana":"ｶｯﾀｸﾞﾝｼﾁｶｼｭｸﾏﾁ","streetKana":"ｶﾐﾊﾁｺﾞｳ","prefecture":"宮城県","city":"刈田郡七ヶ宿町","street":"上八合"},{"zipCode":"9890519","prefectureKana":"ﾐﾔｷﾞｹﾝ","cityKana":"ｶｯﾀｸﾞﾝｼﾁｶｼｭｸﾏﾁ","streetKana":"ｶﾐﾊﾞﾔｼﾔﾏ","prefecture":"宮城県","city":"刈田郡七ヶ宿町","street":"神林山"},{"zipCode":"9890513","prefectureKana":"ﾐﾔｷﾞｹﾝ","cityKana":"ｶｯﾀｸﾞﾝｼﾁｶｼｭｸﾏﾁ","streetKana":"ｶﾐﾏﾁｼﾞﾘ","prefecture":"宮城県","city":"刈田郡七ヶ宿町","street":"上町尻"},{"zipCode":"9890527","prefectureKana":"ﾐﾔｷﾞｹﾝ","cityKana":"ｶｯﾀｸﾞﾝｼﾁｶｼｭｸﾏﾁ","streetKana":"ｶﾗｽｶﾞﾜﾀﾞｹ","prefecture":"宮城県","city":"刈田郡七ヶ宿町","street":"烏川岳"},{"zipCode":"9890664","prefectureKana":"ﾐﾔｷﾞｹﾝ","cityKana":"ｶｯﾀｸﾞﾝｼﾁｶｼｭｸﾏﾁ","streetKana":"ｷﾞｮｳﾆﾝﾊﾗﾐﾁｳｴ","prefecture":"宮城県","city":"刈田郡七ヶ宿町","street":"行人原道上"},{"zipCode":"9890536","prefectureKana":"ﾐﾔｷﾞｹﾝ","cityKana":"ｶｯﾀｸﾞﾝｼﾁｶｼｭｸﾏﾁ","streetKana":"ｷﾘﾄｵｼ","prefecture":"宮城県","city":"刈田郡七ヶ宿町","street":"切通"},{"zipCode":"9890561","prefectureKana":"ﾐﾔｷﾞｹﾝ","cityKana":"ｶｯﾀｸﾞﾝｼﾁｶｼｭｸﾏﾁ","streetKana":"ｸﾘﾊﾗ","prefecture":"宮城県","city":"刈田郡七ヶ宿町","street":"栗原"},{"zipCode":"9890634","prefectureKana":"ﾐﾔｷﾞｹﾝ","cityKana":"ｶｯﾀｸﾞﾝｼﾁｶｼｭｸﾏﾁ","streetKana":"ｺｶｺﾞｻﾜ","prefecture":"宮城県","city":"刈田郡七ヶ宿町","street":"小駕籠沢"},{"zipCode":"9890628","prefectureKana":"ﾐﾔｷﾞｹﾝ","cityKana":"ｶｯﾀｸﾞﾝｼﾁｶｼｭｸﾏﾁ","streetKana":"ｻｶｲﾉｻﾜ","prefecture":"宮城県","city":"刈田郡七ヶ宿町","street":"境ノ沢"},{"zipCode":"9890661","prefectureKana":"ﾐﾔｷﾞｹﾝ","cityKana":"ｶｯﾀｸﾞﾝｼﾁｶｼｭｸﾏﾁ","streetKana":"ｻｶﾉｳｴ","prefecture":"宮城県","city":"刈田郡七ヶ宿町","street":"坂ノ上"},{"zipCode":"9890627","prefectureKana":"ﾐﾔｷﾞｹﾝ","cityKana":"ｶｯﾀｸﾞﾝｼﾁｶｼｭｸﾏﾁ","streetKana":"ｻｶﾉｼﾀ","prefecture":"宮城県","city":"刈田郡七ヶ宿町","street":"坂ノ下"},{"zipCode":"9890528","prefectureKana":"ﾐﾔｷﾞｹﾝ","cityKana":"ｶｯﾀｸﾞﾝｼﾁｶｼｭｸﾏﾁ","streetKana":"ｻﾜｶﾞﾐﾔﾏ","prefecture":"宮城県","city":"刈田郡七ヶ宿町","street":"沢上山"},{"zipCode":"9890541","prefectureKana":"ﾐﾔｷﾞｹﾝ","cityKana":"ｶｯﾀｸﾞﾝｼﾁｶｼｭｸﾏﾁ","streetKana":"ｼｷﾘﾒ","prefecture":"宮城県","city":"刈田郡七ヶ宿町","street":"仕切目"},{"zipCode":"9890542","prefectureKana":"ﾐﾔｷﾞｹﾝ","cityKana":"ｶｯﾀｸﾞﾝｼﾁｶｼｭｸﾏﾁ","streetKana":"ｼﾏｷﾞﾉ","prefecture":"宮城県","city":"刈田郡七ヶ宿町","street":"島木野"},{"zipCode":"9890516","prefectureKana":"ﾐﾔｷﾞｹﾝ","cityKana":"ｶｯﾀｸﾞﾝｼﾁｶｼｭｸﾏﾁ","streetKana":"ｼﾓｼﾏﾀﾞﾊﾗ","prefecture":"宮城県","city":"刈田郡七ヶ宿町","street":"下島田原"},{"zipCode":"9890518","prefectureKana":"ﾐﾔｷﾞｹﾝ","cityKana":"ｶｯﾀｸﾞﾝｼﾁｶｼｭｸﾏﾁ","streetKana":"ｼﾓﾊﾁｺﾞｳ","prefecture":"宮城県","city":"刈田郡七ヶ宿町","street":"下八合"},{"zipCode":"9890514","prefectureKana":"ﾐﾔｷﾞｹﾝ","cityKana":"ｶｯﾀｸﾞﾝｼﾁｶｼｭｸﾏﾁ","streetKana":"ｼﾓﾏﾁｼﾞﾘ","prefecture":"宮城県","city":"刈田郡七ヶ宿町","street":"下町尻"},{"zipCode":"9890554","prefectureKana":"ﾐﾔｷﾞｹﾝ","cityKana":"ｶｯﾀｸﾞﾝｼﾁｶｼｭｸﾏﾁ","streetKana":"ｼﾞﾝﾉｸﾎﾞ","prefecture":"宮城県","city":"刈田郡七ヶ宿町","street":"陳ノ窪"},{"zipCode":"9890521","prefectureKana":"ﾐﾔｷﾞｹﾝ","cityKana":"ｶｯﾀｸﾞﾝｼﾁｶｼｭｸﾏﾁ","streetKana":"ｼﾝﾗｲｼﾞﾝ","prefecture":"宮城県","city":"刈田郡七ヶ宿町","street":"新雷神"},{"zipCode":"9890616","prefectureKana":"ﾐﾔｷﾞｹﾝ","cityKana":"ｶｯﾀｸﾞﾝｼﾁｶｼｭｸﾏﾁ","streetKana":"ｽｽｷｻﾞﾜｸﾞﾁ","prefecture":"宮城県","city":"刈田郡七ヶ宿町","street":"薄沢口"},{"zipCode":"9890519","prefectureKana":"ﾐﾔｷﾞｹﾝ","cityKana":"ｶｯﾀｸﾞﾝｼﾁｶｼｭｸﾏﾁ","streetKana":"ｽﾜﾊﾞﾗ","prefecture":"宮城県","city":"刈田郡七ヶ宿町","street":"諏訪原"},{"zipCode":"9890512","prefectureKana":"ﾐﾔｷﾞｹﾝ","cityKana":"ｶｯﾀｸﾞﾝｼﾁｶｼｭｸﾏﾁ","streetKana":"ｾｷ","prefecture":"宮城県","city":"刈田郡七ヶ宿町","street":"関"},{"zipCode":"9890529","prefectureKana":"ﾐﾔｷﾞｹﾝ","cityKana":"ｶｯﾀｸﾞﾝｼﾁｶｼｭｸﾏﾁ","streetKana":"ｾﾐﾊﾗ","prefecture":"宮城県","city":"刈田郡七ヶ宿町","street":"瀬見原"},{"zipCode":"9890617","prefectureKana":"ﾐﾔｷﾞｹﾝ","cityKana":"ｶｯﾀｸﾞﾝｼﾁｶｼｭｸﾏﾁ","streetKana":"ﾀｷｼﾀ","prefecture":"宮城県","city":"刈田郡七ヶ宿町","street":"滝下"},{"zipCode":"9890555","prefectureKana":"ﾐﾔｷﾞｹﾝ","cityKana":"ｶｯﾀｸﾞﾝｼﾁｶｼｭｸﾏﾁ","streetKana":"ﾀｷﾉｳｴ","prefecture":"宮城県","city":"刈田郡七ヶ宿町","street":"滝ノ上"},{"zipCode":"9890523","prefectureKana":"ﾐﾔｷﾞｹﾝ","cityKana":"ｶｯﾀｸﾞﾝｼﾁｶｼｭｸﾏﾁ","streetKana":"ﾀﾃｼﾀ","prefecture":"宮城県","city":"刈田郡七ヶ宿町","street":"館下"},{"zipCode":"9890633","prefectureKana":"ﾐﾔｷﾞｹﾝ","cityKana":"ｶｯﾀｸﾞﾝｼﾁｶｼｭｸﾏﾁ","streetKana":"ﾀﾅｶﾐﾁｳｴ","prefecture":"宮城県","city":"刈田郡七ヶ宿町","street":"田中道上"},{"zipCode":"9890632","prefectureKana":"ﾐﾔｷﾞｹﾝ","cityKana":"ｶｯﾀｸﾞﾝｼﾁｶｼｭｸﾏﾁ","streetKana":"ﾀﾅｶﾐﾁｼﾀ","prefecture":"宮城県","city":"刈田郡七ヶ宿町","street":"田中道下"},{"zipCode":"9890655","prefectureKana":"ﾐﾔｷﾞｹﾝ","cityKana":"ｶｯﾀｸﾞﾝｼﾁｶｼｭｸﾏﾁ","streetKana":"ﾀﾞﾝﾉﾏｴ","prefecture":"宮城県","city":"刈田郡七ヶ宿町","street":"壇前"},{"zipCode":"9890508","prefectureKana":"ﾐﾔｷﾞｹﾝ","cityKana":"ｶｯﾀｸﾞﾝｼﾁｶｼｭｸﾏﾁ","streetKana":"ﾁｮｳﾛｳ","prefecture":"宮城県","city":"刈田郡七ヶ宿町","street":"長老"},{"zipCode":"9890602","prefectureKana":"ﾐﾔｷﾞｹﾝ","cityKana":"ｶｯﾀｸﾞﾝｼﾁｶｼｭｸﾏﾁ","streetKana":"ﾃﾗｱﾄ","prefecture":"宮城県","city":"刈田郡七ヶ宿町","street":"寺跡"},{"zipCode":"9890654","prefectureKana":"ﾐﾔｷﾞｹﾝ","cityKana":"ｶｯﾀｸﾞﾝｼﾁｶｼｭｸﾏﾁ","streetKana":"ﾃﾗﾏｴ","prefecture":"宮城県","city":"刈田郡七ヶ宿町","street":"寺前"},{"zipCode":"9890621","prefectureKana":"ﾐﾔｷﾞｹﾝ","cityKana":"ｶｯﾀｸﾞﾝｼﾁｶｼｭｸﾏﾁ","streetKana":"ﾄｳｹﾞﾀ","prefecture":"宮城県","city":"刈田郡七ヶ宿町","street":"峠田"},{"zipCode":"9890625","prefectureKana":"ﾐﾔｷﾞｹﾝ","cityKana":"ｶｯﾀｸﾞﾝｼﾁｶｼｭｸﾏﾁ","streetKana":"ﾄｳｹﾞﾀｱﾀｺﾞｼﾀ","prefecture":"宮城県","city":"刈田郡七ヶ宿町","street":"峠田愛宕下"},{"zipCode":"9890622","prefectureKana":"ﾐﾔｷﾞｹﾝ","cityKana":"ｶｯﾀｸﾞﾝｼﾁｶｼｭｸﾏﾁ","streetKana":"ﾄｳｹﾞﾀﾏﾁｶｼﾗ","prefecture":"宮城県","city":"刈田郡七ヶ宿町","street":"峠田町頭"},{"zipCode":"9890614","prefectureKana":"ﾐﾔｷﾞｹﾝ","cityKana":"ｶｯﾀｸﾞﾝｼﾁｶｼｭｸﾏﾁ","streetKana":"ﾅｶｶﾞﾜﾊﾗ","prefecture":"宮城県","city":"刈田郡七ヶ宿町","street":"中川原"},{"zipCode":"9890547","prefectureKana":"ﾐﾔｷﾞｹﾝ","cityKana":"ｶｯﾀｸﾞﾝｼﾁｶｼｭｸﾏﾁ","streetKana":"ﾅｶﾉｻﾜ","prefecture":"宮城県","city":"刈田郡七ヶ宿町","street":"中之沢"},{"zipCode":"9890544","prefectureKana":"ﾐﾔｷﾞｹﾝ","cityKana":"ｶｯﾀｸﾞﾝｼﾁｶｼｭｸﾏﾁ","streetKana":"ﾅｶﾉｻﾜﾊﾗﾐﾁｼﾀ","prefecture":"宮城県","city":"刈田郡七ヶ宿町","street":"中ノ沢原道下"},{"zipCode":"9890535","prefectureKana":"ﾐﾔｷﾞｹﾝ","cityKana":"ｶｯﾀｸﾞﾝｼﾁｶｼｭｸﾏﾁ","streetKana":"ﾅﾂﾅｼﾀﾞｲﾗ","prefecture":"宮城県","city":"刈田郡七ヶ宿町","street":"夏梨平"},{"zipCode":"9890549","prefectureKana":"ﾐﾔｷﾞｹﾝ","cityKana":"ｶｯﾀｸﾞﾝｼﾁｶｼｭｸﾏﾁ","streetKana":"ﾅﾒﾂ","prefecture":"宮城県","city":"刈田郡七ヶ宿町","street":"滑津"},{"zipCode":"9890552","prefectureKana":"ﾐﾔｷﾞｹﾝ","cityKana":"ｶｯﾀｸﾞﾝｼﾁｶｼｭｸﾏﾁ","streetKana":"ﾅﾜｼﾛﾊﾞﾀ","prefecture":"宮城県","city":"刈田郡七ヶ宿町","street":"苗代端"},{"zipCode":"9890516","prefectureKana":"ﾐﾔｷﾞｹﾝ","cityKana":"ｶｯﾀｸﾞﾝｼﾁｶｼｭｸﾏﾁ","streetKana":"ﾆｼｼﾏﾀﾞﾊﾗ","prefecture":"宮城県","city":"刈田郡七ヶ宿町","street":"西島田原"},{"zipCode":"9890502","prefectureKana":"ﾐﾔｷﾞｹﾝ","cityKana":"ｶｯﾀｸﾞﾝｼﾁｶｼｭｸﾏﾁ","streetKana":"ﾆｼﾏﾁｳﾗ","prefecture":"宮城県","city":"刈田郡七ヶ宿町","street":"西町裏"},{"zipCode":"9890557","prefectureKana":"ﾐﾔｷﾞｹﾝ","cityKana":"ｶｯﾀｸﾞﾝｼﾁｶｼｭｸﾏﾁ","streetKana":"ﾆｼﾓﾘｼﾀ","prefecture":"宮城県","city":"刈田郡七ヶ宿町","street":"西森下"},{"zipCode":"9890615","prefectureKana":"ﾐﾔｷﾞｹﾝ","cityKana":"ｶｯﾀｸﾞﾝｼﾁｶｼｭｸﾏﾁ","streetKana":"ﾇﾏﾀ","prefecture":"宮城県","city":"刈田郡七ヶ宿町","street":"沼田"},{"zipCode":"9890532","prefectureKana":"ﾐﾔｷﾞｹﾝ","cityKana":"ｶｯﾀｸﾞﾝｼﾁｶｼｭｸﾏﾁ","streetKana":"ﾈｿﾞｴ","prefecture":"宮城県","city":"刈田郡七ヶ宿町","street":"根添"},{"zipCode":"9890535","prefectureKana":"ﾐﾔｷﾞｹﾝ","cityKana":"ｶｯﾀｸﾞﾝｼﾁｶｼｭｸﾏﾁ","streetKana":"ﾉｻﾞﾜｸﾗﾔﾏ","prefecture":"宮城県","city":"刈田郡七ヶ宿町","street":"野沢倉山"},{"zipCode":"9890537","prefectureKana":"ﾐﾔｷﾞｹﾝ","cityKana":"ｶｯﾀｸﾞﾝｼﾁｶｼｭｸﾏﾁ","streetKana":"ﾊｷﾞｻﾞｷ","prefecture":"宮城県","city":"刈田郡七ヶ宿町","street":"萩崎"},{"zipCode":"9890545","prefectureKana":"ﾐﾔｷﾞｹﾝ","cityKana":"ｶｯﾀｸﾞﾝｼﾁｶｼｭｸﾏﾁ","streetKana":"ﾊﾗﾐﾁｳｴ","prefecture":"宮城県","city":"刈田郡七ヶ宿町","street":"原道上"},{"zipCode":"9890546","prefectureKana":"ﾐﾔｷﾞｹﾝ","cityKana":"ｶｯﾀｸﾞﾝｼﾁｶｼｭｸﾏﾁ","streetKana":"ﾊﾗﾐﾁｼﾀ","prefecture":"宮城県","city":"刈田郡七ヶ宿町","street":"原道下"},{"zipCode":"9890544","prefectureKana":"ﾐﾔｷﾞｹﾝ","cityKana":"ｶｯﾀｸﾞﾝｼﾁｶｼｭｸﾏﾁ","streetKana":"ﾊﾗﾔﾁｷﾞﾜ","prefecture":"宮城県","city":"刈田郡七ヶ宿町","street":"原谷地際"},{"zipCode":"9890666","prefectureKana":"ﾐﾔｷﾞｹﾝ","cityKana":"ｶｯﾀｸﾞﾝｼﾁｶｼｭｸﾏﾁ","streetKana":"ﾋｶﾊﾞ","prefecture":"宮城県","city":"刈田郡七ヶ宿町","street":"干蒲"},{"zipCode":"9890651","prefectureKana":"ﾐﾔｷﾞｹﾝ","cityKana":"ｶｯﾀｸﾞﾝｼﾁｶｼｭｸﾏﾁ","streetKana":"ﾋｶﾞｼｸﾞﾁﾐﾁｳｴ","prefecture":"宮城県","city":"刈田郡七ヶ宿町","street":"東口道上"},{"zipCode":"9890652","prefectureKana":"ﾐﾔｷﾞｹﾝ","cityKana":"ｶｯﾀｸﾞﾝｼﾁｶｼｭｸﾏﾁ","streetKana":"ﾋｶﾞｼｸﾞﾁﾐﾁｼﾀ","prefecture":"宮城県","city":"刈田郡七ヶ宿町","street":"東口道下"},{"zipCode":"9890663","prefectureKana":"ﾐﾔｷﾞｹﾝ","cityKana":"ｶｯﾀｸﾞﾝｼﾁｶｼｭｸﾏﾁ","streetKana":"ﾋｶﾞｼｻﾜ","prefecture":"宮城県","city":"刈田郡七ヶ宿町","street":"東沢"},{"zipCode":"9890516","prefectureKana":"ﾐﾔｷﾞｹﾝ","cityKana":"ｶｯﾀｸﾞﾝｼﾁｶｼｭｸﾏﾁ","streetKana":"ﾋｶﾞｼｼﾏﾀﾞﾊﾗ","prefecture":"宮城県","city":"刈田郡七ヶ宿町","street":"東島田原"},{"zipCode":"9890641","prefectureKana":"ﾐﾔｷﾞｹﾝ","cityKana":"ｶｯﾀｸﾞﾝｼﾁｶｼｭｸﾏﾁ","streetKana":"ﾎﾄﾞｶﾞｻﾜ","prefecture":"宮城県","city":"刈田郡七ヶ宿町","street":"程ヶ沢"},{"zipCode":"9890657","prefectureKana":"ﾐﾔｷﾞｹﾝ","cityKana":"ｶｯﾀｸﾞﾝｼﾁｶｼｭｸﾏﾁ","streetKana":"ﾏﾁｳﾗ","prefecture":"宮城県","city":"刈田郡七ヶ宿町","street":"町裏"},{"zipCode":"9890507","prefectureKana":"ﾐﾔｷﾞｹﾝ","cityKana":"ｶｯﾀｸﾞﾝｼﾁｶｼｭｸﾏﾁ","streetKana":"ﾏﾁｼﾀ","prefecture":"宮城県","city":"刈田郡七ヶ宿町","street":"町下"},{"zipCode":"9890515","prefectureKana":"ﾐﾔｷﾞｹﾝ","cityKana":"ｶｯﾀｸﾞﾝｼﾁｶｼｭｸﾏﾁ","streetKana":"ﾏﾁｼﾞﾘ","prefecture":"宮城県","city":"刈田郡七ヶ宿町","street":"町尻"},{"zipCode":"9890524","prefectureKana":"ﾐﾔｷﾞｹﾝ","cityKana":"ｶｯﾀｸﾞﾝｼﾁｶｼｭｸﾏﾁ","streetKana":"ﾏﾜﾘﾀﾃ","prefecture":"宮城県","city":"刈田郡七ヶ宿町","street":"廻館"},{"zipCode":"9890511","prefectureKana":"ﾐﾔｷﾞｹﾝ","cityKana":"ｶｯﾀｸﾞﾝｼﾁｶｼｭｸﾏﾁ","streetKana":"ﾏﾂﾊﾞﾗ","prefecture":"宮城県","city":"刈田郡七ヶ宿町","street":"松原"},{"zipCode":"9890612","prefectureKana":"ﾐﾔｷﾞｹﾝ","cityKana":"ｶｯﾀｸﾞﾝｼﾁｶｼｭｸﾏﾁ","streetKana":"ﾏﾏﾉｳｴ","prefecture":"宮城県","city":"刈田郡七ヶ宿町","street":"侭ノ上"},{"zipCode":"9890665","prefectureKana":"ﾐﾔｷﾞｹﾝ","cityKana":"ｶｯﾀｸﾞﾝｼﾁｶｼｭｸﾏﾁ","streetKana":"ﾏﾏﾉｳｴｼﾞｿﾞｳﾏｴ","prefecture":"宮城県","city":"刈田郡七ヶ宿町","street":"侭ノ上地蔵前"},{"zipCode":"9890555","prefectureKana":"ﾐﾔｷﾞｹﾝ","cityKana":"ｶｯﾀｸﾞﾝｼﾁｶｼｭｸﾏﾁ","streetKana":"ﾐｽﾞｶﾐｸﾞﾁ","prefecture":"宮城県","city":"刈田郡七ヶ宿町","street":"水上口"},{"zipCode":"9890667","prefectureKana":"ﾐﾔｷﾞｹﾝ","cityKana":"ｶｯﾀｸﾞﾝｼﾁｶｼｭｸﾏﾁ","streetKana":"ﾐｽﾞｼﾀﾐﾁｳｴ","prefecture":"宮城県","city":"刈田郡七ヶ宿町","street":"水下道上"},{"zipCode":"9890658","prefectureKana":"ﾐﾔｷﾞｹﾝ","cityKana":"ｶｯﾀｸﾞﾝｼﾁｶｼｭｸﾏﾁ","streetKana":"ﾐﾅﾐｳﾗﾊﾀ","prefecture":"宮城県","city":"刈田郡七ヶ宿町","street":"南浦畑"},{"zipCode":"9890515","prefectureKana":"ﾐﾔｷﾞｹﾝ","cityKana":"ｶｯﾀｸﾞﾝｼﾁｶｼｭｸﾏﾁ","streetKana":"ﾐﾔﾏｴ","prefecture":"宮城県","city":"刈田郡七ヶ宿町","street":"宮前"},{"zipCode":"9890624","prefectureKana":"ﾐﾔｷﾞｹﾝ","cityKana":"ｶｯﾀｸﾞﾝｼﾁｶｼｭｸﾏﾁ","streetKana":"ﾐｮｳｼﾞﾝｼﾀ","prefecture":"宮城県","city":"刈田郡七ヶ宿町","street":"明神下"},{"zipCode":"9890526","prefectureKana":"ﾐﾔｷﾞｹﾝ","cityKana":"ｶｯﾀｸﾞﾝｼﾁｶｼｭｸﾏﾁ","streetKana":"ﾐｮｳｼﾞﾝﾏｴ","prefecture":"宮城県","city":"刈田郡七ヶ宿町","street":"明神前"},{"zipCode":"9890601","prefectureKana":"ﾐﾔｷﾞｹﾝ","cityKana":"ｶｯﾀｸﾞﾝｼﾁｶｼｭｸﾏﾁ","streetKana":"ﾓｶﾞｻﾞﾜ","prefecture":"宮城県","city":"刈田郡七ヶ宿町","street":"茂ヶ沢"},{"zipCode":"9890626","prefectureKana":"ﾐﾔｷﾞｹﾝ","cityKana":"ｶｯﾀｸﾞﾝｼﾁｶｼｭｸﾏﾁ","streetKana":"ﾓﾆﾜﾐﾁ","prefecture":"宮城県","city":"刈田郡七ヶ宿町","street":"茂庭道"},{"zipCode":"9890531","prefectureKana":"ﾐﾔｷﾞｹﾝ","cityKana":"ｶｯﾀｸﾞﾝｼﾁｶｼｭｸﾏﾁ","streetKana":"ﾔﾀﾃ","prefecture":"宮城県","city":"刈田郡七ヶ宿町","street":"矢立"},{"zipCode":"9890533","prefectureKana":"ﾐﾔｷﾞｹﾝ","cityKana":"ｶｯﾀｸﾞﾝｼﾁｶｼｭｸﾏﾁ","streetKana":"ﾔﾀﾃﾀﾞｲﾗ","prefecture":"宮城県","city":"刈田郡七ヶ宿町","street":"矢立平"},{"zipCode":"9890551","prefectureKana":"ﾐﾔｷﾞｹﾝ","cityKana":"ｶｯﾀｸﾞﾝｼﾁｶｼｭｸﾏﾁ","streetKana":"ﾔﾂﾓﾘ","prefecture":"宮城県","city":"刈田郡七ヶ宿町","street":"八ツ森"},{"zipCode":"9890548","prefectureKana":"ﾐﾔｷﾞｹﾝ","cityKana":"ｶｯﾀｸﾞﾝｼﾁｶｼｭｸﾏﾁ","streetKana":"ﾔﾂﾜｹ","prefecture":"宮城県","city":"刈田郡七ヶ宿町","street":"八ツ分"},{"zipCode":"9890656","prefectureKana":"ﾐﾔｷﾞｹﾝ","cityKana":"ｶｯﾀｸﾞﾝｼﾁｶｼｭｸﾏﾁ","streetKana":"ﾔﾅｷﾞｻﾜﾔﾏｺｸﾕｳﾘﾝ","prefecture":"宮城県","city":"刈田郡七ヶ宿町","street":"柳沢山国有林"},{"zipCode":"9890611","prefectureKana":"ﾐﾔｷﾞｹﾝ","cityKana":"ｶｯﾀｸﾞﾝｼﾁｶｼｭｸﾏﾁ","streetKana":"ﾔﾏﾌﾞｼｻｶ","prefecture":"宮城県","city":"刈田郡七ヶ宿町","street":"山伏坂"},{"zipCode":"9890653","prefectureKana":"ﾐﾔｷﾞｹﾝ","cityKana":"ｶｯﾀｸﾞﾝｼﾁｶｼｭｸﾏﾁ","streetKana":"ﾕﾉﾊﾗ","prefecture":"宮城県","city":"刈田郡七ヶ宿町","street":"湯原"},{"zipCode":"9890503","prefectureKana":"ﾐﾔｷﾞｹﾝ","cityKana":"ｶｯﾀｸﾞﾝｼﾁｶｼｭｸﾏﾁ","streetKana":"ﾖｺｶﾜ","prefecture":"宮城県","city":"刈田郡七ヶ宿町","street":"横川"},{"zipCode":"9890502","prefectureKana":"ﾐﾔｷﾞｹﾝ","cityKana":"ｶｯﾀｸﾞﾝｼﾁｶｼｭｸﾏﾁ","streetKana":"ﾖｺｶﾜﾊﾗ","prefecture":"宮城県","city":"刈田郡七ヶ宿町","street":"横川原"},{"zipCode":"9890525","prefectureKana":"ﾐﾔｷﾞｹﾝ","cityKana":"ｶｯﾀｸﾞﾝｼﾁｶｼｭｸﾏﾁ","streetKana":"ﾘﾂﾎ","prefecture":"宮城県","city":"刈田郡七ヶ宿町","street":"利津保"},{"zipCode":"9890636","prefectureKana":"ﾐﾔｷﾞｹﾝ","cityKana":"ｶｯﾀｸﾞﾝｼﾁｶｼｭｸﾏﾁ","streetKana":"ﾛｯﾎﾟﾝｽｷﾞ","prefecture":"宮城県","city":"刈田郡七ヶ宿町","street":"六本杉"},{"zipCode":"9890534","prefectureKana":"ﾐﾔｷﾞｹﾝ","cityKana":"ｶｯﾀｸﾞﾝｼﾁｶｼｭｸﾏﾁ","streetKana":"ﾜｶﾊﾞﾔｼﾔﾏ","prefecture":"宮城県","city":"刈田郡七ヶ宿町","street":"若林山"},{"zipCode":"9890642","prefectureKana":"ﾐﾔｷﾞｹﾝ","cityKana":"ｶｯﾀｸﾞﾝｼﾁｶｼｭｸﾏﾁ","streetKana":"ﾜﾘﾂｹ","prefecture":"宮城県","city":"刈田郡七ヶ宿町","street":"割付"},{"zipCode":"9891200","prefectureKana":"ﾐﾔｷﾞｹﾝ","cityKana":"ｼﾊﾞﾀｸﾞﾝｵｵｶﾞﾜﾗﾏﾁ","streetKana":"ｲｶﾆｹｲｻｲｶﾞﾅｲﾊﾞｱｲ","prefecture":"宮城県","city":"柴田郡大河原町","street":"以下に掲載がない場合"},{"zipCode":"9891203","prefectureKana":"ﾐﾔｷﾞｹﾝ","cityKana":"ｼﾊﾞﾀｸﾞﾝｵｵｶﾞﾜﾗﾏﾁ","streetKana":"ｱｻﾋﾁｮｳ","prefecture":"宮城県","city":"柴田郡大河原町","street":"旭町"},{"zipCode":"9891237","prefectureKana":"ﾐﾔｷﾞｹﾝ","cityKana":"ｼﾊﾞﾀｸﾞﾝｵｵｶﾞﾜﾗﾏﾁ","streetKana":"ｱﾗﾏﾁ","prefecture":"宮城県","city":"柴田郡大河原町","street":"荒町"},{"zipCode":"9891205","prefectureKana":"ﾐﾔｷﾞｹﾝ","cityKana":"ｼﾊﾞﾀｸﾞﾝｵｵｶﾞﾜﾗﾏﾁ","streetKana":"ｵｵｼﾊﾞ","prefecture":"宮城県","city":"柴田郡大河原町","street":"大芝"},{"zipCode":"9891204","prefectureKana":"ﾐﾔｷﾞｹﾝ","cityKana":"ｼﾊﾞﾀｸﾞﾝｵｵｶﾞﾜﾗﾏﾁ","streetKana":"ｵｵﾀﾂ","prefecture":"宮城県","city":"柴田郡大河原町","street":"大竜"},{"zipCode":"9891261","prefectureKana":"ﾐﾔｷﾞｹﾝ","cityKana":"ｼﾊﾞﾀｸﾞﾝｵｵｶﾞﾜﾗﾏﾁ","streetKana":"ｵｵﾏｷ","prefecture":"宮城県","city":"柴田郡大河原町","street":"大巻"},{"zipCode":"9891201","prefectureKana":"ﾐﾔｷﾞｹﾝ","cityKana":"ｼﾊﾞﾀｸﾞﾝｵｵｶﾞﾜﾗﾏﾁ","streetKana":"ｵｵﾔ","prefecture":"宮城県","city":"柴田郡大河原町","street":"大谷"},{"zipCode":"9891263","prefectureKana":"ﾐﾔｷﾞｹﾝ","cityKana":"ｼﾊﾞﾀｸﾞﾝｵｵｶﾞﾜﾗﾏﾁ","streetKana":"ｵｵﾔﾁ","prefecture":"宮城県","city":"柴田郡大河原町","street":"大谷地"},{"zipCode":"9891267","prefectureKana":"ﾐﾔｷﾞｹﾝ","cityKana":"ｼﾊﾞﾀｸﾞﾝｵｵｶﾞﾜﾗﾏﾁ","streetKana":"ｵｼﾏ","prefecture":"宮城県","city":"柴田郡大河原町","street":"小島"},{"zipCode":"9891258","prefectureKana":"ﾐﾔｷﾞｹﾝ","cityKana":"ｼﾊﾞﾀｸﾞﾝｵｵｶﾞﾜﾗﾏﾁ","streetKana":"ｵﾔﾏﾀﾞ","prefecture":"宮城県","city":"柴田郡大河原町","street":"小山田"},{"zipCode":"9891249","prefectureKana":"ﾐﾔｷﾞｹﾝ","cityKana":"ｼﾊﾞﾀｸﾞﾝｵｵｶﾞﾜﾗﾏﾁ","streetKana":"ｶｲﾄﾞｳﾋｶﾞｼ","prefecture":"宮城県","city":"柴田郡大河原町","street":"海道東"},{"zipCode":"9891224","prefectureKana":"ﾐﾔｷﾞｹﾝ","cityKana":"ｼﾊﾞﾀｸﾞﾝｵｵｶﾞﾜﾗﾏﾁ","streetKana":"ｶﾅｶﾞｾ","prefecture":"宮城県","city":"柴田郡大河原町","street":"金ケ瀬"},{"zipCode":"9891233","prefectureKana":"ﾐﾔｷﾞｹﾝ","cityKana":"ｼﾊﾞﾀｸﾞﾝｵｵｶﾞﾜﾗﾏﾁ","streetKana":"ｶﾐｶﾜﾗ","prefecture":"宮城県","city":"柴田郡大河原町","street":"上川原"},{"zipCode":"9891207","prefectureKana":"ﾐﾔｷﾞｹﾝ","cityKana":"ｼﾊﾞﾀｸﾞﾝｵｵｶﾞﾜﾗﾏﾁ","streetKana":"ｶﾜｾﾁｮｳ","prefecture":"宮城県","city":"柴田郡大河原町","street":"川瀬町"},{"zipCode":"9891214","prefectureKana":"ﾐﾔｷﾞｹﾝ","cityKana":"ｼﾊﾞﾀｸﾞﾝｵｵｶﾞﾜﾗﾏﾁ","streetKana":"ｷﾉｲﾈﾁｮｳ","prefecture":"宮城県","city":"柴田郡大河原町","street":"甲子町"},{"zipCode":"9891216","prefectureKana":"ﾐﾔｷﾞｹﾝ","cityKana":"ｼﾊﾞﾀｸﾞﾝｵｵｶﾞﾜﾗﾏﾁ","streetKana":"ｻｲﾜｲﾁｮｳ","prefecture":"宮城県","city":"柴田郡大河原町","street":"幸町"},{"zipCode":"9891264","prefectureKana":"ﾐﾔｷﾞｹﾝ","cityKana":"ｼﾊﾞﾀｸﾞﾝｵｵｶﾞﾜﾗﾏﾁ","streetKana":"ｼﾝｱｵｶﾜ","prefecture":"宮城県","city":"柴田郡大河原町","street":"新青川"},{"zipCode":"9891274","prefectureKana":"ﾐﾔｷﾞｹﾝ","cityKana":"ｼﾊﾞﾀｸﾞﾝｵｵｶﾞﾜﾗﾏﾁ","streetKana":"ｼﾝｻｸﾗﾁｮｳ","prefecture":"宮城県","city":"柴田郡大河原町","street":"新桜町"},{"zipCode":"9891234","prefectureKana":"ﾐﾔｷﾞｹﾝ","cityKana":"ｼﾊﾞﾀｸﾞﾝｵｵｶﾞﾜﾗﾏﾁ","streetKana":"ｼﾝﾌﾙｶﾜ","prefecture":"宮城県","city":"柴田郡大河原町","street":"新古川"},{"zipCode":"9891246","prefectureKana":"ﾐﾔｷﾞｹﾝ","cityKana":"ｼﾊﾞﾀｸﾞﾝｵｵｶﾞﾜﾗﾏﾁ","streetKana":"ｼﾝﾋｶﾞｼ","prefecture":"宮城県","city":"柴田郡大河原町","street":"新東"},{"zipCode":"9891245","prefectureKana":"ﾐﾔｷﾞｹﾝ","cityKana":"ｼﾊﾞﾀｸﾞﾝｵｵｶﾞﾜﾗﾏﾁ","streetKana":"ｼﾝﾐﾅﾐ","prefecture":"宮城県","city":"柴田郡大河原町","street":"新南"},{"zipCode":"9891213","prefectureKana":"ﾐﾔｷﾞｹﾝ","cityKana":"ｼﾊﾞﾀｸﾞﾝｵｵｶﾞﾜﾗﾏﾁ","streetKana":"ｽﾐﾖｼﾁｮｳ","prefecture":"宮城県","city":"柴田郡大河原町","street":"住吉町"},{"zipCode":"9891266","prefectureKana":"ﾐﾔｷﾞｹﾝ","cityKana":"ｼﾊﾞﾀｸﾞﾝｵｵｶﾞﾜﾗﾏﾁ","streetKana":"ｾﾝﾂｶﾏｴ","prefecture":"宮城県","city":"柴田郡大河原町","street":"千塚前"},{"zipCode":"9891255","prefectureKana":"ﾐﾔｷﾞｹﾝ","cityKana":"ｼﾊﾞﾀｸﾞﾝｵｵｶﾞﾜﾗﾏﾁ","streetKana":"ｿﾃﾞﾔﾁ","prefecture":"宮城県","city":"柴田郡大河原町","street":"袖谷地"},{"zipCode":"9891202","prefectureKana":"ﾐﾔｷﾞｹﾝ","cityKana":"ｼﾊﾞﾀｸﾞﾝｵｵｶﾞﾜﾗﾏﾁ","streetKana":"ﾀｶｻｺﾞﾁｮｳ","prefecture":"宮城県","city":"柴田郡大河原町","street":"高砂町"},{"zipCode":"9891256","prefectureKana":"ﾐﾔｷﾞｹﾝ","cityKana":"ｼﾊﾞﾀｸﾞﾝｵｵｶﾞﾜﾗﾏﾁ","streetKana":"ﾂﾂﾐ","prefecture":"宮城県","city":"柴田郡大河原町","street":"堤"},{"zipCode":"9891248","prefectureKana":"ﾐﾔｷﾞｹﾝ","cityKana":"ｼﾊﾞﾀｸﾞﾝｵｵｶﾞﾜﾗﾏﾁ","streetKana":"ﾄﾞﾃｻﾞｷ","prefecture":"宮城県","city":"柴田郡大河原町","street":"土手崎"},{"zipCode":"9891231","prefectureKana":"ﾐﾔｷﾞｹﾝ","cityKana":"ｼﾊﾞﾀｸﾞﾝｵｵｶﾞﾜﾗﾏﾁ","streetKana":"ﾅｶｶﾞﾜﾗ","prefecture":"宮城県","city":"柴田郡大河原町","street":"中川原"},{"zipCode":"9891215","prefectureKana":"ﾐﾔｷﾞｹﾝ","cityKana":"ｼﾊﾞﾀｸﾞﾝｵｵｶﾞﾜﾗﾏﾁ","streetKana":"ﾅｶｼﾞﾏﾁｮｳ","prefecture":"宮城県","city":"柴田郡大河原町","street":"中島町"},{"zipCode":"9891206","prefectureKana":"ﾐﾔｷﾞｹﾝ","cityKana":"ｼﾊﾞﾀｸﾞﾝｵｵｶﾞﾜﾗﾏﾁ","streetKana":"ﾅｶﾉｸﾗ","prefecture":"宮城県","city":"柴田郡大河原町","street":"中の倉"},{"zipCode":"9891222","prefectureKana":"ﾐﾔｷﾞｹﾝ","cityKana":"ｼﾊﾞﾀｸﾞﾝｵｵｶﾞﾜﾗﾏﾁ","streetKana":"ﾅﾝﾍﾟｲ","prefecture":"宮城県","city":"柴田郡大河原町","street":"南平"},{"zipCode":"9891253","prefectureKana":"ﾐﾔｷﾞｹﾝ","cityKana":"ｼﾊﾞﾀｸﾞﾝｵｵｶﾞﾜﾗﾏﾁ","streetKana":"ﾆｼ","prefecture":"宮城県","city":"柴田郡大河原町","street":"西"},{"zipCode":"9891242","prefectureKana":"ﾐﾔｷﾞｹﾝ","cityKana":"ｼﾊﾞﾀｸﾞﾝｵｵｶﾞﾜﾗﾏﾁ","streetKana":"ﾆｼｳﾗ","prefecture":"宮城県","city":"柴田郡大河原町","street":"西浦"},{"zipCode":"9891217","prefectureKana":"ﾐﾔｷﾞｹﾝ","cityKana":"ｼﾊﾞﾀｸﾞﾝｵｵｶﾞﾜﾗﾏﾁ","streetKana":"ﾆｼｷﾁｮｳ","prefecture":"宮城県","city":"柴田郡大河原町","street":"錦町"},{"zipCode":"9891273","prefectureKana":"ﾐﾔｷﾞｹﾝ","cityKana":"ｼﾊﾞﾀｸﾞﾝｵｵｶﾞﾜﾗﾏﾁ","streetKana":"ﾆｼｻｸﾗﾁｮｳ","prefecture":"宮城県","city":"柴田郡大河原町","street":"西桜町"},{"zipCode":"9891244","prefectureKana":"ﾐﾔｷﾞｹﾝ","cityKana":"ｼﾊﾞﾀｸﾞﾝｵｵｶﾞﾜﾗﾏﾁ","streetKana":"ﾆｼﾏﾁ","prefecture":"宮城県","city":"柴田郡大河原町","street":"西町"},{"zipCode":"9891257","prefectureKana":"ﾐﾔｷﾞｹﾝ","cityKana":"ｼﾊﾞﾀｸﾞﾝｵｵｶﾞﾜﾗﾏﾁ","streetKana":"ﾆｯﾃﾗ","prefecture":"宮城県","city":"柴田郡大河原町","street":"新寺"},{"zipCode":"9891254","prefectureKana":"ﾐﾔｷﾞｹﾝ","cityKana":"ｼﾊﾞﾀｸﾞﾝｵｵｶﾞﾜﾗﾏﾁ","streetKana":"ﾇﾏ","prefecture":"宮城県","city":"柴田郡大河原町","street":"沼"},{"zipCode":"9891251","prefectureKana":"ﾐﾔｷﾞｹﾝ","cityKana":"ｼﾊﾞﾀｸﾞﾝｵｵｶﾞﾜﾗﾏﾁ","streetKana":"ﾊｼﾓﾄ","prefecture":"宮城県","city":"柴田郡大河原町","street":"橋本"},{"zipCode":"9891247","prefectureKana":"ﾐﾔｷﾞｹﾝ","cityKana":"ｼﾊﾞﾀｸﾞﾝｵｵｶﾞﾜﾗﾏﾁ","streetKana":"ﾋｶﾞｼ","prefecture":"宮城県","city":"柴田郡大河原町","street":"東"},{"zipCode":"9891271","prefectureKana":"ﾐﾔｷﾞｹﾝ","cityKana":"ｼﾊﾞﾀｸﾞﾝｵｵｶﾞﾜﾗﾏﾁ","streetKana":"ﾋｶﾞｼｻｸﾗﾁｮｳ","prefecture":"宮城県","city":"柴田郡大河原町","street":"東桜町"},{"zipCode":"9891223","prefectureKana":"ﾐﾔｷﾞｹﾝ","cityKana":"ｼﾊﾞﾀｸﾞﾝｵｵｶﾞﾜﾗﾏﾁ","streetKana":"ﾋｶﾞｼｼﾝﾁｮｳ","prefecture":"宮城県","city":"柴田郡大河原町","street":"東新町"},{"zipCode":"9891236","prefectureKana":"ﾐﾔｷﾞｹﾝ","cityKana":"ｼﾊﾞﾀｸﾞﾝｵｵｶﾞﾜﾗﾏﾁ","streetKana":"ﾋｶﾞｼﾊﾗﾏﾁ","prefecture":"宮城県","city":"柴田郡大河原町","street":"東原町"},{"zipCode":"9891225","prefectureKana":"ﾐﾔｷﾞｹﾝ","cityKana":"ｼﾊﾞﾀｸﾞﾝｵｵｶﾞﾜﾗﾏﾁ","streetKana":"ﾋﾛｵﾓﾃ","prefecture":"宮城県","city":"柴田郡大河原町","street":"広表"},{"zipCode":"9891211","prefectureKana":"ﾐﾔｷﾞｹﾝ","cityKana":"ｼﾊﾞﾀｸﾞﾝｵｵｶﾞﾜﾗﾏﾁ","streetKana":"ﾋﾛｾﾁｮｳ","prefecture":"宮城県","city":"柴田郡大河原町","street":"広瀬町"},{"zipCode":"9891259","prefectureKana":"ﾐﾔｷﾞｹﾝ","cityKana":"ｼﾊﾞﾀｸﾞﾝｵｵｶﾞﾜﾗﾏﾁ","streetKana":"ﾌｸﾀﾞ","prefecture":"宮城県","city":"柴田郡大河原町","street":"福田"},{"zipCode":"9891241","prefectureKana":"ﾐﾔｷﾞｹﾝ","cityKana":"ｼﾊﾞﾀｸﾞﾝｵｵｶﾞﾜﾗﾏﾁ","streetKana":"ﾏﾁ","prefecture":"宮城県","city":"柴田郡大河原町","street":"町"},{"zipCode":"9891221","prefectureKana":"ﾐﾔｷﾞｹﾝ","cityKana":"ｼﾊﾞﾀｸﾞﾝｵｵｶﾞﾜﾗﾏﾁ","streetKana":"ﾐﾄﾞﾘﾁｮｳ","prefecture":"宮城県","city":"柴田郡大河原町","street":"緑町"},{"zipCode":"9891243","prefectureKana":"ﾐﾔｷﾞｹﾝ","cityKana":"ｼﾊﾞﾀｸﾞﾝｵｵｶﾞﾜﾗﾏﾁ","streetKana":"ﾐﾅﾐ","prefecture":"宮城県","city":"柴田郡大河原町","street":"南"},{"zipCode":"9891232","prefectureKana":"ﾐﾔｷﾞｹﾝ","cityKana":"ｼﾊﾞﾀｸﾞﾝｵｵｶﾞﾜﾗﾏﾁ","streetKana":"ﾐﾅﾐｶｲﾄﾞｳｼﾀ","prefecture":"宮城県","city":"柴田郡大河原町","street":"南海道下"},{"zipCode":"9891272","prefectureKana":"ﾐﾔｷﾞｹﾝ","cityKana":"ｼﾊﾞﾀｸﾞﾝｵｵｶﾞﾜﾗﾏﾁ","streetKana":"ﾐﾅﾐｻｸﾗﾁｮｳ","prefecture":"宮城県","city":"柴田郡大河原町","street":"南桜町"},{"zipCode":"9891235","prefectureKana":"ﾐﾔｷﾞｹﾝ","cityKana":"ｼﾊﾞﾀｸﾞﾝｵｵｶﾞﾜﾗﾏﾁ","streetKana":"ﾐﾅﾐﾊﾗﾏﾁ","prefecture":"宮城県","city":"柴田郡大河原町","street":"南原町"},{"zipCode":"9891252","prefectureKana":"ﾐﾔｷﾞｹﾝ","cityKana":"ｼﾊﾞﾀｸﾞﾝｵｵｶﾞﾜﾗﾏﾁ","streetKana":"ﾔｵﾄﾒ","prefecture":"宮城県","city":"柴田郡大河原町","street":"八乙女"},{"zipCode":"9891212","prefectureKana":"ﾐﾔｷﾞｹﾝ","cityKana":"ｼﾊﾞﾀｸﾞﾝｵｵｶﾞﾜﾗﾏﾁ","streetKana":"ﾔﾏｻﾞｷﾁｮｳ","prefecture":"宮城県","city":"柴田郡大河原町","street":"山崎町"},{"zipCode":"9891300","prefectureKana":"ﾐﾔｷﾞｹﾝ","cityKana":"ｼﾊﾞﾀｸﾞﾝﾑﾗﾀﾏﾁ","streetKana":"ｲｶﾆｹｲｻｲｶﾞﾅｲﾊﾞｱｲ","prefecture":"宮城県","city":"柴田郡村田町","street":"以下に掲載がない場合"},{"zipCode":"9891511","prefectureKana":"ﾐﾔｷﾞｹﾝ","cityKana":"ｼﾊﾞﾀｸﾞﾝﾑﾗﾀﾏﾁ","streetKana":"ｱｼﾀﾃ(ｷﾀﾑｷ)","prefecture":"宮城県","city":"柴田郡村田町","street":"足立（北向）"},{"zipCode":"9891311","prefectureKana":"ﾐﾔｷﾞｹﾝ","cityKana":"ｼﾊﾞﾀｸﾞﾝﾑﾗﾀﾏﾁ","streetKana":"ｱｼﾀﾃ(ｿﾉﾀ)","prefecture":"宮城県","city":"柴田郡村田町","street":"足立（その他）"},{"zipCode":"9891303","prefectureKana":"ﾐﾔｷﾞｹﾝ","cityKana":"ｼﾊﾞﾀｸﾞﾝﾑﾗﾀﾏﾁ","streetKana":"ｳｽｷﾞ","prefecture":"宮城県","city":"柴田郡村田町","street":"薄木"},{"zipCode":"9891302","prefectureKana":"ﾐﾔｷﾞｹﾝ","cityKana":"ｼﾊﾞﾀｸﾞﾝﾑﾗﾀﾏﾁ","streetKana":"ｺｲｽﾞﾐ","prefecture":"宮城県","city":"柴田郡村田町","street":"小泉"},{"zipCode":"9891301","prefectureKana":"ﾐﾔｷﾞｹﾝ","cityKana":"ｼﾊﾞﾀｸﾞﾝﾑﾗﾀﾏﾁ","streetKana":"ｽｺﾞｳ","prefecture":"宮城県","city":"柴田郡村田町","street":"菅生"},{"zipCode":"9891322","prefectureKana":"ﾐﾔｷﾞｹﾝ","cityKana":"ｼﾊﾞﾀｸﾞﾝﾑﾗﾀﾏﾁ","streetKana":"ｾｷﾊﾞ","prefecture":"宮城県","city":"柴田郡村田町","street":"関場"},{"zipCode":"9891304","prefectureKana":"ﾐﾔｷﾞｹﾝ","cityKana":"ｼﾊﾞﾀｸﾞﾝﾑﾗﾀﾏﾁ","streetKana":"ﾆｼｶﾞｵｶ","prefecture":"宮城県","city":"柴田郡村田町","street":"西ケ丘"},{"zipCode":"9891323","prefectureKana":"ﾐﾔｷﾞｹﾝ","cityKana":"ｼﾊﾞﾀｸﾞﾝﾑﾗﾀﾏﾁ","streetKana":"ﾇﾏﾀ","prefecture":"宮城県","city":"柴田郡村田町","street":"沼田"},{"zipCode":"9891321","prefectureKana":"ﾐﾔｷﾞｹﾝ","cityKana":"ｼﾊﾞﾀｸﾞﾝﾑﾗﾀﾏﾁ","streetKana":"ﾇﾏﾍﾞ","prefecture":"宮城県","city":"柴田郡村田町","street":"沼辺"},{"zipCode":"9891305","prefectureKana":"ﾐﾔｷﾞｹﾝ","cityKana":"ｼﾊﾞﾀｸﾞﾝﾑﾗﾀﾏﾁ","streetKana":"ﾑﾗﾀ","prefecture":"宮城県","city":"柴田郡村田町","street":"村田"},{"zipCode":"9891600","prefectureKana":"ﾐﾔｷﾞｹﾝ","cityKana":"ｼﾊﾞﾀｸﾞﾝｼﾊﾞﾀﾏﾁ","streetKana":"ｲｶﾆｹｲｻｲｶﾞﾅｲﾊﾞｱｲ","prefecture":"宮城県","city":"柴田郡柴田町","street":"以下に掲載がない場合"},{"zipCode":"9891745","prefectureKana":"ﾐﾔｷﾞｹﾝ","cityKana":"ｼﾊﾞﾀｸﾞﾝｼﾊﾞﾀﾏﾁ","streetKana":"ｲﾘﾏﾀﾞ","prefecture":"宮城県","city":"柴田郡柴田町","street":"入間田"},{"zipCode":"9891762","prefectureKana":"ﾐﾔｷﾞｹﾝ","cityKana":"ｼﾊﾞﾀｸﾞﾝｼﾊﾞﾀﾏﾁ","streetKana":"ｴﾋﾞｱﾅ","prefecture":"宮城県","city":"柴田郡柴田町","street":"海老穴"},{"zipCode":"9891742","prefectureKana":"ﾐﾔｷﾞｹﾝ","cityKana":"ｼﾊﾞﾀｸﾞﾝｼﾊﾞﾀﾏﾁ","streetKana":"ｶﾐｶﾜﾅ","prefecture":"宮城県","city":"柴田郡柴田町","street":"上川名"},{"zipCode":"9891611","prefectureKana":"ﾐﾔｷﾞｹﾝ","cityKana":"ｼﾊﾞﾀｸﾞﾝｼﾊﾞﾀﾏﾁ","streetKana":"ｶﾐﾉﾐｮｳ","prefecture":"宮城県","city":"柴田郡柴田町","street":"上名生"},{"zipCode":"9891623","prefectureKana":"ﾐﾔｷﾞｹﾝ","cityKana":"ｼﾊﾞﾀｸﾞﾝｼﾊﾞﾀﾏﾁ","streetKana":"ｷﾀﾌﾅｵｶ","prefecture":"宮城県","city":"柴田郡柴田町","street":"北船岡"},{"zipCode":"9891608","prefectureKana":"ﾐﾔｷﾞｹﾝ","cityKana":"ｼﾊﾞﾀｸﾞﾝｼﾊﾞﾀﾏﾁ","streetKana":"ｹﾝｻﾞｷ","prefecture":"宮城県","city":"柴田郡柴田町","street":"剣崎"},{"zipCode":"9891764","prefectureKana":"ﾐﾔｷﾞｹﾝ","cityKana":"ｼﾊﾞﾀｸﾞﾝｼﾊﾞﾀﾏﾁ","streetKana":"ｺﾅﾘﾀ","prefecture":"宮城県","city":"柴田郡柴田町","street":"小成田"},{"zipCode":"9891613","prefectureKana":"ﾐﾔｷﾞｹﾝ","cityKana":"ｼﾊﾞﾀｸﾞﾝｼﾊﾞﾀﾏﾁ","streetKana":"ｼﾓﾉﾐｮｳ","prefecture":"宮城県","city":"柴田郡柴田町","street":"下名生"},{"zipCode":"9891756","prefectureKana":"ﾐﾔｷﾞｹﾝ","cityKana":"ｼﾊﾞﾀｸﾞﾝｼﾊﾞﾀﾏﾁ","streetKana":"ﾂｷﾉｷ","prefecture":"宮城県","city":"柴田郡柴田町","street":"槻木"},{"zipCode":"9891758","prefectureKana":"ﾐﾔｷﾞｹﾝ","cityKana":"ｼﾊﾞﾀｸﾞﾝｼﾊﾞﾀﾏﾁ","streetKana":"ﾂｷﾉｷｴｷﾆｼ","prefecture":"宮城県","city":"柴田郡柴田町","street":"槻木駅西"},{"zipCode":"9891753","prefectureKana":"ﾐﾔｷﾞｹﾝ","cityKana":"ｼﾊﾞﾀｸﾞﾝｼﾊﾞﾀﾏﾁ","streetKana":"ﾂｷﾉｷｶﾐﾏﾁ","prefecture":"宮城県","city":"柴田郡柴田町","street":"槻木上町"},{"zipCode":"9891752","prefectureKana":"ﾐﾔｷﾞｹﾝ","cityKana":"ｼﾊﾞﾀｸﾞﾝｼﾊﾞﾀﾏﾁ","streetKana":"ﾂｷﾉｷｼﾓﾏﾁ","prefecture":"宮城県","city":"柴田郡柴田町","street":"槻木下町"},{"zipCode":"9891754","prefectureKana":"ﾐﾔｷﾞｹﾝ","cityKana":"ｼﾊﾞﾀｸﾞﾝｼﾊﾞﾀﾏﾁ","streetKana":"ﾂｷﾉｷｼﾗﾊﾀ","prefecture":"宮城県","city":"柴田郡柴田町","street":"槻木白幡"},{"zipCode":"9891751","prefectureKana":"ﾐﾔｷﾞｹﾝ","cityKana":"ｼﾊﾞﾀｸﾞﾝｼﾊﾞﾀﾏﾁ","streetKana":"ﾂｷﾉｷｼﾝﾏﾁ","prefecture":"宮城県","city":"柴田郡柴田町","street":"槻木新町"},{"zipCode":"9891755","prefectureKana":"ﾐﾔｷﾞｹﾝ","cityKana":"ｼﾊﾞﾀｸﾞﾝｼﾊﾞﾀﾏﾁ","streetKana":"ﾂｷﾉｷﾆｼ","prefecture":"宮城県","city":"柴田郡柴田町","street":"槻木西"},{"zipCode":"9891757","prefectureKana":"ﾐﾔｷﾞｹﾝ","cityKana":"ｼﾊﾞﾀｸﾞﾝｼﾊﾞﾀﾏﾁ","streetKana":"ﾂｷﾉｷﾋｶﾞｼ","prefecture":"宮城県","city":"柴田郡柴田町","street":"槻木東"},{"zipCode":"9891741","prefectureKana":"ﾐﾔｷﾞｹﾝ","cityKana":"ｼﾊﾞﾀｸﾞﾝｼﾊﾞﾀﾏﾁ","streetKana":"ﾄﾐｻﾞﾜ","prefecture":"宮城県","city":"柴田郡柴田町","street":"富沢"},{"zipCode":"9891612","prefectureKana":"ﾐﾔｷﾞｹﾝ","cityKana":"ｼﾊﾞﾀｸﾞﾝｼﾊﾞﾀﾏﾁ","streetKana":"ﾅｶﾉﾐｮｳ","prefecture":"宮城県","city":"柴田郡柴田町","street":"中名生"},{"zipCode":"9891765","prefectureKana":"ﾐﾔｷﾞｹﾝ","cityKana":"ｼﾊﾞﾀｸﾞﾝｼﾊﾞﾀﾏﾁ","streetKana":"ﾅﾘﾀ","prefecture":"宮城県","city":"柴田郡柴田町","street":"成田"},{"zipCode":"9891622","prefectureKana":"ﾐﾔｷﾞｹﾝ","cityKana":"ｼﾊﾞﾀｸﾞﾝｼﾊﾞﾀﾏﾁ","streetKana":"ﾆｼﾌﾅﾊﾞｻﾏ","prefecture":"宮城県","city":"柴田郡柴田町","street":"西船迫"},{"zipCode":"9891761","prefectureKana":"ﾐﾔｷﾞｹﾝ","cityKana":"ｼﾊﾞﾀｸﾞﾝｼﾊﾞﾀﾏﾁ","streetKana":"ﾊｻﾞｶ","prefecture":"宮城県","city":"柴田郡柴田町","street":"葉坂"},{"zipCode":"9891731","prefectureKana":"ﾐﾔｷﾞｹﾝ","cityKana":"ｼﾊﾞﾀｸﾞﾝｼﾊﾞﾀﾏﾁ","streetKana":"ﾋｶﾞｼﾌﾅﾊﾞｻﾏ(1ﾁｮｳﾒ)","prefecture":"宮城県","city":"柴田郡柴田町","street":"東船迫（１丁目）"},{"zipCode":"9891631","prefectureKana":"ﾐﾔｷﾞｹﾝ","cityKana":"ｼﾊﾞﾀｸﾞﾝｼﾊﾞﾀﾏﾁ","streetKana":"ﾋｶﾞｼﾌﾅﾊﾞｻﾏ(2ﾁｮｳﾒ)","prefecture":"宮城県","city":"柴田郡柴田町","street":"東船迫（２丁目）"},{"zipCode":"9891606","prefectureKana":"ﾐﾔｷﾞｹﾝ","cityKana":"ｼﾊﾞﾀｸﾞﾝｼﾊﾞﾀﾏﾁ","streetKana":"ﾌﾅｵｶ","prefecture":"宮城県","city":"柴田郡柴田町","street":"船岡"},{"zipCode":"9891607","prefectureKana":"ﾐﾔｷﾞｹﾝ","cityKana":"ｼﾊﾞﾀｸﾞﾝｼﾊﾞﾀﾏﾁ","streetKana":"ﾌﾅｵｶｼﾝｴｲ","prefecture":"宮城県","city":"柴田郡柴田町","street":"船岡新栄"},{"zipCode":"9891601","prefectureKana":"ﾐﾔｷﾞｹﾝ","cityKana":"ｼﾊﾞﾀｸﾞﾝｼﾊﾞﾀﾏﾁ","streetKana":"ﾌﾅｵｶﾁｭｳｵｳ","prefecture":"宮城県","city":"柴田郡柴田町","street":"船岡中央"},{"zipCode":"9891602","prefectureKana":"ﾐﾔｷﾞｹﾝ","cityKana":"ｼﾊﾞﾀｸﾞﾝｼﾊﾞﾀﾏﾁ","streetKana":"ﾌﾅｵｶﾄﾞﾃｳﾁ","prefecture":"宮城県","city":"柴田郡柴田町","street":"船岡土手内"},{"zipCode":"9891604","prefectureKana":"ﾐﾔｷﾞｹﾝ","cityKana":"ｼﾊﾞﾀｸﾞﾝｼﾊﾞﾀﾏﾁ","streetKana":"ﾌﾅｵｶﾋｶﾞｼ","prefecture":"宮城県","city":"柴田郡柴田町","street":"船岡東"},{"zipCode":"9891603","prefectureKana":"ﾐﾔｷﾞｹﾝ","cityKana":"ｼﾊﾞﾀｸﾞﾝｼﾊﾞﾀﾏﾁ","streetKana":"ﾌﾅｵｶﾆｼ","prefecture":"宮城県","city":"柴田郡柴田町","street":"船岡西"},{"zipCode":"9891605","prefectureKana":"ﾐﾔｷﾞｹﾝ","cityKana":"ｼﾊﾞﾀｸﾞﾝｼﾊﾞﾀﾏﾁ","streetKana":"ﾌﾅｵｶﾐﾅﾐ","prefecture":"宮城県","city":"柴田郡柴田町","street":"船岡南"},{"zipCode":"9891763","prefectureKana":"ﾐﾔｷﾞｹﾝ","cityKana":"ｼﾊﾞﾀｸﾞﾝｼﾊﾞﾀﾏﾁ","streetKana":"ﾌﾅﾊﾞｻﾏ","prefecture":"宮城県","city":"柴田郡柴田町","street":"船迫"},{"zipCode":"9891621","prefectureKana":"ﾐﾔｷﾞｹﾝ","cityKana":"ｼﾊﾞﾀｸﾞﾝｼﾊﾞﾀﾏﾁ","streetKana":"ﾎﾝﾌﾅﾊﾞｻﾏ","prefecture":"宮城県","city":"柴田郡柴田町","street":"本船迫"},{"zipCode":"9891744","prefectureKana":"ﾐﾔｷﾞｹﾝ","cityKana":"ｼﾊﾞﾀｸﾞﾝｼﾊﾞﾀﾏﾁ","streetKana":"ﾏﾂｶﾞｺﾞｼ","prefecture":"宮城県","city":"柴田郡柴田町","street":"松ケ越"},{"zipCode":"9891746","prefectureKana":"ﾐﾔｷﾞｹﾝ","cityKana":"ｼﾊﾞﾀｸﾞﾝｼﾊﾞﾀﾏﾁ","streetKana":"ﾕｽﾞｶﾞｵｶ","prefecture":"宮城県","city":"柴田郡柴田町","street":"ゆずが丘"},{"zipCode":"9891743","prefectureKana":"ﾐﾔｷﾞｹﾝ","cityKana":"ｼﾊﾞﾀｸﾞﾝｼﾊﾞﾀﾏﾁ","streetKana":"ﾖｯｶｲﾁﾊﾞ","prefecture":"宮城県","city":"柴田郡柴田町","street":"四日市場"},{"zipCode":"9891500","prefectureKana":"ﾐﾔｷﾞｹﾝ","cityKana":"ｼﾊﾞﾀｸﾞﾝｶﾜｻｷﾏﾁ","streetKana":"ｲｶﾆｹｲｻｲｶﾞﾅｲﾊﾞｱｲ","prefecture":"宮城県","city":"柴田郡川崎町","street":"以下に掲載がない場合"},{"zipCode":"9890908","prefectureKana":"ﾐﾔｷﾞｹﾝ","cityKana":"ｼﾊﾞﾀｸﾞﾝｶﾜｻｷﾏﾁ","streetKana":"ｱｵﾈｵﾝｾﾝ","prefecture":"宮城県","city":"柴田郡川崎町","street":"青根温泉"},{"zipCode":"9891502","prefectureKana":"ﾐﾔｷﾞｹﾝ","cityKana":"ｼﾊﾞﾀｸﾞﾝｶﾜｻｷﾏﾁ","streetKana":"ｲﾏｼｭｸ","prefecture":"宮城県","city":"柴田郡川崎町","street":"今宿"},{"zipCode":"9891505","prefectureKana":"ﾐﾔｷﾞｹﾝ","cityKana":"ｼﾊﾞﾀｸﾞﾝｶﾜｻｷﾏﾁ","streetKana":"ｵﾉ","prefecture":"宮城県","city":"柴田郡川崎町","street":"小野"},{"zipCode":"9891503","prefectureKana":"ﾐﾔｷﾞｹﾝ","cityKana":"ｼﾊﾞﾀｸﾞﾝｶﾜｻｷﾏﾁ","streetKana":"ｶﾜｳﾁ","prefecture":"宮城県","city":"柴田郡川崎町","street":"川内"},{"zipCode":"9891507","prefectureKana":"ﾐﾔｷﾞｹﾝ","cityKana":"ｼﾊﾞﾀｸﾞﾝｶﾜｻｷﾏﾁ","streetKana":"ﾊｾｸﾗ","prefecture":"宮城県","city":"柴田郡川崎町","street":"支倉"},{"zipCode":"9891506","prefectureKana":"ﾐﾔｷﾞｹﾝ","cityKana":"ｼﾊﾞﾀｸﾞﾝｶﾜｻｷﾏﾁ","streetKana":"ﾊｾｸﾗﾀﾞｲ","prefecture":"宮城県","city":"柴田郡川崎町","street":"支倉台"},{"zipCode":"9890901","prefectureKana":"ﾐﾔｷﾞｹﾝ","cityKana":"ｼﾊﾞﾀｸﾞﾝｶﾜｻｷﾏﾁ","streetKana":"ﾏｴｶﾜ(ｱｵﾈ､ﾃｼﾛﾂｶﾔﾏ､ﾇﾏﾉﾀｲﾔﾏ､ﾐｮｳｺﾞｼﾀﾔﾏ､ｺﾞﾝｹﾞﾝﾂﾞｶ､ﾋﾉﾂｶﾔﾏ､ｶﾞｶﾞ)","prefecture":"宮城県","city":"柴田郡川崎町","street":"前川（青根、手代塚山、沼ノ平山、名号下山、権現塚、火の塚山、峩々）"},{"zipCode":"9891501","prefectureKana":"ﾐﾔｷﾞｹﾝ","cityKana":"ｼﾊﾞﾀｸﾞﾝｶﾜｻｷﾏﾁ","streetKana":"ﾏｴｶﾜ(ｿﾉﾀ)","prefecture":"宮城県","city":"柴田郡川崎町","street":"前川（その他）"},{"zipCode":"9891504","prefectureKana":"ﾐﾔｷﾞｹﾝ","cityKana":"ｼﾊﾞﾀｸﾞﾝｶﾜｻｷﾏﾁ","streetKana":"ﾓﾄｲｻｺﾞ","prefecture":"宮城県","city":"柴田郡川崎町","street":"本砂金"},{"zipCode":"9892300","prefectureKana":"ﾐﾔｷﾞｹﾝ","cityKana":"ﾜﾀﾘｸﾞﾝﾜﾀﾘﾁｮｳ","streetKana":"ｲｶﾆｹｲｻｲｶﾞﾅｲﾊﾞｱｲ","prefecture":"宮城県","city":"亘理郡亘理町","street":"以下に掲載がない場合"},{"zipCode":"9892351","prefectureKana":"ﾐﾔｷﾞｹﾝ","cityKana":"ﾜﾀﾘｸﾞﾝﾜﾀﾘﾁｮｳ","streetKana":"ｱｻﾋ","prefecture":"宮城県","city":"亘理郡亘理町","street":"旭"},{"zipCode":"9892351","prefectureKana":"ﾐﾔｷﾞｹﾝ","cityKana":"ﾜﾀﾘｸﾞﾝﾜﾀﾘﾁｮｳ","streetKana":"ｱｻﾋﾔﾏ","prefecture":"宮城県","city":"亘理郡亘理町","street":"旭山"},{"zipCode":"9892361","prefectureKana":"ﾐﾔｷﾞｹﾝ","cityKana":"ﾜﾀﾘｸﾞﾝﾜﾀﾘﾁｮｳ","streetKana":"ｱﾀｺﾞﾏｴ","prefecture":"宮城県","city":"亘理郡亘理町","street":"愛宕前"},{"zipCode":"9892351","prefectureKana":"ﾐﾔｷﾞｹﾝ","cityKana":"ﾜﾀﾘｸﾞﾝﾜﾀﾘﾁｮｳ","streetKana":"ｱﾌﾞﾗﾃﾞﾝ","prefecture":"宮城県","city":"亘理郡亘理町","street":"油田"},{"zipCode":"9892311","prefectureKana":"ﾐﾔｷﾞｹﾝ","cityKana":"ﾜﾀﾘｸﾞﾝﾜﾀﾘﾁｮｳ","streetKana":"ｱﾗﾊﾏ","prefecture":"宮城県","city":"亘理郡亘理町","street":"荒浜"},{"zipCode":"9892361","prefectureKana":"ﾐﾔｷﾞｹﾝ","cityKana":"ﾜﾀﾘｸﾞﾝﾜﾀﾘﾁｮｳ","streetKana":"ｲｽﾞﾐｶﾞｲﾘ","prefecture":"宮城県","city":"亘理郡亘理町","street":"泉ケ入"},{"zipCode":"9892333","prefectureKana":"ﾐﾔｷﾞｹﾝ","cityKana":"ﾜﾀﾘｸﾞﾝﾜﾀﾘﾁｮｳ","streetKana":"ｲﾁｺﾞｻﾄ","prefecture":"宮城県","city":"亘理郡亘理町","street":"苺里"},{"zipCode":"9892332","prefectureKana":"ﾐﾔｷﾞｹﾝ","cityKana":"ﾜﾀﾘｸﾞﾝﾜﾀﾘﾁｮｳ","streetKana":"ｲﾁｺﾞﾊﾏ","prefecture":"宮城県","city":"亘理郡亘理町","street":"苺浜"},{"zipCode":"9892351","prefectureKana":"ﾐﾔｷﾞｹﾝ","cityKana":"ﾜﾀﾘｸﾞﾝﾜﾀﾘﾁｮｳ","streetKana":"ｲﾂｶﾏﾁ","prefecture":"宮城県","city":"亘理郡亘理町","street":"五日町"},{"zipCode":"9892351","prefectureKana":"ﾐﾔｷﾞｹﾝ","cityKana":"ﾜﾀﾘｸﾞﾝﾜﾀﾘﾁｮｳ","streetKana":"ｲﾜｲﾀﾞ","prefecture":"宮城県","city":"亘理郡亘理町","street":"祝田"},{"zipCode":"9892351","prefectureKana":"ﾐﾔｷﾞｹﾝ","cityKana":"ﾜﾀﾘｸﾞﾝﾜﾀﾘﾁｮｳ","streetKana":"ｳﾗｷﾄﾞ","prefecture":"宮城県","city":"亘理郡亘理町","street":"裏城戸"},{"zipCode":"9892351","prefectureKana":"ﾐﾔｷﾞｹﾝ","cityKana":"ﾜﾀﾘｸﾞﾝﾜﾀﾘﾁｮｳ","streetKana":"ｴｼﾀ","prefecture":"宮城県","city":"亘理郡亘理町","street":"江下"},{"zipCode":"9892385","prefectureKana":"ﾐﾔｷﾞｹﾝ","cityKana":"ﾜﾀﾘｸﾞﾝﾜﾀﾘﾁｮｳ","streetKana":"ｵｵｸﾏ(ｺｵﾘ)","prefecture":"宮城県","city":"亘理郡亘理町","street":"逢隈（郡）"},{"zipCode":"9892302","prefectureKana":"ﾐﾔｷﾞｹﾝ","cityKana":"ﾜﾀﾘｸﾞﾝﾜﾀﾘﾁｮｳ","streetKana":"ｵｵｸﾏｳｼﾌﾞｸﾛ","prefecture":"宮城県","city":"亘理郡亘理町","street":"逢隈牛袋"},{"zipCode":"9892321","prefectureKana":"ﾐﾔｷﾞｹﾝ","cityKana":"ﾜﾀﾘｸﾞﾝﾜﾀﾘﾁｮｳ","streetKana":"ｵｵｸﾏｴﾉｷﾌﾞｸﾛ","prefecture":"宮城県","city":"亘理郡亘理町","street":"逢隈榎袋"},{"zipCode":"9892371","prefectureKana":"ﾐﾔｷﾞｹﾝ","cityKana":"ﾜﾀﾘｸﾞﾝﾜﾀﾘﾁｮｳ","streetKana":"ｵｵｸﾏｶｼﾏ","prefecture":"宮城県","city":"亘理郡亘理町","street":"逢隈鹿島"},{"zipCode":"9892381","prefectureKana":"ﾐﾔｷﾞｹﾝ","cityKana":"ﾜﾀﾘｸﾞﾝﾜﾀﾘﾁｮｳ","streetKana":"ｵｵｸﾏｶﾐｺﾞｵﾘ","prefecture":"宮城県","city":"亘理郡亘理町","street":"逢隈上郡"},{"zipCode":"9892324","prefectureKana":"ﾐﾔｷﾞｹﾝ","cityKana":"ﾜﾀﾘｸﾞﾝﾜﾀﾘﾁｮｳ","streetKana":"ｵｵｸﾏｺｳﾔ","prefecture":"宮城県","city":"亘理郡亘理町","street":"逢隈高屋"},{"zipCode":"9892384","prefectureKana":"ﾐﾔｷﾞｹﾝ","cityKana":"ﾜﾀﾘｸﾞﾝﾜﾀﾘﾁｮｳ","streetKana":"ｵｵｸﾏｺﾔﾏ","prefecture":"宮城県","city":"亘理郡亘理町","street":"逢隈小山"},{"zipCode":"9892323","prefectureKana":"ﾐﾔｷﾞｹﾝ","cityKana":"ﾜﾀﾘｸﾞﾝﾜﾀﾘﾁｮｳ","streetKana":"ｵｵｸﾏｻｷﾞﾔ","prefecture":"宮城県","city":"亘理郡亘理町","street":"逢隈鷺屋"},{"zipCode":"9892382","prefectureKana":"ﾐﾔｷﾞｹﾝ","cityKana":"ﾜﾀﾘｸﾞﾝﾜﾀﾘﾁｮｳ","streetKana":"ｵｵｸﾏｼﾓｺﾞｵﾘ","prefecture":"宮城県","city":"亘理郡亘理町","street":"逢隈下郡"},{"zipCode":"9892303","prefectureKana":"ﾐﾔｷﾞｹﾝ","cityKana":"ﾜﾀﾘｸﾞﾝﾜﾀﾘﾁｮｳ","streetKana":"ｵｵｸﾏｼﾞｭｳﾓﾝｼﾞ","prefecture":"宮城県","city":"亘理郡亘理町","street":"逢隈十文字"},{"zipCode":"9892372","prefectureKana":"ﾐﾔｷﾞｹﾝ","cityKana":"ﾜﾀﾘｸﾞﾝﾜﾀﾘﾁｮｳ","streetKana":"ｵｵｸﾏｼﾞﾝｸﾞｳｼﾞ","prefecture":"宮城県","city":"亘理郡亘理町","street":"逢隈神宮寺"},{"zipCode":"9892383","prefectureKana":"ﾐﾔｷﾞｹﾝ","cityKana":"ﾜﾀﾘｸﾞﾝﾜﾀﾘﾁｮｳ","streetKana":"ｵｵｸﾏﾀｻﾞﾜ","prefecture":"宮城県","city":"亘理郡亘理町","street":"逢隈田沢"},{"zipCode":"9892301","prefectureKana":"ﾐﾔｷﾞｹﾝ","cityKana":"ﾜﾀﾘｸﾞﾝﾜﾀﾘﾁｮｳ","streetKana":"ｵｵｸﾏﾅｶｲｽﾞﾐ","prefecture":"宮城県","city":"亘理郡亘理町","street":"逢隈中泉"},{"zipCode":"9892322","prefectureKana":"ﾐﾔｷﾞｹﾝ","cityKana":"ﾜﾀﾘｸﾞﾝﾜﾀﾘﾁｮｳ","streetKana":"ｵｵｸﾏﾜﾗﾋﾞ","prefecture":"宮城県","city":"亘理郡亘理町","street":"逢隈蕨"},{"zipCode":"9892351","prefectureKana":"ﾐﾔｷﾞｹﾝ","cityKana":"ﾜﾀﾘｸﾞﾝﾜﾀﾘﾁｮｳ","streetKana":"ｶﾐﾅｶﾔﾁ","prefecture":"宮城県","city":"亘理郡亘理町","street":"上中野地"},{"zipCode":"9892351","prefectureKana":"ﾐﾔｷﾞｹﾝ","cityKana":"ﾜﾀﾘｸﾞﾝﾜﾀﾘﾁｮｳ","streetKana":"ｶﾐﾊﾏｶｲﾄﾞｳ","prefecture":"宮城県","city":"亘理郡亘理町","street":"上浜街道"},{"zipCode":"9892351","prefectureKana":"ﾐﾔｷﾞｹﾝ","cityKana":"ﾜﾀﾘｸﾞﾝﾜﾀﾘﾁｮｳ","streetKana":"ｶﾐﾊﾞﾗﾀﾞ","prefecture":"宮城県","city":"亘理郡亘理町","street":"上茨田"},{"zipCode":"9892351","prefectureKana":"ﾐﾔｷﾞｹﾝ","cityKana":"ﾜﾀﾘｸﾞﾝﾜﾀﾘﾁｮｳ","streetKana":"ｶﾒｲﾄﾞ","prefecture":"宮城県","city":"亘理郡亘理町","street":"亀井戸"},{"zipCode":"9892351","prefectureKana":"ﾐﾔｷﾞｹﾝ","cityKana":"ﾜﾀﾘｸﾞﾝﾜﾀﾘﾁｮｳ","streetKana":"ｶﾝﾏﾁ","prefecture":"宮城県","city":"亘理郡亘理町","street":"上町"},{"zipCode":"9892361","prefectureKana":"ﾐﾔｷﾞｹﾝ","cityKana":"ﾜﾀﾘｸﾞﾝﾜﾀﾘﾁｮｳ","streetKana":"ｷﾀｻﾙﾀ","prefecture":"宮城県","city":"亘理郡亘理町","street":"北猿田"},{"zipCode":"9892351","prefectureKana":"ﾐﾔｷﾞｹﾝ","cityKana":"ﾜﾀﾘｸﾞﾝﾜﾀﾘﾁｮｳ","streetKana":"ｷﾀｼﾝﾃﾞﾝ","prefecture":"宮城県","city":"亘理郡亘理町","street":"北新田"},{"zipCode":"9892351","prefectureKana":"ﾐﾔｷﾞｹﾝ","cityKana":"ﾜﾀﾘｸﾞﾝﾜﾀﾘﾁｮｳ","streetKana":"ｷﾀｼﾝﾏﾁ","prefecture":"宮城県","city":"亘理郡亘理町","street":"北新町"},{"zipCode":"9892351","prefectureKana":"ﾐﾔｷﾞｹﾝ","cityKana":"ﾜﾀﾘｸﾞﾝﾜﾀﾘﾁｮｳ","streetKana":"ｷﾂﾈﾂﾞｶ","prefecture":"宮城県","city":"亘理郡亘理町","street":"狐塚"},{"zipCode":"9892351","prefectureKana":"ﾐﾔｷﾞｹﾝ","cityKana":"ﾜﾀﾘｸﾞﾝﾜﾀﾘﾁｮｳ","streetKana":"ｷｭｳｶﾝ","prefecture":"宮城県","city":"亘理郡亘理町","street":"旧舘"},{"zipCode":"9892361","prefectureKana":"ﾐﾔｷﾞｹﾝ","cityKana":"ﾜﾀﾘｸﾞﾝﾜﾀﾘﾁｮｳ","streetKana":"ｸﾗﾆﾜ","prefecture":"宮城県","city":"亘理郡亘理町","street":"倉庭"},{"zipCode":"9892351","prefectureKana":"ﾐﾔｷﾞｹﾝ","cityKana":"ﾜﾀﾘｸﾞﾝﾜﾀﾘﾁｮｳ","streetKana":"ｻｶｲﾂﾂﾐ","prefecture":"宮城県","city":"亘理郡亘理町","street":"境堤"},{"zipCode":"9892351","prefectureKana":"ﾐﾔｷﾞｹﾝ","cityKana":"ﾜﾀﾘｸﾞﾝﾜﾀﾘﾁｮｳ","streetKana":"ｻｸﾗｺｳｼﾞ","prefecture":"宮城県","city":"亘理郡亘理町","street":"桜小路"},{"zipCode":"9892351","prefectureKana":"ﾐﾔｷﾞｹﾝ","cityKana":"ﾜﾀﾘｸﾞﾝﾜﾀﾘﾁｮｳ","streetKana":"ｼﾊﾞﾆｼ","prefecture":"宮城県","city":"亘理郡亘理町","street":"芝西"},{"zipCode":"9892351","prefectureKana":"ﾐﾔｷﾞｹﾝ","cityKana":"ﾜﾀﾘｸﾞﾝﾜﾀﾘﾁｮｳ","streetKana":"ｼﾓｺｳｼﾞ","prefecture":"宮城県","city":"亘理郡亘理町","street":"下小路"},{"zipCode":"9892351","prefectureKana":"ﾐﾔｷﾞｹﾝ","cityKana":"ﾜﾀﾘｸﾞﾝﾜﾀﾘﾁｮｳ","streetKana":"ｼﾓﾊﾏｶｲﾄﾞｳ","prefecture":"宮城県","city":"亘理郡亘理町","street":"下浜街道"},{"zipCode":"9892351","prefectureKana":"ﾐﾔｷﾞｹﾝ","cityKana":"ﾜﾀﾘｸﾞﾝﾜﾀﾘﾁｮｳ","streetKana":"ｼﾓﾊﾞﾗﾀﾞ","prefecture":"宮城県","city":"亘理郡亘理町","street":"下茨田"},{"zipCode":"9892351","prefectureKana":"ﾐﾔｷﾞｹﾝ","cityKana":"ﾜﾀﾘｸﾞﾝﾜﾀﾘﾁｮｳ","streetKana":"ｼﾝﾏﾁ","prefecture":"宮城県","city":"亘理郡亘理町","street":"新町"},{"zipCode":"9892361","prefectureKana":"ﾐﾔｷﾞｹﾝ","cityKana":"ﾜﾀﾘｸﾞﾝﾜﾀﾘﾁｮｳ","streetKana":"ｾﾝﾀﾞﾂﾏｴ","prefecture":"宮城県","city":"亘理郡亘理町","street":"先達前"},{"zipCode":"9892351","prefectureKana":"ﾐﾔｷﾞｹﾝ","cityKana":"ﾜﾀﾘｸﾞﾝﾜﾀﾘﾁｮｳ","streetKana":"ﾀﾞｲﾀﾞ","prefecture":"宮城県","city":"亘理郡亘理町","street":"台田"},{"zipCode":"9892361","prefectureKana":"ﾐﾔｷﾞｹﾝ","cityKana":"ﾜﾀﾘｸﾞﾝﾜﾀﾘﾁｮｳ","streetKana":"ﾀﾃﾐﾅﾐ","prefecture":"宮城県","city":"亘理郡亘理町","street":"舘南"},{"zipCode":"9892351","prefectureKana":"ﾐﾔｷﾞｹﾝ","cityKana":"ﾜﾀﾘｸﾞﾝﾜﾀﾘﾁｮｳ","streetKana":"ﾄﾞｳﾀﾞﾅｶ","prefecture":"宮城県","city":"亘理郡亘理町","street":"道田中"},{"zipCode":"9892351","prefectureKana":"ﾐﾔｷﾞｹﾝ","cityKana":"ﾜﾀﾘｸﾞﾝﾜﾀﾘﾁｮｳ","streetKana":"ﾄﾞｳﾀﾞﾋｶﾞｼ","prefecture":"宮城県","city":"亘理郡亘理町","street":"道田東"},{"zipCode":"9892351","prefectureKana":"ﾐﾔｷﾞｹﾝ","cityKana":"ﾜﾀﾘｸﾞﾝﾜﾀﾘﾁｮｳ","streetKana":"ﾄﾞｳﾀﾞﾆｼ","prefecture":"宮城県","city":"亘理郡亘理町","street":"道田西"},{"zipCode":"9892361","prefectureKana":"ﾐﾔｷﾞｹﾝ","cityKana":"ﾜﾀﾘｸﾞﾝﾜﾀﾘﾁｮｳ","streetKana":"ﾄﾘｲﾏｴ","prefecture":"宮城県","city":"亘理郡亘理町","street":"鳥居前"},{"zipCode":"9892351","prefectureKana":"ﾐﾔｷﾞｹﾝ","cityKana":"ﾜﾀﾘｸﾞﾝﾜﾀﾘﾁｮｳ","streetKana":"ﾅｶﾏﾁ","prefecture":"宮城県","city":"亘理郡亘理町","street":"中町"},{"zipCode":"9892351","prefectureKana":"ﾐﾔｷﾞｹﾝ","cityKana":"ﾜﾀﾘｸﾞﾝﾜﾀﾘﾁｮｳ","streetKana":"ﾅｶﾏﾁﾋｶﾞｼ","prefecture":"宮城県","city":"亘理郡亘理町","street":"中町東"},{"zipCode":"9892341","prefectureKana":"ﾐﾔｷﾞｹﾝ","cityKana":"ﾜﾀﾘｸﾞﾝﾜﾀﾘﾁｮｳ","streetKana":"ﾅｶﾞﾄﾛ","prefecture":"宮城県","city":"亘理郡亘理町","street":"長瀞"},{"zipCode":"9892351","prefectureKana":"ﾐﾔｷﾞｹﾝ","cityKana":"ﾜﾀﾘｸﾞﾝﾜﾀﾘﾁｮｳ","streetKana":"ﾆｲﾏﾁ","prefecture":"宮城県","city":"亘理郡亘理町","street":"新井町"},{"zipCode":"9892351","prefectureKana":"ﾐﾔｷﾞｹﾝ","cityKana":"ﾜﾀﾘｸﾞﾝﾜﾀﾘﾁｮｳ","streetKana":"ﾆｼｺﾞｳ","prefecture":"宮城県","city":"亘理郡亘理町","street":"西郷"},{"zipCode":"9892361","prefectureKana":"ﾐﾔｷﾞｹﾝ","cityKana":"ﾜﾀﾘｸﾞﾝﾜﾀﾘﾁｮｳ","streetKana":"ﾇﾏｶﾞｼﾗ","prefecture":"宮城県","city":"亘理郡亘理町","street":"沼頭"},{"zipCode":"9892325","prefectureKana":"ﾐﾔｷﾞｹﾝ","cityKana":"ﾜﾀﾘｸﾞﾝﾜﾀﾘﾁｮｳ","streetKana":"ﾊﾅｲﾁｺﾞ","prefecture":"宮城県","city":"亘理郡亘理町","street":"花苺"},{"zipCode":"9892351","prefectureKana":"ﾐﾔｷﾞｹﾝ","cityKana":"ﾜﾀﾘｸﾞﾝﾜﾀﾘﾁｮｳ","streetKana":"ﾊﾞﾗﾀﾞｳｼﾛ","prefecture":"宮城県","city":"亘理郡亘理町","street":"茨田後"},{"zipCode":"9892361","prefectureKana":"ﾐﾔｷﾞｹﾝ","cityKana":"ﾜﾀﾘｸﾞﾝﾜﾀﾘﾁｮｳ","streetKana":"ﾋｶﾞｲﾘ","prefecture":"宮城県","city":"亘理郡亘理町","street":"卑下入"},{"zipCode":"9892351","prefectureKana":"ﾐﾔｷﾞｹﾝ","cityKana":"ﾜﾀﾘｸﾞﾝﾜﾀﾘﾁｮｳ","streetKana":"ﾋｶﾞｼｺﾞｳ","prefecture":"宮城県","city":"亘理郡亘理町","street":"東郷"},{"zipCode":"9892361","prefectureKana":"ﾐﾔｷﾞｹﾝ","cityKana":"ﾜﾀﾘｸﾞﾝﾜﾀﾘﾁｮｳ","streetKana":"ﾎﾘﾉｳﾁ","prefecture":"宮城県","city":"亘理郡亘理町","street":"堀の内"},{"zipCode":"9892351","prefectureKana":"ﾐﾔｷﾞｹﾝ","cityKana":"ﾜﾀﾘｸﾞﾝﾜﾀﾘﾁｮｳ","streetKana":"ﾐﾀﾞｳﾁ","prefecture":"宮城県","city":"亘理郡亘理町","street":"見田内"},{"zipCode":"9892351","prefectureKana":"ﾐﾔｷﾞｹﾝ","cityKana":"ﾜﾀﾘｸﾞﾝﾜﾀﾘﾁｮｳ","streetKana":"ﾐﾅﾐﾏﾁ","prefecture":"宮城県","city":"亘理郡亘理町","street":"南町"},{"zipCode":"9892351","prefectureKana":"ﾐﾔｷﾞｹﾝ","cityKana":"ﾜﾀﾘｸﾞﾝﾜﾀﾘﾁｮｳ","streetKana":"ﾐﾅﾐﾏﾁﾋｶﾞｼ","prefecture":"宮城県","city":"亘理郡亘理町","street":"南町東"},{"zipCode":"9892352","prefectureKana":"ﾐﾔｷﾞｹﾝ","cityKana":"ﾜﾀﾘｸﾞﾝﾜﾀﾘﾁｮｳ","streetKana":"ﾕｳﾘ","prefecture":"宮城県","city":"亘理郡亘理町","street":"悠里"},{"zipCode":"9892361","prefectureKana":"ﾐﾔｷﾞｹﾝ","cityKana":"ﾜﾀﾘｸﾞﾝﾜﾀﾘﾁｮｳ","streetKana":"ﾕｷｱﾅ","prefecture":"宮城県","city":"亘理郡亘理町","street":"雪穴"},{"zipCode":"9892331","prefectureKana":"ﾐﾔｷﾞｹﾝ","cityKana":"ﾜﾀﾘｸﾞﾝﾜﾀﾘﾁｮｳ","streetKana":"ﾖｼﾀﾞ","prefecture":"宮城県","city":"亘理郡亘理町","street":"吉田"},{"zipCode":"9892361","prefectureKana":"ﾐﾔｷﾞｹﾝ","cityKana":"ﾜﾀﾘｸﾞﾝﾜﾀﾘﾁｮｳ","streetKana":"ﾘｭｳｴﾝｼﾞﾏｴ","prefecture":"宮城県","city":"亘理郡亘理町","street":"龍円寺前"},{"zipCode":"9892200","prefectureKana":"ﾐﾔｷﾞｹﾝ","cityKana":"ﾜﾀﾘｸﾞﾝﾔﾏﾓﾄﾁｮｳ","streetKana":"ｲｶﾆｹｲｻｲｶﾞﾅｲﾊﾞｱｲ","prefecture":"宮城県","city":"亘理郡山元町","street":"以下に掲載がない場合"},{"zipCode":"9892203","prefectureKana":"ﾐﾔｷﾞｹﾝ","cityKana":"ﾜﾀﾘｸﾞﾝﾔﾏﾓﾄﾁｮｳ","streetKana":"ｱｿｳﾊﾗ","prefecture":"宮城県","city":"亘理郡山元町","street":"浅生原"},{"zipCode":"9892206","prefectureKana":"ﾐﾔｷﾞｹﾝ","cityKana":"ﾜﾀﾘｸﾞﾝﾔﾏﾓﾄﾁｮｳ","streetKana":"ｵｵﾀﾞｲﾗ","prefecture":"宮城県","city":"亘理郡山元町","street":"大平"},{"zipCode":"9892205","prefectureKana":"ﾐﾔｷﾞｹﾝ","cityKana":"ﾜﾀﾘｸﾞﾝﾔﾏﾓﾄﾁｮｳ","streetKana":"ｺﾀﾞｲﾗ","prefecture":"宮城県","city":"亘理郡山元町","street":"小平"},{"zipCode":"9892111","prefectureKana":"ﾐﾔｷﾞｹﾝ","cityKana":"ﾜﾀﾘｸﾞﾝﾔﾏﾓﾄﾁｮｳ","streetKana":"ｻｶﾓﾄ","prefecture":"宮城県","city":"亘理郡山元町","street":"坂元"},{"zipCode":"9892202","prefectureKana":"ﾐﾔｷﾞｹﾝ","cityKana":"ﾜﾀﾘｸﾞﾝﾔﾏﾓﾄﾁｮｳ","streetKana":"ﾀｶｾ","prefecture":"宮城県","city":"亘理郡山元町","street":"高瀬"},{"zipCode":"9892208","prefectureKana":"ﾐﾔｷﾞｹﾝ","cityKana":"ﾜﾀﾘｸﾞﾝﾔﾏﾓﾄﾁｮｳ","streetKana":"ﾂﾊﾞﾒﾉﾓﾘ","prefecture":"宮城県","city":"亘理郡山元町","street":"つばめの杜"},{"zipCode":"9892207","prefectureKana":"ﾐﾔｷﾞｹﾝ","cityKana":"ﾜﾀﾘｸﾞﾝﾔﾏﾓﾄﾁｮｳ","streetKana":"ﾊﾃﾞﾆﾜ","prefecture":"宮城県","city":"亘理郡山元町","street":"八手庭"},{"zipCode":"9892112","prefectureKana":"ﾐﾔｷﾞｹﾝ","cityKana":"ﾜﾀﾘｸﾞﾝﾔﾏﾓﾄﾁｮｳ","streetKana":"ﾏﾆﾜ","prefecture":"宮城県","city":"亘理郡山元町","street":"真庭"},{"zipCode":"9892201","prefectureKana":"ﾐﾔｷﾞｹﾝ","cityKana":"ﾜﾀﾘｸﾞﾝﾔﾏﾓﾄﾁｮｳ","streetKana":"ﾔﾏﾃﾞﾗ","prefecture":"宮城県","city":"亘理郡山元町","street":"山寺"},{"zipCode":"9892204","prefectureKana":"ﾐﾔｷﾞｹﾝ","cityKana":"ﾜﾀﾘｸﾞﾝﾔﾏﾓﾄﾁｮｳ","streetKana":"ﾜｼｱｼ","prefecture":"宮城県","city":"亘理郡山元町","street":"鷲足"},{"zipCode":"9894204","prefectureKana":"ﾐﾔｷﾞｹﾝ","cityKana":"ﾄｵﾀﾞｸﾞﾝﾐｻﾄﾏﾁ","streetKana":"ｵｵﾔﾅｷﾞ","prefecture":"宮城県","city":"遠田郡美里町","street":"大柳"},{"zipCode":"9894205","prefectureKana":"ﾐﾔｷﾞｹﾝ","cityKana":"ﾄｵﾀﾞｸﾞﾝﾐｻﾄﾏﾁ","streetKana":"ｷﾏﾂｶ","prefecture":"宮城県","city":"遠田郡美里町","street":"木間塚"},{"zipCode":"9894209","prefectureKana":"ﾐﾔｷﾞｹﾝ","cityKana":"ﾄｵﾀﾞｸﾞﾝﾐｻﾄﾏﾁ","streetKana":"ｼﾝﾄﾔｻﾞｶ","prefecture":"宮城県","city":"遠田郡美里町","street":"新鳥谷坂"},{"zipCode":"9894207","prefectureKana":"ﾐﾔｷﾞｹﾝ","cityKana":"ﾄｵﾀﾞｸﾞﾝﾐｻﾄﾏﾁ","streetKana":"ﾄﾔｻﾞｶｲﾁ","prefecture":"宮城県","city":"遠田郡美里町","street":"鳥谷坂一"},{"zipCode":"9894208","prefectureKana":"ﾐﾔｷﾞｹﾝ","cityKana":"ﾄｵﾀﾞｸﾞﾝﾐｻﾄﾏﾁ","streetKana":"ﾄﾔｻﾞｶﾆ","prefecture":"宮城県","city":"遠田郡美里町","street":"鳥谷坂二"},{"zipCode":"9894206","prefectureKana":"ﾐﾔｷﾞｹﾝ","cityKana":"ﾄｵﾀﾞｸﾞﾝﾐｻﾄﾏﾁ","streetKana":"ﾆｺﾞｳ","prefecture":"宮城県","city":"遠田郡美里町","street":"二郷"},{"zipCode":"9894203","prefectureKana":"ﾐﾔｷﾞｹﾝ","cityKana":"ﾄｵﾀﾞｸﾞﾝﾐｻﾄﾏﾁ","streetKana":"ﾈﾘｳｼ","prefecture":"宮城県","city":"遠田郡美里町","street":"練牛"},{"zipCode":"9894202","prefectureKana":"ﾐﾔｷﾞｹﾝ","cityKana":"ﾄｵﾀﾞｸﾞﾝﾐｻﾄﾏﾁ","streetKana":"ﾌｸｶﾞﾌｸﾛ","prefecture":"宮城県","city":"遠田郡美里町","street":"福ケ袋"},{"zipCode":"9894201","prefectureKana":"ﾐﾔｷﾞｹﾝ","cityKana":"ﾄｵﾀﾞｸﾞﾝﾐｻﾄﾏﾁ","streetKana":"ﾜﾀﾞﾀﾇﾏ","prefecture":"宮城県","city":"遠田郡美里町","street":"和多田沼"}]