[{"zipCode":"9910000","prefectureKana":"ﾔﾏｶﾞﾀｹﾝ","cityKana":"ｻｶﾞｴｼ","streetKana":"ｲｶﾆｹｲｻｲｶﾞﾅｲﾊﾞｱｲ","prefecture":"山形県","city":"寒河江市","street":"以下に掲載がない場合"},{"zipCode":"9910027","prefectureKana":"ﾔﾏｶﾞﾀｹﾝ","cityKana":"ｻｶﾞｴｼ","streetKana":"ｲｼﾓﾁﾏﾁ","prefecture":"山形県","city":"寒河江市","street":"石持町"},{"zipCode":"9910057","prefectureKana":"ﾔﾏｶﾞﾀｹﾝ","cityKana":"ｻｶﾞｴｼ","streetKana":"ｳﾁﾉﾌｸﾛ","prefecture":"山形県","city":"寒河江市","street":"内ノ袋"},{"zipCode":"9910056","prefectureKana":"ﾔﾏｶﾞﾀｹﾝ","cityKana":"ｻｶﾞｴｼ","streetKana":"ｵﾄﾓﾏｴ","prefecture":"山形県","city":"寒河江市","street":"落衣前"},{"zipCode":"9910006","prefectureKana":"ﾔﾏｶﾞﾀｹﾝ","cityKana":"ｻｶﾞｴｼ","streetKana":"ｶﾐｶﾞﾜﾗ","prefecture":"山形県","city":"寒河江市","street":"上河原"},{"zipCode":"9910008","prefectureKana":"ﾔﾏｶﾞﾀｹﾝ","cityKana":"ｻｶﾞｴｼ","streetKana":"ｷｸﾁﾄﾞｳ","prefecture":"山形県","city":"寒河江市","street":"菊地堂"},{"zipCode":"9910008","prefectureKana":"ﾔﾏｶﾞﾀｹﾝ","cityKana":"ｻｶﾞｴｼ","streetKana":"ｸﾓｶﾞﾜﾗ","prefecture":"山形県","city":"寒河江市","street":"雲河原"},{"zipCode":"9910044","prefectureKana":"ﾔﾏｶﾞﾀｹﾝ","cityKana":"ｻｶﾞｴｼ","streetKana":"ｺｼｲｻﾞｶﾁｮｳ","prefecture":"山形県","city":"寒河江市","street":"越井坂町"},{"zipCode":"9910045","prefectureKana":"ﾔﾏｶﾞﾀｹﾝ","cityKana":"ｻｶﾞｴｼ","streetKana":"ｺﾇﾏﾁｮｳ","prefecture":"山形県","city":"寒河江市","street":"小沼町"},{"zipCode":"9910035","prefectureKana":"ﾔﾏｶﾞﾀｹﾝ","cityKana":"ｻｶﾞｴｼ","streetKana":"ｻｲﾜｲﾁｮｳ","prefecture":"山形県","city":"寒河江市","street":"幸町"},{"zipCode":"9910034","prefectureKana":"ﾔﾏｶﾞﾀｹﾝ","cityKana":"ｻｶﾞｴｼ","streetKana":"ｻｶｴﾁｮｳ","prefecture":"山形県","city":"寒河江市","street":"栄町"},{"zipCode":"9910041","prefectureKana":"ﾔﾏｶﾞﾀｹﾝ","cityKana":"ｻｶﾞｴｼ","streetKana":"ｻｶﾞｴ","prefecture":"山形県","city":"寒河江市","street":"寒河江"},{"zipCode":"9910052","prefectureKana":"ﾔﾏｶﾞﾀｹﾝ","cityKana":"ｻｶﾞｴｼ","streetKana":"ｻﾁﾀﾏﾁ","prefecture":"山形県","city":"寒河江市","street":"幸田町"},{"zipCode":"9910063","prefectureKana":"ﾔﾏｶﾞﾀｹﾝ","cityKana":"ｻｶﾞｴｼ","streetKana":"ｼﾊﾞﾊｼ","prefecture":"山形県","city":"寒河江市","street":"柴橋"},{"zipCode":"9910043","prefectureKana":"ﾔﾏｶﾞﾀｹﾝ","cityKana":"ｻｶﾞｴｼ","streetKana":"ｼﾏ","prefecture":"山形県","city":"寒河江市","street":"島"},{"zipCode":"9910002","prefectureKana":"ﾔﾏｶﾞﾀｹﾝ","cityKana":"ｻｶﾞｴｼ","streetKana":"ｼﾓｶﾞﾜﾗ","prefecture":"山形県","city":"寒河江市","street":"下河原"},{"zipCode":"9910047","prefectureKana":"ﾔﾏｶﾞﾀｹﾝ","cityKana":"ｻｶﾞｴｼ","streetKana":"ｼﾝｻﾞﾝ","prefecture":"山形県","city":"寒河江市","street":"新山"},{"zipCode":"9910012","prefectureKana":"ﾔﾏｶﾞﾀｹﾝ","cityKana":"ｻｶﾞｴｼ","streetKana":"ｼﾝｻﾞﾝﾏﾁ","prefecture":"山形県","city":"寒河江市","street":"新山町"},{"zipCode":"9910033","prefectureKana":"ﾔﾏｶﾞﾀｹﾝ","cityKana":"ｻｶﾞｴｼ","streetKana":"ｽｴﾋﾛﾁｮｳ","prefecture":"山形県","city":"寒河江市","street":"末広町"},{"zipCode":"9910013","prefectureKana":"ﾔﾏｶﾞﾀｹﾝ","cityKana":"ｻｶﾞｴｼ","streetKana":"ﾀｶﾀﾞ","prefecture":"山形県","city":"寒河江市","street":"高田"},{"zipCode":"9910042","prefectureKana":"ﾔﾏｶﾞﾀｹﾝ","cityKana":"ｻｶﾞｴｼ","streetKana":"ﾀｶﾔ","prefecture":"山形県","city":"寒河江市","street":"高屋"},{"zipCode":"9910021","prefectureKana":"ﾔﾏｶﾞﾀｹﾝ","cityKana":"ｻｶﾞｴｼ","streetKana":"ﾁｭｳｵｳ","prefecture":"山形県","city":"寒河江市","street":"中央"},{"zipCode":"9910061","prefectureKana":"ﾔﾏｶﾞﾀｹﾝ","cityKana":"ｻｶﾞｴｼ","streetKana":"ﾁｭｳｵｳｺｳｷﾞｮｳﾀﾞﾝﾁ(ｿﾉﾀ)","prefecture":"山形県","city":"寒河江市","street":"中央工業団地（その他）"},{"zipCode":"9910007","prefectureKana":"ﾔﾏｶﾞﾀｹﾝ","cityKana":"ｻｶﾞｴｼ","streetKana":"ﾄﾞｳｼｮｳ","prefecture":"山形県","city":"寒河江市","street":"道生"},{"zipCode":"9910005","prefectureKana":"ﾔﾏｶﾞﾀｹﾝ","cityKana":"ｻｶﾞｴｼ","streetKana":"ﾅｶｶﾞﾜﾗ","prefecture":"山形県","city":"寒河江市","street":"中河原"},{"zipCode":"9910065","prefectureKana":"ﾔﾏｶﾞﾀｹﾝ","cityKana":"ｻｶﾞｴｼ","streetKana":"ﾅｶｺﾞｳ","prefecture":"山形県","city":"寒河江市","street":"中郷"},{"zipCode":"9910054","prefectureKana":"ﾔﾏｶﾞﾀｹﾝ","cityKana":"ｻｶﾞｴｼ","streetKana":"ﾅｶﾔﾁ","prefecture":"山形県","city":"寒河江市","street":"仲谷地"},{"zipCode":"9910022","prefectureKana":"ﾔﾏｶﾞﾀｹﾝ","cityKana":"ｻｶﾞｴｼ","streetKana":"ﾅﾉｶﾏﾁ","prefecture":"山形県","city":"寒河江市","street":"七日町"},{"zipCode":"9910003","prefectureKana":"ﾔﾏｶﾞﾀｹﾝ","cityKana":"ｻｶﾞｴｼ","streetKana":"ﾆｼﾈ","prefecture":"山形県","city":"寒河江市","street":"西根"},{"zipCode":"9910004","prefectureKana":"ﾔﾏｶﾞﾀｹﾝ","cityKana":"ｻｶﾞｴｼ","streetKana":"ﾆｼﾈｷﾀﾏﾁ","prefecture":"山形県","city":"寒河江市","street":"西根北町"},{"zipCode":"9910011","prefectureKana":"ﾔﾏｶﾞﾀｹﾝ","cityKana":"ｻｶﾞｴｼ","streetKana":"ﾆｯﾀ","prefecture":"山形県","city":"寒河江市","street":"日田"},{"zipCode":"9910001","prefectureKana":"ﾔﾏｶﾞﾀｹﾝ","cityKana":"ｻｶﾞｴｼ","streetKana":"ﾆｭｳｸﾞﾗ","prefecture":"山形県","city":"寒河江市","street":"入倉"},{"zipCode":"9910046","prefectureKana":"ﾔﾏｶﾞﾀｹﾝ","cityKana":"ｻｶﾞｴｼ","streetKana":"ﾋｶﾞｼｼﾝｻﾞﾝﾏﾁ","prefecture":"山形県","city":"寒河江市","street":"東新山町"},{"zipCode":"9910064","prefectureKana":"ﾔﾏｶﾞﾀｹﾝ","cityKana":"ｻｶﾞｴｼ","streetKana":"ﾋﾗｼｵ","prefecture":"山形県","city":"寒河江市","street":"平塩"},{"zipCode":"9910055","prefectureKana":"ﾔﾏｶﾞﾀｹﾝ","cityKana":"ｻｶﾞｴｼ","streetKana":"ﾌﾅﾊﾞｼﾏﾁ","prefecture":"山形県","city":"寒河江市","street":"船橋町"},{"zipCode":"9910028","prefectureKana":"ﾔﾏｶﾞﾀｹﾝ","cityKana":"ｻｶﾞｴｼ","streetKana":"ﾎﾅﾐ","prefecture":"山形県","city":"寒河江市","street":"ほなみ"},{"zipCode":"9910031","prefectureKana":"ﾔﾏｶﾞﾀｹﾝ","cityKana":"ｻｶﾞｴｼ","streetKana":"ﾎﾝﾁｮｳ","prefecture":"山形県","city":"寒河江市","street":"本町"},{"zipCode":"9910066","prefectureKana":"ﾔﾏｶﾞﾀｹﾝ","cityKana":"ｻｶﾞｴｼ","streetKana":"ﾏﾂｶﾜ","prefecture":"山形県","city":"寒河江市","street":"松川"},{"zipCode":"9910023","prefectureKana":"ﾔﾏｶﾞﾀｹﾝ","cityKana":"ｻｶﾞｴｼ","streetKana":"ﾏﾙﾉｳﾁ","prefecture":"山形県","city":"寒河江市","street":"丸内"},{"zipCode":"9910048","prefectureKana":"ﾔﾏｶﾞﾀｹﾝ","cityKana":"ｻｶﾞｴｼ","streetKana":"ﾐｽﾞｷ","prefecture":"山形県","city":"寒河江市","street":"みずき"},{"zipCode":"9910062","prefectureKana":"ﾔﾏｶﾞﾀｹﾝ","cityKana":"ｻｶﾞｴｼ","streetKana":"ﾐﾄﾞﾘﾁｮｳ","prefecture":"山形県","city":"寒河江市","street":"緑町"},{"zipCode":"9910032","prefectureKana":"ﾔﾏｶﾞﾀｹﾝ","cityKana":"ｻｶﾞｴｼ","streetKana":"ﾐﾅﾐﾏﾁ","prefecture":"山形県","city":"寒河江市","street":"南町"},{"zipCode":"9910049","prefectureKana":"ﾔﾏｶﾞﾀｹﾝ","cityKana":"ｻｶﾞｴｼ","streetKana":"ﾓﾄﾀﾞﾃ","prefecture":"山形県","city":"寒河江市","street":"本楯"},{"zipCode":"9910053","prefectureKana":"ﾔﾏｶﾞﾀｹﾝ","cityKana":"ｻｶﾞｴｼ","streetKana":"ﾓﾄﾏﾁ","prefecture":"山形県","city":"寒河江市","street":"元町"},{"zipCode":"9910026","prefectureKana":"ﾔﾏｶﾞﾀｹﾝ","cityKana":"ｻｶﾞｴｼ","streetKana":"ﾔﾏｷﾞｼﾁｮｳ","prefecture":"山形県","city":"寒河江市","street":"山岸町"},{"zipCode":"9910025","prefectureKana":"ﾔﾏｶﾞﾀｹﾝ","cityKana":"ｻｶﾞｴｼ","streetKana":"ﾔﾜﾀﾏﾁ","prefecture":"山形県","city":"寒河江市","street":"八幡町"},{"zipCode":"9910006","prefectureKana":"ﾔﾏｶﾞﾀｹﾝ","cityKana":"ｻｶﾞｴｼ","streetKana":"ﾕｳｶﾞｴ","prefecture":"山形県","city":"寒河江市","street":"夕カヘ"},{"zipCode":"9910024","prefectureKana":"ﾔﾏｶﾞﾀｹﾝ","cityKana":"ｻｶﾞｴｼ","streetKana":"ﾛｯｸﾏﾁ","prefecture":"山形県","city":"寒河江市","street":"六供町"},{"zipCode":"9910051","prefectureKana":"ﾔﾏｶﾞﾀｹﾝ","cityKana":"ｻｶﾞｴｼ","streetKana":"ﾜｶﾊﾞﾁｮｳ","prefecture":"山形県","city":"寒河江市","street":"若葉町"},{"zipCode":"9910801","prefectureKana":"ﾔﾏｶﾞﾀｹﾝ","cityKana":"ﾆｼﾑﾗﾔﾏｸﾞﾝｵｵｴﾏﾁ","streetKana":"ｱﾃﾗｻﾞﾜ(1518-3､1750-1-2228-18､2255-1-","prefecture":"山形県","city":"西村山郡大江町","street":"左沢（１５１８－３、１７５０－１～２２２８－１８、２２５５－１～"},{"zipCode":"9910801","prefectureKana":"ﾔﾏｶﾞﾀｹﾝ","cityKana":"ﾆｼﾑﾗﾔﾏｸﾞﾝｵｵｴﾏﾁ","streetKana":"2257-28､2316-2318､2430-1-2431-75)","prefecture":"山形県","city":"西村山郡大江町","street":"２２５７－２８、２３１６～２３１８、２４３０－１～２４３１－７５）"}]