[{"zipCode":"9993301","prefectureKana":"ﾔﾏｶﾞﾀｹﾝ","cityKana":"ﾔﾏｶﾞﾀｼ","streetKana":"ﾔﾏﾃﾞﾗ","prefecture":"山形県","city":"山形市","street":"山寺"},{"zipCode":"9997205","prefectureKana":"ﾔﾏｶﾞﾀｹﾝ","cityKana":"ﾂﾙｵｶｼ","streetKana":"ｱﾂﾐ","prefecture":"山形県","city":"鶴岡市","street":"温海"},{"zipCode":"9997312","prefectureKana":"ﾔﾏｶﾞﾀｹﾝ","cityKana":"ﾂﾙｵｶｼ","streetKana":"ｱﾂﾐｶﾞﾜ","prefecture":"山形県","city":"鶴岡市","street":"温海川"},{"zipCode":"9997673","prefectureKana":"ﾔﾏｶﾞﾀｹﾝ","cityKana":"ﾂﾙｵｶｼ","streetKana":"ｱﾗﾏﾀ","prefecture":"山形県","city":"鶴岡市","street":"荒俣"},{"zipCode":"9997682","prefectureKana":"ﾔﾏｶﾞﾀｹﾝ","cityKana":"ﾂﾙｵｶｼ","streetKana":"ｱﾗﾔｼｷ","prefecture":"山形県","city":"鶴岡市","street":"新屋敷"},{"zipCode":"9997207","prefectureKana":"ﾔﾏｶﾞﾀｹﾝ","cityKana":"ﾂﾙｵｶｼ","streetKana":"ｲﾗｶﾞﾜ","prefecture":"山形県","city":"鶴岡市","street":"五十川"},{"zipCode":"9997635","prefectureKana":"ﾔﾏｶﾞﾀｹﾝ","cityKana":"ﾂﾙｵｶｼ","streetKana":"ｴﾁｺﾞｷｮｳﾃﾞﾝ","prefecture":"山形県","city":"鶴岡市","street":"越後京田"},{"zipCode":"9997547","prefectureKana":"ﾔﾏｶﾞﾀｹﾝ","cityKana":"ﾂﾙｵｶｼ","streetKana":"ｵｵｱﾗ","prefecture":"山形県","city":"鶴岡市","street":"大荒"},{"zipCode":"9997123","prefectureKana":"ﾔﾏｶﾞﾀｹﾝ","cityKana":"ﾂﾙｵｶｼ","streetKana":"ｵｵｲﾜｶﾞﾜ","prefecture":"山形県","city":"鶴岡市","street":"大岩川"},{"zipCode":"9997661","prefectureKana":"ﾔﾏｶﾞﾀｹﾝ","cityKana":"ﾂﾙｵｶｼ","streetKana":"ｵｵｶﾜﾄﾞ","prefecture":"山形県","city":"鶴岡市","street":"大川渡"},{"zipCode":"9997543","prefectureKana":"ﾔﾏｶﾞﾀｹﾝ","cityKana":"ﾂﾙｵｶｼ","streetKana":"ｵｵﾋﾛ","prefecture":"山形県","city":"鶴岡市","street":"大広"},{"zipCode":"9997316","prefectureKana":"ﾔﾏｶﾞﾀｹﾝ","cityKana":"ﾂﾙｵｶｼ","streetKana":"ｵｸﾞﾆ","prefecture":"山形県","city":"鶴岡市","street":"小国"},{"zipCode":"9997125","prefectureKana":"ﾔﾏｶﾞﾀｹﾝ","cityKana":"ﾂﾙｵｶｼ","streetKana":"ｵﾅﾍﾞ","prefecture":"山形県","city":"鶴岡市","street":"小名部"},{"zipCode":"9997461","prefectureKana":"ﾔﾏｶﾞﾀｹﾝ","cityKana":"ﾂﾙｵｶｼ","streetKana":"ｶﾀﾉﾘｻﾞﾜ","prefecture":"山形県","city":"鶴岡市","street":"堅苔沢"},{"zipCode":"9997664","prefectureKana":"ﾔﾏｶﾞﾀｹﾝ","cityKana":"ﾂﾙｵｶｼ","streetKana":"ｶﾐﾅｶﾉﾒ","prefecture":"山形県","city":"鶴岡市","street":"上中野目"},{"zipCode":"9997611","prefectureKana":"ﾔﾏｶﾞﾀｹﾝ","cityKana":"ﾂﾙｵｶｼ","streetKana":"ｶﾐﾌｼﾞｼﾏ","prefecture":"山形県","city":"鶴岡市","street":"上藤島"},{"zipCode":"9997644","prefectureKana":"ﾔﾏｶﾞﾀｹﾝ","cityKana":"ﾂﾙｵｶｼ","streetKana":"ｶﾜｼﾘ","prefecture":"山形県","city":"鶴岡市","street":"川尻"},{"zipCode":"9997313","prefectureKana":"ﾔﾏｶﾞﾀｹﾝ","cityKana":"ﾂﾙｵｶｼ","streetKana":"ｷﾉﾏﾀ","prefecture":"山形県","city":"鶴岡市","street":"木野俣"},{"zipCode":"9997646","prefectureKana":"ﾔﾏｶﾞﾀｹﾝ","cityKana":"ﾂﾙｵｶｼ","streetKana":"ｸﾄﾞｳ","prefecture":"山形県","city":"鶴岡市","street":"工藤"},{"zipCode":"9997122","prefectureKana":"ﾔﾏｶﾞﾀｹﾝ","cityKana":"ﾂﾙｵｶｼ","streetKana":"ｺｲﾜｶﾞﾜ","prefecture":"山形県","city":"鶴岡市","street":"小岩川"},{"zipCode":"9997314","prefectureKana":"ﾔﾏｶﾞﾀｹﾝ","cityKana":"ﾂﾙｵｶｼ","streetKana":"ｺｴｻﾜ","prefecture":"山形県","city":"鶴岡市","street":"越沢"},{"zipCode":"9997206","prefectureKana":"ﾔﾏｶﾞﾀｹﾝ","cityKana":"ﾂﾙｵｶｼ","streetKana":"ｺｽｶﾞﾉﾀﾞｲ","prefecture":"山形県","city":"鶴岡市","street":"小菅野代"},{"zipCode":"9997632","prefectureKana":"ﾔﾏｶﾞﾀｹﾝ","cityKana":"ﾂﾙｵｶｼ","streetKana":"ｺﾅｶｼﾞﾏ","prefecture":"山形県","city":"鶴岡市","street":"小中島"},{"zipCode":"9997462","prefectureKana":"ﾔﾏｶﾞﾀｹﾝ","cityKana":"ﾂﾙｵｶｼ","streetKana":"ｺﾊﾞﾄ","prefecture":"山形県","city":"鶴岡市","street":"小波渡"},{"zipCode":"9997651","prefectureKana":"ﾔﾏｶﾞﾀｹﾝ","cityKana":"ﾂﾙｵｶｼ","streetKana":"ｻｷﾞﾊﾀ","prefecture":"山形県","city":"鶴岡市","street":"鷺畑"},{"zipCode":"9997463","prefectureKana":"ﾔﾏｶﾞﾀｹﾝ","cityKana":"ﾂﾙｵｶｼ","streetKana":"ｻﾝｾﾞ","prefecture":"山形県","city":"鶴岡市","street":"三瀬"},{"zipCode":"9997637","prefectureKana":"ﾔﾏｶﾞﾀｹﾝ","cityKana":"ﾂﾙｵｶｼ","streetKana":"ｼﾓﾅｶﾉﾒ","prefecture":"山形県","city":"鶴岡市","street":"下中野目"},{"zipCode":"9997311","prefectureKana":"ﾔﾏｶﾞﾀｹﾝ","cityKana":"ﾂﾙｵｶｼ","streetKana":"ｽｶﾞﾉﾀﾞｲ","prefecture":"山形県","city":"鶴岡市","street":"菅野代"},{"zipCode":"9997685","prefectureKana":"ﾔﾏｶﾞﾀｹﾝ","cityKana":"ﾂﾙｵｶｼ","streetKana":"ｽﾅﾂﾞｶ","prefecture":"山形県","city":"鶴岡市","street":"砂塚"},{"zipCode":"9997633","prefectureKana":"ﾔﾏｶﾞﾀｹﾝ","cityKana":"ﾂﾙｵｶｼ","streetKana":"ｽﾊﾞｼﾘ","prefecture":"山形県","city":"鶴岡市","street":"須走"},{"zipCode":"9997315","prefectureKana":"ﾔﾏｶﾞﾀｹﾝ","cityKana":"ﾂﾙｵｶｼ","streetKana":"ｾｷｶﾞﾜ","prefecture":"山形県","city":"鶴岡市","street":"関川"},{"zipCode":"9996652","prefectureKana":"ﾔﾏｶﾞﾀｹﾝ","cityKana":"ﾂﾙｵｶｼ","streetKana":"ｿｴｶﾞﾜ(ﾜﾀﾄｻﾞﾜ<ﾀｹﾉｺｻﾞﾜｵﾝｾﾝ>)","prefecture":"山形県","city":"鶴岡市","street":"添川（渡戸沢「筍沢温泉」）"},{"zipCode":"9997652","prefectureKana":"ﾔﾏｶﾞﾀｹﾝ","cityKana":"ﾂﾙｵｶｼ","streetKana":"ｿｴｶﾞﾜ(ｿﾉﾀ)","prefecture":"山形県","city":"鶴岡市","street":"添川（その他）"},{"zipCode":"9997677","prefectureKana":"ﾔﾏｶﾞﾀｹﾝ","cityKana":"ﾂﾙｵｶｼ","streetKana":"ﾀﾞｲﾊﾝﾀﾞ","prefecture":"山形県","city":"鶴岡市","street":"大半田"},{"zipCode":"9997663","prefectureKana":"ﾔﾏｶﾞﾀｹﾝ","cityKana":"ﾂﾙｵｶｼ","streetKana":"ﾀｺｲｺｳﾔ","prefecture":"山形県","city":"鶴岡市","street":"蛸井興屋"},{"zipCode":"9997202","prefectureKana":"ﾔﾏｶﾞﾀｹﾝ","cityKana":"ﾂﾙｵｶｼ","streetKana":"ﾄｻﾞﾜ","prefecture":"山形県","city":"鶴岡市","street":"戸沢"},{"zipCode":"9997546","prefectureKana":"ﾔﾏｶﾞﾀｹﾝ","cityKana":"ﾂﾙｵｶｼ","streetKana":"ﾅｶｻﾞﾜ","prefecture":"山形県","city":"鶴岡市","street":"中沢"},{"zipCode":"9997621","prefectureKana":"ﾔﾏｶﾞﾀｹﾝ","cityKana":"ﾂﾙｵｶｼ","streetKana":"ﾅｶﾞﾇﾏ","prefecture":"山形県","city":"鶴岡市","street":"長沼"},{"zipCode":"9997544","prefectureKana":"ﾔﾏｶﾞﾀｹﾝ","cityKana":"ﾂﾙｵｶｼ","streetKana":"ﾅｶﾔﾏ","prefecture":"山形県","city":"鶴岡市","street":"中山"},{"zipCode":"9997541","prefectureKana":"ﾔﾏｶﾞﾀｹﾝ","cityKana":"ﾂﾙｵｶｼ","streetKana":"ﾆｼﾒ","prefecture":"山形県","city":"鶴岡市","street":"西目"},{"zipCode":"9997126","prefectureKana":"ﾔﾏｶﾞﾀｹﾝ","cityKana":"ﾂﾙｵｶｼ","streetKana":"ﾈｽﾞｶﾞｾｷ","prefecture":"山形県","city":"鶴岡市","street":"鼠ケ関"},{"zipCode":"9997636","prefectureKana":"ﾔﾏｶﾞﾀｹﾝ","cityKana":"ﾂﾙｵｶｼ","streetKana":"ﾉﾀﾞﾉﾒ","prefecture":"山形県","city":"鶴岡市","street":"野田目"},{"zipCode":"9997653","prefectureKana":"ﾔﾏｶﾞﾀｹﾝ","cityKana":"ﾂﾙｵｶｼ","streetKana":"ﾋｶﾞｼﾎﾘｺｼ","prefecture":"山形県","city":"鶴岡市","street":"東堀越"},{"zipCode":"9997203","prefectureKana":"ﾔﾏｶﾞﾀｹﾝ","cityKana":"ﾂﾙｵｶｼ","streetKana":"ﾋﾄｶｽﾐ","prefecture":"山形県","city":"鶴岡市","street":"一霞"},{"zipCode":"9997681","prefectureKana":"ﾔﾏｶﾞﾀｹﾝ","cityKana":"ﾂﾙｵｶｼ","streetKana":"ﾋﾗｶﾀ","prefecture":"山形県","city":"鶴岡市","street":"平形"},{"zipCode":"9997638","prefectureKana":"ﾔﾏｶﾞﾀｹﾝ","cityKana":"ﾂﾙｵｶｼ","streetKana":"ﾌｼﾞｵｶ","prefecture":"山形県","city":"鶴岡市","street":"藤岡"},{"zipCode":"9997601","prefectureKana":"ﾔﾏｶﾞﾀｹﾝ","cityKana":"ﾂﾙｵｶｼ","streetKana":"ﾌｼﾞｼﾏ","prefecture":"山形県","city":"鶴岡市","street":"藤島"},{"zipCode":"9997642","prefectureKana":"ﾔﾏｶﾞﾀｹﾝ","cityKana":"ﾂﾙｵｶｼ","streetKana":"ﾌｼﾞｼﾏｾｷﾈ","prefecture":"山形県","city":"鶴岡市","street":"藤島関根"},{"zipCode":"9997604","prefectureKana":"ﾔﾏｶﾞﾀｹﾝ","cityKana":"ﾂﾙｵｶｼ","streetKana":"ﾌｼﾞﾅﾐ","prefecture":"山形県","city":"鶴岡市","street":"藤浪"},{"zipCode":"9997602","prefectureKana":"ﾔﾏｶﾞﾀｹﾝ","cityKana":"ﾂﾙｵｶｼ","streetKana":"ﾌｼﾞﾉﾊﾅ","prefecture":"山形県","city":"鶴岡市","street":"藤の花"},{"zipCode":"9997671","prefectureKana":"ﾔﾏｶﾞﾀｹﾝ","cityKana":"ﾂﾙｵｶｼ","streetKana":"ﾌﾙｺｵﾘ","prefecture":"山形県","city":"鶴岡市","street":"古郡"},{"zipCode":"9997645","prefectureKana":"ﾔﾏｶﾞﾀｹﾝ","cityKana":"ﾂﾙｵｶｼ","streetKana":"ﾍｲｿｸ","prefecture":"山形県","city":"鶴岡市","street":"平足"},{"zipCode":"9997622","prefectureKana":"ﾔﾏｶﾞﾀｹﾝ","cityKana":"ﾂﾙｵｶｼ","streetKana":"ﾎｳｴｲ","prefecture":"山形県","city":"鶴岡市","street":"豊栄"},{"zipCode":"9997675","prefectureKana":"ﾔﾏｶﾞﾀｹﾝ","cityKana":"ﾂﾙｵｶｼ","streetKana":"ﾎｳﾄｸ","prefecture":"山形県","city":"鶴岡市","street":"宝徳"},{"zipCode":"9997124","prefectureKana":"ﾔﾏｶﾞﾀｹﾝ","cityKana":"ﾂﾙｵｶｼ","streetKana":"ﾏｷﾀﾞｲ","prefecture":"山形県","city":"鶴岡市","street":"槇代"},{"zipCode":"9997676","prefectureKana":"ﾔﾏｶﾞﾀｹﾝ","cityKana":"ﾂﾙｵｶｼ","streetKana":"ﾏｸﾉｳﾁ","prefecture":"山形県","city":"鶴岡市","street":"幕野内"},{"zipCode":"9997542","prefectureKana":"ﾔﾏｶﾞﾀｹﾝ","cityKana":"ﾂﾙｵｶｼ","streetKana":"ﾐｽﾞｻﾜ","prefecture":"山形県","city":"鶴岡市","street":"水沢"},{"zipCode":"9997548","prefectureKana":"ﾔﾏｶﾞﾀｹﾝ","cityKana":"ﾂﾙｵｶｼ","streetKana":"ﾐｽﾞﾎ","prefecture":"山形県","city":"鶴岡市","street":"みずほ"},{"zipCode":"9997674","prefectureKana":"ﾔﾏｶﾞﾀｹﾝ","cityKana":"ﾂﾙｵｶｼ","streetKana":"ﾐﾏｽｼﾝﾃﾞﾝ","prefecture":"山形県","city":"鶴岡市","street":"箕升新田"},{"zipCode":"9997634","prefectureKana":"ﾔﾏｶﾞﾀｹﾝ","cityKana":"ﾂﾙｵｶｼ","streetKana":"ﾐﾜ","prefecture":"山形県","city":"鶴岡市","street":"三和"},{"zipCode":"9997631","prefectureKana":"ﾔﾏｶﾞﾀｹﾝ","cityKana":"ﾂﾙｵｶｼ","streetKana":"ﾔｲﾛｷﾞ","prefecture":"山形県","city":"鶴岡市","street":"八色木"},{"zipCode":"9997662","prefectureKana":"ﾔﾏｶﾞﾀｹﾝ","cityKana":"ﾂﾙｵｶｼ","streetKana":"ﾔﾁｺｳﾔ","prefecture":"山形県","city":"鶴岡市","street":"谷地興屋"},{"zipCode":"9997672","prefectureKana":"ﾔﾏｶﾞﾀｹﾝ","cityKana":"ﾂﾙｵｶｼ","streetKana":"ﾔﾅｸｾ","prefecture":"山形県","city":"鶴岡市","street":"柳久瀬"},{"zipCode":"9997545","prefectureKana":"ﾔﾏｶﾞﾀｹﾝ","cityKana":"ﾂﾙｵｶｼ","streetKana":"ﾔﾋﾞｷ","prefecture":"山形県","city":"鶴岡市","street":"矢引"},{"zipCode":"9997201","prefectureKana":"ﾔﾏｶﾞﾀｹﾝ","cityKana":"ﾂﾙｵｶｼ","streetKana":"ﾔﾏｲﾗｶﾞﾜ","prefecture":"山形県","city":"鶴岡市","street":"山五十川"},{"zipCode":"9997204","prefectureKana":"ﾔﾏｶﾞﾀｹﾝ","cityKana":"ﾂﾙｵｶｼ","streetKana":"ﾕｱﾂﾐ","prefecture":"山形県","city":"鶴岡市","street":"湯温海"},{"zipCode":"9997641","prefectureKana":"ﾔﾏｶﾞﾀｹﾝ","cityKana":"ﾂﾙｵｶｼ","streetKana":"ﾕｽﾞﾘﾊ","prefecture":"山形県","city":"鶴岡市","street":"楪"},{"zipCode":"9997464","prefectureKana":"ﾔﾏｶﾞﾀｹﾝ","cityKana":"ﾂﾙｵｶｼ","streetKana":"ﾕﾗ","prefecture":"山形県","city":"鶴岡市","street":"由良"},{"zipCode":"9997643","prefectureKana":"ﾔﾏｶﾞﾀｹﾝ","cityKana":"ﾂﾙｵｶｼ","streetKana":"ﾖﾊﾞﾗｽﾞ","prefecture":"山形県","city":"鶴岡市","street":"無音"},{"zipCode":"9997121","prefectureKana":"ﾔﾏｶﾞﾀｹﾝ","cityKana":"ﾂﾙｵｶｼ","streetKana":"ﾜｻﾀﾞ","prefecture":"山形県","city":"鶴岡市","street":"早田"},{"zipCode":"9997683","prefectureKana":"ﾔﾏｶﾞﾀｹﾝ","cityKana":"ﾂﾙｵｶｼ","streetKana":"ﾜﾀﾏｴ","prefecture":"山形県","city":"鶴岡市","street":"渡前"},{"zipCode":"9997684","prefectureKana":"ﾔﾏｶﾞﾀｹﾝ","cityKana":"ﾂﾙｵｶｼ","streetKana":"ﾜﾅｶﾞﾜ","prefecture":"山形県","city":"鶴岡市","street":"和名川"},{"zipCode":"9996852","prefectureKana":"ﾔﾏｶﾞﾀｹﾝ","cityKana":"ｻｶﾀｼ","streetKana":"ｱｲｻﾜ","prefecture":"山形県","city":"酒田市","street":"相沢"},{"zipCode":"9998203","prefectureKana":"ﾔﾏｶﾞﾀｹﾝ","cityKana":"ｻｶﾀｼ","streetKana":"ｱｶﾊｹﾞ","prefecture":"山形県","city":"酒田市","street":"赤剥"},{"zipCode":"9996711","prefectureKana":"ﾔﾏｶﾞﾀｹﾝ","cityKana":"ｻｶﾀｼ","streetKana":"ｱｽｶ","prefecture":"山形県","city":"酒田市","street":"飛鳥"},{"zipCode":"9996834","prefectureKana":"ﾔﾏｶﾞﾀｹﾝ","cityKana":"ｻｶﾀｼ","streetKana":"ｱﾗﾏﾁ","prefecture":"山形県","city":"酒田市","street":"荒町"},{"zipCode":"9996853","prefectureKana":"ﾔﾏｶﾞﾀｹﾝ","cityKana":"ｻｶﾀｼ","streetKana":"ｲｼﾅｻﾞｶ","prefecture":"山形県","city":"酒田市","street":"石名坂"},{"zipCode":"9996704","prefectureKana":"ﾔﾏｶﾞﾀｹﾝ","cityKana":"ｻｶﾀｼ","streetKana":"ｲｼﾊﾞｼ","prefecture":"山形県","city":"酒田市","street":"石橋"},{"zipCode":"9996708","prefectureKana":"ﾔﾏｶﾞﾀｹﾝ","cityKana":"ｻｶﾀｼ","streetKana":"ｲｽﾞﾐｺｳﾔ","prefecture":"山形県","city":"酒田市","street":"泉興野"},{"zipCode":"9997774","prefectureKana":"ﾔﾏｶﾞﾀｹﾝ","cityKana":"ｻｶﾀｼ","streetKana":"ｲﾀﾄﾞ","prefecture":"山形県","city":"酒田市","street":"板戸"},{"zipCode":"9998232","prefectureKana":"ﾔﾏｶﾞﾀｹﾝ","cityKana":"ｻｶﾀｼ","streetKana":"ｲﾁｼﾞｮｳ","prefecture":"山形県","city":"酒田市","street":"市条"},{"zipCode":"9996826","prefectureKana":"ﾔﾏｶﾞﾀｹﾝ","cityKana":"ｻｶﾀｼ","streetKana":"ｲﾅﾘｻﾞﾜ","prefecture":"山形県","city":"酒田市","street":"稲荷沢"},{"zipCode":"9996815","prefectureKana":"ﾔﾏｶﾞﾀｹﾝ","cityKana":"ｻｶﾀｼ","streetKana":"ｳｽｶﾞｻﾜ","prefecture":"山形県","city":"酒田市","street":"臼ケ沢"},{"zipCode":"9996831","prefectureKana":"ﾔﾏｶﾞﾀｹﾝ","cityKana":"ｻｶﾀｼ","streetKana":"ｳﾁﾏﾁ","prefecture":"山形県","city":"酒田市","street":"内町"},{"zipCode":"9998164","prefectureKana":"ﾔﾏｶﾞﾀｹﾝ","cityKana":"ｻｶﾀｼ","streetKana":"ｳﾙｼｿﾞﾈ","prefecture":"山形県","city":"酒田市","street":"漆曽根"},{"zipCode":"9998153","prefectureKana":"ﾔﾏｶﾞﾀｹﾝ","cityKana":"ｻｶﾀｼ","streetKana":"ｴﾝﾉｳｼﾞ","prefecture":"山形県","city":"酒田市","street":"円能寺"},{"zipCode":"9996813","prefectureKana":"ﾔﾏｶﾞﾀｹﾝ","cityKana":"ｻｶﾀｼ","streetKana":"ｵｵｶﾜﾄﾞ","prefecture":"山形県","city":"酒田市","street":"大川渡"},{"zipCode":"9998244","prefectureKana":"ﾔﾏｶﾞﾀｹﾝ","cityKana":"ｻｶﾀｼ","streetKana":"ｵｵｸﾎﾞ","prefecture":"山形県","city":"酒田市","street":"大久保"},{"zipCode":"9998225","prefectureKana":"ﾔﾏｶﾞﾀｹﾝ","cityKana":"ｻｶﾀｼ","streetKana":"ｵｵｼﾏﾀﾞ","prefecture":"山形県","city":"酒田市","street":"大島田"},{"zipCode":"9998133","prefectureKana":"ﾔﾏｶﾞﾀｹﾝ","cityKana":"ｻｶﾀｼ","streetKana":"ｵｵﾄﾖﾀﾞ","prefecture":"山形県","city":"酒田市","street":"大豊田"},{"zipCode":"9996816","prefectureKana":"ﾔﾏｶﾞﾀｹﾝ","cityKana":"ｻｶﾀｼ","streetKana":"ｵｵﾇﾏｼﾝﾃﾞﾝ","prefecture":"山形県","city":"酒田市","street":"大沼新田"},{"zipCode":"9998215","prefectureKana":"ﾔﾏｶﾞﾀｹﾝ","cityKana":"ｻｶﾀｼ","streetKana":"ｵｵﾜﾗﾋﾞ","prefecture":"山形県","city":"酒田市","street":"大蕨"},{"zipCode":"9998227","prefectureKana":"ﾔﾏｶﾞﾀｹﾝ","cityKana":"ｻｶﾀｼ","streetKana":"ｵｶｼﾏﾀﾞ","prefecture":"山形県","city":"酒田市","street":"岡島田"},{"zipCode":"9997775","prefectureKana":"ﾔﾏｶﾞﾀｹﾝ","cityKana":"ｻｶﾀｼ","streetKana":"ｵﾁﾉﾒ","prefecture":"山形県","city":"酒田市","street":"落野目"},{"zipCode":"9996845","prefectureKana":"ﾔﾏｶﾞﾀｹﾝ","cityKana":"ｻｶﾀｼ","streetKana":"ｵﾐ","prefecture":"山形県","city":"酒田市","street":"小見"},{"zipCode":"9996811","prefectureKana":"ﾔﾏｶﾞﾀｹﾝ","cityKana":"ｻｶﾀｼ","streetKana":"ｶｼﾔｻﾞﾜ","prefecture":"山形県","city":"酒田市","street":"柏谷沢"},{"zipCode":"9996838","prefectureKana":"ﾔﾏｶﾞﾀｹﾝ","cityKana":"ｻｶﾀｼ","streetKana":"ｶﾀﾏﾁ","prefecture":"山形県","city":"酒田市","street":"片町"},{"zipCode":"9997772","prefectureKana":"ﾔﾏｶﾞﾀｹﾝ","cityKana":"ｻｶﾀｼ","streetKana":"ｶﾄﾞﾀ","prefecture":"山形県","city":"酒田市","street":"門田"},{"zipCode":"9996837","prefectureKana":"ﾔﾏｶﾞﾀｹﾝ","cityKana":"ｻｶﾀｼ","streetKana":"ｶﾅﾔ","prefecture":"山形県","city":"酒田市","street":"金谷"},{"zipCode":"9998212","prefectureKana":"ﾔﾏｶﾞﾀｹﾝ","cityKana":"ｻｶﾀｼ","streetKana":"ｶﾐｱｵｻﾜ","prefecture":"山形県","city":"酒田市","street":"上青沢"},{"zipCode":"9996843","prefectureKana":"ﾔﾏｶﾞﾀｹﾝ","cityKana":"ｻｶﾀｼ","streetKana":"ｶﾐｷﾀﾒ","prefecture":"山形県","city":"酒田市","street":"上北目"},{"zipCode":"9998206","prefectureKana":"ﾔﾏｶﾞﾀｹﾝ","cityKana":"ｻｶﾀｼ","streetKana":"ｶﾐｸﾛｶﾜ","prefecture":"山形県","city":"酒田市","street":"上黒川"},{"zipCode":"9998163","prefectureKana":"ﾔﾏｶﾞﾀｹﾝ","cityKana":"ｻｶﾀｼ","streetKana":"ｶﾐｺｳﾔ","prefecture":"山形県","city":"酒田市","street":"上興野"},{"zipCode":"9998162","prefectureKana":"ﾔﾏｶﾞﾀｹﾝ","cityKana":"ｻｶﾀｼ","streetKana":"ｶﾐﾉｿﾈ","prefecture":"山形県","city":"酒田市","street":"上野曽根"},{"zipCode":"9996842","prefectureKana":"ﾔﾏｶﾞﾀｹﾝ","cityKana":"ｻｶﾀｼ","streetKana":"ｶﾐﾓﾁﾔﾏ","prefecture":"山形県","city":"酒田市","street":"上餅山"},{"zipCode":"9998152","prefectureKana":"ﾔﾏｶﾞﾀｹﾝ","cityKana":"ｻｶﾀｼ","streetKana":"ｶﾐﾔｽﾀﾞ","prefecture":"山形県","city":"酒田市","street":"上安田"},{"zipCode":"9998143","prefectureKana":"ﾔﾏｶﾞﾀｹﾝ","cityKana":"ｻｶﾀｼ","streetKana":"ｶﾘﾎ","prefecture":"山形県","city":"酒田市","street":"刈穂"},{"zipCode":"9998132","prefectureKana":"ﾔﾏｶﾞﾀｹﾝ","cityKana":"ｻｶﾀｼ","streetKana":"ｶﾘﾔ","prefecture":"山形県","city":"酒田市","street":"刈屋"},{"zipCode":"9998235","prefectureKana":"ﾔﾏｶﾞﾀｹﾝ","cityKana":"ｻｶﾀｼ","streetKana":"ｶﾝﾉﾝｼﾞ","prefecture":"山形県","city":"酒田市","street":"観音寺"},{"zipCode":"9997773","prefectureKana":"ﾔﾏｶﾞﾀｹﾝ","cityKana":"ｻｶﾀｼ","streetKana":"ｷｶﾞﾜ","prefecture":"山形県","city":"酒田市","street":"木川"},{"zipCode":"9998211","prefectureKana":"ﾔﾏｶﾞﾀｹﾝ","cityKana":"ｻｶﾀｼ","streetKana":"ｷﾀｱｵｻﾜ","prefecture":"山形県","city":"酒田市","street":"北青沢"},{"zipCode":"9998243","prefectureKana":"ﾔﾏｶﾞﾀｹﾝ","cityKana":"ｻｶﾀｼ","streetKana":"ｷﾀｼﾞﾝﾃﾞﾝ","prefecture":"山形県","city":"酒田市","street":"北仁田"},{"zipCode":"9998222","prefectureKana":"ﾔﾏｶﾞﾀｹﾝ","cityKana":"ｻｶﾀｼ","streetKana":"ｷﾀﾍｲｻﾞﾜ","prefecture":"山形県","city":"酒田市","street":"北平沢"},{"zipCode":"9996741","prefectureKana":"ﾔﾏｶﾞﾀｹﾝ","cityKana":"ｻｶﾀｼ","streetKana":"ｷﾀﾏﾀ","prefecture":"山形県","city":"酒田市","street":"北俣"},{"zipCode":"9996833","prefectureKana":"ﾔﾏｶﾞﾀｹﾝ","cityKana":"ｻｶﾀｼ","streetKana":"ｷﾀﾏﾁ","prefecture":"山形県","city":"酒田市","street":"北町"},{"zipCode":"9998142","prefectureKana":"ﾔﾏｶﾞﾀｹﾝ","cityKana":"ｻｶﾀｼ","streetKana":"ｷﾉﾜ","prefecture":"山形県","city":"酒田市","street":"城輪"},{"zipCode":"9998207","prefectureKana":"ﾔﾏｶﾞﾀｹﾝ","cityKana":"ｻｶﾀｼ","streetKana":"ｸｻﾂ","prefecture":"山形県","city":"酒田市","street":"草津"},{"zipCode":"9998156","prefectureKana":"ﾔﾏｶﾞﾀｹﾝ","cityKana":"ｻｶﾀｼ","streetKana":"ｸﾎﾞﾀ","prefecture":"山形県","city":"酒田市","street":"久保田"},{"zipCode":"9996835","prefectureKana":"ﾔﾏｶﾞﾀｹﾝ","cityKana":"ｻｶﾀｼ","streetKana":"ｸﾗｺｳｼﾞ","prefecture":"山形県","city":"酒田市","street":"蔵小路"},{"zipCode":"9998234","prefectureKana":"ﾔﾏｶﾞﾀｹﾝ","cityKana":"ｻｶﾀｼ","streetKana":"ｺｲｽﾞﾐ","prefecture":"山形県","city":"酒田市","street":"小泉"},{"zipCode":"9996707","prefectureKana":"ﾔﾏｶﾞﾀｹﾝ","cityKana":"ｻｶﾀｼ","streetKana":"ｺｵﾘﾔﾏ","prefecture":"山形県","city":"酒田市","street":"郡山"},{"zipCode":"9996735","prefectureKana":"ﾔﾏｶﾞﾀｹﾝ","cityKana":"ｻｶﾀｼ","streetKana":"ｺﾊﾞﾔｼ","prefecture":"山形県","city":"酒田市","street":"小林"},{"zipCode":"9996836","prefectureKana":"ﾔﾏｶﾞﾀｹﾝ","cityKana":"ｻｶﾀｼ","streetKana":"ｻｶﾅﾏﾁ","prefecture":"山形県","city":"酒田市","street":"肴町"},{"zipCode":"9996705","prefectureKana":"ﾔﾏｶﾞﾀｹﾝ","cityKana":"ｻｶﾀｼ","streetKana":"ｻｸﾗﾊﾞﾔｼ","prefecture":"山形県","city":"酒田市","street":"桜林"},{"zipCode":"9996706","prefectureKana":"ﾔﾏｶﾞﾀｹﾝ","cityKana":"ｻｶﾀｼ","streetKana":"ｻｸﾗﾊﾞﾔｼｺｳﾔ","prefecture":"山形県","city":"酒田市","street":"桜林興野"},{"zipCode":"9996701","prefectureKana":"ﾔﾏｶﾞﾀｹﾝ","cityKana":"ｻｶﾀｼ","streetKana":"ｻｺﾞｼ","prefecture":"山形県","city":"酒田市","street":"砂越"},{"zipCode":"9996702","prefectureKana":"ﾔﾏｶﾞﾀｹﾝ","cityKana":"ｻｶﾀｼ","streetKana":"ｻｺﾞｼﾐﾄﾞﾘﾁｮｳ","prefecture":"山形県","city":"酒田市","street":"砂越緑町"},{"zipCode":"9996723","prefectureKana":"ﾔﾏｶﾞﾀｹﾝ","cityKana":"ｻｶﾀｼ","streetKana":"ｻﾝﾉﾐﾔ","prefecture":"山形県","city":"酒田市","street":"三之宮"},{"zipCode":"9996814","prefectureKana":"ﾔﾏｶﾞﾀｹﾝ","cityKana":"ｻｶﾀｼ","streetKana":"ｼﾞﾐｺｳﾔ","prefecture":"山形県","city":"酒田市","street":"地見興屋"},{"zipCode":"9998213","prefectureKana":"ﾔﾏｶﾞﾀｹﾝ","cityKana":"ｻｶﾀｼ","streetKana":"ｼﾓｱｵｻﾜ","prefecture":"山形県","city":"酒田市","street":"下青沢"},{"zipCode":"9998205","prefectureKana":"ﾔﾏｶﾞﾀｹﾝ","cityKana":"ｻｶﾀｼ","streetKana":"ｼﾓｸﾛｶﾜ","prefecture":"山形県","city":"酒田市","street":"下黒川"},{"zipCode":"9996846","prefectureKana":"ﾔﾏｶﾞﾀｹﾝ","cityKana":"ｻｶﾀｼ","streetKana":"ｼﾓﾓﾁﾔﾏ","prefecture":"山形県","city":"酒田市","street":"下餅山"},{"zipCode":"9998214","prefectureKana":"ﾔﾏｶﾞﾀｹﾝ","cityKana":"ｻｶﾀｼ","streetKana":"ｼﾞｮｳｾﾞﾝｼﾞ","prefecture":"山形県","city":"酒田市","street":"常禅寺"},{"zipCode":"9996823","prefectureKana":"ﾔﾏｶﾞﾀｹﾝ","cityKana":"ｻｶﾀｼ","streetKana":"ｼﾝｶﾞｸｼﾞｻﾜ","prefecture":"山形県","city":"酒田市","street":"真学寺沢"},{"zipCode":"9998204","prefectureKana":"ﾔﾏｶﾞﾀｹﾝ","cityKana":"ｻｶﾀｼ","streetKana":"ｼﾝﾃﾞ","prefecture":"山形県","city":"酒田市","street":"新出"},{"zipCode":"9996837","prefectureKana":"ﾔﾏｶﾞﾀｹﾝ","cityKana":"ｻｶﾀｼ","streetKana":"ｼﾝﾏﾁ","prefecture":"山形県","city":"酒田市","street":"新町"},{"zipCode":"9996832","prefectureKana":"ﾔﾏｶﾞﾀｹﾝ","cityKana":"ｻｶﾀｼ","streetKana":"ｼﾝﾔｼｷ","prefecture":"山形県","city":"酒田市","street":"新屋敷"},{"zipCode":"9998246","prefectureKana":"ﾔﾏｶﾞﾀｹﾝ","cityKana":"ｻｶﾀｼ","streetKana":"ｾﾂﾀﾞ","prefecture":"山形県","city":"酒田市","street":"芹田"},{"zipCode":"9996831","prefectureKana":"ﾔﾏｶﾞﾀｹﾝ","cityKana":"ｻｶﾀｼ","streetKana":"ｿｳｺｳｼﾞｻﾜ","prefecture":"山形県","city":"酒田市","street":"総光寺沢"},{"zipCode":"9998155","prefectureKana":"ﾔﾏｶﾞﾀｹﾝ","cityKana":"ｻｶﾀｼ","streetKana":"ｿﾈﾀﾞ","prefecture":"山形県","city":"酒田市","street":"曽根田"},{"zipCode":"9996848","prefectureKana":"ﾔﾏｶﾞﾀｹﾝ","cityKana":"ｻｶﾀｼ","streetKana":"ﾀｹﾀﾞ","prefecture":"山形県","city":"酒田市","street":"竹田"},{"zipCode":"9996731","prefectureKana":"ﾔﾏｶﾞﾀｹﾝ","cityKana":"ｻｶﾀｼ","streetKana":"ﾀｻﾞﾜ","prefecture":"山形県","city":"酒田市","street":"田沢"},{"zipCode":"9996732","prefectureKana":"ﾔﾏｶﾞﾀｹﾝ","cityKana":"ｻｶﾀｼ","streetKana":"ﾀﾃﾔﾏ","prefecture":"山形県","city":"酒田市","street":"楯山"},{"zipCode":"9998422","prefectureKana":"ﾔﾏｶﾞﾀｹﾝ","cityKana":"ｻｶﾀｼ","streetKana":"ﾁﾖﾀﾞ","prefecture":"山形県","city":"酒田市","street":"千代田"},{"zipCode":"9998245","prefectureKana":"ﾔﾏｶﾞﾀｹﾝ","cityKana":"ｻｶﾀｼ","streetKana":"ﾂｶﾌﾞﾁ","prefecture":"山形県","city":"酒田市","street":"塚淵"},{"zipCode":"9996839","prefectureKana":"ﾔﾏｶﾞﾀｹﾝ","cityKana":"ｻｶﾀｼ","streetKana":"ﾂﾁﾌﾞﾁ","prefecture":"山形県","city":"酒田市","street":"土渕"},{"zipCode":"9997771","prefectureKana":"ﾔﾏｶﾞﾀｹﾝ","cityKana":"ｻｶﾀｼ","streetKana":"ﾂﾎﾞﾈ","prefecture":"山形県","city":"酒田市","street":"局"},{"zipCode":"9998168","prefectureKana":"ﾔﾏｶﾞﾀｹﾝ","cityKana":"ｻｶﾀｼ","streetKana":"ﾂﾙﾀ","prefecture":"山形県","city":"酒田市","street":"鶴田"},{"zipCode":"9998221","prefectureKana":"ﾔﾏｶﾞﾀｹﾝ","cityKana":"ｻｶﾀｼ","streetKana":"ﾃﾗﾀﾞ","prefecture":"山形県","city":"酒田市","street":"寺田"},{"zipCode":"9996703","prefectureKana":"ﾔﾏｶﾞﾀｹﾝ","cityKana":"ｻｶﾀｼ","streetKana":"ﾃﾝｼﾞﾝﾄﾞｳ","prefecture":"山形県","city":"酒田市","street":"天神堂"},{"zipCode":"9998141","prefectureKana":"ﾔﾏｶﾞﾀｹﾝ","cityKana":"ｻｶﾀｼ","streetKana":"ﾄﾖﾊﾗ","prefecture":"山形県","city":"酒田市","street":"豊原"},{"zipCode":"9998202","prefectureKana":"ﾔﾏｶﾞﾀｹﾝ","cityKana":"ｻｶﾀｼ","streetKana":"ﾄﾞﾛｻﾞﾜ","prefecture":"山形県","city":"酒田市","street":"泥沢"},{"zipCode":"9996844","prefectureKana":"ﾔﾏｶﾞﾀｹﾝ","cityKana":"ｻｶﾀｼ","streetKana":"ﾅｶｷﾀﾒ","prefecture":"山形県","city":"酒田市","street":"中北目"},{"zipCode":"9998165","prefectureKana":"ﾔﾏｶﾞﾀｹﾝ","cityKana":"ｻｶﾀｼ","streetKana":"ﾅｶﾉｿﾈ","prefecture":"山形県","city":"酒田市","street":"中野曽根"},{"zipCode":"9996727","prefectureKana":"ﾔﾏｶﾞﾀｹﾝ","cityKana":"ｻｶﾀｼ","streetKana":"ﾅｶﾉﾏﾀ","prefecture":"山形県","city":"酒田市","street":"中野俣"},{"zipCode":"9996722","prefectureKana":"ﾔﾏｶﾞﾀｹﾝ","cityKana":"ｻｶﾀｼ","streetKana":"ﾅｶﾉﾒ","prefecture":"山形県","city":"酒田市","street":"中野目"},{"zipCode":"9996851","prefectureKana":"ﾔﾏｶﾞﾀｹﾝ","cityKana":"ｻｶﾀｼ","streetKana":"ﾅｶﾏｷﾀ","prefecture":"山形県","city":"酒田市","street":"中牧田"},{"zipCode":"9996827","prefectureKana":"ﾔﾏｶﾞﾀｹﾝ","cityKana":"ｻｶﾀｼ","streetKana":"ﾅｶﾏﾁ","prefecture":"山形県","city":"酒田市","street":"仲町"},{"zipCode":"9996712","prefectureKana":"ﾔﾏｶﾞﾀｹﾝ","cityKana":"ｻｶﾀｼ","streetKana":"ﾅﾗﾊｼ","prefecture":"山形県","city":"酒田市","street":"楢橋"},{"zipCode":"9996812","prefectureKana":"ﾔﾏｶﾞﾀｹﾝ","cityKana":"ｻｶﾀｼ","streetKana":"ﾅﾘｺｳﾔ","prefecture":"山形県","city":"酒田市","street":"成興野"},{"zipCode":"9998157","prefectureKana":"ﾔﾏｶﾞﾀｹﾝ","cityKana":"ｻｶﾀｼ","streetKana":"ﾆｲｱｵﾄﾞ","prefecture":"山形県","city":"酒田市","street":"新青渡"},{"zipCode":"9997776","prefectureKana":"ﾔﾏｶﾞﾀｹﾝ","cityKana":"ｻｶﾀｼ","streetKana":"ﾆｲﾎﾞﾘ","prefecture":"山形県","city":"酒田市","street":"新堀"},{"zipCode":"9996733","prefectureKana":"ﾔﾏｶﾞﾀｹﾝ","cityKana":"ｻｶﾀｼ","streetKana":"ﾆｼｻｶﾓﾄ","prefecture":"山形県","city":"酒田市","street":"西坂本"},{"zipCode":"9996862","prefectureKana":"ﾔﾏｶﾞﾀｹﾝ","cityKana":"ｻｶﾀｼ","streetKana":"ﾆｼﾀﾞ","prefecture":"山形県","city":"酒田市","street":"西田"},{"zipCode":"9998144","prefectureKana":"ﾔﾏｶﾞﾀｹﾝ","cityKana":"ｻｶﾀｼ","streetKana":"ﾆﾜﾀ","prefecture":"山形県","city":"酒田市","street":"庭田"},{"zipCode":"9998158","prefectureKana":"ﾔﾏｶﾞﾀｹﾝ","cityKana":"ｻｶﾀｼ","streetKana":"ﾇﾉﾒ","prefecture":"山形県","city":"酒田市","street":"布目"},{"zipCode":"9998242","prefectureKana":"ﾔﾏｶﾞﾀｹﾝ","cityKana":"ｻｶﾀｼ","streetKana":"ﾊｼﾓﾄ","prefecture":"山形県","city":"酒田市","street":"橋本"},{"zipCode":"9996847","prefectureKana":"ﾔﾏｶﾞﾀｹﾝ","cityKana":"ｻｶﾀｼ","streetKana":"ﾋｷｼﾞ","prefecture":"山形県","city":"酒田市","street":"引地"},{"zipCode":"9998241","prefectureKana":"ﾔﾏｶﾞﾀｹﾝ","cityKana":"ｻｶﾀｼ","streetKana":"ﾌｸﾔﾏ","prefecture":"山形県","city":"酒田市","street":"福山"},{"zipCode":"9998231","prefectureKana":"ﾔﾏｶﾞﾀｹﾝ","cityKana":"ｻｶﾀｼ","streetKana":"ﾌﾓﾄ","prefecture":"山形県","city":"酒田市","street":"麓"},{"zipCode":"9998154","prefectureKana":"ﾔﾏｶﾞﾀｹﾝ","cityKana":"ｻｶﾀｼ","streetKana":"ﾌﾙｱｵﾄﾞ","prefecture":"山形県","city":"酒田市","street":"古青渡"},{"zipCode":"9998233","prefectureKana":"ﾔﾏｶﾞﾀｹﾝ","cityKana":"ｻｶﾀｼ","streetKana":"ﾎｳﾚﾝｼﾞ","prefecture":"山形県","city":"酒田市","street":"法連寺"},{"zipCode":"9998131","prefectureKana":"ﾔﾏｶﾞﾀｹﾝ","cityKana":"ｻｶﾀｼ","streetKana":"ﾎﾂﾞﾐ(ﾓﾝﾃﾞﾝ)","prefecture":"山形県","city":"酒田市","street":"穂積（門田）"},{"zipCode":"9996721","prefectureKana":"ﾔﾏｶﾞﾀｹﾝ","cityKana":"ｻｶﾀｼ","streetKana":"ﾎﾘﾉｳﾁ","prefecture":"山形県","city":"酒田市","street":"堀野内"},{"zipCode":"9996835","prefectureKana":"ﾔﾏｶﾞﾀｹﾝ","cityKana":"ｻｶﾀｼ","streetKana":"ﾎﾝﾏﾁ","prefecture":"山形県","city":"酒田市","street":"本町"},{"zipCode":"9998224","prefectureKana":"ﾔﾏｶﾞﾀｹﾝ","cityKana":"ｻｶﾀｼ","streetKana":"ﾏｴｶﾜ","prefecture":"山形県","city":"酒田市","street":"前川"},{"zipCode":"9998166","prefectureKana":"ﾔﾏｶﾞﾀｹﾝ","cityKana":"ｻｶﾀｼ","streetKana":"ﾏｷｿﾈ","prefecture":"山形県","city":"酒田市","street":"牧曽根"},{"zipCode":"9998201","prefectureKana":"ﾔﾏｶﾞﾀｹﾝ","cityKana":"ｻｶﾀｼ","streetKana":"ﾏｽﾀﾞ","prefecture":"山形県","city":"酒田市","street":"升田"},{"zipCode":"9997777","prefectureKana":"ﾔﾏｶﾞﾀｹﾝ","cityKana":"ｻｶﾀｼ","streetKana":"ﾏﾙﾇﾏ","prefecture":"山形県","city":"酒田市","street":"丸沼"},{"zipCode":"9998226","prefectureKana":"ﾔﾏｶﾞﾀｹﾝ","cityKana":"ｻｶﾀｼ","streetKana":"ﾏﾝﾄﾞｺﾛ","prefecture":"山形県","city":"酒田市","street":"政所"},{"zipCode":"9996822","prefectureKana":"ﾔﾏｶﾞﾀｹﾝ","cityKana":"ｻｶﾀｼ","streetKana":"ﾐﾅﾐｼﾝﾔｼｷ","prefecture":"山形県","city":"酒田市","street":"南新屋敷"},{"zipCode":"9998223","prefectureKana":"ﾔﾏｶﾞﾀｹﾝ","cityKana":"ｻｶﾀｼ","streetKana":"ﾐﾅﾐﾍｲｻﾞﾜ","prefecture":"山形県","city":"酒田市","street":"南平沢"},{"zipCode":"9996825","prefectureKana":"ﾔﾏｶﾞﾀｹﾝ","cityKana":"ｻｶﾀｼ","streetKana":"ﾐﾅﾐﾏﾁ","prefecture":"山形県","city":"酒田市","street":"南町"},{"zipCode":"9998423","prefectureKana":"ﾔﾏｶﾞﾀｹﾝ","cityKana":"ｻｶﾀｼ","streetKana":"ﾐﾔｳﾁ","prefecture":"山形県","city":"酒田市","street":"宮内"},{"zipCode":"9996841","prefectureKana":"ﾔﾏｶﾞﾀｹﾝ","cityKana":"ｻｶﾀｼ","streetKana":"ﾐｮｳｶﾞｻﾜ","prefecture":"山形県","city":"酒田市","street":"茗ケ沢"},{"zipCode":"9996824","prefectureKana":"ﾔﾏｶﾞﾀｹﾝ","cityKana":"ｻｶﾀｼ","streetKana":"ﾓﾄｼﾝﾔｼｷ","prefecture":"山形県","city":"酒田市","street":"元新屋敷"},{"zipCode":"9998134","prefectureKana":"ﾔﾏｶﾞﾀｹﾝ","cityKana":"ｻｶﾀｼ","streetKana":"ﾓﾄﾀﾃ","prefecture":"山形県","city":"酒田市","street":"本楯"},{"zipCode":"9998145","prefectureKana":"ﾔﾏｶﾞﾀｹﾝ","cityKana":"ｻｶﾀｼ","streetKana":"ﾔｽｵｶ","prefecture":"山形県","city":"酒田市","street":"保岡"},{"zipCode":"9998151","prefectureKana":"ﾔﾏｶﾞﾀｹﾝ","cityKana":"ｻｶﾀｼ","streetKana":"ﾔｽﾀﾞ","prefecture":"山形県","city":"酒田市","street":"安田"},{"zipCode":"9996861","prefectureKana":"ﾔﾏｶﾞﾀｹﾝ","cityKana":"ｻｶﾀｼ","streetKana":"ﾔﾏﾀﾞ","prefecture":"山形県","city":"酒田市","street":"山田"},{"zipCode":"9996724","prefectureKana":"ﾔﾏｶﾞﾀｹﾝ","cityKana":"ｻｶﾀｼ","streetKana":"ﾔﾏﾀﾞﾃ","prefecture":"山形県","city":"酒田市","street":"山楯"},{"zipCode":"9996821","prefectureKana":"ﾔﾏｶﾞﾀｹﾝ","cityKana":"ｻｶﾀｼ","streetKana":"ﾔﾏﾃﾞﾗ","prefecture":"山形県","city":"酒田市","street":"山寺"},{"zipCode":"9996734","prefectureKana":"ﾔﾏｶﾞﾀｹﾝ","cityKana":"ｻｶﾀｼ","streetKana":"ﾔﾏﾓﾄ","prefecture":"山形県","city":"酒田市","street":"山元"},{"zipCode":"9996726","prefectureKana":"ﾔﾏｶﾞﾀｹﾝ","cityKana":"ｻｶﾀｼ","streetKana":"ﾔﾏﾔ","prefecture":"山形県","city":"酒田市","street":"山谷"},{"zipCode":"9996725","prefectureKana":"ﾔﾏｶﾞﾀｹﾝ","cityKana":"ｻｶﾀｼ","streetKana":"ﾔﾏﾔｼﾝﾃﾞﾝ","prefecture":"山形県","city":"酒田市","street":"山谷新田"},{"zipCode":"9998161","prefectureKana":"ﾔﾏｶﾞﾀｹﾝ","cityKana":"ｻｶﾀｼ","streetKana":"ﾖｼﾀﾞ","prefecture":"山形県","city":"酒田市","street":"吉田"},{"zipCode":"9998167","prefectureKana":"ﾔﾏｶﾞﾀｹﾝ","cityKana":"ｻｶﾀｼ","streetKana":"ﾖｼﾀﾞｼﾝﾃﾞﾝ","prefecture":"山形県","city":"酒田市","street":"吉田新田"},{"zipCode":"9998421","prefectureKana":"ﾔﾏｶﾞﾀｹﾝ","cityKana":"ｻｶﾀｼ","streetKana":"ﾖﾈｼﾏ","prefecture":"山形県","city":"酒田市","street":"米島"},{"zipCode":"9995103","prefectureKana":"ﾔﾏｶﾞﾀｹﾝ","cityKana":"ｼﾝｼﾞｮｳｼ","streetKana":"ｲｽﾞﾐﾀ","prefecture":"山形県","city":"新庄市","street":"泉田"},{"zipCode":"9995101","prefectureKana":"ﾔﾏｶﾞﾀｹﾝ","cityKana":"ｼﾝｼﾞｮｳｼ","streetKana":"ｼｮｳﾜ","prefecture":"山形県","city":"新庄市","street":"昭和"},{"zipCode":"9995191","prefectureKana":"ﾔﾏｶﾞﾀｹﾝ","cityKana":"ｼﾝｼﾞｮｳｼ","streetKana":"ﾄｵｶﾏﾁ(ﾈｺﾔｼｷ329-356)","prefecture":"山形県","city":"新庄市","street":"十日町（猫屋敷３２９～３５６）"},{"zipCode":"9995102","prefectureKana":"ﾔﾏｶﾞﾀｹﾝ","cityKana":"ｼﾝｼﾞｮｳｼ","streetKana":"ﾊｷﾞﾉ","prefecture":"山形県","city":"新庄市","street":"萩野"},{"zipCode":"9993100","prefectureKana":"ﾔﾏｶﾞﾀｹﾝ","cityKana":"ｶﾐﾉﾔﾏｼ","streetKana":"ｲｶﾆｹｲｻｲｶﾞﾅｲﾊﾞｱｲ","prefecture":"山形県","city":"上山市","street":"以下に掲載がない場合"},{"zipCode":"9993222","prefectureKana":"ﾔﾏｶﾞﾀｹﾝ","cityKana":"ｶﾐﾉﾔﾏｼ","streetKana":"ｱｲｵｲ","prefecture":"山形県","city":"上山市","street":"相生"},{"zipCode":"9993164","prefectureKana":"ﾔﾏｶﾞﾀｹﾝ","cityKana":"ｶﾐﾉﾔﾏｼ","streetKana":"ｱｻﾋﾀﾞｲ","prefecture":"山形県","city":"上山市","street":"朝日台"},{"zipCode":"9993106","prefectureKana":"ﾔﾏｶﾞﾀｹﾝ","cityKana":"ｶﾐﾉﾔﾏｼ","streetKana":"ｱｻﾋﾏﾁ","prefecture":"山形県","city":"上山市","street":"旭町"},{"zipCode":"9993235","prefectureKana":"ﾔﾏｶﾞﾀｹﾝ","cityKana":"ｶﾐﾉﾔﾏｼ","streetKana":"ｱﾐﾀﾞﾁ","prefecture":"山形県","city":"上山市","street":"阿弥陀地"},{"zipCode":"9993144","prefectureKana":"ﾔﾏｶﾞﾀｹﾝ","cityKana":"ｶﾐﾉﾔﾏｼ","streetKana":"ｲｼｻﾞｷ","prefecture":"山形県","city":"上山市","street":"石崎"},{"zipCode":"9993244","prefectureKana":"ﾔﾏｶﾞﾀｹﾝ","cityKana":"ｶﾐﾉﾔﾏｼ","streetKana":"ｲｼｿﾞﾈ","prefecture":"山形県","city":"上山市","street":"石曽根"},{"zipCode":"9993231","prefectureKana":"ﾔﾏｶﾞﾀｹﾝ","cityKana":"ｶﾐﾉﾔﾏｼ","streetKana":"ｲｼﾄﾞｳ","prefecture":"山形県","city":"上山市","street":"石堂"},{"zipCode":"9993105","prefectureKana":"ﾔﾏｶﾞﾀｹﾝ","cityKana":"ｶﾐﾉﾔﾏｼ","streetKana":"ｲｽﾞﾐｶﾜ","prefecture":"山形県","city":"上山市","street":"泉川"},{"zipCode":"9993165","prefectureKana":"ﾔﾏｶﾞﾀｹﾝ","cityKana":"ｶﾐﾉﾔﾏｼ","streetKana":"ｳﾗﾏﾁ","prefecture":"山形県","city":"上山市","street":"裏町"},{"zipCode":"9993157","prefectureKana":"ﾔﾏｶﾞﾀｹﾝ","cityKana":"ｶﾐﾉﾔﾏｼ","streetKana":"ｵｲﾄﾞﾁｮｳ","prefecture":"山形県","city":"上山市","street":"御井戸丁"},{"zipCode":"9993167","prefectureKana":"ﾔﾏｶﾞﾀｹﾝ","cityKana":"ｶﾐﾉﾔﾏｼ","streetKana":"ｵｵｲｼ","prefecture":"山形県","city":"上山市","street":"大石"},{"zipCode":"9993112","prefectureKana":"ﾔﾏｶﾞﾀｹﾝ","cityKana":"ｶﾐﾉﾔﾏｼ","streetKana":"ｵｸﾞﾗ","prefecture":"山形県","city":"上山市","street":"小倉"},{"zipCode":"9993214","prefectureKana":"ﾔﾏｶﾞﾀｹﾝ","cityKana":"ｶﾐﾉﾔﾏｼ","streetKana":"ｵｻﾞｻ","prefecture":"山形県","city":"上山市","street":"小笹"},{"zipCode":"9993172","prefectureKana":"ﾔﾏｶﾞﾀｹﾝ","cityKana":"ｶﾐﾉﾔﾏｼ","streetKana":"ｵｼﾞﾗﾌ","prefecture":"山形県","city":"上山市","street":"小白府"},{"zipCode":"9993124","prefectureKana":"ﾔﾏｶﾞﾀｹﾝ","cityKana":"ｶﾐﾉﾔﾏｼ","streetKana":"ｶﾅｵｲ","prefecture":"山形県","city":"上山市","street":"金生"},{"zipCode":"9993126","prefectureKana":"ﾔﾏｶﾞﾀｹﾝ","cityKana":"ｶﾐﾉﾔﾏｼ","streetKana":"ｶﾅｵｲﾆｼ","prefecture":"山形県","city":"上山市","street":"金生西"},{"zipCode":"9993125","prefectureKana":"ﾔﾏｶﾞﾀｹﾝ","cityKana":"ｶﾐﾉﾔﾏｼ","streetKana":"ｶﾅｵｲﾋｶﾞｼ","prefecture":"山形県","city":"上山市","street":"金生東"},{"zipCode":"9993101","prefectureKana":"ﾔﾏｶﾞﾀｹﾝ","cityKana":"ｶﾐﾉﾔﾏｼ","streetKana":"ｶﾅｶﾒ","prefecture":"山形県","city":"上山市","street":"金瓶"},{"zipCode":"9993103","prefectureKana":"ﾔﾏｶﾞﾀｹﾝ","cityKana":"ｶﾐﾉﾔﾏｼ","streetKana":"ｶﾅﾔ","prefecture":"山形県","city":"上山市","street":"金谷"},{"zipCode":"9993226","prefectureKana":"ﾔﾏｶﾞﾀｹﾝ","cityKana":"ｶﾐﾉﾔﾏｼ","streetKana":"ｶﾈﾔﾏ","prefecture":"山形県","city":"上山市","street":"金山"},{"zipCode":"9993204","prefectureKana":"ﾔﾏｶﾞﾀｹﾝ","cityKana":"ｶﾐﾉﾔﾏｼ","streetKana":"ｶﾐﾅﾏｲ","prefecture":"山形県","city":"上山市","street":"上生居"},{"zipCode":"9993163","prefectureKana":"ﾔﾏｶﾞﾀｹﾝ","cityKana":"ｶﾐﾉﾔﾏｼ","streetKana":"ｶﾙｲｻﾞﾜ","prefecture":"山形県","city":"上山市","street":"軽井沢"},{"zipCode":"9993245","prefectureKana":"ﾔﾏｶﾞﾀｹﾝ","cityKana":"ｶﾐﾉﾔﾏｼ","streetKana":"ｶﾜｸﾞﾁ","prefecture":"山形県","city":"上山市","street":"川口"},{"zipCode":"9993145","prefectureKana":"ﾔﾏｶﾞﾀｹﾝ","cityKana":"ｶﾐﾉﾔﾏｼ","streetKana":"ｶﾜｻｷ","prefecture":"山形県","city":"上山市","street":"河崎"},{"zipCode":"9993131","prefectureKana":"ﾔﾏｶﾞﾀｹﾝ","cityKana":"ｶﾐﾉﾔﾏｼ","streetKana":"ｷﾀﾏﾁ","prefecture":"山形県","city":"上山市","street":"北町"},{"zipCode":"9993151","prefectureKana":"ﾔﾏｶﾞﾀｹﾝ","cityKana":"ｶﾐﾉﾔﾏｼ","streetKana":"ｷﾀﾏﾁﾎﾝﾁｮｳ","prefecture":"山形県","city":"上山市","street":"北町本丁"},{"zipCode":"9993215","prefectureKana":"ﾔﾏｶﾞﾀｹﾝ","cityKana":"ｶﾐﾉﾔﾏｼ","streetKana":"ｸﾎﾞｶﾜ","prefecture":"山形県","city":"上山市","street":"久保川"},{"zipCode":"9993166","prefectureKana":"ﾔﾏｶﾞﾀｹﾝ","cityKana":"ｶﾐﾉﾔﾏｼ","streetKana":"ｸﾎﾞﾃ","prefecture":"山形県","city":"上山市","street":"久保手"},{"zipCode":"9993241","prefectureKana":"ﾔﾏｶﾞﾀｹﾝ","cityKana":"ｶﾐﾉﾔﾏｼ","streetKana":"ｹﾔｷﾉﾓﾘ","prefecture":"山形県","city":"上山市","street":"けやきの森"},{"zipCode":"9993237","prefectureKana":"ﾔﾏｶﾞﾀｹﾝ","cityKana":"ｶﾐﾉﾔﾏｼ","streetKana":"ｺｱﾅ","prefecture":"山形県","city":"上山市","street":"小穴"},{"zipCode":"9993115","prefectureKana":"ﾔﾏｶﾞﾀｹﾝ","cityKana":"ｶﾐﾉﾔﾏｼ","streetKana":"ｺｳﾔ","prefecture":"山形県","city":"上山市","street":"高野"},{"zipCode":"9993111","prefectureKana":"ﾔﾏｶﾞﾀｹﾝ","cityKana":"ｶﾐﾉﾔﾏｼ","streetKana":"ｺﾞﾝｹﾞﾝﾄﾞｳ","prefecture":"山形県","city":"上山市","street":"権現堂"},{"zipCode":"9993113","prefectureKana":"ﾔﾏｶﾞﾀｹﾝ","cityKana":"ｶﾐﾉﾔﾏｼ","streetKana":"ｻﾞｵｳ","prefecture":"山形県","city":"上山市","street":"蔵王"},{"zipCode":"9993104","prefectureKana":"ﾔﾏｶﾞﾀｹﾝ","cityKana":"ｶﾐﾉﾔﾏｼ","streetKana":"ｻﾞｵｳﾉﾓﾘ","prefecture":"山形県","city":"上山市","street":"蔵王の森"},{"zipCode":"9993132","prefectureKana":"ﾔﾏｶﾞﾀｹﾝ","cityKana":"ｶﾐﾉﾔﾏｼ","streetKana":"ｻｶｴﾏﾁ","prefecture":"山形県","city":"上山市","street":"栄町"},{"zipCode":"9993142","prefectureKana":"ﾔﾏｶﾞﾀｹﾝ","cityKana":"ｶﾐﾉﾔﾏｼ","streetKana":"ｻﾜﾁｮｳ","prefecture":"山形県","city":"上山市","street":"沢丁"},{"zipCode":"9993233","prefectureKana":"ﾔﾏｶﾞﾀｹﾝ","cityKana":"ｶﾐﾉﾔﾏｼ","streetKana":"ｻﾝﾎﾞﾝﾏﾂ","prefecture":"山形県","city":"上山市","street":"三本松"},{"zipCode":"9993202","prefectureKana":"ﾔﾏｶﾞﾀｹﾝ","cityKana":"ｶﾐﾉﾔﾏｼ","streetKana":"ｼﾓﾅﾏｲ","prefecture":"山形県","city":"上山市","street":"下生居"},{"zipCode":"9993217","prefectureKana":"ﾔﾏｶﾞﾀｹﾝ","cityKana":"ｶﾐﾉﾔﾏｼ","streetKana":"ｼｮｳﾌﾞ","prefecture":"山形県","city":"上山市","street":"菖蒲"},{"zipCode":"9993102","prefectureKana":"ﾔﾏｶﾞﾀｹﾝ","cityKana":"ｶﾐﾉﾔﾏｼ","streetKana":"ｼﾝｶﾅﾔ","prefecture":"山形県","city":"上山市","street":"新金谷"},{"zipCode":"9993152","prefectureKana":"ﾔﾏｶﾞﾀｹﾝ","cityKana":"ｶﾐﾉﾔﾏｼ","streetKana":"ｼﾝﾁｮｳ","prefecture":"山形県","city":"上山市","street":"新丁"},{"zipCode":"9993158","prefectureKana":"ﾔﾏｶﾞﾀｹﾝ","cityKana":"ｶﾐﾉﾔﾏｼ","streetKana":"ｼﾝﾏﾁ","prefecture":"山形県","city":"上山市","street":"新町"},{"zipCode":"9993141","prefectureKana":"ﾔﾏｶﾞﾀｹﾝ","cityKana":"ｶﾐﾉﾔﾏｼ","streetKana":"ｼﾝﾕ","prefecture":"山形県","city":"上山市","street":"新湯"},{"zipCode":"9993213","prefectureKana":"ﾔﾏｶﾞﾀｹﾝ","cityKana":"ｶﾐﾉﾔﾏｼ","streetKana":"ｽﾀﾞｲﾀ","prefecture":"山形県","city":"上山市","street":"須田板"},{"zipCode":"9993221","prefectureKana":"ﾔﾏｶﾞﾀｹﾝ","cityKana":"ｶﾐﾉﾔﾏｼ","streetKana":"ｾｷﾈ","prefecture":"山形県","city":"上山市","street":"関根"},{"zipCode":"9993122","prefectureKana":"ﾔﾏｶﾞﾀｹﾝ","cityKana":"ｶﾐﾉﾔﾏｼ","streetKana":"ｾﾝｺﾞｸ","prefecture":"山形県","city":"上山市","street":"仙石"},{"zipCode":"9993216","prefectureKana":"ﾔﾏｶﾞﾀｹﾝ","cityKana":"ｶﾐﾉﾔﾏｼ","streetKana":"ﾀﾞｲﾓﾝ","prefecture":"山形県","city":"上山市","street":"大門"},{"zipCode":"9993243","prefectureKana":"ﾔﾏｶﾞﾀｹﾝ","cityKana":"ｶﾐﾉﾔﾏｼ","streetKana":"ﾀｶﾏﾂ","prefecture":"山形県","city":"上山市","street":"高松"},{"zipCode":"9993155","prefectureKana":"ﾔﾏｶﾞﾀｹﾝ","cityKana":"ｶﾐﾉﾔﾏｼ","streetKana":"ﾂﾙﾊｷﾞﾁｮｳ","prefecture":"山形県","city":"上山市","street":"鶴脛町"},{"zipCode":"9993234","prefectureKana":"ﾔﾏｶﾞﾀｹﾝ","cityKana":"ｶﾐﾉﾔﾏｼ","streetKana":"ﾄｳｺﾞ","prefecture":"山形県","city":"上山市","street":"藤吾"},{"zipCode":"9993153","prefectureKana":"ﾔﾏｶﾞﾀｹﾝ","cityKana":"ｶﾐﾉﾔﾏｼ","streetKana":"ﾄｵｶﾏﾁ","prefecture":"山形県","city":"上山市","street":"十日町"},{"zipCode":"9993203","prefectureKana":"ﾔﾏｶﾞﾀｹﾝ","cityKana":"ｶﾐﾉﾔﾏｼ","streetKana":"ﾅｶﾅﾏｲ","prefecture":"山形県","city":"上山市","street":"中生居"},{"zipCode":"9993246","prefectureKana":"ﾔﾏｶﾞﾀｹﾝ","cityKana":"ｶﾐﾉﾔﾏｼ","streetKana":"ﾅｶﾔﾏ","prefecture":"山形県","city":"上山市","street":"中山"},{"zipCode":"9993232","prefectureKana":"ﾔﾏｶﾞﾀｹﾝ","cityKana":"ｶﾐﾉﾔﾏｼ","streetKana":"ﾅｶﾞｼﾐｽﾞ","prefecture":"山形県","city":"上山市","street":"長清水"},{"zipCode":"9993114","prefectureKana":"ﾔﾏｶﾞﾀｹﾝ","cityKana":"ｶﾐﾉﾔﾏｼ","streetKana":"ﾅｶﾞﾉ","prefecture":"山形県","city":"上山市","street":"永野"},{"zipCode":"9993225","prefectureKana":"ﾔﾏｶﾞﾀｹﾝ","cityKana":"ｶﾐﾉﾔﾏｼ","streetKana":"ﾅﾗｹﾞ","prefecture":"山形県","city":"上山市","street":"楢下"},{"zipCode":"9993242","prefectureKana":"ﾔﾏｶﾞﾀｹﾝ","cityKana":"ｶﾐﾉﾔﾏｼ","streetKana":"ﾊﾔﾏ","prefecture":"山形県","city":"上山市","street":"葉山"},{"zipCode":"9993212","prefectureKana":"ﾔﾏｶﾞﾀｹﾝ","cityKana":"ｶﾐﾉﾔﾏｼ","streetKana":"ﾊﾗｸﾞﾁ","prefecture":"山形県","city":"上山市","street":"原口"},{"zipCode":"9993121","prefectureKana":"ﾔﾏｶﾞﾀｹﾝ","cityKana":"ｶﾐﾉﾔﾏｼ","streetKana":"ﾋｶﾞｼﾏﾁ","prefecture":"山形県","city":"上山市","street":"東町"},{"zipCode":"9993143","prefectureKana":"ﾔﾏｶﾞﾀｹﾝ","cityKana":"ｶﾐﾉﾔﾏｼ","streetKana":"ﾌﾂｶﾏﾁ","prefecture":"山形県","city":"上山市","street":"二日町"},{"zipCode":"9993161","prefectureKana":"ﾔﾏｶﾞﾀｹﾝ","cityKana":"ｶﾐﾉﾔﾏｼ","streetKana":"ﾍﾞﾝﾃﾝ","prefecture":"山形県","city":"上山市","street":"弁天"},{"zipCode":"9993236","prefectureKana":"ﾔﾏｶﾞﾀｹﾝ","cityKana":"ｶﾐﾉﾔﾏｼ","streetKana":"ﾎｿﾔ","prefecture":"山形県","city":"上山市","street":"細谷"},{"zipCode":"9993211","prefectureKana":"ﾔﾏｶﾞﾀｹﾝ","cityKana":"ｶﾐﾉﾔﾏｼ","streetKana":"ﾏｷﾞﾉ","prefecture":"山形県","city":"上山市","street":"牧野"},{"zipCode":"9993146","prefectureKana":"ﾔﾏｶﾞﾀｹﾝ","cityKana":"ｶﾐﾉﾔﾏｼ","streetKana":"ﾏﾂﾔﾏ","prefecture":"山形県","city":"上山市","street":"松山"},{"zipCode":"9993223","prefectureKana":"ﾔﾏｶﾞﾀｹﾝ","cityKana":"ｶﾐﾉﾔﾏｼ","streetKana":"ﾐｶﾐ","prefecture":"山形県","city":"上山市","street":"三上"},{"zipCode":"9993123","prefectureKana":"ﾔﾏｶﾞﾀｹﾝ","cityKana":"ｶﾐﾉﾔﾏｼ","streetKana":"ﾐｻｷﾁｮｳ","prefecture":"山形県","city":"上山市","street":"美咲町"},{"zipCode":"9993224","prefectureKana":"ﾔﾏｶﾞﾀｹﾝ","cityKana":"ｶﾐﾉﾔﾏｼ","streetKana":"ﾐﾅｻﾞﾜ","prefecture":"山形県","city":"上山市","street":"皆沢"},{"zipCode":"9993135","prefectureKana":"ﾔﾏｶﾞﾀｹﾝ","cityKana":"ｶﾐﾉﾔﾏｼ","streetKana":"ﾐﾅﾐﾏﾁ","prefecture":"山形県","city":"上山市","street":"南町"},{"zipCode":"9993107","prefectureKana":"ﾔﾏｶﾞﾀｹﾝ","cityKana":"ｶﾐﾉﾔﾏｼ","streetKana":"ﾐﾊﾗｼﾉｵｶ","prefecture":"山形県","city":"上山市","street":"みはらしの丘"},{"zipCode":"9993201","prefectureKana":"ﾔﾏｶﾞﾀｹﾝ","cityKana":"ｶﾐﾉﾔﾏｼ","streetKana":"ﾐﾔﾉﾜｷ","prefecture":"山形県","city":"上山市","street":"宮脇"},{"zipCode":"9993171","prefectureKana":"ﾔﾏｶﾞﾀｹﾝ","cityKana":"ｶﾐﾉﾔﾏｼ","streetKana":"ﾑｼﾞﾅﾓﾘ","prefecture":"山形県","city":"上山市","street":"狸森"},{"zipCode":"9993154","prefectureKana":"ﾔﾏｶﾞﾀｹﾝ","cityKana":"ｶﾐﾉﾔﾏｼ","streetKana":"ﾓﾄｼﾞｮｳﾅｲ","prefecture":"山形県","city":"上山市","street":"元城内"},{"zipCode":"9993134","prefectureKana":"ﾔﾏｶﾞﾀｹﾝ","cityKana":"ｶﾐﾉﾔﾏｼ","streetKana":"ﾔﾗｲ","prefecture":"山形県","city":"上山市","street":"矢来"},{"zipCode":"9993156","prefectureKana":"ﾔﾏｶﾞﾀｹﾝ","cityKana":"ｶﾐﾉﾔﾏｼ","streetKana":"ﾕﾏﾁ","prefecture":"山形県","city":"上山市","street":"湯町"},{"zipCode":"9993133","prefectureKana":"ﾔﾏｶﾞﾀｹﾝ","cityKana":"ｶﾐﾉﾔﾏｼ","streetKana":"ﾖｳｶﾏﾁ","prefecture":"山形県","city":"上山市","street":"八日町"},{"zipCode":"9993162","prefectureKana":"ﾔﾏｶﾞﾀｹﾝ","cityKana":"ｶﾐﾉﾔﾏｼ","streetKana":"ﾖﾂﾔ","prefecture":"山形県","city":"上山市","street":"四ツ谷"},{"zipCode":"9993700","prefectureKana":"ﾔﾏｶﾞﾀｹﾝ","cityKana":"ﾋｶﾞｼﾈｼ","streetKana":"ｲｶﾆｹｲｻｲｶﾞﾅｲﾊﾞｱｲ","prefecture":"山形県","city":"東根市","street":"以下に掲載がない場合"},{"zipCode":"9993722","prefectureKana":"ﾔﾏｶﾞﾀｹﾝ","cityKana":"ﾋｶﾞｼﾈｼ","streetKana":"ｲｽﾞﾐｺﾞｳ","prefecture":"山形県","city":"東根市","street":"泉郷"},{"zipCode":"9993747","prefectureKana":"ﾔﾏｶﾞﾀｹﾝ","cityKana":"ﾋｶﾞｼﾈｼ","streetKana":"ｲﾀｶﾞｷｵｵﾄﾞｵﾘ","prefecture":"山形県","city":"東根市","street":"板垣大通り"},{"zipCode":"9993749","prefectureKana":"ﾔﾏｶﾞﾀｹﾝ","cityKana":"ﾋｶﾞｼﾈｼ","streetKana":"ｲﾀｶﾞｷｷﾀｺｳｼﾞ","prefecture":"山形県","city":"東根市","street":"板垣北小路"},{"zipCode":"9993744","prefectureKana":"ﾔﾏｶﾞﾀｹﾝ","cityKana":"ﾋｶﾞｼﾈｼ","streetKana":"ｲﾀｶﾞｷｷﾀﾄﾞｵﾘ","prefecture":"山形県","city":"東根市","street":"板垣北通り"},{"zipCode":"9993746","prefectureKana":"ﾔﾏｶﾞﾀｹﾝ","cityKana":"ﾋｶﾞｼﾈｼ","streetKana":"ｲﾀｶﾞｷｼﾝﾃﾞﾝ","prefecture":"山形県","city":"東根市","street":"板垣新田"},{"zipCode":"9993745","prefectureKana":"ﾔﾏｶﾞﾀｹﾝ","cityKana":"ﾋｶﾞｼﾈｼ","streetKana":"ｲﾀｶﾞｷﾅｶﾄﾞｵﾘ","prefecture":"山形県","city":"東根市","street":"板垣中通り"},{"zipCode":"9993748","prefectureKana":"ﾔﾏｶﾞﾀｹﾝ","cityKana":"ﾋｶﾞｼﾈｼ","streetKana":"ｲﾀｶﾞｷﾆｼｺｳｼﾞ","prefecture":"山形県","city":"東根市","street":"板垣西小路"},{"zipCode":"9993717","prefectureKana":"ﾔﾏｶﾞﾀｹﾝ","cityKana":"ﾋｶﾞｼﾈｼ","streetKana":"ｲｯﾎﾟﾝｷﾞ","prefecture":"山形県","city":"東根市","street":"一本木"},{"zipCode":"9993726","prefectureKana":"ﾔﾏｶﾞﾀｹﾝ","cityKana":"ﾋｶﾞｼﾈｼ","streetKana":"ｲﾉｻﾜ","prefecture":"山形県","city":"東根市","street":"猪野沢"},{"zipCode":"9993728","prefectureKana":"ﾔﾏｶﾞﾀｹﾝ","cityKana":"ﾋｶﾞｼﾈｼ","streetKana":"ｵｵﾀｼﾝﾃﾞﾝ","prefecture":"山形県","city":"東根市","street":"太田新田"},{"zipCode":"9993714","prefectureKana":"ﾔﾏｶﾞﾀｹﾝ","cityKana":"ﾋｶﾞｼﾈｼ","streetKana":"ｵｵﾊﾞﾔｼ","prefecture":"山形県","city":"東根市","street":"大林"},{"zipCode":"9993715","prefectureKana":"ﾔﾏｶﾞﾀｹﾝ","cityKana":"ﾋｶﾞｼﾈｼ","streetKana":"ｵｵﾊﾞﾔｼｼﾝﾃﾞﾝ","prefecture":"山形県","city":"東根市","street":"大林新田"},{"zipCode":"9993712","prefectureKana":"ﾔﾏｶﾞﾀｹﾝ","cityKana":"ﾋｶﾞｼﾈｼ","streetKana":"ｵｵﾓﾘ","prefecture":"山形県","city":"東根市","street":"大森"},{"zipCode":"9993737","prefectureKana":"ﾔﾏｶﾞﾀｹﾝ","cityKana":"ﾋｶﾞｼﾈｼ","streetKana":"ｵｻﾅｷﾞ","prefecture":"山形県","city":"東根市","street":"若木"},{"zipCode":"9993738","prefectureKana":"ﾔﾏｶﾞﾀｹﾝ","cityKana":"ﾋｶﾞｼﾈｼ","streetKana":"ｵｻﾅｷﾞｵｵﾄﾞｵﾘ","prefecture":"山形県","city":"東根市","street":"若木大通り"},{"zipCode":"9993757","prefectureKana":"ﾔﾏｶﾞﾀｹﾝ","cityKana":"ﾋｶﾞｼﾈｼ","streetKana":"ｵｻﾅｷﾞｺｳｼﾞ","prefecture":"山形県","city":"東根市","street":"若木小路"},{"zipCode":"9993756","prefectureKana":"ﾔﾏｶﾞﾀｹﾝ","cityKana":"ﾋｶﾞｼﾈｼ","streetKana":"ｵｻﾅｷﾞ1ｼﾞｮｳﾄﾞｵﾘ","prefecture":"山形県","city":"東根市","street":"若木一条通り"},{"zipCode":"9993755","prefectureKana":"ﾔﾏｶﾞﾀｹﾝ","cityKana":"ﾋｶﾞｼﾈｼ","streetKana":"ｵｻﾅｷﾞ2ｼﾞｮｳﾄﾞｵﾘ","prefecture":"山形県","city":"東根市","street":"若木二条通り"},{"zipCode":"9993754","prefectureKana":"ﾔﾏｶﾞﾀｹﾝ","cityKana":"ﾋｶﾞｼﾈｼ","streetKana":"ｵｻﾅｷﾞ3ｼﾞｮｳﾄﾞｵﾘ","prefecture":"山形県","city":"東根市","street":"若木三条通り"},{"zipCode":"9993753","prefectureKana":"ﾔﾏｶﾞﾀｹﾝ","cityKana":"ﾋｶﾞｼﾈｼ","streetKana":"ｵｻﾅｷﾞ4ｼﾞｮｳﾄﾞｵﾘ","prefecture":"山形県","city":"東根市","street":"若木四条通り"},{"zipCode":"9993752","prefectureKana":"ﾔﾏｶﾞﾀｹﾝ","cityKana":"ﾋｶﾞｼﾈｼ","streetKana":"ｵｻﾅｷﾞ5ｼﾞｮｳﾄﾞｵﾘ","prefecture":"山形県","city":"東根市","street":"若木五条通り"},{"zipCode":"9993751","prefectureKana":"ﾔﾏｶﾞﾀｹﾝ","cityKana":"ﾋｶﾞｼﾈｼ","streetKana":"ｵｻﾅｷﾞﾄﾞｵﾘ","prefecture":"山形県","city":"東根市","street":"若木通り"},{"zipCode":"9993702","prefectureKana":"ﾔﾏｶﾞﾀｹﾝ","cityKana":"ﾋｶﾞｼﾈｼ","streetKana":"ｵﾝｾﾝﾏﾁ","prefecture":"山形県","city":"東根市","street":"温泉町"},{"zipCode":"9993770","prefectureKana":"ﾔﾏｶﾞﾀｹﾝ","cityKana":"ﾋｶﾞｼﾈｼ","streetKana":"ｶｼﾜﾊﾞﾗ","prefecture":"山形県","city":"東根市","street":"柏原"},{"zipCode":"9993716","prefectureKana":"ﾔﾏｶﾞﾀｹﾝ","cityKana":"ﾋｶﾞｼﾈｼ","streetKana":"ｶﾆｻﾜ","prefecture":"山形県","city":"東根市","street":"蟹沢"},{"zipCode":"9993723","prefectureKana":"ﾔﾏｶﾞﾀｹﾝ","cityKana":"ﾋｶﾞｼﾈｼ","streetKana":"ｶﾝﾉﾝｼﾞ","prefecture":"山形県","city":"東根市","street":"観音寺"},{"zipCode":"9993774","prefectureKana":"ﾔﾏｶﾞﾀｹﾝ","cityKana":"ﾋｶﾞｼﾈｼ","streetKana":"ｺｵﾘﾔﾏ","prefecture":"山形県","city":"東根市","street":"郡山"},{"zipCode":"9993710","prefectureKana":"ﾔﾏｶﾞﾀｹﾝ","cityKana":"ﾋｶﾞｼﾈｼ","streetKana":"ｺﾊﾞﾔｼ","prefecture":"山形県","city":"東根市","street":"小林"},{"zipCode":"9993786","prefectureKana":"ﾔﾏｶﾞﾀｹﾝ","cityKana":"ﾋｶﾞｼﾈｼ","streetKana":"ｻｷﾞﾉｼｭｸ","prefecture":"山形県","city":"東根市","street":"鷺の宿"},{"zipCode":"9993703","prefectureKana":"ﾔﾏｶﾞﾀｹﾝ","cityKana":"ﾋｶﾞｼﾈｼ","streetKana":"ｻｷﾞﾉﾓﾘ","prefecture":"山形県","city":"東根市","street":"鷺ノ森"},{"zipCode":"9993720","prefectureKana":"ﾔﾏｶﾞﾀｹﾝ","cityKana":"ﾋｶﾞｼﾈｼ","streetKana":"ｻｸﾗﾝﾎﾞｴｷﾏｴ","prefecture":"山形県","city":"東根市","street":"さくらんぼ駅前"},{"zipCode":"9993773","prefectureKana":"ﾔﾏｶﾞﾀｹﾝ","cityKana":"ﾋｶﾞｼﾈｼ","streetKana":"ｼﾏｵｵﾎﾘ","prefecture":"山形県","city":"東根市","street":"島大堀"},{"zipCode":"9993708","prefectureKana":"ﾔﾏｶﾞﾀｹﾝ","cityKana":"ﾋｶﾞｼﾈｼ","streetKana":"ｼﾓｶﾞﾜﾗ","prefecture":"山形県","city":"東根市","street":"下川原"},{"zipCode":"9993787","prefectureKana":"ﾔﾏｶﾞﾀｹﾝ","cityKana":"ﾋｶﾞｼﾈｼ","streetKana":"ｼﾛﾐｽﾞ","prefecture":"山形県","city":"東根市","street":"白水"},{"zipCode":"9993707","prefectureKana":"ﾔﾏｶﾞﾀｹﾝ","cityKana":"ﾋｶﾞｼﾈｼ","streetKana":"ｼﾝﾃﾞﾝﾏﾁ","prefecture":"山形県","city":"東根市","street":"新田町"},{"zipCode":"9993761","prefectureKana":"ﾔﾏｶﾞﾀｹﾝ","cityKana":"ﾋｶﾞｼﾈｼ","streetKana":"ｼﾞﾝﾏﾁ","prefecture":"山形県","city":"東根市","street":"神町"},{"zipCode":"9993763","prefectureKana":"ﾔﾏｶﾞﾀｹﾝ","cityKana":"ﾋｶﾞｼﾈｼ","streetKana":"ｼﾞﾝﾏﾁﾁｭｳｵｳ","prefecture":"山形県","city":"東根市","street":"神町中央"},{"zipCode":"9993764","prefectureKana":"ﾔﾏｶﾞﾀｹﾝ","cityKana":"ﾋｶﾞｼﾈｼ","streetKana":"ｼﾞﾝﾏﾁﾋｶﾞｼ","prefecture":"山形県","city":"東根市","street":"神町東"},{"zipCode":"9993766","prefectureKana":"ﾔﾏｶﾞﾀｹﾝ","cityKana":"ﾋｶﾞｼﾈｼ","streetKana":"ｼﾞﾝﾏﾁﾆｼ","prefecture":"山形県","city":"東根市","street":"神町西"},{"zipCode":"9993765","prefectureKana":"ﾔﾏｶﾞﾀｹﾝ","cityKana":"ﾋｶﾞｼﾈｼ","streetKana":"ｼﾞﾝﾏﾁﾐﾅﾐ","prefecture":"山形県","city":"東根市","street":"神町南"},{"zipCode":"9993762","prefectureKana":"ﾔﾏｶﾞﾀｹﾝ","cityKana":"ﾋｶﾞｼﾈｼ","streetKana":"ｼﾞﾝﾏﾁｷﾀ","prefecture":"山形県","city":"東根市","street":"神町北"},{"zipCode":"9993731","prefectureKana":"ﾔﾏｶﾞﾀｹﾝ","cityKana":"ﾋｶﾞｼﾈｼ","streetKana":"ｼﾞﾝﾏﾁｴｲﾀﾞﾝｵｵﾄﾞｵﾘ","prefecture":"山形県","city":"東根市","street":"神町営団大通り"},{"zipCode":"9993732","prefectureKana":"ﾔﾏｶﾞﾀｹﾝ","cityKana":"ﾋｶﾞｼﾈｼ","streetKana":"ｼﾞﾝﾏﾁｴｲﾀﾞﾝﾅｶﾄﾞｵﾘ","prefecture":"山形県","city":"東根市","street":"神町営団中通り"},{"zipCode":"9993736","prefectureKana":"ﾔﾏｶﾞﾀｹﾝ","cityKana":"ﾋｶﾞｼﾈｼ","streetKana":"ｼﾞﾝﾏﾁｴｲﾀﾞﾝﾐﾅﾐﾄﾞｵﾘ","prefecture":"山形県","city":"東根市","street":"神町営団南通り"},{"zipCode":"9993735","prefectureKana":"ﾔﾏｶﾞﾀｹﾝ","cityKana":"ﾋｶﾞｼﾈｼ","streetKana":"ｼﾞﾝﾏﾁｴｲﾀﾞﾝ1ｼﾞｮｳﾄﾞｵﾘ","prefecture":"山形県","city":"東根市","street":"神町営団一条通り"},{"zipCode":"9993734","prefectureKana":"ﾔﾏｶﾞﾀｹﾝ","cityKana":"ﾋｶﾞｼﾈｼ","streetKana":"ｼﾞﾝﾏﾁｴｲﾀﾞﾝ2ｼﾞｮｳﾄﾞｵﾘ","prefecture":"山形県","city":"東根市","street":"神町営団二条通り"},{"zipCode":"9993733","prefectureKana":"ﾔﾏｶﾞﾀｹﾝ","cityKana":"ﾋｶﾞｼﾈｼ","streetKana":"ｼﾞﾝﾏﾁｴｲﾀﾞﾝ3ｼﾞｮｳﾄﾞｵﾘ","prefecture":"山形県","city":"東根市","street":"神町営団三条通り"},{"zipCode":"9993724","prefectureKana":"ﾔﾏｶﾞﾀｹﾝ","cityKana":"ﾋｶﾞｼﾈｼ","streetKana":"ｾｷﾔﾏ","prefecture":"山形県","city":"東根市","street":"関山"},{"zipCode":"9993711","prefectureKana":"ﾔﾏｶﾞﾀｹﾝ","cityKana":"ﾋｶﾞｼﾈｼ","streetKana":"ﾁｭｳｵｳ","prefecture":"山形県","city":"東根市","street":"中央"},{"zipCode":"9993729","prefectureKana":"ﾔﾏｶﾞﾀｹﾝ","cityKana":"ﾋｶﾞｼﾈｼ","streetKana":"ﾁｭｳｵｳﾋｶﾞｼ","prefecture":"山形県","city":"東根市","street":"中央東"},{"zipCode":"9993719","prefectureKana":"ﾔﾏｶﾞﾀｹﾝ","cityKana":"ﾋｶﾞｼﾈｼ","streetKana":"ﾁｭｳｵｳﾆｼ","prefecture":"山形県","city":"東根市","street":"中央西"},{"zipCode":"9993730","prefectureKana":"ﾔﾏｶﾞﾀｹﾝ","cityKana":"ﾋｶﾞｼﾈｼ","streetKana":"ﾁｭｳｵｳﾐﾅﾐ","prefecture":"山形県","city":"東根市","street":"中央南"},{"zipCode":"9993778","prefectureKana":"ﾔﾏｶﾞﾀｹﾝ","cityKana":"ﾋｶﾞｼﾈｼ","streetKana":"ﾄｳｽｹｼﾝﾃﾞﾝ","prefecture":"山形県","city":"東根市","street":"藤助新田"},{"zipCode":"9993743","prefectureKana":"ﾔﾏｶﾞﾀｹﾝ","cityKana":"ﾋｶﾞｼﾈｼ","streetKana":"ﾅｶｼﾞﾏｼﾝﾃﾞﾝ","prefecture":"山形県","city":"東根市","street":"中島新田"},{"zipCode":"9993742","prefectureKana":"ﾔﾏｶﾞﾀｹﾝ","cityKana":"ﾋｶﾞｼﾈｼ","streetKana":"ﾅｶｼﾞﾏﾄﾞｵﾘ","prefecture":"山形県","city":"東根市","street":"中島通り"},{"zipCode":"9993741","prefectureKana":"ﾔﾏｶﾞﾀｹﾝ","cityKana":"ﾋｶﾞｼﾈｼ","streetKana":"ﾅｶｼﾞﾏﾋｶﾞｼﾄﾞｵﾘ","prefecture":"山形県","city":"東根市","street":"中島東通り"},{"zipCode":"9993771","prefectureKana":"ﾔﾏｶﾞﾀｹﾝ","cityKana":"ﾋｶﾞｼﾈｼ","streetKana":"ﾅｶﾞﾄﾛ","prefecture":"山形県","city":"東根市","street":"長瀞"},{"zipCode":"9993777","prefectureKana":"ﾔﾏｶﾞﾀｹﾝ","cityKana":"ﾋｶﾞｼﾈｼ","streetKana":"ﾆｸﾁ","prefecture":"山形県","city":"東根市","street":"荷口"},{"zipCode":"9993725","prefectureKana":"ﾔﾏｶﾞﾀｹﾝ","cityKana":"ﾋｶﾞｼﾈｼ","streetKana":"ﾇﾏｻﾞﾜ","prefecture":"山形県","city":"東根市","street":"沼沢"},{"zipCode":"9993727","prefectureKana":"ﾔﾏｶﾞﾀｹﾝ","cityKana":"ﾋｶﾞｼﾈｼ","streetKana":"ﾉｶﾞﾜ","prefecture":"山形県","city":"東根市","street":"野川"},{"zipCode":"9993775","prefectureKana":"ﾔﾏｶﾞﾀｹﾝ","cityKana":"ﾋｶﾞｼﾈｼ","streetKana":"ﾉﾀﾞ","prefecture":"山形県","city":"東根市","street":"野田"},{"zipCode":"9993776","prefectureKana":"ﾔﾏｶﾞﾀｹﾝ","cityKana":"ﾋｶﾞｼﾈｼ","streetKana":"ﾊﾆｭｳ","prefecture":"山形県","city":"東根市","street":"羽入"},{"zipCode":"9993779","prefectureKana":"ﾔﾏｶﾞﾀｹﾝ","cityKana":"ﾋｶﾞｼﾈｼ","streetKana":"ﾊﾆｭｳﾋｶﾞｼ","prefecture":"山形県","city":"東根市","street":"羽入東"},{"zipCode":"9993701","prefectureKana":"ﾔﾏｶﾞﾀｹﾝ","cityKana":"ﾋｶﾞｼﾈｼ","streetKana":"ﾋｶﾞｼﾈｺｳ","prefecture":"山形県","city":"東根市","street":"東根甲"},{"zipCode":"9993721","prefectureKana":"ﾔﾏｶﾞﾀｹﾝ","cityKana":"ﾋｶﾞｼﾈｼ","streetKana":"ﾋｶﾞｼﾈｵﾂ","prefecture":"山形県","city":"東根市","street":"東根乙"},{"zipCode":"9993704","prefectureKana":"ﾔﾏｶﾞﾀｹﾝ","cityKana":"ﾋｶﾞｼﾈｼ","streetKana":"ﾋｶﾞｼﾈﾍｲ","prefecture":"山形県","city":"東根市","street":"東根丙"},{"zipCode":"9993713","prefectureKana":"ﾔﾏｶﾞﾀｹﾝ","cityKana":"ﾋｶﾞｼﾈｼ","streetKana":"ﾋｶﾞｼﾈﾃｲ","prefecture":"山形県","city":"東根市","street":"東根丁"},{"zipCode":"9993784","prefectureKana":"ﾔﾏｶﾞﾀｹﾝ","cityKana":"ﾋｶﾞｼﾈｼ","streetKana":"ﾎﾝﾁｮｳ","prefecture":"山形県","city":"東根市","street":"本町"},{"zipCode":"9993781","prefectureKana":"ﾔﾏｶﾞﾀｹﾝ","cityKana":"ﾋｶﾞｼﾈｼ","streetKana":"ﾎﾝﾏﾙｷﾀ","prefecture":"山形県","city":"東根市","street":"本丸北"},{"zipCode":"9993785","prefectureKana":"ﾔﾏｶﾞﾀｹﾝ","cityKana":"ﾋｶﾞｼﾈｼ","streetKana":"ﾎﾝﾏﾙﾆｼ","prefecture":"山形県","city":"東根市","street":"本丸西"},{"zipCode":"9993782","prefectureKana":"ﾔﾏｶﾞﾀｹﾝ","cityKana":"ﾋｶﾞｼﾈｼ","streetKana":"ﾎﾝﾏﾙﾋｶﾞｼ","prefecture":"山形県","city":"東根市","street":"本丸東"},{"zipCode":"9993783","prefectureKana":"ﾔﾏｶﾞﾀｹﾝ","cityKana":"ﾋｶﾞｼﾈｼ","streetKana":"ﾎﾝﾏﾙﾐﾅﾐ","prefecture":"山形県","city":"東根市","street":"本丸南"},{"zipCode":"9993772","prefectureKana":"ﾔﾏｶﾞﾀｹﾝ","cityKana":"ﾋｶﾞｼﾈｼ","streetKana":"ﾏﾂｻﾞﾜ","prefecture":"山形県","city":"東根市","street":"松沢"},{"zipCode":"9993706","prefectureKana":"ﾔﾏｶﾞﾀｹﾝ","cityKana":"ﾋｶﾞｼﾈｼ","streetKana":"ﾐｯｶﾏﾁ","prefecture":"山形県","city":"東根市","street":"三日町"},{"zipCode":"9993705","prefectureKana":"ﾔﾏｶﾞﾀｹﾝ","cityKana":"ﾋｶﾞｼﾈｼ","streetKana":"ﾐﾔｻﾞｷ","prefecture":"山形県","city":"東根市","street":"宮崎"},{"zipCode":"9993718","prefectureKana":"ﾔﾏｶﾞﾀｹﾝ","cityKana":"ﾋｶﾞｼﾈｼ","streetKana":"ﾖﾂﾔ","prefecture":"山形県","city":"東根市","street":"四ツ家"},{"zipCode":"9993709","prefectureKana":"ﾔﾏｶﾞﾀｹﾝ","cityKana":"ﾋｶﾞｼﾈｼ","streetKana":"ﾛｸﾀ","prefecture":"山形県","city":"東根市","street":"六田"},{"zipCode":"9994200","prefectureKana":"ﾔﾏｶﾞﾀｹﾝ","cityKana":"ｵﾊﾞﾅｻﾞﾜｼ","streetKana":"ｲｶﾆｹｲｻｲｶﾞﾅｲﾊﾞｱｲ","prefecture":"山形県","city":"尾花沢市","street":"以下に掲載がない場合"},{"zipCode":"9994554","prefectureKana":"ﾔﾏｶﾞﾀｹﾝ","cityKana":"ｵﾊﾞﾅｻﾞﾜｼ","streetKana":"ｱｼｻﾞﾜ","prefecture":"山形県","city":"尾花沢市","street":"芦沢"},{"zipCode":"9994223","prefectureKana":"ﾔﾏｶﾞﾀｹﾝ","cityKana":"ｵﾊﾞﾅｻﾞﾜｼ","streetKana":"ｲｻｻﾞﾜ","prefecture":"山形県","city":"尾花沢市","street":"五十沢"},{"zipCode":"9994208","prefectureKana":"ﾔﾏｶﾞﾀｹﾝ","cityKana":"ｵﾊﾞﾅｻﾞﾜｼ","streetKana":"ｲﾁﾉﾉ","prefecture":"山形県","city":"尾花沢市","street":"市野々"},{"zipCode":"9994207","prefectureKana":"ﾔﾏｶﾞﾀｹﾝ","cityKana":"ｵﾊﾞﾅｻﾞﾜｼ","streetKana":"ｲﾜﾔｻﾜ","prefecture":"山形県","city":"尾花沢市","street":"岩谷沢"},{"zipCode":"9994552","prefectureKana":"ﾔﾏｶﾞﾀｹﾝ","cityKana":"ｵﾊﾞﾅｻﾞﾜｼ","streetKana":"ｵｷﾞﾉﾌｸﾛ","prefecture":"山形県","city":"尾花沢市","street":"荻袋"},{"zipCode":"9994205","prefectureKana":"ﾔﾏｶﾞﾀｹﾝ","cityKana":"ｵﾊﾞﾅｻﾞﾜｼ","streetKana":"ｵｼｷﾘ","prefecture":"山形県","city":"尾花沢市","street":"押切"},{"zipCode":"9994221","prefectureKana":"ﾔﾏｶﾞﾀｹﾝ","cityKana":"ｵﾊﾞﾅｻﾞﾜｼ","streetKana":"ｵﾊﾞﾅｻﾞﾜ","prefecture":"山形県","city":"尾花沢市","street":"尾花沢"},{"zipCode":"9994222","prefectureKana":"ﾔﾏｶﾞﾀｹﾝ","cityKana":"ｵﾊﾞﾅｻﾞﾜｼ","streetKana":"ｵﾎﾞﾛｹ","prefecture":"山形県","city":"尾花沢市","street":"朧気"},{"zipCode":"9994204","prefectureKana":"ﾔﾏｶﾞﾀｹﾝ","cityKana":"ｵﾊﾞﾅｻﾞﾜｼ","streetKana":"ｶﾐﾉﾊﾀ(175-8)","prefecture":"山形県","city":"尾花沢市","street":"上ノ畑（１７５－８）"},{"zipCode":"9994304","prefectureKana":"ﾔﾏｶﾞﾀｹﾝ","cityKana":"ｵﾊﾞﾅｻﾞﾜｼ","streetKana":"ｶﾐﾉﾊﾀ(ｿﾉﾀ)","prefecture":"山形県","city":"尾花沢市","street":"上ノ畑（その他）"},{"zipCode":"9994332","prefectureKana":"ﾔﾏｶﾞﾀｹﾝ","cityKana":"ｵﾊﾞﾅｻﾞﾜｼ","streetKana":"ｶﾐﾔﾅｷﾞﾜﾀﾘﾄﾞ","prefecture":"山形県","city":"尾花沢市","street":"上柳渡戸"},{"zipCode":"9994228","prefectureKana":"ﾔﾏｶﾞﾀｹﾝ","cityKana":"ｵﾊﾞﾅｻﾞﾜｼ","streetKana":"ｶﾝﾏﾁ","prefecture":"山形県","city":"尾花沢市","street":"上町"},{"zipCode":"9994336","prefectureKana":"ﾔﾏｶﾞﾀｹﾝ","cityKana":"ｵﾊﾞﾅｻﾞﾜｼ","streetKana":"ｷﾀｺﾞｳ","prefecture":"山形県","city":"尾花沢市","street":"北郷"},{"zipCode":"9994231","prefectureKana":"ﾔﾏｶﾞﾀｹﾝ","cityKana":"ｵﾊﾞﾅｻﾞﾜｼ","streetKana":"ｷﾀﾏﾁ","prefecture":"山形県","city":"尾花沢市","street":"北町"},{"zipCode":"9994333","prefectureKana":"ﾔﾏｶﾞﾀｹﾝ","cityKana":"ｵﾊﾞﾅｻﾞﾜｼ","streetKana":"ｷﾞﾝｻﾞﾝｼﾝﾊﾀ","prefecture":"山形県","city":"尾花沢市","street":"銀山新畑"},{"zipCode":"9994214","prefectureKana":"ﾔﾏｶﾞﾀｹﾝ","cityKana":"ｵﾊﾞﾅｻﾞﾜｼ","streetKana":"ｺﾞﾎﾞｳﾉ","prefecture":"山形県","city":"尾花沢市","street":"牛房野"},{"zipCode":"9994334","prefectureKana":"ﾔﾏｶﾞﾀｹﾝ","cityKana":"ｵﾊﾞﾅｻﾞﾜｼ","streetKana":"ｼﾓﾔﾅｷﾞﾜﾀﾘﾄﾞ","prefecture":"山形県","city":"尾花沢市","street":"下柳渡戸"},{"zipCode":"9994211","prefectureKana":"ﾔﾏｶﾞﾀｹﾝ","cityKana":"ｵﾊﾞﾅｻﾞﾜｼ","streetKana":"ｼｮｳｺﾞﾝ","prefecture":"山形県","city":"尾花沢市","street":"正厳"},{"zipCode":"9994224","prefectureKana":"ﾔﾏｶﾞﾀｹﾝ","cityKana":"ｵﾊﾞﾅｻﾞﾜｼ","streetKana":"ｼﾝﾏﾁ","prefecture":"山形県","city":"尾花沢市","street":"新町"},{"zipCode":"9994226","prefectureKana":"ﾔﾏｶﾞﾀｹﾝ","cityKana":"ｵﾊﾞﾅｻﾞﾜｼ","streetKana":"ｼﾝﾏﾁﾁｭｳｵｳ","prefecture":"山形県","city":"尾花沢市","street":"新町中央"},{"zipCode":"9994201","prefectureKana":"ﾔﾏｶﾞﾀｹﾝ","cityKana":"ｵﾊﾞﾅｻﾞﾜｼ","streetKana":"ﾀｶﾊｼ","prefecture":"山形県","city":"尾花沢市","street":"高橋"},{"zipCode":"9994443","prefectureKana":"ﾔﾏｶﾞﾀｹﾝ","cityKana":"ｵﾊﾞﾅｻﾞﾜｼ","streetKana":"ﾂﾙｺ","prefecture":"山形県","city":"尾花沢市","street":"鶴子"},{"zipCode":"9994337","prefectureKana":"ﾔﾏｶﾞﾀｹﾝ","cityKana":"ｵﾊﾞﾅｻﾞﾜｼ","streetKana":"ﾂﾙﾏｷﾀ","prefecture":"山形県","city":"尾花沢市","street":"鶴巻田"},{"zipCode":"9994551","prefectureKana":"ﾔﾏｶﾞﾀｹﾝ","cityKana":"ｵﾊﾞﾅｻﾞﾜｼ","streetKana":"ﾃﾗｳﾁ","prefecture":"山形県","city":"尾花沢市","street":"寺内"},{"zipCode":"9994555","prefectureKana":"ﾔﾏｶﾞﾀｹﾝ","cityKana":"ｵﾊﾞﾅｻﾞﾜｼ","streetKana":"ﾄﾞｸｻﾜ","prefecture":"山形県","city":"尾花沢市","street":"毒沢"},{"zipCode":"9994206","prefectureKana":"ﾔﾏｶﾞﾀｹﾝ","cityKana":"ｵﾊﾞﾅｻﾞﾜｼ","streetKana":"ﾄﾐﾔﾏ","prefecture":"山形県","city":"尾花沢市","street":"富山"},{"zipCode":"9994203","prefectureKana":"ﾔﾏｶﾞﾀｹﾝ","cityKana":"ｵﾊﾞﾅｻﾞﾜｼ","streetKana":"ﾅｶｼﾞﾏ","prefecture":"山形県","city":"尾花沢市","street":"中島"},{"zipCode":"9994227","prefectureKana":"ﾔﾏｶﾞﾀｹﾝ","cityKana":"ｵﾊﾞﾅｻﾞﾜｼ","streetKana":"ﾅｶﾏﾁ","prefecture":"山形県","city":"尾花沢市","street":"中町"},{"zipCode":"9994556","prefectureKana":"ﾔﾏｶﾞﾀｹﾝ","cityKana":"ｵﾊﾞﾅｻﾞﾜｼ","streetKana":"ﾅｷｻﾜ","prefecture":"山形県","city":"尾花沢市","street":"名木沢"},{"zipCode":"9994202","prefectureKana":"ﾔﾏｶﾞﾀｹﾝ","cityKana":"ｵﾊﾞﾅｻﾞﾜｼ","streetKana":"ﾅﾒｻﾜ","prefecture":"山形県","city":"尾花沢市","street":"行沢"},{"zipCode":"9994212","prefectureKana":"ﾔﾏｶﾞﾀｹﾝ","cityKana":"ｵﾊﾞﾅｻﾞﾜｼ","streetKana":"ﾆﾄｳﾌﾞｸﾛ","prefecture":"山形県","city":"尾花沢市","street":"二藤袋"},{"zipCode":"9994213","prefectureKana":"ﾔﾏｶﾞﾀｹﾝ","cityKana":"ｵﾊﾞﾅｻﾞﾜｼ","streetKana":"ﾆｭｳ","prefecture":"山形県","city":"尾花沢市","street":"丹生"},{"zipCode":"9994553","prefectureKana":"ﾔﾏｶﾞﾀｹﾝ","cityKana":"ｵﾊﾞﾅｻﾞﾜｼ","streetKana":"ﾉｸﾛｻﾜ","prefecture":"山形県","city":"尾花沢市","street":"野黒沢"},{"zipCode":"9994441","prefectureKana":"ﾔﾏｶﾞﾀｹﾝ","cityKana":"ｵﾊﾞﾅｻﾞﾜｼ","streetKana":"ﾉﾍﾞｻﾜ","prefecture":"山形県","city":"尾花沢市","street":"延沢"},{"zipCode":"9994445","prefectureKana":"ﾔﾏｶﾞﾀｹﾝ","cityKana":"ｵﾊﾞﾅｻﾞﾜｼ","streetKana":"ﾊﾀｻﾜ","prefecture":"山形県","city":"尾花沢市","street":"畑沢"},{"zipCode":"9994335","prefectureKana":"ﾔﾏｶﾞﾀｹﾝ","cityKana":"ｵﾊﾞﾅｻﾞﾜｼ","streetKana":"ﾊﾗﾀﾞ","prefecture":"山形県","city":"尾花沢市","street":"原田"},{"zipCode":"9994232","prefectureKana":"ﾔﾏｶﾞﾀｹﾝ","cityKana":"ｵﾊﾞﾅｻﾞﾜｼ","streetKana":"ﾌﾓﾄﾏﾁ","prefecture":"山形県","city":"尾花沢市","street":"梺町"},{"zipCode":"9994444","prefectureKana":"ﾔﾏｶﾞﾀｹﾝ","cityKana":"ｵﾊﾞﾅｻﾞﾜｼ","streetKana":"ﾎｿﾉ","prefecture":"山形県","city":"尾花沢市","street":"細野"},{"zipCode":"9994557","prefectureKana":"ﾔﾏｶﾞﾀｹﾝ","cityKana":"ｵﾊﾞﾅｻﾞﾜｼ","streetKana":"ﾐﾅﾐｻﾜ","prefecture":"山形県","city":"尾花沢市","street":"南沢"},{"zipCode":"9994331","prefectureKana":"ﾔﾏｶﾞﾀｹﾝ","cityKana":"ｵﾊﾞﾅｻﾞﾜｼ","streetKana":"ﾓﾀｲ","prefecture":"山形県","city":"尾花沢市","street":"母袋"},{"zipCode":"9994229","prefectureKana":"ﾔﾏｶﾞﾀｹﾝ","cityKana":"ｵﾊﾞﾅｻﾞﾜｼ","streetKana":"ﾖｺﾏﾁ","prefecture":"山形県","city":"尾花沢市","street":"横町"},{"zipCode":"9994442","prefectureKana":"ﾔﾏｶﾞﾀｹﾝ","cityKana":"ｵﾊﾞﾅｻﾞﾜｼ","streetKana":"ﾛｸｻﾜ","prefecture":"山形県","city":"尾花沢市","street":"六沢"},{"zipCode":"9994225","prefectureKana":"ﾔﾏｶﾞﾀｹﾝ","cityKana":"ｵﾊﾞﾅｻﾞﾜｼ","streetKana":"ﾜｶﾊﾞﾁｮｳ","prefecture":"山形県","city":"尾花沢市","street":"若葉町"},{"zipCode":"9992200","prefectureKana":"ﾔﾏｶﾞﾀｹﾝ","cityKana":"ﾅﾝﾖｳｼ","streetKana":"ｲｶﾆｹｲｻｲｶﾞﾅｲﾊﾞｱｲ","prefecture":"山形県","city":"南陽市","street":"以下に掲載がない場合"},{"zipCode":"9992211","prefectureKana":"ﾔﾏｶﾞﾀｹﾝ","cityKana":"ﾅﾝﾖｳｼ","streetKana":"ｱｶﾕ","prefecture":"山形県","city":"南陽市","street":"赤湯"},{"zipCode":"9992224","prefectureKana":"ﾔﾏｶﾞﾀｹﾝ","cityKana":"ﾅﾝﾖｳｼ","streetKana":"ｵｵﾊｼ","prefecture":"山形県","city":"南陽市","street":"大橋"},{"zipCode":"9992252","prefectureKana":"ﾔﾏｶﾞﾀｹﾝ","cityKana":"ﾅﾝﾖｳｼ","streetKana":"ｵｷﾀ","prefecture":"山形県","city":"南陽市","street":"沖田"},{"zipCode":"9992212","prefectureKana":"ﾔﾏｶﾞﾀｹﾝ","cityKana":"ﾅﾝﾖｳｼ","streetKana":"ｶﾈｻﾞﾜ","prefecture":"山形県","city":"南陽市","street":"金沢"},{"zipCode":"9992201","prefectureKana":"ﾔﾏｶﾞﾀｹﾝ","cityKana":"ﾅﾝﾖｳｼ","streetKana":"ｶﾏﾉﾊﾀ","prefecture":"山形県","city":"南陽市","street":"釜渡戸"},{"zipCode":"9992261","prefectureKana":"ﾔﾏｶﾞﾀｹﾝ","cityKana":"ﾅﾝﾖｳｼ","streetKana":"ｶﾓｳﾀﾞ","prefecture":"山形県","city":"南陽市","street":"蒲生田"},{"zipCode":"9992204","prefectureKana":"ﾔﾏｶﾞﾀｹﾝ","cityKana":"ﾅﾝﾖｳｼ","streetKana":"ｶﾜﾄｲ","prefecture":"山形県","city":"南陽市","street":"川樋"},{"zipCode":"9992221","prefectureKana":"ﾔﾏｶﾞﾀｹﾝ","cityKana":"ﾅﾝﾖｳｼ","streetKana":"ｸﾇｷﾞﾂﾞｶ","prefecture":"山形県","city":"南陽市","street":"椚塚"},{"zipCode":"9992203","prefectureKana":"ﾔﾏｶﾞﾀｹﾝ","cityKana":"ﾅﾝﾖｳｼ","streetKana":"ｺｲﾜｻﾜ","prefecture":"山形県","city":"南陽市","street":"小岩沢"},{"zipCode":"9992241","prefectureKana":"ﾔﾏｶﾞﾀｹﾝ","cityKana":"ﾅﾝﾖｳｼ","streetKana":"ｺｵﾘﾔﾏ","prefecture":"山形県","city":"南陽市","street":"郡山"},{"zipCode":"9992256","prefectureKana":"ﾔﾏｶﾞﾀｹﾝ","cityKana":"ﾅﾝﾖｳｼ","streetKana":"ｻｶｲ","prefecture":"山形県","city":"南陽市","street":"坂井"},{"zipCode":"9992244","prefectureKana":"ﾔﾏｶﾞﾀｹﾝ","cityKana":"ﾅﾝﾖｳｼ","streetKana":"ｼﾏﾇｷ","prefecture":"山形県","city":"南陽市","street":"島貫"},{"zipCode":"9992205","prefectureKana":"ﾔﾏｶﾞﾀｹﾝ","cityKana":"ﾅﾝﾖｳｼ","streetKana":"ｼﾝﾃﾞﾝ","prefecture":"山形県","city":"南陽市","street":"新田"},{"zipCode":"9992255","prefectureKana":"ﾔﾏｶﾞﾀｹﾝ","cityKana":"ﾅﾝﾖｳｼ","streetKana":"ｾｷﾈ","prefecture":"山形県","city":"南陽市","street":"関根"},{"zipCode":"9992251","prefectureKana":"ﾔﾏｶﾞﾀｹﾝ","cityKana":"ﾅﾝﾖｳｼ","streetKana":"ﾀｶﾅｼ","prefecture":"山形県","city":"南陽市","street":"高梨"},{"zipCode":"9992234","prefectureKana":"ﾔﾏｶﾞﾀｹﾝ","cityKana":"ﾅﾝﾖｳｼ","streetKana":"ﾁｭｳｵｳﾋｶﾞｼ","prefecture":"山形県","city":"南陽市","street":"中央東"},{"zipCode":"9992254","prefectureKana":"ﾔﾏｶﾞﾀｹﾝ","cityKana":"ﾅﾝﾖｳｼ","streetKana":"ﾂﾕﾊｼ","prefecture":"山形県","city":"南陽市","street":"露橋"},{"zipCode":"9992264","prefectureKana":"ﾔﾏｶﾞﾀｹﾝ","cityKana":"ﾅﾝﾖｳｼ","streetKana":"ﾅｶｵﾁｱｲ","prefecture":"山形県","city":"南陽市","street":"中落合"},{"zipCode":"9992242","prefectureKana":"ﾔﾏｶﾞﾀｹﾝ","cityKana":"ﾅﾝﾖｳｼ","streetKana":"ﾅｶﾉﾒ","prefecture":"山形県","city":"南陽市","street":"中ノ目"},{"zipCode":"9992222","prefectureKana":"ﾔﾏｶﾞﾀｹﾝ","cityKana":"ﾅﾝﾖｳｼ","streetKana":"ﾅｶﾞｵｶ","prefecture":"山形県","city":"南陽市","street":"長岡"},{"zipCode":"9992266","prefectureKana":"ﾔﾏｶﾞﾀｹﾝ","cityKana":"ﾅﾝﾖｳｼ","streetKana":"ﾅｶﾞﾄﾛ","prefecture":"山形県","city":"南陽市","street":"長瀞"},{"zipCode":"9992243","prefectureKana":"ﾔﾏｶﾞﾀｹﾝ","cityKana":"ﾅﾝﾖｳｼ","streetKana":"ﾅﾍﾞﾀ","prefecture":"山形県","city":"南陽市","street":"鍋田"},{"zipCode":"9992231","prefectureKana":"ﾔﾏｶﾞﾀｹﾝ","cityKana":"ﾅﾝﾖｳｼ","streetKana":"ﾆｲﾛﾈ","prefecture":"山形県","city":"南陽市","street":"二色根"},{"zipCode":"9992265","prefectureKana":"ﾔﾏｶﾞﾀｹﾝ","cityKana":"ﾅﾝﾖｳｼ","streetKana":"ﾆｼｵﾁｱｲ","prefecture":"山形県","city":"南陽市","street":"西落合"},{"zipCode":"9992263","prefectureKana":"ﾔﾏｶﾞﾀｹﾝ","cityKana":"ﾅﾝﾖｳｼ","streetKana":"ﾊｷﾞｭｳﾀﾞ","prefecture":"山形県","city":"南陽市","street":"萩生田"},{"zipCode":"9992267","prefectureKana":"ﾔﾏｶﾞﾀｹﾝ","cityKana":"ﾅﾝﾖｳｼ","streetKana":"ﾎｳｼﾔﾅｷﾞ","prefecture":"山形県","city":"南陽市","street":"法師柳"},{"zipCode":"9992213","prefectureKana":"ﾔﾏｶﾞﾀｹﾝ","cityKana":"ﾅﾝﾖｳｼ","streetKana":"ﾏﾂｻﾞﾜ","prefecture":"山形県","city":"南陽市","street":"松沢"},{"zipCode":"9992223","prefectureKana":"ﾔﾏｶﾞﾀｹﾝ","cityKana":"ﾅﾝﾖｳｼ","streetKana":"ﾏﾅｲﾀﾔﾅｷﾞ","prefecture":"山形県","city":"南陽市","street":"俎柳"},{"zipCode":"9992232","prefectureKana":"ﾔﾏｶﾞﾀｹﾝ","cityKana":"ﾅﾝﾖｳｼ","streetKana":"ﾐﾂﾏﾄﾞｵﾘ","prefecture":"山形県","city":"南陽市","street":"三間通"},{"zipCode":"9992253","prefectureKana":"ﾔﾏｶﾞﾀｹﾝ","cityKana":"ﾅﾝﾖｳｼ","streetKana":"ﾐﾔｻﾞｷ","prefecture":"山形県","city":"南陽市","street":"宮崎"},{"zipCode":"9992202","prefectureKana":"ﾔﾏｶﾞﾀｹﾝ","cityKana":"ﾅﾝﾖｳｼ","streetKana":"ﾓﾄﾅｶﾔﾏ","prefecture":"山形県","city":"南陽市","street":"元中山"},{"zipCode":"9992262","prefectureKana":"ﾔﾏｶﾞﾀｹﾝ","cityKana":"ﾅﾝﾖｳｼ","streetKana":"ﾜｶｻｺﾞｳﾔ","prefecture":"山形県","city":"南陽市","street":"若狭郷屋"},{"zipCode":"9992233","prefectureKana":"ﾔﾏｶﾞﾀｹﾝ","cityKana":"ﾅﾝﾖｳｼ","streetKana":"ﾜﾉ","prefecture":"山形県","city":"南陽市","street":"上野"},{"zipCode":"9993500","prefectureKana":"ﾔﾏｶﾞﾀｹﾝ","cityKana":"ﾆｼﾑﾗﾔﾏｸﾞﾝｶﾎｸﾁｮｳ","streetKana":"ｲｶﾆｹｲｻｲｶﾞﾅｲﾊﾞｱｲ","prefecture":"山形県","city":"西村山郡河北町","street":"以下に掲載がない場合"},{"zipCode":"9993503","prefectureKana":"ﾔﾏｶﾞﾀｹﾝ","cityKana":"ﾆｼﾑﾗﾔﾏｸﾞﾝｶﾎｸﾁｮｳ","streetKana":"ｲﾜｷ","prefecture":"山形県","city":"西村山郡河北町","street":"岩木"},{"zipCode":"9993501","prefectureKana":"ﾔﾏｶﾞﾀｹﾝ","cityKana":"ﾆｼﾑﾗﾔﾏｸﾞﾝｶﾎｸﾁｮｳ","streetKana":"ｼﾝﾖｼﾀﾞ","prefecture":"山形県","city":"西村山郡河北町","street":"新吉田"},{"zipCode":"9993521","prefectureKana":"ﾔﾏｶﾞﾀｹﾝ","cityKana":"ﾆｼﾑﾗﾔﾏｸﾞﾝｶﾎｸﾁｮｳ","streetKana":"ﾀﾞｲ","prefecture":"山形県","city":"西村山郡河北町","street":"田井"},{"zipCode":"9993532","prefectureKana":"ﾔﾏｶﾞﾀｹﾝ","cityKana":"ﾆｼﾑﾗﾔﾏｸﾞﾝｶﾎｸﾁｮｳ","streetKana":"ﾂｸﾘﾔﾏ","prefecture":"山形県","city":"西村山郡河北町","street":"造山"},{"zipCode":"9993533","prefectureKana":"ﾔﾏｶﾞﾀｹﾝ","cityKana":"ﾆｼﾑﾗﾔﾏｸﾞﾝｶﾎｸﾁｮｳ","streetKana":"ﾆｼｻﾞﾄ","prefecture":"山形県","city":"西村山郡河北町","street":"西里"},{"zipCode":"9993531","prefectureKana":"ﾔﾏｶﾞﾀｹﾝ","cityKana":"ﾆｼﾑﾗﾔﾏｸﾞﾝｶﾎｸﾁｮｳ","streetKana":"ﾊﾀｹﾅｶ","prefecture":"山形県","city":"西村山郡河北町","street":"畑中"},{"zipCode":"9993522","prefectureKana":"ﾔﾏｶﾞﾀｹﾝ","cityKana":"ﾆｼﾑﾗﾔﾏｸﾞﾝｶﾎｸﾁｮｳ","streetKana":"ﾐｿﾞﾉﾍﾞ","prefecture":"山形県","city":"西村山郡河北町","street":"溝延"},{"zipCode":"9993511","prefectureKana":"ﾔﾏｶﾞﾀｹﾝ","cityKana":"ﾆｼﾑﾗﾔﾏｸﾞﾝｶﾎｸﾁｮｳ","streetKana":"ﾔﾁ","prefecture":"山形県","city":"西村山郡河北町","street":"谷地"},{"zipCode":"9993515","prefectureKana":"ﾔﾏｶﾞﾀｹﾝ","cityKana":"ﾆｼﾑﾗﾔﾏｸﾞﾝｶﾎｸﾁｮｳ","streetKana":"ﾔﾁｱﾗﾏﾁﾋｶﾞｼ","prefecture":"山形県","city":"西村山郡河北町","street":"谷地荒町東"},{"zipCode":"9993512","prefectureKana":"ﾔﾏｶﾞﾀｹﾝ","cityKana":"ﾆｼﾑﾗﾔﾏｸﾞﾝｶﾎｸﾁｮｳ","streetKana":"ﾔﾁﾁｭｳｵｳ","prefecture":"山形県","city":"西村山郡河北町","street":"谷地中央"},{"zipCode":"9993513","prefectureKana":"ﾔﾏｶﾞﾀｹﾝ","cityKana":"ﾆｼﾑﾗﾔﾏｸﾞﾝｶﾎｸﾁｮｳ","streetKana":"ﾔﾁﾄｺﾛｵｶ","prefecture":"山形県","city":"西村山郡河北町","street":"谷地所岡"},{"zipCode":"9993514","prefectureKana":"ﾔﾏｶﾞﾀｹﾝ","cityKana":"ﾆｼﾑﾗﾔﾏｸﾞﾝｶﾎｸﾁｮｳ","streetKana":"ﾔﾁﾋﾅｲﾁ","prefecture":"山形県","city":"西村山郡河北町","street":"谷地ひな市"},{"zipCode":"9993502","prefectureKana":"ﾔﾏｶﾞﾀｹﾝ","cityKana":"ﾆｼﾑﾗﾔﾏｸﾞﾝｶﾎｸﾁｮｳ","streetKana":"ﾖｼﾀﾞ","prefecture":"山形県","city":"西村山郡河北町","street":"吉田"},{"zipCode":"9994100","prefectureKana":"ﾔﾏｶﾞﾀｹﾝ","cityKana":"ｷﾀﾑﾗﾔﾏｸﾞﾝｵｵｲｼﾀﾞﾏﾁ","streetKana":"ｲｶﾆｹｲｻｲｶﾞﾅｲﾊﾞｱｲ","prefecture":"山形県","city":"北村山郡大石田町","street":"以下に掲載がない場合"},{"zipCode":"9994113","prefectureKana":"ﾔﾏｶﾞﾀｹﾝ","cityKana":"ｷﾀﾑﾗﾔﾏｸﾞﾝｵｵｲｼﾀﾞﾏﾁ","streetKana":"ｲﾏｼｭｸ","prefecture":"山形県","city":"北村山郡大石田町","street":"今宿"},{"zipCode":"9994103","prefectureKana":"ﾔﾏｶﾞﾀｹﾝ","cityKana":"ｷﾀﾑﾗﾔﾏｸﾞﾝｵｵｲｼﾀﾞﾏﾁ","streetKana":"ｲﾜｶﾞﾌｸﾛ","prefecture":"山形県","city":"北村山郡大石田町","street":"岩ケ袋"},{"zipCode":"9994116","prefectureKana":"ﾔﾏｶﾞﾀｹﾝ","cityKana":"ｷﾀﾑﾗﾔﾏｸﾞﾝｵｵｲｼﾀﾞﾏﾁ","streetKana":"ｴｷﾏｴﾄﾞｵﾘ","prefecture":"山形県","city":"北村山郡大石田町","street":"駅前通り"},{"zipCode":"9994111","prefectureKana":"ﾔﾏｶﾞﾀｹﾝ","cityKana":"ｷﾀﾑﾗﾔﾏｸﾞﾝｵｵｲｼﾀﾞﾏﾁ","streetKana":"ｵｵｲｼﾀﾞ","prefecture":"山形県","city":"北村山郡大石田町","street":"大石田"},{"zipCode":"9994131","prefectureKana":"ﾔﾏｶﾞﾀｹﾝ","cityKana":"ｷﾀﾑﾗﾔﾏｸﾞﾝｵｵｲｼﾀﾞﾏﾁ","streetKana":"ｵｵｳﾗ","prefecture":"山形県","city":"北村山郡大石田町","street":"大浦"},{"zipCode":"9994102","prefectureKana":"ﾔﾏｶﾞﾀｹﾝ","cityKana":"ｷﾀﾑﾗﾔﾏｸﾞﾝｵｵｲｼﾀﾞﾏﾁ","streetKana":"ｶｲﾔ","prefecture":"山形県","city":"北村山郡大石田町","street":"海谷"},{"zipCode":"9994115","prefectureKana":"ﾔﾏｶﾞﾀｹﾝ","cityKana":"ｷﾀﾑﾗﾔﾏｸﾞﾝｵｵｲｼﾀﾞﾏﾁ","streetKana":"ｶﾂﾗｷﾞﾁｮｳ","prefecture":"山形県","city":"北村山郡大石田町","street":"桂木町"},{"zipCode":"9994133","prefectureKana":"ﾔﾏｶﾞﾀｹﾝ","cityKana":"ｷﾀﾑﾗﾔﾏｸﾞﾝｵｵｲｼﾀﾞﾏﾁ","streetKana":"ｶﾜﾏｴ","prefecture":"山形県","city":"北村山郡大石田町","street":"川前"},{"zipCode":"9994132","prefectureKana":"ﾔﾏｶﾞﾀｹﾝ","cityKana":"ｷﾀﾑﾗﾔﾏｸﾞﾝｵｵｲｼﾀﾞﾏﾁ","streetKana":"ｺﾏｺﾞﾒ","prefecture":"山形県","city":"北村山郡大石田町","street":"駒籠"},{"zipCode":"9994141","prefectureKana":"ﾔﾏｶﾞﾀｹﾝ","cityKana":"ｷﾀﾑﾗﾔﾏｸﾞﾝｵｵｲｼﾀﾞﾏﾁ","streetKana":"ｼﾞﾈﾝｺﾞ","prefecture":"山形県","city":"北村山郡大石田町","street":"次年子"},{"zipCode":"9994554","prefectureKana":"ﾔﾏｶﾞﾀｹﾝ","cityKana":"ｷﾀﾑﾗﾔﾏｸﾞﾝｵｵｲｼﾀﾞﾏﾁ","streetKana":"ﾀｶﾉｽ(ｵｶｸｻﾔﾏ)","prefecture":"山形県","city":"北村山郡大石田町","street":"鷹巣（岡草山）"},{"zipCode":"9994101","prefectureKana":"ﾔﾏｶﾞﾀｹﾝ","cityKana":"ｷﾀﾑﾗﾔﾏｸﾞﾝｵｵｲｼﾀﾞﾏﾁ","streetKana":"ﾀｶﾉｽ(ｿﾉﾀ)","prefecture":"山形県","city":"北村山郡大石田町","street":"鷹巣（その他）"},{"zipCode":"9994122","prefectureKana":"ﾔﾏｶﾞﾀｹﾝ","cityKana":"ｷﾀﾑﾗﾔﾏｸﾞﾝｵｵｲｼﾀﾞﾏﾁ","streetKana":"ﾀｻﾞﾜ","prefecture":"山形県","city":"北村山郡大石田町","street":"田沢"},{"zipCode":"9994134","prefectureKana":"ﾔﾏｶﾞﾀｹﾝ","cityKana":"ｷﾀﾑﾗﾔﾏｸﾞﾝｵｵｲｼﾀﾞﾏﾁ","streetKana":"ﾄﾖﾀﾞ","prefecture":"山形県","city":"北村山郡大石田町","street":"豊田"},{"zipCode":"9994112","prefectureKana":"ﾔﾏｶﾞﾀｹﾝ","cityKana":"ｷﾀﾑﾗﾔﾏｸﾞﾝｵｵｲｼﾀﾞﾏﾁ","streetKana":"ﾐﾄﾞﾘﾁｮｳ","prefecture":"山形県","city":"北村山郡大石田町","street":"緑町"},{"zipCode":"9994121","prefectureKana":"ﾔﾏｶﾞﾀｹﾝ","cityKana":"ｷﾀﾑﾗﾔﾏｸﾞﾝｵｵｲｼﾀﾞﾏﾁ","streetKana":"ﾖｺﾔﾏ","prefecture":"山形県","city":"北村山郡大石田町","street":"横山"},{"zipCode":"9994114","prefectureKana":"ﾔﾏｶﾞﾀｹﾝ","cityKana":"ｷﾀﾑﾗﾔﾏｸﾞﾝｵｵｲｼﾀﾞﾏﾁ","streetKana":"ﾖｯｶﾏﾁ","prefecture":"山形県","city":"北村山郡大石田町","street":"四日町"},{"zipCode":"9995400","prefectureKana":"ﾔﾏｶﾞﾀｹﾝ","cityKana":"ﾓｶﾞﾐｸﾞﾝｶﾈﾔﾏﾏﾁ","streetKana":"ｲｶﾆｹｲｻｲｶﾞﾅｲﾊﾞｱｲ","prefecture":"山形県","city":"最上郡金山町","street":"以下に掲載がない場合"},{"zipCode":"9995401","prefectureKana":"ﾔﾏｶﾞﾀｹﾝ","cityKana":"ﾓｶﾞﾐｸﾞﾝｶﾈﾔﾏﾏﾁ","streetKana":"ｱﾘﾔ","prefecture":"山形県","city":"最上郡金山町","street":"有屋"},{"zipCode":"9995414","prefectureKana":"ﾔﾏｶﾞﾀｹﾝ","cityKana":"ﾓｶﾞﾐｸﾞﾝｶﾈﾔﾏﾏﾁ","streetKana":"ｳﾙｼﾉ","prefecture":"山形県","city":"最上郡金山町","street":"漆野"},{"zipCode":"9995405","prefectureKana":"ﾔﾏｶﾞﾀｹﾝ","cityKana":"ﾓｶﾞﾐｸﾞﾝｶﾈﾔﾏﾏﾁ","streetKana":"ｳﾜﾀﾞｲ","prefecture":"山形県","city":"最上郡金山町","street":"上台"},{"zipCode":"9995402","prefectureKana":"ﾔﾏｶﾞﾀｹﾝ","cityKana":"ﾓｶﾞﾐｸﾞﾝｶﾈﾔﾏﾏﾁ","streetKana":"ｶﾈﾔﾏ","prefecture":"山形県","city":"最上郡金山町","street":"金山"},{"zipCode":"9995404","prefectureKana":"ﾔﾏｶﾞﾀｹﾝ","cityKana":"ﾓｶﾞﾐｸﾞﾝｶﾈﾔﾏﾏﾁ","streetKana":"ｼﾓﾉﾐｮｳ","prefecture":"山形県","city":"最上郡金山町","street":"下野明"},{"zipCode":"9995413","prefectureKana":"ﾔﾏｶﾞﾀｹﾝ","cityKana":"ﾓｶﾞﾐｸﾞﾝｶﾈﾔﾏﾏﾁ","streetKana":"ﾀﾆｸﾞﾁｷﾞﾝｻﾞﾝ","prefecture":"山形県","city":"最上郡金山町","street":"谷口銀山"},{"zipCode":"9995412","prefectureKana":"ﾔﾏｶﾞﾀｹﾝ","cityKana":"ﾓｶﾞﾐｸﾞﾝｶﾈﾔﾏﾏﾁ","streetKana":"ﾄﾋﾞﾉﾓﾘ","prefecture":"山形県","city":"最上郡金山町","street":"飛森"},{"zipCode":"9995411","prefectureKana":"ﾔﾏｶﾞﾀｹﾝ","cityKana":"ﾓｶﾞﾐｸﾞﾝｶﾈﾔﾏﾏﾁ","streetKana":"ﾅｶﾀﾞ","prefecture":"山形県","city":"最上郡金山町","street":"中田"},{"zipCode":"9995415","prefectureKana":"ﾔﾏｶﾞﾀｹﾝ","cityKana":"ﾓｶﾞﾐｸﾞﾝｶﾈﾔﾏﾏﾁ","streetKana":"ﾎｵﾔﾏ","prefecture":"山形県","city":"最上郡金山町","street":"朴山"},{"zipCode":"9995403","prefectureKana":"ﾔﾏｶﾞﾀｹﾝ","cityKana":"ﾓｶﾞﾐｸﾞﾝｶﾈﾔﾏﾏﾁ","streetKana":"ﾔｽｻﾞﾜ","prefecture":"山形県","city":"最上郡金山町","street":"安沢"},{"zipCode":"9995406","prefectureKana":"ﾔﾏｶﾞﾀｹﾝ","cityKana":"ﾓｶﾞﾐｸﾞﾝｶﾈﾔﾏﾏﾁ","streetKana":"ﾔﾏｻﾞｷ","prefecture":"山形県","city":"最上郡金山町","street":"山崎"},{"zipCode":"9996100","prefectureKana":"ﾔﾏｶﾞﾀｹﾝ","cityKana":"ﾓｶﾞﾐｸﾞﾝﾓｶﾞﾐﾏﾁ","streetKana":"ｲｶﾆｹｲｻｲｶﾞﾅｲﾊﾞｱｲ","prefecture":"山形県","city":"最上郡最上町","street":"以下に掲載がない場合"},{"zipCode":"9996211","prefectureKana":"ﾔﾏｶﾞﾀｹﾝ","cityKana":"ﾓｶﾞﾐｸﾞﾝﾓｶﾞﾐﾏﾁ","streetKana":"ｵｵﾎﾘ","prefecture":"山形県","city":"最上郡最上町","street":"大堀"},{"zipCode":"9996103","prefectureKana":"ﾔﾏｶﾞﾀｹﾝ","cityKana":"ﾓｶﾞﾐｸﾞﾝﾓｶﾞﾐﾏﾁ","streetKana":"ｸﾛｻﾜ","prefecture":"山形県","city":"最上郡最上町","street":"黒澤"},{"zipCode":"9996106","prefectureKana":"ﾔﾏｶﾞﾀｹﾝ","cityKana":"ﾓｶﾞﾐｸﾞﾝﾓｶﾞﾐﾏﾁ","streetKana":"ｻｶｲﾀﾞ","prefecture":"山形県","city":"最上郡最上町","street":"堺田"},{"zipCode":"9996212","prefectureKana":"ﾔﾏｶﾞﾀｹﾝ","cityKana":"ﾓｶﾞﾐｸﾞﾝﾓｶﾞﾐﾏﾁ","streetKana":"ｼﾓ","prefecture":"山形県","city":"最上郡最上町","street":"志茂"},{"zipCode":"9996211","prefectureKana":"ﾔﾏｶﾞﾀｹﾝ","cityKana":"ﾓｶﾞﾐｸﾞﾝﾓｶﾞﾐﾏﾁ","streetKana":"ｾﾐ","prefecture":"山形県","city":"最上郡最上町","street":"瀬見"},{"zipCode":"9996215","prefectureKana":"ﾔﾏｶﾞﾀｹﾝ","cityKana":"ﾓｶﾞﾐｸﾞﾝﾓｶﾞﾐﾏﾁ","streetKana":"ﾂｷﾀﾞﾃ","prefecture":"山形県","city":"最上郡最上町","street":"月楯"},{"zipCode":"9996105","prefectureKana":"ﾔﾏｶﾞﾀｹﾝ","cityKana":"ﾓｶﾞﾐｸﾞﾝﾓｶﾞﾐﾏﾁ","streetKana":"ﾄﾐｻﾜ","prefecture":"山形県","city":"最上郡最上町","street":"富澤"},{"zipCode":"9996102","prefectureKana":"ﾔﾏｶﾞﾀｹﾝ","cityKana":"ﾓｶﾞﾐｸﾞﾝﾓｶﾞﾐﾏﾁ","streetKana":"ﾋｶﾞｼﾎｳﾃﾞﾝ","prefecture":"山形県","city":"最上郡最上町","street":"東法田"},{"zipCode":"9996213","prefectureKana":"ﾔﾏｶﾞﾀｹﾝ","cityKana":"ﾓｶﾞﾐｸﾞﾝﾓｶﾞﾐﾏﾁ","streetKana":"ﾎｳﾃﾞﾝ","prefecture":"山形県","city":"最上郡最上町","street":"法田"},{"zipCode":"9996104","prefectureKana":"ﾔﾏｶﾞﾀｹﾝ","cityKana":"ﾓｶﾞﾐｸﾞﾝﾓｶﾞﾐﾏﾁ","streetKana":"ﾎﾝｼﾞｮｳ","prefecture":"山形県","city":"最上郡最上町","street":"本城"},{"zipCode":"9996107","prefectureKana":"ﾔﾏｶﾞﾀｹﾝ","cityKana":"ﾓｶﾞﾐｸﾞﾝﾓｶﾞﾐﾏﾁ","streetKana":"ﾐﾂｻﾞﾜ","prefecture":"山形県","city":"最上郡最上町","street":"満澤"},{"zipCode":"9996101","prefectureKana":"ﾔﾏｶﾞﾀｹﾝ","cityKana":"ﾓｶﾞﾐｸﾞﾝﾓｶﾞﾐﾏﾁ","streetKana":"ﾑｶｲﾏﾁ","prefecture":"山形県","city":"最上郡最上町","street":"向町"},{"zipCode":"9996214","prefectureKana":"ﾔﾏｶﾞﾀｹﾝ","cityKana":"ﾓｶﾞﾐｸﾞﾝﾓｶﾞﾐﾏﾁ","streetKana":"ﾜｶﾐﾔ","prefecture":"山形県","city":"最上郡最上町","street":"若宮"},{"zipCode":"9994600","prefectureKana":"ﾔﾏｶﾞﾀｹﾝ","cityKana":"ﾓｶﾞﾐｸﾞﾝﾌﾅｶﾞﾀﾏﾁ","streetKana":"ｲｶﾆｹｲｻｲｶﾞﾅｲﾊﾞｱｲ","prefecture":"山形県","city":"最上郡舟形町","street":"以下に掲載がない場合"},{"zipCode":"9994602","prefectureKana":"ﾔﾏｶﾞﾀｹﾝ","cityKana":"ﾓｶﾞﾐｸﾞﾝﾌﾅｶﾞﾀﾏﾁ","streetKana":"ﾁｮｳｼﾞｬﾊﾗ","prefecture":"山形県","city":"最上郡舟形町","street":"長者原"},{"zipCode":"9994603","prefectureKana":"ﾔﾏｶﾞﾀｹﾝ","cityKana":"ﾓｶﾞﾐｸﾞﾝﾌﾅｶﾞﾀﾏﾁ","streetKana":"ﾄﾐﾀ","prefecture":"山形県","city":"最上郡舟形町","street":"富田"},{"zipCode":"9994605","prefectureKana":"ﾔﾏｶﾞﾀｹﾝ","cityKana":"ﾓｶﾞﾐｸﾞﾝﾌﾅｶﾞﾀﾏﾁ","streetKana":"ﾅｶﾞｻﾜ","prefecture":"山形県","city":"最上郡舟形町","street":"長沢"},{"zipCode":"9994601","prefectureKana":"ﾔﾏｶﾞﾀｹﾝ","cityKana":"ﾓｶﾞﾐｸﾞﾝﾌﾅｶﾞﾀﾏﾁ","streetKana":"ﾌﾅｶﾞﾀ","prefecture":"山形県","city":"最上郡舟形町","street":"舟形"},{"zipCode":"9994604","prefectureKana":"ﾔﾏｶﾞﾀｹﾝ","cityKana":"ﾓｶﾞﾐｸﾞﾝﾌﾅｶﾞﾀﾏﾁ","streetKana":"ﾎﾘｳﾁ","prefecture":"山形県","city":"最上郡舟形町","street":"堀内"},{"zipCode":"9995300","prefectureKana":"ﾔﾏｶﾞﾀｹﾝ","cityKana":"ﾓｶﾞﾐｸﾞﾝﾏﾑﾛｶﾞﾜﾏﾁ","streetKana":"ｲｶﾆｹｲｻｲｶﾞﾅｲﾊﾞｱｲ","prefecture":"山形県","city":"最上郡真室川町","street":"以下に掲載がない場合"},{"zipCode":"9995312","prefectureKana":"ﾔﾏｶﾞﾀｹﾝ","cityKana":"ﾓｶﾞﾐｸﾞﾝﾏﾑﾛｶﾞﾜﾏﾁ","streetKana":"ｱﾗﾏﾁ","prefecture":"山形県","city":"最上郡真室川町","street":"新町"},{"zipCode":"9995313","prefectureKana":"ﾔﾏｶﾞﾀｹﾝ","cityKana":"ﾓｶﾞﾐｸﾞﾝﾏﾑﾛｶﾞﾜﾏﾁ","streetKana":"ｳﾁﾏﾁ","prefecture":"山形県","city":"最上郡真室川町","street":"内町"},{"zipCode":"9995521","prefectureKana":"ﾔﾏｶﾞﾀｹﾝ","cityKana":"ﾓｶﾞﾐｸﾞﾝﾏﾑﾛｶﾞﾜﾏﾁ","streetKana":"ｵｵｻﾜ","prefecture":"山形県","city":"最上郡真室川町","street":"大沢"},{"zipCode":"9995603","prefectureKana":"ﾔﾏｶﾞﾀｹﾝ","cityKana":"ﾓｶﾞﾐｸﾞﾝﾏﾑﾛｶﾞﾜﾏﾁ","streetKana":"ｵｵﾀｷ","prefecture":"山形県","city":"最上郡真室川町","street":"大滝"},{"zipCode":"9995604","prefectureKana":"ﾔﾏｶﾞﾀｹﾝ","cityKana":"ﾓｶﾞﾐｸﾞﾝﾏﾑﾛｶﾞﾜﾏﾁ","streetKana":"ｶﾏﾌﾞﾁ","prefecture":"山形県","city":"最上郡真室川町","street":"釜渕"},{"zipCode":"9995601","prefectureKana":"ﾔﾏｶﾞﾀｹﾝ","cityKana":"ﾓｶﾞﾐｸﾞﾝﾏﾑﾛｶﾞﾜﾏﾁ","streetKana":"ｶﾜﾉｳﾁ(2-128ﾊﾞﾝﾁ､419-614ﾊﾞﾝﾁ､1717ﾊﾞﾝﾁ､ｻﾝﾀｷ､ﾊﾙｷ)","prefecture":"山形県","city":"最上郡真室川町","street":"川ノ内（２～１２８番地、４１９～６１４番地、１７１７番地、三滝、春木）"},{"zipCode":"9995301","prefectureKana":"ﾔﾏｶﾞﾀｹﾝ","cityKana":"ﾓｶﾞﾐｸﾞﾝﾏﾑﾛｶﾞﾜﾏﾁ","streetKana":"ｶﾜﾉｳﾁ(ｿﾉﾀ)","prefecture":"山形県","city":"最上郡真室川町","street":"川ノ内（その他）"},{"zipCode":"9995314","prefectureKana":"ﾔﾏｶﾞﾀｹﾝ","cityKana":"ﾓｶﾞﾐｸﾞﾝﾏﾑﾛｶﾞﾜﾏﾁ","streetKana":"ｷﾉｼﾀ","prefecture":"山形県","city":"最上郡真室川町","street":"木ノ下"},{"zipCode":"9995522","prefectureKana":"ﾔﾏｶﾞﾀｹﾝ","cityKana":"ﾓｶﾞﾐｸﾞﾝﾏﾑﾛｶﾞﾜﾏﾁ","streetKana":"ｻｽﾅﾍﾞ","prefecture":"山形県","city":"最上郡真室川町","street":"差首鍋"},{"zipCode":"9995602","prefectureKana":"ﾔﾏｶﾞﾀｹﾝ","cityKana":"ﾓｶﾞﾐｸﾞﾝﾏﾑﾛｶﾞﾜﾏﾁ","streetKana":"ﾉｿﾞｷ","prefecture":"山形県","city":"最上郡真室川町","street":"及位"},{"zipCode":"9995311","prefectureKana":"ﾔﾏｶﾞﾀｹﾝ","cityKana":"ﾓｶﾞﾐｸﾞﾝﾏﾑﾛｶﾞﾜﾏﾁ","streetKana":"ﾋﾗｵｶ","prefecture":"山形県","city":"最上郡真室川町","street":"平岡"},{"zipCode":"9995200","prefectureKana":"ﾔﾏｶﾞﾀｹﾝ","cityKana":"ﾓｶﾞﾐｸﾞﾝｻｹｶﾞﾜﾑﾗ","streetKana":"ｲｶﾆｹｲｻｲｶﾞﾅｲﾊﾞｱｲ","prefecture":"山形県","city":"最上郡鮭川村","street":"以下に掲載がない場合"},{"zipCode":"9995208","prefectureKana":"ﾔﾏｶﾞﾀｹﾝ","cityKana":"ﾓｶﾞﾐｸﾞﾝｻｹｶﾞﾜﾑﾗ","streetKana":"ｲｼﾅｻﾞｶ","prefecture":"山形県","city":"最上郡鮭川村","street":"石名坂"},{"zipCode":"9995203","prefectureKana":"ﾔﾏｶﾞﾀｹﾝ","cityKana":"ﾓｶﾞﾐｸﾞﾝｻｹｶﾞﾜﾑﾗ","streetKana":"ｶﾜｸﾞﾁ","prefecture":"山形県","city":"最上郡鮭川村","street":"川口"},{"zipCode":"9995201","prefectureKana":"ﾔﾏｶﾞﾀｹﾝ","cityKana":"ﾓｶﾞﾐｸﾞﾝｻｹｶﾞﾜﾑﾗ","streetKana":"ｷｮｳﾂﾞｶ","prefecture":"山形県","city":"最上郡鮭川村","street":"京塚"},{"zipCode":"9995202","prefectureKana":"ﾔﾏｶﾞﾀｹﾝ","cityKana":"ﾓｶﾞﾐｸﾞﾝｻｹｶﾞﾜﾑﾗ","streetKana":"ｻﾄﾞ","prefecture":"山形県","city":"最上郡鮭川村","street":"佐渡"},{"zipCode":"9995205","prefectureKana":"ﾔﾏｶﾞﾀｹﾝ","cityKana":"ﾓｶﾞﾐｸﾞﾝｻｹｶﾞﾜﾑﾗ","streetKana":"ﾅｶﾜﾀﾘ","prefecture":"山形県","city":"最上郡鮭川村","street":"中渡"},{"zipCode":"9995207","prefectureKana":"ﾔﾏｶﾞﾀｹﾝ","cityKana":"ﾓｶﾞﾐｸﾞﾝｻｹｶﾞﾜﾑﾗ","streetKana":"ﾆﾜﾂﾞｷ","prefecture":"山形県","city":"最上郡鮭川村","street":"庭月"},{"zipCode":"9995206","prefectureKana":"ﾔﾏｶﾞﾀｹﾝ","cityKana":"ﾓｶﾞﾐｸﾞﾝｻｹｶﾞﾜﾑﾗ","streetKana":"ﾏｶﾞﾘｶﾞﾜ","prefecture":"山形県","city":"最上郡鮭川村","street":"曲川"},{"zipCode":"9995204","prefectureKana":"ﾔﾏｶﾞﾀｹﾝ","cityKana":"ﾓｶﾞﾐｸﾞﾝｻｹｶﾞﾜﾑﾗ","streetKana":"ﾑｶｲ","prefecture":"山形県","city":"最上郡鮭川村","street":"向居"},{"zipCode":"9996400","prefectureKana":"ﾔﾏｶﾞﾀｹﾝ","cityKana":"ﾓｶﾞﾐｸﾞﾝﾄｻﾞﾜﾑﾗ","streetKana":"ｲｶﾆｹｲｻｲｶﾞﾅｲﾊﾞｱｲ","prefecture":"山形県","city":"最上郡戸沢村","street":"以下に掲載がない場合"},{"zipCode":"9996312","prefectureKana":"ﾔﾏｶﾞﾀｹﾝ","cityKana":"ﾓｶﾞﾐｸﾞﾝﾄｻﾞﾜﾑﾗ","streetKana":"ｲﾜｼﾐｽﾞ","prefecture":"山形県","city":"最上郡戸沢村","street":"岩清水"},{"zipCode":"9996402","prefectureKana":"ﾔﾏｶﾞﾀｹﾝ","cityKana":"ﾓｶﾞﾐｸﾞﾝﾄｻﾞﾜﾑﾗ","streetKana":"ｸﾗｵｶ","prefecture":"山形県","city":"最上郡戸沢村","street":"蔵岡"},{"zipCode":"9996315","prefectureKana":"ﾔﾏｶﾞﾀｹﾝ","cityKana":"ﾓｶﾞﾐｸﾞﾝﾄｻﾞﾜﾑﾗ","streetKana":"ｼﾞﾝﾃﾞﾝ","prefecture":"山形県","city":"最上郡戸沢村","street":"神田"},{"zipCode":"9996403","prefectureKana":"ﾔﾏｶﾞﾀｹﾝ","cityKana":"ﾓｶﾞﾐｸﾞﾝﾄｻﾞﾜﾑﾗ","streetKana":"ﾂﾉｶﾜ","prefecture":"山形県","city":"最上郡戸沢村","street":"角川"},{"zipCode":"9996311","prefectureKana":"ﾔﾏｶﾞﾀｹﾝ","cityKana":"ﾓｶﾞﾐｸﾞﾝﾄｻﾞﾜﾑﾗ","streetKana":"ﾂﾔ","prefecture":"山形県","city":"最上郡戸沢村","street":"津谷"},{"zipCode":"9996313","prefectureKana":"ﾔﾏｶﾞﾀｹﾝ","cityKana":"ﾓｶﾞﾐｸﾞﾝﾄｻﾞﾜﾑﾗ","streetKana":"ﾅﾀﾞｶ","prefecture":"山形県","city":"最上郡戸沢村","street":"名高"},{"zipCode":"9996801","prefectureKana":"ﾔﾏｶﾞﾀｹﾝ","cityKana":"ﾓｶﾞﾐｸﾞﾝﾄｻﾞﾜﾑﾗ","streetKana":"ﾌﾙｸﾁ(ｶｼｻﾞﾜ)","prefecture":"山形県","city":"最上郡戸沢村","street":"古口（柏沢）"},{"zipCode":"9996401","prefectureKana":"ﾔﾏｶﾞﾀｹﾝ","cityKana":"ﾓｶﾞﾐｸﾞﾝﾄｻﾞﾜﾑﾗ","streetKana":"ﾌﾙｸﾁ(ｿﾉﾀ)","prefecture":"山形県","city":"最上郡戸沢村","street":"古口（その他）"},{"zipCode":"9996314","prefectureKana":"ﾔﾏｶﾞﾀｹﾝ","cityKana":"ﾓｶﾞﾐｸﾞﾝﾄｻﾞﾜﾑﾗ","streetKana":"ﾏﾂｻﾞｶ","prefecture":"山形県","city":"最上郡戸沢村","street":"松坂"},{"zipCode":"9992171","prefectureKana":"ﾔﾏｶﾞﾀｹﾝ","cityKana":"ﾋｶﾞｼｵｷﾀﾏｸﾞﾝﾀｶﾊﾀﾏﾁ","streetKana":"ｲｼｵｶ","prefecture":"山形県","city":"東置賜郡高畠町","street":"石岡"},{"zipCode":"9992177","prefectureKana":"ﾔﾏｶﾞﾀｹﾝ","cityKana":"ﾋｶﾞｼｵｷﾀﾏｸﾞﾝﾀｶﾊﾀﾏﾁ","streetKana":"ｵｿﾉﾂﾞｶ","prefecture":"山形県","city":"東置賜郡高畠町","street":"小其塚"},{"zipCode":"9992178","prefectureKana":"ﾔﾏｶﾞﾀｹﾝ","cityKana":"ﾋｶﾞｼｵｷﾀﾏｸﾞﾝﾀｶﾊﾀﾏﾁ","streetKana":"ｶﾐﾋﾗﾔﾅｷﾞ","prefecture":"山形県","city":"東置賜郡高畠町","street":"上平柳"},{"zipCode":"9992179","prefectureKana":"ﾔﾏｶﾞﾀｹﾝ","cityKana":"ﾋｶﾞｼｵｷﾀﾏｸﾞﾝﾀｶﾊﾀﾏﾁ","streetKana":"ｼﾞｬｸﾞﾁ","prefecture":"山形県","city":"東置賜郡高畠町","street":"蛇口"},{"zipCode":"9992172","prefectureKana":"ﾔﾏｶﾞﾀｹﾝ","cityKana":"ﾋｶﾞｼｵｷﾀﾏｸﾞﾝﾀｶﾊﾀﾏﾁ","streetKana":"ﾅﾂﾓ","prefecture":"山形県","city":"東置賜郡高畠町","street":"夏茂"},{"zipCode":"9992176","prefectureKana":"ﾔﾏｶﾞﾀｹﾝ","cityKana":"ﾋｶﾞｼｵｷﾀﾏｸﾞﾝﾀｶﾊﾀﾏﾁ","streetKana":"ﾇｶﾉﾒ","prefecture":"山形県","city":"東置賜郡高畠町","street":"糠野目"},{"zipCode":"9992174","prefectureKana":"ﾔﾏｶﾞﾀｹﾝ","cityKana":"ﾋｶﾞｼｵｷﾀﾏｸﾞﾝﾀｶﾊﾀﾏﾁ","streetKana":"ﾌｸｻﾞﾜ","prefecture":"山形県","city":"東置賜郡高畠町","street":"福沢"},{"zipCode":"9992175","prefectureKana":"ﾔﾏｶﾞﾀｹﾝ","cityKana":"ﾋｶﾞｼｵｷﾀﾏｸﾞﾝﾀｶﾊﾀﾏﾁ","streetKana":"ﾌｸｻﾞﾜﾐﾅﾐ","prefecture":"山形県","city":"東置賜郡高畠町","street":"福沢南"},{"zipCode":"9992173","prefectureKana":"ﾔﾏｶﾞﾀｹﾝ","cityKana":"ﾋｶﾞｼｵｷﾀﾏｸﾞﾝﾀｶﾊﾀﾏﾁ","streetKana":"ﾔﾏｻﾞｷ","prefecture":"山形県","city":"東置賜郡高畠町","street":"山崎"},{"zipCode":"9990100","prefectureKana":"ﾔﾏｶﾞﾀｹﾝ","cityKana":"ﾋｶﾞｼｵｷﾀﾏｸﾞﾝｶﾜﾆｼﾏﾁ","streetKana":"ｲｶﾆｹｲｻｲｶﾞﾅｲﾊﾞｱｲ","prefecture":"山形県","city":"東置賜郡川西町","street":"以下に掲載がない場合"},{"zipCode":"9990151","prefectureKana":"ﾔﾏｶﾞﾀｹﾝ","cityKana":"ﾋｶﾞｼｵｷﾀﾏｸﾞﾝｶﾜﾆｼﾏﾁ","streetKana":"ｵｵﾌﾞﾈ","prefecture":"山形県","city":"東置賜郡川西町","street":"大舟"},{"zipCode":"9990213","prefectureKana":"ﾔﾏｶﾞﾀｹﾝ","cityKana":"ﾋｶﾞｼｵｷﾀﾏｸﾞﾝｶﾜﾆｼﾏﾁ","streetKana":"ｵﾅｶﾞｼﾏ","prefecture":"山形県","city":"東置賜郡川西町","street":"尾長島"},{"zipCode":"9990152","prefectureKana":"ﾔﾏｶﾞﾀｹﾝ","cityKana":"ﾋｶﾞｼｵｷﾀﾏｸﾞﾝｶﾜﾆｼﾏﾁ","streetKana":"ｶﾐｵｸﾀﾞ","prefecture":"山形県","city":"東置賜郡川西町","street":"上奥田"},{"zipCode":"9990121","prefectureKana":"ﾔﾏｶﾞﾀｹﾝ","cityKana":"ﾋｶﾞｼｵｷﾀﾏｸﾞﾝｶﾜﾆｼﾏﾁ","streetKana":"ｶﾐｺﾏﾂ","prefecture":"山形県","city":"東置賜郡川西町","street":"上小松"},{"zipCode":"9990131","prefectureKana":"ﾔﾏｶﾞﾀｹﾝ","cityKana":"ﾋｶﾞｼｵｷﾀﾏｸﾞﾝｶﾜﾆｼﾏﾁ","streetKana":"ｸﾛｶﾜ","prefecture":"山形県","city":"東置賜郡川西町","street":"黒川"},{"zipCode":"9990132","prefectureKana":"ﾔﾏｶﾞﾀｹﾝ","cityKana":"ﾋｶﾞｼｵｷﾀﾏｸﾞﾝｶﾜﾆｼﾏﾁ","streetKana":"ｺｳｽﾞｸ","prefecture":"山形県","city":"東置賜郡川西町","street":"高豆蒄"},{"zipCode":"9990133","prefectureKana":"ﾔﾏｶﾞﾀｹﾝ","cityKana":"ﾋｶﾞｼｵｷﾀﾏｸﾞﾝｶﾜﾆｼﾏﾁ","streetKana":"ｺﾏﾂ","prefecture":"山形県","city":"東置賜郡川西町","street":"小松"},{"zipCode":"9990145","prefectureKana":"ﾔﾏｶﾞﾀｹﾝ","cityKana":"ﾋｶﾞｼｵｷﾀﾏｸﾞﾝｶﾜﾆｼﾏﾁ","streetKana":"ｼﾓｵｸﾀﾞ","prefecture":"山形県","city":"東置賜郡川西町","street":"下奥田"},{"zipCode":"9990134","prefectureKana":"ﾔﾏｶﾞﾀｹﾝ","cityKana":"ﾋｶﾞｼｵｷﾀﾏｸﾞﾝｶﾜﾆｼﾏﾁ","streetKana":"ｼﾓｺﾏﾂ","prefecture":"山形県","city":"東置賜郡川西町","street":"下小松"},{"zipCode":"9990212","prefectureKana":"ﾔﾏｶﾞﾀｹﾝ","cityKana":"ﾋｶﾞｼｵｷﾀﾏｸﾞﾝｶﾜﾆｼﾏﾁ","streetKana":"ｼﾓﾋﾗﾔﾅｷﾞ","prefecture":"山形県","city":"東置賜郡川西町","street":"下平柳"},{"zipCode":"9990211","prefectureKana":"ﾔﾏｶﾞﾀｹﾝ","cityKana":"ﾋｶﾞｼｵｷﾀﾏｸﾞﾝｶﾜﾆｼﾏﾁ","streetKana":"ｽﾉｼﾏ","prefecture":"山形県","city":"東置賜郡川西町","street":"洲島"},{"zipCode":"9990141","prefectureKana":"ﾔﾏｶﾞﾀｹﾝ","cityKana":"ﾋｶﾞｼｵｷﾀﾏｸﾞﾝｶﾜﾆｼﾏﾁ","streetKana":"ﾀｶﾔﾏ","prefecture":"山形県","city":"東置賜郡川西町","street":"高山"},{"zipCode":"9990361","prefectureKana":"ﾔﾏｶﾞﾀｹﾝ","cityKana":"ﾋｶﾞｼｵｷﾀﾏｸﾞﾝｶﾜﾆｼﾏﾁ","streetKana":"ﾀﾏﾆﾜ","prefecture":"山形県","city":"東置賜郡川西町","street":"玉庭"},{"zipCode":"9990144","prefectureKana":"ﾔﾏｶﾞﾀｹﾝ","cityKana":"ﾋｶﾞｼｵｷﾀﾏｸﾞﾝｶﾜﾆｼﾏﾁ","streetKana":"ﾄｷﾀﾞ","prefecture":"山形県","city":"東置賜郡川西町","street":"時田"},{"zipCode":"9990122","prefectureKana":"ﾔﾏｶﾞﾀｹﾝ","cityKana":"ﾋｶﾞｼｵｷﾀﾏｸﾞﾝｶﾜﾆｼﾏﾁ","streetKana":"ﾅｶｺﾏﾂ","prefecture":"山形県","city":"東置賜郡川西町","street":"中小松"},{"zipCode":"9990143","prefectureKana":"ﾔﾏｶﾞﾀｹﾝ","cityKana":"ﾋｶﾞｼｵｷﾀﾏｸﾞﾝｶﾜﾆｼﾏﾁ","streetKana":"ﾉｿﾞｷ","prefecture":"山形県","city":"東置賜郡川西町","street":"莅"},{"zipCode":"9990153","prefectureKana":"ﾔﾏｶﾞﾀｹﾝ","cityKana":"ﾋｶﾞｼｵｷﾀﾏｸﾞﾝｶﾜﾆｼﾏﾁ","streetKana":"ﾎｵﾉｻﾜ","prefecture":"山形県","city":"東置賜郡川西町","street":"朴沢"},{"zipCode":"9990142","prefectureKana":"ﾔﾏｶﾞﾀｹﾝ","cityKana":"ﾋｶﾞｼｵｷﾀﾏｸﾞﾝｶﾜﾆｼﾏﾁ","streetKana":"ﾎﾘｶﾞﾈ","prefecture":"山形県","city":"東置賜郡川西町","street":"堀金"},{"zipCode":"9990214","prefectureKana":"ﾔﾏｶﾞﾀｹﾝ","cityKana":"ﾋｶﾞｼｵｷﾀﾏｸﾞﾝｶﾜﾆｼﾏﾁ","streetKana":"ﾖｼﾀ","prefecture":"山形県","city":"東置賜郡川西町","street":"吉田"},{"zipCode":"9991300","prefectureKana":"ﾔﾏｶﾞﾀｹﾝ","cityKana":"ﾆｼｵｷﾀﾏｸﾞﾝｵｸﾞﾆﾏﾁ","streetKana":"ｲｶﾆｹｲｻｲｶﾞﾅｲﾊﾞｱｲ","prefecture":"山形県","city":"西置賜郡小国町","street":"以下に掲載がない場合"},{"zipCode":"9991356","prefectureKana":"ﾔﾏｶﾞﾀｹﾝ","cityKana":"ﾆｼｵｷﾀﾏｸﾞﾝｵｸﾞﾆﾏﾁ","streetKana":"ｱｹﾎﾞﾉ","prefecture":"山形県","city":"西置賜郡小国町","street":"あけぼの"},{"zipCode":"9991323","prefectureKana":"ﾔﾏｶﾞﾀｹﾝ","cityKana":"ﾆｼｵｷﾀﾏｸﾞﾝｵｸﾞﾆﾏﾁ","streetKana":"ｱｻﾞｼﾉ","prefecture":"山形県","city":"西置賜郡小国町","street":"朝篠"},{"zipCode":"9991507","prefectureKana":"ﾔﾏｶﾞﾀｹﾝ","cityKana":"ﾆｼｵｷﾀﾏｸﾞﾝｵｸﾞﾆﾏﾁ","streetKana":"ｱｼﾉﾐｽﾞ","prefecture":"山形県","city":"西置賜郡小国町","street":"足野水"},{"zipCode":"9991504","prefectureKana":"ﾔﾏｶﾞﾀｹﾝ","cityKana":"ﾆｼｵｷﾀﾏｸﾞﾝｵｸﾞﾆﾏﾁ","streetKana":"ｱｼﾐｽﾞﾅｶｻﾞﾄ","prefecture":"山形県","city":"西置賜郡小国町","street":"足水中里"},{"zipCode":"9991402","prefectureKana":"ﾔﾏｶﾞﾀｹﾝ","cityKana":"ﾆｼｵｷﾀﾏｸﾞﾝｵｸﾞﾆﾏﾁ","streetKana":"ｱｼﾞﾛｾ","prefecture":"山形県","city":"西置賜郡小国町","street":"網代瀬"},{"zipCode":"9991434","prefectureKana":"ﾔﾏｶﾞﾀｹﾝ","cityKana":"ﾆｼｵｷﾀﾏｸﾞﾝｵｸﾞﾆﾏﾁ","streetKana":"ｱﾗｻﾜ","prefecture":"山形県","city":"西置賜郡小国町","street":"荒沢"},{"zipCode":"9991213","prefectureKana":"ﾔﾏｶﾞﾀｹﾝ","cityKana":"ﾆｼｵｷﾀﾏｸﾞﾝｵｸﾞﾆﾏﾁ","streetKana":"ｱﾗﾏﾀ","prefecture":"山形県","city":"西置賜郡小国町","street":"新股"},{"zipCode":"9991322","prefectureKana":"ﾔﾏｶﾞﾀｹﾝ","cityKana":"ﾆｼｵｷﾀﾏｸﾞﾝｵｸﾞﾆﾏﾁ","streetKana":"ｲｻﾘｮｳ","prefecture":"山形県","city":"西置賜郡小国町","street":"伊佐領"},{"zipCode":"9991451","prefectureKana":"ﾔﾏｶﾞﾀｹﾝ","cityKana":"ﾆｼｵｷﾀﾏｸﾞﾝｵｸﾞﾆﾏﾁ","streetKana":"ｲｼﾀﾞｷ","prefecture":"山形県","city":"西置賜郡小国町","street":"石滝"},{"zipCode":"9991521","prefectureKana":"ﾔﾏｶﾞﾀｹﾝ","cityKana":"ﾆｼｵｷﾀﾏｸﾞﾝｵｸﾞﾆﾏﾁ","streetKana":"ｲｽﾞﾐｵｶ","prefecture":"山形県","city":"西置賜郡小国町","street":"泉岡"},{"zipCode":"9991506","prefectureKana":"ﾔﾏｶﾞﾀｹﾝ","cityKana":"ﾆｼｵｷﾀﾏｸﾞﾝｵｸﾞﾆﾏﾁ","streetKana":"ｲﾁﾉｻﾜ","prefecture":"山形県","city":"西置賜郡小国町","street":"市野沢"},{"zipCode":"9991203","prefectureKana":"ﾔﾏｶﾞﾀｹﾝ","cityKana":"ﾆｼｵｷﾀﾏｸﾞﾝｵｸﾞﾆﾏﾁ","streetKana":"ｲﾁﾉﾉ","prefecture":"山形県","city":"西置賜郡小国町","street":"市野々"},{"zipCode":"9991413","prefectureKana":"ﾔﾏｶﾞﾀｹﾝ","cityKana":"ﾆｼｵｷﾀﾏｸﾞﾝｵｸﾞﾆﾏﾁ","streetKana":"ｲﾏｲﾁ","prefecture":"山形県","city":"西置賜郡小国町","street":"今市"},{"zipCode":"9991435","prefectureKana":"ﾔﾏｶﾞﾀｹﾝ","cityKana":"ﾆｼｵｷﾀﾏｸﾞﾝｵｸﾞﾆﾏﾁ","streetKana":"ｲﾘｵﾘﾄ","prefecture":"山形県","city":"西置賜郡小国町","street":"入折戸"},{"zipCode":"9991352","prefectureKana":"ﾔﾏｶﾞﾀｹﾝ","cityKana":"ﾆｼｵｷﾀﾏｸﾞﾝｵｸﾞﾆﾏﾁ","streetKana":"ｲﾜｲｻﾞﾜ","prefecture":"山形県","city":"西置賜郡小国町","street":"岩井沢"},{"zipCode":"9991421","prefectureKana":"ﾔﾏｶﾞﾀｹﾝ","cityKana":"ﾆｼｵｷﾀﾏｸﾞﾝｵｸﾞﾆﾏﾁ","streetKana":"ｴｯﾁｭｳｻﾞﾄ","prefecture":"山形県","city":"西置賜郡小国町","street":"越中里"},{"zipCode":"9991212","prefectureKana":"ﾔﾏｶﾞﾀｹﾝ","cityKana":"ﾆｼｵｷﾀﾏｸﾞﾝｵｸﾞﾆﾏﾁ","streetKana":"ｵｵｲｼｻﾞﾜ","prefecture":"山形県","city":"西置賜郡小国町","street":"大石沢"},{"zipCode":"9991336","prefectureKana":"ﾔﾏｶﾞﾀｹﾝ","cityKana":"ﾆｼｵｷﾀﾏｸﾞﾝｵｸﾞﾆﾏﾁ","streetKana":"ｵｵﾀｷ","prefecture":"山形県","city":"西置賜郡小国町","street":"大滝"},{"zipCode":"9991342","prefectureKana":"ﾔﾏｶﾞﾀｹﾝ","cityKana":"ﾆｼｵｷﾀﾏｸﾞﾝｵｸﾞﾆﾏﾁ","streetKana":"ｵｵﾐﾔ","prefecture":"山形県","city":"西置賜郡小国町","street":"大宮"},{"zipCode":"9991363","prefectureKana":"ﾔﾏｶﾞﾀｹﾝ","cityKana":"ﾆｼｵｷﾀﾏｸﾞﾝｵｸﾞﾆﾏﾁ","streetKana":"ｵｸﾞﾆｺｻｶﾏﾁ","prefecture":"山形県","city":"西置賜郡小国町","street":"小国小坂町"},{"zipCode":"9991351","prefectureKana":"ﾔﾏｶﾞﾀｹﾝ","cityKana":"ﾆｼｵｷﾀﾏｸﾞﾝｵｸﾞﾆﾏﾁ","streetKana":"ｵｸﾞﾆﾏﾁ","prefecture":"山形県","city":"西置賜郡小国町","street":"小国町"},{"zipCode":"9991312","prefectureKana":"ﾔﾏｶﾞﾀｹﾝ","cityKana":"ﾆｼｵｷﾀﾏｸﾞﾝｵｸﾞﾆﾏﾁ","streetKana":"ｵﾄﾞ","prefecture":"山形県","city":"西置賜郡小国町","street":"小渡"},{"zipCode":"9991441","prefectureKana":"ﾔﾏｶﾞﾀｹﾝ","cityKana":"ﾆｼｵｷﾀﾏｸﾞﾝｵｸﾞﾆﾏﾁ","streetKana":"ｵﾄﾞﾛｸ","prefecture":"山形県","city":"西置賜郡小国町","street":"驚"},{"zipCode":"9991443","prefectureKana":"ﾔﾏｶﾞﾀｹﾝ","cityKana":"ﾆｼｵｷﾀﾏｸﾞﾝｵｸﾞﾆﾏﾁ","streetKana":"ｵﾏﾀ","prefecture":"山形県","city":"西置賜郡小国町","street":"小股"},{"zipCode":"9991436","prefectureKana":"ﾔﾏｶﾞﾀｹﾝ","cityKana":"ﾆｼｵｷﾀﾏｸﾞﾝｵｸﾞﾆﾏﾁ","streetKana":"ｵﾘﾄ","prefecture":"山形県","city":"西置賜郡小国町","street":"折戸"},{"zipCode":"9991311","prefectureKana":"ﾔﾏｶﾞﾀｹﾝ","cityKana":"ﾆｼｵｷﾀﾏｸﾞﾝｵｸﾞﾆﾏﾁ","streetKana":"ｶｲｼｮｳ","prefecture":"山形県","city":"西置賜郡小国町","street":"貝少"},{"zipCode":"9991512","prefectureKana":"ﾔﾏｶﾞﾀｹﾝ","cityKana":"ﾆｼｵｷﾀﾏｸﾞﾝｵｸﾞﾆﾏﾁ","streetKana":"ｶﾀｶｲ","prefecture":"山形県","city":"西置賜郡小国町","street":"片貝"},{"zipCode":"9991301","prefectureKana":"ﾔﾏｶﾞﾀｹﾝ","cityKana":"ﾆｼｵｷﾀﾏｸﾞﾝｵｸﾞﾆﾏﾁ","streetKana":"ｶﾅﾒ","prefecture":"山形県","city":"西置賜郡小国町","street":"金目"},{"zipCode":"9991211","prefectureKana":"ﾔﾏｶﾞﾀｹﾝ","cityKana":"ﾆｼｵｷﾀﾏｸﾞﾝｵｸﾞﾆﾏﾁ","streetKana":"ｶﾉﾐｽﾞ","prefecture":"山形県","city":"西置賜郡小国町","street":"叶水"},{"zipCode":"9991214","prefectureKana":"ﾔﾏｶﾞﾀｹﾝ","cityKana":"ﾆｼｵｷﾀﾏｸﾞﾝｵｸﾞﾆﾏﾁ","streetKana":"ｶﾜﾗﾂﾞﾉ","prefecture":"山形県","city":"西置賜郡小国町","street":"河原角"},{"zipCode":"9991345","prefectureKana":"ﾔﾏｶﾞﾀｹﾝ","cityKana":"ﾆｼｵｷﾀﾏｸﾞﾝｵｸﾞﾆﾏﾁ","streetKana":"ｷﾀ","prefecture":"山形県","city":"西置賜郡小国町","street":"北"},{"zipCode":"9991334","prefectureKana":"ﾔﾏｶﾞﾀｹﾝ","cityKana":"ﾆｼｵｷﾀﾏｸﾞﾝｵｸﾞﾆﾏﾁ","streetKana":"ｸﾛｻﾜ","prefecture":"山形県","city":"西置賜郡小国町","street":"黒沢"},{"zipCode":"9991339","prefectureKana":"ﾔﾏｶﾞﾀｹﾝ","cityKana":"ﾆｼｵｷﾀﾏｸﾞﾝｵｸﾞﾆﾏﾁ","streetKana":"ｺｸﾞﾗ","prefecture":"山形県","city":"西置賜郡小国町","street":"小倉"},{"zipCode":"9991522","prefectureKana":"ﾔﾏｶﾞﾀｹﾝ","cityKana":"ﾆｼｵｷﾀﾏｸﾞﾝｵｸﾞﾆﾏﾁ","streetKana":"ｺﾀﾏｶﾞﾜ","prefecture":"山形県","city":"西置賜郡小国町","street":"小玉川"},{"zipCode":"9991452","prefectureKana":"ﾔﾏｶﾞﾀｹﾝ","cityKana":"ﾆｼｵｷﾀﾏｸﾞﾝｵｸﾞﾆﾏﾁ","streetKana":"ｺﾞﾐｻﾞﾜ","prefecture":"山形県","city":"西置賜郡小国町","street":"五味沢"},{"zipCode":"9991354","prefectureKana":"ﾔﾏｶﾞﾀｹﾝ","cityKana":"ﾆｼｵｷﾀﾏｸﾞﾝｵｸﾞﾆﾏﾁ","streetKana":"ｻｲﾜｲﾁｮｳ","prefecture":"山形県","city":"西置賜郡小国町","street":"幸町"},{"zipCode":"9991361","prefectureKana":"ﾔﾏｶﾞﾀｹﾝ","cityKana":"ﾆｼｵｷﾀﾏｸﾞﾝｵｸﾞﾆﾏﾁ","streetKana":"ｻｶｴﾏﾁ","prefecture":"山形県","city":"西置賜郡小国町","street":"栄町"},{"zipCode":"9991202","prefectureKana":"ﾔﾏｶﾞﾀｹﾝ","cityKana":"ﾆｼｵｷﾀﾏｸﾞﾝｵｸﾞﾆﾏﾁ","streetKana":"ｼﾗｺｻﾞﾜ","prefecture":"山形県","city":"西置賜郡小国町","street":"白子沢"},{"zipCode":"9991412","prefectureKana":"ﾔﾏｶﾞﾀｹﾝ","cityKana":"ﾆｼｵｷﾀﾏｸﾞﾝｵｸﾞﾆﾏﾁ","streetKana":"ｼﾘﾅｼｻﾞﾜ","prefecture":"山形県","city":"西置賜郡小国町","street":"尻無沢"},{"zipCode":"9991337","prefectureKana":"ﾔﾏｶﾞﾀｹﾝ","cityKana":"ﾆｼｵｷﾀﾏｸﾞﾝｵｸﾞﾆﾏﾁ","streetKana":"ｼﾝﾊﾞﾗ","prefecture":"山形県","city":"西置賜郡小国町","street":"新原"},{"zipCode":"9991314","prefectureKana":"ﾔﾏｶﾞﾀｹﾝ","cityKana":"ﾆｼｵｷﾀﾏｸﾞﾝｵｸﾞﾆﾏﾁ","streetKana":"ｼﾝﾔｼｷ","prefecture":"山形県","city":"西置賜郡小国町","street":"新屋敷"},{"zipCode":"9991503","prefectureKana":"ﾔﾏｶﾞﾀｹﾝ","cityKana":"ﾆｼｵｷﾀﾏｸﾞﾝｵｸﾞﾆﾏﾁ","streetKana":"ｽｶﾞﾇﾏ","prefecture":"山形県","city":"西置賜郡小国町","street":"菅沼"},{"zipCode":"9991338","prefectureKana":"ﾔﾏｶﾞﾀｹﾝ","cityKana":"ﾆｼｵｷﾀﾏｸﾞﾝｵｸﾞﾆﾏﾁ","streetKana":"ｽｷﾞｻﾜ","prefecture":"山形県","city":"西置賜郡小国町","street":"杉沢"},{"zipCode":"9991333","prefectureKana":"ﾔﾏｶﾞﾀｹﾝ","cityKana":"ﾆｼｵｷﾀﾏｸﾞﾝｵｸﾞﾆﾏﾁ","streetKana":"ｾﾘﾃﾞ","prefecture":"山形県","city":"西置賜郡小国町","street":"芹出"},{"zipCode":"9991442","prefectureKana":"ﾔﾏｶﾞﾀｹﾝ","cityKana":"ﾆｼｵｷﾀﾏｸﾞﾝｵｸﾞﾆﾏﾁ","streetKana":"ﾀｲｺｻﾞﾜ","prefecture":"山形県","city":"西置賜郡小国町","street":"太鼓沢"},{"zipCode":"9991502","prefectureKana":"ﾔﾏｶﾞﾀｹﾝ","cityKana":"ﾆｼｵｷﾀﾏｸﾞﾝｵｸﾞﾆﾏﾁ","streetKana":"ﾀｷｸﾞﾗ","prefecture":"山形県","city":"西置賜郡小国町","street":"滝倉"},{"zipCode":"9991344","prefectureKana":"ﾔﾏｶﾞﾀｹﾝ","cityKana":"ﾆｼｵｷﾀﾏｸﾞﾝｵｸﾞﾆﾏﾁ","streetKana":"ﾀｻﾞﾜｶﾞｼﾗ","prefecture":"山形県","city":"西置賜郡小国町","street":"田沢頭"},{"zipCode":"9991335","prefectureKana":"ﾔﾏｶﾞﾀｹﾝ","cityKana":"ﾆｼｵｷﾀﾏｸﾞﾝｵｸﾞﾆﾏﾁ","streetKana":"ﾀﾈｻﾞﾜ","prefecture":"山形県","city":"西置賜郡小国町","street":"種沢"},{"zipCode":"9991511","prefectureKana":"ﾔﾏｶﾞﾀｹﾝ","cityKana":"ﾆｼｵｷﾀﾏｸﾞﾝｵｸﾞﾆﾏﾁ","streetKana":"ﾀﾏｶﾞﾜ","prefecture":"山形県","city":"西置賜郡小国町","street":"玉川"},{"zipCode":"9991514","prefectureKana":"ﾔﾏｶﾞﾀｹﾝ","cityKana":"ﾆｼｵｷﾀﾏｸﾞﾝｵｸﾞﾆﾏﾁ","streetKana":"ﾀﾏｶﾞﾜﾅｶｻﾞﾄ","prefecture":"山形県","city":"西置賜郡小国町","street":"玉川中里"},{"zipCode":"9991501","prefectureKana":"ﾔﾏｶﾞﾀｹﾝ","cityKana":"ﾆｼｵｷﾀﾏｸﾞﾝｵｸﾞﾆﾏﾁ","streetKana":"ﾀﾙｸﾞﾁ","prefecture":"山形県","city":"西置賜郡小国町","street":"樽口"},{"zipCode":"9991321","prefectureKana":"ﾔﾏｶﾞﾀｹﾝ","cityKana":"ﾆｼｵｷﾀﾏｸﾞﾝｵｸﾞﾆﾏﾁ","streetKana":"ﾂﾅｷﾞﾊｺﾉｸﾞﾁ","prefecture":"山形県","city":"西置賜郡小国町","street":"綱木箱口"},{"zipCode":"9991414","prefectureKana":"ﾔﾏｶﾞﾀｹﾝ","cityKana":"ﾆｼｵｷﾀﾏｸﾞﾝｵｸﾞﾆﾏﾁ","streetKana":"ﾄﾁｸﾞﾗ","prefecture":"山形県","city":"西置賜郡小国町","street":"栃倉"},{"zipCode":"9991432","prefectureKana":"ﾔﾏｶﾞﾀｹﾝ","cityKana":"ﾆｼｵｷﾀﾏｸﾞﾝｵｸﾞﾆﾏﾁ","streetKana":"ﾅｶｼﾞﾏ","prefecture":"山形県","city":"西置賜郡小国町","street":"中島"},{"zipCode":"9991513","prefectureKana":"ﾔﾏｶﾞﾀｹﾝ","cityKana":"ﾆｼｵｷﾀﾏｸﾞﾝｵｸﾞﾆﾏﾁ","streetKana":"ﾅｶﾀﾞﾔﾏｻﾞｷ","prefecture":"山形県","city":"西置賜郡小国町","street":"中田山崎"},{"zipCode":"9991422","prefectureKana":"ﾔﾏｶﾞﾀｹﾝ","cityKana":"ﾆｼｵｷﾀﾏｸﾞﾝｵｸﾞﾆﾏﾁ","streetKana":"ﾅｶﾞｻﾜ","prefecture":"山形県","city":"西置賜郡小国町","street":"長沢"},{"zipCode":"9991355","prefectureKana":"ﾔﾏｶﾞﾀｹﾝ","cityKana":"ﾆｼｵｷﾀﾏｸﾞﾝｵｸﾞﾆﾏﾁ","streetKana":"ﾆｼ","prefecture":"山形県","city":"西置賜郡小国町","street":"西"},{"zipCode":"9991215","prefectureKana":"ﾔﾏｶﾞﾀｹﾝ","cityKana":"ﾆｼｵｷﾀﾏｸﾞﾝｵｸﾞﾆﾏﾁ","streetKana":"ﾆｼﾀﾞｷ","prefecture":"山形県","city":"西置賜郡小国町","street":"西滝"},{"zipCode":"9991201","prefectureKana":"ﾔﾏｶﾞﾀｹﾝ","cityKana":"ﾆｼｵｷﾀﾏｸﾞﾝｵｸﾞﾆﾏﾁ","streetKana":"ﾇﾏｻﾞﾜ","prefecture":"山形県","city":"西置賜郡小国町","street":"沼沢"},{"zipCode":"9991313","prefectureKana":"ﾔﾏｶﾞﾀｹﾝ","cityKana":"ﾆｼｵｷﾀﾏｸﾞﾝｵｸﾞﾆﾏﾁ","streetKana":"ﾊﾘｳ","prefecture":"山形県","city":"西置賜郡小国町","street":"針生"},{"zipCode":"9991216","prefectureKana":"ﾔﾏｶﾞﾀｹﾝ","cityKana":"ﾆｼｵｷﾀﾏｸﾞﾝｵｸﾞﾆﾏﾁ","streetKana":"ﾋｶﾞｼﾀﾞｷ","prefecture":"山形県","city":"西置賜郡小国町","street":"東滝"},{"zipCode":"9991331","prefectureKana":"ﾔﾏｶﾞﾀｹﾝ","cityKana":"ﾆｼｵｷﾀﾏｸﾞﾝｵｸﾞﾆﾏﾁ","streetKana":"ﾋｶﾞｼﾊﾗ","prefecture":"山形県","city":"西置賜郡小国町","street":"東原"},{"zipCode":"9991433","prefectureKana":"ﾔﾏｶﾞﾀｹﾝ","cityKana":"ﾆｼｵｷﾀﾏｸﾞﾝｵｸﾞﾆﾏﾁ","streetKana":"ﾋﾉｻﾜ","prefecture":"山形県","city":"西置賜郡小国町","street":"樋ノ沢"},{"zipCode":"9991505","prefectureKana":"ﾔﾏｶﾞﾀｹﾝ","cityKana":"ﾆｼｵｷﾀﾏｸﾞﾝｵｸﾞﾆﾏﾁ","streetKana":"ﾋｬｯｺｻﾞﾜ","prefecture":"山形県","city":"西置賜郡小国町","street":"百子沢"},{"zipCode":"9991353","prefectureKana":"ﾔﾏｶﾞﾀｹﾝ","cityKana":"ﾆｼｵｷﾀﾏｸﾞﾝｵｸﾞﾆﾏﾁ","streetKana":"ﾋｮｳｺﾞﾀﾞﾃ","prefecture":"山形県","city":"西置賜郡小国町","street":"兵庫舘"},{"zipCode":"9991401","prefectureKana":"ﾔﾏｶﾞﾀｹﾝ","cityKana":"ﾆｼｵｷﾀﾏｸﾞﾝｵｸﾞﾆﾏﾁ","streetKana":"ﾌﾅﾄ","prefecture":"山形県","city":"西置賜郡小国町","street":"舟渡"},{"zipCode":"9991302","prefectureKana":"ﾔﾏｶﾞﾀｹﾝ","cityKana":"ﾆｼｵｷﾀﾏｸﾞﾝｵｸﾞﾆﾏﾁ","streetKana":"ﾌﾙﾀ","prefecture":"山形県","city":"西置賜郡小国町","street":"古田"},{"zipCode":"9991341","prefectureKana":"ﾔﾏｶﾞﾀｹﾝ","cityKana":"ﾆｼｵｷﾀﾏｸﾞﾝｵｸﾞﾆﾏﾁ","streetKana":"ﾏｽｵｶ","prefecture":"山形県","city":"西置賜郡小国町","street":"増岡"},{"zipCode":"9991332","prefectureKana":"ﾔﾏｶﾞﾀｹﾝ","cityKana":"ﾆｼｵｷﾀﾏｸﾞﾝｵｸﾞﾆﾏﾁ","streetKana":"ﾏﾁﾊﾞﾗ","prefecture":"山形県","city":"西置賜郡小国町","street":"町原"},{"zipCode":"9991324","prefectureKana":"ﾔﾏｶﾞﾀｹﾝ","cityKana":"ﾆｼｵｷﾀﾏｸﾞﾝｵｸﾞﾆﾏﾁ","streetKana":"ﾏﾂｵｶ","prefecture":"山形県","city":"西置賜郡小国町","street":"松岡"},{"zipCode":"9991411","prefectureKana":"ﾔﾏｶﾞﾀｹﾝ","cityKana":"ﾆｼｵｷﾀﾏｸﾞﾝｵｸﾞﾆﾏﾁ","streetKana":"ﾏﾂｻﾞｷ","prefecture":"山形県","city":"西置賜郡小国町","street":"松崎"},{"zipCode":"9991362","prefectureKana":"ﾔﾏｶﾞﾀｹﾝ","cityKana":"ﾆｼｵｷﾀﾏｸﾞﾝｵｸﾞﾆﾏﾁ","streetKana":"ﾐﾄﾞﾘﾁｮｳ","prefecture":"山形県","city":"西置賜郡小国町","street":"緑町"},{"zipCode":"9991343","prefectureKana":"ﾔﾏｶﾞﾀｹﾝ","cityKana":"ﾆｼｵｷﾀﾏｸﾞﾝｵｸﾞﾆﾏﾁ","streetKana":"ﾐﾔﾉﾀﾞｲ","prefecture":"山形県","city":"西置賜郡小国町","street":"宮の台"},{"zipCode":"9991431","prefectureKana":"ﾔﾏｶﾞﾀｹﾝ","cityKana":"ﾆｼｵｷﾀﾏｸﾞﾝｵｸﾞﾆﾏﾁ","streetKana":"ﾔｹﾔﾏ","prefecture":"山形県","city":"西置賜郡小国町","street":"焼山"},{"zipCode":"9991346","prefectureKana":"ﾔﾏｶﾞﾀｹﾝ","cityKana":"ﾆｼｵｷﾀﾏｸﾞﾝｵｸﾞﾆﾏﾁ","streetKana":"ﾕﾉﾊﾅ","prefecture":"山形県","city":"西置賜郡小国町","street":"湯ノ花"},{"zipCode":"9991303","prefectureKana":"ﾔﾏｶﾞﾀｹﾝ","cityKana":"ﾆｼｵｷﾀﾏｸﾞﾝｵｸﾞﾆﾏﾁ","streetKana":"ﾜｶﾔﾏ","prefecture":"山形県","city":"西置賜郡小国町","street":"若山"},{"zipCode":"9990600","prefectureKana":"ﾔﾏｶﾞﾀｹﾝ","cityKana":"ﾆｼｵｷﾀﾏｸﾞﾝｲｲﾃﾞﾏﾁ","streetKana":"ｲｶﾆｹｲｻｲｶﾞﾅｲﾊﾞｱｲ","prefecture":"山形県","city":"西置賜郡飯豊町","street":"以下に掲載がない場合"},{"zipCode":"9990436","prefectureKana":"ﾔﾏｶﾞﾀｹﾝ","cityKana":"ﾆｼｵｷﾀﾏｸﾞﾝｲｲﾃﾞﾏﾁ","streetKana":"ｲﾜｸﾗ","prefecture":"山形県","city":"西置賜郡飯豊町","street":"岩倉"},{"zipCode":"9990425","prefectureKana":"ﾔﾏｶﾞﾀｹﾝ","cityKana":"ﾆｼｵｷﾀﾏｸﾞﾝｲｲﾃﾞﾏﾁ","streetKana":"ｳﾂｻﾜ","prefecture":"山形県","city":"西置賜郡飯豊町","street":"宇津沢"},{"zipCode":"9990427","prefectureKana":"ﾔﾏｶﾞﾀｹﾝ","cityKana":"ﾆｼｵｷﾀﾏｸﾞﾝｲｲﾃﾞﾏﾁ","streetKana":"ｳﾜﾊﾞﾗ","prefecture":"山形県","city":"西置賜郡飯豊町","street":"上原"},{"zipCode":"9990426","prefectureKana":"ﾔﾏｶﾞﾀｹﾝ","cityKana":"ﾆｼｵｷﾀﾏｸﾞﾝｲｲﾃﾞﾏﾁ","streetKana":"ｵｿﾀﾞﾆ","prefecture":"山形県","city":"西置賜郡飯豊町","street":"遅谷"},{"zipCode":"9990424","prefectureKana":"ﾔﾏｶﾞﾀｹﾝ","cityKana":"ﾆｼｵｷﾀﾏｸﾞﾝｲｲﾃﾞﾏﾁ","streetKana":"ｶｽﾞﾏ","prefecture":"山形県","city":"西置賜郡飯豊町","street":"数馬"},{"zipCode":"9990433","prefectureKana":"ﾔﾏｶﾞﾀｹﾝ","cityKana":"ﾆｼｵｷﾀﾏｸﾞﾝｲｲﾃﾞﾏﾁ","streetKana":"ｶﾐﾔﾁ","prefecture":"山形県","city":"西置賜郡飯豊町","street":"上屋地"},{"zipCode":"9990434","prefectureKana":"ﾔﾏｶﾞﾀｹﾝ","cityKana":"ﾆｼｵｷﾀﾏｸﾞﾝｲｲﾃﾞﾏﾁ","streetKana":"ｶﾜﾅｲﾄﾞ","prefecture":"山形県","city":"西置賜郡飯豊町","street":"川内戸"},{"zipCode":"9990603","prefectureKana":"ﾔﾏｶﾞﾀｹﾝ","cityKana":"ﾆｼｵｷﾀﾏｸﾞﾝｲｲﾃﾞﾏﾁ","streetKana":"ｸﾛｻﾜ","prefecture":"山形県","city":"西置賜郡飯豊町","street":"黒沢"},{"zipCode":"9991113","prefectureKana":"ﾔﾏｶﾞﾀｹﾝ","cityKana":"ﾆｼｵｷﾀﾏｸﾞﾝｲｲﾃﾞﾏﾁ","streetKana":"ｺｼﾞﾗｶﾜ","prefecture":"山形県","city":"西置賜郡飯豊町","street":"小白川"},{"zipCode":"9990421","prefectureKana":"ﾔﾏｶﾞﾀｹﾝ","cityKana":"ﾆｼｵｷﾀﾏｸﾞﾝｲｲﾃﾞﾏﾁ","streetKana":"ｺﾔ","prefecture":"山形県","city":"西置賜郡飯豊町","street":"小屋"},{"zipCode":"9990431","prefectureKana":"ﾔﾏｶﾞﾀｹﾝ","cityKana":"ﾆｼｵｷﾀﾏｸﾞﾝｲｲﾃﾞﾏﾁ","streetKana":"ｼﾓﾔﾁ","prefecture":"山形県","city":"西置賜郡飯豊町","street":"下屋地"},{"zipCode":"9990432","prefectureKana":"ﾔﾏｶﾞﾀｹﾝ","cityKana":"ﾆｼｵｷﾀﾏｸﾞﾝｲｲﾃﾞﾏﾁ","streetKana":"ｼﾗｶﾜ","prefecture":"山形県","city":"西置賜郡飯豊町","street":"白川"},{"zipCode":"9990423","prefectureKana":"ﾔﾏｶﾞﾀｹﾝ","cityKana":"ﾆｼｵｷﾀﾏｸﾞﾝｲｲﾃﾞﾏﾁ","streetKana":"ｽｺﾞｳ","prefecture":"山形県","city":"西置賜郡飯豊町","street":"須郷"},{"zipCode":"9990605","prefectureKana":"ﾔﾏｶﾞﾀｹﾝ","cityKana":"ﾆｼｵｷﾀﾏｸﾞﾝｲｲﾃﾞﾏﾁ","streetKana":"ｿｴｶﾞﾜ","prefecture":"山形県","city":"西置賜郡飯豊町","street":"添川"},{"zipCode":"9990435","prefectureKana":"ﾔﾏｶﾞﾀｹﾝ","cityKana":"ﾆｼｵｷﾀﾏｸﾞﾝｲｲﾃﾞﾏﾁ","streetKana":"ﾀｶｿﾞｳﾛ","prefecture":"山形県","city":"西置賜郡飯豊町","street":"高造路"},{"zipCode":"9991112","prefectureKana":"ﾔﾏｶﾞﾀｹﾝ","cityKana":"ﾆｼｵｷﾀﾏｸﾞﾝｲｲﾃﾞﾏﾁ","streetKana":"ﾀｶﾐﾈ","prefecture":"山形県","city":"西置賜郡飯豊町","street":"高峰"},{"zipCode":"9990604","prefectureKana":"ﾔﾏｶﾞﾀｹﾝ","cityKana":"ﾆｼｵｷﾀﾏｸﾞﾝｲｲﾃﾞﾏﾁ","streetKana":"ﾂﾊﾞｷ","prefecture":"山形県","city":"西置賜郡飯豊町","street":"椿"},{"zipCode":"9991111","prefectureKana":"ﾔﾏｶﾞﾀｹﾝ","cityKana":"ﾆｼｵｷﾀﾏｸﾞﾝｲｲﾃﾞﾏﾁ","streetKana":"ﾃﾉｺ","prefecture":"山形県","city":"西置賜郡飯豊町","street":"手ノ子"},{"zipCode":"9990601","prefectureKana":"ﾔﾏｶﾞﾀｹﾝ","cityKana":"ﾆｼｵｷﾀﾏｸﾞﾝｲｲﾃﾞﾏﾁ","streetKana":"ﾅｶ","prefecture":"山形県","city":"西置賜郡飯豊町","street":"中"},{"zipCode":"9990602","prefectureKana":"ﾔﾏｶﾞﾀｹﾝ","cityKana":"ﾆｼｵｷﾀﾏｸﾞﾝｲｲﾃﾞﾏﾁ","streetKana":"ﾊｷﾞｭｳ","prefecture":"山形県","city":"西置賜郡飯豊町","street":"萩生"},{"zipCode":"9990422","prefectureKana":"ﾔﾏｶﾞﾀｹﾝ","cityKana":"ﾆｼｵｷﾀﾏｸﾞﾝｲｲﾃﾞﾏﾁ","streetKana":"ﾋﾛｶﾜﾗ","prefecture":"山形県","city":"西置賜郡飯豊町","street":"広河原"},{"zipCode":"9990606","prefectureKana":"ﾔﾏｶﾞﾀｹﾝ","cityKana":"ﾆｼｵｷﾀﾏｸﾞﾝｲｲﾃﾞﾏﾁ","streetKana":"ﾏﾂﾊﾞﾗ","prefecture":"山形県","city":"西置賜郡飯豊町","street":"松原"},{"zipCode":"9997700","prefectureKana":"ﾔﾏｶﾞﾀｹﾝ","cityKana":"ﾋｶﾞｼﾀｶﾞﾜｸﾞﾝｼｮｳﾅｲﾏﾁ","streetKana":"ｲｶﾆｹｲｻｲｶﾞﾅｲﾊﾞｱｲ","prefecture":"山形県","city":"東田川郡庄内町","street":"以下に掲載がない場合"},{"zipCode":"9997724","prefectureKana":"ﾔﾏｶﾞﾀｹﾝ","cityKana":"ﾋｶﾞｼﾀｶﾞﾜｸﾞﾝｼｮｳﾅｲﾏﾁ","streetKana":"ｱｶﾌﾞﾁｼﾝﾃﾞﾝ","prefecture":"山形県","city":"東田川郡庄内町","street":"赤渕新田"},{"zipCode":"9997701","prefectureKana":"ﾔﾏｶﾞﾀｹﾝ","cityKana":"ﾋｶﾞｼﾀｶﾞﾜｸﾞﾝｼｮｳﾅｲﾏﾁ","streetKana":"ｱﾄ","prefecture":"山形県","city":"東田川郡庄内町","street":"跡"},{"zipCode":"9997781","prefectureKana":"ﾔﾏｶﾞﾀｹﾝ","cityKana":"ﾋｶﾞｼﾀｶﾞﾜｸﾞﾝｼｮｳﾅｲﾏﾁ","streetKana":"ｱﾏﾙﾒ","prefecture":"山形県","city":"東田川郡庄内町","street":"余目"},{"zipCode":"9997714","prefectureKana":"ﾔﾏｶﾞﾀｹﾝ","cityKana":"ﾋｶﾞｼﾀｶﾞﾜｸﾞﾝｼｮｳﾅｲﾏﾁ","streetKana":"ｱﾏﾙﾒｼﾝﾃﾞﾝ","prefecture":"山形県","city":"東田川郡庄内町","street":"余目新田"},{"zipCode":"9997743","prefectureKana":"ﾔﾏｶﾞﾀｹﾝ","cityKana":"ﾋｶﾞｼﾀｶﾞﾜｸﾞﾝｼｮｳﾅｲﾏﾁ","streetKana":"ｱﾗﾀﾒ","prefecture":"山形県","city":"東田川郡庄内町","street":"新田目"},{"zipCode":"9997755","prefectureKana":"ﾔﾏｶﾞﾀｹﾝ","cityKana":"ﾋｶﾞｼﾀｶﾞﾜｸﾞﾝｼｮｳﾅｲﾏﾁ","streetKana":"ｲｸｻﾝ","prefecture":"山形県","city":"東田川郡庄内町","street":"生三"},{"zipCode":"9997702","prefectureKana":"ﾔﾏｶﾞﾀｹﾝ","cityKana":"ﾋｶﾞｼﾀｶﾞﾜｸﾞﾝｼｮｳﾅｲﾏﾁ","streetKana":"ｴﾉｷ","prefecture":"山形県","city":"東田川郡庄内町","street":"榎木"},{"zipCode":"9997747","prefectureKana":"ﾔﾏｶﾞﾀｹﾝ","cityKana":"ﾋｶﾞｼﾀｶﾞﾜｸﾞﾝｼｮｳﾅｲﾏﾁ","streetKana":"ｵｵﾉ","prefecture":"山形県","city":"東田川郡庄内町","street":"大野"},{"zipCode":"9997737","prefectureKana":"ﾔﾏｶﾞﾀｹﾝ","cityKana":"ﾋｶﾞｼﾀｶﾞﾜｸﾞﾝｼｮｳﾅｲﾏﾁ","streetKana":"ｵｵﾏｷﾞ","prefecture":"山形県","city":"東田川郡庄内町","street":"大真木"},{"zipCode":"9997752","prefectureKana":"ﾔﾏｶﾞﾀｹﾝ","cityKana":"ﾋｶﾞｼﾀｶﾞﾜｸﾞﾝｼｮｳﾅｲﾏﾁ","streetKana":"ｵｵﾐｼﾝﾃﾞﾝ","prefecture":"山形県","city":"東田川郡庄内町","street":"近江新田"},{"zipCode":"9997763","prefectureKana":"ﾔﾏｶﾞﾀｹﾝ","cityKana":"ﾋｶﾞｼﾀｶﾞﾜｸﾞﾝｼｮｳﾅｲﾏﾁ","streetKana":"ｵﾁｱｲ","prefecture":"山形県","city":"東田川郡庄内町","street":"落合"},{"zipCode":"9997762","prefectureKana":"ﾔﾏｶﾞﾀｹﾝ","cityKana":"ﾋｶﾞｼﾀｶﾞﾜｸﾞﾝｼｮｳﾅｲﾏﾁ","streetKana":"ｶﾈｱｲ","prefecture":"山形県","city":"東田川郡庄内町","street":"家根合"},{"zipCode":"9996601","prefectureKana":"ﾔﾏｶﾞﾀｹﾝ","cityKana":"ﾋｶﾞｼﾀｶﾞﾜｸﾞﾝｼｮｳﾅｲﾏﾁ","streetKana":"ｶﾘｶﾜ","prefecture":"山形県","city":"東田川郡庄内町","street":"狩川"},{"zipCode":"9996607","prefectureKana":"ﾔﾏｶﾞﾀｹﾝ","cityKana":"ﾋｶﾞｼﾀｶﾞﾜｸﾞﾝｼｮｳﾅｲﾏﾁ","streetKana":"ｷﾓｲﾘ","prefecture":"山形県","city":"東田川郡庄内町","street":"肝煎"},{"zipCode":"9997766","prefectureKana":"ﾔﾏｶﾞﾀｹﾝ","cityKana":"ﾋｶﾞｼﾀｶﾞﾜｸﾞﾝｼｮｳﾅｲﾏﾁ","streetKana":"ｷｭｳﾃﾞﾝ","prefecture":"山形県","city":"東田川郡庄内町","street":"久田"},{"zipCode":"9997742","prefectureKana":"ﾔﾏｶﾞﾀｹﾝ","cityKana":"ﾋｶﾞｼﾀｶﾞﾜｸﾞﾝｼｮｳﾅｲﾏﾁ","streetKana":"ｷｮｳｼﾞﾏ","prefecture":"山形県","city":"東田川郡庄内町","street":"京島"},{"zipCode":"9996606","prefectureKana":"ﾔﾏｶﾞﾀｹﾝ","cityKana":"ﾋｶﾞｼﾀｶﾞﾜｸﾞﾝｼｮｳﾅｲﾏﾁ","streetKana":"ｷﾖｶﾜ","prefecture":"山形県","city":"東田川郡庄内町","street":"清川"},{"zipCode":"9996605","prefectureKana":"ﾔﾏｶﾞﾀｹﾝ","cityKana":"ﾋｶﾞｼﾀｶﾞﾜｸﾞﾝｼｮｳﾅｲﾏﾁ","streetKana":"ｸﾜﾀﾞ","prefecture":"山形県","city":"東田川郡庄内町","street":"桑田"},{"zipCode":"9997722","prefectureKana":"ﾔﾏｶﾞﾀｹﾝ","cityKana":"ﾋｶﾞｼﾀｶﾞﾜｸﾞﾝｼｮｳﾅｲﾏﾁ","streetKana":"ｺｲﾃﾞｼﾝﾃﾞﾝ","prefecture":"山形県","city":"東田川郡庄内町","street":"小出新田"},{"zipCode":"9997745","prefectureKana":"ﾔﾏｶﾞﾀｹﾝ","cityKana":"ﾋｶﾞｼﾀｶﾞﾜｸﾞﾝｼｮｳﾅｲﾏﾁ","streetKana":"ｻｶｲｺｳﾔ","prefecture":"山形県","city":"東田川郡庄内町","street":"境興屋"},{"zipCode":"9997725","prefectureKana":"ﾔﾏｶﾞﾀｹﾝ","cityKana":"ﾋｶﾞｼﾀｶﾞﾜｸﾞﾝｼｮｳﾅｲﾏﾁ","streetKana":"ｻﾜｼﾝﾃﾞﾝ","prefecture":"山形県","city":"東田川郡庄内町","street":"沢新田"},{"zipCode":"9996608","prefectureKana":"ﾔﾏｶﾞﾀｹﾝ","cityKana":"ﾋｶﾞｼﾀｶﾞﾜｸﾞﾝｼｮｳﾅｲﾏﾁ","streetKana":"ｼﾅｻﾞﾜ","prefecture":"山形県","city":"東田川郡庄内町","street":"科沢"},{"zipCode":"9997754","prefectureKana":"ﾔﾏｶﾞﾀｹﾝ","cityKana":"ﾋｶﾞｼﾀｶﾞﾜｸﾞﾝｼｮｳﾅｲﾏﾁ","streetKana":"ｼﾏﾀﾞ","prefecture":"山形県","city":"東田川郡庄内町","street":"島田"},{"zipCode":"9997713","prefectureKana":"ﾔﾏｶﾞﾀｹﾝ","cityKana":"ﾋｶﾞｼﾀｶﾞﾜｸﾞﾝｼｮｳﾅｲﾏﾁ","streetKana":"ｼﾞｮｳﾏﾝ","prefecture":"山形県","city":"東田川郡庄内町","street":"常万"},{"zipCode":"9997782","prefectureKana":"ﾔﾏｶﾞﾀｹﾝ","cityKana":"ﾋｶﾞｼﾀｶﾞﾜｸﾞﾝｼｮｳﾅｲﾏﾁ","streetKana":"ｼｮｳﾖｳ","prefecture":"山形県","city":"東田川郡庄内町","street":"松陽"},{"zipCode":"9997765","prefectureKana":"ﾔﾏｶﾞﾀｹﾝ","cityKana":"ﾋｶﾞｼﾀｶﾞﾜｸﾞﾝｼｮｳﾅｲﾏﾁ","streetKana":"ｽｷﾞｳﾗ","prefecture":"山形県","city":"東田川郡庄内町","street":"杉浦"},{"zipCode":"9996604","prefectureKana":"ﾔﾏｶﾞﾀｹﾝ","cityKana":"ﾋｶﾞｼﾀｶﾞﾜｸﾞﾝｼｮｳﾅｲﾏﾁ","streetKana":"ｾﾝﾎﾞﾝｽｷﾞ","prefecture":"山形県","city":"東田川郡庄内町","street":"千本杉"},{"zipCode":"9996603","prefectureKana":"ﾔﾏｶﾞﾀｹﾝ","cityKana":"ﾋｶﾞｼﾀｶﾞﾜｸﾞﾝｼｮｳﾅｲﾏﾁ","streetKana":"ｿｴﾂﾞ","prefecture":"山形県","city":"東田川郡庄内町","street":"添津"},{"zipCode":"9997741","prefectureKana":"ﾔﾏｶﾞﾀｹﾝ","cityKana":"ﾋｶﾞｼﾀｶﾞﾜｸﾞﾝｼｮｳﾅｲﾏﾁ","streetKana":"ｿﾘﾖｼ","prefecture":"山形県","city":"東田川郡庄内町","street":"返吉"},{"zipCode":"9997761","prefectureKana":"ﾔﾏｶﾞﾀｹﾝ","cityKana":"ﾋｶﾞｼﾀｶﾞﾜｸﾞﾝｼｮｳﾅｲﾏﾁ","streetKana":"ﾀｶﾀﾞﾑｷﾞ","prefecture":"山形県","city":"東田川郡庄内町","street":"高田麦"},{"zipCode":"9996609","prefectureKana":"ﾔﾏｶﾞﾀｹﾝ","cityKana":"ﾋｶﾞｼﾀｶﾞﾜｸﾞﾝｼｮｳﾅｲﾏﾁ","streetKana":"ﾀﾁﾔｻﾞﾜ","prefecture":"山形県","city":"東田川郡庄内町","street":"立谷沢"},{"zipCode":"9997748","prefectureKana":"ﾔﾏｶﾞﾀｹﾝ","cityKana":"ﾋｶﾞｼﾀｶﾞﾜｸﾞﾝｼｮｳﾅｲﾏﾁ","streetKana":"ﾀﾔ","prefecture":"山形県","city":"東田川郡庄内町","street":"田谷"},{"zipCode":"9997704","prefectureKana":"ﾔﾏｶﾞﾀｹﾝ","cityKana":"ﾋｶﾞｼﾀｶﾞﾜｸﾞﾝｼｮｳﾅｲﾏﾁ","streetKana":"ﾁｶﾞﾜﾗ","prefecture":"山形県","city":"東田川郡庄内町","street":"千河原"},{"zipCode":"9997721","prefectureKana":"ﾔﾏｶﾞﾀｹﾝ","cityKana":"ﾋｶﾞｼﾀｶﾞﾜｸﾞﾝｼｮｳﾅｲﾏﾁ","streetKana":"ﾂﾂﾐｼﾝﾃﾞﾝ","prefecture":"山形県","city":"東田川郡庄内町","street":"堤新田"},{"zipCode":"9997707","prefectureKana":"ﾔﾏｶﾞﾀｹﾝ","cityKana":"ﾋｶﾞｼﾀｶﾞﾜｸﾞﾝｼｮｳﾅｲﾏﾁ","streetKana":"ﾄﾄﾞﾛｷ","prefecture":"山形県","city":"東田川郡庄内町","street":"廿六木"},{"zipCode":"9997731","prefectureKana":"ﾔﾏｶﾞﾀｹﾝ","cityKana":"ﾋｶﾞｼﾀｶﾞﾜｸﾞﾝｼｮｳﾅｲﾏﾁ","streetKana":"ﾄﾉﾓｼﾝﾃﾞﾝ","prefecture":"山形県","city":"東田川郡庄内町","street":"主殿新田"},{"zipCode":"9997734","prefectureKana":"ﾔﾏｶﾞﾀｹﾝ","cityKana":"ﾋｶﾞｼﾀｶﾞﾜｸﾞﾝｼｮｳﾅｲﾏﾁ","streetKana":"ﾅｶﾉ","prefecture":"山形県","city":"東田川郡庄内町","street":"中野"},{"zipCode":"9997751","prefectureKana":"ﾔﾏｶﾞﾀｹﾝ","cityKana":"ﾋｶﾞｼﾀｶﾞﾜｸﾞﾝｼｮｳﾅｲﾏﾁ","streetKana":"ﾆｼｵﾉｶﾀ","prefecture":"山形県","city":"東田川郡庄内町","street":"西小野方"},{"zipCode":"9997768","prefectureKana":"ﾔﾏｶﾞﾀｹﾝ","cityKana":"ﾋｶﾞｼﾀｶﾞﾜｸﾞﾝｼｮｳﾅｲﾏﾁ","streetKana":"ﾆｼﾉ","prefecture":"山形県","city":"東田川郡庄内町","street":"西野"},{"zipCode":"9997746","prefectureKana":"ﾔﾏｶﾞﾀｹﾝ","cityKana":"ﾋｶﾞｼﾀｶﾞﾜｸﾞﾝｼｮｳﾅｲﾏﾁ","streetKana":"ﾆｼﾌﾞｸﾛ","prefecture":"山形県","city":"東田川郡庄内町","street":"西袋"},{"zipCode":"9997757","prefectureKana":"ﾔﾏｶﾞﾀｹﾝ","cityKana":"ﾋｶﾞｼﾀｶﾞﾜｸﾞﾝｼｮｳﾅｲﾏﾁ","streetKana":"ﾊﾗｲﾀﾞ","prefecture":"山形県","city":"東田川郡庄内町","street":"払田"},{"zipCode":"9997706","prefectureKana":"ﾔﾏｶﾞﾀｹﾝ","cityKana":"ﾋｶﾞｼﾀｶﾞﾜｸﾞﾝｼｮｳﾅｲﾏﾁ","streetKana":"ﾋｻｹﾞｺｳﾔ","prefecture":"山形県","city":"東田川郡庄内町","street":"提興屋"},{"zipCode":"9997703","prefectureKana":"ﾔﾏｶﾞﾀｹﾝ","cityKana":"ﾋｶﾞｼﾀｶﾞﾜｸﾞﾝｼｮｳﾅｲﾏﾁ","streetKana":"ﾋﾗｵｶ","prefecture":"山形県","city":"東田川郡庄内町","street":"平岡"},{"zipCode":"9997767","prefectureKana":"ﾔﾏｶﾞﾀｹﾝ","cityKana":"ﾋｶﾞｼﾀｶﾞﾜｸﾞﾝｼｮｳﾅｲﾏﾁ","streetKana":"ﾌｶｶﾞﾜ","prefecture":"山形県","city":"東田川郡庄内町","street":"深川"},{"zipCode":"9997736","prefectureKana":"ﾔﾏｶﾞﾀｹﾝ","cityKana":"ﾋｶﾞｼﾀｶﾞﾜｸﾞﾝｼｮｳﾅｲﾏﾁ","streetKana":"ﾌｸｼﾏ","prefecture":"山形県","city":"東田川郡庄内町","street":"福島"},{"zipCode":"9997711","prefectureKana":"ﾔﾏｶﾞﾀｹﾝ","cityKana":"ﾋｶﾞｼﾀｶﾞﾜｸﾞﾝｼｮｳﾅｲﾏﾁ","streetKana":"ﾌｸﾜﾗ","prefecture":"山形県","city":"東田川郡庄内町","street":"福原"},{"zipCode":"9997726","prefectureKana":"ﾔﾏｶﾞﾀｹﾝ","cityKana":"ﾋｶﾞｼﾀｶﾞﾜｸﾞﾝｼｮｳﾅｲﾏﾁ","streetKana":"ﾌﾙｾｷ","prefecture":"山形県","city":"東田川郡庄内町","street":"古関"},{"zipCode":"9997712","prefectureKana":"ﾔﾏｶﾞﾀｹﾝ","cityKana":"ﾋｶﾞｼﾀｶﾞﾜｸﾞﾝｼｮｳﾅｲﾏﾁ","streetKana":"ﾎﾘﾉ","prefecture":"山形県","city":"東田川郡庄内町","street":"堀野"},{"zipCode":"9997735","prefectureKana":"ﾔﾏｶﾞﾀｹﾝ","cityKana":"ﾋｶﾞｼﾀｶﾞﾜｸﾞﾝｼｮｳﾅｲﾏﾁ","streetKana":"ﾏｴﾀﾉﾒ","prefecture":"山形県","city":"東田川郡庄内町","street":"前田野目"},{"zipCode":"9997705","prefectureKana":"ﾔﾏｶﾞﾀｹﾝ","cityKana":"ﾋｶﾞｼﾀｶﾞﾜｸﾞﾝｼｮｳﾅｲﾏﾁ","streetKana":"ﾏｷﾞｼﾏ","prefecture":"山形県","city":"東田川郡庄内町","street":"槇島"},{"zipCode":"9997715","prefectureKana":"ﾔﾏｶﾞﾀｹﾝ","cityKana":"ﾋｶﾞｼﾀｶﾞﾜｸﾞﾝｼｮｳﾅｲﾏﾁ","streetKana":"ﾏﾜﾀﾃ","prefecture":"山形県","city":"東田川郡庄内町","street":"廻館"},{"zipCode":"9996602","prefectureKana":"ﾔﾏｶﾞﾀｹﾝ","cityKana":"ﾋｶﾞｼﾀｶﾞﾜｸﾞﾝｼｮｳﾅｲﾏﾁ","streetKana":"ﾐｶｻﾞﾜ","prefecture":"山形県","city":"東田川郡庄内町","street":"三ケ沢"},{"zipCode":"9997733","prefectureKana":"ﾔﾏｶﾞﾀｹﾝ","cityKana":"ﾋｶﾞｼﾀｶﾞﾜｸﾞﾝｼｮｳﾅｲﾏﾁ","streetKana":"ﾐﾅﾐｺｳﾔ","prefecture":"山形県","city":"東田川郡庄内町","street":"南興屋"},{"zipCode":"9997727","prefectureKana":"ﾔﾏｶﾞﾀｹﾝ","cityKana":"ﾋｶﾞｼﾀｶﾞﾜｸﾞﾝｼｮｳﾅｲﾏﾁ","streetKana":"ﾐﾅﾐﾉ","prefecture":"山形県","city":"東田川郡庄内町","street":"南野"},{"zipCode":"9997732","prefectureKana":"ﾔﾏｶﾞﾀｹﾝ","cityKana":"ﾋｶﾞｼﾀｶﾞﾜｸﾞﾝｼｮｳﾅｲﾏﾁ","streetKana":"ﾐﾅﾐﾉｼﾝﾃﾞﾝ","prefecture":"山形県","city":"東田川郡庄内町","street":"南野新田"},{"zipCode":"9997764","prefectureKana":"ﾔﾏｶﾞﾀｹﾝ","cityKana":"ﾋｶﾞｼﾀｶﾞﾜｸﾞﾝｼｮｳﾅｲﾏﾁ","streetKana":"ﾐﾔｿﾈ","prefecture":"山形県","city":"東田川郡庄内町","street":"宮曽根"},{"zipCode":"9997756","prefectureKana":"ﾔﾏｶﾞﾀｹﾝ","cityKana":"ﾋｶﾞｼﾀｶﾞﾜｸﾞﾝｼｮｳﾅｲﾏﾁ","streetKana":"ﾐｮｳｶﾞｾ","prefecture":"山形県","city":"東田川郡庄内町","street":"茗荷瀬"},{"zipCode":"9997744","prefectureKana":"ﾔﾏｶﾞﾀｹﾝ","cityKana":"ﾋｶﾞｼﾀｶﾞﾜｸﾞﾝｼｮｳﾅｲﾏﾁ","streetKana":"ﾓﾄｵﾉｶﾀ","prefecture":"山形県","city":"東田川郡庄内町","street":"本小野方"},{"zipCode":"9997753","prefectureKana":"ﾔﾏｶﾞﾀｹﾝ","cityKana":"ﾋｶﾞｼﾀｶﾞﾜｸﾞﾝｼｮｳﾅｲﾏﾁ","streetKana":"ﾖｼｵｶ","prefecture":"山形県","city":"東田川郡庄内町","street":"吉岡"},{"zipCode":"9997749","prefectureKana":"ﾔﾏｶﾞﾀｹﾝ","cityKana":"ﾋｶﾞｼﾀｶﾞﾜｸﾞﾝｼｮｳﾅｲﾏﾁ","streetKana":"ﾖｼｶﾀ","prefecture":"山形県","city":"東田川郡庄内町","street":"吉方"},{"zipCode":"9997723","prefectureKana":"ﾔﾏｶﾞﾀｹﾝ","cityKana":"ﾋｶﾞｼﾀｶﾞﾜｸﾞﾝｼｮｳﾅｲﾏﾁ","streetKana":"ﾚﾝｼ","prefecture":"山形県","city":"東田川郡庄内町","street":"連枝"},{"zipCode":"9998300","prefectureKana":"ﾔﾏｶﾞﾀｹﾝ","cityKana":"ｱｸﾐｸﾞﾝﾕｻﾞﾏﾁ","streetKana":"ｲｶﾆｹｲｻｲｶﾞﾅｲﾊﾞｱｲ","prefecture":"山形県","city":"飽海郡遊佐町","street":"以下に掲載がない場合"},{"zipCode":"9998436","prefectureKana":"ﾔﾏｶﾞﾀｹﾝ","cityKana":"ｱｸﾐｸﾞﾝﾕｻﾞﾏﾁ","streetKana":"ｲﾜｶﾞﾜ","prefecture":"山形県","city":"飽海郡遊佐町","street":"岩川"},{"zipCode":"9998433","prefectureKana":"ﾔﾏｶﾞﾀｹﾝ","cityKana":"ｱｸﾐｸﾞﾝﾕｻﾞﾏﾁ","streetKana":"ｴｼﾞ","prefecture":"山形県","city":"飽海郡遊佐町","street":"江地"},{"zipCode":"9998315","prefectureKana":"ﾔﾏｶﾞﾀｹﾝ","cityKana":"ｱｸﾐｸﾞﾝﾕｻﾞﾏﾁ","streetKana":"ｵｵﾜﾗﾋﾞｵｶ","prefecture":"山形県","city":"飽海郡遊佐町","street":"大蕨岡"},{"zipCode":"9998311","prefectureKana":"ﾔﾏｶﾞﾀｹﾝ","cityKana":"ｱｸﾐｸﾞﾝﾕｻﾞﾏﾁ","streetKana":"ｵﾊﾗﾀﾞ","prefecture":"山形県","city":"飽海郡遊佐町","street":"小原田"},{"zipCode":"9998312","prefectureKana":"ﾔﾏｶﾞﾀｹﾝ","cityKana":"ｱｸﾐｸﾞﾝﾕｻﾞﾏﾁ","streetKana":"ｶﾉｻﾜ","prefecture":"山形県","city":"飽海郡遊佐町","street":"鹿野沢"},{"zipCode":"9998314","prefectureKana":"ﾔﾏｶﾞﾀｹﾝ","cityKana":"ｱｸﾐｸﾞﾝﾕｻﾞﾏﾁ","streetKana":"ｶﾐﾜﾗﾋﾞｵｶ","prefecture":"山形県","city":"飽海郡遊佐町","street":"上蕨岡"},{"zipCode":"9998522","prefectureKana":"ﾔﾏｶﾞﾀｹﾝ","cityKana":"ｱｸﾐｸﾞﾝﾕｻﾞﾏﾁ","streetKana":"ｷﾀﾒ","prefecture":"山形県","city":"飽海郡遊佐町","street":"北目"},{"zipCode":"9998317","prefectureKana":"ﾔﾏｶﾞﾀｹﾝ","cityKana":"ｱｸﾐｸﾞﾝﾕｻﾞﾏﾁ","streetKana":"ｺﾏﾂ","prefecture":"山形県","city":"飽海郡遊佐町","street":"小松"},{"zipCode":"9998435","prefectureKana":"ﾔﾏｶﾞﾀｹﾝ","cityKana":"ｱｸﾐｸﾞﾝﾕｻﾞﾏﾁ","streetKana":"ｼｮｳｲｽﾞﾐ","prefecture":"山形県","city":"飽海郡遊佐町","street":"庄泉"},{"zipCode":"9998304","prefectureKana":"ﾔﾏｶﾞﾀｹﾝ","cityKana":"ｱｸﾐｸﾞﾝﾕｻﾞﾏﾁ","streetKana":"ｼﾗｲｼﾝﾃﾞﾝ","prefecture":"山形県","city":"飽海郡遊佐町","street":"白井新田"},{"zipCode":"9998431","prefectureKana":"ﾔﾏｶﾞﾀｹﾝ","cityKana":"ｱｸﾐｸﾞﾝﾕｻﾞﾏﾁ","streetKana":"ｽｶﾞｻﾄ(ｼﾞｭｳﾘﾂﾞｶ)","prefecture":"山形県","city":"飽海郡遊佐町","street":"菅里（十里塚）"},{"zipCode":"9998531","prefectureKana":"ﾔﾏｶﾞﾀｹﾝ","cityKana":"ｱｸﾐｸﾞﾝﾕｻﾞﾏﾁ","streetKana":"ｽｶﾞｻﾄ(ｿﾉﾀ)","prefecture":"山形県","city":"飽海郡遊佐町","street":"菅里（その他）"},{"zipCode":"9998313","prefectureKana":"ﾔﾏｶﾞﾀｹﾝ","cityKana":"ｱｸﾐｸﾞﾝﾕｻﾞﾏﾁ","streetKana":"ｽｷﾞｻﾜ","prefecture":"山形県","city":"飽海郡遊佐町","street":"杉沢"},{"zipCode":"9998525","prefectureKana":"ﾔﾏｶﾞﾀｹﾝ","cityKana":"ｱｸﾐｸﾞﾝﾕｻﾞﾏﾁ","streetKana":"ｽｸﾞｾ","prefecture":"山形県","city":"飽海郡遊佐町","street":"直世"},{"zipCode":"9998523","prefectureKana":"ﾔﾏｶﾞﾀｹﾝ","cityKana":"ｱｸﾐｸﾞﾝﾕｻﾞﾏﾁ","streetKana":"ﾄｳﾔﾏ","prefecture":"山形県","city":"飽海郡遊佐町","street":"当山"},{"zipCode":"9998524","prefectureKana":"ﾔﾏｶﾞﾀｹﾝ","cityKana":"ｱｸﾐｸﾞﾝﾕｻﾞﾏﾁ","streetKana":"ﾄﾐｵｶ","prefecture":"山形県","city":"飽海郡遊佐町","street":"富岡"},{"zipCode":"9998316","prefectureKana":"ﾔﾏｶﾞﾀｹﾝ","cityKana":"ｱｸﾐｸﾞﾝﾕｻﾞﾏﾁ","streetKana":"ﾄﾖｵｶ","prefecture":"山形県","city":"飽海郡遊佐町","street":"豊岡"},{"zipCode":"9998303","prefectureKana":"ﾔﾏｶﾞﾀｹﾝ","cityKana":"ｱｸﾐｸﾞﾝﾕｻﾞﾏﾁ","streetKana":"ﾉｻﾞﾜ","prefecture":"山形県","city":"飽海郡遊佐町","street":"野沢"},{"zipCode":"9998438","prefectureKana":"ﾔﾏｶﾞﾀｹﾝ","cityKana":"ｱｸﾐｸﾞﾝﾕｻﾞﾏﾁ","streetKana":"ﾋｺ","prefecture":"山形県","city":"飽海郡遊佐町","street":"比子"},{"zipCode":"9998521","prefectureKana":"ﾔﾏｶﾞﾀｹﾝ","cityKana":"ｱｸﾐｸﾞﾝﾕｻﾞﾏﾁ","streetKana":"ﾌｸﾗ","prefecture":"山形県","city":"飽海郡遊佐町","street":"吹浦"},{"zipCode":"9998437","prefectureKana":"ﾔﾏｶﾞﾀｹﾝ","cityKana":"ｱｸﾐｸﾞﾝﾕｻﾞﾏﾁ","streetKana":"ﾌｼﾞｻｷ","prefecture":"山形県","city":"飽海郡遊佐町","street":"藤崎"},{"zipCode":"9998434","prefectureKana":"ﾔﾏｶﾞﾀｹﾝ","cityKana":"ｱｸﾐｸﾞﾝﾕｻﾞﾏﾁ","streetKana":"ﾏｽﾎ","prefecture":"山形県","city":"飽海郡遊佐町","street":"増穂"},{"zipCode":"9998432","prefectureKana":"ﾔﾏｶﾞﾀｹﾝ","cityKana":"ｱｸﾐｸﾞﾝﾕｻﾞﾏﾁ","streetKana":"ﾐﾔﾀﾞ","prefecture":"山形県","city":"飽海郡遊佐町","street":"宮田"},{"zipCode":"9998301","prefectureKana":"ﾔﾏｶﾞﾀｹﾝ","cityKana":"ｱｸﾐｸﾞﾝﾕｻﾞﾏﾁ","streetKana":"ﾕｻﾞ","prefecture":"山形県","city":"飽海郡遊佐町","street":"遊佐"},{"zipCode":"9998302","prefectureKana":"ﾔﾏｶﾞﾀｹﾝ","cityKana":"ｱｸﾐｸﾞﾝﾕｻﾞﾏﾁ","streetKana":"ﾖｼﾃﾞ","prefecture":"山形県","city":"飽海郡遊佐町","street":"吉出"}]